Origin Time       2024/03/16 06:34:00
Lat.              32.907
Long.             131.047
Depth. (km)       7
Mag.              3.3
Station Code      KMM001
Station Lat.      33.1211
Station Long.     131.0689
Station Height(m) 430
Record Time       2024/03/16 06:34:41
Sampling Freq(Hz) 100Hz
Duration Time(s)  60
Dir.              U-D
Scale Factor      7845(gal)/8223790
Max. Acc. (gal)   0.447
Last Correction   2024/03/16 06:34:41
Memo.             
  -11557   -11558   -11558   -11556   -11556   -11557   -11558   -11557 
  -11557   -11558   -11557   -11557   -11560   -11558   -11556   -11558 
  -11558   -11557   -11557   -11558   -11558   -11557   -11560   -11558 
  -11556   -11554   -11556   -11558   -11557   -11556   -11558   -11556 
  -11554   -11557   -11558   -11557   -11558   -11558   -11556   -11558 
  -11558   -11554   -11554   -11557   -11557   -11557   -11558   -11557 
  -11557   -11558   -11556   -11557   -11562   -11560   -11557   -11560 
  -11557   -11556   -11560   -11558   -11554   -11557   -11557   -11557 
  -11557   -11557   -11556   -11556   -11557   -11558   -11558   -11557 
  -11557   -11560   -11558   -11554   -11557   -11560   -11557   -11554 
  -11557   -11560   -11556   -11556   -11558   -11554   -11553   -11556 
  -11557   -11557   -11557   -11558   -11558   -11556   -11556   -11557 
  -11554   -11554   -11558   -11557   -11553   -11557   -11558   -11558 
  -11560   -11558   -11557   -11558   -11560   -11560   -11558   -11556 
  -11556   -11557   -11556   -11557   -11560   -11558   -11556   -11558 
  -11558   -11554   -11560   -11562   -11556   -11556   -11560   -11556 
  -11556   -11562   -11561   -11557   -11556   -11556   -11558   -11557 
  -11554   -11556   -11558   -11558   -11558   -11558   -11556   -11556 
  -11558   -11560   -11558   -11558   -11558   -11560   -11560   -11557 
  -11556   -11560   -11558   -11554   -11557   -11560   -11560   -11558 
  -11558   -11560   -11558   -11557   -11557   -11558   -11558   -11556 
  -11556   -11557   -11557   -11557   -11556   -11560   -11560   -11556 
  -11556   -11558   -11558   -11558   -11560   -11558   -11556   -11558 
  -11560   -11556   -11556   -11560   -11560   -11557   -11560   -11560 
  -11557   -11558   -11557   -11554   -11557   -11558   -11557   -11557 
  -11560   -11560   -11561   -11560   -11556   -11556   -11557   -11558 
  -11558   -11558   -11557   -11561   -11560   -11556   -11558   -11557 
  -11554   -11556   -11558   -11557   -11554   -11558   -11562   -11560 
  -11558   -11557   -11557   -11558   -11558   -11558   -11558   -11556 
  -11557   -11560   -11557   -11556   -11560   -11558   -11553   -11557 
  -11561   -11556   -11554   -11560   -11561   -11558   -11557   -11560 
  -11558   -11556   -11556   -11557   -11557   -11557   -11561   -11560 
  -11554   -11556   -11557   -11554   -11556   -11558   -11557   -11553 
  -11554   -11560   -11558   -11556   -11558   -11557   -11556   -11558 
  -11558   -11557   -11557   -11556   -11557   -11557   -11556   -11558 
  -11561   -11557   -11556   -11558   -11560   -11557   -11556   -11556 
  -11558   -11558   -11558   -11558   -11560   -11560   -11558   -11558 
  -11557   -11557   -11557   -11557   -11558   -11558   -11557   -11557 
  -11558   -11561   -11560   -11554   -11557   -11561   -11558   -11557 
  -11556   -11554   -11557   -11560   -11557   -11557   -11558   -11557 
  -11556   -11558   -11557   -11556   -11556   -11557   -11560   -11558 
  -11556   -11557   -11556   -11553   -11556   -11556   -11557   -11557 
  -11556   -11554   -11557   -11557   -11557   -11560   -11557   -11553 
  -11554   -11554   -11557   -11556   -11554   -11558   -11558   -11553 
  -11558   -11562   -11557   -11557   -11562   -11561   -11554   -11556 
  -11557   -11556   -11556   -11557   -11557   -11558   -11560   -11558 
  -11554   -11556   -11556   -11557   -11558   -11556   -11556   -11562 
  -11561   -11554   -11556   -11558   -11558   -11556   -11557   -11560 
  -11556   -11554   -11557   -11558   -11557   -11556   -11560   -11557 
  -11553   -11556   -11556   -11553   -11556   -11558   -11558   -11557 
  -11560   -11557   -11554   -11558   -11558   -11557   -11556   -11556 
  -11558   -11556   -11556   -11558   -11560   -11557   -11554   -11557 
  -11558   -11557   -11556   -11556   -11557   -11558   -11557   -11557 
  -11561   -11557   -11553   -11557   -11557   -11557   -11557   -11556 
  -11556   -11557   -11557   -11557   -11557   -11556   -11556   -11556 
  -11556   -11557   -11558   -11557   -11556   -11556   -11556   -11554 
  -11556   -11557   -11557   -11557   -11556   -11556   -11558   -11557 
  -11554   -11556   -11557   -11557   -11558   -11557   -11554   -11554 
  -11558   -11558   -11557   -11557   -11557   -11556   -11556   -11554 
  -11557   -11557   -11556   -11554   -11556   -11557   -11556   -11557 
  -11560   -11557   -11554   -11556   -11557   -11557   -11554   -11554 
  -11557   -11558   -11557   -11557   -11558   -11557   -11557   -11558 
  -11557   -11557   -11556   -11556   -11557   -11556   -11557   -11557 
  -11558   -11558   -11556   -11557   -11557   -11557   -11558   -11557 
  -11554   -11557   -11558   -11557   -11556   -11557   -11557   -11557 
  -11557   -11557   -11557   -11554   -11554   -11558   -11556   -11556 
  -11561   -11560   -11556   -11556   -11557   -11558   -11558   -11561 
  -11561   -11556   -11554   -11558   -11558   -11557   -11558   -11560 
  -11557   -11558   -11560   -11556   -11557   -11558   -11557   -11554 
  -11556   -11557   -11556   -11556   -11558   -11560   -11558   -11557 
  -11556   -11556   -11558   -11560   -11554   -11556   -11562   -11560 
  -11556   -11556   -11554   -11557   -11561   -11558   -11556   -11557 
  -11558   -11558   -11557   -11557   -11557   -11558   -11560   -11558 
  -11558   -11558   -11558   -11556   -11556   -11558   -11558   -11557 
  -11558   -11560   -11558   -11557   -11556   -11556   -11558   -11558 
  -11557   -11557   -11556   -11556   -11557   -11558   -11557   -11558 
  -11557   -11554   -11557   -11558   -11556   -11554   -11557   -11560 
  -11557   -11557   -11560   -11558   -11556   -11556   -11557   -11556 
  -11556   -11558   -11556   -11556   -11558   -11557   -11556   -11558 
  -11561   -11558   -11557   -11557   -11557   -11556   -11558   -11558 
  -11556   -11557   -11558   -11560   -11558   -11556   -11556   -11557 
  -11558   -11557   -11554   -11556   -11557   -11556   -11556   -11558 
  -11557   -11554   -11556   -11554   -11554   -11558   -11557   -11553 
  -11556   -11556   -11556   -11558   -11558   -11556   -11553   -11554 
  -11556   -11558   -11560   -11554   -11554   -11557   -11556   -11556 
  -11558   -11557   -11556   -11558   -11557   -11556   -11557   -11556 
  -11556   -11558   -11557   -11560   -11562   -11556   -11554   -11560 
  -11557   -11554   -11557   -11558   -11558   -11557   -11557   -11557 
  -11557   -11554   -11556   -11558   -11557   -11554   -11556   -11557 
  -11557   -11558   -11560   -11560   -11557   -11557   -11557   -11556 
  -11557   -11560   -11557   -11554   -11558   -11557   -11556   -11558 
  -11558   -11556   -11558   -11558   -11556   -11556   -11557   -11558 
  -11556   -11556   -11560   -11557   -11556   -11560   -11558   -11556 
  -11560   -11561   -11554   -11557   -11560   -11553   -11556   -11560 
  -11557   -11556   -11556   -11558   -11560   -11558   -11557   -11557 
  -11558   -11561   -11557   -11554   -11557   -11556   -11556   -11558 
  -11558   -11557   -11558   -11557   -11554   -11556   -11558   -11558 
  -11554   -11556   -11560   -11557   -11554   -11558   -11560   -11554 
  -11554   -11558   -11558   -11557   -11556   -11560   -11561   -11556 
  -11556   -11561   -11556   -11553   -11562   -11560   -11551   -11556 
  -11562   -11556   -11553   -11558   -11557   -11554   -11560   -11560 
  -11556   -11556   -11557   -11558   -11560   -11556   -11554   -11557 
  -11558   -11557   -11556   -11556   -11554   -11558   -11558   -11556 
  -11554   -11556   -11558   -11557   -11554   -11556   -11558   -11556 
  -11556   -11558   -11558   -11556   -11554   -11557   -11560   -11558 
  -11558   -11557   -11557   -11557   -11557   -11556   -11557   -11558 
  -11560   -11560   -11558   -11557   -11557   -11556   -11557   -11561 
  -11557   -11554   -11556   -11557   -11558   -11558   -11557   -11558 
  -11558   -11554   -11556   -11560   -11558   -11558   -11560   -11556 
  -11554   -11561   -11558   -11553   -11556   -11558   -11556   -11557 
  -11557   -11557   -11557   -11557   -11556   -11558   -11558   -11554 
  -11557   -11560   -11558   -11557   -11556   -11556   -11557   -11558 
  -11558   -11554   -11556   -11558   -11557   -11557   -11558   -11553 
  -11554   -11560   -11560   -11556   -11554   -11554   -11553   -11553 
  -11554   -11556   -11557   -11556   -11557   -11557   -11556   -11557 
  -11560   -11560   -11556   -11554   -11554   -11554   -11553   -11554 
  -11558   -11557   -11553   -11558   -11560   -11556   -11558   -11560 
  -11556   -11558   -11558   -11554   -11557   -11558   -11554   -11557 
  -11556   -11553   -11556   -11558   -11557   -11554   -11554   -11556 
  -11556   -11554   -11556   -11557   -11557   -11556   -11556   -11556 
  -11557   -11556   -11556   -11556   -11556   -11557   -11557   -11560 
  -11561   -11558   -11556   -11558   -11558   -11556   -11556   -11560 
  -11556   -11551   -11557   -11558   -11554   -11556   -11558   -11556 
  -11556   -11556   -11556   -11556   -11556   -11557   -11558   -11557 
  -11556   -11556   -11556   -11557   -11557   -11556   -11557   -11561 
  -11558   -11554   -11560   -11561   -11556   -11553   -11556   -11556 
  -11560   -11561   -11556   -11553   -11558   -11558   -11556   -11557 
  -11556   -11556   -11560   -11558   -11554   -11556   -11557   -11556 
  -11554   -11556   -11557   -11556   -11557   -11558   -11560   -11558 
  -11556   -11558   -11558   -11557   -11560   -11558   -11557   -11560 
  -11556   -11554   -11560   -11558   -11554   -11557   -11558   -11556 
  -11557   -11557   -11554   -11557   -11558   -11560   -11558   -11556 
  -11558   -11561   -11556   -11553   -11556   -11557   -11557   -11557 
  -11558   -11558   -11556   -11557   -11554   -11556   -11558   -11557 
  -11556   -11557   -11558   -11558   -11557   -11556   -11557   -11558 
  -11558   -11557   -11557   -11556   -11557   -11560   -11557   -11556 
  -11558   -11557   -11554   -11557   -11558   -11554   -11556   -11557 
  -11557   -11558   -11558   -11558   -11556   -11556   -11558   -11557 
  -11557   -11558   -11557   -11558   -11560   -11556   -11556   -11557 
  -11556   -11558   -11556   -11554   -11560   -11558   -11554   -11558 
  -11560   -11557   -11558   -11558   -11554   -11554   -11557   -11557 
  -11556   -11557   -11560   -11558   -11556   -11556   -11558   -11558 
  -11558   -11557   -11557   -11557   -11557   -11560   -11558   -11556 
  -11558   -11560   -11557   -11558   -11560   -11558   -11556   -11556 
  -11557   -11560   -11558   -11557   -11560   -11560   -11556   -11557 
  -11557   -11557   -11558   -11558   -11556   -11556   -11556   -11549 
  -11542   -11541   -11542   -11541   -11526   -11507   -11515   -11542 
  -11541   -11499   -11449   -11431   -11462   -11512   -11524   -11497 
  -11487   -11491   -11519   -11641   -11821   -11905   -11820   -11692 
  -11686   -11770   -11746   -11576   -11415   -11367   -11426   -11549 
  -11585   -11506   -11556   -11761   -11772   -11502   -11302   -11415 
  -11655   -11682   -11502   -11443   -11604   -11718   -11637   -11518 
  -11543   -11658   -11591   -11284   -11130   -11371   -11653   -11589 
  -11357   -11398   -11713   -11862   -11664   -11458   -11493   -11580 
  -11520   -11414   -11435   -11610   -11785   -11743   -11522   -11484 
  -11800   -12025   -11701   -11198   -11206   -11600   -11692   -11372 
  -11190   -11446   -11757   -11678   -11469   -11573   -11789   -11723 
  -11496   -11434   -11522   -11538   -11485   -11527   -11624   -11645 
  -11593   -11489   -11398   -11456   -11568   -11492   -11311   -11319 
  -11488   -11570   -11549   -11551   -11605   -11680   -11695   -11610 
  -11581   -11695   -11745   -11624   -11533   -11618   -11711   -11632 
  -11539   -11600   -11649   -11557   -11453   -11442   -11507   -11581 
  -11574   -11508   -11523   -11635   -11685   -11628   -11600   -11641 
  -11662   -11620   -11515   -11431   -11489   -11588   -11526   -11376 
  -11389   -11566   -11623   -11473   -11411   -11599   -11712   -11539 
  -11425   -11573   -11669   -11561   -11464   -11469   -11510   -11565 
  -11620   -11641   -11634   -11645   -11674   -11643   -11531   -11488 
  -11581   -11605   -11475   -11419   -11520   -11592   -11546   -11488 
  -11475   -11415   -11333   -11410   -11556   -11507   -11431   -11610 
  -11797   -11740   -11661   -11708   -11704   -11572   -11442   -11457 
  -11593   -11646   -11557   -11519   -11592   -11672   -11711   -11658 
  -11581   -11619   -11635   -11503   -11450   -11566   -11605   -11529 
  -11502   -11546   -11619   -11631   -11492   -11354   -11408   -11550 
  -11533   -11360   -11311   -11477   -11611   -11574   -11504   -11518 
  -11561   -11553   -11506   -11491   -11542   -11639   -11697   -11645 
  -11603   -11726   -11844   -11730   -11535   -11515   -11616   -11620 
  -11477   -11389   -11523   -11674   -11618   -11527   -11558   -11561 
  -11497   -11497   -11542   -11543   -11512   -11469   -11407   -11410 
  -11550   -11700   -11696   -11614   -11615   -11658   -11631   -11526 
  -11365   -11246   -11335   -11564   -11643   -11560   -11588   -11772 
  -11815   -11569   -11318   -11369   -11550   -11534   -11425   -11496 
  -11682   -11750   -11661   -11616   -11678   -11638   -11514   -11535 
  -11581   -11516   -11546   -11719   -11766   -11604   -11515   -11638 
  -11668   -11457   -11331   -11438   -11519   -11507   -11561   -11618 
  -11560   -11502   -11514   -11465   -11348   -11349   -11454   -11483 
  -11499   -11622   -11697   -11574   -11368   -11313   -11453   -11570 
  -11570   -11624   -11766   -11821   -11777   -11723   -11637   -11522 
  -11489   -11570   -11637   -11604   -11584   -11645   -11635   -11520 
  -11470   -11533   -11611   -11649   -11645   -11620   -11583   -11518 
  -11448   -11421   -11383   -11302   -11345   -11534   -11608   -11543 
  -11591   -11749   -11832   -11842   -11792   -11650   -11565   -11604 
  -11533   -11303   -11222   -11403   -11551   -11475   -11396   -11520 
  -11659   -11591   -11434   -11443   -11584   -11622   -11511   -11423 
  -11484   -11581   -11550   -11462   -11481   -11603   -11708   -11718 
  -11665   -11676   -11750   -11736   -11620   -11558   -11564   -11535 
  -11526   -11603   -11676   -11662   -11585   -11487   -11423   -11442 
  -11475   -11434   -11400   -11487   -11668   -11811   -11840   -11861 
  -11886   -11761   -11550   -11427   -11329   -11276   -11358   -11414 
  -11350   -11329   -11418   -11491   -11460   -11454   -11604   -11732 
  -11653   -11523   -11558   -11677   -11604   -11314   -11214   -11461 
  -11623   -11529   -11514   -11665   -11777   -11776   -11765   -11796 
  -11759   -11611   -11508   -11500   -11476   -11418   -11352   -11307 
  -11372   -11500   -11512   -11462   -11604   -11848   -11836   -11611 
  -11549   -11684   -11716   -11591   -11541   -11653   -11723   -11626 
  -11550   -11653   -11727   -11584   -11446   -11492   -11530   -11457 
  -11435   -11516   -11585   -11587   -11560   -11523   -11437   -11330 
  -11341   -11423   -11423   -11439   -11564   -11653   -11668   -11712 
  -11740   -11631   -11442   -11348   -11385   -11434   -11457   -11560 
  -11728   -11772   -11685   -11681   -11772   -11746   -11589   -11522 
  -11592   -11591   -11479   -11421   -11407   -11360   -11313   -11340 
  -11449   -11534   -11518   -11535   -11659   -11758   -11817   -11855 
  -11769   -11674   -11719   -11691   -11485   -11360   -11429   -11529 
  -11527   -11492   -11538   -11618   -11619   -11588   -11566   -11462 
  -11348   -11411   -11527   -11469   -11394   -11472   -11507   -11422 
  -11395   -11418   -11425   -11466   -11496   -11516   -11587   -11597 
  -11524   -11547   -11709   -11853   -11834   -11730   -11739   -11834 
  -11835   -11790   -11804   -11781   -11695   -11678   -11676   -11584 
  -11543   -11589   -11558   -11472   -11449   -11445   -11406   -11354 
  -11319   -11340   -11388   -11371   -11313   -11340   -11426   -11441 
  -11433   -11503   -11543   -11510   -11534   -11570   -11526   -11530 
  -11620   -11645   -11624   -11676   -11736   -11701   -11608   -11587 
  -11642   -11628   -11549   -11572   -11641   -11604   -11564   -11615 
  -11632   -11578   -11564   -11576   -11529   -11469   -11450   -11454 
  -11477   -11484   -11485   -11564   -11646   -11608   -11550   -11580 
  -11604   -11557   -11489   -11475   -11543   -11635   -11650   -11589 
  -11568   -11659   -11734   -11653   -11550   -11574   -11619   -11581 
  -11514   -11476   -11475   -11481   -11475   -11476   -11481   -11466 
  -11480   -11535   -11558   -11542   -11545   -11560   -11550   -11508 
  -11485   -11533   -11570   -11533   -11487   -11479   -11526   -11596 
  -11604   -11622   -11707   -11701   -11603   -11610   -11653   -11561 
  -11488   -11580   -11680   -11699   -11731   -11749   -11689   -11616 
  -11577   -11533   -11469   -11434   -11456   -11473   -11448   -11462 
  -11526   -11507   -11421   -11435   -11511   -11470   -11387   -11435 
  -11531   -11520   -11492   -11543   -11564   -11526   -11573   -11693 
  -11711   -11627   -11615   -11709   -11735   -11605   -11515   -11591 
  -11649   -11581   -11546   -11605   -11592   -11472   -11421   -11484 
  -11492   -11398   -11377   -11506   -11608   -11561   -11530   -11626 
  -11661   -11580   -11583   -11658   -11662   -11639   -11642   -11619 
  -11592   -11637   -11681   -11626   -11568   -11608   -11634   -11533 
  -11411   -11431   -11526   -11476   -11329   -11335   -11462   -11484 
  -11439   -11466   -11533   -11566   -11553   -11511   -11518   -11608 
  -11688   -11689   -11651   -11635   -11647   -11643   -11581   -11545 
  -11608   -11657   -11574   -11488   -11510   -11530   -11491   -11512 
  -11591   -11611   -11597   -11585   -11518   -11457   -11487   -11518 
  -11516   -11541   -11566   -11569   -11591   -11597   -11538   -11484 
  -11504   -11542   -11527   -11503   -11547   -11622   -11597   -11512 
  -11504   -11554   -11568   -11569   -11612   -11650   -11641   -11612 
  -11588   -11580   -11593   -11589   -11569   -11585   -11632   -11643 
  -11574   -11484   -11480   -11564   -11596   -11539   -11541   -11638 
  -11649   -11551   -11514   -11539   -11515   -11464   -11452   -11472 
  -11488   -11487   -11492   -11524   -11534   -11499   -11466   -11452 
  -11462   -11516   -11570   -11595   -11623   -11646   -11635   -11615 
  -11623   -11639   -11646   -11642   -11610   -11569   -11580   -11631 
  -11657   -11631   -11583   -11557   -11570   -11577   -11549   -11518 
  -11492   -11496   -11553   -11580   -11554   -11568   -11611   -11610 
  -11603   -11624   -11614   -11560   -11534   -11556   -11581   -11583 
  -11561   -11526   -11491   -11458   -11441   -11466   -11506   -11508 
  -11519   -11554   -11529   -11453   -11426   -11445   -11441   -11429 
  -11466   -11520   -11526   -11519   -11546   -11560   -11546   -11547 
  -11561   -11557   -11549   -11539   -11530   -11553   -11612   -11637 
  -11622   -11634   -11665   -11664   -11661   -11674   -11664   -11651 
  -11664   -11634   -11568   -11560   -11615   -11622   -11570   -11570 
  -11638   -11649   -11561   -11488   -11512   -11554   -11538   -11529 
  -11558   -11558   -11508   -11475   -11493   -11516   -11483   -11418 
  -11416   -11461   -11462   -11464   -11511   -11538   -11541   -11573 
  -11622   -11650   -11650   -11637   -11642   -11642   -11597   -11546 
  -11546   -11561   -11565   -11560   -11533   -11520   -11572   -11619 
