Origin Time       2024/03/16 06:34:00
Lat.              32.907
Long.             131.047
Depth. (km)       7
Mag.              3.3
Station Code      KMM001
Station Lat.      33.1211
Station Long.     131.0689
Station Height(m) 430
Record Time       2024/03/16 06:34:41
Sampling Freq(Hz) 100Hz
Duration Time(s)  60
Dir.              E-W
Scale Factor      7845(gal)/8223790
Max. Acc. (gal)   2.516
Last Correction   2024/03/16 06:34:41
Memo.             
[...]
    4488     4487     4491     4487     4483     4487     4490     4484 
    4487     4491     4487     4486     4484     4482     4483     4490 
    4495     4491     4486     4487     4487     4486     4484     4488 
    4490     4487     4488     4491     4488     4487     4488     4486 
    4483     4487     4486     4486     4494     4490     4482     4486 
    4490     4487     4488     4488     4484     4488     4490     4486 
    4490     4491     4483     4484     4488     4487     4488     4487 
    4486     4490     4487     4486     4490     4488     4487     4490 
    4487     4486     4488     4484     4483     4487     4486     4483 
    4488     4495     4488     4480     4487     4491     4482     4487 
    4492     4483     4483     4490     4488     4486     4487     4488 
    4488     4486     4488     4491     4484     4482     4491     4494 
    4488     4487     4487     4484     4486     4491     4490     4487 
    4491     4486     4480     4488     4494     4491     4487     4484 
    4484     4488     4491     4488     4483     4484     4488     4488 
    4486     4486     4487     4483     4482     4492     4492     4486 
    4488     4488     4484     4484     4487     4487     4487     4487 
    4488     4487     4487     4486     4483     4484     4490     4491 
    4490     4483     4482     4490     4490     4488     4490     4488 
    4484     4488     4487     4483     4488     4494     4488     4486 
    4488     4488     4488     4487     4486     4491     4491     4483 
    4483     4484     4484     4488     4491     4487     4487     4487 
    4484     4483     4486     4486     4487     4488     4488     4487 
    4488     4486     4486     4490     4486     4484     4491     4488 
    4480     4486     4491     4486     4488     4492     4488     4487 
    4486     4484     4486     4490     4490     4488     4488     4488 
    4487     4483     4483     4486     4490     4488     4487     4488 
    4486     4486     4490     4488     4484     4486     4488     4486 
    4487     4487     4484     4484     4484     4484     4488     4488 
    4484     4487     4491     4488     4484     4483     4484     4488 
    4488     4486     4486     4487     4490     4490     4482     4480 
    4488     4491     4487     4488     4492     4486     4482     4486 
    4486     4484     4492     4495     4486     4483     4487     4487 
    4488     4490     4487     4488     4490     4484     4486     4487 
    4487     4487     4484     4487     4490     4483     4482     4491 
    4487     4480     4488     4491     4488     4490     4487     4482 
    4484     4488     4488     4487     4486     4486     4488     4490 
    4488     4484     4486     4491     4492     4486     4480     4483 
    4487     4487     4484     4486     4488     4486     4484     4487 
    4486     4484     4490     4494     4488     4484     4486     4487 
    4490     4490     4488     4490     4491     4491     4484     4480 
    4486     4490     4486     4487     4491     4491     4487     4480 
    4479     4490     4494     4484     4486     4492     4491     4488 
    4487     4484     4483     4490     4490     4483     4486     4488 
    4484     4487     4487     4487     4490     4487     4480     4483 
    4488     4491     4491     4486     4482     4484     4488     4486 
    4484     4488     4488     4486     4484     4486     4486     4486 
    4487     4488     4490     4486     4482     4483     4484     4490 
    4494     4488     4484     4487     4486     4483     4488     4491 
    4486     4486     4487     4484     4484     4487     4488     4488 
    4486     4486     4487     4487     4484     4484     4484     4483 
    4486     4487     4484     4484     4487     4486     4488     4491 
    4487     4484     4488     4490     4486     4486     4486     4482 
    4484     4490     4490     4488     4486     4486     4487     4487 
    4488     4487     4483     4484     4486     4483     4487     4491 
    4486     4484     4488     4487     4486     4490     4488     4486 
    4487     4488     4487     4486     4484     4484     4490     4494 
    4487     4482     4486     4487     4483     4483     4484     4486 
    4486     4486     4488     4488     4486     4484     4487     4490 
    4490     4488     4488     4488     4486     4486     4491     4494 
    4486     4482     4486     4490     4486     4484     4492     4490 
    4486     4486     4486     4484     4483     4488     4495     4494 
    4486     4482     4486     4491     4490     4486     4488     4491 
    4484     4480     4487     4491     4487     4484     4487     4488 
    4487     4484     4488     4491     4488     4486     4483     4483 
    4487     4488     4488     4491     4488     4484     4488     4491 
    4488     4486     4486     4488     4490     4484     4483     4490 
    4492     4487     4482     4484     4487     4491     4491     4487 
    4490     4486     4480     4486     4492     4488     4486     4487 
    4486     4487     4488     4486     4484     4487     4487     4486 
    4487     4488     4487     4484     4488     4490     4484     4487 
    4492     4488     4484     4487     4488     4486     4487     4488 
    4484     4484     4490     4490     4487     4488     4488     4483 
    4484     4490     4487     4486     4487     4484     4491     4494 
    4487     4486     4487     4484     4487     4490     4487     4486 
    4488     4490     4488     4487     4487     4487     4486     4484 
    4486     4486     4488     4491     4488     4486     4486     4486 
    4484     4488     4492     4490     4486     4482     4483     4486 
    4487     4487     4487     4484     4483     4486     4488     4488 
    4486     4487     4487     4486     4487     4487     4483     4486 
    4490     4490     4488     4486     4484     4484     4487     4488 
    4486     4487     4490     4488     4487     4486     4484     4487 
    4490     4491     4486     4480     4484     4494     4491     4482 
    4479     4484     4490     4492     4486     4482     4487     4488 
    4486     4486     4486     4490     4491     4486     4483     4488 
    4488     4484     4484     4486     4488     4492     4488     4479 
    4482     4488     4486     4486     4491     4488     4486     4490 
    4486     4482     4486     4486     4487     4487     4487     4494 
    4492     4482     4484     4488     4475     4479     4500     4495 
    4484     4487     4483     4483     4487     4484     4492     4499 
    4488     4482     4484     4483     4482     4483     4488     4498 
    4500     4483     4472     4480     4491     4494     4492     4488 
    4486     4483     4484     4491     4491     4486     4486     4487 
    4487     4483     4486     4490     4484     4483     4486     4482 
    4486     4492     4490     4487     4487     4479     4476     4487 
    4495     4494     4486     4480     4484     4487     4484     4486 
    4491     4492     4486     4482     4484     4488     4486     4486 
    4491     4490     4486     4483     4482     4484     4487     4488 
    4488     4487     4487     4484     4486     4491     4490     4487 
    4490     4488     4483     4486     4491     4488     4484     4486 
    4486     4486     4488     4487     4482     4483     4490     4488 
    4484     4488     4488     4486     4487     4484     4484     4488 
    4491     4490     4487     4486     4487     4488     4488     4488 
    4488     4483     4482     4488     4488     4488     4491     4487 
    4483     4488     4488     4486     4487     4488     4487     4488 
    4490     4487     4486     4486     4483     4484     4487     4487 
    4488     4488     4487     4486     4483     4484     4491     4490 
    4482     4482     4487     4488     4490     4488     4487     4488 
    4487     4483     4488     4492     4484     4482     4488     4490 
    4486     4486     4488     4488     4484     4486     4490     4487 
    4482     4484     4491     4490     4484     4488     4490     4486 
    4486     4490     4487     4487     4487     4487     4491     4490 
    4483     4484     4486     4486     4487     4490     4488     4487 
    4484     4483     4484     4487     4487     4487     4487     4490 
    4490     4484     4487     4490     4487     4484     4487     4490 
    4483     4483     4490     4487     4483     4486     4488     4486 
    4486     4490     4490     4487     4487     4487     4486     4487 
    4488     4486     4486     4487     4488     4488     4483     4486 
    4492     4488     4482     4483     4491     4491     4482     4479 
    4488     4491     4483     4484     4491     4488     4484     4486 
    4486     4488     4492     4487     4482     4487     4487     4486 
    4490     4488     4483     4488     4492     4486     4482     4486 
    4488     4490     4488     4484     4486     4490     4488     4486 
    4486     4487     4488     4487     4486     4488     4487     4483 
    4487     4488     4482     4484     4494     4490     4486     4491 
    4486     4480     4488     4492     4486     4486     4488     4486 
    4486     4486     4487     4487     4486     4484     4488     4488 
    4486     4487     4486     4484     4488     4490     4487     4488 
    4490     4488     4490     4490     4486     4483     4484     4487 
    4491     4488     4486     4490     4487     4480     4484     4492 
    4487     4484     4492     4488     4480     4484     4490     4488 
    4487     4488     4491     4488     4484     4486     4487     4488 
    4490     4491     4487     4482     4486     4491     4490     4488 
    4484     4483     4490     4492     4486     4484     4490     4488 
    4486     4490     4488     4484     4483     4486     4490     4488 
    4484     4487     4490     4488     4488     4490     4486     4484 
    4490     4488     4486     4486     4484     4484     4490     4488 
    4480     4484     4492     4488     4487     4488     4486     4487 
    4490     4486     4484     4487     4484     4486     4487     4486 
    4484     4486     4486     4488     4488     4484     4484     4487 
    4487     4484     4487     4488     4487     4487     4486     4486 
    4491     4490     4484     4486     4487     4484     4488     4491 
    4488     4490     4486     4482     4488     4499     4496     4480 
    4465     4467     4491     4514     4509     4486     4465     4457 
    4465     4492     4526     4536     4492     4421     4401     4457 
    4518     4529     4527     4537     4544     4525     4477     4444 
    4440     4414     4338     4287     4348     4510     4669     4708 
    4626     4565     4598     4615     4525     4426     4449     4514 
    4476     4368     4329     4392     4445     4394     4318     4396 
    4585     4652     4546     4445     4468     4544     4564     4553 
    4596     4653     4594     4428     4314     4375     4519     4514 
    4336     4232     4344     4552     4654     4602     4556     4617 
    4622     4457     4288     4337     4536     4591     4457     4405 
    4517     4594     4560     4549     4592     4557     4409     4294 
    4334     4472     4511     4390     4302     4380     4511     4563 
    4541     4503     4517     4592     4625     4568     4526     4510 
    4433     4330     4359     4560     4733     4675     4484     4364 
    4349     4364     4369     4423     4553     4603     4500     4403 
    4440     4565     4639     4584     4482     4392     4328     4353 
    4472     4595     4685     4706     4617     4488     4414     4379 
    4320     4271     4313     4433     4553     4580     4523     4518 
    4573     4558     4465     4432     4507     4567     4525     4475 
    4492     4490     4413     4371     4418     4468     4511     4579 
    4591     4552     4577     4639     4611     4487     4384     4334 
    4303     4334     4442     4522     4513     4480     4492     4530 
    4554     4558     4560     4544     4452     4353     4382     4463 
    4461     4425     4429     4479     4519     4499     4500     4544 
    4519     4468     4502     4548     4515     4448     4421     4471 
    4560     4581     4487     4375     4359     4406     4402     4398 
    4513     4642     4649     4610     4608     4627     4611     4502 
    4379     4378     4486     4564     4502     4369     4328     4403 
    4484     4492     4482     4513     4523     4455     4376     4396 
    4518     4598     4550     4488     4495     4542     4581     4553 
    4468     4419     4415     4403     4445     4588     4702     4666 
    4517     4356     4260     4251     4315     4387     4391     4410 
    4519     4641     4712     4716     4660     4577     4453     4322 
    4294     4386     4502     4518     4469     4511     4644     4681 
    4542     4384     4369     4434     4434     4421     4498     4581 
    4569     4514     4473     4448     4464     4510     4515     4494 
    4490     4494     4534     4595     4563     4496     4525     4561 
    4523     4510     4560     4533     4368     4218     4193     4189 
    4174     4283     4504     4685     4816     4895     4781     4538 
    4392     4329     4253     4264     4421     4610     4746     4812 
    4765     4606     4418     4247     4151     4226     4436     4688 
    4914     4989     4869     4684     4534     4448     4475     4612 
    4815     5140     5618     6018     5973     5297     4117     2847 
    2008     1849     2239     2918     3600     4027     4172     4299 
    4654     5139     5491     5575     5359     4942     4541     4278 
    4197     4372     4712     4907     4807     4639     4677     4951 
    5337     5694     5826     5479     4619     3561     2679     2227 
    2332     2938     3802     4639     5212     5397     5251     4996 
    4803     4676     4614     4665     4769     4757     4560     4288 
    4118     4174     4440     4808     5158     5366     5325     5035 
    4565     4059     3743     3731     3890     4097     4330     4473 
    4418     4276     4205     4291     4540     4880     5213     5393 
    5332     5109     4738     4218     3866     3952     4287     4583 
    4787     4926     4953     4791     4453     4110     3881     3750 
    3755     3975     4321     4541     4525     4450     4546     4783 
    4954     5020     5065     5028     4847     4581     4321     4151 
    4081     4039     3997     4059     4267     4465     4561     4602 
    4545     4326     4098     4068     4234     4487     4747     4973 
    5086     5001     4754     4503     4372     4347     4356     4410 
    4542     4688     4730     4639     4483     4340     4266     4267 
    4274     4202     4110     4126     4251     4441     4698     4885 
    4819     4549     4314     4259     4364     4623     5022     5391 
    5536     5404     5067     4649     4210     3824     3666     3769 
    3969     4198     4413     4472     4379     4259     4162     4108 
    4109     4144     4197     4268     4374     4476     4506     4472 
    4423     4425     4492     4506     4444     4410     4405     4418 
    4549     4818     5085     5178     5027     4699     4336     4067 
    3997     4122     4278     4394     4549     4715     4810     4847 
    4845     4770     4611     4448     4417     4568     4810     4969 
    4977     4900     4762     4604     4510     4490     4492     4441 
    4352     4326     4368     4425     4473     4482     4436     4332 
    4194     4109     4128     4245     4401     4477     4471     4449 
    4419     4448     4553     4615     4654     4753     4752     4587 
    4469     4467     4425     4322     4298     4386     4513     4649 
    4764     4811     4814     4758     4621     4450     4278     4101 
    3989     3991     4112     4298     4421     4455     4488     4519 
    4488     4419     4352     4260     4140     4113     4248     4405 
    4488     4575     4687     4776     4814     4791     4742     4707 
    4652     4584     4573     4594     4564     4504     4442     4430 
    4552     4745     4860     4831     4662     4425     4251     4237 
    4386     4598     4762     4830     4780     4623     4428     4255 
    4129     4098     4178     4311     4460     4565     4537     4411 
    4295     4199     4153     4224     4352     4457     4509     4498 
    4479     4467     4384     4245     4185     4267     4417     4542 
    4637     4700     4691     4627     4576     4514     4418     4379 
    4444     4584     4764     4888     4884     4801     4707     4611 
    4534     4473     4433     4457     4537     4576     4545     4486 
    4409     4349     4401     4568     4727     4769     4677     4480 
    4251     4139     4222     4390     4561     4745     4845     4754 
    4552     4371     4280     4301     4411     4550     4656     4700 
    4649     4506     4367     4303     4305     4371     4491     4588 
    4608     4554     4450     4297     4112     3981     3981     4098 
    4271     4432     4530     4573     4595     4575     4483     4402 
    4444     4567     4619     4581     4581     4608     4517     4352 
    4284     4352     4490     4652     4795     4858     4812     4646 
    4374     4125     4079     4225     4440     4641     4730     4696 
    4618     4513     4442     4521     4679     4762     4742     4634 
    4469     4348     4351     4449     4564     4637     4621     4521 
    4418     4394     4440     4494     4506     4502     4540     4590 
    4576     4472     4328     4256     4291     4352     4392     4465 
    4587     4665     4642     4584     4534     4452     4338     4270 
    4263     4267     4270     4297     4325     4314     4293     4318 
    4392     4506     4618     4645     4565     4467     4409     4365 
    4341     4388     4515     4630     4626     4541     4479     4441 
    4418     4437     4459     4445     4425     4438     4511     4621 
    4710     4754     4762     4747     4720     4675     4596     4514 
    4467     4482     4554     4631     4680     4707     4712     4681 
    4567     4374     4190     4101     4151     4315     4491     4565 
    4526     4444     4387     4395     4492     4641     4749     4761 
    4708     4587     4383     4220     4230     4390     4561     4637 
    4603     4490     4355     4271     4268     4310     4351     4359 
    4360     4399     4442     4426     4360     4280     4228     4271 
    4402     4522     4614     4707     4738     4658     4554     4521 
    4552     4634     4725     4743     4695     4638     4576     4523 
    4513     4514     4491     4432     4341     4275     4294     4369 
    4449     4510     4529     4492     4430     4396     4446     4564 
    4666     4703     4693     4669     4610     4517     4465     4479 
    4522     4600     4696     4745     4720     4644     4560     4504 
    4449     4376     4328     4329     4349     4363     4376     4379 
    4356     4321     4302     4318     4355     4361     4348     4356 
    4395     4455     4510     4511     4460     4438     4484     4537 
    4549     4538     4515     4484     4460     4456     4488     4558 
    4638     4689     4699     4683     4644     4572     4507     4469 
    4445     4453     4479     4486     4495     4540     4564     4514 
