Origin Time       2024/03/16 06:34:00
Lat.              32.907
Long.             131.047
Depth. (km)       7
Mag.              3.3
Station Code      KMM005
Station Lat.      32.8761
Station Long.     130.8771
Station Height(m) 125
Record Time       2024/03/16 06:34:38
Sampling Freq(Hz) 100Hz
Duration Time(s)  60
Dir.              E-W
Scale Factor      7845(gal)/8223790
Max. Acc. (gal)   9.506
Last Correction   2024/03/16 06:34:38
Memo.             
[...]
  -15807   -15846   -15819   -15789   -15819   -15822   -15788   -15815 
  -15850   -15805   -15781   -15830   -15831   -15792   -15816   -15840 
  -15800   -15790   -15838   -15831   -15788   -15812   -15835   -15793 
  -15793   -15842   -15823   -15790   -15826   -15836   -15790   -15796 
  -15840   -15820   -15788   -15822   -15831   -15792   -15804   -15838 
  -15808   -15793   -15835   -15835   -15792   -15805   -15835   -15801 
  -15788   -15834   -15831   -15790   -15807   -15830   -15807   -15807 
  -15838   -15813   -15780   -15820   -15840   -15803   -15808   -15836 
  -15809   -15789   -15823   -15822   -15789   -15812   -15840   -15808 
  -15801   -15839   -15824   -15792   -15823   -15836   -15788   -15786 
  -15832   -15819   -15793   -15827   -15839   -15796   -15804   -15847 
  -15820   -15788   -15819   -15817   -15781   -15811   -15851   -15817 
  -15795   -15830   -15820   -15780   -15805   -15832   -15799   -15796 
  -15843   -15834   -15795   -15820   -15842   -15795   -15786   -15835 
  -15827   -15795   -15819   -15831   -15795   -15793   -15827   -15815 
  -15793   -15830   -15839   -15797   -15812   -15847   -15811   -15786 
  -15819   -15811   -15784   -15816   -15846   -15815   -15804   -15835 
  -15812   -15777   -15819   -15849   -15807   -15797   -15826   -15807 
  -15792   -15840   -15847   -15793   -15803   -15834   -15800   -15789 
  -15832   -15824   -15785   -15807   -15835   -15801   -15800   -15846 
  -15827   -15781   -15808   -15828   -15790   -15797   -15843   -15822 
  -15788   -15823   -15834   -15793   -15809   -15853   -15817   -15782 
  -15822   -15830   -15788   -15804   -15836   -15801   -15788   -15838 
  -15836   -15792   -15813   -15840   -15805   -15796   -15828   -15815 
  -15786   -15819   -15838   -15797   -15796   -15835   -15822   -15800 
  -15827   -15826   -15789   -15805   -15835   -15805   -15789   -15830 
  -15832   -15795   -15809   -15835   -15805   -15799   -15836   -15820 
  -15782   -15811   -15838   -15815   -15824   -15854   -15813   -15772 
  -15803   -15820   -15793   -15812   -15846   -15808   -15786   -15840 
  -15846   -15792   -15801   -15831   -15795   -15785   -15838   -15832 
  -15792   -15817   -15849   -15809   -15796   -15835   -15815   -15774 
  -15817   -15842   -15795   -15792   -15832   -15815   -15793   -15836 
  -15850   -15796   -15795   -15832   -15811   -15789   -15826   -15824 
  -15782   -15797   -15834   -15809   -15801   -15842   -15832   -15795 
  -15815   -15827   -15793   -15803   -15839   -15813   -15786   -15820 
  -15832   -15803   -15819   -15846   -15804   -15782   -15823   -15824 
  -15790   -15815   -15843   -15809   -15796   -15830   -15820   -15790 
  -15822   -15840   -15793   -15786   -15830   -15822   -15796   -15830 
  -15838   -15789   -15797   -15844   -15819   -15786   -15824   -15834 
  -15790   -15805   -15844   -15809   -15784   -15835   -15839   -15782 
  -15797   -15838   -15805   -15795   -15842   -15832   -15782   -15803 
  -15836   -15808   -15800   -15832   -15813   -15784   -15820   -15842 
  -15804   -15800   -15832   -15820   -15803   -15830   -15820   -15774 
  -15796   -15842   -15819   -15803   -15830   -15820   -15790   -15822 
  -15843   -15801   -15788   -15827   -15822   -15792   -15822   -15838 
  -15805   -15816   -15843   -15805   -15777   -15824   -15844   -15801 
  -15800   -15828   -15804   -15801   -15844   -15824   -15776   -15812 
  -15850   -15804   -15782   -15828   -15827   -15795   -15824   -15846 
  -15799   -15796   -15846   -15828   -15782   -15808   -15832   -15799 
  -15801   -15842   -15816   -15784   -15819   -15828   -15788   -15801 
  -15839   -15815   -15795   -15830   -15830   -15793   -15813   -15842 
  -15808   -15797   -15832   -15822   -15788   -15813   -15834   -15797 
  -15793   -15826   -15813   -15796   -15830   -15836   -15799   -15812 
  -15843   -15809   -15782   -15820   -15831   -15803   -15813   -15822 
  -15788   -15796   -15844   -15826   -15782   -15826   -15865   -15813 
  -15788   -15826   -15817   -15797   -15830   -15826   -15773   -15793 
  -15854   -15831   -15790   -15820   -15831   -15796   -15811   -15842 
  -15801   -15781   -15838   -15847   -15795   -15804   -15838   -15807 
  -15790   -15828   -15817   -15782   -15813   -15835   -15796   -15799 
  -15847   -15830   -15785   -15813   -15843   -15808   -15804   -15832 
  -15809   -15790   -15830   -15835   -15795   -15808   -15839   -15804 
  -15788   -15834   -15838   -15801   -15812   -15827   -15795   -15786 
  -15817   -15811   -15799   -15836   -15843   -15795   -15799   -15838 
  -15813   -15788   -15823   -15830   -15797   -15811   -15832   -15799 
  -15793   -15842   -15834   -15784   -15804   -15835   -15799   -15790 
  -15840   -15834   -15789   -15809   -15835   -15803   -15799   -15836 
  -15816   -15780   -15816   -15838   -15792   -15795   -15840   -15817 
  -15784   -15823   -15834   -15792   -15809   -15846   -15808   -15781 
  -15823   -15832   -15797   -15812   -15838   -15800   -15784   -15827 
  -15832   -15805   -15826   -15842   -15801   -15795   -15831   -15813 
  -15786   -15824   -15836   -15796   -15800   -15828   -15807   -15795 
  -15835   -15832   -15788   -15809   -15846   -15808   -15786   -15832 
  -15834   -15795   -15815   -15832   -15790   -15795   -15844   -15817 
  -15778   -15822   -15840   -15796   -15796   -15832   -15815   -15797 
  -15839   -15836   -15778   -15800   -15849   -15808   -15780   -15828 
  -15840   -15805   -15822   -15839   -15792   -15785   -15842   -15831 
  -15785   -15812   -15835   -15793   -15795   -15846   -15830   -15786 
  -15809   -15824   -15792   -15807   -15850   -15822   -15785   -15819 
  -15834   -15799   -15808   -15836   -15805   -15789   -15828   -15823 
  -15785   -15807   -15836   -15812   -15803   -15831   -15819   -15790 
  -15824   -15846   -15805   -15801   -15831   -15803   -15777   -15820 
  -15838   -15804   -15813   -15842   -15807   -15785   -15827   -15830 
  -15792   -15813   -15835   -15796   -15792   -15842   -15831   -15789 
  -15820   -15843   -15786   -15780   -15840   -15830   -15789   -15823 
  -15842   -15797   -15799   -15843   -15816   -15780   -15819   -15832 
  -15784   -15797   -15846   -15817   -15795   -15834   -15827   -15782 
  -15805   -15839   -15812   -15804   -15838   -15822   -15785   -15809 
  -15830   -15797   -15803   -15840   -15819   -15785   -15815   -15827 
  -15796   -15809   -15844   -15815   -15793   -15832   -15832   -15789 
  -15805   -15838   -15812   -15800   -15830   -15809   -15776   -15817 
  -15851   -15807   -15799   -15840   -15819   -15786   -15817   -15834 
  -15803   -15809   -15834   -15799   -15780   -15842   -15853   -15781 
  -15784   -15842   -15827   -15797   -15824   -15822   -15789   -15817 
  -15847   -15800   -15785   -15839   -15828   -15778   -15808   -15849 
  -15822   -15807   -15823   -15800   -15784   -15838   -15855   -15793 
  -15788   -15836   -15817   -15788   -15822   -15831   -15792   -15803 
  -15835   -15808   -15789   -15834   -15839   -15797   -15807   -15834 
  -15805   -15800   -15834   -15816   -15784   -15817   -15838   -15803 
  -15804   -15836   -15809   -15789   -15836   -15842   -15790   -15799 
  -15830   -15805   -15796   -15834   -15823   -15781   -15812   -15851 
  -15809   -15789   -15824   -15809   -15780   -15823   -15853   -15805 
  -15796   -15843   -15826   -15785   -15820   -15830   -15776   -15789 
  -15844   -15817   -15789   -15824   -15826   -15792   -15811   -15844 
  -15811   -15790   -15835   -15831   -15784   -15808   -15843   -15807 
  -15796   -15839   -15824   -15774   -15801   -15847   -15826   -15812 
  -15828   -15799   -15776   -15826   -15846   -15803   -15805   -15838 
  -15807   -15780   -15822   -15842   -15807   -15807   -15826   -15800 
  -15797   -15835   -15823   -15789   -15816   -15838   -15801   -15797 
  -15835   -15815   -15785   -15831   -15851   -15796   -15780   -15809 
  -15804   -15808   -15853   -15838   -15774   -15797   -15851   -15820 
  -15793   -15831   -15824   -15781   -15804   -15840   -15803   -15782 
  -15831   -15836   -15803   -15828   -15846   -15803   -15804   -15842 
  -15811   -15765   -15801   -15838   -15804   -15803   -15847   -15827 
  -15792   -15822   -15822   -15781   -15809   -15851   -15816   -15789 
  -15823   -15823   -15793   -15812   -15832   -15803   -15799   -15836 
  -15822   -15788   -15820   -15835   -15790   -15788   -15832   -15832 
  -15808   -15817   -15815   -15796   -15830   -15854   -15792   -15766 
  -15828   -15843   -15795   -15801   -15832   -15812   -15809   -15847 
  -15822   -15772   -15803   -15832   -15795   -15799   -15850   -15820 
  -15772   -15815   -15854   -15816   -15803   -15822   -15792   -15781 
  -15843   -15849   -15781   -15789   -15840   -15824   -15808   -15838 
  -15822   -15778   -15803   -15839   -15815   -15803   -15836   -15815 
  -15768   -15809   -15853   -15808   -15789   -15828   -15823   -15803 
  -15830   -15827   -15786   -15807   -15847   -15815   -15785   -15826 
  -15843   -15805   -15804   -15824   -15807   -15808   -15838   -15815 
  -15778   -15815   -15842   -15799   -15792   -15843   -15830   -15785 
  -15811   -15830   -15804   -15826   -15846   -15799   -15785   -15840 
  -15836   -15777   -15792   -15842   -15815   -15782   -15820   -15830 
  -15805   -15832   -15842   -15785   -15785   -15849   -15839   -15782 
  -15801   -15838   -15801   -15784   -15824   -15819   -15790   -15828 
  -15849   -15807   -15809   -15843   -15815   -15780   -15809   -15824 
  -15795   -15804   -15842   -15824   -15805   -15838   -15826   -15776 
  -15797   -15835   -15811   -15804   -15839   -15826   -15790   -15812 
  -15828   -15793   -15792   -15828   -15815   -15799   -15842   -15846 
  -15796   -15804   -15831   -15789   -15774   -15832   -15842   -15800 
  -15813   -15840   -15805   -15795   -15838   -15822   -15776   -15811 
  -15838   -15799   -15801   -15849   -15830   -15788   -15812   -15823 
  -15781   -15801   -15862   -15834   -15782   -15815   -15828   -15786 
  -15808   -15854   -15817   -15781   -15813   -15823   -15796   -15819 
  -15846   -15800   -15773   -15816   -15826   -15805   -15838   -15855 
  -15801   -15789   -15831   -15822   -15786   -15805   -15823   -15799 
  -15809   -15847   -15820   -15788   -15816   -15819   -15788   -15812 
  -15850   -15822   -15799   -15822   -15812   -15781   -15809   -15840 
  -15809   -15804   -15844   -15826   -15785   -15816   -15835   -15796 
  -15803   -15836   -15813   -15795   -15834   -15840   -15790   -15792 
  -15834   -15812   -15796   -15839   -15828   -15773   -15796   -15836 
  -15813   -15816   -15853   -15827   -15780   -15807   -15835   -15795 
  -15790   -15842   -15824   -15778   -15813   -15840   -15803   -15804 
  -15838   -15811   -15781   -15827   -15857   -15815   -15793   -15811 
  -15797   -15800   -15844   -15830   -15770   -15789   -15836   -15819 
  -15812   -15842   -15817   -15781   -15817   -15847   -15819   -15812 
  -15824   -15784   -15757   -15812   -15838   -15785   -15782   -15840 
  -15882   -15951   -16043   -16032   -15930   -15869   -15816   -15701 
  -15646   -15674   -15619   -15512   -15520   -15585   -15604   -15660 
  -15796   -15916   -16044   -16252   -16418   -16443   -16372   -16156 
  -15736   -15298   -15032   -14958   -15105   -15450   -15828   -16191 
  -16621   -16980   -16926   -16414   -15812   -15372   -15071   -14864 
  -14798   -14921   -15159   -15427   -15730   -16063   -16402   -16657 
  -16659   -16371   -16040   -15900   -15950   -16146   -16279   -16063 
  -15673   -15412   -15226   -15174   -15387   -15650   -15795   -15952 
  -16100   -15930   -15454   -15229   -15565   -16097   -16256   -15947 
  -15612   -15610   -15886   -16163   -16155   -15855   -15552   -15538 
  -15853   -16150   -16114   -15996   -16154   -16351   -16183   -15780 
  -15498   -15388   -15327   -15411   -15643   -15676   -15518   -15503 
  -15526   -15444   -15461   -15715   -16125   -16465   -16464   -16131 
  -15881   -16048   -16337   -16303   -15984   -15580   -15290   -15368 
  -15695   -15907   -15966   -16016   -16012   -15786   -15387   -15124 
  -15191   -15448   -15682   -15822   -15877   -15997   -16316   -16587 
  -16426   -15844   -15299   -15360   -16066   -16544   -16120   -15377 
  -15138   -15422   -15874   -16220   -16229   -15846   -15448   -15398 
  -15488   -15535   -15736   -15982   -16013   -15985   -16059   -16056 
  -15817   -15576   -15685   -16094   -16418   -16341   -16016   -15970 
  -16264   -16318   -15940   -15543   -15314   -15117   -14909   -14743 
  -14717   -15007   -15627   -16229   -16507   -16553   -16482   -16291 
  -16186   -16264   -16233   -15934   -15623   -15576   -15754   -15878 
  -15684   -15261   -15106   -15546   -16275   -16571   -16083   -15400 
  -15252   -15676   -16217   -16348   -15932   -15431   -15303   -15458 
  -15466   -15196   -14982   -15142   -15635   -16154   -16505   -16752 
  -16943   -17085   -17224   -17334   -17243   -16783   -16013   -15157 
  -14326   -13770   -13871   -14416   -14793   -15036   -15595   -16275 
  -16584   -16583   -16487   -16231   -15844   -15514   -15271   -15064 
  -14944   -14998   -15398   -16228   -17030   -17253   -17128   -17181 
  -17216   -16748   -15935   -15307   -15091   -15161   -15353   -15498 
  -15421   -15280   -15361   -15476   -15291   -14824   -14304   -13898 
  -13510   -12970   -12617   -13113   -14644   -16765   -18983   -21145 
  -23090   -24304   -24309   -22886   -19948   -15957   -12051    -9047 
   -6956    -5849    -6118    -7863   -10883   -14674   -18198   -20657 
  -21932   -21982   -21055   -19791   -18277   -16183   -13825   -12029 
  -11175   -11009   -11369   -12418   -14057   -15958   -18157   -20584 
  -22589   -23649   -23830   -23382   -22273   -20259   -17346   -13964 
  -10844    -8586    -7272    -6967    -7801    -9474   -11635   -14200 
  -16992   -19560   -21439   -22396   -22208   -20737   -18557   -16501 
  -14634   -12912   -11985   -12231   -13317   -14818   -16201   -16908 
  -17041   -17076   -17145   -17323   -17621   -17527   -16638   -15318 
  -14088   -13194   -12739   -12540   -12448   -12788   -13909   -15781 
  -17990   -19839   -20717   -20368   -18989   -17096   -15063   -12999 
  -11326   -10673   -11148   -12403   -14044   -15699   -17182   -18623 
  -19982   -20719   -20428   -19310   -17824   -16366   -15133   -14021 
  -12981   -12463   -12996   -14351   -15805   -16953   -17776   -18342 
  -18661   -18589   -17910   -16617   -15071   -13575   -12083   -10801 
  -10355   -11065   -12818   -15280   -17676   -19288   -20133   -20428 
  -20124   -19244   -17923   -16372   -15064   -14366   -13961   -13483 
  -13263   -13699   -14666   -15732   -16438   -16642   -16556   -16413 
  -16326   -16243   -16052   -15696   -15145   -14534   -14091   -13895 
  -13957   -14380   -15217   -16233   -17100   -17683   -17859   -17543 
  -17028   -16721   -16636   -16483   -16119   -15714   -15471   -15371 
  -15300   -15180   -15022   -14920   -14825   -14706   -14783   -15080 
  -15271   -15232   -15169   -15221   -15380   -15763   -16455   -17184 
  -17690   -18065   -18215   -17848   -17115   -16336   -15614   -15168 
  -15075   -14959   -14665   -14472   -14515   -14737   -15041   -15279 
  -15503   -15959   -16676   -17390   -17875   -18060   -17934   -17533 
  -16941   -16182   -15291   -14480   -14027   -13957   -13972   -13977 
  -14339   -15183   -16062   -16636   -16980   -17099   -16899   -16484 
  -15965   -15421   -15105   -15059   -15095   -15323   -15812   -16216 
  -16378   -16426   -16333   -16081   -15880   -15736   -15469   -15217 
  -15151   -15107   -15066   -15199   -15364   -15338   -15233   -15269 
  -15435   -15481   -15348   -15325   -15558   -15911   -16239   -16456 
  -16582   -16721   -16877   -16956   -16970   -16953   -16783   -16401 
  -15981   -15735   -15749   -15936   -16062   -15958   -15777   -15731 
  -15681   -15488   -15346   -15348   -15357   -15377   -15479   -15568 
  -15564   -15545   -15550   -15529   -15488   -15507   -15624   -15786 
  -15898   -15925   -15911   -15962   -16124   -16317   -16453   -16478 
  -16272   -15768   -15176   -14758   -14513   -14453   -14665   -15022 
  -15321   -15580   -15824   -15974   -16117   -16348   -16506   -16510 
  -16537   -16680   -16903   -17166   -17284   -17049   -16580   -16179 
  -15919   -15645   -15290   -14932   -14623   -14474   -14631   -14975 
  -15279   -15589   -16032   -16475   -16760   -16869   -16707   -16248 
  -15749   -15410   -15211   -15137   -15114   -14994   -14860   -14945 
  -15249   -15622   -16015   -16382   -16600   -16626   -16524   -16266 
  -15817   -15399   -15219   -15163   -15074   -14985   -14990   -15190 
  -15616   -16092   -16410   -16571   -16640   -16575   -16426   -16432 
  -16548   -16475   -16212   -15931   -15642   -15337   -15090   -14929 
  -14897   -15078   -15392   -15627   -15792   -16046   -16283   -16344 
  -16356   -16394   -16330   -16189   -16129   -16128   -16071   -16015 
  -16038   -16071   -16050   -15996   -15911   -15816   -15777   -15757 
  -15723   -15754   -15835   -15803   -15641   -15511   -15439   -15344 
  -15315   -15407   -15493   -15538   -15642   -15830   -16024   -16159 
  -16160   -16008   -15836   -15749   -15666   -15581   -15633   -15770 
  -15784   -15695   -15651   -15628   -15589   -15628   -15739   -15840 
  -15986   -16170   -16159   -15878   -15564   -15396   -15360   -15456 
  -15674   -15882   -16024   -16155   -16190   -16074   -15955   -15903 
  -15880   -15961   -16151   -16244   -16186   -16105   -15981   -15759 
  -15568   -15498   -15487   -15531   -15700   -15901   -15954   -15866 
  -15745   -15592   -15471   -15510   -15635   -15727   -15855   -16002 
  -16038   -15996   -15934   -15773   -15557   -15500   -15627   -15755 
  -15857   -15981   -16039   -16002   -16021   -16129   -16202   -16251 
  -16349   -16367   -16202   -15984   -15784   -15566   -15404   -15334 
  -15277   -15219   -15234   -15340   -15489   -15680   -15881   -15971 
  -15948   -15943   -15957   -15925   -15930   -15985   -15958   -15894 
  -15916   -15931   -15871   -15843   -15816   -15691   -15549   -15511 
  -15539   -15566   -15599   -15595   -15545   -15597   -15759   -15828 
  -15801   -15847   -15912   -15878   -15842   -15869   -15886   -15925 
  -16035   -16110   -16135   -16243   -16351   -16247   -16016   -15893 
  -15819   -15680   -15580   -15560   -15546   -15596   -15714   -15720 
  -15614   -15597   -15726   -15915   -16106   -16214   -16185   -16133 
  -16175   -16194   -16096   -15973   -15853   -15697   -15577   -15534 
  -15475   -15356   -15318   -15415   -15473   -15444   -15453   -15477 
  -15448   -15437   -15448   -15437   -15468   -15558   -15641   -15757 
  -15959   -16141   -16218   -16279   -16363   -16376   -16341   -16374 
  -16393   -16294   -16193   -16123   -15970   -15793   -15707   -15651 
  -15604   -15654   -15754   -15799   -15838   -15863   -15773   -15660 
  -15676   -15731   -15714   -15716   -15790   -15853   -15908   -16038 
  -16152   -16139   -16082   -16044   -15948   -15817   -15773   -15768 
  -15695   -15606   -15534   -15421   -15333   -15364   -15415   -15439 
  -15538   -15655   -15666   -15666   -15754   -15840   -15894   -15984 
  -16073   -16081   -16079   -16140   -16139   -16011   -15907   -15869 
  -15816   -15789   -15780   -15697   -15649   -15762   -15900   -15948 
