Origin Time       2024/03/16 06:34:00
Lat.              32.907
Long.             131.047
Depth. (km)       7
Mag.              3.3
Station Code      KMM005
Station Lat.      32.8761
Station Long.     130.8771
Station Height(m) 125
Record Time       2024/03/16 06:34:38
Sampling Freq(Hz) 100Hz
Duration Time(s)  60
Dir.              N-S
Scale Factor      7845(gal)/8223790
Max. Acc. (gal)   7.731
Last Correction   2024/03/16 06:34:38
Memo.             
[...]
    -847     -849     -868     -853     -834     -861     -882     -847 
    -831     -865     -865     -839     -857     -876     -847     -838 
    -872     -873     -845     -855     -870     -847     -842     -865 
    -851     -826     -857     -885     -861     -846     -857     -850 
    -841     -858     -872     -857     -853     -864     -858     -849 
    -853     -854     -850     -853     -859     -855     -850     -851 
    -851     -857     -865     -862     -854     -855     -858     -845 
    -843     -859     -855     -849     -862     -861     -839     -849 
    -873     -865     -851     -864     -858     -834     -842     -870 
    -862     -843     -862     -866     -838     -849     -876     -857 
    -842     -864     -865     -838     -846     -870     -850     -830 
    -853     -866     -853     -861     -880     -859     -841     -865 
    -872     -839     -837     -859     -850     -838     -861     -869 
    -846     -857     -880     -859     -845     -858     -853     -842 
    -859     -865     -845     -839     -854     -864     -865     -861 
    -849     -842     -857     -874     -865     -857     -858     -842 
    -834     -854     -861     -851     -854     -854     -841     -849 
    -873     -858     -832     -854     -873     -850     -842     -868 
    -864     -845     -865     -873     -839     -834     -864     -861 
    -843     -859     -868     -839     -843     -877     -866     -835 
    -849     -869     -849     -839     -868     -862     -842     -865 
    -877     -846     -841     -865     -857     -837     -854     -873 
    -853     -843     -864     -858     -842     -857     -866     -849 
    -846     -855     -854     -850     -855     -859     -857     -859 
    -864     -854     -853     -861     -850     -846     -864     -853 
    -842     -866     -864     -843     -853     -864     -850     -843 
    -854     -859     -849     -857     -870     -847     -834     -861 
    -869     -846     -850     -870     -854     -841     -869     -872 
    -835     -838     -868     -855     -846     -872     -869     -832 
    -842     -874     -857     -837     -862     -868     -842     -849 
    -869     -854     -845     -865     -862     -834     -842     -866 
    -858     -855     -870     -859     -845     -851     -857     -854 
    -861     -861     -843     -839     -857     -861     -854     -858 
    -859     -850     -850     -859     -853     -847     -859     -859 
    -847     -857     -866     -854     -854     -868     -853     -832 
    -853     -876     -857     -851     -866     -849     -834     -862 
    -869     -835     -832     -864     -864     -845     -862     -870 
    -839     -842     -878     -866     -839     -864     -881     -853 
    -842     -853     -841     -832     -869     -885     -850     -838 
    -857     -858     -857     -869     -858     -828     -839     -870 
    -864     -845     -854     -861     -857     -862     -857     -834 
    -837     -869     -876     -855     -846     -846     -850     -868 
    -872     -850     -841     -855     -864     -854     -850     -846 
    -841     -858     -872     -847     -835     -865     -876     -858 
    -855     -859     -846     -850     -874     -859     -826     -846 
    -880     -859     -835     -849     -859     -845     -857     -872 
    -839     -832     -878     -880     -841     -846     -865     -847 
    -839     -872     -872     -837     -845     -866     -853     -847 
    -859     -849     -837     -859     -885     -865     -837     -849 
    -858     -846     -849     -857     -854     -861     -866     -851 
    -838     -853     -870     -866     -855     -845     -841     -854 
    -865     -857     -846     -849     -859     -862     -859     -857 
    -851     -858     -866     -843     -827     -854     -876     -858 
    -847     -859     -855     -849     -868     -865     -830     -837 
    -866     -855     -842     -862     -870     -846     -850     -881 
    -866     -835     -853     -864     -841     -847     -869     -851 
    -832     -862     -881     -850     -841     -865     -855     -839 
    -859     -862     -838     -843     -869     -862     -843     -854 
    -859     -850     -861     -868     -851     -846     -858     -861 
    -850     -851     -859     -851     -846     -858     -861     -857 
    -855     -849     -851     -868     -865     -845     -847     -864 
    -861     -858     -866     -855     -835     -850     -869     -847 
    -835     -859     -859     -838     -857     -876     -853     -849 
    -872     -859     -837     -855     -876     -847     -832     -854 
    -850     -831     -859     -881     -850     -837     -869     -874 
    -850     -858     -872     -846     -841     -862     -851     -834 
    -851     -872     -864     -853     -861     -855     -838     -854 
    -869     -850     -843     -855     -854     -849     -851     -853 
    -859     -869     -862     -842     -841     -861     -872     -866 
    -855     -843     -839     -853     -864     -850     -845     -865 
    -862     -845     -853     -854     -841     -857     -874     -855 
    -834     -853     -872     -857     -855     -872     -853     -834 
    -851     -855     -835     -850     -885     -869     -837     -853 
    -868     -851     -850     -864     -847     -826     -849     -873 
    -857     -864     -878     -843     -826     -855     -870     -859 
    -859     -864     -847     -839     -865     -870     -845     -842 
    -853     -853     -858     -866     -861     -851     -853     -854 
    -846     -846     -857     -858     -861     -866     -854     -842 
    -847     -855     -857     -861     -868     -851     -834     -850 
    -858     -845     -861     -876     -855     -845     -859     -859 
    -843     -849     -862     -846     -849     -878     -859     -828 
    -855     -872     -843     -838     -865     -865     -847     -861 
    -874     -846     -839     -874     -869     -834     -847     -865 
    -838     -830     -862     -864     -847     -866     -878     -853 
    -846     -865     -858     -837     -847     -864     -851     -841 
    -851     -851     -851     -869     -865     -845     -858     -874 
    -864     -847     -843     -845     -847     -855     -854     -850 
    -862     -866     -838     -837     -872     -874     -853     -857 
    -858     -842     -850     -872     -858     -834     -849     -866 
    -858     -855     -855     -835     -837     -876     -882     -841 
    -835     -873     -870     -838     -846     -859     -851     -862 
    -868     -843     -845     -870     -859     -826     -845     -893 
    -876     -831     -843     -857     -845     -857     -870     -846 
    -841     -866     -865     -845     -853     -870     -855     -845 
    -858     -855     -839     -849     -864     -865     -866     -859 
    -845     -846     -862     -857     -834     -839     -855     -851 
    -853     -859     -850     -854     -876     -872     -847     -849 
    -868     -862     -851     -859     -846     -828     -861     -876 
    -834     -827     -873     -885     -861     -855     -851     -830 
    -839     -878     -873     -842     -859     -872     -832     -832 
    -880     -874     -835     -838     -864     -862     -859     -866 
    -841     -822     -866     -893     -857     -841     -861     -851 
    -834     -853     -868     -851     -846     -858     -855     -853 
    -866     -864     -846     -850     -862     -851     -849     -862 
    -855     -845     -854     -859     -853     -853     -854     -850 
    -854     -865     -855     -839     -861     -872     -846     -847 
    -868     -847     -828     -853     -876     -865     -857     -858 
    -835     -832     -873     -876     -839     -843     -866     -850 
    -838     -865     -870     -842     -854     -884     -854     -824 
    -855     -876     -849     -842     -853     -845     -851     -882 
    -874     -826     -818     -859     -873     -865     -864     -838 
    -819     -858     -892     -865     -832     -849     -869     -859 
    -855     -857     -847     -850     -859     -850     -842     -849 
    -849     -849     -861     -870     -862     -853     -855     -853 
    -847     -858     -857     -838     -851     -865     -843     -851 
    -886     -877     -842     -842     -859     -854     -850     -866 
    -847     -815     -846     -884     -861     -859     -884     -851 
    -811     -838     -876     -864     -854     -870     -855     -828 
    -858     -885     -851     -837     -866     -862     -843     -857 
    -868     -847     -835     -851     -855     -843     -864     -877 
    -849     -843     -865     -861     -850     -858     -858     -847 
    -850     -858     -857     -858     -866     -850     -834     -855 
    -869     -851     -846     -850     -846     -858     -872     -859 
    -842     -846     -861     -857     -853     -864     -854     -841 
    -864     -868     -838     -846     -873     -854     -832     -855 
    -869     -854     -858     -866     -845     -835     -865     -865 
    -835     -853     -876     -845     -835     -870     -873     -837 
    -838     -869     -864     -846     -868     -869     -837     -843 
    -865     -853     -843     -861     -864     -845     -854     -876 
    -853     -834     -858     -862     -845     -855     -864     -850 
    -847     -853     -853     -855     -864     -868     -857     -849 
    -850     -845     -849     -870     -857     -834     -849     -857 
    -851     -864     -869     -854     -850     -859     -858     -847 
    -857     -865     -841     -841     -876     -862     -830     -854 
    -874     -853     -847     -865     -857     -837     -854     -869 
    -841     -834     -870     -866     -842     -861     -859     -826 
    -843     -888     -884     -851     -847     -850     -835     -845 
    -880     -869     -838     -850     -861     -842     -850     -874 
    -864     -841     -847     -865     -859     -855     -857     -842 
    -839     -861     -857     -845     -857     -859     -846     -845 
    -854     -861     -865     -864     -853     -845     -855     -868 
    -849     -841     -857     -850     -841     -861     -868     -850 
    -855     -865     -847     -839     -864     -873     -851     -847 
    -861     -843     -824     -858     -874     -850     -861     -876 
    -843     -831     -866     -874     -846     -847     -872     -854 
    -835     -864     -862     -827     -842     -870     -858     -854 
    -876     -869     -838     -839     -872     -866     -838     -842 
    -843     -841     -878     -889     -845     -827     -846     -861 
    -864     -861     -857     -853     -857     -864     -851     -850 
    -865     -846     -815     -830     -857     -859     -857     -846 
    -845     -895     -957     -962     -943     -942     -908     -810 
    -742     -742     -704     -658     -731     -845     -841     -764 
    -734     -777     -857     -928     -970    -1026    -1112    -1140 
   -1098    -1089    -1116    -1066     -861     -576     -378     -314 
    -461     -903    -1254    -1086     -743     -691     -778     -724 
    -492     -334     -572     -959    -1124    -1209    -1274    -1202 
   -1101    -1038     -996     -904     -742     -765    -1028    -1165 
    -904     -360       67       41     -394     -878    -1150    -1325 
   -1540    -1651    -1466    -1026     -600     -319      -55      175 
      95     -471    -1205    -1638    -1733    -1575    -1300    -1262 
   -1466    -1422     -868     -214      -67     -405     -754     -874 
    -762     -514     -421     -633     -900     -980     -913     -827 
    -862    -1001    -1075    -1067    -1040     -994     -916     -807 
    -749     -810     -926    -1009    -1038     -959     -700     -403 
    -399     -765    -1169    -1215     -980     -866     -896     -834 
    -658     -434     -247     -276     -696    -1328    -1571    -1281 
    -974     -820     -703     -830    -1233    -1408    -1008     -546 
    -657    -1040    -1085     -783     -450     -299     -349     -490 
    -645     -816     -992    -1094    -1123    -1236    -1433    -1381 
    -932     -472     -368     -575     -873    -1065    -1107    -1104 
   -1089    -1066    -1036     -870     -562     -338     -276     -349 
    -602     -967    -1227    -1129     -720     -564     -891    -1135 
   -1053     -993     -984     -912     -963    -1115    -1027     -621 
    -298     -348     -596    -1005    -1580    -1773    -1266     -702 
    -807    -1375    -1493     -743      290      791      448     -369 
    -895     -731     -380     -712    -1737    -2425    -2108    -1366 
   -1024    -1140    -1381    -1444    -1094     -540     -255     -345 
    -561     -672     -631     -415      -54      106     -135     -446 
    -660    -1011    -1413    -1525    -1431    -1387    -1267     -886 
    -500     -432     -561     -714     -965    -1202    -1225    -1300 
   -1686    -1960    -1640     -992     -594     -595     -710     -611 
    -176      403      708      583      275       32      -18       35 
    -114     -483     -850    -1217    -1584    -1930    -2421    -3144 
   -4013    -4873    -5385    -5305    -4695    -3582    -1985      -66 
    2110     4340     5911     6116     4905     2744      174    -2380 
   -4656    -6432    -7407    -7299    -5926    -3350     -180     2685 
    4807     6330     7250     7086     5594     3091       55    -2886 
   -5115    -6589    -7499    -7587    -6556    -4484    -1518     1784 
    4348     5687     6031     5343     3507      861    -2143    -4990 
   -7013    -7812    -7493    -6440    -4909    -3051    -1132      549 
    1821     2604     2739     2123     1101      206     -317     -502 
    -569     -757    -1202    -1883    -2528    -2741    -2251    -1143 
     205     1451     2358     2768     2644     2027     1028     -361 
   -2181    -4068    -5508    -6222    -6087    -5242    -4021    -2581 
   -1057      259     1233     1881     2214     2238     1806      784 
    -464    -1266    -1421    -1277     -997     -554     -110      198 
     330      135     -500    -1464    -2461    -3133    -3326    -3268 
   -3206    -2822    -1629       49     1425     2347     3032     3249 
    2682     1464      -60    -1714    -3321    -4533    -5185    -5329 
   -4827    -3658    -2181     -643      778     1647     1790     1595 
    1347     1005      498     -175     -854    -1318    -1545    -1763 
   -2193    -2596    -2531    -2014    -1242     -315      530     1193 
    1842     2357     2263     1336     -160    -1715    -2897    -3584 
   -3975    -4210    -4113    -3465    -2421    -1378     -552       54 
     526      895      965      653      247      -68     -450    -1026 
   -1692    -2254    -2479    -2269    -1877    -1647    -1493    -1082 
    -481        4      288      461      693      981     1021      685 
     209     -167     -433     -864    -1695    -2651    -3186    -3126 
   -2736    -2208    -1544     -739      198     1102     1676     1802 
    1518      972      317     -487    -1479    -2461    -3096    -3208 
   -2956    -2504    -1848    -1070     -332      322      913     1428 
    1813     1935     1620      820     -255    -1350    -2377    -3345 
   -4149    -4599    -4477    -3685    -2485    -1329     -422      216 
     514      441       68     -522    -1170    -1707    -2165    -2523 
   -2515    -2010    -1235     -480      139      630     1020     1270 
    1260      958      511       76     -351     -819    -1270    -1664 
   -2019    -2262    -2281    -2054    -1615    -1089     -653     -321 
      13      344      560      589      453      151     -361     -986 
   -1518    -1931    -2251    -2354    -2245    -2087    -1894    -1603 
   -1246     -850     -477     -265     -220     -240     -351     -588 
    -819     -869     -724     -513     -359     -349     -495     -689 
    -845     -936     -926     -830     -745     -665     -513     -372 
    -442     -716    -1017    -1258    -1385    -1351    -1273    -1312 
   -1379    -1266    -1008     -783     -635     -571     -527     -363 
    -136     -103     -349     -715    -1027    -1289    -1593    -1915 
   -2153    -2249    -2212    -2092    -1890    -1537     -997     -360 
     232      688      957     1024      943      714      230     -440 
   -1081    -1583    -1919    -2070    -2061    -1899    -1599    -1252 
    -989     -854     -810     -873    -1020    -1073     -958     -842 
    -799     -730     -643     -619     -619     -576     -494     -368 
    -259     -330     -580     -820    -1003    -1189    -1313    -1263 
   -1067     -842     -619     -394     -251     -234     -291     -429 
    -625     -761     -818     -843     -870     -926    -1020    -1140 
   -1250    -1350    -1463    -1470    -1291    -1077     -915     -796 
    -754     -729     -607     -438     -386     -506     -673     -781 
    -874     -997    -1148    -1328    -1435    -1385    -1275    -1235 
   -1244    -1209    -1115     -965     -754     -560     -467     -461 
    -495     -565     -639     -688     -712     -689     -627     -607 
    -660     -768     -911    -1024    -1053    -1007     -930     -881 
    -877     -908     -970    -1030    -1062    -1084    -1067     -953 
    -746     -513     -310     -216     -263     -346     -394     -468 
    -626     -824    -1015    -1205    -1370    -1451    -1495    -1539 
   -1493    -1348    -1158     -939     -761     -702     -719     -693 
    -596     -518     -473     -382     -274     -206     -159     -201 
    -396     -637     -796     -888     -974    -1057    -1135    -1243 
   -1358    -1410    -1431    -1480    -1563    -1610    -1541    -1350 
   -1123     -896     -657     -461     -379     -407     -498     -599 
    -695     -795     -907    -1012    -1063    -1058    -1093    -1205 
   -1297    -1262    -1085     -828     -610     -515     -503     -468 
    -418     -460     -589     -700     -733     -669     -554     -513 
    -548     -546     -548     -692     -945    -1129    -1190    -1225 
   -1281    -1305    -1262    -1124     -905     -715     -616     -540 
    -413     -303     -302     -406     -600     -824     -927     -923 
    -982    -1108    -1166    -1120    -1012     -865     -757     -777 
    -839     -807     -773     -880    -1074    -1219    -1255    -1215 
   -1165    -1147    -1142    -1113    -1070    -1048    -1062    -1113 
   -1178    -1188    -1124    -1038     -967     -904     -830     -730 
    -611     -525     -486     -429     -325     -229     -197     -225 
    -310     -454     -604     -716     -828     -965    -1053    -1077 
   -1109    -1121    -1062    -1019    -1048    -1073    -1054    -1017 
    -947     -832     -726     -642     -531     -421     -379     -376 
    -367     -399     -496     -595     -676     -772     -851     -908 
   -1016    -1196    -1360    -1443    -1459    -1444    -1428    -1420 
   -1387    -1306    -1208    -1104     -981     -849     -733     -660 
    -665     -706     -703     -665     -653     -684     -700     -668 
    -607     -545     -541     -649     -816     -926     -946     -936 
    -932     -908     -870     -842     -816     -822     -873     -900 
