Origin Time       2024/03/16 06:34:00
Lat.              32.907
Long.             131.047
Depth. (km)       7
Mag.              3.3
Station Code      KMM004
Station Lat.      32.9318
Station Long.     131.1203
Station Height(m) 554
Record Time       2024/03/16 06:34:35
Sampling Freq(Hz) 100Hz
Duration Time(s)  60
Dir.              N-S
Scale Factor      7845(gal)/8223790
Max. Acc. (gal)   7.849
Last Correction   2024/03/16 06:34:34
Memo.             
[...]
   -2725    -2736    -2736    -2729    -2735    -2737    -2733    -2733 
   -2735    -2736    -2732    -2732    -2739    -2736    -2728    -2732 
   -2740    -2733    -2728    -2735    -2740    -2735    -2733    -2739 
   -2737    -2732    -2733    -2740    -2739    -2729    -2729    -2739 
   -2733    -2724    -2732    -2739    -2731    -2729    -2739    -2739 
   -2733    -2733    -2736    -2735    -2731    -2729    -2733    -2732 
   -2732    -2740    -2743    -2733    -2731    -2737    -2737    -2732 
   -2732    -2736    -2736    -2731    -2728    -2735    -2735    -2729 
   -2733    -2739    -2733    -2732    -2741    -2739    -2728    -2728 
   -2733    -2731    -2725    -2732    -2739    -2735    -2728    -2735 
   -2740    -2731    -2727    -2736    -2739    -2725    -2728    -2740 
   -2737    -2731    -2733    -2737    -2732    -2729    -2736    -2740 
   -2735    -2732    -2735    -2735    -2732    -2733    -2739    -2739 
   -2731    -2729    -2735    -2736    -2736    -2741    -2740    -2731 
   -2731    -2736    -2736    -2733    -2736    -2741    -2737    -2731 
   -2731    -2733    -2732    -2731    -2737    -2739    -2733    -2735 
   -2736    -2733    -2732    -2736    -2741    -2741    -2733    -2731 
   -2732    -2732    -2728    -2729    -2736    -2732    -2727    -2735 
   -2737    -2732    -2732    -2736    -2733    -2729    -2732    -2736 
   -2735    -2732    -2737    -2741    -2736    -2733    -2739    -2737 
   -2728    -2728    -2736    -2736    -2733    -2737    -2740    -2732 
   -2729    -2736    -2736    -2728    -2732    -2737    -2731    -2729 
   -2737    -2737    -2731    -2729    -2735    -2735    -2731    -2735 
   -2740    -2739    -2732    -2731    -2731    -2727    -2729    -2739 
   -2743    -2741    -2732    -2722    -2728    -2737    -2741    -2735 
   -2729    -2737    -2741    -2737    -2737    -2737    -2735    -2733 
   -2729    -2728    -2736    -2740    -2732    -2731    -2737    -2737 
   -2731    -2728    -2733    -2735    -2724    -2728    -2740    -2735 
   -2727    -2733    -2736    -2733    -2736    -2737    -2732    -2732 
   -2739    -2739    -2731    -2731    -2739    -2735    -2725    -2728 
   -2735    -2731    -2732    -2743    -2743    -2729    -2720    -2728 
   -2743    -2740    -2729    -2735    -2737    -2731    -2732    -2741 
   -2740    -2727    -2731    -2740    -2733    -2733    -2743    -2737 
   -2729    -2733    -2737    -2729    -2727    -2739    -2740    -2729 
   -2728    -2737    -2739    -2728    -2727    -2739    -2741    -2735 
   -2735    -2739    -2735    -2728    -2735    -2743    -2735    -2725 
   -2732    -2739    -2732    -2736    -2751    -2739    -2716    -2725 
   -2744    -2735    -2721    -2739    -2751    -2729    -2727    -2745 
   -2739    -2720    -2729    -2741    -2733    -2728    -2733    -2735 
   -2735    -2735    -2736    -2736    -2732    -2735    -2740    -2735 
   -2728    -2735    -2741    -2735    -2728    -2737    -2743    -2733 
   -2729    -2736    -2736    -2728    -2725    -2731    -2735    -2733 
   -2732    -2739    -2743    -2736    -2731    -2731    -2728    -2729 
   -2740    -2743    -2732    -2732    -2744    -2740    -2729    -2736 
   -2741    -2729    -2727    -2736    -2737    -2729    -2729    -2733 
   -2736    -2733    -2731    -2735    -2737    -2732    -2732    -2736 
   -2736    -2735    -2735    -2732    -2728    -2731    -2739    -2739 
   -2735    -2739    -2740    -2737    -2732    -2727    -2729    -2733 
   -2733    -2740    -2748    -2741    -2727    -2727    -2736    -2737 
   -2731    -2732    -2735    -2735    -2737    -2743    -2737    -2727 
   -2728    -2736    -2736    -2733    -2733    -2733    -2729    -2732 
   -2735    -2736    -2733    -2735    -2740    -2737    -2729    -2733 
   -2739    -2731    -2724    -2732    -2743    -2740    -2735    -2733 
   -2733    -2729    -2728    -2732    -2737    -2737    -2739    -2739 
   -2733    -2728    -2731    -2733    -2735    -2733    -2733    -2736 
   -2735    -2732    -2737    -2736    -2729    -2735    -2740    -2731 
   -2728    -2737    -2740    -2731    -2731    -2739    -2736    -2732 
   -2737    -2740    -2732    -2728    -2732    -2736    -2733    -2728 
   -2731    -2737    -2735    -2736    -2740    -2737    -2732    -2731 
   -2729    -2729    -2731    -2737    -2741    -2732    -2728    -2736 
   -2737    -2736    -2735    -2729    -2731    -2735    -2736    -2740 
   -2739    -2733    -2737    -2741    -2729    -2724    -2735    -2739 
   -2733    -2735    -2740    -2736    -2729    -2733    -2737    -2733 
   -2732    -2739    -2744    -2733    -2727    -2737    -2737    -2728 
   -2732    -2737    -2736    -2731    -2732    -2736    -2729    -2729 
   -2743    -2745    -2736    -2736    -2741    -2735    -2727    -2733 
   -2739    -2733    -2731    -2733    -2736    -2733    -2731    -2735 
   -2739    -2736    -2737    -2739    -2733    -2731    -2736    -2740 
   -2735    -2732    -2739    -2740    -2731    -2732    -2741    -2736 
   -2729    -2735    -2737    -2731    -2731    -2740    -2740    -2731 
   -2729    -2737    -2736    -2728    -2729    -2736    -2733    -2731 
   -2739    -2741    -2731    -2727    -2735    -2739    -2732    -2733 
   -2743    -2740    -2732    -2732    -2736    -2735    -2731    -2732 
   -2736    -2731    -2728    -2737    -2737    -2731    -2735    -2740 
   -2732    -2728    -2736    -2739    -2733    -2732    -2736    -2735 
   -2729    -2729    -2736    -2736    -2727    -2728    -2739    -2736 
   -2729    -2740    -2745    -2731    -2718    -2732    -2743    -2733 
   -2728    -2735    -2736    -2733    -2736    -2732    -2727    -2735 
   -2743    -2733    -2718    -2727    -2743    -2743    -2733    -2732 
   -2739    -2739    -2727    -2729    -2739    -2731    -2727    -2737 
   -2740    -2732    -2731    -2735    -2732    -2731    -2733    -2735 
   -2732    -2728    -2732    -2740    -2736    -2733    -2741    -2736 
   -2725    -2732    -2740    -2732    -2727    -2731    -2736    -2733 
   -2731    -2737    -2740    -2731    -2725    -2733    -2736    -2731 
   -2732    -2736    -2732    -2731    -2740    -2744    -2743    -2744 
   -2732    -2718    -2727    -2741    -2739    -2722    -2727    -2744 
   -2744    -2732    -2724    -2727    -2740    -2741    -2731    -2732 
   -2741    -2739    -2728    -2731    -2736    -2729    -2732    -2741 
   -2736    -2729    -2737    -2740    -2729    -2724    -2733    -2735 
   -2728    -2731    -2739    -2736    -2729    -2732    -2733    -2729 
   -2729    -2737    -2739    -2733    -2732    -2736    -2739    -2735 
   -2735    -2736    -2732    -2727    -2732    -2736    -2731    -2736 
   -2748    -2736    -2718    -2727    -2740    -2728    -2721    -2743 
   -2747    -2731    -2731    -2737    -2733    -2727    -2732    -2737 
   -2737    -2736    -2732    -2729    -2732    -2735    -2735    -2733 
   -2731    -2729    -2732    -2735    -2731    -2729    -2736    -2737 
   -2728    -2729    -2737    -2735    -2731    -2735    -2739    -2733 
   -2731    -2733    -2735    -2731    -2732    -2739    -2740    -2737 
   -2732    -2722    -2722    -2735    -2739    -2735    -2732    -2731 
   -2737    -2744    -2739    -2731    -2736    -2739    -2733    -2731 
   -2735    -2733    -2729    -2735    -2739    -2733    -2731    -2737 
   -2736    -2725    -2727    -2740    -2740    -2728    -2731    -2737 
   -2732    -2728    -2736    -2736    -2728    -2731    -2740    -2741 
   -2732    -2728    -2733    -2737    -2735    -2735    -2743    -2743 
   -2725    -2713    -2727    -2745    -2739    -2731    -2740    -2735 
   -2724    -2733    -2737    -2724    -2727    -2744    -2736    -2727 
   -2744    -2743    -2722    -2727    -2737    -2732    -2729    -2735 
   -2733    -2725    -2729    -2740    -2737    -2731    -2735    -2739 
   -2735    -2732    -2732    -2729    -2727    -2731    -2737    -2736 
   -2729    -2729    -2737    -2737    -2729    -2736    -2748    -2736 
   -2718    -2729    -2743    -2733    -2728    -2739    -2736    -2728 
   -2737    -2743    -2732    -2727    -2732    -2733    -2733    -2732 
   -2736    -2736    -2733    -2731    -2731    -2733    -2733    -2731 
   -2736    -2739    -2732    -2732    -2737    -2733    -2729    -2732 
   -2736    -2732    -2729    -2736    -2739    -2729    -2724    -2729 
   -2737    -2739    -2736    -2744    -2748    -2733    -2720    -2724 
   -2736    -2737    -2729    -2732    -2736    -2728    -2732    -2740 
   -2729    -2725    -2741    -2741    -2728    -2729    -2737    -2731 
   -2729    -2739    -2739    -2733    -2736    -2739    -2733    -2729 
   -2732    -2739    -2735    -2729    -2733    -2735    -2729    -2728 
   -2733    -2733    -2729    -2732    -2735    -2736    -2739    -2740 
   -2743    -2737    -2729    -2729    -2732    -2731    -2739    -2744 
   -2735    -2725    -2735    -2747    -2741    -2729    -2732    -2736 
   -2729    -2729    -2739    -2736    -2732    -2739    -2741    -2732 
   -2728    -2732    -2733    -2732    -2731    -2735    -2736    -2731 
   -2733    -2739    -2736    -2729    -2732    -2736    -2735    -2735 
   -2736    -2733    -2727    -2727    -2733    -2735    -2737    -2743 
   -2737    -2720    -2717    -2740    -2747    -2729    -2729    -2736 
   -2732    -2735    -2739    -2731    -2729    -2736    -2737    -2735 
   -2736    -2733    -2731    -2736    -2737    -2732    -2732    -2733 
   -2728    -2728    -2736    -2737    -2731    -2732    -2739    -2737 
   -2732    -2735    -2736    -2725    -2727    -2739    -2736    -2725 
   -2729    -2739    -2741    -2736    -2740    -2745    -2735    -2717 
   -2722    -2741    -2740    -2727    -2731    -2732    -2725    -2735 
   -2740    -2728    -2724    -2733    -2741    -2736    -2731    -2735 
   -2736    -2731    -2728    -2735    -2740    -2735    -2732    -2739 
   -2736    -2729    -2732    -2737    -2733    -2732    -2736    -2737 
   -2732    -2729    -2736    -2736    -2727    -2731    -2740    -2735 
   -2732    -2747    -2754    -2729    -2710    -2727    -2745    -2732 
   -2728    -2747    -2744    -2725    -2736    -2745    -2731    -2731 
   -2739    -2733    -2729    -2737    -2740    -2731    -2727    -2736 
   -2739    -2731    -2729    -2732    -2736    -2736    -2732    -2735 
   -2741    -2735    -2728    -2736    -2737    -2727    -2725    -2737 
   -2739    -2732    -2732    -2735    -2733    -2731    -2733    -2735 
   -2736    -2737    -2735    -2731    -2735    -2737    -2732    -2722 
   -2727    -2736    -2736    -2733    -2733    -2735    -2739    -2737 
   -2728    -2729    -2737    -2733    -2731    -2736    -2736    -2731 
   -2731    -2739    -2735    -2731    -2735    -2737    -2732    -2728 
   -2732    -2736    -2732    -2731    -2736    -2739    -2735    -2731 
   -2733    -2735    -2729    -2731    -2736    -2731    -2729    -2735 
   -2736    -2733    -2736    -2740    -2739    -2735    -2736    -2743 
   -2737    -2729    -2732    -2733    -2729    -2731    -2737    -2739 
   -2733    -2729    -2732    -2735    -2732    -2732    -2736    -2735 
   -2728    -2732    -2740    -2733    -2725    -2736    -2741    -2733 
   -2731    -2732    -2732    -2733    -2737    -2739    -2733    -2728 
   -2735    -2736    -2732    -2736    -2739    -2736    -2732    -2731 
   -2732    -2732    -2731    -2732    -2739    -2737    -2731    -2733 
   -2732    -2724    -2731    -2739    -2735    -2735    -2739    -2741 
   -2737    -2731    -2735    -2737    -2735    -2733    -2735    -2739 
   -2733    -2731    -2737    -2739    -2729    -2727    -2735    -2733 
   -2724    -2731    -2739    -2731    -2729    -2739    -2722    -2697 
   -2720    -2740    -2735    -2806    -2893    -2763    -2440    -2330 
   -2629    -2959    -3026    -2991    -2879    -2624    -2295    -1895 
   -2060    -3146    -3844    -3753    -3765    -3443    -2346    -1406 
   -1779    -3145    -3553    -2957    -2697    -2390    -2228    -2066 
   -1301    -2214    -4405    -4101    -2546    -2556    -2972    -3002 
   -2550    -1921    -2516    -2749    -1923    -2438    -3859    -4517 
   -3601    -1755    -1572    -2585    -2328    -1300    -2066    -4703 
   -4985    -2543    -1537    -2440    -2736    -1729    -1804    -2693 
   -3021    -3642    -2922    -2188    -3586    -3761    -2374    -2087 
   -2493    -2720    -3087    -3576    -4033    -3858    -3134    -2789 
   -2141    -1598    -2196    -2359    -2023    -2671    -2852    -1914 
   -2459    -4086    -3623    -2533    -2914    -2812    -2443    -2879 
   -2521    -1675    -2165    -2897    -2789    -2751    -2373    -2354 
   -3242    -2478    -1101    -1736    -2535    -3121    -4159    -3847 
   -3489    -4006    -2909    -2292    -3881    -3360    -1487    -2558 
   -3865    -2855    -2050    -2540    -3649    -3807    -2203    -1930 
   -2589    -1391    -1132    -1525     -824    -2948    -5560    -4229 
   -3578    -3719    -1244    -1023    -3596    -4158    -3626    -2740 
   -2214    -3689    -3551    -1493    -2304    -4075    -3867    -3303 
   -1347      735     -903    -2678    -2586    -3618    -3607    -2219 
   -2335    -2273    -1647    -2531    -3574    -3400    -3234    -2111 
    -238     -596    -1491    -1351    -2498    -4403    -4820    -3354 
   -1476    -1734    -3690    -4212    -2775    -2126    -3165    -3082 
   -2004    -2565    -2829     -932      662      410    -1043    -2613 
   -3716    -5618    -8360    -8626    -4490     1198     4302     3424 
    -778    -6763   -10962   -10146    -5857    -1449     1179      253 
   -3318    -5953    -6764    -7555    -8197    -6308    -1854     2027 
    2704      562    -1220    -1320    -2207    -3704    -3204    -2623 
   -3140    -2651    -2641    -3019    -1304      141     -113     -643 
   -1860    -3321    -4179    -4353    -3132    -1499    -1237    -3083 
   -6058    -6482    -3510     -822     -201     -379     -432    -1455 
   -4104    -6076    -5390    -3296    -1980    -1806    -2581    -4334 
   -4932    -3106    -1466     -530      778      184    -2544    -5247 
   -7491    -7285    -4010    -1826    -2122    -2249    -2629    -4382 
   -4788    -3273    -2087     -974     -584    -2277    -3596    -3190 
   -2918    -3069    -3033    -3121    -3362    -3954    -4419    -3341 
   -1467       72     1339     1113     -618    -2347    -3692    -4033 
   -3796    -4410    -5077    -4791    -3574    -1432       36     -591 
   -2269    -3731    -4503    -4313    -2871     -982     -306     -554 
    -966    -1942    -3126    -4079    -4577    -4222    -3427    -2317 
   -1071     -711    -1719    -3863    -5769    -5656    -3561    -1185 
    -147     -406    -1085    -2127    -3180    -3657    -3882    -3747 
   -3393    -4012    -4761    -3669    -1853    -1752    -2614    -2319 
   -1444    -1246    -1301    -1782    -3446    -5273    -5923    -5691 
   -5022    -3682    -2146    -1676    -2166    -2389    -2273    -2103 
   -1864    -2050    -2639    -2945    -2957    -3321    -3618    -2805 
   -1555     -909     -715     -733    -1193    -2145    -2606    -2214 
   -1987    -2069    -2174    -2899    -4129    -4765    -4877    -5213 
   -5265    -4299    -2652    -1232     -540     -683    -1965    -3578 
   -4313    -4752    -4877    -3781    -2346    -1389    -1323    -2555 
   -3514    -3268    -2601    -1728    -1040     -735     -747    -1364 
   -1868    -1814    -1884    -1980    -2149    -3149    -4202    -4278 
   -4187    -4152    -3415    -2435    -2157    -2872    -3581    -3218 
   -2847    -3001    -2494    -1439     -742     -534    -1021    -2235 
   -3244    -3550    -3739    -3947    -4126    -4536    -4545    -3874 
   -3416    -3439    -3767    -3856    -3036    -2130    -1534     -600 
      48     -224    -1146    -2509    -3537    -3642    -3446    -3302 
   -3334    -3816    -4422    -5202    -5790    -5081    -3838    -3125 
   -2647    -2604    -2930    -2972    -2693    -1983     -967     -233 
     -94     -850    -2052    -2648    -2609    -2135    -1190     -395 
    -422    -1254    -2351    -3006    -2934    -2668    -2894    -3526 
   -3874    -3738    -3904    -4880    -5934    -5952    -4788    -3684 
   -3389    -3175    -2764    -2627    -2613    -2133    -1264     -688 
    -326     -261    -1239    -2257    -2463    -3127    -4074    -4282 
   -4276    -4155    -3901    -3838    -3693    -3651    -3836    -3686 
   -3034    -2355    -2139    -2004    -1575    -1286    -1236    -1109 
    -639       40      241     -125     -631    -1239    -1759    -2052 
   -2457    -2848    -2926    -3098    -3751    -4733    -5576    -5941 
   -5917    -5809    -5643    -5031    -4070    -3257    -2589    -2150 
   -1977    -1696    -1471    -1491    -1205     -584     -363     -560 
    -697     -815    -1142    -1769    -2566    -3130    -3339    -3611 
   -4064    -4240    -4212    -4450    -4534    -4128    -3754    -3524 
   -3207    -2868    -2668    -2876    -3458    -3843    -3759    -3430 
   -2859    -2199    -1894    -1807    -1644    -1530    -1502    -1587 
   -1683    -1412    -1081    -1104    -1198    -1435    -1849    -2262 
   -3026    -3952    -4392    -4428    -4438    -4476    -4313    -3901 
   -3573    -3447    -3407    -3589    -3781    -3450    -2779    -2214 
   -1772    -1379    -1152    -1318    -1845    -2533    -3132    -3393 
   -3488    -3491    -3109    -2593    -2509    -2713    -2691    -2543 
   -2536    -2365    -1906    -1632    -1850    -2401    -2906    -3150 
   -3183    -3125    -3144    -3150    -2920    -2798    -2999    -3088 
   -3033    -2947    -2729    -2659    -2770    -2774    -2785    -2876 
   -2847    -2651    -2527    -2731    -3150    -3414    -3362    -3149 
   -2987    -2872    -2708    -2648    -2851    -3080    -3150    -3038 
   -2704    -2234    -1641    -1112    -1078    -1593    -2371    -3032 
   -3353    -3257    -2668    -1989    -1645    -1557    -1810    -2535 
   -3368    -3883    -4010    -3730    -3308    -3227    -3331    -3365 
   -3427    -3334    -3019    -2559    -1784     -957     -565     -529 
    -688    -1063    -1521    -2003    -2459    -2732    -2976    -3308 
   -3520    -3616    -3750    -3970    -4172    -4105    -3851    -3802 
   -3982    -4117    -4110    -4021    -3821    -3501    -3017    -2300 
   -1655    -1327    -1193    -1291    -1545    -1794    -2085    -2367 
   -2678    -3015    -3145    -3064    -2972    -3041    -3264    -3276 
   -3005    -2802    -2640    -2434    -2407    -2540    -2752    -2998 
   -3110    -3144    -3094    -2795    -2508    -2508    -2671    -2814 
   -2736    -2513    -2455    -2431    -2266    -2047    -1872    -1804 
   -1701    -1583    -1698    -1877    -1977    -2245    -2671    -2983 
   -3149    -3222    -3164    -3126    -3333    -3632    -3838    -4071 
   -4290    -4345    -4263    -3989    -3576    -3214    -2901    -2728 
   -2783    -2818    -2675    -2459    -2263    -2115    -2008    -1937 
   -1818    -1676    -1686    -1809    -1921    -2119    -2531    -2964 
   -3159    -3159    -3068    -2986    -2951    -2867    -2859    -2987 
   -3154    -3447    -3771    -3977    -4055    -3856    -3503    -3252 
   -3007    -2731    -2443    -2072    -1732    -1470    -1286    -1364 
   -1688    -2091    -2529    -2928    -3145    -3127    -2982    -2820 
   -2679    -2644    -2583    -2359    -2162    -2025    -1935    -2029 
