Origin Time       2024/03/16 06:34:00
Lat.              32.907
Long.             131.047
Depth. (km)       7
Mag.              3.3
Station Code      KMM005
Station Lat.      32.8761
Station Long.     130.8771
Station Height(m) 125
Record Time       2024/03/16 06:34:38
Sampling Freq(Hz) 100Hz
Duration Time(s)  60
Dir.              U-D
Scale Factor      7845(gal)/8223790
Max. Acc. (gal)   3.508
Last Correction   2024/03/16 06:34:38
Memo.             
[...]
  -11033   -11034   -11032   -11033   -11048   -11053   -11038   -11030 
  -11038   -11036   -11028   -11034   -11043   -11040   -11036   -11043 
  -11041   -11036   -11038   -11038   -11028   -11029   -11038   -11043 
  -11038   -11040   -11038   -11034   -11037   -11041   -11037   -11033 
  -11033   -11032   -11037   -11047   -11044   -11034   -11034   -11043 
  -11038   -11033   -11037   -11038   -11036   -11037   -11040   -11034 
  -11036   -11044   -11037   -11030   -11040   -11040   -11029   -11036 
  -11043   -11037   -11036   -11041   -11037   -11032   -11038   -11044 
  -11036   -11032   -11043   -11044   -11034   -11036   -11043   -11037 
  -11029   -11034   -11038   -11034   -11038   -11043   -11038   -11038 
  -11045   -11043   -11033   -11036   -11043   -11032   -11028   -11037 
  -11038   -11037   -11045   -11047   -11036   -11032   -11037   -11037 
  -11037   -11045   -11044   -11034   -11034   -11040   -11041   -11037 
  -11033   -11030   -11030   -11040   -11048   -11043   -11037   -11037 
  -11034   -11033   -11038   -11040   -11033   -11033   -11041   -11041 
  -11038   -11045   -11045   -11034   -11032   -11037   -11030   -11029 
  -11044   -11044   -11037   -11044   -11047   -11032   -11028   -11038 
  -11038   -11033   -11036   -11037   -11036   -11045   -11053   -11043 
  -11026   -11030   -11036   -11033   -11041   -11045   -11033   -11029 
  -11043   -11051   -11043   -11038   -11037   -11026   -11028   -11047 
  -11047   -11033   -11034   -11040   -11034   -11034   -11044   -11040 
  -11030   -11034   -11038   -11036   -11038   -11041   -11032   -11029 
  -11040   -11043   -11040   -11043   -11038   -11028   -11029   -11040 
  -11041   -11033   -11034   -11038   -11032   -11032   -11038   -11037 
  -11036   -11044   -11044   -11034   -11033   -11040   -11038   -11034 
  -11038   -11036   -11030   -11038   -11048   -11041   -11034   -11038 
  -11037   -11029   -11032   -11043   -11036   -11036   -11047   -11044 
  -11029   -11029   -11034   -11032   -11040   -11048   -11038   -11030 
  -11034   -11037   -11036   -11036   -11043   -11041   -11030   -11032 
  -11040   -11033   -11033   -11044   -11038   -11029   -11034   -11040 
  -11037   -11038   -11040   -11032   -11030   -11040   -11041   -11038 
  -11040   -11038   -11030   -11032   -11045   -11045   -11033   -11033 
  -11037   -11033   -11040   -11048   -11041   -11034   -11036   -11032 
  -11028   -11036   -11044   -11034   -11032   -11041   -11038   -11029 
  -11037   -11044   -11032   -11029   -11038   -11038   -11036   -11045 
  -11044   -11030   -11032   -11043   -11038   -11029   -11033   -11038 
  -11036   -11036   -11041   -11036   -11030   -11038   -11044   -11040 
  -11040   -11040   -11032   -11030   -11040   -11041   -11033   -11034 
  -11041   -11037   -11036   -11043   -11040   -11033   -11034   -11040 
  -11036   -11030   -11036   -11041   -11040   -11043   -11043   -11034 
  -11033   -11034   -11030   -11032   -11041   -11038   -11034   -11040 
  -11043   -11034   -11033   -11043   -11043   -11037   -11040   -11037 
  -11030   -11034   -11041   -11038   -11036   -11044   -11044   -11032 
  -11033   -11040   -11036   -11034   -11044   -11041   -11029   -11036 
  -11045   -11034   -11030   -11043   -11040   -11034   -11041   -11043 
  -11033   -11030   -11036   -11036   -11029   -11037   -11049   -11043 
  -11034   -11037   -11033   -11029   -11038   -11044   -11034   -11033 
  -11041   -11037   -11033   -11043   -11044   -11033   -11034   -11041 
  -11038   -11034   -11040   -11040   -11034   -11034   -11036   -11033 
  -11036   -11040   -11034   -11033   -11043   -11043   -11034   -11034 
  -11041   -11037   -11034   -11038   -11033   -11032   -11040   -11040 
  -11033   -11038   -11045   -11038   -11029   -11034   -11040   -11036 
  -11036   -11043   -11043   -11036   -11037   -11037   -11026   -11030 
  -11043   -11038   -11034   -11045   -11045   -11033   -11033   -11038 
  -11036   -11036   -11044   -11044   -11033   -11033   -11043   -11037 
  -11032   -11036   -11036   -11036   -11045   -11048   -11037   -11032 
  -11038   -11040   -11030   -11033   -11040   -11034   -11032   -11038 
  -11041   -11040   -11040   -11036   -11030   -11034   -11038   -11037 
  -11040   -11044   -11038   -11030   -11034   -11043   -11040   -11036 
  -11037   -11033   -11030   -11043   -11044   -11030   -11032   -11040 
  -11034   -11033   -11040   -11043   -11036   -11038   -11043   -11034 
  -11030   -11040   -11040   -11032   -11036   -11043   -11034   -11033 
  -11047   -11045   -11032   -11032   -11038   -11036   -11034   -11037 
  -11033   -11032   -11045   -11049   -11032   -11025   -11037   -11037 
  -11030   -11038   -11043   -11037   -11040   -11045   -11034   -11026 
  -11038   -11045   -11037   -11033   -11033   -11033   -11036   -11038 
  -11041   -11040   -11038   -11037   -11034   -11036   -11040   -11034 
  -11030   -11037   -11043   -11038   -11034   -11036   -11037   -11038 
  -11044   -11037   -11028   -11036   -11044   -11037   -11037   -11041 
  -11034   -11032   -11037   -11036   -11029   -11032   -11044   -11040 
  -11032   -11043   -11051   -11036   -11028   -11033   -11029   -11029 
  -11051   -11053   -11036   -11034   -11040   -11032   -11028   -11037 
  -11040   -11032   -11037   -11044   -11040   -11040   -11048   -11041 
  -11029   -11029   -11038   -11034   -11028   -11037   -11047   -11047 
  -11048   -11043   -11026   -11024   -11037   -11040   -11034   -11038 
  -11040   -11036   -11041   -11045   -11037   -11033   -11034   -11033 
  -11034   -11041   -11044   -11040   -11043   -11045   -11034   -11029 
  -11038   -11040   -11032   -11030   -11034   -11037   -11043   -11048 
  -11040   -11030   -11033   -11040   -11041   -11038   -11038   -11036 
  -11034   -11038   -11044   -11040   -11033   -11034   -11036   -11037 
  -11043   -11047   -11040   -11032   -11034   -11036   -11036   -11047 
  -11052   -11038   -11028   -11032   -11034   -11036   -11047   -11043 
  -11026   -11030   -11048   -11048   -11038   -11040   -11040   -11032 
  -11030   -11038   -11040   -11036   -11038   -11038   -11033   -11038 
  -11043   -11034   -11032   -11037   -11037   -11034   -11040   -11040 
  -11032   -11036   -11043   -11036   -11029   -11036   -11040   -11038 
  -11038   -11040   -11032   -11029   -11037   -11038   -11034   -11040 
  -11041   -11033   -11033   -11040   -11038   -11036   -11044   -11043 
  -11030   -11033   -11045   -11040   -11032   -11043   -11043   -11030 
  -11034   -11041   -11033   -11030   -11040   -11047   -11043   -11040 
  -11037   -11028   -11030   -11044   -11041   -11029   -11033   -11041 
  -11038   -11037   -11043   -11040   -11034   -11038   -11037   -11026 
  -11032   -11047   -11047   -11037   -11036   -11040   -11037   -11032 
  -11030   -11032   -11037   -11043   -11038   -11033   -11038   -11044 
  -11044   -11043   -11038   -11033   -11028   -11030   -11037   -11037 
  -11043   -11047   -11036   -11030   -11037   -11037   -11034   -11040 
  -11043   -11036   -11032   -11040   -11044   -11036   -11034   -11041 
  -11036   -11029   -11036   -11040   -11037   -11043   -11041   -11033 
  -11032   -11038   -11037   -11026   -11030   -11043   -11041   -11040 
  -11047   -11040   -11029   -11037   -11038   -11030   -11034   -11047 
  -11043   -11032   -11037   -11044   -11040   -11043   -11047   -11034 
  -11022   -11026   -11034   -11037   -11044   -11052   -11044   -11029 
  -11026   -11030   -11037   -11047   -11044   -11032   -11030   -11040 
  -11043   -11040   -11038   -11032   -11029   -11038   -11045   -11037 
  -11032   -11038   -11037   -11030   -11040   -11049   -11036   -11030 
  -11038   -11037   -11040   -11047   -11040   -11025   -11026   -11040 
  -11043   -11037   -11040   -11036   -11030   -11040   -11048   -11041 
  -11034   -11033   -11034   -11034   -11040   -11048   -11038   -11030 
  -11040   -11044   -11038   -11038   -11037   -11033   -11036   -11045 
  -11043   -11033   -11034   -11038   -11034   -11034   -11040   -11037 
  -11034   -11043   -11045   -11036   -11033   -11038   -11036   -11037 
  -11044   -11040   -11030   -11037   -11043   -11034   -11033   -11038 
  -11034   -11033   -11041   -11045   -11036   -11030   -11033   -11030 
  -11034   -11047   -11043   -11032   -11038   -11044   -11034   -11034 
  -11043   -11040   -11030   -11032   -11037   -11034   -11040   -11053 
  -11044   -11026   -11029   -11034   -11030   -11036   -11048   -11045 
  -11038   -11041   -11044   -11034   -11028   -11034   -11034   -11034 
  -11043   -11043   -11036   -11040   -11047   -11034   -11022   -11028 
  -11043   -11049   -11047   -11040   -11026   -11024   -11040   -11049 
  -11041   -11032   -11029   -11034   -11049   -11057   -11044   -11025 
  -11017   -11025   -11038   -11053   -11057   -11038   -11024   -11032 
  -11040   -11037   -11041   -11036   -11025   -11030   -11047   -11049 
  -11043   -11040   -11040   -11032   -11029   -11044   -11047   -11034 
  -11034   -11037   -11032   -11036   -11043   -11034   -11032   -11043 
  -11044   -11036   -11038   -11044   -11030   -11020   -11033   -11045 
  -11045   -11044   -11037   -11026   -11028   -11043   -11048   -11038 
  -11036   -11037   -11029   -11032   -11047   -11045   -11037   -11036 
  -11037   -11040   -11044   -11041   -11032   -11029   -11038   -11041 
  -11036   -11038   -11040   -11037   -11038   -11038   -11033   -11037 
  -11043   -11036   -11030   -11034   -11038   -11041   -11040   -11038 
  -11041   -11037   -11034   -11040   -11038   -11034   -11038   -11038 
  -11032   -11036   -11044   -11041   -11036   -11038   -11040   -11032 
  -11036   -11044   -11034   -11032   -11044   -11041   -11030   -11030 
  -11036   -11037   -11040   -11044   -11040   -11032   -11036   -11040 
  -11028   -11026   -11043   -11045   -11038   -11040   -11038   -11032 
  -11034   -11043   -11040   -11026   -11029   -11041   -11038   -11038 
  -11047   -11037   -11026   -11036   -11038   -11032   -11037   -11044 
  -11040   -11036   -11038   -11040   -11034   -11034   -11036   -11032 
  -11033   -11044   -11049   -11051   -11048   -11032   -11018   -11021 
  -11033   -11044   -11052   -11051   -11034   -11022   -11033   -11049 
  -11044   -11037   -11038   -11026   -11022   -11040   -11051   -11044 
  -11040   -11037   -11025   -11026   -11047   -11048   -11029   -11029 
  -11043   -11041   -11041   -11045   -11033   -11022   -11032   -11044 
  -11043   -11040   -11040   -11034   -11028   -11037   -11049   -11043 
  -11033   -11034   -11034   -11034   -11043   -11047   -11038   -11033 
  -11034   -11032   -11029   -11036   -11044   -11045   -11044   -11044 
  -11034   -11026   -11033   -11038   -11037   -11044   -11047   -11034 
  -11032   -11040   -11038   -11030   -11032   -11034   -11033   -11041 
  -11051   -11038   -11029   -11036   -11041   -11043   -11045   -11043 
  -11030   -11028   -11038   -11041   -11037   -11044   -11045   -11026 
  -11026   -11048   -11049   -11036   -11033   -11037   -11036   -11038 
  -11045   -11040   -11029   -11034   -11040   -11030   -11037   -11059 
  -11070   -11074   -11084   -11094   -11098   -11068   -10925   -10663 
  -10415   -10308   -10380   -10666   -11182   -11767   -12170   -12263 
  -12069   -11673   -11192   -10733   -10376   -10203   -10251   -10428 
  -10670   -11078   -11556   -11734   -11507   -11097   -10675   -10376 
  -10330   -10559   -10974   -11349   -11514   -11611   -11728   -11655 
  -11383   -11141   -11030   -10925   -10633   -10347   -10485   -10963 
  -11361   -11506   -11425   -11186   -10901   -10736   -10724   -10663 
  -10552   -10643   -10960   -11353   -11641   -11634   -11326   -10862 
  -10458   -10444   -10810   -11099   -11230   -11449   -11541   -11298 
  -11065   -11144   -11329   -11192   -10712   -10373   -10399   -10598 
  -10895   -11222   -11325   -11167   -11057   -11173   -11368   -11392 
  -11237   -11083   -10943   -10760   -10623   -10655   -10870   -11148 
  -11372   -11473   -11367   -11160   -11087   -11037   -10762   -10447 
  -10451   -10856   -11422   -11727   -11614   -11306   -11026   -10897 
  -10943   -11003   -10847   -10446   -10150   -10409   -11153   -11808 
  -12028   -11908   -11608   -11172   -10652   -10276   -10245   -10474 
  -10812   -11169   -11392   -11427   -11434   -11439   -11210   -10682 
  -10274   -10354   -10687   -11010   -11445   -11893   -11919   -11487 
  -11055   -10929   -10957   -10852   -10588   -10366   -10354   -10624 
  -11114   -11543   -11661   -11493   -11221   -10948   -10721   -10650 
  -10782   -10935   -10957   -10957   -11040   -11232   -11530   -11666 
  -11407   -10960   -10588   -10354   -10319   -10559   -11028   -11497 
  -11761   -11815   -11697   -11433   -11136   -10883   -10654   -10451 
  -10369   -10582   -10997   -11196   -11121   -11007   -10875   -10836 
  -11097   -11469   -11565   -11349   -11190   -11287   -11329   -11095 
  -10845   -10773   -10827   -10991   -11142   -11086   -10906   -10856 
  -11034   -11145   -10785   -10201   -10008   -10272   -10706   -11153 
  -11472   -11541   -11452   -11383   -11306   -11109   -10912   -10871 
  -10939   -11026   -11111   -11160   -11165   -11128   -11068   -11082 
  -11200   -11396   -11649   -11805   -11740   -11572   -11437   -11334 
  -11192   -10837   -10141    -9521    -9599   -10307   -11056   -11470 
  -11591   -11558   -11318   -10837   -10292    -9837    -9578    -9663 
  -10199   -11086   -11958   -12411   -12357   -11896   -11146   -10474 
  -10265   -10515   -11101   -11952   -12861   -13576   -13884   -13536 
  -12499   -11032    -9423    -8050    -7360    -7385    -7873    -8891 
  -10490   -12166   -13262   -13533   -13184   -12627   -12044   -11399 
  -10828   -10492   -10381   -10574   -11032   -11349   -11280   -10926 
  -10531   -10521   -11049   -11611   -11801   -11766   -11568   -11101 
  -10496    -9873    -9242    -8780    -8721    -9185   -10207   -11535 
  -12664   -13331   -13531   -13278   -12757   -12078   -11165   -10135 
   -9246    -8772    -8962    -9702   -10546   -11257   -11947   -12572 
  -12862   -12658   -11977   -11067   -10401   -10147   -10129   -10291 
  -10709   -11399   -12214   -12742   -12571   -11746   -10698    -9741 
   -9132    -9239    -9987   -10932   -11880   -12748   -13286   -13286 
  -12679   -11508   -10007    -8587    -7650    -7496    -8243    -9647 
  -11141   -12302   -13024   -13240   -12873   -12005   -10947   -10145 
   -9880   -10137   -10723   -11419   -12113   -12679   -12822   -12388 
  -11638   -10876   -10150    -9518    -9277    -9563   -10177   -10960 
  -11738   -12166   -12120   -11684   -10908   -10126    -9819    -9996 
  -10403   -10936   -11507   -11996   -12259   -12100   -11610   -11244 
  -11210   -11284   -11299   -11244   -11080   -10872   -10827   -10945 
  -10974   -10824   -10648   -10594   -10709   -10851   -10898   -10960 
  -11061   -11075   -10952   -10692   -10405   -10355   -10659   -11191 
  -11746   -12087   -12063   -11754   -11304   -10762   -10231    -9890 
   -9836   -10107   -10669   -11308   -11696   -11672   -11392   -11113 
  -10895   -10689   -10624   -10841   -11221   -11526   -11664   -11627 
  -11426   -11109   -10689   -10245   -10019   -10168   -10640   -11291 
  -11866   -12118   -12050   -11799   -11429   -10998   -10625   -10420 
  -10494   -10822   -11161   -11358   -11481   -11554   -11506   -11298 
  -11003   -10800   -10789   -10871   -10922   -10908   -10820   -10721 
  -10708   -10692   -10561   -10467   -10578   -10828   -11106   -11331 
  -11399   -11335   -11314   -11361   -11362   -11295   -11160   -10941 
  -10760   -10713   -10724   -10767   -10909   -11122   -11342   -11558 
  -11705   -11689   -11481   -11090   -10602   -10262   -10239   -10467 
  -10836   -11238   -11542   -11711   -11789   -11770   -11603   -11260 
  -10813   -10449   -10268   -10265   -10461   -10814   -11145   -11290 
  -11237   -11072   -10930   -10936   -11028   -11092   -11199   -11396 
  -11588   -11701   -11704   -11529   -11192   -10818   -10534   -10450 
  -10600   -10871   -11136   -11345   -11437   -11340   -11094   -10822 
  -10631   -10557   -10566   -10652   -10801   -10886   -10843   -10778 
  -10735   -10689   -10701   -10806   -10984   -11199   -11333   -11263 
  -11026   -10756   -10565   -10543   -10721   -10974   -11199   -11457 
  -11759   -11962   -11939   -11686   -11334   -11070   -10916   -10814 
  -10820   -10944   -11095   -11240   -11340   -11313   -11207   -11122 
  -11065   -11053   -11065   -11018   -10924   -10858   -10858   -10936 
  -11022   -10989   -10864   -10814   -10862   -10894   -10889   -10909 
  -10955   -10989   -11005   -11010   -11013   -10999   -10955   -10912 
  -10918   -10986   -11045   -11041   -11076   -11215   -11326   -11341 
  -11318   -11215   -10970   -10686   -10535   -10555   -10687   -10897 
  -11124   -11256   -11249   -11146   -10982   -10824   -10782   -10862 
  -10971   -11092   -11244   -11348   -11331   -11273   -11240   -11165 
  -11018   -10917   -10987   -11180   -11321   -11337   -11271   -11133 
  -10968   -10876   -10895   -10990   -11086   -11138   -11142   -11094 
  -11028   -10997   -10986   -10967   -10972   -11024   -11080   -11102 
  -11083   -11014   -10929   -10912   -10982   -11072   -11142   -11187 
  -11210   -11218   -11178   -11071   -10952   -10867   -10858   -10918 
  -10957   -10932   -10912   -10929   -10978   -11065   -11149   -11149 
  -11061   -10964   -10936   -11013   -11169   -11314   -11376   -11362 
  -11275   -11109   -10916   -10729   -10542   -10438   -10520   -10724 
  -10902   -11028   -11132   -11175   -11122   -11021   -10945   -10930 
  -10964   -11010   -11041   -11080   -11128   -11117   -11041   -11002 
  -11047   -11091   -11098   -11099   -11094   -11098   -11129   -11138 
  -11098   -11086   -11140   -11173   -11132   -11044   -10930   -10825 
  -10786   -10847   -10989   -11141   -11190   -11133   -11091   -11107 
  -11115   -11078   -11014   -10957   -10945   -11016   -11129   -11196 
  -11215   -11237   -11233   -11172   -11095   -11043   -11005   -10978 
  -11006   -11107   -11202   -11236   -11229   -11173   -11052   -10898 
  -10773   -10737   -10824   -10987   -11153   -11260   -11261   -11165 
  -11005   -10840   -10743   -10741   -10793   -10845   -10890   -10940 
  -11005   -11063   -11053   -10951   -10849   -10844   -10905   -10984 
  -11072   -11122   -11113   -11095   -11102   -11141   -11205   -11264 
  -11288   -11272   -11205   -11082   -10962   -10925   -10957   -11003 
  -11082   -11180   -11222   -11225   -11221   -11165   -11045   -10933 
  -10905   -10944   -10987   -11043   -11122   -11165   -11126   -11041 
  -10966   -10909   -10854   -10804   -10768   -10750   -10762   -10836 
  -10986   -11146   -11187   -11091   -10971   -10886   -10822   -10805 
  -10852   -10924   -11001   -11107   -11223   -11299   -11326   -11299 
  -11195   -11034   -10908   -10882   -10957   -11087   -11203   -11257 
  -11273   -11276   -11234   -11136   -11030   -10952   -10906   -10898 
  -10936   -11026   -11126   -11187   -11215   -11203   -11118   -10994 
  -10916   -10914   -10953   -10995   -11041   -11101   -11136   -11099 
  -11001   -10882   -10802   -10804   -10889   -10999   -11079   -11126 
  -11141   -11099   -11038   -11001   -10976   -10983   -11029   -11061 
  -11055   -11049   -11061   -11055   -11025   -11002   -10997   -10999 
  -11040   -11132   -11207   -11214   -11186   -11153   -11091   -11005 
