Origin Time       2024/03/16 06:34:00
Lat.              32.907
Long.             131.047
Depth. (km)       7
Mag.              3.3
Station Code      KMM004
Station Lat.      32.9318
Station Long.     131.1203
Station Height(m) 554
Record Time       2024/03/16 06:34:35
Sampling Freq(Hz) 100Hz
Duration Time(s)  60
Dir.              U-D
Scale Factor      7845(gal)/8223790
Max. Acc. (gal)   8.119
Last Correction   2024/03/16 06:34:34
Memo.             
[...]
   18962    18960    18964    18967    18966    18964    18971    18970 
   18963    18968    18975    18970    18964    18967    18968    18964 
   18963    18970    18970    18963    18966    18971    18968    18963 
   18966    18972    18966    18960    18968    18972    18966    18963 
   18967    18968    18964    18966    18972    18968    18962    18966 
   18972    18970    18963    18970    18978    18970    18964    18972 
   18972    18966    18964    18967    18964    18959    18966    18972 
   18966    18963    18970    18972    18968    18964    18967    18968 
   18964    18964    18967    18967    18967    18968    18967    18964 
   18962    18967    18970    18963    18963    18968    18970    18968 
   18970    18970    18966    18963    18968    18971    18966    18964 
   18968    18970    18964    18960    18968    18971    18966    18967 
   18968    18964    18963    18968    18974    18968    18962    18968 
   18970    18962    18963    18967    18966    18964    18967    18972 
   18971    18966    18967    18967    18963    18964    18968    18968 
   18964    18963    18968    18966    18960    18963    18968    18966 
   18962    18966    18971    18968    18964    18972    18975    18967 
   18966    18972    18971    18960    18960    18970    18964    18959 
   18966    18970    18967    18967    18972    18967    18960    18967 
   18971    18964    18964    18968    18970    18968    18968    18971 
   18971    18962    18963    18972    18970    18962    18963    18967 
   18966    18964    18970    18970    18963    18963    18968    18967 
   18964    18966    18970    18967    18962    18964    18970    18967 
   18964    18968    18971    18967    18967    18970    18964    18956 
   18960    18974    18981    18970    18960    18966    18968    18962 
   18963    18968    18966    18967    18970    18971    18967    18967 
   18971    18966    18959    18970    18974    18963    18960    18968 
   18970    18967    18968    18971    18967    18962    18964    18970 
   18967    18963    18966    18970    18966    18964    18967    18964 
   18962    18966    18971    18970    18964    18970    18972    18963 
   18962    18967    18966    18960    18968    18981    18976    18962 
   18962    18966    18958    18960    18972    18971    18963    18966 
   18971    18968    18963    18966    18970    18966    18966    18970 
   18968    18963    18964    18970    18970    18967    18967    18968 
   18966    18964    18968    18970    18966    18963    18971    18970 
   18959    18960    18971    18972    18966    18966    18971    18968 
   18962    18964    18967    18966    18970    18976    18975    18964 
   18962    18968    18964    18960    18968    18970    18963    18963 
   18970    18971    18964    18960    18967    18971    18968    18966 
   18966    18967    18963    18967    18972    18967    18966    18972 
   18970    18962    18959    18967    18972    18970    18967    18970 
   18967    18962    18966    18970    18966    18964    18971    18974 
   18968    18963    18963    18967    18972    18974    18972    18968 
   18960    18959    18966    18966    18962    18970    18976    18972 
   18970    18970    18964    18960    18966    18972    18968    18963 
   18966    18971    18967    18960    18967    18972    18967    18963 
   18967    18970    18962    18960    18970    18970    18966    18970 
   18970    18966    18963    18967    18970    18966    18964    18971 
   18968    18959    18962    18972    18972    18963    18963    18970 
   18963    18956    18966    18970    18962    18966    18975    18976 
   18966    18962    18968    18970    18963    18964    18971    18968 
   18962    18967    18971    18962    18960    18970    18970    18963 
   18964    18971    18970    18963    18967    18975    18971    18966 
   18968    18967    18960    18962    18970    18970    18960    18963 
   18972    18968    18962    18964    18972    18967    18958    18963 
   18970    18964    18967    18976    18976    18966    18963    18974 
   18971    18963    18968    18971    18966    18966    18970    18968 
   18963    18963    18971    18971    18966    18967    18971    18967 
   18963    18968    18974    18970    18967    18970    18966    18962 
   18964    18968    18968    18963    18966    18975    18968    18959 
   18967    18971    18963    18960    18967    18968    18964    18971 
   18978    18970    18962    18966    18970    18964    18962    18968 
   18968    18960    18962    18971    18970    18964    18967    18968 
   18966    18964    18967    18970    18967    18963    18964    18967 
   18964    18963    18968    18970    18962    18963    18967    18964 
   18963    18968    18970    18964    18962    18970    18971    18963 
   18966    18971    18966    18962    18964    18968    18968    18966 
   18967    18968    18964    18964    18967    18970    18967    18964 
   18971    18970    18959    18962    18968    18968    18967    18968 
   18970    18966    18966    18971    18964    18959    18967    18971 
   18967    18967    18967    18963    18959    18962    18968    18967 
   18963    18967    18970    18966    18964    18968    18975    18971 
   18964    18966    18966    18963    18963    18967    18967    18960 
   18960    18967    18964    18963    18970    18971    18967    18963 
   18966    18968    18966    18968    18970    18963    18963    18970 
   18974    18970    18964    18966    18968    18966    18968    18968 
   18963    18963    18968    18971    18966    18960    18968    18972 
   18960    18955    18964    18974    18970    18967    18970    18967 
   18962    18967    18968    18963    18967    18974    18972    18966 
   18964    18970    18968    18962    18962    18967    18967    18964 
   18968    18972    18966    18963    18968    18968    18967    18968 
   18967    18966    18966    18966    18968    18967    18964    18971 
   18971    18963    18962    18967    18968    18963    18963    18967 
   18966    18964    18970    18970    18966    18964    18967    18968 
   18964    18964    18970    18967    18963    18964    18971    18972 
   18966    18966    18968    18962    18959    18964    18966    18963 
   18966    18975    18974    18963    18964    18971    18966    18959 
   18963    18971    18968    18962    18967    18974    18966    18962 
   18967    18967    18963    18963    18968    18970    18968    18968 
   18964    18962    18966    18970    18967    18962    18963    18971 
   18971    18966    18967    18970    18967    18963    18966    18970 
   18963    18958    18967    18971    18963    18962    18968    18971 
   18970    18967    18964    18962    18962    18966    18964    18963 
   18966    18970    18971    18971    18970    18967    18964    18963 
   18966    18970    18964    18960    18968    18972    18966    18964 
   18968    18967    18966    18968    18970    18964    18962    18971 
   18974    18962    18962    18970    18967    18960    18962    18970 
   18971    18963    18964    18971    18967    18960    18967    18974 
   18970    18968    18974    18970    18962    18964    18970    18967 
   18964    18968    18972    18967    18962    18967    18968    18960 
   18960    18968    18967    18962    18964    18968    18966    18964 
   18970    18971    18966    18962    18967    18974    18968    18964 
   18968    18967    18962    18962    18964    18966    18966    18967 
   18970    18964    18964    18972    18967    18959    18966    18974 
   18968    18960    18963    18971    18971    18964    18968    18972 
   18970    18970    18974    18967    18956    18960    18967    18960 
   18963    18970    18966    18962    18968    18972    18971    18966 
   18967    18971    18966    18959    18962    18970    18972    18966 
   18964    18970    18967    18963    18967    18968    18967    18971 
   18974    18968    18962    18966    18971    18966    18966    18974 
   18972    18964    18962    18966    18967    18964    18971    18975 
   18971    18967    18967    18967    18962    18955    18960    18968 
   18967    18964    18967    18964    18959    18964    18972    18970 
   18966    18967    18964    18959    18963    18971    18971    18964 
   18964    18970    18968    18964    18964    18964    18964    18964 
   18967    18967    18959    18963    18975    18974    18966    18963 
   18968    18972    18966    18963    18970    18966    18963    18968 
   18966    18960    18964    18967    18966    18964    18970    18974 
   18970    18962    18963    18968    18970    18967    18968    18968 
   18963    18966    18971    18970    18964    18964    18970    18967 
   18958    18962    18967    18963    18964    18970    18967    18962 
   18967    18975    18974    18966    18967    18966    18958    18959 
   18968    18971    18964    18966    18972    18968    18962    18964 
   18967    18964    18966    18968    18968    18964    18962    18967 
   18970    18963    18963    18967    18963    18959    18964    18971 
   18967    18963    18968    18970    18966    18967    18972    18971 
   18964    18964    18971    18966    18958    18963    18971    18971 
   18968    18968    18964    18959    18963    18968    18967    18966 
   18968    18971    18972    18967    18964    18967    18962    18956 
   18964    18970    18962    18962    18968    18970    18963    18964 
   18967    18963    18963    18970    18974    18970    18966    18968 
   18968    18963    18966    18972    18970    18966    18967    18972 
   18966    18959    18963    18966    18964    18966    18968    18967 
   18960    18959    18968    18968    18963    18970    18971    18964 
   18964    18971    18970    18963    18964    18972    18971    18966 
   18968    18971    18967    18964    18967    18972    18968    18963 
   18964    18967    18964    18963    18967    18967    18963    18967 
   18972    18966    18963    18968    18970    18967    18964    18966 
   18967    18964    18966    18975    18968    18959    18966    18971 
   18963    18962    18972    18971    18964    18968    18970    18964 
   18962    18962    18966    18968    18964    18963    18966    18966 
   18966    18970    18970    18966    18962    18967    18968    18964 
   18968    18974    18968    18960    18966    18971    18966    18964 
   18968    18970    18967    18966    18967    18967    18964    18964 
   18971    18971    18962    18962    18967    18967    18968    18970 
   18964    18964    18967    18967    18967    18966    18966    18971 
   18970    18962    18962    18974    18970    18960    18968    18972 
   18963    18962    18968    18971    18967    18968    18971    18966 
   18962    18967    18967    18963    18962    18963    18964    18963 
   18964    18970    18968    18960    18963    18970    18967    18962 
   18964    18967    18963    18963    18967    18970    18966    18962 
   18970    18974    18963    18962    18968    18966    18960    18964 
   18971    18970    18964    18967    18971    18967    18964    18968 
   18970    18964    18963    18968    18967    18960    18963    18970 
   18967    18966    18970    18970    18963    18960    18968    18971 
   18963    18963    18970    18967    18964    18968    18970    18963 
   18959    18966    18967    18962    18964    18971    18967    18963 
   18966    18974    18968    18960    18967    18971    18963    18960 
   18967    18972    18968    18966    18971    18968    18962    18966 
   18968    18962    18959    18967    18974    18970    18970    18990 
   19013    19020    19013    19008    18998    18975    19017    19134 
   19165    19076    19014    18858    18247    17647    18482    20891 
   22607    21928    20090    18783    17679    16247    15502    16422 
   17901    18180    18015    19014    19969    18862    17400    18952 
   21554    20630    18096    18523    20704    21070    19440    17821 
   17697    18819    19153    17994    17547    19021    20328    19753 
   19353    19835    18446    16656    18112    21232    22072    20416 
   19446    19492    19352    19811    19296    17342    16830    17421 
   17852    18561    19024    18419    17649    18636    20078    20278 
   20044    18873    17653    18054    19064    19144    17979    17867 
   19419    20366    20541    20688    20929    21087    20938    20368 
   19275    18577    18164    16891    16499    18339    19017    16879 
   15415    16386    18037    18914    19893    21640    22090    20407 
   18837    19215    19624    17254    14956    16956    21035    21600 
   18112    16112    17598    19210    20461    22192    21934    19367 
   18416    19552    19238    17190    16148    17585    20501    21556 
   18978    16233    16692    18871    20521    21617    21874    19840 
   16829    16524    18793    20297    19892    18879    18130    17655 
   17641    17977    19180    21374    21149    17861    17111    19464 
   19472    17616    17621    18804    20290    21698    20961    18087 
   15354    15237    18183    20690    20772    20407    19998    19673 
   21055    21708    19861    18989    19137    18281    17653    17161 
   16047    16155    17787    18300    18158    19245    19947    19942 
   19819    19272    19773    20800    20857    20603    19276    16676 
   15597    17143    18858    18696    17832    18422    19939    20216 
   20039    21683    22759    20580    18943    20248    20524    18061 
   16528    18088    20159    20478    19435    16430    11759    10455 
   16240    24009    25625    21147    17178    16665    17026    16885 
   17694    19182    20058    21078    22455    22439    20835    19149 
   17930    17447    18365    20263    21456    21177    20291    19360 
   18458    17617    16120    14123    13666    15747    18715    20617 
   21385    21694    20865    18854    17644    17911    18800    19791 
   20668    21536    21432    19518    17471    17113    18658    20628 
   20823    19345    17847    17324    17794    17976    17659    17871 
   18203    18326    18463    18096    17371    17528    19086    20949 
   21887    21498    19920    18576    18677    19170    18874    18426 
   18627    19017    19367    19722    19345    18751    19329    20236 
   19557    17587    16706    18102    20075    20232    18877    18836 
   20823    22279    21394    19012    17520    17516    16892    15770 
   16310    18173    19642    19618    18257    17080    16939    17948 
   20120    22543    23818    23384    22123    20740    19099    17471 
   15753    14705    16013    18346    19381    19489    19658    19602 
   19001    18458    18274    18203    18397    19036    19727    19658 
   18985    19255    20413    20349    19152    18762    18910    18686 
   18792    19445    19942    20208    20474    20432    19843    18958 
   17848    16571    15880    16426    17537    17921    17574    17547 
   17936    18345    19203    20494    21443    21687    21312    20545 
   19570    18632    18179    18549    19332    19585    19398    19446 
   19465    19136    18868    18684    18180    17801    18030    18204 
   17806    17396    17815    18810    19399    19762    20486    21055 
   20702    19404    18009    17388    17490    18021    18890    19534 
   19305    18594    18596    19360    19534    19008    18793    18773 
   18532    18450    18769    19101    19202    19302    19444    19315 
   18523    17095    15990    16212    17496    18674    19165    19321 
   19533    19631    19356    19084    19105    19222    19615    20366 
   21066    21447    21424    21084    20466    19380    18180    17759 
   18106    18265    17937    17728    17898    18068    17967    17676 
   17477    17709    18404    19072    19303    19534    20266    21007 
   21065    20741    20648    20466    20017    19747    19433    19097 
   19315    19614    19253    18528    18067    17975    17717    17269 
   17626    18792    19379    19091    18890    18824    18161    17294 
   17167    17834    18971    19942    19947    19387    19163    19187 
   19080    19075    19492    20002    19985    19558    19498    19924 
   20150    19718    18792    17995    17733    17717    17686    17821 
   18293    18979    19546    19823    19813    19624    19576    19638 
   19427    19018    18697    18549    18328    17797    17427    17570 
   18076    18889    19500    19450    19278    19573    20088    20196 
   19824    19256    18489    17702    17444    17801    18253    18473 
   18652    18940    18999    18747    18624    18751    18974    19133 
   19203    19492    19977    20363    20672    20827    20545    19876 
   19296    19016    18696    18196    17720    17381    17207    17145 
   17215    17664    18447    19172    19739    20070    19959    19696 
   19703    19824    19681    19237    18844    18760    18733    18585 
   18590    18852    19039    18952    18735    18436    18203    18324 
   18782    19481    20263    20829    20999    20605    19780    18990 
   18355    17883    17756    18029    18538    18952    18972    18581 
   18158    18007    17946    17865    17983    18436    18945    19003 
   18685    18592    18798    18874    18751    18790    19157    19633 
   19908    19815    19495    19218    19128    19311    19660    19878 
   19951    20031    20016    19812    19467    18968    18657    18894 
   19232    19134    18804    18701    18908    19041    18882    18582 
   18269    18111    18181    18227    18202    18322    18581    18783 
   18883    19053    19349    19587    19658    19593    19442    19210 
   18877    18520    18176    17928    18077    18574    19022    19306 
   19491    19572    19623    19731    19768    19620    19403    19287 
   19284    19205    18987    18787    18716    18700    18600    18493 
   18441    18374    18480    18840    19163    19165    18989    19009 
   19113    18997    18702    18353    18138    18146    18247    18424 
   18617    18742    18866    18948    18906    18943    19190    19408 
   19552    19866    20262    20412    20321    20159    19927    19618 
   19261    18943    18855    18833    18481    17998    17869    18018 
   18002    17778    17743    18037    18345    18458    18512    18675 
   18858    18971    19153    19402    19546    19502    19368    19400 
   19525    19383    19067    18900    18891    18910    18840    18619 
   18378    18280    18355    18654    19168    19668    19975    20223 
   20475    20476    20129    19673    19184    18582    18038    17837 
   18037    18360    18619    18949    19165    19036    18901    18912 
   18801    18636    18686    18809    18766    18760    18902    18928 
   18828    18806    18925    19140    19357    19530    19624    19596 
   19468    19269    19022    18844    18793    18765    18729    18783 
   18868    18851    18886    19159    19457    19541    19458    19336 
   19290    19334    19307    19152    19029    19028    18991    18804 
   18513    18226    18057    17906    17680    17766    18339    18893 
   19083    19097    19074    18874    18549    18397    18403    18442 
   18661    19024    19302    19515    19788    20011    19974    19778 
   19669    19589    19406    19118    18756    18455    18274    18202 
   18384    18769    19068    19244    19364    19375    19303    19233 
