Origin Time       2024/03/16 06:34:00
Lat.              32.907
Long.             131.047
Depth. (km)       7
Mag.              3.3
Station Code      KMM001
Station Lat.      33.1211
Station Long.     131.0689
Station Height(m) 430
Record Time       2024/03/16 06:34:41
Sampling Freq(Hz) 100Hz
Duration Time(s)  60
Dir.              N-S
Scale Factor      7845(gal)/8223790
Max. Acc. (gal)   2.264
Last Correction   2024/03/16 06:34:41
Memo.             
[...]
    4969     4973     4973     4970     4976     4980     4974     4972 
    4970     4972     4977     4977     4970     4973     4974     4970 
    4974     4978     4976     4977     4977     4972     4972     4974 
    4970     4973     4977     4972     4969     4974     4976     4976 
    4977     4973     4972     4974     4970     4972     4976     4972 
    4970     4976     4974     4973     4976     4976     4974     4976 
    4969     4972     4978     4972     4969     4977     4976     4970 
    4973     4976     4974     4976     4977     4973     4976     4978 
    4974     4973     4970     4972     4976     4976     4974     4974 
    4973     4973     4976     4974     4969     4970     4980     4976 
    4974     4978     4974     4972     4978     4978     4973     4976 
    4976     4969     4970     4976     4976     4974     4974     4977 
    4973     4972     4978     4977     4973     4974     4976     4977 
    4976     4974     4974     4972     4974     4980     4973     4968 
    4973     4974     4973     4976     4976     4972     4973     4976 
    4976     4976     4974     4976     4976     4974     4977     4974 
    4968     4972     4977     4977     4977     4977     4973     4970 
    4974     4977     4973     4970     4970     4973     4974     4976 
    4976     4972     4970     4976     4977     4973     4972     4976 
    4974     4970     4974     4978     4972     4970     4972     4972 
    4974     4978     4976     4972     4974     4976     4973     4974 
    4977     4974     4972     4973     4976     4978     4974     4970 
    4973     4976     4972     4972     4977     4973     4972     4977 
    4974     4973     4978     4978     4976     4974     4972     4974 
    4977     4972     4972     4980     4976     4968     4974     4976 
    4974     4976     4973     4972     4974     4976     4974     4976 
    4980     4977     4973     4973     4974     4976     4973     4969 
    4973     4977     4977     4974     4972     4973     4974     4976 
    4974     4974     4977     4974     4970     4974     4974     4973 
    4976     4973     4973     4974     4972     4970     4972     4974 
    4974     4974     4976     4973     4973     4976     4974     4973 
    4973     4973     4974     4973     4972     4978     4978     4969 
    4973     4980     4974     4973     4976     4970     4969     4976 
    4976     4972     4974     4973     4969     4973     4978     4976 
    4974     4976     4972     4969     4972     4976     4978     4976 
    4970     4969     4976     4980     4974     4970     4973     4976 
    4976     4974     4970     4969     4974     4974     4973     4974 
    4974     4976     4978     4977     4972     4969     4974     4976 
    4974     4977     4977     4974     4977     4974     4968     4970 
    4977     4974     4972     4978     4977     4970     4970     4973 
    4976     4978     4976     4973     4976     4976     4973     4973 
    4976     4978     4977     4973     4970     4974     4974     4972 
    4973     4973     4976     4978     4973     4970     4974     4973 
    4970     4976     4978     4977     4976     4974     4970     4974 
    4981     4978     4973     4973     4973     4972     4977     4978 
    4974     4974     4969     4969     4978     4974     4973     4981 
    4977     4968     4972     4974     4972     4973     4977     4977 
    4974     4974     4973     4970     4970     4972     4977     4978 
    4973     4974     4973     4970     4976     4976     4972     4976 
    4978     4973     4969     4972     4977     4976     4973     4973 
    4973     4974     4974     4973     4976     4976     4973     4976 
    4974     4972     4976     4974     4973     4976     4974     4974 
    4976     4972     4972     4978     4977     4970     4970     4977 
    4974     4973     4976     4973     4972     4976     4977     4977 
    4976     4972     4973     4973     4970     4976     4980     4974 
    4973     4976     4973     4973     4976     4973     4972     4972 
    4976     4977     4977     4973     4970     4976     4976     4972 
    4976     4978     4974     4973     4976     4973     4970     4972 
    4970     4973     4976     4974     4977     4976     4972     4973 
    4972     4970     4976     4977     4973     4973     4976     4976 
    4973     4973     4977     4977     4976     4974     4973     4974 
    4974     4973     4976     4974     4972     4974     4976     4972 
    4972     4977     4978     4974     4972     4973     4977     4973 
    4970     4974     4974     4972     4974     4974     4972     4977 
    4977     4969     4972     4973     4969     4973     4977     4973 
    4973     4977     4974     4972     4974     4972     4973     4978 
    4974     4970     4976     4976     4973     4972     4972     4976 
    4977     4970     4972     4976     4976     4973     4973     4972 
    4973     4976     4974     4976     4980     4974     4972     4973 
    4972     4969     4972     4980     4977     4972     4973     4974 
    4974     4972     4972     4976     4976     4970     4972     4973 
    4972     4976     4978     4973     4970     4972     4972     4973 
    4978     4978     4973     4973     4973     4969     4973     4974 
    4970     4973     4974     4972     4973     4972     4970     4976 
    4976     4972     4976     4974     4968     4974     4978     4972 
    4969     4970     4973     4976     4973     4972     4974     4972 
    4969     4974     4973     4973     4976     4972     4972     4976 
    4978     4977     4970     4970     4973     4973     4978     4978 
    4973     4972     4972     4972     4974     4976     4974     4974 
    4974     4973     4974     4978     4976     4973     4972     4970 
    4973     4974     4974     4977     4976     4972     4974     4976 
    4972     4974     4978     4972     4972     4978     4974     4970 
    4973     4974     4970     4970     4976     4978     4977     4972 
    4968     4972     4974     4976     4977     4974     4973     4973 
    4973     4973     4973     4974     4973     4972     4973     4974 
    4976     4970     4968     4974     4977     4978     4976     4972 
    4969     4972     4974     4973     4973     4976     4977     4974 
    4974     4976     4973     4973     4974     4974     4973     4970 
    4973     4984     4982     4972     4970     4972     4974     4980 
    4974     4973     4978     4973     4974     4978     4972     4969 
    4968     4974     4984     4981     4972     4966     4968     4977 
    4978     4973     4980     4984     4970     4968     4972     4968 
    4974     4980     4973     4978     4981     4965     4959     4976 
    4981     4977     4977     4976     4973     4970     4969     4974 
    4977     4974     4977     4977     4969     4969     4974     4973 
    4974     4973     4972     4976     4976     4972     4974     4976 
    4972     4973     4978     4973     4972     4978     4978     4974 
    4974     4972     4969     4976     4982     4976     4970     4972 
    4974     4977     4974     4970     4976     4977     4974     4974 
    4974     4970     4970     4973     4976     4978     4973     4968 
    4972     4977     4974     4970     4972     4976     4977     4974 
    4973     4973     4973     4973     4973     4977     4976     4969 
    4973     4976     4972     4973     4974     4973     4974     4972 
    4970     4977     4977     4973     4978     4978     4969     4973 
    4978     4972     4970     4974     4973     4974     4976     4972 
    4972     4976     4973     4972     4977     4974     4973     4976 
    4973     4973     4976     4973     4974     4977     4970     4970 
    4972     4972     4973     4978     4976     4972     4978     4976 
    4968     4976     4978     4972     4974     4978     4973     4972 
    4976     4974     4974     4976     4974     4974     4977     4976 
    4970     4973     4978     4973     4973     4977     4972     4973 
    4976     4974     4974     4970     4972     4981     4976     4970 
    4974     4976     4976     4978     4974     4972     4973     4970 
    4973     4981     4978     4970     4972     4973     4970     4973 
    4974     4972     4973     4978     4976     4970     4973     4974 
    4973     4974     4974     4976     4973     4968     4973     4978 
    4976     4973     4977     4973     4968     4973     4978     4973 
    4973     4976     4974     4974     4974     4972     4970     4976 
    4978     4976     4973     4973     4976     4974     4973     4974 
    4972     4969     4973     4977     4977     4974     4972     4972 
    4973     4973     4974     4976     4974     4969     4973     4978 
    4974     4970     4970     4973     4974     4974     4974     4972 
    4977     4980     4972     4972     4974     4970     4972     4977 
    4977     4973     4973     4972     4972     4976     4977     4974 
    4973     4973     4974     4974     4973     4976     4976     4974 
    4972     4972     4973     4970     4970     4970     4973     4977 
    4977     4973     4974     4976     4974     4974     4972     4973 
    4976     4973     4973     4976     4973     4970     4970     4972 
    4973     4976     4976     4972     4972     4974     4977     4977 
    4976     4976     4974     4970     4970     4973     4974     4970 
    4976     4977     4969     4972     4977     4972     4969     4972 
    4972     4974     4976     4973     4974     4977     4976     4976 
    4972     4969     4972     4974     4973     4976     4978     4970 
    4969     4977     4978     4973     4974     4976     4973     4976 
    4977     4972     4973     4977     4976     4974     4973     4970 
    4973     4977     4974     4972     4972     4974     4976     4973 
    4973     4976     4974     4972     4973     4973     4972     4973 
    4977     4974     4974     4980     4973     4965     4970     4976 
    4976     4977     4978     4977     4974     4974     4974     4974 
    4972     4970     4974     4980     4976     4974     4977     4972 
    4970     4976     4976     4976     4977     4973     4973     4976 
    4973     4973     4978     4978     4981     4984     4980     4982 
    4989     4986     4982     4986     5000     5008     5011     5004 
    4980     4973     4982     4976     4976     4995     4972     4904 
    4858     4880     4949     4988     4980     4985     4980     4924 
    4915     4982     5026     5062     5130     5116     5019     4969 
    4953     4905     4826     4761     4792     4891     4959     5043 
    5178     5273     5243     5086     4904     4869     4959     4953 
    4824     4757     4827     4919     4874     4777     4843     5012 
    5076     5038     5053     5158     5231     5205     5139     5108 
    5116     5096     4992     4803     4657     4698     4799     4781 
    4779     4918     5061     5074     4963     4931     5119     5248 
    5096     4914     4939     5023     4918     4723     4718     4843 
    4908     4988     5119     5178     5220     5294     5236     5036 
    4904     4885     4876     4861     4851     4812     4789     4851 
    4923     4958     4985     4982     4996     5088     5163     5140 
    5049     5013     5094     5105     4976     4896     4892     4874 
    4830     4779     4796     4903     5004     5044     5020     5017 
    5080     5085     5059     5098     5105     5039     4951     4880 
    4878     4924     4957     4936     4869     4870     4980     5039 
    4966     4922     4984     4961     4834     4838     4984     5096 
    5130     5128     5117     5096     5050     4980     4903     4830 
    4792     4800     4818     4824     4876     4999     5115     5173 
    5196     5188     5108     4959     4880     4904     4864     4814 
    4922     4995     4880     4828     4965     5073     5032     4953 
    4909     4904     4887     4851     4926     5067     5131     5159 
    5138     5028     4970     4938     4849     4862     5003     5071 
    5061     5082     5096     5067     5051     5040     5036     5030 
    4939     4806     4725     4750     4864     4912     4903     4977 
    5069     5081     5059     5055     5059     5009     4912     4865 
    4877     4916     5012     5085     5028     4965     4988     4970 
    4888     4864     4914     5003     5074     5062     5073     5144 
    5084     4939     4892     4892     4876     4887     4945     5013 
    5007     4926     4853     4843     4907     5007     5054     5031 
    5022     5024     4993     4969     4976     4950     4868     4835 
    4915     5026     5109     5166     5177     5074     4838     4689 
    4769     4896     4973     5026     5089     5185     5131     4941 
    4945     5047     4961     4850     4870     4892     4868     4882 
    4982     5017     4909     4888     5024     5089     5043     5051 
    5116     5112     5069     5080     5065     4950     4878     4905 
    4887     4865     4977     5103     5143     5154     5127     5044 
    4893     4665     4498     4511     4637     4850     5166     5378 
    5348     5205     5051     4916     4818     4787     4873     5034 
    5184     5292     5341     5309     5178     4981     4803     4672 
    4590     4608     4745     4908     4968     4986     5098     5181 
    5123     5004     4792     4455     4261     4488     5080     5806 
    6382     6531     6164     5404     4445     3462     2732     2601 
    3098     3897     4698     5375     5864     6091     6069     5930 
    5782     5675     5601     5495     5410     5424     5437     5354 
    5202     5027     4904     4838     4718     4572     4506     4444 
    4297     4207     4303     4463     4600     4799     5096     5425 
    5660     5651     5355     4926     4544     4288     4212     4299 
    4563     5036     5539     5910     6145     6080     5717     5351 
    5050     4737     4492     4413     4507     4681     4860     5046 
    5094     4874     4558     4363     4367     4546     4838     5244 
    5649     5680     5313     5000     4828     4604     4509     4768 
    5236     5483     5274     4924     4757     4730     4837     5101 
    5374     5498     5406     5104     4747     4592     4691     4877 
    5111     5435     5649     5505     5125     4851     4758     4679 
    4568     4575     4768     4941     4872     4720     4708     4749 
    4766     4873     5054     5131     5043     4900     4815     4808 
    4857     5005     5206     5260     5171     5090     5016     4974 
    5067     5239     5332     5292     5190     5054     4820     4527 
    4341     4306     4305     4353     4563     4835     4973     4984 
    5038     5175     5258     5294     5413     5514     5472     5332 
    5144     4977     4904     4885     4941     5097     5200     5206 
    5204     5076     4858     4779     4719     4581     4592     4777 
    4953     5080     5197     5292     5287     5151     5000     4950 
    4909     4806     4791     4888     4897     4849     4939     5054 
    5081     5181     5289     5243     5167     5109     5053     5109 
    5184     5143     5073     4962     4774     4587     4473     4515 
    4653     4712     4723     4803     4870     4827     4791     4828 
    4808     4770     4869     5031     5189     5378     5520     5540 
    5456     5300     5116     4974     4914     4903     4911     4957 
    4986     4943     4893     4803     4645     4621     4742     4811 
    4851     4931     5008     5100     5174     5163     5113     5049 
    4951     4873     4833     4816     4868     4930     4909     4914 
    5030     5132     5171     5243     5296     5215     5074     4961 
    4855     4811     4839     4866     4920     4976     4943     4891 
    4907     4914     4846     4800     4854     4959     5040     5084 
    5124     5146     5100     5003     4912     4939     5082     5166 
    5139     5088     5019     4926     4849     4815     4860     4936 
    4957     4978     5039     5044     4993     4951     4936     4947 
    4954     4958     4996     4981     4857     4766     4787     4904 
    5104     5229     5227     5212     5117     4935     4901     5036 
    5123     5165     5224     5158     4959     4828     4785     4753 
    4765     4830     4895     4935     4932     4891     4830     4765 
    4735     4768     4807     4824     4896     5000     5024     5001 
    5032     5061     4982     4881     4891     4954     4995     5088 
    5227     5270     5190     5065     4976     4915     4838     4816 
    4905     4953     4849     4737     4764     4855     4888     4915 
    4990     4993     4869     4781     4834     4935     4993     5053 
    5181     5271     5240     5246     5300     5221     5047     4905 
    4820     4819     4938     5092     5142     5093     5034     4941 
    4811     4768     4892     5093     5211     5228     5248     5224 
    5049     4869     4866     4942     4968     4970     5012     5121 
    5216     5166     5027     4951     4949     4963     4988     5023 
    5078     5124     5069     4904     4743     4687     4696     4707 
    4780     4887     4881     4815     4793     4760     4727     4766 
    4804     4827     4877     4870     4818     4849     4966     5082 
    5166     5213     5200     5124     5017     4966     5028     5123 
    5197     5271     5271     5128     4954     4865     4854     4896 
    4972     5019     5009     4984     4935     4857     4808     4801 
    4822     4892     5007     5111     5159     5116     4992     4905 
    4905     4884     4834     4884     5003     5063     5061     5065 
    5084     5073     5015     4954     4936     4934     4926     4961 
    5034     5074     5051     4985     4927     4920     4936     4935 
    4961     5026     5076     5096     5098     5070     5017     4968 
    4926     4882     4878     4950     5040     5125     5208     5239 
    5190     5047     4857     4731     4683     4672     4743     4866 
    4928     4939     4935     4891     4814     4765     4743     4715 
    4700     4745     4838     4954     5065     5128     5142     5115 
    5043     4999     5051     5107     5093     5071     5036     4949 
    4861     4849     4916     5011     5107     5185     5204     5182 
    5159     5111     5034     4978     4954     4945     4953     4984 
    5034     5076     5094     5076     5015     4985     5015     5026 
    4999     4966     4923     4881     4865     4866     4846     4803 
    4818     4907     4978     4993     4988     4974     4900     4784 
    4735     4784     4869     4963     5061     5109     5080     5001 
    4914     4899     4958     4981     4978     5016     5017     4962 
    4926     4909     4908     4932     4965     5004     5050     5057 
    5032     5022     4990     4922     4878     4887     4930     4993 
    5030     5004     4962     4947     4934     4912     4935     5001 
    5058     5113     5162     5161     5120     5066     5008     4986 
    4993     5000     5007     4999     4984     4988     4995     5007 
    5032     5036     5013     4989     4963     4951     4946     4947 
    4978     4997     4972     4941     4923     4912     4919     4961 
