Origin Time       2024/03/16 06:34:00
Lat.              32.907
Long.             131.047
Depth. (km)       7
Mag.              3.3
Station Code      KMM004
Station Lat.      32.9318
Station Long.     131.1203
Station Height(m) 554
Record Time       2024/03/16 06:34:35
Sampling Freq(Hz) 100Hz
Duration Time(s)  60
Dir.              E-W
Scale Factor      7845(gal)/8223790
Max. Acc. (gal)   13.122
Last Correction   2024/03/16 06:34:34
Memo.             
[...]
   -2346    -2354    -2355    -2343    -2343    -2355    -2354    -2344 
   -2347    -2353    -2347    -2347    -2357    -2357    -2346    -2343 
   -2350    -2355    -2354    -2349    -2353    -2351    -2340    -2347 
   -2354    -2349    -2349    -2354    -2354    -2349    -2346    -2354 
   -2355    -2349    -2353    -2358    -2349    -2342    -2350    -2358 
   -2351    -2346    -2354    -2354    -2349    -2354    -2361    -2353 
   -2343    -2346    -2354    -2354    -2349    -2351    -2354    -2347 
   -2344    -2353    -2354    -2346    -2343    -2351    -2353    -2344 
   -2350    -2358    -2351    -2344    -2353    -2358    -2349    -2347 
   -2358    -2358    -2349    -2344    -2349    -2351    -2346    -2346 
   -2353    -2351    -2350    -2354    -2355    -2350    -2344    -2353 
   -2357    -2344    -2346    -2354    -2350    -2344    -2349    -2354 
   -2350    -2343    -2350    -2358    -2350    -2346    -2353    -2353 
   -2346    -2349    -2355    -2353    -2347    -2351    -2353    -2350 
   -2346    -2346    -2351    -2350    -2344    -2349    -2351    -2344 
   -2349    -2358    -2351    -2340    -2349    -2355    -2347    -2346 
   -2354    -2354    -2349    -2351    -2355    -2350    -2344    -2351 
   -2358    -2351    -2347    -2350    -2347    -2343    -2346    -2351 
   -2354    -2347    -2344    -2355    -2355    -2344    -2349    -2357 
   -2354    -2347    -2351    -2353    -2343    -2346    -2357    -2354 
   -2347    -2349    -2353    -2351    -2344    -2349    -2353    -2342 
   -2342    -2354    -2351    -2347    -2347    -2351    -2354    -2349 
   -2349    -2353    -2347    -2346    -2350    -2353    -2350    -2346 
   -2353    -2357    -2349    -2347    -2353    -2351    -2347    -2351 
   -2354    -2350    -2346    -2351    -2354    -2350    -2351    -2353 
   -2344    -2336    -2343    -2367    -2373    -2347    -2340    -2354 
   -2346    -2328    -2340    -2366    -2363    -2344    -2349    -2351 
   -2344    -2353    -2359    -2350    -2346    -2355    -2358    -2347 
   -2344    -2354    -2350    -2339    -2349    -2358    -2350    -2340 
   -2351    -2361    -2347    -2343    -2357    -2355    -2347    -2347 
   -2350    -2350    -2346    -2350    -2357    -2350    -2347    -2355 
   -2355    -2346    -2343    -2350    -2350    -2343    -2351    -2363 
   -2349    -2336    -2349    -2359    -2351    -2346    -2358    -2361 
   -2344    -2340    -2347    -2347    -2349    -2355    -2355    -2349 
   -2347    -2353    -2353    -2347    -2347    -2351    -2354    -2349 
   -2343    -2351    -2355    -2349    -2350    -2357    -2354    -2347 
   -2351    -2358    -2350    -2346    -2357    -2358    -2347    -2349 
   -2357    -2354    -2344    -2344    -2354    -2353    -2353    -2358 
   -2349    -2346    -2353    -2343    -2342    -2353    -2358    -2359 
   -2351    -2344    -2350    -2354    -2353    -2349    -2347    -2353 
   -2351    -2349    -2358    -2357    -2342    -2340    -2355    -2359 
   -2344    -2344    -2357    -2353    -2343    -2349    -2355    -2350 
   -2346    -2353    -2359    -2350    -2346    -2357    -2357    -2349 
   -2350    -2354    -2344    -2335    -2346    -2359    -2358    -2353 
   -2351    -2351    -2349    -2343    -2346    -2354    -2354    -2353 
   -2353    -2349    -2347    -2350    -2351    -2347    -2343    -2353 
   -2357    -2349    -2349    -2353    -2349    -2342    -2343    -2353 
   -2353    -2349    -2357    -2361    -2349    -2343    -2353    -2355 
   -2346    -2342    -2353    -2351    -2340    -2347    -2357    -2357 
   -2351    -2349    -2347    -2342    -2347    -2365    -2361    -2340 
   -2347    -2361    -2349    -2338    -2350    -2365    -2351    -2340 
   -2354    -2359    -2350    -2347    -2347    -2347    -2349    -2351 
   -2357    -2355    -2349    -2347    -2349    -2346    -2346    -2353 
   -2354    -2349    -2350    -2354    -2347    -2347    -2350    -2350 
   -2349    -2347    -2354    -2362    -2354    -2349    -2354    -2350 
   -2344    -2350    -2357    -2351    -2343    -2354    -2361    -2344 
   -2338    -2347    -2354    -2353    -2347    -2353    -2355    -2349 
   -2350    -2354    -2347    -2343    -2349    -2357    -2351    -2342 
   -2347    -2350    -2344    -2344    -2350    -2350    -2344    -2346 
   -2357    -2353    -2344    -2354    -2361    -2349    -2340    -2350 
   -2361    -2351    -2346    -2355    -2351    -2339    -2349    -2358 
   -2347    -2339    -2353    -2361    -2344    -2336    -2351    -2355 
   -2346    -2349    -2355    -2354    -2351    -2354    -2355    -2346 
   -2343    -2353    -2354    -2347    -2349    -2351    -2349    -2344 
   -2347    -2351    -2351    -2350    -2350    -2351    -2349    -2342 
   -2347    -2354    -2347    -2347    -2354    -2354    -2349    -2349 
   -2355    -2358    -2347    -2344    -2351    -2350    -2346    -2353 
   -2354    -2347    -2347    -2353    -2347    -2342    -2349    -2354 
   -2353    -2350    -2351    -2351    -2346    -2346    -2355    -2357 
   -2349    -2350    -2355    -2354    -2349    -2349    -2355    -2353 
   -2346    -2353    -2358    -2349    -2346    -2353    -2353    -2349 
   -2349    -2353    -2347    -2342    -2346    -2350    -2347    -2344 
   -2351    -2355    -2347    -2346    -2353    -2350    -2347    -2353 
   -2355    -2353    -2347    -2349    -2355    -2349    -2343    -2354 
   -2354    -2344    -2349    -2355    -2347    -2340    -2353    -2359 
   -2350    -2347    -2353    -2347    -2343    -2347    -2353    -2354 
   -2347    -2349    -2355    -2350    -2349    -2357    -2355    -2349 
   -2349    -2350    -2343    -2340    -2354    -2361    -2350    -2349 
   -2358    -2355    -2340    -2338    -2357    -2363    -2343    -2342 
   -2363    -2362    -2340    -2338    -2347    -2349    -2346    -2354 
   -2362    -2359    -2347    -2344    -2354    -2347    -2340    -2355 
   -2361    -2347    -2344    -2353    -2350    -2339    -2346    -2362 
   -2354    -2342    -2351    -2354    -2344    -2344    -2351    -2354 
   -2347    -2350    -2361    -2354    -2342    -2350    -2355    -2351 
   -2350    -2353    -2355    -2354    -2347    -2353    -2353    -2347 
   -2353    -2359    -2355    -2346    -2343    -2349    -2342    -2338 
   -2358    -2365    -2349    -2347    -2359    -2354    -2340    -2339 
   -2353    -2358    -2354    -2353    -2350    -2344    -2349    -2355 
   -2346    -2343    -2357    -2354    -2343    -2343    -2349    -2350 
   -2349    -2347    -2354    -2355    -2347    -2349    -2351    -2347 
   -2347    -2355    -2357    -2350    -2347    -2355    -2355    -2347 
   -2351    -2357    -2354    -2350    -2346    -2347    -2346    -2342 
   -2351    -2357    -2347    -2347    -2354    -2350    -2342    -2339 
   -2350    -2358    -2354    -2354    -2358    -2355    -2346    -2338 
   -2347    -2353    -2355    -2362    -2355    -2342    -2346    -2353 
   -2347    -2340    -2349    -2362    -2350    -2338    -2349    -2354 
   -2343    -2343    -2357    -2355    -2342    -2347    -2357    -2346 
   -2344    -2359    -2355    -2344    -2347    -2357    -2357    -2349 
   -2350    -2358    -2354    -2344    -2347    -2354    -2347    -2335 
   -2346    -2365    -2353    -2344    -2358    -2355    -2340    -2343 
   -2355    -2354    -2350    -2355    -2355    -2342    -2340    -2353 
   -2354    -2346    -2350    -2358    -2354    -2344    -2349    -2355 
   -2350    -2347    -2355    -2357    -2349    -2350    -2361    -2357 
   -2347    -2353    -2354    -2346    -2346    -2351    -2353    -2349 
   -2346    -2355    -2359    -2347    -2342    -2351    -2349    -2336 
   -2351    -2369    -2350    -2338    -2355    -2355    -2339    -2344 
   -2362    -2363    -2350    -2350    -2354    -2346    -2347    -2355 
   -2350    -2349    -2351    -2350    -2351    -2353    -2353    -2350 
   -2350    -2351    -2349    -2350    -2357    -2350    -2344    -2357 
   -2357    -2342    -2346    -2358    -2351    -2343    -2351    -2357 
   -2353    -2350    -2354    -2351    -2346    -2344    -2353    -2357 
   -2347    -2344    -2351    -2349    -2344    -2347    -2351    -2350 
   -2351    -2361    -2361    -2346    -2344    -2353    -2347    -2344 
   -2355    -2363    -2351    -2342    -2354    -2355    -2343    -2347 
   -2354    -2350    -2346    -2351    -2354    -2346    -2344    -2357 
   -2353    -2343    -2349    -2357    -2358    -2351    -2354    -2366 
   -2358    -2342    -2346    -2347    -2335    -2349    -2369    -2358 
   -2342    -2350    -2357    -2346    -2336    -2346    -2358    -2357 
   -2350    -2351    -2350    -2342    -2347    -2355    -2350    -2350 
   -2353    -2349    -2347    -2342    -2344    -2357    -2353    -2344 
   -2351    -2359    -2353    -2346    -2354    -2355    -2344    -2343 
   -2351    -2347    -2343    -2353    -2357    -2347    -2346    -2355 
   -2346    -2335    -2350    -2362    -2359    -2355    -2351    -2347 
   -2344    -2340    -2347    -2358    -2355    -2351    -2353    -2350 
   -2343    -2342    -2353    -2357    -2350    -2349    -2351    -2344 
   -2340    -2347    -2357    -2350    -2344    -2358    -2355    -2344 
   -2349    -2353    -2347    -2346    -2353    -2358    -2351    -2346 
   -2354    -2354    -2347    -2347    -2357    -2355    -2336    -2338 
   -2361    -2357    -2346    -2355    -2354    -2344    -2342    -2346 
   -2349    -2349    -2353    -2361    -2349    -2336    -2346    -2354 
   -2346    -2346    -2361    -2355    -2343    -2350    -2357    -2350 
   -2350    -2351    -2353    -2353    -2349    -2353    -2355    -2347 
   -2342    -2346    -2349    -2349    -2347    -2353    -2354    -2346 
   -2354    -2363    -2351    -2343    -2347    -2347    -2346    -2347 
   -2351    -2350    -2344    -2346    -2353    -2351    -2347    -2355 
   -2366    -2357    -2342    -2344    -2353    -2350    -2350    -2354 
   -2351    -2342    -2344    -2355    -2350    -2344    -2354    -2355 
   -2346    -2346    -2351    -2353    -2347    -2346    -2357    -2358 
   -2347    -2346    -2354    -2353    -2351    -2354    -2357    -2351 
   -2343    -2340    -2349    -2353    -2350    -2355    -2357    -2346 
   -2344    -2349    -2344    -2347    -2358    -2361    -2353    -2344 
   -2343    -2350    -2347    -2344    -2357    -2358    -2342    -2343 
   -2358    -2353    -2340    -2351    -2358    -2346    -2343    -2351 
   -2353    -2349    -2349    -2355    -2354    -2344    -2347    -2355 
   -2349    -2340    -2350    -2361    -2351    -2343    -2351    -2355 
   -2346    -2346    -2354    -2351    -2344    -2344    -2353    -2355 
   -2347    -2347    -2354    -2349    -2343    -2350    -2353    -2353 
   -2354    -2355    -2350    -2343    -2349    -2353    -2351    -2349 
   -2349    -2354    -2350    -2340    -2349    -2354    -2349    -2349 
   -2355    -2355    -2346    -2343    -2353    -2350    -2342    -2350 
   -2354    -2347    -2343    -2351    -2353    -2343    -2350    -2361 
   -2354    -2344    -2347    -2354    -2350    -2340    -2344    -2353 
   -2347    -2347    -2361    -2359    -2344    -2346    -2357    -2351 
   -2340    -2346    -2354    -2349    -2346    -2357    -2359    -2349 
   -2342    -2350    -2357    -2350    -2347    -2351    -2350    -2349 
   -2350    -2354    -2351    -2344    -2350    -2357    -2349    -2344 
   -2351    -2353    -2347    -2344    -2349    -2350    -2346    -2347 
   -2354    -2351    -2346    -2351    -2357    -2350    -2344    -2351 
   -2354    -2349    -2353    -2358    -2351    -2343    -2343    -2350 
   -2350    -2343    -2349    -2357    -2353    -2343    -2347    -2353 
   -2346    -2350    -2359    -2353    -2346    -2350    -2351    -2350 
   -2347    -2347    -2353    -2346    -2342    -2351    -2342    -2344 
   -2357    -2326    -2320    -2369    -2377    -2328    -2308    -2431 
   -2490    -2192    -2016    -2427    -2686    -2295    -1934    -1899 
   -2170    -2659    -2695    -2593    -2952    -2978    -2388    -1980 
   -2072    -2234    -2342    -2628    -2362    -1682    -2061    -2110 
   -1005    -1919    -3708    -2658    -1954    -3888    -4650    -3430 
   -1749      -93     -315    -2054    -2299    -1505    -2322    -4085 
   -4114    -1952     -272    -1462    -3152    -2262    -1840    -3380 
   -3389    -2563    -2052    -1849    -2687    -2543    -1775    -1424 
   -1583    -2613    -2053    -1231    -2840    -4210    -3122    -1171 
   -1034    -2416    -3395    -3761    -4498    -5454    -4523    -2064 
    -901    -1420    -1966    -1551    -1638    -3041    -3040    -1432 
    -938    -1223    -1314    -2315    -2956    -2057    -2644    -3603 
   -1355      216    -1628    -2790    -2571    -3117    -3102    -2330 
   -2135    -1985    -2072    -2575    -2845    -3186    -2693    -1066 
    -793    -1810    -1459    -1289    -3388    -4540    -4321    -4368 
   -2743    -2155    -4565    -4307    -1984    -1919    -2247    -2990 
   -3388     -947      295     -596    -1047    -2380    -1815      778 
   -1331    -4179    -2288    -1977    -2841    -1395    -2604    -3748 
   -1271    -1811    -4526    -4224    -3478    -3177    -2970    -3924 
   -2853     -962    -2799    -4066    -2547    -1559      441     1841 
    -207    -1242     -893    -2597    -3491    -2749    -3592    -2758 
     534      616     -699     -436    -1791    -4549    -6057    -5826 
   -3322     -345    -1063    -4315    -4976    -4075    -4679    -4730 
   -4584    -6215    -6153    -3295    -2007    -2469    -1607       14 
    1144     1024    -1763    -5062    -5275    -1182     6454    11406 
    7920      -35    -6515   -10600   -11641    -7793    -1652      892 
    -747    -2438    -2076    -1516    -2924    -4777    -5772    -6324 
   -4719    -1613      -63      907     1626      600    -1364    -4075 
   -5367    -2902    -1092    -2103    -2349    -1628    -1587    -1952 
   -2211    -1599     -997    -2187    -4253    -6319    -8000    -7194 
   -3716     -324     1119     1138      797     -812    -4576    -7969 
   -8009    -4729     -324     2257     1513     -749    -2295    -3813 
   -5008    -3087      166     1390     2135     2100     -126    -1521 
   -1485    -1875    -1578    -1283    -3420    -6744    -8615    -7014 
   -2042     1174      -31    -1810    -3384    -6057    -7281    -6542 
   -5398    -3451    -1767    -1691    -1580     -691     -124     -141 
   -1127    -2724    -3487    -3161    -1665      129      525      571 
    1102      156    -2501    -4614    -4934    -4121    -3388    -3065 
   -2924    -2806    -2560    -2358    -2219    -2216    -2640    -2959 
   -2706    -2312    -2883    -4711    -5644    -4703    -3488    -2517 
   -1642     -900     -298     -423    -1177    -1802    -1254      751 
    1898      776    -1069    -2554    -3551    -4106    -4536    -4221 
   -3144    -2959    -3192    -2362    -2459    -4430    -5155    -3991 
   -3087    -2168     -942    -1055    -1863    -1640    -1474    -1804 
   -1383     -850    -1120    -1930    -3092    -3979    -4017    -3250 
   -1931    -1107    -1553    -2365    -2862    -3677    -4218    -3241 
   -1746     -932     -716    -1309    -2311    -2604    -2700    -3334 
   -3180    -2056    -1584    -1507    -1398    -2374    -4272    -5580 
   -5443    -4067    -2228     -616      832     2223     2585     1733 
     719     -319     -943     -535     -333    -1026    -2276    -4029 
   -5177    -5000    -4315    -3474    -2639    -2652    -3801    -5009 
   -5406    -5521    -5745    -5593    -5113    -4773    -4028    -2515 
   -1167     -207      577      708      623      464     -575    -1786 
   -2215    -2089    -1819    -2138    -3045    -3300    -2979    -3186 
   -3518    -3492    -3368    -2633    -1764    -1876    -1960    -1686 
   -2134    -2867    -3793    -5154    -5537    -4585    -3376    -2261 
   -1602    -1536    -1449    -1613    -2286    -2316    -1177      256 
     862      368     -309     -970    -1933    -2616    -2886    -2990 
   -2974    -3056    -2830    -2061    -1534    -1713    -2149    -2160 
   -2054    -2759    -3790    -4035    -3608    -2933    -2369    -2857 
   -4170    -4688    -4306    -3731    -2485     -920     -477    -1013 
   -1293    -1003     -525     -314     -834    -1771    -2222    -2220 
   -2515    -3326    -4033    -3904    -3396    -3223    -3001    -2637 
   -2624    -3009    -3504    -3481    -3018    -2959    -2870    -2338 
   -2058    -1906    -1944    -2444    -2219     -997     -324     -691 
   -1128    -1121     -908     -838    -1264    -1790    -1709    -1566 
   -2035    -2539    -2400    -1931    -1877    -2455    -3289    -3950 
   -4314    -4251    -3765    -3495    -3627    -3503    -3048    -2628 
   -2176    -1891    -1991    -1837    -1335    -1177    -1250    -1250 
   -1196     -888     -778    -1424    -2002    -2006    -2268    -2833 
   -3065    -3213    -3510    -3632    -3634    -3742    -3867    -3912 
   -3969    -4070    -4090    -3774    -2933    -1939    -1242     -742 
    -615    -1125    -1723    -2035    -2272    -2192    -1733    -1399 
   -1012     -454     -417    -1123    -2317    -3572    -4275    -4662 
   -4957    -4432    -3391    -2820    -2604    -2616    -2826    -2617 
   -1806     -977     -612     -627     -780    -1048    -1633    -2558 
   -3311    -3496    -3075    -2095     -954     -243     -187     -585 
   -1089    -1385    -1437    -1498    -1586    -1703    -2038    -2477 
   -2857    -3094    -3037    -2853    -2879    -3172    -3646    -4244 
   -4816    -5273    -5563    -5320    -4573    -3913    -3361    -2612 
   -1867    -1331     -943     -625     -244       81       40     -276 
    -745    -1489    -2408    -3292    -3929    -4104    -4098    -4286 
   -4313    -3798    -3052    -2497    -2255    -2138    -1823    -1429 
   -1356    -1505    -1537    -1597    -1906    -2385    -2964    -3295 
   -3038    -2471    -1929    -1501    -1124     -742     -573     -719 
   -1231    -2064    -2617    -2708    -2776    -2814    -2678    -2521 
   -2247    -1904    -1890    -1988    -1980    -2193    -2384    -2359 
   -2485    -2563    -2430    -2442    -2558    -2594    -2689    -2762 
   -2647    -2432    -2153    -1980    -2060    -2057    -2068    -2502 
   -3090    -3545    -3786    -3574    -3056    -2644    -2438    -2312 
   -2199    -2205    -2407    -2563    -2484    -2484    -2698    -2783 
   -2772    -2745    -2370    -1749    -1383    -1386    -1474    -1591 
   -1899    -2151    -2150    -2110    -2091    -2061    -2006    -1788 
   -1453    -1314    -1471    -1773    -1981    -1814    -1572    -1848 
   -2343    -2579    -2826    -3311    -3861    -4293    -4491    -4402 
   -4163    -4014    -3861    -3559    -3218    -2681    -1945    -1297 
    -681     -128      128      178       72     -368     -967    -1436 
   -2043    -2860    -3399    -3721    -4163    -4457    -4361    -4023 
   -3557    -3048    -2643    -2430    -2393    -2338    -1973    -1368 
    -843     -511     -394     -598    -1109    -1714    -2303    -2856 
   -3219    -3411    -3611    -3793    -3944    -4116    -4176    -3917 
   -3365    -2685    -1915    -1246     -945    -1098    -1653    -2288 
   -2806    -3231    -3292    -3100    -3125    -3148    -2870    -2532 
   -2369    -2377    -2320    -2047    -1813    -1653    -1274     -865 
    -828    -1067    -1413    -1788    -1965    -1977    -2146    -2474 
