Origin Time       2024/04/02 04:24:00
Lat.              40.133
Long.             141.712
Depth. (km)       71
Mag.              6.0
Station Code      ABSH09
Station Lat.      43.9269
Station Long.     144.8071
Station Height(m) -117
Record Time       2024/04/02 04:26:32
Sampling Freq(Hz) 100Hz
Duration Time(s)  120
Dir.              2
Scale Factor      2942(gal)/8224139
Max. Acc. (gal)   0.171
Last Correction   2024/04/02 04:26:32
Memo.             
[...]
   17275    17296    17304    17288    17266    17267    17305    17347 
   17362    17365    17367    17365    17369    17379    17382    17381 
   17378    17366    17347    17336    17323    17305    17293    17288 
   17294    17315    17329    17323    17307    17302    17296    17282 
   17275    17284    17304    17324    17335    17346    17354    17339 
   17312    17297    17304    17332    17358    17359    17346    17328 
   17312    17302    17300    17301    17313    17338    17352    17352 
   17351    17346    17339    17340    17344    17343    17344    17343 
   17334    17317    17312    17320    17331    17343    17359    17363 
   17343    17309    17294    17312    17350    17366    17356    17348 
   17352    17358    17359    17352    17340    17340    17356    17373 
   17383    17390    17379    17352    17339    17340    17335    17320 
   17321    17321    17301    17273    17255    17259    17282    17308 
   17329    17358    17382    17390    17389    17371    17343    17325 
   17317    17302    17289    17288    17294    17302    17311    17311 
   17297    17281    17265    17239    17217    17226    17255    17269 
   17259    17255    17270    17290    17298    17293    17293    17296 
   17282    17253    17228    17219    17226    17253    17296    17336 
   17361    17363    17335    17282    17240    17228    17232    17240 
   17246    17247    17254    17280    17311    17328    17336    17338 
   17325    17309    17288    17258    17240    17248    17274    17308 
   17342    17365    17363    17335    17301    17294    17315    17328 
   17319    17312    17321    17334    17340    17332    17316    17313 
   17334    17355    17350    17323    17296    17273    17254    17247 
   17258    17284    17307    17325    17331    17317    17301    17297 
   17288    17271    17267    17280    17300    17317    17328    17347 
   17374    17388    17389    17390    17394    17398    17386    17359 
   17332    17316    17311    17305    17294    17294    17319    17355 
   17371    17354    17327    17315    17311    17304    17296    17289 
   17289    17304    17339    17381    17410    17423    17423    17424 
   17429    17429    17420    17408    17401    17404    17415    17412 
   17386    17352    17317    17290    17286    17297    17305    17313 
   17325    17336    17332    17311    17277    17243    17230    17240 
   17265    17294    17313    17321    17328    17336    17342    17347 
   17348    17342    17324    17301    17293    17311    17335    17332 
   17298    17280    17298    17325    17340    17340    17328    17324 
   17332    17334    17320    17297    17273    17258    17266    17292 
   17312    17319    17319    17317    17315    17312    17312    17319 
   17332    17351    17375    17390    17383    17365    17340    17316 
   17305    17308    17321    17340    17348    17342    17338    17336 
   17320    17302    17301    17297    17274    17248    17227    17204 
   17186    17184    17203    17234    17248    17248    17257    17282 
   17308    17312    17297    17282    17284    17300    17321    17340 
   17359    17367    17363    17366    17383    17401    17397    17373 
   17352    17343    17331    17307    17278    17263    17266    17274 
   17284    17292    17290    17271    17240    17221    17242    17288 
   17324    17344    17362    17374    17374    17371    17365    17358 
   17365    17381    17383    17369    17362    17369    17370    17365 
   17361    17352    17329    17294    17263    17258    17273    17298 
   17325    17344    17358    17355    17327    17301    17296    17300 
   17312    17321    17316    17315    17328    17329    17308    17277 
   17255    17258    17285    17311    17313    17309    17327    17358 
   17382    17396    17396    17382    17352    17329    17336    17358 
   17367    17365    17354    17335    17308    17277    17258    17253 
   17254    17263    17277    17281    17269    17254    17248    17259 
   17282    17302    17305    17298    17300    17302    17297    17294 
   17305    17327    17342    17335    17320    17316    17317    17312 
   17294    17277    17278    17293    17294    17282    17275    17292 
   17317    17336    17352    17363    17359    17342    17315    17282 
   17258    17258    17281    17304    17307    17305    17307    17297 
   17277    17263    17258    17266    17284    17285    17259    17238 
   17243    17266    17294    17319    17339    17362    17379    17379 
   17369    17361    17354    17347    17351    17366    17389    17408 
   17415    17427    17435    17402    17346    17315    17304    17300 
   17308    17320    17329    17339    17347    17351    17352    17350 
   17335    17308    17297    17313    17323    17308    17281    17246 
   17224    17227    17242    17265    17278    17273    17259    17251 
   17254    17270    17289    17313    17346    17371    17388    17388 
   17374    17367    17370    17367    17361    17356    17356    17350 
   17336    17328    17331    17331    17321    17312    17319    17328 
   17323    17311    17302    17290    17285    17311    17348    17363 
   17347    17309    17280    17275    17281    17288    17312    17343 
   17342    17308    17278    17270    17284    17301    17302    17298 
   17304    17321    17340    17350    17348    17339    17323    17305 
   17304    17317    17325    17331    17339    17335    17319    17302 
   17289    17277    17265    17253    17248    17251    17263    17289 
   17311    17316    17313    17309    17308    17313    17307    17292 
   17288    17302    17323    17328    17320    17316    17320    17329 
   17340    17339    17324    17319    17325    17325    17317    17311 
   17320    17339    17354    17356    17352    17350    17344    17343 
   17346    17339    17317    17296    17280    17269    17271    17278 
   17278    17288    17309    17317    17317    17334    17361    17367 
   17344    17312    17300    17311    17332    17354    17371    17381 
   17367    17328    17298    17294    17284    17262    17257    17269 
   17280    17277    17278    17305    17338    17336    17311    17300 
   17302    17305    17311    17324    17325    17311    17301    17302 
   17304    17301    17292    17277    17270    17275    17285    17288 
   17293    17308    17317    17313    17315    17325    17335    17346 
   17367    17371    17346    17325    17324    17317    17305    17311 
   17319    17309    17304    17325    17351    17351    17339    17334 
   17332    17325    17313    17302    17298    17296    17289    17275 
   17275    17304    17343    17362    17359    17348    17334    17316 
   17315    17323    17321    17304    17280    17269    17286    17311 
   17319    17317    17313    17304    17290    17271    17253    17250 
   17271    17308    17347    17369    17354    17316    17293    17292 
   17288    17274    17267    17281    17308    17334    17336    17315 
   17305    17321    17348    17383    17409    17400    17363    17344 
   17354    17362    17366    17382    17402    17410    17400    17396 
   17405    17410    17396    17366    17328    17304    17305    17312 
   17302    17290    17297    17315    17338    17371    17404    17423 
   17424    17408    17389    17382    17373    17342    17297    17265 
   17254    17257    17271    17293    17323    17346    17346    17321 
   17294    17286    17302    17316    17311    17313    17334    17348 
   17351    17354    17351    17328    17311    17320    17336    17336 
   17324    17316    17327    17348    17356    17350    17338    17317 
   17297    17282    17265    17257    17280    17321    17347    17339 
   17308    17285    17284    17294    17290    17266    17259    17281 
   17304    17307    17290    17275    17269    17263    17271    17300 
   17332    17346    17347    17354    17356    17323    17271    17247 
   17259    17273    17270    17266    17270    17278    17288    17296 
   17301    17297    17282    17270    17266    17263    17274    17311 
   17347    17356    17344    17323    17301    17288    17273    17259 
   17259    17274    17289    17290    17281    17274    17278    17292 
   17307    17312    17319    17340    17366    17369    17346    17323 
   17311    17305    17311    17332    17351    17352    17343    17332 
   17312    17296    17302    17328    17354    17367    17359    17344 
   17347    17359    17366    17377    17402    17433    17450    17444 
   17420    17373    17324    17327    17363    17377    17351    17311 
   17281    17267    17263    17288    17324    17340    17336    17329 
   17323    17313    17300    17277    17253    17250    17269    17293 
   17319    17344    17362    17352    17317    17282    17271    17278 
   17288    17292    17293    17301    17315    17325    17342    17367 
   17378    17377    17373    17355    17327    17302    17290    17284 
   17281    17308    17351    17367    17347    17309    17271    17247 
   17236    17231    17240    17280    17320    17339    17348    17347 
   17323    17294    17275    17265    17266    17266    17251    17234 
   17232    17248    17265    17271    17282    17297    17316    17344 
   17371    17385    17390    17389    17377    17365    17359    17359 
   17358    17365    17371    17359    17324    17280    17257    17259 
   17263    17257    17253    17265    17280    17285    17282    17271 
   17262    17265    17274    17282    17297    17311    17308    17298 
   17289    17282    17274    17251    17224    17227    17266    17315 
   17336    17320    17293    17269    17255    17255    17262    17273 
   17304    17343    17375    17393    17381    17347    17316    17298 
   17286    17286    17301    17317    17332    17351    17363    17354 
   17336    17320    17296    17278    17284    17309    17331    17335 
   17334    17342    17344    17335    17317    17296    17274    17261 
   17250    17257    17281    17305    17335    17378    17408    17406 
   17379    17350    17346    17370    17393    17400    17394    17378 
   17350    17323    17308    17300    17282    17263    17273    17294 
   17290    17277    17280    17271    17238    17215    17221    17248 
   17274    17292    17307    17332    17367    17389    17397    17400 
   17393    17378    17375    17386    17393    17383    17365    17352 
   17347    17339    17327    17316    17305    17301    17304    17308 
   17313    17320    17331    17355    17382    17375    17334    17292 
   17271    17266    17267    17274    17285    17289    17273    17238 
   17199    17182    17200    17228    17240    17247    17270    17280 
   17258    17250    17285    17342    17385    17394    17381    17362 
   17354    17365    17375    17359    17335    17327    17315    17292 
   17275    17274    17300    17351    17396    17415    17408    17382 
   17356    17348    17356    17375    17404    17431    17443    17442 
   17439    17446    17467    17483    17464    17410    17351    17311 
   17294    17307    17336    17367    17389    17378    17320    17242 
   17180    17158    17174    17201    17226    17248    17269    17296 
   17319    17327    17323    17316    17298    17282    17277    17280 
   17293    17304    17286    17258    17258    17273    17269    17255 
   17254    17259    17258    17267    17289    17317    17346    17363 
   17362    17347    17332    17342    17367    17390    17417    17450 
   17473    17478    17469    17452    17444    17443    17427    17394 
   17367    17350    17350    17371    17398    17428    17456    17455 
   17409    17340    17280    17259    17273    17277    17259    17250 
   17248    17250    17257    17259    17258    17261    17270    17278 
   17271    17248    17220    17192    17167    17154    17161    17185 
   17221    17265    17315    17367    17415    17440    17440    17421 
   17396    17359    17316    17285    17289    17329    17377    17389 
   17366    17329    17288    17238    17193    17185    17215    17262 
   17313    17363    17404    17424    17428    17431    17442    17436 
   17389    17325    17288    17274    17273    17280    17281    17269 
   17251    17248    17271    17301    17311    17305    17312    17329 
   17347    17351    17317    17255    17216    17211    17212    17209 
   17212    17230    17246    17244    17258    17288    17277    17205 
   17135    17120    17153    17196    17224    17231    17220    17216 
   17235    17271    17294    17304    17317    17335    17358    17401 
   17455    17487    17493    17483    17478    17471    17451    17417 
   17374    17343    17373    17455    17524    17555    17568    17563 
   17521    17439    17347    17296    17297    17328    17348    17336 
   17301    17263    17226    17184    17136    17089    17054    17038 
   17039    17046    17065    17095    17099    17085    17101    17142 
   17165    17163    17154    17155    17184    17240    17298    17331 
   17336    17334    17324    17294    17266    17273    17315    17366 
   17412    17432    17432    17427    17398    17365    17401    17528 
   17678    17768    17774    17722    17649    17574    17506    17464 
   17471    17523    17579    17617    17636    17618    17544    17416 
   17263    17132    17062    17076    17162    17274    17342    17334 
   17290    17265    17258    17248    17209    17135    17064    17024 
   17020    17046    17105    17186    17250    17258    17193    17064 
   16918    16838    16873    17019    17230    17433    17574    17616 
   17574    17504    17442    17393    17369    17374    17405    17462 
   17517    17520    17471    17394    17313    17273    17280    17289 
   17294    17327    17389    17454    17477    17424    17309    17194 
   17131    17123    17149    17177    17192    17230    17339    17467 
   17508    17432    17319    17281    17348    17420    17440    17460 
   17518    17571    17570    17517    17432    17343    17297    17317 
   17371    17412    17428    17443    17450    17394    17274    17169 
   17155    17207    17226    17180    17112    17054    17030    17059 
   17122    17169    17166    17119    17092    17131    17204    17258 
   17297    17346    17381    17370    17308    17223    17172    17167 
   17172    17208    17319    17459    17570    17617    17574    17464 
   17358    17315    17355    17451    17532    17543    17483    17389 
   17294    17220    17189    17205    17258    17335    17393    17390 
   17320    17231    17186    17203    17247    17300    17361    17406 
   17405    17361    17321    17334    17371    17385    17365    17325 
   17288    17257    17213    17184    17201    17244    17267    17263 
   17230    17177    17157    17196    17250    17273    17290    17346 
   17413    17415    17334    17242    17200    17182    17149    17097 
   17064    17086    17163    17234    17258    17267    17293    17302 
   17267    17230    17255    17348    17444    17494    17508    17504 
   17496    17491    17497    17513    17527    17544    17604    17680 
   17674    17550    17375    17231    17151    17120    17122    17173 
   17250    17288    17259    17200    17149    17116    17099    17112 
   17159    17204    17221    17230    17242    17250    17248    17244 
   17263    17319    17378    17379    17320    17247    17216    17265 
   17392    17528    17610    17637    17655    17685    17701    17680 
   17633    17601    17621    17674    17712    17729    17730    17691 
   17593    17452    17315    17231    17259    17408    17555    17559 
   17413    17228    17104    17047    17026    17054    17157    17293 
   17361    17313    17226    17170    17130    17100    17127    17188 
   17197    17146    17089    17069    17062    17039    17028    17072 
   17163    17274    17365    17370    17274    17131    17031    17042 
   17159    17325    17485    17610    17676    17655    17531    17359 
   17232    17188    17190    17213    17251    17280    17300    17313 
   17278    17196    17150    17190    17281    17377    17474    17571 
   17647    17670    17636    17554    17423    17269    17127    17012 
   16933    16896    16903    16964    17065    17161    17201    17192 
   17176    17172    17172    17212    17312    17424    17489    17497 
   17470    17412    17339    17313    17398    17566    17702    17752 
   17751    17724    17662    17566    17440    17307    17219    17224 
   17289    17340    17365    17358    17307    17223    17146    17108 
   17108    17120    17145    17167    17172    17186    17240    17315 
   17402    17478    17460    17319    17154    17076    17076    17096 
   17112    17112    17091    17100    17186    17316    17412    17460 
   17497    17500    17432    17319    17219    17169    17172    17242 
   17377    17504    17518    17412    17280    17197    17186    17254 
   17347    17392    17393    17382    17332    17270    17270    17316 
   17329    17308    17308    17336    17335    17285    17266    17348 
   17483    17583    17620    17582    17467    17346    17273    17223 
   17190    17194    17207    17189    17157    17131    17118    17149 
   17257    17421    17583    17689    17716    17689    17622    17517 
   17369    17217    17134    17146    17217    17298    17366    17409 
   17416    17394    17369    17343    17296    17232    17190    17196 
   17234    17258    17231    17189    17207    17267    17305    17329 
   17397    17487    17525    17504    17478    17455    17410    17351 
   17308    17300    17320    17363    17408    17409    17355    17307 
   17325    17408    17489    17533    17540    17504    17427    17343 
   17312    17358    17448    17531    17547    17452    17280    17107 
   16992    16976    17069    17239    17382    17404    17325    17230 
   17167    17157    17204    17288    17352    17362    17305    17208 
   17108    17049    17066    17155    17250    17288    17269    17236 
   17200    17162    17167    17258    17393    17494    17537    17540 
   17500    17412    17305    17251    17301    17398    17442    17417 
   17348    17239    17107    16976    16869    16843    16942    17122 
   17275    17342    17378    17448    17509    17506    17451    17358 
   17280    17290    17402    17518    17540    17478    17420    17393 
   17378    17386    17420    17442    17428    17377    17304    17242 
   17211    17194    17209    17293    17428    17532    17529    17416 
   17269    17146    17091    17143    17271    17398    17475    17464 
   17365    17246    17173    17145    17139    17140    17143    17165 
   17209    17253    17284    17307    17355    17471    17595    17617 
   17537    17454    17401    17366    17367    17432    17510    17508 
   17390    17208    17054    17005    17061    17159    17246    17285 
   17271    17246    17224    17165    17080    17049    17097    17170 
   17231    17289    17348    17396    17440    17485    17513    17504 
   17452    17388    17374    17417    17446    17448    17501    17612 
   17678    17622    17474    17332    17289    17348    17409    17397 
   17343    17319    17320    17293    17258    17259    17288    17325 
   17378    17432    17451    17424    17390    17386    17378    17332 
   17282    17262    17244    17203    17173    17224    17340    17433 
