Origin Time       2024/04/02 04:24:00
Lat.              40.133
Long.             141.712
Depth. (km)       71
Mag.              6.0
Station Code      ABSH14
Station Lat.      43.7228
Station Long.     144.1835
Station Height(m) -16
Record Time       2024/04/02 04:26:23
Sampling Freq(Hz) 100Hz
Duration Time(s)  120
Dir.              3
Scale Factor      2942(gal)/8224139
Max. Acc. (gal)   0.183
Last Correction   2024/04/02 04:26:24
Memo.             
[...]
 -104842  -104880  -104889  -104866  -104827  -104778  -104734  -104719 
 -104734  -104743  -104738  -104731  -104735  -104761  -104788  -104781 
 -104758  -104760  -104789  -104826  -104859  -104869  -104859  -104845 
 -104835  -104828  -104826  -104836  -104868  -104919  -104973  -105005 
 -105009  -104981  -104936  -104911  -104913  -104938  -104981  -105031 
 -105066  -105074  -105088  -105129  -105165  -105160  -105146  -105136 
 -105116  -105093  -105077  -105058  -105034  -105021  -105034  -105055 
 -105051  -105035  -105042  -105048  -105020  -104971  -104938  -104938 
 -104955  -104951  -104923  -104907  -104899  -104874  -104838  -104800 
 -104787  -104809  -104849  -104885  -104919  -104949  -104971  -104971 
 -104939  -104911  -104912  -104915  -104882  -104805  -104723  -104701 
 -104741  -104804  -104870  -104915  -104939  -104938  -104889  -104814 
 -104737  -104674  -104649  -104656  -104677  -104710  -104751  -104801 
 -104841  -104846  -104818  -104777  -104746  -104745  -104762  -104770 
 -104778  -104819  -104897  -104978  -105023  -105043  -105073  -105106 
 -105100  -105034  -104931  -104855  -104865  -104939  -105004  -105019 
 -105016  -105040  -105079  -105108  -105102  -105057  -104986  -104922 
 -104890  -104920  -105005  -105104  -105160  -105147  -105092  -105047 
 -105021  -104989  -104934  -104855  -104796  -104801  -104866  -104938 
 -104973  -104954  -104915  -104913  -104974  -105048  -105062  -104986 
 -104880  -104820  -104815  -104823  -104823  -104827  -104858  -104911 
 -104946  -104950  -104924  -104874  -104839  -104838  -104853  -104903 
 -105007  -105085  -105067  -105011  -105011  -105067  -105117  -105129 
 -105100  -105032  -104967  -104916  -104857  -104796  -104777  -104820 
 -104893  -104936  -104938  -104939  -104954  -104965  -104957  -104944 
 -104959  -104992  -105003  -104986  -104973  -104994  -105061  -105146 
 -105205  -105198  -105119  -105024  -104958  -104911  -104862  -104823 
 -104814  -104826  -104849  -104885  -104907  -104876  -104830  -104823 
 -104835  -104808  -104753  -104722  -104724  -104726  -104723  -104716 
 -104699  -104696  -104727  -104751  -104745  -104735  -104733  -104716 
 -104693  -104688  -104714  -104770  -104851  -104934  -104992  -105035 
 -105057  -105020  -104932  -104853  -104808  -104804  -104827  -104862 
 -104895  -104917  -104939  -104971  -105001  -104990  -104939  -104896 
 -104893  -104928  -104988  -105035  -105044  -105043  -105062  -105085 
 -105074  -105017  -104953  -104911  -104893  -104890  -104923  -104997 
 -105067  -105104  -105106  -105088  -105058  -105011  -104943  -104863 
 -104788  -104745  -104743  -104753  -104753  -104750  -104735  -104711 
 -104701  -104714  -104749  -104808  -104862  -104907  -104959  -105009 
 -105051  -105104  -105138  -105116  -105052  -104994  -104989  -105034 
 -105079  -105100  -105117  -105154  -105197  -105204  -105146  -105042 
 -104940  -104876  -104838  -104818  -104823  -104841  -104880  -104923 
 -104908  -104842  -104780  -104751  -104754  -104769  -104792  -104838 
 -104897  -104946  -104971  -104974  -104966  -104959  -104940  -104917 
 -104938  -105016  -105101  -105159  -105200  -105213  -105197  -105173 
 -105159  -105155  -105142  -105127  -105102  -105048  -104985  -104940 
 -104920  -104904  -104874  -104834  -104799  -104772  -104749  -104747 
 -104769  -104773  -104742  -104699  -104646  -104588  -104553  -104549 
 -104566  -104591  -104623  -104693  -104787  -104857  -104885  -104865 
 -104824  -104830  -104889  -104946  -104976  -105007  -105055  -105100 
 -105113  -105090  -105023  -104927  -104857  -104846  -104857  -104835 
 -104804  -104815  -104874  -104969  -105062  -105098  -105062  -105013 
 -105009  -105046  -105100  -105147  -105165  -105162  -105136  -105058 
 -104942  -104824  -104726  -104692  -104719  -104742  -104751  -104795 
 -104885  -104982  -105066  -105123  -105123  -105077  -105007  -104934 
 -104874  -104831  -104808  -104809  -104853  -104935  -104994  -104985 
 -104932  -104893  -104912  -104959  -104961  -104912  -104863  -104831 
 -104819  -104827  -104849  -104896  -104965  -105042  -105112  -105129 
 -105065  -104947  -104816  -104706  -104654  -104685  -104792  -104940 
 -105069  -105159  -105232  -105287  -105308  -105289  -105232  -105158 
 -105096  -105065  -105057  -105047  -105034  -105024  -105023  -105042 
 -105065  -105069  -105055  -105027  -104994  -104978  -104974  -104962 
 -104926  -104866  -104805  -104761  -104735  -104741  -104774  -104805 
 -104808  -104800  -104823  -104890  -104962  -105008  -105024  -105003 
 -104954  -104876  -104749  -104608  -104514  -104487  -104515  -104569 
 -104634  -104715  -104791  -104820  -104816  -104819  -104855  -104908 
 -104924  -104895  -104850  -104804  -104785  -104811  -104847  -104868 
 -104876  -104901  -104951  -104993  -105038  -105108  -105174  -105208 
 -105223  -105232  -105239  -105252  -105287  -105327  -105336  -105325 
 -105317  -105291  -105232  -105154  -105067  -104998  -104963  -104930 
 -104884  -104843  -104811  -104777  -104722  -104642  -104579  -104561 
 -104585  -104615  -104641  -104687  -104753  -104799  -104807  -104800 
 -104826  -104888  -104938  -104951  -104940  -104923  -104928  -104959 
 -104992  -104992  -104963  -104940  -104932  -104935  -104950  -104963 
 -104953  -104927  -104911  -104909  -104928  -104961  -104982  -104981 
 -104980  -105007  -105039  -105052  -105040  -105011  -104982  -104953 
 -104900  -104836  -104769  -104704  -104660  -104630  -104607  -104600 
 -104633  -104711  -104801  -104872  -104944  -105031  -105086  -105077 
 -105030  -105001  -105017  -105062  -105101  -105106  -105081  -105042 
 -105001  -104969  -104932  -104873  -104827  -104836  -104862  -104854 
 -104823  -104797  -104778  -104770  -104799  -104851  -104890  -104920 
 -104947  -104947  -104920  -104896  -104904  -104947  -104996  -105032 
 -105058  -105084  -105117  -105132  -105108  -105058  -105000  -104953 
 -104911  -104878  -104886  -104928  -104951  -104940  -104926  -104922 
 -104907  -104880  -104849  -104815  -104795  -104791  -104781  -104768 
 -104770  -104808  -104886  -104974  -105023  -105032  -105038  -105047 
 -105044  -105035  -105038  -105054  -105071  -105065  -105031  -104984 
 -104939  -104895  -104842  -104811  -104826  -104866  -104912  -104950 
 -104949  -104895  -104822  -104762  -104726  -104699  -104672  -104661 
 -104684  -104730  -104776  -104784  -104762  -104743  -104716  -104677 
 -104664  -104699  -104760  -104827  -104919  -105015  -105055  -105043 
 -105024  -105000  -104967  -104931  -104899  -104885  -104886  -104893 
 -104903  -104897  -104877  -104855  -104850  -104878  -104917  -104936 
 -104936  -104924  -104916  -104924  -104928  -104927  -104953  -105005 
 -105063  -105117  -105159  -105197  -105236  -105258  -105244  -105189 
 -105106  -105023  -104954  -104919  -104931  -104973  -105021  -105074 
 -105120  -105143  -105120  -105046  -104965  -104917  -104903  -104916 
 -104942  -104944  -104917  -104890  -104873  -104872  -104880  -104885 
 -104878  -104854  -104826  -104812  -104808  -104803  -104797  -104787 
 -104781  -104796  -104843  -104926  -105016  -105086  -105128  -105144 
 -105152  -105155  -105136  -105100  -105063  -105034  -105013  -105001 
 -105001  -105005  -104984  -104942  -104920  -104920  -104927  -104947 
 -104984  -105019  -105032  -105019  -104986  -104951  -104922  -104899 
 -104886  -104904  -104955  -105013  -105044  -105048  -105055  -105058 
 -105038  -104996  -104939  -104893  -104861  -104824  -104793  -104793 
 -104824  -104866  -104919  -104982  -105034  -105055  -105051  -105024 
 -105000  -104990  -104971  -104942  -104908  -104873  -104841  -104808 
 -104773  -104745  -104720  -104707  -104728  -104778  -104820  -104847 
 -104862  -104884  -104927  -104982  -105036  -105084  -105109  -105129 
 -105171  -105210  -105220  -105208  -105187  -105166  -105135  -105085 
 -105035  -105000  -104971  -104942  -104890  -104809  -104715  -104630 
 -104585  -104583  -104588  -104581  -104566  -104548  -104519  -104510 
 -104539  -104599  -104672  -104719  -104716  -104722  -104761  -104789 
 -104799  -104803  -104820  -104873  -104954  -105028  -105075  -105088 
 -105075  -105051  -105011  -104978  -104973  -104971  -104986  -105027 
 -105061  -105073  -105078  -105063  -105027  -104992  -104954  -104913 
 -104866  -104820  -104807  -104820  -104831  -104850  -104874  -104893 
 -104909  -104920  -104927  -104938  -104966  -105011  -105050  -105074 
 -105085  -105065  -105017  -104966  -104927  -104905  -104900  -104923 
 -104973  -105012  -105017  -104998  -104969  -104946  -104935  -104927 
 -104920  -104912  -104900  -104905  -104931  -104947  -104947  -104942 
 -104931  -104909  -104878  -104845  -104812  -104778  -104746  -104722 
 -104712  -104699  -104660  -104599  -104552  -104548  -104579  -104607 
 -104638  -104706  -104793  -104859  -104892  -104893  -104869  -104834 
 -104807  -104788  -104766  -104753  -104757  -104774  -104804  -104832 
 -104859  -104870  -104842  -104789  -104755  -104764  -104799  -104832 
 -104853  -104873  -104911  -104965  -105001  -104993  -104962  -104928 
 -104897  -104880  -104877  -104873  -104870  -104888  -104930  -104994 
 -105066  -105131  -105187  -105229  -105251  -105250  -105214  -105166 
 -105155  -105183  -105206  -105212  -105216  -105220  -105209  -105193 
 -105200  -105231  -105267  -105290  -105286  -105264  -105250  -105244 
 -105220  -105186  -105173  -105170  -105142  -105082  -105019  -104966 
 -104913  -104862  -104828  -104808  -104782  -104754  -104738  -104727 
 -104696  -104642  -104595  -104566  -104557  -104576  -104611  -104645 
 -104679  -104727  -104781  -104831  -104877  -104912  -104912  -104890 
 -104896  -104926  -104936  -104909  -104858  -104807  -104777  -104777 
 -104799  -104823  -104836  -104850  -104866  -104872  -104872  -104880 
 -104893  -104905  -104916  -104928  -104946  -104965  -104963  -104938 
 -104905  -104870  -104834  -104801  -104788  -104793  -104803  -104809 
 -104827  -104861  -104923  -104989  -105012  -105009  -105025  -105048 
 -105061  -105057  -105032  -105008  -104996  -104994  -104996  -104982 
 -104959  -104943  -104934  -104926  -104924  -104927  -104935  -104969 
 -105031  -105088  -105131  -105159  -105165  -105158  -105143  -105113 
 -105073  -105024  -104973  -104938  -104916  -104903  -104893  -104869 
 -104839  -104823  -104808  -104796  -104805  -104822  -104822  -104815 
 -104823  -104846  -104870  -104890  -104911  -104942  -104988  -105046 
 -105104  -105142  -105150  -105152  -105167  -105185  -105181  -105147 
 -105106  -105092  -105104  -105116  -105102  -105063  -105023  -104998 
 -104992  -104980  -104953  -104947  -104980  -105020  -105048  -105070 
 -105075  -105067  -105055  -105031  -105000  -104980  -104966  -104963 
 -104969  -104978  -105015  -105086  -105143  -105158  -105154  -105140 
 -105111  -105061  -105000  -104943  -104895  -104850  -104822  -104812 
 -104801  -104803  -104828  -104845  -104841  -104843  -104847  -104836 
 -104818  -104792  -104764  -104733  -104706  -104689  -104685  -104695 
 -104708  -104707  -104699  -104679  -104643  -104619  -104622  -104647 
 -104672  -104700  -104749  -104807  -104857  -104899  -104930  -104949 
 -104969  -104988  -104992  -104993  -105012  -105063  -105127  -105162 
 -105166  -105171  -105166  -105139  -105108  -105079  -105058  -105058 
 -105065  -105063  -105065  -105071  -105079  -105104  -105131  -105125 
 -105093  -105051  -104989  -104926  -104877  -104845  -104830  -104812 
 -104792  -104781  -104769  -104760  -104745  -104716  -104696  -104708 
 -104743  -104787  -104824  -104843  -104853  -104862  -104857  -104839 
 -104834  -104845  -104839  -104793  -104726  -104670  -104649  -104653 
 -104668  -104683  -104700  -104730  -104762  -104782  -104793  -104809 
 -104824  -104835  -104853  -104873  -104882  -104881  -104878  -104904 
 -104953  -104985  -105000  -105003  -104993  -104989  -105007  -105038 
 -105065  -105084  -105102  -105116  -105113  -105094  -105058  -104996 
 -104923  -104858  -104807  -104789  -104812  -104831  -104819  -104799 
 -104791  -104799  -104797  -104778  -104774  -104788  -104799  -104807 
 -104819  -104839  -104862  -104882  -104895  -104881  -104854  -104839 
 -104834  -104822  -104816  -104822  -104812  -104795  -104803  -104838 
 -104874  -104903  -104911  -104886  -104854  -104846  -104845  -104822 
 -104799  -104801  -104832  -104881  -104919  -104926  -104915  -104896 
 -104880  -104878  -104889  -104917  -104959  -104990  -105013  -105034 
 -105032  -105009  -104998  -105007  -105016  -105032  -105063  -105081 
 -105063  -105020  -104969  -104931  -104900  -104858  -104835  -104842 
 -104854  -104863  -104880  -104903  -104920  -104930  -104940  -104942 
 -104930  -104924  -104930  -104938  -104940  -104943  -104947  -104957 
 -104982  -105008  -105023  -105039  -105046  -105025  -104988  -104938 
 -104886  -104847  -104815  -104785  -104758  -104737  -104738  -104766 
 -104797  -104811  -104804  -104793  -104797  -104819  -104855  -104892 
 -104905  -104907  -104922  -104955  -104992  -105011  -105005  -104997 
 -105005  -105030  -105044  -105043  -105061  -105101  -105135  -105165 
 -105190  -105194  -105183  -105183  -105181  -105163  -105138  -105102 
 -105055  -104990  -104923  -104878  -104857  -104863  -104896  -104923 
 -104927  -104907  -104863  -104809  -104765  -104745  -104750  -104782 
 -104843  -104931  -105035  -105133  -105219  -105295  -105360  -105401 
 -105422  -105436  -105437  -105422  -105416  -105406  -105374  -105344 
 -105328  -105293  -105228  -105155  -105084  -105024  -104984  -104944 
 -104895  -104832  -104774  -104739  -104719  -104693  -104664  -104638 
 -104626  -104626  -104619  -104608  -104608  -104620  -104645  -104674 
 -104707  -104751  -104805  -104862  -104919  -104973  -105015  -105058 
 -105113  -105155  -105178  -105205  -105217  -105209  -105204  -105189 
 -105162  -105129  -105089  -105051  -105036  -105028  -105015  -104997 
 -104958  -104907  -104863  -104836  -104830  -104836  -104850  -104870 
 -104886  -104896  -104908  -104922  -104935  -104938  -104930  -104935 
 -104955  -104963  -104959  -104963  -104978  -104997  -105025  -105065 
 -105084  -105067  -105038  -105011  -104980  -104944  -104920  -104888 
 -104838  -104791  -104751  -104708  -104654  -104593  -104538  -104500 
 -104479  -104471  -104477  -104481  -104479  -104496  -104539  -104587 
 -104627  -104657  -104684  -104714  -104723  -104708  -104707  -104723 
 -104738  -104753  -104761  -104757  -104762  -104791  -104809  -104809 
 -104809  -104814  -104820  -104839  -104878  -104924  -104962  -104998 
 -105039  -105066  -105082  -105090  -105085  -105073  -105062  -105066 
 -105096  -105127  -105147  -105163  -105173  -105166  -105139  -105102 
 -105071  -105039  -105011  -104997  -104984  -104966  -104959  -104959 
 -104965  -104981  -105001  -105015  -105005  -104967  -104930  -104926 
 -104947  -104959  -104951  -104932  -104916  -104911  -104915  -104924 
 -104936  -104944  -104944  -104943  -104935  -104905  -104862  -104823 
 -104788  -104768  -104764  -104755  -104755  -104765  -104762  -104757 
 -104758  -104758  -104766  -104785  -104811  -104832  -104839  -104824 
 -104788  -104753  -104734  -104720  -104703  -104693  -104696  -104703 
 -104707  -104711  -104720  -104739  -104766  -104787  -104804  -104832 
 -104876  -104924  -104961  -104990  -105019  -105039  -105039  -105028 
 -105025  -105038  -105071  -105113  -105128  -105106  -105079  -105059 
 -105043  -105023  -105003  -104994  -105003  -105019  -105023  -105008 
 -104977  -104950  -104943  -104940  -104926  -104893  -104851  -104827 
 -104830  -104843  -104850  -104839  -104823  -104809  -104782  -104746 
 -104716  -104683  -104653  -104656  -104692  -104741  -104777  -104795 
 -104808  -104832  -104872  -104911  -104939  -104959  -104982  -105008 
 -105036  -105055  -105059  -105070  -105085  -105077  -105058  -105051 
 -105042  -105017  -105004  -105016  -105028  -105028  -105015  -104998 
 -104994  -105001  -105013  -105035  -105055  -105065  -105071  -105089 
 -105105  -105104  -105096  -105097  -105108  -105127  -105148  -105163 
 -105166  -105158  -105147  -105139  -105129  -105119  -105115  -105120 
 -105123  -105120  -105113  -105100  -105082  -105069  -105067  -105065 
 -105051  -105046  -105055  -105061  -105061  -105055  -105039  -105023 
 -105013  -105003  -104992  -104984  -104976  -104974  -104980  -104990 
 -105004  -105015  -105015  -105008  -105012  -105036  -105069  -105108 
 -105148  -105175  -105189  -105196  -105187  -105175  -105177  -105181 
 -105175  -105175  -105179  -105181  -105185  -105200  -105221  -105231 
 -105221  -105201  -105186  -105183  -105182  -105166  -105146  -105127 
 -105096  -105063  -105025  -104961  -104899  -104870  -104859  -104855 
 -104861  -104865  -104855  -104836  -104809  -104777  -104751  -104727 
 -104711  -104724  -104754  -104778  -104797  -104800  -104781  -104757 
 -104730  -104692  -104653  -104642  -104662  -104692  -104726  -104761 
 -104795  -104820  -104841  -104854  -104857  -104849  -104823  -104784 
 -104753  -104750  -104764  -104770  -104772  -104787  -104815  -104845 
 -104859  -104850  -104815  -104781  -104761  -104743  -104714  -104683 
 -104668  -104683  -104714  -104738  -104743  -104745  -104749  -104749 
 -104734  -104703  -104674  -104662  -104653  -104646  -104645  -104649 
 -104657  -104662  -104660  -104654  -104660  -104683  -104714  -104747 
 -104784  -104823  -104858  -104881  -104895  -104895  -104882  -104868 
 -104863  -104868  -104865  -104845  -104824  -104808  -104791  -104788 
 -104804  -104809  -104792  -104768  -104746  -104741  -104747  -104765 
 -104792  -104814  -104831  -104851  -104878  -104912  -104935  -104953 
 -104974  -104982  -104980  -104985  -104989  -104989  -104994  -104988 
 -104967  -104962  -104967  -104961  -104939  -104912  -104882  -104854 
 -104828  -104803  -104776  -104753  -104749  -104764  -104792  -104824 
 -104857  -104886  -104912  -104931  -104946  -104957  -104967  -104978 
 -104985  -104984  -104977  -104989  -105011  -105012  -105004  -105000 
 -104994  -104989  -104985  -104977  -104957  -104943  -104944  -104954 
 -104973  -104997  -105008  -105016  -105025  -105030  -105032  -105036 
 -105040  -105051  -105065  -105071  -105063  -105042  -105028  -105021 
 -105001  -104961  -104917  -104888  -104870  -104855  -104843  -104836 
 -104826  -104815  -104816  -104818  -104809  -104803  -104808  -104832 
 -104863  -104874  -104859  -104846  -104851  -104865  -104874  -104881 
 -104881  -104889  -104912  -104926  -104922  -104919  -104928  -104957 
 -104993  -105013  -105012  -105001  -104990  -104978  -104963  -104950 
 -104953  -104974  -104997  -105021  -105052  -105077  -105088  -105092 
 -105097  -105094  -105084  -105071  -105071  -105078  -105081  -105081 
 -105066  -105036  -105023  -105016  -104996  -104962  -104924  -104878 
 -104827  -104778  -104730  -104687  -104652  -104637  -104645  -104665 
 -104691  -104720  -104755  -104785  -104799  -104804  -104811  -104812 
 -104820  -104838  -104851  -104863  -104885  -104903  -104919  -104938 
 -104954  -104970  -104994  -105034  -105073  -105089  -105102  -105128 
 -105146  -105148  -105147  -105151  -105167  -105185  -105192  -105190 
 -105181  -105174  -105181  -105181  -105163  -105144  -105135  -105139 
