Origin Time       2024/04/02 04:24:00
Lat.              40.133
Long.             141.712
Depth. (km)       71
Mag.              6.0
Station Code      ABSH06
Station Lat.      44.2146
Station Long.     143.6202
Station Height(m) 7
Record Time       2024/04/02 04:25:41
Sampling Freq(Hz) 100Hz
Duration Time(s)  130
Dir.              5
Scale Factor      3920(gal)/6170801
Max. Acc. (gal)   0.667
Last Correction   2024/04/02 04:25:26
Memo.             
[...]
   13685    13640    13626    13638    13651    13668    13691    13711 
   13720    13711    13683    13645    13597    13544    13504    13485 
   13486    13520    13583    13651    13697    13707    13681    13638 
   13600    13581    13592    13623    13660    13700    13730    13736 
   13722    13700    13672    13634    13610    13616    13632    13639 
   13640    13642    13642    13635    13621    13612    13613    13610 
   13595    13572    13552    13539    13529    13515    13504    13504 
   13511    13520    13526    13530    13532    13525    13515    13515 
   13525    13542    13564    13584    13604    13628    13654    13676 
   13698    13724    13746    13752    13740    13722    13707    13700 
   13699    13698    13699    13702    13705    13709    13706    13673 
   13602    13515    13441    13401    13398    13419    13455    13485 
   13493    13486    13481    13478    13465    13448    13442    13446 
   13460    13482    13518    13562    13598    13618    13619    13609 
   13597    13586    13578    13580    13601    13638    13675    13689 
   13683    13667    13653    13649    13652    13655    13660    13653 
   13639    13646    13674    13707    13741    13774    13795    13795 
   13780    13759    13730    13697    13675    13664    13658    13652 
   13644    13639    13639    13631    13615    13599    13586    13582 
   13590    13593    13590    13583    13574    13577    13601    13630 
   13649    13650    13636    13605    13570    13548    13542    13548 
   13570    13594    13603    13593    13570    13547    13532    13521 
   13519    13534    13564    13595    13609    13607    13599    13600 
   13611    13627    13632    13624    13603    13576    13561    13556 
   13558    13571    13594    13612    13622    13634    13653    13673 
   13693    13709    13718    13719    13722    13734    13753    13765 
   13760    13739    13700    13647    13602    13572    13548    13534 
   13537    13551    13562    13561    13548    13531    13517    13513 
   13513    13518    13534    13560    13586    13607    13620    13623 
   13611    13595    13586    13584    13579    13572    13567    13556 
   13542    13528    13509    13491    13488    13502    13525    13542 
   13548    13554    13568    13595    13626    13645    13642    13621 
   13599    13579    13561    13557    13571    13592    13606    13607 
   13604    13604    13604    13603    13600    13594    13585    13573 
   13569    13583    13613    13653    13691    13718    13735    13733 
   13701    13646    13589    13557    13559    13579    13601    13618 
   13622    13616    13623    13645    13678    13712    13737    13748 
   13742    13717    13679    13632    13595    13590    13605    13622 
   13642    13663    13668    13645    13607    13566    13527    13505 
   13514    13546    13575    13598    13620    13636    13648    13660 
   13671    13674    13661    13643    13630    13617    13604    13597 
   13588    13568    13543    13524    13516    13512    13506    13500 
   13501    13512    13529    13548    13572    13592    13595    13585 
   13571    13563    13563    13572    13584    13591    13592    13590 
   13586    13583    13578    13569    13569    13582    13601    13622 
   13651    13692    13736    13768    13787    13796    13789    13770 
   13755    13747    13742    13754    13789    13829    13852    13862 
   13859    13833    13778    13704    13638    13603    13601    13625 
   13664    13693    13695    13667    13619    13569    13522    13479 
   13447    13430    13425    13431    13450    13481    13510    13524 
   13529    13536    13542    13551    13570    13595    13613    13617 
   13615    13625    13653    13685    13711    13734    13753    13753 
   13732    13693    13636    13580    13544    13527    13522    13529 
   13543    13557    13568    13573    13572    13566    13547    13523 
   13513    13526    13567    13628    13687    13728    13751    13752 
   13731    13700    13671    13653    13653    13666    13679    13683 
   13677    13659    13632    13607    13591    13581    13567    13540 
   13499    13458    13429    13422    13449    13511    13584    13642 
   13675    13676    13649    13611    13574    13551    13549    13568 
   13599    13625    13629    13620    13608    13591    13575    13559 
   13537    13512    13489    13476    13476    13489    13513    13534 
   13545    13552    13558    13565    13569    13566    13560    13563 
   13574    13584    13588    13588    13590    13596    13602    13604 
   13608    13605    13595    13589    13585    13580    13574    13568 
   13563    13560    13558    13566    13586    13611    13636    13659 
   13674    13683    13685    13686    13689    13679    13656    13638 
   13631    13638    13664    13698    13730    13755    13765    13745 
   13686    13604    13529    13484    13486    13535    13606    13664 
   13690    13679    13636    13568    13496    13446    13427    13431 
   13453    13481    13502    13518    13530    13541    13558    13580 
   13601    13622    13644    13661    13673    13685    13693    13694 
   13700    13717    13734    13731    13707    13670    13626    13583 
   13556    13561    13586    13618    13647    13655    13636    13611 
   13594    13592    13611    13646    13685    13714    13727    13734 
   13728    13700    13667    13644    13631    13630    13631    13634 
   13631    13612    13587    13572    13564    13553    13537    13519 
   13513    13527    13574    13648    13728    13796    13833    13826 
   13786    13736    13693    13661    13640    13635    13643    13649 
   13648    13644    13638    13628    13612    13594    13573    13552 
   13548    13574    13624    13689    13753    13800    13821    13808 
   13774    13737    13707    13688    13688    13704    13722    13731 
   13723    13695    13653    13606    13566    13546    13547    13549 
   13544    13530    13513    13504    13510    13530    13564    13605 
   13631    13639    13636    13625    13607    13592    13581    13572 
   13563    13552    13537    13516    13493    13477    13465    13451 
   13432    13410    13399    13400    13415    13450    13490    13526 
   13557    13580    13594    13607    13626    13657    13689    13706 
   13711    13701    13671    13630    13597    13584    13580    13569 
   13557    13550    13546    13549    13562    13577    13590    13601 
   13611    13625    13650    13685    13709    13712    13705    13694 
   13688    13692    13693    13679    13657    13632    13597    13553 
   13508    13456    13397    13349    13325    13326    13353    13403 
   13456    13501    13544    13582    13606    13616    13623    13631 
   13643    13662    13688    13709    13717    13707    13688    13669 
   13646    13618    13592    13567    13546    13549    13584    13636 
   13685    13720    13735    13726    13704    13675    13635    13591 
   13558    13543    13547    13566    13587    13604    13618    13629 
   13644    13662    13675    13685    13699    13715    13731    13748 
   13769    13787    13802    13815    13820    13812    13793    13754 
   13700    13637    13573    13528    13511    13525    13571    13638 
   13705    13749    13750    13709    13643    13571    13512    13468 
   13444    13451    13478    13503    13514    13509    13500    13490 
   13478    13482    13512    13560    13626    13699    13756    13793 
   13821    13839    13849    13861    13865    13851    13810    13744 
   13660    13565    13476    13425    13421    13458    13525    13602 
   13661    13681    13660    13592    13479    13354    13249    13184 
   13182    13243    13327    13400    13452    13477    13471    13446 
   13435    13465    13541    13654    13780    13885    13937    13922 
   13846    13731    13616    13536    13500    13505    13545    13593 
   13618    13603    13543    13468    13423    13437    13515    13638 
   13766    13872    13931    13933    13899    13851    13803    13762 
   13720    13665    13590    13497    13412    13360    13350    13384 
   13443    13521    13609    13681    13725    13732    13696    13638 
   13582    13535    13512    13512    13514    13508    13483    13440 
   13410    13415    13448    13495    13539    13570    13591    13617 
   13649    13666    13652    13596    13502    13403    13352    13377 
   13466    13583    13692    13761    13778    13752    13700    13633 
   13569    13531    13535    13579    13652    13734    13799    13833 
   13831    13798    13748    13702    13680    13690    13731    13798 
   13885    13966    14009    13997    13932    13824    13699    13599 
   13556    13567    13608    13643    13649    13621    13563    13483 
   13402    13345    13321    13326    13352    13394    13451    13527 
   13610    13674    13688    13635    13536    13428    13358    13364 
   13444    13572    13709    13805    13821    13748    13625    13510 
   13445    13460    13550    13675    13791    13861    13864    13804 
   13723    13661    13647    13684    13746    13796    13814    13812 
   13819    13840    13863    13862    13804    13674    13501    13340 
   13254    13296    13482    13765    14052    14245    14275    14123 
   13834    13500    13224    13077    13079    13200    13370    13514 
   13585    13583    13539    13498    13488    13513    13566    13639 
   13730    13844    13979    14107    14174    14121    13919    13596 
   13225    12897    12690    12641    12734    12914    13121    13300 
   13417    13474    13488    13481    13490    13543    13648    13805 
   13990    14168    14314    14398    14389    14277    14076    13825 
   13572    13379    13315    13393    13564    13746    13853    13831 
   13681    13453    13227    13092    13093    13234    13481    13765 
   14018    14180    14210    14109    13908    13655    13404    13205 
   13094    13091    13190    13354    13524    13634    13636    13524 
   13336    13140    13006    12987    13095    13293    13520    13719 
   13854    13906    13887    13834    13780    13749    13755    13786 
   13829    13877    13908    13916    13915    13916    13926    13941 
   13936    13894    13815    13728    13677    13674    13692    13693 
   13640    13521    13362    13210    13114    13108    13186    13313 
   13446    13546    13588    13569    13515    13453    13405    13393 
   13417    13459    13519    13587    13646    13690    13712    13707 
   13665    13578    13471    13389    13359    13394    13479    13577 
   13650    13675    13643    13560    13449    13352    13307    13329 
   13416    13544    13667    13755    13798    13783    13705    13593 
   13476    13370    13293    13267    13299    13387    13518    13662 
   13792    13884    13924    13917    13874    13819    13787    13809 
   13890    14010    14126    14195    14190    14104    13964    13815 
   13682    13572    13480    13396    13318    13258    13245    13304 
   13433    13602    13768    13869    13857    13742    13577    13427 
   13349    13375    13505    13683    13828    13885    13839    13712 
   13560    13440    13379    13361    13352    13328    13286    13249 
   13263    13362    13547    13785    14021    14208    14313    14320 
   14243    14114    13980    13883    13843    13850    13880    13903 
   13896    13852    13777    13686    13588    13486    13387    13294 
   13210    13149    13118    13124    13174    13246    13309    13351 
   13367    13368    13384    13443    13555    13704    13852    13965 
   14024    14028    13989    13931    13877    13841    13831    13847 
   13883    13924    13952    13954    13925    13864    13773    13669 
   13579    13528    13525    13558    13612    13647    13634    13578 
   13489    13381    13282    13201    13145    13135    13181    13286 
   13431    13567    13645    13624    13496    13301    13101    12962 
   12939    13049    13260    13522    13763    13924    13971    13902 
   13754    13581    13435    13352    13350    13423    13553    13701 
   13838    13943    13989    13959    13851    13672    13452    13232 
   13051    12957    12979    13101    13274    13443    13559    13612 
   13617    13601    13586    13575    13568    13571    13588    13628 
   13690    13756    13815    13845    13838    13805    13755    13690 
   13631    13605    13622    13681    13761    13833    13886    13921 
   13954    14000    14058    14114    14144    14118    14017    13854 
   13670    13516    13420    13386    13396    13421    13446    13473 
   13512    13569    13645    13723    13779    13802    13791    13742 
   13676    13625    13613    13643    13706    13782    13839    13842 
   13781    13668    13518    13358    13223    13137    13101    13106 
   13139    13182    13214    13226    13218    13198    13173    13147 
   13128    13131    13158    13217    13330    13495    13689    13890 
   14070    14191    14237    14210    14126    14017    13920    13851 
   13811    13796    13800    13808    13813    13821    13832    13828 
   13799    13746    13685    13632    13593    13581    13615    13692 
   13800    13923    14030    14101    14130    14106    14029    13908 
   13755    13602    13493    13454    13490    13583    13704    13819 
   13891    13892    13812    13662    13484    13324    13220    13183 
   13191    13214    13223    13201    13140    13045    12918    12771 
   12636    12561    12570    12665    12841    13066    13302    13529 
   13736    13920    14082    14220    14315    14349    14320    14246 
   14158    14091    14063    14058    14059    14046    14000    13903 
   13751    13564    13378    13232    13162    13187    13286    13432 
   13591    13723    13814    13865    13879    13862    13810    13719 
   13599    13481    13396    13367    13391    13442    13497    13527 
   13520    13497    13498    13550    13662    13817    13967    14066 
   14091    14061    14000    13936    13889    13863    13841    13805 
   13742    13652    13542    13433    13363    13369    13455    13606 
   13790    13953    14049    14057    13981    13847    13698    13582 
   13528    13531    13562    13589    13576    13503    13388    13263 
   13155    13077    13036    13024    13034    13066    13135    13252 
   13411    13586    13754    13879    13936    13912    13829    13737 
   13669    13636    13641    13660    13664    13643    13598    13546 
   13504    13475    13457    13436    13402    13358    13317    13291 
   13288    13310    13342    13368    13377    13375    13368    13356 
   13350    13368    13417    13508    13639    13782    13904    13981 
   13999    13975    13937    13916    13935    14000    14091    14178 
   14221    14194    14090    13918    13708    13495    13301    13147 
   13045    13009    13041    13132    13266    13420    13544    13601 
   13578    13491    13380    13296    13275    13332    13453    13599 
   13727    13802    13809    13757    13678    13617    13602    13639 
   13723    13834    13946    14029    14060    14034    13959    13859 
   13768    13709    13692    13720    13780    13849    13909    13942 
   13947    13929    13890    13839    13790    13752    13731    13720 
   13706    13678    13619    13528    13409    13269    13135    13039 
   13013    13062    13158    13271    13378    13461    13524    13577 
   13636    13707    13781    13840    13870    13871    13852    13824 
   13794    13753    13690    13608    13516    13427    13362    13326 
   13301    13281    13259    13232    13215    13233    13287    13361 
   13434    13489    13513    13511    13504    13515    13552    13614 
   13692    13769    13829    13872    13904    13927    13937    13933 
   13906    13845    13748    13624    13502    13425    13411    13457 
   13549    13650    13711    13711    13656    13570    13500    13483 
   13537    13643    13764    13862    13908    13891    13836    13772 
   13712    13660    13611    13556    13488    13414    13359    13347 
   13390    13482    13591    13675    13705    13673    13588    13488 
   13407    13367    13371    13416    13496    13593    13680    13746 
   13792    13818    13829    13835    13842    13850    13864    13890 
   13928    13970    14005    14022    14008    13958    13870    13750 
   13609    13458    13314    13195    13121    13104    13139    13216 
   13328    13465    13608    13739    13846    13920    13959    13969 
   13964    13955    13937    13914    13884    13835    13768    13694 
   13618    13544    13477    13424    13386    13358    13343    13350 
   13374    13415    13486    13582    13683    13771    13824    13818 
   13757    13658    13540    13420    13311    13219    13153    13125 
   13152    13237    13364    13500    13612    13674    13676    13626 
   13553    13497    13489    13529    13596    13663    13711    13725 
   13696    13635    13563    13500    13468    13483    13541    13629 
   13726    13813    13874    13895    13876    13834    13770    13692 
   13619    13564    13544    13561    13600    13646    13689    13715 
   13717    13699    13666    13623    13572    13521    13480    13452 
   13445    13473    13532    13596    13646    13676    13684    13669 
   13635    13602    13577    13566    13579    13608    13632    13640 
   13615    13543    13437    13326    13234    13181    13175    13217 
   13300    13402    13508    13610    13696    13764    13820    13858 
   13878    13881    13869    13854    13844    13836    13834    13839 
   13844    13841    13821    13774    13705    13622    13531    13449 
   13399    13398    13449    13539    13644    13740    13801    13809 
   13769    13706    13644    13599    13583    13599    13617    13621 
   13606    13569    13517    13468    13439    13440    13477    13531 
   13575    13602    13603    13579    13546    13519    13513    13530 
   13552    13570    13578    13555    13494    13416    13341    13285 
   13252    13235    13216    13184    13151    13135    13151    13209 
   13302    13405    13498    13580    13655    13735    13830    13939 
   14045    14130    14178    14174    14123    14044    13959    13882 
   13815    13754    13694    13630    13556    13480    13423    13399 
   13404    13438    13495    13550    13597    13636    13669    13704 
   13744    13786    13830    13863    13878    13883    13887    13891 
   13896    13896    13881    13838    13755    13648    13549    13472 
   13423    13419    13454    13504    13557    13602    13623    13632 
   13645    13660    13672    13678    13675    13655    13617    13571 
   13533    13513    13500    13481    13455    13418    13371    13345 
   13364    13420    13497    13572    13611    13590    13512    13415 
   13342    13313    13336    13402    13477    13522    13530    13521 
   13515    13525    13569    13648    13745    13858    13984    14107 
   14209    14290    14339    14344    14308    14254    14198    14141 
   14091    14047    13988    13901    13792    13673    13555    13454 
   13381    13333    13302    13269    13231    13200    13179    13166 
   13155    13152    13177    13238    13333    13460    13604    13748 
   13878    13975    14027    14045    14038    14017    13999    13991 
