Origin Time       2024/04/02 04:24:00
Lat.              40.133
Long.             141.712
Depth. (km)       71
Mag.              6.0
Station Code      ABSH14
Station Lat.      43.7228
Station Long.     144.1835
Station Height(m) -16
Record Time       2024/04/02 04:26:23
Sampling Freq(Hz) 100Hz
Duration Time(s)  120
Dir.              1
Scale Factor      2942(gal)/8224139
Max. Acc. (gal)   0.190
Last Correction   2024/04/02 04:26:24
Memo.             
[...]
  -48334   -48381   -48438   -48486   -48514   -48543   -48555   -48528 
  -48485   -48435   -48373   -48327   -48311   -48290   -48253   -48199 
  -48132   -48082   -48068   -48081   -48114   -48154   -48204   -48273 
  -48338   -48371   -48378   -48358   -48324   -48328   -48370   -48411 
  -48454   -48501   -48525   -48535   -48544   -48548   -48552   -48554 
  -48535   -48512   -48501   -48512   -48524   -48509   -48471   -48425 
  -48396   -48401   -48416   -48419   -48416   -48411   -48400   -48390 
  -48397   -48402   -48384   -48357   -48335   -48305   -48289   -48316 
  -48358   -48378   -48394   -48417   -48444   -48471   -48494   -48501 
  -48485   -48469   -48463   -48454   -48444   -48425   -48396   -48394 
  -48417   -48429   -48439   -48458   -48467   -48452   -48431   -48417 
  -48405   -48392   -48374   -48354   -48362   -48401   -48443   -48466 
  -48466   -48443   -48401   -48351   -48304   -48263   -48246   -48261 
  -48296   -48330   -48342   -48340   -48336   -48323   -48298   -48276 
  -48262   -48258   -48266   -48277   -48280   -48271   -48262   -48286 
  -48342   -48411   -48475   -48504   -48509   -48524   -48535   -48531 
  -48519   -48506   -48498   -48469   -48404   -48334   -48282   -48269 
  -48290   -48334   -48386   -48450   -48523   -48594   -48637   -48643 
  -48635   -48643   -48667   -48683   -48670   -48633   -48573   -48482 
  -48375   -48263   -48162   -48092   -48049   -48026   -48055   -48130 
  -48211   -48300   -48381   -48435   -48473   -48492   -48483   -48471 
  -48471   -48481   -48514   -48575   -48641   -48702   -48745   -48755 
  -48729   -48675   -48610   -48560   -48517   -48463   -48409   -48358 
  -48303   -48243   -48197   -48193   -48219   -48254   -48274   -48265 
  -48230   -48182   -48145   -48131   -48135   -48154   -48185   -48217 
  -48251   -48294   -48352   -48406   -48436   -48448   -48446   -48416 
  -48371   -48332   -48309   -48305   -48325   -48357   -48363   -48350 
  -48351   -48367   -48361   -48311   -48251   -48213   -48196   -48199 
  -48193   -48185   -48201   -48216   -48230   -48253   -48258   -48258 
  -48265   -48258   -48253   -48267   -48288   -48320   -48373   -48420 
  -48454   -48467   -48463   -48452   -48436   -48419   -48406   -48389 
  -48367   -48346   -48338   -48346   -48362   -48386   -48396   -48385 
  -48377   -48371   -48361   -48350   -48334   -48319   -48308   -48298 
  -48286   -48263   -48244   -48246   -48253   -48254   -48266   -48280 
  -48286   -48297   -48305   -48300   -48276   -48238   -48205   -48197 
  -48208   -48213   -48200   -48190   -48211   -48238   -48247   -48244 
  -48232   -48204   -48178   -48163   -48157   -48157   -48165   -48176 
  -48168   -48143   -48128   -48126   -48130   -48136   -48142   -48150 
  -48166   -48188   -48213   -48232   -48235   -48232   -48255   -48309 
  -48369   -48423   -48456   -48455   -48435   -48408   -48351   -48290 
  -48257   -48232   -48216   -48216   -48215   -48226   -48254   -48261 
  -48242   -48236   -48247   -48266   -48303   -48363   -48433   -48490 
  -48521   -48523   -48509   -48501   -48497   -48485   -48474   -48467 
  -48455   -48446   -48443   -48420   -48386   -48379   -48400   -48427 
  -48443   -48420   -48378   -48355   -48343   -48325   -48325   -48328 
  -48321   -48324   -48343   -48361   -48365   -48355   -48330   -48297 
  -48274   -48261   -48243   -48228   -48219   -48205   -48200   -48205 
  -48211   -48213   -48234   -48281   -48324   -48348   -48362   -48377 
  -48388   -48397   -48405   -48417   -48454   -48502   -48543   -48579 
  -48610   -48635   -48656   -48674   -48670   -48633   -48589   -48554 
  -48529   -48517   -48513   -48510   -48498   -48478   -48465   -48447 
  -48420   -48400   -48377   -48344   -48323   -48327   -48336   -48347 
  -48354   -48334   -48293   -48261   -48231   -48220   -48253   -48297 
  -48330   -48369   -48416   -48452   -48474   -48489   -48494   -48485 
  -48460   -48433   -48402   -48378   -48374   -48371   -48369   -48374 
  -48366   -48350   -48339   -48325   -48311   -48307   -48319   -48327 
  -48321   -48330   -48352   -48371   -48400   -48448   -48486   -48514 
  -48551   -48583   -48608   -48620   -48609   -48602   -48608   -48613 
  -48618   -48627   -48643   -48663   -48667   -48668   -48679   -48667 
  -48633   -48605   -48577   -48552   -48546   -48541   -48525   -48498 
  -48469   -48451   -48433   -48406   -48386   -48358   -48313   -48276 
  -48250   -48230   -48228   -48236   -48253   -48288   -48332   -48369 
  -48396   -48415   -48421   -48423   -48412   -48393   -48370   -48338 
  -48315   -48300   -48289   -48297   -48316   -48332   -48334   -48309 
  -48277   -48262   -48251   -48232   -48212   -48207   -48213   -48231 
  -48258   -48288   -48301   -48292   -48284   -48278   -48265   -48258 
  -48266   -48293   -48315   -48307   -48288   -48277   -48282   -48293 
  -48288   -48281   -48293   -48301   -48292   -48276   -48253   -48236 
  -48236   -48235   -48228   -48217   -48205   -48211   -48216   -48220 
  -48238   -48239   -48230   -48253   -48292   -48317   -48346   -48379 
  -48402   -48408   -48406   -48392   -48370   -48374   -48390   -48394 
  -48402   -48406   -48389   -48381   -48388   -48373   -48351   -48343 
  -48338   -48336   -48342   -48357   -48371   -48366   -48354   -48335 
  -48305   -48281   -48270   -48278   -48309   -48344   -48384   -48432 
  -48473   -48494   -48494   -48477   -48448   -48408   -48373   -48363 
  -48370   -48382   -48385   -48374   -48371   -48369   -48344   -48317 
  -48303   -48292   -48285   -48281   -48266   -48240   -48230   -48235 
  -48240   -48244   -48255   -48267   -48277   -48285   -48288   -48278 
  -48259   -48239   -48212   -48182   -48178   -48195   -48204   -48204 
  -48208   -48215   -48216   -48222   -48235   -48242   -48244   -48250 
  -48251   -48249   -48253   -48251   -48234   -48213   -48199   -48201 
  -48223   -48244   -48269   -48294   -48304   -48307   -48303   -48288 
  -48278   -48281   -48281   -48289   -48303   -48301   -48294   -48298 
  -48303   -48300   -48301   -48307   -48320   -48343   -48358   -48371 
  -48397   -48420   -48425   -48417   -48411   -48400   -48373   -48344 
  -48346   -48366   -48370   -48369   -48377   -48390   -48409   -48429 
  -48444   -48455   -48456   -48450   -48450   -48452   -48439   -48424 
  -48416   -48396   -48373   -48374   -48382   -48367   -48351   -48357 
  -48371   -48384   -48385   -48381   -48379   -48378   -48382   -48393 
  -48404   -48421   -48450   -48486   -48529   -48564   -48594   -48618 
  -48631   -48628   -48628   -48631   -48628   -48620   -48612   -48609 
  -48629   -48658   -48675   -48693   -48706   -48703   -48694   -48679 
  -48656   -48621   -48591   -48578   -48568   -48563   -48571   -48582 
  -48594   -48609   -48632   -48658   -48660   -48644   -48628   -48610 
  -48597   -48594   -48582   -48554   -48525   -48501   -48501   -48516 
  -48523   -48529   -48533   -48528   -48520   -48494   -48455   -48423 
  -48398   -48381   -48369   -48358   -48347   -48330   -48298   -48270 
  -48255   -48231   -48196   -48162   -48132   -48118   -48122   -48130 
  -48136   -48136   -48141   -48163   -48190   -48204   -48220   -48232 
  -48220   -48197   -48193   -48207   -48226   -48244   -48269   -48297 
  -48309   -48308   -48298   -48284   -48269   -48258   -48247   -48230 
  -48201   -48177   -48166   -48157   -48134   -48101   -48060   -48019 
  -47984   -47946   -47920   -47916   -47927   -47952   -47981   -48008 
  -48033   -48055   -48089   -48118   -48139   -48161   -48177   -48197 
  -48217   -48231   -48253   -48271   -48284   -48305   -48342   -48384 
  -48419   -48439   -48451   -48454   -48451   -48446   -48442   -48439 
  -48436   -48439   -48440   -48425   -48412   -48413   -48423   -48443 
  -48467   -48474   -48466   -48451   -48438   -48443   -48467   -48485 
  -48483   -48465   -48436   -48416   -48409   -48400   -48389   -48390 
  -48394   -48393   -48402   -48425   -48459   -48504   -48546   -48581 
  -48612   -48620   -48610   -48582   -48523   -48459   -48411   -48361 
  -48305   -48267   -48231   -48178   -48142   -48132   -48134   -48142 
  -48147   -48155   -48172   -48188   -48201   -48228   -48273   -48317 
  -48351   -48382   -48419   -48444   -48459   -48487   -48514   -48524 
  -48521   -48512   -48516   -48543   -48562   -48562   -48550   -48519 
  -48477   -48435   -48388   -48328   -48269   -48234   -48230   -48238 
  -48240   -48238   -48227   -48212   -48196   -48180   -48176   -48169 
  -48159   -48162   -48162   -48162   -48174   -48188   -48196   -48197 
  -48189   -48178   -48170   -48163   -48154   -48154   -48185   -48219 
  -48232   -48240   -48234   -48209   -48192   -48188   -48190   -48193 
  -48200   -48215   -48212   -48192   -48189   -48204   -48213   -48211 
  -48201   -48204   -48219   -48227   -48223   -48213   -48207   -48215 
  -48230   -48227   -48217   -48224   -48238   -48259   -48274   -48269 
  -48277   -48308   -48340   -48363   -48371   -48365   -48361   -48363 
  -48361   -48363   -48375   -48388   -48401   -48408   -48405   -48397 
  -48382   -48362   -48342   -48320   -48297   -48276   -48254   -48239 
  -48232   -48230   -48238   -48259   -48290   -48325   -48359   -48385 
  -48397   -48402   -48420   -48433   -48438   -48438   -48436   -48440 
  -48447   -48451   -48477   -48509   -48537   -48586   -48640   -48658 
  -48660   -48679   -48697   -48703   -48705   -48706   -48717   -48732 
  -48743   -48744   -48741   -48749   -48762   -48768   -48787   -48799 
  -48795   -48794   -48794   -48780   -48767   -48756   -48740   -48730 
  -48732   -48729   -48717   -48709   -48708   -48690   -48659   -48628 
  -48604   -48594   -48594   -48587   -48586   -48593   -48590   -48571 
  -48541   -48514   -48509   -48516   -48533   -48563   -48604   -48640 
  -48655   -48660   -48663   -48658   -48649   -48637   -48635   -48641 
  -48632   -48616   -48606   -48585   -48552   -48519   -48475   -48427 
  -48394   -48378   -48366   -48352   -48334   -48313   -48296   -48273 
  -48243   -48212   -48188   -48170   -48165   -48163   -48151   -48139 
  -48142   -48159   -48184   -48192   -48192   -48192   -48190   -48204 
  -48227   -48235   -48232   -48235   -48249   -48263   -48267   -48278 
  -48286   -48285   -48281   -48266   -48238   -48201   -48158   -48120 
  -48088   -48055   -48031   -48023   -48026   -48035   -48041   -48039 
  -48035   -48041   -48053   -48062   -48065   -48070   -48082   -48096 
  -48104   -48114   -48124   -48132   -48143   -48170   -48195   -48209 
  -48223   -48236   -48246   -48249   -48249   -48253   -48262   -48274 
  -48284   -48303   -48331   -48361   -48375   -48382   -48402   -48421 
  -48423   -48415   -48398   -48382   -48369   -48359   -48347   -48323 
  -48290   -48258   -48234   -48219   -48195   -48161   -48136   -48126 
  -48126   -48142   -48155   -48165   -48184   -48197   -48197   -48212 
  -48238   -48258   -48284   -48308   -48317   -48320   -48324   -48320 
  -48317   -48313   -48305   -48293   -48289   -48284   -48269   -48250 
  -48235   -48226   -48217   -48220   -48250   -48282   -48305   -48315 
  -48315   -48325   -48344   -48362   -48386   -48412   -48433   -48452 
  -48466   -48475   -48485   -48486   -48478   -48470   -48458   -48443 
  -48439   -48435   -48424   -48411   -48385   -48354   -48335   -48328 
  -48336   -48354   -48374   -48390   -48408   -48425   -48440   -48454 
  -48455   -48447   -48442   -48443   -48450   -48456   -48462   -48471 
  -48471   -48454   -48435   -48416   -48385   -48363   -48357   -48348 
  -48348   -48362   -48377   -48393   -48404   -48427   -48465   -48489 
  -48501   -48509   -48510   -48510   -48516   -48516   -48514   -48501 
  -48467   -48429   -48398   -48370   -48340   -48313   -48290   -48267 
  -48243   -48215   -48189   -48165   -48134   -48104   -48087   -48081 
  -48082   -48091   -48109   -48138   -48168   -48192   -48207   -48220 
  -48250   -48282   -48309   -48331   -48339   -48332   -48325   -48313 
  -48297   -48277   -48247   -48230   -48224   -48219   -48215   -48212 
  -48213   -48228   -48251   -48281   -48315   -48340   -48366   -48390 
  -48400   -48400   -48400   -48405   -48415   -48425   -48444   -48473 
  -48504   -48536   -48566   -48581   -48591   -48597   -48595   -48606 
  -48618   -48620   -48637   -48662   -48667   -48666   -48663   -48648 
  -48631   -48616   -48595   -48579   -48563   -48544   -48537   -48528 
  -48501   -48494   -48501   -48494   -48490   -48483   -48463   -48446 
  -48435   -48413   -48393   -48388   -48385   -48378   -48377   -48384 
  -48393   -48396   -48389   -48386   -48389   -48396   -48406   -48415 
  -48421   -48435   -48444   -48442   -48442   -48436   -48409   -48384 
  -48367   -48350   -48350   -48370   -48384   -48396   -48417   -48427 
  -48421   -48424   -48431   -48436   -48448   -48475   -48501   -48517 
  -48533   -48554   -48578   -48601   -48613   -48613   -48606   -48598 
  -48583   -48564   -48556   -48556   -48546   -48532   -48520   -48502 
  -48486   -48475   -48458   -48444   -48431   -48408   -48393   -48379 
  -48354   -48336   -48335   -48338   -48348   -48354   -48335   -48312 
  -48305   -48301   -48286   -48255   -48212   -48174   -48147   -48130 
  -48123   -48109   -48093   -48085   -48073   -48054   -48043   -48042 
  -48038   -48038   -48051   -48058   -48058   -48072   -48082   -48074 
  -48069   -48068   -48070   -48065   -48041   -48016   -48007   -47999 
  -47983   -47950   -47918   -47900   -47879   -47858   -47850   -47839 
  -47826   -47825   -47842   -47872   -47908   -47945   -47973   -48004 
  -48050   -48097   -48134   -48181   -48228   -48263   -48304   -48343 
  -48362   -48381   -48406   -48431   -48458   -48487   -48506   -48520 
  -48525   -48523   -48516   -48509   -48512   -48514   -48502   -48485 
  -48474   -48465   -48439   -48398   -48358   -48324   -48312   -48320 
  -48336   -48358   -48390   -48425   -48450   -48473   -48492   -48489 
  -48492   -48496   -48487   -48483   -48489   -48492   -48489   -48486 
  -48493   -48504   -48519   -48537   -48541   -48536   -48525   -48509 
  -48505   -48509   -48506   -48497   -48478   -48460   -48440   -48408 
  -48371   -48342   -48325   -48325   -48327   -48316   -48300   -48296 
  -48297   -48301   -48324   -48339   -48332   -48335   -48351   -48367 
  -48388   -48412   -48431   -48448   -48477   -48510   -48531   -48540 
  -48547   -48546   -48546   -48556   -48554   -48541   -48541   -48529 
  -48501   -48485   -48473   -48451   -48429   -48415   -48401   -48386 
  -48377   -48370   -48365   -48367   -48370   -48369   -48378   -48389 
  -48394   -48411   -48436   -48470   -48514   -48552   -48575   -48600 
  -48625   -48628   -48618   -48617   -48612   -48605   -48594   -48579 
  -48564   -48536   -48500   -48469   -48443   -48428   -48420   -48416 
  -48419   -48427   -48432   -48443   -48459   -48465   -48444   -48419 
  -48402   -48390   -48375   -48355   -48327   -48298   -48282   -48281 
  -48277   -48262   -48257   -48253   -48235   -48219   -48212   -48219 
  -48219   -48217   -48234   -48238   -48232   -48246   -48270   -48281 
  -48285   -48293   -48303   -48315   -48332   -48351   -48369   -48382 
  -48398   -48420   -48438   -48440   -48439   -48438   -48431   -48424 
  -48423   -48416   -48396   -48379   -48377   -48373   -48363   -48358 
  -48355   -48354   -48357   -48362   -48363   -48361   -48352   -48336 
  -48316   -48304   -48297   -48297   -48303   -48308   -48323   -48338 
  -48336   -48342   -48354   -48363   -48381   -48406   -48432   -48465 
  -48501   -48529   -48541   -48547   -48546   -48536   -48532   -48532 
  -48531   -48529   -48525   -48521   -48519   -48510   -48502   -48492 
  -48469   -48454   -48432   -48401   -48382   -48363   -48338   -48315 
  -48294   -48280   -48276   -48274   -48263   -48253   -48262   -48280 
  -48284   -48285   -48301   -48319   -48336   -48352   -48359   -48357 
  -48340   -48319   -48304   -48282   -48254   -48228   -48199   -48166 
  -48131   -48096   -48064   -48039   -48020   -48001   -47981   -47964 
  -47953   -47950   -47949   -47949   -47961   -47974   -47991   -48022 
  -48051   -48076   -48116   -48162   -48193   -48230   -48271   -48294 
  -48301   -48297   -48290   -48286   -48274   -48262   -48267   -48284 
  -48290   -48294   -48303   -48297   -48282   -48282   -48293   -48307 
  -48319   -48330   -48336   -48339   -48346   -48342   -48328   -48324 
  -48321   -48311   -48301   -48285   -48261   -48246   -48242   -48240 
  -48247   -48249   -48232   -48220   -48212   -48193   -48188   -48205 
  -48216   -48223   -48231   -48231   -48238   -48244   -48246   -48265 
  -48294   -48315   -48339   -48369   -48389   -48393   -48388   -48389 
  -48398   -48406   -48413   -48431   -48451   -48455   -48455   -48465 
  -48463   -48463   -48474   -48479   -48492   -48510   -48527   -48543 
  -48559   -48578   -48606   -48636   -48655   -48651   -48652   -48663 
  -48655   -48631   -48621   -48625   -48632   -48636   -48628   -48608 
  -48585   -48558   -48531   -48521   -48514   -48496   -48479   -48470 
  -48456   -48435   -48415   -48404   -48389   -48369   -48355   -48350 
  -48351   -48350   -48340   -48327   -48311   -48294   -48282   -48269 
  -48259   -48251   -48235   -48228   -48234   -48231   -48226   -48234 
  -48247   -48263   -48277   -48290   -48300   -48312   -48332   -48348 
  -48370   -48396   -48404   -48406   -48417   -48423   -48425   -48425 
  -48429   -48439   -48439   -48438   -48443   -48438   -48424   -48427 
  -48438   -48425   -48404   -48393   -48379   -48363   -48359   -48361 
  -48362   -48370   -48382   -48396   -48417   -48444   -48466   -48489 
  -48514   -48536   -48548   -48551   -48551   -48558   -48567   -48581 
  -48586   -48587   -48598   -48604   -48598   -48600   -48602   -48597 
  -48591   -48582   -48563   -48552   -48550   -48536   -48516   -48490 
  -48460   -48433   -48401   -48375   -48361   -48335   -48308   -48296 
  -48281   -48263   -48261   -48253   -48230   -48219   -48217   -48215 
  -48213   -48217   -48223   -48224   -48236   -48244   -48231   -48231 
  -48244   -48249   -48250   -48244   -48239   -48249   -48261   -48278 
  -48304   -48316   -48325   -48343   -48361   -48374   -48396   -48419 
  -48432   -48438   -48451   -48465   -48470   -48465   -48463   -48477 
  -48485   -48475   -48456   -48446   -48442   -48440   -48446   -48452 
  -48455   -48463   -48470   -48469   -48474   -48473   -48467   -48473 
  -48474   -48456   -48439   -48431   -48421   -48413   -48398   -48373 
  -48347   -48320   -48292   -48277   -48280   -48281   -48273   -48255 
  -48240   -48226   -48205   -48189   -48176   -48165   -48151   -48139 
  -48135   -48122   -48100   -48095   -48096   -48095   -48097   -48104 
  -48108   -48119   -48128   -48132   -48139   -48153   -48168   -48174 
  -48166   -48166   -48177   -48176   -48182   -48204   -48207   -48200 
  -48199   -48195   -48188   -48182   -48178   -48170   -48161   -48154 
  -48158   -48162   -48155   -48146   -48146   -48149   -48139   -48122 
  -48112   -48108   -48103   -48096   -48092   -48091   -48096   -48107 
  -48118   -48128   -48138   -48142   -48142   -48139   -48136   -48131 
  -48135   -48147   -48150   -48153   -48168   -48181   -48201   -48236 
  -48270   -48298   -48334   -48362   -48378   -48393   -48398   -48398 
  -48408   -48419   -48421   -48419   -48411   -48400   -48389   -48375 
