Origin Time       2024/04/02 04:24:00
Lat.              40.133
Long.             141.712
Depth. (km)       71
Mag.              6.0
Station Code      ABSH13
Station Lat.      43.7419
Station Long.     143.4514
Station Height(m) 216
Record Time       2024/04/02 04:25:37
Sampling Freq(Hz) 100Hz
Duration Time(s)  126
Dir.              2
Scale Factor      3923(gal)/8224838
Max. Acc. (gal)   0.567
Last Correction   2024/04/02 04:25:37
Memo.             
[...]
   -1023     -969     -947     -951     -959     -980    -1020    -1034 
   -1009     -988     -963     -909     -846     -804     -795     -831 
    -895     -932     -913     -872     -858     -884     -908     -920 
    -939     -954     -939     -924     -953     -989     -963     -882 
    -834     -855     -895     -899     -878     -857     -845     -865 
    -930    -1007    -1058    -1067    -1044    -1026    -1038    -1046 
    -993     -896     -831     -839     -885     -930     -961     -980 
    -967     -930     -923     -980    -1044    -1035     -961     -908 
    -912     -930     -926     -916     -924     -942     -959     -977 
    -982     -955     -913     -893     -912     -962     -999     -982 
    -959     -997    -1062    -1074    -1038    -1027    -1050    -1065 
   -1065    -1048    -1015     -990     -969     -928     -897     -889 
    -878     -859     -835     -810     -808     -831     -847     -849 
    -858     -886     -897     -854     -800     -803     -855     -901 
    -931     -950     -951     -958     -986    -1003     -992     -985 
    -989     -988     -970     -951     -940     -915     -845     -788 
    -814     -868     -864     -835     -849     -859     -818     -769 
    -770     -810     -850     -903     -967    -1000     -988     -985 
   -1009    -1035    -1058    -1075    -1059    -1007     -967     -992 
   -1054    -1081    -1080    -1093    -1090    -1038     -976     -966 
    -986     -974     -959     -993    -1030    -1027    -1017    -1035 
   -1059    -1062    -1046    -1001     -932     -908     -947     -972 
    -953     -963    -1027    -1062    -1035    -1019    -1074    -1128 
   -1100    -1013     -942     -924     -950     -985    -1003     -986 
    -946     -919     -924     -923     -888     -853     -874     -923 
    -927     -881     -850     -869     -901     -908     -888     -857 
    -839     -837     -851     -881     -901     -901     -900     -893 
    -888     -915     -967     -981     -927     -869     -885     -962 
   -1011     -989     -946     -934     -932     -896     -837     -805 
    -801     -807     -843     -919     -962     -938     -901     -889 
    -874     -857     -888     -955     -976     -931     -905     -918 
    -922     -922     -945     -977    -1001    -1016    -1027    -1019 
    -967     -911     -892     -893     -882     -866     -880     -930 
    -962     -953     -934     -926     -916     -920     -938     -924 
    -870     -873     -972    -1057    -1046    -1008    -1030    -1075 
   -1081    -1061    -1058    -1057    -1028     -989     -955     -947 
    -977    -1021    -1050    -1058    -1067    -1067    -1034     -974 
    -923     -919     -950     -970     -973     -980     -986     -994 
   -1019    -1051    -1046     -992     -940     -934     -953     -963 
    -967     -993    -1039    -1063    -1035     -981     -938     -900 
    -859     -839     -853     -889     -936     -973     -976     -966 
    -969     -970     -959     -978    -1038    -1086    -1080    -1024 
    -962     -918     -880     -846     -837     -853     -874     -886 
    -893     -911     -946     -984    -1000     -992     -999    -1053 
   -1124    -1142    -1100    -1070    -1055    -1009     -945     -907 
    -893     -869     -837     -835     -873     -916     -935     -946 
    -972     -972     -908     -832     -823     -876     -924     -923 
    -897     -916     -985    -1036    -1046    -1053    -1062    -1044 
    -994     -938     -889     -862     -864     -872     -873     -870 
    -866     -861     -857     -843     -831     -842     -889     -943 
    -963     -958     -945     -918     -881     -843     -803     -784 
    -815     -896     -981    -1015     -992     -959     -951     -955 
    -958     -967     -992     -990     -911     -801     -754     -777 
    -797     -784     -793     -849     -897     -912     -901     -886 
    -878     -895     -947    -1011    -1046    -1051    -1019     -954 
    -907     -904     -932     -974    -1015    -1051    -1088    -1102 
   -1063     -978     -895     -855     -851     -838     -832     -889 
   -1000    -1074    -1065    -1026    -1023    -1043    -1030     -981 
    -950     -947     -947     -953     -963     -976     -986     -981 
    -951     -907     -878     -878     -884     -889     -905     -924 
    -939     -951     -969     -981     -963     -923     -911     -953 
   -1011    -1044    -1048    -1016     -934     -835     -777     -773 
    -795     -819     -869     -961    -1067    -1125    -1119    -1093 
   -1073    -1034     -978     -939     -908     -862     -837     -880 
    -973    -1035    -1034     -999     -963     -957     -996    -1039 
   -1034     -996     -988    -1016    -1020     -965     -907     -892 
    -873     -834     -842     -926    -1012    -1038    -1024    -1001 
    -982     -972     -967     -978    -1008    -1017     -993     -997 
   -1051    -1109    -1143    -1156    -1148    -1105    -1042     -984 
    -936     -904     -904     -919     -923     -931     -965     -994 
    -990     -970     -973    -1005    -1032    -1048    -1078    -1094 
   -1050     -986     -976    -1007    -1004     -969     -972    -1009 
   -1000     -955     -955    -1001    -1013     -981     -950     -947 
    -942     -911     -876     -843     -812     -818     -859     -884 
    -897     -949    -1005     -988     -892     -808     -787     -795 
    -812     -820     -800     -773     -783     -830     -868     -881 
    -919     -984    -1043    -1086    -1102    -1088    -1055    -1032 
   -1038    -1051    -1053    -1038    -1008     -977     -955     -927 
    -895     -878     -882     -893     -903     -904     -903     -900 
    -891     -877     -882     -907     -909     -882     -872     -907 
    -946     -947     -935     -943     -959     -963     -969    -1000 
   -1047    -1059    -1009     -931     -882     -893     -928     -939 
    -924     -905     -897     -900     -907     -899     -857     -783 
    -719     -727     -801     -878     -923     -955     -977     -949 
    -896     -899     -949     -965     -943     -930     -918     -880 
    -839     -831     -830     -816     -824     -858     -884     -909 
    -955     -994     -993     -978     -993    -1021    -1005     -954 
    -923     -919     -907     -896     -924     -962     -954     -926 
    -940     -992    -1009     -970     -935     -954     -984     -966 
    -918     -893     -905     -938     -967     -986    -1016    -1062 
   -1070     -997     -897     -851     -858     -858     -847     -880 
    -947     -990    -1001    -1013    -1032    -1039    -1028    -1008 
   -1009    -1048    -1093    -1123    -1131    -1109    -1062    -1001 
    -961     -970     -997     -999     -980     -957     -947     -943 
    -922     -895     -891     -885     -847     -808     -827     -892 
    -918     -881     -834     -816     -842     -905     -963     -965 
    -938     -935     -947     -939     -940     -977    -1024    -1035 
   -1003     -958     -939     -928     -893     -865     -889     -943 
    -982     -984     -970     -967     -981     -999    -1016    -1030 
   -1042    -1057    -1078    -1097    -1097    -1070    -1030    -1017 
   -1055    -1084    -1050    -1017    -1050    -1081    -1046     -997 
   -1008    -1028     -994     -957     -951     -927     -880     -862 
    -872     -870     -868     -889     -920     -955    -1003    -1046 
   -1059    -1021     -938     -872     -873     -907     -905     -869 
    -859     -908     -961     -977     -984     -988     -958     -915 
    -899     -911     -918     -900     -895     -924     -927     -874 
    -846     -872     -889     -884     -913     -967     -967     -935 
    -955     -993     -951     -889     -922    -1005    -1016     -954 
    -911     -900     -889     -895     -934     -967     -959     -947 
    -985    -1053    -1075    -1030     -966     -934     -916     -893 
    -896     -926     -935     -907     -881     -888     -911     -930 
    -955     -994    -1020     -997     -955     -946     -954     -939 
    -905     -881     -869     -870     -901     -943     -962     -951 
    -930     -915     -889     -842     -805     -814     -847     -873 
    -899     -924     -936     -936     -936     -951     -967     -955 
    -920     -905     -935     -984    -1000     -980     -966     -981 
   -1005    -1026    -1024     -981     -918     -915     -989    -1051 
   -1055    -1062    -1096    -1090    -1021     -984    -1017    -1023 
    -959     -909     -892     -868     -853     -870     -882     -877 
    -911     -978     -999     -950     -907     -926     -961     -943 
    -882     -845     -853     -876     -899     -923     -927     -901 
    -888     -912     -934     -926     -909     -915     -926     -918 
    -886     -854     -854     -889     -911     -886     -849     -845 
    -855     -838     -824     -866     -938     -974     -981    -1000 
   -1027    -1026     -997     -972     -969     -976     -974     -965 
    -939     -897     -854     -835     -838     -842     -818     -777 
    -780     -853     -943     -981     -997    -1054    -1129    -1166 
   -1165    -1158    -1131    -1048     -958     -939     -988    -1027 
   -1021    -1001    -1005    -1028    -1035     -994     -935     -912 
    -931     -957     -977     -999    -1005     -981     -939     -927 
    -981    -1038    -1013     -946     -943    -1011    -1058    -1042 
   -1011     -993     -957     -896     -851     -849     -884     -927 
    -953     -978    -1038    -1100    -1093    -1007     -903     -826 
    -793     -826     -899     -963     -996     -996     -982     -986 
   -1003     -993     -955     -930     -938     -958    -1001    -1096 
   -1201    -1236    -1193    -1135    -1115    -1124    -1121    -1088 
   -1027     -955     -911     -922     -950     -943     -907     -870 
    -839     -843     -912    -1031    -1142    -1182    -1161    -1127 
   -1093    -1059    -1032    -1015     -980     -922     -878     -905 
    -993    -1075    -1090    -1020     -893     -769     -693     -681 
    -714     -749     -749     -741     -792     -923    -1085    -1209 
   -1248    -1204    -1090     -924     -746     -626     -607     -650 
    -677     -658     -656     -734     -855     -943     -967     -942 
    -881     -807     -756     -760     -793     -812     -815     -824 
    -814     -766     -745     -804     -886     -911     -904     -947 
   -1020    -1032     -973     -934     -957     -974     -915     -788 
    -683     -679     -777     -907     -996    -1036    -1059    -1059 
   -1021     -990    -1027    -1094    -1085     -976     -862     -835 
    -881     -940     -959     -918     -847     -864    -1048    -1331 
   -1564    -1668    -1632    -1452    -1134     -764     -506     -415 
    -386     -342     -367     -560     -891    -1209    -1389    -1426 
   -1386    -1309    -1204    -1089    -1004     -947     -900     -888 
    -938    -1013    -1077    -1113    -1089    -1003     -919     -877 
    -893     -949     -965     -892     -811     -818     -873     -869 
    -816     -810     -849     -839     -757     -703     -768     -924 
   -1093    -1236    -1360    -1478    -1548    -1503    -1332    -1105 
    -936     -909     -958     -897     -685     -513     -545     -753 
   -1008    -1197    -1270    -1227    -1088     -932     -874     -966 
   -1138    -1244    -1220    -1167    -1200    -1271    -1271    -1177 
   -1035     -913     -831     -749     -646     -533     -446     -446 
    -542     -676     -811     -989    -1271    -1559    -1632    -1421 
   -1105     -904     -858     -845     -791     -761     -796     -818 
    -785     -797     -934    -1100    -1102     -895     -670     -642 
    -761     -804     -733     -681     -688     -688     -719     -842 
    -967     -966     -832     -646     -527     -607     -885    -1166 
   -1239    -1144    -1123    -1270    -1418    -1418    -1300    -1139 
    -984     -870     -795     -668     -456     -338     -521     -915 
   -1258    -1409    -1386    -1233     -953     -599     -338     -252 
    -256     -309     -502     -820    -1107    -1278    -1352    -1363 
   -1378    -1448    -1474    -1335    -1124    -1059    -1174    -1266 
   -1189    -1058    -1007     -978     -885     -785     -772     -855 
    -982    -1073    -1024     -868     -787     -831     -830     -702 
    -610     -719     -938    -1067    -1066    -1028     -982     -884 
    -753     -687     -739     -880    -1047    -1162    -1142    -1001 
    -849     -762     -747     -791     -857     -884     -849     -795 
    -774     -823     -903     -901     -778     -629     -583     -679 
    -807     -855     -827     -789     -801     -892    -1017    -1116 
   -1170    -1183    -1151    -1067     -940     -811     -723     -710 
    -810    -1027    -1269    -1421    -1459    -1437    -1377    -1200 
    -873     -535     -411     -573     -853    -1051    -1151    -1227 
   -1281    -1235    -1071     -896     -841     -928    -1111    -1345 
   -1595    -1737    -1656    -1429    -1229    -1092     -947     -843 
    -882    -1030    -1179    -1287    -1304    -1196    -1048     -950 
    -838     -672     -564     -589     -641     -661     -737     -876 
    -969     -986    -1024    -1128    -1206    -1197    -1175    -1216 
   -1256    -1232    -1165    -1067     -913     -689     -400      -79 
     180      241       39     -367     -870    -1364    -1732    -1884 
   -1825    -1599    -1235     -777     -344      -47       99      103 
     -60     -360     -673     -918    -1112    -1289    -1418    -1429 
   -1304    -1081     -795     -519     -422     -575     -838    -1028 
   -1092    -1097    -1094    -1062    -1035    -1113    -1308    -1474 
   -1455    -1271    -1085     -989     -916     -773     -584     -461 
    -499     -718    -1051    -1332    -1422    -1293    -1023     -773 
    -677     -699     -716     -712     -800    -1021    -1281    -1471 
   -1530    -1422    -1181     -947     -869     -951    -1100    -1281 
   -1464    -1556    -1501    -1382    -1274    -1124     -859     -569 
    -440     -525     -708     -865     -950     -958     -938     -949 
    -934     -787     -540     -349     -305     -352     -434     -575 
    -784    -1011    -1182    -1258    -1266    -1269    -1277    -1263 
   -1221    -1136    -1012     -891     -772     -658     -616     -700 
    -876    -1038    -1107    -1119    -1175    -1255    -1204     -967 
    -711     -611     -641     -685     -776     -980    -1217    -1343 
   -1332    -1266    -1221    -1215    -1209    -1146    -1027     -901 
    -773     -635     -546     -557     -616     -660     -737     -904 
   -1123    -1344    -1549    -1668    -1615    -1394    -1090     -838 
    -735     -764     -823     -834     -800     -791     -843     -919 
    -977    -1031    -1077    -1039     -913     -832     -905    -1097 
   -1240    -1219    -1086     -988    -1028    -1194    -1333    -1297 
   -1127    -1007    -1008     -999     -858     -679     -619     -662 
    -693     -669     -581     -492     -522     -719    -1008    -1282 
   -1499    -1679    -1784    -1728    -1494    -1152     -770     -399 
    -118        0      -44     -236     -552     -868    -1067    -1196 
   -1318    -1421    -1470    -1459    -1378    -1206     -981     -805 
    -745     -780     -859     -961    -1092    -1233    -1283    -1136 
    -826     -521     -359     -329     -359     -413     -481     -568 
    -681     -792     -850     -849     -837     -897    -1082    -1275 
   -1258    -1020     -781     -706     -776     -901    -1023    -1101 
   -1119    -1127    -1166    -1204    -1196    -1135    -1005     -832 
    -724     -734     -791     -872    -1027    -1190    -1225    -1139 
   -1017     -810     -468     -155      -60     -198     -454     -710 
    -935    -1138    -1277    -1347    -1385    -1389    -1347    -1263 
   -1154    -1063    -1008     -958     -874     -711     -479     -292 
    -226     -228     -252     -348     -556     -799     -950     -961 
    -923     -962    -1105    -1251    -1279    -1179    -1061    -1024 
   -1065    -1102    -1066     -976     -918     -900     -853     -760 
    -699     -733     -828     -884     -845     -770     -727     -729 
    -807     -990    -1219    -1401    -1521    -1575    -1559    -1502 
   -1455    -1409    -1302    -1154    -1101    -1205    -1333    -1323 
   -1202    -1092     -961     -745     -557     -533     -589     -596 
    -579     -627     -722     -788     -831     -904     -955     -893 
    -766     -711     -751     -820     -891     -969    -1012    -1008 
   -1042    -1138    -1163    -1065     -928     -783     -598     -453 
    -461     -565     -629     -680     -805     -877     -742     -486 
    -295     -237     -276     -384     -576     -823    -1001    -1063 
   -1105    -1183    -1232    -1229    -1270    -1401    -1503    -1459 
   -1332    -1221    -1119    -1001     -878     -756     -657     -634 
    -712     -874    -1031    -1084    -1035     -972     -958    -1028 
   -1192    -1390    -1507    -1478    -1393    -1382    -1437    -1460 
   -1395    -1231     -978     -704     -527     -518     -645     -866 
   -1136    -1348    -1383    -1250    -1075     -976     -977    -1046 
   -1123    -1155    -1161    -1185    -1202    -1174    -1142    -1111 
    -994     -812     -735     -832     -985    -1081    -1105    -1105 
   -1140    -1223    -1306    -1327    -1281    -1236    -1205    -1108 
    -973     -940    -1015    -1053     -980     -870     -826     -826 
    -804     -792     -878    -1047    -1198    -1279    -1296    -1258 
   -1221    -1255    -1313    -1259    -1062     -873     -826     -862 
    -882     -922    -1019    -1116    -1165    -1215    -1302    -1351 
   -1279    -1128     -996     -905     -828     -733     -629     -581 
    -618     -691     -778     -924    -1116    -1267    -1314    -1258 
   -1144    -1035     -973     -945     -919     -884     -858     -886 
    -946     -962     -924     -870     -824     -801     -801     -807 
    -795     -757     -737     -781     -884     -966     -985     -990 
   -1021    -1023     -978     -954     -959     -936     -882     -855 
    -861     -842     -778     -719     -711     -746     -792     -841 
    -866     -834     -768     -720     -702     -692     -664     -615 
    -612     -688     -787     -837     -788     -669     -577     -562 
    -602     -654     -724     -832     -954    -1040    -1143    -1336 
   -1549    -1652    -1644    -1602    -1514    -1300     -976     -669 
    -465     -340     -243     -147      -66      -41     -129     -315 
    -498     -616     -716     -807     -837     -820     -832     -866 
    -845     -800     -855     -999    -1098    -1093    -1053    -1066 
   -1096    -1051     -940     -830     -741     -677     -652     -675 
    -719     -753     -788     -841     -882     -904     -895     -823 
    -727     -696     -724     -735     -710     -707     -772     -874 
    -962    -1034    -1132    -1247    -1327    -1378    -1445    -1540 
   -1624    -1655    -1626    -1560    -1463    -1309    -1109     -951 
    -886     -865     -839     -851     -939    -1027    -1038    -1021 
