Origin Time       2024/04/02 04:24:00
Lat.              40.133
Long.             141.712
Depth. (km)       71
Mag.              6.0
Station Code      ABSH14
Station Lat.      43.7228
Station Long.     144.1835
Station Height(m) 87
Record Time       2024/04/02 04:26:23
Sampling Freq(Hz) 100Hz
Duration Time(s)  120
Dir.              6
Scale Factor      7845(gal)/8223790
Max. Acc. (gal)   0.373
Last Correction   2024/04/02 04:26:24
Memo.             
[...]
   14254    14230    14223    14204    14161    14131    14116    14083 
   14058    14107    14185    14229    14256    14301    14331    14312 
   14264    14207    14153    14133    14169    14223    14246    14253 
   14266    14262    14214    14156    14137    14141    14141    14168 
   14218    14210    14122    14054    14069    14137    14207    14218 
   14153    14115    14169    14245    14266    14251    14233    14218 
   14200    14184    14180    14195    14226    14261    14287    14308 
   14334    14357    14350    14303    14249    14224    14229    14249 
   14299    14370    14408    14374    14307    14266    14266    14288 
   14328    14364    14331    14245    14192    14208    14227    14196 
   14160    14185    14250    14288    14292    14288    14270    14231 
   14196    14183    14170    14168    14215    14283    14288    14235 
   14197    14193    14197    14195    14170    14111    14068    14106 
   14175    14204    14212    14222    14203    14150    14102    14088 
   14114    14149    14148    14116    14100    14116    14156    14210 
   14253    14272    14280    14272    14238    14200    14183    14177 
   14162    14130    14104    14130    14197    14258    14308    14347 
   14330    14241    14143    14095    14098    14118    14133    14143 
   14179    14261    14361    14400    14347    14258    14184    14125 
   14081    14062    14069    14100    14146    14173    14179    14192 
   14211    14211    14202    14196    14196    14199    14200    14195 
   14169    14152    14189    14281    14365    14384    14357    14357 
   14377    14342    14257    14214    14249    14274    14242    14229 
   14256    14250    14202    14188    14204    14185    14156    14184 
   14243    14256    14231    14226    14262    14308    14308    14265 
   14256    14308    14351    14322    14246    14179    14135    14131 
   14164    14181    14166    14172    14216    14237    14200    14185 
   14237    14280    14270    14254    14253    14243    14230    14245 
   14289    14315    14287    14260    14283    14296    14235    14152 
   14133    14172    14220    14243    14227    14183    14161    14176 
   14191    14179    14162    14165    14187    14207    14206    14181 
   14176    14227    14307    14354    14365    14365    14343    14289 
   14219    14169    14176    14239    14291    14287    14260    14246 
   14257    14305    14365    14361    14257    14134    14108    14165 
   14204    14202    14211    14243    14264    14254    14215    14165 
   14138    14134    14145    14164    14180    14193    14223    14246 
   14226    14181    14184    14242    14296    14305    14287    14273 
   14268    14243    14237    14288    14314    14254    14200    14224 
   14268    14274    14281    14305    14288    14218    14195    14253 
   14284    14227    14162    14172    14207    14187    14118    14071 
   14076    14110    14156    14218    14293    14358    14385    14380 
   14364    14322    14239    14157    14106    14076    14073    14119 
   14184    14219    14238    14265    14264    14214    14148    14088 
   14049    14057    14102    14138    14164    14207    14233    14206 
   14172    14192    14241    14249    14204    14158    14158    14191 
   14219    14234    14224    14185    14134    14108    14143    14208 
   14235    14220    14195    14162    14116    14079    14061    14054 
   14075    14137    14215    14274    14297    14289    14266    14222 
   14180    14203    14283    14331    14320    14296    14269    14230 
   14208    14233    14262    14237    14164    14121    14138    14143 
   14116    14119    14164    14195    14193    14179    14158    14142 
   14158    14199    14224    14241    14291    14365    14393    14335 
   14241    14173    14137    14118    14134    14197    14268    14277 
   14226    14206    14249    14269    14241    14219    14208    14187 
   14187    14246    14327    14359    14346    14335    14339    14324 
   14260    14187    14183    14239    14278    14291    14295    14274 
   14238    14247    14292    14291    14218    14165    14218    14301 
   14305    14243    14200    14204    14216    14229    14272    14332 
   14351    14305    14260    14277    14316    14295    14233    14196 
   14180    14156    14145    14185    14281    14364    14361    14300 
   14242    14181    14091    14015    14014    14049    14054    14077 
   14193    14328    14338    14237    14189    14237    14251    14200 
   14192    14253    14283    14269    14305    14395    14408    14301 
   14210    14206    14189    14111    14084    14156    14211    14195 
   14183    14211    14233    14242    14265    14265    14203    14146 
   14176    14247    14262    14210    14160    14149    14168    14185 
   14203    14226    14235    14229    14215    14197    14173    14137 
   14112    14118    14118    14112    14168    14285    14385    14392 
   14324    14292    14341    14377    14319    14235    14197    14148 
   14069    14075    14177    14251    14249    14239    14262    14305 
   14342    14338    14299    14270    14277    14287    14285    14297 
   14314    14269    14168    14107    14108    14094    14052    14057 
   14104    14118    14095    14108    14187    14273    14314    14343 
   14376    14351    14266    14206    14220    14270    14291    14273 
   14224    14157    14125    14142    14150    14125    14104    14088 
   14056    14030    14046    14072    14065    14053    14099    14207 
   14323    14369    14316    14222    14133    14071    14081    14172 
   14258    14281    14266    14268    14277    14238    14143    14100 
   14154    14200    14143    14040    14035    14152    14265    14292 
   14268    14222    14172    14169    14224    14281    14318    14374 
   14469    14532    14493    14372    14270    14237    14235    14238 
   14249    14242    14199    14175    14191    14177    14121    14127 
   14235    14332    14326    14265    14226    14200    14160    14141 
   14176    14212    14193    14154    14184    14253    14242    14150 
   14112    14192    14274    14264    14241    14274    14284    14234 
   14185    14143    14104    14134    14223    14251    14176    14106 
   14148    14246    14264    14202    14177    14203    14210    14179 
   14177    14241    14303    14310    14322    14358    14332    14239 
   14185    14193    14185    14116    14054    14087    14160    14158 
   14098    14060    14060    14104    14206    14292    14291    14251 
   14269    14326    14349    14331    14289    14204    14126    14146 
   14256    14330    14303    14235    14195    14156    14092    14048 
   14058    14106    14168    14223    14245    14274    14359    14439 
   14420    14318    14229    14202    14222    14249    14283    14320 
   14323    14277    14243    14261    14262    14187    14123    14166 
   14233    14202    14103    14058    14102    14169    14235    14337 
   14435    14458    14431    14416    14377    14277    14197    14177 
   14149    14111    14142    14222    14254    14251    14283    14339 
   14338    14265    14195    14148    14087    14052    14116    14234 
   14291    14288    14303    14318    14254    14148    14119    14204 
   14319    14382    14361    14257    14137    14096    14137    14170 
   14177    14242    14342    14332    14210    14131    14153    14179 
   14154    14157    14239    14334    14357    14328    14304    14281 
   14231    14170    14118    14076    14064    14092    14122    14138 
   14189    14284    14355    14351    14285    14212    14175    14166 
   14180    14220    14253    14239    14222    14230    14206    14138 
   14122    14196    14264    14245    14202    14211    14231    14189 
   14127    14130    14179    14192    14184    14215    14273    14304 
   14276    14202    14118    14062    14053    14100    14188    14254 
   14249    14219    14229    14256    14262    14256    14242    14226 
   14214    14204    14191    14183    14191    14234    14305    14361 
   14357    14314    14250    14150    14023    13932    13921    13980 
   14069    14135    14153    14175    14246    14315    14318    14284 
   14269    14270    14272    14276    14283    14284    14285    14303 
   14332    14335    14295    14247    14197    14123    14077    14111 
   14192    14277    14345    14378    14373    14345    14324    14320 
   14335    14349    14337    14300    14249    14168    14075    14023 
   14057    14161    14266    14335    14358    14332    14283    14226 
   14166    14157    14215    14258    14251    14250    14247    14214 
   14189    14214    14256    14278    14292    14322    14331    14287 
   14241    14234    14224    14185    14162    14203    14273    14288 
   14230    14177    14169    14158    14143    14181    14247    14247 
   14188    14162    14180    14169    14121    14108    14161    14215 
   14227    14230    14250    14261    14246    14224    14191    14168 
   14191    14204    14154    14076    14029    14044    14102    14143 
   14170    14249    14349    14351    14268    14216    14193    14130 
   14058    14054    14110    14156    14180    14211    14229    14191 
   14129    14118    14143    14142    14135    14180    14233    14247 
   14256    14291    14328    14323    14274    14239    14260    14296 
   14307    14311    14320    14283    14189    14139    14187    14230 
   14195    14165    14219    14300    14334    14326    14311    14312 
   14311    14272    14227    14224    14226    14188    14161    14173 
   14199    14212    14184    14135    14141    14206    14280    14323 
   14316    14289    14280    14254    14199    14176    14192    14184 
   14176    14219    14260    14226    14146    14100    14116    14158 
   14195    14237    14287    14320    14320    14261    14169    14127 
   14166    14203    14192    14197    14257    14296    14266    14243 
   14268    14278    14258    14246    14222    14149    14091    14129 
   14230    14320    14388    14409    14335    14222    14193    14242 
   14276    14276    14258    14215    14165    14129    14069    13977 
   13950    14058    14214    14293    14327    14362    14322    14191 
   14112    14158    14241    14299    14366    14432    14419    14319 
   14222    14173    14162    14165    14143    14089    14030    13992 
   14017    14094    14162    14199    14212    14195    14179    14214 
   14273    14278    14231    14206    14211    14203    14166    14133 
   14119    14141    14195    14216    14157    14073    14056    14104 
   14150    14154    14156    14191    14212    14195    14219    14291 
   14307    14276    14291    14324    14303    14262    14270    14319 
   14351    14315    14241    14208    14212    14187    14114    14057 
   14072    14150    14218    14212    14165    14180    14274    14322 
   14256    14214    14299    14400    14422    14413    14400    14335 
   14242    14211    14254    14299    14291    14269    14276    14288 
   14274    14229    14165    14100    14046    14017    14014    14026 
   14064    14135    14229    14318    14351    14323    14292    14288 
   14299    14319    14332    14320    14315    14328    14323    14285 
   14250    14230    14197    14154    14138    14156    14166    14157 
   14184    14262    14311    14281    14254    14287    14304    14257 
   14195    14162    14152    14161    14199    14243    14262    14247 
   14234    14241    14223    14154    14077    14050    14081    14135 
   14184    14208    14207    14215    14256    14285    14269    14247 
   14256    14280    14299    14307    14300    14281    14254    14212 
   14170    14161    14165    14156    14154    14175    14193    14176 
   14110    14040    14034    14100    14179    14230    14273    14323 
   14357    14357    14343    14322    14272    14219    14196    14192 
   14189    14195    14207    14216    14212    14185    14126    14049 
   14019    14067    14127    14142    14156    14234    14331    14335 
   14250    14200    14233    14266    14254    14249    14280    14312 
   14324    14326    14304    14239    14179    14179    14220    14257 
   14268    14247    14220    14218    14215    14184    14145    14125 
   14135    14169    14199    14214    14239    14283    14304    14258 
   14173    14114    14103    14133    14183    14224    14258    14291 
   14281    14227    14200    14214    14214    14195    14193    14212 
   14242    14260    14243    14202    14139    14053    13991    13988 
   14003    13987    13986    14069    14211    14310    14315    14278 
   14284    14307    14265    14197    14216    14316    14391    14395 
   14384    14381    14334    14239    14189    14212    14219    14180 
   14176    14224    14249    14229    14211    14204    14197    14199 
   14224    14285    14364    14418    14422    14404    14382    14346 
   14307    14283    14262    14235    14204    14179    14160    14130 
   14099    14110    14153    14161    14134    14126    14134    14145 
   14164    14185    14211    14234    14214    14173    14172    14200 
   14202    14168    14141    14148    14146    14099    14076    14131 
   14191    14207    14224    14243    14207    14146    14131    14149 
   14153    14177    14258    14349    14377    14328    14253    14224 
   14243    14235    14211    14249    14322    14330    14281    14249 
   14227    14158    14058    14008    14004    14000    14023    14111 
   14219    14291    14351    14451    14563    14609    14566    14480 
   14388    14310    14264    14246    14246    14253    14247    14229 
   14215    14220    14249    14281    14280    14223    14143    14092 
   14088    14110    14137    14179    14231    14273    14289    14281 
   14249    14206    14200    14237    14241    14196    14181    14231 
   14293    14310    14270    14196    14119    14072    14057    14058 
   14073    14119    14170    14180    14179    14214    14262    14281 
   14266    14231    14203    14216    14250    14253    14199    14115 
   14054    14064    14137    14212    14249    14254    14270    14305 
   14310    14258    14179    14103    14058    14072    14137    14202 
   14249    14312    14386    14426    14413    14368    14314    14254 
   14184    14121    14069    14034    14044    14081    14100    14131 
   14208    14256    14212    14149    14152    14207    14268    14320 
   14350    14350    14362    14403    14432    14420    14376    14326 
   14269    14192    14089    13999    13980    14033    14095    14135 
   14161    14164    14154    14145    14112    14050    14008    14019 
   14075    14131    14150    14154    14187    14241    14284    14304 
   14319    14345    14374    14395    14407    14416    14413    14405 
   14420    14445    14439    14415    14391    14366    14355    14342 
   14285    14206    14175    14176    14160    14157    14187    14199 
   14176    14157    14149    14130    14103    14068    14027    14007 
   14045    14123    14199    14257    14310    14343    14338    14307 
   14272    14231    14185    14146    14129    14123    14111    14104 
   14139    14224    14330    14413    14435    14401    14370    14359 
   14338    14297    14270    14249    14196    14123    14091    14110 
   14148    14185    14218    14231    14231    14251    14292    14307 
   14281    14249    14223    14208    14224    14273    14312    14287 
   14211    14143    14091    14029    13992    13998    13995    13967 
   13973    14069    14216    14334    14373    14335    14247    14160 
   14121    14133    14158    14207    14312    14428    14489    14505 
   14508    14476    14376    14247    14141    14061    14008    13988 
   13990    14019    14087    14162    14199    14207    14219    14233 
   14245    14260    14261    14222    14153    14092    14042    13992 
   13975    14003    14049    14104    14188    14265    14291    14301 
   14358    14426    14432    14408    14434    14494    14497    14426 
   14343    14281    14238    14238    14288    14350    14380    14376 
   14361    14327    14264    14206    14172    14137    14080    14017 
   13964    13906    13852    13872    14008    14206    14388    14509 
   14543    14512    14447    14355    14247    14154    14085    14057 
   14114    14231    14305    14297    14260    14237    14224    14204 
   14168    14118    14062    14018    14010    14048    14110    14176 
   14258    14337    14358    14323    14281    14253    14239    14260 
   14303    14320    14285    14266    14320    14370    14339    14268 
   14211    14176    14169    14183    14168    14092    13992    13961 
   14044    14172    14246    14268    14304    14355    14357    14276 
   14141    14017    13959    13987    14084    14222    14362    14454 
   14454    14400    14364    14346    14301    14231    14179    14153 
   14126    14110    14125    14134    14085    13996    13959    14015 
   14098    14141    14160    14166    14176    14247    14353    14380 
   14310    14219    14143    14072    14031    14062    14139    14192 
   14187    14156    14150    14196    14280    14358    14391    14385 
   14353    14297    14249    14239    14250    14254    14262    14276 
   14272    14256    14261    14291    14330    14355    14346    14319 
   14307    14299    14261    14219    14211    14233    14239    14212 
   14184    14196    14247    14293    14297    14273    14278    14314 
   14320    14295    14276    14238    14165    14114    14118    14118 
   14076    14044    14033    13975    13888    13859    13894    13946 
   14031    14153    14264    14324    14339    14331    14315    14288 
   14272    14293    14319    14278    14185    14122    14107    14110 
   14146    14229    14332    14415    14438    14395    14341    14308 
   14284    14264    14262    14280    14299    14305    14310    14315 
   14304    14276    14260    14249    14219    14176    14129    14084 
   14054    14048    14053    14045    14019    14006    14041    14104 
   14175    14253    14320    14357    14372    14369    14324    14234 
   14146    14112    14149    14238    14345    14447    14526    14528 
   14473    14434    14416    14366    14289    14227    14180    14122 
   14067    14038    14018    13988    13980    14025    14110    14176 
   14170    14131    14127    14162    14197    14216    14216    14180 
   14125    14135    14226    14318    14372    14423    14461    14438 
   14382    14361    14366    14365    14361    14339    14266    14181 
   14131    14103    14069    14050    14071    14108    14126    14130 
   14148    14166    14173    14184    14211    14242    14261    14261 
   14233    14200    14200    14241    14287    14303    14283    14253 
   14241    14239    14243    14256    14260    14231    14183    14139 
   14110    14089    14087    14095    14095    14089    14098    14106 
   14096    14098    14141    14224    14327    14409    14449    14445 
   14415    14388    14382    14395    14397    14370    14335    14323 
   14315    14277    14222    14189    14197    14222    14233    14229 
   14220    14203    14160    14089    14041    14057    14119    14175 
   14212    14249    14281    14312    14351    14386    14389    14361 
   14335    14312    14262    14200    14179    14187    14158    14088 
