Origin Time       2024/04/02 04:24:00
Lat.              40.133
Long.             141.712
Depth. (km)       71
Mag.              6.0
Station Code      ABSH13
Station Lat.      43.7419
Station Long.     143.4514
Station Height(m) 321
Record Time       2024/04/02 04:25:37
Sampling Freq(Hz) 100Hz
Duration Time(s)  126
Dir.              5
Scale Factor      7845(gal)/8223790
Max. Acc. (gal)   1.036
Last Correction   2024/04/02 04:25:37
Memo.             
[...]
   32628    32610    32607    32603    32618    32656    32670    32649 
   32634    32632    32636    32637    32620    32595    32593    32633 
   32699    32728    32692    32629    32572    32559    32576    32567 
   32510    32449    32428    32443    32475    32510    32536    32570 
   32621    32656    32664    32688    32736    32780    32817    32829 
   32792    32746    32725    32701    32659    32618    32589    32575 
   32576    32580    32579    32571    32566    32568    32567    32563 
   32555    32540    32543    32564    32582    32605    32637    32649 
   32625    32593    32568    32551    32533    32501    32472    32475 
   32501    32533    32571    32595    32587    32560    32553    32590 
   32643    32671    32663    32632    32637    32713    32806    32841 
   32799    32707    32609    32564    32575    32574    32541    32536 
   32590    32678    32733    32719    32645    32557    32516    32548 
   32629    32705    32724    32690    32651    32641    32657    32663 
   32645    32633    32636    32641    32634    32606    32574    32566 
   32576    32603    32634    32637    32614    32594    32593    32616 
   32656    32674    32629    32556    32512    32528    32624    32746 
   32810    32810    32786    32745    32699    32665    32625    32563 
   32514    32502    32503    32509    32532    32582    32637    32664 
   32660    32634    32597    32571    32549    32532    32532    32544 
   32578    32636    32690    32722    32737    32763    32806    32845 
   32864    32845    32784    32711    32668    32655    32632    32589 
   32576    32618    32660    32663    32653    32665    32687    32683 
   32638    32567    32530    32564    32606    32589    32539    32529 
   32610    32740    32819    32800    32738    32698    32675    32655 
   32647    32647    32640    32640    32641    32613    32560    32536 
   32555    32574    32591    32625    32656    32657    32620    32586 
   32595    32601    32582    32572    32568    32544    32508    32486 
   32495    32536    32601    32655    32659    32636    32625    32634 
   32651    32657    32659    32679    32701    32690    32665    32649 
   32632    32597    32551    32509    32501    32545    32606    32640 
   32640    32633    32664    32736    32800    32807    32757    32697 
   32632    32575    32562    32597    32647    32667    32643    32601 
   32580    32591    32602    32609    32629    32651    32675    32719 
   32741    32705    32645    32609    32591    32566    32536    32509 
   32468    32440    32459    32502    32539    32583    32628    32644 
   32634    32611    32587    32587    32597    32582    32574    32611 
   32672    32718    32736    32714    32682    32664    32657    32644 
   32628    32622    32622    32621    32611    32584    32559    32567 
   32602    32628    32643    32672    32707    32707    32686    32671 
   32656    32626    32555    32451    32387    32402    32449    32486 
   32503    32506    32529    32591    32649    32672    32667    32651 
   32625    32574    32517    32512    32559    32624    32676    32688 
   32670    32663    32679    32702    32718    32729    32729    32710 
   32678    32638    32614    32613    32605    32586    32584    32603 
   32622    32636    32640    32649    32668    32683    32678    32649 
   32625    32621    32633    32638    32630    32626    32643    32670 
   32687    32690    32688    32698    32713    32721    32718    32711 
   32694    32660    32624    32582    32530    32489    32474    32483 
   32522    32572    32614    32636    32625    32597    32570    32560 
   32575    32584    32582    32609    32663    32721    32772    32786 
   32751    32714    32707    32715    32702    32657    32595    32537 
   32499    32490    32502    32530    32584    32653    32702    32744 
   32799    32844    32875    32900    32908    32887    32838    32760 
   32660    32578    32540    32532    32535    32549    32572    32589 
   32595    32579    32552    32543    32552    32556    32537    32499 
   32463    32471    32539    32609    32643    32655    32663    32668 
   32671    32682    32702    32709    32690    32653    32633    32656 
   32695    32715    32717    32718    32721    32718    32702    32670 
   32618    32589    32610    32645    32663    32675    32687    32682 
   32644    32593    32551    32528    32528    32540    32566    32605 
   32633    32636    32613    32571    32539    32537    32544    32537 
   32516    32493    32486    32502    32535    32586    32671    32784 
   32864    32867    32798    32702    32613    32545    32509    32509 
   32528    32524    32483    32452    32464    32512    32566    32609 
   32661    32722    32763    32780    32780    32769    32771    32778 
   32779    32786    32786    32768    32748    32715    32656    32602 
   32594    32598    32582    32567    32568    32582    32609    32616 
   32582    32533    32486    32445    32441    32485    32543    32583 
   32606    32614    32618    32637    32655    32648    32614    32564 
   32525    32514    32521    32530    32524    32516    32545    32599 
   32629    32622    32609    32618    32643    32653    32637    32595 
   32562    32574    32633    32691    32709    32707    32724    32733 
   32714    32675    32647    32645    32663    32667    32633    32578 
   32548    32549    32556    32562    32564    32560    32557    32563 
   32571    32590    32644    32718    32763    32769    32764    32767 
   32773    32772    32756    32717    32665    32637    32645    32665 
   32678    32682    32664    32621    32582    32563    32564    32591 
   32614    32609    32594    32597    32609    32614    32595    32574 
   32568    32574    32579    32579    32582    32587    32589    32598 
   32597    32560    32518    32516    32551    32590    32605    32597 
   32594    32626    32682    32725    32741    32740    32744    32763 
   32780    32784    32772    32749    32738    32730    32698    32657 
   32633    32622    32621    32618    32593    32548    32530    32548 
   32572    32603    32636    32637    32624    32616    32605    32587 
   32578    32584    32603    32624    32640    32657    32690    32710 
   32702    32703    32715    32703    32665    32634    32632    32649 
   32660    32645    32614    32587    32579    32574    32553    32514 
   32489    32506    32536    32541    32535    32537    32540    32544 
   32555    32543    32510    32526    32598    32657    32664    32638 
   32626    32659    32713    32745    32756    32763    32783    32815 
   32827    32786    32713    32670    32665    32678    32695    32697 
   32671    32644    32621    32587    32564    32576    32597    32593 
   32578    32583    32622    32678    32701    32675    32624    32584 
   32589    32625    32667    32706    32722    32715    32707    32699 
   32679    32668    32690    32730    32752    32733    32686    32629 
   32582    32555    32544    32539    32530    32529    32544    32584 
   32634    32644    32614    32599    32611    32633    32638    32620 
   32587    32559    32552    32567    32570    32548    32495    32417 
   32374    32408    32494    32590    32659    32686    32687    32687 
   32686    32657    32605    32570    32587    32644    32703    32717 
   32657    32576    32551    32576    32626    32692    32753    32795 
   32817    32811    32788    32742    32660    32566    32498    32475 
   32503    32568    32622    32621    32583    32552    32539    32543 
   32551    32559    32579    32601    32602    32593    32614    32695 
   32799    32861    32833    32715    32570    32443    32359    32329 
   32319    32281    32236    32242    32310    32412    32498    32545 
   32567    32622    32724    32827    32900    32935    32923    32852 
   32740    32649    32618    32622    32614    32545    32432    32378 
   32440    32572    32697    32772    32780    32734    32679    32630 
   32578    32559    32599    32683    32788    32896    32971    32976 
   32895    32765    32640    32533    32454    32406    32385    32400 
   32459    32544    32641    32761    32891    32977    32975    32891 
   32786    32726    32706    32674    32601    32518    32493    32559 
   32682    32761    32738    32649    32549    32456    32391    32373 
   32393    32431    32476    32551    32675    32880    33154    33372 
   33431    33365    33249    33118    32931    32640    32308    32054 
   31946    31995    32146    32325    32506    32686    32826    32900 
   32927    32940    32940    32884    32715    32470    32271    32208 
   32289    32454    32629    32757    32802    32756    32611    32381 
   32151    31978    31861    31807    31855    32024    32274    32526 
   32692    32737    32733    32784    32899    33011    33077    33112 
   33149    33210    33278    33253    33034    32678    32328    32089 
   32003    32036    32152    32320    32495    32668    32853    33039 
   33195    33277    33265    33169    32994    32772    32594    32505 
   32462    32436    32441    32464    32464    32451    32443    32448 
   32462    32466    32458    32451    32444    32460    32541    32664 
   32753    32786    32794    32782    32706    32540    32347    32246 
   32262    32312    32310    32238    32163    32177    32300    32474 
   32594    32597    32567    32625    32778    32938    33022    33012 
   32938    32830    32722    32637    32606    32622    32622    32575 
   32512    32470    32468    32497    32506    32499    32591    32869 
   33249    33567    33708    33609    33301    32876    32447    32108 
   31911    31835    31877    32070    32363    32626    32822    32976 
   33112    33231    33216    32934    32458    32061    31950    32081 
   32273    32431    32595    32844    33157    33396    33471    33409 
   33272    33075    32805    32520    32329    32263    32259    32236 
   32165    32112    32200    32433    32653    32711    32618    32506 
   32502    32616    32728    32740    32670    32580    32485    32356 
   32227    32178    32252    32435    32665    32871    33039    33185 
   33276    33245    33068    32788    32487    32247    32127    32163 
   32362    32617    32778    32805    32772    32775    32813    32786 
   32640    32418    32221    32185    32341    32540    32621    32564 
   32476    32476    32597    32768    32898    32960    32965    32907 
   32817    32740    32634    32482    32424    32582    32852    33035 
   33037    32917    32807    32757    32682    32537    32431    32459 
   32574    32651    32649    32629    32653    32709    32733    32732 
   32771    32854    32906    32845    32691    32593    32651    32775 
   32849    32864    32853    32826    32764    32638    32443    32225 
   32057    31963    31926    31941    32057    32316    32640    32904 
   33022    32976    32813    32571    32312    32128    32097    32223 
   32431    32618    32733    32792    32845    32887    32857    32741 
   32563    32375    32250    32197    32177    32151    32112    32090 
   32071    32034    32046    32229    32633    33135    33497    33609 
   33570    33469    33273    32942    32524    32135    31900    31915 
   32170    32541    32883    33096    33178    33204    33224    33220 
   33178    33061    32803    32421    32067    31888    31924    32108 
   32328    32548    32818    33146    33423    33536    33497    33365 
   33174    32956    32721    32503    32374    32300    32184    32066 
   32085    32289    32594    32883    33056    33054    32894    32660 
   32451    32331    32329    32449    32652    32840    32888    32741 
   32513    32385    32386    32408    32383    32327    32293    32319 
   32413    32578    32756    32875    32903    32850    32756    32660 
   32560    32444    32333    32275    32287    32389    32574    32718 
   32721    32644    32566    32514    32535    32624    32753    32929 
   33093    33127    33016    32861    32740    32668    32593    32455 
   32300    32179    32096    32065    32094    32178    32325    32508 
   32664    32776    32860    32931    33008    33079    33080    33002 
   32860    32598    32251    32024    32057    32293    32560    32722 
   32814    32950    33151    33326    33359    33201    32927    32715 
   32664    32679    32655    32591    32530    32516    32543    32557 
   32552    32580    32643    32649    32518    32281    32042    31901 
   31904    32051    32283    32495    32633    32729    32834    32988 
   33160    33251    33239    33185    33115    33006    32821    32555 
   32229    31900    31673    31635    31801    32139    32559    32949 
   33238    33390    33417    33315    33026    32598    32239    32124 
   32217    32336    32374    32404    32552    32823    33075    33135 
   32957    32679    32474    32337    32162    31939    31757    31720 
   31861    32089    32312    32525    32736    32929    33091    33177 
   33127    32998    32917    32900    32888    32845    32749    32655 
   32659    32746    32825    32863    32836    32726    32589    32482 
   32410    32410    32503    32620    32670    32667    32702    32790 
   32830    32733    32499    32219    32034    32026    32147    32352 
   32641    32973    33246    33378    33334    33141    32921    32765 
   32655    32522    32385    32341    32437    32630    32854    33019 
   33018    32821    32513    32252    32120    32063    32038    32058 
   32159    32363    32624    32869    33091    33331    33578    33713 
   33637    33381    33062    32826    32733    32705    32621    32425 
   32171    31966    31842    31754    31683    31656    31730    31927 
   32163    32356    32528    32718    32911    33085    33238    33369 
   33466    33474    33362    33169    32953    32778    32705    32715 
   32705    32616    32495    32425    32454    32529    32530    32448 
   32405    32460    32580    32737    32883    32980    33033    33042 
   33021    32985    32934    32849    32737    32657    32698    32846 
   32961    32927    32742    32464    32209    32107    32131    32152 
   32132    32116    32148    32246    32358    32405    32398    32433 
   32574    32813    33057    33130    32958    32674    32458    32409 
   32483    32563    32632    32748    32887    32949    32881    32744 
   32656    32657    32633    32448    32170    32022    32084    32238 
   32344    32358    32378    32517    32738    32918    32984    32917 
   32751    32572    32437    32377    32437    32607    32800    32950 
   33039    33084    33130    33161    33129    33038    32913    32780 
   32674    32638    32687    32719    32632    32447    32269    32205 
   32278    32401    32502    32594    32715    32873    33033    33142 
   33191    33195    33185    33188    33191    33165    33088    32949 
   32752    32562    32451    32387    32285    32111    31901    31741 
   31726    31862    32030    32138    32208    32266    32308    32340 
   32401    32532    32706    32838    32887    32877    32854    32823 
   32752    32659    32620    32671    32771    32838    32819    32721 
   32605    32545    32572    32649    32713    32725    32652    32505 
   32366    32290    32246    32185    32096    32026    32066    32215 
   32385    32502    32572    32671    32845    33043    33156    33111 
   32960    32815    32701    32574    32416    32265    32181    32198 
   32316    32501    32676    32779    32814    32803    32753    32695 
   32690    32711    32665    32522    32359    32273    32304    32408 
   32499    32537    32533    32518    32530    32587    32645    32664 
   32663    32643    32570    32456    32347    32281    32282    32344 
   32464    32648    32852    32998    33025    32953    32842    32715 
   32586    32474    32414    32445    32533    32610    32659    32710 
   32795    32919    33042    33099    33052    32937    32807    32667 
   32521    32386    32287    32252    32243    32209    32188    32251 
   32431    32678    32850    32837    32679    32518    32448    32470 
   32532    32591    32657    32752    32854    32900    32846    32748 
   32694    32707    32765    32841    32915    32952    32903    32769 
   32616    32528    32557    32653    32748    32818    32823    32755 
   32672    32643    32674    32722    32737    32707    32670    32664 
   32688    32706    32706    32678    32628    32586    32552    32543 
   32611    32768    32976    33205    33388    33415    33237    32913 
   32572    32329    32223    32206    32235    32271    32281    32259 
   32233    32232    32282    32382    32499    32611    32726    32869 
   33014    33095    33091    33046    33021    33035    33046    32998 
   32902    32838    32841    32860    32869    32868    32850    32813 
   32761    32741    32776    32810    32756    32589    32360    32179 
   32132    32208    32328    32408    32420    32404    32424    32525 
   32703    32894    32987    32942    32807    32660    32574    32551 
   32516    32422    32319    32267    32270    32300    32333    32360 
   32394    32462    32556    32637    32683    32694    32657    32563 
   32455    32404    32443    32541    32625    32663    32707    32788 
   32865    32854    32714    32505    32340    32275    32309    32406 
   32502    32521    32470    32440    32508    32682    32922    33111 
   33165    33137    33085    32999    32863    32682    32476    32312 
   32271    32352    32474    32563    32594    32602    32649    32748 
   32868    32946    32934    32856    32742    32605    32481    32425 
   32444    32494    32539    32586    32659    32778    32914    33003 
   33031    33045    33056    33031    32961    32873    32799    32733 
   32661    32566    32436    32305    32224    32217    32259    32305 
   32355    32427    32497    32512    32458    32370    32290    32262 
   32296    32335    32333    32294    32238    32201    32212    32282 
   32387    32448    32433    32404    32413    32466    32539    32589 
   32586    32564    32579    32647    32718    32740    32705    32660 
   32661    32711    32768    32782    32748    32711    32692    32694 
   32718    32753    32782    32806    32849    32915    32964    32948 
   32875    32796    32761    32749    32713    32641    32575    32545 
   32506    32412    32290    32216    32251    32370    32489    32547 
   32539    32501    32483    32528    32649    32805    32953    33064 
   33073    32980    32876    32818    32783    32733    32643    32545 
   32486    32441    32366    32271    32213    32228    32300    32370 
   32408    32431    32447    32462    32494    32526    32548    32590 
   32665    32765    32881    32994    33081    33150    33218    33282 
   33332    33347    33292    33157    32976    32795    32657    32563 
   32478    32400    32343    32321    32341    32395    32467    32544 
   32618    32664    32663    32664    32737    32891    33080    33228 
   33262    33177    33054    32941    32809    32668    32593    32599 
   32647    32698    32726    32722    32692    32656    32622    32591 
   32559    32528    32499    32471    32433    32410    32436    32491 
   32543    32579    32614    32692    32809    32895    32899    32845 
   32795    32776    32759    32709    32620    32514    32428    32359 
