Origin Time       2024/04/02 04:24:00
Lat.              40.133
Long.             141.712
Depth. (km)       71
Mag.              6.0
Station Code      ABSH14
Station Lat.      43.7228
Station Long.     144.1835
Station Height(m) 87
Record Time       2024/04/02 04:26:23
Sampling Freq(Hz) 100Hz
Duration Time(s)  120
Dir.              5
Scale Factor      7845(gal)/8223790
Max. Acc. (gal)   0.806
Last Correction   2024/04/02 04:26:24
Memo.             
[...]
  -25670   -25597   -25546   -25546   -25581   -25609   -25589   -25510 
  -25404   -25316   -25280   -25309   -25404   -25528   -25640   -25701 
  -25679   -25579   -25474   -25416   -25398   -25425   -25510   -25613 
  -25659   -25636   -25600   -25587   -25590   -25609   -25654   -25704 
  -25744   -25763   -25739   -25678   -25609   -25558   -25543   -25551 
  -25547   -25513   -25485   -25496   -25533   -25570   -25594   -25605 
  -25610   -25600   -25539   -25456   -25420   -25456   -25532   -25601 
  -25637   -25637   -25586   -25477   -25344   -25265   -25301   -25424 
  -25542   -25612   -25644   -25639   -25612   -25589   -25575   -25560 
  -25536   -25528   -25566   -25625   -25655   -25641   -25618   -25606 
  -25587   -25542   -25483   -25436   -25416   -25452   -25540   -25631 
  -25690   -25725   -25717   -25639   -25527   -25461   -25478   -25550 
  -25627   -25672   -25664   -25597   -25496   -25407   -25353   -25334 
  -25346   -25404   -25497   -25564   -25567   -25542   -25517   -25483 
  -25436   -25397   -25375   -25366   -25382   -25442   -25537   -25625 
  -25658   -25624   -25558   -25501   -25462   -25448   -25482   -25555 
  -25620   -25643   -25632   -25616   -25604   -25579   -25537   -25506 
  -25529   -25593   -25631   -25625   -25612   -25614   -25614   -25585 
  -25528   -25482   -25463   -25473   -25517   -25583   -25624   -25628 
  -25631   -25650   -25655   -25606   -25531   -25490   -25509   -25569 
  -25629   -25656   -25631   -25573   -25539   -25546   -25556   -25554 
  -25547   -25548   -25544   -25502   -25435   -25400   -25427   -25492 
  -25556   -25586   -25570   -25528   -25486   -25465   -25469   -25508 
  -25578   -25632   -25639   -25618   -25597   -25581   -25582   -25625 
  -25697   -25741   -25713   -25633   -25556   -25509   -25489   -25481 
  -25486   -25512   -25537   -25540   -25532   -25529   -25540   -25591 
  -25674   -25720   -25683   -25585   -25497   -25479   -25520   -25569 
  -25618   -25687   -25752   -25752   -25663   -25537   -25446   -25416 
  -25444   -25500   -25546   -25563   -25546   -25494   -25446   -25432 
  -25440   -25451   -25470   -25504   -25548   -25604   -25668   -25732 
  -25787   -25820   -25806   -25736   -25639   -25547   -25467   -25411 
  -25407   -25478   -25605   -25704   -25691   -25579   -25455   -25397 
  -25428   -25527   -25636   -25695   -25677   -25604   -25517   -25425 
  -25343   -25339   -25454   -25628   -25751   -25776   -25716   -25601 
  -25500   -25471   -25498   -25536   -25585   -25628   -25623   -25566 
  -25521   -25544   -25617   -25678   -25694   -25686   -25667   -25600 
  -25463   -25344   -25340   -25443   -25562   -25641   -25690   -25706 
  -25664   -25569   -25481   -25469   -25524   -25566   -25551   -25498 
  -25454   -25429   -25412   -25408   -25454   -25555   -25656   -25701 
  -25678   -25612   -25498   -25367   -25317   -25396   -25527   -25617 
  -25645   -25643   -25644   -25648   -25621   -25552   -25493   -25506 
  -25600   -25682   -25674   -25610   -25567   -25552   -25532   -25510 
  -25509   -25528   -25556   -25596   -25627   -25601   -25506   -25409 
  -25382   -25409   -25425   -25429   -25477   -25563   -25604   -25555 
  -25483   -25471   -25508   -25536   -25548   -25571   -25608   -25662 
  -25739   -25801   -25801   -25741   -25659   -25583   -25519   -25463 
  -25415   -25380   -25388   -25446   -25494   -25458   -25358   -25327 
  -25423   -25556   -25637   -25681   -25721   -25739   -25704   -25631 
  -25573   -25566   -25610   -25652   -25637   -25559   -25463   -25416 
  -25444   -25501   -25531   -25535   -25506   -25434   -25357   -25342 
  -25401   -25517   -25670   -25824   -25895   -25816   -25631   -25475 
  -25439   -25492   -25589   -25717   -25839   -25870   -25770   -25591 
  -25419   -25317   -25338   -25475   -25628   -25683   -25616   -25474 
  -25327   -25243   -25272   -25385   -25501   -25567   -25596   -25597 
  -25562   -25527   -25556   -25643   -25699   -25690   -25631   -25528 
  -25398   -25309   -25355   -25563   -25817   -25959   -25921   -25735 
  -25504   -25342   -25304   -25375   -25505   -25632   -25708   -25712 
  -25637   -25521   -25427   -25405   -25467   -25573   -25666   -25705 
  -25664   -25581   -25532   -25556   -25627   -25694   -25717   -25687 
  -25633   -25583   -25555   -25558   -25590   -25636   -25658   -25633 
  -25560   -25475   -25435   -25469   -25556   -25659   -25751   -25799 
  -25780   -25698   -25574   -25447   -25371   -25367   -25413   -25474 
  -25543   -25625   -25682   -25648   -25543   -25451   -25413   -25415 
  -25442   -25502   -25598   -25691   -25736   -25716   -25635   -25529 
  -25446   -25404   -25386   -25380   -25402   -25470   -25544   -25579 
  -25577   -25566   -25554   -25535   -25509   -25486   -25471   -25465 
  -25451   -25448   -25504   -25616   -25718   -25745   -25686   -25590 
  -25509   -25473   -25502   -25590   -25686   -25736   -25706   -25616 
  -25504   -25401   -25353   -25389   -25502   -25651   -25771   -25795 
  -25695   -25537   -25421   -25411   -25482   -25555   -25593   -25609 
  -25593   -25542   -25506   -25505   -25494   -25481   -25512   -25543 
  -25497   -25409   -25373   -25417   -25510   -25621   -25706   -25717 
  -25654   -25574   -25521   -25501   -25516   -25574   -25660   -25718 
  -25712   -25672   -25636   -25591   -25533   -25506   -25548   -25605 
  -25585   -25498   -25429   -25396   -25374   -25378   -25416   -25469 
  -25516   -25537   -25527   -25515   -25525   -25529   -25531   -25569 
  -25632   -25671   -25671   -25636   -25585   -25563   -25591   -25628 
  -25620   -25570   -25524   -25500   -25493   -25498   -25517   -25548 
  -25560   -25537   -25519   -25548   -25612   -25659   -25671   -25685 
  -25720   -25728   -25654   -25516   -25402   -25375   -25415   -25462 
  -25496   -25535   -25567   -25560   -25510   -25471   -25494   -25547 
  -25552   -25505   -25461   -25442   -25417   -25374   -25369   -25447 
  -25562   -25612   -25590   -25564   -25544   -25521   -25533   -25594 
  -25666   -25710   -25717   -25683   -25618   -25540   -25471   -25444 
  -25485   -25587   -25699   -25748   -25693   -25571   -25465   -25416 
  -25435   -25527   -25652   -25740   -25753   -25710   -25643   -25566 
  -25498   -25477   -25504   -25558   -25608   -25602   -25527   -25443 
  -25420   -25470   -25566   -25667   -25721   -25687   -25590   -25492 
  -25439   -25447   -25508   -25589   -25643   -25637   -25593   -25531 
  -25469   -25436   -25463   -25533   -25598   -25635   -25633   -25566 
  -25448   -25380   -25429   -25550   -25643   -25643   -25566   -25488 
  -25461   -25467   -25479   -25521   -25618   -25726   -25768   -25712 
  -25596   -25496   -25448   -25444   -25481   -25558   -25628   -25625 
  -25552   -25483   -25469   -25506   -25577   -25648   -25677   -25659 
  -25612   -25528   -25420   -25350   -25374   -25482   -25606   -25687 
  -25720   -25717   -25674   -25620   -25613   -25648   -25660   -25637 
  -25598   -25544   -25490   -25463   -25475   -25525   -25586   -25617 
  -25598   -25543   -25478   -25434   -25427   -25452   -25486   -25525 
  -25558   -25537   -25477   -25463   -25521   -25582   -25620   -25655 
  -25663   -25604   -25516   -25473   -25488   -25532   -25596   -25663 
  -25702   -25697   -25641   -25567   -25525   -25515   -25490   -25447 
  -25412   -25400   -25401   -25401   -25417   -25473   -25562   -25635 
  -25636   -25562   -25470   -25416   -25408   -25439   -25513   -25598 
  -25633   -25609   -25563   -25533   -25520   -25505   -25500   -25528 
  -25571   -25579   -25533   -25467   -25438   -25488   -25624   -25770 
  -25840   -25833   -25780   -25687   -25555   -25447   -25432   -25497 
  -25582   -25647   -25672   -25660   -25623   -25583   -25571   -25587 
  -25606   -25617   -25617   -25601   -25582   -25574   -25570   -25566 
  -25570   -25586   -25585   -25551   -25532   -25574   -25668   -25759 
  -25791   -25753   -25656   -25528   -25420   -25390   -25446   -25543 
  -25621   -25648   -25616   -25539   -25451   -25390   -25363   -25361 
  -25381   -25408   -25416   -25415   -25444   -25524   -25620   -25679 
  -25677   -25616   -25533   -25471   -25450   -25477   -25563   -25685 
  -25778   -25780   -25686   -25547   -25432   -25378   -25389   -25451 
  -25536   -25616   -25672   -25691   -25659   -25593   -25563   -25616 
  -25698   -25726   -25694   -25640   -25593   -25570   -25582   -25604 
  -25597   -25552   -25496   -25446   -25417   -25425   -25481   -25583 
  -25701   -25774   -25732   -25578   -25394   -25276   -25258   -25326 
  -25432   -25543   -25633   -25660   -25593   -25474   -25378   -25338 
  -25335   -25343   -25358   -25373   -25384   -25390   -25398   -25415 
  -25417   -25384   -25334   -25315   -25348   -25436   -25582   -25766 
  -25929   -26011   -25975   -25812   -25585   -25416   -25373   -25434 
  -25548   -25668   -25744   -25741   -25687   -25650   -25647   -25651 
  -25666   -25717   -25778   -25789   -25736   -25674   -25648   -25654 
  -25640   -25573   -25456   -25317   -25201   -25174   -25272   -25458 
  -25650   -25774   -25787   -25689   -25523   -25367   -25300   -25361 
  -25528   -25714   -25807   -25760   -25631   -25474   -25309   -25182 
  -25169   -25285   -25479   -25666   -25779   -25797   -25736   -25621 
  -25466   -25303   -25181   -25119   -25134   -25251   -25448   -25666 
  -25857   -25996   -26067   -26076   -26040   -25965   -25891   -25864 
  -25897   -25944   -25941   -25851   -25685   -25489   -25326   -25267 
  -25324   -25434   -25537   -25614   -25632   -25562   -25455   -25416 
  -25485   -25614   -25748   -25848   -25882   -25821   -25670   -25488 
  -25363   -25336   -25374   -25447   -25550   -25643   -25674   -25654 
  -25650   -25690   -25721   -25689   -25596   -25483   -25385   -25330 
  -25340   -25407   -25490   -25563   -25601   -25583   -25531   -25488 
  -25473   -25463   -25435   -25412   -25423   -25446   -25432   -25367 
  -25293   -25245   -25246   -25319   -25450   -25586   -25679   -25702 
  -25654   -25546   -25409   -25303   -25288   -25393   -25586   -25798 
  -25965   -26040   -25995   -25848   -25658   -25483   -25371   -25335 
  -25354   -25397   -25459   -25535   -25600   -25632   -25635   -25621 
  -25585   -25527   -25479   -25467   -25477   -25501   -25555   -25641 
  -25732   -25776   -25764   -25722   -25675   -25629   -25581   -25542 
  -25532   -25567   -25640   -25724   -25763   -25722   -25636   -25571 
  -25551   -25546   -25523   -25485   -25458   -25470   -25533   -25625 
  -25697   -25740   -25760   -25741   -25659   -25527   -25401   -25338 
  -25346   -25397   -25459   -25505   -25498   -25434   -25348   -25300 
  -25350   -25516   -25714   -25813   -25756   -25581   -25357   -25158 
  -25057   -25081   -25201   -25353   -25489   -25612   -25718   -25762 
  -25718   -25648   -25631   -25671   -25714   -25699   -25625   -25559 
  -25560   -25621   -25691   -25747   -25783   -25790   -25758   -25685 
  -25581   -25479   -25405   -25350   -25300   -25253   -25222   -25216 
  -25220   -25226   -25235   -25245   -25259   -25299   -25353   -25380 
  -25367   -25357   -25384   -25447   -25523   -25573   -25567   -25539 
  -25547   -25598   -25656   -25710   -25780   -25887   -26036   -26169 
  -26221   -26198   -26157   -26127   -26094   -26014   -25855   -25625 
  -25384   -25193   -25081   -25057   -25142   -25338   -25602   -25849 
  -25996   -26001   -25866   -25635   -25359   -25088   -24876   -24775 
  -24803   -24933   -25124   -25347   -25575   -25779   -25924   -25992 
  -26003   -25999   -26001   -26005   -25990   -25918   -25790   -25664 
  -25586   -25537   -25482   -25405   -25327   -25289   -25312   -25371 
  -25421   -25442   -25434   -25400   -25335   -25250   -25196   -25208 
  -25262   -25308   -25343   -25415   -25556   -25759   -25979   -26167 
  -26280   -26287   -26183   -25990   -25740   -25473   -25263   -25178 
  -25224   -25336   -25424   -25447   -25425   -25394   -25381   -25400 
  -25469   -25575   -25670   -25717   -25708   -25633   -25509   -25405 
  -25374   -25400   -25465   -25573   -25699   -25798   -25859   -25888 
  -25886   -25856   -25803   -25741   -25681   -25636   -25616   -25602 
  -25574   -25528   -25473   -25415   -25377   -25371   -25388   -25401 
  -25402   -25396   -25392   -25388   -25377   -25361   -25338   -25311 
  -25308   -25358   -25451   -25535   -25567   -25540   -25467   -25367 
  -25284   -25282   -25386   -25562   -25778   -25991   -26123   -26133 
  -26036   -25876   -25705   -25573   -25513   -25529   -25577   -25602 
  -25577   -25498   -25381   -25251   -25147   -25123   -25204   -25348 
  -25500   -25633   -25731   -25794   -25836   -25867   -25893   -25917 
  -25940   -25945   -25917   -25848   -25728   -25550   -25340   -25169 
  -25099   -25137   -25216   -25286   -25347   -25434   -25554   -25656 
  -25687   -25671   -25629   -25532   -25378   -25220   -25107   -25065 
  -25103   -25197   -25330   -25482   -25610   -25658   -25613   -25536 
  -25494   -25527   -25640   -25785   -25878   -25879   -25799   -25677 
  -25559   -25479   -25459   -25512   -25635   -25785   -25895   -25915 
  -25845   -25702   -25513   -25328   -25219   -25224   -25320   -25447 
  -25559   -25651   -25744   -25851   -25945   -25957   -25857   -25701 
  -25564   -25482   -25456   -25479   -25524   -25566   -25606   -25636 
  -25608   -25505   -25384   -25335   -25393   -25525   -25691   -25834 
  -25876   -25798   -25662   -25556   -25547   -25647   -25828   -26023 
  -26140   -26092   -25871   -25540   -25207   -24942   -24771   -24711 
  -24776   -24942   -25141   -25294   -25362   -25354   -25313   -25294 
  -25321   -25389   -25482   -25583   -25663   -25693   -25667   -25620 
  -25601   -25621   -25650   -25671   -25716   -25812   -25938   -26059 
  -26146   -26163   -26080   -25911   -25695   -25492   -25370   -25354 
  -25408   -25488   -25566   -25601   -25559   -25469   -25408   -25427 
  -25510   -25605   -25663   -25636   -25497   -25282   -25088   -24996 
  -25015   -25107   -25235   -25373   -25478   -25539   -25575   -25625 
  -25733   -25910   -26084   -26150   -26059   -25840   -25582   -25393 
  -25344   -25411   -25497   -25542   -25543   -25513   -25466   -25436 
  -25462   -25552   -25668   -25733   -25683   -25544   -25408   -25348 
  -25365   -25431   -25548   -25689   -25770   -25726   -25586   -25438 
  -25346   -25332   -25404   -25536   -25663   -25713   -25671   -25582 
  -25509   -25500   -25569   -25686   -25814   -25910   -25913   -25786 
  -25566   -25344   -25219   -25236   -25377   -25574   -25744   -25837 
  -25845   -25793   -25702   -25597   -25508   -25462   -25466   -25519 
  -25606   -25695   -25747   -25748   -25710   -25650   -25585   -25521 
  -25456   -25416   -25427   -25479   -25517   -25497   -25432   -25374 
  -25384   -25504   -25720   -25956   -26123   -26153   -26055   -25894 
  -25737   -25601   -25470   -25331   -25203   -25119   -25105   -25166 
  -25292   -25461   -25617   -25708   -25708   -25616   -25454   -25272 
  -25132   -25083   -25126   -25234   -25370   -25501   -25596   -25635 
  -25633   -25620   -25616   -25639   -25694   -25756   -25772   -25720 
  -25616   -25508   -25425   -25367   -25326   -25307   -25338   -25423 
  -25521   -25586   -25627   -25691   -25809   -25953   -26055   -26064 
  -25999   -25895   -25763   -25618   -25490   -25402   -25342   -25277 
  -25180   -25038   -24879   -24764   -24757   -24894   -25155   -25455 
  -25686   -25793   -25794   -25733   -25631   -25519   -25455   -25466 
  -25539   -25636   -25699   -25701   -25663   -25621   -25590   -25551 
  -25470   -25362   -25267   -25216   -25240   -25350   -25498   -25620 
  -25677   -25670   -25633   -25614   -25639   -25687   -25714   -25704 
  -25672   -25629   -25566   -25506   -25490   -25524   -25597   -25686 
  -25770   -25820   -25812   -25764   -25732   -25736   -25759   -25786 
  -25820   -25871   -25933   -25979   -25995   -25991   -25969   -25918 
  -25837   -25733   -25623   -25519   -25428   -25369   -25358   -25374 
  -25362   -25305   -25227   -25149   -25104   -25141   -25272   -25467 
  -25683   -25859   -25949   -25948   -25875   -25772   -25675   -25604 
  -25575   -25579   -25563   -25473   -25313   -25138   -25029   -25023 
  -25089   -25173   -25236   -25255   -25236   -25220   -25227   -25258 
  -25338   -25478   -25612   -25651   -25583   -25473   -25385   -25367 
  -25448   -25633   -25874   -26092   -26231   -26260   -26180   -26010 
  -25799   -25624   -25536   -25527   -25559   -25596   -25608   -25589 
  -25555   -25532   -25537   -25567   -25608   -25650   -25671   -25647 
  -25582   -25521   -25490   -25470   -25444   -25417   -25397   -25385 
  -25390   -25427   -25501   -25613   -25741   -25840   -25867   -25807 
  -25693   -25571   -25497   -25510   -25610   -25743   -25845   -25879 
  -25847   -25774   -25678   -25563   -25459   -25397   -25374   -25348 
  -25292   -25236   -25227   -25292   -25419   -25555   -25651   -25706 
  -25736   -25743   -25726   -25713   -25739   -25805   -25860   -25847 
  -25751   -25601   -25423   -25251   -25141   -25130   -25208   -25309 
  -25367   -25373   -25363   -25369   -25401   -25470   -25574   -25678 
  -25736   -25725   -25663   -25583   -25521   -25502   -25537   -25637 
  -25785   -25922   -25979   -25933   -25833   -25762   -25741   -25729 
  -25672   -25574   -25469   -25382   -25313   -25261   -25245   -25288 
  -25373   -25454   -25479   -25447   -25400   -25375   -25371   -25380 
  -25412   -25473   -25546   -25600   -25621   -25632   -25655   -25671 
  -25659   -25616   -25536   -25425   -25323   -25284   -25328   -25424 
  -25496   -25490   -25427   -25362   -25320   -25316   -25353   -25421 
  -25506   -25583   -25620   -25629   -25640   -25659   -25695   -25755 
  -25809   -25813   -25753   -25662   -25575   -25524   -25529   -25600 
  -25689   -25740   -25729   -25659   -25564   -25497   -25485   -25524 
  -25567   -25571   -25524   -25434   -25311   -25189   -25116   -25127 
  -25219   -25362   -25517   -25658   -25764   -25818   -25814   -25766 
  -25697   -25624   -25550   -25467   -25367   -25280   -25254   -25315 
  -25439   -25566   -25641   -25650   -25608   -25543   -25485   -25454 
  -25442   -25429   -25412   -25398   -25389   -25381   -25392   -25432 
  -25483   -25521   -25555   -25579   -25578   -25574   -25602   -25658 
  -25722   -25786   -25822   -25810   -25774   -25764   -25810   -25888 
  -25955   -25980   -25959   -25878   -25728   -25540   -25351   -25197 
  -25105   -25074   -25089   -25150   -25238   -25311   -25342   -25350 
  -25365   -25390   -25397   -25361   -25307   -25288   -25311   -25354 
  -25411   -25469   -25515   -25551   -25578   -25598   -25627   -25689 
  -25783   -25872   -25905   -25871   -25805   -25759   -25758   -25783 
  -25817   -25837   -25822   -25753   -25640   -25520   -25439   -25427 
  -25493   -25605   -25705   -25772   -25832   -25879   -25887   -25844 
  -25774   -25701   -25623   -25524   -25405   -25293   -25239   -25254 
  -25304   -25359   -25417   -25475   -25512   -25525   -25555   -25625 
  -25718   -25807   -25880   -25941   -25976   -25968   -25937   -25930 
  -25965   -25999   -25980   -25902   -25789   -25664   -25554   -25467 
  -25423   -25436   -25490   -25519   -25463   -25327   -25170   -25054 
  -25022   -25088   -25209   -25323   -25378   -25362   -25307   -25265 
