Origin Time       2024/04/02 04:24:00
Lat.              40.133
Long.             141.712
Depth. (km)       71
Mag.              6.0
Station Code      ABSH11
Station Lat.      43.9144
Station Long.     144.1913
Station Height(m) 40
Record Time       2024/04/02 04:26:29
Sampling Freq(Hz) 100Hz
Duration Time(s)  120
Dir.              6
Scale Factor      7845(gal)/8223790
Max. Acc. (gal)   0.310
Last Correction   2024/04/02 04:26:30
Memo.             
[...]
  -12087   -12105   -12116   -12131   -12158   -12174   -12160   -12123 
  -12086   -12070   -12077   -12097   -12120   -12135   -12137   -12136 
  -12145   -12171   -12187   -12175   -12144   -12114   -12105   -12106 
  -12104   -12104   -12100   -12079   -12054   -12019   -11997   -12009 
  -12042   -12069   -12070   -12054   -12051   -12062   -12083   -12116 
  -12155   -12205   -12253   -12282   -12291   -12280   -12243   -12185 
  -12125   -12083   -12051   -12024   -12010   -12006   -12019   -12031 
  -12028   -12028   -12050   -12079   -12100   -12101   -12090   -12075 
  -12069   -12089   -12127   -12158   -12175   -12183   -12199   -12209 
  -12187   -12140   -12091   -12058   -12042   -12040   -12058   -12104 
  -12168   -12217   -12220   -12189   -12147   -12089   -12012   -11935 
  -11888   -11896   -11946   -12004   -12051   -12085   -12113   -12124 
  -12089   -12023   -11961   -11924   -11923   -11942   -11973   -12021 
  -12074   -12110   -12117   -12110   -12108   -12109   -12113   -12106 
  -12091   -12090   -12102   -12124   -12145   -12158   -12174   -12208 
  -12251   -12286   -12279   -12232   -12174   -12124   -12091   -12075 
  -12071   -12082   -12096   -12105   -12109   -12106   -12093   -12063 
  -12025   -12012   -12033   -12081   -12133   -12177   -12212   -12235 
  -12233   -12213   -12182   -12150   -12132   -12127   -12137   -12155 
  -12156   -12141   -12120   -12104   -12096   -12077   -12050   -12027 
  -12021   -12054   -12117   -12193   -12259   -12286   -12279   -12248 
  -12210   -12191   -12186   -12190   -12204   -12214   -12221   -12217 
  -12181   -12120   -12060   -12021   -12020   -12042   -12070   -12091 
  -12087   -12058   -12021   -11992   -11975   -11975   -11985   -12006 
  -12037   -12063   -12073   -12077   -12086   -12100   -12110   -12110 
  -12096   -12067   -12035   -12024   -12040   -12066   -12093   -12113 
  -12128   -12155   -12182   -12189   -12167   -12116   -12064   -12036 
  -12033   -12058   -12094   -12127   -12151   -12171   -12189   -12189 
  -12147   -12089   -12042   -12023   -12043   -12077   -12106   -12124 
  -12123   -12112   -12101   -12101   -12129   -12185   -12256   -12333 
  -12387   -12394   -12352   -12271   -12174   -12083   -12019   -11983 
  -11971   -11973   -11970   -11963   -11961   -11961   -11965   -11961 
  -11935   -11907   -11896   -11913   -11954   -11992   -12021   -12052 
  -12090   -12133   -12162   -12156   -12123   -12081   -12052   -12029 
  -12005   -11997   -12008   -12024   -12036   -12043   -12062   -12096 
  -12129   -12155   -12168   -12175   -12178   -12168   -12147   -12131 
  -12129   -12144   -12156   -12156   -12152   -12141   -12133   -12132 
  -12140   -12177   -12226   -12258   -12264   -12252   -12249   -12255 
  -12236   -12195   -12158   -12152   -12204   -12278   -12328   -12336 
  -12303   -12280   -12289   -12306   -12294   -12244   -12186   -12137 
  -12091   -12035   -11956   -11884   -11869   -11908   -11958   -11990 
  -12006   -12031   -12052   -12046   -12005   -11950   -11913   -11915 
  -11946   -11993   -12032   -12037   -12006   -11954   -11923   -11939 
  -11982   -12017   -12031   -12031   -12035   -12035   -12039   -12055 
  -12078   -12097   -12101   -12096   -12101   -12117   -12140   -12160 
  -12160   -12147   -12128   -12094   -12047   -11997   -11969   -11969 
  -11982   -11997   -12010   -12028   -12077   -12140   -12178   -12175 
  -12151   -12147   -12187   -12248   -12293   -12310   -12313   -12305 
  -12278   -12243   -12202   -12166   -12143   -12127   -12109   -12086 
  -12051   -12025   -12021   -12032   -12054   -12077   -12108   -12154 
  -12194   -12212   -12206   -12197   -12193   -12187   -12182   -12185 
  -12202   -12243   -12291   -12313   -12295   -12244   -12181   -12123 
  -12069   -12019   -11967   -11927   -11905   -11894   -11912   -11969 
  -12031   -12077   -12104   -12114   -12124   -12137   -12139   -12112 
  -12060   -12017   -12002   -12009   -12028   -12047   -12066   -12083 
  -12096   -12097   -12091   -12087   -12096   -12117   -12158   -12208 
  -12241   -12255   -12248   -12222   -12183   -12131   -12082   -12050 
  -12020   -12004   -12017   -12056   -12096   -12100   -12062   -12004 
  -11950   -11925   -11927   -11943   -11971   -12008   -12062   -12128 
  -12172   -12190   -12189   -12183   -12191   -12213   -12233   -12243 
  -12233   -12218   -12202   -12177   -12129   -12059   -11998   -11981 
  -12001   -12035   -12066   -12093   -12120   -12141   -12144   -12117 
  -12071   -12029   -11996   -11971   -11962   -11973   -12009   -12066 
  -12128   -12178   -12199   -12193   -12174   -12154   -12139   -12140 
  -12158   -12191   -12226   -12252   -12267   -12260   -12225   -12172 
  -12118   -12085   -12069   -12062   -12079   -12124   -12178   -12221 
  -12240   -12241   -12228   -12206   -12179   -12148   -12118   -12087 
  -12043   -11993   -11965   -11978   -12035   -12097   -12139   -12150 
  -12128   -12089   -12046   -12017   -12021   -12048   -12081   -12102 
  -12104   -12097   -12085   -12067   -12047   -12020   -11993   -11983 
  -11990   -12004   -12012   -12013   -12021   -12042   -12069   -12093 
  -12109   -12123   -12127   -12114   -12104   -12101   -12098   -12082 
  -12054   -12033   -12047   -12086   -12123   -12133   -12129   -12128 
  -12124   -12117   -12113   -12114   -12127   -12139   -12151   -12164 
  -12148   -12098   -12043   -12016   -12031   -12070   -12101   -12106 
  -12089   -12077   -12086   -12110   -12144   -12181   -12216   -12247 
  -12274   -12299   -12316   -12305   -12262   -12197   -12144   -12137 
  -12162   -12185   -12183   -12167   -12156   -12150   -12139   -12117 
  -12086   -12062   -12050   -12048   -12040   -12013   -11979   -11954 
  -11940   -11939   -11943   -11951   -11978   -12024   -12079   -12124 
  -12133   -12118   -12109   -12112   -12112   -12090   -12052   -12013 
  -11981   -11974   -11993   -12042   -12112   -12172   -12209   -12232 
  -12258   -12294   -12322   -12322   -12297   -12247   -12183   -12125 
  -12087   -12081   -12087   -12081   -12063   -12044   -12040   -12047 
  -12043   -12031   -12012   -11996   -11997   -12010   -12039   -12082 
  -12121   -12154   -12174   -12172   -12158   -12137   -12124   -12123 
  -12127   -12135   -12147   -12159   -12160   -12139   -12098   -12054 
  -12013   -11994   -12001   -12017   -12039   -12064   -12083   -12087 
  -12075   -12058   -12048   -12052   -12063   -12069   -12073   -12085 
  -12089   -12083   -12073   -12058   -12056   -12077   -12114   -12155 
  -12185   -12213   -12240   -12251   -12247   -12225   -12195   -12167 
  -12131   -12098   -12081   -12081   -12098   -12101   -12075   -12040 
  -12001   -11970   -11944   -11917   -11904   -11909   -11929   -11944 
  -11947   -11965   -12013   -12078   -12147   -12197   -12216   -12217 
  -12212   -12213   -12222   -12233   -12243   -12243   -12233   -12217 
  -12191   -12167   -12156   -12156   -12168   -12178   -12177   -12168 
  -12148   -12108   -12052   -11997   -11982   -12015   -12067   -12112 
  -12132   -12139   -12143   -12124   -12073   -12002   -11944   -11915 
  -11917   -11943   -11971   -12005   -12052   -12087   -12093   -12071 
  -12036   -12021   -12032   -12054   -12075   -12094   -12124   -12166 
  -12201   -12220   -12228   -12243   -12266   -12278   -12282   -12290 
  -12290   -12271   -12226   -12160   -12094   -12037   -12004   -11988 
  -11965   -11940   -11928   -11935   -11965   -11996   -12028   -12077 
  -12137   -12208   -12268   -12306   -12325   -12326   -12314   -12299 
  -12274   -12244   -12214   -12178   -12129   -12060   -11996   -11961 
  -11952   -11965   -11989   -12010   -12024   -12036   -12056   -12096 
  -12139   -12171   -12181   -12177   -12179   -12190   -12198   -12193 
  -12155   -12102   -12056   -12021   -11996   -11977   -11975   -11994 
  -12015   -12040   -12074   -12102   -12129   -12154   -12172   -12194 
  -12214   -12231   -12236   -12231   -12222   -12208   -12185   -12159 
  -12128   -12102   -12091   -12090   -12089   -12071   -12050   -12059 
  -12091   -12112   -12104   -12081   -12081   -12109   -12151   -12177 
  -12174   -12164   -12164   -12167   -12170   -12164   -12158   -12164 
  -12171   -12151   -12102   -12059   -12051   -12066   -12085   -12096 
  -12104   -12125   -12150   -12151   -12140   -12120   -12102   -12097 
  -12108   -12135   -12174   -12209   -12222   -12204   -12160   -12110 
  -12055   -12010   -11983   -11967   -11958   -11947   -11940   -11946 
  -11955   -11969   -11975   -11977   -11990   -12013   -12044   -12090 
  -12124   -12135   -12135   -12125   -12121   -12129   -12145   -12162 
  -12166   -12168   -12177   -12187   -12201   -12201   -12183   -12156 
  -12118   -12067   -12009   -11955   -11925   -11923   -11938   -11956 
  -11977   -12008   -12055   -12101   -12131   -12143   -12152   -12174 
  -12199   -12204   -12177   -12133   -12102   -12087   -12085   -12087 
  -12091   -12100   -12102   -12100   -12102   -12118   -12147   -12174 
  -12187   -12201   -12202   -12179   -12143   -12090   -12032   -11990 
  -11969   -11962   -11966   -11985   -12015   -12044   -12060   -12056 
  -12032   -12013   -12017   -12031   -12048   -12064   -12085   -12114 
  -12140   -12151   -12140   -12100   -12043   -11988   -11954   -11962 
  -12006   -12060   -12093   -12101   -12102   -12097   -12077   -12048 
  -12020   -12004   -11996   -11985   -11990   -12021   -12075   -12135 
  -12168   -12168   -12155   -12148   -12148   -12124   -12073   -12019 
  -11973   -11951   -11965   -11990   -12024   -12069   -12112   -12135 
  -12125   -12101   -12077   -12062   -12070   -12089   -12108   -12133 
  -12164   -12199   -12229   -12239   -12233   -12217   -12214   -12240 
  -12259   -12251   -12210   -12156   -12125   -12113   -12087   -12059 
  -12056   -12089   -12136   -12170   -12182   -12183   -12187   -12191 
  -12182   -12170   -12168   -12186   -12217   -12232   -12213   -12174 
  -12132   -12100   -12081   -12078   -12098   -12129   -12167   -12210 
  -12231   -12221   -12194   -12158   -12131   -12116   -12102   -12098 
  -12104   -12127   -12152   -12158   -12145   -12135   -12136   -12143 
  -12121   -12075   -12029   -11996   -11982   -11982   -11985   -11993 
  -12009   -12031   -12048   -12060   -12073   -12074   -12062   -12060 
  -12075   -12100   -12121   -12124   -12112   -12094   -12087   -12102 
  -12127   -12154   -12181   -12197   -12202   -12199   -12189   -12170 
  -12135   -12105   -12112   -12156   -12218   -12258   -12263   -12258 
  -12256   -12259   -12244   -12195   -12144   -12121   -12141   -12191 
  -12233   -12253   -12253   -12236   -12214   -12183   -12143   -12102 
  -12063   -12033   -12023   -12025   -12047   -12082   -12121   -12155 
  -12164   -12151   -12118   -12060   -11996   -11947   -11928   -11939 
  -11954   -11962   -11965   -11966   -11979   -11997   -12002   -12013 
  -12040   -12081   -12125   -12156   -12162   -12147   -12132   -12135 
  -12145   -12152   -12154   -12148   -12143   -12128   -12102   -12079 
  -12066   -12071   -12091   -12109   -12121   -12131   -12132   -12123 
  -12106   -12096   -12102   -12116   -12137   -12158   -12163   -12155 
  -12140   -12129   -12137   -12156   -12186   -12216   -12240   -12256 
  -12258   -12253   -12255   -12251   -12236   -12214   -12194   -12187 
  -12187   -12190   -12183   -12156   -12121   -12085   -12056   -12039 
  -12023   -12001   -11965   -11915   -11871   -11853   -11854   -11871 
  -11894   -11921   -11950   -11973   -11994   -12015   -12032   -12054 
  -12059   -12032   -11978   -11921   -11890   -11890   -11919   -11956 
  -11971   -11969   -11974   -11997   -12036   -12064   -12059   -12029 
  -11997   -11992   -12009   -12027   -12044   -12060   -12082   -12110 
  -12137   -12155   -12145   -12104   -12054   -12005   -11965   -11942 
  -11927   -11924   -11942   -11963   -11992   -12024   -12059   -12105 
  -12150   -12174   -12166   -12128   -12089   -12073   -12078   -12093 
  -12114   -12154   -12197   -12228   -12243   -12241   -12236   -12229 
  -12201   -12155   -12112   -12087   -12091   -12108   -12114   -12113 
  -12098   -12087   -12093   -12101   -12110   -12123   -12124   -12123 
  -12127   -12141   -12172   -12206   -12239   -12264   -12274   -12285 
  -12297   -12302   -12293   -12262   -12224   -12194   -12168   -12144 
  -12106   -12069   -12054   -12056   -12071   -12090   -12105   -12120 
  -12141   -12174   -12209   -12224   -12208   -12166   -12125   -12109 
  -12106   -12113   -12116   -12097   -12063   -12031   -12005   -12000 
  -12013   -12032   -12051   -12073   -12091   -12100   -12097   -12096 
  -12097   -12101   -12105   -12101   -12109   -12141   -12194   -12249 
  -12280   -12279   -12270   -12266   -12267   -12263   -12244   -12214 
  -12172   -12136   -12125   -12131   -12140   -12147   -12143   -12133 
  -12133   -12139   -12140   -12129   -12116   -12113   -12123   -12135 
  -12132   -12114   -12104   -12105   -12108   -12094   -12058   -12017 
  -11992   -11998   -12031   -12060   -12087   -12114   -12133   -12141 
  -12124   -12086   -12051   -12028   -12025   -12036   -12044   -12054 
  -12063   -12074   -12093   -12116   -12135   -12137   -12132   -12151 
  -12198   -12256   -12291   -12280   -12243   -12206   -12185   -12174 
  -12158   -12139   -12133   -12143   -12175   -12218   -12241   -12245 
  -12251   -12260   -12260   -12235   -12189   -12131   -12077   -12042 
  -12019   -12005   -11996   -11970   -11936   -11905   -11866   -11826 
  -11793   -11780   -11797   -11832   -11871   -11908   -11939   -11982 
  -12037   -12091   -12128   -12135   -12127   -12117   -12109   -12108 
  -12101   -12082   -12062   -12048   -12047   -12055   -12056   -12059 
  -12066   -12075   -12097   -12116   -12124   -12114   -12090   -12073 
  -12059   -12048   -12043   -12037   -12039   -12048   -12051   -12047 
  -12039   -12036   -12047   -12058   -12055   -12043   -12039   -12046 
  -12054   -12059   -12069   -12079   -12094   -12110   -12123   -12135 
  -12141   -12148   -12160   -12166   -12171   -12179   -12189   -12204 
  -12217   -12221   -12214   -12201   -12193   -12183   -12156   -12125 
  -12105   -12102   -12116   -12124   -12124   -12121   -12120   -12121 
  -12124   -12128   -12120   -12105   -12102   -12109   -12109   -12110 
  -12109   -12104   -12102   -12102   -12110   -12128   -12143   -12144 
  -12127   -12110   -12113   -12121   -12129   -12128   -12113   -12100 
  -12081   -12058   -12039   -12021   -12017   -12036   -12067   -12102 
  -12120   -12118   -12116   -12118   -12127   -12129   -12112   -12094 
  -12097   -12117   -12132   -12123   -12105   -12108   -12136   -12167 
  -12166   -12135   -12101   -12082   -12087   -12096   -12083   -12075 
  -12096   -12140   -12187   -12208   -12195   -12171   -12154   -12150 
  -12150   -12145   -12140   -12123   -12106   -12104   -12105   -12106 
  -12109   -12106   -12100   -12083   -12064   -12052   -12052   -12081 
  -12124   -12155   -12156   -12125   -12091   -12087   -12101   -12118 
  -12133   -12140   -12147   -12156   -12155   -12135   -12097   -12063 
  -12039   -12028   -12032   -12043   -12054   -12067   -12078   -12085 
  -12087   -12078   -12055   -12025   -12004   -11997   -11997   -12001 
  -12009   -12025   -12055   -12083   -12100   -12102   -12090   -12077 
  -12067   -12064   -12067   -12069   -12077   -12098   -12124   -12148 
  -12166   -12175   -12177   -12166   -12155   -12154   -12156   -12160 
  -12159   -12164   -12182   -12195   -12199   -12197   -12189   -12181 
  -12181   -12187   -12198   -12199   -12191   -12182   -12172   -12174 
  -12177   -12172   -12181   -12204   -12231   -12245   -12236   -12214 
  -12194   -12172   -12147   -12114   -12085   -12073   -12069   -12071 
  -12074   -12074   -12081   -12079   -12054   -12015   -11978   -11961 
  -11956   -11959   -11963   -11963   -11966   -11971   -11981   -11993 
  -12002   -12005   -12006   -12001   -11993   -11988   -11988   -11990 
  -11982   -11967   -11959   -11951   -11954   -11978   -12020   -12069 
  -12104   -12117   -12117   -12110   -12112   -12116   -12109   -12105 
  -12105   -12105   -12105   -12102   -12101   -12110   -12125   -12136 
  -12140   -12145   -12151   -12150   -12139   -12117   -12093   -12075 
  -12059   -12048   -12055   -12073   -12102   -12137   -12151   -12143 
  -12120   -12098   -12098   -12106   -12116   -12118   -12109   -12102 
  -12105   -12114   -12128   -12144   -12162   -12182   -12191   -12187 
  -12168   -12154   -12156   -12163   -12168   -12166   -12156   -12152 
  -12152   -12162   -12177   -12177   -12167   -12158   -12140   -12127 
  -12124   -12110   -12085   -12059   -12050   -12064   -12093   -12129 
  -12158   -12168   -12164   -12144   -12118   -12100   -12086   -12079 
  -12062   -12031   -12008   -12013   -12047   -12093   -12129   -12155 
  -12160   -12145   -12117   -12083   -12056   -12036   -12020   -12021 
  -12036   -12056   -12083   -12114   -12137   -12143   -12127   -12105 
  -12085   -12081   -12094   -12100   -12087   -12062   -12028   -12010 
  -12013   -12023   -12029   -12037   -12062   -12104   -12140   -12155 
  -12141   -12112   -12091   -12087   -12101   -12131   -12160   -12189 
  -12221   -12247   -12253   -12247   -12243   -12240   -12231   -12221 
  -12218   -12222   -12236   -12243   -12251   -12263   -12268   -12264 
  -12251   -12232   -12210   -12181   -12154   -12127   -12105   -12110 
  -12132   -12150   -12164   -12178   -12183   -12175   -12160   -12156 
  -12164   -12171   -12166   -12144   -12118   -12096   -12074   -12070 
  -12085   -12098   -12110   -12109   -12090   -12056   -12020   -12001 
  -12004   -12016   -12023   -12015   -12008   -12016   -12031   -12046 
  -12059   -12070   -12085   -12089   -12085   -12083   -12082   -12083 
  -12091   -12097   -12104   -12109   -12118   -12133   -12144   -12148 
  -12132   -12100   -12075   -12060   -12055   -12055   -12055   -12067 
  -12090   -12108   -12108   -12100   -12091   -12086   -12074   -12063 
  -12050   -12042   -12051   -12075   -12109   -12136   -12139   -12125 
  -12109   -12102   -12106   -12100   -12078   -12048   -12028   -12031 
  -12043   -12047   -12043   -12035   -12036   -12046   -12051   -12046 
  -12028   -12013   -12013   -12017   -12017   -12009   -11993   -11986 
  -11994   -12013   -12031   -12025   -12009   -12000   -11985   -11947 
  -11892   -11836   -11800   -11792   -11812   -11842   -11862   -11882 
  -11904   -11915   -11912   -11907   -11917   -11946   -11981   -12013 
  -12031   -12043   -12063   -12081   -12093   -12109   -12128   -12158 
  -12197   -12233   -12260   -12275   -12286   -12297   -12298   -12298 
  -12298   -12287   -12270   -12251   -12236   -12225   -12210   -12205 
  -12205   -12195   -12182   -12167   -12163   -12167   -12166   -12152 
  -12129   -12110   -12110   -12124   -12148   -12177   -12204   -12231 
  -12251   -12253   -12245   -12226   -12212   -12212   -12213   -12204 
  -12186   -12166   -12152   -12145   -12154   -12164   -12151   -12129 
  -12118   -12123   -12136   -12129   -12093   -12048   -12013   -12005 
  -12015   -12025   -12037   -12047   -12054   -12063   -12067   -12063 
  -12047   -12027   -12019   -12017   -12027   -12042   -12048   -12058 
  -12071   -12078   -12077   -12060   -12033   -12009   -11993   -11994 
  -12015   -12044   -12089   -12144   -12195   -12231   -12232   -12214 
