Origin Time       2024/04/02 04:24:00
Lat.              40.133
Long.             141.712
Depth. (km)       71
Mag.              6.0
Station Code      ABSH14
Station Lat.      43.7228
Station Long.     144.1835
Station Height(m) -16
Record Time       2024/04/02 04:26:23
Sampling Freq(Hz) 100Hz
Duration Time(s)  120
Dir.              2
Scale Factor      2942(gal)/8224139
Max. Acc. (gal)   0.163
Last Correction   2024/04/02 04:26:24
Memo.             
[...]
   33714    33723    33720    33721    33751    33790    33813    33812 
   33790    33751    33720    33706    33698    33698    33713    33720 
   33712    33713    33736    33758    33771    33791    33804    33789 
   33777    33781    33783    33785    33795    33818    33841    33845 
   33837    33844    33862    33859    33836    33818    33826    33851 
   33862    33851    33835    33825    33820    33820    33825    33814 
   33797    33809    33852    33899    33926    33932    33924    33906 
   33874    33832    33799    33789    33793    33801    33813    33816 
   33794    33760    33739    33744    33759    33768    33782    33798 
   33820    33839    33843    33844    33840    33822    33802    33791 
   33798    33816    33832    33856    33891    33914    33921    33930 
   33939    33925    33899    33878    33853    33816    33770    33751 
   33760    33772    33775    33770    33774    33802    33836    33859 
   33882    33890    33858    33813    33793    33786    33781    33794 
   33825    33848    33872    33905    33933    33944    33930    33913 
   33897    33878    33876    33891    33910    33933    33934    33898 
   33863    33844    33817    33799    33813    33821    33794    33747 
   33708    33713    33755    33791    33821    33841    33840    33836 
   33839    33831    33812    33813    33831    33839    33844    33852 
   33845    33840    33848    33845    33820    33790    33766    33751 
   33758    33786    33822    33836    33818    33806    33820    33837 
   33860    33880    33867    33843    33848    33856    33845    33833 
   33816    33783    33752    33747    33760    33778    33790    33789 
   33790    33799    33795    33791    33802    33822    33848    33874 
   33886    33902    33937    33971    33974    33951    33929    33920 
   33912    33902    33897    33887    33868    33851    33833    33804 
   33763    33723    33686    33673    33696    33740    33770    33770 
   33770    33781    33787    33787    33783    33777    33791    33814 
   33806    33782    33767    33748    33731    33737    33755    33768 
   33782    33799    33831    33866    33886    33897    33898    33870 
   33824    33777    33739    33728    33743    33758    33762    33768 
   33779    33789    33781    33762    33770    33806    33831    33829 
   33816    33795    33783    33782    33777    33758    33759    33797 
   33832    33845    33858    33868    33868    33858    33849    33862 
   33893    33910    33898    33879    33862    33840    33824    33799 
   33774    33785    33822    33849    33845    33821    33804    33799 
   33787    33744    33690    33660    33663    33690    33725    33744 
   33737    33729    33733    33751    33779    33802    33817    33832 
   33851    33872    33882    33871    33852    33836    33836    33841 
   33837    33835    33841    33849    33864    33875    33867    33848 
   33835    33833    33843    33851    33845    33835    33829    33833 
   33829    33804    33770    33740    33732    33763    33813    33852 
   33886    33910    33905    33893    33909    33924    33917    33909 
   33916    33929    33945    33949    33940    33928    33914    33906 
   33920    33948    33978    33990    33971    33940    33916    33899 
   33887    33867    33829    33791    33772    33758    33743    33754 
   33786    33816    33821    33804    33787    33791    33816    33840 
   33853    33864    33852    33822    33808    33801    33791    33797 
   33814    33826    33826    33809    33790    33794    33812    33835 
   33847    33833    33809    33787    33762    33739    33747    33778 
   33801    33809    33822    33835    33826    33799    33778    33774 
   33781    33789    33797    33797    33793    33801    33822    33839 
   33840    33836    33832    33829    33822    33816    33814    33818 
   33821    33818    33814    33804    33775    33739    33721    33732 
   33754    33770    33783    33794    33794    33790    33779    33755 
   33725    33708    33709    33714    33706    33698    33723    33777 
   33809    33825    33843    33836    33816    33824    33852    33867 
   33859    33832    33799    33771    33747    33728    33721    33737 
   33767    33801    33841    33870    33879    33886    33887    33875 
   33858    33852    33859    33871    33885    33895    33897    33905 
   33929    33967    34002    34014    33994    33972    33971    33972 
   33951    33916    33885    33843    33790    33756    33751    33763 
   33779    33799    33804    33786    33785    33805    33812    33813 
   33818    33820    33828    33852    33864    33856    33825    33764 
   33696    33652    33643    33658    33698    33754    33801    33824 
   33829    33817    33794    33767    33747    33736    33727    33710 
   33690    33689    33713    33737    33745    33739    33724    33725 
   33774    33852    33918    33966    33991    33980    33947    33922 
   33899    33868    33859    33889    33926    33940    33948    33979 
   34036    34088    34114    34106    34069    34015    33953    33887 
   33825    33766    33698    33646    33639    33646    33629    33615 
   33612    33632    33686    33750    33804    33839    33835    33808 
   33785    33770    33760    33728    33654    33575    33528    33512 
   33540    33606    33686    33762    33813    33836    33839    33809 
   33758    33712    33663    33606    33570    33562    33586    33635 
   33683    33737    33791    33822    33837    33844    33836    33822 
   33805    33787    33789    33799    33798    33782    33763    33763 
   33783    33822    33886    33933    33936    33921    33921    33929 
   33940    33947    33941    33949    33968    33982    33994    34011 
   34010    33978    33939    33905    33867    33829    33793    33752 
   33731    33750    33805    33874    33922    33932    33920    33906 
   33895    33890    33899    33907    33905    33899    33909    33928 
   33932    33916    33895    33863    33818    33783    33758    33737 
   33724    33724    33735    33747    33741    33701    33629    33554 
   33490    33446    33431    33440    33462    33505    33574    33667 
   33770    33835    33847    33828    33794    33770    33760    33750 
   33748    33777    33824    33871    33898    33895    33872    33844 
   33831    33840    33844    33828    33799    33763    33733    33704 
   33669    33655    33664    33685    33718    33747    33759    33778 
   33826    33898    33961    33995    34009    34002    33991    34002 
   34021    34024    34001    33956    33902    33853    33825    33813 
   33822    33853    33894    33926    33955    33982    33997    33995 
   33993    33980    33966    33984    34021    34033    34013    33966 
   33905    33871    33885    33922    33934    33903    33845    33798 
   33802    33851    33887    33879    33845    33829    33852    33897 
   33921    33907    33874    33847    33816    33778    33752    33740 
   33731    33747    33804    33894    33991    34048    34045    34014 
   33979    33943    33901    33840    33756    33656    33585    33570 
   33594    33637    33675    33686    33697    33729    33770    33809 
   33832    33824    33795    33755    33710    33683    33660    33623 
   33577    33535    33516    33531    33565    33593    33604    33609 
   33628    33673    33755    33845    33906    33929    33940    33957 
   33966    33952    33925    33898    33901    33959    34041    34109 
   34150    34163    34129    34042    33918    33777    33654    33566 
   33515    33501    33515    33551    33606    33651    33678    33700 
   33725    33750    33771    33810    33878    33961    34044    34119 
   34165    34169    34149    34118    34082    34056    34034    33997 
   33948    33902    33860    33805    33721    33635    33577    33543 
   33516    33489    33455    33430    33428    33432    33420    33416 
   33458    33546    33646    33732    33808    33879    33947    34010 
   34063    34094    34105    34098    34078    34049    34024    33997 
   33980    33980    33997    34021    34030    34001    33944    33890 
   33849    33808    33771    33747    33736    33732    33739    33762 
   33795    33833    33853    33836    33785    33725    33693    33704 
   33756    33822    33874    33903    33917    33906    33885    33866 
   33849    33825    33798    33774    33751    33725    33708    33721 
   33768    33829    33903    33986    34036    34026    33980    33934 
   33902    33867    33812    33733    33648    33581    33561    33575 
   33589    33597    33613    33636    33669    33710    33748    33768 
   33774    33801    33882    33991    34067    34080    34052    34015 
   33991    33987    33991    33987    33980    33994    34034    34083 
   34114    34125    34125    34119    34113    34102    34082    34045 
   33999    33968    33959    33922    33837    33739    33655    33601 
   33569    33539    33528    33543    33563    33579    33593    33594 
   33570    33538    33527    33538    33578    33652    33739    33813 
   33876    33930    33959    33956    33929    33871    33799    33736 
   33682    33643    33623    33612    33620    33647    33664    33655 
   33625    33604    33613    33647    33693    33747    33801    33847 
   33893    33928    33922    33878    33814    33751    33712    33713 
   33739    33782    33847    33921    33986    34024    34028    34006 
   33976    33948    33925    33890    33841    33797    33771    33774 
   33794    33820    33871    33948    34018    34061    34065    34041 
   34020    33991    33930    33849    33772    33717    33685    33687 
   33744    33833    33898    33916    33922    33934    33920    33874 
   33825    33785    33743    33700    33666    33654    33655    33655 
   33662    33674    33673    33671    33696    33747    33826    33920 
   33999    34045    34041    33983    33899    33816    33745    33706 
   33683    33662    33658    33686    33723    33762    33801    33820 
   33825    33841    33858    33858    33839    33805    33760    33718 
   33702    33714    33743    33775    33802    33809    33799    33786 
   33779    33777    33771    33759    33741    33729    33731    33744 
   33763    33790    33818    33822    33804    33813    33856    33898 
   33924    33940    33945    33929    33895    33868    33853    33862 
   33889    33913    33928    33949    33976    33993    33987    33974 
   33968    33964    33956    33928    33878    33831    33794    33745 
   33675    33585    33489    33404    33365    33389    33453    33525 
   33604    33682    33750    33801    33835    33847    33847    33843 
   33817    33783    33783    33809    33828    33844    33878    33932 
   33986    34014    34014    33998    33970    33925    33876    33832 
   33777    33704    33632    33578    33569    33612    33689    33781 
   33871    33943    34006    34055    34057    34006    33928    33843 
   33760    33691    33656    33647    33662    33706    33758    33801 
   33837    33860    33876    33913    33966    34007    34038    34084 
   34150    34209    34231    34202    34134    34061    34006    33963 
   33926    33907    33906    33918    33944    33957    33944    33925 
   33909    33895    33885    33855    33785    33704    33656    33660 
   33704    33766    33849    33956    34057    34142    34207    34246 
   34264    34257    34223    34187    34152    34095    34024    33961 
   33913    33864    33810    33767    33747    33733    33724    33710 
   33667    33605    33547    33501    33469    33432    33396    33376 
   33374    33399    33444    33489    33515    33520    33515    33508 
   33502    33504    33519    33550    33596    33642    33669    33694 
   33736    33782    33822    33853    33858    33836    33808    33767 
   33706    33642    33592    33566    33570    33596    33637    33690 
   33727    33736    33729    33716    33701    33690    33698    33727 
   33760    33801    33853    33912    33959    33984    33988    33990 
   34007    34051    34109    34161    34194    34213    34211    34169 
   34091    34017    33963    33926    33902    33886    33879    33886 
   33910    33943    33967    33970    33948    33912    33862    33805 
   33754    33720    33694    33673    33659    33656    33654    33639 
   33619    33608    33610    33621    33617    33601    33596    33615 
   33650    33686    33716    33735    33764    33817    33876    33921 
   33943    33933    33903    33874    33845    33822    33817    33816 
   33795    33760    33728    33701    33685    33670    33642    33619 
   33629    33655    33662    33658    33656    33656    33662    33678 
   33706    33740    33771    33805    33839    33867    33894    33920 
   33937    33939    33924    33903    33878    33847    33818    33798 
   33790    33786    33783    33799    33849    33920    33979    34014 
   34021    34009    33983    33945    33894    33831    33759    33683 
   33617    33575    33544    33519    33512    33525    33574    33654 
   33731    33790    33826    33836    33841    33855    33870    33895 
   33926    33963    34015    34078    34134    34180    34210    34218 
   34203    34149    34075    34014    33970    33929    33901    33898 
   33909    33905    33871    33813    33762    33750    33782    33829 
   33874    33907    33928    33934    33940    33948    33940    33916 
   33890    33879    33897    33943    34001    34068    34152    34230 
   34265    34271    34275    34253    34186    34080    33955    33833 
   33745    33698    33687    33691    33686    33671    33674    33714 
   33782    33844    33882    33897    33901    33893    33867    33833 
   33809    33785    33744    33702    33675    33663    33679    33728 
   33790    33844    33885    33916    33948    33972    33976    33975 
   33971    33959    33944    33936    33925    33916    33910    33902 
   33906    33924    33934    33953    33995    34042    34090    34136 
   34149    34111    34036    33961    33917    33897    33872    33855 
   33856    33847    33817    33790    33772    33756    33728    33682 
   33639    33632    33669    33735    33801    33851    33870    33871 
   33879    33875    33844    33808    33781    33755    33740    33748 
   33772    33798    33832    33883    33932    33972    34015    34057 
   34076    34063    34026    33972    33895    33825    33787    33772 
   33762    33751    33741    33735    33732    33721    33700    33670 
   33647    33633    33615    33598    33596    33601    33608    33610 
   33600    33582    33567    33556    33542    33529    33517    33515 
   33528    33551    33578    33601    33610    33617    33632    33648 
   33663    33671    33670    33659    33642    33625    33613    33609 
   33608    33604    33602    33598    33575    33543    33519    33512 
   33519    33542    33578    33605    33629    33655    33667    33679 
   33700    33714    33728    33739    33744    33747    33750    33754 
   33758    33770    33786    33787    33782    33790    33810    33828 
   33831    33813    33781    33754    33744    33743    33743    33748 
   33754    33759    33787    33832    33870    33891    33890    33867 
   33848    33845    33847    33851    33855    33844    33824    33806 
   33782    33750    33717    33682    33643    33609    33593    33589 
   33592    33593    33583    33577    33578    33594    33620    33629 
   33615    33590    33565    33546    33543    33556    33594    33654 
   33720    33770    33793    33798    33795    33790    33783    33768 
   33751    33735    33723    33717    33714    33714    33731    33766 
   33799    33812    33812    33824    33847    33879    33916    33947 
   33966    33979    33995    34009    34002    33968    33930    33903 
   33882    33878    33883    33874    33859    33864    33887    33913 
   33926    33932    33939    33955    33986    34006    34015    34030 
   34055    34082    34107    34126    34140    34148    34148    34136 
   34111    34079    34044    34026    34029    34036    34065    34128 
   34192    34234    34244    34230    34221    34218    34213    34206 
   34191    34155    34101    34048    34001    33967    33953    33949 
   33951    33966    33983    33984    33970    33948    33930    33913 
   33903    33895    33890    33898    33918    33939    33961    33991 
   34034    34087    34123    34138    34137    34129    34128    34123 
   34091    34051    34020    33982    33937    33902    33891    33893 
   33902    33934    33976    33998    34007    34021    34036    34033 
   34015    33994    33960    33906    33862    33844    33835    33837 
   33839    33820    33797    33786    33795    33828    33866    33899 
   33922    33932    33934    33926    33905    33894    33906    33922 
   33926    33932    33940    33936    33925    33920    33913    33909 
   33901    33885    33864    33840    33818    33809    33802    33778 
   33728    33671    33632    33609    33594    33582    33579    33592 
   33617    33647    33673    33682    33683    33693    33718    33752 
   33781    33797    33809    33824    33843    33858    33849    33831 
   33806    33771    33733    33693    33644    33589    33540    33505 
   33493    33507    33521    33519    33501    33473    33446    33424 
   33404    33382    33366    33363    33369    33380    33404    33438 
   33463    33485    33517    33554    33583    33606    33621    33635 
   33643    33644    33650    33658    33644    33606    33555    33497 
   33440    33397    33374    33374    33396    33438    33490    33540 
   33571    33571    33554    33540    33534    33529    33528    33521 
   33517    33531    33558    33582    33604    33623    33640    33669 
   33705    33740    33785    33833    33868    33894    33910    33914 
   33903    33876    33841    33812    33805    33813    33817    33816 
   33816    33810    33795    33771    33743    33713    33675    33640 
   33623    33625    33639    33659    33691    33725    33756    33791 
   33822    33843    33867    33897    33914    33922    33941    33968 
   33990    34011    34036    34055    34069    34076    34071    34055 
   34036    34011    33984    33963    33945    33926    33906    33887 
   33883    33899    33926    33952    33963    33961    33961    33961 
   33961    33975    33988    33998    34003    33991    33979    33980 
   33975    33961    33957    33968    33974    33967    33968    33988 
   34001    34002    33997    33976    33964    33984    34034    34091 
   34130    34138    34126    34111    34105    34106    34103    34086 
   34068    34071    34083    34098    34129    34161    34176    34187 
   34206    34221    34217    34192    34155    34121    34092    34065 
   34040    34006    33970    33953    33943    33922    33891    33852 
   33813    33791    33783    33790    33809    33824    33825    33832 
   33845    33862    33878    33890    33883    33864    33859    33868 
   33887    33918    33948    33967    33990    34013    34024    34028 
   34026    34013    34001    33986    33959    33925    33901    33890 
   33882    33864    33841    33821    33806    33798    33791    33787 
   33778    33759    33743    33728    33704    33674    33652    33644 
   33659    33689    33713    33721    33721    33716    33701    33677 
