Origin Time       2024/04/02 04:24:00
Lat.              40.133
Long.             141.712
Depth. (km)       71
Mag.              6.0
Station Code      ABSH06
Station Lat.      44.2146
Station Long.     143.6202
Station Height(m) -93
Record Time       2024/04/02 04:25:41
Sampling Freq(Hz) 100Hz
Duration Time(s)  130
Dir.              3
Scale Factor      2940(gal)/6170270
Max. Acc. (gal)   0.194
Last Correction   2024/04/02 04:25:26
Memo.             
[...]
   40045    40043    40044    40045    40045    40044    40043    40044 
   40047    40048    40047    40046    40047    40046    40045    40046 
   40047    40046    40046    40046    40046    40047    40047    40047 
   40046    40047    40047    40047    40047    40047    40047    40048 
   40047    40047    40048    40048    40046    40046    40048    40050 
   40051    40048    40048    40050    40050    40048    40047    40046 
   40048    40051    40050    40048    40049    40048    40047    40048 
   40049    40048    40049    40049    40050    40050    40048    40046 
   40046    40048    40049    40047    40048    40050    40047    40046 
   40049    40048    40046    40047    40047    40046    40046    40046 
   40046    40045    40045    40046    40046    40046    40046    40044 
   40046    40047    40045    40045    40046    40045    40047    40047 
   40046    40046    40047    40044    40044    40046    40046    40045 
   40045    40046    40045    40045    40045    40045    40047    40048 
   40047    40045    40046    40048    40048    40047    40047    40048 
   40047    40045    40045    40046    40046    40046    40047    40046 
   40044    40046    40047    40046    40048    40047    40046    40048 
   40047    40046    40047    40045    40046    40049    40049    40046 
   40046    40048    40047    40048    40049    40048    40048    40048 
   40047    40047    40049    40050    40050    40048    40047    40048 
   40048    40048    40049    40049    40048    40049    40050    40049 
   40047    40047    40047    40049    40050    40048    40047    40048 
   40047    40047    40050    40050    40048    40048    40050    40051 
   40050    40049    40048    40047    40049    40048    40046    40048 
   40048    40047    40048    40048    40046    40047    40047    40045 
   40046    40048    40047    40044    40046    40047    40044    40042 
   40044    40044    40043    40043    40044    40046    40045    40042 
   40044    40044    40041    40041    40043    40044    40044    40044 
   40043    40043    40044    40046    40046    40044    40044    40044 
   40044    40045    40046    40046    40046    40046    40047    40046 
   40046    40047    40046    40046    40048    40048    40048    40050 
   40049    40047    40050    40050    40048    40049    40051    40049 
   40051    40053    40049    40047    40048    40049    40049    40050 
   40050    40049    40048    40048    40049    40050    40048    40048 
   40049    40048    40048    40047    40047    40048    40048    40047 
   40048    40048    40046    40047    40049    40048    40048    40048 
   40047    40047    40048    40047    40045    40047    40047    40046 
   40047    40047    40045    40045    40044    40043    40045    40046 
   40047    40047    40044    40044    40045    40045    40046    40046 
   40044    40043    40044    40044    40044    40043    40042    40043 
   40044    40045    40043    40043    40045    40045    40045    40044 
   40045    40045    40045    40045    40045    40046    40047    40045 
   40045    40047    40045    40044    40045    40046    40045    40045 
   40048    40048    40047    40048    40047    40047    40047    40046 
   40047    40047    40047    40048    40047    40046    40046    40046 
   40048    40048    40047    40047    40045    40045    40048    40048 
   40047    40046    40049    40050    40048    40047    40049    40048 
   40049    40050    40047    40047    40049    40049    40047    40046 
   40049    40047    40046    40049    40049    40048    40050    40048 
   40046    40047    40048    40048    40046    40046    40047    40046 
   40045    40045    40044    40045    40045    40045    40045    40043 
   40045    40048    40045    40043    40047    40046    40042    40043 
   40045    40044    40043    40044    40045    40044    40046    40047 
   40043    40042    40044    40043    40043    40045    40043    40043 
   40044    40044    40044    40046    40047    40045    40044    40045 
   40044    40043    40044    40044    40045    40046    40042    40042 
   40047    40045    40044    40046    40045    40045    40047    40047 
   40046    40046    40045    40045    40048    40048    40047    40049 
   40048    40046    40047    40048    40048    40045    40044    40047 
   40048    40046    40048    40051    40049    40049    40048    40047 
   40048    40048    40048    40049    40048    40048    40050    40049 
   40049    40050    40049    40048    40050    40051    40051    40051 
   40051    40049    40048    40048    40048    40047    40047    40050 
   40050    40048    40047    40048    40047    40047    40048    40048 
   40047    40047    40047    40047    40047    40048    40047    40046 
   40046    40045    40045    40045    40046    40044    40043    40044 
   40044    40044    40045    40045    40044    40045    40044    40044 
   40044    40043    40043    40046    40046    40043    40042    40043 
   40044    40044    40042    40042    40044    40043    40044    40045 
   40043    40043    40044    40044    40045    40045    40044    40046 
   40047    40046    40045    40044    40045    40045    40046    40046 
   40046    40044    40045    40046    40045    40047    40047    40047 
   40047    40048    40048    40048    40048    40046    40047    40046 
   40046    40049    40048    40047    40049    40050    40049    40049 
   40048    40048    40050    40050    40049    40050    40049    40046 
   40049    40051    40049    40047    40047    40050    40051    40048 
   40048    40048    40048    40048    40048    40048    40049    40050 
   40048    40048    40048    40048    40048    40046    40045    40047 
   40047    40045    40045    40046    40047    40047    40047    40046 
   40046    40046    40046    40044    40043    40045    40045    40043 
   40045    40046    40044    40044    40046    40045    40045    40045 
   40045    40044    40045    40045    40042    40044    40046    40044 
   40045    40047    40045    40042    40045    40045    40043    40045 
   40046    40046    40046    40045    40045    40046    40044    40044 
   40046    40046    40046    40048    40048    40046    40045    40046 
   40049    40048    40047    40047    40047    40047    40047    40047 
   40047    40047    40046    40047    40048    40048    40048    40048 
   40048    40049    40048    40047    40049    40049    40047    40048 
   40050    40048    40046    40047    40048    40048    40049    40050 
   40048    40046    40047    40048    40047    40047    40048    40047 
   40046    40045    40045    40045    40044    40045    40045    40044 
   40046    40046    40044    40045    40045    40046    40047    40046 
   40044    40044    40044    40044    40044    40044    40043    40043 
   40046    40046    40045    40046    40046    40045    40046    40045 
   40045    40046    40046    40046    40049    40047    40045    40047 
   40047    40044    40046    40046    40045    40047    40048    40049 
   40050    40047    40046    40047    40046    40046    40048    40049 
   40047    40046    40050    40051    40048    40047    40048    40048 
   40049    40049    40048    40045    40044    40046    40047    40047 
   40048    40047    40046    40047    40048    40046    40044    40047 
   40047    40045    40046    40045    40045    40046    40044    40045 
   40047    40045    40045    40046    40046    40044    40044    40046 
   40044    40043    40044    40045    40045    40045    40045    40045 
   40045    40044    40046    40046    40044    40045    40046    40044 
   40045    40047    40046    40046    40046    40046    40046    40047 
   40048    40047    40046    40047    40048    40047    40046    40047 
   40049    40048    40047    40048    40050    40049    40047    40048 
   40047    40047    40049    40049    40047    40048    40050    40049 
   40048    40050    40048    40046    40047    40047    40047    40046 
   40047    40047    40046    40046    40047    40046    40047    40046 
   40045    40047    40048    40047    40047    40047    40045    40044 
   40045    40047    40048    40046    40045    40046    40046    40044 
   40045    40047    40047    40047    40047    40048    40046    40046 
   40048    40048    40046    40046    40047    40046    40046    40046 
   40046    40046    40048    40047    40047    40048    40049    40047 
   40046    40046    40045    40046    40046    40045    40047    40046 
   40044    40044    40044    40045    40046    40045    40047    40048 
   40048    40048    40047    40045    40045    40045    40045    40044 
   40044    40045    40046    40045    40045    40046    40046    40045 
   40043    40043    40046    40047    40046    40046    40048    40047 
   40045    40045    40049    40048    40046    40047    40047    40046 
   40045    40046    40046    40045    40046    40046    40045    40046 
   40047    40045    40045    40048    40047    40045    40047    40048 
   40047    40049    40050    40050    40049    40049    40048    40048 
   40048    40049    40050    40048    40048    40049    40048    40047 
   40049    40049    40047    40048    40049    40048    40047    40048 
   40048    40048    40048    40047    40048    40050    40049    40046 
   40047    40046    40045    40047    40047    40046    40046    40046 
   40047    40047    40044    40043    40045    40045    40044    40046 
   40046    40044    40043    40046    40047    40044    40044    40046 
   40044    40043    40045    40044    40044    40043    40042    40043 
   40043    40043    40045    40045    40043    40043    40043    40043 
   40044    40043    40043    40044    40044    40044    40045    40044 
   40044    40048    40048    40047    40048    40048    40047    40046 
   40045    40044    40042    40040    40039    40037    40035    40035 
   40038    40041    40047    40052    40054    40054    40053    40052 
   40050    40048    40048    40046    40040    40032    40023    40017 
   40015    40017    40026    40039    40056    40072    40080    40081 
   40079    40074    40064    40055    40046    40035    40019    40000 
   39989    39993    40007    40029    40056    40081    40100    40108 
   40099    40080    40061    40038    40013    39999    39999    40003 
   40006    40006    40010    40027    40054    40079    40092    40091 
   40083    40070    40053    40034    40016    40001    40004    40027 
   40051    40061    40053    40039    40035    40044    40051    40042 
   40020    40008    40022    40050    40067    40067    40073    40089 
   40099    40089    40050    39987    39936    39930    39967    40036 
   40109    40148    40148    40125    40086    40040    40012    40024 
   40078    40144    40190    40193    40145    40054    39955    39885 
   39875    39938    40051    40164    40233    40238    40172    40062 
   39954    39896    39930    40049    40177    40250    40249    40161 
   40012    39871    39802    39836    39970    40132    40248    40307 
   40298    40204    40052    39898    39822    39876    39997    40099 
   40167    40192    40145    40046    39952    39909    39947    40048 
   40146    40193    40189    40154    40100    40031    39949    39892 
   39909    39985    40072    40141    40140    40037    39917    39890 
   39940    40000    40045    40060    40064    40096    40129    40093 
   39991    39916    39946    40041    40083    40009    39881    39841 
   39948    40068    40074    40014    39981    40021    40142    40257 
   40241    40096    39960    39941    40040    40172    40213    40120 
   40003    39966    39998    40017    39965    39874    39841    39894 
   39977    40043    40063    40040    40046    40111    40188    40235 
   40207    40099    40012    40025    40053    40009    39933    39860 
   39771    39735    39858    40071    40197    40195    40153    40145 
   40187    40199    40113    39993    39923    39931    40031    40140 
   40149    40078    39988    39964    40074    40172    40126    40059 
   40061    40117    40217    40245    40093    39904    39864    39970 
   40099    40105    39964    39857    39907    40010    40051    40027 
   40001    40063    40229    40379    40407    40327    40220    40168 
   40140    40051    39939    39857    39813    39899    40098    40212 
   40197    40172    40163    40136    40106    40119    40141    40057 
   39891    39827    39918    40017    39995    39889    39803    39815 
   39972    40176    40216    40086    39993    40025    40104    40142 
   40092    40018    40054    40184    40244    40159    39999    39868 
   39817    39821    39845    39933    40097    40223    40244    40215 
   40156    40027    39847    39730    39795    39992    40155    40216 
   40198    40123    40020    39936    39872    39819    39822    39906 
   39992    40004    39976    39976    39979    39946    39969    40123 
   40299    40360    40289    40159    40065    40029    39986    39899 
   39816    39867    40082    40246    40263    40301    40378    40356 
   40222    40022    39857    39883    40010    40048    40062    40086 
   39966    39792    39762    39783    39773    39827    39933    40075 
   40266    40336    40213    40108    40115    40160    40206    40198 
   40158    40183    40176    40038    39889    39793    39772    39905 
   40098    40225    40314    40323    40215    40121    40089    40001 
   39891    39918    40045    40133    40144    40068    39972    40002 
   40139    40207    40151    40065    40025    40053    40141    40199 
   40112    39881    39666    39639    39818    40023    40092    40080 
   40088    40117    40178    40244    40211    40085    40012    40056 
   40145    40160    40022    39863    39918    40107    40145    40024 
   39928    39904    39934    40018    40080    40092    40166    40277 
   40273    40147    39974    39842    39833    39840    39777    39789 
   39873    39868    39852    39933    40006    40028    40078    40190 
   40330    40397    40311    40125    39964    39892    39921    40033 
   40089    40002    39900    39876    39897    39958    40029    40061 
   40091    40167    40252    40273    40214    40130    40081    40103 
   40142    40121    40089    40056    39944    39811    39742    39760 
   39903    40073    40123    40114    40139    40151    40130    40119 
   40111    40046    39895    39743    39736    39844    39896    39908 
   39978    40082    40207    40298    40258    40191    40179    40139 
   40114    40151    40152    40145    40171    40087    39927    39913 
   40045    40166    40170    40029    39885    39862    39874    39882 
   39965    40092    40161    40182    40225    40278    40206    39985 
   39867    39975    40085    40075    40038    40008    40010    40059 
   40056    39996    40037    40177    40244    40216    40169    40079 
   39974    39949    39961    39937    39923    39973    40053    40077 
   40022    39992    40055    40098    40034    39979    39994    39985 
   39967    40038    40121    40098    40018    39979    39991    40023 
   40036    39992    39938    39992    40128    40124    39931    39832 
   39949    40098    40199    40225    40111    39992    39970    39978 
   40045    40112    40018    39911    39974    40119    40273    40337 
   40203    40031    39997    40054    40084    40005    39897    39906 
   40006    40110    40183    40203    40172    40095    40006    39942 
   39875    39820    39870    40020    40146    40196    40197    40153 
   40093    40053    40040    40072    40100    40033    39968    40052 
   40198    40248    40208    40155    40109    40064    40009    39940 
   39875    39832    39843    39943    40096    40221    40268    40228 
   40189    40174    40085    40013    40107    40219    40181    40075 
   39980    39906    39893    39940    40004    40066    40113    40135 
   40134    40076    39962    39920    39989    40029    39992    39960 
   39973    40008    40030    40013    39952    39921    40009    40179 
   40291    40262    40150    40060    39988    39899    39890    40002 
   40098    40106    40063    39963    39845    39816    39884    39991 
   40115    40202    40170    40049    39935    39888    39914    39933 
   39888    39838    39848    39952    40099    40134    40035    39947 
   39968    40088    40216    40239    40181    40149    40133    40072 
   39986    39898    39856    39909    40006    40088    40144    40150 
   40138    40160    40143    40048    40000    40051    40102    40115 
   40106    40066    40076    40168    40193    40116    40069    40046 
   39993    39982    39992    39911    39808    39818    39914    39992 
   40036    40078    40113    40132    40149    40147    40103    40030 
   39976    40021    40146    40212    40171    40137    40180    40227 
   40224    40155    39994    39878    39957    40105    40148    40124 
   40134    40172    40154    40057    39991    40017    40055    40056 
   40049    40054    40059    40041    40019    40029    40075    40144 
   40200    40179    40099    40039    40025    40038    40061    40070 
   40044    40015    40017    40027    40023    39995    39929    39883 
   39937    40032    40058    40025    39977    39948    40002    40097 
   40115    40062    39971    39863    39830    39887    39934    39952 
   39975    39991    39972    39942    39935    39885    39807    39839 
   39955    40041    40093    40095    40021    39937    39892    39886 
   39923    39956    39963    40028    40154    40226    40245    40269 
   40254    40187    40154    40183    40196    40163    40113    40040 
   39961    39947    40002    40066    40124    40144    40121    40122 
   40163    40173    40112    40031    40022    40088    40147    40148 
   40109    40070    40040    39994    39950    39948    39963    39979 
   40028    40097    40142    40160    40145    40116    40139    40174 
   40117    39999    39929    39935    39981    40011    39987    39987 
   40090    40214    40244    40175    40079    40033    40049    40072 
   40065    40055    40056    40053    40059    40065    40030    39978 
   39983    40054    40116    40114    40070    40039    40061    40133 
   40188    40167    40104    40051    40015    40000    39988    39952 
   39926    39955    40010    40028    40008    39995    39995    39966 
   39911    39896    39935    39975    40006    40036    40041    40026 
   40004    39978    39960    39941    39936    39964    39960    39890 
   39843    39866    39902    39923    39954    40009    40084    40153 
   40160    40088    40014    40006    40053    40112    40132    40104 
   40085    40096    40107    40112    40099    40067    40067    40090 
   40101    40119    40121    40096    40099    40123    40120    40120 
   40140    40148    40166    40213    40233    40193    40133    40071 
   40005    39995    40054    40074    40012    39968    39999    40059 
   40090    40062    39985    39953    40031    40126    40133    40089 
   40074    40090    40082    40027    39967    39944    39976    40056 
   40139    40161    40129    40095    40070    40067    40071    40042 
   40049    40144    40200    40145    40069    40021    39977    39935 
   39907    39904    39916    39946    40036    40160    40211    40156 
   40063    40012    40013    40004    39971    39991    40035    39999 
   39945    39976    40030    40031    40009    40014    40030    40024 
