Origin Time       2024/04/02 04:24:00
Lat.              40.133
Long.             141.712
Depth. (km)       71
Mag.              6.0
Station Code      ABSH09
Station Lat.      43.9269
Station Long.     144.8071
Station Height(m) -117
Record Time       2024/04/02 04:26:32
Sampling Freq(Hz) 100Hz
Duration Time(s)  120
Dir.              3
Scale Factor      2942(gal)/8224139
Max. Acc. (gal)   0.108
Last Correction   2024/04/02 04:26:32
Memo.             
[...]
   81062    81081    81116    81137    81144    81147    81163    81191 
   81195    81167    81141    81137    81147    81147    81124    81082 
   81047    81047    81074    81101    81129    81162    81153    81121 
   81121    81140    81143    81153    81172    81166    81145    81129 
   81095    81051    81025    81018    81021    81028    81018    80998 
   81009    81062    81114    81144    81151    81137    81110    81078 
   81040    80990    80952    80950    80963    80977    81010    81072 
   81112    81095    81071    81086    81112    81109    81082    81043 
   81020    81047    81094    81116    81121    81130    81126    81114 
   81125    81155    81170    81170    81170    81151    81110    81089 
   81085    81064    81031    81009    80993    80964    80946    80977 
   81044    81101    81135    81144    81116    81075    81068    81086 
   81087    81072    81056    81044    81024    80997    80981    80990 
   81004    81004    81008    81025    81045    81070    81095    81122 
   81147    81139    81079    81006    80971    80959    80959    81009 
   81082    81087    81037    81009    81022    81066    81117    81144 
   81140    81137    81148    81160    81167    81174    81167    81126 
   81070    81048    81085    81151    81194    81194    81190    81198 
   81205    81206    81193    81166    81155    81164    81168    81155 
   81112    81066    81079    81112    81091    81060    81064    81068 
   81083    81125    81167    81187    81186    81149    81102    81095 
   81126    81133    81091    81032    80986    80994    81052    81095 
   81112    81121    81098    81056    81055    81095    81137    81170 
   81184    81184    81184    81176    81147    81126    81124    81118 
   81113    81114    81117    81118    81136    81170    81190    81175 
   81129    81071    81037    81041    81047    81037    81060    81121 
   81148    81129    81133    81174    81190    81172    81163    81162 
   81130    81076    81039    81021    81017    81022    81028    81029 
   81062    81125    81176    81187    81164    81121    81071    81041 
   81035    81024    80998    80974    80954    80946    80974    81032 
   81076    81081    81066    81081    81114    81132    81130    81125 
   81102    81059    81027    81013    81012    81028    81043    81035 
   81043    81086    81116    81102    81085    81099    81120    81102 
   81066    81062    81083    81099    81114    81139    81156    81156 
   81145    81132    81129    81139    81147    81144    81141    81139 
   81128    81101    81060    81027    81029    81059    81068    81051 
   81052    81089    81121    81125    81132    81152    81148    81110 
   81078    81083    81098    81091    81097    81129    81139    81118 
   81108    81095    81064    81048    81056    81054    81035    81027 
   81037    81066    81091    81090    81074    81062    81051    81055 
   81082    81106    81113    81108    81082    81045    81032    81043 
   81055    81076    81112    81140    81152    81149    81125    81091 
   81067    81051    81036    81028    81035    81039    81024    81025 
   81072    81125    81153    81164    81152    81140    81171    81206 
   81191    81166    81156    81128    81078    81041    81022    81012 
   81010    81013    81022    81066    81141    81205    81234    81247 
   81245    81221    81189    81164    81155    81155    81135    81093 
   81054    81018    80986    80987    81020    81049    81068    81081 
   81079    81072    81079    81098    81120    81144    81153    81141 
   81116    81082    81067    81095    81133    81141    81122    81099 
   81093    81103    81108    81082    81043    81014    81001    81004 
   81012    81010    81012    81033    81067    81093    81106    81122 
   81152    81162    81128    81090    81102    81141    81128    81071 
   81059    81089    81103    81110    81126    81130    81126    81133 
   81126    81095    81067    81048    81018    81000    81020    81045 
   81048    81056    81086    81112    81132    81155    81172    81182 
   81184    81183    81178    81172    81166    81152    81139    81128 
   81103    81076    81067    81060    81063    81097    81129    81128 
   81129    81157    81170    81155    81159    81176    81166    81137 
   81132    81136    81121    81106    81106    81090    81052    81044 
   81075    81099    81090    81059    81041    81064    81108    81130 
   81124    81099    81063    81022    81009    81039    81087    81118 
   81124    81121    81128    81129    81105    81060    81010    80987 
   81009    81036    81037    81024    81006    80987    80994    81032 
   81064    81075    81071    81068    81097    81144    81156    81121 
   81079    81047    81027    81017    81006    81001    81028    81060 
   81066    81070    81079    81062    81052    81099    81148    81135 
   81105    81097    81078    81035    81008    81010    81005    80986 
   80989    81029    81091    81148    81182    81195    81190    81160 
   81136    81128    81099    81068    81090    81129    81113    81068 
   81075    81128    81167    81172    81170    81175    81190    81211 
   81218    81194    81149    81105    81070    81035    81008    81025 
   81076    81118    81140    81151    81144    81129    81132    81136 
   81121    81097    81068    81049    81060    81085    81094    81091 
   81074    81041    81016    81018    81052    81074    81058    81051 
   81070    81086    81093    81087    81070    81067    81086    81124 
   81174    81221    81272    81306    81272    81207    81187    81178 
   81128    81067    81022    81006    81033    81086    81130    81164 
   81198    81243    81280    81276    81243    81222    81224    81224 
   81203    81166    81128    81102    81064    81017    81001    81028 
   81056    81059    81058    81075    81101    81116    81113    81101 
   81094    81082    81047    81018    81022    81028    81014    81006 
   81033    81064    81078    81090    81093    81076    81079    81103 
   81099    81070    81051    81041    81025    81004    80985    80990 
   81025    81059    81071    81094    81137    81162    81163    81175 
   81178    81151    81106    81064    81044    81047    81041    81037 
   81064    81102    81114    81109    81116    81144    81167    81163 
   81166    81197    81199    81155    81117    81087    81035    80995 
   80998    81000    80993    81020    81064    81078    81066    81054 
   81066    81094    81117    81128    81128    81126    81122    81110 
   81102    81110    81095    81044    80990    80967    81002    81067 
   81081    81049    81051    81078    81055    80991    80985    81049 
   81095    81102    81116    81143    81164    81182    81184    81184 
   81182    81147    81076    81018    81005    81021    81037    81041 
   81045    81071    81118    81155    81172    81172    81174    81202 
   81232    81209    81148    81103    81068    81022    80971    80936 
   80927    80935    80973    81040    81105    81139    81148    81141 
   81122    81095    81066    81048    81045    81058    81074    81094 
   81120    81137    81122    81095    81098    81114    81095    81048 
   81022    81033    81074    81116    81102    81049    81029    81043 
   81066    81124    81184    81183    81159    81160    81157    81148 
   81151    81116    81022    80950    80941    80975    81029    81070 
   81070    81045    81013    80998    81012    81016    81008    81028 
   81074    81090    81070    81074    81124    81178    81216    81229 
   81206    81145    81090    81072    81079    81086    81087    81070 
   81055    81067    81087    81091    81083    81072    81081    81118 
   81140    81126    81118    81120    81110    81117    81152    81170 
   81148    81133    81155    81180    81174    81143    81116    81087 
   81043    81010    81027    81060    81082    81116    81172    81199 
   81164    81113    81094    81101    81114    81113    81059    81002 
   81031    81098    81114    81103    81110    81120    81136    81179 
   81211    81205    81170    81122    81074    81041    81025    81012 
   81008    81041    81095    81121    81116    81122    81152    81172 
   81167    81149    81124    81093    81070    81064    81066    81086 
   81112    81095    81062    81085    81157    81222    81251    81226 
   81180    81166    81166    81129    81068    81039    81035    81022 
   81018    81037    81047    81048    81059    81058    81055    81091 
   81147    81160    81141    81129    81117    81079    81029    81000 
   80983    80959    80952    80977    80993    81020    81101    81187 
   81206    81164    81116    81094    81090    81064    81032    81041 
   81066    81055    81035    81037    81041    81043    81066    81108 
   81132    81117    81109    81139    81160    81153    81157    81156 
   81109    81056    81066    81109    81117    81105    81124    81153 
   81170    81186    81199    81178    81129    81101    81116    81139 
   81149    81166    81174    81137    81087    81085    81108    81108 
   81093    81098    81122    81136    81148    81167    81166    81143 
   81132    81139    81130    81112    81112    81129    81139    81132 
   81117    81094    81068    81059    81051    81031    81022    81033 
   81035    81012    80981    80982    81025    81058    81062    81076 
   81112    81128    81118    81101    81086    81076    81060    81037 
   81047    81113    81176    81170    81120    81101    81110    81101 
   81067    81031    81020    81054    81093    81102    81099    81102 
   81102    81113    81148    81197    81244    81267    81245    81218 
   81205    81178    81144    81120    81086    81055    81047    81056 
   81074    81086    81083    81094    81118    81117    81097    81106 
   81145    81164    81157    81140    81112    81059    80994    80960 
   80963    80968    80986    81043    81091    81087    81074    81101 
   81148    81151    81083    81016    81014    81047    81049    81022 
   80994    80979    80983    81014    81066    81116    81149    81160 
   81136    81090    81070    81094    81122    81120    81095    81089 
   81108    81114    81094    81078    81066    81035    80995    80977 
   80994    81035    81078    81109    81102    81067    81039    81035 
   81049    81081    81112    81125    81133    81162    81184    81172 
   81140    81110    81066    81001    80970    80990    81006    80990 
   80991    81041    81098    81125    81128    81126    81126    81129 
   81139    81145    81118    81055    80997    80978    80974    80956 
   80950    80958    80954    80956    80997    81062    81099    81091 
   81063    81041    81036    81036    81032    81031    81041    81058 
   81076    81101    81105    81081    81049    81041    81063    81085 
   81068    81032    81020    81024    81025    81024    81020    81014 
   81033    81097    81163    81182    81178    81175    81159    81128 
   81093    81056    81041    81071    81122    81172    81222    81268 
   81282    81261    81247    81247    81217    81144    81070    81036 
   81056    81106    81162    81214    81229    81198    81168    81168 
   81202    81272    81334    81355    81361    81361    81319    81260 
   81220    81174    81129    81112    81105    81102    81109    81117 
   81117    81098    81070    81067    81094    81105    81094    81095 
   81121    81147    81162    81151    81110    81071    81064    81072 
   81071    81066    81081    81118    81152    81156    81139    81130 
   81141    81153    81166    81180    81187    81179    81176    81184 
   81193    81201    81195    81174    81176    81190    81186    81211 
   81249    81228    81152    81083    81045    81043    81056    81056 
   81032    81005    80993    81006    81041    81081    81109    81135 
   81155    81157    81141    81129    81148    81187    81197    81156 
   81106    81079    81063    81049    81043    81021    80989    80973 
   80968    80964    80970    80983    80983    80979    80990    81013 
   81009    80963    80921    80929    80958    80962    80943    80937 
   80974    81055    81141    81191    81194    81180    81172    81151 
   81113    81074    81044    81037    81059    81078    81066    81032 
   80998    80963    80908    80852    80850    80900    80939    80958 
   81004    81064    81083    81056    81009    80964    80954    80975 
   81001    81035    81079    81121    81145    81120    81052    81001 
   80982    80960    80947    80977    81028    81062    81079    81099 
   81118    81120    81103    81078    81045    81041    81074    81091 
   81081    81090    81129    81166    81176    81137    81054    81001 
   81022    81063    81078    81093    81113    81094    81049    81058 
   81122    81197    81252    81276    81270    81267    81284    81290 
   81248    81191    81149    81101    81036    80970    80917    80900 
   80904    80898    80935    81062    81197    81243    81216    81187 
   81186    81178    81140    81091    81056    81049    81052    81067 
   81120    81194    81249    81260    81209    81109    81009    80931 
   80871    80858    80920    81041    81128    81110    81051    81029 
   81041    81072    81143    81233    81295    81303    81256    81190 
   81148    81121    81089    81075    81093    81124    81162    81197 
   81198    81183    81199    81237    81259    81245    81198    81140 
   81105    81105    81133    81175    81221    81256    81279    81321 
   81382    81398    81341    81255    81194    81176    81182    81182 
   81162    81141    81145    81163    81174    81180    81163    81117 
   81083    81079    81078    81047    80987    80966    81014    81051 
   81024    80989    80990    80986    80963    80981    81043    81067 
   81043    81049    81087    81074    81017    81002    81022    81024 
   81028    81066    81112    81149    81179    81194    81201    81198 
   81167    81132    81120    81109    81110    81144    81166    81168 
   81203    81253    81257    81211    81152    81102    81062    81020 
   80971    80935    80928    80947    80968    80985    81005    81037 
   81074    81086    81070    81045    81010    80970    80951    80960 
   80997    81054    81106    81129    81133    81135    81121    81087 
   81059    81062    81076    81072    81048    81036    81045    81044 
   81033    81055    81114    81176    81229    81272    81257    81170 
   81091    81051    81005    80978    80995    81017    81027    81059 
   81108    81121    81112    81106    81074    81032    81059    81125 
   81124    81064    81027    81028    81048    81081    81129    81157 
   81103    80991    80933    80950    80939    80893    80914    81010 
   81082    81097    81090    81051    80979    80950    80993    81064 
   81130    81162    81147    81112    81074    81032    81000    80994 
   81029    81106    81197    81245    81237    81203    81172    81166 
   81186    81203    81214    81237    81257    81251    81233    81234 
   81253    81264    81263    81260    81241    81199    81156    81122 
   81113    81135    81148    81135    81114    81078    81013    80941 
   80905    80941    81031    81098    81124    81149    81189    81195 
   81155    81105    81062    81027    81004    80993    80998    81008 
   80997    80995    81022    81024    80998    80997    81009    81033 
   81087    81116    81082    81037    81008    80989    81013    81078 
   81148    81210    81276    81338    81367    81326    81253    81233 
   81268    81295    81306    81288    81205    81098    81064    81091 
   81118    81136    81156    81186    81214    81210    81168    81132 
   81120    81098    81070    81071    81091    81090    81048    80968 
   80900    80866    80850    80855    80909    80981    81024    81028 
   80997    80941    80886    80860    80870    80892    80920    80989 
   81076    81135    81182    81248    81295    81274    81190    81091 
   81036    81063    81122    81125    81087    81090    81133    81168 
   81182    81178    81152    81105    81074    81090    81130    81159 
   81155    81103    81040    81005    80978    80948    80956    80986 
   80995    81016    81060    81081    81055    81004    80960    80973 
   81029    81068    81095    81152    81207    81211    81191    81167 
   81106    81048    81063    81110    81148    81213    81284    81282 
   81220    81166    81118    81040    80960    80939    80974    81035 
   81122    81211    81228    81160    81090    81081    81095    81074 
   81036    81049    81126    81211    81260    81260    81193    81063 
   80951    80920    80944    81002    81101    81202    81253    81263 
   81252    81184    81056    80951    80939    80995    81035    81025 
   81028    81067    81089    81071    81040    81010    80990    80986 
   80998    81018    81032    81060    81116    81157    81175    81206 
   81240    81252    81263    81270    81247    81213    81201    81211 
   81228    81221    81175    81122    81125    81175    81190    81132 
   81048    81013    81067    81156    81195    81191    81175    81132 
   81075    81028    80987    80981    81021    81060    81063    81037 
   81000    80967    80951    80928    80878    80828    80827    80874 
   80923    80947    80962    80962    80954    80974    81037    81102 
   81118    81098    81103    81159    81213    81220    81209    81218 
   81243    81264    81260    81224    81174    81120    81082    81081 
   81091    81083    81068    81076    81114    81168    81216    81240 
   81245    81249    81252    81252    81261    81257    81226    81209 
   81216    81203    81180    81153    81108    81066    81055    81040 
   81013    81018    81076    81151    81203    81228    81211    81159 
   81110    81085    81067    81051    81029    80989    80951    80970 
   81031    81060    81048    81035    81027    81014    80995    80981 
   80982    80979    80955    80943    80967    81009    81055    81072 
   81043    81031    81082    81130    81145    81174    81225    81260 
   81278    81294    81292    81245    81157    81068    81020    81032 
   81083    81147    81202    81225    81221    81220    81222    81218 
   81198    81174    81160    81129    81089    81081    81086    81044 
   80971    80931    80928    80928    80935    80958    80968    80983 
   81035    81091    81125    81130    81089    81037    81035    81033 
   81013    81029    81066    81081    81098    81126    81149    81159 
   81139    81085    81037    81027    81041    81055    81037    81000 
   80993    81002    80987    80964    80954    80959    81013    81098 
   81149    81159    81164    81152    81106    81058    81045    81074 
   81106    81125    81139    81145    81135    81110    81089    81094 
   81135    81164    81148    81102    81056    81021    81000    80995 
   81008    81047    81093    81108    81091    81078    81071    81052 
   81021    80989    80978    81020    81074    81063    81009    80986 
   80983    80967    80952    80962    81013    81090    81130    81109 
   81066    81039    81051    81124    81202    81205    81155    81141 
   81160    81149    81128    81151    81211    81272    81315    81341 
   81356    81357    81338    81325    81324    81317    81295    81245 
   81172    81125    81103    81082    81079    81090    81099    81118 
