Origin Time       2024/04/02 04:24:00
Lat.              40.133
Long.             141.712
Depth. (km)       71
Mag.              6.0
Station Code      ABSH07
Station Lat.      43.8494
Station Long.     143.0861
Station Height(m) 572
Record Time       2024/04/02 04:26:25
Sampling Freq(Hz) 100Hz
Duration Time(s)  120
Dir.              3
Scale Factor      2942(gal)/8224139
Max. Acc. (gal)   0.189
Last Correction   2024/04/02 04:26:25
Memo.             
[...]
  -34973   -34974   -34951   -34904   -34869   -34857   -34851   -34858 
  -34885   -34911   -34915   -34909   -34890   -34866   -34852   -34840 
  -34835   -34852   -34869   -34848   -34812   -34801   -34825   -34842 
  -34847   -34875   -34920   -34954   -34970   -34956   -34932   -34919 
  -34906   -34888   -34869   -34855   -34862   -34893   -34924   -34943 
  -34975   -35009   -34996   -34955   -34936   -34942   -34950   -34956 
  -34959   -34959   -34954   -34927   -34897   -34894   -34913   -34942 
  -34969   -34969   -34959   -34977   -34997   -34993   -34985   -34992 
  -35009   -35032   -35041   -35046   -35060   -35074   -35071   -35062 
  -35056   -35059   -35063   -35058   -35056   -35064   -35068   -35071 
  -35066   -35048   -35044   -35050   -35037   -35025   -35031   -35041 
  -35058   -35066   -35046   -35020   -35010   -35008   -35008   -35010 
  -35019   -35025   -35019   -35012   -35010   -35004   -34998   -35006 
  -35009   -35006   -35020   -35037   -35043   -35058   -35077   -35078 
  -35073   -35073   -35073   -35067   -35052   -35044   -35051   -35043 
  -35012   -34974   -34931   -34897   -34894   -34913   -34925   -34928 
  -34927   -34932   -34944   -34938   -34890   -34842   -34825   -34830 
  -34836   -34851   -34875   -34885   -34886   -34902   -34913   -34913 
  -34927   -34951   -34971   -34981   -34973   -34965   -34970   -34975 
  -34973   -34956   -34931   -34916   -34923   -34928   -34927   -34929 
  -34931   -34938   -34943   -34938   -34940   -34951   -34948   -34942 
  -34938   -34925   -34919   -34931   -34954   -34970   -34983   -34998 
  -35010   -35017   -35021   -35016   -35009   -35006   -34992   -34969 
  -34955   -34951   -34954   -34951   -34935   -34912   -34889   -34859 
  -34831   -34830   -34869   -34911   -34906   -34870   -34842   -34835 
  -34834   -34834   -34830   -34830   -34850   -34881   -34902   -34924 
  -34946   -34959   -34966   -34966   -34966   -34985   -35012   -35028 
  -35036   -35048   -35063   -35074   -35068   -35048   -35032   -35025 
  -35023   -35025   -35033   -35029   -35019   -35012   -35009   -35020 
  -35033   -35033   -35025   -35021   -35008   -34978   -34944   -34920 
  -34912   -34911   -34906   -34896   -34889   -34894   -34896   -34884 
  -34871   -34874   -34881   -34873   -34863   -34867   -34862   -34842 
  -34835   -34836   -34838   -34854   -34873   -34881   -34878   -34871 
  -34867   -34867   -34874   -34900   -34932   -34954   -34960   -34973 
  -35006   -35032   -35023   -35008   -35019   -35043   -35060   -35064 
  -35052   -35041   -35044   -35050   -35055   -35073   -35104   -35120 
  -35116   -35112   -35104   -35090   -35091   -35112   -35127   -35136 
  -35158   -35187   -35198   -35189   -35172   -35152   -35132   -35114 
  -35091   -35059   -35043   -35047   -35033   -34998   -34983   -34979 
  -34970   -34973   -34987   -34998   -35013   -35021   -34997   -34950 
  -34894   -34831   -34781   -34761   -34765   -34777   -34801   -34835 
  -34850   -34854   -34862   -34848   -34815   -34796   -34788   -34789 
  -34800   -34808   -34805   -34807   -34812   -34809   -34815   -34840 
  -34875   -34909   -34939   -34955   -34947   -34932   -34920   -34908 
  -34905   -34915   -34931   -34952   -34971   -34973   -34967   -34967 
  -34965   -34965   -34973   -34989   -35005   -35019   -35027   -35017 
  -35000   -34985   -34981   -34986   -34986   -34983   -35002   -35031 
  -35052   -35078   -35108   -35120   -35116   -35110   -35104   -35105 
  -35109   -35101   -35085   -35060   -35029   -35008   -35004   -35005 
  -34996   -34983   -34992   -35010   -35010   -34993   -34969   -34938 
  -34906   -34898   -34911   -34925   -34940   -34950   -34954   -34951 
  -34951   -34955   -34950   -34947   -34963   -34974   -34974   -34992 
  -35020   -35037   -35037   -35021   -35005   -34993   -34975   -34965 
  -34973   -34987   -35001   -35010   -35020   -35031   -35040   -35039 
  -35017   -34990   -34967   -34932   -34886   -34862   -34865   -34870 
  -34873   -34879   -34886   -34881   -34862   -34839   -34817   -34805 
  -34815   -34839   -34867   -34904   -34932   -34927   -34900   -34877 
  -34861   -34857   -34869   -34889   -34898   -34888   -34877   -34865 
  -34857   -34878   -34911   -34936   -34966   -34977   -34956   -34943 
  -34933   -34906   -34875   -34866   -34882   -34905   -34924   -34952 
  -34979   -35002   -35012   -34989   -34939   -34902   -34898   -34905 
  -34909   -34917   -34925   -34939   -34939   -34917   -34908   -34908 
  -34901   -34896   -34911   -34935   -34955   -34965   -34959   -34946 
  -34939   -34956   -34994   -35028   -35060   -35104   -35125   -35106 
  -35075   -35052   -35031   -35013   -35006   -35010   -35025   -35043 
  -35054   -35058   -35056   -35062   -35083   -35104   -35109   -35122 
  -35145   -35145   -35121   -35093   -35062   -35021   -34983   -34956 
  -34942   -34951   -34985   -35025   -35048   -35044   -35031   -35020 
  -35002   -34973   -34954   -34967   -34985   -34975   -34962   -34960 
  -34971   -34986   -34986   -34971   -34966   -34966   -34954   -34942 
  -34943   -34933   -34915   -34919   -34933   -34943   -34958   -34975 
  -34983   -34983   -34974   -34966   -34959   -34940   -34911   -34889 
  -34873   -34855   -34846   -34847   -34844   -34843   -34858   -34877 
  -34875   -34867   -34870   -34877   -34879   -34878   -34884   -34893 
  -34896   -34900   -34901   -34901   -34911   -34916   -34902   -34890 
  -34889   -34886   -34885   -34879   -34862   -34842   -34828   -34813 
  -34803   -34813   -34843   -34869   -34882   -34900   -34919   -34935 
  -34942   -34921   -34901   -34909   -34935   -34951   -34956   -34979 
  -35020   -35036   -35020   -34994   -34974   -34962   -34959   -34971 
  -34997   -35019   -35028   -35040   -35050   -35046   -35035   -35027 
  -35017   -35024   -35050   -35064   -35062   -35081   -35124   -35159 
  -35174   -35175   -35160   -35136   -35117   -35098   -35091   -35104 
  -35102   -35075   -35064   -35081   -35087   -35074   -35077   -35116 
  -35155   -35149   -35112   -35077   -35044   -35023   -35020   -35028 
  -35064   -35106   -35112   -35086   -35033   -34958   -34893   -34858 
  -34828   -34813   -34836   -34869   -34873   -34867   -34878   -34901 
  -34931   -34950   -34955   -34973   -35000   -35010   -35009   -34996 
  -34965   -34933   -34913   -34881   -34831   -34809   -34842   -34893 
  -34925   -34931   -34911   -34874   -34835   -34811   -34811   -34819 
  -34817   -34816   -34839   -34875   -34888   -34875   -34869   -34888 
  -34905   -34909   -34901   -34874   -34851   -34840   -34812   -34762 
  -34728   -34709   -34690   -34689   -34709   -34734   -34763   -34812 
  -34859   -34892   -34912   -34893   -34855   -34852   -34893   -34931 
  -34951   -34974   -35000   -35000   -34993   -35002   -34997   -34983 
  -35005   -35044   -35068   -35083   -35094   -35104   -35117   -35121 
  -35113   -35116   -35141   -35168   -35178   -35167   -35152   -35145 
  -35125   -35066   -34985   -34931   -34927   -34948   -34944   -34920 
  -34916   -34940   -34985   -35019   -35010   -34977   -34940   -34904 
  -34890   -34896   -34885   -34863   -34846   -34832   -34834   -34858 
  -34917   -34987   -35009   -34989   -34975   -34979   -34974   -34951 
  -34936   -34950   -34960   -34952   -34943   -34962   -35028   -35108 
  -35152   -35170   -35178   -35158   -35102   -35024   -34940   -34900 
  -34917   -34950   -34974   -34994   -35013   -35032   -35059   -35078 
  -35066   -35036   -35027   -35028   -35001   -34955   -34927   -34943 
  -34987   -35004   -34956   -34889   -34866   -34878   -34886   -34900 
  -34916   -34902   -34869   -34835   -34788   -34727   -34684   -34668 
  -34678   -34709   -34758   -34830   -34905   -34962   -35000   -35024 
  -35043   -35056   -35074   -35100   -35095   -35040   -34970   -34921 
  -34897   -34902   -34929   -34946   -34960   -35010   -35094   -35197 
  -35274   -35282   -35233   -35175   -35116   -35063   -35033   -35031 
  -35059   -35116   -35174   -35216   -35235   -35224   -35194   -35162 
  -35117   -35058   -34996   -34936   -34886   -34869   -34892   -34916 
  -34916   -34936   -35001   -35051   -35050   -35020   -34954   -34865 
  -34792   -34753   -34766   -34831   -34879   -34892   -34897   -34893 
  -34855   -34784   -34713   -34693   -34720   -34762   -34809   -34855 
  -34889   -34905   -34909   -34909   -34915   -34915   -34881   -34817 
  -34758   -34736   -34761   -34815   -34882   -34928   -34921   -34908 
  -34940   -34990   -35013   -35025   -35054   -35082   -35079   -35067 
  -35068   -35073   -35071   -35047   -34994   -34947   -34938   -34969 
  -35012   -35036   -35039   -35037   -35040   -35064   -35104   -35124 
  -35104   -35055   -35005   -34963   -34925   -34893   -34862   -34836 
  -34823   -34836   -34878   -34929   -34982   -35031   -35055   -35046 
  -35016   -34970   -34915   -34867   -34842   -34840   -34847   -34871 
  -34938   -35035   -35125   -35186   -35209   -35206   -35186   -35137 
  -35091   -35082   -35078   -35056   -35054   -35071   -35073   -35048 
  -35010   -34974   -34970   -35002   -35043   -35085   -35117   -35116 
  -35066   -34981   -34916   -34913   -34951   -34975   -34979   -34994 
  -35017   -34996   -34911   -34815   -34765   -34781   -34842   -34902 
  -34942   -34951   -34924   -34870   -34803   -34709   -34607   -34560 
  -34581   -34612   -34636   -34669   -34699   -34722   -34744   -34747 
  -34736   -34736   -34744   -34776   -34812   -34824   -34823   -34847 
  -34911   -34965   -34951   -34917   -34917   -34920   -34908   -34896 
  -34889   -34900   -34947   -35024   -35097   -35135   -35140   -35137 
  -35132   -35114   -35095   -35094   -35095   -35089   -35082   -35089 
  -35120   -35166   -35195   -35195   -35176   -35159   -35135   -35095 
  -35071   -35075   -35095   -35122   -35136   -35108   -35059   -35017 
  -34996   -35006   -35066   -35144   -35197   -35214   -35205   -35181 
  -35140   -35062   -34960   -34888   -34847   -34828   -34836   -34854 
  -34861   -34870   -34896   -34944   -35010   -35064   -35078   -35059 
  -35033   -35001   -34948   -34877   -34800   -34754   -34736   -34716 
  -34719   -34762   -34819   -34871   -34933   -34983   -34996   -34990 
  -34986   -34954   -34889   -34838   -34800   -34758   -34736   -34744 
  -34757   -34770   -34813   -34878   -34909   -34881   -34812   -34761 
  -34749   -34746   -34726   -34701   -34700   -34735   -34776   -34798 
  -34830   -34877   -34924   -34958   -34981   -35000   -35004   -34978 
  -34942   -34925   -34916   -34897   -34874   -34840   -34804   -34800 
  -34835   -34877   -34911   -34924   -34927   -34950   -34983   -34987 
  -34960   -34920   -34884   -34862   -34855   -34858   -34861   -34871 
  -34902   -34939   -34969   -35001   -35033   -35064   -35089   -35082 
  -35051   -35025   -35008   -34974   -34932   -34912   -34924   -34963 
  -35010   -35048   -35073   -35089   -35094   -35082   -35075   -35085 
  -35086   -35082   -35082   -35074   -35054   -35055   -35086   -35097 
  -35060   -35014   -34981   -34943   -34904   -34886   -34888   -34912 
  -34956   -34983   -34985   -34989   -35000   -35010   -35017   -35019 
  -35021   -35025   -35041   -35074   -35095   -35097   -35079   -35041 
  -35005   -34985   -34978   -34970   -34959   -34955   -34969   -34983 
  -34974   -34960   -34959   -34952   -34939   -34938   -34959   -35000 
  -35037   -35078   -35109   -35122   -35147   -35164   -35147   -35120 
  -35109   -35104   -35097   -35093   -35105   -35112   -35098   -35078 
  -35047   -34993   -34932   -34875   -34823   -34789   -34789   -34801 
  -34823   -34881   -34959   -35009   -35008   -34967   -34925   -34893 
  -34870   -34879   -34909   -34920   -34924   -34931   -34933   -34931 
  -34920   -34902   -34901   -34908   -34896   -34889   -34915   -34942 
  -34939   -34919   -34924   -34967   -35000   -35012   -35051   -35102 
  -35128   -35149   -35158   -35118   -35062   -35028   -35013   -35014 
  -35036   -35056   -35067   -35070   -35063   -35048   -35043   -35059 
  -35070   -35055   -35016   -34943   -34851   -34785   -34744   -34690 
  -34636   -34635   -34689   -34755   -34820   -34885   -34936   -34958 
  -34946   -34928   -34917   -34897   -34867   -34846   -34842   -34836 
  -34808   -34778   -34759   -34753   -34786   -34838   -34838   -34792 
  -34761   -34751   -34743   -34730   -34707   -34696   -34722   -34770 
  -34801   -34809   -34831   -34877   -34921   -34955   -34996   -35051 
  -35093   -35110   -35110   -35094   -35060   -35024   -35002   -34994 
  -34989   -34986   -34994   -34997   -34986   -34979   -34982   -34987 
  -35002   -35036   -35085   -35131   -35132   -35097   -35066   -35023 
  -34950   -34879   -34831   -34808   -34819   -34848   -34875   -34900 
  -34933   -34967   -34975   -34955   -34931   -34917   -34924   -34942 
  -34969   -35010   -35052   -35070   -35079   -35083   -35075   -35078 
  -35093   -35086   -35068   -35062   -35046   -35023   -35014   -35012 
  -35021   -35047   -35064   -35074   -35079   -35098   -35160   -35237 
  -35298   -35347   -35367   -35349   -35305   -35248   -35197   -35159 
  -35133   -35124   -35127   -35136   -35143   -35145   -35141   -35122 
  -35118   -35137   -35141   -35136   -35136   -35148   -35170   -35171 
  -35147   -35139   -35140   -35098   -35012   -34932   -34894   -34890 
  -34906   -34935   -34951   -34932   -34896   -34867   -34861   -34874 
  -34882   -34865   -34850   -34852   -34854   -34857   -34858   -34838 
  -34796   -34734   -34646   -34545   -34461   -34429   -34435   -34457 
  -34497   -34547   -34587   -34620   -34653   -34666   -34684   -34731 
  -34765   -34759   -34742   -34734   -34727   -34723   -34751   -34809 
  -34859   -34898   -34943   -34974   -34969   -34927   -34877   -34863 
  -34901   -34950   -34973   -34977   -34969   -34947   -34929   -34936 
  -34967   -35028   -35117   -35201   -35251   -35266   -35249   -35212 
  -35152   -35074   -35001   -34956   -34947   -34974   -35023   -35052 
  -35050   -35035   -35009   -34979   -34959   -34947   -34950   -34971 
  -35002   -35031   -35033   -35005   -34981   -34965   -34935   -34908 
  -34908   -34920   -34935   -34967   -35004   -35014   -34993   -34950 
  -34896   -34846   -34813   -34817   -34848   -34877   -34893   -34873 
  -34828   -34825   -34869   -34890   -34889   -34902   -34931   -34942 
  -34965   -35037   -35106   -35116   -35085   -35039   -34978   -34911 
  -34865   -34851   -34857   -34863   -34867   -34875   -34871   -34847 
  -34824   -34808   -34789   -34782   -34809   -34854   -34886   -34884 
  -34865   -34862   -34865   -34844   -34835   -34863   -34886   -34896 
  -34913   -34928   -34928   -34923   -34911   -34900   -34909   -34920 
  -34911   -34906   -34921   -34921   -34898   -34881   -34888   -34906 
  -34915   -34920   -34954   -35005   -35043   -35066   -35086   -35125 
  -35164   -35156   -35102   -35044   -35006   -34998   -35000   -34992 
  -34998   -35014   -35016   -35027   -35060   -35090   -35091   -35067 
  -35025   -34989   -34973   -34977   -35002   -35044   -35093   -35133 
  -35167   -35201   -35224   -35218   -35197   -35186   -35183   -35183 
  -35190   -35197   -35194   -35179   -35137   -35074   -35025   -35001 
  -35000   -35010   -35014   -35009   -34992   -34966   -34947   -34933 
  -34917   -34906   -34905   -34921   -34960   -35006   -35048   -35066 
  -35062   -35050   -35029   -34992   -34938   -34882   -34848   -34846 
  -34870   -34923   -34997   -35059   -35075   -35043   -34990   -34952 
  -34928   -34921   -34939   -34969   -34990   -34993   -34971   -34948 
  -34942   -34952   -34971   -34973   -34947   -34908   -34873   -34855 
  -34840   -34823   -34830   -34861   -34877   -34866   -34858   -34874 
  -34902   -34921   -34946   -34987   -35010   -34996   -34966   -34927 
  -34882   -34854   -34832   -34816   -34817   -34828   -34842   -34854 
  -34865   -34886   -34921   -34950   -34958   -34942   -34912   -34888 
  -34878   -34878   -34888   -34916   -34959   -34996   -35016   -35013 
  -34978   -34921   -34867   -34830   -34809   -34805   -34819   -34847 
  -34886   -34923   -34954   -34985   -35009   -35027   -35047   -35063 
  -35074   -35086   -35085   -35067   -35070   -35089   -35110   -35152 
  -35190   -35191   -35174   -35139   -35087   -35046   -35001   -34952 
  -34916   -34886   -34870   -34881   -34896   -34900   -34898   -34885 
  -34881   -34898   -34911   -34904   -34896   -34898   -34905   -34896 
  -34879   -34871   -34867   -34878   -34900   -34915   -34924   -34929 
  -34935   -34947   -34950   -34928   -34893   -34869   -34862   -34871 
  -34898   -34938   -34970   -34982   -34987   -34998   -35006   -35008 
  -35013   -35024   -35031   -35032   -35025   -35013   -35006   -35005 
  -35014   -35044   -35068   -35075   -35075   -35055   -35014   -34981 
  -34962   -34952   -34952   -34946   -34927   -34909   -34900   -34894 
  -34892   -34879   -34870   -34866   -34854   -34850   -34863   -34869 
  -34851   -34824   -34819   -34836   -34847   -34846   -34847   -34852 
  -34839   -34809   -34793   -34784   -34773   -34773   -34766   -34750 
  -34750   -34757   -34763   -34786   -34823   -34858   -34889   -34906 
  -34912   -34929   -34959   -34982   -35006   -35032   -35043   -35044 
  -35050   -35055   -35055   -35044   -35021   -34983   -34939   -34905 
  -34888   -34886   -34906   -34942   -34982   -35032   -35093   -35149 
  -35179   -35189   -35189   -35175   -35160   -35163   -35176   -35181 
  -35179   -35189   -35199   -35194   -35176   -35135   -35070   -35006 
  -34952   -34913   -34916   -34952   -34990   -35021   -35044   -35031 
  -34996   -34975   -34974   -34993   -35024   -35059   -35100   -35125 
  -35118   -35108   -35100   -35082   -35074   -35095   -35137   -35162 
  -35145   -35114   -35086   -35059   -35043   -35052   -35070   -35085 
  -35091   -35075   -35036   -34975   -34912   -34874   -34862   -34869 
  -34898   -34932   -34948   -34952   -34952   -34954   -34960   -34966 
  -34958   -34940   -34932   -34935   -34939   -34946   -34956   -34966 
  -34979   -35004   -35024   -35024   -35023   -35025   -35005   -34951 
  -34892   -34844   -34805   -34781   -34780   -34782   -34782   -34784 
  -34784   -34786   -34808   -34835   -34844   -34831   -34794   -34751 
  -34724   -34719   -34717   -34703   -34686   -34705   -34750   -34782 
  -34792   -34773   -34749   -34746   -34758   -34774   -34803   -34838 
  -34867   -34897   -34912   -34912   -34924   -34952   -34982   -35000 
  -35001   -35002   -35006   -35001   -35001   -35012   -35009   -34998 
  -34992   -34974   -34943   -34917   -34896   -34885   -34892   -34900 
  -34904   -34900   -34884   -34874   -34878   -34874   -34861   -34854 
  -34855   -34858   -34858   -34861   -34869   -34881   -34894   -34898 
  -34885   -34869   -34873   -34890   -34900   -34894   -34884   -34884 
  -34905   -34921   -34917   -34901   -34878   -34852   -34842   -34848 
  -34866   -34892   -34913   -34925   -34931   -34935   -34935   -34940 
  -34962   -34986   -34998   -35009   -35033   -35054   -35056   -35060 
  -35082   -35097   -35097   -35108   -35121   -35129   -35149   -35181 
  -35209   -35233   -35245   -35244   -35236   -35226   -35222   -35225 
  -35222   -35209   -35187   -35160   -35137   -35125   -35106   -35075 
  -35059   -35051   -35025   -34994   -34971   -34952   -34943   -34950 
