Origin Time       2024/04/02 04:24:00
Lat.              40.133
Long.             141.712
Depth. (km)       71
Mag.              6.0
Station Code      ABSH13
Station Lat.      43.7419
Station Long.     143.4514
Station Height(m) 216
Record Time       2024/04/02 04:25:37
Sampling Freq(Hz) 100Hz
Duration Time(s)  126
Dir.              1
Scale Factor      3923(gal)/8224838
Max. Acc. (gal)   0.591
Last Correction   2024/04/02 04:25:37
Memo.             
[...]
     301      346      346      337      361      372      348      317 
     297      294      325      373      414      453      495      503 
     476      444      405      353      319      307      286      253 
     238      252      261      259      260      252      211      170 
     179      213      217      218      261      298      302      321 
     356      346      305      324      410      463      450      425 
     372      278      197      164      167      202      270      341 
     399      427      395      315      272      291      301      265 
     247      268      267      217      186      213      244      238 
     251      288      292      271      282      302      286      253 
     220      160      105       95       87       58       71      147 
     206      211      206      232      265      265      229      211 
     280      402      460      423      371      334      288      241 
     233      249      259      270      290      307      310      306 
     322      363      375      326      265      249      248      240 
     261      305      309      294      329      386      398      395 
     410      386      321      286      288      282      252      222 
     216      245      302      336      319      299      303      306 
     297      290      282      267      256      243      218      206 
     224      244      224      160      103       90      112      149 
     206      286      356      392      418      436      410      348 
     280      211      141       93       67       39       36      116 
     244      342      392      417      437      460      460      419 
     367      326      297      278      271      244      190      156 
     156      163      171      202      238      233      221      261 
     311      309      288      302      330      315      265      256 
     294      332      369      423      446      395      324      301 
     295      279      305      387      454      479      486      456 
     353      225      166      184      210      203      207      263 
     329      352      344      345      359      383      418      438 
     432      405      371      337      315      313      305      280 
     272      294      328      383      437      411      315      252 
     249      237      197      189      226      270      305      322 
     291      234      209      232      267      290      307      324 
     330      330      333      340      333      319      332      356 
     328      236      147      120      132      143      176      243 
     291      294      301      345      382      361      317      280 
     244      225      253      305      334      346      376      419 
     446      440      410      378      328      264      245      287 
     319      302      276      274      264      244      241      252 
     244      217      195      199      229      264      284      286 
     278      288      321      345      319      252      199      179 
     168      166      186      214      205      166      160      190 
     221      265      342      419      434      399      361      326 
     276      236      237      255      234      172      110       59 
      16       -5        9       35       63      114      175      195 
     182      179      178      155      143      162      193      230 
     276      297      276      248      214      172      151      178 
     236      290      333      368      386      400      437      438 
     357      282      292      318      298      295      340      372 
     382      421      472      468      407      357      351      368 
     375      348      310      297      290      272      265      282 
     297      298      318      367      417      432      410      378 
     348      328      324      325      326      353      409      430 
     391      355      359      357      338      338      351      344 
     356      405      434      410      342      244      148       98 
      75       47       49      122      207      248      267      274 
     244      226      276      352      380      379      400      437 
     454      463      448      386      313      286      287      280 
     272      287      310      325      337      348      364      394 
     425      429      400      364      333      310      297      271 
     228      210      244      295      340      386      409      379 
     324      290      288      301      287      247      228      279 
     367      415      413      376      340      355      411      425 
     387      356      319      236      175      186      202      193 
     203      228      222      236      310      359      318      244 
     194      155      122      136      189      218      226      253 
     268      233      199      206      202      184      205      249 
     261      259      280      317      340      338      313      283 
     261      249      249      260      260      244      221      202 
     194      202      228      267      298      291      259      245 
     261      267      245      233      225      213      220      256 
     290      309      328      360      415      473      465      383 
     314      297      288      282      298      299      270      265 
     294      291      271      301      365      392      371      342 
     329      314      287      265      261      263      267      307 
     390      438      415      384      386      376      337      301 
     271      222      176      168      186      205      236      287 
     337      356      365      379      361      315      301      309 
     279      244      263      297      305      330      359      319 
     238      199      182      141      102       78       63       93 
     172      233      249      267      298      301      299      336 
     359      311      248      222      209      199      233      297 
     342      371      379      363      334      294      236      195 
     198      214      224      237      253      278      326      364 
     349      322      334      355      364      398      427      382 
     282      206      157      121      114      143      170      189 
     226      264      270      279      318      346      342      342 
     338      299      267      292      314      259      187      187 
     209      184      172      224      290      313      317      342 
     367      364      364      373      373      363      340      315 
     322      351      361      330      268      205      163      141 
     137      153      178      195      210      226      234      249 
     297      337      311      248      228      265      314      337 
     348      357      356      349      365      379      349      311 
     332      383      411      434      461      460      449      471 
     503      507      502      499      467      413      402      438 
     453      413      363      341      337      342      356      361 
     341      283      214      191      203      194      175      209 
     268      275      247      241      224      167      129      144 
     166      176      210      241      218      178      171      162 
     122      103      116      116      117      151      175      156 
     141      163      201      229      248      259      261      282 
     310      301      255      206      156      116      116      137 
     143      136      157      216      276      313      342      388 
     436      463      479      488      475      441      394      337 
     278      218      156      133      186      252      256      230 
     234      241      220      221      268      311      338      406 
     503      542      496      422      334      234      186      236 
     309      325      309      288      243      171      130      151 
     206      253      278      306      371      423      432      454 
     514      542      523      491      423      309      228      207 
     167       81       33       68      137      176      163      136 
     167      256      322      337      360      414      444      434 
     434      460      486      529      596      638      604      481 
     291       70     -108     -180     -172     -125      -22      124 
     252      345      430      510      584      662      707      668 
     554      407      257      148      117      164      251      318 
     336      337      315      230      137      121      137      128 
     157      275      391      425      406      376      332      279 
     240      201      140       63        2       -4       45      103 
     143      201      280      325      329      328      332      344 
     391      472      554      612      611      530      411      322 
     315      388      446      400      276      148       21      -90 
    -117      -52       25      108      238      388      490      531 
     544      549      554      564      580      595      573      484 
     342      195       78        0      -32      -32      -18        5 
      36       95      228      398      537      635      692      680 
     629      579      504      390      290      267      309      380 
     457      469      380      264      202      201      210      168 
      66      -40      -94      -63       60      265      488      631 
     650      573      430      261      126       56       44       75 
     136      218      310      396      459      483      460      364 
     187       25      -18       37      140      287      430      463 
     409      384      369      297      216      189      197      217 
     207      124        6      -48      -29       37      163      302 
     392      461      510      433      207        2      -58      -35 
       6       72      125      137      198      375      592      741 
     768      657      461      280      176      178      267      336 
     305      236      233      287      342      415      496      535 
     545      571      591      510      325      186      226      398 
     560      623      546      321       52     -105     -124      -87 
     -25      116      353      598      742      742      615      456 
     353      317      280      184       45      -90     -186     -199 
    -129      -24       63       79       35       71      295      621 
     905     1061     1008      733      361       49     -153     -255 
    -228     -102       51      232      467      638      610      444 
     284      130      -64     -216     -240     -203     -176     -130 
     -35      102      278      463      622      729      723      577 
     386      268      211      153      147      240      367      473 
     591      712      750      654      472      263       82      -29 
     -83      -93      -14      191      425      504      433      396 
     487      625      739      820      828      742      603      405 
     121      -93      -55      108      141       97      211      465 
     631      633      556      423      211      -21     -184     -257 
    -225      -62      160      306      340      364      432      459 
     388      317      328      380      405      373      299      229 
     268      438      591      584      454      344      306      248 
      95      -83     -171     -147      -93      -66      -36       56 
     221      413      588      699      696      589      465      383 
     332      298      284      267      213      152      126      147 
     236      378      490      549      564      434      108     -203 
    -274     -166      -16      213      499      691      768      777 
     610      240      -79     -157      -89        4      105      228 
     391      599      754      743      614      434      179      -98 
    -229     -171       -6      207      434      598      654      654 
     662      641      526      368      283      282      275      198 
      60      -97     -186     -103      101      276      390      517 
     630      612      476      364      367      469      591      649 
     649      622      541      422      361      333      233      102 
      44       43       76      201      387      483      440      418 
     523      643      631      467      182     -171     -441     -477 
    -342     -182       -2      224      425      557      672      768 
     739      565      352      179       52       -1      106      351 
     544      621      703      792      769      645      500      333 
     152       54       48       43       28       64      124      152 
     159      136       44      -79     -168     -197     -163      -76 
      36      202      434      638      710      692      681      625 
     427      228      226      355      415      380      311      160 
     -90     -288     -315     -210        5      321      565      540 
     288       21     -137     -157      -36      198      469      661 
     699      598      380       56     -283     -506     -546     -410 
    -145      118      272      341      388      368      245       97 
     -17      -75       -4      189      360      450      521      610 
     688      653      440      174       72      171      307      364 
     330      182      -36     -155      -48      271      702     1115 
    1409     1526     1429     1109      646      137     -338     -670 
    -764     -635     -355       13      334      492      527      541 
     525      407      249      216      341      492      576      629 
     697      764      823      880      869      741      602      550 
     507      378      249      207      175      125      156      272 
     384      480      591      692      722      653      510      390 
     378      421      426      390      290      151      151      307 
     380      282      189      124      -24     -162     -145      -43 
      99      361      627      654      468      263       59     -166 
    -309     -322     -288     -256     -191      -83       54      209 
     336      395      454      584      710      733      672      608 
     599      642      675      618      494      402      332      195 
      20     -112     -180     -167      -90      -49     -109     -199 
    -210     -101      121      384      596      750      853      831 
     666      514      476      427      279      160      137      149 
     190      292      379      369      294      213      144      120 
     149      203      286      429      572      614      572      554 
     565      510      371      217       75      -70     -220     -344 
    -417     -379     -167      121      292      306      297      373 
     487      504      410      294      194       82      -66     -228 
    -353     -414     -388     -241        5      278      511      658 
     692      656      618      576      522      479      444      410 
     361      276      201      238      392      517      519      491 
     515      540      513      465      407      284      120       52 
     126      234      283      306      395      569      751      874 
     950      969      877      708      576      491      355      184 
      70      -12      -91      -89       32      222      461      710 
     823      762      720      764      720      556      422      361 
     313      287      286      255      193      135       44      -99 
    -228     -252     -128      120      369      494      500      468 
     402      270       97      -63     -153     -152     -124     -112 
     -68       21      117      217      345      464      477      356 
     224      221      345      503      633      712      734      730 
     758      773      695      575      472      302      -16     -387 
    -660     -777     -724     -480     -113      241      518      700 
     747      684      598      527      453      414      445      469 
     426      387      399      394      340      282      194       37 
    -108     -147      -93       16      136      190      176      193 
     264      302      274      247      247      253      259      244 
     157        0     -155     -241     -238     -137       51      286 
     495      618      629      549      442      334      207       76 
     -18      -68      -67       -5       79      133      184      274 
     325      288      248      279      324      288      176       91 
      72       75       93      166      274      361      425      469 
     456      359      211       85      -13      -99     -157     -171 
    -112       44      229      336      361      382      419      442 
     467      546      649      688      665      615      525      392 
     292      298      371      410      386      352      356      392 
     436      479      533      603      688      761      787      753 
     685      600      504      448      475      544      607      677 
     776      846      822      723      608      486      329      149 
      21       -9       18       36       33       59      128      216 
     305      391      452      444      349      186       10     -121 
    -214     -311     -411     -481     -456     -263       31      284 
     477      629      666      571      425      265       78      -43 
      -4      153      341      525      669      727      684      541 
     351      256      315      368      274      139      118      201 
     287      357      445      540      591      575      523      471 
     394      282      159       27     -122     -237     -245     -151 
     -27       93      220      371      540      666      704      691 
     680      677      681      710      739      723      685      692 
     730      756      769      738      576      310       97       -8 
    -106     -222     -279     -257     -187      -59      113      263 
     363      430      456      468      511      544      530      519 
     487      378      248      199      230      294      375      430 
     390      301      274      317      355      338      303      307 
     344      349      298      207       99        0      -52      -35 
      51      180      286      297      251      259      317      345 
     348      399      508      608      645      592      454      301 
     201      172      195      232      241      213      166       91 
     -13      -74      -45       -2      -25      -89     -121      -97 
     -28       74      184      248      252      253      287      322 
     342      387      491      626      745      818      814      688 
     440      168       -8      -71      -62      -33      -60     -135 
    -182     -197     -229     -247     -202     -152     -147     -130 
     -78      -32        5       60      117      151      183      234 
     307      376      405      361      259      133       13      -89 
    -159     -164      -76       87      263      396      510      611 
     648      610      553      486      396      319      264      193 
     116      132      276      445      526      523      486      461 
     487      542      549      481      406      371      332      267 
