Origin Time       2024/04/02 04:24:00
Lat.              40.133
Long.             141.712
Depth. (km)       71
Mag.              6.0
Station Code      ABSH13
Station Lat.      43.7419
Station Long.     143.4514
Station Height(m) 321
Record Time       2024/04/02 04:25:37
Sampling Freq(Hz) 100Hz
Duration Time(s)  126
Dir.              6
Scale Factor      7845(gal)/8223790
Max. Acc. (gal)   0.551
Last Correction   2024/04/02 04:25:37
Memo.             
[...]
    6980     6956     6917     6879     6882     6897     6897     6925 
    6987     7053     7101     7113     7111     7119     7138     7145 
    7102     7029     6974     6963     6995     7024     7018     7005 
    6972     6913     6867     6864     6898     6940     6986     7024 
    7036     7041     7049     7063     7101     7138     7141     7110 
    7071     7047     7033     7049     7109     7153     7136     7079 
    7025     7006     7014     7030     7040     7029     7018     7040 
    7061     7059     7063     7061     7038     7049     7078     7076 
    7091     7128     7122     7091     7061     7056     7088     7102 
    7086     7068     7044     7030     7026     7013     7013     7021 
    7011     6976     6930     6921     6957     7011     7052     7061 
    7048     7037     7057     7099     7121     7121     7128     7138 
    7118     7069     7060     7068     7024     6976     6978     6984 
    6993     7015     7015     6991     6983     6982     6995     7056 
    7083     6995     6921     6949     6980     6978     6999     7026 
    7042     7075     7117     7118     7079     7052     7040     7024 
    7002     6986     6986     6979     6966     6968     6957     6936 
    6937     6933     6914     6917     6967     7048     7119     7149 
    7134     7141     7192     7180     7083     7028     7041     7036 
    7006     6995     6991     6995     7056     7126     7129     7115 
    7129     7118     7068     7013     6970     6940     6940     7017 
    7125     7169     7150     7091     7049     7065     7068     7056 
    7065     7045     6982     6952     7009     7076     7064     6997 
    6944     6952     7022     7091     7099     7065     7067     7091 
    7051     6994     6986     6983     6998     7021     6993     6970 
    7017     7072     7041     6956     6929     6966     7010     7024 
    7007     7005     7047     7090     7065     6986     6943     6967 
    7001     6997     6955     6918     6934     6978     6997     6995 
    7009     7045     7067     7076     7091     7088     7078     7074 
    7072     7078     7069     7065     7083     7092     7101     7115 
    7125     7125     7088     7040     7042     7061     7055     7052 
    7069     7060     7030     7057     7134     7184     7190     7169 
    7132     7072     7024     7036     7082     7087     7060     7036 
    7032     7060     7091     7074     7021     7005     7022     7020 
    7033     7099     7138     7105     7044     7024     7060     7109 
    7133     7117     7064     7009     6960     6912     6893     6917 
    6972     7030     7064     7080     7063     7010     6970     6963 
    6990     7022     7026     7005     6980     6978     7003     7034 
    7018     6944     6905     6934     6964     6979     6986     6986 
    7009     7051     7067     7064     7083     7110     7090     7038 
    7009     6998     6991     6983     6959     6932     6925     6959 
    7024     7075     7118     7150     7110     7038     7028     7061 
    7102     7161     7214     7196     7130     7105     7137     7206 
    7254     7227     7132     7021     6956     6929     6889     6862 
    6878     6940     7042     7155     7257     7285     7213     7128 
    7049     6955     6920     6957     6988     6971     6975     7053 
    7118     7121     7086     6994     6914     6903     6909     6940 
    7028     7105     7115     7094     7061     7002     6955     6967 
    7010     7060     7064     6957     6826     6748     6687     6681 
    6772     6905     6990     7013     7014     7032     7082     7123 
    7115     7106     7137     7210     7275     7271     7244     7217 
    7134     7022     6930     6880     6894     6933     6957     6967 
    6948     6909     6905     6968     7028     7017     6995     7024 
    7061     7101     7165     7253     7291     7199     7052     6945 
    6860     6806     6841     6940     7003     6997     6984     7002 
    7017     6997     6955     6939     6939     6968     7076     7209 
    7276     7277     7233     7146     7063     7051     7095     7091 
    7015     6928     6891     6929     7002     7098     7207     7250 
    7219     7180     7169     7177     7144     7064     6982     6879 
    6768     6724     6777     6898     7034     7130     7129     7047 
    6970     6932     6940     7020     7115     7176     7190     7148 
    7130     7202     7246     7167     7038     6991     7036     7069 
    7018     6932     6909     6978     7042     7026     6968     6899 
    6810     6785     6868     6974     7057     7137     7186     7229 
    7285     7265     7153     7028     6903     6816     6831     6886 
    6871     6863     6979     7125     7183     7211     7256     7280 
    7245     7142     7026     6960     6924     6840     6731     6743 
    6895     7049     7137     7180     7229     7304     7360     7372 
    7314     7167     7017     6902     6778     6702     6756     6843 
    6822     6787     6878     7006     7079     7130     7149     7105 
    7055     7069     7090     7040     6986     6993     7038     7125 
    7222     7271     7257     7217     7209     7217     7195     7138 
    7013     6849     6737     6704     6775     6903     6966     6968 
    7006     7068     7082     7076     7099     7096     7075     7101 
    7130     7103     7047     7028     7074     7163     7253     7303 
    7315     7322     7304     7244     7176     7063     6886     6763 
    6725     6686     6667     6735     6856     6952     7007     7033 
    7041     7051     7045     7029     7030     7051     7095     7187 
    7300     7402     7480     7477     7353     7214     7123     6991 
    6835     6755     6733     6697     6606     6539     6624     6839 
    7074     7245     7311     7292     7230     7144     7060     7021 
    7032     7034     7015     7026     7053     7034     6963     6887 
    6851     6862     6920     6982     6957     6882     6845     6825 
    6825     6848     6837     6832     6905     7056     7233     7346 
    7437     7547     7551     7418     7271     7168     7079     6967 
    6862     6828     6832     6844     6879     6905     6966     7113 
    7214     7191     7144     7079     6948     6829     6770     6740 
    6751     6837     6994     7164     7273     7321     7349     7342 
    7248     7106     7017     6971     6893     6790     6725     6745 
    6841     6978     7101     7144     7164     7226     7252     7225 
    7206     7122     6930     6735     6612     6575     6610     6702 
    6829     6993     7196     7377     7495     7572     7588     7501 
    7318     7149     7102     7072     6987     6966     7015     7010 
    6944     6895     6890     6953     7123     7288     7300     7238 
    7211     7204     7196     7146     7034     6941     6880     6813 
    6791     6825     6844     6835     6816     6777     6774     6856 
    6928     6926     6921     6957     7005     7041     7105     7245 
    7404     7493     7514     7456     7295     7083     6906     6794 
    6743     6751     6794     6849     6903     6932     6960     7022 
    7102     7214     7349     7434     7468     7495     7472     7353 
    7223     7132     6993     6809     6678     6623     6654     6758 
    6870     6947     7021     7134     7231     7257     7222     7140 
    7044     6974     6906     6847     6824     6821     6808     6752 
    6698     6727     6820     6939     7037     7064     7026     6945 
    6870     6893     7018     7176     7279     7283     7226     7176 
    7183     7200     7156     7113     7109     7122     7175     7209 
    7129     6984     6885     6867     6855     6795     6754     6774 
    6852     6979     7121     7222     7187     7003     6814     6728 
    6747     6862     7044     7229     7376     7506     7555     7469 
    7344     7268     7245     7269     7254     7157     7048     6944 
    6867     6849     6826     6764     6736     6801     6917     7028 
    7111     7109     7042     7028     7038     6997     6952     6943 
    6945     6933     6924     6959     7011     7052     7107     7163 
    7149     7060     6976     6957     6993     7048     7071     7038 
    6960     6864     6806     6806     6844     6905     6963     6999 
    7002     6991     7033     7155     7284     7346     7361     7379 
    7379     7331     7263     7202     7168     7142     7102     7045 
    6963     6880     6837     6822     6841     6868     6858     6864 
    6906     6902     6826     6718     6642     6647     6683     6696 
    6728     6821     6949     7078     7168     7215     7279     7346 
    7341     7295     7275     7294     7341     7364     7326     7268 
    7225     7190     7149     7106     7069     7048     7067     7132 
    7188     7202     7177     7133     7078     7011     6988     7042 
    7115     7182     7234     7242     7215     7210     7263     7281 
    7172     7009     6897     6820     6723     6623     6565     6525 
    6512     6601     6754     6886     6995     7045     7015     6991 
    7022     7059     7049     7034     7053     7117     7219     7222 
    7083     6994     7018     7033     6979     6920     6943     6956 
    6867     6798     6833     6932     7007     7001     6959     6940 
    6997     7145     7256     7268     7285     7342     7368     7337 
    7267     7146     7017     6937     6848     6713     6609     6596 
    6677     6805     6920     7033     7136     7194     7229     7267 
    7295     7267     7171     7057     6928     6802     6762     6789 
    6824     6853     6871     6879     6875     6891     6952     7038 
    7161     7302     7375     7392     7411     7404     7321     7202 
    7155     7169     7153     7114     7056     6972     6932     6937 
    6910     6859     6849     6879     6930     7017     7074     7029 
    6940     6887     6875     6872     6891     6959     7074     7204 
    7273     7257     7246     7244     7182     7106     7071     7034 
    6971     6924     6934     6974     6984     6976     6968     6952 
    6928     6901     6879     6889     6960     7061     7134     7192 
    7241     7245     7190     7079     6982     6966     6988     6997 
    6982     7001     7095     7177     7194     7198     7200     7157 
    7065     7001     6987     6952     6918     6952     7009     7025 
    7009     7010     7048     7079     7106     7186     7276     7279 
    7204     7115     7040     6984     6949     6960     7042     7140 
    7195     7244     7280     7257     7179     7084     7015     6982 
    6968     7005     7087     7142     7148     7118     7087     7045 
    6944     6836     6812     6839     6862     6889     6957     7048 
    7115     7175     7203     7133     7018     6953     6933     6914 
    6902     6910     6914     6922     6986     7074     7125     7132 
    7095     7002     6879     6806     6804     6812     6826     6852 
    6874     6924     6997     7072     7171     7241     7248     7242 
    7226     7215     7281     7379     7404     7365     7291     7157 
    7011     6914     6844     6817     6847     6880     6906     6934 
    6956     6971     6972     6983     7002     7001     6994     6997 
    6995     6967     6906     6837     6786     6785     6852     6947 
    7037     7123     7199     7258     7287     7271     7184     7056 
    7005     7011     6984     6961     6979     7021     7087     7164 
    7222     7237     7207     7142     7055     6990     6975     6970 
    6945     6901     6849     6825     6818     6818     6856     6940 
    7024     7061     7064     7056     7053     7095     7159     7169 
    7141     7105     7057     6999     6928     6860     6835     6876 
    6974     7092     7207     7284     7330     7358     7314     7200 
    7082     6945     6791     6674     6640     6708     6822     6920 
    6970     6975     6976     6984     6967     6944     6957     7018 
    7088     7121     7121     7138     7156     7144     7132     7119 
    7075     7042     7063     7103     7159     7229     7283     7298 
    7240     7110     6995     6949     6972     7017     7034     7040 
    7060     7075     7076     7088     7155     7226     7213     7159 
    7130     7109     7082     7063     7049     7040     7060     7101 
    7086     6995     6891     6816     6764     6713     6671     6671 
    6685     6725     6817     6916     7009     7087     7119     7133 
    7161     7184     7160     7091     7022     6979     6964     6966 
    6979     6994     6979     6967     7005     7051     7072     7102 
    7150     7200     7225     7233     7238     7222     7214     7244 
    7273     7283     7257     7192     7145     7119     7084     7029 
    6993     7021     7083     7138     7175     7142     7057     6978 
    6910     6871     6855     6835     6839     6880     6933     6975 
    7020     7071     7103     7110     7086     7055     7040     7018 
    6997     6999     7003     6998     6953     6858     6781     6771 
    6813     6870     6909     6913     6886     6887     6934     6961 
    6949     6966     7028     7063     7040     7024     7015     6976 
    6939     6949     6991     7041     7105     7169     7194     7167 
    7130     7098     7061     7030     6999     6970     6959     6979 
    7010     6986     6912     6880     6909     6956     7015     7098 
    7219     7349     7445     7526     7588     7614     7607     7560 
    7479     7403     7349     7281     7182     7080     6998     6929 
    6879     6822     6758     6740     6791     6836     6839     6851 
    6879     6895     6906     6899     6876     6867     6871     6929 
    7042     7129     7175     7203     7190     7165     7164     7163 
    7142     7115     7102     7090     7056     6982     6863     6733 
    6651     6644     6683     6737     6804     6859     6890     6925 
    6948     6952     7003     7111     7204     7246     7260     7281 
    7307     7326     7326     7294     7250     7209     7177     7165 
    7115     7037     7013     7021     6998     6948     6887     6829 
    6774     6727     6677     6615     6569     6577     6651     6762 
    6862     6960     7051     7119     7191     7244     7264     7267 
    7219     7128     7065     7056     7090     7156     7227     7261 
    7234     7183     7138     7099     7057     7014     7003     7037 
    7092     7152     7177     7156     7144     7133     7072     6991 
    6937     6906     6872     6841     6814     6791     6820     6897 
    6972     7033     7059     7057     7086     7146     7204     7238 
    7219     7138     7030     6928     6851     6844     6918     6971 
    6961     6963     7001     7041     7048     7022     6991     6937 
    6863     6813     6799     6820     6860     6917     6991     7051 
    7113     7190     7227     7222     7217     7214     7223     7240 
    7249     7258     7250     7218     7198     7225     7276     7304 
    7290     7219     7122     7052     7007     6966     6913     6872 
    6864     6849     6806     6781     6777     6774     6779     6799 
    6843     6910     6987     7044     7080     7126     7179     7209 
    7207     7183     7171     7191     7198     7183     7165     7144 
    7119     7107     7103     7099     7096     7105     7111     7114 
    7117     7102     7105     7152     7199     7233     7253     7242 
    7210     7171     7130     7064     6974     6897     6828     6779 
    6782     6808     6810     6790     6779     6771     6740     6709 
    6689     6682     6721     6797     6885     6995     7117     7214 
    7276     7329     7376     7373     7333     7304     7263     7214 
    7192     7164     7109     7065     7041     7013     6971     6929 
    6890     6849     6810     6775     6763     6795     6852     6899 
    6922     6955     7017     7084     7168     7271     7346     7377 
    7360     7304     7225     7122     7028     6984     6982     6971 
    6916     6841     6801     6810     6848     6880     6909     6960 
    7014     7044     7047     7042     7045     7036     7033     7061 
    7098     7141     7196     7236     7256     7263     7249     7218 
    7169     7125     7110     7123     7152     7159     7140     7132 
    7148     7146     7096     7057     7060     7032     6964     6894 
    6833     6814     6835     6866     6905     6926     6925     6925 
    6928     6940     6949     6933     6886     6829     6795     6802 
    6835     6870     6887     6901     6903     6889     6879     6866 
    6859     6883     6902     6917     6966     7029     7060     7044 
    7029     7030     7025     7055     7145     7234     7295     7345 
    7379     7368     7331     7288     7196     7069     6974     6909 
    6855     6812     6774     6756     6767     6804     6858     6926 
    7020     7110     7188     7268     7311     7329     7353     7349 
    7318     7312     7339     7361     7353     7326     7298     7283 
    7267     7207     7125     7072     7015     6949     6909     6890 
    6895     6899     6893     6906     6917     6901     6905     6956 
    7006     7018     7009     6966     6880     6802     6745     6718 
    6717     6709     6701     6701     6705     6751     6826     6878 
    6918     6982     7061     7122     7138     7118     7102     7121 
    7150     7161     7188     7214     7209     7199     7198     7209 
    7211     7177     7130     7084     7045     7017     6982     6971 
    7011     7068     7118     7159     7190     7223     7250     7263 
    7258     7248     7246     7233     7207     7207     7233     7248 
    7218     7168     7138     7113     7076     7036     6999     6972 
    6936     6903     6897     6886     6853     6814     6797     6802 
    6805     6822     6871     6913     6948     6988     7038     7103 
    7163     7210     7236     7215     7155     7091     7059     7051 
    7038     7037     7040     7028     7026     7063     7126     7165 
    7150     7123     7107     7095     7096     7091     7071     7036 
    6991     6967     6959     6947     6933     6905     6874     6868 
    6885     6903     6903     6910     6933     6952     6972     6990 
    6976     6951     6933     6945     6972     6988     7022     7067 
    7094     7107     7101     7072     7037     7009     7011     7037 
    7069     7110     7134     7125     7102     7083     7079     7082 
    7095     7111     7111     7107     7094     7065     7040     7025 
    7021     7010     6990     6983     7003     7033     7053     7056 
    7071     7101     7122     7125     7092     7041     7002     6967 
    6945     6952     6964     6964     6967     6986     6999     7001 
    7006     7007     7017     7055     7088     7105     7113     7103 
    7082     7056     7026     7009     7007     7010     7011     7020 
    7045     7071     7096     7119     7115     7111     7129     7132 
    7110     7069     7020     6971     6930     6913     6891     6858 
    6853     6886     6928     6961     6997     7045     7086     7114 
    7137     7160     7190     7196     7163     7144     7137     7122 
    7122     7130     7114     7069     7018     6974     6925     6894 
