Origin Time       2024/04/02 04:24:00
Lat.              40.133
Long.             141.712
Depth. (km)       71
Mag.              6.0
Station Code      ABSH09
Station Lat.      43.9269
Station Long.     144.8071
Station Height(m) 40
Record Time       2024/04/02 04:26:32
Sampling Freq(Hz) 100Hz
Duration Time(s)  120
Dir.              5
Scale Factor      7845(gal)/8223790
Max. Acc. (gal)   1.770
Last Correction   2024/04/02 04:26:32
Memo.             
[...]
   -9883    -9857    -9718    -9529    -9352    -9212    -9113    -9080 
   -9121    -9212    -9332    -9451    -9537    -9583    -9580    -9535 
   -9462    -9396    -9375    -9409    -9482    -9568    -9616    -9595 
   -9510    -9381    -9256    -9178    -9161    -9185    -9248    -9362 
   -9482    -9570    -9625    -9641    -9629    -9613    -9579    -9510 
   -9421    -9346    -9282    -9234    -9221    -9243    -9298    -9397 
   -9501    -9553    -9545    -9501    -9459    -9441    -9440    -9451 
   -9475    -9477    -9432    -9355    -9283    -9266    -9321    -9410 
   -9477    -9495    -9486    -9472    -9466    -9460    -9451    -9468 
   -9510    -9526    -9502    -9444    -9373    -9312    -9289    -9321 
   -9377    -9432    -9493    -9543    -9578    -9606    -9614    -9568 
   -9454    -9305    -9184    -9117    -9135    -9239    -9383    -9540 
   -9678    -9748    -9729    -9633    -9491    -9354    -9262    -9232 
   -9252    -9298    -9362    -9424    -9459    -9471    -9466    -9445 
   -9424    -9417    -9424    -9433    -9443    -9462    -9485    -9494 
   -9468    -9397    -9301    -9217    -9148    -9112    -9147    -9271 
   -9463    -9653    -9778    -9791    -9699    -9560    -9432    -9343 
   -9298    -9279    -9286    -9321    -9359    -9387    -9412    -9460 
   -9532    -9582    -9587    -9562    -9501    -9402    -9302    -9248 
   -9246    -9293    -9374    -9468    -9563    -9637    -9683    -9687 
   -9626    -9502    -9343    -9201    -9123    -9108    -9144    -9238 
   -9367    -9490    -9585    -9641    -9639    -9591    -9526    -9463 
   -9431    -9425    -9418    -9418    -9413    -9374    -9317    -9274 
   -9255    -9267    -9328    -9441    -9570    -9656    -9666    -9594 
   -9472    -9346    -9258    -9223    -9229    -9293    -9389    -9466 
   -9517    -9536    -9517    -9487    -9454    -9416    -9387    -9387 
   -9425    -9472    -9513    -9552    -9566    -9532    -9450    -9347 
   -9267    -9246    -9281    -9374    -9513    -9641    -9717    -9711 
   -9620    -9462    -9274    -9119    -9049    -9078    -9194    -9359 
   -9524    -9643    -9703    -9710    -9659    -9567    -9459    -9343 
   -9248    -9215    -9229    -9252    -9271    -9315    -9382    -9437 
   -9450    -9423    -9389    -9386    -9418    -9471    -9528    -9579 
   -9612    -9616    -9579    -9499    -9391    -9275    -9185    -9144 
   -9134    -9159    -9246    -9401    -9602    -9783    -9875    -9859 
   -9733    -9516    -9271    -9076    -8985    -9011    -9123    -9275 
   -9428    -9541    -9598    -9612    -9607    -9589    -9559    -9535 
   -9497    -9435    -9377    -9316    -9239    -9188    -9189    -9221 
   -9273    -9340    -9424    -9525    -9618    -9675    -9688    -9656 
   -9576    -9439    -9267    -9124    -9040    -9027    -9119    -9312 
   -9522    -9686    -9775    -9795    -9768    -9698    -9605    -9517 
   -9433    -9359    -9304    -9251    -9205    -9178    -9180    -9225 
   -9306    -9394    -9464    -9514    -9572    -9634    -9666    -9641 
   -9567    -9482    -9414    -9348    -9285    -9248    -9254    -9320 
   -9418    -9485    -9485    -9439    -9396    -9387    -9420    -9487 
   -9559    -9597    -9587    -9522    -9409    -9285    -9213    -9224 
   -9292    -9394    -9513    -9612    -9660    -9663    -9644    -9587 
   -9474    -9354    -9261    -9189    -9181    -9265    -9391    -9505 
   -9576    -9587    -9537    -9445    -9351    -9286    -9290    -9378 
   -9512    -9656    -9761    -9745    -9598    -9389    -9175    -9016 
   -8957    -9008    -9169    -9412    -9657    -9818    -9853    -9752 
   -9551    -9350    -9204    -9109    -9081    -9131    -9246    -9398 
   -9532    -9599    -9591    -9529    -9439    -9346    -9289    -9296 
   -9362    -9481    -9605    -9663    -9636    -9529    -9362    -9198 
   -9101    -9094    -9197    -9367    -9529    -9664    -9760    -9782 
   -9728    -9622    -9485    -9321    -9166    -9059    -9039    -9103 
   -9213    -9352    -9495    -9594    -9637    -9651    -9645    -9617 
   -9591    -9586    -9572    -9536    -9486    -9413    -9315    -9225 
   -9175    -9178    -9250    -9390    -9563    -9722    -9806    -9753 
   -9574    -9352    -9159    -9047    -9051    -9161    -9340    -9563 
   -9771    -9892    -9876    -9720    -9483    -9251    -9081    -8981 
   -8946    -8997    -9150    -9369    -9590    -9747    -9809    -9774 
   -9653    -9495    -9352    -9243    -9193    -9213    -9267    -9340 
   -9432    -9513    -9574    -9612    -9614    -9580    -9525    -9462 
   -9400    -9364    -9350    -9320    -9286    -9273    -9281    -9336 
   -9432    -9535    -9628    -9690    -9705    -9675    -9598    -9463 
   -9294    -9157    -9092    -9089    -9153    -9308    -9506    -9661 
   -9736    -9703    -9574    -9394    -9224    -9126    -9148    -9270 
   -9423    -9558    -9652    -9672    -9595    -9466    -9340    -9238 
   -9171    -9185    -9278    -9405    -9533    -9636    -9657    -9587 
   -9474    -9356    -9251    -9207    -9251    -9362    -9510    -9663 
   -9768    -9788    -9709    -9553    -9375    -9223    -9111    -9047 
   -9051    -9131    -9273    -9436    -9568    -9649    -9697    -9715 
   -9693    -9620    -9514    -9413    -9331    -9277    -9278    -9336 
   -9413    -9482    -9525    -9514    -9454    -9378    -9317    -9292 
   -9310    -9374    -9483    -9591    -9652    -9664    -9617    -9504 
   -9364    -9229    -9136    -9127    -9194    -9306    -9447    -9589 
   -9691    -9718    -9648    -9481    -9273    -9115    -9046    -9074 
   -9189    -9331    -9455    -9547    -9576    -9558    -9532    -9506 
   -9502    -9533    -9556    -9552    -9505    -9408    -9296    -9200 
   -9140    -9163    -9259    -9377    -9505    -9640    -9764    -9857 
   -9876    -9784    -9602    -9382    -9163    -8993    -8905    -8911 
   -9039    -9267    -9522    -9753    -9906    -9940    -9872    -9740 
   -9576    -9420    -9290    -9197    -9148    -9148    -9186    -9244 
   -9325    -9420    -9495    -9536    -9547    -9545    -9553    -9574 
   -9597    -9586    -9529    -9451    -9348    -9250    -9204    -9185 
   -9180    -9229    -9342    -9475    -9593    -9660    -9676    -9630 
   -9517    -9383    -9259    -9148    -9088    -9100    -9173    -9290 
   -9406    -9491    -9547    -9566    -9552    -9518    -9470    -9436 
   -9418    -9391    -9375    -9374    -9339    -9269    -9213    -9197 
   -9227    -9320    -9456    -9576    -9647    -9657    -9614    -9549 
   -9489    -9414    -9333    -9263    -9204    -9165    -9194    -9279 
   -9375    -9487    -9624    -9747    -9798    -9749    -9633    -9483 
   -9316    -9175    -9120    -9163    -9289    -9444    -9578    -9663 
   -9674    -9628    -9578    -9556    -9537    -9499    -9468    -9450 
   -9414    -9377    -9366    -9383    -9414    -9420    -9377    -9332 
   -9325    -9355    -9418    -9512    -9594    -9607    -9531    -9397 
   -9248    -9099    -8970    -8931    -9007    -9161    -9356    -9562 
   -9722    -9795    -9763    -9657    -9514    -9342    -9178    -9077 
   -9047    -9085    -9192    -9351    -9516    -9636    -9686    -9660 
   -9568    -9431    -9271    -9159    -9163    -9269    -9436    -9629 
   -9772    -9809    -9744    -9625    -9518    -9445    -9404    -9405 
   -9454    -9521    -9568    -9571    -9544    -9516    -9509    -9528 
   -9552    -9543    -9468    -9373    -9297    -9234    -9200    -9227 
   -9337    -9535    -9765    -9953   -10041    -9980    -9756    -9413 
   -9039    -8718    -8532    -8563    -8831    -9267    -9738   -10102 
  -10243   -10143    -9860    -9456    -9034    -8752    -8695    -8841 
   -9136    -9495    -9790    -9919    -9846    -9612    -9309    -9057 
   -8959    -9051    -9274    -9528    -9720    -9798    -9778    -9663 
   -9452    -9202    -9007    -8930    -8985    -9157    -9413    -9705 
   -9958   -10110   -10116    -9973    -9732    -9486    -9304    -9224 
   -9259    -9374    -9495    -9547    -9504    -9397    -9270    -9173 
   -9115    -9111    -9220    -9429    -9636    -9769    -9786    -9663 
   -9436    -9158    -8895    -8738    -8748    -8914    -9177    -9463 
   -9687    -9782    -9738    -9580    -9339    -9088    -8931    -8935 
   -9081    -9308    -9580    -9855   -10049   -10102   -10003    -9786 
   -9490    -9190    -8995    -8939    -9020    -9224    -9497    -9783 
  -10030   -10174   -10179   -10044    -9787    -9459    -9123    -8857 
   -8715    -8710    -8861    -9163    -9543    -9899   -10138   -10231 
  -10211   -10089    -9859    -9526    -9155    -8853    -8683    -8644 
   -8723    -8885    -9084    -9261    -9373    -9417    -9420    -9409 
   -9414    -9433    -9425    -9348    -9175    -8943    -8758    -8696 
   -8775    -8992    -9332    -9720   -10048   -10239   -10253   -10064 
   -9730    -9379    -9108    -8958    -8950    -9104    -9379    -9674 
   -9891    -9984    -9942    -9783    -9562    -9378    -9310    -9378 
   -9570    -9830   -10062   -10166   -10075    -9787    -9369    -8919 
   -8553    -8384    -8479    -8831    -9358    -9902   -10292   -10438 
  -10328   -10014    -9616    -9279    -9070    -8993    -9042    -9161 
   -9254    -9290    -9289    -9256    -9220    -9223    -9283    -9420 
   -9628    -9861   -10041   -10087    -9952    -9663    -9258    -8802 
   -8425    -8249    -8356    -8746    -9296    -9837   -10226   -10357 
  -10200    -9795    -9246    -8708    -8340    -8253    -8464    -8866 
   -9348    -9811   -10137   -10276   -10245   -10075    -9834    -9603 
   -9428    -9329    -9308    -9342    -9402    -9470    -9509    -9471 
   -9381    -9321    -9335    -9424    -9582    -9778    -9954   -10053 
  -10012    -9806    -9477    -9100    -8754    -8537    -8527    -8718 
   -9067    -9524    -9977   -10301   -10420   -10312   -10022    -9624 
   -9197    -8810    -8511    -8367    -8417    -8638    -8976    -9359 
   -9715    -9979   -10106   -10089    -9954    -9752    -9548    -9394 
   -9324    -9348    -9431    -9516    -9526    -9416    -9231    -9066 
   -8977    -8972    -9054    -9238    -9498    -9790   -10041   -10166 
  -10137    -9981    -9744    -9483    -9266    -9092    -8938    -8850 
   -8884    -9031    -9251    -9505    -9711    -9783    -9729    -9625 
   -9505    -9362    -9212    -9097    -9061    -9100    -9161    -9219 
   -9296    -9396    -9516    -9647    -9752    -9774    -9672    -9462 
   -9205    -8972    -8826    -8826    -8991    -9273    -9603    -9909 
  -10106   -10131    -9979    -9699    -9373    -9078    -8880    -8795 
   -8839    -9019    -9302    -9647    -9999   -10246   -10289   -10129 
   -9840    -9537    -9309    -9200    -9243    -9404    -9559    -9622 
   -9586    -9456    -9254    -9077    -9027    -9130    -9375    -9690 
   -9904    -9900    -9670    -9292    -8901    -8592    -8414    -8434 
   -8679    -9074    -9506    -9856   -10014    -9952    -9721    -9410 
   -9115    -8919    -8884    -9011    -9236    -9441    -9494    -9331 
   -9009    -8692    -8529    -8604    -8934    -9452   -10042   -10552 
  -10837   -10837   -10570   -10075    -9463    -8892    -8467    -8267 
   -8351    -8730    -9321    -9956   -10494   -10855   -10974   -10837 
  -10474    -9963    -9418    -8954    -8673    -8603    -8684    -8849 
   -9043    -9243    -9437    -9613    -9790   -10003   -10223   -10372 
  -10382   -10193    -9791    -9248    -8694    -8252    -8000    -7956 
   -8143    -8560    -9143    -9786   -10376   -10800   -10949   -10764 
  -10280    -9641    -9000    -8480    -8191    -8208    -8506    -8961 
   -9428    -9809   -10045   -10104    -9977    -9694    -9348    -9081 
   -8978    -9023    -9170    -9393    -9652    -9877    -9985    -9945 
   -9792    -9620    -9513    -9468    -9412    -9332    -9265    -9198 
   -9134    -9108    -9121    -9158    -9232    -9351    -9481    -9560 
   -9543    -9417    -9220    -9007    -8831    -8753    -8799    -8962 
   -9219    -9541    -9864   -10076   -10119   -10018    -9803    -9509 
   -9207    -8991    -8942    -9072    -9309    -9587    -9834    -9961 
   -9931    -9765    -9508    -9252    -9088    -9042    -9109    -9256 
   -9417    -9556    -9666    -9734    -9761    -9772    -9775    -9778 
   -9794    -9833    -9863    -9819    -9682    -9493    -9309    -9153 
   -9013    -8887    -8804    -8807    -8915    -9107    -9306    -9490 
   -9659    -9764    -9772    -9701    -9547    -9317    -9086    -8941 
   -8920    -9007    -9146    -9282    -9391    -9495    -9610    -9702 
   -9738    -9744    -9725    -9661    -9531    -9339    -9138    -9011 
   -9023    -9155    -9362    -9617    -9888   -10110   -10218   -10154 
   -9926    -9626    -9340    -9086    -8891    -8783    -8777    -8854 
   -8982    -9157    -9362    -9553    -9697    -9751    -9664    -9444 
   -9205    -9092    -9148    -9327    -9559    -9756    -9828    -9740 
   -9506    -9185    -8889    -8733    -8765    -8951    -9207    -9450 
   -9630    -9724    -9718    -9625    -9479    -9337    -9273    -9319 
   -9472    -9697    -9879    -9914    -9780    -9516    -9188    -8881 
   -8696    -8730    -9019    -9514   -10064   -10486   -10636   -10436 
   -9945    -9335    -8777    -8425    -8372    -8653    -9227    -9919 
  -10471   -10701   -10582   -10214    -9747    -9348    -9126    -9090 
   -9220    -9439    -9616    -9647    -9489    -9158    -8743    -8374 
   -8178    -8275    -8695    -9350   -10081   -10693   -10984   -10860 
  -10346    -9555    -8684    -7963    -7569    -7600    -8046    -8781 
   -9595   -10238   -10527   -10457   -10146    -9749    -9391    -9139 
   -9054    -9161    -9387    -9633    -9794    -9794    -9670    -9516 
   -9390    -9359    -9452    -9639    -9855   -10006    -9991    -9780 
   -9439    -9072    -8789    -8671    -8753    -9027    -9423    -9806 
  -10041   -10050    -9829    -9455    -9069    -8807    -8772    -8974 
   -9320    -9706   -10048   -10239   -10203    -9914    -9439    -8918 
   -8515    -8361    -8491    -8846    -9328    -9832   -10230   -10407 
  -10303    -9945    -9425    -8891    -8523    -8425    -8560    -8845 
   -9213    -9575    -9837    -9953    -9929    -9803    -9648    -9525 
   -9435    -9347    -9262    -9213    -9209    -9232    -9292    -9391 
   -9531    -9707    -9887   -10023   -10076   -10018    -9883    -9725 
   -9547    -9313    -9053    -8850    -8757    -8764    -8868    -9059 
   -9296    -9533    -9752    -9918    -9975    -9898    -9741    -9564 
   -9373    -9192    -9046    -8915    -8810    -8770    -8788    -8827 
   -8887    -9011    -9235    -9544    -9880   -10166   -10331   -10331 
  -10188    -9945    -9613    -9213    -8822    -8517    -8371    -8449 
   -8741    -9165    -9629   -10046   -10331   -10424   -10338   -10134 
   -9875    -9620    -9383    -9146    -8927    -8761    -8672    -8704 
   -8870    -9143    -9485    -9833   -10116   -10281   -10293   -10176 
   -9996    -9806    -9597    -9352    -9093    -8849    -8669    -8640 
   -8814    -9196    -9709   -10206   -10557   -10693   -10573   -10201 
   -9649    -9027    -8499    -8213    -8218    -8476    -8892    -9342 
   -9718    -9964   -10056    -9991    -9805    -9583    -9429    -9390 
   -9432    -9483    -9471    -9354    -9151    -8935    -8802    -8812 
   -8984    -9304    -9710   -10098   -10339   -10341   -10120    -9774 
   -9391    -9055    -8831    -8730    -8734    -8837    -8997    -9139 
   -9248    -9404    -9656    -9923   -10104   -10166   -10100    -9900 
   -9580    -9204    -8869    -8648    -8590    -8721    -8999    -9350 
   -9687    -9910    -9958    -9836    -9598    -9333    -9138    -9074 
   -9153    -9342    -9567    -9722    -9737    -9607    -9387    -9139 
   -8918    -8768    -8741    -8876    -9158    -9533    -9918   -10214 
  -10324   -10222    -9961    -9624    -9261    -8938    -8723    -8668 
   -8791    -9058    -9371    -9625    -9769    -9807    -9749    -9610 
   -9425    -9259    -9180    -9184    -9221    -9266    -9305    -9337 
   -9387    -9467    -9576    -9710    -9872   -10031   -10099   -10018 
   -9801    -9471    -9105    -8803    -8591    -8507    -8595    -8833 
   -9162    -9521    -9848   -10081   -10189   -10160    -9991    -9701 
   -9359    -9053    -8835    -8739    -8765    -8908    -9166    -9498 
   -9845   -10130   -10260   -10191    -9941    -9551    -9097    -8696 
   -8457    -8456    -8719    -9212    -9802   -10291   -10513   -10420 
  -10056    -9518    -8962    -8548    -8375    -8491    -8877    -9401 
   -9891   -10214   -10304   -10180    -9914    -9591    -9273    -9023 
   -8908    -8923    -9039    -9243    -9499    -9745    -9913    -9954 
   -9879    -9713    -9490    -9266    -9119    -9094    -9161    -9263 
   -9389    -9495    -9537    -9518    -9466    -9414    -9409    -9452 
   -9524    -9599    -9663    -9709    -9715    -9634    -9483    -9317 
   -9181    -9121    -9157    -9251    -9362    -9467    -9576    -9680 
   -9745    -9744    -9670    -9545    -9421    -9316    -9228    -9159 
   -9101    -9051    -9026    -9035    -9077    -9165    -9312    -9504 
   -9706    -9855    -9895    -9861    -9809    -9717    -9566    -9408 
   -9273    -9144    -9008    -8872    -8769    -8766    -8914    -9197 
   -9526    -9825   -10057   -10192   -10188   -10030    -9749    -9412 
   -9109    -8922    -8857    -8873    -8934    -9043    -9215    -9441 
   -9695    -9921   -10061   -10095   -10023    -9869    -9659    -9397 
   -9126    -8924    -8833    -8864    -9001    -9204    -9448    -9701 
   -9904   -10002    -9945    -9749    -9474    -9184    -8949    -8810 
   -8780    -8868    -9043    -9246    -9440    -9620    -9748    -9801 
   -9796    -9747    -9639    -9478    -9289    -9094    -8924    -8808 
   -8785    -8872    -9059    -9324    -9589    -9763    -9811    -9730 
   -9574    -9435    -9363    -9321    -9292    -9297    -9342    -9396 
   -9432    -9437    -9405    -9340    -9261    -9208    -9220    -9312 
   -9490    -9726    -9952   -10107   -10146   -10027    -9751    -9383 
   -9034    -8829    -8819    -8939    -9121    -9325    -9499    -9607 
   -9617    -9545    -9467    -9459    -9544    -9687    -9844    -9942 
   -9910    -9769    -9560    -9297    -9057    -8897    -8814    -8814 
   -8935    -9165    -9456    -9780   -10089   -10305   -10366   -10231 
   -9880    -9371    -8849    -8444    -8248    -8336    -8689    -9208 
   -9761   -10226   -10511   -10571   -10393   -10015    -9533    -9086 
   -8795    -8704    -8791    -9026    -9351    -9664    -9869    -9907 
   -9760    -9479    -9186    -9009    -9001    -9147    -9404    -9703 
   -9968   -10103   -10023    -9738    -9351    -8984    -8738    -8680 
   -8810    -9085    -9420    -9718    -9917    -9981    -9926    -9809 
   -9682    -9589    -9572    -9614    -9659    -9670    -9576    -9352 
   -9112    -8964    -8930    -9008    -9177    -9408    -9684    -9972 
  -10193   -10253   -10107    -9786    -9381    -9032    -8842    -8820 
   -8941    -9140    -9340    -9478    -9513    -9450    -9323    -9208 
   -9194    -9308    -9502    -9705    -9842    -9850    -9690    -9394 
   -9049    -8734    -8536    -8529    -8746    -9144    -9622   -10060 
  -10346   -10411   -10255    -9919    -9489    -9092    -8830    -8752 
   -8827    -8999    -9221    -9420    -9514    -9497    -9423    -9362 
