Origin Time       2024/04/02 04:24:00
Lat.              40.133
Long.             141.712
Depth. (km)       71
Mag.              6.0
Station Code      ABSH07
Station Lat.      43.8494
Station Long.     143.0861
Station Height(m) 572
Record Time       2024/04/02 04:26:25
Sampling Freq(Hz) 100Hz
Duration Time(s)  120
Dir.              1
Scale Factor      2942(gal)/8224139
Max. Acc. (gal)   0.196
Last Correction   2024/04/02 04:26:25
Memo.             
[...]
  162997   162981   162965   162974   162977   162942   162915   162923 
  162958   163024   163102   163166   163215   163240   163237   163220 
  163165   163062   162977   162932   162880   162839   162839   162830 
  162787   162733   162692   162719   162827   162935   162985   162992 
  162965   162928   162897   162842   162745   162656   162621   162635 
  162660   162670   162661   162649   162672   162739   162808   162846 
  162839   162799   162754   162719   162704   162722   162743   162720 
  162687   162707   162754   162772   162773   162777   162773   162768 
  162781   162792   162774   162751   162729   162707   162735   162814 
  162870   162868   162834   162814   162827   162858   162865   162858 
  162884   162912   162903   162891   162889   162876   162899   162970 
  163026   163046   163063   163102   163142   163131   163082   163058 
  163046   163001   162955   162954   162962   162940   162900   162841 
  162800   162831   162880   162873   162827   162796   162807   162850 
  162893   162908   162903   162911   162927   162919   162872   162831 
  162830   162847   162874   162923   162965   162985   162986   162932 
  162827   162733   162675   162641   162634   162669   162739   162818 
  162873   162880   162846   162815   162812   162842   162872   162858 
  162838   162873   162939   162982   163019   163043   163032   163032 
  163058   163054   163035   163026   162985   162907   162816   162743 
  162729   162789   162876   162963   163043   163085   163078   163035 
  162972   162945   162955   162928   162864   162838   162872   162934 
  162990   163040   163078   163093   163105   163116   163085   163005 
  162907   162814   162750   162715   162658   162554   162468   162476 
  162584   162712   162791   162805   162781   162743   162693   162619 
  162552   162518   162511   162527   162572   162629   162691   162757 
  162787   162747   162673   162589   162494   162432   162438   162484 
  162550   162615   162641   162634   162645   162707   162807   162885 
  162932   162988   163023   162996   162989   163043   163071   163069 
  163090   163134   163155   163139   163104   163061   163023   163012 
  162985   162912   162854   162838   162842   162873   162932   162978 
  163020   163088   163123   163101   163125   163204   163216   163131 
  163039   162984   162935   162900   162899   162908   162909   162916 
  162916   162891   162842   162766   162669   162604   162602   162631 
  162670   162722   162791   162862   162892   162869   162861   162901 
  162928   162931   162943   162926   162872   162842   162834   162804 
  162769   162742   162707   162680   162696   162738   162799   162873 
  162904   162876   162859   162885   162905   162912   162924   162913 
  162862   162812   162792   162801   162847   162903   162913   162893 
  162896   162932   162967   162966   162938   162915   162901   162901 
  162916   162922   162912   162907   162905   162926   162958   162961 
  162942   162932   162904   162835   162772   162760   162785   162807 
  162814   162830   162857   162862   162847   162831   162807   162768 
  162726   162688   162675   162677   162656   162626   162614   162612 
  162622   162631   162648   162687   162710   162689   162675   162668 
  162654   162683   162746   162799   162843   162900   162972   163028 
  163032   163015   163013   162999   162947   162885   162834   162795 
  162750   162706   162707   162758   162826   162900   162965   162990 
  162981   162959   162943   162958   163013   163057   163042   162993 
  162947   162928   162930   162927   162913   162908   162919   162926 
  162904   162849   162776   162731   162729   162741   162765   162822 
  162896   162965   163024   163063   163065   163054   163059   163071 
  163062   163015   162958   162926   162908   162891   162881   162903 
  162959   163003   162996   162957   162927   162927   162936   162916 
  162886   162900   162927   162935   162957   162980   162976   162984 
  163009   163005   162977   162957   162942   162936   162945   162945 
  162959   162990   162992   162982   162993   162993   162989   163007 
  162999   162958   162920   162877   162826   162801   162804   162822 
  162850   162866   162858   162859   162874   162874   162855   162835 
  162819   162816   162834   162845   162870   162936   163000   163039 
  163071   163065   163009   162935   162850   162768   162699   162641 
  162607   162614   162639   162649   162649   162665   162696   162708 
  162722   162778   162843   162869   162886   162904   162908   162927 
  162949   162931   162893   162869   162862   162892   162945   162966 
  162951   162934   162915   162891   162874   162884   162893   162864 
  162834   162837   162859   162912   162997   163071   163107   163127 
  163150   163147   163111   163057   162984   162899   162837   162800 
  162783   162801   162831   162811   162745   162695   162691   162697 
  162675   162621   162565   162540   162553   162592   162657   162722 
  162753   162760   162754   162735   162722   162712   162697   162673 
  162639   162612   162600   162585   162561   162535   162534   162569 
  162599   162610   162633   162660   162665   162664   162687   162733 
  162774   162793   162793   162783   162773   162780   162793   162797 
  162816   162849   162851   162826   162803   162801   162827   162857 
  162869   162882   162901   162897   162885   162912   162988   163071 
  163113   163121   163117   163089   163043   163000   162973   162963 
  162946   162920   162904   162896   162896   162909   162936   162973 
  163008   163013   162978   162938   162909   162874   162838   162819 
  162808   162795   162804   162855   162931   162999   163034   163015 
  162970   162950   162947   162935   162919   162900   162880   162886 
  162900   162900   162916   162951   162966   162961   162966   162973 
  162946   162895   162865   162850   162820   162785   162760   162743 
  162734   162742   162783   162827   162850   162855   162850   162828 
  162820   162854   162909   162951   162972   162982   162984   162976 
  162977   162973   162945   162908   162873   162847   162837   162827 
  162795   162746   162707   162692   162672   162657   162683   162735 
  162791   162846   162880   162892   162904   162903   162889   162882 
  162876   162872   162878   162888   162885   162865   162857   162873 
  162888   162900   162922   162938   162938   162923   162895   162865 
  162845   162828   162822   162831   162851   162881   162918   162947 
  162959   162962   162990   163034   163039   163004   162959   162920 
  162892   162869   162861   162889   162912   162886   162851   162842 
  162830   162824   162851   162878   162880   162880   162868   162827 
  162804   162812   162803   162764   162718   162666   162623   162630 
  162672   162696   162710   162749   162792   162805   162812   162837 
  162872   162903   162924   162934   162936   162950   162986   163021 
  163031   163026   163012   162989   162946   162892   162847   162804 
  162739   162680   162675   162706   162743   162781   162819   162855 
  162880   162895   162915   162934   162953   162969   162977   162969 
  162945   162900   162854   162827   162799   162762   162745   162764 
  162791   162799   162784   162762   162750   162760   162787   162822 
  162868   162934   162967   162927   162869   162845   162838   162835 
  162843   162853   162846   162810   162753   162696   162660   162649 
  162650   162650   162648   162642   162637   162648   162672   162696 
  162724   162758   162787   162787   162765   162760   162787   162816 
  162824   162835   162872   162918   162955   162954   162922   162909 
  162918   162903   162868   162843   162845   162864   162868   162849 
  162828   162819   162819   162820   162792   162737   162696   162683 
  162673   162677   162712   162749   162761   162781   162822   162832 
  162814   162818   162845   162873   162891   162901   162918   162934 
  162935   162938   162945   162938   162923   162920   162930   162938 
  162957   162981   162986   162967   162931   162896   162884   162897 
  162935   162994   163042   163066   163084   163088   163077   163075 
  163078   163048   162986   162923   162880   162872   162881   162865 
  162841   162838   162838   162853   162895   162936   162962   162974 
  162986   163011   163028   162997   162942   162912   162915   162938 
  162973   163011   163032   163031   163008   162961   162903   162866 
  162850   162847   162862   162861   162828   162807   162819   162857 
  162893   162907   162923   162946   162945   162927   162911   162882 
  162862   162880   162926   162976   163015   163036   163031   163007 
  162984   162965   162943   162936   162959   163004   163038   163040 
  163024   163009   163009   163027   163044   163043   163013   162972 
  162932   162893   162862   162831   162784   162727   162695   162696 
  162710   162727   162749   162757   162761   162780   162799   162807 
  162810   162805   162803   162824   162872   162931   162985   163024 
  163048   163066   163078   163084   163077   163047   162996   162953 
  162930   162908   162888   162884   162880   162861   162831   162795 
  162765   162765   162801   162858   162896   162900   162889   162866 
  162818   162769   162749   162753   162758   162758   162762   162768 
  162761   162751   162733   162689   162660   162665   162669   162665 
  162688   162739   162788   162814   162822   162839   162874   162895 
  162881   162859   162846   162838   162816   162774   162735   162708 
  162688   162669   162639   162595   162562   162553   162556   162564 
  162579   162598   162611   162602   162581   162576   162583   162588 
  162594   162587   162577   162573   162557   162542   162569   162627 
  162685   162731   162766   162788   162796   162805   162822   162849 
  162872   162874   162858   162822   162781   162760   162747   162735 
  162730   162729   162727   162741   162770   162796   162808   162800 
  162769   162741   162734   162731   162710   162684   162681   162707 
  162741   162774   162826   162889   162943   162970   162970   162965 
  162973   162992   163004   162992   162977   162969   162962   162973 
  162999   163011   163007   162989   162962   162932   162909   162913 
  162938   162953   162958   162963   162985   163028   163062   163077 
  163108   163150   163175   163201   163236   163264   163283   163286 
  163258   163212   163183   163181   163171   163143   163105   163073 
  163046   163001   162945   162909   162888   162874   162889   162922 
  162958   163009   163053   163059   163048   163034   163005   162966 
  162931   162913   162911   162912   162913   162922   162931   162939 
  162958   162978   162990   163003   163023   163050   163073   163090 
  163107   163116   163111   163100   163088   163084   163094   163107 
  163112   163108   163088   163061   163040   163019   163001   163000 
  163001   162985   162969   162973   162989   163009   163024   163008 
  162963   162930   162918   162916   162907   162876   162843   162826 
  162804   162764   162720   162695   162684   162679   162670   162649 
  162618   162594   162580   162575   162588   162612   162625   162610 
  162589   162583   162584   162588   162602   162625   162653   162662 
  162634   162600   162596   162618   162646   162657   162664   162695 
  162733   162745   162731   162704   162670   162637   162606   162584 
  162587   162607   162619   162623   162638   162661   162680   162683 
  162668   162646   162627   162618   162627   162645   162662   162691 
  162716   162726   162734   162747   162773   162814   162846   162878 
  162919   162940   162943   162958   162977   162994   163004   162985 
  162947   162931   162946   162959   162950   162931   162923   162924 
  162930   162932   162927   162926   162932   162957   163001   163048 
  163070   163063   163054   163054   163051   163048   163051   163042 
  163017   163004   163008   163001   162974   162940   162912   162893 
  162882   162878   162886   162900   162903   162900   162900   162896 
  162899   162930   162961   162966   162966   162966   162962   162958 
  162940   162905   162876   162862   162861   162872   162876   162865 
  162850   162838   162830   162822   162804   162783   162769   162761 
  162753   162747   162750   162758   162766   162783   162800   162800 
  162787   162784   162789   162799   162822   162857   162884   162901 
  162918   162934   162946   162943   162927   162918   162908   162878 
  162831   162778   162722   162660   162607   162565   162533   162525 
  162554   162600   162631   162649   162665   162669   162661   162649 
  162630   162600   162573   162565   162575   162587   162589   162584 
  162565   162538   162511   162490   162472   162468   162483   162510 
  162545   162579   162599   162604   162606   162616   162621   162615 
  162621   162638   162658   162687   162718   162735   162743   162750 
  162766   162791   162808   162827   162865   162911   162950   162989 
  163031   163070   163092   163104   163128   163166   163190   163200 
  163201   163185   163148   163117   163113   163132   163155   163171 
  163185   163198   163205   163194   163173   163150   163131   163128 
  163138   163142   163135   163124   163116   163113   163117   163120 
  163108   163089   163081   163074   163062   163055   163067   163080 
  163092   163120   163174   163231   163287   163347   163389   163402 
  163408   163408   163386   163339   163281   163242   163235   163239 
  163243   163235   163220   163216   163208   163197   163197   163192 
  163177   163166   163151   163125   163098   163073   163055   163030 
  162986   162949   162930   162907   162866   162828   162805   162787 
  162766   162735   162696   162672   162669   162681   162697   162703 
  162696   162679   162650   162622   162602   162577   162550   162529 
  162523   162522   162519   162518   162503   162472   162452   162448 
  162448   162453   162471   162502   162527   162533   162535   162557 
  162585   162607   162626   162639   162649   162662   162677   162687 
  162691   162676   162652   162641   162637   162616   162592   162587 
  162610   162646   162666   162676   162680   162681   162684   162697 
  162706   162707   162718   162723   162716   162714   162716   162731 
  162750   162756   162750   162739   162722   162711   162710   162722 
  162739   162751   162769   162800   162837   162862   162864   162846 
  162831   162830   162841   162877   162919   162938   162955   162993 
  163026   163046   163055   163055   163055   163057   163054   163047 
  163038   163026   163023   163039   163075   163116   163135   163139 
  163146   163158   163170   163188   163209   163220   163213   163202 
  163193   163185   163182   163181   163167   163131   163092   163071 
  163058   163040   163028   163024   163027   163042   163057   163058 
  163055   163046   163023   162997   162974   162943   162905   162880 
  162861   162841   162822   162801   162785   162773   162757   162741 
  162737   162739   162743   162751   162765   162783   162797   162800 
  162795   162781   162754   162719   162691   162676   162675   162685 
  162696   162710   162727   162742   162733   162710   162700   162699 
  162681   162653   162633   162629   162631   162630   162631   162649 
  162670   162685   162691   162687   162676   162666   162656   162639 
  162621   162618   162639   162661   162675   162700   162735   162761 
  162765   162756   162753   162754   162754   162754   162749   162741 
  162733   162724   162722   162724   162727   162739   162762   162778 
  162788   162799   162804   162801   162795   162801   162814   162818 
  162824   162830   162832   162850   162861   162851   162851   162874 
  162901   162926   162938   162931   162923   162916   162899   162876 
  162855   162838   162837   162864   162907   162955   162993   163017 
  163038   163055   163069   163094   163121   163127   163115   163097 
  163086   163090   163104   163116   163119   163102   163082   163067 
  163039   162992   162953   162932   162920   162923   162949   162984 
  163024   163065   163084   163085   163080   163077   163081   163094 
  163111   163116   163109   163090   163062   163035   163013   162985 
  162959   162957   162966   162972   162961   162945   162936   162930 
  162918   162912   162926   162947   162972   162990   162996   162988 
  162959   162919   162881   162845   162814   162796   162780   162757 
  162733   162704   162681   162672   162673   162676   162687   162706 
  162718   162729   162747   162770   162799   162823   162830   162827 
  162823   162811   162788   162756   162723   162703   162693   162683 
  162666   162648   162634   162627   162623   162619   162616   162612 
  162611   162608   162611   162625   162618   162592   162573   162558 
  162541   162525   162519   162527   162541   162562   162585   162606 
  162627   162654   162677   162683   162675   162675   162692   162718 
  162745   162769   162789   162796   162797   162807   162815   162826 
  162849   162868   162885   162911   162926   162928   162931   162939 
  162955   162977   162992   163005   163012   163005   163005   163015 
  163015   163015   163011   162990   162959   162930   162908   162900 
  162893   162889   162900   162908   162901   162893   162891   162881 
  162859   162838   162827   162820   162814   162807   162793   162770 
  162757   162769   162796   162816   162827   162834   162847   162866 
  162884   162909   162950   162996   163027   163039   163047   163057 
  163063   163073   163084   163088   163090   163104   163132   163167 
  163200   163224   163233   163225   163215   163223   163239   163248 
  163258   163275   163291   163301   163298   163286   163258   163229 
  163213   163197   163166   163134   163102   163065   163028   162996 
  162969   162951   162947   162954   162950   162926   162893   162858 
  162827   162807   162793   162795   162811   162820   162826   162834 
  162845   162862   162874   162877   162881   162884   162878   162866 
  162849   162838   162837   162835   162831   162826   162810   162791 
  162777   162769   162770   162781   162792   162792   162787   162793 
  162799   162793   162789   162791   162788   162787   162793   162804 
  162818   162824   162822   162819   162815   162803   162795   162799 
  162807   162810   162812   162814   162803   162791   162799   162805 
  162800   162800   162805   162810   162811   162804   162787   162757 
  162724   162699   162672   162645   162627   162612   162589   162560 
  162535   162527   162525   162519   162515   162518   162531   162550 
  162560   162561   162580   162611   162631   162646   162668   162692 
  162707   162715   162727   162749   162772   162792   162803   162801 
  162805   162812   162810   162807   162816   162832   162858   162888 
  162907   162915   162915   162905   162892   162880   162868   162855 
  162857   162865   162865   162864   162868   162872   162873   162880 
  162888   162896   162901   162899   162893   162888   162880   162881 
  162892   162896   162896   162904   162907   162899   162889   162873 
  162858   162855   162858   162861   162865   162865   162868   162872 
  162869   162869   162874   162882   162893   162907   162915   162918 
