Origin Time       2024/04/02 04:24:00
Lat.              40.133
Long.             141.712
Depth. (km)       71
Mag.              6.0
Station Code      ABSH07
Station Lat.      43.8494
Station Long.     143.0861
Station Height(m) 572
Record Time       2024/04/02 04:26:25
Sampling Freq(Hz) 100Hz
Duration Time(s)  120
Dir.              2
Scale Factor      2942(gal)/8224139
Max. Acc. (gal)   0.192
Last Correction   2024/04/02 04:26:25
Memo.             
[...]
  121174   121173   121169   121184   121208   121221   121228   121231 
  121224   121219   121216   121213   121224   121261   121297   121311 
  121313   121312   121301   121288   121284   121286   121290   121284 
  121259   121234   121225   121224   121235   121255   121261   121261 
  121271   121275   121262   121240   121221   121212   121209   121205 
  121212   121235   121262   121286   121301   121298   121282   121281 
  121297   121317   121338   121356   121367   121362   121340   121317 
  121308   121308   121304   121296   121297   121312   121320   121313 
  121309   121308   121294   121286   121294   121300   121296   121278 
  121252   121234   121215   121193   121177   121166   121176   121197 
  121219   121244   121261   121254   121242   121232   121225   121221 
  121224   121239   121255   121263   121269   121278   121282   121282 
  121279   121281   121286   121292   121293   121294   121294   121293 
  121277   121255   121255   121274   121300   121327   121346   121352 
  121354   121351   121328   121306   121313   121333   121346   121359 
  121371   121373   121371   121379   121393   121402   121397   121377 
  121371   121386   121402   121423   121447   121456   121448   121440 
  121448   121467   121477   121470   121463   121450   121416   121379 
  121351   121328   121323   121338   121342   121317   121279   121247 
  121227   121213   121208   121216   121238   121259   121273   121274 
  121269   121265   121258   121244   121221   121196   121184   121188 
  121186   121176   121180   121193   121194   121193   121203   121209 
  121213   121219   121231   121252   121267   121271   121274   121275 
  121269   121263   121262   121255   121240   121223   121209   121213 
  121231   121244   121255   121269   121257   121216   121177   121151 
  121140   121144   121157   121176   121208   121244   121263   121269 
  121278   121296   121294   121277   121274   121296   121309   121311 
  121313   121300   121271   121265   121289   121311   121304   121286 
  121296   121324   121348   121366   121360   121327   121281   121235 
  121194   121166   121151   121151   121163   121189   121238   121281 
  121290   121290   121300   121308   121313   121316   121315   121311 
  121301   121297   121312   121325   121319   121312   121320   121332 
  121336   121333   121327   121327   121327   121323   121329   121335 
  121323   121302   121288   121282   121301   121340   121386   121423 
  121436   121427   121417   121408   121383   121362   121346   121320 
  121288   121273   121284   121302   121308   121290   121275   121274 
  121284   121312   121344   121369   121385   121396   121398   121390 
  121370   121351   121338   121321   121313   121315   121319   121317 
  121315   121325   121340   121339   121321   121301   121293   121302 
  121320   121339   121344   121335   121332   121347   121356   121351 
  121340   121321   121302   121301   121313   121316   121309   121305 
  121308   121306   121305   121313   121311   121285   121262   121267 
  121301   121333   121344   121348   121350   121339   121325   121329 
  121346   121351   121347   121350   121354   121354   121358   121360 
  121354   121340   121316   121277   121227   121182   121161   121157 
  121154   121151   121149   121150   121153   121149   121144   121150 
  121150   121136   121127   121134   121146   121150   121143   121138 
  121142   121144   121154   121184   121219   121230   121219   121212 
  121212   121216   121227   121231   121213   121201   121201   121182 
  121155   121157   121188   121215   121224   121232   121242   121246 
  121257   121278   121296   121319   121340   121340   121343   121373 
  121389   121366   121342   121329   121317   121305   121293   121277 
  121266   121275   121290   121288   121278   121284   121286   121271 
  121265   121270   121274   121285   121300   121321   121343   121344 
  121346   121355   121358   121362   121377   121392   121402   121401 
  121387   121374   121371   121389   121423   121444   121448   121456 
  121462   121444   121405   121363   121305   121239   121198   121186 
  121193   121209   121208   121194   121193   121203   121224   121246 
  121252   121251   121250   121248   121255   121282   121319   121346 
  121360   121367   121366   121362   121362   121354   121346   121343 
  121328   121313   121319   121323   121319   121320   121323   121312 
  121294   121285   121288   121296   121306   121320   121328   121329 
  121338   121351   121358   121346   121338   121339   121339   121328 
  121305   121281   121263   121255   121263   121273   121271   121266 
  121262   121259   121262   121284   121324   121363   121381   121383 
  121385   121385   121374   121354   121328   121300   121281   121277 
  121282   121297   121309   121317   121328   121320   121279   121242 
  121225   121209   121182   121161   121161   121159   121146   121146 
  121149   121143   121138   121131   121136   121150   121155   121174 
  121216   121246   121235   121205   121184   121173   121178   121203 
  121230   121252   121265   121261   121247   121243   121252   121248 
  121228   121216   121212   121215   121228   121251   121269   121274 
  121267   121269   121277   121267   121251   121244   121239   121244 
  121262   121275   121278   121281   121289   121294   121290   121296 
  121305   121293   121275   121282   121306   121339   121366   121362 
  121346   121346   121348   121332   121294   121257   121232   121228 
  121258   121308   121347   121374   121394   121387   121351   121332 
  121344   121351   121333   121306   121286   121286   121297   121312 
  121336   121352   121351   121340   121335   121343   121358   121370 
  121366   121338   121305   121285   121265   121251   121246   121236 
  121232   121236   121235   121238   121238   121225   121219   121231 
  121240   121247   121259   121254   121228   121217   121231   121261 
  121293   121321   121344   121358   121356   121342   121311   121273 
  121246   121215   121176   121153   121166   121215   121269   121304 
  121333   121358   121344   121305   121279   121271   121261   121246 
  121232   121211   121190   121182   121162   121115   121070   121070 
  121123   121184   121207   121207   121209   121215   121220   121234 
  121262   121309   121379   121450   121489   121506   121527   121548 
  121543   121508   121467   121428   121386   121348   121309   121277 
  121292   121352   121416   121450   121458   121447   121423   121398 
  121374   121342   121325   121336   121354   121373   121390   121416 
  121455   121491   121500   121470   121421   121389   121369   121332 
  121278   121223   121184   121171   121176   121197   121234   121244 
  121198   121144   121149   121200   121250   121275   121284   121270 
  121250   121263   121313   121355   121373   121381   121379   121347 
  121285   121248   121275   121298   121277   121262   121293   121362 
  121440   121464   121413   121354   121325   121305   121281   121248 
  121228   121252   121297   121327   121351   121381   121394   121366 
  121301   121228   121171   121139   121117   121103   121096   121099 
  121112   121113   121095   121108   121176   121232   121238   121223 
  121215   121193   121134   121077   121077   121117   121161   121198 
  121209   121194   121180   121171   121180   121200   121182   121135 
  121105   121099   121096   121108   121165   121244   121290   121274 
  121221   121173   121146   121139   121153   121184   121216   121231 
  121240   121273   121312   121352   121387   121401   121396   121393 
  121392   121385   121370   121351   121354   121383   121427   121462 
  121483   121490   121475   121452   121424   121375   121315   121289 
  121315   121351   121371   121390   121414   121412   121389   121383 
  121397   121414   121425   121423   121392   121324   121234   121173 
  121178   121224   121282   121344   121373   121332   121250   121188 
  121169   121159   121153   121170   121192   121192   121194   121213 
  121224   121221   121221   121235   121279   121340   121355   121306 
  121257   121267   121338   121402   121413   121371   121317   121312 
  121374   121429   121433   121424   121393   121312   121235   121207 
  121208   121217   121242   121281   121296   121266   121227   121213 
  121211   121200   121200   121211   121194   121144   121108   121122 
  121144   121123   121086   121070   121090   121134   121139   121089 
  121073   121116   121151   121157   121184   121225   121235   121220 
  121208   121194   121197   121254   121338   121373   121355   121348 
  121369   121385   121387   121381   121360   121336   121323   121308 
  121274   121263   121321   121409   121485   121543   121554   121501 
  121436   121393   121335   121274   121273   121309   121319   121300 
  121278   121266   121251   121228   121247   121329   121396   121398 
  121390   121414   121452   121467   121447   121400   121332   121248 
  121166   121112   121126   121197   121246   121223   121170   121124 
  121099   121120   121177   121211   121231   121269   121308   121360 
  121406   121359   121252   121200   121201   121193   121182   121204 
  121255   121298   121317   121354   121447   121559   121640   121663 
  121613   121520   121441   121396   121377   121378   121386   121387 
  121410   121467   121525   121568   121621   121664   121633   121548 
  121485   121444   121398   121374   121377   121371   121362   121385 
  121446   121516   121568   121586   121570   121543   121509   121470 
  121443   121400   121321   121255   121224   121207   121189   121178 
  121193   121234   121240   121207   121213   121277   121327   121338 
  121338   121352   121386   121401   121348   121259   121193   121163 
  121171   121207   121230   121239   121274   121331   121396   121459 
  121477   121429   121359   121328   121348   121359   121327   121281 
  121232   121176   121158   121216   121323   121421   121458   121402 
  121311   121265   121275   121279   121244   121205   121200   121230 
  121296   121385   121459   121481   121447   121385   121305   121216 
  121155   121138   121154   121203   121239   121217   121167   121127 
  121104   121109   121119   121103   121058   121000   120972   120974 
  120961   120924   120896   120899   120934   120991   121051   121092 
  121099   121059   120993   120943   120916   120903   120903   120912 
  120942   121016   121113   121167   121166   121159   121176   121209 
  121231   121204   121147   121089   121039   121015   121014   121023 
  121054   121105   121159   121207   121261   121304   121311   121298 
  121285   121292   121319   121320   121275   121252   121286   121339 
  121381   121393   121348   121296   121312   121365   121394   121428 
  121489   121536   121533   121489   121432   121389   121385   121431 
  121482   121508   121541   121567   121513   121419   121355   121315 
  121296   121308   121327   121356   121448   121579   121632   121571 
  121486   121421   121348   121271   121227   121238   121292   121365 
  121439   121500   121536   121543   121529   121506   121483   121466 
  121456   121460   121483   121475   121404   121320   121273   121250 
  121244   121252   121242   121201   121158   121126   121089   121070 
  121093   121130   121157   121209   121308   121397   121414   121369 
  121325   121300   121254   121185   121108   121015   120934   120938 
  121034   121154   121252   121332   121398   121450   121477   121462 
  121413   121356   121298   121243   121217   121243   121301   121373 
  121435   121447   121405   121359   121323   121284   121265   121271 
  121259   121220   121188   121184   121207   121232   121243   121266 
  121309   121354   121360   121328   121296   121279   121275   121285 
  121298   121321   121346   121319   121236   121166   121139   121135 
  121150   121178   121197   121207   121234   121286   121356   121432 
  121491   121525   121532   121498   121412   121313   121274   121312 
  121366   121371   121328   121306   121350   121420   121486   121547 
  121554   121458   121284   121126   121073   121104   121162   121225 
  121304   121394   121468   121521   121589   121645   121616   121513 
  121425   121401   121427   121463   121500   121552   121605   121630 
  121629   121616   121597   121552   121446   121306   121212   121174 
  121138   121096   121059   121024   121015   121043   121085   121132 
  121188   121230   121224   121166   121095   121031   120973   120946 
  120968   121028   121097   121124   121095   121053   121024   120999 
  120965   120928   120933   121012   121115   121169   121186   121203 
  121205   121197   121204   121213   121200   121176   121167   121177 
  121190   121207   121213   121204   121190   121207   121257   121302 
  121315   121300   121284   121271   121250   121223   121213   121215 
  121188   121144   121147   121200   121265   121298   121292   121284 
  121274   121246   121228   121217   121194   121197   121242   121296 
  121338   121359   121348   121302   121223   121139   121103   121092 
  121074   121069   121095   121136   121165   121144   121103   121089 
  121116   121162   121213   121270   121324   121355   121373   121396 
  121405   121393   121381   121365   121336   121344   121409   121475 
  121495   121468   121423   121386   121365   121354   121354   121374 
  121412   121458   121510   121552   121587   121653   121747   121819 
  121824   121760   121689   121656   121648   121633   121618   121610 
  121602   121610   121612   121554   121474   121436   121413   121378 
  121338   121305   121304   121342   121374   121371   121367   121385 
  121389   121343   121293   121313   121378   121428   121471   121514 
  121540   121545   121522   121462   121374   121279   121231   121263 
  121320   121348   121354   121348   121338   121311   121275   121243 
  121193   121142   121131   121147   121173   121204   121228   121228 
  121190   121134   121092   121073   121090   121151   121219   121255 
  121239   121184   121150   121163   121171   121161   121181   121231 
  121273   121298   121308   121306   121288   121236   121171   121132 
  121117   121104   121076   121045   121028   121023   121022   121015 
  120997   120991   121015   121047   121055   121045   121042   121050 
  121072   121113   121158   121185   121173   121104   121026   120974 
  120930   120907   120930   120969   120995   121016   121043   121065 
  121073   121085   121107   121136   121176   121194   121184   121203 
  121269   121311   121293   121244   121194   121139   121088   121072 
  121099   121130   121147   121167   121203   121250   121290   121298 
  121288   121286   121292   121320   121371   121419   121464   121531 
  121590   121622   121626   121606   121570   121525   121487   121466 
  121435   121387   121352   121347   121369   121405   121448   121494 
  121548   121599   121610   121567   121508   121460   121416   121379 
  121374   121392   121419   121451   121475   121482   121467   121455 
  121474   121485   121451   121401   121382   121406   121451   121491 
  121514   121514   121473   121398   121323   121250   121189   121192 
  121255   121319   121365   121408   121441   121462   121464   121446 
  121413   121382   121366   121363   121378   121402   121397   121351 
  121286   121227   121190   121181   121163   121150   121182   121235 
  121265   121297   121336   121342   121312   121269   121205   121135 
  121100   121109   121150   121208   121285   121358   121390   121369 
  121315   121258   121215   121146   121032   120933   120895   120915 
  120974   121028   121061   121092   121134   121146   121112   121073 
  121068   121082   121097   121108   121122   121131   121109   121062 
  121049   121088   121138   121185   121231   121261   121286   121319 
  121338   121329   121306   121290   121273   121246   121246   121277 
  121309   121362   121427   121435   121389   121339   121282   121228 
  121208   121215   121246   121306   121348   121348   121346   121350 
  121328   121279   121230   121180   121162   121215   121296   121344 
  121352   121323   121279   121269   121284   121277   121246   121234 
  121257   121277   121277   121286   121308   121312   121304   121308 
  121338   121389   121443   121478   121487   121483   121473   121446 
  121410   121390   121401   121440   121497   121578   121674   121738 
  121767   121768   121745   121701   121640   121570   121502   121447 
  121404   121379   121371   121358   121328   121300   121288   121292 
  121304   121324   121343   121350   121339   121315   121285   121265 
  121258   121251   121239   121227   121203   121150   121099   121088 
  121115   121134   121132   121136   121151   121167   121177   121192 
  121212   121228   121227   121213   121193   121177   121176   121180 
  121193   121215   121223   121230   121248   121246   121209   121158 
  121103   121076   121097   121138   121159   121163   121170   121184 
  121180   121144   121099   121084   121099   121105   121111   121124 
  121136   121173   121236   121284   121311   121338   121350   121324 
  121267   121204   121154   121130   121138   121142   121115   121076 
  121038   121018   121026   121032   121034   121050   121057   121043 
  121039   121049   121047   121031   121019   121012   121015   121035 
  121069   121109   121151   121180   121215   121267   121308   121323 
  121332   121342   121343   121339   121340   121343   121346   121344 
  121342   121346   121370   121421   121478   121514   121535   121548 
  121560   121571   121575   121551   121491   121424   121359   121311 
  121293   121290   121297   121325   121363   121408   121458   121491 
  121508   121516   121512   121486   121474   121506   121560   121587 
  121572   121536   121491   121451   121425   121404   121389   121379 
  121369   121352   121328   121312   121320   121346   121382   121432 
  121473   121487   121491   121509   121532   121549   121560   121559 
  121548   121528   121498   121471   121451   121423   121386   121362 
  121346   121319   121282   121259   121247   121246   121271   121315 
  121358   121419   121483   121508   121495   121482   121485   121495 
  121505   121504   121491   121466   121424   121379   121346   121315 
  121288   121257   121215   121167   121123   121096   121103   121120 
  121120   121111   121119   121150   121194   121235   121243   121235 
  121258   121292   121293   121274   121259   121255   121251   121242 
  121252   121289   121323   121350   121373   121374   121351   121309 
  121248   121182   121132   121108   121119   121157   121209   121271 
  121339   121382   121377   121339   121297   121250   121190   121134 
  121107   121111   121115   121109   121117   121127   121116   121093 
  121073   121074   121101   121135   121157   121166   121174   121184 
  121192   121197   121192   121208   121262   121317   121346   121351 
  121335   121292   121227   121155   121095   121061   121038   121018 
  121011   121007   121001   121008   121001   120950   120897   120896 
  120919   120927   120926   120938   120960   120991   121043   121097 
  121122   121132   121157   121197   121242   121271   121282   121275 
  121251   121221   121192   121163   121154   121167   121203   121246 
