Origin Time       2024/04/02 04:24:00
Lat.              40.133
Long.             141.712
Depth. (km)       71
Mag.              6.0
Station Code      AKTH06
Station Lat.      38.9801
Station Long.     140.4952
Station Height(m) 285
Record Time       2024/04/02 04:25:03
Sampling Freq(Hz) 100Hz
Duration Time(s)  139
Dir.              6
Scale Factor      7845(gal)/8223790
Max. Acc. (gal)   1.804
Last Correction   2024/04/02 04:25:03
Memo.             
[...]
  -13778   -14069   -13890   -13448   -13284   -13670   -14327   -14743 
  -14667   -14187   -13575   -13266   -13491   -13921   -14065   -13788 
  -13355   -13212   -13501   -13898   -14103   -14099   -14045   -14110 
  -14299   -14463   -14482   -14357   -14143   -13859   -13597   -13481 
  -13512   -13649   -13795   -13764   -13482   -13181   -13173   -13398 
  -13520   -13397   -13215   -13244   -13510   -13721   -13691   -13625 
  -13722   -13822   -13675   -13366   -13236   -13477   -13902   -14180 
  -14158   -13934   -13760   -13768   -13788   -13632   -13338   -13140 
  -13319   -13821   -14150   -13960   -13522   -13285   -13366   -13601 
  -13764   -13728   -13599   -13579   -13699   -13842   -13899   -13871 
  -13884   -14040   -14181   -14069   -13765   -13570   -13636   -13845 
  -13969   -13922   -13830   -13810   -13801   -13718   -13657   -13797 
  -14122   -14440   -14512   -14177   -13644   -13467   -13868   -14420 
  -14559   -14169   -13678   -13509   -13513   -13383   -13289   -13508 
  -13886   -14025   -13751   -13358   -13324   -13728   -14114   -14049 
  -13716   -13587   -13711   -13797   -13706   -13608   -13717   -13952 
  -14044   -13961   -13887   -13855   -13792   -13733   -13711   -13675 
  -13605   -13512   -13394   -13302   -13377   -13610   -13778   -13780 
  -13786   -13917   -14091   -14156   -14133   -14138   -14134   -14031 
  -13853   -13689   -13579   -13497   -13432   -13408   -13439   -13498 
  -13491   -13464   -13621   -13956   -14224   -14202   -13898   -13617 
  -13572   -13591   -13528   -13535   -13728   -13940   -13929   -13767 
  -13726   -13848   -13913   -13740   -13454   -13393   -13644   -13895 
  -13779   -13331   -13053   -13267   -13689   -13855   -13674   -13486 
  -13625   -14042   -14438   -14531   -14326   -14087   -13932   -13900 
  -14075   -14238   -14107   -13795   -13554   -13459   -13517   -13680 
  -13815   -13848   -13807   -13680   -13497   -13404   -13436   -13537 
  -13689   -13849   -14026   -14184   -14206   -14142   -14112   -14046 
  -13824   -13558   -13521   -13805   -14224   -14450   -14261   -13848 
  -13595   -13659   -13910   -14137   -14287   -14350   -14202   -13894 
  -13690   -13668   -13671   -13590   -13498   -13539   -13710   -13814 
  -13709   -13571   -13686   -13991   -14168   -14040   -13647   -13269 
  -13205   -13392   -13537   -13458   -13219   -13143   -13458   -13975 
  -14231   -13968   -13551   -13591   -14038   -14146   -13504   -12684 
  -12545   -13182   -13898   -14019   -13595   -13211   -13207   -13456 
  -13795   -14076   -14045   -13653   -13216   -13123   -13498   -14067 
  -14403   -14353   -14130   -13948   -13790   -13675   -13748   -13954 
  -14076   -13998   -13720   -13413   -13397   -13737   -14087   -14135 
  -13957   -13805   -13810   -13963   -14104   -14131   -14199   -14380 
  -14378   -13975   -13477   -13328   -13572   -13917   -14041   -13913 
  -13841   -14029   -14273   -14285   -14002   -13618   -13421   -13510 
  -13738   -13879   -13826   -13698   -13651   -13748   -13937   -14025 
  -13911   -13775   -13826   -14044   -14196   -14088   -13779   -13501 
  -13406   -13429   -13435   -13455   -13522   -13559   -13585   -13698 
  -13872   -13915   -13697   -13419   -13383   -13621   -13869   -13886 
  -13763   -13682   -13554   -13297   -13092   -13161   -13555   -14052 
  -14253   -13936   -13404   -13261   -13693   -14289   -14494   -14076 
  -13454   -13269   -13551   -13865   -13946   -13795   -13558   -13405 
  -13444   -13626   -13765   -13711   -13518   -13508   -13930   -14519 
  -14796   -14530   -13873   -13401   -13587   -14170   -14453   -14127 
  -13575   -13286   -13316   -13475   -13630   -13751   -13864   -13914 
  -13826   -13625   -13443   -13498   -13837   -14203   -14374   -14332 
  -14173   -14068   -14123   -14224   -14158   -13899   -13643   -13620 
  -13892   -14203   -14187   -13832   -13423   -13170   -13136   -13261 
  -13439   -13568   -13598   -13656   -13849   -13957   -13795   -13563 
  -13497   -13603   -13815   -14014   -13979   -13737   -13616   -13624 
  -13508   -13392   -13522   -13864   -14295   -14593   -14454   -13983 
  -13687   -13741   -13836   -13756   -13528   -13288   -13271   -13516 
  -13752   -13802   -13686   -13541   -13489   -13451   -13339   -13242 
  -13258   -13390   -13608   -13851   -14102   -14399   -14652   -14598 
  -14154   -13675   -13556   -13795   -14060   -14019   -13683   -13423 
  -13494   -13684   -13702   -13630   -13717   -13968   -14173   -14042 
  -13535   -13097   -13171   -13644   -13971   -13745   -13219   -13039 
  -13439   -14011   -14304   -14319   -14301   -14242   -13979   -13552 
  -13161   -13042   -13269   -13632   -13891   -13930   -13747   -13566 
  -13718   -14224   -14662   -14592   -14085   -13603   -13454   -13622 
  -13954   -14260   -14368   -14233   -13902   -13501   -13308   -13518 
  -13952   -14208   -14031   -13590   -13369   -13544   -13760   -13714 
  -13575   -13666   -14081   -14565   -14632   -14187   -13753   -13714 
  -13913   -14069   -14026   -13806   -13606   -13494   -13369   -13305 
  -13459   -13813   -14164   -14193   -13770   -13244   -13134   -13522 
  -13996   -14135   -13879   -13522   -13429   -13590   -13743   -13810 
  -13852   -13845   -13680   -13363   -13184   -13474   -14108   -14454 
  -14068   -13344   -13043   -13374   -13838   -13921   -13674   -13504 
  -13563   -13701   -13801   -13855   -13887   -13837   -13602   -13359 
  -13436   -13855   -14283   -14359   -14033   -13613   -13354   -13234 
  -13209   -13316   -13525   -13711   -13737   -13598   -13451   -13396 
  -13390   -13460   -13714   -14062   -14273   -14231   -13934   -13582 
  -13560   -13954   -14376   -14422   -14092   -13751   -13637   -13671 
  -13748   -13853   -13942   -13963   -13919   -13798   -13549   -13327 
  -13429   -13864   -14316   -14512   -14432   -14273   -14229   -14295 
  -14330   -14288   -14251   -14204   -14067   -13954   -14035   -14254 
  -14372   -14183   -13751   -13440   -13490   -13653   -13595   -13487 
  -13620   -13849   -13906   -13838   -13818   -13814   -13667   -13462 
  -13444   -13614   -13733   -13589   -13248   -13184   -13648   -14115 
  -14075   -13763   -13628   -13702   -13829   -13929   -13929   -13833 
  -13756   -13738   -13824   -14011   -14088   -13892   -13571   -13365 
  -13350   -13363   -13174   -12791   -12537   -12772   -13338   -13624 
  -13392   -13062   -13135   -13652   -14176   -14295   -14045   -13749 
  -13651   -13747   -13925   -14115   -14160   -13906   -13500   -13298 
  -13535   -14065   -14427   -14314   -13963   -13829   -13892   -13755 
  -13416   -13282   -13575   -14153   -14589   -14466   -13849   -13282 
  -13221   -13601   -13998   -14098   -13896   -13632   -13558   -13674 
  -13774   -13706   -13564   -13598   -13832   -13984   -13830   -13504 
  -13342   -13431   -13570   -13599   -13541   -13554   -13730   -13925 
  -13975   -13860   -13671   -13571   -13648   -13837   -14040   -14187 
  -14253   -14262   -14284   -14292   -14125   -13845   -13811   -14125 
  -14494   -14655   -14490   -14037   -13644   -13683   -13956   -13959 
  -13632   -13317   -13212   -13238   -13213   -13030   -12791   -12707 
  -12860   -13115   -13267   -13273   -13151   -12934   -12888   -13251 
  -13803   -14137   -14139   -13977   -13844   -13941   -14351   -14759 
  -14755   -14388   -14160   -14513   -15203   -15503   -15125   -14536 
  -14278   -14314   -14207   -13797   -13305   -12943   -12749   -12664 
  -12584   -12429   -12245   -12167   -12276   -12617   -13130   -13559 
  -13747   -13783   -13720   -13641   -13791   -14160   -14445   -14604 
  -14804   -14990   -15048   -15033   -14949   -14698   -14337   -14033 
  -13887   -13883   -13994   -14208   -14353   -14133   -13589   -13173 
  -13216   -13549   -13748   -13483   -12877   -12514   -12669   -12996 
  -13190   -13224   -13132   -13036   -13054   -13184   -13393   -13664 
  -13876   -13914   -13849   -13836   -13925   -14116   -14346   -14473 
  -14436   -14328   -14223   -14112   -13991   -13882   -13855   -13948 
  -14019   -13886   -13655   -13585   -13670   -13718   -13645   -13440 
  -13242   -13297   -13572   -13896   -14152   -14166   -13998   -13894 
  -13871   -13918   -14173   -14496   -14616   -14629   -14702   -14673 
  -14359   -13899   -13591   -13668   -14022   -14216   -14045   -13710 
  -13466   -13439   -13533   -13528   -13390   -13247   -13184   -13194 
  -13220   -13180   -13069   -13050   -13215   -13375   -13371   -13382 
  -13728   -14359   -14775   -14642   -14180   -13840   -13892   -14250 
  -14519   -14420   -14046   -13657   -13387   -13219   -13116   -13054 
  -13020   -13046   -13092   -13080   -13112   -13273   -13342   -13163 
  -12926   -12955   -13373   -13848   -13923   -13602   -13205   -12973 
  -13016   -13281   -13555   -13763   -13941   -14008   -13930   -13868 
  -13969   -14224   -14485   -14550   -14424   -14358   -14446   -14536 
  -14459   -14123   -13698   -13575   -13844   -14091   -14004   -13807 
  -13844   -14141   -14499   -14670   -14566   -14345   -14184   -14062 
  -13848   -13651   -13679   -13726   -13487   -13084   -12889   -13101 
  -13497   -13636   -13350   -13031   -13239   -13857   -14300   -14404 
  -14349   -14272   -14293   -14374   -14386   -14365   -14413   -14512 
  -14526   -14365   -14135   -14034   -14118   -14210   -14110   -13869 
  -13645   -13460   -13342   -13343   -13363   -13147   -12633   -12267 
  -12505   -13115   -13487   -13414   -13259   -13451   -13973   -14461 
  -14694   -14763   -14812   -14816   -14716   -14617   -14650   -14727 
  -14558   -14046   -13547   -13462   -13761   -14071   -14041   -13659 
  -13203   -12978   -13119   -13413   -13474   -13146   -12699   -12618 
  -13057   -13563   -13624   -13258   -12899   -12798   -12876   -13100 
  -13500   -13918   -14045   -13755   -13394   -13410   -13764   -13987 
  -13743   -13271   -13115   -13464   -13990   -14208   -13998   -13737 
  -13803   -14135   -14411   -14462   -14349   -14175   -14006   -13855 
  -13668   -13440   -13293   -13324   -13402   -13343   -13197   -13154 
  -13343   -13714   -13945   -13860   -13786   -13994   -14229   -14234 
  -14165   -14272   -14634   -15012   -14999   -14617   -14339   -14362 
  -14393   -14242   -14056   -13926   -13830   -13792   -13865   -14139 
  -14484   -14462   -13952   -13444   -13506   -14073   -14443   -14230 
  -13859   -13860   -14206   -14466   -14357   -14064   -13930   -14037 
  -14230   -14345   -14291   -14045   -13741   -13618   -13701   -13724 
  -13482   -13197   -13306   -13768   -14130   -14183   -13980   -13683 
  -13527   -13595   -13779   -13888   -13784   -13612   -13598   -13752 
  -13973   -14156   -14153   -13922   -13656   -13597   -13792   -14038 
  -14019   -13636   -13182   -12981   -13005   -13007   -12789   -12426 
  -12266   -12488   -12874   -13077   -12942   -12706   -12721   -12984 
  -13194   -13221   -13329   -13686   -13972   -13950   -13753   -13581 
  -13587   -13717   -13744   -13710   -13842   -14108   -14202   -13954 
  -13652   -13680   -13979   -14150   -14048   -13905   -13922   -14102 
  -14296   -14288   -14048   -13834   -13763   -13666   -13531   -13502 
  -13583   -13717   -13888   -14029   -14060   -13986   -13879   -13801 
  -13725   -13587   -13444   -13387   -13344   -13143   -12775   -12474 
  -12475   -12735   -13042   -13267   -13444   -13622   -13636   -13288 
  -12818   -12690   -13005   -13509   -13822   -13632   -13081   -12687 
  -12717   -12949   -13057   -12981   -12930   -13078   -13348   -13531 
  -13594   -13660   -13787   -13919   -13973   -13996   -14156   -14531 
  -14971   -15233   -15325   -15410   -15489   -15498   -15417   -15260 
  -15075   -14863   -14594   -14341   -14160   -13980   -13765   -13639 
  -13741   -14031   -14251   -14150   -13811   -13605   -13667   -13786 
  -13840   -13888   -13969   -14046   -14030   -13907   -13829   -13914 
  -14096   -14269   -14391   -14442   -14399   -14293   -14168   -13941 
  -13570   -13216   -13054   -13111   -13309   -13506   -13545   -13406 
  -13302   -13408   -13583   -13563   -13294   -13032   -13126   -13558 
  -13921   -13975   -13822   -13653   -13675   -14018   -14538   -14895 
  -14929   -14737   -14499   -14424   -14581   -14793   -14924   -14921 
  -14712   -14361   -14160   -14335   -14739   -15017   -14943   -14527 
  -14094   -14060   -14388   -14605   -14413   -13980   -13694   -13751 
  -13979   -14064   -13855   -13498   -13254   -13178   -13132   -12988 
  -12831   -12854   -12974   -12947   -12745   -12483   -12291   -12291 
  -12445   -12592   -12676   -12779   -12853   -12729   -12546   -12623 
  -12891   -13053   -13024   -12946   -13076   -13513   -13983   -14173 
  -14166   -14224   -14370   -14465   -14392   -14044   -13451   -12884 
  -12663   -12862   -13290   -13633   -13637   -13355   -13167   -13374 
  -13871   -14265   -14245   -13884   -13618   -13694   -13857   -13923 
  -14015   -14118   -14191   -14380   -14681   -14867   -14773   -14472 
  -14257   -14378   -14797   -15215   -15353   -15156   -14710   -14157 
  -13714   -13556   -13554   -13377   -12976   -12614   -12444   -12482 
  -12776   -13243   -13595   -13630   -13412   -13161   -13158   -13510 
  -13925   -14031   -13792   -13451   -13221   -13092   -12962   -12857 
  -12922   -13225   -13486   -13387   -13113   -12953   -12922   -13001 
  -13130   -13181   -13193   -13251   -13302   -13293   -13296   -13356 
  -13425   -13562   -13914   -14434   -14890   -15121   -15175   -15269 
  -15492   -15661   -15610   -15336   -14962   -14770   -14937   -15246 
  -15326   -15072   -14686   -14470   -14602   -14894   -14968   -14747 
  -14432   -14208   -14142   -14203   -14238   -14014   -13528   -13084 
  -12920   -13043   -13313   -13462   -13304   -12999   -12852   -12943 
  -13169   -13433   -13713   -14035   -14355   -14451   -14141   -13585 
  -13171   -13116   -13306   -13448   -13378   -13223   -13225   -13486 
  -13765   -13756   -13490   -13220   -13147   -13284   -13431   -13498 
  -13595   -13759   -13907   -14058   -14276   -14395   -14269   -14091 
  -14045   -14075   -14087   -14046   -14000   -14004   -14010   -14042 
  -14223   -14423   -14343   -14010   -13716   -13651   -13810   -14026 
  -14034   -13699   -13161   -12704   -12533   -12706   -13127   -13545 
  -13657   -13359   -12906   -12717   -12919   -13180   -13112   -12752 
  -12424   -12330   -12455   -12729   -13103   -13481   -13670   -13536 
  -13188   -12937   -13000   -13302   -13513   -13336   -12961   -12922 
  -13328   -13749   -13856   -13702   -13583   -13693   -13890   -13932 
  -13837   -13869   -14156   -14494   -14594   -14381   -14157   -14308 
  -14678   -14748   -14494   -14440   -14878   -15431   -15514   -15067 
  -14594   -14490   -14674   -14852   -14874   -14794   -14689   -14590 
  -14488   -14341   -14187   -14042   -13907   -13845   -13775   -13613 
  -13554   -13726   -13883   -13752   -13440   -13257   -13271   -13323 
  -13289   -13217   -13360   -13856   -14315   -14203   -13601   -13174 
  -13329   -13726   -13828   -13624   -13505   -13594   -13662   -13572 
  -13436   -13455   -13674   -13859   -13834   -13759   -13837   -14000 
  -14026   -13848   -13614   -13493   -13560   -13732   -13802   -13716 
  -13626   -13630   -13690   -13770   -13841   -13869   -13849   -13784 
  -13697   -13660   -13745   -13878   -13869   -13636   -13317   -13165 
  -13239   -13346   -13354   -13284   -13181   -13080   -12982   -12889 
  -12839   -12868   -12992   -13123   -13096   -13007   -13134   -13510 
  -13869   -13946   -13774   -13657   -13797   -14104   -14381   -14484 
  -14401   -14295   -14343   -14520   -14598   -14412   -14050   -13837 
  -13942   -14158   -14233   -14075   -13726   -13375   -13174   -13173 
  -13379   -13670   -13938   -14158   -14224   -14160   -14210   -14470 
  -14715   -14627   -14226   -13884   -13875   -14133   -14403   -14485 
  -14418   -14331   -14262   -14137   -13930   -13763   -13687   -13595 
  -13381   -13074   -12918   -13104   -13435   -13574   -13473   -13308 
  -13177   -13088   -13112   -13281   -13500   -13675   -13722   -13551 
  -13205   -13004   -13315   -14029   -14508   -14262   -13517   -13032 
  -13292   -13925   -14215   -13961   -13522   -13297   -13369   -13517 
  -13536   -13512   -13666   -13961   -14092   -13867   -13432   -13182 
  -13300   -13474   -13437   -13428   -13705   -14068   -14165   -13959 
  -13716   -13687   -13869   -14014   -13942   -13778   -13767   -13984 
  -14300   -14528   -14578   -14478   -14254   -13954   -13729   -13698 
  -13842   -14075   -14250   -14246   -14168   -14245   -14484   -14705 
  -14779   -14654   -14355   -14085   -14025   -14099   -14169   -14160 
  -14025   -13860   -13832   -13948   -14081   -14112   -13968   -13721 
  -13568   -13618   -13710   -13636   -13402   -13138   -12960   -12927 
  -12968   -13004   -13008   -12927   -12800   -12837   -13161   -13591 
  -13799   -13633   -13290   -13154   -13374   -13736   -13965   -14004 
  -13944   -13821   -13622   -13404   -13248   -13230   -13370   -13602 
  -13821   -13960   -13973   -13914   -13932   -14052   -14138   -14110 
  -14033   -14000   -13980   -13890   -13779   -13842   -14112   -14330 
  -14250   -13998   -13925   -14115   -14257   -14149   -13957   -13875 
  -13898   -13917   -13860   -13818   -13894   -13980   -13991   -14029 
  -14103   -14044   -13830   -13694   -13770   -14010   -14295   -14374 
  -14154   -13879   -13748   -13791   -13923   -13921   -13716   -13520 
  -13514   -13707   -14002   -14212   -14170   -13956   -13829   -13884 
  -13961   -13863   -13594   -13360   -13344   -13520   -13691   -13738 
  -13706   -13625   -13447   -13271   -13246   -13298   -13274   -13189 
  -13171   -13238   -13170   -12823   -12451   -12414   -12704   -13012 
  -13122   -13050   -12965   -13000   -13123   -13294   -13547   -13807 
  -13896   -13798   -13743   -13936   -14193   -14162   -13878   -13682 
  -13745   -13977   -14200   -14301   -14315   -14296   -14208   -14041 
  -13944   -14084   -14369   -14492   -14362   -14176   -14122   -14187 
  -14204   -14165   -14249   -14453   -14521   -14277   -13873   -13645 
  -13670   -13680   -13516   -13379   -13521   -13859   -14079   -14011 
  -13770   -13554   -13435   -13406   -13475   -13559   -13513   -13316 
  -13123   -13111   -13300   -13521   -13632   -13617   -13508   -13371 
  -13342   -13536   -13934   -14285   -14310   -14025   -13683   -13481 
  -13498   -13698   -13875   -13836   -13702   -13745   -13948   -14017 
  -13828   -13586   -13555   -13815   -14243   -14555   -14557   -14347 
  -14133   -14027   -14004   -13965   -13914   -13922   -13954   -13864 
  -13641   -13563   -13791   -14035   -14003   -13842   -13892   -14207 
  -14539   -14713   -14650   -14281   -13842   -13749   -14095   -14553 
  -14719   -14534   -14297   -14226   -14212   -14030   -13653   -13381 
  -13505   -13851   -13909   -13454   -12834   -12556   -12723   -13053 
  -13244   -13197   -13038   -12920   -12799   -12684   -12788   -13131 
  -13401   -13405   -13360   -13477   -13610   -13652   -13753   -13945 
  -14019   -13836   -13498   -13234   -13200   -13393   -13633   -13713 
  -13633   -13610   -13755   -13921   -13945   -13845   -13713   -13671 
  -13857   -14154   -14242   -14031   -13779   -13795   -14131   -14521 
  -14629   -14384   -14071   -14014   -14262   -14563   -14584   -14235 
