Origin Time       2024/04/02 04:24:00
Lat.              40.133
Long.             141.712
Depth. (km)       71
Mag.              6.0
Station Code      AKTH12
Station Lat.      39.9155
Station Long.     140.2221
Station Height(m) 90
Record Time       2024/04/02 04:24:59
Sampling Freq(Hz) 100Hz
Duration Time(s)  120
Dir.              5
Scale Factor      7845(gal)/8223790
Max. Acc. (gal)   7.656
Last Correction   2024/04/02 04:24:59
Memo.             
[...]
    -711     -711     -712     -712     -712     -714     -715     -712 
    -712     -714     -711     -711     -712     -712     -712     -714 
    -715     -715     -711     -710     -714     -714     -712     -714 
    -712     -711     -712     -715     -712     -712     -714     -714 
    -714     -712     -712     -712     -712     -714     -714     -710 
    -710     -712     -712     -711     -712     -712     -714     -716 
    -714     -712     -716     -714     -711     -712     -714     -715 
    -715     -714     -714     -712     -712     -712     -714     -714 
    -712     -710     -712     -715     -714     -711     -712     -712 
    -711     -711     -712     -711     -710     -714     -715     -711 
    -714     -715     -714     -712     -710     -708     -712     -711 
    -707     -708     -711     -711     -710     -710     -711     -714 
    -712     -711     -711     -711     -712     -712     -708     -710 
    -712     -711     -711     -711     -712     -712     -711     -711 
    -711     -710     -710     -711     -712     -712     -712     -711 
    -708     -708     -711     -710     -710     -712     -712     -710 
    -711     -710     -708     -710     -711     -711     -710     -710 
    -711     -711     -710     -710     -712     -714     -714     -712 
    -712     -711     -710     -711     -714     -711     -707     -707 
    -707     -707     -710     -712     -711     -708     -710     -711 
    -708     -710     -712     -712     -712     -711     -710     -712 
    -712     -710     -710     -710     -710     -708     -711     -714 
    -711     -711     -714     -712     -708     -710     -710     -710 
    -710     -710     -712     -712     -710     -711     -711     -711 
    -714     -715     -711     -712     -714     -714     -714     -711 
    -710     -710     -711     -714     -714     -714     -714     -712 
    -710     -710     -712     -715     -711     -711     -714     -711 
    -710     -710     -711     -712     -711     -710     -712     -712 
    -712     -714     -712     -712     -714     -712     -711     -710 
    -712     -712     -711     -712     -715     -712     -712     -714 
    -714     -712     -712     -712     -712     -712     -712     -715 
    -715     -714     -714     -712     -712     -712     -712     -715 
    -714     -711     -714     -712     -711     -715     -715     -712 
    -712     -711     -714     -715     -714     -714     -715     -714 
    -714     -712     -710     -712     -714     -714     -712     -712 
    -714     -712     -711     -712     -712     -712     -714     -712 
    -712     -712     -712     -714     -715     -715     -712     -711 
    -711     -712     -714     -715     -712     -712     -715     -712 
    -711     -714     -715     -715     -716     -714     -711     -715 
    -716     -715     -711     -711     -714     -714     -712     -714 
    -716     -715     -714     -712     -711     -711     -711     -711 
    -714     -712     -711     -711     -712     -714     -712     -712 
    -714     -714     -714     -712     -711     -714     -712     -711 
    -711     -712     -712     -714     -714     -712     -712     -714 
    -714     -712     -711     -711     -710     -712     -715     -714 
    -712     -712     -711     -714     -716     -711     -707     -710 
    -712     -711     -711     -710     -711     -712     -711     -710 
    -711     -711     -710     -711     -714     -714     -711     -711 
    -711     -711     -711     -712     -714     -711     -708     -710 
    -712     -712     -711     -710     -710     -708     -708     -712 
    -711     -710     -712     -712     -710     -710     -710     -710 
    -710     -708     -710     -712     -711     -712     -714     -711 
    -710     -710     -711     -714     -712     -708     -708     -708 
    -710     -711     -711     -712     -712     -712     -714     -711 
    -710     -712     -710     -711     -712     -711     -712     -712 
    -708     -708     -711     -710     -711     -711     -710     -711 
    -711     -711     -708     -708     -711     -708     -708     -711 
    -711     -711     -714     -712     -711     -710     -711     -714 
    -712     -712     -714     -710     -708     -711     -711     -711 
    -712     -711     -711     -712     -712     -711     -711     -714 
    -715     -712     -708     -711     -714     -714     -712     -714 
    -715     -712     -711     -712     -711     -711     -712     -712 
    -711     -711     -711     -712     -715     -714     -712     -711 
    -711     -711     -711     -712     -714     -712     -712     -711 
    -711     -714     -715     -714     -715     -714     -712     -712 
    -711     -712     -715     -715     -712     -712     -715     -715 
    -714     -714     -714     -712     -712     -714     -714     -712 
    -714     -712     -710     -711     -712     -714     -712     -712 
    -715     -715     -712     -715     -716     -715     -714     -712 
    -712     -715     -715     -714     -715     -715     -715     -715 
    -716     -715     -712     -714     -712     -711     -714     -715 
    -714     -712     -712     -714     -714     -715     -715     -712 
    -712     -714     -712     -715     -718     -712     -712     -718 
    -715     -714     -716     -714     -712     -714     -714     -711 
    -710     -712     -716     -716     -716     -714     -712     -711 
    -711     -712     -714     -712     -711     -711     -712     -715 
    -715     -712     -712     -714     -714     -715     -714     -708 
    -711     -714     -714     -715     -712     -711     -712     -712 
    -712     -714     -711     -708     -711     -712     -711     -712 
    -714     -711     -710     -714     -716     -715     -712     -710 
    -710     -714     -712     -712     -715     -712     -711     -714 
    -712     -711     -711     -710     -710     -710     -711     -712 
    -712     -715     -712     -710     -711     -712     -712     -712 
    -710     -710     -712     -712     -712     -712     -710     -712 
    -714     -710     -711     -712     -712     -711     -708     -707 
    -710     -712     -714     -714     -714     -712     -711     -712 
    -712     -708     -707     -711     -708     -707     -711     -712 
    -708     -711     -712     -712     -712     -714     -711     -710 
    -714     -712     -710     -711     -710     -711     -715     -712 
    -708     -710     -710     -711     -714     -714     -711     -710 
    -712     -714     -712     -711     -710     -712     -715     -712 
    -710     -714     -715     -711     -712     -712     -711     -711 
    -710     -711     -712     -712     -712     -712     -711     -711 
    -712     -712     -712     -714     -715     -714     -710     -710 
    -712     -712     -714     -714     -712     -711     -712     -711 
    -710     -711     -712     -712     -712     -712     -711     -711 
    -712     -712     -714     -714     -711     -711     -711     -711 
    -711     -712     -712     -712     -712     -712     -714     -712 
    -712     -714     -714     -714     -714     -710     -714     -716 
    -711     -710     -712     -714     -714     -711     -711     -714 
    -712     -710     -708     -708     -711     -711     -711     -714 
    -714     -711     -712     -714     -715     -712     -710     -710 
    -710     -712     -715     -712     -711     -712     -714     -712 
    -711     -711     -711     -710     -711     -714     -711     -711 
    -715     -714     -712     -714     -714     -714     -715     -712 
    -714     -714     -710     -711     -712     -710     -710     -711 
    -712     -711     -710     -711     -711     -711     -714     -712 
    -712     -712     -710     -710     -714     -714     -714     -711 
    -712     -711     -710     -714     -715     -711     -712     -714 
    -710     -711     -714     -711     -711     -712     -714     -715 
    -711     -711     -714     -714     -711     -711     -711     -711 
    -712     -714     -712     -710     -712     -715     -714     -714 
    -714     -710     -710     -712     -714     -712     -711     -711 
    -714     -712     -711     -712     -711     -711     -712     -714 
    -714     -712     -711     -712     -711     -711     -712     -712 
    -712     -712     -710     -711     -712     -712     -712     -711 
    -710     -712     -714     -711     -711     -711     -710     -711 
    -714     -715     -716     -712     -711     -715     -716     -715 
    -714     -712     -712     -712     -710     -710     -710     -714 
    -715     -711     -711     -715     -715     -712     -712     -714 
    -712     -712     -714     -711     -710     -711     -712     -711 
    -712     -714     -714     -712     -714     -715     -712     -712 
    -711     -711     -714     -712     -711     -712     -711     -712 
    -715     -715     -714     -715     -712     -711     -711     -710 
    -711     -715     -712     -712     -716     -712     -711     -714 
    -714     -712     -714     -712     -708     -708     -711     -711 
    -711     -714     -714     -712     -712     -711     -710     -712 
    -712     -710     -711     -712     -712     -712     -712     -711 
    -710     -711     -712     -711     -711     -712     -711     -711 
    -712     -711     -711     -712     -711     -711     -712     -711 
    -711     -711     -710     -710     -711     -710     -710     -711 
    -712     -712     -714     -712     -710     -710     -711     -710 
    -711     -711     -710     -710     -712     -714     -712     -711 
    -712     -714     -710     -710     -710     -710     -711     -711 
    -710     -708     -710     -711     -712     -711     -710     -712 
    -710     -710     -710     -708     -710     -712     -711     -714 
    -715     -711     -710     -711     -711     -712     -711     -710 
    -710     -711     -711     -710     -710     -714     -715     -714 
    -714     -714     -712     -711     -711     -710     -710     -710 
    -708     -710     -712     -712     -714     -714     -714     -712 
    -711     -710     -710     -710     -710     -708     -710     -712 
    -712     -711     -711     -714     -712     -710     -712     -711 
    -708     -711     -711     -711     -714     -712     -712     -714 
    -712     -712     -712     -714     -714     -711     -710     -711 
    -711     -711     -714     -715     -714     -711     -712     -714 
    -711     -708     -712     -711     -710     -712     -712     -712 
    -714     -714     -715     -712     -710     -710     -710     -711 
    -712     -711     -711     -714     -714     -714     -714     -712 
    -712     -712     -711     -711     -711     -714     -715     -714 
    -712     -714     -715     -714     -711     -712     -712     -710 
    -710     -712     -712     -714     -714     -714     -716     -714 
    -712     -711     -711     -712     -712     -711     -714     -714 
    -712     -715     -716     -712     -711     -711     -712     -712 
    -710     -711     -715     -715     -712     -712     -714     -715 
    -712     -711     -711     -712     -712     -711     -711     -714 
    -712     -711     -714     -715     -712     -712     -714     -714 
    -714     -711     -711     -712     -711     -712     -715     -714 
    -712     -715     -718     -718     -711     -710     -712     -710 
    -711     -714     -712     -711     -711     -712     -715     -715 
    -712     -711     -711     -711     -714     -712     -711     -710 
    -711     -712     -714     -712     -714     -711     -710     -712 
    -714     -711     -711     -715     -714     -711     -712     -714 
    -711     -711     -711     -712     -712     -712     -714     -711 
    -706     -708     -714     -711     -710     -712     -711     -711 
    -712     -710     -710     -711     -715     -715     -712     -712 
    -714     -714     -719     -726     -734     -742     -753     -766 
    -780     -795     -812     -823     -824     -822     -812     -796 
    -778     -758     -733     -712     -700     -699     -712     -734 
    -768     -811     -853     -892     -924     -947     -966     -984 
    -999    -1011    -1013    -1003     -977     -940     -903     -872 
    -855     -854     -861     -878     -903     -912     -893     -850 
    -781     -700     -637     -606     -606     -612     -599     -568 
    -530     -488     -463     -468     -504     -556     -618     -676 
    -700     -672     -575     -411     -240     -143     -157     -275 
    -487     -799    -1179    -1547    -1857    -2150    -2427    -2594 
   -2570    -2347    -1941    -1335     -572      170      691      897 
     796      402     -233     -965    -1641    -2192    -2556    -2640 
   -2378    -1779     -896      191     1328     2305     2992     3368 
    3412     3061     2276     1071     -425    -1962    -3271    -4113 
   -4301    -3832    -2914    -1777     -577      567     1499     2088 
    2290     2118     1599      787     -216    -1246    -2149    -2810 
   -3114    -2988    -2469    -1701     -942     -422     -172     -113 
    -151     -229     -364     -515     -542     -372        0      541 
    1107     1425     1232      467     -607    -1624    -2408    -2938 
   -3179    -3157    -2975    -2586    -1887     -977      -37      835 
    1572     2020     1972     1363      275    -1204    -2837    -4155 
   -4639    -3979    -2274       82     2673     5046     6727     7314 
    6494     4279     1213    -1979    -4743    -6636    -7418    -7132 
   -5890    -3894    -1553      750     2706     3894     4140     3721 
    2808     1445     -135    -1908    -3951    -5927    -7339    -7805 
   -7107    -5393    -3025     -405     1879     3245     3329     2065 
     -89    -2403    -4236    -5116    -4949    -3937    -2349     -604 
     891     1993     2596     2524     1845      946      116     -444 
    -549     -487     -604     -625     -322      109      665     1351 
    1935     2226     1998     1144     -116    -1529    -2776    -3527 
   -3781    -3659    -3222    -2578    -1771     -738      449     1489 
    2014     1845      978     -429    -1972    -3346    -4544    -5391 
   -5597    -5150    -4172    -2837    -1367       83     1260     1945 
    2231     2346     2428     2443     2201     1598      565     -974 
   -2785    -4320    -5123    -5008    -4037    -2450     -649      915 
    2025     2589     2497     1792      699     -498    -1544    -2327 
   -2771    -2821    -2567    -2170    -1767    -1337     -702      103 
     837     1312     1331      869       90     -876    -1769    -2261 
   -2181    -1377       74     1664     2948     3658     3538     2486 
     696    -1414    -3407    -4989    -5872    -5813    -4930    -3550 
   -1935     -341     1009     1926     2273     2222     1937     1273 
     253     -884    -1999    -2891    -3393    -3431    -2778    -1375 
     433     2268     3732     4379     3962     2494      247    -2245 
   -4438    -5957    -6606    -6342    -5103    -2929     -166     2701 
    5182     6745     7064     6170     4287     1806     -773    -3123 
   -4957    -5884    -5768    -4797    -3299    -1695     -291      739 
    1237     1251      957      352     -546    -1615    -2687    -3419 
   -3619    -3468    -3123    -2628    -2012    -1296     -608      -32 
     436      706      784      730      519      328      240       20 
    -367     -760    -1094    -1332    -1541    -1865    -2261    -2623 
   -2906    -3007    -2760    -2072    -1036       98     1102     1864 
    2350     2473     2068     1121     -157    -1541    -2805    -3699 
   -4093    -3931    -3165    -1977     -712      472     1574     2511 
    3144     3346     3013     2222     1237      214     -826    -1856 
   -2829    -3613    -4039    -4078    -3796    -3231    -2390    -1329 
    -221      753     1476     1845     1860     1625     1210      675 
      86     -545    -1188    -1741    -2119    -2305    -2301    -2087 
   -1668    -1134     -565       31      580      927     1035      967 
     808      612      349       12     -367     -788    -1251    -1701 
   -2104    -2494    -2802    -2785    -2288    -1449     -538      315 
    1096     1701     1980     1890     1447      661     -409    -1602 
   -2698    -3512    -3960    -4075    -3838    -3159    -2146    -1093 
    -153      635     1159     1283     1007      373     -533    -1518 
   -2376    -2921    -2997    -2609    -1948    -1282     -912     -934 
   -1269    -1879    -2623    -3210    -3376    -2957    -2033     -888 
     291     1379     2170     2528     2474     2151     1722     1232 
     706      178     -368     -841    -1098    -1189    -1178    -1007 
    -638      -85      556     1065     1314     1327     1116      719 
     256     -176     -612    -1128    -1684    -2101    -2307    -2377 
   -2315    -2039    -1548     -884     -180      349      604      565 
     143     -665    -1644    -2528    -3119    -3302    -3115    -2632 
   -1860     -945     -175      315      561      606      564      535 
     438      202     -109     -487     -945    -1431    -1856    -2107 
   -2119    -1937    -1602    -1124     -646     -411     -477     -745 
   -1082    -1304    -1302    -1112     -685      -58      500      842 
    1031     1038      754      166     -642    -1497    -2177    -2533 
   -2575    -2442    -2232    -1900    -1368     -734     -168      272 
     538      533      280      -91     -471     -777     -997    -1182 
   -1310    -1277    -1046     -739     -453     -139      155      292 
     321      282        8     -533    -1092    -1422    -1416    -1109 
    -670     -247       82      233      198       71     -110     -438 
    -976    -1583    -1999    -2073    -1826    -1377     -873     -436 
    -109      155      419      621      608      348      -67     -553 
   -1040    -1482    -1872    -2169    -2339    -2436    -2440    -2324 
   -2239    -2263    -2309    -2369    -2438    -2332    -1906    -1215 
    -400      391     1062     1633     2145     2484     2512     2249 
    1749     1004       17    -1031    -1822    -2111    -1917    -1445 
    -857     -232      252      480      502      357        5     -530 
   -1094    -1506    -1705    -1745    -1655    -1364     -878     -367 
      99      572      900      850      413     -294    -1115    -1858 
   -2471    -2953    -3142    -2944    -2470    -1806     -990     -226 
     243      423      468      345      -52     -629    -1179    -1614 
   -1923    -2074    -2033    -1867    -1721    -1671    -1690    -1752 
   -1817    -1722    -1314     -661        1      491      777      877 
     785      557      324      133     -108     -467     -854    -1152 
   -1381    -1609    -1831    -1983    -2011    -1867    -1485     -859 
    -133      464      783      822      638      274     -179     -611 
   -1021    -1468    -1876    -2034    -1852    -1486    -1136     -866 
    -669     -518     -340      -85      187      369      388      233 
      -2     -198     -345     -531     -804    -1134    -1467    -1767 
   -2003    -2134    -2103    -1872    -1379     -549      513     1490 
    2160     2475     2385     1908     1200      378     -427    -1096 
