Origin Time       2024/04/02 04:24:00
Lat.              40.133
Long.             141.712
Depth. (km)       71
Mag.              6.0
Station Code      AKTH04
Station Lat.      39.1740
Station Long.     140.7129
Station Height(m) 280
Record Time       2024/04/02 04:24:59
Sampling Freq(Hz) 100Hz
Duration Time(s)  139
Dir.              6
Scale Factor      3920(gal)/6170801
Max. Acc. (gal)   13.481
Last Correction   2024/04/02 04:24:44
Memo.             
[...]
  -12347   -11646   -12311   -13472   -13361   -12168   -11979   -13857 
  -16046   -16421   -15306   -14203   -13333   -12454   -12179   -12679 
  -13173   -13143   -12506   -11502   -11084   -11617   -11612   -10333 
   -9688   -11163   -13943   -16639   -18131   -17526   -15066   -12392 
  -10886   -10180    -9270    -8562    -9393   -12033   -15446   -18075 
  -18138   -14994   -11042    -9745   -11203   -12891   -13843   -14797 
  -15994   -16604   -15594   -13155   -10930   -10562   -12110   -14076 
  -15314   -15787   -15720   -15183   -13896   -11850   -10067    -9702 
  -10909   -12745   -14009   -14043   -13024   -12313   -13133   -14530 
  -14692   -13682   -13152   -13809   -14427   -13624   -11954   -11324 
  -11996   -12110   -11101   -10772   -12142   -13596   -13281   -12313 
  -12915   -14393   -14941   -14880   -14660   -13289   -10945    -9945 
  -11362   -13069   -13138   -12637   -13157   -14473   -15784   -16532 
  -15782   -13348   -11207   -11290   -12608   -13273   -13486   -13794 
  -13323   -12054   -11980   -13759   -14927   -13870   -12180   -11263 
  -10636   -10229   -10862   -12396   -13998   -15443   -16606   -16924 
  -15806   -13571   -11943   -11851   -11868   -10976   -10448   -11610 
  -13742   -15104   -14904   -13666   -12556   -12437   -13052   -13454 
  -13408   -13726   -14471   -14579   -14134   -13993   -13755   -13056 
  -12613   -12718   -13002   -13629   -14796   -15325   -14037   -11982 
  -10863   -10721   -10998   -11672   -12158   -11654   -11134   -12260 
  -14364   -15219   -14494   -13554   -12588   -11365   -11011   -12146 
  -13596   -14195   -14177   -14332   -14361   -13352   -11791   -11124 
  -11654   -12556   -13388   -14472   -15608   -15399   -13433   -11681 
  -11806   -13189   -14395   -14595   -13827   -12865   -12385   -12124 
  -11423   -10516   -10344   -11514   -13637   -15448   -16489   -17339 
  -17590   -16198   -13268   -10017    -7902    -7827    -9826   -13048 
  -15686   -16323   -15603   -15098   -14860   -13688   -11740   -10862 
  -11703   -12721   -12538   -11870   -12651   -15030   -16749   -16259 
  -14300   -12679   -12679   -13774   -14323   -13706   -12769   -12461 
  -12549   -12028   -10975   -10837   -12159   -13736   -14834   -15579 
  -15240   -13488   -11825   -11264   -10995   -10480   -10629   -12041 
  -13723   -14545   -14711   -14855   -14741   -13843   -12492   -11511 
  -11309   -11884   -12861   -13357   -12825   -11967   -11802   -12061 
  -11901   -11598   -12053   -13446   -14962   -15574   -15163   -14502 
  -14185   -13911   -13093   -12336   -12521   -12917   -12742   -12416 
  -12149   -12062   -12679   -13461   -13238   -12790   -13744   -15329 
  -15781   -15124   -13900   -12202   -10878   -10810   -11436   -11877 
  -12287   -13041   -13931   -14549   -14512   -13798   -13203   -13330 
  -13618   -13760   -14480   -15448   -15186   -14013   -13736   -14103 
  -13167   -11263   -10623   -11276   -11777   -12297   -13174   -13642 
  -13676   -13886   -14185   -14234   -14004   -13337   -12186   -11468 
  -12008   -13058   -13469   -13325   -13526   -14202   -14613   -14480 
  -13553   -11520    -9988   -10957   -13141   -13810   -12968   -12540 
  -13439   -14960   -15583   -14552   -12725   -11330   -10956   -11778 
  -13404   -14613   -14358   -13177   -12610   -13129   -13461   -12231 
  -10035    -8980   -10170   -12600   -14369   -14676   -14439   -14514 
  -14319   -13272   -12356   -12785   -14105   -15112   -15450   -15230 
  -14357   -13019   -11945   -11465   -11214   -11225   -11921   -12860 
  -13019   -12408   -12003   -11940   -11575   -11597   -13335   -15664 
  -16105   -15105   -14988   -15518   -15048   -14063   -13496   -12691 
  -11744   -11820   -12243   -11653   -11183   -12424   -14078   -14187 
  -13505   -13561   -13757   -13487   -13918   -14769   -13789   -11228 
   -9936   -11028   -12978   -14150   -14252   -13767   -13323   -13323 
  -13409   -13000   -12226   -11618   -11413   -11686   -12658   -13992 
  -14448   -13571   -12763   -13479   -14954   -15077   -13632   -12669 
  -13376   -14753   -15124   -13882   -12137   -11198   -10961   -10927 
  -11306   -12285   -13571   -14773   -15572   -15484   -14083   -12111 
  -11312   -11977   -12378   -11764   -11623   -13027   -14734   -15061 
  -14386   -13830   -13040   -11766   -11199   -12062   -13554   -14360 
  -13883   -12839   -12308   -12389   -12548   -12596   -12679   -12879 
  -13093   -13121   -13006   -12963   -12979   -13267   -14227   -15321 
  -15468   -14585   -13745   -13729   -13724   -12502   -10576    -9676 
  -10804   -13293   -15000   -14306   -12392   -11816   -12855   -13689 
  -13756   -14137   -15264   -16221   -16044   -14769   -13046   -11553 
  -10869   -11047   -11554   -12086   -12858   -13855   -14679   -15044 
  -14691   -13586   -12310   -11510   -11406   -12095   -13516   -14937 
  -15390   -14852   -14029   -13010   -11694   -10916   -11172   -11814 
  -12639   -13693   -14212   -13963   -13635   -13104   -11794   -10703 
  -11349   -12978   -13647   -13256   -13047   -13170   -13145   -13469 
  -14095   -13650   -12183   -11456   -12116   -13052   -13231   -12872 
  -12418   -11942   -12166   -13400   -14289   -14153   -14130   -14523 
  -13928   -11981   -10471   -10708   -11899   -12907   -13863   -15187 
  -16127   -15709   -14370   -13190   -12469   -12028   -11787   -11687 
  -11852   -12532   -13543   -14565   -15607   -16278   -15722   -13907 
  -11879   -10582   -10302   -10954   -12036   -13005   -13858   -14478 
  -14710   -15129   -15493   -14377   -12348   -11961   -13552   -14450 
  -13146   -11299   -10578   -10609   -10600   -10603   -11440   -13591 
  -15972   -16982   -16270   -14753   -13461   -12725   -12308   -11719 
  -10919   -10597   -11118   -12544   -14765   -16315   -15672   -13705 
  -12235   -11620   -11460   -11674   -11984   -12133   -12749   -14371 
  -15878   -15622   -14146   -13404   -13577   -13537   -13059   -12630 
  -12575   -12889   -13535   -14364   -14756   -14401   -13700   -12939 
  -12162   -11708   -11941   -12556   -13108   -13648   -13905   -13271 
  -11886   -10749   -10983   -12541   -13973   -14261   -13778   -13443 
  -13664   -13787   -13198   -12572   -12783   -13461   -13651   -13229 
  -12707   -12414   -12558   -13102   -13628   -13638   -12833   -11881 
  -11999   -13185   -14364   -14626   -13883   -13105   -12915   -12438 
  -11133   -10422   -11713   -13989   -15291   -15270   -14697   -14149 
  -13739   -13282   -12865   -12811   -13152   -13538   -13464   -13142 
  -13559   -14589   -14834   -13780   -12146   -10748   -10268   -11227 
  -13004   -13791   -12988   -11814   -11197   -11316   -12098   -13233 
  -14367   -14858   -14326   -13681   -14062   -14840   -14311   -12574 
  -11484   -11613   -11937   -12153   -12748   -13402   -13505   -13455 
  -13870   -14381   -14347   -13960   -13619   -13325   -13504   -14342 
  -14503   -12932   -10806   -10138   -11273   -12604   -13073   -13548 
  -14615   -15228   -14807   -14209   -13657   -12406   -10970   -10812 
  -11925   -13160   -13978   -14222   -13812   -13535   -13963   -13982 
  -12988   -12381   -12675   -12436   -11153   -10123   -10434   -11876 
  -13588   -14972   -15983   -16557   -16256   -15160   -13991   -12988 
  -11901   -10887   -10632   -11344   -12245   -12652   -12639   -12820 
  -13894   -15518   -16217   -15289   -13774   -12735   -12011   -11365 
  -11069   -11243   -11796   -12680   -14076   -15929   -16938   -15778 
  -13379   -11845   -11900   -12759   -13544   -13911   -13453   -12068 
  -11055   -11489   -12251   -12228   -12358   -13293   -14253   -15209 
  -16296   -15897   -13177   -10482   -10180   -11447   -12226   -12214 
  -12120   -11717   -10720   -10195   -10829   -11844   -12975   -14624 
  -16315   -17252   -16911   -14985   -12473   -11176   -11225   -11137 
  -10365   -10069   -11274   -13499   -15496   -16306   -15466   -13638 
  -12675   -13237   -13815   -13409   -12913   -13119   -13098   -12081 
  -11766   -13537   -15269   -14906   -14095   -14592   -14888   -13795 
  -13281   -14604   -15924   -15674   -14349   -12917   -12135   -12118 
  -11700   -10201    -9366   -11132   -14424   -16411   -16254   -15382 
  -14429   -13003   -11869   -11933   -12369   -11910   -10801   -10313 
  -10796   -11606   -12435   -13388   -14500   -15390   -15417   -14648 
  -13876   -13594   -13338   -12324   -10958   -10481   -10687   -10258 
   -9623   -10443   -12390   -13581   -13602   -13727   -14619   -15372 
  -14961   -13597   -12179   -11411   -11642   -12624   -13873   -15257 
  -16470   -16779   -15511   -12906   -10751   -10328   -10794   -11464 
  -12499   -13332   -13791   -14729   -15665   -15189   -14140   -14345 
  -15152   -14938   -13914   -13232   -13155   -12868   -11849   -10545 
   -9565    -9827   -12000   -14672   -16020   -16307   -16060   -14882 
  -13384   -12714   -12489   -11879   -11439   -12065   -13432   -14374 
  -14129   -13299   -13005   -12986   -12388   -11627   -11873   -13654 
  -15759   -15957   -13823   -11165    -9536    -9349   -10539   -12212 
  -13133   -13676   -14842   -15732   -14947   -13012   -11478   -11040 
  -11327   -12016   -13083   -13651   -13097   -12886   -13591   -12995 
  -10843   -10203   -11964   -13986   -15475   -16749   -16793   -15225 
  -13539   -12492   -11673   -11419   -12368   -13718   -13941   -13193 
  -12718   -12458   -12101   -12526   -13838   -14515   -13950   -13152 
  -12633   -12510   -13118   -13689   -13336   -12893   -13585   -15243 
  -16545   -16364   -14717   -12510   -10983   -11231   -12931   -13910 
  -12997   -12323   -13603   -14777   -14143   -13104   -12517   -11751 
  -11143   -11505   -12718   -14262   -15742   -16383   -15380   -13473 
  -12495   -12861   -13194   -12642   -12093   -12290   -12348   -11655 
  -11163   -11570   -12284   -12666   -12897   -13302   -13667   -13819 
  -14118   -14367   -13598   -11976   -10895   -11095   -12538   -14636 
  -15757   -14917   -13536   -13099   -12886   -12087   -11450   -11373 
  -11160   -10893   -11626   -13261   -14293   -14090   -13608   -13604 
  -13656   -13275   -12797   -12976   -14150   -15353   -15097   -13720 
  -12732   -12274   -11966   -12197   -12597   -12130   -11334   -11484 
  -12281   -12774   -13022   -13498   -14151   -14527   -14457   -14434 
  -14786   -14895   -14217   -13467   -13498   -13911   -13957   -13418 
  -12164   -10633   -10002   -10479   -10972   -11212   -12328   -14258 
  -15079   -14368   -13772   -13697   -13237   -12567   -12507   -12909 
  -13161   -13578   -14722   -15796   -15632   -14489   -13173   -11803 
  -10605   -10548   -11874   -13086   -13017   -12514   -12743   -13372 
  -13602   -13874   -14617   -14722   -13935   -13689   -13821   -12730 
  -10650    -9308    -9476   -10954   -13391   -15331   -15276   -14584 
  -15117   -15638   -14504   -12522   -10840    -9330    -8215    -8635 
  -10639   -12727   -13888   -14290   -14347   -14516   -15005   -15096 
  -14272   -13486   -13399   -13233   -12694   -12229   -11907   -12074 
  -13016   -13904   -14088   -14099   -14382   -14429   -13826   -13107 
  -12671   -12380   -12474   -12804   -12688   -12617   -13445   -14585 
  -14984   -14662   -14419   -14436   -14249   -14061   -14110   -13663 
  -12495   -11382   -10682   -10632   -11561   -12534   -12306   -11473 
  -11398   -12287   -13440   -13938   -13371   -12665   -12958   -13916 
  -14333   -13676   -12388   -11155   -10468   -10757   -11994   -13370 
  -13762   -12617   -10840   -10036   -10823   -12696   -14601   -15571 
  -15444   -14775   -14473   -15127   -16113   -16157   -14701   -12491 
  -10944   -10575   -10852   -11409   -11861   -11784   -11761   -12232 
  -12441   -12497   -13634   -15451   -16153   -15698   -15455   -15203 
  -13821   -11998   -11327   -11746   -12300   -13149   -14497   -15460 
  -15473   -14500   -12149    -9098    -7815    -9265   -11337   -12429 
  -13271   -14635   -16255   -17461   -17553   -15989   -12932   -10173 
   -9792   -11314   -12796   -13655   -14163   -14253   -13743   -12952 
  -12765   -13163   -13153   -12767   -12670   -12775   -12800   -12695 
  -12462   -12372   -12920   -14093   -15051   -15440   -15929   -16567 
  -16785   -16602   -16069   -15213   -14541   -14303   -14175   -13735 
  -12774   -11574   -11048   -11952   -13809   -15398   -15704   -14226 
  -11941   -10961   -11950   -13417   -14090   -14244   -14368   -14202 
  -13287   -11871   -10857   -10494   -10408   -10710   -11549   -12408 
  -12633   -12316   -12062   -11716   -10780    -9970   -10445   -11950 
  -13092   -13083   -12498   -12284   -12685   -13422   -14003   -13783 
  -12625   -11372   -10959   -11159   -11185   -11198   -11789   -13029 
  -15223   -18209   -19902   -19110   -17830   -17603   -17466   -16579 
  -15127   -13464   -11891   -10309    -8658    -7597    -7508    -8105 
   -9646   -12337   -15147   -17344   -19331   -21008   -21473   -20402 
  -18260   -15352   -11819    -8557    -7148    -8149    -9916   -10572 
  -10398   -10400   -10619   -11478   -13805   -16662   -17429   -15308 
  -13448   -14607   -17122   -18526   -19251   -20073   -19108   -14968 
  -10268    -7645    -6706    -6994    -8724   -11267   -13709   -15496 
  -16558   -17146   -17116   -16760   -17316   -18243   -17380   -15400 
  -14709   -14583   -12725    -9018    -5313    -3564    -3820    -5165 
   -7648   -10379   -11621   -11813   -12927   -15515   -17729   -17669 
  -15524   -12347    -9627    -9435   -11588   -13819   -16106   -19704 
  -22957   -22768   -17834    -9221     -301     5666     8097     6639 
     238    -9044   -16479   -19962   -21167   -21628   -20758   -17870 
  -14183   -12076   -12189   -12442   -11406   -10648   -11632   -12338 
   -9943    -6207    -5778    -8819   -11102   -10957   -10559   -11968 
  -15088   -18037   -19071   -18235   -16719   -15440   -14513   -13739 
  -13212   -13692   -15928   -18397   -18584   -16998   -15741   -14727 
  -12738   -10274    -9148   -10335   -13481   -17104   -19194   -18852 
  -16168   -11457    -6487    -4207    -6174   -11520   -17866   -22518 
  -23852   -22243   -18862   -14538   -10581    -8388    -8355   -10381 
  -14124   -18931   -23665   -26013   -23502   -16619    -9419    -5696 
   -5898    -8021   -10190   -12310   -14540   -15577   -15013   -13700 
  -11218    -7859    -6106    -6670    -7635    -9159   -13508   -19001 
  -20422   -16864   -12980   -11819   -11213    -8267    -4399    -2692 
   -2691    -3009    -5245   -10025   -14218   -16058   -17648   -20154 
  -21945   -22315   -22082   -20278   -15275    -8918    -4713    -3711 
   -4887    -7269   -10376   -12854   -13034   -11844   -11062    -9987 
   -8979   -10493   -13521   -15672   -17361   -18218   -17793   -17917 
  -19136   -20667   -21893   -21756   -20161   -17659   -13917    -9142 
   -5632    -5935    -8915   -10890   -11570   -13417   -15995   -17305 
  -17764   -17798   -16258   -13923   -13070   -13317   -12466   -10688 
  -10298   -11537   -12300   -11971   -11824   -12292   -12278   -10594 
   -7752    -5346    -3576    -3082    -6495   -13543   -20411   -25120 
  -27950   -29076   -28307   -25462   -20972   -15565    -9835    -4916 
   -2346    -2639    -4593    -6411    -6934    -6365    -6723    -9774 
  -14256   -17194   -17778   -18318   -20275   -21293   -19120   -15076 
  -11067    -7822    -6473    -7424    -8712    -8361    -7031    -6823 
   -8676   -12212   -16532   -19917   -21058   -20698   -19996   -19239 
  -18129   -15541   -11924    -9522    -8401    -7981    -9696   -14104 
  -18417   -18702   -15667   -13725   -12865   -10226    -7127    -6374 
   -7583    -9067    -9771    -9220    -8441    -9149   -11436   -14224 
  -16862   -19245   -21286   -22745   -23011   -21099   -17302   -13795 
  -11904   -10561    -8844    -8366   -10894   -15024   -17937   -18634 
  -17257   -13784    -9294    -5728    -3794    -3397    -4802    -8036 
  -12218   -15961   -18573   -19634   -18249   -15112   -12708   -12126 
  -12484   -12714   -12079   -10578    -9321    -8928    -8530    -7862 
   -8151    -9965   -12519   -14899   -16890   -18678   -19657   -18733 
  -15938   -12589   -10049    -9155   -10540   -13684   -16213   -16471 
  -15647   -15195   -14132   -11478    -8644    -7202    -7316    -8489 
  -10145   -12319   -15263   -18585   -21314   -21971   -20184   -17861 
  -16724   -16599   -16656   -16557   -16277   -15341   -13499   -11561 
  -10437   -10870   -13392   -17420   -21259   -22529   -19597   -13675 
   -8149    -5300    -4804    -5476    -6906    -9444   -13302   -17166 
  -18705   -17212   -14363   -12043   -10812   -10230    -9329    -7655 
   -6254    -6601    -8857   -11594   -13373   -14477   -15799   -16709 
  -16263   -15058   -13546   -11268    -9248    -9188   -10149   -10049 
   -9284    -9932   -12388   -14592   -15003   -14461   -13931   -13210 
  -12457   -12528   -13952   -16312   -18435   -18851   -16661   -13387 
  -11861   -12152   -11860   -10045    -8307    -8113    -8776    -9918 
  -12632   -16109   -18623   -20193   -20179   -17586   -13366    -9241 
   -6969    -7123    -8178    -9052   -10038   -11725   -14532   -17503 
  -18555   -17033   -14867   -14140   -14209   -13463   -12219   -11284 
  -10232    -8848    -8306    -9615   -12176   -14827   -16966   -18399 
  -18777   -17788   -16005   -14164   -12715   -12833   -15061   -17775 
  -19297   -19104   -16671   -12394    -8811    -8092    -9071    -9333 
   -8953    -9223   -10434   -12817   -15910   -17408   -16050   -13549 
  -11921   -11360   -11199   -11173   -11416   -11947   -12391   -12381 
  -12400   -13304   -15079   -17115   -18853   -19788   -19560   -17882 
  -14807   -11321    -8907    -8139    -8719   -10786   -13958   -16288 
  -16413   -15093   -13897   -13337   -12767   -12182   -12439   -13052 
  -12417   -10807   -10315   -11603   -13356   -14450   -14434   -13205 
  -11618   -10778   -10258    -8774    -6941    -7145    -9771   -12347 
  -13432   -13973   -14346   -13681   -12150   -10815    -9530    -7989 
   -8149   -11733   -16356   -18258   -17214   -15307   -13334   -11427 
  -10433   -10400   -10376   -10562   -11758   -13506   -15251   -17133 
  -18977   -20153   -19600   -16633   -12115    -7844    -5985    -7506 
  -10438   -12767   -14981   -17477   -18884   -18378   -17392   -17384 
  -17459   -16191   -13872   -11686   -10200    -9202    -9083   -10909 
  -14006   -16205   -16837   -16905   -16937   -16278   -14599   -12987 
  -12372   -11747    -9609    -6895    -6382    -8758   -11875   -14059 
  -15657   -17217   -17733   -16132   -13659   -12389   -12826   -13917 
  -14016   -12699   -11138   -10069    -9368    -9244   -10172   -11796 
  -12777   -12507   -11921   -11666   -11558   -12266   -14338   -15992 
  -15390   -13929   -14327   -16681   -18448   -17895   -15993   -14384 
  -13310   -12555   -12523   -13632   -15337   -16194   -15245   -12655 
   -9639    -8307    -9650   -12454   -15117   -16508   -16063   -14800 
  -14216   -14108   -13851   -13832   -13841   -13257   -12802   -13435 
  -14262   -13393   -10892    -8516    -6857    -6207    -7527    -9893 
  -11462   -12926   -15466   -17523   -17244   -15296   -13289   -12240 
  -12699   -14019   -14408   -13180   -11894   -12335   -13859   -13929 
  -11850    -9599    -8454    -8163    -8386    -8714    -9286   -10795 
  -12842   -14163   -14290   -14178   -14866   -15829   -16154   -15874 
