Origin Time       2024/04/02 04:24:00
Lat.              40.133
Long.             141.712
Depth. (km)       71
Mag.              6.0
Station Code      AKTH17
Station Lat.      39.5575
Station Long.     140.6116
Station Height(m) 95
Record Time       2024/04/02 04:24:57
Sampling Freq(Hz) 100Hz
Duration Time(s)  182
Dir.              5
Scale Factor      7845(gal)/8223790
Max. Acc. (gal)   22.238
Last Correction   2024/04/02 04:24:57
Memo.             
[...]
   14773    16989    17639    15685    12159     9134     7857     8334 
    9636    10856    12235    14586    17779    20325    20634    18636 
   15552    12276     9177     6664     5043     4479     5209     7221 
    9779    11788    12791    12953    12486    11727    11105    10993 
   11510    12251    12906    13802    15109    16173    15959    14168 
   11959    10671    10369    10698    11677    13096    14551    15688 
   16155    15908    14878    12622     9339     6235     4330     3897 
    4872     6994     9886    13143    16222    18501    19485    18851 
   16699    13776    10918     8513     6751     5742     5462     6035 
    7743    10390    13015    14683    15209    14820    13983    13267 
   12656    11932    11549    12054    13352    14808    15676    15569 
   14385    12181     9481     7002     5161     4288     4708     6376 
    9100    12769    16560    19024    19535    18245    15302    11284 
    7226     4075     2579     3078     5401     9061    13297    17243 
   19919    20455    18947    16245    12993     9688     6960     5436 
    5570     7218     9728    12436    14496    14991    13805    11754 
    9837     8617     8167     8451     9751    12441    16251    19940 
   21779    20677    17024    12320     8063     4905     2855     2153 
    3199     5852     9478    13309    16714    19226    20363    19826 
   17855    15115    12337    10056     8533     7720     7447     7676 
    8349     9073     9386     9471    10017    11423    13524    15898 
   18123    19639    19792    18436    16302    14226    12290    10272 
    8581     7982     8656    10120    11807    13143    13574    13024 
   11870    10291     8428     7024     7060     8696    11010    13124 
   14936    16390    17054    16565    14764    12071     9601     8248 
    8248     9436    11348    13351    14987    16093    16363    15267 
   12951    10415     8556     7680     7734     8584    10014    11470 
   12420    12919    13144    13074    12853    12573    12071    11344 
   10662    10444    10940    11736    11946    11106     9670     8631 
    8721     9792    11121    12291    13340    14161    14415    13968 
   12965    11695    10639    10326    10816    11597    12201    12642 
   13200    13849    14037    13270    11709     9898     8379     7668 
    7842     8359     8785     9347    10439    11873    12980    13433 
   13601    14044    14916    15741    15755    14643    12804    10874 
    9267     8337     8415     9444    11047    12991    15094    16914 
   17853    17404    15385    12160     8602     5638     3775     3194 
    4005     6149     9240    12660    15708    17614    17802    16576 
   14918    13423    12043    10696     9629     9344    10130    11546 
   12684    13045    12787    12326    11907    11549    11460    11858 
   12577    13524    14643    15350    15134    14127    12629    10909 
    9208     7751     6940     6980     7677     8962    10767    12611 
   13929    14273    13481    12075    10866    10153     9787     9802 
   10536    12029    13738    15005    15380    14617    13005    11442 
   10581    10382    10559    10882    11298    11931    12695    13111 
   12765    11792    10720     9968     9726    10018    10666    11493 
   12401    13157    13552    13505    12974    12137    11408    11115 
   11361    12012    12783    13497    14123    14472    14177    13097 
   11534    10150     9633    10183    11340    12575    13721    14674 
   15172    15082    14573    13795    12789    11816    11244    11097 
   11051    10843    10530    10265    10030     9744     9394     9094 
    9190     9981    11302    12623    13498    13795    13583    13045 
   12451    11908    11340    10820    10617    10945    11815    12981 
   13910    14050    13324    12182    11064    10025     9074     8459 
    8406     8907     9778    10783    11669    12187    12351    12397 
   12302    11824    11055    10474    10430    10813    11280    11577 
   11745    12105    12779    13377    13501    13220    12839    12503 
   12160    11723    11218    10764    10498    10633    11254    12028 
   12509    12583    12409    12135    11788    11403    11126    11132 
   11551    12329    13072    13409    13323    12816    11789    10366 
    8878     7685     7241     7904     9522    11607    13734    15601 
   16841    17016    15917    13855    11518     9666     8904     9409 
   10690    12015    13139    14195    15014    15190    14538    13127 
   11325     9895     9460    10006    11132    12363    13335    13867 
   13829    13194    12091    10683     9321     8554     8635     9398 
   10574    11929    13194    13998    14106    13656    12850    11855 
   11014    10538    10389    10594    11132    11846    12656    13450 
   13944    13954    13554    12850    11963    11133    10578    10265 
   10000     9809     9899    10285    10744    11055    11287    11800 
   12672    13497    13898    13752    13107    12291    11726    11418 
   11051    10597    10399    10593    10963    11318    11526    11448 
   11198    11134    11448    12021    12645    13252    13913    14536 
   14752    14218    12972    11345     9666     8266     7566     7778 
    8669     9911    11354    12725    13614    13895    13641    12901 
   11853    10874    10334    10476    11442    13047    14640    15527 
   15453    14616    13373    11993    10640     9498     8901     9216 
   10328    11604    12637    13481    14114    14297    13740    12344 
   10713     9868    10143    10994    11782    12280    12545    12680 
   12735    12586    12008    11167    10647    10827    11499    12129 
   12413    12586    12973    13478    13782    13635    12853    11492 
   10056     9175     9089     9532    10057    10413    10704    11164 
   11804    12459    13008    13311    13143    12503    11759    11171 
   10597     9946     9479     9576    10357    11487    12503    13215 
   13539    13379    12931    12560    12255    11713    11061    10814 
   11105    11593    11978    12135    11985    11580    11138    10837 
   10694    10666    10708    10855    11164    11560    11946    12236 
   12233    11805    11002     9971     9080     8803     9252    10169 
   11396    12955    14573    15688    16083    15878    15083    13713 
   12071    10620     9674     9319     9552    10262    11161    12035 
   12835    13374    13378    12941    12453    12154    11996    11893 
   11889    12040    12231    12182    11654    10820    10204    10056 
   10145    10223    10395    11024    12195    13448    14324    14787 
   14913    14651    14153    13799    13701    13645    13440    12950 
   12036    10789     9645     9051     9080     9598    10530    11755 
   13049    14108    14520    13925    12344    10231     8260     6928 
    6340     6486     7519     9624    12683    15920    18019    18191 
   16930    15275    13728    12279    10930     9871     9409     9780 
   10935    12326    13161    13169    12681    11942    11061    10342 
   10095    10392    11056    11855    12685    13410    13724    13401 
   12559    11565    10750    10207     9882     9714     9713     9973 
   10631    11672    12752    13435    13583    13340    12884    12278 
   11491    10573     9747     9378     9786    10868    12105    13105 
   13851    14318    14189    13215    11686    10250     9342     9019 
    9132     9526    10176    11164    12526    14017    15079    15206 
   14343    12943    11584    10519     9747     9355     9520    10264 
   11385    12519    13298    13605    13582    13327    12730    11695 
   10400     9223     8483     8397     9131    10690    12723    14640 
   15948    16378    15870    14621    13000    11384    10030     9061 
    8536     8391     8532     9003     9799    10631    11136    11165 
   10905    10805    11232    12125    13120    13887    14123    13679 
   12946    12438    12075    11558    10940    10423    10187    10478 
   11385    12572    13432    13667    13518    13216    12698    12067 
   11715    11817    12093    12164    11943    11537    11071    10721 
   10698    11016    11395    11595    11666    11766    11919    11998 
   11900    11666    11333    10872    10532    10685    11291    12074 
   12880    13570    13984    14091    13930    13649    13447    13321 
   13132    12982    13092    13317    13297    12954    12453    11851 
   11198    10702    10451    10378    10612    11311    12156    12561 
   12309    11647    10905    10210     9512     8916     8889     9801 
   11448    13261    14764    15757    16071    15522    14207    12501 
   10791     9478     8887     9023     9672    10777    12306    13851 
   14858    15084    14571    13575    12532    11673    10845     9980 
    9468     9764    10804    12069    12991    13251    12961    12484 
   12024    11546    11055    10732    10817    11445    12472    13406 
   13718    13360    12748    12197    11699    11217    10828    10683 
   11070    12123    13390    14111    13872    12750    11200     9898 
    9201     8868     8644     8788     9640    11091    12582    13392 
   13167    12225    11168    10291     9531     8935     8904     9751 
   11194    12582    13459    13690    13323    12560    11678    10897 
   10350    10100    10068    10153    10359    10615    10685    10455 
   10088     9791     9666     9813    10291    10971    11703    12414 
   12923    13019    12815    12526    12051    11315    10800    11029 
   11866    12714    13096    12888    12402    12167    12345    12559 
   12438    12160    12286    13176    14593    15797    16048    15187 
   13707    12293    11296    10539     9683     8824     8588     9429 
   10944    12204    12692    12613    12441    12403    12424    12393 
   12363    12571    13185    13973    14431    14315    13801    13073 
   12023    10551     8953     7831     7766     8959    10970    12942 
   14283    14963    15175    14850    13617    11460     9148     7600 
    7132     7655     9063    11115    13277    14994    15915    15734 
   14378    12430    10786     9906     9679     9861    10386    11245 
   12217    12939    13185    12933    12303    11504    10708    10131 
   10068    10602    11496    12307    12676    12640    12463    12251 
   11959    11684    11804    12510    13254    13240    12372    11334 
   10862    11005    11144    10844    10377    10273    10779    11757 
   12735    13159    12949    12602    12532    12638    12586    12282 
   12015    12020    12120    11988    11492    10778    10215    10116 
   10493    11183    12035    12915    13680    14196    14305    13840 
   12711    11137     9682     8954     9200    10107    11142    12150 
   13252    14349    15115    15294    14769    13671    12448    11526 
   10921    10520    10443    10821    11473    11992    12124    12055 
   12193    12722    13296    13250    12368    11275    10728    10762 
   10777    10336     9659     9274     9483    10157    10781    10953 
   10940    11209    11696    11973    11805    11352    11094    11399 
   12024    12253    11677    10624     9643     9007     8731     8642 
    8641     9049    10199    11803    13159    13922    14280    14419 
   14146    13220    11755    10297     9524     9651    10314    11240 
   12474    13894    15124    15830    15816    15024    13733    12424 
   11225    10004     9059     8943     9652    10686    11747    12888 
   14141    15348    16285    16758    16776    16673    16775    16993 
   16903    16158    14894    13679    12914    12553    12411    12374 
   12364    12286    11985    11294    10231     9139     8451     8386 
    8872     9630    10447    11304    12171    12737    12611    11847 
   10928    10154     9495     9030     9024     9567    10516    11686 
   12687    12903    12037    10427     8699     7315     6434     6058 
    6196     6813     7719     8630     9285     9535     9344     8707 
    7740     6777     6016     5428     5173     5568     6632     8170 
   10095    12339    14717    16958    18740    19822    20182    19930 
   19199    18146    16968    15896    15175    14990    15384    16119 
   16695    16636    15759    14204    12228    10039     7921     6227 
    5167     4814     5097     5659     6083     6308     6471     6528 
    6467     6669     7643     9591    12382    15754    19271    22423 
   24941    26736    27639    27382    25872    23430    20652    18100 
   16105    14651    13512    12495    11480    10404     9194     7662 
    5655     3296      900    -1196    -2745    -3669    -3936    -3383 
   -1757     1016     4688     8784    12753    16015    18160    19159 
   19228    18592    17486    16222    15186    14874    15662    17352 
   19245    20653    21230    20879    19496    17143    14307    11489 
    8961     7025     5954     5756     6230     7082     8010     8677 
    8834     8743     9101    10343    12374    14744    16900    18372 
   18840    18146    16272    13506    10615     8550     8005     9101 
   11412    14314    17334    20278    22813    24007    22883    19233 
   13782     8009     3468     1015      892     2953     6359     9786 
   12186    13036    12255    10095     7059     4218     2791     3238 
    5717    10164    15547    20599    24386    25876    24362    19861 
   13014     5373     -801    -3441    -1719     3510    10759    18789 
   26219    31549    33500    31159    24452    14507     3561    -5595 
  -10800   -11507    -8445    -2385     5834    14667    22262    26920 
   27652    24845    19762    13915     8897     5738     4615     5375 
    8129    12677    17583    21355    23391    23323    21519    19036 
   16278    13394    10654     7723     4584     1968      -70    -2108 
   -4391    -6868    -8870    -9155    -7026    -2506     3889    10999 
   17829    23826    27974    29344    28096    24858    20402    15788 
   11620     8170     6195     6050     7098     9088    12102    15188 
   16964    16640    13907     9283     4279      294    -2238    -3393 
   -3144    -1416     1796     6351    11418    15838    19149    20799 
   19934    17288    14076    10231     6596     4946     5539     8221 
   12781    17354    20521    22711    23747    22982    20966    18166 
   14860    12456    12021    13346    16231    20054    23291    24810 
   23734    19406    12910     6367     1192    -1721    -2052     -338 
    2964     7416    11650    14181    14364    12268     8739     5007 
    1915      189      800     4226     9757    16009    21533    24991 
   25698    24024    20623    15992    11240     7511     5185     4720 
    6342     9232    12371    15230    17385    18202    17579    16237 
   14851    13913    13640    13722    13852    13868    13873    14405 
   15608    16962    18046    18580    18411    17919    17456    16915 
   16316    15854    15441    14720    13512    12131    11071    10655 
   11018    11811    12457    12893    13242    13219    12444    10870 
    8930     7132     5406     3541     1783      514      125     1011 
    3080     5803     8758    11902    15257    18252    20013    20642 
   21023    21409    21471    21004    19542    16679    13058     9724 
    7194     5620     4688     3862     3225     3149     3447     3599 
    3265     2486     1675     1142      774      515      553     1127 
    2340     3711     4453     4455     4132     3790     3805     4490 
    5817     7927    11092    15152    19734    24313    28004    30177 
   30663    29278    26192    22038    17343    12831     9501     7732 
    7244     7743     8965    10431    11572    12020    11462     9621 
    6670     3353      716     -297      724     3692     8132    13088 
   17761    21763    24204    24300    22720    20629    18566    16883 
   15876    15871    17320    20015    22923    24831    24682    22127 
   17988    13616     9944     7229     5518     4953     5671     7541 
    9705    10994    10948     9813     8133     6509     5300     4769 
    5397     7655    11434    15800    19504    21767    22554    22127 
   20618    18319    15799    13589    12208    12156    13574    16000 
   18522    20356    21325    21536    20821    18925    16156    13458 
   11755    11429    12324    14029    16167    18270    19579    19584 
   18335    15834    11925     7083     2520     -529    -1206      762 
    4834     9919    14922    18933    21130    20817    17833    12787 
    6737      799    -3954    -6527    -6446    -4087     -226     4303 
    8496    11477    12910    12715    10852     7828     4808     2820 
    2336     3403     5692     8737    12075    15040    17012    17928 
   17869    16937    15603    13890    11384     8498     5860     3618 
    2069     1436     1599     2548     4324     6766     9405    11527 
   12788    13342    13196    12337    11155    10011     9131     8992 
    9760    10816    11619    12043    11811    10702     8980     7237 
    6259     6674     8626    12051    16509    20902    24206    25798 
   25042    21805    16845    11068     5193      156    -2990    -3682 
   -1980     1691     6629    11911    16444    19219    19904    18916 
   16904    14476    12172    10497     9749     9772    10270    11191 
   12511    14131    15808    16857    16617    15357    13906    12883 
   12694    13320    14405    15862    17713    19770    21672    22960 
   23301    22554    20677    17818    14262    10384     6860     4464 
    3526     3929     5250     6905     8429     9601    10368    10665 
   10365     9543     8586     8043     8244     9027    10154    11533 
   12883    13902    14312    13675    12102    10503     9616     9784 
   11098    13030    15109    17489    19858    21226    21107    19620 
   17185    14555    12178    10095     8760     8762    10179    12663 
   15385    17267    17739    16849    14917    12449     9980     7967 
    7047     7786     9998    12827    15430    17366    18684    19575 
   20027    19884    19087    17979    17188    17086    17513    17837 
   17547    16653    15203    13236    11119     9157     7615     6941 
    7037     7496     8395     9643    10801    11873    12866    13455 
   13599    13446    13107    12857    12791    12876    13201    13617 
   13841    13817    13481    12792    12010    11431    11114    11016 
   11038    11107    11207    11211    11063    10843    10415     9607 
    8540     7365     6170     5059     4145     3663     3817     4382 
    4893     5184     5476     6207     7726    10123    13257    16706 
   19857    22165    23153    22304    19422    15009    10111     5786 
    2691     1144     1323     3210     6536    10713    14667    17139 
   17377    15515    12318     8734     5602     3562     3049     3959 
    5597     7411     9205    10736    11651    11842    11649    11398 
   11090    10775    10539    10282     9944     9412     8455     7226 
    6246     5846     6131     7072     8380     9583    10339    10561 
   10303     9659     8812     8036     7700     8124     9207    10484 
   11479    11929    11919    11705    11358    10804    10114     9575 
    9509    10026    10963    11923    12318    11793    10678     9587 
    8957     9147    10188    11700    13559    15782    17898    19244 
   19438    18472    16761    14804    12854    11202    10214     9998 
