Origin Time       2024/04/02 04:24:00
Lat.              40.133
Long.             141.712
Depth. (km)       71
Mag.              6.0
Station Code      AKTH05
Station Lat.      39.0718
Station Long.     140.3185
Station Height(m) 275
Record Time       2024/04/02 04:25:04
Sampling Freq(Hz) 100Hz
Duration Time(s)  120
Dir.              5
Scale Factor      7845(gal)/8223790
Max. Acc. (gal)   4.395
Last Correction   2024/04/02 04:25:04
Memo.             
[...]
    6273     6408     6701     6849     6795     6589     6374     6349 
    6448     6465     6305     6070     5971     6052     6241     6501 
    6733     6853     6883     6755     6450     6146     6033     6126 
    6174     6060     6039     6079     5898     5786     6116     6654 
    6972     6948     6768     6529     6060     5559     5443     5578 
    5798     6247     6747     6903     6772     6660     6535     6297 
    6239     6434     6496     6462     6664     6872     6794     6689 
    6706     6562     6193     5941     5976     6083     6166     6313 
    6453     6548     6690     6822     6867     6702     6195     5579 
    5147     4999     5285     6003     6828     7346     7427     7263 
    6808     6029     5418     5344     5660     6003     6308     6883 
    7449     7318     6772     6480     6269     5815     5497     5665 
    5975     6181     6482     6787     6870     6817     6717     6544 
    6269     5927     5740     5749     5759     5907     6335     6686 
    6810     6948     7022     6759     6235     5767     5559     5552 
    5655     6048     6778     7312     7202     6747     6381     5991 
    5501     5444     6070     6685     6775     6675     6643     6507 
    6220     6000     6014     6170     6269     6309     6469     6663 
    6535     6138     5996     6345     6786     6808     6563     6527 
    6454     6029     5802     6183     6721     6897     6735     6604 
    6567     6409     6237     6188     6064     5837     5714     5822 
    6237     6862     7447     7717     7385     6559     5799     5424 
    5422     5846     6555     7048     7078     6880     6639     6343 
    6127     6141     6288     6347     6147     5829     5768     6052 
    6481     6920     7277     7389     6998     6230     5706     5632 
    5699     5822     6103     6434     6596     6596     6606     6644 
    6525     6205     5929     5884     5930     5960     6135     6399 
    6384     6133     6120     6416     6647     6727     6790     6687 
    6251     5773     5587     5711     6118     6702     7250     7611 
    7622     7231     6619     5972     5404     5011     4949     5332 
    6038     6805     7281     7204     6806     6478     6201     5925 
    5927     6293     6616     6575     6380     6330     6296     6158 
    6235     6631     6925     6889     6635     6265     5906     5772 
    6006     6455     6772     6843     6710     6316     5818     5579 
    5643     5796     6056     6484     6754     6608     6378     6380 
    6397     6247     6130     6116     5964     5746     5945     6532 
    6955     7068     7059     6775     6038     5256     5086     5566 
    6259     7024     7722     7885     7314     6444     5842     5724 
    5995     6462     6863     6953     6667     6180     5809     5783 
    6103     6502     6674     6600     6411     6131     5838     5807 
    6222     6783     7010     6921     6697     6216     5589     5273 
    5533     6177     6702     6976     7280     7407     6947     6211 
    5753     5647     5725     5894     6099     6328     6542     6623 
    6552     6417     6224     6023     5964     6116     6359     6438 
    6327     6286     6291     6143     6103     6389     6635     6604 
    6502     6304     5883     5629     5938     6601     7133     7303 
    7194     6859     6262     5644     5375     5543     6060     6770 
    7356     7495     7133     6512     5954     5728     5881     6195 
    6496     6794     6949     6771     6401     6129     6064     6143 
    6164     6012     5965     6197     6381     6374     6416     6463 
    6339     6127     6029     6192     6455     6500     6367     6239 
    6135     6130     6346     6751     7111     7179     6945     6562 
    6069     5503     5142     5260     5738     6278     6782     7226 
    7446     7254     6758     6305     5949     5579     5559     6127 
    6701     6821     6763     6671     6372     5984     5814     5971 
    6235     6311     6339     6577     6818     6862     6832     6760 
    6531     6214     6095     6270     6474     6589     6663     6552 
    6247     5965     5865     6015     6319     6640     6893     6864 
    6534     6239     6102     5957     5838     5984     6350     6552 
    6508     6515     6515     6259     5984     6050     6323     6478 
    6498     6451     6270     6114     6255     6492     6446     6232 
    6124     6075     5962     5915     6110     6392     6458     6343 
    6326     6481     6621     6628     6617     6631     6513     6242 
    5960     5769     5802     6120     6469     6589     6670     6879 
    6870     6450     6095     6154     6234     6027     5989     6299 
    6339     6012     5949     6265     6567     6728     6804     6743 
    6480     6079     5775     5753     5976     6323     6666     6845 
    6840     6790     6724     6550     6316     6111     5865     5629 
    5643     5919     6184     6299     6420     6670     6898     6921 
    6740     6451     6183     6023     6016     6281     6710     6845 
    6601     6373     6292     6222     6241     6404     6554     6616 
    6671     6743     6727     6608     6486     6338     6147     6012 
    5938     5953     6139     6434     6710     6786     6566     6370 
    6523     6786     6756     6417     5938     5427     5005     4870 
    5182     5896     6777     7553     7969     7808     7074     6050 
    5155     4699     4764     5265     6080     7059     7844     8028 
    7631     7022     6409     5805     5397     5466     5756     5830 
    5954     6434     6825     6824     6724     6751     6705     6389 
    6124     6197     6274     6214     6331     6554     6539     6369 
    6299     6250     6050     5853     5926     6253     6543     6612 
    6613     6689     6729     6671     6589     6488     6327     6149 
    6097     6280     6567     6789     6937     6964     6728     6243 
    5721     5374     5197     5215     5545     5950     6173     6470 
    6909     7022     6716     6423     6257     6021     5826     5950 
    6412     6930     7125     6944     6674     6399     6180     6370 
    6853     6957     6640     6392     6177     5815     5625     5857 
    6289     6609     6759     6855     6883     6754     6590     6548 
    6588     6571     6389     6052     5772     5717     5826     6068 
    6430     6706     6771     6667     6370     5995     5859     6081 
    6567     7113     7271     6786     6006     5350     5034     5286 
    6093     7095     7840     7789     6820     5718     5166     5103 
    5537     6466     7210     7250     6856     6362     5868     5526 
    5490     5761     6197     6497     6484     6386     6435     6469 
    6335     6177     6088     6033     6000     5991     6162     6594 
    6928     7041     7206     7187     6682     6119     5902     5907 
    6050     6328     6605     6782     6794     6608     6346     6138 
    6034     6133     6407     6566     6428     6177     6053     6091 
    6277     6547     6736     6739     6556     6293     6058     5877 
    5832     5992     6288     6624     6885     7002     7033     6914 
    6565     6231     6065     5802     5490     5532     5849     6127 
    6443     6921     7333     7442     7344     7159     6754     6089 
    5472     5212     5305     5601     6066     6660     7080     7068 
    6767     6447     6282     6334     6365     6176     5998     5960 
    5825     5748     6215     6941     7182     7001     6856     6562 
    5896     5464     5798     6313     6382     6378     6601     6625 
    6269     5946     5969     6166     6313     6494     6663     6578 
    6322     6161     6224     6523     6818     6833     6556     6169 
    5848     5616     5545     5930     6708     7279     7310     7098 
    6843     6372     5840     5803     6257     6571     6601     6714 
    6860     6789     6629     6507     6369     6218     6097     6068 
    6183     6365     6376     6168     6038     6022     5886     5821 
    6062     6343     6424     6409     6384     6324     6334     6539 
    6694     6489     6107     5842     5714     5674     5718     5941 
    6372     6818     7173     7406     7371     7041     6536     5989 
    5547     5287     5309     5732     6420     7063     7469     7506 
    7021     6223     5648     5471     5541     5879     6286     6336 
    6168     6188     6355     6520     6708     6782     6546     6106 
    5684     5385     5358     5834     6745     7669     8191     8071 
    7248     5968     4854     4548     5097     6016     6874     7407 
    7341     6660     5876     5539     5657     5935     6255     6633 
    6875     6701     6249     5900     5751     5765     6091     6666 
    7015     6901     6596     6370     6266     6173     6080     6141 
    6210     6037     5868     5903     5950     5979     6166     6473 
    6675     6721     6750     6864     6961     6859     6659     6458 
    6085     5690     5675     6064     6628     7168     7454     7342 
    6882     6295     5848     5661     5746     6088     6436     6453 
    6332     6408     6405     6169     6087     6174     6205     6268 
    6315     6243     6249     6388     6465     6562     6825     6941 
    6698     6388     6199     6107     6212     6616     7241     7657 
    7410     6772     6291     5910     5551     5584     5996     6216 
    6139     6222     6519     6600     6385     6189     6075     5950 
    5944     6116     6358     6589     6639     6324     5819     5514 
    5560     5796     6100     6436     6616     6552     6543     6741 
    6872     6782     6708     6779     6781     6538     6262     6238 
    6309     6293     6413     6659     6652     6474     6536     6701 
    6528     6070     5648     5362     5220     5252     5528     6083 
    6601     6836     7052     7156     6569     5545     4924     4846 
    5085     5748     6820     7736     8002     7743     7203     6428 
    5719     5468     5649     5949     6045     5891     5765     5881 
    6199     6569     6825     6740     6207     5543     5161     5109 
    5344     5868     6520     7102     7460     7437     7057     6604 
    6278     6118     6205     6436     6532     6540     6643     6777 
    6943     7268     7639     7792     7580     7069     6467     5898 
    5474     5447     5853     6400     6910     7279     7199     6666 
    6215     6142     6188     6230     6463     6782     6806     6593 
    6585     6775     6777     6631     6579     6497     6273     6087 
    6100     6357     6754     7074     7145     6925     6632     6575 
    6702     6852     7110     7303     6961     6161     5383     4823 
    4590     4833     5495     6288     6675     6301     5540     4988 
    4858     5098     5582     6215     6778     6851     6401     5941 
    5806     5880     6029     6238     6390     6349     6168     5995 
    5881     5796     5806     6016     6336     6620     6787     6759 
    6561     6216     5695     5273     5242     5445     5773     6370 
    7115     7655     7788     7558     7105     6454     5713     5267 
    5436     6100     6795     7200     7250     6910     6309     5713 
    5363     5502     5919     6188     6381     6756     7256     7603 
    7665     7645     7480     6809     5907     5486     5633     5848 
    5876     5911     6104     6374     6635     6843     6932     6708 
    6073     5452     5296     5436     5638     5980     6353     6498 
    6454     6417     6451     6502     6566     6687     6782     6743 
    6648     6494     6189     5926     5957     6189     6480     6917 
    7342     7283     6816     6555     6600     6508     6257     6291 
    6608     6721     6624     6758     6951     6631     5989     5611 
    5474     5394     5570     6137     6886     7410     7333     6697 
    6043     5811     5888     6012     6342     6970     7330     7080 
    6799     6855     6789     6396     6112     6111     6033     5742 
    5670     6134     6741     6968     6928     6874     6586     5919 
    5263     5019     5113     5416     6037     6828     7318     7389 
    7271     7037     6666     6161     5590     5216     5105     5061 
    5290     6058     6991     7651     7990     7959     7344     6241 
    5305     4950     4949     5282     6137     7182     7906     8137 
    7933     7452     6782     5964     5221     4828     4745     4761 
    4996     5687     6562     7130     7362     7470     7311     6617 
    5672     5146     5235     5613     6138     6897     7692     8170 
    8264     8166     8000     7661     7110     6664     6497     6377 
    6282     6501     6971     7265     7206     6970     6639     6238 
    5969     5918     6053     6351     6582     6633     6702     6731 
    6582     6551     6845     7287     7778     8186     8241     8017 
    7615     6864     6041     5724     5868     6019     6016     5937 
    5707     5306     5177     5636     6231     6405     6269     6137 
    5799     5020     4224     3877     3916     4135     4476     4885 
    5256     5602     6054     6538     6721     6462     6007     5568 
    5198     5236     6033     7326     8618     9617     9991     9387 
    7886     6022     4347     3271     3183     4140     5614     6952 
    7705     7707     7308     7065     7061     7041     6756     6011 
    4874     3715     2968     3094     4303     6085     7549     8240 
    8048     6764     4652     2741     1741     1767     3086     5518 
    7939     9479    10206    10370    10034     9371     8529     7284 
    5510     3812     3036     3476     5003     7150     8966     9572 
    8694     6797     4874     3659     3438     4298     5975     7827 
    9151     9629     9513     9105     8413     7446     6231     4776 
    3321     2305     2157     3045     4731     6768     8586     9603 
    9647     8866     7601     6480     5971     5911     5946     6052 
    6262     6369     6274     6288     6766     7627     8387     8599 
    8100     6957     5536     4469     4268     4943     6000     6783 
    6859     6172     5094     4275     4240     5013     6114     6929 
    7018     6315     5239     4365     4151     4861     6218     7472 
    8251     8687     8731     8105     6889     5547     4500     4160 
    4862     6323     7796     8887     9491     9290     8155     6664 
    5502     4812     4614     5034     5703     5868     5356     4733 
    4490     4629     4893     5120     5358     5575     5726     6064 
    6697     7213     7267     6863     6122     5371     4986     5194 
    6097     7415     8595     9240     9123     8345     7295     6189 
    5262     5057     5940     7497     8765     9212     9072     8532 
    7551     6450     5520     4430     3040     2029     1973     2598 
    3393     4326     5564     6752     7277     7300     7427     7670 
    7862     8137     8367     8202     7607     6791     6108     6041 
    6744     7782     8758     9428     9066     7172     4550     2756 
    2724     4240     6571     8830     9779     8656     6120     3677 
    2524     3009     4604     6300     7214     7028     6076     4986 
    4225     4023     4341     4827     5348     6095     6872     7246 
    7275     7396     7792     8182     8334     8221     7562     6305 
    5332     5371     6058     6934     8112     9281     9601     8931 
    7815     6511     5225     4507     4702     5520     6350     6974 
    7684     8430     8486     7591     6550     5934     5525     5394 
    5737     6076     5967     5517     5036     4899     5359     6346 
    7422     8023     8005     7392     5985     4183     3142     3495 
    4833     6357     7472     7932     7572     6408     5125     4603 
    4924     5587     6334     7042     7375     7304     7192     7020 
    6636     6212     5791     5436     5402     5602     5876     6386 
    7045     7350     7150     6825     6616     6608     6964     7487 
    7627     7069     5987     4915     4422     4843     6085     7630 
    8910     9514     9342     8684     7643     6211     4930     4322 
    4402     5086     6220     7462     8270     8202     7569     6912 
    6122     5090     4244     3955     4257     4957     5815     6766 
    7562     7592     6708     5617     4872     4476     4735     5968 
    7392     7935     7595     6894     6022     5296     5387     6388 
    7527     8074     7916     7388     6822     6230     5636     5343 
    5425     5586     5745     6164     7010     8002     8434     7832 
    6448     4855     3546     2965     3369     4549     6060     7541 
    8557     8662     7965     6991     6006     5260     5293     6025 
    6612     6701     6617     6471     6216     6134     6453     6889 
    7218     7587     7871     7717     7285     7017     6893     6690 
    6559     6724     6906     6728     6334     6037     5764     5398 
    5220     5313     5251     4990     4982     5323     5880     6563 
    6975     6798     6211     5578     5373     5838     6536     6859 
    6659     6218     5883     5841     6195     6867     7430     7551 
    7306     6970     6631     6042     5216     4641     4465     4631 
    5452     6893     8328     9256     9259     8191     6693     5517 
    5051     5397     6060     6322     6027     5424     4846     4688 
    5026     5386     5449     5458     5566     5730     5983     6253 
    6428     6367     6049     5856     6022     6338     6743     7171 
    7142     6427     5481     4727     4257     4328     5132     6303 
    7387     8137     8229     7515     6331     5270     4860     5240 
    6131     7037     7550     7693     7549     7013     6421     6324 
    6673     7188     7881     8514     8563     8006     7256     6596 
    6346     6709     7296     7578     7308     6552     5782     5421 
    5495     5945     6597     6995     6890     6462     5864     5163 
    4623     4576     5174     6041     6444     6296     6043     5709 
    5292     5092     4855     4156     3639     4186     5337     6131 
    6535     6821     6851     6567     6220     6012     5761     5231 
    4757     4866     5530     6440     7524     8723     9699    10092 
    9791     8820     7314     5599     4185     3616     4023     5125 
    6853     8808     9791     9220     7759     6214     5115     4831 
    5269     5892     6207     6130     6014     6258     6849     7322 
    7298     6874     6261     5516     4889     4885     5742     7111 
    8351     9008     8880     7928     6515     5290     4760     5123 
    6156     7331     8248     8664     8491     7948     7257     6567 
    6264     6489     6702     6447     5958     5640     5603     5948 
    6837     8089     9107     9293     8401     6623     4494     2870 
    2575     3755     5848     7993     9200     8853     7245     5096 
    3152     2342     3096     4754     6390     7508     7900     7665 
    7125     6520     6154     6249     6384     6147     5879     5783 
    5621     5640     6162     6732     6859     6529     5811     5009 
    4541     4357     4450     5152     6289     7159     7360     6925 
    6081     5283     5058     5552     6413     7222     7771     7929 
    7638     7150     6808     6615     6555     6839     7385     7744 
