Origin Time       2024/04/02 04:24:00
Lat.              40.133
Long.             141.712
Depth. (km)       71
Mag.              6.0
Station Code      AKTH07
Station Lat.      40.4563
Station Long.     140.8395
Station Height(m) 405
Record Time       2024/04/02 04:24:53
Sampling Freq(Hz) 100Hz
Duration Time(s)  146
Dir.              4
Scale Factor      3920(gal)/6170801
Max. Acc. (gal)   12.781
Last Correction   2024/04/02 04:24:38
Memo.             
[...]
   -4208    -4207    -4210    -4214    -4215    -4211    -4210    -4205 
   -4207    -4215    -4209    -4201    -4206    -4208    -4204    -4200 
   -4193    -4188    -4184    -4177    -4162    -4138    -4111    -4088 
   -4058    -4022    -4002    -4016    -4072    -4175    -4317    -4458 
   -4554    -4579    -4506    -4330    -4077    -3785    -3487    -3204 
   -2976    -2895    -3035    -3410    -3962    -4523    -4922    -5089 
   -5009    -4756    -4476    -4265    -4141    -4059    -3940    -3720 
   -3342    -2851    -2383    -2029    -1963    -2355    -3089    -3974 
   -4847    -5425    -5563    -5407    -5129    -4831    -4571    -4262 
   -3805    -3310    -2940    -2763    -2841    -3151    -3644    -4381 
   -5149    -5420    -5044    -4285    -3435    -2978    -3355    -4223 
   -4906    -5205    -5022    -4483    -4229    -4547    -5266    -5991 
   -6085    -5553    -4918    -4346    -3883    -3559    -3361    -3206 
   -3017    -3219    -3983    -4585    -4660    -4584    -4574    -4800 
   -5465    -6013    -5642    -4503    -3535    -3523    -4103    -4260 
   -3815    -3046    -2310    -2268    -3104    -4658    -6431    -7221 
   -6905    -6550    -6065    -4997    -3990    -2924    -1263     -247 
    -657    -1878    -4223    -7223    -8785    -7998    -5638    -3572 
   -3369    -4426    -5105    -5116    -5566    -6880    -8551   -10088 
  -10471    -9390    -7992    -6423    -4211    -2487    -2473    -3530 
   -4315    -4618    -5434    -6930    -7304    -5054    -1017     1967 
    1473    -1662    -5651   -10016   -13309   -14388   -13319    -9882 
   -5917    -3621    -1833      582     3111     5010     4706     1673 
   -2272    -5443    -7467    -9287   -11390   -11877    -9385    -4902 
    -318     2223     2363     1339     -359    -1636    -1063      411 
     904     -110    -2627    -6191    -9108   -10058    -9522    -8662 
   -7596    -5413    -2183     1022     3329     3574     1864       99 
    -831     -746      -99    -1020    -4212    -7843    -9972    -9232 
   -5786    -1789     1114     2957     4027     3969     1664    -2869 
   -6600    -7008    -5021    -2518    -1019    -1585    -3305    -4520 
   -5573    -6799    -6207    -3655    -1813    -1284    -1729    -3475 
   -5303    -6639    -7728    -8070    -8898   -10982   -12596   -12813 
  -11672    -9629    -6856    -2093     4453    10380    13449    12085 
    6688      -59    -6210   -11466   -14917   -15122   -12647    -9475 
   -6793    -5892    -7493    -8948    -7605    -4829    -2832    -2498 
   -4010    -5710    -5969    -5201    -3489    -1344     -210      807 
    2296     2733     2367     1950     1300      746     -774    -4642 
   -9217   -12121   -12743   -11426    -9491    -8309    -8061    -8918 
  -10171    -9870    -8330    -7476    -7713    -9072   -11337   -12920 
  -12829   -11035    -7976    -5771    -5327    -4762    -3836    -3755 
   -4220    -4735    -4686    -3337    -2066    -2931    -5671    -8574 
  -10229    -9532    -6377    -2442      933     3609     4560     3143 
     822     -917    -1487    -1374    -2015    -3294    -3884    -3745 
   -3001    -1174     1208     3146     4206     3958     2418     1005 
    1181     1977     1362      -75     -665     -914    -1718    -2941 
   -4132    -3798    -1208     1220     1412      237    -1433    -3897 
   -6825    -9232   -10568   -11012   -10773    -9932    -9486   -10125 
  -10946   -11404   -11513   -10956   -10124    -9444    -8362    -6599 
   -4402    -2029     -572    -1202    -2875    -3732    -3991    -4445 
   -4885    -5533    -6616    -7090    -6011    -4064    -2721    -2638 
   -3969    -6539    -8603    -8624    -7278    -5431    -3695    -2995 
   -3089    -3591    -4946    -6377    -6552    -6015    -5808    -5664 
   -5368    -5170    -4750    -4068    -3840    -4274    -4701    -4294 
   -2774     -709      927     1467      645    -1373    -3404    -4048 
   -3456    -2779    -2968    -4333    -5912    -7262    -8851    -9628 
   -8808    -6848    -3785     -791      714     1160     1292     1606 
    2042     1816      733     -893    -2386    -3015    -3014    -2945 
   -3304    -4148    -4766    -5346    -6366    -7157    -7355    -6702 
   -5144    -3873    -2970    -2144    -2900    -4942    -6387    -7076 
   -6679    -5100    -3868    -3569    -4153    -5678    -7119    -7560 
   -6683    -4834    -3444    -3246    -4332    -6326    -7239    -6673 
   -6387    -6315    -6114    -6469    -6491    -5389    -4071    -3235 
   -2815    -2438    -2219    -2331    -2157    -1829    -1724    -1231 
     -65     1742     3451     4058     4279     4049     2307      253 
   -1120    -2579    -4491    -6802    -8970   -10359   -11015   -10884 
   -9862    -8488    -7666    -7397    -6961    -6600    -6476    -5968 
   -5436    -5551    -6155    -6805    -6889    -6367    -6030    -6300 
   -6989    -7675    -7769    -7090    -6326    -6302    -6698    -6326 
   -4956    -3115     -937      627      442     -599    -1381    -1978 
   -2044    -1608    -1694    -2172    -2439    -2910    -3602    -4134 
   -4208    -3524    -3110    -3809    -4362    -4008    -3288    -2175 
    -869     -459    -1221    -2011    -1970    -1657    -1859    -2505 
   -3046    -3027    -2397    -1352     -122      830     1008      482 
    -517    -2217    -4239    -5746    -7059    -8435    -9438   -10411 
  -11667   -12995   -14118   -14079   -12597   -10980    -9788    -8521 
   -7166    -5580    -3610    -2098    -1544    -1513    -2090    -3361 
   -4336    -4280    -3855    -3995    -4690    -5182    -4862    -4141 
   -3886    -4286    -5252    -6538    -7295    -6952    -5710    -4071 
   -2591    -1473     -788     -759    -1031    -1258    -1793    -2679 
   -3624    -4241    -3895    -2760    -1778    -1260    -1010    -1009 
    -922     -291      417      483     -113    -1302    -3222    -5741 
   -8033    -8975    -8421    -7164    -5846    -5025    -4958    -4907 
   -4509    -4526    -5003    -5328    -5809    -6743    -7652    -8132 
   -7945    -7057    -5853    -4765    -3890    -3314    -3282    -3444 
   -3491    -3563    -2948    -1556     -978    -1780    -3054    -4245 
   -5140    -5384    -5115    -5241    -6288    -7807    -9204   -10075 
  -10114    -9507    -8597    -7358    -6026    -4887    -3918    -3739 
   -4538    -5025    -4701    -4115    -3253    -2411    -2028    -1887 
   -2038    -2171    -1630     -647      400     1026      891      721 
     741      382     -363    -1320    -2183    -2499    -2488    -2617 
   -2466    -1374        5      675      489     -730    -2551    -3894 
   -4934    -5904    -6060    -5586    -5029    -4085    -2929    -2179 
   -2008    -2680    -3934    -4732    -5016    -5523    -6441    -7576 
   -8661    -9566   -10099   -10193   -10633   -11730   -12651   -12700 
  -11479    -9199    -6915    -5364    -4723    -4959    -5526    -5862 
   -6253    -7117    -8150    -8926    -9142    -8725    -7943    -6752 
   -5517    -5052    -4787    -3773    -2178     -268     1307     1721 
    1559     1701     2190     2722     2809     2217      985     -638 
   -2040    -2778    -2649    -1953    -1414     -927     -188      389 
     703      716       90     -899    -1861    -2869    -4064    -5223 
   -5622    -5201    -4687    -4307    -4153    -4331    -4555    -4884 
   -5377    -5664    -5674    -5348    -4689    -4254    -4223    -4192 
   -4195    -4582    -5223    -5786    -6182    -6327    -6514    -7060 
   -7238    -6466    -5516    -5089    -4696    -3799    -2770    -1924 
   -1326    -1322    -1766    -2275    -3071    -4168    -5155    -5973 
   -6664    -7181    -7757    -8103    -7602    -7053    -7373    -7870 
   -8049    -8098    -7856    -7468    -7114    -6160    -4437    -3125 
   -3091    -3547    -3611    -3484    -3108    -2404    -2213    -2799 
   -3748    -5029    -6033    -6060    -5658    -5246    -4673    -4371 
   -4523    -4485    -4005    -3290    -2567    -2377    -2916    -3560 
   -3758    -3581    -3232    -2754    -2501    -2815    -3391    -4060 
   -4750    -4844    -4438    -4296    -4083    -3294    -2401    -1562 
    -878    -1001    -1629    -2217    -3222    -4440    -5201    -5570 
   -5544    -5390    -5707    -6110    -5996    -5677    -5462    -5226 
   -5042    -4910    -4582    -4254    -4087    -3739    -3376    -3411 
   -3643    -3784    -3787    -3855    -4143    -4316    -4481    -5234 
   -6173    -6515    -6213    -5205    -3858    -3293    -3504    -3682 
   -3866    -3931    -3657    -3806    -4520    -5141    -5512    -5129 
   -3863    -2812    -2349    -2436    -3169    -3500    -2984    -2671 
   -2805    -2865    -2825    -3020    -3587    -4187    -4502    -4462 
   -4204    -4190    -4477    -4672    -4878    -5307    -5845    -6446 
   -6733    -6275    -5497    -4731    -3820    -3109    -2929    -3058 
   -3147    -2924    -2483    -1885    -1193    -1237    -2208    -3291 
   -4518    -5818    -5999    -4676    -2991    -2205    -2560    -3609 
   -4812    -5688    -6202    -6254    -5433    -4356    -3778    -3041 
   -2047    -1678    -1583    -1500    -2231    -3242    -3619    -4086 
   -5255    -6652    -7442    -7201    -6771    -7070    -7789    -8293 
   -8289    -7947    -7647    -7267    -6627    -5714    -4454    -3340 
   -2657    -2068    -2142    -3214    -4370    -5406    -6236    -6071 
   -5240    -4465    -3587    -2823    -2754    -3177    -3419    -3258 
   -2987    -2845    -2978    -3371    -3622    -3486    -3139    -2733 
   -2369    -1967    -1202     -345      112      409      423     -476 
   -1871    -3092    -4088    -4605    -4805    -5241    -5746    -6165 
   -6523    -6680    -6793    -6735    -6135    -5349    -4977    -5093 
   -5543    -6078    -6157    -5784    -5581    -5424    -5037    -4676 
   -4071    -3246    -2941    -3059    -3353    -3909    -4200    -4358 
   -5093    -5809    -6053    -6398    -6577    -6329    -6174    -5644 
   -4405    -3338    -2579    -1928    -1801    -2046    -2307    -2726 
   -3226    -3639    -4099    -4436    -4318    -4001    -3838    -4130 
   -5048    -5663    -5460    -5433    -5377    -4327    -3180    -2775 
   -2845    -3515    -4398    -4823    -5044    -4990    -4877    -5640 
   -6472    -6497    -6747    -7248    -7235    -6938    -6376    -5707 
   -5446    -5326    -4920    -4303    -3727    -3483    -3552    -3609 
   -3538    -3580    -4053    -4568    -4472    -4174    -4011    -3604 
   -3126    -2928    -3064    -3563    -4144    -4496    -4646    -4784 
   -4881    -4368    -3189    -2166    -1456     -855     -419       87 
     379      -94    -1019    -1906    -2492    -2757    -3247    -4127 
   -4740    -5082    -5496    -5194    -4030    -3286    -3115    -2968 
   -3066    -3106    -2693    -2411    -2537    -2920    -3859    -5101 
   -5520    -4759    -3404    -1848     -755    -1116    -2388    -3136 
   -3500    -4076    -4638    -5385    -6693    -8174    -9322   -10074 
  -10265    -9576    -8378    -7212    -6230    -5741    -5585    -5053 
   -4084    -2953    -1931    -1676    -2381    -3134    -3135    -2444 
   -1408     -737     -967    -1694    -2785    -4177    -5193    -5999 
   -6901    -7278    -7072    -6950    -7532    -8879   -10054   -10337 
   -9900    -9013    -7994    -7088    -6481    -6363    -6310    -5974 
   -5472    -4493    -3102    -1671       55     1534     2077     2374 
    2213      845     -635    -1739    -3280    -4861    -6195    -8040 
  -10406   -12812   -14815   -15589   -14841   -13303   -11465    -9392 
   -7563    -6105    -4396    -2573    -1122      526     2622     4340 
    5119     5069     4839     5012     5221     4831     3594     1432 
   -1020    -2713    -3485    -3631    -3407    -3819    -5802    -8916 
  -12312   -15435   -17517   -18006   -16995   -14791   -11866    -8931 
   -6568    -4834    -3316    -1638       10      840      599      167 
     174      156     -489    -1477    -2058    -2354    -3086    -4242 
   -5314    -6316    -7154    -6848    -5060    -2877    -1107      260 
     807     -403    -3363    -6747    -9374   -11027   -11587   -10629 
   -8431    -5995    -3617    -1232      451      991      930     1142 
    2467     4694     6662     8152     9456     9937     8926     6767 
    4369     2555     2027     2972     4358     4570     2675     -857 
   -4401    -6747    -7780    -7405    -5905    -5167    -6884   -10386 
  -13830   -15606   -14566   -10757    -5539     -840     1938     3342 
    4787     6085     6498     5910     3679     -715    -6971   -14287 
  -20663   -23877   -23240   -19315   -13862    -9170    -5980    -4621 
   -6405   -11093   -16745   -21628   -24045   -23118   -18936   -11720 
   -2754     5816    11851    13638    11534     7627     3408     -685 
   -4364    -6839    -6921    -4410     -992     1156     1431      921 
     285    -1456    -4988    -9445   -14161   -18886   -22020   -21647 
  -17687   -11722    -6016    -2133       14     1125     1661     2292 
    3721     5488     6021     4578     1666    -2323    -6863   -10553 
  -12024   -10895    -7683    -3474      308     2453     2285     -429 
   -4652    -8477   -11182   -12941   -13784   -13979   -13717   -12906 
  -11384    -9060    -6749    -5384    -4965    -5745    -7481    -7867 
   -5140     -621     3586     7225    10339    11852    11299     9831 
    8357     5829     1795    -1694    -3707    -5249    -6433    -6757 
   -6300    -6192    -7513    -9501   -11215   -12429   -12198   -10279 
   -7658    -4220      449     5463    10268    14430    15909    13034 
    7011     1139    -2121    -3597    -5422    -7480    -8805   -10012 
  -11814   -13706   -14601   -13630   -11208    -8513    -5970    -3897 
   -2531    -1366     -799    -1799    -3693    -5235    -5832    -5216 
   -4320    -4629    -5781    -6149    -5118    -3516    -3133    -5319 
   -9188   -12735   -15173   -16842   -18041   -18675   -18605   -18027 
  -17260   -16112   -13788    -9831    -5158    -1843     -912     -972 
    -470      348      564     -211    -1986    -4777    -8182   -10760 
  -10670    -7308    -2159     2262     4399     4328     2617     -179 
   -2916    -4626    -5352    -5565    -5493    -4629    -2600     -200 
    1870     3490     4168     3815     3395     3252     2473      664 
   -1482    -3096    -3668    -3208    -1949     -231     1441     2283 
    1471     -314    -1380    -1218     -155     1059     1646     2158 
    2912     3074     3001     3700     4662     4658     3208     1067 
    -688    -2329    -4695    -7877   -12141   -17371   -21684   -23205 
  -21232   -15837    -8812    -2422     2642     5839     6201     4091 
    1179    -1724    -5050    -8352   -10389   -11016   -11119   -11521 
  -12173   -12556   -12667   -12542   -11947   -11047   -10268    -9731 
   -9060    -7698    -5901    -4852    -5295    -6829    -8128    -7730 
   -5751    -3836    -3129    -3194    -2626    -1095      128      301 
    -151     -962    -2509    -4692    -6338    -6446    -4984    -3034 
   -2458    -3439    -3948    -3569    -3959    -5141    -6008    -6712 
   -7289    -7139    -6525    -5720    -4401    -3001    -2164    -1890 
   -2567    -4737    -7797    -9939    -9659    -7238    -3817     -365 
    1834     2381     2412     2089      440    -1795    -2904    -3222 
   -4475    -7184   -10323   -12638   -13644   -13620   -12856   -11536 
  -10038    -8527    -6827    -4969    -3357    -2246    -1437     -862 
    -548       22     1303     3016     4423     4744     3835     2409 
    1224      171    -1446    -3167    -3467    -2034      207     2397 
    3928     4673     4841     4404     2979      352    -2690    -4750 
   -5149    -4299    -3147    -2481    -2588    -3587    -5281    -6513 
   -6572    -6302    -5984    -5059    -4068    -3630    -3475    -3476 
   -3263    -2424    -1912    -2784    -4513    -6003    -6954    -7734 
   -8191    -7486    -5709    -4187    -4184    -6062    -9052   -12020 
  -14203   -15032   -14595   -13809   -13413   -13229   -12594   -11370 
   -9871    -8409    -7230    -6169    -5148    -4241    -3189    -2523 
   -2991    -3493    -2783    -1414     -156      599      102    -1532 
   -3066    -3849    -4096    -4213    -4419    -4502    -4110    -3382 
   -2954    -2892    -2820    -2924    -3014    -2637    -2534    -3165 
   -3624    -3440    -3080    -2782    -2160     -706     1318     2898 
    3387     2877     2060     1594     1105     -115    -2151    -4591 
   -6877    -9022   -10866   -11411   -10773   -10120    -9426    -8189 
   -6674    -5106    -3915    -3905    -4762    -5674    -6386    -6204 
   -5062    -4451    -4942    -5573    -5802    -5629    -5013    -4682 
   -5646    -7132    -7470    -6727    -5868    -4909    -3813    -3203 
   -3571    -4800    -5820    -5348    -3659    -1925     -532      452 
     975     1267     1350     1252     1102      535     -630    -1685 
   -1882    -1510    -1598    -2338    -3044    -3549    -4017    -4256 
   -4111    -3890    -4294    -5523    -6851    -7844    -8699    -9567 
  -10428   -10865   -10487    -9422    -7868    -6271    -5166    -4368 
   -3601    -3164    -3247    -3505    -3706    -4024    -4366    -4582 
   -4871    -5157    -5433    -6355    -8134    -9784   -10100    -9046 
   -7731    -6697    -5425    -3887    -2617    -1263      528     1491 
     281    -2486    -4993    -6180    -6263    -5510    -4056    -2791 
   -2365    -2185    -1747    -1494    -1871    -2697    -3667    -4562 
   -4853    -4188    -3097    -2205    -1309       28     1709     3322 
    4419     4483     3216      895    -1723    -3902    -5202    -5540 
   -5513    -6294    -8320   -10335   -10782    -9568    -7539    -5616 
   -4616    -4559    -4878    -5184    -4999    -4146    -3354    -3188 
   -3449    -3972    -4614    -4894    -4879    -5237    -5989    -6525 
   -6371    -5542    -4592    -3834    -3127    -2635    -2691    -3121 
   -3423    -3678    -4466    -5641    -6547    -6868    -6458    -5465 
   -4332    -3530    -3473    -3934    -4292    -4301    -3975    -3870 
   -4659    -5631    -5773    -5430    -4979    -4563    -4945    -5888 
   -6223    -5916    -5343    -4640    -4424    -4886    -5267    -5086 
   -4449    -3499    -2557    -2120    -2352    -3078    -4022    -4919 
   -5748    -6573    -6839    -5720    -3540    -1500     -336     -146 
    -694    -1800    -3376    -4854    -5420    -4814    -3754    -3551 
   -4496    -5426    -5522    -4952    -3984    -2921    -2055    -1444 
   -1233    -1400    -1698    -2331    -3303    -3722    -3134    -2398 
   -2229    -1967    -1024     -212     -151     -272     -159       12 
     183      463      539     -264    -1888    -3355    -4020    -4174 
   -4371    -4535    -4259    -3904    -4202    -5159    -6324    -7361 
   -8222    -8984    -9359    -9026    -7976    -6341    -4833    -4144 
   -4111    -4758    -6029    -7241    -8631   -10556   -11730   -11298 
  -10234    -9385    -8675    -7915    -7152    -7008    -7825    -8571 
   -8474    -7867    -6839    -5639    -4798    -4067    -3423    -3505 
   -4283    -5122    -5475    -5185    -4592    -3996    -3508    -3173 
   -2771    -2185    -1640    -1483    -2000    -2970    -3618    -3264 
   -1990     -554      543     1290     1679     1791     1746     1641 
    1631     1429      695     -176     -995    -2128    -3335    -4175 
