Origin Time       2024/04/02 04:24:00
Lat.              40.133
Long.             141.712
Depth. (km)       71
Mag.              6.0
Station Code      AKTH03
Station Lat.      39.2223
Station Long.     140.1283
Station Height(m) 145
Record Time       2024/04/02 04:25:23
Sampling Freq(Hz) 100Hz
Duration Time(s)  120
Dir.              5
Scale Factor      7845(gal)/8223790
Max. Acc. (gal)   7.177
Last Correction   2024/04/02 04:25:23
Memo.             
[...]
    3470     3276     3092     2938     2828     2781     2828     2999 
    3277     3589     3819     3869     3734     3492     3244     3083 
    3056     3163     3352     3534     3670     3780     3820     3748 
    3642     3603     3672     3843     4045     4183     4251     4314 
    4359     4325     4207     4032     3831     3655     3543     3470 
    3379     3221     2994     2762     2628     2663     2872     3200 
    3549     3861     4102     4230     4257     4291     4391     4483 
    4472     4364     4232     4093     3915     3708     3555     3503 
    3510     3539     3604     3690     3754     3775     3773     3761 
    3730     3635     3478     3311     3164     3053     2971     2884 
    2844     2949     3196     3476     3673     3728     3711     3759 
    3878     3964     3996     4008     3996     3909     3724     3508 
    3330     3192     3148     3262     3480     3676     3780     3774 
    3676     3542     3466     3497     3604     3743     3893     4036 
    4126     4101     3967     3813     3709     3657     3609     3519 
    3437     3424     3446     3441     3412     3424     3487     3531 
    3520     3484     3456     3450     3478     3523     3568     3623 
    3700     3778     3812     3805     3809     3855     3925     3989 
    4006     3912     3665     3358     3179     3219     3412     3609 
    3727     3743     3688     3639     3630     3593     3489     3399 
    3392     3460     3534     3572     3584     3592     3592     3588 
    3613     3680     3742     3748     3705     3677     3727     3863 
    4018     4105     4089     3983     3815     3609     3422     3302 
    3256     3295     3407     3523     3632     3765     3854     3842 
    3780     3740     3742     3735     3682     3589     3470     3337 
    3230     3186     3207     3292     3416     3538     3657     3777 
    3869     3917     3913     3784     3511     3204     2967     2839 
    2840     2943     3075     3177     3235     3304     3435     3605 
    3762     3892     3990     4078     4158     4171     4071     3912 
    3755     3642     3630     3728     3861     3971     4055     4082 
    4010     3878     3784     3753     3703     3603     3512     3491 
    3534     3593     3628     3627     3592     3516     3418     3329 
    3238     3118     3019     3024     3148     3362     3600     3775 
    3855     3882     3915     3959     3997     4040     4095     4117 
    4079     4029     4009     4008     3997     3987     3975     3924 
    3828     3697     3543     3414     3335     3280     3219     3173 
    3176     3249     3414     3666     3916     4060     4087     4043 
    3979     3929     3906     3902     3890     3862     3844     3804 
    3684     3526     3420     3379     3329     3246     3198     3241 
    3350     3488     3603     3659     3665     3631     3568     3519 
    3524     3565     3595     3613     3640     3674     3700     3692 
    3624     3530     3496     3580     3751     3927     4031     4067 
    4112     4213     4306     4325     4298     4284     4295     4249 
    4037     3674     3319     3071     2925     2876     2933     3060 
    3192     3280     3292     3234     3168     3153     3156     3118 
    3080     3110     3196     3281     3335     3380     3469     3626 
    3800     3928     4013     4077     4106     4082     3997     3879 
    3763     3659     3564     3473     3388     3303     3199     3096 
    3080     3210     3424     3572     3585     3554     3596     3712 
    3802     3788     3703     3615     3514     3383     3273     3245 
    3294     3364     3416     3458     3480     3456     3426     3460 
    3561     3700     3873     4060     4222     4324     4338     4278 
    4178     4056     3919     3742     3511     3294     3167     3150 
    3231     3350     3426     3443     3472     3568     3723     3909 
    4106     4284     4384     4355     4205     3989     3758     3574 
    3491     3493     3541     3580     3551     3472     3418     3433 
    3489     3522     3519     3568     3704     3835     3838     3736 
    3670     3686     3697     3663     3616     3551     3439     3258 
    3045     2906     2918     3075     3303     3510     3669     3815 
    3931     3978     3964     3919     3856     3800     3766     3739 
    3712     3692     3638     3510     3348     3245     3279     3449 
    3647     3738     3697     3628     3609     3596     3547     3519 
    3547     3599     3627     3616     3588     3546     3465     3358 
    3280     3287     3385     3526     3669     3801     3904     3978 
    4008     3937     3782     3632     3530     3447     3385     3392 
    3451     3508     3568     3646     3724     3785     3824     3855 
    3879     3858     3771     3674     3670     3792     3940     4006 
    4002     3986     3929     3796     3666     3657     3769     3885 
    3901     3877     3935     4047     4097     4035     3894     3766 
    3694     3647     3593     3534     3518     3604     3759     3888 
    3942     3939     3910     3879     3862     3836     3771     3688 
    3627     3609     3630     3647     3627     3570     3514     3495 
    3497     3461     3380     3302     3260     3249     3265     3322 
    3404     3484     3543     3543     3464     3373     3349     3381 
    3411     3391     3319     3257     3280     3404     3547     3634 
    3681     3742     3827     3902     3951     3982     3971     3856 
    3669     3520     3461     3468     3527     3638     3763     3829 
    3781     3632     3454     3323     3271     3276     3303     3302 
    3260     3219     3227     3271     3298     3288     3245     3207 
    3240     3338     3441     3554     3694     3823     3892     3875 
    3817     3823     3924     4040     4090     4074     4014     3919 
    3800     3661     3541     3551     3685     3774     3754     3676 
    3539     3369     3276     3326     3472     3628     3735     3747 
    3681     3624     3623     3640     3628     3599     3607     3673 
    3785     3908     3939     3843     3703     3600     3554     3555 
    3589     3649     3673     3616     3537     3472     3416     3396 
    3438     3531     3623     3649     3620     3634     3715     3808 
    3835     3762     3630     3523     3511     3593     3657     3596 
    3433     3287     3254     3366     3592     3844     4043     4143 
    4116     4006     3924     3940     4018     4054     3966     3788 
    3597     3438     3326     3276     3300     3362     3387     3346 
    3298     3310     3385     3483     3564     3627     3697     3754 
    3765     3754     3782     3871     3978     4043     4035     3990 
    3997     4078     4135     4090     3989     3873     3742     3618 
    3554     3554     3542     3476     3389     3315     3265     3253 
    3262     3272     3311     3373     3366     3275     3180     3107 
    3055     3078     3208     3392     3543     3616     3632     3639 
    3658     3697     3767     3850     3931     4005     4041     3991 
    3840     3623     3441     3403     3524     3707     3832     3859 
    3828     3775     3697     3620     3597     3642     3716     3781 
    3836     3881     3894     3886     3848     3767     3724     3805 
    3960     4045     3996     3886     3751     3549     3316     3160 
    3127     3194     3281     3333     3375     3460     3576     3659 
    3684     3686     3684     3667     3643     3635     3647     3653 
    3622     3570     3534     3530     3524     3460     3353     3260 
    3215     3231     3292     3370     3438     3469     3483     3512 
    3569     3651     3690     3620     3528     3554     3665     3711 
    3640     3561     3581     3669     3726     3720     3717     3757 
    3792     3804     3808     3825     3896     4002     4062     4052 
    4025     4006     3983     3919     3815     3732     3694     3666 
    3634     3626     3666     3750     3847     3925     3932     3809 
    3593     3397     3262     3141     3040     3026     3118     3253 
    3366     3426     3414     3360     3330     3368     3469     3612 
    3730     3755     3694     3601     3553     3619     3794     4025 
    4252     4387     4365     4220     4050     3927     3844     3771 
    3673     3526     3358     3204     3060     2956     2974     3113 
    3250     3292     3287     3326     3450     3635     3811     3935 
    4031     4098     4095     4016     3939     3954     4037     4113 
    4132     4040     3836     3613     3451     3368     3352     3364 
    3365     3354     3354     3387     3433     3465     3485     3520 
    3580     3653     3754     3908     4078     4185     4159     3969 
    3713     3559     3528     3500     3418     3323     3250     3165 
    3072     3064     3187     3372     3514     3586     3645     3719 
    3778     3797     3815     3882     3960     3956     3831     3638 
    3469     3358     3269     3196     3171     3173     3145     3069 
    3025     3079     3196     3308     3358     3291     3167     3122 
    3168     3244     3330     3392     3420     3487     3647     3851 
    4001     4041     3955     3759     3516     3319     3237     3245 
    3235     3142     2992     2857     2787     2774     2786     2802 
    2785     2725     2673     2654     2660     2686     2758     2928 
    3184     3470     3781     4128     4414     4500     4413     4283 
    4205     4207     4261     4352     4549     4854     5184     5464 
    5603     5557     5408     5251     5166     5202     5321     5432 
    5456     5321     5012     4648     4340     4108     3979     3987 
    4054     4087     4105     4179     4351     4579     4779     4919 
    5016     5084     5121     5128     5112     5059     4959     4842 
    4753     4679     4588     4488     4401     4291     4075     3744 
    3385     3080     2876     2781     2745     2714     2648     2516 
    2292     2057     1998     2174     2461     2752     3010     3171 
    3208     3167     3117     3163     3361     3642     3817     3761 
    3546     3311     3102     2936     2832     2781     2739     2663 
    2543     2435     2413     2488     2593     2671     2702     2681 
    2659     2724     2898     3100     3235     3262     3180     2979 
    2706     2473     2342     2290     2268     2236     2214     2232 
    2261     2261     2241     2215     2204     2250     2351     2459 
    2533     2555     2547     2567     2636     2710     2741     2754 
    2799     2839     2817     2793     2829     2909     3034     3237 
    3476     3685     3856     3994     4093     4166     4203     4172 
    4106     4072     4078     4105     4136     4147     4106     3979 
    3792     3615     3466     3372     3420     3654     3993     4310 
    4499     4527     4471     4473     4606     4824     5061     5281 
    5435     5452     5312     5071     4806     4557     4329     4097 
    3855     3631     3449     3316     3226     3141     3045     2987 
    3015     3130     3294     3458     3595     3672     3677     3703 
    3819     3967     4091     4203     4302     4384     4457     4523 
    4557     4525     4436     4353     4326     4382     4523     4679 
    4735     4652     4450     4186     3960     3840     3771     3673 
    3553     3487     3511     3599     3724     3828     3858     3852 
    3855     3867     3928     4055     4172     4195     4126     4047 
    4058     4226     4503     4734     4837     4858     4826     4695 
    4463     4180     3913     3723     3628     3592     3576     3537 
    3430     3264     3099     2970     2886     2872     2945     3073 
    3198     3275     3304     3295     3231     3094     2930     2824 
    2785     2755     2739     2832     3078     3387     3650     3802 
    3851     3855     3844     3834     3844     3893     3970     4024 
    4010     3929     3800     3659     3562     3545     3592     3681 
    3838     4083     4355     4577     4716     4774     4781     4739 
    4633     4483     4324     4176     4045     3890     3655     3354 
    3069     2898     2868     2957     3133     3334     3476     3531 
    3578     3673     3781     3888     3996     4086     4190     4317 
    4403     4430     4426     4409     4409     4467     4577     4699 
    4785     4773     4653     4514     4419     4363     4345     4344 
    4271     4052     3672     3167     2608     2077     1679     1480 
    1429     1402     1345     1309     1364     1513     1688     1837 
    1964     2107     2258     2350     2344     2266     2173     2123 
    2120     2127     2128     2134     2119     2037     1890     1707 
    1532     1414     1352     1290     1194     1059      922      847 
     869      981     1179     1471     1850     2261     2640     2972 
    3256     3491     3667     3778     3842     3900     3990     4136 
    4301     4428     4511     4588     4696     4866     5092     5354 
    5663     6015     6378     6710     7017     7346     7724     8128 
    8518     8834     8997     8981     8827     8599     8338     8063 
    7778     7483     7169     6852     6609     6523     6608     6844 
    7141     7349     7395     7331     7214     7061     6880     6677 
    6462     6158     5629     4851     3888     2795     1682      661 
    -240    -1042    -1752    -2376    -2907    -3342    -3676    -3875 
   -3896    -3708    -3326    -2817    -2242    -1591     -837      -36 
     693     1296     1834     2404     2984     3472     3800     3964 
    4021     4020     3943     3782     3596     3415     3207     2971 
    2764     2620     2550     2574     2677     2795     2902     3036 
    3219     3416     3559     3577     3433     3190     2937     2720 
    2594     2606     2681     2722     2760     2851     2997     3164 
    3307     3408     3435     3354     3191     3014     2882     2813 
    2778     2791     2925     3229     3703     4307     4961     5545 
    5991     6323     6609     6895     7237     7669     8136     8499 
    8633     8491     8116     7607     7079     6620     6293     6087 
    5886     5567     5082     4472     3844     3306     2909     2646 
    2469     2343     2239     2124     2010     1935     1969     2176 
    2555     3024     3464     3796     4004     4068     3977     3781 
    3565     3370     3233     3172     3187     3284     3487     3781 
    4083     4287     4344     4264     4098     3920     3824     3913 
    4191     4548     4860     5050     5078     4934     4673     4409 
    4170     3878     3478     3014     2581     2238     1979     1813 
    1806     1968     2215     2431     2497     2330     1953     1506 
    1166     1082     1324     1814     2363     2764     2902     2810 
    2637     2548     2616     2814     3103     3435     3753     4054 
    4411     4884     5425     5907     6219     6334     6300     6199 
    6089     5967     5771     5464     5061     4584     4066     3539 
    3029     2578     2289     2250     2431     2702     2956     3186 
    3524     4124     4922     5660     6147     6394     6509     6581 
    6632     6663     6660     6571     6355     6106     5946     5861 
    5756     5595     5364     5009     4484     3789     3040     2424 
    2050     1836     1645     1453     1286     1128      957      764 
     518      233       45       90      314      553      680      634 
     483      373      372      461      630      845      990      924 
     577       20     -567     -967    -1015     -629      168     1240 
    2386     3408     4221     4909     5590     6272     6871     7267 
    7410     7384     7292     7175     7038     6887     6693     6369 
    5881     5308     4714     4162     3728     3412     3114     2793 
    2502     2276     2058     1821     1606     1449     1374     1476 
    1849     2465     3208     3942     4552     4992     5287     5505 
    5679     5779     5715     5406     4881     4286     3765     3384 
    3171     3164     3327     3518     3616     3589     3433     3227 
    3088     3072     3163     3322     3515     3696     3807     3808 
    3750     3734     3773     3734     3495     3078     2608     2243 
    2111     2242     2542     2879     3198     3472     3615     3612 
    3565     3569     3647     3739     3762     3701     3685     3873 
    4264     4718     5142     5503     5795     6034     6218     6342 
    6469     6648     6845     6999     7087     7122     7094     6947 
    6679     6400     6207     6084     5983     5886     5746     5502 
    5155     4760     4363     3985     3620     3254     2916     2706 
    2681     2748     2775     2695     2475     2100     1661     1305 
    1050      808      523      182     -186     -495     -652     -606 
    -333      110      635     1175     1613     1803     1779     1680 
    1568     1444     1325     1298     1476     1871     2358     2789 
    3088     3299     3507     3720     3901     4077     4290     4518 
    4675     4706     4664     4644     4633     4513     4233     3877 
    3559     3353     3281     3346     3480     3532     3431     3277 
    3271     3565     4175     4968     5792     6581     7333     8029 
    8625     9108     9486     9744     9810     9593     9107     8526 
    8039     7719     7501     7290     7017     6628     6104     5516 
    4949     4449     4027     3667     3319     2941     2550     2173 
    1800     1443     1162      959      742      433       97     -121 
    -132       71      453      930     1391     1745     1973     2111 
    2197     2250     2284     2280     2220     2130     2007     1840 
    1638     1431     1254     1171     1189     1243     1344     1544 
    1833     2165     2547     2990     3418     3697     3758     3678 
    3635     3782     4094     4360     4379     4156     3862     3650 
    3561     3557     3588     3601     3519     3253     2848     2525 
    2489     2721     3082     3447     3734     3881     3877     3797 
    3785     3977     4413     4988     5470     5664     5586     5408 
    5293     5308     5439     5617     5748     5757     5610     5320 
    4954     4615     4401     4382     4536     4726     4756     4463 
    3847     3063     2280     1609     1098      774      660      751 
     962     1140     1174     1074      903      710      615      757 
    1140     1609     1984     2173     2189     2138     2160     2346 
    2674     3069     3508     3983     4428     4750     4954     5127 
    5328     5544     5757     5961     6135     6230     6170     5908 
    5481     4955     4382     3846     3472     3307     3257     3156 
    2907     2529     2149     1954     2057     2407     2856     3229 
    3420     3493     3619     3906     4324     4758     5157     5517 
    5825     6081     6326     6571     6812     7007     7041     6841 
    6532     6304     6195     6062     5733     5154     4421     3704 
    3191     2991     3061     3267     3473     3592     3628     3653 
    3720     3850     4018     4110     4010     3751     3451     3149 
    2814     2470     2207     2097     2073     2010     1884     1738 
    1595     1510     1571     1787     2096     2440     2754     2961 
