Origin Time       2024/04/02 04:24:00
Lat.              40.133
Long.             141.712
Depth. (km)       71
Mag.              6.0
Station Code      AKTH14
Station Lat.      40.0622
Station Long.     140.8084
Station Height(m) 320
Record Time       2024/04/02 04:24:52
Sampling Freq(Hz) 100Hz
Duration Time(s)  151
Dir.              5
Scale Factor      7845(gal)/8223790
Max. Acc. (gal)   96.465
Last Correction   2024/04/02 04:24:52
Memo.             
[...]
   -4450    -4452    -4452    -4450    -4453    -4453    -4450    -4448 
   -4449    -4455    -4457    -4450    -4449    -4455    -4455    -4452 
   -4452    -4452    -4449    -4446    -4452    -4455    -4450    -4449 
   -4450    -4452    -4453    -4450    -4449    -4453    -4452    -4450 
   -4449    -4449    -4450    -4453    -4453    -4450    -4450    -4452 
   -4452    -4452    -4456    -4456    -4452    -4452    -4450    -4448 
   -4449    -4450    -4449    -4448    -4452    -4453    -4449    -4452 
   -4455    -4449    -4448    -4450    -4450    -4450    -4452    -4449 
   -4446    -4448    -4452    -4452    -4450    -4452    -4456    -4457 
   -4455    -4449    -4450    -4452    -4449    -4450    -4452    -4449 
   -4446    -4446    -4442    -4436    -4422    -4407    -4392    -4390 
   -4414    -4476    -4583    -4734    -4904    -5058    -5151    -5161 
   -5085    -4936    -4753    -4585    -4468    -4422    -4430    -4459 
   -4482    -4479    -4445    -4407    -4417    -4541    -4791    -5086 
   -5319    -5412    -5377    -5201    -4820    -4288    -3800    -3557 
   -3773    -4475    -5332    -5881    -5904    -5532    -5061    -4720 
   -4560    -4553    -4924    -5969    -7383    -8334    -7989    -6130 
   -3704    -1725     -356      -31    -1152    -2805    -3619    -3073 
   -1775    -1013    -1822    -4278    -6876    -7420    -5518    -3117 
   -2400    -3744    -5289    -5054    -3705    -3445    -5084    -8024 
  -10818   -11412    -9300    -6428    -5510    -7916   -11227   -10843 
   -5726     1247     7063     9047     5217    -3584   -12965   -16559 
  -11653    -3897     -619    -1698    -2878    -2513     -648     2776 
    5725     4382    -1595    -7275    -8368    -6303    -5848    -9369 
  -13906   -14601   -10188    -3422     1659     2893     1764      981 
    2137     5008     6596     3848    -2859   -11234   -18508   -20857 
  -15507    -4622     4468     5605      541    -3392    -1584     3460 
    6107     5146     3451     1902     -494    -4099    -9406   -15645 
  -19379   -18588   -15927   -15161   -16880   -19272   -20487   -19053 
  -13162    -1561    13468    25899    29897    23909    11955       64 
   -8641   -13255   -12919    -9583    -8814   -13582   -20117   -22091 
  -16600    -5976     3882     8228     8738    10462    12684     9482 
    -619   -12067   -19460   -22158   -21343   -17390   -11122    -6805 
  -11018   -22032   -26281   -14257     7234    23334    26399    20919 
   14504     7624    -2205   -11318   -14968   -12933    -5459     3861 
    6196    -2853   -19499   -35672   -41449   -31437   -11291     6855 
   15261    15211    11070     4743    -1040    -2274     1501     7222 
   10035     5892    -3743   -14418   -25050   -36099   -43247   -37461 
  -15282    12002    27589    25695    12163    -2830    -8648    -1147 
   13463    24564    23039     5857   -19241   -38078   -42388   -35959 
  -28067   -23766   -20372   -11369     3761    15948    17658    11755 
    5726     4545     8992    14108    14084     9649     3148    -5904 
  -15118   -19492   -17108   -10015    -2859     -234    -3046    -8380 
  -13158   -15642   -14662   -10714    -5250     1578     8272    10164 
    5089    -3380   -11241   -16811   -18280   -15268   -11088    -8895 
   -8078    -7360    -8144   -11213   -14469   -14844    -7823     7993 
   23931    29434    22993    10354     -124    -4090    -6666   -13414 
  -21274   -25965   -28595   -31492   -34759   -34954   -26342    -8272 
   12653    28722    35257    32115    22492    10527      854    -4990 
  -10276   -16335   -19799   -18639   -14528    -9803    -6556    -4986 
   -1867     4217     9990    11967     9184     4025      895      449 
   -1707    -8500   -16387   -19390   -16841   -13151   -10887    -8027 
   -2810     1981     3469     2596     -665    -8860   -20532   -27730 
  -23554   -10758      691     5027     6577    11939    19811    23992 
   21861    15727     9127     1764    -9894   -25227   -38362   -44508 
  -42307   -32292   -17265    -2101     8548    12587    12403    12141 
   11701     7447    -1275    -9462   -11169    -6513    -1327     -183 
   -3207    -7959   -11952   -14810   -17059   -16190    -8912     1842 
    8846     9460     6566     2601    -2322    -7492   -10258    -8604 
   -4086    -1372    -4018   -10369   -15340   -16333   -15093   -13728 
  -11457    -6728     -738     2801     1182    -3623    -6286    -4035 
    1336     6824    10354    10816     8587     4333    -2739   -12445 
  -21227   -24619   -21343   -14224    -7280    -3127    -2187    -2324 
   -1555    -1232    -3512    -6972    -7527    -2917     5229    11920 
   12047     6027    -1409    -7204   -10615   -13014   -16515   -20362 
  -23071   -23600   -19353   -10161       28     8160    13234    14401 
   11518     5981      766    -1536    -1583    -1611    -3280    -7967 
  -13737   -16077   -14839   -13451   -13678   -15188   -15523   -12060 
   -5674     1147     6798     9861     9659     6706     2612      253 
     901     1532    -1602    -7794   -12420   -11573    -6423    -2668 
   -3758    -7473   -10041    -9938    -8372    -7373    -7342    -7753 
   -8672    -8995    -6242    -1266     1402     -637    -6497   -13656 
  -17402   -14384    -6976     -375     2506     2866     4453     8445 
   11589    11443     8787     4652     -573    -6216   -10752   -12411 
  -11824   -12015   -14504   -17481   -17923   -14407    -7973    -1664 
    1208      535      168     3186     7501     8688     5679      608 
   -4260    -7306    -7713    -5922    -4456    -6844   -12764   -16549 
  -13898    -7241    -1957     -136     -209    -1296    -4446    -8843 
  -11095    -9140    -4477    -1000    -1121    -2999    -3258     -827 
    2801     4634     2284    -2639    -5763    -5823    -5418    -6326 
   -8337   -10912   -12847   -12359    -8658    -3487    -1182    -3684 
   -6678    -6255    -4149    -2366    -1138    -1895    -4951    -7947 
   -8579    -5679     -811     1487     -136    -1659     -531     1617 
    2655     1543    -1032    -3693    -6948   -10813   -13211   -13798 
  -14366   -15600   -16406   -15161   -11373    -6385    -2266     -483 
    -425      897     5355    10700    13274    12177     8930     4534 
    -822    -5926    -9262   -11484   -14646   -18571   -20209   -17550 
  -12170    -7047    -3627    -1383      627     2258     2519      720 
   -2782    -6412    -7726    -5105     -409     2461     2552     1597 
     126    -2181    -4855    -7304    -9451   -11681   -13952   -14705 
  -12961   -10465    -8951    -7954    -6812    -5412    -3383     -826 
    1467     2533     1849      352     -742    -1356    -1749    -2825 
   -5653    -9085   -10467    -8245    -3064     2096     4041     2790 
    1139     1193     2157      382    -6475   -14953   -19300   -18125 
  -14251   -10631    -8321    -6909    -5575    -3410       70     3665 
    5104     3748      985    -2120    -5441    -8989   -12663   -15487 
  -15869   -13450    -9069    -3485     2207     6261     7331     5019 
     492    -3172    -3743    -2737    -3676    -7776   -12456   -14195 
  -11723    -6558    -1833     -164    -1738    -4218    -4970    -3936 
   -3326    -4329    -5368    -4261    -1452      454     -129    -2586 
   -4997    -5490    -3770    -1186      580      198    -2135    -4594 
   -6768    -9825   -12834   -13473   -11700    -8961    -5691    -2004 
    1163     2663     2180      405    -1939    -4531    -6701    -7688 
   -8066    -9173   -11271   -13706   -15503   -14902   -10444    -3503 
    2189     4749     5391     5336     4590     2598    -1030    -5108 
   -7464    -7078    -4741    -2879    -3851    -7223   -10660   -12498 
  -11808    -8884    -5983    -5022    -5381    -4941    -2390     1453 
    4068     3639     1111    -1283    -3053    -5551    -9007   -11238 
  -10864    -9940   -11013   -13076   -12906    -9528    -4753     -704 
    1274     1459     1237     1213     1235      761     -483    -1374 
    -978       -6      612      637     -481    -3581    -7940   -10944 
  -10690    -8108    -5571    -4364    -4550    -5447    -5714    -4545 
   -2710    -2261    -4406    -7265    -7940    -6115    -3709    -2474 
   -2185    -1046     1124     2030      733     -652     -334      783 
     433    -2682    -6987    -9506   -10141   -11155   -12712   -12573 
   -9717    -6030    -3874    -3582    -4302    -5313    -6189    -6647 
   -5707    -2698      376     1119      330     -247     -913    -2735 
   -5958    -9570   -11959   -12838   -13069   -13184   -13446   -13224 
  -10795    -5845     -187     4075     5400     3634      552    -1792 
   -2412    -1611     -950    -1134     -768      816     2670     4180 
    4291     1541    -3584    -9614   -15415   -19226   -19963   -18370 
  -15098   -10654    -6336    -3009     -700     1161     3580     5752 
    5605     3719     2523     2913     3726     2216    -3372   -10571 
  -14979   -15105   -12802   -10777   -10548   -11298   -10895    -8324 
   -4375     -468     2182     2477      446    -1887    -3276    -5464 
   -9856   -14089   -14673   -11402    -7407    -5807    -6743    -7230 
   -4837     -954     1464     1729      909      225      506     1027 
     580     -534    -1933    -3804    -5283    -5464    -5436    -6961 
  -10093   -13016   -13774   -12159    -9486    -6528    -2978     1175 
    4542     5444     4396     3592     3842     4013     2502    -1591 
   -7106   -11246   -12668   -12704   -13273   -14787   -15855   -14921 
  -11792    -6805     -540     4542     5475     2947      666      530 
    1452     1755      445    -2724    -6988   -10403   -11515   -11284 
  -11700   -13166   -14091   -12800    -9369    -5215    -1933     -247 
     932     3447     7335    10011     8911     4320    -1548    -6633 
   -9832   -11577   -12490   -11719    -9300    -7885    -9477   -12717 
  -14045   -10620    -3507     2932     5821     5709     4642     4567 
    6080     7767     6991     1767    -6616   -13740   -16163   -14199 
  -10930    -9116    -8610    -7589    -5080    -1093     3061     4529 
    1687    -3473    -7150    -7306    -5150    -3393    -3717    -5933 
   -8239    -8194    -4722      164     1983    -1968    -8530   -11843 
  -10170    -6025    -1900     1162     3084     3117     -189    -5287 
   -7997    -6575    -3169    -2006    -5900   -12744   -17956   -19233 
  -17231   -14161   -11380    -8383    -4926     -741     5294    11510 
   14006    12482     9184     4928      -17    -5579   -11742   -16802 
  -19017   -18435   -15435   -11013    -6781    -2814      839     2359 
     793    -2214    -3981    -3734    -4124    -7311   -11033   -11919 
   -9860    -7101    -5286    -4191    -2818    -1084      337     1054 
     634    -1413    -4105    -5425    -5049    -4634    -5298    -6508 
   -7371    -7267    -5942    -4029    -2343    -1182     -711     -963 
   -2008    -4016    -6835   -10138   -13057   -13732   -10832    -5304 
    -144     1595     -558    -3855    -5339    -4467    -2135      275 
     842    -1370    -5111    -8247    -9733   -10301   -11160   -11577 
   -9294    -4495     -402     1005      457     -981    -2397    -2444 
    -460     2641     5181     6035     4693     1298    -2533    -5215 
   -6867    -7439    -6081    -3485    -1549    -1004    -1661    -3446 
   -6026    -8874   -11421   -12546   -11101    -7233    -2808     -392 
   -1757    -6214   -10308   -11514   -10916    -9639    -6932    -3366 
    -870     -156     -911    -2708    -4961    -6978    -7977    -7468 
   -5975    -4214    -2371    -1416    -2312    -4066    -5030    -4162 
   -1413     1375     2255     1433       60    -1146    -1930    -3411 
   -7175   -12631   -17656   -20466   -20325   -18754   -18036   -17853 
  -16065   -11209    -3329     5292    11138    12789    12181    12285 
   14195    16642    17772    16549    12733     6858      908    -2547 
   -2787    -1601    -2282    -6808   -12548   -15230   -14033   -10773 
   -7767    -6940    -8550   -11844   -15722   -19012   -21903   -24451 
  -24736   -21400   -14624    -4603     7285    17814    24067    25409 
   23707    20591    14999     5761    -6138   -19477   -32913   -43611 
  -48780   -47459   -41315   -33971   -27211   -19637    -9690     2893 
   16885    28467    32954    29243    20406     9626    -1277   -10168 
  -15313   -16812   -15885   -13807   -11101    -7547    -3196     1143 
    4072     4256     1228    -4334   -10774   -16213   -20144   -22987 
  -23734   -20324   -11620     1480    15616    26654    31608    29914 
   23990    16551     8607      571    -7904   -17255   -24975   -28294 
  -29690   -32077   -33282   -31949   -29095   -23055   -13338    -3244 
    5611    12695    15599    13382     9193     6636     4232     -484 
   -4018    -4148    -4490    -5081    -2937      855     4626     6972 
    4440    -3889   -14065   -21034   -22505   -20044   -17231   -16029 
  -13798    -6527     5940    20233    31275    35264    33079    27946 
   21262    12189       35   -13667   -26040   -35221   -40567   -41836 
  -40022   -36034   -28020   -14612     1125    14145    21222    21817 
   17679    12479     8523     4565      761     -380      -78    -2093 
   -7526   -16240   -27469   -37346   -42664   -43241   -38246   -28755 
  -19337   -10991     -727    11983    23950    30994    31052    25995 
   19773    14041     7508      970     -538     6880    21026    36315 
   48227    52309    44153    23101    -7499   -42622   -75370   -97896 
 -105575   -97286   -73737   -40192    -4599    27367    51016    64145 
   67082    57113    33817     4457   -23453   -44918   -56322   -58191 
  -52852   -41278   -24749    -5425    13416    27229    32490    28964 
   19935    10693     5348     3360      211    -7576   -20056   -35607 
  -50673   -58711   -54720   -39521   -16453    11325    37957    56409 
   64686    64687    58180    47132    31120     6978   -24459   -57033 
  -83141   -96580   -94682   -77527   -48080   -12117    23897    51875 
   64557    60647    45732    30991    24166    21103    15284     8602 
    3927    -1370    -9217   -19710   -31918   -40944   -43692   -42800 
  -42407   -45326   -49057   -45887   -30284    -4040    24094    44793 
   53684    50533    38708    23338     6812   -10274   -26123   -38665 
  -45558   -44444   -36589   -26609   -18754   -15063   -13238    -7920 
    3115    16208    25305    27197    23577    19236    18280    20468 
   22161    21296    17922    11686     3595    -4828   -14538   -24190 
  -29759   -31160   -30230   -27751   -25145   -21919   -15645    -5751 
    7612    22608    32312    30377    17747       87   -16113   -26723 
  -32864   -36911   -38473   -36660   -31509   -23831   -14320    -2388 
   12048    27210    39738    45574    42438    31206    15527      552 
   -9208   -13057   -15842   -21852   -29313   -35537   -38977   -36571 
  -28075   -17794    -9630    -5003    -2174     2660    10085    16264 
   17739    13964     6635    -1483    -8392   -13514   -16634   -17358 
  -15317   -10762    -5340    -1377      409     1514     3152     4471 
    3537    -1281    -9161   -16093   -18507   -15429    -7969      392 
    5181     3902    -2844   -12085   -18904   -19062   -13177    -5012 
    2400     7190     9512    10562    10234     8688     6146      545 
   -8361   -16143   -19614   -19241   -15159    -7352     2255    10876 
   16220    17054    13001     4294    -7091   -17686   -24999   -28147 
  -26802   -21783   -15232    -9119    -4349     -503     2754     4106 
    2848      483    -1406    -2670    -3801    -4660    -4702    -4143 
   -3550    -2743    -1505    -1119    -3331    -7584   -11349   -12874 
  -11955    -9053    -4681      594     5875     9942    11462     9595 
    5097      699     -905     -144       62    -1768    -4048    -4287 
   -2963    -4133    -9813   -16742   -20802   -20507   -16298    -9859 
   -3121     2727     6521     7122     4244    -1598    -8247   -12587 
  -14272   -15026   -14948   -14177   -14130   -14079   -11479    -5567 
    2112     8970    13004    13975    12460     8768     3318    -2515 
   -6845    -9460   -11794   -14260   -16380   -17990   -17903   -14767 
   -9531    -4224     -453      742      567     1726     5009     9057 
   11561    10216     4880    -2371    -9454   -14906   -17586   -16915 
  -12966    -6810    -1039      922    -3333   -13223   -25012   -33582 
  -34063   -24556    -8592     7730    20204    26759    26508    20267 
   10997     2594    -3176    -7944   -13895   -21389   -28996   -34132 
  -34770   -30901   -23634   -14045    -3315     6725    13701    15769 
   12436     5626     -301    -2226     -627     2211     3997     2898 
   -1675    -8145   -13023   -13144    -8800    -3429      -41      114 
   -2752    -6597    -8127    -5584    -1418      749      849      784 
    1559     2639     2158     -781    -5560   -11101   -15036   -15012 
  -11674    -7670    -5148    -5209    -6473    -5644    -1930     2647 
    5699     4885      162    -5017    -7268    -6505    -5390    -6191 
   -8826   -11677   -12451    -9285    -3127     2355     4544     4463 
    5389     9451    15024    17447    12841     1243   -12852   -23052 
  -25517   -21053   -13728    -7939    -5355    -4429    -2980     -378 
    2405     3883     3289     1209    -1040    -3056    -6018   -10887 
  -16241   -19107   -17902   -13528    -7642     -970     5680     9985 
   10166     7391     4028      822    -2979    -7697   -12664   -16802 
  -18515   -16750   -12776    -9140    -7623    -8467   -10265   -10963 
   -9211    -5726    -3499    -4229    -5587    -4097      799     6359 
    9309     8797     6201     2612    -1551    -5436    -8365   -10650 
  -13482   -17652   -21321   -21250   -16930   -10755    -5097    -1125 
    1517     4359     7776    10370    11095     9992     7298     3113 
   -2250    -7842   -12490   -15707   -17635   -18173   -16803   -13389 
   -8838    -4588    -1287     1058     1772      577    -1023    -1703 
   -1927    -2597    -3622    -4140    -3781    -3322    -3694    -5321 
   -8403   -11947   -13239   -10341    -4567       89      346    -3084 
   -6976    -9263    -9054    -6111    -1996     1112     2234     1406 
    -446    -1715    -1294      468     2103     2166      -83    -4453 
   -9360   -12723   -13759   -13000   -11472   -10060    -8486    -5961 
   -3087    -1563    -2110    -3246    -2556      422     3519     4541 
    3545     1949      475     -766    -1140     -450      -56    -1173 
   -3433    -6458   -11113   -17876   -24952   -28911   -27112   -19812 
   -9826     -237     6921    11183    13545    14708    14571    13259 
   10643     6192      183    -6183   -11480   -14562   -14986   -13012 
   -9436    -5660    -3892    -5999   -11146   -15782   -16557   -13184 
   -8691    -6056    -4675    -1593     3493     6504     3802    -3654 
  -12102   -17780   -18192   -13730    -7977    -4811    -4851    -5433 
   -4179    -1391      912     1125     -363    -1661    -1815    -1734 
   -2612    -4059    -4207    -2411     -542     -326    -1263    -2261 
   -3289    -4415    -5017    -4858    -4865    -6357    -9471   -12702 
  -14639   -15350   -15334   -14426   -12278    -8874    -4776    -1252 
     664     1077      834      872     1771     3433     5204     6297 
    6012     4002     1013    -1341    -2095    -1522     -472      726 
