Origin Time       2024/04/02 04:24:00
Lat.              40.133
Long.             141.712
Depth. (km)       71
Mag.              6.0
Station Code      AKTH13
Station Lat.      39.9819
Station Long.     140.4072
Station Height(m) 145
Record Time       2024/04/02 04:24:56
Sampling Freq(Hz) 100Hz
Duration Time(s)  120
Dir.              5
Scale Factor      3920(gal)/6170801
Max. Acc. (gal)   10.761
Last Correction   2024/04/02 04:24:41
Memo.             
[...]
   18904    18217    17569    16389    14965    14403    15012    16273 
   17572    18565    19009    18547    17393    16312    15838    16169 
   17099    18341    19729    20549    19988    18165    15927    14229 
   13623    14127    15438    17030    18533    19710    20140    19802 
   19052    17958    16653    15524    14837    14779    15316    16124 
   16873    17312    17483    17537    17127    15907    14402    13563 
   13867    15205    17057    18716    19671    19619    18438    16377 
   14136    12719    12824    14475    17240    20168    22054    22158 
   20503    17889    15309    13597    13686    15649    18175    20253 
   21700    22138    21188    19043    16408    14172    13079    13508 
   15094    17094    19006    20208    20219    19032    16819    14211 
   12144    11501    12806    15307    17674    19373    20269    20188 
   18938    16568    13914    12186    12110    13490    15473    17427 
   18947    19512    18921    17478    15808    14708    14691    15604 
   16673    17219    17353    17360    17154    16827    16766    17195 
   17865    18159    17895    17362    16553    15620    15216    15652 
   16803    18504    20374    21541    20965    18493    15181    12393 
   11084    11507    13445    16841    21208    24824    25842    23701 
   19344    14381    10034     7334     7301    10029    14614    19795 
   24179    26594    26317    23234    18355    13424     9761     8076 
    8758    11626    15775    19834    22597    23584    22932    21088 
   18565    15849    13600    12470    12698    13929    15418    16873 
   18326    19371    19863    20245    20514    20064    18703    17059 
   15679    14476    13587    13845    15638    18142    20289    21741 
   22257    21169    18421    15182    12787    11789    12172    13680 
   15748    17589    18442    17957    16595    15146    14029    13503 
   14035    15903    18517    20572    21168    20367    18658    16567 
   14674    13517    13427    14414    16182    18203    19812    20431 
   19977    18876    17489    16037    14882    14328    14553    15569 
   17015    18515    19841    20599    20459    19563    18306    16977 
   15801    15076    15028    15643    16628    17449    17767    17759 
   17633    17262    16565    15895    15845    16426    16902    16938 
   17011    17370    17622    17318    16373    15108    14033    13535 
   13768    14737    16421    18520    20382    21553    21712    20485 
   17990    14981    12572    11725    12425    13975    16054    18526 
   20725    21791    21370    19783    17776    15988    14626    13838 
   13843    14570    15722    17092    18554    19960    21081    21563 
   20959    18989    16010    12970    10792    10172    11495    14468 
   18196    21699    24024    24250    22085    18313    14270    11129 
    9751    10552    13183    16641    19922    22247    22819    21347 
   18582    15715    13611    12435    11968    12379    13879    15956 
   17815    19040    19631    19680    19189    18238    17050    15919 
   15128    14866    15245    16201    17414    18367    18616    18310 
   17937    17551    16966    16483    16816    17971    18836    18562 
   17488    16446    15890    15775    16015    16647    17723    19066 
   19813    19120    17300    15209    13347    12164    12321    14168 
   17082    19920    21818    22189    20963    18725    16194    14024 
   12794    12880    14217    16146    17970    19333    20008    19919 
   19147    17854    16369    15288    15154    15701    16014    15791 
   15696    16202    16952    17548    18021    18499    18954    19113 
   18744    17972    17022    16020    15049    14368    14455    15348 
   16497    17605    18768    19746    19894    18961    17444    15911 
   14588    13827    14040    15056    16407    17799    18900    19330 
   18864    17575    15962    14731    14346    14715    15370    16084 
   16838    17352    17401    17291    17437    17692    17644    17297 
   16865    16327    15690    15237    15330    16096    17293    18467 
   19381    20071    20207    19218    17210    14910    13063    12244 
   12759    14612    17413    20372    22735    23844    23120    20710 
   17535    14582    12479    11527    11893    13579    16208    18979 
   20986    21766    21278    19605    17196    14929    13554    13235 
   13652    14532    15805    17280    18618    19453    19620    19327 
   18808    18119    17182    15858    14431    13529    13507    14447 
   16200    18237    19961    21055    21305    20443    18446    15837 
   13536    12312    12344    13379    15072    17068    19008    20504 
   21111    20578    19051    16972    14917    13420    12914    13663 
   15482    17750    19802    21161    21430    20371    18204    15590 
   13383    12316    12668    14342    16821    19074    20337    20534 
   19715    18012    16063    14762    14465    14808    15311    15727 
   16042    16376    16777    17217    17632    17973    18316    18700 
   18871    18456    17416    16232    15509    15405    15606    15937 
   16592    17471    18074    18171    17811    17095    16322    15861 
   15836    15994    16084    16351    17074    17936    18300    17870 
   16997    16148    15501    15314    15926    17204    18439    18926 
   18548    17656    16657    15884    15663    16316    17756    19208 
   19782    19124    17459    15346    13431    12400    12931    15063 
   17909    20352    21556    21077    19079    16226    13395    11426 
   10853    11889    14383    17566    20341    21970    22273    21365 
   19493    17082    14791    13368    13124    13723    14769    16101 
   17510    18754    19700    20208    20121    19404    18235    16857 
   15301    13738    12806    13042    14450    16556    18623    20149 
   20878    20586    19236    17078    14795    13358    13243    14172 
   15689    17449    19004    19859    19742    18822    17609    16457 
   15564    15242    15608    16284    16753    16960    17148    17253 
   17011    16494    16219    16555    17283    17988    18361    18249 
   17709    16895    16105    15629    15503    15807    16622    17630 
   18353    18632    18675    18512    17761    16443    15301    15002 
   15603    16656    17586    18146    18485    18697    18582    18108 
   17584    17100    16577    16163    15843    15365    14859    14789 
   15383    16562    18142    19705    20501    19996    18336    16048 
   13714    12033    11752    13215    16009    19145    21508    22261 
   21207    18778    15786    13275    12242    13124    15456    18192 
   20387    21459    21127    19423    16859    14438    13157    13460 
   15087    17299    19295    20380    20140    18759    16891    15235 
   14264    14192    14990    16308    17557    18199    18179    17872 
   17502    17164    17027    17117    17404    17686    17489    16620 
   15309    14006    13375    13919    15497    17451    19212    20496 
   20868    19854    17544    14652    12291    11563    12791    15258 
   17953    20277    21841    22114    20840    18450    15779    13631 
   12627    13083    14726    16693    18226    19146    19568    19580 
   19171    18373    17509    16890    16304    15455    14638    14311 
   14476    15055    16292    18320    20478    21656    21401    20001 
   17873    15481    13336    11947    11817    13108    15515    18447 
   21060    22570    22641    21297    18880    15996    13431    12037 
   12204    13596    15555    17663    19800    21539    22093    21230 
   19444    17255    15029    13185    12155    12164    13191    15113 
   17505    19547    20558    20383    19262    17628    15944    14638 
   14078    14258    14925    16034    17328    18207    18526    18644 
   18672    18310    17407    16331    15495    14889    14553    14837 
   15839    17247    18689    19753    20025    19353    17867    15913 
   14056    13003    13257    14736    16978    19419    21320    21986 
   21135    19062    16462    14031    12495    12338    13324    15052 
   17176    19091    20322    20706    20149    18681    16726    15071 
   14114    13731    13911    14703    16060    17736    19179    20094 
   20474    20143    19025    17252    15185    13497    12645    12775 
   13968    15922    17992    19583    20296    20131    19297    17785 
   15724    13830    12924    13214    14437    16406    18818    20725 
   21080    19809    17679    15446    13735    13143    13796    15284 
   17156    18920    19926    19812    18709    17030    15404    14434 
   14402    15277    16730    18267    19449    19853    19347    18339 
   17314    16599    16356    16468    16945    17976    19233    19924 
   19597    18477    17118    16001    15458    15636    16500    17905 
   19433    20405    20350    19270    17491    15481    13749    12779 
   12866    14025    16002    18160    19746    20429    20308    19579 
   18428    17109    15833    14619    13615    13139    13291    14101 
   15654    17750    19872    21292    21412    20170    17859    14971 
   12256    10556    10510    12163    14949    18084    20784    22304 
   22061    20071    17242    14849    13746    14029    15306    17192 
   19204    20688    21367    21406    20849    19670    18227    17034 
   16257    15875    15909    16449    17621    19218    20697    21609 
   21717    21029    19661    17799    15903    14435    13691    13855 
   14840    16424    18216    19487    19667    18832    17469    15927 
   14387    13218    12818    13248    14350    15945    17769    19407 
   20417    20550    19787    18264    16305    14339    12773    12033 
   12415    13746    15534    17356    18809    19406    18861    17401 
   15543    13699    12222    11419    11473    12448    14050    15714 
   17026    17803    17978    17471    16343    15049    14025    13307 
   12869    12906    13536    14654    16212    18011    19416    19933 
   19661    18890    17668    16074    14583    13780    14023    15278 
   17040    18730    19933    20265    19560    18016    16104    14431 
   13530    13775    15164    17095    18829    19998    20414    19825 
   18228    16121    14239    13260    13499    14599    15870    16871 
   17528    17879    17767    17008    15884    15060    14999    15530 
   16154    16781    17530    18078    18059    17537    16831    16288 
   16068    16129    16544    17383    18342    18880    18778    18325 
   17847    17429    17272    17630    18350    19122    19808    20150 
   19799    18798    17680    16920    16486    16216    16181    16350 
   16551    16771    16896    16643    16055    15635    15799    16351 
   16897    17384    17824    18088    17968    17163    15665    14132 
   13337    13504    14517    16173    18032    19602    20561    20682 
   19883    18370    16580    14959    13889    13761    14719    16510 
   18627    20462    21626    21966    21360    20004    18201    16049 
   14148    13407    13886    14966    16246    17703    19127    19907 
   19683    18689    17427    16323    15561    15266    15562    16290 
   17059    17643    18161    18708    19060    18988    18539    17843 
   16991    16083    15267    14772    14839    15616    17156    19215 
   21229    22597    22763    21428    18853    15790    13168    11616 
   11434    12871    15796    19459    22702    24311    23713    21238 
   17704    14044    11182     9980    10826    13289    16451    19203 
   20750    21082    20478    19146    17513    16260    15922    16299 
   16711    16926    17035    16882    16380    15806    15490    15479 
   15673    16189    17126    18275    19356    20090    20182    19584 
   18629    17701    16785    15843    15285    15328    15687    16137 
   16526    16738    16894    17142    17498    17888    18121    17995 
   17505    16744    15614    14148    13021    13098    14522    16615 
   18757    20726    22023    21834    20013    17484    15258    13593 
   12555    12490    13502    15105    16481    17077    16887    16202 
   15427    14930    14882    15233    15637    15793    15905    16112 
   16138    15867    15404    14987    14946    15385    16271    17554 
   19061    20502    21347    21126    19869    18024    16185    14831 
   14264    14515    15291    16231    17021    17438    17351    16599 
   15265    13779    12620    12265    12905    14244    15942    17819 
   19661    21126    21782    21217    19330    16717    14436    13281 
   13498    14864    16988    19577    22119    23647    23352    21361 
   18371    15049    12296    11001    11464    13487    16461    19569 
   22111    23326    22572    19993    16589    13644    12003    11872 
   13229    15731    18462    20358    20745    19680    17780    15672 
   13894    12955    13092    14355    16581    19092    20920    21395 
   20616    19150    17316    15396    13803    12666    12111    12603 
   14336    16815    19294    21176    21946    21336    19590    17082 
   14205    11807    10807    11533    13720    16734    19855    22356 
   23527    23001    20882    17693    14356    11819    10695    11263 
   13372    16501    19977    22909    24268    23304    20047    15455 
   10969     8108     8046    10966    15934    21382    25715    27740 
   26924    23639    18978    14142    10090     7538     7007     8665 
   12018    16054    19888    23061    25240    25974    24919    22034 
   17630    12695     8748     7090     8402    12650    18958    25654 
   30621    32037    29079    22242    13463     5507      656       -3 
    3588    10720    19651    27497    31671    31383    27403    21268 
   14726     9421     6673     7060    10187    14674    18802    21680 
   23321    23732    22604    20159    17583    15779    14453    13008 
   11580    10997    11836    13812    16439    19384    21899    22989 
   22254    20158    17383    14264    11224     9369     9595    11481 
   14237    17370    19986    21242    21071    19871    18094    16147 
   14528    13874    14398    15450    16526    17791    19104    20122 
   20634    20405    19614    18534    17285    16175    15485    15483 
   16252    17383    18478    19247    19338    18697    17602    16481 
   15661    15118    15004    15751    17280    18832    19590    19375 
   18512    17253    15897    14961    14962    15887    17061    18045 
   18942    19625    19603    18712    17427    16177    15027    14312 
   14541    15670    17180    18490    19076    18806    18007    16653 
   14628    12921    12831    14421    16868    19334    20968    21046 
   19550    17235    14972    13271    12696    13891    16263    18153 
   18940    19181    19005    18084    16694    15600    15214    15747 
   17260    18729    18665    17002    15028    13779    13509    14514 
   16871    19411    20827    20933    20005    18261    15993    13895 
   12904    13130    14245    16210    18217    19059    18682    17619 
   16457    15974    16305    17200    18490    19401    19194    17756 
   15484    13803    13958    15705    18343    20954    22478    22540 
   20955    17760    13800    10324     8754     9924    13393    18229 
   23065    25976    25763    22388    16939    11487     7756     6698 
    8442    12237    17393    22794    26373    26572    23194    17459 
   11681     7857     6896     8813    12701    17310    21511    23958 
   24014    22360    19784    16944    14735    13649    13465    13646 
   14080    15049    16116    16700    17222    18215    19517    20499 
   20376    18564    15225    11947    10560    11263    13436    16803 
   20885    24408    25681    23974    19955    14848    10319     8198 
    9312    13045    18006    22595    24983    23905    19890    14708 
   10099     7554     8107    11572    16703    21943    25500    26018 
   23680    19652    15055    11105     9190    10046    13064    16906 
   20408    22603    23033    22093    20355    18205    16282    15262 
   15133    15494    16295    17477    18512    18972    18993    18876 
   18645    18276    17715    16660    15218    14125    13800    14073 
   14873    16410    18387    19773    19847    18704    16654    14212 
   12452    12300    13719    16051    18470    20101    20472    19671 
   17951    15549    13046    11698    12455    14771    17442    19830 
   21528    21860    20418    17870    15504    13999    13414    13755 
   14886    16632    18693    20283    20715    19961    18456    16768 
   15391    14758    14922    15417    15932    16435    16927    17461 
   17924    18159    18101    17486    16203    14647    13409    13152 
   14342    16728    19631    22488    24661    25145    23056    18618 
   13333     8968     6751     7456    11211    16936    22716    26901 
   28574    27350    23277    17248    11187     7150     6175     7979 
   11674    16595    21799    25554    26609    25223    22369    18812 
   15179    12141    10414    10526    12214    14444    16478    18440 
   20460    21928    22234    21670    20627    18772    16038    13115 
   10593     8952     8920    10927    14549    18741    22434    24754 
   24900    22575    18516    14143    10761     9102     9431    11826 
   15891    20302    23407    24411    23572    21510    18660    15483 
   12796    11385    11475    12879    15392    18645    21775    23843 
   24319    23019    20131    16316    12551     9824     8718     9372 
   11748    15492    19697    23137    24822    24487    22494    19375 
   15738    12422    10344     9922    10894    12893    15775    19226 
   22317    23955    23903    22541    19958    16231    12188     9222 
    8119     8867    11452    15585    20151    23810    25815    25754 
   23117    18227    12779     8813     7621     9237    12841    17533 
   22290    25835    26947    25179    21441    17043    12811     9714 
    8824    10534    14292    18593    21777    23057    22461    20364 
   17414    14623    12813    11988    12098    13501    15905    18101 
   19228    19554    19669    19309    17988    16346    15351    14980 
   14744    14545    14638    15165    15965    16961    18236    19520 
   20241    20042    19003    17735    16738    15853    15125    15039 
   15598    16231    16591    16878    17243    17496    17571    17668 
   17966    18353    18386    17540    15721    13489    11675    10928 
   11596    13781    17035    20220    22408    23343    22793    20629 
   17449    14463    12639    12011    12288    13556    15827    18629 
   21059    22219    21916    20613    18877    17059    15356    14123 
   13816    14572    16084    17866    19441    20383    20391    19433 
   17927    16444    15089    13893    13397    14055    15473    16813 
   17949    19210    20190    20057    18635    16691    15081    13834 
   12816    12472    13253    14901    16693    18344    19974    21237 
   21405    20258    18192    15636    13067    11212    10728    11851 
   14162    16984    19966    22462    23321    22179    19679    16445 
   13127    10769    10354    12156    15372    18872    21918    23718 
   23775    22368    19960    16945    13985    12194    12406    14155 
   16281    18354    20511    22192    22264    20523    17975    15493 
   13435    12317    12540    13828    15604    17524    19292    20499 
   20869    20406    19305    17743    15905    14354    13829    14469 
