Origin Time       2024/04/02 04:24:00
Lat.              40.133
Long.             141.712
Depth. (km)       71
Mag.              6.0
Station Code      AKTH19
Station Lat.      39.1913
Station Long.     140.4710
Station Height(m) -106
Record Time       2024/04/02 04:25:01
Sampling Freq(Hz) 100Hz
Duration Time(s)  186
Dir.              2
Scale Factor      3923(gal)/8224838
Max. Acc. (gal)   4.860
Last Correction   2024/04/02 04:25:01
Memo.             
[...]
    5019     4801     4963     5344     5760     6106     6200     6099 
    6068     6127     6107     5998     5738     5333     5219     5578 
    5926     6106     6384     6588     6440     6133     5869     5668 
    5613     5707     5819     5950     6079     6022     5844     5806 
    5919     6073     6208     6234     6215     6312     6403     6227 
    5841     5613     5675     5694     5583     5624     5721     5772 
    5933     6077     6100     6089     6030     6014     6072     6097 
    6139     6177     6166     6100     5892     5701     5628     5447 
    5341     5589     5867     5962     5949     5717     5347     5088 
    4984     5027     5194     5393     5528     5621     5873     6196 
    6316     6351     6351     6181     5923     5626     5400     5383 
    5351     5170     4947     4731     4727     5023     5390     5706 
    5873     5763     5518     5368     5347     5346     5267     5167 
    5162     5231     5258     5174     5096     5150     5238     5293 
    5408     5468     5297     5080     5053     5161     5298     5406 
    5339     5142     5113     5270     5332     5310     5355     5391 
    5373     5337     5282     5239     5236     5239     5254     5313 
    5420     5509     5458     5319     5302     5510     5837     6079 
    6160     6102     5938     5765     5487     4999     4641     4657 
    4835     5096     5421     5552     5491     5559     5759     5834 
    5741     5567     5323     5089     5017     5111     5228     5273 
    5278     5312     5309     5215     5206     5400     5537     5491 
    5508     5624     5725     6004     6450     6633     6489     6273 
    5968     5586     5371     5256     5050     4895     4791     4599 
    4540     4733     4930     5130     5498     5763     5670     5476 
    5347     5242     5277     5374     5390     5462     5582     5625 
    5621     5464     5065     4731     4939     5711     6359     6320 
    5925     5653     5551     5628     5907     6160     6223     6187 
    5991     5587     5347     5513     5832     6034     6075     6029 
    5899     5606     5356     5348     5336     5217     5254     5475 
    5734     5957     6057     6081     6114     6111     6083     6079 
    6049     5973     5981     6139     6301     6411     6507     6399 
    6039     5818     5868     5941     6060     6238     6142     5908 
    5999     6158     5965     5678     5644     5842     6104     6247 
    6184     6033     5971     5942     5827     5814     5971     5985 
    5806     5698     5717     5697     5516     5262     5090     5071 
    5215     5292     5211     5335     5688     5867     5826     5807 
    5871     5919     5896     5865     5819     5751     5705     5526 
    5232     5162     5259     5277     5301     5363     5402     5395 
    5283     5100     4923     4827     4870     4922     4881     4811 
    4747     4820     5189     5655     5849     5794     5740     5699 
    5644     5699     5765     5679     5557     5448     5306     5292 
    5412     5502     5559     5520     5294     5073     5120     5479 
    5872     5940     5788     5771     5849     5822     5691     5548 
    5422     5262     5139     5173     5219     5282     5607     5994 
    6092     5979     5740     5470     5468     5597     5451     5316 
    5455     5447     5340     5509     5683     5792     6038     6076 
    5853     5773     5737     5625     5653     5678     5522     5443 
    5418     5244     5225     5354     5190     5080     5321     5351 
    5224     5387     5475     5333     5344     5467     5593     5765 
    5787     5590     5471     5575     5670     5622     5575     5502 
    5370     5340     5305     5238     5422     5645     5563     5406 
    5314     5208     5205     5259     5236     5259     5381     5530 
    5616     5498     5221     4965     4830     4866     5011     5157 
    5319     5540     5856     6224     6492     6565     6420     6080 
    5699     5494     5548     5726     5865     5962     6010     5962 
    5856     5688     5509     5528     5709     5798     5799     5807 
    5784     5752     5668     5459     5304     5324     5347     5323 
    5324     5282     5196     5201     5250     5205     5221     5510 
    5876     6077     6254     6430     6426     6328     6154     5814 
    5549     5449     5367     5404     5597     5715     5683     5614 
    5545     5476     5491     5560     5540     5471     5440     5471 
    5644     5799     5782     5778     5807     5761     5772     5871 
    5933     5915     5869     5853     5795     5721     5749     5744 
    5667     5665     5651     5518     5296     5050     5047     5328 
    5626     5884     5967     5738     5520     5406     5192     5044 
    5138     5331     5491     5620     5773     5942     6050     5995 
    5763     5636     5698     5730     5854     6066     5969     5695 
    5617     5710     5894     6011     5853     5597     5502     5583 
    5710     5682     5510     5433     5460     5410     5282     5265 
    5406     5509     5568     5710     5717     5497     5314     5151 
    4881     4842     5297     5919     6354     6586     6570     6345 
    6205     6102     5740     5429     5514     5636     5564     5508 
    5532     5576     5517     5300     5163     5192     5216     5292 
    5478     5621     5564     5282     4980     4904     5116     5410 
    5494     5506     5598     5498     5301     5308     5320     5292 
    5393     5533     5796     6328     6772     6825     6592     6127 
    5594     5352     5351     5296     5266     5391     5472     5352 
    5161     5031     4961     5061     5447     5788     5792     5709 
    5614     5385     5260     5306     5308     5363     5533     5657 
    5763     5856     5825     5657     5363     5012     4726     4542 
    4610     5017     5506     5779     5813     5692     5505     5445 
    5574     5617     5540     5611     5656     5459     5400     5568 
    5532     5356     5416     5495     5348     5244     5274     5263 
    5271     5270     5181     5256     5499     5632     5763     5899 
    5776     5548     5452     5377     5282     5294     5402     5560 
    5838     6034     5944     5915     6034     5945     5790     5753 
    5622     5409     5243     5132     5173     5329     5478     5691 
    5958     6092     6061     6012     5998     5927     5838     5830 
    5803     5671     5548     5466     5344     5247     5290     5479 
    5748     5960     6062     6096     6049     6037     6108     6033 
    5825     5725     5753     5890     6038     5969     5734     5574 
    5574     5695     5814     5842     5779     5606     5462     5491 
    5552     5579     5640     5649     5622     5657     5698     5734 
    5796     5798     5710     5647     5644     5576     5502     5579 
    5663     5679     5830     6042     6112     6162     6258     6122 
    5675     5316     5270     5293     5306     5470     5710     5849 
    5769     5529     5347     5239     5121     4961     4718     4579 
    4661     4785     4941     5208     5482     5649     5699     5792 
    6022     6204     6200     5994     5688     5482     5313     5212 
    5435     5753     5876     6006     6178     6207     6081     5829 
    5553     5476     5564     5536     5356     5177     4999     4865 
    4874     5011     5294     5589     5660     5625     5597     5482 
    5368     5289     5178     5175     5341     5563     5823     6061 
    6077     5872     5706     5705     5780     5915     6031     6011 
    5980     5954     5765     5528     5378     5196     5088     5194 
    5260     5238     5391     5618     5744     5896     5992     5895 
    5852     5914     5815     5572     5321     5061     4904     4927 
    5015     5107     5190     5220     5236     5332     5495     5661 
    5763     5738     5629     5525     5431     5347     5317     5302 
    5244     5244     5387     5528     5540     5416     5170     5000 
    5027     5050     5092     5421     5871     6080     6075     6011 
    5941     5925     5984     6061     5995     5732     5570     5613 
    5567     5501     5606     5593     5343     5089     4901     4874 
    5094     5356     5451     5414     5378     5314     5173     5132 
    5233     5266     5289     5513     5809     5988     6127     6234 
    6224     6110     5923     5822     5923     6014     6083     6292 
    6381     6266     6243     6161     5852     5648     5594     5458 
    5328     5385     5551     5671     5752     5818     5728     5516 
    5418     5410     5354     5390     5621     5810     5896     6023 
    6033     5896     5822     5653     5362     5298     5441     5521 
    5521     5524     5513     5428     5335     5243     4957     4685 
    4773     5000     5243     5603     5837     5914     6100     6316 
    6436     6542     6647     6745     6851     6937     6982     6924 
    6628     6045     5437     5193     5248     5271     5331     5578 
    5856     6079     6224     6111     5699     5231     4999     5022 
    5096     5131     5125     5043     4949     4965     5157     5427 
    5594     5667     5767     5984     6338     6562     6442     6195 
    5950     5640     5459     5482     5491     5541     5719     5811 
    5802     5821     5776     5594     5375     5283     5296     5205 
    5065     5028     4999     5034     5246     5391     5441     5598 
    5751     5836     5906     5814     5578     5417     5308     5132 
    5005     5040     5080     5092     5258     5505     5624     5583 
    5456     5328     5135     4855     4689     4536     4257     4194 
    4461     4730     4930     5240     5568     5598     5385     5247 
    5209     5200     5273     5429     5628     5846     6043     6104 
    5891     5575     5387     5223     5173     5435     5633     5587 
    5664     5705     5389     5104     5080     5053     5051     5104 
    4905     4587     4579     4699     4607     4484     4514     4650 
    4949     5394     5798     6123     6409     6547     6467     6227 
    5910     5690     5644     5679     5738     5744     5702     5741 
    5783     5780     5867     5954     5881     5717     5541     5371 
    5197     5054     5067     5223     5354     5416     5385     5294 
    5414     5805     6188     6454     6528     6381     6268     6212 
    6110     6126     6178     6115     6164     6257     6104     5821 
    5475     4989     4576     4502     4793     5233     5522     5653 
    5763     5772     5694     5687     5633     5418     5296     5374 
    5436     5400     5314     5305     5521     5710     5551     5266 
    5089     4896     4707     4731     4885     5008     5239     5494 
    5431     5238     5186     5124     5144     5332     5346     5215 
    5208     5173     5005     4889     4896     4950     4972     4969 
    4951     4893     4955     5265     5694     6197     6723     7067 
    7281     7546     7776     7948     8197     8401     8417     8356 
    8206     7819     7330     7029     6956     6943     6897     6843 
    6728     6544     6463     6473     6297     5898     5510     5208 
    4968     4882     4901     4868     4810     4761     4635     4503 
    4610     5003     5475     5877     6096     5999     5664     5252 
    4847     4603     4506     4409     4409     4544     4684     4903 
    5130     5120     5104     5352     5522     5451     5472     5620 
    5805     6154     6478     6505     6461     6625     6837     6882 
    6860     6867     6808     6825     7099     7331     7277     7145 
    7011     6801     6631     6450     6126     5859     5860     6081 
    6386     6729     7086     7345     7457     7555     7665     7454 
    6801     6165     5715     5158     4610     4303     4066     3877 
    3839     3645     3137     2623     2138     1571     1282     1517 
    1885     2037     2030     1944     1884     2022     2355     2717 
    2860     2776     2825     3163     3589     3916     4144     4406 
    4719     5077     5517     5894     6039     5973     5829     5734 
    5692     5687     5802     5981     6030     6033     6219     6419 
    6270     5873     5539     5219     4851     4672     4712     4896 
    5354     5913     6180     6212     6299     6516     6785     6933 
    6936     6893     6644     6135     5657     5239     4727     4212 
    3753     3312     2976     2793     2810     3123     3631     4155 
    4681     5275     5964     6647     7101     7268     7342     7476 
    7549     7395     7078     6755     6463     6199     6056     6157 
    6455     6798     7126     7445     7738     8032     8425     8945 
    9501    10091    10710    11098    11200    11276    11149    10539 
    9670     8742     7788     7049     6673     6494     6334     6139 
    6021     6072     6188     6349     6690     7119     7429     7607 
    7663     7527     7268     7079     7052     7069     7110     7420 
    7958     8355     8559     8650     8519     8229     7963     7676 
    7331     7024     6721     6407     6154     5935     5805     5856 
    5956     6026     6097     6106     6033     5894     5617     5157 
    4600     4187     4048     4075     4274     4743     5414     6092 
    6488     6308     5587     4699     4018     3600     3230     2798 
    2309     1660      720     -503    -1786    -2839    -3632    -4251 
   -4608    -4583    -4120    -3303    -2378    -1470     -523      486 
    1507     2374     2968     3447     3944     4348     4606     4792 
    5011     5389     5871     6193     6201     5931     5437     4803 
    4195     3819     3878     4349     4939     5489     6087     6739 
    7226     7335     7064     6558     6034     5719     5703     5913 
    6195     6358     6328     6168     5944     5738     5688     5875 
    6197     6454     6592     6604     6536     6642     7015     7333 
    7276     6913     6508     6157     5759     5188     4423     3591 
    2917     2556     2463     2500     2596     2772     3157     3816 
    4563     5224     5830     6370     6812     7222     7684     8266 
    8911     9459     9899    10278    10552    10754    10910    10903 
   10656    10284     9960     9666     9229     8691     8230     7835 
    7460     7167     6735     5869     4864     4075     3353     2740 
    2509     2558     2775     3256     3877     4413     4826     5231 
    5680     5908     5737     5548     5649     5904     6296     6767 
    6909     6613     6243     5954     5632     5235     4819     4511 
    4392     4303     4089     3829     3653     3653     3882     4315 
    4963     5802     6631     7268     7788     8372     8954     9387 
    9701     9782     9553     9360     9420     9601     9833    10003 
    9940     9713     9513     9323     8966     8430     7758     6890 
    5984     5208     4455     3879     3638     3262     2631     2334 
    2405     2413     2489     2826     3244     3696     4108     4117 
    3647     3136     2876     2562     2104     2006     2236     2370 
    2535     2776     2856     2963     3380     4050     4908     5898 
    6752     7335     7761     7985     7857     7520     7260     7242 
    7551     8019     8259     8164     7946     7634     7121     6608 
    6393     6345     6328     6578     7057     7398     7641     8098 
    8727     9109     8908     8205     7311     6477     5807     5219 
    4534     3778     3110     2532     2054     1871     1966     1981 
    1777     1695     1952     2288     2614     3069     3531     3952 
    4359     4594     4729     4888     5023     5238     5458     5439 
    5331     5244     5023     4818     4779     4662     4504     4639 
    4849     4725     4557     4626     4557     4220     4072     4207 
    4361     4635     5152     5652     6035     6447     6755     6775 
    6589     6282     5873     5494     5260     5044     4742     4618 
    4810     5001     5020     4941     4737     4518     4406     4212 
    3874     3554     3199     2849     2822     3099     3299     3314 
    3337     3487     3817     4394     5202     6056     6718     7095 
    7173     6963     6694     6658     6802     6936     7080     7256 
    7285     7111     6839     6516     6151     5876     5946     6447 
    7044     7399     7619     7919     8164     8094     7717     7291 
    7028     6978     7074     7249     7426     7427     7221     7001 
    6754     6326     5856     5485     5067     4693     4764     5223 
    5638     5931     6199     6281     6088     5833     5667     5567 
    5632     5976     6474     6928     7231     7345     7296     7268 
    7470     7771     7967     8144     8148     7761     7256     6808 
    6335     5998     5875     5751     5532     5471     5736     5950 
    5888     5929     6183     6440     6755     7065     7238     7369 
    7295     6864     6347     5892     5665     5876     6200     6462 
    6843     7171     7308     7210     6705     6037     5517     5184 
    5121     5135     4958     4725     4471     4175     4005     3920 
    3836     3805     3816     3890     4031     4180     4314     4303 
    4112     3867     3593     3358     3276     3264     3273     3376 
    3620     3969     4159     4068     4013     4095     4151     4299 
    4495     4390     3955     3415     3025     2965     3010     2924 
    2872     3051     3474     4027     4534     4939     5243     5487 
    5844     6253     6349     6126     5976     5995     6045     6102 
    6080     5983     6042     6292     6519     6562     6435     6216 
    5848     5464     5401     5509     5610     5891     6089     5821 
    5348     4932     4563     4352     4374     4561     4916     5478 
    6170     6843     7492     8172     8810     9375     9755     9667 
    9204     8741     8278     7604     6831     6301     6176     6242 
    6247     6166     5917     5432     4989     4704     4376     4176 
    4392     4801     5154     5482     5657     5493     5197     5092 
    5150     5239     5316     5285     5139     5020     5013     5077 
    5047     4872     4658     4374     4004     3777     3851     4118 
    4402     4699     5084     5463     5680     5807     5950     6011 
    6077     6461     7044     7439     7639     7713     7516     7117 
    6826     6766     6751     6604     6435     6347     6095     5526 
    4900     4407     4048     3937     4082     4249     4449     4793 
    5130     5368     5506     5398     5104     4845     4488     3908 
    3476     3400     3325     3107     3033     3113     3204     3400 
    3581     3532     3457     3487     3516     3684     4118     4619 
    4985     5270     5679     6297     6945     7420     7686     7780 
    7774     7757     7757     7750     7704     7716     7909     8154 
    8275     8351     8445     8422     8239     8048     7990     8129 
    8463     8768     8796     8556     8060     7272     6442     5880 
    5547     5165     4625     4198     4109     4106     4051     4175 
    4382     4386     4380     4567     4726     4783     4923     5152 
    5308     5282     5111     4957     4974     5252     5613     5671 
    5452     5306     5262     5250     5436     5784     5927     5830 
