Origin Time       2024/04/02 04:24:00
Lat.              40.133
Long.             141.712
Depth. (km)       71
Mag.              6.0
Station Code      AKTH16
Station Lat.      39.5450
Station Long.     140.3481
Station Height(m) -134
Record Time       2024/04/02 04:24:59
Sampling Freq(Hz) 100Hz
Duration Time(s)  208
Dir.              3
Scale Factor      2940(gal)/6170270
Max. Acc. (gal)   3.043
Last Correction   2024/04/02 04:24:44
Memo.             
[...]
   38812    39276    39771    39996    40011    40070    40233    40356 
   40307    40204    40158    40013    39835    39906    40108    40123 
   39943    39810    39882    39947    39720    39451    39606    40040 
   40183    40000    39967    40193    40449    40654    40720    40569 
   40309    40030    39815    39786    39882    39995    40143    40259 
   40201    39989    39803    39767    39846    39904    39870    39779 
   39732    39777    39804    39742    39731    39856    40045    40204 
   40263    40242    40143    39873    39520    39364    39480    39728 
   40009    40195    40152    40052    40173    40432    40564    40552 
   40583    40690    40704    40557    40341    40219    40254    40292 
   40313    40489    40746    40880    40871    40833    40869    40844 
   40520    40013    39592    39318    39158    39036    38880    38720 
   38638    38756    39063    39362    39623    39821    39804    39796 
   40018    40163    40110    40138    40246    40264    40261    40301 
   40177    39808    39534    39579    39765    39906    39918    39811 
   39790    39931    40002    39876    39666    39457    39237    38985 
   38648    38182    37815    37873    38306    38819    39229    39497 
   39666    39722    39659    39672    39925    40240    40271    40026 
   39835    39780    39749    39708    39622    39619    39856    40054 
   39995    39969    40096    40173    40252    40342    40127    39684 
   39483    39549    39574    39454    39218    38988    38945    39142 
   39521    39871    39916    39609    39058    38492    38184    38132 
   38285    38719    39190    39406    39499    39584    39626    39689 
   39762    39813    39910    39999    39941    39715    39463    39403 
   39555    39706    39742    39710    39650    39628    39751    39983 
   40104    39977    39780    39752    39868    40000    40107    40181 
   40230    40263    40274    40243    40174    40126    40153    40321 
   40611    40840    41009    41277    41543    41741    41977    42119 
   42019    41724    41262    40786    40477    40317    40340    40497 
   40548    40550    40714    40872    40718    40312    40013    39912 
   39731    39409    39159    39054    39098    39327    39629    39842 
   39935    40052    40249    40275    40016    39753    39582    39361 
   39156    39035    38939    38969    39271    39805    40408    40853 
   40957    40740    40392    40090    39937    39994    40136    40111 
   39899    39640    39441    39484    39789    40092    40302    40448 
   40377    40024    39513    39047    38877    38959    39083    39274 
   39556    39873    40234    40560    40798    40941    40870    40720 
   40715    40632    40231    39630    39094    38921    39118    39412 
   39730    40013    40109    40182    40423    40624    40650    40727 
   40978    41119    40807    40161    39559    39195    39150    39354 
   39608    39848    40026    40085    40112    40121    40023    39898 
   39911    39957    39758    39368    39107    38970    38739    38413 
   38115    38058    38441    38988    39262    39360    39515    39609 
   39603    39700    39910    40030    39918    39601    39329    39351 
   39544    39636    39685    39835    39886    39732    39648    39689 
   39589    39383    39313    39382    39478    39503    39368    39203 
   39254    39492    39717    39898    40035    39993    39801    39706 
   39736    39650    39347    38999    38847    38965    39226    39527 
   39823    39999    40005    39854    39569    39260    38962    38700 
   38611    38698    38829    38888    38856    38980    39427    39967 
   40379    40613    40586    40250    39742    39316    39123    39187 
   39526    39980    40291    40446    40536    40541    40541    40679 
   40892    40960    40739    40279    39788    39475    39350    39247 
   39161    39186    39239    39311    39525    39747    39769    39691 
   39673    39698    39666    39524    39338    39264    39405    39631 
   39687    39672    39895    40216    40354    40506    40837    41134 
   41277    41232    40961    40595    40283    40119    40091    39992 
   39736    39517    39491    39627    39776    39845    39894    39957 
   39962    39894    39829    39820    39866    39959    40039    39997 
   39899    39948    40191    40606    41098    41395    41406    41291 
   41212    41281    41437    41525    41458    41086    40510    40218 
   40350    40531    40561    40508    40371    40136    39961    39923 
   39889    39850    39920    40004    39967    39828    39590    39353 
   39404    39739    39957    39960    40018    40140    40150    40072 
   40041    40141    40348    40541    40563    40321    39947    39728 
   39849    40218    40528    40635    40682    40748    40743    40607 
   40389    40214    40105    39890    39412    38728    38173    38073 
   38384    38844    39229    39460    39642    39840    39987    40041 
   39986    39841    39790    39971    40186    40193    40088    39976 
   39703    39302    39199    39633    40223    40404    40058    39518 
   39124    39003    39142    39365    39480    39601    39801    39787 
   39471    39167    39056    39095    39208    39249    39089    38842 
   38765    38931    39197    39423    39548    39592    39648    39745 
   39808    39784    39688    39570    39447    39342    39322    39367 
   39443    39579    39677    39637    39540    39549    39734    39906 
   39838    39624    39432    39298    39294    39372    39340    39203 
   39067    38945    38916    39034    39220    39415    39663    40046 
   40436    40568    40507    40411    40176    39917    39874    39912 
   39932    40021    40089    40077    40013    39895    39899    40117 
   40373    40637    40834    40719    40411    40235    40217    40236 
   40238    40203    40113    40006    39885    39681    39532    39697 
   40043    40279    40393    40345    40094    39879    39847    39872 
   39881    39874    39762    39530    39342    39251    39162    39150 
   39309    39482    39491    39395    39356    39414    39468    39436 
   39323    39195    39185    39355    39633    39928    40149    40293 
   40391    40381    40284    40165    39976    39769    39675    39700 
   39722    39742    39910    40170    40342    40440    40504    40469 
   40317    40129    40031    40089    40225    40284    40224    40168 
   40161    40064    39859    39773    39867    39978    40031    39983 
   39880    39966    40241    40428    40507    40589    40565    40392 
   40274    40268    40132    39737    39377    39395    39686    39894 
   39882    39785    39731    39676    39582    39518    39457    39352 
   39319    39398    39498    39665    39974    40371    40794    41181 
   41443    41454    41158    40782    40710    41027    41411    41537 
   41426    41215    40896    40596    40520    40512    40374    40192 
   40035    39919    39910    39923    39850    39812    39952    40174 
   40218    40004    39692    39352    38968    38701    38719    38904 
   39019    39018    39047    39172    39279    39356    39592    40017 
   40459    40724    40653    40402    40310    40363    40425    40513 
   40477    40262    40138    40142    40083    39939    39762    39628 
   39507    39271    39084    39155    39329    39423    39475    39542 
   39568    39499    39386    39300    39328    39490    39617    39625 
   39643    39789    40045    40266    40371    40464    40530    40438 
   40249    40076    39953    39941    39985    39946    39885    39945 
   40063    40068    39929    39813    39915    40151    40149    39766 
   39382    39330    39425    39410    39291    39119    38987    39099 
   39501    39885    39929    39787    39872    40189    40412    40429 
   40322    40128    39933    39820    39666    39433    39380    39638 
   39988    40230    40294    40164    39988    39930    39860    39529 
   39001    38539    38247    38081    38017    38080    38347    38942 
   39752    40397    40719    40764    40494    40064    39724    39447 
   39169    38904    38668    38570    38660    38886    39274    39820 
   40384    40812    41018    40960    40622    40213    40136    40442 
   40841    41189    41303    41007    40564    40336    40406    40635 
   40757    40802    40996    41096    40778    40181    39541    39056 
   38929    39073    39250    39438    39673    39845    39890    39976 
   40208    40411    40438    40249    39788    39219    38819    38604 
   38516    38586    38804    39198    39698    40012    40063    40032 
   39962    39820    39611    39363    39105    38849    38736    38922 
   39233    39332    39204    39143    39279    39462    39675    40013 
   40359    40618    40834    40873    40747    40804    41106    41422 
   41640    41654    41463    41239    40995    40702    40482    40330 
   40079    39729    39473    39391    39390    39471    39716    40025 
   40167    40019    39759    39677    39692    39458    38945    38434 
   38019    37584    37286    37336    37542    37718    37874    37919 
   37876    37876    37857    37838    37996    38297    38639    39092 
   39536    39706    39711    39750    39722    39573    39451    39335 
   38940    38324    37994    38065    38280    38640    39068    39271 
   39318    39452    39653    39906    40226    40498    40679    40830 
   40874    40742    40656    40847    41155    41370    41469    41416 
   41388    41677    42092    42295    42276    42055    41720    41492 
   41311    40998    40730    40682    40604    40322    40137    40178 
   40173    40140    40220    40206    40066    40016    40010    40016 
   40180    40388    40461    40510    40626    40706    40717    40682 
   40493    40159    39878    39606    39187    38788    38569    38493 
   38555    38691    38826    39052    39255    39224    39110    38993 
   38679    38267    37963    37706    37516    37568    37846    38153 
   38355    38480    38632    38854    39111    39321    39486    39680 
   39669    39087    38113    37285    36902    36996    37413    37855 
   38140    38234    38231    38414    38848    39237    39494    39757 
   39900    39676    39128    38609    38329    38104    37868    37886 
   38249    38746    39145    39299    39240    39269    39590    40022 
   40283    40278    40136    40053    40087    40253    40547    40815 
   41021    41412    42020    42561    42974    43420    43924    44387 
   44622    44435    43942    43436    42862    42035    41190    40631 
   40302    40146    40202    40314    40337    40334    40338    40286 
   40140    39900    39564    39066    38412    37822    37420    37118 
   36994    37239    37806    38443    38998    39486    39894    40286 
   40874    41568    42022    42205    42266    42293    42409    42561 
   42526    42299    42195    42487    42936    43113    43064    42938 
   42586    41974    41303    40633    39905    39236    38769    38378 
   37945    37691    37860    38377    39079    39847    40525    40980 
   41140    41061    41042    41302    41711    42050    42221    42217 
   42118    42050    42090    42235    42525    43028    43579    43798 
   43478    42746    41957    41464    41256    41040    40734    40366 
   39819    39132    38452    37715    37037    36692    36490    36177 
   35895    35717    35615    35790    36488    37622    38709    39382 
   39814    40190    40340    40213    40052    40085    40313    40539 
   40746    41083    41414    41570    41702    41868    41873    41605 
   41098    40500    40017    39643    39265    39023    39110    39465 
   39846    40043    40019    39847    39557    39142    38696    38369 
   38073    37636    37238    37102    37172    37432    37926    38417 
   38663    38836    39137    39471    39771    40121    40589    41155 
   41649    41913    41921    41722    41485    41340    41120    40654 
   40062    39577    39314    39187    39132    39211    39302    39185 
   38874    38565    38413    38317    38205    38274    38398    38237 
   37989    37965    38104    38318    38579    38914    39379    39781 
   39926    40059    40560    41369    42073    42484    42760    42965 
   42928    42561    42005    41411    40797    40168    39627    39253 
   39015    38809    38545    38308    38262    38299    38139    37758 
   37418    37231    37042    36795    36545    36309    36281    36588 
   36972    37292    37779    38440    38988    39445    40029    40619 
   41013    41281    41480    41461    41178    40790    40338    39837 
   39485    39347    39414    39730    39992    39749    39077    38452 
   38104    37920    37798    37698    37520    37254    37036    36950 
   37064    37483    38182    38982    39665    40126    40389    40449 
   40368    40430    40804    41296    41641    41785    41793    41716 
   41586    41531    41662    41688    41187    40321    39497    38760 
   38157    37881    37850    37762    37516    37297    37168    36917 
   36530    36182    35841    35488    35315    35421    35688    35971 
   36241    36488    36726    37095    37704    38492    39282    39917 
   40506    41232    41980    42630    43249    43761    44001    44100 
   44321    44605    44839    45078    45171    44918    44470    44062 
   43601    42833    41824    40875    40144    39567    39010    38562 
   38401    38404    38470    38727    39143    39586    40092    40637 
   41056    41366    41711    42029    42315    42878    43748    44595 
   45355    45987    46240    46211    46195    46117    45822    45498 
   45473    45741    45894    45585    44825    43888    43026    42246 
   41518    40944    40483    39968    39448    39078    38903    38947 
   39159    39183    38627    37675    36890    36425    36069    35676 
   35226    34917    34975    35307    35820    36574    37468    38370 
   39225    39916    40419    40770    41001    41239    41455    41491 
   41462    41517    41552    41568    41654    41630    41358    41080 
   40955    40740    40331    39984    39815    39690    39378    38665 
   37786    37232    36928    36592    36434    36631    36900    37011 
   37099    37321    37615    37956    38434    38901    39069    38993 
   38994    39306    39893    40473    40931    41308    41482    41455 
   41438    41385    41115    40666    40109    39493    39003    38700 
   38489    38412    38411    38247    37967    37754    37496    37050 
   36542    36221    36163    36124    35868    35494    35239    35281 
   35608    36044    36639    37455    38092    38307    38445    38696 
   38828    38786    38790    38964    39186    39282    39285    39413 
   39749    40105    40271    40240    40090    39873    39687    39527 
   39220    38808    38668    38978    39419    39629    39710    39990 
   40459    40793    40851    40803    40854    41080    41391    41552 
   41536    41554    41627    41681    41780    41842    41662    41285 
   40881    40446    39939    39493    39263    39210    39264    39451 
   39595    39482    39278    39195    39176    39198    39336    39580 
   39899    40204    40347    40348    40410    40723    41287    41855 
   42276    42642    42913    43021    43108    43216    43243    43104 
   42661    41959    41292    40697    40064    39657    39661    39689 
   39436    39135    39030    39009    38944    38875    38812    38817 
   39024    39407    39944    40670    41387    41881    42231    42540 
   42681    42564    42406    42507    42863    43237    43466    43481 
   43279    43008    42795    42592    42374    42178    41904    41471 
   40953    40297    39401    38575    38227    38195    38037    37690 
   37394    37227    37113    37070    37145    37395    37799    38098 
   38188    38287    38462    38628    38913    39513    40237    40616 
   40602    40534    40504    40464    40410    40226    40025    40186 
   40582    40617    40159    39613    39259    39138    39223    39366 
   39439    39461    39349    39064    38898    38981    39079    39193 
   39590    40148    40426    40365    40260    40212    40071    39786 
   39534    39487    39664    39927    39946    39604    39353    39564 
   39962    40193    40317    40472    40719    41169    41718    42130 
   42413    42498    42264    41984    41872    41713    41365    40988 
   40691    40374    39993    39673    39513    39487    39455    39220 
   38774    38303    37862    37460    37282    37328    37308    37109 
   36847    36666    36668    36857    37158    37424    37545    37583 
   37627    37715    37904    38241    38686    39026    39102    39095 
   39123    39101    39145    39384    39689    39899    39919    39613 
   38979    38363    38161    38389    38671    38637    38321    38021 
   37853    37724    37657    37697    37707    37702    37804    37789 
   37456    37051    36952    37335    37978    38507    38868    39132 
   39238    39229    39222    39208    39209    39269    39348    39488 
   39760    40065    40316    40554    40849    41229    41594    41779 
   41738    41514    41173    40851    40605    40355    40085    39867 
   39716    39683    39914    40345    40656    40767    40768    40569 
   40230    40012    39926    39879    39957    40224    40604    41029 
   41440    41780    42087    42460    42904    43237    43287    43176 
   43103    43020    42847    42695    42692    42824    42992    43064 
   42945    42685    42431    42296    42342    42524    42664    42534 
   42059    41507    41283    41516    41994    42449    42668    42516 
   42106    41654    41234    40922    40711    40416    40035    39720 
   39437    39139    38933    38938    39149    39507    40012    40566 
   40958    41104    41008    40845    40932    41205    41375    41415 
   41375    41269    41181    41173    41232    41207    40911    40427 
   39992    39710    39470    39027    38449    38112    37992    37789 
   37623    37735    37994    38150    38131    38073    38080    38016 
   37825    37687    37707    37921    38309    38610    38669    38693 
   38848    39118    39495    39925    40213    40192    39972    39772 
   39628    39516    39345    38987    38657    38514    38277    37875 
   37601    37569    37617    37499    37161    36741    36294    35943 
   35877    36071    36398    36736    36996    37263    37619    38011 
   38380    38755    39248    39839    40277    40431    40460    40518 
   40523    40369    40174    40049    39885    39662    39555    39594 
   39688    39864    40121    40437    40820    41029    40843    40523 
   40335    40154    39900    39773    39826    39780    39467    39028 
   38675    38660    39130    39792    40234    40359    40247    40087 
   40087    40166    40105    39928    39852    39966    40221    40712 
   41430    41965    42073    41951    41719    41362    41017    40845 
   40811    40669    40299    39960    39860    39879    39936    40171 
   40613    40984    41046    40818    40356    39815    39509    39466 
   39454    39430    39350    39056    38689    38546    38565    38584 
   38729    39046    39334    39530    39679    39701    39623    39705 
   40085    40571    40898    40958    40793    40545    40442    40686 
   41175    41469    41290    40793    40283    39909    39642    39409 
   39206    39021    38743    38424    38333    38491    38672    38787 
