Origin Time       2024/04/02 04:24:00
Lat.              40.133
Long.             141.712
Depth. (km)       71
Mag.              6.0
Station Code      AKTH05
Station Lat.      39.0718
Station Long.     140.3185
Station Height(m) 275
Record Time       2024/04/02 04:25:04
Sampling Freq(Hz) 100Hz
Duration Time(s)  120
Dir.              6
Scale Factor      7845(gal)/8223790
Max. Acc. (gal)   1.618
Last Correction   2024/04/02 04:25:04
Memo.             
[...]
    8255     8067     8163     8298     8294     8252     8206     8217 
    8457     8884     9000     8773     8765     8841     8638     8479 
    8503     8541     8662     8779     8611     8251     8016     7969 
    8001     8203     8567     8680     8546     8557     8451     8085 
    8062     8368     8386     8175     8251     8557     8630     8587 
    8613     8325     7878     7776     7854     8089     8584     8816 
    8602     8411     8352     8245     8172     8131     8006     8140 
    8707     9020     8735     8407     8197     7885     7857     8370 
    8795     8741     8679     8730     8425     8044     8166     8468 
    8698     9069     9135     8614     8318     8500     8468     8149 
    8028     8279     8689     8907     8799     8484     8158     7992 
    8028     8218     8384     8388     8513     8903     8978     8460 
    8025     8083     8179     8114     8260     8540     8467     8232 
    8306     8482     8386     8233     8417     8590     8253     7977 
    8195     8441     8627     8783     8623     8390     8418     8527 
    8490     8406     8583     8932     8939     8486     8017     7859 
    7916     8109     8345     8318     7986     7724     7927     8392 
    8510     8469     8703     8910     8922     8644     8079     7904 
    8100     8155     8483     9046     9212     9212     9159     8712 
    8245     8201     8240     8145     8287     8588     8583     8453 
    8409     8213     8037     8262     8660     8657     8349     8367 
    8461     8120     8006     8395     8413     8155     8375     8661 
    8453     8245     8322     8249     8114     8252     8403     8473 
    8581     8472     8154     8104     8441     8715     8652     8559 
    8684     8795     8723     8586     8379     8118     8047     8193 
    8384     8685     9009     8849     8260     8056     8305     8309 
    8226     8573     8869     8719     8492     8271     8148     8368 
    8507     8337     8232     8217     8262     8382     8378     8395 
    8515     8434     8225     8091     8110     8384     8683     8710 
    8600     8552     8444     8182     8140     8526     8775     8496 
    8175     8217     8276     8021     7824     8073     8491     8810 
    9038     9004     8877     9038     9103     8746     8378     8120 
    7948     8075     8239     8205     8239     8284     8256     8313 
    8445     8591     8505     8290     8525     8810     8552     8247 
    8102     7803     7576     7761     8253     8587     8584     8698 
    8920     8719     8299     8190     8294     8340     8445     8634 
    8468     8075     8201     8518     8399     8370     8557     8451 
    8321     8405     8460     8478     8383     8106     7948     8203 
    8657     8738     8506     8484     8552     8384     8182     8190 
    8274     8376     8671     8795     8456     8348     8702     8750 
    8442     8448     8626     8395     8132     8336     8455     8232 
    8299     8654     8789     8802     8958     9038     8695     8264 
    8172     8027     7884     8233     8452     8224     8359     8719 
    8614     8353     8263     8218     8293     8376     8282     8230 
    8328     8365     8262     8208     8367     8494     8330     8064 
    7954     7959     7997     8203     8568     8735     8573     8356 
    8403     8703     8903     8800     8491     8252     8380     8691 
    8702     8496     8429     8436     8511     8700     8718     8644 
    8646     8538     8491     8455     8093     7846     8105     8595 
    8943     8765     8299     8214     8391     8445     8451     8456 
    8415     8383     8453     8588     8518     8214     8073     8182 
    8280     8407     8538     8513     8557     8630     8409     8118 
    8027     8073     8145     8154     8171     8280     8471     8722 
    8835     8542     8050     8033     8415     8440     8337     8532 
    8415     8067     8291     8673     8635     8510     8413     8330 
    8429     8538     8584     8716     8869     8915     8802     8599 
    8495     8480     8382     8209     8097     8139     8345     8540 
    8475     8233     8079     8133     8329     8370     8083     7782 
    7749     7933     8241     8448     8317     8137     8262     8446 
    8341     8147     8236     8483     8668     8905     9074     8935 
    8716     8715     8819     8775     8579     8309     8052     8008 
    8033     8010     8268     8557     8341     8100     8284     8383 
    8326     8648     8970     8729     8387     8263     8199     8309 
    8456     8401     8336     8375     8397     8352     8247     8181 
    8310     8559     8689     8603     8360     8214     8395     8689 
    8823     8808     8630     8294     8001     7863     7884     8120 
    8375     8432     8537     8796     8935     8814     8502     8338 
    8667     9126     9169     9013     8914     8529     8000     7851 
    7936     8082     8452     8714     8446     8032     7825     7695 
    7850     8337     8499     8264     8306     8617     8680     8633 
    8742     8880     8924     8777     8538     8455     8343     8191 
    8338     8513     8496     8656     8739     8453     8348     8521 
    8541     8440     8266     8001     7979     8193     8178     8006 
    8113     8357     8442     8457     8364     8232     8434     8742 
    8743     8675     8662     8592     8548     8429     8064     7742 
    7820     8067     8133     8228     8568     8861     8857     8707 
    8426     7902     7708     8321     8872     8627     8247     8236 
    8301     8413     8700     8874     8816     8781     8754     8546 
    8230     8040     8046     8154     8251     8256     8297     8433 
    8478     8449     8287     7944     8055     8660     8729     8280 
    8349     8700     8457     8183     8556     8807     8411     7971 
    7943     8175     8414     8522     8424     8289     8380     8430 
    8257     8235     8410     8615     8722     8517     8287     8326 
    8251     8048     8077     8172     8237     8492     8861     8962 
    8599     8239     8374     8544     8401     8434     8698     8734 
    8599     8541     8434     8230     8353     8851     9011     8808 
    8665     8241     7790     8025     8418     8424     8494     8795 
    8800     8380     8172     8326     8248     8093     8224     8127 
    7889     8140     8403     8171     7969     8186     8468     8449 
    8370     8356     8201     8218     8446     8425     8372     8468 
    8526     8641     8730     8726     8762     8691     8544     8410 
    8259     8379     8676     8727     8793     8930     8683     8488 
    8873     8915     8135     7763     8189     8487     8644     8814 
    8488     8095     8359     8746     8665     8465     8428     8274 
    8091     8298     8644     8676     8581     8614     8691     8779 
    8850     8649     8203     7959     8020     8117     8270     8606 
    8783     8436     7852     7547     7816     8600     9207     9024 
    8514     8441     8637     8544     8293     8272     8228     8041 
    8198     8507     8544     8482     8244     8132     8694     9167 
    8980     8766     8696     8587     8635     8761     8734     8630 
    8510     8365     8194     8016     8086     8344     8266     7923 
    7776     7755     7786     7948     7940     7695     7632     7908 
    8341     8468     8087     7933     8336     8640     8743     8947 
    8869     8568     8664     8716     8306     8194     8398     8240 
    8129     8438     8436     8054     8224     8733     8607     8206 
    8205     8217     8027     7960     7987     8008     8221     8706 
    9123     8981     8425     8176     8397     8542     8507     8684 
    8892     8726     8472     8299     8008     8025     8517     8706 
    8550     8685     8915     8927     9003     9144     8992     8657 
    8638     8918     8897     8469     8255     8374     8340     8132 
    7958     7851     7982     8116     7893     7861     8145     8035 
    7838     8101     8345     8499     8934     9154     8694     8214 
    8347     8704     8830     8737     8500     8426     8675     8881 
    9031     9151     8854     8495     8600     8641     8275     7884 
    7713     7869     8203     8478     8685     8723     8530     8152 
    7699     7639     8016     8334     8642     8938     8803     8457 
    8365     8432     8608     8973     9189     8907     8429     8247 
    8236     8176     8338     8711     8795     8552     8322     8095 
    7905     7898     7923     8051     8426     8685     8591     8307 
    8055     8095     8387     8614     8719     8711     8492     8282 
    8391     8604     8657     8796     8950     8764     8633     8857 
    8808     8343     8181     8449     8603     8586     8752     8883 
    8683     8644     8753     8376     7969     7925     7654     7344 
    7487     7755     7970     8114     7986     7807     7898     8068 
    8168     8337     8553     8700     8654     8387     8220     8213 
    8039     8004     8445     8857     8943     8824     8618     8603 
    8716     8773     8888     8868     8797     9131     9327     8710 
    7985     8006     8411     8537     8492     8545     8595     8661 
    8610     8166     7825     8133     8575     8540     8334     8355 
    8390     8401     8635     8764     8441     8079     7996     8040 
    8090     8044     7950     8009     8206     8276     8097     7963 
    8067     8264     8488     8595     8494     8338     8190     8125 
    8191     8105     7738     7591     8016     8449     8325     8063 
    8148     8363     8513     8579     8463     8259     8164     8232 
    8399     8510     8484     8398     8409     8530     8529     8476 
    8676     8806     8608     8545     8696     8818     8977     8932 
    8467     8077     8082     8195     8224     8220     8128     7909 
    7811     7978     8222     8271     8009     7862     8199     8557 
    8654     8745     8681     8240     7827     7870     8066     8041 
    8025     8272     8625     8868     8972     8922     8772     8776 
    8889     8784     8684     8972     9223     9039     8741     8561 
    8446     8367     8338     8433     8567     8607     8626     8588 
    8360     8145     8190     8395     8614     8681     8533     8515 
    8726     8791     8756     8847     8889     8823     8750     8581 
    8293     7927     7704     7871     8021     7875     7963     8322 
    8468     8453     8370     8189     8129     8203     8276     8313 
    8226     8282     8764     9288     9381     8922     8201     7855 
    7905     7857     7832     8035     8097     7967     7932     7871 
    7681     7565     7537     7569     7755     7909     7820     7740 
    7935     8251     8482     8587     8559     8440     8409     8515 
    8438     8017     7715     7854     8193     8568     8877     8920 
    8870     8850     8611     8376     8464     8545     8550     8726 
    8851     8748     8638     8702     8758     8613     8487     8382 
    8128     8079     8214     8256     8672     9312     9343     9159 
    9225     8997     8796     9089     9090     8834     8908     8721 
    8264     8344     8607     8419     8051     8114     8703     8968 
    8521     8098     7929     7828     8083     8464     8484     8409 
    8472     8509     8579     8788     8915     8908     9108     9458 
    9540     9451     9405     9352     9495     9791     9620     9042 
    8650     8361     8158     8382     8757     8924     8885     8569 
    8091     7658     7321     7204     7194     7175     7348     7690 
    8139     8511     8318     7757     7434     7427     7724     8093 
    7927     7308     6840     6752     7223     8268     9193     9207 
    8511     8075     8025     7763     7488     7639     7994     8422 
    9105     9747     9780     9418     9140     8843     8633     8739 
    8625     7870     7096     7111     7978     9140     9829     9607 
    8799     8001     7599     7619     7705     7870     8359     8750 
    8819     8905     8815     8484     8386     8338     8145     8082 
    7948     7654     7607     7798     8047     8440     8895     9123 
    9057     8750     8271     8027     8471     9285     9715     9558 
    9143     8827     8796     9018     9279     9369     9297     9339 
    9536     9513     9140     8677     8266     8079     8337     8791 
    9104     9157     8895     8594     8448     8182     7888     8050 
    8487     8498     8020     7608     7453     7551     8140     8922 
    9093     8613     8073     7727     7626     7805     7978     7896 
    7801     8075     8637     8916     8583     8051     7911     8082 
    8097     7835     7642     7813     8029     7977     7912     7831 
    7484     7257     7605     8260     8684     8634     8301     8145 
    8471     8953     8959     8656     8646     8645     8203     7794 
    8025     8749     9337     9443     9208     8861     8554     8411 
    8368     8343     8449     8756     9138     9306     9011     8351 
    7688     7461     7771     8131     8160     7894     7318     6716 
    6826     7634     8225     8349     8376     8301     8329     8650 
    8911     9119     9362     9363     9142     8974     9049     9127 
    8941     8914     9173     9306     9246     8892     8208     7539 
    7184     7430     8144     8729     9111     9252     8788     8001 
    7280     6714     6925     8048     8943     8870     8113     7269 
    7047     7472     7940     8390     8689     8529     8503     8954 
    9277     9217     9054     9103     9265     9016     8487     8295 
    8272     8104     8143     8463     8694     8861     8954     8657 
    8172     7978     8063     8193     8276     8352     8498     8719 
    8964     9140     9194     9074     8754     8472     8471     8550 
    8430     8321     8468     8469     8033     7677     7709     7850 
    7998     8170     8326     8432     8213     7703     7574     7905 
    8160     8505     9047     9131     8704     8415     8286     8135 
    8286     8711     8824     8699     8897     9147     8945     8623 
    8419     8151     8002     8021     7820     7527     7496     7487 
    7519     7982     8410     8394     8422     8476     8301     8289 
    8522     8637     8411     7877     7511     7774     8475     9074 
    9332     9528     9817     9821     9340     8784     8687     9007 
    9143     9018     9090     9259     9329     9454     9391     8893 
    8294     7920     7884     8117     8290     8274     8159     8029 
    8041     8129     8075     7861     7588     7542     7763     7831 
    7800     8002     8118     7923     7750     7677     7566     7553 
    7749     8156     8618     8546     7792     7277     7506     7971 
    8451     8881     8938     8800     8785     8916     9166     9117 
    8644     8299     8106     7838     7950     8644     9250     9356 
    9269     9166     8923     8633     8492     8249     7821     7913 
    8635     9174     9324     9336     9016     8402     8189     8575 
    8911     8915     8851     8776     8733     8814     8829     8784 
    8830     8814     8746     8792     8756     8527     8391     8434 
    8441     8348     8282     8205     8055     8037     8128     8093 
    8106     8241     8174     7906     7684     7619     7916     8487 
    8783     8511     7940     7595     7658     7865     8062     8175 
    8137     8050     7978     8014     8131     8112     8186     8572 
    8858     8947     9150     9358     9316     8972     8414     7875 
    7545     7534     7838     8230     8425     8376     8271     7996 
    7751     8172     8777     8796     8637     8641     8600     8642 
    8896     9051     8885     8541     8087     7657     7761     8341 
    8692     8618     8290     7902     7840     8187     8684     9085 
    9163     9028     8900     8657     8351     8232     8307     8487 
    8737     9008     9174     9078     8818     8743     8911     8999 
    8904     8797     8793     8984     9270     9269     8901     8564 
    8465     8430     8367     8395     8488     8343     7888     7534 
    7600     7970     8314     8434     8372     8236     8182     8206 
    8144     8044     8017     8110     8289     8205     7797     7506 
    7350     7229     7533     8212     8560     8284     7843     7815 
    8284     8891     9208     9008     8441     7884     7673     7866 
    8031     7869     7641     7650     8102     8834     9194     8981 
    8575     8194     7886     7672     7453     7254     7384     7912 
    8464     8880     9185     9175     8827     8405     8144     8206 
    8442     8527     8487     8494     8503     8463     8514     8803 
    9097     9050     8820     8719     8669     8648     8681     8637 
    8685     8976     9085     8760     8240     7738     7495     7744 
    8291     8722     8873     8958     9119     9104     8820     8487 
    8241     8256     8615     8891     8671     8303     8290     8552 
    9030     9703     9973     9470     8719     8336     8332     8290 
    8023     7929     8286     8725     8969     9093     8885     8197 
    7443     7033     7171     7807     8391     8490     8256     8029 
    8017     8245     8445     8325     8085     8063     8151     8299 
    8467     8228     7831     7960     8299     8513     8715     8379 
    7555     7300     7641     7896     8078     8237     8236     8309 
    8495     8387     8016     7959     8483     9142     9394     9261 
    8868     8251     8020     8505     9031     9212     9224     9001 
    8521     8090     8019     8186     8145     7912     7925     8191 
    8363     8421     8491     8344     7843     7472     7574     7816 
    8010     8286     8479     8490     8406     8166     7969     8198 
    8633     8789     8729     8695     8627     8465     8432     8776 
    9327     9620     9452     8887     8166     7901     8374     9051 
    9416     9396     9030     8459     8149     8510     9097     9112 
    8638     8282     8330     8756     9088     8881     8463     8267 
    8252     8359     8525     8577     8498     8415     8529     8831 
    8831     8402     8131     8097     8048     8158     8218     7947 
    7946     8421     8648     8471     8289     8100     7975     8121 
    8259     8097     7761     7574     7850     8490     8991     9031 
    8734     8374     8118     8054     8124     8167     8081     7911 
    7879     8060     8224     8434     8873     9108     8753     8121 
    7653     7630     8090     8573     8827     9088     9261     9100 
    8900     8935     8904     8641     8538     8765     9004     8959 
    8548     8006     7901     8445     9061     9143     8820     8479 
    8253     8194     8256     8244     8094     8036     8357     8904 
    9093     8834     8515     8183     7977     8251     8634     8554 
    8247     8168     8303     8480     8586     8444     8068     7771 
    7731     7834     7894     7877     7943     8135     8170     7916 
    7734     7960     8380     8625     8641     8451     8194     8139 
    8098     7881     7875     8213     8506     8538     8392     8245 
    8159     8091     8249     8757     9104     8812     8159     7759 
