Origin Time       2024/04/02 04:24:00
Lat.              40.133
Long.             141.712
Depth. (km)       71
Mag.              6.0
Station Code      AKTH16
Station Lat.      39.5450
Station Long.     140.3481
Station Height(m) 20
Record Time       2024/04/02 04:24:59
Sampling Freq(Hz) 100Hz
Duration Time(s)  208
Dir.              6
Scale Factor      3920(gal)/6170801
Max. Acc. (gal)   4.305
Last Correction   2024/04/02 04:24:44
Memo.             
[...]
    8282     7979     8039     8191     8114     7758     7458     7422 
    7356     6950     6349     6112     6492     7008     7274     7443 
    7573     7507     7364     7323     7229     7250     7751     8134 
    7822     7479     7652     8024     8267     8182     7652     7030 
    6817     6927     6749     6214     6144     6657     6837     6670 
    6788     6931     6874     6909     6804     6392     6314     6905 
    7741     8439     8760     8564     8167     7966     7965     7990 
    7891     7630     7313     7013     6746     6544     6420     6354 
    6274     6334     6847     7427     7463     7303     7238     6864 
    6461     6740     7405     7725     7669     7496     7104     6536 
    6181     6236     6843     7877     8460     8131     7437     6989 
    7058     7244     6979     6769     7025     7148     7170     7636 
    8052     7609     6502     5646     5583     5971     6266     6493 
    6917     7320     7375     7337     7400     7262     6818     6121 
    5309     4964     5349     5998     6558     7117     7595     7467 
    6867     6801     7308     7672     8158     8923     9080     8518 
    8155     8042     7558     6907     6535     6397     6578     6969 
    7024     6890     7033     7011     6427     5966     6136     6377 
    6410     6698     7131     7192     7008     6837     6742     6996 
    7687     8422     8757     8681     8490     7995     7092     6554 
    6551     6412     6170     5985     5672     5483     5430     5248 
    5286     5609     5778     5917     6170     6261     6361     6827 
    7439     7982     8496     8715     8557     8433     8374     8189 
    7990     7645     7159     7169     7694     7952     7859     7886 
    8114     8375     8397     8135     7944     7883     7836     7938 
    8022     7792     7588     7789     8053     8074     8250     8707 
    8915     8791     8562     8129     7714     7576     7397     7198 
    7360     7802     8215     8255     7620     6663     6146     6197 
    6267     6087     6015     6311     6717     7055     7451     7743 
    7643     7357     7118     6662     6062     5982     6309     6256 
    6058     6191     6141     6034     6667     7586     8199     8831 
    9139     8506     7501     6939     6859     7024     7353     7680 
    7671     7436     7408     7523     7591     7702     7776     7736 
    7547     7104     6712     6492     6177     6045     6112     6052 
    6421     7200     7340     7001     7024     7318     7586     7863 
    8237     8721     9025     8787     8134     7673     7825     8143 
    8110     8150     8390     8147     7541     7153     6793     6513 
    6805     7217     6967     6371     6181     6392     6544     6376 
    5778     5118     5105     5596     6005     6442     7001     7350 
    7396     7291     7160     6970     6626     6319     6237     6263 
    6232     6052     5928     6274     6748     6785     6955     7590 
    7791     7421     7229     7303     7455     7463     7017     6528 
    6564     6979     7371     7508     7549     7644     7430     6933 
    6732     6778     6703     6610     6566     6546     6715     6978 
    7162     7414     7679     7749     7579     7138     6799     7079 
    7662     7962     7983     7732     7180     6879     7138     7509 
    7884     8234     7916     6966     6152     5698     5541     5642 
    5946     6506     7037     7084     6676     6237     6193     6482 
    6688     6787     6942     6998     6860     6754     6829     7052 
    7461     7953     8242     8333     8374     8249     7860     7403 
    7135     7038     6849     6558     6486     6748     7164     7489 
    7464     7092     6641     6272     6105     6179     6314     6538 
    7092     7757     8081     7970     7463     6765     6432     6497 
    6364     6180     6749     7897     8525     8377     8276     8449 
    8486     8539     8623     8301     8033     8409     8732     8249 
    7390     6934     6903     7012     7366     7685     7460     7013 
    6733     6577     6738     7291     7736     7579     7099     6988 
    7184     7241     7296     7477     7626     7762     7866     7758 
    7470     7425     7849     8170     7999     7679     7219     6765 
    7231     8479     9079     8744     8474     8496     8363     8196 
    8165     8088     7961     7774     7388     6924     6652     6679 
    6785     6651     6263     5852     5747     6061     6439     6572 
    6562     6837     7530     7982     7795     7204     6363     5807 
    6086     6844     7543     7886     7831     7739     7774     7814 
    7838     7815     7815     7930     7911     7542     7186     7226 
    7276     6894     6522     6642     6900     6763     6230     5778 
    5814     6124     6352     6604     6945     7236     7452     7398 
    6930     6505     6602     7167     7812     8016     7535     6739 
    6242     6238     6409     6493     6524     6585     6686     6686 
    6494     6357     6529     6963     7326     7250     6929     6914 
    7346     7996     8447     8449     8255     7983     7630     7402 
    7224     7033     6878     6459     5956     5961     6240     6249 
    6037     5793     5474     5173     5231     5686     6297     7022 
    7590     7577     7329     7383     7610     7838     8138     8365 
    8275     7821     7245     6922     6912     6995     7148     7451 
    7793     8090     8307     8265     7838     7211     6799     6738 
    6816     7146     7713     7961     7867     7623     6956     6226 
    6093     6356     6701     7034     7240     7552     7983     8085 
    7886     7796     7805     7619     7362     7460     7762     7917 
    8024     8067     7919     7658     7245     6811     6681     6770 
    6841     6771     6508     6252     6060     5647     5135     5185 
    5878     6468     6737     7099     7361     7179     6824     6471 
    6099     5922     6050     6346     6712     7152     7532     7562 
    7337     7311     7445     7520     7757     8105     8251     8372 
    8618     8720     8590     8463     8444     8476     8555     8476 
    8063     7727     7705     7600     7332     7224     7165     6889 
    6675     6715     6657     6412     6269     6313     6571     6963 
    7056     6874     7037     7455     7578     7662     7994     7934 
    7229     6738     6712     6520     6427     6984     7583     7810 
    8034     8039     7666     7585     7770     7577     7171     7026 
    7259     7632     7589     7183     7104     7333     7485     7710 
    8032     8198     8127     7915     7977     8528     9021     9024 
    8633     8104     7751     7462     6974     6636     6556     6187 
    5666     5652     6052     6420     6618     6683     6851     7126 
    7234     7292     7284     6918     6499     6347     6318     6556 
    6990     7008     6683     6667     6995     7221     7221     7315 
    7643     7994     8329     8647     8816     8823     8638     8265 
    7770     7106     6500     6205     6052     6186     6751     7105 
    6942     6666     6487     6511     6801     7199     7559     7764 
    7807     7801     7648     7293     7021     6947     6876     6880 
    7130     7423     7563     7550     7389     7232     7096     6769 
    6480     6635     7112     7504     7563     7363     7158     7163 
    7530     7987     7894     7326     7112     7375     7562     7584 
    7526     7345     7174     6985     6757     6721     6801     6928 
    7174     7126     6587     6124     6089     6299     6557     6653 
    6493     6374     6394     6271     6014     5922     6253     7050 
    7864     8276     8485     8701     8726     8536     8211     7542 
    6624     5890     5366     4987     4948     5217     5547     5894 
    6368     6834     7052     7107     6943     6454     6271     6736 
    7286     7671     7782     7358     6785     6541     6641     7104 
    7764     8271     8597     8756     8621     8278     7985     8038 
    8526     9047     9138     8649     7875     7407     7218     7056 
    7230     7595     7734     7753     7385     6579     6271     6644 
    6938     6890     6606     6292     6176     6091     5964     6132 
    6539     6735     6659     6529     6427     6461     6738     6892 
    6514     6015     5900     6087     6626     7369     7696     7747 
    7961     7991     7719     7541     7543     7688     7794     7677 
    7730     8009     7913     7504     7210     6987     6882     7116 
    7542     7812     7984     8354     8676     8753     9073     9634 
    9788     9584     9557     9738     9713     9265     8720     8388 
    8046     7435     6776     6445     6325     6097     5921     5778 
    5312     4761     4417     4154     4275     4894     5293     5304 
    5443     5564     5414     5521     6071     6482     6579     6633 
    6561     6250     5976     5995     6344     6929     7573     8056 
    8177     8011     7724     7295     6956     6920     6937     6950 
    6957     6571     6035     6172     6789     7139     7336     7537 
    7467     7482     7897     8022     7570     7295     7419     7427 
    7326     7382     7447     7414     7266     7064     7177     7615 
    7972     8295     8686     8923     9029     8909     8342     7829 
    7791     7777     7598     7693     8076     8072     7466     7022 
    6907     6408     5864     5944     6064     5952     5984     5781 
    5284     5185     5320     5186     5005     5113     5658     6307 
    6339     5883     5644     5523     5273     5344     5791     6037 
    6169     6584     6914     6998     7538     8507     8947     8872 
    8805     8372     7551     7071     6947     6861     7011     7328 
    7361     7089     6755     6578     6619     6474     6099     6034 
    6033     5490     4633     3938     3692     4016     4598     5037 
    5289     5498     5814     6300     6762     7011     7198     7447 
    7756     8093     8092     7580     7005     6676     6708     7145 
    7682     8203     8761     9060     9064     9223     9708    10281 
   10702    10716    10154     9422     8866     8117     7211     6744 
    6559     6217     5860     5492     5047     4954     5303     5613 
    5729     5715     5578     5653     6167     6617     6650     6687 
    7125     7927     8871     9662    10221    10628    10751    10627 
   10608    10711    10660    10280     9464     8582     8227     8065 
    7477     6870     6837     7090     7177     7276     7439     7147 
    6480     6068     5892     5834     6118     6487     6694     7035 
    7295     6995     6757     7304     8115     8439     8386     8607 
    9225     9520     9255     8986     8859     8796     9052     9502 
    9578     9316     9361     9711     9877    10020    10358    10537 
   10332     9715     8856     8445     8741     8973     8572     7859 
    7264     6908     6666     6210     5689     5757     6268     6400 
    6168     6067     6105     6335     6935     7627     8101     8304 
    8239     8119     8266     8492     8290     8085     8635     9094 
    8697     8411     8361     7876     7682     8076     8168     7841 
    7467     7068     6465     5464     4355     3503     2815     2508 
    2960     3947     5088     6150     6755     6549     5625     4583 
    4024     4114     4875     6208     7429     7921     8085     8410 
    8635     8735     9027     9307     9326     9165     8858     8475 
    8018     7408     6827     6357     5912     5584     5350     5035 
    4518     3927     3816     4123     4083     3845     3829     3653 
    3357     3385     3647     4071     4935     6231     7183     7204 
    7064     7521     8160     8681     9243     9874    10615    11211 
   11283    11069    11058    11344    11497    11118    10516    10002 
    9447     8904     8361     7708     7158     6739     6371     6215 
    6154     5974     5973     6376     6842     7224     7702     7995 
    7751     7148     6407     5733     5293     4969     4788     4886 
    5092     5147     4846     4359     4218     4380     4530     4889 
    5398     5670     5976     6518     6853     6889     6994     7269 
    7591     7905     8392     9162     9657     9278     8401     7671 
    7207     7202     7707     7964     7545     6858     5911     4572 
    3638     3702     4209     4771     5356     5433     5001     4791 
    4863     5036     5550     6142     6248     6058     6022     6106 
    6179     6307     6431     6382     6176     5887     5630     5684 
    6049     6461     6838     7048     6806     6100     5287     4796 
    4804     5172     5486     5283     4615     4118     4174     4407 
    4381     4358     4688     5157     5635     6406     7460     8236 
    8353     8222     8310     8388     8413     8867     9516     9779 
    9984    10408    10711    10983    11460    11907    12237    12530 
   12639    12521    12137    11295    10344     9703     8935     7916 
    7269     6896     6526     6707     7406     7797     7849     8021 
    8193     8128     8092     8565     9510    10237    10342    10197 
   10285    10647    11024    11229    11127    10741    10538    10702 
   10779    10824    11233    11551    11137    10400    10144    10159 
    9830     9391     8942     7947     6596     5491     4566     3762 
    3530     3960     4296     3865     3009     2244     1493      850 
     522      403      549      972     1689     3090     4966     6699 
    8227     9174     9022     8387     8254     8917    10111    11249 
   11701    11338    10722    10370    10241    10241    10237    10134 
   10268    10450    10050     9366     8738     7947     7164     6468 
    5745     5446     5618     5628     5621     6006     6248     5992 
    5691     5644     5941     6638     7321     7508     7336     6916 
    6134     5593     5799     5989     5719     5641     5909     6331 
    7161     8171     8670     8414     7587     6616     5784     5158 
    5144     5902     6916     7791     8301     8287     7865     7238 
    6854     6921     6969     6900     6806     6231     5252     4436 
    3585     2559     2000     1905     1594     1291     1407     1577 
    1736     2128     2795     3845     4994     5736     6098     6343 
    6866     7691     8075     8048     8205     8122     7824     8143 
    8545     8084     7246     6552     5620     4633     4363     4724 
    5294     6077     6690     6817     6957     7337     7597     7724 
    7948     8241     8686     9395     9970    10075     9762     9263 
    9054     9104     8878     8427     8133     8134     8364     8591 
    8619     8609     8989     9524     9547     9221     8698     7869 
    7473     7570     7188     6571     6227     5658     5049     5248 
    6128     6924     7248     7211     7072     6837     6622     6989 
    7863     8548     9156     9887    10185    10053    10007     9861 
    9421     9251     9653    10088    10114     9882     9501     8954 
    8420     7865     7132     6573     6508     6715     7234     8256 
    9273     9655     9258     8210     7040     6286     5953     6007 
    6575     7381     7875     7985     7905     7455     6694     6244 
    6347     6714     7078     7376     7752     8175     8381     8355 
    8171     7782     7246     6691     6401     6836     7934     8976 
    9441     9249     8410     7219     6292     6105     6692     7440 
    7770     8013     8509     8809     8498     7829     7379     7063 
    6313     5238     4211     3436     3417     4171     4858     5002 
    4972     5153     5243     4914     4734     5174     5676     6133 
    7266     8626     8935     8211     7250     6414     5986     6154 
    6787     7672     8386     8636     8679     8515     7863     7111 
    6719     6642     6965     7593     7946     7953     7985     8030 
    8010     7872     7498     7251     7215     6868     6539     6772 
    7108     7133     6772     6116     5921     6509     6959     6708 
    6369     6430     6617     6752     6946     6951     6594     6343 
    6450     6625     6864     7215     7251     6929     6806     6875 
    6726     6589     6706     6675     6501     6698     7141     7499 
    7800     7817     7558     7525     7630     7567     7607     7923 
    8303     8464     8255     8012     8108     8122     7634     7214 
    7325     7569     7707     7696     7251     6671     6421     6075 
    5273     4438     3977     3907     3989     4051     4317     4898 
    5401     5521     5259     4759     4304     3915     3551     3521 
    3733     3820     3923     4234     4729     5256     5526     5716 
    6333     7307     8230     8868     9046     8953     8950     8802 
    8321     7969     7944     7972     8070     8505     9121     9239 
    8477     7376     6669     6452     6627     7052     7186     6828 
    6338     5696     4965     4905     5494     5812     5996     6539 
    6998     7333     7870     8357     8861     9525    10055    10632 
   11378    11871    12160    12420    12543    12769    13062    12924 
   12504    12218    12084    12201    12560    12751    12301    10893 
    8920     7429     6789     6650     6877     7252     7375     7197 
    6728     5952     5351     5476     6043     6334     6412     6787 
    7149     6916     6340     6114     6554     7261     7625     7718 
    7935     8347     8867     9330     9717    10149    10336    10006 
    9498     9355     9747     9944     9221     8148     7238     6121 
    4968     4373     4389     4632     4693     4752     5061     5170 
    5103     5382     5674     5658     5704     5723     5390     5193 
    5716     6603     7264     7571     7435     6978     6767     7075 
    7597     7965     8098     8108     7928     7242     6096     5090 
    4664     4872     5595     6324     6490     6000     5035     4096 
    3798     4026     4284     4409     4483     4787     5275     5365 
    4992     4553     4178     4270     5068     5765     6027     6599 
    7456     7872     7813     7480     6943     6548     6549     6857 
    7193     7273     7239     7221     6900     6400     6097     5792 
    5463     5414     5657     6167     6673     6661     6340     6206 
    6114     6047     6405     7037     7664     8498     9160     9108 
    8876     8667     7785     6601     6437     7475     8678     9528 
   10318    10860    10600     9709     8765     8011     7602     7912 
    8953     9966    10470    10637    10172     8820     7299     6233 
    5865     6320     6962     7238     7324     7166     6776     6507 
    6245     5934     5867     5771     5594     6144     7255     7693 
    7341     7090     7274     7597     7744     7784     8129     8871 
    9507     9577     9214     8828     8453     7792     6915     6457 
    6985     8184     8999     8987     8627     8007     6937     6117 
    6235     6825     7185     7168     6849     6371     5853     5300 
    4737     4151     3603     3271     2983     2602     2621     3058 
    3193     3273     4117     5444     6829     8438     9770    10212 
   10251    10277    10094     9792     9439     8990     8789     9022 
    9298     9344     9278     9024     8508     8133     8032     7894 
