Origin Time       2024/04/02 04:24:00
Lat.              40.133
Long.             141.712
Depth. (km)       71
Mag.              6.0
Station Code      AKTH07
Station Lat.      40.4563
Station Long.     140.8395
Station Height(m) 300
Record Time       2024/04/02 04:24:53
Sampling Freq(Hz) 100Hz
Duration Time(s)  146
Dir.              2
Scale Factor      3920(gal)/6170801
Max. Acc. (gal)   6.277
Last Correction   2024/04/02 04:24:38
Memo.             
[...]
    4982     4981     4980     4981     4982     4982     4983     4984 
    4982     4980     4982     4982     4981     4982     4981     4980 
    4981     4982     4981     4980     4981     4981     4980     4980 
    4979     4981     4982     4980     4979     4981     4980     4980 
    4980     4980     4980     4982     4981     4980     4981     4980 
    4979     4981     4983     4982     4980     4980     4982     4982 
    4980     4980     4981     4980     4979     4981     4980     4980 
    4982     4982     4981     4982     4982     4980     4981     4982 
    4980     4980     4980     4979     4980     4980     4981     4982 
    4981     4981     4983     4982     4978     4979     4981     4982 
    4980     4978     4979     4982     4982     4979     4979     4982 
    4981     4980     4980     4980     4981     4980     4978     4977 
    4979     4979     4976     4975     4975     4974     4975     4971 
    4964     4960     4954     4944     4931     4914     4888     4856 
    4822     4790     4765     4757     4774     4810     4861     4929 
    5014     5104     5188     5248     5264     5216     5087     4884 
    4638     4406     4236     4139     4107     4154     4290     4492 
    4732     5005     5277     5448     5433     5248     4980     4718 
    4522     4459     4572     4797     4999     5075     4958     4666 
    4338     4091     3985     4127     4538     4973     5169     5127 
    4982     4823     4741     4820     5070     5420     5769     5970 
    5801     5259     4706     4463     4564     4878     5164     5114 
    4686     4281     4199     4272     4390     4784     5408     5732 
    5563     5381     5377     5145     4643     4307     4183     4007 
    3924     4183     4424     4298     4352     5198     6374     6956 
    6802     6428     6000     5375     4728     4279     3994     3964 
    4310     4625     4564     4612     5059     5293     4770     3842 
    3578     4393     5211     5138     4856     5180     5665     5630 
    5265     5204     5671     6118     6067     5915     6051     6262 
    6359     6307     5820     4630     3416     3062     3155     3124 
    3538     5144     7546     9191     9092     7993     7180     6767 
    5920     4555     3286     2484     2450     3258     4709     6441 
    7384     6713     5560     5598     6358     6240     5379     5284 
    6167     6601     6163     5655     4724     2952     1766     2715 
    5328     7323     7397     6735     6139     4973     3840     4140 
    5366     5879     5266     4192     3220     2948     3800     5197 
    6103     5932     4718     3564     3627     4230     4073     3210 
    2578     2929     4111     5267     5975     6341     6311     6114 
    6327     6585     6265     5725     5089     4035     2693     1498 
    1368     2816     4498     4927     4332     3607     3405     3806 
    4126     4278     4890     5753     6512     7156     6867     5379 
    4004     3595     4058     5307     6605     6748     6147     6119 
    6304     5627     4490     4324     5563     6892     6957     5868 
    4990     5581     7071     7830     7571     7104     6946     7140 
    6969     5758     4385     3898     3950     4170     4890     5899 
    6266     5726     4932     4054     2774     1730     2030     3392 
    4285     4177     3854     3403     2776     2982     3949     4237 
    3843     4059     4684     4088     2301     1421     2399     3998 
    4976     5440     6091     6864     7228     7460     7634     6832 
    5128     3755     3041     2564     2538     3642     5672     7329 
    7778     7133     5599     3871     3341     4447     6121     7167 
    7068     6014     4948     4818     5294     5512     5603     5988 
    6431     6434     5820     4985     4376     3876     2882     1203 
     -82      106     1510     3644     6033     7283     6705     5625 
    5206     5092     4948     5139     5488     5125     4142     3766 
    4496     5560     6049     5775     5270     5227     5805     6669 
    7385     7464     7150     7248     7362     6685     5737     5207 
    4975     4979     5426     6090     6250     5656     4891     4385 
    3977     3729     3910     4183     3906     3006     2073     1639 
    1627     2003     3042     4359     5172     5496     5808     6230 
    6663     6982     7054     6919     6747     6495     6052     5710 
    5962     6890     8162     9104     8712     6776     4626     3653 
    3842     4309     4626     4947     5023     4346     3437     3141 
    3178     3305     4037     5185     5867     5793     5401     4924 
    3939     2658     2400     3222     3560     3068     2704     2592 
    2361     2489     3626     5106     5656     5342     5091     5182 
    5292     5026     4641     4874     5497     5919     6373     6870 
    6989     6655     5999     5438     5402     5709     5924     5700 
    4999     4376     4434     5302     6341     6389     5331     4430 
    4393     4541     4295     4185     4538     4717     4635     4922 
    5559     6024     5935     5417     5156     5255     5049     4569 
    4728     5973     7289     7071     5548     4449     4032     3462 
    2851     2587     2589     2768     3191     3987     5031     5888 
    6364     6600     6611     6277     5686     5088     4658     4336 
    3896     3211     2537     2221     2457     3542     5059     5911 
    6047     6005     5756     5336     5057     5141     5364     5113 
    4374     3811     3913     4432     4499     3817     3133     3339 
    4399     5118     4891     4667     5367     6729     7653     7474 
    6726     6128     5844     5652     5243     4887     5101     5522 
    5286     4336     3467     3181     3230     3311     3435     3664 
    4016     4235     4040     3880     4215     4748     5108     5250 
    5404     5853     6394     6429     5892     5476     5335     4813 
    4043     3864     4330     5009     5858     6738     7150     7026 
    6734     6392     6051     5888     5863     5743     5399     5002 
    4737     4439     4190     4399     4929     5302     5258     4936 
    4927     5382     5614     5237     4662     4428     4670     5064 
    5322     5501     5464     4888     3956     3217     2965     3116 
    3578     4321     5073     5534     5546     5075     4618     4780 
    5224     5294     5225     5372     5389     5146     5013     5234 
    5603     5558     5018     4608     4768     5283     5691     5720 
    5377     5118     5548     6475     7196     7602     7924     8149 
    8232     8030     7364     6460     5725     5323     5046     4545 
    3937     3700     3971     4484     4894     5013     5011     5041 
    4729     3744     2476     1650     1669     2459     3502     4048 
    3921     3790     4080     4283     3952     3742     4430     5412 
    5504     4649     3821     3777     4247     4567     4760     5101 
    5522     5893     5983     5588     4936     4604     4964     5608 
    5858     5627     5163     4653     4293     4251     4495     4881 
    5215     5300     5349     5709     6133     6034     5230     4375 
    4280     4733     5134     5449     5558     5254     4837     4644 
    4755     4982     4961     4742     4663     4900     5307     5423 
    5180     4902     4760     4816     4878     4851     5067     5459 
    5520     5081     4481     4432     5123     5720     5621     5070 
    4567     4617     5086     5245     5013     4844     4947     5243 
    5466     5624     5903     6068     5978     5760     5420     5034 
    4743     4616     4652     4735     4905     5370     5958     6241 
    6144     5835     5351     4777     4413     4479     4879     5276 
    5401     5286     4974     4588     4428     4433     4386     4322 
    4331     4432     4559     4697     4795     4610     4242     4158 
    4426     4813     5169     5313     5061     4468     4171     4687 
    5279     5102     4513     4013     3631     3433     3373     3327 
    3483     4009     4569     4644     4320     4214     4495     4747 
    4754     4746     4991     5414     5661     5518     5158     4956 
    4960     4837     4557     4555     5050     5651     5964     6058 
    6099     6159     6114     5827     5538     5377     5276     5326 
    5417     5302     4925     4532     4639     5170     5395     5187 
    5040     5018     4902     4869     5135     5499     5606     5369 
    5063     4966     5150     5515     5710     5451     5120     5337 
    5770     5511     4734     4452     4789     5018     4924     4902 
    5058     5010     4676     4518     4583     4415     4107     4108 
    4268     4189     4056     4164     4290     4266     4343     4676 
    4968     4933     4875     5150     5586     5901     5973     5767 
    5417     5178     5143     5150     5122     5218     5499     5680 
    5509     5194     5123     5381     5669     5754     5813     5869 
    5591     5166     5149     5457     5772     6140     6387     6241 
    6048     5977     5530     4825     4561     4828     5212     5194 
    4669     4267     4247     4244     4331     4745     5309     5784 
    5940     5844     5960     6176     5972     5464     5066     4895 
    4929     5068     5070     4833     4531     4349     4320     4347 
    4358     4451     4680     4952     5124     5112     5046     5048 
    5092     5143     5097     5037     5117     5086     4780     4478 
    4408     4557     4719     4622     4319     4157     4225     4259 
    4120     4043     4298     4643     4534     4119     4144     4645 
    4910     4709     4528     4485     4197     3897     4018     4191 
    4112     4058     4107     4195     4508     5093     5590     5655 
    5362     4977     4744     4804     5026     5362     5843     5978 
    5559     5345     5601     5591     5089     4797     5062     5270 
    4903     4283     3917     3897     3871     3554     3312     3567 
    3909     3749     3369     3446     3952     4284     4296     4398 
    4624     4734     4975     5330     5083     4237     3799     4222 
    4897     5242     5468     5862     6061     5764     5244     4757 
    4401     4397     4822     5272     5297     5010     4690     4374 
    4323     4883     5853     6685     6992     6778     6349     5971 
    5819     5947     6160     6214     6066     5756     5390     5355 
    5863     6462     6683     6554     6383     6345     6207     5726 
    5102     4796     4968     5257     5481     5647     5411     4811 
    4450     4561     4967     5470     5937     6208     5935     5192 
    4681     4561     4395     4329     4801     5547     5896     5655 
    5232     5007     4940     4968     5155     5222     4853     4399 
    4341     4539     4623     4545     4609     5033     5382     5227 
    4951     4874     4779     4631     4602     4758     5074     5455 
    5729     5624     5053     4535     4554     4752     4838     5159 
    5564     5468     4925     4470     4598     5223     5630     5580 
    5383     4982     4394     4122     4307     4455     4241     3921 
    3909     4318     4818     4931     4678     4472     4269     3902 
    3693     3801     3981     4131     4370     4753     5129     5370 
    5527     5622     5632     5622     5514     5098     4529     4218 
    4119     3890     3755     4111     4640     4967     5247     5479 
    5461     5230     5053     5256     5766     6110     6037     5740 
    5500     5327     5112     4815     4509     4490     4793     4929 
    4623     4184     3952     3964     4261     4805     5270     5554 
    5882     6259     6459     6333     5966     5607     5283     4874 
    4594     4613     4536     4054     3552     3499     3598     3264 
    2829     3282     4780     6444     7506     7912     8037     8245 
    8563     8708     8467     7961     7429     6685     5495     4241 
    3259     2486     1980     1801     1828     1908     1929     1997 
    2342     3167     4570     6133     7242     7844     8184     8429 
    8717     8937     8843     8381     7538     6240     4570     3036 
    2043     1223      358      -93      -34      218      730     1528 
    2161     2463     2736     3317     4432     5902     7442     9033 
   10522    11382    11137    10049     8906     7949     6824     5562 
    4483     3607     3122     3317     3801     3835     3355     2898 
    2598     2445     2641     2955     3182     3620     4495     5807 
    7201     8089     8236     7771     7224     7369     8087     8340 
    7755     6934     6325     6009     6084     6370     6286     5664 
    5139     5288     5872     6372     6592     6359     5356     3678 
    2140     1614     2250     3583     4951     5528     4693     2826 
     896     -601    -1568    -1961    -1742     -867      300     1117 
    1493     2191     4039     6607     8686     9956    10838    11480 
   11580    11040    10676    11392    12669    12959    11673     9651 
    7402     4712     2112      490     -184     -476     -638     -477 
     -47      167      105      -43     -243       36     1304     3342 
    5471     6618     6633     6716     7053     6904     6572     6577 
    6556     6048     5324     4994     4797     3753     2061     1417 
    2603     4367     5211     4975     4782     5535     6665     7350 
    7820     8359     8581     8083     7033     6304     6588     7514 
    7836     6378     3680     1241    -1004    -3450    -4900    -4526 
   -3162    -1613      229     2442     4576     6321     7742     9054 
   10535    11868    12245    11595    10499     9389     8574     8162 
    8005     7682     6254     3565     1017     -444    -1019     -723 
     420     1654     2417     3099     4218     5714     7380     9081 
   10233    10345     9777     8909     7969     7450     7355     7276 
    6997     6216     4955     3579     2124      956      955     2336 
    4122     5252     5958     6884     7873     8921    10517    12134 
   12172    10154     7751     6488     5969     5603     5373     4808 
    3668     2322      917     -544    -1663    -1852    -1239     -650 
    -121     1368     3605     4842     4955     5581     7289     9213 
   10350    10500    10165     9394     7697     5342     3579     3273 
    4167     5322     5559     4226     2079      492       68      711 
    2080     3937     6001     7130     6559     5358     4665     4452 
    4322     3939     3322     2546     1388       39     -955    -1288 
    -693      962     3168     5284     7133     8319     8300     7442 
    6570     5992     5645     5634     6108     6726     7060     7240 
    7406     7337     7068     7033     7209     6917     5794     4038 
    2073      590      132      811     2305     3769     4445     4245 
    3788     3732     3808     3709     4086     5249     6561     7202 
    6557     4775     2846     1677     1471     1883     2575     3453 
    4436     5381     6042     6190     5986     5753     5561     5454 
    5431     5332     5287     5385     5344     5149     5005     5040 
    5179     5085     5010     5542     6322     6753     6893     6834 
    6429     5524     4190     2787     1796     1651     2515     4209 
    5873     6236     5144     3713     3026     3483     4758     6067 
    6830     7228     7817     8561     8909     8701     8442     8752 
    9433     9551     8934     8339     8008     7580     6959     6494 
    6299     5715     4310     2958     2801     3548     4164     4859 
    6303     7627     7677     7240     7776     9010     9794     9676 
    8653     7538     7628     8778     9566     9229     8158     6927 
    5520     3867     2681     2445     2592     2726     3016     3473 
    3851     3738     3114     2724     3007     3392     3297     2961 
    2998     3561     4112     4263     4171     3930     3720     3983 
    4504     4345     3346     2569     2773     3572     4287     4646 
    4625     4446     4685     5582     6481     6582     5877     5060 
    4442     3708     2826     2063     1649     1676     1862     2246 
    3375     4859     5350     4421     3269     3121     3602     3785 
    3992     5009     6338     6649     5816     5037     4922     5099 
    5029     4350     3389     2975     3301     3872     4539     5644 
    6960     7466     6722     5532     4814     4583     4404     4257 
    4443     4847     4944     4731     4919     5693     6242     6071 
    5655     5602     5912     5967     5292     4276     3468     2831 
    2471     2840     3501     3353     2512     2261     2985     3762 
    4033     4252     4665     4795     4601     4715     5210     5402 
    4982     4543     4754     5507     6099     5918     5016     4263 
    4276     4572     4601     4552     4661     4759     4698     4836 
    5455     6028     6203     6360     6552     6385     5814     5225 
    4894     4603     4265     4155     4017     3544     3320     3833 
    4676     5264     5508     5580     5363     4808     4386     4512 
    5001     5294     5223     5308     5860     6519     6978     7224 
    7064     6309     5424     5149     5490     5634     5037     4393 
    4639     5319     5223     4389     4139     4799     5129     4669 
    4393     4631     4527     3804     3398     3881     4491     4511 
    4565     5360     6357     6841     6816     6554     6323     6173 
    6033     6008     6061     5978     5645     5003     4379     4416 
    5206     6214     6703     6156     5051     4448     4708     5480 
    6347     6994     7171     6901     6572     6378     6115     5738 
    5499     5518     5548     5222     4642     4187     3834     3509 
    3362     3346     3361     3486     3835     4277     4415     4297 
    4500     5170     5800     6109     6434     6890     7064     6835 
    6397     5717     4715     3641     3079     3437     4303     4920 
    5163     5200     4954     4474     3962     3590     3418     3276 
    3221     3461     3788     4069     4378     4502     4305     4042 
    4002     4233     4519     4678     4765     4671     4251     3978 
    4421     5227     5613     5598     5774     6128     6161     5808 
    5479     5510     5799     5788     5153     4435     4302     4708 
    5278     5716     5857     5764     5561     5346     5374     5747 
    6025     5782     5191     4631     4448     4874     5464     5644 
    5657     5888     6226     6415     6275     5933     5724     5794 
    6111     6378     6451     6780     7369     7389     6546     5592 
    5281     5417     5149     4265     3717     4206     5009     5329 
    5489     5864     6082     5698     4926     4381     4210     4054 
    3727     3490     3694     4215     4622     4712     4529     4357 
    4376     4230     3706     3312     3442     3768     3882     3729 
    3377     3109     3412     4245     4907     5016     4866     4773 
    4804     4876     4790     4555     4625     5283     5927     5718 
    4809     4065     3938     4218     4534     4706     4724     4708 
    4888     5303     5667     5769     5630     5257     4760     4351 
    4064     3982     4195     4407     4452     4589     4757     4611 
    4306     4334     4726     4913     4572     4242     4399     4721 
