Origin Time       2024/04/02 04:24:00
Lat.              40.133
Long.             141.712
Depth. (km)       71
Mag.              6.0
Station Code      AKTH16
Station Lat.      39.5450
Station Long.     140.3481
Station Height(m) 20
Record Time       2024/04/02 04:24:59
Sampling Freq(Hz) 100Hz
Duration Time(s)  208
Dir.              5
Scale Factor      3920(gal)/6170801
Max. Acc. (gal)   7.371
Last Correction   2024/04/02 04:24:44
Memo.             
[...]
    5833     6821     7178     7241     7274     7232     7041     6729 
    6228     5470     4704     4229     4061     4246     4902     5804 
    6511     6836     6883     6846     6904     7199     7825     8727 
    9632    10238    10379    10028     9272     8294     7297     6425 
    5716     5188     4940     5099     5642     6355     6980     7228 
    6749     5586     4438     3880     3874     4390     5486     6634 
    6900     5919     4288     3066     3054     4421     6763     9412 
   11636    12639    11889     9637     6840     4607     3597     3707 
    4519     5807     7109     7566     6824     5389     3903     2783 
    2412     3014     4417     6124     7562     8440     8731     8406 
    7617     6679     5747     5058     4952     5283     5615     6003 
    6633     7042     6700     5890     5268     4966     4752     4751 
    5157     5594     5600     5298     5202     5563     6123     6632 
    7216     8023     8848     9300     9281     9124     9020     8686 
    7897     6839     5813     4990     4439     4232     4513     5296 
    6263     7059     7553     7741     7695     7568     7442     7210 
    6750     6201     5842     5734     5827     6232     6860     7218 
    6953     6174     5309     4898     5143     5756     6446     7078 
    7387     7062     6115     5073     4552     4615     5054     5886 
    6951     7793     8197     8124     7457     6279     4938     3778 
    3044     2913     3509     4826     6539     8006     8621     8166 
    6810     4827     2561      662      -39      908     3285     6496 
    9832    12390    13269    12162     9616     6637     4219     3065 
    3442     5238     7952    10563    12057    12264    11508     9965 
    8052     6482     5535     5115     5128     5220     4891     4181 
    3572     3253     3222     3718     4708     5755     6721     7613 
    8202     8443     8650     9056     9398     9178     8341     7120 
    5630     4300     3811     4268     5231     6292     7146     7550 
    7431     6912     6377     6209     6322     6386     6317     6029 
    5240     4090     3318     3327     3710     4008     4318     4825 
    5343     5747     6349     7340     8437     9280     9542     8969 
    7807     6641     5783     5303     5277     5657     6216     6639 
    6563     5913     5213     5064     5347     5516     5639     6220 
    7157     7942     8457     8732     8566     7836     6662     5321 
    4297     4040     4471     5203     6108     7077     7652     7484 
    6848     6299     6017     5859     5820     6008     6287     6375 
    6202     5991     5969     6083     6180     6278     6372     6376 
    6373     6482     6657     6894     7324     7949     8491     8602 
    8208     7628     7203     6907     6649     6645     7003     7325 
    7135     6431     5649     5114     4600     3809     3074     2892 
    3165     3623     4404     5634     6935     7755     7896     7508 
    6761     5749     4765     4373     4901     5984     6916     7471 
    7949     8413     8567     8469     8609     9110     9405     9026 
    8290     7691     7219     6865     6951     7472     7948     8009 
    7435     6069     4229     2644     1824     1900     2723     3848 
    4929     6027     7090     7670     7546     7092     6693     6326 
    5992     5919     6153     6478     6788     7157     7580     7884 
    7932     7798     7595     7241     6590     5778     5250     5219 
    5465     5790     6094     6162     5967     5705     5381     5062 
    5093     5449     5672     5642     5585     5599     5654     5740 
    5918     6206     6420     6426     6417     6522     6584     6580 
    6637     6710     6781     6999     7310     7436     7259     6772 
    5880     4742     3975     4163     5312     6880     8199     8838 
    8709     7911     6659     5407     4773     5080     6057     7068 
    7589     7514     7041     6408     5777     5188     4720     4679 
    5245     6168     7128     8013     8644     8715     8186     7344 
    6520     5998     5997     6423     6856     6961     6677     6040 
    5161     4252     3533     3195     3315     3790     4472     5270 
    6003     6371     6295     6016     5744     5595     5830     6597 
    7601     8439     8849     8592     7681     6598     5913     5869 
    6417     7319     8079     8187     7603     6719     5955     5627 
    5809     6208     6507     6606     6509     6261     5985     5936 
    6291     6719     6698     6223     5606     5065     4887     5338 
    6213     6971     7263     7113     6688     6139     5640     5359 
    5464     5982     6474     6459     6173     6087     6107     6063 
    6188     6650     7280     7759     7769     7300     6692     6231 
    5952     5764     5549     5304     5299     5805     6633     7273 
    7530     7590     7508     7188     6767     6516     6538     6722 
    6876     6936     7067     7376     7676     7807     7866     7778 
    7229     6305     5526     5245     5431     5907     6629     7498 
    7884     7152     5727     4674     4381     4505     4942     5952 
    7311     8179     8128     7553     6943     6500     6300     6347 
    6647     7027     7022     6540     6025     5679     5392     5231 
    5315     5566     5772     5757     5629     5703     6098     6692 
    7276     7585     7502     7158     6715     6407     6551     7186 
    7979     8494     8444     7876     7076     6221     5337     4560 
    4164     4269     4631     4923     5239     5864     6592     6895 
    6617     6059     5675     5752     6225     6879     7502     7779 
    7412     6411     5135     4069     3528     3565     4090     4921 
    5891     6921     7761     8047     7829     7476     7129     6724 
    6282     5907     5683     5593     5620     5884     6374     6750 
    6787     6599     6207     5442     4495     4052     4503     5433 
    6325     7115     7742     7939     7583     6790     5933     5545 
    5734     6095     6345     6547     6811     7128     7395     7484 
    7359     7131     6914     6740     6639     6685     6851     6911 
    6694     6327     5977     5550     4933     4372     4319     4868 
    5663     6385     6952     7306     7417     7268     6788     6149 
    5752     5626     5499     5540     6149     7144     8042     8711 
    9129     9085     8446     7354     6177     5336     4988     5031 
    5451     6210     6957     7363     7457     7261     6660     5785 
    4959     4333     3900     3722     3953     4633     5597     6537 
    7070     6939     6202     5158     4232     3860     4288     5454 
    7027     8504     9347     9244     8365     7300     6603     6402 
    6526     6822     7086     7095     6887     6645     6475     6509 
    6712     6672     6209     5809     5841     5940     5818     5887 
    6399     6828     6675     6201     5963     6145     6605     7165 
    7664     7948     7896     7458     6782     6251     6103     6156 
    6127     5903     5499     5090     4928     5108     5585     6206 
    6650     6586     6013     5357     5087     5337     6045     7069 
    8031     8552     8574     8214     7568     6799     6143     5786 
    5788     6066     6428     6689     6806     6871     6886     6706 
    6342     6072     6081     6181     6061     5762     5587     5642 
    5766     5827     5842     5906     6067     6309     6666     7098 
    7302     6988     6217     5337     4701     4513     4862     5665 
    6579     7166     7153     6629     5967     5401     4986     4858 
    5048     5415     5909     6405     6611     6506     6344     6279 
    6343     6585     7059     7678     8150     8202     7743     6828 
    5744     4951     4637     4562     4512     4578     4848     5210 
    5673     6447     7440     8213     8623     8882     8971     8623 
    7798     6829     6155     5920     5935     6058     6308     6622 
    6775     6610     6273     6162     6582     7394     8155     8663 
    9032     9155     8716     7847     7044     6443     5904     5562 
    5609     5880     6059     6002     5709     5263     4762     4321 
    4209     4637     5446     6328     7110     7588     7475     6800 
    6037     5593     5537     5771     6088     6291     6372     6321 
    6067     5810     5787     5793     5581     5320     5202     5189 
    5370     5960     6779     7272     7085     6248     5020     3799 
    2983     2852     3532     4700     5602     5783     5446     5047 
    4934     5205     5845     6904     8101     8686     8303     7402 
    6546     5951     5633     5663     6146     6869     7347     7467 
    7574     7939     8447     8705     8541     8154     7574     6655 
    5643     5024     5102     5862     6857     7573     7926     7963 
    7659     7179     6800     6712     6931     7255     7525     7720 
    7679     7264     6660     6075     5534     5048     4663     4556 
    4978     5889     6929     7765     8180     7933     6948     5667 
    4757     4486     4784     5594     6702     7613     7942     7768 
    7463     7299     7273     7190     6870     6347     5750     5098 
    4414     3929     3967     4620     5623     6521     6961     6910 
    6563     6102     5617     5250     5307     5916     6639     7027 
    7188     7289     7201     6968     6924     7212     7608     7797 
    7689     7484     7374     7302     7056     6514     5796     5101 
    4506     4111     4013     4207     4775     5676     6409     6637 
    6586     6396     5917     5191     4514     4207     4517     5430 
    6571     7420     7603     7127     6301     5514     5103     5151 
    5535     6188     6983     7536     7536     7041     6296     5560 
    5109     5047     5223     5490     5757     5918     6025     6251 
    6557     6784     7045     7460     7721     7599     7494     7802 
    8286     8538     8456     8187     7925     7749     7679     7789 
    8023     8144     7913     7179     6090     5179     4911     5283 
    5951     6553     6949     7199     7287     6991     6230     5407 
    4931     4616     4223     4076     4514     5369     6194     6599 
    6574     6583     7025     7820     8689     9436     9912     9845 
    8886     7140     5416     4544     4672     5403     6320     7128 
    7535     7323     6437     5082     3866     3380     3552     3953 
    4393     4826     5191     5545     6002     6600     7263     7835 
    8142     8030     7571     7132     7025     7285     7905     8895 
    9981    10636    10516     9700     8573     7607     7125     7167 
    7638     8441     9294     9804     9883     9812     9873    10044 
   10062     9827     9601     9547     9477     9365     9519    10010 
   10552    10945    11155    11210    11204    11157    10971    10557 
    9747     8365     6637     5155     4280     3974     4154     4688 
    5176     5098     4091     2288      451     -774    -1503    -2021 
   -2213    -2141    -2308    -2781    -2990    -2719    -2227    -1545 
    -732     -306     -636    -1545    -2593    -3123    -2555    -1061 
     625     1924     2469     1982      520    -1421    -3031    -3518 
   -2658     -948      927     2448     3242     3237     2748     2177 
    1898     2284     3305     4499     5626     6782     8018     9307 
   10557    11666    12707    13574    13721    12984    12113    11780 
   11838    12082    12699    13519    13890    13545    12724    11728 
   10889    10316     9710     9030     8545     8043     7183     6373 
    6296     6971     7783     8155     8025     7643     6986     6021 
    5288     5381     6211     7163     7643     7513     7220     7247 
    7542     7954     8771    10118    11417    12060    12006    11512 
   10850    10151     9272     8221     7425     7128     7052     6853 
    6446     5926     5347     4636     3701     2553     1389      596 
     440      706      991     1230     1587     2101     2717     3458 
    4394     5498     6682     7841     8700     9025     8973     8838 
    8733     8676     8580     8356     8187     8271     8526     8917 
    9553    10311    10953    11422    11601    11335    10822    10402 
   10105     9870     9809     9937    10124    10308    10382    10181 
    9702     8994     7981     6657     5135     3556     2160     1179 
     609      259      -30     -224     -214      -33      274      850 
    1870     3307     4956     6525     7768     8697     9491    10237 
   11052    12113    13326    14364    15060    15414    15306    14640 
   13705    12920    12372    11862    11122     9880     8043     5767 
    3277      981     -536    -1048     -864     -390       92      282 
     -83     -863    -1424    -1197     -145     1431     3248     5123 
    6861     8186     9013     9596    10226    10950    11600    12090 
   12517    12814    12782    12527    12318    12263    12422    12748 
   12849    12246    10838     8855     6555     4154     2008      708 
     554      977     1085      625      -61     -715    -1330    -1726 
   -1447     -416      734     1392     1557     1461     1152      660 
     236      174      465      932     1477     1959     2373     3005 
    3836     4520     5080     5810     6788     7949     9196    10372 
   11342    12011    12238    11910    11179    10478    10139    10203 
   10634    11332    12038    12424    12125    10927     8979     6571 
    4053     1882      180    -1306    -2647    -3753    -4656    -5247 
   -5230    -4481    -3069    -1127      998     2862     4373     5722 
    6914     7878     8732     9401     9513     8985     8215     7754 
    8052     9287    11237    13377    15137    16098    16063    15038 
   13130    10644     8270     6757     6323     6627     7129     7360 
    7270     7224     7205     6681     5744     5328     5725     6020 
    5554     4825     4530     4645     4757     4777     4955     5271 
    5278     4740     4072     3969     4874     6763     9081    11128 
   12586    13349    13195    12162    10912    10230    10276    10563 
   10667    10640    10516    10047     9156     8058     7029     6444 
    6572     7256     8013     8397     8212     7314     5551     3202 
    1020     -416     -956     -656      336     1859     3723     5599 
    7125     8086     8411     8113     7335     6410     5775     5855 
    6765     7910     8441     8100     7096     5722     4530     4172 
    4850     6247     7800     8887     9099     8469     7280     5922 
    5002     5124     6431     8466    10411    11574    11620    10317 
    7635     4268     1368     -275     -442      701     2590     4551 
    6361     7933     8731     8350     7143     5594     3762     1852 
     595      589     1825     3892     6172     7949     8671     8205 
    7047     6130     6057     6636     7367     8028     8583     8868 
    8625     7818     6801     5919     4935     3400     1507      -31 
    -654     -184     1243     3300     5509     7142     7446     6206 
    3995     1777      372      137      947     2572     4712     6631 
    7661     7921     7855     7538     6926     6275     5853     5569 
    5197     4705     4350     4580     5381     5957     5676     4732 
    3537     2289     1145      249     -234     -105      484     1055 
    1580     2487     3810     5040     5723     5862     5907     6428 
    7763     9879    12485    15118    16988    17277    16093    14451 
   13161    12522    12582    12976    13165    12920    12162    10902 
    9472     8272     7399     6769     6354     6186     6298     6762 
    7581     8501     9115     9127     8525     7532     6481     5834 
    5982     6902     8281     9729    10847    11547    12041    12585 
   13422    14452    14986    14384    12807    10911     9223     8154 
    8034     8794     9813    10228     9511     7728     5177     2169 
    -572    -2079    -2183    -1535     -565      583     1454     1572 
    1011      288      -52      211      894     1697     2468     3109 
    3558     3935     4419     5008     5681     6610     7805     8890 
    9594    10012    10417    11112    12174    13326    14157    14376 
   13924    12935    11680    10494     9681     9531    10023    10585 
   10499     9431     7534     5052     2119     -789    -2742    -3052 
   -1810      250     2348     3920     4417     3550     1762       26 
    -613      494     3104     6181     8540     9569     9506     9005 
    8660     8858     9643    10698    11568    11860    11477    10785 
   10157     9446     8474     7453     6430     5169     3724     2489 
    1649      851     -397    -2069    -3550    -4277    -4211    -3522 
   -2242     -506     1201     2287     2697     3015     3578     4099 
    4252     4008     3639     3565     3884     4442     5215     6012 
    6407     6398     6353     6386     6450     6732     7622     9244 
   11016    12184    12552    12232    11298     9870     8092     6155 
    4496     3490     3021     2869     3134     3773     4219     4024 
    3299     2246     1126      580     1044     2299     4043     6058 
    7875     9094     9771    10228    10845    11945    13557    15342 
   16747    17293    16862    15826    14747    13878    13158    12522 
   11789    10497     8438     6249     4963     4998     5878     6790 
    7117     6466     4639     2004     -428    -1745    -1681     -551 
     958     2063     2198     1447      711      990     2586     5209 
    8310    10896    11853    11069     9453     7728     6089     4723 
    3910     3732     4110     5106     6709     8440     9761    10456 
   10242     8840     6737     5007     4447     5308     7217     9231 
   10442    10390     9007     6439     3193      492     -479      151 
    1468     3028     4533     5261     4802     3579     2369     1852 
    2389     3824     5574     7059     8110     8725     8674     7975 
    7429     7896     9342    11081    12554    13634    14379    14581 
   13767    11800     9237     6894     5119     3819     3186     3678 
    5159     6705     7475     7472     7215     7010     6912     6927 
    6951     6763     6158     5081     3780     2787     2561     3273 
    4853     6838     8420     9086     8972     8482     7976     7794 
    8008     8338     8636     8980     9306     9602    10206    11314 
   12494    13069    12747    11606     9717     7167     4478     2533 
    1791     1893     2260     2672     3250     4093     4989     5702 
    6231     6491     6237     5489     4805     4876     5857     7332 
    8775     9669     9585     8520     6784     4668     2739     1848 
    2306     3695     5366     6591     6715     5656     4048     2884 
    2953     4375     6634     8917    10331    10237     8622     6207 
    4199     3463     3959     5150     6510     7448     7310     6070 
    4729     4319     4866     5867     6942     7664     7698     7131 
    6308     5730     5852     6581     7250     7226     6577     5899 
    5509     5396     5696     6567     7827     8964     9426     9181 
    8897     9111     9572     9804     9713     9432     9021     8419 
    7625     6851     6366     6197     6071     5716     5240     4970 
    4840     4429     3627     2821     2422     2348     2237     2124 
