Origin Time       2024/04/02 04:24:00
Lat.              40.133
Long.             141.712
Depth. (km)       71
Mag.              6.0
Station Code      AKTH16
Station Lat.      39.5450
Station Long.     140.3481
Station Height(m) -134
Record Time       2024/04/02 04:24:59
Sampling Freq(Hz) 100Hz
Duration Time(s)  208
Dir.              1
Scale Factor      2940(gal)/6170270
Max. Acc. (gal)   3.391
Last Correction   2024/04/02 04:24:44
Memo.             
[...]
   75469    75732    75817    75861    76046    76171    75973    75682 
   75664    75852    75950    75856    75712    75646    75641    75718 
   75896    76066    76118    75995    75746    75607    75642    75667 
   75675    75691    75582    75398    75328    75375    75481    75739 
   76195    76651    76849    76760    76608    76546    76446    76215 
   76027    76013    76081    76117    76138    76236    76386    76406 
   76260    76189    76267    76198    75844    75430    75161    75055 
   75103    75272    75458    75605    75686    75597    75365    75267 
   75401    75570    75656    75681    75712    75861    76141    76441 
   76617    76544    76334    76253    76248    76125    75926    75685 
   75414    75259    75239    75259    75348    75576    75931    76298 
   76479    76411    76245    76088    75831    75407    75020    74798 
   74599    74380    74319    74546    74876    75000    74965    75043 
   75249    75503    75869    76215    76276    76192    76261    76371 
   76263    75901    75373    74791    74364    74307    74551    74840 
   75138    75488    75743    75850    75949    76064    76076    75958 
   75826    75816    75843    75645    75226    74826    74591    74591 
   74848    75304    75813    76197    76405    76428    76236    75965 
   75798    75758    75740    75643    75509    75493    75629    75786 
   75808    75613    75263    74957    74849    74955    75257    75755 
   76313    76672    76773    76747    76671    76502    76120    75511 
   74977    74769    74737    74752    74904    75094    75122    75157 
   75464    75868    76122    76313    76474    76479    76320    76056 
   75775    75571    75467    75538    75758    75818    75622    75469 
   75494    75569    75597    75522    75354    75245    75312    75449 
   75562    75757    76004    76056    75875    75677    75586    75539 
   75555    75712    75874    75926    75981    76105    76293    76549 
   76762    76779    76657    76587    76541    76415    76297    76199 
   76109    76149    76223    76146    75997    75875    75754    75667 
   75650    75711    75858    76005    76005    75798    75478    75209 
   75065    74986    74960    75072    75325    75628    75899    76059 
   76055    75909    75689    75542    75608    75845    76128    76398 
   76572    76585    76490    76282    75898    75465    75156    75003 
   74994    75081    75168    75209    75140    74926    74773    74890 
   75200    75541    75759    75748    75687    75795    75939    75978 
   76024    76075    75992    75877    75834    75732    75624    75759 
   76091    76381    76554    76646    76699    76625    76321    76027 
   75970    75997    76011    76002    75804    75433    75133    74984 
   74946    75062    75337    75639    75827    75893    75933    75950 
   75859    75668    75448    75201    74879    74549    74432    74575 
   74737    74756    74697    74670    74759    74969    75183    75378 
   75656    75957    76122    76172    76254    76439    76622    76624 
   76444    76253    76111    75921    75695    75521    75385    75340 
   75449    75594    75687    75723    75647    75516    75504    75655 
   75781    75665    75418    75400    75701    76080    76348    76478 
   76461    76251    75954    75838    75940    75987    75852    75693 
   75637    75631    75622    75634    75731    75952    76151    76143 
   75996    75928    75945    75829    75548    75371    75460    75674 
   75797    75816    75866    75915    75854    75728    75606    75533 
   75545    75570    75506    75400    75379    75413    75391    75394 
   75515    75608    75624    75722    75924    76125    76297    76388 
   76283    75994    75680    75471    75394    75398    75377    75269 
   75104    74923    74776    74737    74811    74914    75057    75336 
   75677    75919    76106    76326    76473    76466    76389    76345 
   76349    76315    76206    76118    76119    76144    76088    75982 
   75961    75982    75906    75796    75727    75620    75472    75337 
   75259    75269    75295    75274    75198    75083    75065    75195 
   75345    75441    75438    75377    75426    75603    75770    75869 
   75926    75979    75999    75930    75808    75712    75701    75773 
   75879    75966    75977    75891    75777    75707    75712    75824 
   75958    75931    75714    75467    75335    75294    75235    75202 
   75323    75555    75723    75732    75651    75528    75289    75022 
   75028    75393    75876    76196    76238    76151    76174    76341 
   76462    76340    76105    76094    76272    76348    76303    76217 
   76027    75738    75414    75077    74753    74501    74450    74586 
   74621    74477    74491    74814    75162    75320    75363    75403 
   75507    75701    75891    76027    76198    76436    76677    76875 
   76976    77000    77059    77159    77160    76941    76547    76237 
   76135    76078    75995    75930    75820    75641    75479    75383 
   75344    75335    75293    75180    75055    74995    75042    75188 
   75348    75523    75789    76032    76066    75988    76016    76184 
   76424    76615    76505    76040    75588    75394    75306    75249 
   75250    75239    75267    75385    75435    75355    75230    75054 
   74826    74672    74652    74688    74725    74805    74987    75244 
   75495    75712    75909    76031    76023    75943    75912    76043 
   76304    76492    76495    76435    76522    76754    76914    76952 
   76983    76957    76752    76375    75897    75428    75117    75024 
   75062    75149    75284    75440    75566    75648    75622    75470 
   75370    75486    75712    75908    76079    76200    76233    76198 
   76114    76055    76086    76144    76150    76061    75906    75732 
   75533    75372    75370    75447    75408    75276    75218    75201 
   75023    74716    74574    74696    74854    74880    74832    74786 
   74798    74985    75397    75896    76299    76518    76549    76454 
   76285    76038    75782    75662    75660    75598    75396    75139 
   74968    74913    74919    75077    75429    75750    75901    75917 
   75777    75527    75353    75340    75401    75427    75403    75433 
   75641    75996    76303    76411    76365    76231    76043    75915 
   75883    75874    75899    75954    75951    75874    75795    75797 
   75903    76055    76170    76220    76180    75962    75588    75295 
   75213    75174    75093    75092    75153    75151    75158    75299 
   75511    75672    75779    75913    76114    76297    76312    76133 
   75900    75739    75683    75707    75785    75913    76026    76027 
   75935    75750    75432    75174    75141    75187    75209    75218 
   75205    75281    75528    75830    76056    76169    76170    76074 
   75945    75812    75719    75801    75995    76091    76155    76354 
   76654    76864    76861    76744    76628    76464    76235    76044 
   75924    75795    75633    75487    75351    75176    75012    74994 
   75122    75265    75398    75533    75554    75385    75205    75255 
   75470    75604    75615    75609    75663    75795    75948    76081 
   76268    76555    76803    76862    76763    76621    76497    76344 
   76139    76023    76027    75960    75776    75607    75494    75417 
   75355    75280    75205    75159    75190    75323    75476    75623 
   75882    76218    76430    76483    76510    76509    76368    76098 
   75847    75701    75664    75743    75845    75807    75678    75627 
   75629    75556    75427    75411    75552    75630    75497    75296 
   75208    75246    75292    75307    75424    75690    75939    76082 
   76145    76127    76083    76047    75981    75946    75996    76106 
   76277    76362    76238    76095    75997    75824    75703    75785 
   75948    75949    75709    75458    75308    75087    74889    74971 
   75232    75434    75544    75612    75656    75707    75766    75779 
   75724    75624    75501    75412    75439    75558    75647    75624 
   75512    75422    75422    75471    75513    75526    75517    75473 
   75358    75274    75348    75461    75501    75604    75740    75626 
   75243    74909    74853    75050    75311    75430    75379    75277 
   75135    74928    74741    74643    74685    74928    75232    75348 
   75336    75445    75629    75690    75654    75653    75671    75650 
   75652    75764    76005    76307    76539    76690    76840    76949 
   76983    77016    77048    77054    77075    77045    76904    76801 
   76841    76899    76831    76650    76463    76372    76434    76571 
   76633    76655    76729    76775    76729    76653    76594    76597 
   76704    76791    76728    76639    76680    76822    76990    77137 
   77211    77139    76920    76678    76554    76597    76773    77072 
   77451    77740    77854    77945    78105    78223    78228    78144 
   77926    77543    77047    76545    76245    76211    76242    76238 
   76331    76565    76770    76767    76524    76208    76101    76274 
   76490    76553    76493    76426    76422    76441    76339    76079 
   75808    75677    75666    75556    75189    74761    74504    74372 
   74327    74415    74534    74513    74331    74098    73885    73673 
   73478    73352    73292    73326    73482    73583    73460    73328 
   73462    73754    73986    74161    74276    74212    74014    73871 
   73814    73710    73606    73740    74074    74319    74424    74451 
   74274    73914    73667    73638    73582    73347    73078    72908 
   72863    72969    73195    73472    73771    74021    74171    74270 
   74404    74527    74457    74213    74074    74189    74386    74456 
   74490    74655    74875    74993    74943    74789    74649    74553 
   74517    74468    74232    73890    73633    73431    73290    73220 
   73059    72819    72692    72755    72973    73177    73232    73302 
   73546    73818    73972    74073    74171    74194    74160    74163 
   74147    74066    74072    74239    74516    74859    75153    75339 
   75503    75635    75674    75703    75798    75895    75911    75847 
   75718    75541    75441    75511    75679    75902    76121    76253 
   76410    76716    77088    77460    77843    78109    78161    78211 
   78421    78643    78838    79071    79127    78872    78506    78144 
   77770    77451    77185    76880    76583    76436    76558    76959 
   77421    77695    77741    77631    77450    77268    77089    76890 
   76647    76388    76190    76040    75844    75574    75331    75250 
   75284    75215    75047    75053    75324    75664    75944    76143 
   76247    76404    76758    77166    77566    78135    78877    79559 
   79930    79927    79732    79475    79190    78935    78678    78361 
   77947    77326    76494    75659    74965    74360    73804    73317 
   72861    72411    72003    71735    71711    71850    72018    72325 
   72877    73566    74330    75193    76110    77016    77823    78397 
   78671    78694    78579    78460    78442    78547    78752    78983 
   79108    79092    79094    79240    79394    79395    79350    79356 
   79234    78871    78484    78165    77687    77016    76423    76021 
   75761    75692    75758    75665    75228    74558    73826    73056 
   72252    71523    70847    70111    69510    69338    69616    70264 
   71111    71861    72465    73185    74128    75066    75817    76510 
   77321    78168    78920    79621    80251    80677    80898    80991 
   80952    80713    80265    79651    78823    77800    76825    76076 
   75447    74752    73980    73236    72616    72342    72556    72964 
   73253    73518    73850    74039    73931    73759    73857    74148 
   74418    74722    75014    75143    75206    75319    75547    76077 
   76841    77391    77519    77409    77186    76906    76644    76351 
   76062    76041    76406    76872    77157    77418    77859    78354 
   78653    78649    78412    78055    77637    77209    76854    76598 
   76326    75992    75684    75363    75010    74708    74327    73794 
   73403    73439    73800    74088    73996    73601    73244    73134 
   73176    73176    73075    73010    73139    73403    73648    73868 
   74139    74495    74932    75380    75788    76160    76533    77056 
   77731    78295    78695    79093    79403    79456    79282    78969 
   78509    77883    77167    76458    75786    75282    75038    74784 
   74280    73798    73662    73728    73722    73652    73594    73436 
   73098    72692    72386    72359    72751    73474    74215    74799 
   75498    76549    77605    78281    78672    78915    78914    78629 
   78266    78097    78169    78275    78212    77991    77751    77559 
   77372    77023    76352    75422    74416    73423    72540    71903 
   71477    71112    70734    70319    69866    69378    68900    68601 
   68630    68951    69419    69974    70613    71177    71596    72027 
   72500    72970    73623    74664    75923    76987    77715    78267 
   78692    78960    79112    79091    78934    78980    79290    79562 
   79770    79980    80071    80042    79858    79366    78588    77699 
   76871    76218    75819    75710    75741    75591    75044    74172 
   73213    72438    71989    71707    71288    70690    70191    70082 
   70428    71056    71788    72702    73853    75024    76147    77419 
   78815    80148    81351    82166    82259    81925    81818    82078 
   82404    82651    82826    82827    82555    81981    81098    79947 
   78611    77290    76209    75368    74718    74300    74049    73790 
   73513    73433    73629    73849    73894    73845    73816    73855 
   74038    74507    75390    76537    77554    78356    79150    79992 
   80859    81646    82106    82185    82140    82092    81790    81094 
   80297    79742    79439    79225    79049    78875    78599    78194 
   77769    77384    76994    76641    76327    75816    75044    74246 
   73561    73082    73006    73364    73870    74124    73976    73565 
   73056    72623    72435    72473    72559    72623    72768    73080 
   73506    73988    74494    74881    75004    74954    74881    74768 
   74599    74480    74463    74495    74527    74525    74475    74469 
   74571    74607    74435    74221    74121    73905    73294    72482 
   71918    71794    71918    71886    71476    70964    70779    71015 
   71518    72074    72385    72275    71925    71727    71890    72257 
   72656    73233    74007    74567    74684    74535    74295    74195 
   74488    74896    74836    74340    73986    73979    74078    74191 
   74360    74583    74808    74884    74773    74671    74645    74616 
   74685    75088    75868    76748    77319    77370    76970    76317 
   75729    75501    75567    75527    75134    74624    74305    74088 
   73882    73834    73912    74009    74277    74794    75426    76150 
   76992    77773    78269    78435    78376    78202    77855    77221 
   76453    75893    75640    75500    75338    75283    75459    75646 
   75675    75768    76025    76245    76339    76313    76155    76017 
   76075    76271    76577    77100    77783    78428    78956    79498 
   80197    80907    81311    81286    80911    80380    79925    79692 
   79649    79556    79154    78465    77785    77368    77196    77145 
   77125    76961    76492    75761    75032    74630    74605    74749 
   74976    75299    75573    75621    75401    75012    74664    74471 
   74383    74399    74549    74834    75273    75767    76127    76309 
   76267    75887    75328    74936    74832    74979    75345    75849 
   76321    76572    76492    76217    76090    76270    76590    76885 
   77075    77103    77121    77315    77531    77519    77296    76967 
   76527    75965    75395    74977    74619    74003    73172    72559 
   72387    72525    72733    72731    72358    71907    71896    72426 
   73277    74230    74985    75395    75722    76249    76910    77466 
   77776    77831    77759    77709    77675    77640    77729    77991 
   78235    78285    78250    78239    78090    77756    77523    77509 
   77433    77052    76442    75699    74738    73582    72588    72141 
   72200    72391    72452    72404    72358    72343    72447    72766 
   73162    73521    73913    74344    74810    75363    75896    76214 
   76262    76158    76126    76376    76981    77758    78418    78884 
   79164    79138    78762    78259    77986    78054    78202    78210 
   78133    78077    78030    77904    77654    77363    77143    76998 
   76816    76506    76171    76042    76182    76448    76661    76761 
   76905    77189    77449    77584    77615    77512    77311    77130 
   76946    76665    76359    76161    75986    75747    75685    75966 
   76315    76382    76092    75660    75384    75293    75243    75208 
   75163    75040    74811    74432    73918    73486    73403    73673 
   73987    74046    73875    73709    73678    73743    73767    73739 
   73866    74106    74162    74142    74401    74952    75559    76061 
   76355    76345    76158    76081    76211    76447    76632    76610 
   76422    76279    76265    76247    76128    75974    75729    75177 
   74380    73720    73395    73292    73278    73159    72750    72261 
   71914    71567    71278    71358    71812    72369    72884    73409 
   74031    74752    75451    75967    76309    76647    77011    77223 
   77232    77257    77429    77488    77099    76461    76151    76260 
   76275    75862    75335    75162    75248    75202    75029    74950 
   74949    74937    74916    74856    74703    74428    74101    73909 
   73917    74012    74136    74306    74517    74644    74537    74296 
   74156    74170    74323    74673    75105    75227    74874    74397 
   74138    74061    74073    74169    74260    74304    74456    74898 
   75687    76581    77137    77241    77127    76939    76734    76638 
   76731    76871    76820    76535    76230    76092    76050    75937 
   75674    75269    74900    74850    75118    75353    75330    75159 
   74991    74904    74976    75197    75481    75785    76146    76616 
   77113    77435    77466    77261    77111    77313    77684    77831 
   77738    77595    77497    77365    77031    76595    76439    76712 
   77149    77466    77571    77441    77211    77218    77666    78342 
   78801    78769    78323    77744    77274    77006    76808    76463 
   76061    75864    75843    75869    76014    76283    76567    76882 
   77227    77447    77410    77162    76914    76856    76918    76879 
   76626    76196    75761    75545    75570    75580    75365    75127 
   75263    75810    76405    76703    76686    76615    76597    76434 
   76062    75750    75801    76172    76399    76089    75329    74445 
   73648    73005    72582    72428    72458    72533    72552    72489 
   72435    72482    72688    73087    73559    73953    74376    74987 
   75610    75942    75948    75790    75666    75759    76098    76548 
   76927    77115    77230    77490    77766    77695    77201    76565 
   76080    75856    75862    75960    75908    75531    74942    74475 
   74321    74358    74391    74282    73961    73618    73560    73799 
   74219    74774    75243    75372    75255    75149    75182    75366 
