Origin Time       2024/04/02 04:24:00
Lat.              40.133
Long.             141.712
Depth. (km)       71
Mag.              6.0
Station Code      AKTH19
Station Lat.      39.1913
Station Long.     140.4710
Station Height(m) 74
Record Time       2024/04/02 04:25:01
Sampling Freq(Hz) 100Hz
Duration Time(s)  186
Dir.              4
Scale Factor      7845(gal)/8223790
Max. Acc. (gal)   14.158
Last Correction   2024/04/02 04:25:01
Memo.             
[...]
    1676     1416      734     -140     -973    -1559    -1705    -1344 
    -595      309     1086     1563     1738     1615     1121      307 
    -561    -1155    -1286    -1013     -548      -36      390      529 
     314     -178     -849    -1482    -1884    -2031    -1877    -1459 
    -930     -283      460     1086     1540     1840     1898     1661 
    1031        1    -1115    -1999    -2451    -2355    -1838    -1129 
    -437       -6      128      109       98      319      861     1609 
    2339     2678     2347     1470      457     -325     -746     -799 
    -584     -423     -587    -1013    -1505    -1860    -1891    -1583 
   -1092     -545      -20      388      526      395      255      197 
      89      -90     -321     -545     -580     -395      -98      220 
     387      276      -90     -688    -1381    -1837    -1810    -1281 
    -446      325      749      783      518      130      -98       55 
     514      949     1047      672     -116    -1081    -1952    -2560 
   -2754    -2398    -1617     -706      128      650      650      214 
    -368     -749     -616      -45      622     1135     1181      572 
    -378    -1240    -1759    -1800    -1399     -666      149      689 
     837      669      340      106       74      157      287      376 
     403      442      472      461      445      394      276       70 
    -287     -795    -1262    -1405    -1069     -427      193      595 
     706      567      390      272      116       25      137      353 
     562      630      465      334      486      801     1070     1127 
     820      230     -337     -691     -801     -742     -689     -796 
   -1086    -1468    -1764    -1814    -1576    -1121     -562       10 
     460      649      629      511      373      324      333      301 
     278      255       78     -225     -425     -357      -62      292 
     465      359      152      -54     -333     -599     -704     -622 
    -422     -330     -494     -803    -1102    -1215    -1053     -807 
    -630     -459     -251     -101     -140     -294     -313      -66 
     394      837     1055     1051      841      461       83     -233 
    -492     -595     -579     -580     -611     -643     -700     -734 
    -677     -606     -595     -623     -706     -854    -1007    -1088 
   -1007     -735     -382      -56      125       41     -299     -734 
    -977     -866     -585     -398     -382     -481     -526     -341 
     -10      286      504      604      468       74     -469    -1112 
   -1757    -2077    -1896    -1404     -808     -252      224      689 
    1065     1233     1236     1055      708      364       81     -184 
    -392     -502     -531     -558     -680     -874    -1066    -1239 
   -1290    -1069     -580      162     1077     1822     2119     1923 
    1255      297     -572    -1036     -943     -306      592     1375 
    1795     1593      634     -706    -1829    -2373    -2228    -1421 
    -245      765     1314     1360      866       82     -579    -1042 
   -1347    -1441    -1356    -1081     -581      -39      390      719 
     931      957      715      205     -317     -564     -491     -207 
     125      367      409      109     -510    -1113    -1386    -1281 
    -866     -268      261      526      553      469      405      411 
     414      407      421      440      407      171     -259     -679 
   -1069    -1412    -1493    -1271     -859     -302      307      851 
    1200     1162      739      186     -267     -506     -548     -457 
    -237       66      321      422      315       37     -290     -553 
    -652     -508     -206      108      442      737      726      340 
    -275     -965    -1447    -1503    -1264     -959     -680     -475 
    -390     -476     -715     -924     -907     -622     -174      284 
     666      922     1042     1089      982      626      182     -190 
    -500     -695     -807    -1048    -1445    -1853    -2205    -2431 
   -2376    -1938    -1229     -492      151      596      691      500 
     234       52       20      141      475      966     1278     1197 
     839      328     -229     -649     -785     -573      -22      774 
    1626     2207     2270     1833     1035       51     -864    -1483 
   -1728    -1656    -1382    -1109    -1129    -1497    -1962    -2309 
   -2394    -2064    -1401     -708     -160      205      369      388 
     330      228      211      382      649      830      727      361 
      71       62      237      480      650      599      309     -238 
   -1050    -1927    -2548    -2686    -2282    -1514     -715      -99 
     280      391      283       71     -153     -353     -571     -795 
    -935     -978     -912     -710     -488     -305     -130      -81 
    -135      -72      147      456      826     1088     1085      862 
     515      147      -81      -60      205      607      920      935 
     629      189     -180     -386     -406     -249      -51        8 
     -54     -202     -490     -726     -766     -724     -611     -508 
    -630     -897    -1119    -1224    -1078     -607       59      737 
    1262     1487     1449     1325     1092      680      356      257 
     193      121      -33     -398     -727     -900     -990     -838 
    -442      108      843     1406     1463     1111      442     -360 
    -940    -1146     -949     -417      162      519      526      209 
    -198     -511     -684     -692     -648     -711     -753     -575 
    -257       59      205        0     -449     -953    -1424    -1672 
   -1584    -1205     -553      211      828     1125     1013      587 
     132      -90      -21      248      619      899      882      571 
      -1     -697    -1205    -1439    -1493    -1325    -1012     -711 
    -383      -64      140      257      288      241      178       87 
     -93     -413     -812    -1093    -1127     -916     -481       56 
     510      808      936      776      249     -399     -784     -818 
    -599     -226       75      122      -76     -461     -897    -1150 
   -1046     -635     -170      116       91     -274     -811    -1308 
   -1688    -1790    -1482     -918     -245      444      976     1267 
    1350     1208      907      615      356       52     -233     -392 
    -446     -494     -596     -696     -685     -556     -409     -332 
    -349     -464     -608     -610     -448     -251      -40      160 
     298      390      355      110     -213     -572    -1092    -1695 
   -2162    -2386    -2344    -2085    -1672    -1131     -540      -51 
     233      322      344      500      869     1329     1730     1880 
    1618     1113      626      163     -229     -405     -361     -256 
    -359     -734    -1134    -1474    -1791    -1960    -1980    -1938 
   -1794    -1614    -1510    -1379    -1086     -541      271     1071 
    1522     1605     1486     1386     1489     1827     2295     2641 
    2605     2060     1078      -74    -1120    -1871    -2180    -2065 
   -1711    -1239     -737     -386     -264     -306     -440     -556 
    -565     -483     -257      170      693     1205     1606     1672 
    1345      788      106     -527     -837     -739     -410      -60 
     197      324      321      241       95     -129     -349     -476 
    -527     -491     -338      -82      326      922     1530     1906 
    1958     1721     1246      664      143     -318     -793    -1236 
   -1539    -1686    -1714    -1540    -1097     -507      105      669 
    1075     1285     1302     1156      923      580      105     -319 
    -525     -521     -422     -380     -495     -722     -977    -1221 
   -1406    -1497    -1458    -1313    -1196    -1124     -992     -810 
    -599     -315      -45       72       40      -78     -257     -498 
    -730     -800     -592     -179      233      513      653      704 
     654      453      145     -202     -576     -907    -1169    -1408 
   -1580    -1660    -1661    -1499    -1202     -905     -572     -216 
      54      252      330      194      -17     -199     -382     -442 
    -298     -110      -55     -217     -567     -912    -1156    -1351 
   -1414    -1232     -822     -290       91       49     -342     -788 
   -1067    -1059     -666       66      881     1520     1836     1755 
    1367      974      816      886     1032     1107      965      472 
    -292    -1080    -1702    -2006    -1891    -1520    -1163     -899 
    -734     -751     -882     -845     -486       49      585     1030 
    1244     1205     1036      761      363      -66     -469     -858 
   -1161    -1192     -873     -356      130      464      584      427 
      25     -427     -693     -612     -229      143      264      184 
      36      -60        0      233      554      789      749      398 
    -163     -762    -1175    -1237     -961     -533     -216     -141 
    -240     -419     -583     -585     -369        1      387      588 
     544      394      243      122       16     -230     -677    -1135 
   -1397    -1331     -951     -507     -183       37       97       -8 
    -109     -130     -102      -75      -81      -56       24      153 
     407      649      614      328      -82     -515     -764     -724 
    -376      214      733      962      900      507     -156     -909 
   -1582    -2038    -2243    -2204    -1964    -1648    -1286     -832 
    -301      230      604      747      780      785      814      985 
    1325     1750     2149     2365     2280     1900     1298      491 
    -409    -1059    -1352    -1537    -1723    -1906    -2097    -2145 
   -1992    -1711    -1117     -159      828     1674     2340     2710 
    2863     2897     2758     2528     2274     1919     1502     1094 
     696      387      237      209      264      280      118     -105 
    -201     -140       60      276      216     -259    -1019    -1821 
   -2301    -2187    -1536     -608      341     1054     1255      847 
     135     -352     -271      328     1065     1512     1502     1096 
     469     -103     -426     -422     -124      228      325       85 
    -388    -1001    -1584    -1906    -1941    -1860    -1769    -1672 
   -1655    -1834    -2135    -2436    -2778    -3082    -3138    -2976 
   -2740    -2482    -2270    -2039    -1624    -1044     -465       10 
     311      288     -101     -621    -1073    -1397    -1458    -1254 
    -930     -595     -499     -866    -1552    -2223    -2535    -2308 
   -1796    -1291     -872     -776    -1188    -1930    -2816    -3634 
   -4060    -4032    -3669    -3049    -2300    -1568     -930     -409 
      43      452      770     1017     1194     1178      926      498 
     -82     -677    -1015     -908     -315      668     1749     2579 
    3019     3109     2889     2484     2122     1976     2069     2319 
    2573     2614     2236     1466      560     -205     -658     -756 
    -546     -125      457     1263     2239     3109     3661     3871 
    3794     3577     3437     3510     3715     3863     3874     3661 
    3106     2228     1190      272     -209     -193      145      576 
     789      535     -141     -967    -1587    -1753    -1482     -950 
    -252      518     1113     1335     1242      972      525     -137 
    -976    -1867    -2631    -3150    -3404    -3454    -3411    -3370 
   -3537    -4136    -5059    -6015    -6805    -7196    -7068    -6610 
   -6084    -5595    -5132    -4668    -4237    -3866    -3493    -3055 
   -2494    -1802    -1140     -650     -318     -252     -499     -854 
   -1279    -1782    -2104    -2195    -2238    -2293    -2381    -2444 
   -2307    -1995    -1624    -1120     -418      468     1501     2582 
    3719     4926     6061     7064     7948     8615     8976     8968 
    8532     7769     6847     5850     4882     4018     3326     2976 
    3055     3441     3936     4270     4186     3646     2745     1566 
     108    -1618    -3435    -5135    -6678    -8095    -9342   -10369 
  -11210   -11846   -12175   -12159   -11742   -10926    -9882    -8658 
   -7241    -5768    -4274    -2664     -951      899     2859     4677 
    6208     7476     8456     9204     9884    10594    11356    12039 
   12376    12124    11106     9359     7214     5090     3318     2100 
    1540     1622     2146     2853     3527     3902     3836     3423 
    2774     2011     1355      955      880     1205     1908     2786 
    3491     3688     3249     2278      946     -572    -2062    -3335 
   -4291    -4903    -5333    -5904    -6716    -7624    -8459    -8946 
   -8779    -7889    -6465    -4837    -3342    -2262    -1786    -1944 
   -2589    -3379    -3771    -3379    -2274     -811      538     1259 
    1165      514     -332     -974     -992     -149     1578     3917 
    6200     7798     8469     8189     7014     5101     2743      367 
   -1620    -3059    -4024    -4634    -4972    -5101    -5081    -5023 
   -5070    -5196    -5175    -4865    -4328    -3674    -2964    -2354 
   -2057    -2120    -2459    -3013    -3612    -4070    -4415    -4702 
   -4926    -5192    -5485    -5634    -5613    -5389    -4861    -4125 
   -3366    -2713    -2353    -2380    -2608    -2658    -2047     -418 
    2146     5138     7811     9359     9294     7690     5015     2012 
    -450    -1814    -2053    -1510     -711     -168     -128     -450 
    -697     -286     1258     3958     7312    10577    13101    14507 
   14656    13587    11497     8648     5344     1976    -1171    -4032 
   -6593    -8893   -10967   -12723   -14023   -14754   -14818   -14197 
  -12926   -11071    -8743    -6000    -2886      375     3376     5686 
    7111     7798     7990     7809     7381     6814     6127     5340 
    4436     3321     1977      519     -849    -1854    -2265    -2100 
   -1610    -1017     -415      141      625     1063     1494     2003 
    2721     3562     4212     4394     3973     2910     1301     -598 
   -2512    -4147    -5132    -5328    -5007    -4537    -4182    -4043 
   -3967    -3709    -3192    -2474    -1692    -1011     -486      -21 
     627     1750     3453     5522     7538     8978     9410     8748 
    7194     5032     2636      421    -1378    -2722    -3622    -4101 
   -4251    -4167    -3871    -3362    -2658    -1804     -977     -494 
    -541    -1047    -1844    -2759    -3643    -4391    -4807    -4675 
   -4004    -2928    -1588     -286      661     1135     1102      616 
      12     -309     -216      274     1011     1516     1337      471 
    -835    -2223    -3091    -2924    -1748       10     1771     2902 
    3105     2542     1572      607       29       39      587     1404 
    2135     2570     2678     2550     2438     2627     3145     3742 
    4040     3688     2613     1075     -526    -1703    -2088    -1645 
    -623      461     1024      858      148     -708    -1196    -1070 
    -521       90      328      -59     -905    -1941    -2916    -3549 
   -3744    -3537    -2955    -2157    -1296     -450      236      634 
     750      751      899     1283     1831     2529     3319     4048 
    4683     5215     5579     5821     5906     5549     4538     2855 
     523    -2204    -4823    -7009    -8665    -9672    -9987    -9645 
   -8626    -7006    -5000    -2839     -796      901     2168     2910 
    3087     2836     2311     1653     1050      571      265      267 
     569     1067     1649     2027     1885     1135     -137    -1652 
   -2960    -3666    -3595    -2851    -1769     -737      -95      -62 
    -546    -1198    -1656    -1664    -1154     -357      338      643 
     453     -183     -982    -1451    -1314     -657      207      703 
     373     -627    -1926    -3268    -4363    -5020    -5235    -5081 
   -4666    -4047    -3261    -2384    -1406     -394      353      606 
     375     -191     -803    -1066     -714      184     1270     2135 
    2508     2401     1999     1413      787      333      179      395 
     905     1494     2008     2292     2108     1308      -79    -1817 
   -3407    -4259    -3974    -2498     -167     2338     4272     5124 
    4707     3213     1121     -997    -2488    -2832    -2088     -707 
     839     2141     3052     3582     3640     3271     2701     2120 
    1717     1678     2092     2924     3892     4552     4538     3642 
    2045      388     -834    -1557    -1887    -2115    -2570    -3306 
   -4290    -5513    -6706    -7493    -7661    -7044    -5711    -4121 
   -2582    -1065      356     1458     2160     2485     2397     1840 
     935       47     -457     -403      132      831     1366     1522 
    1193      564      -44     -471     -495       83     1066     2035 
    2574     2367     1503      311     -986    -2223    -3260    -4031 
   -4395    -4259    -3611    -2396     -746      961     2380     3075 
    2667     1328     -414    -1984    -2770    -2454    -1205      541 
    2155     2995     2771     1651      148    -1032    -1290     -513 
     926     2470     3535     3688     2883     1476       66     -778 
    -847     -326      418     1011     1200     1027      803      835 
    1200     1696     2030     1999     1517      737       31     -340 
    -272      298     1213     2065     2539     2540     2100     1350 
     440     -469    -1136    -1410    -1378    -1267    -1386    -1914 
   -2756    -3692    -4403    -4537    -3970    -2745    -1063      502 
    1298     1082       97    -1053    -1796    -1977    -1698    -1054 
    -183      712     1494     2103     2439     2385     1900     1005 
    -220    -1512    -2521    -3146    -3519    -3713    -3681    -3403 
   -2897    -2134    -1198     -325      375      819      853      585 
     228     -187     -546     -661     -467      133     1194     2469 
    3653     4534     4846     4409     3329     1923      602     -351 
    -935    -1275    -1486    -1651    -1817    -2025    -2272    -2467 
   -2523    -2435    -2241    -2033    -1956    -2069    -2363    -2824 
   -3292    -3514    -3348    -2756    -1826     -801       86      741 
    1121     1227     1188     1182     1275     1418     1387      826 
    -421    -2153    -3923    -5213    -5674    -5181    -3824    -2012 
    -353      630      677     -128    -1452    -2882    -3898    -3963 
   -2902    -1032     1129     3037     4218     4453     3781     2427 
     820     -481    -1096     -996     -427      360     1124     1570 
    1557     1161      496     -236     -741     -800     -411      264 
     954     1352     1313      858       99     -610     -797     -267 
     828     2147     3234     3720     3495     2635     1468      561 
     174       94       72      -58     -411     -880    -1289    -1512 
   -1312     -583      437     1395     1960     1864     1121        1 
   -1147    -1985    -2370    -2332    -1985    -1574    -1335    -1277 
   -1198     -814       32     1239     2631     4017     5111     5721 
    5779     5213     4091     2636     1101     -241    -1208    -1763 
   -1895    -1660    -1250     -943    -1019    -1602    -2619    -3823 
   -4828    -5279    -5017    -4001    -2362     -530     1036     2127 
    2602     2448     1958     1460     1155     1158     1389     1620 
    1663     1458     1107      753      475      321      325      405 
