Origin Time       2024/04/02 04:24:00
Lat.              40.133
Long.             141.712
Depth. (km)       71
Mag.              6.0
Station Code      AKTH09
Station Lat.      40.2755
Station Long.     140.4596
Station Height(m) -56
Record Time       2024/04/02 04:24:55
Sampling Freq(Hz) 100Hz
Duration Time(s)  172
Dir.              2
Scale Factor      2942(gal)/8224139
Max. Acc. (gal)   2.660
Last Correction   2024/04/02 04:24:55
Memo.             
[...]
   94201    95755    96881    97079    96606    95929    94984    93694 
   92354    91305    90929    91346    92011    92603    93561    94859 
   95763    95953    95651    95386    95725    96465    96890    96635 
   95690    94431    93357    92631    92539    93348    94501    95389 
   96086    96588    96812    97044    97429    97877    98258    98108 
   97108    95634    94184    92942    92033    91512    91320    91504 
   91910    92083    91999    92117    92762    93920    94973    94971 
   93807    92551    92284    93155    94543    95648    96009    95602 
   94370    92362    90440    89590    89865    90953    92703    94586 
   95814    96134    95980    95913    96082    96206    95956    95419 
   94775    93652    91978    90710    90386    90409    90404    90551 
   90838    91295    92209    93660    95227    96439    97325    97837 
   97623    96970    96445    95976    95415    94913    94468    93737 
   92466    91184    90504    90259    90391    91179    92585    94379 
   95971    96719    96971    97495    98275    98959    99202    98402 
   96660    94942    93582    92491    92041    92254    92605    92790 
   92750    92616    92735    93151    93687    94489    95512    96168 
   96138    95659    95115    94834    94784    94555    93815    92685 
   91959    92394    93541    94290    94146    93280    92295    91828 
   91943    92476    93321    94055    94340    94375    94468    94552 
   94196    93224    92057    91226    91017    91404    92142    93079 
   94050    94722    95007    95098    95027    94632    94161    94289 
   95011    95646    95933    95889    95473    94891    94338    93928 
   93954    94535    95327    95678    95179    94240    93603    93623 
   94188    94842    95345    95875    96458    96827    96790    96388 
   95858    95436    95026    94363    93721    93594    93930    94517 
   95210    95644    95770    95750    95341    94595    94120    94189 
   94487    94463    93815    92838    91995    91569    91762    92503 
   93403    94004    93931    93194    92341    92074    92608    93480 
   94203    94563    94209    93168    92145    91504    91345    92009 
   93166    93834    93730    93275    92803    92512    92558    92888 
   93310    93658    93777    93685    93721    94130    94562    94477 
   93872    93167    92713    92697    93152    93891    94531    94764 
   94626    94516    94763    95150    95319    95319    95393    95613 
   95724    95404    94915    94795    95072    95472    95763    95674 
   95139    94498    94126    94149    94582    95131    95134    94335 
   93028    91655    90871    90980    91457    91926    92554    93294 
   93927    94414    94678    94547    94105    93735    93706    93868 
   93992    93995    93650    92836    91874    91041    90536    90717 
   91582    92700    93611    94031    94124    94124    93947    93707 
   93685    93838    94036    94262    94423    94551    94907    95436 
   95760    95868    95947    96024    96134    96288    96430    96619 
   97035    97456    97326    96754    96331    96165    96049    95843 
   95450    95023    94838    94911    95108    95338    95500    95501 
   95353    95068    94724    94616    94736    94576    93984    93333 
   93002    93222    93831    94456    95112    95791    96090    95816 
   95206    94675    94536    94690    94859    94883    94720    94491 
   94250    93800    93202    92831    92704    92554    92441    92497 
   92661    92988    93434    93691    93785    93972    94053    93729 
   93139    92635    92496    92807    93407    93934    94030    93796 
   93587    93421    93325    93530    93923    94169    94127    93814 
   93503    93469    93550    93403    93028    92780    92815    92921 
   93108    93507    93892    94084    94147    94128    94325    95098 
   96088    96552    96327    95818    95281    94594    93673    92705 
   91859    91293    91130    91170    91295    91670    92199    92561 
   92689    92749    92808    92757    92651    92780    93266    93982 
   94717    95253    95477    95455    95337    95196    95192    95562 
   96163    96483    96283    95818    95389    95083    94884    94625 
   94150    93706    93592    93653    93623    93553    93507    93442 
   93449    93669    94045    94317    94312    94196    94130    94035 
   93911    93777    93567    93382    93424    93669    93910    93976 
   93815    93479    93108    92882    92948    93318    93847    94266 
   94419    94400    94343    94408    94726    95104    95304    95382 
   95419    95403    95260    94860    94394    94204    94208    94108 
   93850    93598    93519    93622    93667    93533    93463    93599 
   93830    94050    94126    94039    93961    93987    94182    94423 
   94344    94003    93746    93631    93710    94062    94444    94446 
   93947    93252    92745    92589    92761    93087    93347    93438 
   93405    93355    93442    93744    94111    94377    94489    94393 
   94240    94371    94821    95395    95991    96373    96211    95581 
   94884    94336    93846    93386    93078    92893    92734    92704 
   92821    92932    93081    93444    94028    94684    95206    95419 
   95350    95264    95385    95494    95229    94682    94221    94022 
   93992    93943    93865    93869    93910    93826    93536    93155 
   92965    93150    93576    93891    94000    94171    94382    94356 
   94231    94401    95007    95829    96452    96687    96720    96670 
   96466    96142    95840    95737    95887    96113    96175    95856 
   95210    94632    94323    94297    94494    94585    94443    94370 
   94441    94424    94267    94127    94016    93880    93838    94034 
   94413    94774    94863    94554    94059    93739    93745    94018 
   94356    94571    94682    94689    94547    94382    94196    93874 
   93507    93085    92550    92086    91805    91805    92199    92799 
   93329    93629    93550    93172    92774    92537    92585    92971 
   93440    93673    93603    93298    92867    92408    92036    91955 
   92161    92400    92605    92823    93048    93405    93906    94339 
   94714    95108    95276    95002    94448    93883    93483    93307 
   93220    93132    93225    93569    93965    94335    94751    95165 
   95489    95615    95420    95044    94837    95004    95424    95743 
   95773    95639    95385    94932    94398    94008    93784    93667 
   93629    93592    93633    93946    94348    94412    94045    93604 
   93546    93889    94267    94481    94486    94298    94054    93762 
   93341    92965    92894    93125    93464    93752    93901    93991 
   94184    94398    94436    94378    94447    94563    94404    93973 
   93565    93210    92878    92804    93056    93291    93289    93240 
   93326    93530    93816    94074    94209    94316    94377    94239 
   93951    93687    93559    93533    93414    93158    92981    93028 
   93307    93734    94134    94501    94910    95251    95405    95330 
   95042    94707    94505    94393    94255    94182    94379    94745 
   94875    94710    94572    94545    94552    94663    94776    94672 
   94466    94355    94292    94182    93950    93522    93123    93004 
   92967    92755    92504    92473    92738    93187    93675    94140 
   94527    94815    95025    95053    94834    94482    94086    93691 
   93341    93058    92946    93109    93407    93704    94007    94238 
   94362    94463    94581    94775    94972    94855    94400    94027 
   93930    93985    94119    94274    94452    94702    94930    95175 
   95608    96060    96194    95979    95669    95403    95116    94921 
   95067    95457    95829    96141    96357    96379    96242    96034 
   95791    95476    95019    94581    94408    94383    94193    93816 
   93482    93337    93380    93490    93522    93420    93163    92821 
   92614    92724    93043    93187    93024    93028    93623    94508 
   95131    95301    95119    94821    94576    94281    93807    93278 
   92911    92757    92678    92666    93009    93687    94319    94876 
   95415    95636    95461    95188    94926    94509    93953    93595 
   93575    93606    93538    93544    93762    94225    94792    95200 
   95435    95608    95528    94999    94143    93245    92597    92236 
   91912    91633    91789    92425    93067    93372    93370    93239 
   93264    93571    93842    93800    93567    93317    93113    93001 
   93012    93177    93476    93746    93810    93752    93849    94197 
   94662    95096    95359    95353    95102    94824    94752    94705 
   94398    94049    93980    94135    94188    93943    93571    93344 
   93403    93645    93820    93900    93993    94170    94433    94556 
   94447    94352    94258    93930    93451    93058    92769    92518 
   92371    92260    91991    91828    92246    93097    93934    94578 
   94846    94649    94338    94266    94339    94360    94437    94589 
   94522    94221    93911    93518    93029    92697    92531    92506 
   92813    93364    93845    94113    94209    94385    94838    95278 
   95365    95127    94818    94759    94992    95222    95310    95258 
   95088    94894    94695    94614    94783    94868    94490    93820 
   93339    93278    93351    93305    93344    93555    93756    93955 
   94220    94324    94086    93814    93870    94162    94404    94446 
   94285    94099    94024    93976    94011    94335    94698    94601 
   94104    93631    93348    93216    93213    93322    93455    93517 
   93582    93753    94057    94617    95434    96106    96236    95918 
   95488    95087    94869    94987    95242    95376    95337    95108 
   94748    94451    94436    94648    94678    94254    93654    93336 
   93479    94054    94937    95764    96194    96325    96407    96533 
   96750    97028    97266    97401    97374    97163    96919    96749 
   96438    95827    95133    94556    93989    93351    92855    92823 
   93266    93879    94379    94698    94933    95145    95222    95114 
   95052    95141    95156    95021    94910    94848    94856    95019 
   95141    95049    94942    94996    95211    95450    95407    95130 
   95116    95397    95590    95712    95924    96256    96732    97066 
   96936    96576    96253    95890    95496    95230    95142    95169 
   95274    95465    95697    95844    95862    95890    95968    95952 
   95845    95773    95673    95480    95350    95368    95404    95368 
   95215    94942    94726    94697    94728    94698    94585    94297 
   93861    93557    93536    93653    93715    93618    93387    93191 
   93135    92920    92195    91206    90450    90148    90279    90510 
   90535    90501    90580    90725    90914    91037    90917    90679 
   90543    90435    90305    90320    90555    90779    90570    89857 
   89139    88771    88661    88677    88731    88678    88430    88172 
   88238    88538    88817    89128    89415    89584    89864    90305 
   90751    91174    91404    91297    91053    90852    90756    90845 
   91157    91687    92344    92974    93474    93865    94267    94651 
   94864    94909    94802    94533    94201    93864    93471    92997 
   92427    91821    91417    91420    91714    91971    91951    91736 
   91593    91588    91596    91515    91442    91627    92036    92361 
   92479    92516    92611    92790    93039    93359    93785    94381 
   95088    95647    95862    95959    96230    96476    96464    96356 
   96373    96526    96691    96822    96962    97197    97653    98170 
   98410    98433    98402    98211    97856    97486    97109    96691 
   96268    95848    95412    94961    94614    94537    94635    94706 
   94807    94998    95080    94888    94522    94238    94269    94662 
   95246    95783    96094    96169    96149    96188    96387    96655 
   96750    96680    96684    96823    97040    97286    97360    97085 
   96526    95859    95300    95023    95015    95157    95322    95366 
   95208    94853    94516    94570    95064    95640    96034    96226 
   96264    96264    96377    96604    96805    96874    96738    96383 
   95967    95596    95216    94944    94995    95264    95291    94736 
   93820    93093    92708    92466    92322    92394    92658    92912 
   93032    93109    93154    92990    92653    92425    92418    92481 
   92437    92199    91906    91793    91875    92101    92464    92909 
   93444    94031    94429    94436    94009    93112    91909    90958 
   90682    91007    91875    93307    94961    96384    97501    98334 
   98570    97960    96807    95638    94821    94591    94797    94915 
   94716    94323    93837    93424    93333    93626    94101    94351 
   94142    93679    93231    92996    93171    93681    94270    94878 
   95602    96317    96570    96048    94971    93931    93372    93309 
   93503    93610    93491    93506    93879    94405    94910    95041 
   94333    93050    92052    92033    93137    94845    96341    97135 
   97191    96796    96341    96034    95972    96141    96167    95679 
   94805    93946    93426    93414    94005    95177    96471    97245 
   97293    96597    94992    92492    89718    87818    87779    89695 
   92562    94834    95631    95137    93908    92561    91698    91557 
   92163    93614    95607    97299    98074    97929    97233    96502 
   96076    95794    95130    93796    91952    89905    88078    86913 
   86664    87542    89600    92480    95330    97067    97189    96109 
   94629    93415    92684    92299    92191    92308    92569    93116 
   93926    94551    94783    94725    94269    93564    93383    94277 
   96016    97796    98631    97954    96001    93596    91752    91157 
   91879    93293    94285    94120    92920    91276    89957    89635 
   90401    91774    92936    93145    92435    91620    91570    92551 
   94012    95202    95868    96071    95868    95396    94765    94061 
   93572    93613    94092    94571    94660    94286    93654    92959 
   92368    92210    92696    93513    94165    94560    94803    94771 
   94409    94018    93961    94350    94826    94726    93833    92600 
   91493    90605    89872    89324    89141    89510    90327    91115 
   91374    91208    91268    91953    93059    94167    95007    95548 
   95821    95689    95261    95115    95589    96554    97803    98820 
   98988    98462    97910    97696    97796    98161    98946   100180 
  101293   101474   100373    98307    95898    93699    92187    91647 
   91868    92308    92585    92616    92421    92152    92160    92603 
   93258    93853    94255    94435    94513    94691    94936    95042 
   95168    95686    96568    97525    98429    99265    99746    99285 
   97750    95763    94046    93120    93270    94281    95573    96623 
   97197    97282    96827    95774    94447    93425    92988    92942 
   92897    92576    92061    91631    91316    90927    90337    89588 
   89013    89077    89776    90621    91156    91285    91303    91501 
   91874    92260    92542    92758    92940    92996    92928    92799 
   92539    92188    91974    92052    92437    93028    93537    93685 
   93569    93499    93534    93391    92707    91512    90455    90130 
   90410    90927    91494    91959    92468    93370    94486    95436 
   96282    97127    97835    98251    98281    97897    97159    96464 
   96255    96215    95843    95169    94274    93329    92820    92935 
   93471    94205    94817    95017    94887    94609    94215    93775 
   93297    92742    92321    92425    93297    94774    96307    97416 
   97919    97845    97432    97019    96843    97016    97432    97699 
   97619    97418    97093    96303    95095    94039    93598    93703 
   93945    94024    93927    93850    93992    94315    94613    94771 
   94733    94531    94358    94189    93711    92934    92149    91450 
   90977    91127    92002    93194    94284    95107    95528    95436 
   94967    94375    93843    93526    93496    93618    93672    93599 
   93464    93253    93043    93118    93546    94046    94385    94506 
   94441    94343    94381    94528    94698    94888    95002    94856 
   94420    93938    93634    93402    93187    93270    93733    94346 
   94764    94595    93904    93241    92830    92564    92431    92402 
   92461    92607    92716    92728    92632    92389    92184    92389 
   93114    93943    94396    94483    94464    94529    94832    95382 
   95994    96446    96581    96350    95863    95215    94333    93299 
   92453    92048    92071    92383    92983    93833    94486    94625 
   94528    94362    93896    93067    92091    91219    90694    90729 
   91308    92156    93113    94236    95416    96336    96842    97019 
   96942    96599    96039    95493    95156    94992    94956    95125 
   95571    96364    97367    98026    97912    97290    96688    96337 
   96192    96007    95480    94640    93949    93787    94073    94508 
   94834    94900    94770    94513    94103    93711    93560    93572 
   93486    93155    92767    92719    93104    93721    94431    95025 
   95176    94838    94406    94277    94440    94617    94617    94475 
   94312    94174    94032    93731    93158    92627    92539    92776 
   92979    92965    92839    93023    93762    94883    96128    97174 
   97596    97281    96530    95623    94636    93673    92838    92277 
   92157    92317    92387    92199    91798    91378    91222    91492 
   91993    92299    92296    92172    91947    91623    91417    91396 
   91347    91255    91378    91768    92215    92573    92688    92365 
   91744    91184    90875    90929    91328    91782    92157    92589 
   93025    93384    93860    94502    94988    95094    94803    94109 
   93231    92564    92198    91943    91789    91948    92427    92981 
   93436    93726    93877    93931    93768    93395    93193    93363 
   93692    94099    94717    95442    95959    96022    95632    95164 
   95045    95261    95435    95258    94834    94563    94637    94987 
   95612    96417    97023    97114    96741    96184    95679    95242 
   94869    94710    94817    95119    95593    96014    96021    95715 
   95500    95575    95893    96192    96211    96075    96094    96249 
   96253    96055    95831    95593    95357    95318    95551    95904 
   96086    95858    95301    94740    94427    94359    94323    94261 
   94289    94240    93834    93129    92449    92059    91944    91962 
   92092    92385    92927    93756    94684    95454    95935    96063 
   95812    95262    94666    94235    93980    93856    93838    93974 
   94408    95033    95573    95902    95875    95496    95056    94649 
   94211    93858    93695    93681    93704    93658    93623    93727 
   93827    93712    93406    93062    92785    92639    92569    92554 
   92724    92981    93082    93082    93086    93017    92788    92462 
   92303    92460    92815    93202    93447    93452    93332    93291 
   93441    93604    93519    93210    92815    92416    92113    91947 
   91952    92126    92340    92580    92979    93468    93845    94054 
   94150    94116    93970    93879    93977    94284    94716    95068 
   95226    95312    95558    96087    96687    96974    96894    96739 
