Origin Time       2024/04/02 04:24:00
Lat.              40.133
Long.             141.712
Depth. (km)       71
Mag.              6.0
Station Code      AKTH05
Station Lat.      39.0718
Station Long.     140.3185
Station Height(m) 75
Record Time       2024/04/02 04:25:04
Sampling Freq(Hz) 100Hz
Duration Time(s)  120
Dir.              2
Scale Factor      2942(gal)/8224139
Max. Acc. (gal)   0.862
Last Correction   2024/04/02 04:25:04
Memo.             
[...]
   28449    28271    28129    28196    28316    28404    28591    28791 
   28744    28493    28395    28570    28675    28485    28231    28212 
   28413    28578    28534    28421    28487    28732    28910    28914 
   28867    28857    28799    28667    28583    28556    28480    28435 
   28547    28711    28714    28557    28459    28507    28579    28584 
   28499    28332    28278    28503    28771    28763    28614    28655 
   28809    28772    28571    28539    28729    28749    28474    28296 
   28360    28350    28147    28080    28339    28611    28636    28575 
   28555    28497    28433    28453    28455    28318    28197    28300 
   28506    28460    28134    27931    28062    28246    28237    28213 
   28358    28493    28474    28443    28498    28526    28413    28250 
   28221    28321    28422    28502    28570    28582    28489    28351 
   28352    28532    28691    28672    28497    28275    28208    28395 
   28640    28665    28520    28472    28545    28499    28359    28412 
   28621    28648    28464    28381    28528    28706    28722    28625 
   28545    28514    28507    28507    28474    28378    28242    28143 
   28173    28298    28359    28356    28382    28382    28294    28204 
   28220    28283    28254    28174    28155    28140    28075    28092 
   28269    28424    28404    28340    28398    28448    28325    28254 
   28493    28779    28757    28597    28617    28740    28752    28715 
   28745    28707    28494    28304    28328    28413    28383    28399 
   28560    28637    28570    28587    28696    28656    28431    28264 
   28290    28350    28333    28391    28543    28557    28431    28401 
   28532    28676    28764    28837    28858    28764    28629    28505 
   28298    28054    27970    28069    28170    28212    28281    28386 
   28408    28285    28162    28233    28466    28611    28540    28366 
   28271    28333    28429    28402    28275    28177    28204    28308 
   28345    28333    28397    28526    28568    28449    28360    28505 
   28702    28686    28547    28549    28707    28757    28551    28296 
   28263    28451    28660    28726    28637    28534    28524    28544 
   28482    28377    28416    28613    28718    28617    28512    28559 
   28607    28518    28453    28578    28722    28636    28398    28348 
   28563    28703    28587    28435    28399    28445    28490    28425 
   28258    28154    28244    28452    28545    28425    28259    28231 
   28316    28368    28341    28278    28171    28050    28008    28109 
   28336    28611    28815    28869    28826    28783    28718    28588 
   28448    28348    28310    28347    28424    28425    28323    28282 
   28431    28667    28863    28975    28934    28734    28578    28638 
   28723    28545    28274    28259    28422    28445    28281    28212 
   28421    28682    28719    28593    28543    28665    28776    28684 
   28474    28362    28428    28495    28310    28009    28066    28533 
   28868    28760    28584    28756    29066    28999    28551    28283 
   28414    28510    28320    28127    28175    28297    28221    28032 
   28063    28402    28721    28690    28406    28227    28290    28377 
   28243    28054    28178    28503    28482    28050    27866    28262 
   28636    28441    28044    28061    28413    28570    28422    28358 
   28574    28836    28854    28622    28391    28341    28358    28251 
   28067    28017    28188    28433    28524    28387    28324    28561 
   28726    28487    28216    28267    28395    28312    28181    28289 
   28517    28509    28343    28345    28451    28414    28277    28229 
   28354    28551    28682    28695    28629    28634    28803    28933 
   28755    28401    28256    28327    28286    28089    28027    28266 
   28605    28742    28709    28764    28885    28794    28497    28350 
   28498    28636    28537    28401    28416    28514    28610    28661 
   28671    28702    28723    28652    28563    28571    28692    28802 
   28690    28431    28383    28597    28706    28502    28270    28323 
   28441    28308    28078    28089    28278    28328    28240    28246 
   28318    28278    28140    28075    28077    27985    27903    28054 
   28339    28525    28560    28494    28366    28260    28298    28399 
   28320    28132    28216    28606    28841    28714    28588    28742 
   28969    28944    28690    28475    28381    28339    28378    28458 
   28464    28468    28534    28556    28509    28544    28711    28827 
   28705    28433    28293    28336    28370    28339    28337    28428 
   28578    28642    28583    28537    28556    28548    28431    28244 
   28152    28188    28173    28077    28138    28445    28668    28491 
   28174    28186    28466    28566    28367    28202    28332    28555 
   28597    28556    28620    28728    28728    28601    28464    28405 
   28433    28501    28470    28271    28131    28344    28699    28706 
   28516    28688    29112    29180    28837    28645    28787    28791 
   28459    28227    28340    28522    28510    28432    28524    28688 
   28669    28555    28521    28447    28359    28459    28539    28366 
   28202    28316    28564    28613    28405    28298    28412    28372 
   28081    27993    28350    28763    28821    28653    28610    28703 
   28665    28439    28271    28294    28327    28246    28181    28200 
   28232    28255    28251    28173    28088    28121    28275    28389 
   28347    28312    28424    28451    28208    27986    28104    28367 
   28377    28143    28063    28341    28664    28630    28366    28327 
   28575    28719    28534    28236    28162    28417    28732    28722 
   28448    28377    28648    28896    28850    28680    28672    28844 
   28915    28675    28352    28310    28493    28549    28412    28420 
   28683    28799    28615    28467    28537    28626    28503    28266 
   28148    28120    28109    28235    28448    28552    28548    28536 
   28537    28571    28665    28745    28633    28354    28242    28424 
   28557    28420    28286    28398    28516    28402    28324    28543 
   28775    28698    28520    28544    28679    28767    28782    28696 
   28540    28387    28337    28426    28475    28409    28443    28588 
   28599    28490    28497    28595    28513    28186    27994    28247 
   28588    28543    28318    28377    28574    28470    28129    28015 
   28244    28460    28449    28389    28429    28503    28601    28705 
   28641    28451    28432    28579    28588    28464    28521    28782 
   28944    28887    28729    28620    28617    28628    28548    28393 
   28339    28566    28861    28865    28688    28679    28776    28594 
   28131    27900    28105    28318    28285    28267    28444    28647 
   28638    28470    28416    28537    28626    28520    28251    28057 
   28092    28193    28182    28193    28401    28653    28583    28127 
   27783    27957    28378    28537    28340    28161    28306    28563 
   28539    28282    28196    28367    28483    28424    28371    28431 
   28548    28590    28514    28462    28534    28588    28472    28290 
   28227    28281    28335    28344    28347    28360    28358    28337 
   28316    28269    28247    28316    28391    28371    28294    28270 
   28354    28417    28297    28111    28135    28345    28393    28206 
   28198    28494    28669    28534    28389    28436    28534    28482 
   28293    28152    28175    28343    28522    28472    28165    27970 
   28142    28417    28459    28337    28328    28409    28324    28113 
   28142    28414    28522    28374    28271    28370    28499    28462 
   28310    28244    28312    28444    28575    28620    28570    28553 
   28572    28498    28366    28360    28533    28656    28593    28598 
   28822    28999    28915    28705    28647    28750    28687    28386 
   28165    28169    28263    28297    28278    28356    28584    28760 
   28745    28676    28706    28761    28674    28433    28227    28183 
   28252    28332    28394    28452    28576    28795    29025    29184 
   29238    29115    28836    28625    28606    28669    28688    28614 
   28540    28574    28640    28661    28698    28773    28827    28786 
   28624    28387    28148    28043    28139    28204    28044    27859 
   27904    28066    28027    27788    27731    28035    28370    28397 
   28243    28170    28197    28256    28335    28409    28521    28726 
   28923    28980    28931    28903    28942    28872    28518    28165 
   28216    28514    28597    28406    28274    28378    28526    28516 
   28399    28242    28036    27916    27989    28115    28129    28132 
   28286    28421    28279    28007    27891    27901    27880    27837 
   27845    27912    27966    27996    28108    28247    28217    28044 
   27963    28093    28306    28426    28447    28443    28425    28406 
   28429    28432    28355    28305    28321    28282    28163    28101 
   28185    28343    28440    28537    28744    28903    28858    28740 
   28723    28848    29016    29091    29127    29269    29377    29296 
   29201    29182    29045    28768    28590    28614    28769    28993 
   29181    29278    29359    29411    29342    29165    28956    28815 
   28788    28782    28742    28748    28817    28907    29000    29056 
   29066    29120    29211    29181    29039    28992    29033    28952 
   28744    28634    28722    28814    28713    28517    28480    28590 
   28503    28147    27912    28020    28237    28281    28159    28117 
   28264    28332    28054    27565    27261    27367    27648    27706 
   27535    27450    27572    27708    27688    27541    27376    27330 
   27422    27475    27449    27548    27776    27882    27785    27743 
   27930    28086    27982    27896    28017    28046    27874    27822 
   28015    28181    28183    28283    28575    28665    28431    28266 
   28263    28169    28047    28152    28364    28336    28127    28144 
   28393    28513    28475    28548    28752    28860    28821    28746 
   28636    28516    28544    28701    28794    28737    28642    28679 
   28788    28827    28834    28850    28787    28668    28661    28748 
   28765    28726    28698    28606    28424    28263    28186    28121 
   28017    27967    28035    28135    28206    28316    28468    28548 
   28559    28582    28551    28431    28348    28372    28418    28422 
   28480    28614    28663    28676    28925    29280    29304    29049 
   28965    29114    29089    28772    28578    28701    28790    28613 
   28445    28503    28594    28595    28722    29038    29214    29134 
   29141    29303    29232    28876    28630    28609    28507    28277 
   28274    28588    28831    28792    28729    28857    28956    28813 
   28682    28799    28927    28806    28599    28594    28692    28640 
   28514    28509    28514    28394    28290    28310    28343    28305 
   28267    28296    28321    28304    28336    28393    28323    28104 
   27912    27892    27957    27940    27868    27935    28224    28534 
   28626    28520    28412    28410    28444    28439    28399    28335 
   28254    28200    28192    28175    28147    28167    28252    28352 
   28395    28393    28433    28451    28309    28152    28200    28398 
   28563    28593    28486    28360    28379    28578    28813    28914 
   28921    29027    29218    29307    29316    29343    29411    29494 
   29450    29268    29254    29500    29664    29582    29498    29587 
   29668    29587    29554    29798    30146    30299    30264    30233 
   30273    30283    30176    30042    29951    29852    29752    29631 
   29432    29255    29200    29111    28780    28360    28208    28302 
   28320    28198    28146    28166    28098    27984    27919    27837 
   27692    27548    27492    27502    27438    27313    27261    27261 
   27205    27116    27109    27230    27481    27895    28372    28660 
   28655    28516    28383    28225    27999    27762    27568    27356 
   27143    27055    27043    26978    26950    27114    27437    27672 
   27635    27469    27413    27490    27649    27896    28154    28197 
   27880    27356    26923    26724    26728    26721    26511    26210 
   26092    26299    26723    27060    27282    27661    28163    28486 
   28540    28495    28499    28474    28404    28568    29018    29238 
   28804    28036    27584    27549    27496    27310    27368    27837 
   28389    28695    28869    29268    29916    30484    30743    30667 
   30383    30130    29963    29686    29250    28844    28599    28391 
   28100    27930    28086    28397    28615    28769    29000    29295 
   29542    29682    29709    29629    29515    29521    29613    29524 
   29209    28965    28942    28888    28607    28375    28547    28984 
   29251    29231    29162    29089    28807    28325    27903    27627 
   27378    27187    27210    27326    27213    26901    26796    27005 
   27153    27136    27326    27739    27903    27735    27706    28054 
   28421    28440    28327    28437    28632    28655    28647    28800 
   29004    29107    29141    29181    29203    29139    28965    28679 
   28336    28115    28093    28048    27800    27500    27321    27282 
   27386    27680    28186    28709    28937    28795    28378    27837 
   27471    27473    27685    27918    28192    28529    28771    28726 
   28478    28368    28507    28706    28846    28934    29070    29376 
   29731    29928    29994    30045    30014    29752    29307    28813 
   28251    27700    27430    27356    27013    26372    26042    26357 
   26913    27349    27800    28351    28790    29014    29119    29141 
   29045    28900    28806    28769    28763    28796    28796    28591 
   28313    28385    28767    28984    28917    28804    28711    28541 
   28382    28493    28856    29084    29025    28939    28912    28713 
   28301    27955    27834    27730    27429    27099    27002    27039 
   27018    27048    27295    27642    27834    27835    27870    28035 
   28156    28209    28390    28640    28691    28564    28575    28881 
   29234    29343    29304    29389    29658    29947    30096    30088 
   30067    30214    30456    30419    30029    29816    30078    30326 
   30106    29744    29772    30002    29813    29161    28618    28513 
   28476    28154    27858    27969    28279    28378    28173    27855 
   27718    27908    28109    27974    27795    27958    28233    28146 
   27734    27549    27801    27966    27718    27618    28189    28999 
   29311    29074    28723    28493    28372    28240    27931    27533 
   27351    27415    27429    27280    27222    27380    27514    27529 
   27711    28179    28567    28548    28343    28359    28521    28444 
   28142    28073    28462    29057    29517    29768    29986    30267 
   30415    30203    29775    29505    29542    29717    29790    29681 
   29493    29362    29336    29366    29326    29155    28925    28647 
   28301    27977    27803    27853    27988    27958    27874    27962 
   28000    27697    27299    27306    27639    27706    27508    27665 
   28216    28533    28316    27980    28042    28401    28529    28332 
   28232    28468    28821    28942    28807    28779    29131    29566 
   29578    29197    28848    28694    28579    28398    28312    28459 
   28610    28507    28244    28048    27982    27938    27839    27769 
   27876    28124    28232    28125    28075    28216    28379    28377 
   28282    28354    28587    28757    28852    29030    29290    29473 
   29533    29585    29687    29805    29920    29998    29862    29471 
   29085    28849    28652    28453    28350    28347    28291    28129 
   28107    28404    28655    28402    27936    27886    28189    28339 
   28223    28104    28119    28089    27862    27643    27631    27673 
   27630    27611    27619    27517    27379    27391    27454    27355 
   27243    27426    27822    28061    28040    28044    28290    28618 
   28809    28954    29147    29272    29242    29041    28769    28667 
   28750    28679    28206    27665    27602    27891    27951    27679 
   27472    27579    27764    27714    27621    27815    28140    28286 
   28225    28080    27943    27834    27683    27432    27194    27210 
   27494    27679    27552    27440    27638    27919    27958    27792 
   27795    28192    28636    28690    28453    28337    28539    28811 
   28811    28607    28532    28656    28769    28769    28795    28935 
   29066    29166    29385    29613    29573    29365    29312    29419 
   29427    29328    29438    29874    30272    30177    29627    29080 
   28813    28702    28618    28625    28710    28733    28651    28506 
   28312    28077    27805    27502    27213    27041    27075    27221 
   27229    27012    26727    26551    26532    26663    26927    27203 
   27345    27382    27368    27187    26919    26967    27514    28219 
   28540    28371    28190    28359    28684    28809    28649    28414 
   28406    28738    29101    29157    29120    29367    29658    29466 
   28952    28883    29457    29889    29660    29384    29679    30127 
   30046    29551    29238    29258    29219    28949    28750    28792 
   28899    28949    28948    28883    28768    28722    28767    28699 
   28545    28653    28977    28999    28618    28413    28741    29135 
   29108    28972    29187    29544    29569    29297    29165    29262 
   29307    29299    29427    29542    29462    29347    29334    29322 
   29330    29496    29641    29403    28958    28842    28953    28750 
   28363    28405    28709    28471    27751    27477    27885    28181 
   27912    27675    28035    28641    28877    28669    28409    28394 
   28510    28529    28370    28159    28156    28366    28464    28273 
   27935    27724    27684    27587    27481    27734    28243    28385 
   27992    27662    27749    27861    27734    27737    28102    28374 
   28163    27810    27765    27938    28020    27990    28013    28140 
   28297    28350    28213    28043    28111    28399    28544    28375 
   28308    28703    29207    29274    28992    28846    28906    28760 
   28363    28285    28784    29263    29107    28595    28393    28524 
   28621    28664    28802    28933    28887    28734    28633    28553 
   28449    28439    28495    28414    28244    28219    28250    28169 
   28186    28410    28426    28023    27727    28026    28553    28679 
   28494    28483    28605    28426    27985    27781    27927    28035 
   27957    27950    28131    28277    28248    28129    27980    27812 
   27729    27819    28034    28221    28227    27997    27693    27526 
   27508    27498    27449    27491    27672    27888    28054    28148 
   28192    28198    28094    27905    27866    28074    28356    28544 
   28645    28699    28684    28664    28734    28746    28571    28408 
   28490    28723    28814    28684    28601    28632    28464    28096 
   27946    28062    28065    27936    28012    28254    28318    28206 
   28227    28399    28418    28262    28235    28381    28480    28514 
   28556    28503    28312    28232    28394    28497    28397    28468 
   28887    29289    29407    29388    29378    29292    29107    29027 
   29150    29280    29278    29312    29444    29427    29197    29033 
   29030    29066    29187    29452    29614    29479    29273    29243 
