Origin Time       2024/04/02 04:24:00
Lat.              40.133
Long.             141.712
Depth. (km)       71
Mag.              6.0
Station Code      AKTH12
Station Lat.      39.9155
Station Long.     140.2221
Station Height(m) -10
Record Time       2024/04/02 04:24:59
Sampling Freq(Hz) 100Hz
Duration Time(s)  120
Dir.              3
Scale Factor      2942(gal)/8224139
Max. Acc. (gal)   2.513
Last Correction   2024/04/02 04:24:59
Memo.             
[...]
 -154797  -154804  -154808  -154808  -154807  -154804  -154804  -154808 
 -154805  -154801  -154803  -154799  -154793  -154799  -154804  -154801 
 -154800  -154803  -154803  -154801  -154809  -154811  -154797  -154804 
 -154807  -154792  -154799  -154805  -154799  -154804  -154804  -154799 
 -154804  -154807  -154804  -154803  -154803  -154803  -154808  -154808 
 -154801  -154799  -154800  -154800  -154804  -154807  -154803  -154797 
 -154799  -154809  -154811  -154807  -154808  -154803  -154796  -154801 
 -154804  -154801  -154799  -154800  -154807  -154801  -154793  -154799 
 -154805  -154803  -154799  -154797  -154799  -154801  -154800  -154800 
 -154805  -154805  -154804  -154804  -154801  -154803  -154808  -154805 
 -154803  -154804  -154803  -154803  -154807  -154801  -154793  -154795 
 -154797  -154796  -154803  -154804  -154796  -154793  -154793  -154796 
 -154803  -154803  -154800  -154803  -154807  -154808  -154808  -154803 
 -154801  -154803  -154805  -154807  -154808  -154808  -154808  -154811 
 -154813  -154805  -154804  -154813  -154812  -154809  -154809  -154804 
 -154799  -154796  -154797  -154805  -154805  -154799  -154799  -154807 
 -154808  -154803  -154804  -154805  -154804  -154804  -154804  -154801 
 -154800  -154801  -154803  -154804  -154803  -154799  -154797  -154801 
 -154801  -154797  -154800  -154815  -154809  -154799  -154809  -154811 
 -154803  -154805  -154801  -154800  -154805  -154811  -154811  -154804 
 -154804  -154813  -154808  -154803  -154812  -154813  -154807  -154807 
 -154811  -154809  -154807  -154808  -154809  -154804  -154803  -154804 
 -154800  -154799  -154807  -154809  -154804  -154800  -154801  -154801 
 -154800  -154803  -154804  -154800  -154801  -154804  -154804  -154803 
 -154804  -154808  -154807  -154801  -154805  -154808  -154799  -154797 
 -154804  -154808  -154801  -154800  -154801  -154795  -154799  -154815 
 -154812  -154803  -154805  -154807  -154808  -154808  -154805  -154801 
 -154801  -154808  -154809  -154804  -154804  -154808  -154809  -154805 
 -154801  -154803  -154805  -154797  -154791  -154797  -154805  -154804 
 -154805  -154809  -154801  -154795  -154805  -154809  -154799  -154795 
 -154801  -154804  -154801  -154796  -154800  -154811  -154809  -154807 
 -154812  -154809  -154801  -154801  -154805  -154809  -154809  -154805 
 -154812  -154816  -154807  -154805  -154807  -154805  -154812  -154811 
 -154800  -154808  -154822  -154812  -154804  -154813  -154812  -154805 
 -154803  -154804  -154805  -154805  -154807  -154808  -154808  -154805 
 -154808  -154809  -154807  -154809  -154807  -154807  -154818  -154811 
 -154800  -154809  -154816  -154813  -154811  -154809  -154807  -154809 
 -154812  -154803  -154801  -154804  -154801  -154805  -154815  -154815 
 -154809  -154804  -154805  -154807  -154805  -154808  -154807  -154805 
 -154809  -154805  -154804  -154807  -154805  -154805  -154804  -154797 
 -154799  -154804  -154804  -154799  -154796  -154804  -154811  -154800 
 -154797  -154805  -154799  -154799  -154805  -154803  -154803  -154804 
 -154801  -154807  -154807  -154800  -154805  -154807  -154801  -154804 
 -154805  -154800  -154801  -154811  -154818  -154818  -154811  -154812 
 -154818  -154809  -154803  -154813  -154816  -154809  -154808  -154807 
 -154800  -154804  -154811  -154804  -154800  -154804  -154808  -154809 
 -154803  -154805  -154813  -154804  -154797  -154808  -154808  -154801 
 -154805  -154812  -154807  -154805  -154808  -154803  -154804  -154811 
 -154805  -154809  -154815  -154803  -154797  -154808  -154807  -154801 
 -154805  -154812  -154812  -154801  -154803  -154811  -154805  -154803 
 -154808  -154809  -154809  -154808  -154809  -154809  -154804  -154807 
 -154812  -154807  -154804  -154812  -154816  -154807  -154804  -154815 
 -154812  -154801  -154804  -154809  -154808  -154803  -154804  -154811 
 -154808  -154804  -154809  -154808  -154804  -154807  -154807  -154801 
 -154800  -154800  -154803  -154805  -154805  -154807  -154808  -154804 
 -154800  -154799  -154805  -154809  -154800  -154796  -154796  -154797 
 -154804  -154801  -154795  -154804  -154811  -154805  -154804  -154805 
 -154797  -154795  -154803  -154803  -154799  -154800  -154800  -154801 
 -154805  -154804  -154803  -154805  -154807  -154804  -154801  -154807 
 -154809  -154805  -154803  -154795  -154792  -154800  -154801  -154797 
 -154796  -154793  -154792  -154800  -154805  -154801  -154799  -154797 
 -154793  -154800  -154804  -154800  -154800  -154803  -154805  -154803 
 -154800  -154805  -154808  -154808  -154809  -154807  -154807  -154805 
 -154803  -154807  -154805  -154800  -154797  -154799  -154804  -154805 
 -154803  -154803  -154799  -154799  -154803  -154807  -154803  -154800 
 -154803  -154801  -154801  -154801  -154797  -154795  -154800  -154801 
 -154799  -154799  -154805  -154805  -154793  -154792  -154804  -154805 
 -154800  -154800  -154799  -154795  -154804  -154809  -154804  -154803 
 -154803  -154793  -154793  -154804  -154804  -154799  -154797  -154800 
 -154801  -154797  -154797  -154796  -154786  -154789  -154805  -154808 
 -154801  -154801  -154800  -154795  -154792  -154793  -154800  -154801 
 -154795  -154797  -154804  -154805  -154805  -154807  -154805  -154803 
 -154800  -154796  -154800  -154803  -154796  -154799  -154801  -154797 
 -154803  -154801  -154796  -154800  -154805  -154807  -154804  -154799 
 -154797  -154799  -154797  -154797  -154800  -154807  -154808  -154807 
 -154809  -154804  -154799  -154804  -154801  -154797  -154808  -154809 
 -154801  -154799  -154800  -154804  -154807  -154803  -154800  -154801 
 -154799  -154792  -154796  -154803  -154801  -154800  -154801  -154803 
 -154799  -154799  -154804  -154804  -154800  -154792  -154796  -154805 
 -154804  -154801  -154800  -154795  -154797  -154805  -154801  -154796 
 -154795  -154792  -154795  -154804  -154801  -154796  -154800  -154803 
 -154801  -154799  -154793  -154801  -154804  -154796  -154797  -154803 
 -154800  -154799  -154800  -154800  -154803  -154803  -154803  -154803 
 -154797  -154797  -154800  -154797  -154803  -154809  -154805  -154803 
 -154803  -154801  -154795  -154792  -154803  -154808  -154801  -154799 
 -154801  -154800  -154800  -154799  -154797  -154803  -154801  -154796 
 -154801  -154803  -154797  -154796  -154801  -154801  -154796  -154796 
 -154797  -154799  -154800  -154804  -154801  -154795  -154799  -154800 
 -154797  -154799  -154797  -154796  -154800  -154800  -154795  -154799 
 -154803  -154800  -154797  -154800  -154803  -154799  -154793  -154795 
 -154793  -154797  -154801  -154795  -154797  -154801  -154792  -154793 
 -154800  -154796  -154793  -154792  -154792  -154800  -154797  -154795 
 -154803  -154799  -154791  -154795  -154800  -154793  -154789  -154793 
 -154796  -154793  -154789  -154793  -154803  -154801  -154795  -154797 
 -154807  -154807  -154800  -154797  -154799  -154799  -154800  -154800 
 -154797  -154797  -154804  -154809  -154804  -154800  -154800  -154793 
 -154793  -154801  -154803  -154800  -154797  -154793  -154796  -154803 
 -154801  -154797  -154800  -154803  -154800  -154792  -154791  -154800 
 -154801  -154795  -154799  -154803  -154797  -154796  -154803  -154796 
 -154781  -154789  -154800  -154795  -154795  -154799  -154797  -154795 
 -154795  -154796  -154795  -154793  -154796  -154799  -154803  -154803 
 -154797  -154796  -154801  -154797  -154789  -154793  -154795  -154793 
 -154797  -154796  -154791  -154795  -154803  -154800  -154791  -154793 
 -154800  -154797  -154793  -154800  -154809  -154801  -154797  -154803 
 -154799  -154801  -154811  -154805  -154795  -154800  -154805  -154796 
 -154797  -154803  -154797  -154799  -154805  -154800  -154797  -154801 
 -154796  -154791  -154795  -154799  -154797  -154793  -154793  -154797 
 -154793  -154792  -154797  -154795  -154792  -154797  -154799  -154796 
 -154793  -154792  -154793  -154796  -154792  -154791  -154796  -154796 
 -154799  -154801  -154796  -154795  -154797  -154797  -154795  -154791 
 -154789  -154793  -154800  -154799  -154793  -154793  -154797  -154796 
 -154796  -154796  -154795  -154792  -154791  -154788  -154785  -154792 
 -154800  -154800  -154795  -154796  -154803  -154803  -154800  -154796 
 -154793  -154792  -154789  -154795  -154801  -154793  -154795  -154809 
 -154804  -154793  -154799  -154797  -154791  -154795  -154800  -154793 
 -154789  -154797  -154797  -154792  -154800  -154801  -154795  -154796 
 -154796  -154795  -154797  -154797  -154796  -154800  -154801  -154799 
 -154797  -154797  -154800  -154803  -154796  -154795  -154799  -154805 
 -154808  -154801  -154799  -154803  -154808  -154807  -154799  -154797 
 -154799  -154797  -154797  -154799  -154797  -154801  -154808  -154807 
 -154800  -154797  -154799  -154805  -154808  -154805  -154804  -154804 
 -154808  -154807  -154801  -154805  -154809  -154808  -154807  -154804 
 -154803  -154801  -154801  -154804  -154801  -154800  -154804  -154804 
 -154803  -154807  -154801  -154792  -154795  -154799  -154797  -154797 
 -154799  -154800  -154800  -154803  -154801  -154796  -154800  -154803 
 -154803  -154797  -154795  -154800  -154804  -154805  -154805  -154800 
 -154803  -154809  -154804  -154803  -154807  -154804  -154804  -154805 
 -154801  -154803  -154804  -154799  -154804  -154809  -154804  -154808 
 -154813  -154805  -154803  -154805  -154805  -154803  -154803  -154808 
 -154805  -154801  -154808  -154803  -154795  -154801  -154800  -154797 
 -154804  -154805  -154805  -154805  -154801  -154803  -154808  -154804 
 -154803  -154805  -154808  -154808  -154807  -154801  -154801  -154805 
 -154803  -154797  -154800  -154804  -154801  -154799  -154801  -154800 
 -154799  -154803  -154800  -154797  -154805  -154800  -154795  -154801 
 -154804  -154800  -154800  -154803  -154805  -154804  -154803  -154804 
 -154801  -154803  -154805  -154801  -154801  -154809  -154815  -154805 
 -154797  -154807  -154811  -154808  -154805  -154805  -154811  -154811 
 -154811  -154815  -154807  -154804  -154811  -154809  -154801  -154796 
 -154800  -154803  -154801  -154801  -154807  -154805  -154801  -154803 
 -154803  -154800  -154803  -154804  -154797  -154800  -154807  -154800 
 -154800  -154805  -154796  -154793  -154805  -154808  -154807  -154811 
 -154811  -154809  -154811  -154809  -154811  -154813  -154809  -154807 
 -154807  -154809  -154816  -154811  -154803  -154809  -154813  -154812 
 -154809  -154807  -154808  -154812  -154812  -154808  -154804  -154808 
 -154803  -154793  -154801  -154807  -154797  -154800  -154803  -154800 
 -154799  -154797  -154797  -154804  -154807  -154804  -154807  -154803 
 -154797  -154805  -154809  -154808  -154807  -154805  -154803  -154801 
 -154803  -154808  -154807  -154801  -154807  -154803  -154795  -154803 
 -154805  -154797  -154803  -154807  -154801  -154803  -154801  -154796 
 -154801  -154808  -154804  -154800  -154804  -154808  -154805  -154800 
 -154799  -154803  -154805  -154811  -154816  -154808  -154800  -154809 
 -154813  -154807  -154803  -154795  -154797  -154819  -154819  -154797 
 -154800  -154811  -154811  -154813  -154805  -154797  -154804  -154804 
 -154799  -154801  -154804  -154803  -154804  -154805  -154809  -154811 
 -154805  -154807  -154807  -154803  -154807  -154811  -154804  -154800 
 -154807  -154804  -154793  -154797  -154804  -154804  -154804  -154803 
 -154804  -154811  -154808  -154803  -154804  -154803  -154801  -154809 
 -154809  -154804  -154805  -154807  -154805  -154807  -154805  -154804 
 -154804  -154803  -154804  -154803  -154803  -154809  -154812  -154808 
 -154807  -154809  -154809  -154805  -154807  -154808  -154807  -154815 
 -154812  -154799  -154803  -154803  -154800  -154807  -154807  -154807 
 -154809  -154804  -154805  -154809  -154799  -154797  -154807  -154804 
 -154800  -154803  -154803  -154804  -154804  -154804  -154812  -154809 
 -154799  -154803  -154805  -154800  -154804  -154805  -154801  -154804 
 -154801  -154796  -154803  -154803  -154799  -154801  -154803  -154804 
 -154805  -154797  -154799  -154805  -154801  -154796  -154800  -154805 
 -154803  -154800  -154800  -154800  -154796  -154795  -154799  -154803 
 -154797  -154799  -154805  -154800  -154800  -154805  -154803  -154799 
 -154799  -154800  -154804  -154807  -154809  -154809  -154809  -154807 
 -154803  -154803  -154804  -154800  -154801  -154809  -154797  -154788 
 -154803  -154809  -154797  -154807  -154811  -154796  -154803  -154819 
 -154813  -154803  -154803  -154811  -154812  -154805  -154804  -154804 
 -154805  -154807  -154796  -154778  -154773  -154762  -154726  -154685 
 -154645  -154610  -154584  -154562  -154546  -154543  -154545  -154535 
 -154514  -154489  -154453  -154403  -154367  -154353  -154360  -154394 
 -154430  -154442  -154411  -154302  -154118  -153922  -153783  -153746 
 -153819  -153974  -154120  -154147  -154024  -153770  -153459  -153214 
 -153131  -153235  -153463  -153705  -153852  -153825  -153625  -153345 
 -153137  -153161  -153499  -154090  -154758  -155224  -155289  -155020 
 -154656  -154426  -154469  -154788  -155294  -155839  -156244  -156412 
 -156390  -156379  -156648  -157238  -157894  -158330  -158384  -157974 
 -157134  -156084  -155187  -154707  -154606  -154738  -155115  -155703 
 -156199  -156246  -155802  -155123  -154452  -153891  -153496  -153338 
 -153424  -153586  -153496  -152847  -151649  -150460  -150076  -150936 
 -152821  -155040  -156898  -157987  -158163  -157590  -156784  -156281 
 -156377  -157084  -158059  -158720  -158715  -158201  -157689  -157821 
 -158863  -160301  -161411  -161831  -161443  -160350  -158927  -157654 
 -156959  -157030  -157562  -157882  -157582  -156799  -155999  -155619 
 -155698  -155923  -155995  -155621  -154511  -152759  -150965  -149791 
 -149546  -150114  -151191  -152498  -153612  -153908  -153058  -151471 
 -150029  -149399  -149635  -150448  -151395  -151904  -151687  -150905 
 -149844  -148907  -148722  -149719  -151711  -154017  -155861  -156613 
 -155875  -153856  -151455  -149666  -149054  -149632  -151035  -153002 
 -155490  -158120  -159962  -160069  -158322  -155772  -153821  -153073 
 -153401  -154624  -156478  -158349  -159511  -159564  -158591  -157189 
 -156315  -156550  -157515  -158476  -159043  -158874  -157650  -155622 
 -153422  -151677  -151056  -151865  -153655  -155607  -157002  -157408 
 -156905  -155999  -155164  -154641  -154442  -154441  -154541  -154674 
 -154608  -154109  -153252  -152361  -151846  -152074  -152940  -153860 
 -154508  -155109  -155825  -156266  -155991  -155223  -154664  -154701 
 -155025  -155008  -154391  -153497  -152782  -152535  -152803  -153335 
 -153814  -154121  -154218  -154136  -154105  -154438  -155162  -155931 
 -156362  -156388  -156163  -155841  -155505  -155127  -154677  -154406 
 -154506  -154645  -154568  -154685  -155290  -155896  -155995  -155717 
 -155441  -155362  -155433  -155386  -155063  -154657  -154392  -154337 
 -154483  -154647  -154557  -154228  -153866  -153453  -152942  -152676 
 -153022  -153858  -154793  -155536  -155896  -155810  -155430  -155021 
 -154676  -154356  -154101  -153913  -153743  -153704  -153859  -154075 
 -154360  -154853  -155428  -155772  -155748  -155430  -154973  -154642 
 -154672  -154984  -155333  -155569  -155719  -155939  -156263  -156498 
 -156474  -156173  -155650  -155023  -154514  -154264  -154271  -154603 
 -155164  -155470  -155218  -154664  -154213  -154155  -154684  -155623 
 -156477  -156880  -156641  -155758  -154769  -154369  -154584  -154890 
 -155013  -155127  -155320  -155343  -155047  -154629  -154444  -154718 
 -155235  -155451  -155106  -154411  -153669  -152996  -152412  -152131 
 -152459  -153310  -154217  -154769  -154811  -154431  -153874  -153350 
 -152994  -152917  -153083  -153331  -153586  -153867  -154191  -154519 
 -154845  -155171  -155324  -155117  -154684  -154311  -154248  -154514 
 -154723  -154661  -154658  -154893  -155129  -155224  -155208  -155169 
 -155275  -155625  -156150  -156780  -157447  -157995  -158253  -158080 
 -157523  -156837  -156217  -155854  -156055  -156760  -157331  -157183 
 -156339  -155337  -154691  -154417  -154210  -153971  -153901  -154087 
 -154228  -153943  -153376  -153134  -153474  -153968  -154143  -153999 
 -153711  -153122  -152139  -151266  -150985  -151287  -152122  -153223 
 -153955  -154226  -154448  -154620  -154661  -154812  -155193  -155754 
 -156429  -156874  -156609  -155590  -154367  -153557  -153362  -153650 
 -154132  -154506  -154689  -154791  -154896  -154963  -154963  -155081 
 -155507  -156111  -156551  -156654  -156540  -156419  -156408  -156489 
 -156508  -156401  -156286  -156189  -156039  -155796  -155453  -155167 
 -155067  -154988  -154920  -155139  -155611  -155981  -155961  -155529 
 -154889  -154287  -153928  -153798  -153642  -153377  -153202  -153199 
 -153229  -153253  -153432  -153793  -154122  -154203  -153970  -153553 
 -153193  -153080  -153341  -153886  -154315  -154408  -154292  -154072 
 -153941  -154137  -154458  -154669  -154997  -155464  -155641  -155457 
 -155244  -155101  -154981  -154878  -154809  -154961  -155402  -155908 
 -156281  -156421  -156296  -156038  -155799  -155567  -155286  -155115 
 -155160  -155189  -155088  -155047  -155143  -155283  -155254  -154828 
 -154321  -154251  -154433  -154498  -154506  -154421  -154178  -154075 
 -154218  -154307  -154283  -154402  -154719  -155019  -155125  -154981 
 -154576  -154018  -153600  -153578  -153859  -154037  -153918  -153874 
 -154248  -154699  -154696  -154427  -154581  -155331  -156300  -157117 
 -157412  -157068  -156459  -155796  -154947  -154072  -153565  -153588 
 -154028  -154597  -155040  -155351  -155652  -155900  -155877  -155703 
 -155784  -156045  -156006  -155525  -154820  -154211  -154070  -154340 
 -154477  -154435  -154572  -154743  -154676  -154480  -154421  -154761 
 -155455  -155980  -155942  -155517  -155158  -155120  -155318  -155537 
 -155638  -155563  -155283  -154788  -154095  -153382  -152938  -152856 
 -152860  -152649  -152398  -152528  -152953  -153188  -153252  -153643 
 -154244  -154294  -153628  -152917  -152702  -152996  -153611  -154353 
 -154984  -155371  -155588  -155645  -155557  -155611  -155941  -156246 
 -156393  -156543  -156593  -156404  -156269  -156359  -156377  -156174 
 -156001  -155904  -155621  -155187  -154994  -155191  -155433  -155345 
 -155048  -154816  -154619  -154419  -154230  -153955  -153651  -153445 
 -153362  -153505  -153792  -153935  -154022  -154309  -154638  -154724 
 -154485  -154079  -153805  -153693  -153543  -153439  -153553  -153825 
 -154207  -154657  -154997  -155100  -155050  -155127  -155463  -155699 
 -155509  -155139  -154827  -154467  -154171  -154245  -154742  -155547 
 -156392  -156813  -156683  -156435  -156311  -156073  -155698  -155547 
 -155825  -156290  -156573  -156647  -156716  -156766  -156643  -156348 
 -156043  -155758  -155375  -155071  -155043  -154954  -154603  -154246 
 -153859  -153345  -153049  -153161  -153550  -154116  -154568  -154585 
 -154307  -153978  -153635  -153369  -153319  -153454  -153625  -153731 
 -153797  -153956  -154268  -154562  -154672  -154656  -154535  -154257 
 -154070  -154315  -154762  -154915  -154944  -155213  -155445  -155399 
 -155279  -155247  -155352  -155540  -155553  -155294  -154947  -154673 
 -154504  -154481  -154606  -154730  -154708  -154607  -154583  -154696 
 -154901  -155082  -155155  -155008  -154557  -154086  -153944  -153967 
