Origin Time       2024/04/02 04:24:00
Lat.              40.133
Long.             141.712
Depth. (km)       71
Mag.              6.0
Station Code      AKTH14
Station Lat.      40.0622
Station Long.     140.8084
Station Height(m) 211.6
Record Time       2024/04/02 04:24:52
Sampling Freq(Hz) 100Hz
Duration Time(s)  151
Dir.              3
Scale Factor      2942(gal)/8224139
Max. Acc. (gal)   5.894
Last Correction   2024/04/02 04:24:52
Memo.             
[...]
  176031   176031   176026   176026   176031   176033   176033   176031 
  176030   176027   176025   176026   176029   176026   176029   176030 
  176027   176026   176025   176023   176026   176031   176029   176023 
  176027   176031   176026   176021   176022   176022   176021   176023 
  176026   176025   176023   176023   176023   176023   176023   176023 
  176026   176026   176026   176026   176023   176022   176022   176023 
  176025   176023   176017   176017   176021   176022   176021   176021 
  176022   176021   176018   176018   176018   176019   176019   176018 
  176021   176023   176021   176025   176027   176025   176023   176026 
  176027   176029   176029   176029   176025   176021   176018   176017 
  176017   176018   176017   176017   176017   176015   176015   176018 
  176023   176025   176021   176021   176023   176022   176019   176021 
  176022   176021   176022   176026   176027   176023   176023   176025 
  176026   176026   176022   176025   176029   176030   176029   176030 
  176030   176027   176026   176026   176025   176029   176033   176033 
  176030   176027   176026   176026   176027   176029   176027   176023 
  176021   176018   176018   176021   176022   176022   176023   176025 
  176021   176023   176026   176023   176023   176027   176025   176023 
  176023   176022   176026   176027   176022   176019   176025   176025 
  176021   176018   176021   176021   176019   176019   176021   176019 
  176018   176019   176021   176022   176021   176021   176023   176022 
  176021   176021   176019   176015   176014   176013   176014   176014 
  176015   176019   176026   176026   176025   176025   176023   176022 
  176022   176026   176030   176030   176029   176027   176027   176026 
  176027   176027   176026   176023   176022   176023   176025   176027 
  176030   176031   176029   176027   176029   176029   176027   176026 
  176027   176031   176031   176033   176033   176029   176026   176026 
  176027   176030   176031   176034   176034   176033   176033   176033 
  176033   176031   176031   176030   176030   176033   176035   176034 
  176033   176029   176029   176030   176030   176026   176025   176026 
  176029   176027   176029   176031   176033   176034   176033   176030 
  176031   176035   176034   176029   176029   176033   176031   176029 
  176030   176030   176030   176031   176031   176029   176029   176030 
  176031   176033   176033   176030   176029   176031   176030   176029 
  176030   176027   176027   176029   176027   176031   176040   176038 
  176035   176035   176037   176033   176033   176037   176037   176035 
  176034   176029   176026   176030   176031   176033   176033   176031 
  176029   176030   176031   176033   176034   176033   176033   176034 
  176033   176031   176033   176031   176027   176030   176037   176040 
  176038   176037   176035   176037   176040   176040   176041   176042 
  176041   176041   176042   176041   176038   176038   176038   176038 
  176041   176042   176041   176038   176034   176034   176035   176035 
  176035   176033   176027   176029   176031   176026   176026   176030 
  176026   176022   176026   176026   176022   176025   176026   176021 
  176018   176022   176025   176025   176025   176023   176023   176023 
  176021   176019   176021   176023   176021   176017   176017   176021 
  176021   176018   176023   176026   176023   176023   176026   176025 
  176025   176026   176029   176029   176027   176029   176030   176031 
  176031   176030   176030   176030   176029   176027   176029   176033 
  176034   176031   176030   176033   176035   176037   176033   176029 
  176029   176029   176029   176029   176027   176030   176030   176029 
  176029   176029   176027   176027   176027   176026   176027   176029 
  176027   176029   176031   176033   176033   176033   176029   176029 
  176034   176033   176027   176027   176029   176029   176031   176031 
  176029   176031   176034   176034   176034   176037   176037   176034 
  176030   176031   176033   176031   176031   176030   176030   176030 
  176030   176029   176029   176031   176031   176030   176029   176030 
  176034   176035   176037   176035   176033   176030   176030   176030 
  176033   176033   176033   176034   176034   176034   176034   176033 
  176031   176035   176037   176035   176033   176029   176029   176033 
  176034   176033   176040   176044   176038   176038   176041   176035 
  176031   176037   176040   176037   176031   176034   176038   176035 
  176034   176037   176037   176034   176031   176033   176031   176030 
  176034   176033   176027   176029   176031   176029   176025   176025 
  176027   176030   176029   176025   176023   176027   176033   176034 
  176031   176030   176031   176030   176027   176027   176029   176026 
  176025   176026   176027   176030   176027   176025   176026   176029 
  176027   176027   176029   176030   176029   176031   176035   176037 
  176037   176037   176034   176034   176034   176034   176034   176037 
  176040   176037   176033   176034   176037   176034   176030   176034 
  176037   176035   176033   176031   176033   176033   176030   176033 
  176031   176029   176029   176027   176027   176030   176031   176030 
  176029   176030   176031   176031   176031   176034   176033   176031 
  176031   176031   176033   176035   176033   176033   176033   176030 
  176031   176033   176030   176031   176033   176030   176031   176035 
  176037   176033   176030   176033   176033   176033   176031   176031 
  176033   176033   176027   176027   176031   176033   176029   176025 
  176025   176025   176022   176021   176023   176026   176026   176025 
  176023   176022   176022   176023   176023   176023   176022   176022 
  176022   176019   176017   176021   176022   176019   176019   176022 
  176022   176021   176022   176025   176027   176026   176025   176023 
  176021   176023   176023   176021   176023   176025   176022   176022 
  176026   176026   176025   176027   176027   176023   176022   176025 
  176021   176018   176019   176021   176021   176023   176026   176025 
  176022   176022   176025   176023   176018   176017   176021   176023 
  176022   176021   176021   176022   176021   176021   176022   176022 
  176025   176023   176018   176018   176022   176022   176022   176021 
  176019   176022   176026   176025   176019   176018   176021   176023 
  176022   176022   176023   176023   176023   176026   176023   176022 
  176026   176027   176025   176025   176025   176022   176026   176029 
  176027   176026   176026   176029   176029   176027   176027   176030 
  176029   176027   176029   176029   176029   176029   176026   176023 
  176027   176031   176026   176021   176021   176021   176023   176023 
  176022   176021   176021   176023   176025   176023   176023   176025 
  176023   176022   176025   176022   176019   176019   176019   176022 
  176026   176022   176019   176022   176023   176022   176021   176021 
  176021   176022   176023   176022   176021   176021   176023   176025 
  176023   176021   176019   176022   176023   176025   176025   176022 
  176022   176022   176023   176029   176029   176022   176019   176019 
  176017   176015   176017   176019   176022   176018   176017   176022 
  176023   176017   176015   176018   176017   176017   176018   176019 
  176021   176021   176019   176018   176019   176017   176014   176019 
  176021   176013   176015   176023   176017   176011   176015   176015 
  176014   176014   176017   176019   176021   176019   176018   176018 
  176014   176013   176015   176019   176019   176017   176014   176014 
  176014   176014   176017   176019   176019   176015   176014   176017 
  176017   176018   176018   176018   176018   176018   176021   176025 
  176023   176019   176021   176021   176021   176022   176022   176018 
  176019   176021   176019   176017   176015   176014   176017   176017 
  176018   176021   176021   176018   176018   176019   176025   176026 
  176022   176019   176022   176023   176023   176021   176021   176022 
  176019   176019   176022   176025   176023   176021   176022   176023 
  176019   176017   176015   176015   176018   176018   176018   176019 
  176021   176015   176014   176015   176018   176017   176017   176017 
  176019   176021   176021   176021   176018   176015   176014   176017 
  176017   176015   176017   176021   176021   176019   176021   176021 
  176018   176018   176017   176017   176021   176022   176022   176025 
  176025   176025   176022   176018   176019   176019   176017   176015 
  176014   176015   176017   176019   176022   176021   176019   176025 
  176026   176022   176021   176023   176021   176017   176017   176017 
  176018   176017   176019   176022   176021   176025   176029   176025 
  176022   176025   176025   176021   176015   176015   176019   176019 
  176017   176019   176018   176014   176013   176014   176014   176015 
  176017   176017   176014   176011   176010   176011   176014   176017 
  176017   176011   176007   176010   176011   176008   176010   176013 
  176011   176014   176013   176010   176015   176019   176015   176014 
  176014   176011   176013   176013   176011   176011   176011   176008 
  176008   176007   176004   176003   176006   176007   176007   176011 
  176013   176007   176003   176006   176007   176008   176010   176013 
  176014   176013   176007   176004   176008   176008   176006   176008 
  176013   176013   176014   176015   176017   176017   176018   176019 
  176013   176008   176011   176013   176010   176011   176013   176011 
  176013   176015   176013   176013   176013   176011   176013   176014 
  176011   176011   176015   176013   176010   176013   176013   176011 
  176013   176013   176011   176013   176014   176014   176015   176015 
  176014   176014   176015   176018   176017   176014   176013   176015 
  176017   176017   176018   176017   176015   176013   176011   176013 
  176014   176013   176014   176015   176011   176006   176008   176013 
  176013   176010   176010   176013   176013   176010   176010   176008 
  176008   176011   176013   176015   176017   176010   176008   176014 
  176010   176003   176004   176007   176007   176008   176013   176014 
  176013   176014   176014   176010   176014   176017   176013   176010 
  176011   176015   176017   176015   176017   176014   176013   176018 
  176017   176013   176015   176017   176013   176011   176011   176014 
  176015   176015   176017   176015   176011   176014   176021   176018 
  176017   176021   176021   176017   176017   176017   176018   176018 
  176014   176014   176017   176017   176014   176015   176019   176023 
  176022   176018   176019   176021   176019   176015   176015   176017 
  176017   176019   176018   176015   176015   176015   176014   176017 
  176017   176015   176017   176018   176014   176014   176018   176017 
  176013   176013   176014   176013   176017   176019   176017   176015 
  176015   176010   176010   176014   176013   176008   176011   176015 
  176015   176014   176014   176013   176017   176019   176018   176017 
  176019   176018   176017   176015   176018   176017   176015   176015 
  176017   176019   176019   176019   176017   176017   176017   176015 
  176013   176014   176017   176015   176011   176014   176017   176013 
  176008   176010   176015   176017   176014   176015   176017   176017 
  176014   176013   176013   176015   176017   176015   176017   176017 
  176017   176018   176018   176014   176014   176017   176015   176010 
  176011   176013   176013   176014   176015   176014   176011   176010 
  176008   176006   176004   176008   176008   176010   176014   176014 
  176007   176008   176014   176014   176013   176014   176013   176014 
  176014   176015   176017   176018   176018   176017   176017   176018 
  176015   176014   176017   176015   176014   176015   176015   176015 
  176015   176017   176017   176014   176017   176018   176017   176017 
  176018   176017   176017   176017   176015   176018   176021   176021 
  176021   176027   176037   176054   176096   176172   176291   176472 
  176716   177009   177326   177622   177843   177951   177931   177796 
  177585   177349   177132   176966   176852   176775   176708   176628 
  176526   176413   176328   176320   176403   176555   176746   176913 
  177010   177056   177059   176971   176906   177192   177950   178938 
  179874   180469   180532   180183   179481   178263   176747   175807 
  175936   176357   176327   176238   176274   175659   174037   172268 
  171289   170969   170942   171454   172185   171890   170253   168967 
  169793   172062   173546   173553   173470   174198   174911   175271 
  176517   178911   180684   180901   180819   181172   181143   180451 
  179874   180457   182393   184246   185434   186570   185912   181430 
  175933   174430   177365   180812   182247   181620   178580   173111 
  167514   165163   166735   168837   168727   167632   166641   165049 
  164049   165708   169445   173059   174463   172563   168998   166538 
  165844   167000   170247   173348   173558   170827   166838   164018 
  164177   167005   171382   176409   179671   177560   171232   167429 
  168883   172107   175626   180303   184023   183880   180859   178205 
  177014   177172   179957   184461   186810   186669   186977   187984 
  188360   188469   188878   189525   190232   189309   184805   178204 
  172243   167208   164135   166545   174094   179878   178919   173997 
  168652   162897   159544   163865   174371   182653   182981   176883 
  169591   165389   165199   167819   172746   178461   181623   181660 
  180081   177387   175502   176234   178988   183681   188491   189099 
  185769   182020   177631   172573   170865   173985   178830   182565 
  183818   182799   181016   178298   173917   170649   171402   175032 
  179930   184187   184208   179613   172629   165526   163578   170116 
  179042   182559   181337   178758   174101   168754   167609   171317 
  176243   179355   179483   177013   173425   170827   169978   170013 
  171536   175163   178841   180557   179595   175643   169712   164886 
  165349   171348   176843   178143   177612   176617   175306   175184 
  177242   182027   187358   188496   185646   182290   178202   174183 
  174131   176497   176099   173376   171726   170637   168913   169477 
  173635   176832   175764   172336   170371   172525   177637   182397 
  184994   184755   182233   178482   174613   174231   178285   180958 
  179590   178455   179240   179193   177635   176418   176197   176088 
  175269   174850   176376   177476   175595   173126   172204   172255 
  173140   174387   175400   175861   174679   171977   169272   168174 
  169965   173383   176154   178883   182001   181975   176909   171112 
  169098   170721   173307   175281   177425   179887   180495   178023 
  174981   174780   176739   177711   176940   175937   174893   172207 
  169530   171058   175666   178198   176648   173114   170833   170401 
  171078   174055   178129   179776   179622   179423   178102   176439 
  177322   180411   182939   184106   184677   184374   182146   178453 
  175527   174457   174569   175726   177303   177269   175479   173446 
  171572   170256   170077   170872   172639   174468   174862   174424 
  174474   174383   172903   171289   171930   174267   176446   178059 
  179315   180526   181072   179914   177678   175612   174876   176463 
  179003   179942   179001   177734   176952   175686   173835   173470 
  174957   176966   179200   180692   180357   178638   176574   176176 
  177792   178302   177048   176952   177894   176935   174372   172778 
  171674   170028   170314   173489   176566   178067   179290   180743 
  180814   178406   175189   173745   174877   176940   177776   177024 
  175316   173495   172527   172241   172466   174094   176500   177087 
  174788   172080   171846   173394   174897   176544   178005   178434 
  178686   179043   178538   177195   176300   176663   176979   176998 
  178864   181255   181016   179317   178303   178206   178933   179181 
  177907   176257   174895   173600   172567   171521   171124   172174 
  172606   171849   172473   174370   175551   175890   176126   176430 
  176038   175302   175941   177425   177538   175640   173545   173348 
  174144   174387   174825   175552   175541   174893   174586   175504 
  177044   177664   177261   176490   175748   175927   177276   178717 
  179451   179285   178445   177849   177934   178044   177639   176993 
  176623   176616   176392   175737   175926   177515   178248   176326 
  173874   173614   174507   174518   174136   174195   174062   173187 
  172400   172956   174301   174569   173438   172338   172098   171918 
  171688   172312   172656   171838   171738   172968   173975   174222 
  174461   175381   176548   176914   177020   178079   179288   179302 
  178483   177984   178271   178703   178835   179247   179902   179833 
  178962   178467   179100   179856   179444   178245   177419   177298 
  177302   177142   177557   178548   178610   177496   176403   175653 
  175691   176724   177236   176979   177018   177029   177349   178313 
  177755   175489   174506   175204   175655   175563   175278   174613 
  173979   173761   173677   174177   175500   176355   175965   174734 
  173487   173439   174835   176520   177601   177817   177232   176597 
  176659   177147   177280   177057   177402   178229   178170   177390 
  177277   177728   177939   178345   179435   179782   178136   176100 
  175254   174835   174156   173580   173290   172878   172031   171312 
  171374   171756   171393   170171   169173   169204   170253   171795 
  173121   174366   175711   175975   174807   174154   175054   176118 
  176408   176584   177133   177924   178648   179055   179413   179953 
  180615   181344   181526   181028   180416   179066   177080   176142 
  176311   176557   176342   175636   175284   175462   175541   175671 
  175880   175710   175215   174704   174499   174928   175493   175186 
  174594   175016   175699   175748   175795   175564   174853   174989 
  175824   176015   176046   176615   176782   175756   174247   173935 
  175290   176453   176196   175432   174734   173796   173157   173889 
  175730   177394   178249   178453   178294   177889   177336   177024 
  177223   177627   177635   177426   177796   178363   178150   177345 
  176713   176181   174978   173759   174013   175236   176084   176138 
  175581   174846   173896   173014   173691   176098   177986   178152 
  177809   177539   176720   175988   176503   177858   178853   178733 
  177907   177388   176967   176200   175927   176299   176126   175358 
  175103   175265   175382   176303   177840   177827   175751   173857 
  173504   174016   174933   176079   177071   177469   176675   175590 
  175504   175243   174147   173959   174896   175356   175170   175069 
  175027   174679   174360   174957   176152   176787   176898   176943 
  176937   177094   177167   176748   176547   176985   177209   176712 
  175998   175841   176148   175926   175452   175811   176418   176389 
  176058   176042   176413   176215   175458   175506   176111   176366 
  176134   175474   175169   175220   174780   174411   174769   175239 
  175085   174291   173767   174445   175867   176632   176130   175173 
