Origin Time       2024/04/02 04:24:00
Lat.              40.133
Long.             141.712
Depth. (km)       71
Mag.              6.0
Station Code      AKTH06
Station Lat.      38.9801
Station Long.     140.4952
Station Height(m) 285
Record Time       2024/04/02 04:25:03
Sampling Freq(Hz) 100Hz
Duration Time(s)  139
Dir.              5
Scale Factor      7845(gal)/8223790
Max. Acc. (gal)   3.607
Last Correction   2024/04/02 04:25:03
Memo.             
[...]
    7577     7515     7311     6998     6720     6594     6586     6747 
    7087     7349     7410     7411     7415     7429     7495     7562 
    7568     7520     7458     7466     7533     7527     7457     7353 
    7223     7182     7230     7284     7419     7597     7641     7581 
    7533     7485     7411     7321     7241     7200     7188     7188 
    7204     7292     7488     7668     7705     7639     7592     7676 
    7917     8195     8317     8202     7962     7742     7599     7597 
    7703     7732     7638     7547     7568     7677     7713     7570 
    7388     7331     7383     7454     7464     7395     7358     7416 
    7565     7782     7901     7819     7689     7582     7488     7483 
    7503     7419     7325     7339     7439     7609     7790     7812 
    7599     7287     7113     7202     7472     7715     7757     7588 
    7365     7231     7210     7195     7110     7044     7061     7137 
    7254     7311     7196     7052     7101     7327     7557     7665 
    7578     7310     6988     6768     6736     6918     7284     7707 
    8037     8198     8133     7870     7573     7327     7091     6868 
    6718     6663     6712     6874     7088     7310     7568     7796 
    7913     7982     7993     7821     7519     7260     7096     7018 
    7001     6912     6666     6448     6486     6806     7272     7657 
    7823     7874     7939     7985     7997     8006     7979     7855 
    7649     7454     7350     7318     7306     7318     7395     7470 
    7365     7064     6767     6609     6628     6797     6995     7118 
    7191     7315     7534     7807     8019     7994     7668     7204 
    6826     6662     6702     6855     7055     7275     7483     7680 
    7855     7958     7935     7793     7605     7441     7298     7148 
    7040     7052     7128     7218     7342     7465     7593     7755 
    7873     7885     7827     7734     7627     7527     7452     7420 
    7460     7547     7607     7605     7560     7466     7392     7418 
    7487     7537     7565     7492     7307     7179     7223     7395 
    7593     7680     7607     7500     7474     7539     7677     7790 
    7792     7742     7674     7503     7264     7163     7292     7526 
    7650     7541     7326     7260     7398     7570     7614     7542 
    7454     7398     7416     7518     7600     7605     7562     7501 
    7434     7377     7350     7317     7222     7105     7005     6886 
    6758     6685     6744     7029     7504     7956     8224     8245 
    8008     7676     7487     7442     7387     7261     7090     6980 
    7068     7280     7384     7284     7090     7001     7142     7434 
    7597     7464     7218     7138     7275     7534     7763     7855 
    7866     7830     7705     7533     7357     7167     7045     7064 
    7146     7233     7366     7527     7651     7720     7746     7789 
    7882     7879     7681     7447     7364     7477     7672     7715 
    7539     7260     6999     6879     6940     7074     7169     7173 
    7110     7064     7128     7338     7673     8060     8329     8303 
    8039     7724     7399     7053     6778     6605     6507     6489 
    6540     6728     7152     7666     8014     8105     7962     7699 
    7472     7321     7200     7091     6941     6748     6650     6732 
    6907     7075     7227     7383     7524     7665     7832     7966 
    8025     8040     7973     7788     7545     7352     7252     7207 
    7207     7308     7503     7735     7932     7998     7943     7858 
    7836     7908     7966     7905     7728     7479     7227     7048 
    6966     6988     7092     7211     7272     7276     7307     7441 
    7618     7754     7869     7947     7884     7693     7474     7285 
    7187     7195     7227     7225     7145     7003     6951     7091 
    7369     7669     7905     8046     8082     7960     7692     7356 
    7015     6805     6797     6864     6871     6816     6766     6778 
    6864     7037     7264     7501     7734     7921     8037     8075 
    8014     7944     7924     7846     7639     7349     7020     6729 
    6635     6802     7047     7183     7236     7244     7238     7299 
    7431     7592     7757     7840     7728     7441     7134     6952 
    6943     7017     7042     7074     7218     7425     7651     7882 
    8025     7997     7835     7680     7592     7520     7460     7485 
    7619     7788     7927     8008     7973     7796     7592     7461 
    7356     7194     6980     6745     6556     6544     6764     7136 
    7523     7813     7933     7900     7790     7638     7435     7248 
    7126     7015     6872     6731     6642     6685     6887     7126 
    7327     7514     7658     7751     7842     7925     7997     8056 
    8029     7848     7595     7388     7226     7123     7071     6955 
    6806     6771     6898     7163     7403     7456     7474     7611 
    7765     7882     7969     7974     7923     7886     7832     7676 
    7404     7114     6984     7109     7362     7572     7676     7662 
    7587     7539     7511     7469     7458     7496     7506     7468 
    7430     7389     7377     7466     7600     7647     7565     7407 
    7268     7149     7018     6924     6921     7030     7250     7485 
    7597     7539     7356     7164     7109     7236     7483     7774 
    8020     8071     7916     7747     7661     7619     7622     7618 
    7542     7414     7314     7325     7380     7352     7269     7236 
    7269     7368     7506     7561     7442     7221     7001     6836 
    6790     6871     7032     7276     7564     7750     7803     7817 
    7811     7786     7804     7821     7757     7612     7412     7184 
    6995     6913     6917     6948     6998     7056     7088     7145 
    7265     7373     7411     7398     7331     7248     7267     7387 
    7504     7623     7758     7812     7724     7562     7377     7195 
    7132     7214     7306     7362     7425     7468     7497     7551 
    7618     7670     7707     7726     7708     7672     7717     7842 
    7840     7587     7165     6740     6504     6558     6831     7152 
    7322     7292     7192     7157     7280     7578     7933     8213 
    8359     8352     8160     7801     7433     7218     7187     7237 
    7225     7096     6887     6686     6648     6862     7233     7599 
    7796     7781     7672     7584     7533     7497     7493     7489 
    7465     7514     7623     7666     7672     7690     7690     7696 
    7689     7626     7592     7622     7592     7426     7183     6956 
    6829     6856     6983     7083     7117     7165     7294     7484 
    7639     7618     7385     7107     6991     7076     7271     7443 
    7461     7360     7318     7376     7446     7453     7383     7354 
    7441     7538     7591     7609     7550     7427     7352     7411 
    7587     7751     7801     7723     7541     7337     7240     7249 
    7218     7106     7040     7118     7337     7642     7944     8133 
    8116     7905     7646     7453     7335     7254     7155     6975 
    6779     6747     6928     7204     7497     7751     7867     7885 
    7929     7969     7908     7793     7673     7526     7396     7319 
    7211     7091     7063     7106     7191     7295     7334     7306 
    7229     7128     7133     7267     7384     7427     7414     7373 
    7391     7512     7688     7848     7952     7990     7962     7862 
    7759     7707     7665     7627     7553     7319     7010     6837 
    6856     7022     7183     7191     7167     7267     7434     7582 
    7636     7518     7315     7183     7134     7136     7217     7388 
    7538     7551     7477     7375     7273     7280     7384     7383 
    7203     6980     6870     6963     7218     7487     7635     7619 
    7512     7410     7348     7311     7253     7176     7171     7233 
    7225     7146     7114     7169     7323     7531     7681     7723 
    7689     7651     7712     7911     8101     8086     7874     7570 
    7248     7059     7084     7167     7152     7030     6845     6767 
    6983     7412     7821     8089     8178     8155     8112     8032 
    7928     7854     7749     7577     7416     7275     7134     7087 
    7171     7323     7477     7584     7642     7651     7549     7358 
    7248     7350     7582     7784     7911     7908     7750     7618 
    7634     7661     7592     7457     7238     6949     6690     6547 
    6579     6770     6968     7055     7076     7190     7458     7773 
    8008     8101     8032     7879     7735     7591     7454     7335 
    7177     7017     6910     6832     6822     6940     7123     7333 
    7568     7754     7805     7751     7653     7514     7327     7094 
    6870     6777     6845     7018     7226     7362     7380     7366 
    7391     7434     7458     7480     7558     7700     7835     7921 
    7971     7990     7962     7928     7913     7796     7518     7226 
    7042     6956     6929     6920     6905     6917     7022     7267 
    7585     7836     7966     7982     7884     7734     7630     7577 
    7519     7484     7528     7592     7535     7345     7168     7109 
    7168     7326     7483     7504     7372     7180     7063     7099 
    7226     7307     7317     7296     7237     7138     7057     7056 
    7186     7395     7526     7457     7192     6914     6852     7051 
    7408     7782     7970     7913     7784     7726     7765     7850 
    7877     7796     7649     7569     7624     7642     7500     7330 
    7222     7172     7137     7022     6870     6839     6947     7153 
    7414     7564     7501     7433     7547     7778     8027     8160 
    7960     7499     7136     7084     7302     7558     7615     7439 
    7182     7013     6988     7047     7175     7393     7605     7676 
    7635     7566     7427     7242     7165     7298     7605     7867 
    7873     7692     7493     7369     7339     7292     7156     7013 
    6922     6959     7179     7410     7468     7384     7246     7149 
    7195     7366     7573     7777     7977     8127     8108     7871 
    7533     7203     6933     6801     6809     6813     6731     6617 
    6588     6763     7146     7599     7955     8077     8002     7896 
    7778     7632     7511     7418     7344     7306     7265     7177 
    7094     7103     7204     7299     7354     7396     7450     7550 
    7695     7812     7886     7965     8058     8160     8263     8290 
    8162     7919     7618     7244     6828     6504     6377     6465 
    6739     7121     7495     7792     8021     8176     8262     8334 
    8332     8131     7865     7744     7696     7597     7485     7345 
    7123     6894     6741     6697     6766     6878     6961     7002 
    6982     6955     7029     7175     7284     7425     7668     7866 
    7925     7882     7732     7542     7443     7453     7501     7506 
    7426     7283     7148     7121     7229     7396     7541     7576 
    7446     7260     7177     7200     7237     7200     7053     6836 
    6571     6336     6268     6331     6408     6532     6778     7049 
    7246     7462     7801     8226     8669     8989     9054     8941 
    8727     8356     7877     7368     6824     6361     6081     5913 
    5848     5957     6192     6507     6922     7337     7603     7743 
    7803     7794     7820     7896     7924     7870     7731     7514 
    7339     7348     7499     7673     7842     7981     8010     7942 
    7869     7811     7759     7776     7866     7920     7863     7677 
    7361     7056     6940     6988     7025     6948     6778     6610 
    6531     6543     6583     6593     6602     6667     6825     7125 
    7523     7858     8073     8206     8286     8374     8445     8353 
    8085     7727     7326     7017     6903     6822     6709     6729 
    6876     7048     7271     7472     7570     7665     7808     7967 
    8154     8249     8139     7974     7929     7989     8116     8303 
    8469     8529     8545     8631     8807     9050     9258     9271 
    9111     8950     8860     8694     8283     7713     7207     6925 
    6907     6952     6774     6376     6019     5876     5921     6072 
    6200     6165     6033     5958     5975     6103     6323     6516 
    6678     6872     7055     7165     7160     7020     6825     6723 
    6785     6918     6971     6893     6724     6538     6446     6424 
    6326     6150     6011     5933     5895     5907     5954     6023 
    6153     6399     6744     7086     7299     7384     7497     7738 
    8001     8189     8352     8499     8573     8604     8649     8677 
    8631     8498     8334     8236     8243     8291     8244     8047 
    7792     7601     7566     7651     7738     7815     7923     8087 
    8302     8463     8473     8330     8066     7767     7539     7364 
    7150     6891     6655     6496     6436     6435     6427     6451 
    6559     6725     6940     7192     7434     7600     7641     7582 
    7493     7425     7333     7168     7011     6959     7006     7163 
    7434     7776     8141     8467     8750     9043     9301     9510 
    9713     9782     9618     9325     8974     8573     8155     7692 
    7179     6772     6625     6762     7126     7623     8125     8600 
    9080     9491     9745     9873     9921     9882     9736     9448 
    8981     8305     7438     6505     5655     4947     4372     3908 
    3635     3711     4191     4957     5803     6593     7365     8221 
    9078     9690     9954     9944     9734     9370     8780     7946 
    7094     6385     5769     5312     5038     4797     4612     4637 
    4926     5470     6154     6820     7442     7990     8343     8526 
    8648     8729     8784     8791     8660     8392     8109     7906 
    7788     7677     7507     7303     7114     6966     6871     6817 
    6812     6909     7155     7516     7857     8100     8334     8576 
    8753     8823     8684     8326     7919     7511     7047     6590 
    6176     5765     5395     5121     4931     4766     4591     4469 
    4488     4660     5020     5567     6100     6420     6594     6764 
    6934     7126     7379     7614     7759     7781     7620     7341 
    7173     7344     7920     8780     9687    10349    10552    10342 
    9922     9475     9178     9073     8964     8706     8328     7863 
    7379     6953     6548     6212     6076     6075     6089     6083 
    5958     5775     5805     6111     6544     6999     7365     7588 
    7762     7909     7924     7840     7801     7904     8191     8607 
    8980     9132     9030     8748     8276     7628     6966     6413 
    6031     5853     5790     5744     5799     6076     6585     7275 
    8064     8789     9290     9513     9495     9294     8899     8282 
    7557     6933     6573     6539     6750     6987     7064     6902 
    6524     6102     5856     5925     6300     6791     7227     7624 
    8014     8306     8352     8135     7846     7655     7587     7605 
    7601     7404     7042     6787     6829     7059     7284     7441 
    7479     7373     7223     7110     6990     6797     6555     6436 
    6625     7138     7859     8594     9093     9252     9219     9157 
    9047     8811     8467     8082     7736     7474     7248     7020 
    6909     7088     7585     8156     8428     8182     7443     6469 
    5643     5182     5028     5008     5012     5121     5528     6255 
    7102     7820     8229     8318     8248     8136     7942     7627 
    7294     7123     7207     7515     7862     7962     7789     7622 
    7614     7744     7955     8033     7838     7481     7033     6492 
    6061     5968     6231     6782     7487     8140     8680     9174 
    9570     9755     9763     9709     9580     9348     9107     8868 
    8581     8349     8257     8298     8486     8738     8858     8807 
    8661     8409     8116     7920     7797     7750     7923     8243 
    8468     8480     8213     7650     6943     6307     5880     5672 
    5610     5637     5741     5922     6126     6269     6369     6575 
    6961     7354     7572     7650     7630     7487     7304     7071 
    6578     5818     5074     4604     4483     4583     4787     5167 
    5790     6583     7449     8244     8787     8951     8784     8484 
    8144     7734     7372     7107     6760     6269     5780     5449 
    5375     5574     5969     6494     7107     7730     8263     8615 
    8743     8638     8324     7901     7454     7006     6598     6274 
    6029     5868     5860     6037     6362     6770     7192     7607 
    8009     8302     8353     8135     7767     7443     7261     7188 
    7183     7215     7245     7246     7229     7245     7344     7516 
    7778     8128     8476     8785     9085     9292     9356     9369 
    9317     9099     8699     8217     7809     7593     7558     7609 
    7574     7315     6902     6538     6450     6809     7493     8162 
    8633     8849     8843     8905     9285     9802    10103     9975 
    9323     8305     7350     6758     6505     6426     6381     6380 
    6555     6867     7065     7095     7040     6951     6991     7244 
    7512     7670     7777     7919     8206     8625     8938     8924 
    8569     8035     7560     7310     7288     7277     7056     6704 
    6401     6204     6137     6153     6176     6226     6322     6469 
    6698     6940     7049     7009     6894     6721     6551     6477 
    6462     6427     6365     6222     5977     5764     5638     5576 
    5594     5659     5757     5977     6380     6874     7295     7520 
    7503     7356     7284     7344     7481     7678     7911     8132 
    8268     8189     7875     7520     7287     7200     7226     7246 
    7238     7364     7643     7904     8095     8291     8499     8723 
    8965     9113     9065     8905     8750     8549     8270     8051 
    7977     7989     8027     8017     7908     7825     7960     8268 
    8487     8428     8195     8058     8116     8206     8081     7641 
    7060     6617     6443     6428     6451     6529     6696     6928 
    7156     7226     7029     6635     6281     6189     6373     6720 
    7109     7402     7612     7927     8367     8702     8727     8374 
    7735     7074     6620     6396     6313     6278     6192     6077 
    6083     6245     6443     6593     6701     6813     6966     7150 
    7296     7344     7326     7272     7184     7125     7074     6974 
    6920     6963     7010     7047     7161     7458     7989     8599 
    9011     9170     9215     9157     8928     8517     7928     7287 
    6798     6536     6488     6615     6809     7032     7317     7628 
    7967     8329     8619     8799     8881     8901     8945     8973 
    8889     8737     8498     8104     7673     7318     7034     6817 
    6639     6516     6504     6593     6806     7213     7654     7863 
    7839     7782     7843     8020     8152     8094     7796     7250 
    6573     5973     5555     5344     5412     5764     6200     6504 
    6682     6882     7182     7577     8046     8463     8598     8375 
    7952     7480     7033     6762     6766     6899     6959     6949 
    6940     6890     6789     6667     6543     6528     6704     6925 
