Origin Time       2024/04/02 04:24:00
Lat.              40.133
Long.             141.712
Depth. (km)       71
Mag.              6.0
Station Code      AKTH04
Station Lat.      39.1740
Station Long.     140.7129
Station Height(m) 280
Record Time       2024/04/02 04:24:59
Sampling Freq(Hz) 100Hz
Duration Time(s)  139
Dir.              4
Scale Factor      3920(gal)/6170801
Max. Acc. (gal)   20.922
Last Correction   2024/04/02 04:24:44
Memo.             
[...]
   13862    14429    13413    11928    10878     9859     8950     9458 
   11557    13474    13928    13443    12988    13055    13822    14992 
   15976    16201    15160    13144    11268    10185    10064    10977 
   12008    11795    10632     9997    10159    10206    10025    10567 
   12202    14294    16412    18314    19294    18824    16801    13242 
    8703     4692     3239     5135     8892    12290    13997    13726 
   12060    10290     9855    11337    14038    16709    18380    18461 
   16538    13118    10055     8850     9275    10216    10915    11223 
   11308    11700    12924    14733    16277    16428    14547    11835 
   10130     9941    11058    12983    14666    15238    14416    12629 
   10861     9386     7649     6008     6279     9728    15091    19613 
   21648    21153    18427    13959     9208     6211     6184     8786 
   12021    13149    11064     7486     5215     5563     8056    12266 
   17747    22327    23411    20487    14984     9197     5349     4426 
    6028     9102    12326    14426    14871    13982    12333    10810 
   10570    11940    13922    15004    14477    13265    12674    12517 
   11809    10403     9081     8687     9457    11228    13583    15696 
   16938    16978    15573    13240    11227    10399    10440    10572 
   10817    11528    12534    13601    14491    14488    13065    10901 
    9446     9542    11065    13516    16056    17348    16405    13629 
   10497     8492     8444    10059    12034    13147    13120    12691 
   12737    13064    12867    12295    12191    12430    12218    12174 
   13578    15272    14731    11792     8710     7742     9514    12797 
   15802    17118    15699    11868     7928     6332     7715    10875 
   13954    15437    14418    11369     8524     7701     8558     9947 
   11344    12586    13598    14717    16342    18005    18650    17743 
   15435    12148     8694     6379     6198     7952    10638    13290 
   15009    15245    14444    13677    13684    14369    14821    14168 
   12637    11032     9722     9130     9879    11571    12698    12325 
   11049     9861     9230     9751    11796    14290    15904    16745 
   17047    16145    14020    11795    10446    10088     9943     9374 
    9289    10933    13589    15424    15699    14890    13688    12588 
   12054    12206    12283    11337     9473     8043     8630    11206 
   13818    14769    14057    12509    10914    10235    11544    14982 
   18766    19827    16343     9694     3505     1243     4052     9752 
   14924    17813    18042    15621    11823     9216     9667    12697 
   15983    17426    16853    15599    14540    13774    13508    13495 
   12982    11687     9918     8644     8993    10875    12834    13143 
   11316     8800     7306     7194     8314    10756    13844    15887 
   15835    14486    13463    13301    13604    14320    15047    14572 
   12425     9471     7221     6859     8023     9516    11119    12915 
   13927    13347    12141    11874    12509    13030    13702    15208 
   16496    16345    15292    14251    13458    12998    12775    12495 
   11882    10690     9229     8448     9047    10970    13253    14246 
   12954    10066     7602     7460     9734    13003    15932    17520 
   17058    14888    12207    10183     9632    10674    12651    14713 
   15957    15468    13184    10237     7930     6906     7547    10002 
   13250    15435    15778    15169    14500    13657    12781    12766 
   13865    15191    15533    14294    12064    10017     9004     9403 
   10858    12242    12634    11987    10918    10166     9964    10037 
   10176    10578    11544    12796    13610    13882    14073    14040 
   13258    12065    11635    12854    15364    17533    17599    15131 
   11431     8246     6420     6143     7363     9492    11748    13621 
   14828    15563    16066    15822    14404    12393    10597     9318 
    8806     9517    11405    13574    14822    14481    13077    11755 
   11193    11775    13679    16154    17750    17524    15378    11796 
    7971     5340     4784     6324     8838    10893    12031    12457 
   12502    12516    12632    12964    13489    13814    13913    13946 
   13339    12017    11241    11660    12473    12942    13455    14951 
   17128    18278    17684    16262    14488    12016     9317     7654 
    7678     9065    10738    11470    11178    10515     9443     8222 
    8133     9670    12025    14438    16540    17781    17835    17291 
   16446    14595    12091    10585    10601    11405    12292    12480 
   11362     9638     8909     9578    10584    11281    11787    12149 
   12130    11610    11525    13117    15559    16334    14498    11811 
   10318    10686    12599    14975    16532    16489    14436    10880 
    7522     5812     5948     7276     8950    10545    12228    14204 
   16056    16866    16199    14429    11982     9644     9230    11895 
   16324    19579    19155    15020     9972     7032     7153     9460 
   12216    13830    13730    12233    10442    10134    12063    14699 
   15755    14215    10841     7602     6446     8061    11331    14039 
   14652    13214    10948     9773    11059    14072    16578    17151 
   16175    14614    13051    12066    11987    12428    12692    12141 
   10712     9309     8979     9885    11338    12473    12830    12452 
   11630    11034    11508    12769    13560    13630    13664    13639 
   12903    11331     9746     9227    10150    12167    14695    16848 
   17476    16196    13918    11915    11108    11853    13456    14199 
   12691     9634     7282     6885     8018     9942    12238    14394 
   15599    15535    14966    14603    14290    13813    12980    11312 
    9044     7356     7197     8664    11239    14147    16349    16627 
   14657    11708     9526     9092    10613    13378    15726    16527 
   16184    15525    14641    13299    11826    10726     9863     9204 
    9403    10603    11965    12874    13480    13754    13091    11562 
   10609    11350    12948    13801    13555    12658    10966     8304 
    5708     5062     7170    10801    14329    16956    18209    17955 
   16499    14391    12869    13173    14689    15396    14117    11328 
    8616     7400     7879     9742    12507    14903    15834    15255 
   13633    11764    10590    10569    11368    12197    12456    11969 
   11035    10569    11400    13105    14334    14591    14508    14088 
   12593    10327     8663     8231     8388     8692     9771    11908 
   14103    15583    16676    17501    17623    17213    16740    15950 
   14250    11496     8437     6357     5760     6268     7561     9392 
   11238    12663    13786    14726    15013    14487    13992    14071 
   13928    13044    12261    11733    10273     7866     6527     7992 
   11428    14461    16348    17737    18172    17123    15747    15214 
   14812    12843     8809     4329     1934     2937     6658    11481 
   15671    17835    17803    16553    15511    15975    17775    18692 
   16668    12268     7857     5116     4794     7297    11401    14203 
   14155    12566    11628    12365    14112    15267    14847    13407 
   12239    11535    10601     9829     9983    10292     9773     9217 
    9979    11946    13960    15244    15742    15595    14730    13369 
   12284    11929    11949    11726    11123    10639    10609    10562 
   10250    10552    11984    13723    15016    15574    14866    12761 
    9980     7538     6621     7968    10633    12886    14323    15592 
   16622    16557    15365    13995    12688    10889     8505     6105 
    4960     6422    10164    14234    16870    17607    17035    15935 
   15006    14783    15013    14975    14323    12753    10170     7784 
    7077     8103    10083    12019    12875    12815    12910    13257 
   13374    13694    14550    15024    14368    13121    12280    12535 
   14073    16035    16571    14473    10334     5978     3566     4784 
    9422    14880    18160    17833    14155     8970     5245     5466 
   10005    16621    21609    22140    18176    12219     7246     5103 
    5973     8709    11996    14719    15567    14053    11535     9648 
    8673     8465     9433    11645    14176    16050    17186    17620 
   16493    13406     9809     7611     7429     8547    10186    12622 
   15808    17831    17065    14435    11798    10043     9563    10573 
   12590    14370    14612    13106    10916     9271     8900    10013 
   12135    14435    16407    17584    17170    14815    11397     8813 
    8675    10953    14175    16528    16496    13752     9788     6664 
    5741     7738    12114    16447    18033    16015    11735     7878 
    7101     9958    14026    16339    16319    15112    13358    11454 
   10540    11197    12177    11798     9989     8130     7392     8166 
   10361    13319    16050    17656    17595    16094    14121    12878 
   13065    14234    15072    14445    12207     9019     5729     3562 
    3906     6979    11497    15552    17485    16875    14701    12357 
   10988    11246    12903    14567    14633    13146    11565    10944 
   11755    13889    15820    15784    13953    11995    11010    10870 
   11081    11207    10801     9853     8786     7975     8152    10162 
   13355    15844    16659    16179    15060    13893    13216    13156 
   13472    13896    13845    12587    10267     7855     6282     6381 
    8458    11482    14066    15767    16645    16621    15772    14852 
   14633    14599    13712    12055    10147     8134     6388     5253 
    5023     6490     9968    14517    18591    20790    20793    19408 
   17118    14006    11300    10649    11540    12006    11481    10660 
   10035     9976    10813    12414    14016    14698    14130    12642 
   10940     9814     9611    10108    10705    10543     9192     7489 
    6913     8176    10958    14319    16819    17107    15140    12344 
   10320    10085    12011    15200    17551    17372    14597    10691 
    7842     7821    10923    15427    18356    17570    13314     8190 
    5552     6816    10461    14055    16086    15924    13931    11667 
   10750    11825    14468    17088    17644    15213    10757     6661 
    5213     7066    10919    14287    14968    12557     9060     7625 
    9642    13717    17609    19585    18732    15808    12910    11489 
   11517    12137    12232    11038     8774     6718     6403     8226 
   11211    14007    15571    15400    13538    10828     8865     8546 
    9455    10893    12462    14036    15341    15846    15510    14877 
   14300    13706    12849    11750    10770     9894     8786     7684 
    7046     7148     8547    11310    14361    16612    17859    18721 
   19725    20513    20843    21022    20689    18881    15360    11048 
    7479     5803     6020     7307     8630     9124     8981     9723 
   12843    18371    24325    27413    25558    19918    13514     8562 
    6112     6885    10573    15045    17502    16430    12828     9501 
    8667    10453    13322    15569    16402    15616    13261    10091 
    7477     6496     7023     7975     8587     8713     8165     6958 
    5819     5518     5792     5839     5788     6062     6243     6502 
    7914    10239    11803    11628    10025     7539     4663     2483 
    2180     3680     5700     7188     8150     8864     9330     9932 
   11356    13283    14139    12863     9839     5921     2467     1522 
    4035     8878    13988    17774    19717    20187    20272    21426 
   24245    27783    30568    31778    31195    28611    24247    19616 
   16494    14968    13815    12400    11134    10847    12252    15321 
   19283    23292    26533    28232    28074    26031    21961    15935 
    8422        4    -8099   -13575   -14496   -10938    -4383     3202 
    9769    14617    18739    22881    26557    28935    29531    27841 
   23308    16455     9029     2490    -2722    -6491    -8661    -9554 
   -9351    -6928    -1604     4893    10115    13348    15955    19699 
   25058    31262    36883    40478    40912    37436    30730    23022 
   16831    13614    12112     9086     2914    -4781   -11118   -14006 
  -12565    -7916    -2947      656     3195     4871     6109     8580 
   13089    17705    19631    18301    15737    14761    16454    18490 
   18675    18197    18528    19469    20756    23162    27403    31060 
   29815    22661    12066     1380    -5391    -5655     -980     4549 
    6738     2919    -5547   -14150   -18428   -15546    -6201     5765 
   16715    23663    24670    21996    20754    23402    28209    31409 
   30109    24811    18583    14268    13257    15519    19840    24093 
   26040    24851    22030    20072    19942    20608    20866    20887 
   21222    20719    17860    13449     9301     5356      360    -4873 
   -7666    -7468    -6275    -5123    -2643     2797     9741    14263 
   14313    11214     8459     9507    14382    19939    23388    23416 
   19844    14238     9675     8862    12413    18059    21677    20990 
   17309    12563     7432     2789      267      948     4321     8592 
   12118    14706    16871    18570    20053    21691    21846    17886 
    9807      715    -6186    -9102    -7142    -1471     4197     6643 
    5840     4522     6253    13163    23943    34656    42096    44964 
   42624    35678    27240    19990    12683     3443    -5945   -12662 
  -15907   -15445   -10987    -3417     5401    13973    21656    28563 
   35518    42054    45239    42278    32441    18044     4261    -4939 
   -8755    -8797    -8782   -10254   -11046    -9787    -5341     3663 
   15072    24893    30374    30607    28164    27079    28854    32244 
   34076    31336    23647    12764     2063    -4911    -6987    -4975 
   -1019     1987     2146    -1015    -6117    -9876    -9381    -4144 
    4080    13605    23879    33519    40081    42311    40888    37227 
   32022    25074    16050     5526    -4311   -11121   -14140   -13994 
  -12065    -9486    -6185    -1321     6571    18395    31531    40971 
   43512    39144    30607    22189    17330    16529    17124    15220 
    8842     -261    -8655   -13365   -12168    -5626     2894    10570 
   16126    20052    24649    31029    37440    41358    40925    34989 
   24620    12746     1080    -9045   -14997   -15312   -10480    -1403 
   10195    21592    30347    34592    33605    28626    21520    14489 
    9722     6545     3213      403     -852      105     3722     8307 
   12123    15137    17216    17805    15985    11261     5217      492 
   -1315      -59     4553    12923    22333    27850    27333    22468 
   16765    13222    11980    11371    11037    11678    12703    12797 
   12035    11278    10427     9082     8019     8175     9035     9734 
    9871     8897     7076     5317     3992     4488     8749    16101 
   23991    30044    32167    29712    23612    15725     9362     6944 
    7585     8754     8692     7485     6275     5916     6170     5844 
    4923     4906     6831    10877    16706    23495    29219    31365 
   29847    26279    21569    16347    11178     6762     3955     2410 
    1160     -177    -2057    -4970    -7800    -7320     -993    10086 
   22083    31368    35926    34807    28555    19986    12356     7523 
    5891     6755     9122    11811    13104    12040     9088     5150 
    1616      724     4210    11419    19161    23830    23705    19594 
   13918     9397     8235    11029    15918    19930    21430    20513 
   17676    14027    11474    10773    10992    11020    10496     9908 
    9419     7937     5146     3044     3499     6135     9099    10758 
   11168    11476    12170    13010    13326    12642    11720    11722 
   12844    14440    16132    18014    19352    19276    18779    19412 
   21050    22377    22370    20863    18207    14656    10732     7843 
    6835     6565     5619     3908     2337     2619     5567     9328 
   11877    13305    14070    13847    12316     9774     6867     3346 
    -792    -3445    -2733     1461     8150    15046    20268    23360 
   24138    23131    21654    20280    17896    13408     8310     5180 
    4932     6860     9749    13084    16710    19724    21448    22769 
   25076    27424    26520    20586    11333     2395    -2899    -3054 
    1124     6804    10760    11338     8872     5352     3033     2927 
    5376    10250    16156    21065    23121    21347    16776    11851 
    8722     8315    10250    13515    16748    18033    15826    11024 
    7107     6477     8307    10944    13722    15928    16236    14026 
   10270     6800     5482     7624    12898    18788    22095    21185 
   16770    11523     8588     9336    12705    16221    17524    16077 
   13579    12625    14656    18320    20551    19555    15910    11348 
    7378     4581     2678     1360      734     1001     2322     4632 
    7533    10736    13918    16149    16291    14249    11551     9910 
    9738    11057    14019    17447    18994    17716    15182    13619 
   14038    16260    19070    20380    18993    16109    14276    14855 
   16781    17826    16191    11226     4213    -1920    -4250    -1524 
    4730    11554    17193    21079    23001    23502    23736    24010 
   22574    17649    10244     3214     -572      866     7152    15394 
   22202    25470    24395    19316    12556     7603     6191     7339 
    9038     9585     8465     7036     7197     9459    13023    16523 
   18405    17916    15596    12224     8561     5916     4987     4791 
    4106     2971     2177     2087     2528     3529     5315     7715 
   10206    12334    14223    16682    20397    24921    28376    28842 
   26290    22436    19058    16928    15719    14484    12233     8463 
    3675     -435    -1654     1161     6716    11561    12845    10807 
    7652     5721     6766    10525    15016    18659    20740    21510 
   22420    24240    25627    24763    20611    13092     4206    -2431 
   -4406    -2264     1425     4499     5979     5860     5940     8771 
   15111    23284    30255    33239    31121    25213    18421    13245 
   10729    10364    10969    11816    12347    11937    10439     8447 
    6534     4085      286    -3955    -5925    -3129     4035    12687 
   20029    24572    26484    26983    27037    26566    24832    21702 
   17240    11177     4381     -772    -2238     -117     3995     8374 
   11037    11098    10250    10688    12826    15809    18828    21075 
   21982    22129    22259    22257    21685    19976    16597    11577 
    5908     1100    -2139    -3544    -2449      964     5318     9415 
   12855    16128    20156    24486    26822    25295    19890    12313 
    5508     1841     1770     4033     6527     8133     9441    11616 
   15080    18701    20650    19754    15843    10211     5306     2898 
    3002     4609     6550     8008     9233    11123    13975    17302 
   19949    20380    17901    13703    10131     8481     8223     8375 
    8366     7598     5401     2500     1355     3389     7534    12348 
   17032    20472    21879    21641    20593    19824    20196    21014 
   20485    17548    13098     9385     8121     9338    11452    12574 
   11979    10381     9379    10047    12262    15235    17634    18282 
   17063    14916    13278    12954    13745    14894    15441    14828 
