Origin Time       2024/04/02 04:24:00
Lat.              40.133
Long.             141.712
Depth. (km)       71
Mag.              6.0
Station Code      AKTH09
Station Lat.      40.2755
Station Long.     140.4596
Station Height(m) 45
Record Time       2024/04/02 04:24:55
Sampling Freq(Hz) 100Hz
Duration Time(s)  172
Dir.              4
Scale Factor      7845(gal)/8223790
Max. Acc. (gal)   10.062
Last Correction   2024/04/02 04:24:55
Memo.             
[...]
    4639     3369     1737      346     -282       72     1382     3188 
    4530     4861     4299     3275     2614     2937     4082     5487 
    6367     5960     4156     1779       98     -216      606     1958 
    2951     2953     2427     2247     2624     3113     3271     3315 
    3828     4915     6237     7442     8168     8093     7280     6272 
    5694     5819     6439     6929     6569     5150     3100     1148 
      63        8      360      699      973      955      691      712 
    1298     2122     2840     3578     4661     6145     7550     8085 
    7447     6103     4769     4156     4569     5390     5591     4787 
    3407     2189     1869     2721     4072     4888     4712     3856 
    3176     3496     4842     6238     6423     5003     2847     1271 
    1093     2143     3433     4035     3721     3045     3010     4149 
    5940     7210     6844     4662     1892      174      267     1881 
    4035     5545     5791     5085     4163     3496     3204     3167 
    3010     2563     2034     1564     1237     1044      773      521 
     575      843     1190     1598     1921     2241     2922     4039 
    5324     6385     6840     6694     6330     6025     5854     5849 
    5845     5503     4834     4332     4379     4943     5707     6095 
    5749     5032     4580     4814     5788     6909     7290     6535 
    4804     2559      564     -481     -534       24      770     1112 
     646     -342    -1178    -1255     -275     1610     3879     5822 
    6775     6481     5447     4689     4752     5283     5757     5900 
    5481     4685     4274     4625     5355     5968     6131     5730 
    5019     4352     3933     3843     3778     3175     2069     1098 
     758     1347     2830     4484     5464     5535     4916     4017 
    3510     4005     5236     6147     5964     4723     3117     2103 
    2154     2970     3870     4063     3160     1667      456      109 
     746     1914     2786     2799     2070     1263     1159     2097 
    3620     5061     6181     6824     6737     6093     5244     4345 
    3659     3415     3488     3650     3523     2847     2018     1514 
    1426     1837     2635     3281     3445     3466     3870     4772 
    5971     7145     7900     8050     7761     7277     6741     6170 
    5452     4471     3264     2089     1285      988     1105     1483 
    1908     2169     2178     2041     2014     2236     2728     3537 
    4494     5131     5170     4727     4071     3565     3612     4240 
    4985     5355     5196     4653     4040     3650     3580     3751 
    4054     4347     4525     4696     4837     4588     4000     3518 
    3244     3238     3705     4371     4707     4615     4361     4276 
    4534     4965     5166     4953     4477     3900     3435     3289 
    3250     3122     3049     2941     2643     2351     2231     2223 
    2257     2313     2455     2712     2926     2868     2494     2062 
    1864     1930     2231     2763     3237     3288     2974     2570 
    2332     2547     3194     3852     4253     4457     4617     4939 
    5481     5948     6193     6374     6396     6143     5903     5761 
    5418     4843     4251     3647     3046     2667     2504     2342 
    2262     2474     2897     3435     4004     4371     4577     4820 
    4949     4923     5051     5184     4857     4224     3717     3403 
    3304     3485     3705     3663     3331     2866     2477     2255 
    2150     2197     2531     3157     3873     4472     4830     4768 
    4270     3653     3211     3082     3412     4135     4824     5215 
    5356     5217     4725     4052     3484     3160     3056     3026 
    2941     2824     2781     2874     3060     3257     3508     3834 
    3981     3724     3271     3003     3069     3426     3971     4477 
    4764     4868     4891     4976     5449     6385     7265     7500 
    6898     5675     4402     3692     3661     3894     3840     3168 
    1965      680     -218     -531     -361       56      557     1071 
    1713     2629     3673     4550     5125     5335     5186     4882 
    4692     4746     5005     5329     5517     5355     4785     3989 
    3298     2982     3098     3553     4162     4648     4828     4661 
    4153     3446     2683     1993     1672     1892     2351     2573 
    2365     1822     1170      787      949     1490     2115     2709 
    3238     3734     4248     4777     5259     5590     5686     5528 
    5302     5292     5447     5498     5306     4822     4132     3588 
    3520     3940     4596     5169     5374     4985     4012     2903 
    2201     2061     2380     3013     3681     4074     4090     3848 
    3555     3366     3319     3373     3477     3631     3856     4153 
    4572     5023     5170     4938     4618     4332     4140     4310 
    4812     5231     5332     5090     4482     3601     2706     2010 
    1529     1165      953     1084     1607     2340     3033     3472 
    3601     3551     3429     3273     3241     3403     3497     3267 
    2886     2700     2816     3208     3742     4152     4453     4935 
    5555     6011     6153     5888     5335     5034     5351     6039 
    6702     6971     6485     5402     4271     3370     2871     2860 
    2868     2382     1649     1225     1387     2191     3370     4305 
    4583     4325     3875     3581     3692     4098     4329     4002 
    3196     2347     1908     2088     2732     3396     3748     3869 
    3943     4062     4410     5032     5567     5676     5381     4869 
    4396     4291     4621     4953     4766     3994     2990     2170 
    1811     1927     2214     2288     1991     1468     1101     1221 
    1827     2654     3427     4020     4502     5043     5675     6216 
    6540     6745     6943     7061     6902     6367     5499     4275 
    2805     1578      992      965     1201     1459     1580     1541 
    1563     1999     2898     3978     5024     5915     6531     6786 
    6708     6467     6108     5570     5084     4796     4490     4137 
    3840     3515     3225     3109     3013     2793     2505     2227 
    2096     2293     2809     3460     4097     4577     4662     4282 
    3763     3411     3153     2903     2701     2498     2317     2317 
    2498     2643     2521     2122     1603     1124      935     1281 
    2050     2844     3276     3207     2932     2853     3048     3460 
    4068     4714     5239     5640     5908     5998     5852     5510 
    5217     5140     5266     5616     6029     6076     5601     4915 
    4426     4367     4707     5108     5089     4468     3530     2720 
    2354     2439     2700     2914     2978     2752     2319     2007 
    1925     1898     1849     1821     1833     1989     2431     3073 
    3663     4117     4556     5049     5532     5867     5834     5347 
    4595     3890     3589     3901     4575     5096     5152     4653 
    3699     2808     2586     2925     3217     3254     3261     3393 
    3707     4244     4969     5653     5899     5505     4672     3699 
    2860     2529     2835     3407     3825     3983     3886     3558 
    3234     3183     3369     3543     3489     3138     2631     2192 
    2011     2170     2573     3079     3622     4082     4379     4540 
    4587     4599     4673     4756     4672     4259     3514     2651 
    1931     1553     1607     1956     2277     2355     2305     2408 
    2735     3188     3673     3973     3896     3654     3669     4117 
    4846     5552     6026     6241     6320     6416     6427     6093 
    5400     4452     3427     2716     2467     2466     2608     2898 
    3175     3345     3545     3838     4086     4252     4504     4909 
    5301     5471     5352     5038     4680     4421     4392     4549 
    4600     4413     4166     3955     3761     3693     3735     3539 
    2903     2128     1683     1788     2350     3092     3773     4299 
    4743     5250     5795     6183     6255     5935     5390     4988 
    4795     4637     4388     3850     2979     2095     1513     1359 
    1583     2004     2462     2749     2751     2702     2791     2924 
    3159     3639     4253     4742     4881     4673     4396     4336 
    4558     4897     5184     5347     5290     5013     4671     4267 
    3767     3258     2755     2273     2018     2073     2272     2520 
    2786     2883     2818     2910     3253     3670     4075     4374 
    4376     3982     3322     2717     2496     2824     3609     4364 
    4509     3983     3180     2513     2362     2887     3712     4174 
    3927     3219     2678     2810     3601     4550     5130     5074 
    4492     3840     3410     3053     2627     2122     1463      823 
     639      967     1453     1791     1846     1822     2174     3030 
    4172     5379     6300     6583     6365     6033     5818     5834 
    5999     6054     5927     5701     5364     4923     4440     3946 
    3458     3084     2995     3099     3002     2600     2265     2235 
    2390     2600     2747     2670     2396     2189     2293     2766 
    3508     4365     5131     5532     5406     4922     4348     3727 
    3148     2934     3164     3565     3987     4418     4718     4818 
    4826     4799     4720     4599     4461     4364     4356     4413 
    4391     4153     3716     3218     2883     2907     3210     3454 
    3389     3034     2521     1983     1618     1552     1653     1723 
    1741     1837     2120     2566     3063     3515     3874     4136 
    4369     4789     5560     6439     6991     7068     6832     6550 
    6446     6597     6933     7238     7231     6794     6160     5719 
    5576     5571     5557     5293     4545     3507     2597     2050 
    1942     2212     2646     2952     2875     2457     2081     2010 
    2151     2370     2624     2822     2961     3314     4027     4766 
    5181     5325     5373     5427     5637     6016     6270     6091 
    5464     4648     3967     3608     3492     3393     3163     2805 
    2440     2219     2099     1822     1256      544     -105     -507 
    -553     -315        6      217      305      587     1348     2465 
    3613     4527     5043     5169     5171     5462     6124     6843 
    7396     7681     7493     6907     6278     5752     5323     5022 
    4784     4496     4075     3427     2619     1915     1416      927 
     303     -396    -1020    -1335    -1061      -71     1409     2862 
    3836     4220     4147     3928     3952     4345     4889     5416 
    5896     6211     6268     6162     6025     5956     5908     5740 
    5607     5814     6296     6868     7449     7715     7348     6573 
    5869     5427     5142     4811     4212     3312     2385     1705 
    1345     1254     1192      865      271     -313     -600     -442 
     125      938     1701     2138     2281     2367     2501     2747 
    3211     3753     4131     4440     4909     5509     6072     6440 
    6378     5795     5113     4939     5373     6064     6679     6837 
    6154     4799     3470     2760     2766     3126     3431     3437 
    2988     2242     1729     1746     2064     2349     2482     2550 
    2702     3129     3996     5169     6264     6976     7186     7028 
    6736     6270     5440     4295     3073     1996     1242      835 
     479     -108     -704     -877     -495      423     1779     3090 
    3834     4039     4143     4482     5104     5857     6517     6913 
    6995     6743     6091     5038     3657     2161      913       45 
    -603     -999     -945     -484      207     1102     2118     2910 
    3280     3504     3955     4737     5724     6570     6960     6984 
    7033     7446     8279     9111     9232     8224     6324     4194 
    2470     1560     1443     1530     1281      824      495      373 
     464      615      571      432      658     1556     2964     4436 
    5572     6088     5991     5778     5985     6694     7608     8243 
    8212     7535     6481     5301     4255     3534     3210     3308 
    3761     4349     4834     5035     4726     3634     1884      112 
   -1129    -1579    -1144     -110     1021     2110     3308     4646 
    6041     7430     8618     9293     9428     9340     9251     9119 
    8884     8521     7890     6906     5729     4622     3840     3568 
    3739     3927     3601     2664     1551      824      897     1777 
    2836     3258     2848     2128     1818     2370     3650     4822 
    4931     3812     2182     1071     1267     2689     4218     4621 
    3619     2004      938     1035     1911     2552     2060      315 
   -1784    -2952    -2473     -515     2178     4635     6014     6118 
    5460     4707     4286     4264     4353     4306     4040     3493 
    2947     2930     3626     4831     6141     7072     7304     6816 
    5921     5074     4576     4442     4442     4409     4472     4750 
    5051     5013     4463     3543     2542     1630      803       36 
    -639    -1260    -1644    -1224      371     2813     5221     6625 
    6574     5518     4310     3465     3082     2941     2647     2214 
    2092     2524     3416     4324     4502     3676     2424     1760 
    2450     4268     6139     7079     6770     5697     4820     4854 
    5771     6798     6905     5571     3022      -58    -2683    -3916 
   -3545    -2165     -567      662     1217     1254     1356     2073 
    3662     6102     9001    11662    13470    14264    14303    14000 
   13686    13393    12812    11599     9647     7020     3928      837 
   -1728    -3445    -4232    -4206    -3515    -2204     -369     1757 
    3969     6093     7865     9008     9445     9302     8826     8324 
    7892     7312     6349     4903     3076     1327      209     -244 
    -531    -1028    -1721    -2420    -2694    -1991     -286     1790 
    3512     4563     5171     5819     6697     7546     7989     7894 
    7597     7651     8186     8783     8988     8615     7739     6702 
    5979     5900     6319     6520     5825     4121     1625    -1229 
   -3723    -5347    -6027    -5780    -4700    -3186    -1669     -230 
    1266     2783     4071     4984     5660     6269     6794     7200 
    7462     7431     7080     6556     5805     4649     3129     1439 
    -206    -1466    -2060    -2081    -1687     -950     -226       91 
      52     -170     -529     -812     -610      301     1734     3252 
    4453     5115     5273     5335     5783     6729     7925     8881 
    9032     8245     6916     5505     4456     4087     4247     4498 
    4488     4020     3242     2627     2552     3014     3673     4210 
    4448     4260     3747     3314     3408     4141     5044     5493 
    5228     4309     3146     2461     2654     3585     4846     5917 
    6399     6330     6010     5548     4865     3927     2806     1790 
    1317     1555     2224     2992     3736     4383     4927     5517 
    6169     6647     6775     6451     5599     4517     3688     3291 
    3287     3550     3720     3484     2874     2116     1525     1463 
    2037     2998     4059     4938     5339     5323     5269     5404 
    5710     6091     6482     6858     7121     7227     7248     7160 
    6905     6620     6459     6289     5873     5085     3839     2284 
     919      101     -306     -599     -946    -1420    -1956    -2209 
   -1825     -822      587     2172     3535     4444     5080     5563 
    5740     5535     5088     4591     4209     4133     4394     4641 
    4450     3838     3235     3036     3272     3762     4290     4579 
    4434     3997     3661     3820     4639     5973     7416     8498 
    9018     9073     8806     8348     7728     6777     5360     3609 
    1837      433     -291     -436     -446     -664    -1121    -1564 
   -1567     -926       93      895     1005      496      -99     -184 
     587     2161     4040     5431     5783     5229     4364     3854 
    4112     5024     6141     7056     7497     7437     7177     6975 
    6708     6162     5262     3935     2421     1359      970      880 
     712      221     -589    -1186     -969       83     1501     2740 
    3384     3256     2612     1949     1575     1637     2149     2843 
    3488     4106     4660     5067     5370     5490     5368     5294 
    5485     5779     5992     6066     5927     5598     5301     5238 
    5346     5323     4799     3622     2062      568     -514     -955 
    -827     -475      -28      603     1320     2018     2781     3685 
    4853     6455     8264     9714    10463    10412     9541     8226 
    7148     6648     6540     6454     6164     5632     4922     4260 
    3825     3469     3018     2556     2245     2184     2382     2795 
    3424     4213     5058     5985     6903     7410     7227     6574 
    5872     5352     5085     5116     5316     5509     5769     6150 
    6440     6454     6049     5051     3591     2141     1086      517 
     329      310      268      183      121      114      310      899 
    1803     2759     3582     4178     4577     4995     5659     6524 
    7256     7449     6862     5559     3850     2149      827       -5 
    -468     -669     -662     -423      160     1071     2155     3222 
    3977     4199     3981     3550     3192     3261     3916     4970 
    6118     7092     7695     7815     7506     7095     6930     6970 
    6920     6562     5814     4799     3863     3354     3377     3808 
    4310     4469     4190     3744     3384     3184     3115     3041 
    2795     2353     1890     1659     1702     1802     1744     1501 
    1131      720      527      753     1131     1306     1351     1462 
    1703     2162     2803     3383     3692     3667     3325     2729 
    2031     1483     1317     1532     1871     2088     2134     2039 
    1908     1935     2162     2505     2975     3456     3798     4126 
    4437     4604     4874     5486     6396     7622     8923     9661 
    9532     8814     7942     7265     7017     7130     7121     6489 
    5184     3469     1849      882      649      847     1247     1602 
    1705     1653     1617     1659     1906     2425     3153     4067 
    5073     5894     6305     6285     5977     5620     5471     5601 
    5721     5562     5163     4633     4077     3747     3809     4098 
    4290     4266     4185     4194     4236     4158     3804     3086 
    2118     1263      832      735      633      349     -155     -841 
   -1398    -1405     -751      305     1402     2331     3098     3865 
    4793     5819     6708     7311     7582     7558     7404     7276 
    7092     6658     5884     4791     3595     2806     2754     3287 
    4108     4833     4996     4464     3516     2466     1674     1570 
    2112     2700     2932     2836     2482     2114     2131     2577 
    3244     4010     4672     5055     5319     5691     6161     6617 
    6964     7045     6783     6346     5944     5688     5653     5859 
    6165     6328     6183     5698     4945     4075     3244     2540 
    2052     1779     1621     1529     1499     1561     1838     2365 
    3049     3843     4750     5763     6716     7291     7323     6866 
    6135     5529     5177     4764     4175     3546     2797     1881 
