Origin Time       2024/04/02 04:24:00
Lat.              40.133
Long.             141.712
Depth. (km)       71
Mag.              6.0
Station Code      AKTH04
Station Lat.      39.1740
Station Long.     140.7129
Station Height(m) 280
Record Time       2024/04/02 04:24:59
Sampling Freq(Hz) 100Hz
Duration Time(s)  139
Dir.              5
Scale Factor      3920(gal)/6170801
Max. Acc. (gal)   32.622
Last Correction   2024/04/02 04:24:44
Memo.             
[...]
    3760     5816     6747     6458     4939     2863     1495     1261 
    1898     3312     5188     7144     8904     9952    10334    10758 
   11072    10222     7998     5471     3512     1898      209    -1041 
    -827      797     2775     4596     6477     8510     9992     9786 
    7890     5495     3561     2575     2757     4034     6121     8064 
    8219     6035     3366     2478     3391     4658     5461     5756 
    5523     4462     2850     2254     3822     6593     8648     9183 
    8876     8222     6763     4577     2685     1924     2297     2677 
    1891      600      563     2271     4529     6012     6483     6578 
    6740     6574     5782     5039     4968     5552     6837     8545 
    9400     8271     5375     2057      241     1142     3828     6509 
    8444     9328     8735     6912     4865     3953     5084     7034 
    7036     4013     -483    -3807    -3662      159     5496     9954 
   12140    11261     7388     2072    -2268    -3534    -1008     3835 
    8261    10339     9643     7235     5144     4633     5637     7572 
    9451    10245     9466     7246     4629     2787     1772     1472 
    2606     5516     9170    11680    11646     9081     4852      318 
   -2495    -2163      608     3640     5389     5766     5113     3672 
    1975      884     1431     4118     7719     9956     9975     8632 
    6736     4764     3231     2691     3950     6841     9387    10164 
    9642     8349     6330     4196     2714     1959     1568     1296 
    1279     2012     3677     5558     6707     6762     5978     5195 
    5293     6090     6445     5652     4089     2640     1976     2048 
    2497     3543     5291     6998     8116     8722     8855     8592 
    8064     7047     5160     2479       19     -766      546     3228 
    6438     9135    10027     8725     6378     4505     3707     4092 
    5470     6804     7231     6795     5785     4604     3693     3354 
    3622     4177     4911     5813     6433     6248     5143     3812 
    3107     2772     2199     1881     2849     4886     6210     5540 
    3772     2933     3781     5359     6875     8370     9711    10347 
    9846     8497     7183     6352     5613     4306     2325      367 
    -784     -727      605     2686     4713     6247     6842     6274 
    5447     5205     5200     5220     5486     5501     4413     2236 
     194     -158     1793     5260     8773    11500    13057    12487 
    9460     5306     1884      602     1621     3772     5925     7682 
    9112    10061     9918     8597     6608     4356     2166      377 
    -526     -335      462     1509     2690     3691     4505     5505 
    6866     8228     8943     8820     8335     8155     8514     8865 
    8425     7047     5429     4368     3992     4006     4033     3713 
    2921     1849     1207     1813     3532     5421     6540     6466 
    5669     4890     4500     4703     5256     5501     5061     4060 
    3493     4526     6601     7999     7818     6044     3267      649 
    -692      107     3063     6623     8945     9255     7709     5278 
    3291     2739     3937     5967     7080     6243     4037     2146 
    1858     3227     5451     7420     8229     7672     6489     5704 
    5594     6136     7421     8621     8350     6308     3273      398 
   -1114     -764      966     3182     5010     5878     5804     5351 
    5339     6325     7736     8336     7923     7099     6173     5351 
    4638     3983     4044     5188     6602     7267     6513     4598 
    2973     2582     3241     4704     6461     7622     7757     6764 
    4753     2688     1839     2728     5110     8028     9618     8179 
    4056     -276    -2125     -684     2278     4437     5347     5850 
    6405     6946     7408     7958     8619     8690     7107     3929 
    1232     1392     4335     7877    10070    10001     7774     4561 
    1746      328     1094     3798     6411     6962     5518     3447 
    1909     1449     2351     4606     7137     8319     7862     6877 
    6425     6767     7121     6346     4579     3287     3216     3618 
    3841     4257     5120     5710     5425     4822     4637     4900 
    5493     6262     6871     7029     6352     4910     3771     3718 
    4355     4930     5008     4718     4323     3573     2624     2409 
    3336     5187     7509     9310     9651     8164     5236     2593 
    2017     3396     5455     7156     8022     8152     7622     6381 
    4877     3711     3227     3505     3954     3984     3765     3536 
    3692     4685     5737     5843     5372     5011     4926     5002 
    4889     4637     4627     4754     4773     4687     4697     5138 
    5751     5842     5401     4945     4852     5149     5426     5381 
    5276     5389     5539     5479     5328     5310     5449     5653 
    5718     5437     4930     4568     4624     4789     4317     3365 
    3109     4131     5689     6251     5065     3496     3259     4134 
    4884     4843     4196     3805     4081     4454     4777     5620 
    7051     8429     8798     7706     5906     4520     4086     4427 
    4767     4443     3374     1926      907     1178     2838     5186 
    7482     9403    10711    10970     9960     8117     6188     4363 
    2308      428     -196      690     2502     4637     6425     7414 
    7611     6845     5157     3648     3264     3819     4906     6019 
    6392     5764     4554     3569     3527     4485     5995     7456 
    8284     8307     7791     6982     5863     4459     3271     2938 
    3220     3252     3045     3342     4151     4918     5572     6292 
    7028     7518     7446     7112     7243     7260     5708     2919 
     708       88     1109     3313     5798     7816     8714     8025 
    6174     4123     2709     2418     3135     4445     5851     6750 
    6902     6559     6051     5441     4578     3785     3715     4354 
    5264     6178     6844     6975     6216     4495     2607     1562 
    1578     2267     3287     4753     7029     9518    10667     9960 
    8057     5409     2643      885      927     2466     3749     3209 
    1641     1080     2227     4115     5587     6317     6534     6486 
    6283     6058     6398     8004    10287    11247     9611     6262 
    3407     3020     5285     8018     8687     6723     3185     -411 
   -2478    -1926     1117     5050     7635     7760     6206     4766 
    4668     5780     7367     8633     8505     6452     3530     1629 
    1887     3889     5936     6563     5846     4703     3751     3244 
    3292     4125     5805     7480     8107     7504     6118     4749 
    4045     4128     4982     6165     6672     5931     4339     2722 
    1617     1419     2459     4311     6098     7299     7685     7365 
    6552     5340     4239     3815     4086     4800     5595     6410 
    7363     8049     7961     6813     4535     1793      -85       55 
    2078     4548     6215     6555     5628     4373     3953     4807 
    6591     8366     9067     8291     6528     4497     2778     2103 
    2967     4841     6447     6763     5548     3554     2355     2933 
    4791     6801     7906     7650     6653     5643     4972     5283 
    6601     7568     7125     5565     3678     2174     1378     1297 
    2291     4317     6023     6307     5425     4027     2815     2660 
    3885     6046     8041     8333     6698     4880     4360     5062 
    6078     6718     7031     6793     5219     2836     1571     2461 
    4716     6665     7205     6420     4777     2735     1205     1062 
    2486     4988     7369     8483     8345     7583     6510     5352 
    4671     4982     5755     5583     4025     2184     1100     1123 
    2513     5195     8429    11042    11955    10917     8340     4663 
     721    -1857    -1575     1356     4979     7575     8768     8823 
    8080     6726     4878     3152     2424     2902     3781     3976 
    3441     3027     3195     3906     5101     6555     7860     8688 
    8799     8309     7642     6815     5698     4499     3573     3252 
    3130     2671     2629     3395     4011     4116     4053     4101 
    4697     5806     7004     8320     9330     8739     6186     3128 
    1518     2381     4911     6773     6410     4246     1519     -470 
    -626     1446     5096     8358     9421     8467     6797     5487 
    5223     6092     7707     9164     8874     6274     3277     2098 
    2815     4137     5083     5772     6729     7289     6504     4939 
    3497     2323     1603     1575     2105     2841     3388     3803 
    4569     5788     7249     8721     9775    10022     9049     6393 
    2725      -60     -836       73     2104     4838     7569     9309 
    9251     7597     5638     4252     3403     3446     4906     7117 
    8545     7921     5163     1675     -636     -534     1870     5194 
    8143    10043    10182     8575     6455     4944     4438     4785 
    5491     6109     6198     5731     5303     5059     4849     4884 
    4836     3968     2453     1311     1442     2963     5073     6657 
    7189     6923     6339     5900     6183     7347     8446     8167 
    6092     2862     -173    -1567     -726     1912     5225     7641 
    8063     6802     5180     4470     4985     5968     6481     6112 
    5170     4364     4166     4880     6431     7781     7702     5813 
    2815      300     -240     1404     4058     6416     7949     8163 
    6747     4842     3858     3878     4542     5645     6861     7632 
    7079     5306     3978     4103     5204     6498     7139     6710 
    5649     4281     2716     1637     1866     3407     5467     7121 
    7808     7511     6497     5382     5119     5751     6101     5455 
    4446     4138     4741     5429     5351     4614     4288     4989 
    5909     6117     5863     5921     6501     7263     7803     7319 
    4976     1538     -895     -852     1605     5128     8023     9261 
    8426     5692     2454      786     1816     4977     8282     9602 
    8426     5900     3469     2279     2986     5239     7466     7818 
    5883     3221     1800     2054     2865     3469     4154     4989 
    5446     5233     4702     4563     5263     6522     7590     7891 
    6981     4832     2818     2486     3748     5769     7732     8581 
    7722     5598     3444     2588     3309     4758     5815     5639 
    4173     2085      405      507     3020     6791     9899    11069 
   10221     8341     6692     6051     6307     6560     6072     4749 
    2784      810     -150      339     1871     3810     5443     6221 
    6229     5895     5682     6083     7229     8633     9531     9516 
    8627     7013     5104     3313     1579      194     -102      750 
    2027     2840     3110     3815     5284     6655     7223     6714 
    5508     4687     4598     4837     5346     6184     7313     8458 
    8943     8504     7582     6482     5194     4279     4681     6118 
    7047     6276     3844     1113     -299      -69     1411     3854 
    6319     7476     6846     5156     3890     3971     4961     6109 
    7091     7349     6150     3768     1565      929     2587     5918 
    8744     8988     6479     3004      952     1476     3962     6830 
    8482     8567     7819     6632     5385     4816     5168     6099 
    6622     5454     2743      307     -196     1579     4707     7535 
    8520     7115     4273     1949     1780     3935     7009     9071 
    8831     6448     3592     2136     2755     4932     7425     8563 
    7050     3149     -936    -2550     -666     3691     8144    10319 
    9610     7335     5341     4823     5787     7154     7458     5950 
    3311      979      147     1287     3848     6748     9121    10061 
    8919     6217     3123      645     -542     -532      242     1727 
    3521     4731     4999     4993     5863     7740     9292     9359 
    8079     6575     5725     5498     5840     6676     7336     7287 
    6085     3397      270    -1629    -1604      334     3562     6743 
    8588     8490     6701     4092     1680      349      716     2631 
    4780     5677     4741     2500      714      923     2537     3736 
    3384     1848      629      666     1584     2767     4016     5369 
    6687     7612     8194     8912     9880    10636    10463     8653 
    5353     1941     -518    -1847    -1715     -122     2095     4070 
    5232     5826     6814     8100     8633     8202     7221     6084 
    5324     5137     5462     6435     7826     9175    10359    10750 
    9670     8006     7180     7929    10596    14249    16753    16685 
   14042    10252     7325     6150     6572     8022     9386     9490 
    7667     4496     1887     1117     1982     3769     5399     5765 
    4617     2717     1309     1287     2909     5970     9555    12039 
   12158    10236     7907     6599     6697     7694     8690     9112 
    9130     9265     9630    10012    10515    11427    12542    13163 
   12823    11653     9765     6618     1629    -4709   -10942   -15735 
  -18611   -20062   -20931   -21742   -22740   -23779   -24029   -22107 
  -16647    -7409     4107    15706    25673    32820    37005    39228 
   39926    39070    37426    35420    32404    27207    18556     6253 
   -8257   -22363   -32938   -38060   -38062   -34391   -29080   -24918 
  -23471   -23183   -20839   -13893    -1437    15095    32295    46423 
   54562    56431    54456    50443    45174    39726    33778    25637 
   14580     1165   -11980   -20613   -23546   -23227   -21657   -19294 
  -15415    -9039    -1343     4916     8472    10237    11813    13193 
   12806    11159    10688    11844    12646    10711     5438    -1424 
   -7997   -13423   -17152   -18908   -18808   -16933   -13030    -6334 
    3654    15705    27663    37706    44016    45965    45238    43944 
   42778    40785    35735    25530    10116    -7787   -23988   -35395 
  -41534   -43478   -42197   -38772   -34780   -31136   -27207   -21142 
  -11374     1491    15235    28000    37808    41834    38884    31390 
   22905    14869     7362     1036    -3394    -5745    -6375    -6556 
   -6799    -5737    -2563     2234     8240    14785    20646    24758 
   26662    26264    23531    18581    11246     1704    -7779   -13951 
  -15295   -12914    -9456    -6658    -3894      176     5189     9249 
   11093    11251    10793     9781     8318     7937    10028    14129 
   18326    20753    20920    19174    16247    13964    14260    17156 
   19943    18733    11493     -773   -14855   -26505   -31623   -28115 
  -18042    -6729      616     1575    -1809    -4812    -4203      900 
    9412    17782    22567    23335    21019    15842     8010     -641 
   -6290    -6185    -1255     6082    14569    22856    28216    28411 
   22947    13647     4803     -229    -1737    -2091    -3075    -4918 
   -7245    -9168    -9606    -8864    -7681    -6201    -5142    -5294 
   -5989    -5428    -2360     2828     8373    12577    14902    15476 
   15190    15641    17175    18147    17086    14529    11953    10373 
    9864     9727     9851    10065     8698     4258    -3145   -11734 
  -18072   -19318   -15696    -9389    -2116     5131    11991    18527 
   23819    26690    27155    25407    20872    13034     3204    -5732 
  -11466   -12866   -10660    -7747    -5963    -4735    -3677    -2196 
    1751     9016    18275    27217    32554    32119    27052    19791 
   11468     2400    -6539   -13486   -15592   -11780    -4260     4498 
   11228    11775     5986    -2342    -8518    -8769    -3021     5839 
   14424    19261    18097    11299     1843    -6233   -10313    -9702 
   -4776     2902    10453    14720    14000     9052     2624    -1972 
   -2325     2044     9228    16157    20918    22696    20487    14117 
    5346    -2927    -7664    -7075    -2050     4519     9613    11336 
    9413     4802     -873    -5154    -5360     -842     6290    12970 
   16262    14195     7570     -448    -6316    -7165    -2995     2880 
    7760    10591    10320     7229     3218     -258    -2210    -1411 
    2786     9701    16943    21135    20761    16688    10221     3386 
   -1194    -2165        4     3608     6727     7728     5718     1754 
   -1584    -2172      480     5231    10196    13912    15874    16038 
   14580    12321    10156     8549     7699     7432     7598     7883 
    7695     6928     5206     1741    -2807    -6404    -7626    -6397 
   -3600     -296     3116     5804     5910     3066     -917    -4099 
   -5086    -3042     1637     7068    10615    10792     9181     8707 
    9904    11712    13817    15807    16879    16503    14685    12416 
   10512     8372     5143      894    -3635    -7437    -9466    -8940 
   -5629     -212     5819    10443    11924    10212     6227      758 
   -4673    -8375    -9383    -6999    -1672     4581     9779    12850 
   13779    13470    12538    11013     9148     7520     6831     6710 
    5480     2699     -869    -4930    -8307    -8505    -3968     4125 
   12320    17556    18933    16907    12336     6566     1391    -1403 
    -826     2243     5564     7203     6172     2880    -1264    -4883 
   -5916    -2798     2675     7256     9293     8315     4968     1327 
    -476      838     5357    11361    16761    20476    21431    19070 
   14246     8138     1905    -3263    -6125    -5842    -3151      189 
    2373     2406     1552     2398     5918    10282    12917    13012 
   11399     9588     8934     9873    12135    14804    16431    15618 
   11677     5939     1314     -434      437     2797     4930     4887 
    2023    -2257    -5276    -4805     -728     5376    11785    16668 
   18010    15220     9808     3852    -1124    -4244    -5353    -4692 
   -2569      252     2433     3184     3276     3878     5008     5984 
    6526     6613     5816     3890     1777     1235     3265     7074 
   10986    13898    15411    15335    13618    11029     9023     7706 
    5391     1049    -4442    -9332   -11913   -11154    -7255    -1360 
    4537     7979     8390     7623     7306     7828     8854     9108 
    7270     3547     -324    -2004      474     7231    15785    22283 
   23976    20998    15259     8557     2699     -634    -1019      308 
    1225      259    -2602    -5749    -6614    -4094      320     3958 
    4888     3349     1063     -256      551     3204     6276     8940 
   11201    13038    14157    14342    13587    11827     9098     5861 
    2994     1550     2373     5315     8490     9534     8061     5720 
    4087     3391     2855     2126     1830     2067     2080     1884 
    2130     3259     5514     7927     8672     7316     4905     2993 
    2861     4057     5000     5001     4156     2496       40    -2369 
   -2560     1030     7258    13426    17267    17865    15872    12439 
    8427     4475      797    -2385    -4503    -5079    -3808     -678 
    3924     9079    13313    15674    15915    14199    12149    11731 
   12628    12983    11384     7413     2159    -2528    -5656    -6971 
   -6603    -5231    -3328    -1048     1486     4670     8586    12065 
   13892    13804    12432    10840     9744     9213     8731     7430 
    4837     1440    -1652    -3272    -2791    -1074       61     -161 
