Origin Time       2024/04/02 04:24:00
Lat.              40.133
Long.             141.712
Depth. (km)       71
Mag.              6.0
Station Code      AKTH17
Station Lat.      39.5575
Station Long.     140.6116
Station Height(m) -82
Record Time       2024/04/02 04:24:57
Sampling Freq(Hz) 100Hz
Duration Time(s)  182
Dir.              1
Scale Factor      3923(gal)/8224838
Max. Acc. (gal)   5.256
Last Correction   2024/04/02 04:24:57
Memo.             
[...]
  -25056   -24915   -24896   -24842   -24671   -24364   -23946   -23596 
  -23379   -23125   -22920   -23124   -23787   -24498   -24842   -24842 
  -24822   -24823   -24648   -24408   -24360   -24435   -24453   -24440 
  -24406   -24300   -24254   -24376   -24437   -24206   -23884   -23766 
  -23889   -24227   -24741   -25212   -25317   -24954   -24425   -24146 
  -24119   -24084   -24019   -24057   -24166   -24150   -23946   -23711 
  -23610   -23670   -23770   -23828   -23967   -24270   -24642   -25016 
  -25396   -25695   -25679   -25224   -24529   -23963   -23823   -24027 
  -24210   -24313   -24495   -24614   -24479   -24185   -23958   -23932 
  -24011   -24023   -23993   -24023   -24024   -23876   -23773   -24042 
  -24640   -25135   -25166   -24813   -24451   -24360   -24603   -24965 
  -25103   -24894   -24551   -24375   -24429   -24541   -24594   -24626 
  -24736   -24885   -24952   -24908   -24844   -24849   -24968   -25213 
  -25486   -25623   -25683   -25708   -25551   -25344   -25299   -25389 
  -25575   -25677   -25501   -25236   -25157   -25293   -25461   -25477 
  -25396   -25289   -25110   -24872   -24617   -24320   -24059   -24100 
  -24499   -24910   -25058   -24979   -24756   -24480   -24283   -24291 
  -24493   -24679   -24667   -24525   -24460   -24495   -24511   -24622 
  -25016   -25482   -25690   -25683   -25578   -25257   -24713   -24266 
  -24182   -24387   -24665   -24823   -24772   -24678   -24808   -25211 
  -25712   -26048   -26056   -25886   -25795   -25733   -25451   -24941 
  -24464   -24244   -24347   -24718   -25201   -25529   -25444   -25041 
  -24722   -24717   -24852   -24877   -24817   -24849   -25062   -25458 
  -25797   -25666   -25097   -24617   -24498   -24571   -24626   -24617 
  -24634   -24835   -25162   -25366   -25500   -25802   -25995   -25674 
  -25081   -24686   -24545   -24526   -24613   -24781   -24889   -24867 
  -24822   -24777   -24575   -24243   -24111   -24341   -24671   -24858 
  -24942   -24908   -24713   -24511   -24476   -24592   -24715   -24699 
  -24541   -24433   -24563   -24806   -24856   -24636   -24305   -23990 
  -23751   -23634   -23620   -23662   -23805   -24096   -24402   -24532 
  -24480   -24331   -24119   -24052   -24229   -24275   -24023   -23835 
  -23863   -23900   -23931   -24061   -24111   -23917   -23789   -23981 
  -24120   -23915   -23782   -24105   -24609   -24875   -24852   -24729 
  -24673   -24717   -24763   -24703   -24568   -24501   -24580   -24799 
  -25051   -25093   -24844   -24556   -24331   -24013   -23758   -23896 
  -24295   -24606   -24745   -24737   -24621   -24602   -24813   -25081 
  -25200   -25122   -24902   -24694   -24624   -24652   -24790   -25060 
  -25238   -25119   -24740   -24266   -23997   -24116   -24447   -24792 
  -25155   -25458   -25467   -25143   -24827   -24760   -24746   -24673 
  -24684   -24726   -24733   -24894   -25215   -25525   -25799   -25944 
  -25803   -25465   -25162   -25073   -25230   -25448   -25544   -25517 
  -25411   -25219   -24933   -24599   -24389   -24345   -24316   -24279 
  -24413   -24741   -24952   -24795   -24422   -24105   -24007   -24101 
  -24189   -24129   -23930   -23727   -23773   -24093   -24452   -24794 
  -25165   -25400   -25382   -25265   -25222   -25311   -25548   -25867 
  -26064   -26048   -25897   -25566   -24968   -24286   -23784   -23465 
  -23305   -23503   -24084   -24637   -24962   -25251   -25465   -25332 
  -24883   -24444   -24250   -24340   -24649   -24989   -25142   -25123 
  -25120   -25132   -25030   -24937   -24992   -25030   -24981   -25024 
  -25168   -25209   -25107   -25016   -24995   -24927   -24750   -24541 
  -24349   -24202   -24119   -24017   -23943   -24084   -24370   -24597 
  -24786   -24993   -25149   -25231   -25317   -25284   -24895   -24347 
  -24142   -24430   -24929   -25339   -25583   -25687   -25614   -25370 
  -25193   -25332   -25666   -25807   -25577   -25201   -25031   -25076 
  -25088   -24925   -24457   -23592   -22685   -22296   -22577   -23265 
  -23931   -24275   -24379   -24410   -24399   -24394   -24486   -24757 
  -25177   -25456   -25374   -25095   -24899   -24857   -24916   -25046 
  -25170   -25180   -24977   -24621   -24408   -24528   -24895   -25419 
  -25917   -26015   -25560   -24852   -24308   -24069   -24069   -24216 
  -24406   -24483   -24291   -23967   -23865   -23965   -24013   -24035 
  -24105   -24121   -24113   -24255   -24484   -24628   -24709   -24734 
  -24678   -24657   -24709   -24767   -24850   -24876   -24702   -24449 
  -24337   -24325   -24255   -24128   -24105   -24262   -24422   -24379 
  -24170   -23944   -23805   -23853   -24093   -24337   -24483   -24664 
  -24861   -24806   -24517   -24366   -24489   -24618   -24649   -24826 
  -25155   -25371   -25477   -25594   -25551   -25235   -24952   -24999 
  -25213   -25235   -25000   -24700   -24401   -24058   -23872   -24128 
  -24657   -24985   -25051   -25139   -25222   -25080   -24825   -24657 
  -24522   -24406   -24448   -24571   -24607   -24576   -24486   -24397 
  -24501   -24717   -24814   -24802   -24787   -24877   -25157   -25455 
  -25494   -25253   -24889   -24567   -24402   -24462   -24687   -24787 
  -24592   -24360   -24349   -24538   -24790   -24827   -24513   -24105 
  -23911   -24104   -24652   -25158   -25320   -25311   -25331   -25294 
  -25045   -24614   -24270   -24228   -24356   -24470   -24611   -24808 
  -25012   -25127   -25053   -24925   -24916   -24827   -24497   -24266 
  -24413   -24705   -24957   -25292   -25629   -25747   -25718   -25717 
  -25740   -25720   -25571   -25196   -24729   -24471   -24498   -24625 
  -24665   -24625   -24619   -24633   -24655   -24738   -24808   -24881 
  -25193   -25641   -25802   -25590   -25296   -25112   -25015   -24894 
  -24713   -24618   -24727   -24945   -25142   -25375   -25704   -25972 
  -26010   -25790   -25320   -24781   -24517   -24599   -24738   -24649 
  -24372   -24174   -24097   -23957   -23799   -23822   -24007   -24227 
  -24467   -24714   -24827   -24764   -24665   -24568   -24462   -24444 
  -24530   -24651   -24777   -24800   -24606   -24312   -24158   -24228 
  -24429   -24673   -24929   -25078   -24954   -24575   -24209   -24178 
  -24494   -24819   -24875   -24649   -24347   -24251   -24360   -24403 
  -24318   -24285   -24418   -24679   -24964   -25219   -25458   -25667 
  -25724   -25543   -25236   -24942   -24568   -24044   -23716   -23905 
  -24414   -24896   -25211   -25308   -25218   -25065   -24877   -24583 
  -24254   -24046   -23958   -23940   -24013   -24162   -24297   -24374 
  -24467   -24610   -24710   -24727   -24624   -24387   -24147   -23899 
  -23604   -23593   -24013   -24371   -24348   -24271   -24389   -24437 
  -24247   -24186   -24543   -25029   -25284   -25319   -25227   -25014 
  -24803   -24748   -24748   -24624   -24447   -24428   -24609   -24825 
  -24887   -24736   -24462   -24281   -24387   -24748   -25122   -25199 
  -24904   -24602   -24617   -24790   -24776   -24556   -24343   -24197 
  -24097   -24077   -24177   -24376   -24479   -24305   -24054   -24092 
  -24475   -24949   -25246   -25250   -25015   -24721   -24507   -24395 
  -24358   -24341   -24358   -24489   -24705   -24844   -24829   -24741 
  -24699   -24795   -24991   -25097   -25065   -24930   -24653   -24390 
  -24436   -24722   -24904   -24958   -25077   -25180   -25104   -24918 
  -24732   -24651   -24791   -25053   -25207   -25262   -25304   -25201 
  -24881   -24528   -24274   -24015   -23666   -23340   -23210   -23296 
  -23415   -23418   -23431   -23573   -23680   -23699   -23916   -24354 
  -24603   -24553   -24483   -24440   -24259   -24016   -23967   -24179 
  -24345   -24163   -23747   -23332   -23063   -23183   -23614   -23927 
  -24094   -24381   -24715   -24865   -24825   -24773   -24775   -24656 
  -24441   -24321   -24179   -23950   -23874   -23881   -23620   -23207 
  -23052   -23221   -23479   -23568   -23317   -22829   -22464   -22459 
  -22713   -23005   -23249   -23441   -23492   -23276   -22847   -22545 
  -22630   -22935   -23161   -23228   -23225   -23294   -23407   -23376 
  -23183   -23045   -23074   -23145   -23221   -23365   -23552   -23796 
  -24213   -24803   -25317   -25452   -25355   -25420   -25606   -25694 
  -25712   -25740   -25821   -26040   -26393   -26686   -26765   -26751 
  -26829   -26940   -26971   -26990   -27017   -26947   -26851   -26804 
  -26693   -26527   -26381   -26142   -25751   -25431   -25380   -25469 
  -25574   -25809   -26161   -26406   -26474   -26412   -26179   -25897 
  -25729   -25566   -25332   -25164   -25119   -25147   -25213   -25309 
  -25358   -25313   -25339   -25466   -25412   -25142   -25038   -25216 
  -25323   -25215   -25097   -25062   -25050   -25011   -24973   -25046 
  -25159   -25066   -24845   -24933   -25573   -26597   -27668   -28522 
  -29130   -29517   -29589   -29327   -28883   -28472   -28298   -28367 
  -28444   -28269   -27904   -27714   -27841   -28096   -28317   -28404 
  -28358   -28336   -28440   -28633   -28799   -28796   -28659   -28591 
  -28599   -28482   -28278   -28250   -28471   -28782   -29008   -29019 
  -28794   -28517   -28382   -28470   -28807   -29200   -29351   -29273 
  -29134   -28931   -28698   -28602   -28672   -28636   -28027   -26615 
  -24796   -23218   -22092   -21289   -20744   -20407   -20159   -20001 
  -20027   -20163   -20187   -19994   -19691   -19375   -19017   -18635 
  -18292   -17963   -17694   -17712   -18157   -18936   -19935   -21085 
  -22250   -23288   -24050   -24414   -24460   -24328   -24163   -24159 
  -24321   -24363   -24124   -23876   -23907   -24173   -24571   -25078 
  -25524   -25640   -25394   -25000   -24601   -24065   -23279   -22488 
  -21992   -21778   -21655   -21523   -21521   -21864   -22360   -22482 
  -22173   -21949   -22063   -22243   -22140   -21714   -21467   -21883 
  -22688   -23215   -23168   -22744   -22324   -22117   -22076   -22015 
  -21789   -21579   -21782   -22497   -23452   -24105   -23753   -22265 
  -20515   -19421   -19067   -19025   -18720   -17905   -16996   -16475 
  -16471   -17034   -18173   -19580   -20756   -21571   -22230   -22705 
  -22717   -22218   -21695   -21787   -22621   -23859   -25255   -26617 
  -27643   -28314   -28900   -29502   -30092   -30623   -30897   -30631 
  -29762   -28682   -27814   -27009   -26173   -25836   -26199   -26617 
  -26561   -26196   -25812   -25409   -25011   -24776   -24628   -24335 
  -24132   -24433   -24949   -25084   -24823   -24565   -24494   -24601 
  -24960   -25550   -26011   -26014   -25741   -25740   -26369   -27375 
  -28247   -28956   -29817   -30925   -32089   -32952   -33215   -32898 
  -32220   -31392   -30586   -29909   -29427   -29200   -29266   -29421 
  -29064   -27847   -26300   -25108   -24391   -24051   -23908   -23714 
  -23534   -23548   -23622   -23642   -23803   -24187   -24611   -25049 
  -25494   -25648   -25475   -25548   -26422   -27861   -28922   -28922 
  -28082   -26817   -25161   -23413   -22261   -22040   -22751   -24255 
  -26056   -27596   -28668   -29201   -28992   -27939   -26190   -23928 
  -21404   -19134   -17784   -17703   -18666   -20073   -21354   -22249 
  -22723   -22728   -22343   -21855   -21721   -22368   -23715   -25281 
  -26746   -28081   -29343   -30414   -31031   -31160   -30937   -30260 
  -28952   -27191   -25396   -23869   -22756   -22196   -22245   -22736 
  -23279   -23515   -23523   -23610   -23696   -23438   -22719   -21652 
  -20487   -19584   -19195   -19333   -19801   -20317   -20845   -21632 
  -22802   -24293   -25883   -27051   -27500   -27610   -27587   -27098 
  -26241   -25721   -26001   -27039   -28517   -29828   -30195   -29130 
  -26766   -23758   -20943   -18966   -17952   -17525   -17307   -17269 
  -17514   -17963   -18404   -18731   -18882   -18806   -18808   -19481 
  -20935   -22509   -23544   -24140   -24759   -25470   -26077   -26352 
  -26117   -25583   -25220   -25239   -25596   -26275   -27072   -27382 
  -26682   -25045   -23090   -21524   -20702   -20594   -20884   -21118 
  -21047   -20923   -21309   -22318   -23306   -23904   -24517   -25331 
  -25847   -25582   -24532   -23041   -21635   -20834   -20946   -21952 
  -23564   -25312   -26713   -27449   -27357   -26632   -25752   -24845 
  -23926   -23533   -24070   -25093   -25882   -26190   -26183   -26011 
  -25628   -24968   -24132   -23328   -22782   -22657   -22783   -22890 
  -23228   -24240   -25605   -26542   -26770   -26476   -26019   -25814 
  -26034   -26488   -26964   -27445   -27841   -28024   -28204   -28672 
  -29276   -29670   -29691   -29336   -28914   -28722   -28431   -27558 
  -26227   -24961   -24214   -24263   -24957   -25656   -26042   -26353 
  -26607   -26534   -26098   -25478   -24821   -24127   -23353   -22523 
  -21753   -21358   -21514   -21852   -22180   -23044   -24804   -26920 
  -28555   -29371   -29397   -28837   -28333   -28570   -29535   -30672 
  -31490   -31930   -32097   -31958   -31572   -31078   -30453   -29691 
  -28918   -28269   -27772   -27422   -27237   -27130   -27014   -27013 
  -27221   -27484   -27614   -27345   -26358   -24938   -23911   -23642 
  -23862   -24144   -24252   -24462   -25007   -25362   -24964   -23985 
  -22952   -22324   -22218   -22219   -22131   -22360   -22917   -23338 
  -23679   -24247   -24852   -25134   -25010   -24518   -23816   -23186 
  -22758   -22585   -22770   -23161   -23450   -23649   -23865   -23966 
  -23928   -23955   -24105   -24274   -24352   -24362   -24451   -24564 
  -24401   -23896   -23334   -22836   -22164   -20956   -19118   -17120 
  -15618   -14743   -14160   -13718   -13698   -14384   -15580   -16768 
  -17682   -18376   -18855   -19111   -19449   -20170   -21182   -22296 
  -23355   -24067   -24327   -24416   -24574   -24858   -25331   -25825 
  -25887   -25400   -24908   -24903   -25247   -25656   -25969   -25871 
  -25218   -24449   -24070   -24050   -24067   -23940   -23585   -22966 
  -22338   -22029   -21778   -20999   -19731   -18581   -17976   -18083 
  -18966   -20393   -21828   -22905   -23764   -24795   -26165   -27692 
  -29107   -30179   -30622   -30395   -29926   -29565   -29316   -29205 
  -29162   -29010   -28759   -28352   -27602   -26650   -25825   -25186 
  -24783   -24763   -24977   -25137   -25193   -25199   -25101   -24907 
  -24976   -25662   -26609   -27130   -27098   -26885   -26779   -26786 
  -26852   -26855   -26469   -25627   -24856   -24687   -25110   -25851 
  -26747   -27629   -28202   -28371   -28435   -28572   -28543   -28274 
  -27958   -27419   -26411   -25263   -24344   -23569   -22898   -22430 
  -22107   -21898   -21930   -22258   -22758   -23322   -24030   -25080 
  -26516   -27924   -28809   -29361   -30130   -31276   -32597   -33696 
  -34125   -33863   -33336   -32903   -32657   -32431   -31905   -31185 
  -30834   -31023   -31287   -31229   -30892   -30365   -29677   -29099 
  -28841   -28711   -28545   -28323   -27946   -27507   -27237   -26978 
  -26374   -25407   -24370   -23502   -22808   -22114   -21216   -20259 
  -19778   -20054   -20769   -21431   -21868   -22243   -22623   -22902 
  -23222   -23734   -24085   -23931   -23421   -22848   -22531   -22738 
  -23240   -23502   -23323   -22866   -22260   -21602   -21109   -21070 
  -21683   -22694   -23450   -23723   -23877   -24121   -24395   -24682 
  -24818   -24371   -23188   -21813   -20903   -20611   -20754   -21014 
  -21104   -21158   -21421   -21682   -21655   -21404   -21007   -20449 
  -19981   -19970   -20432   -21064   -21613   -22026   -22334   -22603 
  -23079   -23953   -25027   -25949   -26472   -26576   -26401   -25974 
  -25365   -24926   -24871   -25069   -25361   -25621   -25724   -25651 
  -25458   -25236   -25107   -24961   -24470   -23666   -23152   -23373 
  -24077   -24633   -24628   -24044   -23155   -22381   -22100   -22264 
  -22451   -22505   -22566   -22662   -22696   -22572   -22249   -21921 
  -21942   -22314   -22643   -22833   -23168   -23687   -24167   -24590 
  -25053   -25424   -25448   -25070   -24518   -24094   -23934   -24028 
  -24306   -24441   -24046   -23360   -22935   -22742   -22469   -22133 
  -21805   -21363   -20790   -20321   -20206   -20541   -21203   -21797 
  -22102   -22265   -22323   -22288   -22415   -22829   -23352   -23611 
  -23396   -23068   -23101   -23496   -24035   -24556   -24898   -24875 
  -24412   -23708   -23091   -22851   -23066   -23390   -23448   -23380 
  -23616   -24220   -24717   -24759   -24570   -24412   -24251   -24078 
  -23958   -23843   -23646   -23344   -23029   -22912   -23134   -23530 
  -23781   -23869   -24136   -24779   -25581   -26223   -26460   -26257 
  -25929   -25833   -26005   -26184   -26172   -26033   -25825   -25531 
  -25215   -24952   -24790   -24879   -25380   -26094   -26576   -26788 
  -27079   -27468   -27523   -27039   -26372   -25983   -26006   -26338 
  -26932   -27760   -28522   -28915   -29031   -29104   -29241   -29481 
  -29835   -30188   -30242   -29727   -28622   -27260   -26187   -25682 
  -25509   -25486   -25876   -26730   -27434   -27529   -27251   -26921 
  -26539   -26141   -25983   -26136   -26316   -26298   -26152   -26091 
  -26210   -26342   -26364   -26279   -26001   -25655   -25659   -26056 
  -26445   -26654   -26738   -26746   -26970   -27616   -28352   -28803 
  -28777   -28134   -27305   -27120   -27499   -27533   -26978   -26383 
  -26032   -25852   -25843   -25982   -26102   -25996   -25679   -25317 
  -24884   -24337   -23990   -24224   -24966   -25640   -25821   -25694 
  -25625   -25756   -26048   -26380   -26646   -26728   -26539   -26223 
  -26022   -26017   -26042   -25902   -25708   -25660   -25722   -25936 
  -26435   -26993   -27253   -27232   -26977   -26381   -25617   -25057 
  -24676   -24179   -23615   -23217   -22974   -22851   -22866   -22951 
  -23182   -23668   -24190   -24510   -24669   -24696   -24478   -24081 
  -23863   -24000   -24202   -24127   -23787   -23523   -23626   -23951 
  -24113   -23992   -23731   -23467   -23233   -23064   -23089   -23259 
  -23171   -22599   -21817   -21200   -20868   -20663   -20486   -20529 
  -20790   -20970   -20996   -20866   -20536   -20410   -21041   -22283 
  -23546   -24563   -25388   -25888   -25818   -25265   -24530   -23827 
  -23309   -23010   -22781   -22505   -22250   -22063   -21864   -21574 
  -21189   -20865   -20783   -20865   -20899   -20835   -20733   -20617 
  -20528   -20525   -20675   -21147   -21953   -22654   -22891   -22875 
  -22989   -23315   -23641   -23751   -23699   -23653   -23684   -23858 
  -24322   -25033   -25644   -25952   -25941   -25465   -24575   -23863 
  -23778   -24005   -24120   -24209   -24416   -24753   -25247   -25644 
  -25546   -25057   -24602   -24306   -24146   -24227   -24503   -24840 
  -25236   -25501   -25423   -25204   -25049   -24884   -24688   -24602 
  -24726   -25024   -25469   -25913   -26021   -25747   -25316   -24819 
  -24266   -23751   -23434   -23369   -23284   -22918   -22457   -22238 
  -22372   -22771   -23280   -23684   -23862   -23963   -24147   -24322 
  -24430   -24474   -24331   -24044   -23996   -24417   -25176   -26071 
  -26962   -27703   -28264   -28722   -29030   -29029   -28750   -28464 
  -28441   -28718   -28979   -28880   -28518   -28233   -28171   -28294 
  -28402   -28239   -27853   -27468   -26990   -26183   -25114   -23947 
  -22860   -22230   -22303   -22989   -24027   -25041   -25708   -25952 
  -25853   -25591   -25404   -25400   -25540   -25748   -25937   -26090 
