Origin Time       2024/04/02 04:24:00
Lat.              40.133
Long.             141.712
Depth. (km)       71
Mag.              6.0
Station Code      AKTH16
Station Lat.      39.5450
Station Long.     140.3481
Station Height(m) -134
Record Time       2024/04/02 04:24:59
Sampling Freq(Hz) 100Hz
Duration Time(s)  208
Dir.              2
Scale Factor      2940(gal)/6170270
Max. Acc. (gal)   3.896
Last Correction   2024/04/02 04:24:44
Memo.             
[...]
   42370    42710    43125    43425    43514    43409    43211    42985 
   42693    42400    42260    42269    42370    42567    42768    42849 
   42816    42714    42568    42442    42430    42568    42840    43222 
   43619    43822    43653    43178    42699    42431    42341    42360 
   42491    42724    42978    43203    43502    43935    44291    44323 
   44057    43714    43479    43341    43152    42866    42635    42590 
   42666    42750    42837    42955    43093    43197    43244    43243 
   43179    43102    43080    43028    42888    42762    42673    42533 
   42345    42216    42231    42327    42431    42640    43019    43478 
   43912    44181    44178    44024    43852    43618    43348    43196 
   43201    43229    43100    42761    42359    42070    41930    41849 
   41705    41445    41149    40987    41070    41399    41880    42318 
   42580    42762    43006    43304    43577    43739    43716    43518 
   43204    42845    42572    42450    42416    42394    42417    42641 
   43081    43444    43466    43162    42704    42337    42209    42199 
   42109    41906    41709    41697    41978    42469    42957    43303 
   43471    43447    43290    43070    42846    42851    43195    43555 
   43614    43387    42999    42534    42041    41616    41451    41631 
   41992    42302    42456    42548    42711    42886    42999    43108 
   43180    43176    43198    43296    43418    43550    43733    44005 
   44284    44301    43862    43139    42435    41815    41284    41009 
   41050    41239    41466    41720    41915    41969    41935    41966 
   42166    42468    42758    42985    43063    42965    42856    42900 
   43109    43332    43398    43373    43471    43669    43719    43499 
   43133    42823    42617    42396    42154    42047    42140    42357 
   42570    42649    42599    42590    42764    43085    43337    43318 
   43087    42803    42508    42232    42047    41951    41883    41812 
   41754    41823    42160    42684    43123    43348    43470    43643 
   43898    44158    44307    44262    44078    43908    43797    43632 
   43342    43009    42774    42729    42891    43149    43291    43154 
   42772    42359    42083    41900    41732    41633    41642    41682 
   41750    41892    42091    42324    42476    42409    42274    42399 
   42915    43652    44258    44472    44373    44187    43991    43802 
   43690    43647    43566    43406    43166    42804    42351    41921 
   41627    41518    41519    41552    41624    41777    42059    42374 
   42494    42368    42088    41749    41517    41505    41666    41945 
   42316    42666    42895    43073    43366    43807    44239    44547 
   44704    44607    44217    43726    43421    43418    43552    43594 
   43492    43325    43093    42718    42270    41951    41780    41600 
   41314    41003    40912    41158    41540    41898    42307    42762 
   43098    43232    43220    43122    42971    42845    42785    42688 
   42502    42316    42222    42294    42591    43007    43331    43531 
   43671    43649    43413    43124    42917    42827    42849    42891 
   42920    43019    43144    43172    43149    43166    43206    43237 
   43203    43017    42755    42600    42584    42609    42605    42583 
   42587    42629    42657    42631    42606    42616    42577    42494 
   42517    42679    42829    42837    42762    42809    43022    43171 
   43125    43050    43065    43001    42709    42342    42127    42060 
   42071    42222    42484    42711    42882    43019    43042    42999 
   43056    43204    43318    43330    43203    42995    42874    42868 
   42842    42741    42635    42597    42676    42871    43093    43205 
   43080    42744    42428    42293    42330    42547    42909    43243 
   43374    43257    42996    42711    42406    42093    41880    41866 
   42043    42304    42496    42478    42295    42136    42061    42051 
   42116    42181    42223    42361    42663    43096    43528    43802 
   43887    43786    43506    43240    43234    43390    43421    43358 
   43389    43442    43365    43140    42793    42426    42175    42042 
   41967    41846    41594    41415    41581    41987    42377    42658 
   42809    42914    43086    43221    43165    42972    42751    42565 
   42517    42659    42869    42969    42919    42845    42928    43262 
   43766    44162    44200    43952    43696    43554    43461    43355 
   43163    42801    42354    42038    41923    41884    41841    41871 
   41994    42059    41983    41871    41815    41837    41948    42101 
   42212    42242    42200    42151    42186    42286    42351    42337 
   42258    42197    42277    42535    42936    43406    43751    43809 
   43678    43473    43163    42880    42796    42780    42624    42314 
   41982    41759    41691    41803    42088    42417    42636    42666 
   42564    42556    42793    43149    43450    43729    44045    44322 
   44509    44622    44685    44687    44546    44182    43640    43112 
   42802    42700    42607    42439    42373    42571    42869    42981 
   42941    42986    43130    43250    43284    43162    42886    42580 
   42303    42072    41927    41809    41679    41687    41928    42307 
   42742    43171    43470    43546    43421    43179    42945    42865 
   42945    43043    43132    43281    43406    43387    43290    43255 
   43316    43392    43361    43227    43118    43056    42966    42841 
   42750    42761    42823    42827    42791    42709    42488    42192 
   41997    42002    42203    42462    42631    42713    42837    43120 
   43513    43797    43852    43722    43440    43052    42716    42540 
   42465    42438    42497    42607    42658    42612    42507    42397 
   42360    42406    42425    42354    42230    42103    42090    42321 
   42698    42958    43003    42966    42953    42948    42920    42915 
   43011    43169    43299    43404    43501    43547    43484    43271 
   42947    42599    42261    41923    41585    41295    41181    41299 
   41458    41453    41441    41654    41959    42170    42351    42595 
   42867    43105    43274    43324    43221    43022    42854    42763 
   42697    42640    42607    42660    42922    43299    43535    43591 
   43547    43361    43020    42647    42364    42232    42230    42256 
   42239    42210    42278    42491    42693    42712    42612    42552 
   42561    42580    42597    42663    42788    42939    43134    43391 
   43594    43622    43548    43502    43458    43324    43133    42990 
   42924    42931    43023    43161    43223    43082    42752    42394 
   42177    42178    42302    42340    42272    42253    42282    42291 
   42351    42465    42593    42799    43024    43132    43166    43186 
   43192    43196    43126    42919    42716    42718    42903    43099 
   43259    43429    43525    43404    43078    42677    42272    41939 
   41830    41947    42141    42373    42700    43059    43276    43234 
   43026    42802    42542    42217    41929    41775    41769    41847 
   41926    42006    42145    42384    42693    42908    42867    42668 
   42576    42672    42846    43048    43271    43506    43788    44049 
   44132    44068    44012    44008    44005    43921    43686    43325 
   42973    42765    42763    42916    43033    42972    42824    42702 
   42577    42457    42410    42396    42323    42184    42060    42069 
   42280    42572    42743    42785    42860    43056    43265    43262 
   42970    42613    42374    42183    42001    41932    42008    42087 
   42031    41937    42033    42384    42805    43032    43006    42929 
   42947    42947    42841    42749    42760    42864    43048    43265 
   43411    43363    43087    42744    42501    42359    42290    42300 
   42351    42430    42594    42775    42771    42605    42491    42507 
   42583    42633    42684    42832    43056    43210    43216    43163 
   43133    43073    42954    42819    42649    42434    42243    42120 
   42051    42021    42019    42045    42155    42391    42653    42799 
   42889    43051    43211    43288    43352    43409    43417    43440 
   43526    43631    43723    43803    43852    43826    43703    43571 
   43515    43487    43411    43276    43070    42749    42390    42187 
   42211    42361    42506    42567    42530    42464    42472    42533 
   42558    42563    42659    42915    43244    43441    43439    43382 
   43352    43250    43030    42834    42782    42831    42864    42772 
   42544    42274    42075    42020    42050    42027    41956    41944 
   41991    42023    42020    42005    41993    41986    42015    42121 
   42211    42175    42091    42085    42146    42176    42128    42103 
   42163    42207    42238    42396    42657    42940    43250    43515 
   43622    43634    43678    43737    43750    43704    43560    43310 
   43066    42955    43016    43192    43328    43300    43210    43190 
   43114    42846    42536    42348    42231    42080    41903    41831 
   42025    42434    42773    42924    43048    43254    43508    43733 
   43837    43784    43635    43493    43431    43383    43259    43123 
   43040    42918    42676    42371    42146    42140    42297    42377 
   42280    42109    42018    42084    42205    42309    42449    42593 
   42637    42591    42562    42675    42955    43247    43418    43509 
   43546    43482    43346    43276    43320    43312    43085    42718 
   42439    42378    42485    42633    42760    42899    43088    43235 
   43140    42751    42264    41902    41796    41989    42316    42534 
   42606    42645    42705    42782    42868    42937    42944    42877 
   42768    42680    42609    42477    42307    42225    42213    42178 
   42159    42265    42467    42587    42517    42327    42155    42136 
   42349    42672    42831    42749    42598    42514    42504    42555 
   42692    42932    43213    43436    43540    43546    43559    43622 
   43657    43598    43463    43325    43241    43218    43269    43423 
   43592    43596    43424    43238    43132    43091    43042    42878 
   42617    42451    42496    42632    42746    42908    43146    43325 
   43327    43159    42905    42690    42615    42701    42892    43102 
   43259    43278    43099    42796    42529    42429    42515    42644 
   42694    42719    42772    42781    42710    42576    42443    42453 
   42572    42596    42557    42645    42880    43178    43544    43988 
   44425    44743    44872    44780    44552    44338    44177    44033 
   43950    43986    44052    44030    43993    44086    44221    44239 
   44197    44178    44105    43904    43631    43474    43577    43844 
   44072    44197    44256    44328    44503    44774    45103    45494 
   45831    45906    45719    45535    45563    45686    45677    45542 
   45372    45165    44930    44627    44139    43566    43151    42828 
   42401    41943    41553    41174    40836    40617    40500    40435 
   40368    40257    40121    39968    39758    39442    39005    38549 
   38252    38124    38028    37961    38001    38102    38214    38366 
   38554    38800    39140    39472    39685    39763    39660    39397 
   39182    39225    39529    39927    40281    40605    40957    41281 
   41487    41622    41771    41960    42235    42623    43028    43298 
   43418    43518    43666    43827    43995    44126    44101    43955 
   43894    43929    43858    43656    43469    43316    43094    42720 
   42218    41768    41493    41284    41039    40817    40676    40576 
   40448    40263    39988    39581    39186    39047    39161    39349 
   39517    39606    39616    39606    39537    39386    39224    39043 
   38852    38831    39135    39719    40439    41178    41864    42488 
   43065    43609    44125    44483    44492    44251    44123    44253 
   44502    44758    44931    44878    44552    44103    43800    43764 
   43864    43958    44020    44052    44033    43985    44055    44347 
   44761    45146    45388    45389    45208    45061    45045    45077 
   45127    45252    45467    45740    46057    46400    46694    46849 
   46878    46895    46923    46810    46469    46016    45598    45280 
   45046    44866    44803    44865    44986    45157    45345    45506 
   45597    45465    45074    44600    44062    43349    42570    41884 
   41236    40605    40141    39887    39720    39561    39402    39292 
   39384    39704    40045    40312    40655    41160    41773    42483 
   43277    44083    44879    45697    46489    47176    47769    48249 
   48558    48746    48865    48800    48413    47734    46915    46096 
   45337    44675    44141    43659    43128    42614    42189    41774 
   41314    40897    40594    40393    40332    40462    40766    41248 
   41860    42508    43159    43704    44053    44304    44514    44702 
   44920    45054    44967    44760    44565    44358    44091    43838 
   43689    43618    43614    43681    43698    43597    43429    43258 
   43239    43432    43645    43739    43681    43525    43460    43542 
   43663    43763    43757    43536    43031    42270    41426    40586 
   39699    38820    38064    37468    36983    36601    36470    36656 
   37075    37704    38463    39200    39902    40578    41199    41766 
   42235    42580    42913    43356    43926    44573    45153    45484 
   45601    45768    46051    46254    46270    46119    45720    45005 
   44082    43071    42019    40965    39888    38801    37786    36858 
   36066    35492    35064    34727    34600    34705    34931    35375 
   36190    37250    38414    39637    40740    41528    42050    42535 
   43115    43726    44192    44354    44239    44102    44176    44395 
   44550    44508    44215    43752    43355    43211    43271    43334 
   43269    43098    42929    42814    42690    42558    42554    42805 
   43373    44207    45127    45955    46569    46881    46889    46658 
   46273    45788    45132    44229    43270    42603    42287    42009 
   41530    41019    40835    41088    41580    42110    42619    43096 
   43551    43998    44380    44623    44744    44790    44731    44546 
   44363    44362    44597    44949    45222    45303    45263    45218 
   45140    44891    44353    43548    42644    41791    41118    40776 
   40731    40801    40966    41283    41625    41822    41867    41846 
   41916    42266    42791    43133    43210    43215    43303    43532 
   43795    43997    44280    44743    45195    45353    45183    44908 
   44677    44408    44023    43597    43256    43085    43129    43385 
   43735    43910    43823    43753    43834    43808    43531    43201 
   42996    42899    42950    43223    43543    43679    43625    43408 
   42934    42158    41262    40484    39822    39244    38923    38974 
   39266    39651    40163    40824    41614    42505    43240    43542 
   43538    43564    43778    43962    43737    43125    42544    42213 
   42014    41861    41815    41879    42009    42291    42759    43193 
   43296    42948    42235    41364    40608    40169    40031    40076 
   40265    40582    40963    41287    41403    41244    40926    40685 
   40669    40828    41108    41546    42057    42510    42920    43295 
   43555    43672    43619    43378    43113    42938    42768    42695 
   42909    43236    43379    43327    43218    43033    42598    41939 
   41385    41154    41122    41130    41190    41303    41349    41235 
   41008    40838    40869    41063    41375    41849    42404    42886 
   43252    43473    43433    43074    42532    42045    41786    41813 
   42036    42284    42462    42516    42407    42226    42115    42142 
   42353    42757    43317    43998    44668    45121    45377    45664 
   45992    46147    46095    45945    45698    45346    44973    44650 
   44398    44196    44046    44026    44124    44226    44299    44352 
   44357    44266    44040    43735    43472    43295    43211    43248 
   43382    43555    43733    43897    44066    44287    44594    44985 
   45313    45331    44991    44493    44097    43934    43967    44139 
   44343    44392    44226    43952    43705    43595    43579    43472 
   43195    42825    42448    42208    42299    42718    43187    43465 
   43586    43695    43786    43789    43729    43689    43677    43579 
   43386    43295    43331    43281    43096    42820    42344    41707 
   41186    40897    40780    40846    41115    41524    41955    42268 
   42473    42802    43346    43838    43975    43771    43504    43395 
   43463    43666    43932    44139    44218    44249    44371    44570 
   44659    44505    44109    43488    42687    41867    41256    40985 
   40920    40805    40552    40271    40086    40030    40049    40057 
   40019    39921    39747    39527    39315    39165    39121    39205 
   39404    39592    39657    39713    39980    40578    41392    42178 
   42885    43561    44028    44113    44000    43950    43943    43874 
   43803    43723    43349    42564    41747    41332    41315    41346 
   41131    40658    40057    39479    39169    39304    39715    40060 
   40193    40245    40435    40762    41025    41183    41332    41502 
   41731    42067    42510    43057    43637    44170    44659    45039 
   45203    45200    45132    44968    44650    44291    44127    44168 
   44096    43749    43295    42841    42398    42036    41763    41519 
   41195    40657    40024    39613    39474    39459    39561    39761 
   40017    40431    40948    41301    41569    42077    42788    43343 
   43544    43577    43714    43977    44292    44734    45333    45897 
   46299    46694    47201    47718    48077    48145    47932    47602 
   47213    46686    46100    45632    45142    44344    43379    42605 
   42079    41724    41517    41351    41117    40730    40110    39383 
   38820    38593    38740    39112    39497    39826    40124    40474 
   40990    41589    42079    42393    42631    42955    43385    43788 
   44128    44448    44624    44548    44414    44400    44338    44087 
   43812    43613    43346    42951    42549    42205    41889    41659 
   41644    41884    42294    42681    42947    43256    43727    44241 
   44662    44982    45270    45434    45255    44890    44820    45157 
   45557    45705    45565    45325    45156    45027    44946    45052 
   45225    45125    44704    44206    43747    43278    42808    42423 
   42199    42118    42014    41777    41567    41606    41860    42112 
   42264    42356    42389    42329    42208    42068    41978    42139 
   42655    43315    43841    44093    44013    43674    43277    42888 
   42461    42136    42111    42303    42476    42562    42595    42463 
   42061    41650    41651    42088    42647    43068    43180    43025 
   42924    43012    43122    43205    43358    43513    43494    43317 
   43131    42981    42915    43001    43143    43167    43051    42914 
   42866    42932    43048    43070    42928    42777    42772    42887 
   43063    43314    43653    44018    44339    44671    45082    45361 
   45168    44637    44333    44440    44551    44275    43691    43274 
   43263    43264    42881    42291    41883    41764    41830    42029 
   42322    42518    42386    41892    41338    41078    41109    41247 
   41403    41526    41669    41977    42458    42973    43409    43822 
