Origin Time       2024/04/02 04:24:00
Lat.              40.133
Long.             141.712
Depth. (km)       71
Mag.              6.0
Station Code      AKTH04
Station Lat.      39.1740
Station Long.     140.7129
Station Height(m) 180
Record Time       2024/04/02 04:24:59
Sampling Freq(Hz) 100Hz
Duration Time(s)  139
Dir.              3
Scale Factor      2940(gal)/6170270
Max. Acc. (gal)   2.864
Last Correction   2024/04/02 04:24:44
Memo.             
[...]
   81834    81464    81481    81732    81947    82006    82034    82083 
   82042    81986    82044    82109    82137    82245    82391    82535 
   82744    82787    82478    82192    82273    82469    82537    82707 
   82896    82739    82557    82637    82687    82694    82784    82743 
   82387    81909    81733    81893    81889    81558    81294    81162 
   81055    81223    81580    81767    81714    81488    81423    81797 
   82256    82488    82631    82681    82567    82458    82314    82033 
   81846    81946    82296    82610    82527    82186    81996    82032 
   82075    82004    82013    82085    81973    81879    81984    82024 
   81975    82062    82175    82088    81964    81829    81422    81019 
   80959    80998    81118    81424    81543    81390    81415    81673 
   81880    82075    82326    82460    82401    82303    82397    82613 
   82643    82492    82415    82569    82933    83299    83537    83583 
   83256    82768    82516    82335    82147    82115    82128    82252 
   82414    82239    81959    81935    81975    81855    81742    82004 
   82388    82254    81713    81248    81077    81300    81789    82292 
   82603    82645    82571    82477    82286    81960    81729    81852 
   82071    82054    82013    82152    82224    82070    81927    81909 
   81789    81574    81558    81680    81613    81443    81516    81782 
   81909    81896    81942    82008    82095    82148    81851    81399 
   81274    81291    81326    81642    81958    81906    81798    81934 
   82025    81806    81640    81851    82104    82106    82013    81971 
   81956    82015    82307    82695    82801    82660    82497    82319 
   82220    82275    82445    82727    82875    82792    82766    82734 
   82514    82224    81981    81908    82102    82510    82994    83211 
   82968    82656    82589    82614    82679    82745    82668    82543 
   82321    81905    81682    81792    81869    81774    81591    81500 
   81622    81736    81782    81829    81628    81323    81483    81937 
   82099    82008    81911    81926    82168    82378    82311    82233 
   82222    82078    82011    82202    82284    82083    81935    81920 
   81798    81650    81681    81701    81506    81356    81460    81501 
   81270    81153    81366    81512    81561    81859    82065    81974 
   82001    82047    82055    82373    82629    82461    82330    82453 
   82609    82684    82522    82136    81922    82023    82195    82304 
   82229    81948    81861    82060    82116    82008    81968    81973 
   81983    81883    81651    81599    81799    82058    82317    82415 
   82317    82177    81878    81698    82185    82861    82998    82735 
   82458    82353    82436    82514    82452    82410    82551    82727 
   82709    82557    82439    82312    82132    81925    81649    81475 
   81519    81530    81449    81428    81425    81449    81608    81858 
   82099    82326    82606    82895    82985    82939    82905    82630 
   82194    82115    82368    82586    82601    82301    81755    81280 
   81186    81436    81640    81702    81899    82159    82115    81813 
   81625    81606    81599    81654    81799    81820    81637    81591 
   81854    82116    82207    82164    82103    82261    82538    82596 
   82422    82184    82022    82024    82176    82537    82938    82773 
   82157    81938    82103    82145    82132    81990    81560    81364 
   81645    81857    81784    81669    81594    81635    81835    82040 
   82184    82261    82165    81908    81789    82038    82391    82537 
   82611    82699    82579    82269    82084    82128    82224    82192 
   82096    82126    82167    82112    82127    82137    82049    82000 
   82049    82230    82429    82425    82280    82179    82242    82475 
   82644    82601    82529    82511    82419    82307    82209    81999 
   81783    81746    81794    81843    81863    81679    81411    81415 
   81642    81920    82148    82127    81998    82058    82216    82304 
   82300    82180    82036    81882    81536    81176    81162    81413 
   81650    81769    81786    81720    81582    81484    81565    81741 
   81893    82041    82074    81896    81749    81822    81924    81918 
   81915    81999    82186    82350    82260    82074    82058    82049 
   82034    82191    82315    82294    82341    82405    82322    82314 
   82545    82639    82468    82454    82618    82681    82741    82819 
   82630    82204    81966    82058    82246    82434    82575    82518 
   82333    82272    82374    82456    82442    82433    82492    82537 
   82463    82368    82360    82252    82018    81918    81992    82074 
   81994    81759    81677    81876    82066    82062    81968    81878 
   81854    82036    82360    82417    82092    81730    81474    81300 
   81350    81650    81965    82047    81904    81751    81759    81940 
   82074    81949    81642    81385    81466    81906    82221    82110 
   81867    81842    82045    82235    82248    82247    82408    82593 
   82608    82451    82215    82059    82117    82281    82394    82395 
   82162    81833    81838    82170    82510    82745    82700    82297 
   81942    81926    82038    82116    82177    82172    82202    82323 
   82220    81847    81633    81758    81940    81957    81822    81590 
   81414    81396    81475    81647    81744    81563    81324    81279 
   81368    81515    81762    82034    82180    82234    82223    82188 
   82251    82353    82519    82771    82764    82488    82364    82454 
   82572    82584    82449    82282    82203    82247    82283    82164 
   81976    81783    81652    81791    82160    82395    82250    81924 
   81749    81713    81801    82101    82403    82447    82242    82019 
   82022    82207    82368    82380    82280    82259    82289    82200 
   82105    82065    81901    81700    81713    81746    81569    81412 
   81404    81416    81427    81439    81451    81563    81760    81968 
   82221    82420    82469    82513    82599    82730    82907    82961 
   82921    82911    82770    82515    82473    82580    82441    82187 
   82158    82139    81964    81904    81905    81720    81610    81818 
   82110    82238    82091    81809    81725    81735    81656    81707 
   81832    81823    81837    82008    82182    82124    81911    81864 
   81966    82023    82166    82422    82468    82260    82081    82041 
   82123    82323    82505    82499    82352    82173    81946    81668 
   81447    81492    81844    82178    82316    82368    82348    82302 
   82298    82179    81985    81984    82057    81981    81918    81937 
   81865    81740    81776    81959    82110    82275    82476    82499 
   82403    82236    81826    81496    81596    81857    82071    82214 
   82097    81785    81623    81673    81848    82123    82207    81954 
   81824    82036    82171    82024    81807    81652    81558    81507 
   81564    81807    81985    81927    81985    82234    82320    82409 
   82635    82503    82191    82291    82523    82601    82576    82263 
   81874    81982    82475    82855    83115    83355    83373    83080 
   82694    82554    82620    82515    82415    82608    82715    82435 
   81927    81585    81763    82229    82578    82704    82486    82121 
   82073    82261    82332    82224    82048    81917    81767    81565 
   81607    81844    81754    81501    81630    81751    81433    81216 
   81307    81227    80961    80780    80676    80649    80788    81049 
   81210    81208    81380    81789    82010    81962    81877    81722 
   81501    81496    81819    82121    82138    82115    82241    82443 
   82707    82963    83023    82868    82715    82669    82645    82644 
   82631    82465    82201    82114    82219    82221    82156    82233 
   82413    82731    83127    83241    83111    83174    83412    83433 
   83201    83005    82858    82536    82178    82068    82122    82230 
   82279    82036    81636    81383    81353    81559    81817    81873 
   81790    81660    81494    81414    81357    81231    81386    81823 
   81890    81527    81202    81007    80963    81178    81514    81841 
   82219    82588    82668    82360    81886    81558    81554    81746 
   81923    82048    82053    81928    81764    81612    81617    81771 
   81809    81784    81885    81891    81794    81880    81982    82050 
   82268    82323    82184    82291    82532    82596    82568    82512 
   82329    82236    82490    82719    82658    82689    82841    82757 
   82570    82444    82188    82033    82393    82989    83301    83162 
   82727    82394    82301    82238    82232    82292    82189    82015 
   81991    82016    81926    81605    81189    81071    81256    81550 
   81954    82171    81968    81725    81714    81814    82002    82205 
   82232    82261    82351    82119    81729    81727    81983    82095 
   81999    81788    81528    81300    81272    81484    81632    81417 
   81095    81171    81514    81687    81783    81884    81799    81772 
   82071    82274    82115    81940    81832    81656    81609    81791 
   81982    81999    81797    81579    81643    81885    82035    82123 
   82206    82250    82349    82491    82478    82335    82256    82249 
   82281    82389    82466    82466    82495    82466    82457    82697 
   82824    82463    82050    82010    82114    82206    82330    82330 
   82222    82117    82005    82045    82262    82472    82670    82841 
   82813    82535    82278    82248    82255    82138    81922    81759 
   81788    81861    81918    82037    82015    81960    82230    82537 
   82605    82666    82599    82252    82015    81979    81904    81877 
   81950    81870    81648    81600    81686    81635    81508    81424 
   81438    81764    82303    82539    82360    82142    82078    82082 
   82051    82026    82122    82341    82674    83026    83071    82812 
   82618    82450    82230    82237    82315    82139    81866    81569 
   81238    81237    81598    81732    81535    81490    81672    81915 
   82223    82439    82394    82180    82009    82046    82191    82261 
   82361    82582    82748    82768    82704    82475    82126    82055 
   82352    82626    82714    82630    82241    81838    82011    82629 
   83055    83065    82743    82229    81878    81974    82401    82749 
   82764    82698    82621    82286    82014    82038    82035    82095 
   82234    82015    81680    81656    81655    81601    81849    82240 
   82266    81951    81706    81583    81570    81869    82149    81957 
   81698    81725    81727    81578    81402    81250    81220    81304 
   81414    81530    81629    81721    81790    81814    81944    82321 
   82777    82994    82898    82634    82467    82605    82896    83146 
   83317    83244    82961    82784    82773    82824    82884    82828 
   82703    82767    83045    83253    83215    83087    83005    82868 
   82691    82570    82392    82073    81620    81112    80873    80991 
   81258    81626    81800    81522    81271    81470    81973    82430 
   82575    82595    82713    82652    82325    82059    81954    81858 
   81768    81837    82040    82095    81918    81757    81723    81776 
   81983    82134    81961    81836    82043    82254    82363    82453 
   82461    82570    82805    82730    82337    81991    81756    81748 
   82102    82488    82552    82307    81893    81618    81757    82044 
   82155    82125    81950    81796    81923    82182    82421    82449 
   82086    81792    81837    81900    81909    81854    81721    81566 
   81242    80865    80614    80253    79754    79384    79285    79474 
   79688    79678    79642    79706    79675    79632    79834    80133 
   80317    80476    80691    80910    81075    81233    81482    81670 
   81679    81781    82116    82525    82909    83129    83111    83009 
   82996    83216    83631    83977    84145    84178    84132    84033 
   83769    83485    83597    83988    84226    84328    84413    84457 
   84576    84841    85121    85224    85036    84685    84387    84053 
   83513    82988    82651    82343    82058    81756    81320    81010 
   80876    80607    80322    80233    80250    80524    81058    81341 
   81331    81250    80783    80044    79588    79245    78838    78845 
   79309    79516    79231    79105    79510    80104    80562    80778 
   80755    80703    80855    81099    81310    81679    82079    82152 
   82071    81926    81451    80976    81078    81465    81495    81242 
   81195    81420    81672    81933    82152    82048    81587    80934 
   80302    79997    80038    80374    80956    81141    80611    80158 
   80305    80617    80713    80793    81134    81731    82438    83187 
   83975    84595    84763    84651    84521    84355    84382    84844 
   85382    85492    85146    84645    84125    83651    83457    83358 
   82949    82586    82482    82160    81995    82576    83156    83265 
   83400    83475    83365    83628    84280    84712    84760    84717 
   84731    84900    85341    85702    85613    85383    85351    85358 
   85235    85216    85544    85823    85572    85047    84619    84228 
   83860    83683    83562    83076    82244    81440    80673    80024 
   79779    79694    79496    79455    79806    80422    80803    80461 
   79512    78555    78112    78187    78312    78108    77751    77819 
   78434    79216    80128    81200    82106    82764    83202    83094 
   82419    81780    81501    81442    81660    81982    81747    80803 
   79434    77814    76507    76068    76344    77192    78518    79641 
   80039    80037    80135    80587    81400    82191    82621    82735 
   82684    82589    82371    82062    82092    82607    83291    83892 
   84234    84210    84093    84379    85176    86180    87078    87602 
   87565    87025    86249    85433    84631    83991    83538    82982 
   82258    81837    82064    82589    83053    83444    83613    83485 
   83265    83171    83404    83852    84064    84024    84099    84257 
   84314    84310    84147    83685    83127    82676    82130    81326 
   80513    79950    79624    79469    79433    79305    78991    78682 
   78347    77973    77858    78046    78550    79359    79901    79887 
   79631    79119    78419    78268    79046    80311    81559    82498 
   82923    82932    82958    83338    84022    84683    85151    85563 
   85831    85615    84908    84069    83377    82811    82339    81969 
   81488    80843    80306    79871    79306    78885    79066    79609 
   80240    80909    81064    80642    80227    79880    79872    80633 
   81652    82544    83609    84862    85933    86481    86459    86040 
   85343    84559    83908    83436    83137    82963    82820    82696 
   82587    82456    82387    82307    81911    81283    80839    80815 
   81230    81755    81843    81422    80970    80766    80649    80629 
   80794    80992    81262    81508    81294    80768    80480    80503 
   80777    81461    82537    83807    85114    86082    86348    86057 
   85512    84883    84376    83917    83113    82056    81196    80485 
   79734    79103    78836    79025    79322    79269    78961    78710 
   78744    79115    79499    79870    80534    81316    82103    83019 
   83715    84026    84178    84190    84120    83875    83317    82914 
   82924    83132    83555    83967    84164    84416    84599    84575 
   84605    84424    83692    82720    81937    81582    81793    82597 
   83708    84443    84321    83735    83389    83251    83053    82896 
   82709    82444    82187    81796    81479    81458    81382    81228 
   81331    81642    81874    81812    81496    81087    80685    80363 
   80046    79741    79628    79620    79528    79332    78889    78175 
   77599    77400    77424    77640    77971    78100    78117    78424 
   79028    79627    80016    80272    80662    81376    82421    83427 
   83907    83960    83966    84032    84261    84665    84897    84847 
   84762    84668    84381    83853    83409    83546    84137    84521 
   84441    84125    83730    83327    83236    83595    83829    83532 
   83047    82605    82304    82409    82810    83104    83055    82745 
   82571    82731    83087    83483    83635    83384    82987    82642 
   82293    81968    81745    81534    81358    81399    81434    81293 
   81414    81789    82012    82227    82433    82437    82506    82728 
   82739    82348    81851    81589    81631    81992    82320    82146 
   81744    81583    81687    81841    81773    81564    81576    81886 
   82228    82309    82252    82391    82518    82365    82210    82181 
   82170    82300    82305    81676    80799    80343    80209    80281 
   80721    81176    81195    80902    80573    80443    80527    80455 
   80286    80515    81036    81435    81591    81502    81527    82102 
   82873    83347    83591    83617    83341    82972    82762    82659 
   82501    82408    82499    82597    82546    82312    81917    81273 
   80344    79586    79383    79552    79939    80500    80971    81271 
   81533    81564    81382    81359    81379    81337    81590    82031 
   82125    81974    82168    82616    82851    83075    83447    83547 
   83413    83459    83540    83528    83909    84687    85034    84690 
   84275    84078    83739    83226    82997    83042    83124    83464 
   84159    84811    84935    84466    83934    83685    83415    82951 
   82619    82660    82897    83079    83229    83321    83197    82971 
   82732    82334    81859    81540    81376    81183    80914    80676 
   80467    80342    80530    80992    81281    81116    80759    80574 
   80523    80238    79627    79159    79153    79415    79831    80431 
   81008    81403    81628    81575    81332    81196    81131    81124 
   81400    81890    82242    82248    82092    82039    82071    82248 
   82571    82667    82445    82144    81780    81465    81559    82008 
   82351    82439    82400    82236    82005    81838    81756    81774 
   81890    82080    82482    83016    83329    83546    83902    84002 
   83553    82935    82577    82565    82710    82685    82437    82123 
   81769    81463    81185    80810    80647    80893    81192    81286 
   81204    81073    80917    80676    80506    80458    80453    80640 
   80821    80767    80980    81492    81537    81115    80928    81173 
   81627    82150    82614    82915    83149    83437    83505    83011 
   82481    82719    83372    83626    83411    82966    82564    82476 
   82485    82381    82439    82712    82898    82859    82690    82561 
   82522    82518    82591    82731    82834    83008    83503    84164 
   84492    84309    83816    83342    83241    83580    84050    84194 
   83706    82790    81909    81364    81307    81632    81928    81910 
   81742    81597    81302    80846    80503    80463    80780    81274 
   81632    81708    81576    81427    81248    81013    80925    80884 
   80638    80306    80098    80012    79967    79969    80000    80012 
   80191    80705    81374    81922    82231    82444    82755    83022 
   83089    83028    82874    82724    82780    83050    83290    83326 
   83229    83226    83605    84230    84521    84361    84036    83662 
   83382    83250    83125    83062    83052    82815    82344    81809 
   81240    80859    80951    81392    81838    82126    82289    82366 
