Origin Time       2024/04/02 04:24:00
Lat.              40.133
Long.             141.712
Depth. (km)       71
Mag.              6.0
Station Code      AOMH13
Station Lat.      40.5794
Station Long.     141.4451
Station Height(m) -140
Record Time       2024/04/02 04:24:50
Sampling Freq(Hz) 100Hz
Duration Time(s)  300
Dir.              3
Scale Factor      2942(gal)/8224139
Max. Acc. (gal)   19.766
Last Correction   2024/04/02 04:24:50
Memo.             
[...]
  157338   157337   157338   157341   157341   157339   157342   157339 
  157335   157341   157345   157342   157341   157341   157341   157343 
  157342   157339   157341   157339   157337   157337   157335   157334 
  157334   157334   157337   157339   157337   157335   157337   157338 
  157338   157335   157333   157335   157334   157330   157330   157334 
  157335   157338   157337   157331   157331   157337   157339   157341 
  157337   157333   157333   157334   157337   157341   157339   157337 
  157339   157338   157338   157345   157347   157342   157335   157333 
  157335   157342   157345   157338   157337   157343   157343   157341 
  157339   157337   157335   157335   157337   157339   157341   157337 
  157334   157335   157341   157343   157343   157343   157341   157334 
  157334   157338   157341   157345   157342   157338   157338   157341 
  157341   157342   157343   157339   157337   157338   157337   157337 
  157339   157338   157335   157338   157339   157339   157341   157341 
  157339   157338   157338   157341   157342   157338   157335   157335 
  157337   157338   157335   157335   157341   157345   157342   157335 
  157333   157334   157337   157338   157338   157335   157333   157334 
  157339   157341   157339   157341   157339   157338   157341   157341 
  157337   157335   157335   157337   157338   157338   157338   157339 
  157342   157345   157342   157339   157341   157342   157343   157343 
  157345   157345   157341   157338   157342   157345   157339   157334 
  157333   157335   157339   157339   157338   157338   157339   157342 
  157343   157342   157343   157342   157341   157341   157339   157338 
  157338   157342   157341   157337   157339   157345   157346   157346 
  157342   157338   157342   157342   157338   157343   157346   157342 
  157339   157339   157341   157342   157341   157341   157343   157341 
  157335   157339   157346   157347   157343   157339   157341   157341 
  157338   157339   157342   157342   157341   157339   157338   157342 
  157345   157347   157349   157343   157339   157342   157346   157346 
  157345   157342   157338   157341   157343   157343   157342   157341 
  157342   157345   157342   157341   157345   157347   157343   157342 
  157345   157345   157345   157342   157338   157337   157341   157345 
  157343   157341   157339   157339   157339   157341   157341   157339 
  157341   157338   157339   157342   157339   157335   157338   157339 
  157339   157342   157339   157335   157334   157335   157337   157337 
  157335   157337   157338   157338   157335   157337   157339   157337 
  157334   157334   157333   157333   157338   157338   157337   157338 
  157338   157338   157339   157341   157339   157339   157341   157341 
  157338   157339   157343   157343   157342   157341   157342   157343 
  157342   157342   157339   157335   157337   157338   157338   157341 
  157342   157341   157343   157343   157338   157338   157342   157343 
  157342   157343   157343   157345   157343   157342   157345   157349 
  157349   157347   157347   157346   157343   157342   157345   157341 
  157337   157339   157338   157335   157339   157342   157339   157337 
  157337   157337   157339   157341   157341   157342   157342   157339 
  157339   157339   157338   157337   157339   157345   157343   157341 
  157343   157343   157343   157342   157339   157342   157343   157339 
  157337   157341   157342   157342   157345   157342   157338   157335 
  157337   157339   157342   157342   157339   157339   157343   157343 
  157341   157341   157345   157345   157338   157337   157342   157343 
  157339   157341   157343   157341   157338   157339   157339   157335 
  157335   157338   157338   157339   157339   157335   157337   157339 
  157337   157334   157334   157334   157335   157337   157338   157338 
  157338   157338   157338   157341   157341   157338   157342   157347 
  157346   157342   157339   157338   157339   157337   157335   157338 
  157339   157339   157341   157342   157342   157342   157341   157339 
  157341   157342   157346   157346   157343   157345   157347   157349 
  157361   157395   157455   157550   157682   157858   158070   158305 
  158573   158903   159309   159757   160104   160104   159567   158534 
  157339   156335   155633   155426   155966   156705   156238   154006 
  152331   154742   160523   164778   165126   163478   162233   161883 
  162000   162518   161784   158310   154433   153382   155287   156637 
  155958   154803   152786   152594   156764   160652   162110   162581 
  161604   159925   158446   157686   158387   159325   159070   156567 
  153995   155942   158668   157368   154789   151436   150940   157955 
  163163   158350   148644   144186   147629   151116   155915   165078 
  168953   167802   165611   157770   151923   155790   160775   161082 
  159101   156598   154691   156880   159429   153982   151148   159175 
  166413   169932   168099   160201   156845   153924   152579   163520 
  166672   151725   145420   154791   158299   152469   156582   171506 
  176237   167171   160803   162151   157956   148888   148968   150736 
  150504   158160   159286   145030   137556   147349   159089   160733 
  156847   152639   147492   145239   149058   152172   150021   151498 
  158418   157878   153855   158171   157264   145122   143037   153597 
  159175   156968   152344   150379   151441   146462   139787   142095 
  150132   161504   171679   169927   158938   155707   164574   167292 
  157358   148433   145694   147548   152085   154089   155378   158282 
  157755   158402   167368   175729   175365   166245   151538   145943 
  154593   162434   161423   155332   148425   142060   143257   151880 
  155601   163379   176278   173360   164748   167779   167814   154137 
  143067   145827   155106   164281   165194   159094   160840   164833 
  158614   152150   155047   165537   176338   170598   149584   143322 
  156667   163988   161423   159800   159464   163277   170151   166630 
  154732   150510   153022   155418   159753   164191   161991   154137 
  148724   145334   146587   161057   174874   170537   159746   160508 
  162965   153937   147922   150263   148207   147356   158384   170834 
  167606   155344   152251   152653   151266   159745   171109   167510 
  154936   150880   153160   152410   152606   154726   158001   164801 
  167341   159225   148116   144877   152321   165071   170611   163587 
  156897   155958   153897   153517   155791   153839   153593   161331 
  165384   160709   157522   158103   152508   140772   141878   159196 
  171448   171633   164544   151306   144320   153064   164768   166738 
  163058   160654   159259   155440   149800   150492   157766   158641 
  152518   152034   158430   164393   167764   165699   156384   151977 
  159198   164257   161534   160747   163081   161603   156814   154360 
  156930   160355   157671   153218   154778   159881   162664   159788 
  155349   156089   158045   156625   159248   165267   161788   151924 
  150047   158410   164801   160600   155339   153457   150890   152764 
  157430   157478   151260   143306   146026   155486   157478   159136 
  164346   162499   157870   161850   168247   164349   153368   146716 
  148802   157312   162876   159291   154303   153115   151845   151767 
  155332   161732   167142   164177   157816   156479   155970   155895 
  157750   157154   154873   154380   156120   159243   160845   158058 
  154992   157022   157843   152825   149790   152485   156586   158071 
  156766   157041   160027   160432   156938   155429   157029   157130 
  156068   153388   148228   149191   158066   162905   159764   157813 
  161315   163166   158982   151922   147505   150545   157034   159057 
  158419   159490   160195   158305   154951   153246   154894   156918 
  157335   158144   157180   154029   156294   160701   160386   161107 
  162082   159491   156142   151002   149393   155834   159505   157798 
  157742   156937   154404   155615   159378   160949   160209   158399 
  157297   158691   162089   164941   163584   158121   151910   147348 
  147313   152319   158419   161191   160365   161385   163524   160897 
  158649   160540   161080   160725   162391   163728   162696   159868 
  154259   146221   142973   148556   156389   159601   159497   158996 
  157469   156643   158475   159970   157728   154549   155715   157441 
  154977   152162   150415   148408   149137   156220   164791   165203 
  160982   158954   156709   158025   163536   163092   156795   152504 
  154411   158943   158803   158610   161671   161327   160528   164010 
  164539   157871   151706   152601   156024   155629   155838   160971 
  162920   160340   162035   164020   161906   162702   163904   160178 
  155683   153264   153740   155370   156334   158580   161025   161805 
  160051   155178   152332   155887   159656   159300   160385   161658 
  158159   154514   153609   153881   154164   153272   154003   156425 
  158380   161912   162216   156591   153767   154414   154516   155760 
  157184   157766   158164   157921   157308   155432   154349   157647 
  160297   158633   156776   156535   158109   159004   156888   156544 
  156532   152543   151383   154921   157007   156945   154913   153862 
  156932   157910   157111   158577   156883   153735   153594   154360 
  156663   159517   162197   164898   163248   159024   158033   159358 
  159522   156402   153644   155166   152973   144425   142789   150500 
  155360   154573   154210   157653   163567   164903   158974   153139 
  151969   155734   162202   163367   158881   155641   155083   156837 
  155791   150403   152166   160506   161060   154109   152266   155908 
  155119   152331   155139   160099   161893   160855   158989   154745 
  151718   159443   168650   164871   158492   160782   164396   160231 
  150828   148123   153481   156671   158286   161740   161910   158715 
  155614   152583   153094   159329   164060   163431   161867   159914 
  160494   167012   167131   155455   147808   151320   155150   152082 
  148482   150754   157009   162764   164760   165319   165897   163030 
  158357   154253   151433   153080   157991   159549   154678   150259 
  151200   154508   159181   160026   154525   153983   161285   165082 
  161455   158175   159098   157428   152562   154032   161042   164141 
  160786   154573   151318   153041   154927   155888   158939   162958 
  165967   168043   169238   167082   160089   154488   154724   156867 
  158922   160470   159466   158238   158180   155671   153968   156821 
  156645   153960   157329   162766   164774   163201   158577   156725 
  157204   154284   154784   160103   160026   156324   153777   153400 
  157384   158414   154299   154545   156856   155301   156627   163242 
  163853   156833   154026   156131   158272   159526   157823   156909 
  156297   151507   151988   159094   160587   157432   153985   150855 
  153643   158566   155258   149192   150034   153891   155777   155317 
  155056   158922   162406   159786   153796   151730   157202   162499 
  162089   161346   160537   156307   153115   153662   154542   155062 
  154384   150908   150577   155503   157689   157072   159385   162013 
  161623   161539   161905   158755   156500   158472   157808   153993 
  152959   155146   157874   158463   155310   151360   152000   155686 
  157765   159065   159000   156965   155403   152602   150354   152953 
  154098   150909   150876   154701   157590   159428   160651   160982 
  162106   161973   157345   151457   148493   148842   151137   153361 
  154746   157465   160145   158087   156494   159916   162656   164554 
  165218   162562   161349   159352   156898   160272   160639   155434 
  157486   162564   162168   163907   165897   161681   158565   157234 
  154080   153252   152936   151349   152151   153813   156589   161975 
  164416   161335   158889   159541   157801   154896   155391   157026 
  157891   156888   155981   156928   155302   154646   161886   169562 
  166467   156359   151093   151614   153627   156517   157140   155491 
  156307   158487   158832   161013   168535   173682   169426   163576 
  162168   160251   158256   159093   156316   148849   146643   149881 
  151233   152099   156573   165071   172274   171664   168384   167665 
  161890   150244   145150   149324   154354   158018   161329   161990 
  160313   157963   156081   157218   159495   160095   160975   160033 
  153328   147363   149369   152231   149578   147916   152433   160099 
  163548   161337   160524   161661   159904   156604   155783   157121 
  157744   154695   148400   149420   159726   162444   155252   152288 
  155036   158228   162706   168110   168858   164166   162942   165719 
  161570   152888   148236   143104   137304   139419   147657   153349 
  156062   161765   171107   177954   177688   171377   163723   158130 
  154465   152174   149627   146855   150701   159227   160699   159216 
  163111   163528   154873   147816   151075   156324   149949   136518 
  127938   123893   129042   149472   169461   175501   178526   189013 
  197868   192136   173736   152863   133760   116725   105112   104643 
  116642   134609   152388   167910   178162   183053   187390   190610 
  183498   163991   147996   145269   142847   132848   127302   140271 
  168164   186864   184931   178683   177044   174410   168531   156810 
  141301   132125   130943   130168   131544   144602   161172   163740 
  159223   164354   179028   198466   212596   202934   172296   147465 
  144016   150284   148116   138939   136706   146171   160772   173314 
  179510   175732   161573   140957   125358   127577   145440   167481 
  179240   170483   155040   151375   154284   153211   146357   134499 
  125871   128019   136534   149268   162962   164640   152047   137068 
  132462   143109   160359   175493   182448   170958   147866   135504 
  136688   143584   156968   167880   166889   158661   148632   147437 
  157558   163375   164498   167913   166071   161491   162679   163837 
  160647   154496   148957   151796   163215   178548   189612   179567 
  152047   136183   143367   160625   174953   178460   171651   163356 
  159138   155275   145265   136140   139939   152501   167451   182837 
  189864   183631   172484   164268   156703   154145   163699   172314 
  168053   156598   145104   142076   151420   159825   159521   162553 
  169542   167603   162367   161073   154442   143235   138315   143001 
  153473   159860   156955   152975   158008   165437   160830   153269 
  156551   161597   162765   162066   154886   142923   135642   140251 
  153839   165308   172373   179352   181820   170324   149713   141585 
  155151   174888   184450   182587   173161   158256   145809   143908 
  148459   149813   145052   142434   148394   154310   155036   155952 
  156929   159358   163397   160988   156683   159722   163613   161430 
  156944   152188   143924   139787   150061   164627   168868   163440 
  157944   157940   157426   151752   148092   151722   157435   158318 
  157411   161067   161107   150396   141103   140879   142412   144922 
  152309   158888   161335   164012   168546   173682   172802   164099 
  161202   165476   164772   162665   163093   157235   144481   137527 
  145419   160474   171170   174791   168331   153076   141889   143618 
  154908   168901   176374   169924   160771   161998   161927   153608 
  150404   152277   150433   151984   159279   160307   154591   149840 
  148381   155385   168292   172137   167578   167455   168972   165919 
  162145   157935   151028   143029   136842   139271   155497   174052 
  175956   164720   159775   160674   155293   149823   153111   155401 
  149975   146576   150649   156886   160664   160675   158448   156994 
  159784   167069   170482   164276   154453   147012   140354   135336 
  138500   148186   158750   170475   177722   175894   173075   173227 
  172647   168885   162206   159447   159227   147417   127916   117289 
  119650   132659   146965   154388   161341   165866   157878   149196 
  154199   165015   173523   174710   162449   148975   146217   145571 
  143293   143830   146371   150693   156963   162265   163823   162259 
  161977   162557   155260   141467   139330   152733   160751   154850 
  149505   151606   156105   161569   167174   169959   170203   170731 
  171186   167794   160763   153231   147486   144948   144138   146234 
  153204   162854   173252   177391   170770   164047   164555   164205 
  155868   145840   143607   147533   151675   157543   165626   170135 
  171181   169102   159362   149604   147945   147696   147251   150377 
  152131   149574   147231   148217   151745   153732   152942   153624 
  154866   153349   149463   141138   132343   133533   142911   151802 
  158225   162919   167857   175508   184358   190678   190483   183000 
  172505   160875   149897   145562   147530   150169   152590   154384 
  153941   155580   162538   166569   163829   163706   167552   168886 
  169506   171504   172064   172260   174856   175987   171491   164467 
  157316   149810   144617   145408   152683   159509   158438   153092 
  152031   157694   163512   163540   163050   164620   160004   148821 
  141034   141181   147318   155671   162402   169267   178089   184970 
  186968   180036   165921   156631   153504   149810   145940   144070 
  143981   144103   144201   144028   143263   145108   148972   150844 
  152801   157700   162972   165541   165954   165204   162712   162387 
  167483   171531   170047   163524   151507   141261   140836   146249 
  150913   152479   150793   147422   145176   147658   152551   151534 
  146346   146149   149212   152319   159949   168628   172644   175004 
  173901   168551   166233   164243   158071   153250   148713   142299 
  141805   148356   153148   152386   151073   153559   157648   160844 
  162043   158643   151996   147478   146831   147263   146088   145898 
  151432   158499   160880   162557   164818   161484   154840   152910 
  156057   160089   163599   166023   163881   154650   143649   138892 
  140366   145368   154495   163309   165180   161505   156957   153536 
  151695   152759   156591   156246   150588   150692   156263   156150 
  151301   149114   152481   160099   166041   167794   168462   166666 
  159688   153354   153886   157593   159579   157596   149886   142484 
  141675   144656   148946   154261   159282   162241   160992   159684 
  163722   168983   172921   176890   176945   172405   167977   164667 
  161647   158492   153553   147912   146977   151827   155137   153399 
  151964   153463   156663   162010   167533   169861   170399   170806 
  168558   163255   158880   157734   158529   159725   160909   162523 
  165704   168643   166810   160317   153859   150800   151108   152541 
  153520   153384   153684   157798   163166   164754   164274   163846 
  162498   161109   160870   162384   164590   164428   162797   162364 
  162842   161738   156482   150430   148836   151282   154934   157535 
  158753   157387   151433   145403   144352   146218   147873   148413 
  150265   156818   164056   166271   164733   162631   163215   167117 
  169047   168272   167212   162170   155250   154480   157547   158475 
  157732   156126   154134   152583   150439   149191   150835   153787 
