Origin Time       2024/04/02 04:24:00
Lat.              40.133
Long.             141.712
Depth. (km)       71
Mag.              6.0
Station Code      AOMH07
Station Lat.      40.7451
Station Long.     140.0233
Station Height(m) 35
Record Time       2024/04/02 04:25:02
Sampling Freq(Hz) 100Hz
Duration Time(s)  130
Dir.              5
Scale Factor      7845(gal)/8223790
Max. Acc. (gal)   1.358
Last Correction   2024/04/02 04:25:02
Memo.             
[...]
      93      -18     -137     -264     -360     -425     -429     -340 
    -191      -31       93      155      187      230      305      425 
     581      724      822      866      859      784      633      473 
     365      314      341      452      606      764      874      893 
     859      826      812      815      805      773      731      702 
     719      795      907      996     1004      942      859      800 
     792      827      873      897      884      816      693      562 
     475      442      456      469      456      434      409      388 
     407      453      494      483      409      322      255      232 
     283      383      467      491      461      418      418      480 
     575      664      706      652      500      338      263      318 
     481      687      892     1061     1146     1158     1117     1044 
    1001      994      970      897      761      573      444      440 
     494      571      631      614      556      496      429      384 
     360      348      369      411      453      465      384      230 
      85        6       36      172      333      438      468      406 
     267      141       89      128      248      388      513      598 
     618      571      479      396      360      357      383      411 
     440      518      643      762      824      783      653      515 
     426      419      490      569      594      522      357      211 
     195      292      422      513      514      460      445      488 
     562      676      795      861      864      795      680      603 
     577      573      584      618      668      707      729      760 
     818      897      936      901      816      691      552      461 
     434      465      546      639      743      849      878      793 
     619      427      290      209      209      321      486      653 
     804      928     1042     1112     1081      947      757      594 
     510      487      491      508      533      583      653      692 
     689      697      751      832      891      884      837      805 
     845      938     1044     1158     1217     1140      943      722 
     548      446      400      355      307      313      371      417 
     406      317      190       74      -39     -118      -87       75 
     307      494      558      538      503      479      477      549 
     718      943     1112     1109      962      812      716      645 
     568      492      480      584      757      899      947      901 
     756      549      375      291      307      392      492      610 
     707      692      569      403      222       91       54       85 
     149      220      268      253      133      -52     -228     -322 
    -286     -152        6      145      225      199       71      -81 
    -153     -103       66      314      562      746      783      646 
     446      283      197      202      282      437      639      773 
     760      631      491      413      386      434      610      893 
    1182     1345     1305     1111      873      658      476      369 
     369      446      571      687      712      654      558      425 
     299      255      291      367      444      499      544      579 
     576      546      538      589      683      774      874     1004 
    1124     1178     1129     1003      885      814      766      708 
     649      630      679      762      819      846      895      981 
    1063     1092     1053      966      868      778      714      665 
     584      463      378      402      525      673      774      791 
     726      589      380      163       36       36      132      290 
     495      696      800      785      723      727      839      973 
    1057     1101     1117     1089     1004      877      765      714 
     730      773      807      824      834      843      849      847 
     814      757      707      649      598      606      661      715 
     743      757      788      859      970     1121     1289     1406 
    1409     1302     1136      988      911      862      807      757 
     703      662      657      637      595      560      523      511 
     510      444      324      226      182      159      132       83 
      49       95      193      245      209       91      -44      -98 
     -27      109      233      309      330      294      224      147 
      70       12      -24      -35       25      166      298      342 
     290      184       99       71      117      249      409      519 
     576      584      561      545      540      557      596      638 
     662      630      569      581      710      912     1115     1269 
    1340     1262     1021      685      361      163      101      117 
     184      270      333      360      319      214       59     -106 
    -216     -253     -263     -275     -288     -264     -205     -168 
    -176     -251     -380     -503     -599     -653     -625     -564 
    -564     -625     -688     -704     -646     -569     -519     -446 
    -346     -261     -198     -180     -180     -143     -109     -128 
    -180     -284     -450     -576     -549     -372      -97      178 
     325      329      252      143       90      159      297      436 
     537      607      687      783      869      947     1034     1134 
    1217     1255     1256     1258     1240     1171     1067      935 
     792      699      669      683      737      791      838      895 
     926      924      932      974     1039     1092     1127     1175 
    1254     1340     1398     1414     1381     1296     1201     1121 
    1036      954      878      800      724      657      581      529 
     558      669      784      869      936      969      977     1008 
    1063     1116     1120     1044      934      861      835      827 
     826      811      770      718      661      602      610      722 
     861      997     1098     1093     1050     1023      980      976 
    1013     1040     1092     1152     1202     1296     1424     1537 
    1614     1629     1603     1587     1591     1574     1497     1410 
    1316     1136      942      866      878      931     1032     1107 
    1067      939      801      723      737      842     1017     1205 
    1301     1243     1065      835      599      400      287      260 
     274      321      423      550      699      827      795      610 
     357       67     -125     -157      -83      102      325      487 
     579      599      591      596      621      661      688      650 
     561      486      459      453      425      365      311      307 
     388      561      778      996     1156     1192     1081      882 
     677      506      400      414      523      665      766      753 
     672      600      556      592      743      951     1043      897 
     643      413      234      186      256      330      349      309 
     236      133       40       21       79      205      338      371 
     342      317      240      109      -24     -133     -184     -178 
    -137      -51       95      244      317      314      236      130 
     126      197      234      261      271      232      159       29 
    -139     -248     -255     -184      -94      -54      -75     -129 
    -228     -363     -487     -585     -625     -552     -395     -251 
    -163     -106      -31       78      168      209      265      352 
     432      538      687      832      954     1059     1139     1167 
    1139     1100     1070     1073     1150     1243     1286     1286 
    1219     1097      977      893      924     1065     1229     1391 
    1467     1363     1139      922      788      749      807      918 
    1004     1053     1005      791      511      276      124      103 
     189      319      467      575      607      608      642      668 
     637      588      504      380      311      276      179      109 
     125      122       64       18       79      299      584      847 
    1082     1246     1279     1213     1127     1058     1008      972 
     923      838      730      614      515      432      340      295 
     309      309      324      411      541      653      739      851 
    1005     1177     1321     1391     1390     1317     1158      986 
     915      966     1057     1128     1156     1077      870      584 
     284       58      -32       -9       90      211      288      332 
     391      486      584      672      780      814      720      579 
     378      149        2      -85     -114      -66      -13       16 
      39       44       33      -10      -95     -175     -228     -230 
    -162      -37      126      247      226       85     -118     -309 
    -418     -402     -253      -62       89      198      279      372 
     518      677      810      916     1000     1027      977      943 
    1001     1109     1196     1190     1104     1027      967      923 
     927      935      907      865      766      614      517      523 
     554      525      487      545      660      747      835      951 
    1070     1162     1225     1248     1183     1024      814      564 
     338      222      202      236      309      402      492      519 
     457      353      214       41      -90     -140     -141      -94 
      24      148      234      299      332      322      265      213 
     228      290      379      465      483      395      238       85 
     -48     -117      -33      147      298      405      469      463 
     410      352      291      259      287      337      371      378 
     324      230      183      199      230      298      444      656 
     882     1035     1067     1031      986     1005     1113     1223 
    1283     1293     1189     1034      955      922      847      711 
     517      280       66      -28       35      214      415      533 
     521      448      407      456      595      772      951     1111 
    1201     1209     1158     1074     1030     1074     1170     1255 
    1286     1275     1215     1061      854      677      552      475 
     426      388      382      378      356      311      241      184 
     164      199      330      519      719      904     1023     1089 
    1117     1100     1086     1084     1085     1094     1069     1004 
     911      778      614      405      193       51       -6       37 
     172      314      394      382      261       62     -163     -317 
    -302     -124      151      419      576      654      712      719 
     684      653      619      583      558      525      488      486 
     496      496      514      553      623      772      920      958 
     969      992      946      832      688      517      406      463 
     619      772      913     1001     1019     1007      961      939 
     992     1092     1212     1281     1250     1117      874      598 
     380      241      197      211      221      183      105       20 
     -79     -160     -162     -116      -70      -67     -109     -130 
    -132     -145     -178     -245     -305     -295     -190      -13 
     163      321      471      564      571      523      488      527 
     654      796      878      876      783      630      469      357 
     359      461      595      723      808      854      882      877 
     850      827      820      873     1007     1217     1439     1591 
    1630     1502     1229      942      708      581      607      700 
     756      745      693      666      661      625      562      479 
     407      418      464      441      334      171        0     -117 
    -168     -190     -205     -218     -261     -369     -533     -700 
    -773     -670     -432     -139      143      360      507      625 
     729      814      869      853      765      650      553      534 
     622      801     1036     1231     1297     1240     1082      893 
     765      702      695      737      801      919     1059     1136 
    1150     1129     1080     1017      989     1007     1038     1063 
    1044      966      903      858      814      835      951     1120 
    1267     1320     1287     1239     1204     1148     1082     1035 
     962      831      672      526      449      492      630      761 
     820      823      791      714      585      464      376      270 
     129      -17     -186     -371     -554     -722     -816     -820 
    -793     -735     -631     -461     -206       63      274      396 
     394      290      197      187      222      255      284      315 
     400      571      761      939     1074     1105     1043      927 
     783      691      723      810      855      834      729      606 
     580      684      881     1088     1190     1147      970      680 
     340       16     -257     -452     -554     -527     -324       10 
     359      621      723      681      611      588      626      718 
     838      977     1093     1135     1136     1146     1162     1163 
    1098      918      633      302      -21     -290     -442     -460 
    -382     -234      -54       99      197      213      145       45 
     -24      -32       14       85      130      149      174      226 
     338      492      604      638      599      491      376      311 
     298      319      330      306      302      365      480      642 
     846     1040     1194     1278     1309     1381     1528     1726 
    1912     1973     1871     1669     1440     1228     1077     1019 
    1039     1094     1144     1173     1175     1116      981      822 
     672      541      444      380      344      344      407      500 
     556      568      576      598      600      553      472      344 
     162      -14     -145     -178      -85       55      176      259 
     310      376      452      492      498      492      490      508 
     545      538      472      413      410      459      538      619 
     684      719      700      656      653      699      766      831 
     896      981     1084     1162     1183     1151     1097     1071 
    1084     1094     1078      993      815      623      492      422 
     460      619      822     1011     1139     1154     1088     1001 
     901      768      603      438      270       90      -75     -201 
    -265     -251     -159       -5      211      445      594      627 
     568      410      211       76       82      251      525      791 
     961     1003      927      761      544      294       21     -205 
    -317     -328     -270     -148       20      210      400      565 
     664      672      627      568      513      531      634      727 
     764      758      720      661      567      452      361      303 
     291      379      537      643      669      669      666      673 
     707      776      878      988     1082     1150     1150     1088 
     988      842      683      518      314       98      -67     -174 
    -243     -288     -294     -240     -143      -25      122      355 
     676      984     1175     1251     1251     1225     1219     1236 
    1240     1181     1047      884      727      612      550      513 
     496      488      481      527      633      737      780      739 
     648      531      398      243       54     -135     -276     -353 
    -329     -193        2      213      414      596      749      872 
     972     1017      997      950      895      862      899     1008 
    1169     1316     1359     1271     1098      886      646      415 
     286      307      407      457      379      207       54       10 
     103      313      583      846     1040     1117     1054      880 
     697      618      637      660      594      423      213       13 
    -148     -268     -357     -407     -425     -440     -457     -445 
    -364     -201        0      145      214      217      167      128 
     110      116      195      319      396      382      291      210 
     194      251      376      534      656      670      584      483 
     426      426      441      398      274       83     -140     -325 
    -415     -384     -243      -33      220      468      679      858 
    1004     1142     1301     1447     1575     1707     1810     1856 
    1849     1779     1598     1305      978      666      430      346 
     388      500      608      621      544      457      392      345 
     302      279      307      405      584      834     1117     1393 
    1584     1672     1665     1503     1182      854      664      635 
     742      923     1057     1070     1007      946      959     1042 
    1115     1089      939      730      567      510      541      623 
     688      687      668      670      696      766      861      951 
     985      878      656      423      280      290      419      580 
     706      791      842      849      831      789      660      467 
     274       75     -103     -210     -257     -255     -194     -116 
     -47       14       83      170      294      459      604      685 
     737      762      719      625      527      433      319      170 
     -22     -207     -309     -307     -216      -32      193      333 
     348      297      202       74      -64     -179     -206     -102 
     132      446      772     1061     1266     1368     1397     1372 
    1309     1220     1121     1046      993      939      870      791 
     695      567      437      309      122      -98     -317     -525 
    -650     -654     -538     -268      105      449      666      708 
     625      533      522      611      777      996     1221     1399 
    1483     1413     1202      986      862      819      814      818 
     819      789      703      587      508      495      475      395 
     279      178      149      175      197      201      201      201 
     194      198      259      414      670      961     1175     1205 
    1030      773      567      460      450      494      588      735 
     864      930      945      903      793      603      346       70 
    -156     -249     -207      -78       97      264      384      465 
     533      581      599      626      664      653      584      490 
     425      433      461      475      527      656      810      913 
     950      954      924      878      861      876      913      996 
    1124     1246     1309     1312     1247     1111      935      751 
     598      513      469      403      297      152      -62     -311 
    -480     -504     -413     -234        9      267      506      722 
     853      884      884      880      876      872      835      735 
     589      452      365      356      419      508      572      602 
     629      692      795      891      923      862      714      527 
     413      418      473      511      484      379      240      121 
      67      118      274      484      691      841      888      835 
     733      631      569      538      498      445      423      472 
     564      643      670      600      436      251       87      -32 
     -89      -62       81      330      604      815      900      858 
     765      669      579      523      534      616      710      733 
     681      607      580      668      853     1023     1090     1027 
