Origin Time       2024/04/02 04:24:00
Lat.              40.133
Long.             141.712
Depth. (km)       71
Mag.              6.0
Station Code      AOMH18
Station Lat.      40.2962
Station Long.     141.0145
Station Height(m) 135
Record Time       2024/04/02 04:24:51
Sampling Freq(Hz) 100Hz
Duration Time(s)  133
Dir.              2
Scale Factor      2940(gal)/6170270
Max. Acc. (gal)   9.229
Last Correction   2024/04/02 04:24:36
Memo.             
[...]
  141954   141956   141958   141955   141952   141955   141957   141956 
  141955   141955   141955   141958   141959   141958   141957   141956 
  141955   141956   141956   141956   141956   141955   141954   141953 
  141955   141958   141956   141953   141957   141959   141956   141958 
  141957   141952   141957   141958   141955   141959   141959   141957 
  141958   141957   141954   141955   141958   141956   141954   141957 
  141959   141956   141956   141959   141959   141959   141959   141960 
  141959   141955   141954   141954   141956   141958   141957   141958 
  141960   141957   141956   141958   141957   141954   141956   141957 
  141954   141955   141957   141956   141956   141958   141957   141956 
  141956   141955   141956   141961   141961   141954   141955   141961 
  141958   141952   141957   141959   141953   141957   141961   141955 
  141952   141955   141956   141955   141956   141955   141954   141955 
  141957   141955   141952   141953   141956   141957   141957   141956 
  141956   141956   141955   141957   141959   141958   141956   141956 
  141957   141957   141955   141956   141960   141957   141953   141956 
  141957   141957   141957   141957   141956   141956   141956   141956 
  141958   141958   141957   141957   141958   141956   141953   141957 
  141962   141956   141951   141956   141958   141955   141955   141956 
  141957   141958   141953   141948   141953   141958   141956   141958 
  141960   141957   141957   141958   141957   141959   141958   141955 
  141957   141958   141954   141954   141956   141956   141956   141955 
  141955   141956   141954   141954   141956   141957   141955   141953 
  141954   141955   141956   141957   141955   141954   141956   141955 
  141954   141955   141958   141957   141955   141954   141955   141954 
  141954   141955   141956   141956   141956   141955   141952   141954 
  141957   141956   141955   141954   141956   141957   141955   141955 
  141956   141955   141956   141957   141956   141955   141956   141957 
  141955   141954   141957   141956   141954   141956   141955   141954 
  141955   141955   141954   141956   141956   141954   141956   141959 
  141956   141953   141955   141956   141955   141954   141956   141958 
  141956   141954   141955   141955   141956   141957   141954   141953 
  141957   141955   141953   141957   141958   141956   141956   141956 
  141955   141954   141954   141955   141954   141955   141957   141955 
  141955   141955   141954   141956   141954   141954   141957   141956 
  141956   141956   141956   141956   141955   141953   141954   141956 
  141955   141957   141959   141957   141955   141958   141958   141956 
  141955   141957   141958   141957   141954   141954   141958   141957 
  141956   141956   141954   141955   141958   141954   141952   141957 
  141959   141959   141958   141956   141953   141953   141955   141957 
  141957   141956   141956   141956   141957   141955   141953   141956 
  141958   141953   141951   141955   141957   141956   141953   141956 
  141957   141956   141958   141958   141954   141957   141957   141955 
  141958   141959   141959   141958   141956   141957   141955   141953 
  141958   141959   141956   141955   141956   141957   141956   141957 
  141957   141954   141953   141956   141957   141955   141953   141954 
  141954   141955   141955   141955   141957   141956   141955   141955 
  141953   141955   141955   141953   141954   141952   141950   141950 
  141947   141939   141930   141916   141890   141855   141811   141749 
  141671   141589   141505   141425   141374   141359   141376   141441 
  141566   141740   141913   142023   142046   141987   141880   141793 
  141759   141708   141572   141407   141278   141212   141352   141721 
  142071   142156   141785   141106   140661   140516   140349   140238 
  140404   140714   140936   141058   141132   141255   141460   141663 
  142040   142523   142617   142463   142546   142608   142187   141715 
  142000   142958   143626   143453   143092   142983   142546   141570 
  140513   140347   141502   142140   141251   140826   141371   141119 
  140400   140867   142027   142626   143053   143931   144370   143260 
  141293   140336   141108   142472   142877   142427   142449   142759 
  142010   140401   140131   141671   141744   139572   139123   141292 
  141788   138975   136926   137898   139459   140660   142624   144538 
  144697   143569   142688   141759   140939   141545   142187   141984 
  143025   144851   145202   144769   144995   145452   144533   142336 
  142109   144116   145203   145371   145843   145627   143681   141948 
  142657   143897   144372   144792   144046   143577   145455   146422 
  144757   142745   141338   141343   142683   143517   144041   144004 
  143284   143908   143716   141053   140220   142084   142650   140769 
  139660   141328   142213   139991   138000   138188   139221   140243 
  141071   139923   135666   134324   140515   145227   142348   140926 
  144495   145262   141053   137846   140535   144733   144109   142245 
  141990   141189   141742   144088   144524   142428   140460   140267 
  141398   142621   142023   141374   143521   143441   140628   142261 
  145111   142730   139603   140281   140528   138953   141625   146803 
  146837   144250   143511   141735   138772   137947   139403   141846 
  142792   140684   138757   138269   136640   135638   138402   141774 
  141661   140180   139908   139509   139437   140873   142352   143120 
  143175   142816   142795   142487   141570   140884   140647   141129 
  142749   144251   144506   144239   143217   141477   141934   144718 
  145407   143324   142562   144603   146769   147132   147146   146866 
  144237   141258   141024   142170   142179   141335   141442   141709 
  140154   138840   139970   141412   142396   143961   144268   142670 
  141566   142148   143260   143056   143067   145535   147101   145230 
  142478   139906   137460   136984   138489   139431   138614   137229 
  136852   138372   140901   141759   140654   140108   140780   141495 
  141767   141964   142671   143181   142354   141185   140832   141085 
  141989   142876   143116   144240   146436   146850   144780   143462 
  144295   144546   143105   142069   141965   141854   141618   141132 
  140244   138931   138233   139434   140589   140239   140545   141800 
  142067   141268   140016   138946   139328   140167   139293   137635 
  137148   138063   139375   140186   141125   142517   143517   143892 
  144651   146305   145800   142022   140780   143488   144183   142904 
  143012   141980   140008   140960   142915   143362   143674   144357 
  144664   143720   142429   143119   144160   143076   142357   143742 
  144830   144420   144267   144906   143766   141777   143320   145576 
  143821   141452   141564   142368   142780   142669   142260   141711 
  140714   140803   142054   141537   139657   138989   139258   139196 
  138809   139374   141233   142610   142927   143282   143525   142463 
  140929   141304   143037   143826   143492   143025   143346   143563 
  142028   140637   140586   139739   138786   139594   140635   141224 
  142270   142199   141098   141112   140331   138416   138200   139008 
  140593   143083   143931   142835   141411   140961   141170   140385 
  140137   141511   141883   141148   141614   142401   141512   140526 
  141704   143688   143999   143195   142820   141446   138719   137713 
  139522   142477   143806   142430   141756   143441   144851   144457 
  143062   142071   141266   140367   141405   143905   144878   144264 
  143411   142837   142616   142682   143162   142986   141650   141259 
  142247   142662   142458   142989   144430   145129   143641   142211 
  142712   142908   142572   143160   143915   144255   142842   139788 
  138221   138115   138305   139435   140283   139902   140087   141905 
  143823   144172   143525   143027   142235   141363   141964   143223 
  142597   140456   139369   139782   140934   142169   142017   141447 
  141829   141455   140570   140967   141868   141616   141266   142950 
  144070   142668   142642   143742   142248   140866   142132   143399 
  143657   143472   143181   143626   143949   143511   143331   143218 
  142572   142057   142230   142018   141143   141831   143260   142499 
  141518   142450   143492   143372   142130   140990   141248   141130 
  139360   138369   139169   139754   139753   140679   141606   140299 
  139270   140629   140732   139578   140337   141462   140909   139661 
  140247   143001   144263   142872   141632   141736   142096   142105 
  142802   144020   143516   141858   141512   141724   141011   140316 
  140713   141504   141327   141284   143359   145216   144464   144007 
  145224   145084   143342   142655   143212   143320   142792   142630 
  143121   143836   143646   142656   142364   142233   141657   141193 
  140813   141020   141800   141745   140634   140321   140804   139792 
  138853   140043   140514   139462   139384   140125   140782   141489 
  141747   141821   141913   140970   139789   140045   141655   143481 
  143599   142528   143186   144341   143840   143835   144214   142788 
  141908   142559   142182   142080   143539   144268   143928   142968 
  141334   140739   141001   140364   140299   141340   141243   140760 
  141304   141656   141450   141175   141233   141676   141583   141814 
  143696   145033   144069   143216   144018   143862   141972   141588 
  142888   142981   141919   141528   141954   142267   142648   142913 
  141763   140753   141628   142392   142118   142170   142738   143208 
  143189   142530   141910   142023   142624   143174   143059   142349 
  141890   141635   141469   141786   141865   141489   141910   142635 
  142589   142870   143352   142546   141445   141479   142374   143335 
  143455   142403   140437   139042   139576   139909   138966   138443 
  138084   138694   140811   140870   139585   141172   143030   142069 
  141788   143588   144228   143273   142950   143634   143912   142731 
  141277   141173   141834   142618   143062   142652   142497   142864 
  143042   143306   143515   143228   142332   141310   141196   141298 
  140866   141164   141706   141428   141785   142651   142457   141509 
  140022   138467   138063   138731   140088   141389   141900   142255 
  142204   141346   140673   140643   141749   143079   142087   140963 
  142652   143713   142475   142128   143020   143318   143278   143781 
  143964   143098   142075   141351   141490   142357   142389   142011 
  141714   140953   140330   140179   140734   141596   141545   141155 
  141468   142667   144051   143851   142410   142203   143617   144745 
  144119   142466   141818   142383   142053   140829   141560   143386 
  143228   141821   139995   138034   138250   140214   140676   140041 
  140779   141312   140023   140027   142174   143320   143344   143627 
  143736   143356   142765   142691   143160   143472   143983   144065 
  142561   141116   141229   141656   141909   142793   143311   142602 
  141642   140957   140501   140023   140254   142183   143584   142570 
  141425   142192   143118   142613   142179   142370   142183   141823 
  141574   141147   140466   140277   141667   143478   143051   141066 
  140728   142157   143004   142704   142778   143601   143413   142364 
  142236   142726   143180   143008   141647   140804   141546   142181 
  141490   141128   142519   143163   141846   141039   141101   140826 
  140666   141209   142147   142882   142322   140592   140499   142186 
  142610   142242   142681   142434   141083   141161   142837   143006 
  141628   141237   141953   142596   142476   141286   140022   140175 
  141051   141037   140762   141300   141198   140026   140462   141674 
  140778   140363   142460   143547   142455   141902   141893   141603 
  142502   143442   142478   141603   141593   141103   140735   140890 
  141153   141952   142957   143220   143088   143363   143460   142705 
  141953   141646   141636   142490   143687   143706   142518   141527 
  141673   142524   142898   142333   141634   141419   141458   141198 
  140350   139831   140330   141297   142169   142219   141537   141162 
  140770   140568   141836   142907   141907   141141   142330   143209 
  142679   143074   144151   143405   142766   143912   144470   144259 
  143761   142079   140960   141392   141442   141418   142697   143698 
  143308   143145   143909   144175   143332   142823   143356   143760 
  143242   142363   142139   142539   142527   141828   141484   141866 
  141989   141836   141585   140728   140157   141061   142535   142292 
  140522   140354   142028   142791   142151   141561   141881   142036 
  140644   139597   140434   141259   141609   142306   142668   142611 
  142589   142270   141578   141492   142497   143012   142569   142700 
  142785   142069   141970   142454   142846   143278   143616   143841 
  142884   141347   141634   141976   140839   140116   139752   139230 
  139014   139092   140130   142065   143482   144012   144425   145011 
  145058   143594   141211   139999   140090   139630   138467   137844 
  138057   138540   138510   137762   137505   138863   140586   140961 
  141319   143174   144899   145595   146571   147539   146812   144769 
  143538   143580   143147   141415   140226   140611   140691   140294 
  140803   140392   138005   136281   136416   137660   139654   141685 
  143299   145327   148960   153496   157041   159755   161325   160083 
  157386   154789   150980   145565   140023   136037   134182   132815 
  130868   129395   128599   128953   131397   134016   135922   138737 
  141522   142973   144607   146659   146302   142328   137943   136506 
  136791   135906   134457   134926   138017   142033   144601   146284 
  148787   150158   148480   145829   144615   144365   143588   142827 
  141870   138417   133958   132380   134768   139607   142165   141287 
  143556   148597   148987   147097   148006   148391   145825   141586 
  136901   134355   134312   133658   132480   134621   140059   144620 
  147201   148392   148288   149192   151232   152139   153046   154046 
  152037   148242   145773   142751   138733   138062   140837   140790 
  135467   131100   130964   131069   132470   138145   142670   140960 
  136116   133586   134375   134790   133597   134790   138856   141589 
  142810   143559   142598   142600   144051   140793   134572   133642 
  136192   136844   137762   140093   142068   145274   149147   150302 
  149673   148844   147022   145077   143690   142545   142233   142002 
  141329   140650   139141   137501   136835   136249   136389   138984 
  143996   149106   150802   149466   148619   148439   147917   146660 
  142522   135733   131495   134034   139735   142492   144133   148011 
  151476   152620   153165   153624   151848   147037   142584   142740 
  146483   147562   143765   139886   138360   136907   135689   137091 
  140037   142226   144112   145107   144399   144000   143147   139654 
  135829   134397   135159   136900   138135   137677   135402   132191 
  131482   135652   139172   138252   137797   138840   139613   142797 
  147715   150920   151142   148000   144166   141836   139879   138963 
  139878   141506   143193   143683   142311   140607   139831   140190 
  140706   140296   139687   139542   141056   145534   149936   150646 
  148564   145500   142547   142356   144827   145042   142555   141605 
  141779   140771   138882   137164   137990   141326   143561   144715 
  146250   147202   147252   145567   141679   138140   137677   139395 
  139078   135919   133769   134213   136504   139846   142030   142671 
  144546   147081   146883   145254   145653   146886   146611   145458 
  143750   142270   142354   141702   139857   141130   145715   148425 
  146561   142434   139581   139686   141193   141648   142193   143202 
  141427   138521   139274   141242   140617   140596   142850   143110 
  141042   141046   143170   144586   144731   143199   140158   137575 
  136484   137594   141994   147657   149426   145942   143009   144909 
  147594   145906   141609   140396   142476   141590   137606   137293 
  140617   142865   143662   144273   144195   142551   140406   139058 
  138007   137087   136295   136487   139711   144126   145550   143860 
  141751   141668   144649   147803   147139   144293   143855   145199 
  144889   144096   144458   143973   142354   140203   137401   136667 
  138518   139682   140883   143558   144317   142591   142122   141934 
  139569   137690   137143   134979   133041   135853   140178   140542 
  139837   141240   142806   144435   146560   147216   146069   144971 
  144274   142870   141110   139601   138044   137238   137300   136475 
  135546   137267   139881   140100   140165   142716   145224   145323 
  145078   145956   145276   142432   140958   142050   142912   141716 
  141181   143522   145599   144936   143548   144089   146356   146955 
  145106   144204   144545   144447   144690   145081   144451   143207 
  142447   143200   144130   142524   140118   140199   140480   138390 
  137200   138258   137784   135697   135576   137836   140012   139763 
  138099   138738   141195   141777   140802   141137   142636   142443 
  140684   140793   143395   146064   146532   144574   143093   144200 
  145953   145853   144602   144436   145487   146001   145059   143471 
  142017   140424   139421   139858   139812   138676   139511   141774 
  141422   139596   139425   139679   139423   139880   141104   141628 
  140162   138753   140101   141923   141911   142007   143138   143381 
  141927   140598   140571   141137   142688   145735   148396   148879 
  147948   146459   143479   140526   140725   141918   141199   140587 
  141296   141758   140568   137966   136806   138754   140397   139114 
  138747   141397   142498   140424   138610   138029   137663   138405 
  139434   137977   136914   139576   141614   141073   141672   142807 
  141925   140963   141854   143417   144558   145063   144370   142995 
  143059   144061   143126   141248   141054   141972   143461   145535 
  146489   146444   147148   146841   144329   142219   140789   139556 
  140525   142245   141111   139258   141269   145411   146611   144869 
  143265   142615   142728   143587   143977   143435   143246   142856 
  141519   141465   143136   143729   142589   141915   142388   142239 
  141453   141585   142004   142521   144168   144954   143170   141169 
  140006   138497   137942   139170   140637   142631   144444   143276 
  140825   140317   140913   141339   140994   140043   140926   143235 
  144019   143785   143204   142581   144056   145756   144932   144012 
  143622   142169   141399   141556   141277   142901   146326   146739 
  143938   142358   143105   142773   139257   136519   137619   139089 
  139425   139600   138366   137334   138412   139285   139641   140546 
  140452   140175   141720   142822   142640   143713   145148   144278 
  141755   140477   141508   143034   144225   144856   144029   143179 
  142615   140859   140608   143071   144711   144940   144217   142269 
  141554   142137   141776   141401   142351   144271   145245   143672 
  142294   143332   144297   143712   142985   143091   142436   139419 
