Origin Time       2024/04/02 04:24:00
Lat.              40.133
Long.             141.712
Depth. (km)       71
Mag.              6.0
Station Code      AOMH15
Station Lat.      40.4841
Station Long.     140.5565
Station Height(m) 130
Record Time       2024/04/02 04:24:55
Sampling Freq(Hz) 100Hz
Duration Time(s)  120
Dir.              6
Scale Factor      7845(gal)/8223790
Max. Acc. (gal)   4.044
Last Correction   2024/04/02 04:24:56
Memo.             
[...]
    -369     -371     -375     -375     -373     -372     -371     -372 
    -373     -371     -368     -371     -373     -371     -371     -371 
    -369     -372     -372     -368     -369     -375     -376     -373 
    -369     -369     -373     -373     -372     -373     -375     -372 
    -368     -372     -376     -372     -369     -373     -373     -369 
    -373     -376     -371     -369     -371     -372     -372     -371 
    -369     -372     -373     -371     -369     -372     -372     -373 
    -373     -369     -369     -375     -373     -369     -369     -369 
    -369     -373     -373     -371     -373     -371     -371     -375 
    -371     -371     -376     -373     -369     -368     -371     -375 
    -375     -371     -371     -373     -375     -373     -373     -372 
    -371     -372     -372     -371     -372     -373     -375     -371 
    -367     -372     -378     -376     -369     -368     -371     -375 
    -372     -369     -369     -372     -372     -369     -369     -371 
    -373     -373     -368     -369     -373     -372     -371     -371 
    -371     -372     -373     -372     -373     -371     -369     -372 
    -371     -369     -372     -371     -372     -373     -372     -371 
    -372     -372     -373     -372     -371     -372     -371     -371 
    -372     -371     -371     -375     -373     -368     -368     -369 
    -371     -373     -373     -373     -373     -369     -371     -372 
    -373     -375     -373     -372     -375     -373     -371     -373 
    -373     -369     -369     -371     -371     -372     -372     -372 
    -373     -371     -372     -375     -372     -368     -371     -372 
    -372     -372     -373     -372     -371     -372     -372     -372 
    -372     -372     -372     -369     -371     -373     -372     -371 
    -371     -368     -372     -378     -373     -368     -369     -368 
    -368     -373     -375     -373     -372     -372     -372     -372 
    -369     -372     -375     -372     -369     -369     -372     -373 
    -372     -371     -371     -372     -373     -373     -371     -371 
    -371     -371     -373     -371     -368     -368     -372     -373 
    -371     -372     -378     -373     -368     -371     -371     -373 
    -375     -372     -371     -372     -373     -375     -371     -367 
    -371     -376     -375     -373     -372     -369     -372     -373 
    -372     -371     -369     -372     -375     -371     -367     -371 
    -376     -373     -369     -369     -373     -375     -371     -369 
    -371     -372     -372     -371     -372     -375     -372     -369 
    -372     -376     -373     -369     -369     -371     -371     -371 
    -371     -371     -372     -373     -369     -368     -372     -373 
    -371     -368     -368     -373     -373     -368     -368     -371 
    -369     -372     -373     -371     -372     -372     -369     -371 
    -371     -372     -373     -369     -367     -371     -373     -372 
    -372     -371     -371     -372     -371     -371     -372     -371 
    -375     -375     -367     -369     -376     -372     -368     -369 
    -372     -375     -372     -367     -371     -373     -371     -369 
    -371     -372     -371     -368     -371     -372     -369     -372 
    -375     -372     -371     -371     -373     -376     -375     -372 
    -373     -372     -373     -376     -372     -368     -372     -375 
    -373     -371     -368     -371     -375     -372     -369     -372 
    -373     -373     -372     -371     -372     -369     -369     -375 
    -375     -372     -372     -371     -372     -372     -371     -369 
    -371     -371     -371     -371     -369     -369     -371     -373 
    -372     -369     -371     -373     -372     -373     -375     -369 
    -367     -372     -375     -373     -372     -371     -371     -373 
    -372     -371     -372     -371     -369     -372     -373     -372 
    -371     -372     -371     -371     -371     -373     -375     -372 
    -369     -373     -372     -368     -371     -375     -373     -371 
    -371     -371     -373     -373     -371     -368     -368     -373 
    -373     -369     -373     -376     -372     -369     -372     -373 
    -373     -373     -371     -371     -372     -373     -373     -372 
    -372     -372     -372     -371     -373     -373     -371     -372 
    -369     -369     -373     -373     -372     -369     -368     -373 
    -375     -369     -369     -371     -373     -376     -373     -371 
    -372     -372     -369     -369     -371     -373     -372     -368 
    -369     -373     -372     -372     -373     -371     -369     -371 
    -372     -371     -372     -372     -369     -372     -375     -372 
    -369     -371     -371     -371     -371     -375     -373     -369 
    -368     -369     -373     -375     -368     -368     -375     -372 
    -369     -371     -369     -372     -373     -369     -371     -375 
    -372     -372     -372     -368     -369     -373     -375     -372 
    -371     -371     -373     -372     -368     -368     -372     -371 
    -372     -375     -372     -369     -372     -373     -371     -369 
    -371     -372     -373     -372     -369     -371     -375     -372 
    -369     -368     -371     -373     -373     -372     -365     -367 
    -375     -373     -369     -372     -373     -371     -369     -369 
    -371     -373     -371     -367     -369     -373     -375     -373 
    -372     -369     -371     -376     -373     -367     -369     -372 
    -371     -369     -368     -369     -372     -371     -367     -368 
    -375     -375     -371     -368     -371     -373     -372     -369 
    -369     -371     -375     -373     -368     -371     -373     -372 
    -372     -371     -369     -373     -373     -369     -369     -372 
    -371     -368     -373     -376     -371     -369     -372     -371 
    -371     -371     -371     -372     -373     -372     -371     -372 
    -373     -373     -372     -368     -372     -376     -375     -372 
    -372     -372     -373     -373     -371     -369     -371     -373 
    -372     -372     -373     -371     -372     -373     -372     -371 
    -371     -373     -375     -371     -371     -376     -376     -369 
    -368     -371     -372     -372     -369     -371     -373     -373 
    -372     -372     -375     -376     -371     -367     -373     -379 
    -375     -369     -369     -372     -379     -376     -367     -371 
    -375     -371     -371     -375     -376     -373     -369     -369 
    -376     -378     -373     -371     -369     -368     -368     -372 
    -373     -369     -371     -372     -371     -372     -376     -373 
    -371     -369     -369     -372     -372     -369     -372     -375 
    -371     -371     -369     -369     -373     -372     -368     -369 
    -375     -376     -373     -369     -369     -375     -373     -369 
    -371     -372     -372     -372     -371     -372     -373     -373 
    -373     -371     -371     -375     -375     -372     -369     -371 
    -376     -372     -365     -371     -375     -372     -368     -371 
    -375     -372     -368     -372     -373     -369     -369     -372 
    -371     -369     -369     -368     -368     -369     -375     -373 
    -371     -372     -371     -369     -371     -371     -373     -375 
    -372     -369     -372     -372     -371     -372     -371     -369 
    -372     -371     -368     -371     -375     -375     -375     -371 
    -371     -373     -373     -368     -371     -375     -373     -371 
    -371     -372     -372     -373     -371     -368     -371     -375 
    -373     -371     -372     -369     -372     -373     -368     -369 
    -378     -375     -368     -367     -369     -375     -375     -372 
    -373     -373     -372     -373     -373     -375     -372     -372 
    -373     -371     -369     -373     -375     -373     -373     -372 
    -372     -373     -373     -372     -371     -372     -372     -371 
    -371     -373     -375     -373     -371     -371     -372     -371 
    -371     -372     -371     -369     -372     -373     -372     -371 
    -371     -371     -371     -371     -372     -373     -375     -376 
    -373     -368     -372     -376     -372     -371     -372     -373 
    -372     -372     -371     -372     -373     -369     -369     -373 
    -373     -369     -371     -373     -371     -368     -369     -371 
    -368     -371     -373     -373     -371     -372     -373     -372 
    -372     -373     -372     -371     -369     -371     -372     -371 
    -371     -373     -371     -371     -375     -373     -371     -372 
    -372     -371     -371     -372     -373     -373     -372     -372 
    -372     -373     -373     -369     -368     -372     -372     -368 
    -371     -375     -375     -372     -368     -368     -373     -376 
    -372     -368     -371     -372     -375     -376     -372     -372 
    -372     -371     -372     -372     -373     -373     -372     -372 
    -373     -372     -369     -369     -372     -373     -371     -372 
    -371     -371     -373     -371     -368     -371     -369     -369 
    -372     -372     -372     -372     -371     -372     -371     -368 
    -371     -372     -372     -372     -371     -371     -373     -372 
    -369     -371     -372     -372     -371     -369     -373     -375 
    -372     -373     -372     -369     -371     -373     -373     -371 
    -368     -373     -373     -369     -372     -375     -371     -368 
    -372     -375     -375     -372     -372     -373     -372     -371 
    -372     -372     -369     -369     -372     -373     -372     -371 
    -372     -372     -369     -371     -375     -373     -372     -369 
    -369     -373     -373     -369     -369     -372     -373     -373 
    -372     -375     -375     -372     -369     -371     -372     -373 
    -375     -373     -369     -367     -372     -375     -375     -373 
    -371     -369     -372     -372     -371     -372     -371     -372 
    -373     -371     -372     -373     -372     -373     -372     -372 
    -375     -375     -373     -372     -369     -372     -375     -373 
    -372     -372     -371     -372     -372     -371     -373     -375 
    -372     -371     -371     -372     -372     -373     -375     -373 
    -371     -372     -375     -372     -368     -369     -375     -373 
    -372     -373     -372     -372     -372     -371     -371     -375 
    -375     -369     -371     -372     -373     -375     -373     -371 
    -371     -373     -376     -372     -368     -372     -372     -371 
    -373     -375     -373     -372     -372     -373     -375     -373 
    -372     -371     -372     -372     -371     -373     -373     -371 
    -369     -372     -368     -368     -373     -376     -372     -367 
    -368     -373     -376     -375     -371     -368     -373     -375 
    -371     -368     -368     -369     -372     -375     -372     -372 
    -373     -373     -371     -372     -373     -371     -368     -372 
    -375     -369     -367     -372     -378     -373     -368     -369 
    -375     -373     -371     -372     -373     -373     -373     -372 
    -371     -371     -373     -376     -373     -368     -368     -371 
    -371     -369     -371     -373     -371     -369     -371     -373 
    -375     -373     -369     -369     -371     -371     -371     -371 
    -368     -369     -373     -372     -369     -369     -372     -371 
    -371     -372     -371     -373     -376     -368     -360     -357 
    -344     -321     -291     -255     -216     -171     -118      -71 
     -29       13       59      106      149      176      172      118 
     -12     -234     -538     -882    -1204    -1436    -1539    -1494 
   -1291     -942     -486       27      554     1019     1327     1440 
    1364     1152      934      827      835      841      711      398 
     -51     -522     -854     -997    -1071    -1177    -1352    -1637 
   -1985    -2323    -2620    -2771    -2633    -2208    -1551     -724 
      75      583      676      457      162       -6       63      353 
     666      788      733      691      757      804      637      260 
     -91     -209     -120     -116     -498    -1302    -2238    -2702 
   -2243    -1192     -309      102      263      432      581      472 
     101     -151      -62      148      259      270      182       55 
      17      -79     -544    -1254    -1583    -1185     -687    -1019 
   -2111    -2984    -2965    -2280    -1642    -1471    -1536    -1386 
    -861     -110      594      989      992      751      340     -307 
    -961    -1293    -1404    -1421    -1282    -1267    -1694    -2328 
   -2799    -2851    -2226     -955      476     1336     1178      577 
     348      137     -691    -1611    -1788    -1287     -733     -409 
    -124      156      220      202      398      643      621      386 
     334      630      610     -302    -1301    -1329     -631      -10 
     182     -206    -1232    -2407    -3046    -3026    -2563    -1860 
   -1000      206     1594     2435     2513     2286     2100     1944 
    1663     1405     1431     1296      417     -896    -2050    -2475 
   -1633     -411     -288     -526      309     1524     1949     1726 
    1385     1390     1553      442    -2138    -3844    -3501    -2338 
    -912      577     1204     1244     1593     2010     2089     1463 
     -28    -1250    -1258    -1059    -1756    -2386    -1941    -1759 
   -3018    -4491    -4611    -3231    -1715    -1456    -1713    -1088 
     159      889      380     -811    -1410    -1081     -209      803 
    1513     1645     1240     1008     1410     1109     -685    -1995 
   -1300      280     1270     1405     1030      460      -14     -197 
    -168       -1      303      248     -440     -785     -689    -1757 
   -3609    -3851    -2365    -1356    -1509     -935     1105     2498 
    2637     3202     3601     2330      222    -1395    -1661     -954 
   -1351    -2238    -1196      394      437     -382    -1165    -1011 
     479     1398       56    -2235    -2700    -1003      203     -349 
   -1323    -1699    -1684    -1499     -456     1425     2590     2589 
    1591     -596    -2343    -2434    -2309    -2366    -1605     -506 
     225      656      687      677      679     -114     -859     -365 
    -302    -1370    -1032      500       94    -1750    -2219    -1228 
    -322      -24       82      621     1637     1601     -430    -2138 
   -2138    -2508    -3146    -2261    -1485    -1884    -1186      727 
    1838     2621     3385     2683     1983     2479     1445     -646 
    -943     -953    -1586    -1414    -1614    -2594    -2587    -1984 
   -1518     -456     1053     2145     2262     1420      460     -338 
   -1309    -2012    -2068    -1486     -187     1177     1957     2138 
    1032    -1182    -2014     -540     1073     1248      460     -322 
   -1159    -2539    -3411    -2600    -1397    -1360    -1507     -789 
    -464    -1378    -2120    -1497     -450     -310     -646     -519 
      52      600      429     -388     -737     -602     -828     -950 
    -198      607      460      -81     -348     -415     -322     -936 
   -2269    -2155     -901     -707     -695      275     1012     1093 
     880      159     -522     -658     -947    -1320    -1085     -770 
   -1065    -1316     -364     1216     1359      -71    -1077     -665 
     592     1622     1379     -122    -1580    -1518     -167      577 
     417      653     1016      515     -369     -684     -676     -793 
    -434       72     -186     -168      499      395      -71      -99 
    -800    -1617     -602      936      615     -634    -1017     -612 
     -64     -187    -1368    -2025    -1046      -98     -236     -415 
    -218       86      415      567      484      -47     -781     -670 
    -371    -1116    -1719    -1389    -1100    -1050    -1132    -1003 
     -59      280     -834    -1394     -900     -760     -808     -715 
    -865     -535      457      739      209     -109     -201     -441 
    -899    -1293    -1027     -384     -345     -811    -1069     -940 
    -429      109      472      997      980       -4     -357      618 
    1601     1809     1502      680     -418     -697     -280     -556 
   -1086     -697      -27      144      -52     -313     -236     -153 
    -919    -1867    -1601     -760     -716    -1074    -1066     -994 
   -1347    -1906    -1742     -789     -228     -121      510     1289 
    1101      342      259      683      742      726      741       59 
    -896    -1267    -1282    -1198    -1239    -1830    -2405    -2080 
   -1136     -529     -773    -1501    -1991    -1845    -1132     -550 
    -562     -650     -498     -225       47     -274     -900     -626 
      28      137       51       66      599     1201      561      -85 
     703     1074       91     -487     -129       91     -222     -747 
   -1135    -1097     -789     -766     -942     -774     -460     -359 
     -28      700     1044      707      193      -63       86      353 
     554      595       13     -687     -530     -232     -780    -1553 
   -1759    -1425     -893     -783    -1031     -773     -533    -1067 
   -1015      160      716      203      -81      163       93     -342 
    -201      288      -27     -635     -413       71      -85     -490 
    -403      118      375      117       37      318      152     -348 
    -438     -508     -896    -1043     -680      -75      108     -314 
    -498     -457     -976    -1455    -1136     -707     -747     -901 
    -853     -639     -535     -727     -792     -361      128      275 
     128     -207     -319     -116     -307     -831     -858     -360 
     103      -51     -772    -1161     -913     -554     -525     -753 
    -531     -122     -660    -1212     -534       20     -395     -552 
    -194     -157     -222      -43     -222     -749     -614      418 
    1289     1102      271     -264     -247     -102     -270     -649 
    -652     -261     -126     -166     -164     -710    -1408     -957 
     252      554     -245     -742     -394      -68     -229     -612 
    -741     -307     -144     -858    -1305     -884     -445     -363 
    -498     -781     -735     -174       99     -247     -508     -465 
    -452     -467     -540     -754     -718     -309     -166     -510 
    -774     -753     -710     -481      -68      -28     -203     -159 
    -191     -221       -1     -105     -637     -839     -472       43 
     437      606      344     -257     -778    -1027     -889     -210 
     477      253     -508     -649     -247       27       27     -182 
    -128      283      129     -488     -630     -635     -868    -1161 
   -1728    -1985    -1441     -905     -774     -895     -981     -406 
     263      -21     -507     -276      199      571      773      359 
    -453     -722     -413     -164     -126     -403     -857     -807 
    -361     -132     -225     -542     -473      236      486     -202 
   -1003    -1301     -872      -13      410      295      234      294 
     353      504      521      147     -184     -112     -144     -459 
    -638     -911    -1445    -1759    -1705    -1480    -1285    -1120 
    -591       90      113     -423     -660     -294      -39     -368 
