Origin Time       2024/04/02 04:24:00
Lat.              40.133
Long.             141.712
Depth. (km)       71
Mag.              6.0
Station Code      AOMH06
Station Lat.      40.9664
Station Long.     141.3738
Station Height(m) -95
Record Time       2024/04/02 04:24:55
Sampling Freq(Hz) 100Hz
Duration Time(s)  220
Dir.              3
Scale Factor      2942(gal)/8224139
Max. Acc. (gal)   6.573
Last Correction   2024/04/02 04:24:55
Memo.             
[...]
 -108932  -108841  -109104  -109139  -108487  -108153  -108608  -109404 
 -110080  -110168  -109998  -110419  -111078  -111063  -110273  -109244 
 -108672  -108751  -109308  -110023  -110635  -111489  -111790  -110334 
 -108553  -108533  -110347  -111732  -110990  -109948  -109923  -110512 
 -111613  -111549  -109764  -108882  -110168  -112052  -112827  -112546 
 -111955  -111160  -110365  -109865  -109872  -110816  -112113  -112014 
 -110766  -110535  -110820  -110061  -109525  -109398  -108587  -108828 
 -110420  -110535  -108820  -106608  -105268  -106790  -109890  -111447 
 -111057  -109676  -109236  -110917  -112229  -110709  -108419  -108777 
 -110361  -110484  -110254  -109892  -108781  -108602  -109900  -111207 
 -111789  -112118  -111948  -110714  -109057  -107554  -107441  -109524 
 -111352  -111230  -111060  -111474  -110473  -109069  -108919  -107975 
 -107212  -108677  -109459  -108684  -108263  -107905  -107041  -106164 
 -106289  -107514  -108550  -108739  -108554  -108684  -108406  -107890 
 -109503  -111628  -111326  -110139  -109073  -108234  -108868  -109949 
 -109155  -107212  -107808  -111342  -113868  -113825  -111719  -108259 
 -106875  -108949  -109877  -107307  -106142  -108904  -110444  -109054 
 -108904  -109686  -109503  -110050  -110710  -110280  -110459  -110328 
 -108380  -107292  -108400  -110004  -110945  -110893  -110995  -111408 
 -110434  -108799  -107813  -107266  -107523  -108816  -110914  -112824 
 -112828  -111172  -109584  -109001  -108843  -108106  -108118  -109560 
 -110220  -110766  -113067  -114844  -113597  -110367  -108530  -108537 
 -107353  -106046  -106778  -107731  -108589  -109910  -110249  -109306 
 -108346  -108079  -108405  -109399  -110609  -110724  -110065  -110216 
 -110675  -109925  -108808  -109163  -110874  -112438  -112804  -111728 
 -109937  -109385  -110097  -109385  -107759  -107820  -108386  -108164 
 -108842  -110077  -109350  -107669  -107962  -109807  -111171  -111187 
 -109401  -107083  -106720  -108452  -110841  -111973  -110812  -109479 
 -109563  -110133  -110250  -109138  -107797  -109443  -113086  -113512 
 -111214  -110249  -109474  -107454  -106162  -106219  -107125  -109810 
 -113071  -113275  -111591  -111226  -111352  -111006  -110151  -109159 
 -108716  -108646  -109622  -110647  -110192  -110562  -111850  -111250 
 -109618  -108853  -108679  -108676  -108446  -107194  -105764  -106590 
 -109115  -110593  -110548  -109274  -108260  -109524  -111033  -110706 
 -109240  -107300  -107388  -110848  -112912  -110644  -108244  -108418 
 -109053  -109243  -110150  -111156  -110725  -109757  -109258  -108303 
 -107167  -106878  -107858  -110390  -112374  -111802  -110326  -109281 
 -108342  -108014  -108737  -110076  -111234  -111492  -111231  -111005 
 -110708  -111051  -111959  -111576  -110311  -110556  -111670  -110926 
 -108884  -108774  -110997  -112087  -109836  -107412  -107950  -109151 
 -108876  -108048  -107890  -108545  -108684  -108901  -110316  -110160 
 -108390  -109081  -111003  -109935  -107179  -106373  -107520  -109217 
 -110520  -109840  -108465  -109564  -111354  -110862  -110033  -110565 
 -110563  -109605  -109328  -108908  -107229  -107210  -110363  -112477 
 -111252  -109537  -109158  -109513  -110079  -110633  -110257  -108672 
 -108018  -109115  -110403  -111514  -112399  -112465  -111327  -109300 
 -107724  -107347  -108070  -109015  -109312  -109597  -109908  -109848 
 -109930  -109470  -108228  -107821  -109100  -111145  -111496  -110363 
 -110714  -111427  -110500  -109096  -108054  -108391  -110088  -111009 
 -111159  -111267  -110066  -108214  -108417  -109518  -108675  -107534 
 -107897  -108409  -108990  -109857  -109505  -108346  -108444  -109695 
 -110465  -110254  -109977  -109998  -109404  -108410  -108364  -109080 
 -109368  -109121  -109231  -109559  -108978  -108108  -108307  -109638 
 -111269  -111354  -110178  -110285  -110581  -109640  -109595  -110565 
 -110637  -110033  -110170  -110700  -110448  -110361  -110440  -109405 
 -108974  -110316  -111065  -109795  -108052  -107532  -108450  -110277 
 -111357  -110868  -110266  -109588  -108156  -107424  -108013  -108469 
 -108465  -108866  -109325  -109336  -109000  -108434  -108905  -110952 
 -112297  -111631  -110265  -108859  -108221  -109755  -111524  -111342 
 -110701  -110316  -109525  -109054  -109169  -108978  -108209  -107777 
 -108692  -110697  -112391  -112656  -112031  -111465  -110636  -109745 
 -109717  -110041  -109763  -109209  -109377  -110092  -110230  -110197 
 -110770  -111059  -110714  -110674  -110889  -110520  -109912  -109566 
 -109062  -108417  -108211  -108656  -109308  -109779  -109984  -109823 
 -109541  -109181  -108760  -108456  -107609  -106922  -108207  -110295 
 -110972  -110393  -109679  -109250  -108784  -108322  -108695  -109536 
 -109490  -109308  -109925  -110095  -109655  -109408  -109031  -108541 
 -108229  -108209  -108919  -110420  -111738  -111325  -110382  -111304 
 -111808  -110300  -109429  -109021  -107644  -107090  -108895  -111258 
 -111276  -109564  -108336  -107785  -107923  -107712  -106400  -106299 
 -107839  -109116  -110120  -111157  -111582  -110832  -109579  -109444 
 -109796  -109185  -108573  -108743  -109536  -110656  -110862  -110053 
 -109617  -109930  -109995  -109092  -108330  -108909  -110292  -111138 
 -110678  -110002  -110343  -110840  -111036  -111460  -111102  -109903 
 -109946  -111153  -111415  -109991  -108298  -108440  -109999  -110462 
 -109536  -109161  -109629  -109772  -109738  -109992  -109929  -109345 
 -109216  -110008  -110636  -110439  -110000  -110033  -110504  -110454 
 -109838  -109140  -108213  -107856  -108738  -110072  -110863  -110956 
 -110998  -110944  -110211  -109236  -109007  -108978  -107754  -106798 
 -107703  -108286  -108128  -109443  -111049  -110951  -110124  -109636 
 -109553  -109688  -109622  -109480  -109574  -109621  -108970  -108234 
 -109227  -110914  -111437  -111943  -112189  -110882  -109310  -108571 
 -108535  -108544  -108172  -108598  -109858  -110496  -110758  -111154 
 -110857  -109696  -108463  -107477  -106623  -106470  -107368  -108193 
 -108849  -109840  -109823  -108899  -108953  -109791  -109876  -109163 
 -108796  -108907  -109661  -111127  -111658  -110879  -109829  -109387 
 -110241  -111098  -110608  -109370  -108847  -109794  -110488  -109977 
 -109425  -108880  -108842  -109993  -110542  -109591  -109278  -110374 
 -110820  -110539  -111235  -111858  -111117  -110631  -110848  -110054 
 -109254  -109807  -109476  -108017  -107939  -108984  -109772  -110033 
 -109298  -107674  -106714  -107458  -108787  -109790  -110963  -111786 
 -111377  -110508  -110030  -109290  -107883  -107478  -109232  -111140 
 -111295  -110770  -110781  -110567  -109522  -108801  -109085  -109121 
 -108963  -109896  -110668  -110282  -109941  -108988  -107076  -106955 
 -108621  -109323  -109939  -111497  -111339  -109398  -108542  -108452 
 -108203  -108832  -109715  -110259  -111493  -112305  -110934  -109009 
 -108606  -108834  -108612  -108625  -109163  -109602  -109953  -110778 
 -111682  -111738  -111233  -111068  -110991  -110185  -109206  -109314 
 -109907  -109814  -109660  -109921  -110096  -110266  -110727  -111161 
 -110798  -109976  -109912  -110365  -110521  -110016  -109000  -108634 
 -108854  -108233  -107203  -107623  -109536  -110952  -110767  -109873 
 -109266  -108464  -107090  -106462  -106983  -107779  -109053  -110494 
 -111019  -110852  -110506  -109842  -109102  -108872  -108777  -108132 
 -107858  -108673  -109664  -110718  -111508  -110882  -109831  -109815 
 -110490  -110803  -110146  -109247  -108857  -108892  -109192  -109154 
 -108959  -109541  -110519  -111152  -111049  -110439  -110659  -111046 
 -109588  -108040  -108473  -108849  -108584  -109561  -110906  -111208 
 -111190  -111065  -110496  -109813  -108978  -107924  -107501  -108155 
 -109121  -109487  -109486  -110103  -110847  -110448  -109329  -108787 
 -108838  -108550  -108365  -108955  -108938  -108283  -108711  -109409 
 -109530  -110154  -110756  -110505  -110323  -110667  -110835  -110747 
 -111221  -111677  -111134  -110712  -111042  -111204  -110903  -110242 
 -109798  -110475  -111329  -110840  -109451  -108176  -107605  -108004 
 -108924  -109613  -109456  -108839  -108688  -108769  -108619  -108495 
 -108924  -110254  -111203  -110188  -108160  -106888  -106731  -107509 
 -108823  -109896  -110528  -111165  -111666  -111354  -110280  -109027 
 -108224  -108506  -109255  -109206  -108561  -107863  -107487  -108483 
 -110324  -110828  -110043  -109707  -109679  -109291  -108885  -108211 
 -107536  -108417  -110701  -112077  -111755  -110841  -109551  -108689 
 -109636  -110327  -108997  -108222  -109092  -109588  -109505  -109840 
 -110035  -109719  -109867  -110191  -109470  -108618  -108974  -109767 
 -110157  -110266  -110311  -110668  -110897  -110438  -110052  -109449 
 -107940  -107036  -107773  -109437  -111283  -112542  -112664  -111389 
 -108774  -106817  -107630  -109632  -110492  -110714  -111063  -111065 
 -110687  -110196  -109026  -107723  -107887  -108672  -109474  -111206 
 -112287  -111924  -112083  -112423  -111113  -109036  -108074  -108194 
 -108699  -108807  -107862  -107302  -108480  -109688  -109458  -109117 
 -109564  -109669  -108885  -107794  -106594  -105977  -107163  -108950 
 -109150  -108743  -109243  -109517  -109451  -110457  -111454  -111218 
 -111010  -111424  -111900  -112040  -111546  -110689  -109995  -109941 
 -110376  -110781  -111337  -111534  -110934  -110594  -110551  -110297 
 -110465  -109993  -107746  -106443  -107840  -109864  -111098  -111203 
 -109919  -108295  -107905  -109031  -110041  -109660  -108669  -108388 
 -109606  -110832  -109630  -107730  -107593  -107600  -107048  -107763 
 -109278  -109680  -109818  -110828  -110955  -109919  -109393  -108513 
 -106884  -106378  -107154  -108604  -110632  -111904  -111474  -110199 
 -109115  -108399  -107859  -107415  -106837  -106740  -108230  -110215 
 -110949  -110631  -109979  -109622  -109721  -109251  -108359  -108461 
 -108885  -108468  -108430  -109210  -109267  -109069  -110300  -111723 
 -111469  -110731  -110748  -110481  -109668  -109151  -109162  -109807 
 -110197  -109629  -110006  -111651  -111766  -110767  -111253  -112040 
 -111638  -111072  -110296  -109051  -108731  -109638  -110478  -111017 
 -111892  -112731  -112896  -112419  -111875  -112124  -112045  -110007 
 -108218  -108160  -108232  -109516  -112104  -112106  -110023  -109844 
 -110921  -110740  -109638  -108359  -107040  -106749  -107871  -108872 
 -109252  -110315  -111315  -110353  -108803  -108503  -108457  -108167 
 -107797  -106920  -106758  -107867  -108634  -108974  -109296  -108492 
 -106818  -106297  -107221  -108032  -108264  -108521  -109424  -110917 
 -111437  -110320  -108854  -107914  -107727  -108149  -108585  -109142 
 -110031  -110423  -110203  -110058  -109615  -108602  -107295  -106061 
 -106189  -108018  -109620  -109857  -109761  -110232  -111184  -111215 
 -108899  -106743  -107029  -107657  -108128  -109212  -110242  -111834 
 -113841  -114579  -113204  -110529  -109053  -109549  -110477  -110740 
 -109915  -109119  -110631  -113432  -113633  -111523  -110025  -108774 
 -107906  -108226  -108102  -107524  -107671  -107677  -106604  -105038 
 -104329  -104896  -106413  -109274  -113103  -115885  -116479  -115551 
 -114041  -112537  -110903  -108699  -106721  -106182  -107466  -110547 
 -114501  -116702  -115588  -113556  -112594  -111612  -110130  -108279 
 -105687  -103206  -103378  -106766  -109368  -109102  -108668  -109501 
 -111353  -113058  -112329  -109956  -108511  -108496  -108888  -108290 
 -107042  -106807  -108415  -111167  -112995  -114119  -115716  -116554 
 -116904  -116571  -114073  -111867  -111435  -111172  -110565  -109491 
 -109312  -111395  -114145  -116397  -117717  -116883  -114968  -114084 
 -113194  -111261  -110373  -111424  -112071  -110795  -108519  -106057 
 -103723  -102466  -102269  -102504  -104220  -107974  -112148  -115368 
 -117175  -116490  -112986  -109533  -108394  -107779  -107231  -109003 
 -112290  -115134  -118193  -121034  -120698  -115720  -108419  -102521 
  -99945  -100484  -102577  -104580  -105800  -105653  -104326  -103766 
 -104450  -104859  -105344  -106510  -107501  -108265  -108598  -108047 
 -107195  -106444  -105948  -106122  -106724  -106397  -104575  -102448 
 -101447  -102384  -104494  -105761  -105624  -105684  -107302  -109188 
 -109370  -107827  -106462  -107503  -108453  -105475  -101926  -101783 
 -104376  -109169  -114311  -117229  -118338  -118185  -116966  -115168 
 -111640  -106810  -103951  -104348  -106949  -111181  -115416  -116303 
 -114065  -112272  -110759  -108594  -109021  -112091  -112445  -109459 
 -108013  -109470  -111689  -113131  -112842  -111457  -110798  -111886 
 -114551  -117329  -118948  -119136  -117667  -115608  -114219  -112126 
 -109579  -109657  -111946  -113697  -114062  -112450  -108133  -102631 
  -99144   -98367   -99694  -105358  -114932  -122574  -124614  -121410 
 -114893  -108324  -103399   -99939   -99225  -102084  -106563  -110637 
 -113175  -113252  -111554  -109706  -108010  -106332  -105189  -105046 
 -106162  -107916  -109050  -109390  -109566  -109404  -107752  -105418 
 -105802  -109571  -113146  -113259  -110516  -108160  -107414  -107553 
 -107522  -105811  -104126  -104996  -105588  -103855  -103165  -103596 
 -101796  -100585  -102863  -104391  -104263  -105733  -106897  -106436 
 -107836  -111407  -114124  -116083  -119036  -122408  -125420  -127784 
 -128016  -125844  -123311  -123006  -125209  -125898  -121981  -115827 
 -110301  -105036  -100342   -97919   -97082   -97201   -98918  -100207 
  -99474   -99451  -102072  -104971  -106105  -106493  -107546  -109779 
 -112488  -113567  -112340  -111146  -111603  -112364  -112607  -113223 
 -114374  -115700  -116868  -116441  -113775  -111805  -112340  -112144 
 -109671  -107358  -105192  -102161  -100429  -100145   -98884   -98953 
 -103196  -108523  -112428  -115078  -115418  -113383  -110728  -109308 
 -109444  -109182  -107624  -105587  -104372  -105397  -107630  -109379 
 -110992  -112347  -112553  -112060  -111368  -109984  -108684  -109090 
 -110928  -112630  -113590  -114361  -114511  -112783  -110062  -108785 
 -109761  -112091  -114621  -115060  -112004  -108664  -107362  -105771 
 -103503  -102496  -102406  -102583  -103675  -104858  -104035  -102265 
 -103106  -106205  -107997  -108260  -108996  -109401  -108361  -108006 
 -110155  -113285  -114906  -115240  -116293  -117494  -116888  -114454 
 -111937  -111862  -113938  -114899  -113911  -112459  -111260  -110377 
 -110077  -111227  -113532  -114673  -113957  -113286  -113271  -112391 
 -110054  -107931  -105791  -101596   -98126   -98868  -102027  -104834 
 -106027  -106801  -109026  -111078  -111628  -111967  -112671  -113459 
 -113931  -113576  -112514  -111584  -110901  -110092  -110207  -111636 
 -112891  -113347  -113154  -111735  -108769  -105663  -104010  -103551 
 -103989  -105791  -108255  -109377  -108265  -106708  -106633  -108268 
 -111038  -113914  -116245  -117198  -115905  -113976  -112637  -110533 
 -108172  -108162  -110982  -113620  -113007  -110879  -109892  -108469 
 -105821  -103648  -102631  -102801  -103709  -105058  -106172  -105634 
 -105192  -106540  -107064  -105618  -104413  -104712  -105922  -107630 
 -110245  -112715  -113414  -112498  -110880  -110744  -112996  -114778 
 -115002  -114635  -112896  -110741  -110825  -111474  -109806  -108251 
 -108689  -109012  -109520  -110903  -111249  -110099  -108263  -106563 
 -105933  -106644  -108087  -108683  -108369  -108950  -109730  -108557 
 -106857  -107082  -107948  -107823  -107898  -109695  -112336  -113143 
 -112079  -112075  -113765  -115221  -116320  -118581  -120741  -119703 
 -115967  -112822  -111238  -109956  -109318  -110436  -112070  -113493 
 -115819  -117641  -116899  -113973  -108942  -103527  -101537  -102541 
 -103538  -103738  -103446  -103681  -104728  -105163  -104665  -103249 
 -100990  -100410  -102308  -103904  -104365  -104965  -105910  -106783 
 -107507  -107959  -107256  -105529  -105397  -107894  -110763  -113008 
 -115636  -118359  -119701  -119236  -118261  -118126  -118104  -116573 
 -114261  -113395  -113375  -111746  -108683  -105576  -102948  -102039 
 -103766  -106173  -106455  -105343  -104885  -104375  -104110  -105432 
 -106633  -107865  -111362  -114615  -115519  -116695  -118527  -118928 
 -117393  -114498  -112212  -112328  -113256  -112247  -109732  -108041 
 -107285  -106546  -106016  -106004  -107333  -110219  -112896  -113941 
 -112963  -110686  -109476  -110178  -110984  -110722  -109902  -109428 
 -109004  -107248  -104097  -101358  -101027  -102223  -101888  -100099 
  -98334   -96600   -96585   -98955  -101021  -102393  -104791  -107611 
 -109548  -110538  -111191  -112369  -113938  -115377  -117020  -118935 
 -120681  -121413  -120777  -119665  -118295  -116926  -116946  -118006 
 -117579  -115384  -114459  -114925  -114092  -112774  -111562  -108793 
 -105972  -104899  -104464  -104102  -104290  -104625  -104164  -103184 
 -102641  -103053  -105341  -109093  -112194  -114031  -115063  -115381 
 -115236  -114760  -113968  -113320  -113171  -113451  -114388  -114948 
 -112896  -109183  -106466  -104699  -103183  -102103  -101702  -102405 
 -103690  -104662  -105583  -106718  -107966  -109237  -110446  -111709 
 -112537  -112260  -111419  -110527  -109333  -107944  -106474  -105115 
 -104903  -105756  -105854  -105266  -105833  -107144  -108283  -109736 
 -110531  -109800  -108814  -108754  -109629  -110733  -112247  -114177 
 -114628  -113921  -114272  -114548  -113462  -112618  -112201  -110938 
 -109387  -108716  -109100  -109462  -108579  -107775  -108851  -110891 
 -112517  -113047  -112253  -111061  -110228  -110138  -110818  -110970 
 -110389  -110350  -110565  -110000  -108573  -106941  -105746  -105040 
 -104916  -105047  -105093  -105723  -106610  -106409  -105274  -104799 
 -105767  -107407  -109028  -110444  -111843  -113332  -113736  -112969 
 -112814  -113166  -113100  -113618  -114820  -115053  -114237  -114118 
 -115516  -116841  -116966  -117509  -118820  -118616  -116271  -113559 
 -111735  -110492  -109475  -108954  -108486  -107404  -106303  -106089 
 -106760  -107087  -105671  -103227  -101794  -102157  -103752  -105354 
 -105595  -104315  -102884  -102628  -103751  -105371  -106235  -106374 
 -106647  -106768  -106447  -106636  -107611  -109082  -111295  -113076 
 -113262  -113548  -114960  -115728  -114481  -111858  -109948  -110212 
 -111423  -111219  -108693  -105406  -103414  -102203  -101417  -102609 
 -104792  -105880  -106937  -108533  -108764  -108203  -109480  -111493 
 -111335  -110247  -111227  -113444  -114465  -114752  -115452  -115612 
 -114412  -113063  -112658  -112031  -110540  -109977  -110677  -110918 
 -110690  -110988  -111429  -111547  -111561  -111126  -110505  -110835 
 -111289  -110836  -110951  -111553  -110675  -109448  -109890  -111025 
 -111326  -110732  -109729  -109027  -109305  -109975  -109715  -108680 
 -107555  -106138  -105241  -105926  -106876  -107279  -108575  -110747 
 -112072  -111856  -110751  -110038  -110162  -110644  -111381  -112224 
 -112808  -113039  -113286  -113684  -113614  -113109  -112324  -110853 
 -109576  -109512  -109826  -109341  -108251  -107616  -107711  -107917 
 -108213  -108500  -107967  -107131  -107037  -107260  -107464  -107681 
