Origin Time       2024/04/02 04:24:00
Lat.              40.133
Long.             141.712
Depth. (km)       71
Mag.              6.0
Station Code      AOMH16
Station Lat.      40.4624
Station Long.     141.0923
Station Height(m) 315
Record Time       2024/04/02 04:24:51
Sampling Freq(Hz) 100Hz
Duration Time(s)  202
Dir.              5
Scale Factor      7845(gal)/8223790
Max. Acc. (gal)   119.907
Last Correction   2024/04/02 04:24:51
Memo.             
[...]
   17660    17659    17658    17658    17656    17658    17660    17659 
   17658    17659    17659    17658    17659    17662    17658    17652 
   17655    17659    17658    17655    17656    17658    17660    17660 
   17660    17659    17656    17653    17653    17656    17659    17658 
   17653    17655    17658    17658    17658    17656    17656    17659 
   17660    17662    17666    17663    17658    17659    17659    17653 
   17649    17651    17652    17655    17656    17659    17660    17662 
   17659    17652    17653    17658    17659    17659    17659    17662 
   17662    17658    17656    17658    17659    17656    17651    17649 
   17652    17655    17656    17658    17662    17666    17667    17662 
   17655    17658    17659    17653    17655    17660    17658    17655 
   17658    17659    17659    17660    17660    17656    17651    17652 
   17656    17658    17658    17662    17664    17663    17656    17651 
   17652    17656    17658    17656    17653    17655    17659    17662 
   17663    17660    17655    17656    17659    17658    17658    17659 
   17655    17651    17649    17651    17653    17659    17662    17659 
   17664    17670    17664    17658    17659    17658    17653    17652 
   17652    17653    17653    17655    17659    17658    17656    17655 
   17655    17656    17660    17658    17652    17655    17659    17658 
   17656    17659    17660    17660    17660    17659    17656    17653 
   17651    17651    17659    17666    17664    17662    17663    17659 
   17653    17651    17649    17649    17651    17652    17655    17658 
   17659    17660    17663    17660    17656    17656    17658    17658 
   17655    17655    17659    17659    17655    17655    17658    17656 
   17655    17658    17659    17656    17658    17660    17662    17660 
   17660    17660    17658    17652    17651    17655    17655    17652 
   17653    17660    17662    17659    17663    17667    17660    17655 
   17656    17655    17653    17655    17658    17659    17658    17656 
   17655    17658    17655    17649    17649    17649    17648    17652 
   17655    17658    17663    17663    17659    17662    17666    17660 
   17658    17656    17653    17653    17653    17652    17655    17655 
   17648    17649    17651    17652    17656    17659    17659    17658 
   17662    17664    17664    17663    17662    17660    17653    17651 
   17653    17653    17652    17651    17651    17658    17662    17660 
   17662    17660    17656    17652    17655    17658    17655    17653 
   17656    17655    17658    17664    17666    17664    17668    17667 
   17663    17659    17655    17652    17653    17655    17659    17664 
   17666    17663    17656    17647    17652    17664    17670    17668 
   17668    17671    17682    17690    17689    17666    17595    17478 
   17355    17258    17216    17253    17359    17513    17699    17903 
   18118    18308    18396    18327    18122    17787    17289    16711 
   16239    15973    15896    15986    16321    17019    17967    18765 
   19076    18945    18692    18505    18211    17597    16900    16552 
   16708    17362    18301    18966    19144    19225    19232    18646 
   17420    16159    15265    14280    12537    10612    10106    11685 
   14224    16656    19749    24061    27716    28892    28102    26257 
   23140    18638    13757     9890     7558     6745     8627    14453 
   21556    25141    24922    24205    23541    20499    13786     5707 
    1212     3087     9359    16405    22214    27386    32503    34931 
   32827    28173    21960    13890     6161     1279     -538      378 
    4573    12243    20954    26904    28247    25150    20470    19013 
   20077    18769    17313    20484    25078    27546    28572    26557 
   21471    16999    12596     7074     3819     4090     7195    13563 
   20731    25983    29080    28499    23944    17906    11047     4382 
    1906     4895    11441    21778    35170    44512    43367    36181 
   30885    25891    16490     5509    -2073    -6230    -7774    -4328 
    4012    12334    18104    22891    28082    31919    29266    19715 
   12070    12722    17856    21207    22405    24876    27801    26743 
   21379    14748     9428     8784    15792    28386    37881    37254 
   31460    28564    25648    17644     6717    -4899   -14821   -17085 
   -8074    11329    34209    47368    46184    41643    41594    40853 
   33790    19896      365   -19874   -30989   -24540    -3771    16047 
   25371    32463    45821    55737    50448    35804    23149    11686 
   -3937   -16748   -16035    -7091       95     8947    23164    33478 
   32395    28246    30640    33467    27912    18878    15732    17713 
   16499    10980     8923    10974     9373     3732     2232     8980 
   20073    30078    37404    43240    47194    46643    40146    27962 
    9818   -11850   -27629   -31244   -28181   -19986     1043    30569 
   52620    61052    59537    49527    30994     9730    -5197   -11217 
  -11322    -6384     4272    18709    33605    47748    57511    54584 
   39610    23998    12467     2585    -3867    -4901    -3391      375 
   10562    26160    37779    37615    28875    20268    14902    11399 
    8911     7279     9483    18459    28667    31365    25606    17143 
   10890     8168     8887    10885    12040    16476    26248    34936 
   39438    40255    34781    23257     9802    -1719    -7180    -5471 
    -398     5107    10860    16135    19715    21091    19206    13485 
    7291     5363     7531    11468    19164    30966    40041    42708 
   41415    36147    27387    18882    11395     4752     2208     5350 
   10976    16038    21069    27290    32788    32597    23985    12440 
    5719     2556    -1421    -1900     6763    20501    31179    35783 
   35681    31854    24148    14548     8054     7577    10401    13516 
   18343    25459    30393    28591    21222    13679     6940    -3807 
  -17760   -25764   -21104    -5898    12472    28875    41300    47501 
   48280    46908    43143    35688    25400    14760     8548     9005 
   12430    15908    19365    21146    20052    17474    13988     9980 
    7645     7094     6637     8865    16553    25266    32231    41207 
   48961    48213    43274    41015    39239    34792    28717    22423 
   15141     6349    -1347    -6463   -10791   -14924   -17221   -15472 
   -9093     -884     6556    13107    18767    23990    29432    32728 
   29469    19526    10249     8665    12761    16681    19489    23637 
   29953    35815    37261    34211    29397    22473    12960     5243 
    2729     1896    -1528    -4378     -187    10578    21244    27877 
   30591    29975    27980    27662    29346    30046    27699    24182 
   21890    20291    18605    16973    14763    11531     7711     3670 
    -189    -2798    -2805      623     7460    16194    24528    31170 
   35401    36786    35742    33183    31533    33095    35368    33056 
   24034    11646     1362    -5738   -10253    -8991    -1183     9718 
   21224    28958    28328    22461    17605    14409     9668     1464 
   -8392   -13840    -9167     3824    18773    32586    43016    47991 
   51455    56187    56917    50653    40872    31537    25011    21053 
   18505    16762    13408     6841      441     -425     4590    10733 
   14914    15797    13246    11530    14188    19619    24368    25438 
   23103    21439    22765    24930    24186    19222    12901     8810 
    7462     7192     6049     3470     1035      280     2659     9794 
   19132    25458    28567    31193    32422    31190    29369    26662 
   20979    13957     8777     5225     2205     1768     4467     6447 
    7407    10735    15203    18954    23436    26673    25898    24007 
   23365    22825    21864    19646    15851    12962    12233    12718 
   14297    16150    17975    23484    33890    43424    48539    51337 
   51325    45191    34057    22364    11539      684    -8159   -11443 
   -9933    -5633     2674    13980    24304    32412    37771    39355 
   39366    39627    37569    31885    26019    21836    15723     5487 
   -4010    -7712    -7245    -5501    -1366     5471    11217    13306 
   14202    15618    15257    13779    14821    17410    18378    18023 
   17548    16177    12858     6745    -1471    -6694    -5861    -3604 
   -3356    -2551     1043     6914    13398    18922    23199    26655 
   29166    30037    29178    27897    27643    28458    29671    31352 
   33046    33231    32628    32869    31540    26501    21165    18735 
   18104    17988    18404    18065    16016    14187    13173    10837 
    7258     4541     3433     2469     -109    -1867     1125     6903 
   12094    18527    27298    34830    39314    43116    47186    48856 
   45678    38458    30696    25429    23016    22458    21766    17932 
   11259     5763     3426     3365     2948    -1436    -8355   -11647 
   -8845    -2069     5630    11504    15152    18527    22459    26029 
   29246    32466    33831    31699    28171    25886    24160    21987 
   20205    19313    19847    22538    26171    29147    30191    27592 
   23496    22906    26200    30354    33191    32958    29706    24961 
   18704    11280     4506    -1282    -5715    -6905    -5275    -3099 
    -827     1649     4068     7616    13203    18986    22986    24927 
   24185    21505    20866    23519    26179    27384    27203    25072 
   22605    20669    17290    12974     9683     7568     7813    11026 
   14872    18836    23499    26242    25579    23155    19386    14447 
   10069     6995     5181     5741     9937    16997    24070    28786 
   31835    35629    39937    42211    41694    38624    32902    26530 
   22122    18693    13628     7589     3854     4039     7190    11311 
   13856    13549    12484    12879    14057    15993    19535    22111 
   21239    19329    19357    20436    20044    18551    17932    16247 
   12027    10243    12752    13190     8930     5194     5722     8618 
   10751    12055    13801    15607    17320    18620    17699    15238 
   13663    12807    12082    12087    13132    15302    18187    21232 
   24061    25151    23037    18999    16110    15745    16686    17679 
   19059    22013    26187    28206    25864    22053    20055    18118 
   13578     9389     9922    12891    13200    10860     9288    10578 
   13616    15075    14561    15018    16055    14732    12683    12845 
   13018    12417    16002    25131    34296    38034    34692    27834 
   24025    24192    22203    15344     8212     5362     7539    12297 
   14756    13074    10824    10813    13285    17845    21467    21215 
   19197    18975    21398    25629    28749    26712    20208    14551 
   12537    12985    14283    16241    19591    23338    25336    26307 
   27946    28053    23496    15871     9636     6385     4561     3694 
    4644     7304    11547    17803    25394    32125    36108    37678 
   37937    37038    36364    37631    38516    35785    30392    24192 
   17725    12461     8637     4168     -622    -2382      -99     4078 
    9463    16110    20657    20308    18401    19502    22075    21651 
   18809    17232    16240    13945    12756    14062    15354    15453 
   14323     9900     2049    -4375    -5891    -4985    -3670      614 
    8775    17803    25702    31372    33170    32590    33038    33903 
   31260    23680    15240    11448    13306    18492    24408    28745 
   31415    33307    33604    32277    30096    26046    19525    12329 
    7695     7609    10241    13487    17280    19458    17953    15978 
   16725    17263    14192     9643     7450     8866    12681    15843 
   15866    14050    13702    15059    15280    14377    15905    18916 
   18397    15421    15307    19155    24852    29301    29467    26804 
   24952    23029    18856    14314    12513    13460    13841    12340 
   12059    13562    14027    13992    14516    12602     6651      480 
    -828     3801    11354    19091    26406    33390    40366    45939 
   45705    38313    29014    21529    14233     7222     2825      175 
   -1995    -2334     -799     1287     3539     4911     5250     6540 
    8706     9957    11048    14526    21386    29556    35054    35066 
   31097    27491    23988    16648     8696     6565     8233    11091 
   18195    27837    34533    38272    41291    43027    41661    36521 
   29471    23966    21292    20922    23211    25277    22293    17246 
   17001    20758    21934    17818    12960    11938    13374    16197 
   22207    28946    31126    27302    19592    11712     5965      689 
   -5290    -8772    -5918     1522     8059    13609    20641    24795 
   22084    16329    10297     2820    -3231    -3451     -290     1354 
    2884     8236    16455    23803    26952    23923    17119    11319 
    9072    11007    15090    18516    24162    35552    48153    55742 
   57516    54853    49141    41617    30908    15746     1323    -6176 
   -8149    -8100    -6755    -5289    -4850    -5420    -6392    -5491 
   -1158     4889    12069    23290    40579    62451    83258    94635 
   92612    80707    64296    47005    30310    13014    -5449   -22626 
  -35615   -42165   -41804   -38214   -35677   -33565   -29068   -23460 
  -18036    -8064     8710    26824    42404    55329    64678    70096 
   73008    75567    79230    82231    80902    75685    71628    69989 
   65099    52196    31935     6859   -21519   -51283   -77400   -95251 
 -105206  -108044  -101548   -83721   -54843   -18044    21354    56146 
   78163    86065    88358    92395    97249    98448    92867    80092 
   64428    53684    48907    41566    26736     5362   -22315   -50252 
  -68187   -74650   -74403   -70769   -65230   -55798   -40032   -20102 
     751    19751    34441    49192    69523    89202   100668   107551 
  113167   114141   109209    99316    85189    70336    56376    39221 
   16654    -7203   -25806   -35145   -37959   -39996   -40554   -35251 
  -25108   -14581    -5290     4410    15203    25092    32826    37536 
   36285    28717    20117    16047    18216    25752    36505    47927 
   57296    59240    49013    31283    14786    -1051   -21490   -44578 
  -63215   -71008   -65676   -52982   -40339   -27190   -10008    11353 
   33953    51266    59798    63563    65199    62580    53465    37789 
   20591     8923     1790    -7520   -18651   -25227   -26461   -26785 
  -26411   -20098    -4942    13250    23301    21301    16071    17547 
   27506    43174    58874    67203    66830    62761    58418    54687 
   52006    48978    43291    35561    30117    30693    36369    42275 
   44439    44783    47521    50664    47686    35635    17394    -2346 
  -21424   -37702   -45914   -43495   -33833   -20682    -5221    12047 
   29558    44880    56470    63552    63512    52072    31221    11520 
   -2889   -17625   -30937   -35232   -31149   -23267   -14913   -10131 
   -7771    -1270    12528    32625    54936    73485    86254    93511 
   93270    85276    72944    57921    39992    22778     9814    -2741 
  -20204   -41177   -59679   -69847   -68486   -57990   -45184   -33323 
  -19870    -3740    13965    34676    59165    82607    97637   101243 
   95916    84361    67212    45825    24601     9094     -234    -8077 
  -16133   -22846   -27461   -27388   -19670    -6164     8364    19375 
   24039    23654    22966    24883    26454    23631    18499    16437 
   19715    26821    32508    30458    23055    21055    27772    35426 
   37727    35214    31544    29262    28730    29929    31756    30639 
   22322     4957   -18823   -42466   -57554   -58152   -45782   -26127 
   -1906    26169    56517    87200   111631   119385   109995    91446 
   65556    33700     4560   -15498   -25548   -24649   -11083    13605 
   39771    56709    62106    57006    42908    22925     -575   -22349 
  -36607   -44354   -43681   -27008      257    22728    37120    46778 
   48820    43425    33648    17406    -2766   -19479   -30526   -34020 
  -28505   -19002   -10723    -4652    -1136     -229      541     3709 
    7499     8391     6662     7754    17410    32161    40278    36352 
   27222    19053     9903      715    -5209   -10365   -13582    -9961 
    -575    12414    27554    42188    54818    63776    67860    68457 
   68848    69013    63630    52598    40698    28332    17685    12723 
   10524     8010     7959    11634    15380    16997    18220    20569 
   25146    32390    38898    40707    37814    31828    23855    17205 
   15365    16980    20790    26258    27949    24984    23920    24547 
   22273    18117    13822    10245    11055    17444    24251    26512 
   23963    18297    12054     6833     1059    -6035   -13410   -21116 
  -28915   -35329   -38242   -36351   -30491   -21165    -7944     8491 
   26099    41854    55042    68408    81731    89989    89714    80669 
   63610    42010    20312    -1553   -24116   -43318   -55926   -61053 
  -56138   -40393   -18285     3720    20556    31467    38956    43756 
   46881    51598    57319    60230    59454    56047    49921    39507 
   25033    11684     2789    -4536   -10675   -12343    -9790    -4587 
    2187     8259    14520    23411    32229    36823    36736    32548 
   24895    15973     7915     1810    -1725    -2407      733     8599 
   19242    29312    38596    48635    57381    60987    59015    52398 
   41936    30206    18319     6239    -2629    -6123    -6835    -5509 
     -75     7515    11743    11300    10285    11083    12340    13724 
   16630    21438    26879    31118    33327    33617    31121    24656 
   15996     9011     4750     2466     3743     8862    14349    17679 
   18038    15213    11573     9732     9649    11211    14766    19130 
   23097    26469    28181    26751    22572    16951     9292    -1298 
  -12839   -22900   -29886   -31332   -27544   -22364   -16933    -9553 
    -712     6265     9715    12339    16545    22233    30069    39987 
   50183    59373    65485    67610    68332    67637    62078    51129 
   36508    20074     5254    -4741    -9150    -8565    -4155     2214 
    9343    17537    26272    32609    34510    33696    33453    35839 
   41103    47987    54649    60728    67630    74763    78698    76740 
   68447    55907    41721    26824    13798     4793    -3071   -10478 
  -14569   -17162   -20672   -22419   -19927   -14202    -7878    -3443 
    -999     1919     6185     9310     9120     5584      121    -5306 
  -10670   -16841   -21186   -19257   -10678      234     8789    13433 
   15005    13470     9208     4438    -1417   -10106   -17787   -18860 
  -12590    -1686     9900    17918    21652    24232    26936    28505 
   29627    31746    34600    38627    44312    49999    53813    54614 
   52524    49219    45539    41952    39629    37408    32552    25243 
   18087    12684     8649     4884     1757     1317     4563    10739 
   19076    27835    33952    36614    37565    37827    37774    37281 
   34075    26329    16139     6932     -442    -6315    -9269    -8186 
   -4491     1009     8923    18033    26366    33254    38175    41453 
   43977    44226    41064    37423    35370    32680    27364    20254 
   13359     8885     7947     8911     8988     7762     7299     9315 
   13898    19780    24823    27490    27575    25525    22258    17991 
