Origin Time       2024/04/02 04:24:00
Lat.              40.133
Long.             141.712
Depth. (km)       71
Mag.              6.0
Station Code      AOMH01
Station Lat.      41.5273
Station Long.     140.9127
Station Height(m) 10
Record Time       2024/04/02 04:25:05
Sampling Freq(Hz) 100Hz
Duration Time(s)  120
Dir.              5
Scale Factor      3920(gal)/6170801
Max. Acc. (gal)   6.564
Last Correction   2024/04/02 04:24:50
Memo.             
[...]
   -8210    -7945    -7350    -6814    -6502    -6357    -6380    -6581 
   -6735    -6566    -6090    -5563    -5253    -5294    -5600    -5992 
   -6488    -7168    -7847    -8219    -8198    -7812    -7030    -5891 
   -4617    -3586    -3132    -3314    -3983    -4917    -5774    -6241 
   -6307    -6202    -6141    -6223    -6358    -6254    -5852    -5518 
   -5434    -5400    -5447    -5841    -6426    -6686    -6563    -6563 
   -6882    -7112    -6962    -6622    -6236    -5607    -4763    -4229 
   -4356    -4925    -5599    -6325    -7083    -7601    -7600    -7089 
   -6291    -5453    -4700    -4119    -3965    -4504    -5630    -6899 
   -7930    -8594    -8804    -8422    -7453    -6088    -4636    -3532 
   -3118    -3427    -4261    -5346    -6427    -7306    -7810    -7885 
   -7650    -7314    -7032    -6882    -6874    -6942    -7018    -7078 
   -7056    -6878    -6514    -5920    -5184    -4639    -4545    -4865 
   -5460    -6184    -6791    -7082    -7103    -6926    -6443    -5641 
   -4802    -4180    -3769    -3633    -4021    -4967    -6103    -6956 
   -7295    -7177    -6717    -5995    -5201    -4587    -4255    -4172 
   -4368    -4928    -5752    -6539    -7050    -7258    -7189    -6753 
   -5909    -4930    -4219    -3961    -4183    -4850    -5742    -6479 
   -6808    -6775    -6621    -6561    -6665    -6875    -7103    -7307 
   -7394    -7196    -6689    -6033    -5432    -5084    -5033    -5178 
   -5486    -5971    -6512    -6868    -6864    -6560    -6165    -5865 
   -5821    -6170    -6884    -7684    -8220    -8373    -8230    -7813 
   -7062    -6056    -5062    -4385    -4231    -4589    -5171    -5629 
   -5900    -6120    -6235    -6092    -5881    -5983    -6385    -6745 
   -6936    -7085    -7183    -7057    -6666    -6155    -5683    -5347 
   -5178    -5151    -5221    -5297    -5307    -5292    -5287    -5217 
   -5027    -4806    -4645    -4505    -4381    -4447    -4812    -5301 
   -5719    -6121    -6584    -6933    -6954    -6789    -6729    -6729 
   -6594    -6468    -6646    -6923    -6780    -6243    -5751    -5337 
   -4832    -4465    -4506    -4806    -5157    -5568    -6002    -6285 
   -6370    -6416    -6527    -6672    -6883    -7281    -7771    -8018 
   -7877    -7496    -6920    -6039    -4990    -4192    -3927    -4139 
   -4717    -5720    -7069    -8286    -8921    -8945    -8563    -7892 
   -6895    -5664    -4599    -4052    -3984    -4205    -4686    -5374 
   -6017    -6410    -6601    -6755    -6969    -7213    -7393    -7437 
   -7305    -6961    -6394    -5680    -5017    -4582    -4350    -4224 
   -4269    -4612    -5213    -5925    -6637    -7227    -7549    -7530 
   -7227    -6790    -6326    -5863    -5423    -5116    -5125    -5447 
   -5818    -6097    -6399    -6727    -6884    -6781    -6538    -6292 
   -6066    -5826    -5627    -5575    -5616    -5556    -5399    -5398 
   -5618    -5815    -5870    -5909    -5991    -6002    -5908    -5830 
   -5831    -5865    -5939    -6055    -6131    -6150    -6207    -6302 
   -6312    -6208    -6115    -6163    -6326    -6457    -6538    -6663 
   -6734    -6538    -6046    -5392    -4704    -4090    -3643    -3461 
   -3650    -4195    -4918    -5630    -6205    -6548    -6631    -6440 
   -5967    -5413    -5120    -5168    -5377    -5749    -6437    -7298 
   -7973    -8321    -8431    -8296    -7745    -6814    -5850    -5081 
   -4469    -4051    -4030    -4402    -4843    -5162    -5513    -5995 
   -6433    -6649    -6649    -6510    -6232    -5824    -5413    -5148 
   -5114    -5224    -5250    -5170    -5204    -5430    -5726    -6084 
   -6618    -7221    -7579    -7597    -7414    -7072    -6587    -6101 
   -5700    -5375    -5214    -5287    -5485    -5701    -5951    -6166 
   -6186    -6060    -5989    -6090    -6400    -6859    -7316    -7675 
   -7886    -7841    -7447    -6801    -6179    -5792    -5636    -5624 
   -5743    -6024    -6393    -6698    -6879    -6986    -7037    -7001 
   -6898    -6806    -6766    -6736    -6659    -6518    -6317    -6081 
   -5804    -5438    -5034    -4793    -4859    -5136    -5437    -5717 
   -5950    -5999    -5835    -5637    -5560    -5572    -5592    -5678 
   -5925    -6237    -6430    -6473    -6438    -6308    -6063    -5833 
   -5737    -5699    -5602    -5503    -5518    -5593    -5672    -5891 
   -6333    -6809    -7104    -7242    -7280    -7042    -6369    -5449 
   -4615    -4020    -3767    -3992    -4607    -5304    -5902    -6410 
   -6846    -7127    -7139    -6871    -6441    -6005    -5696    -5601 
   -5776    -6215    -6761    -7208    -7418    -7295    -6841    -6230 
   -5677    -5269    -5034    -5081    -5451    -5948    -6345    -6542 
   -6444    -5948    -5186    -4590    -4430    -4486    -4522    -4679 
   -5049    -5368    -5416    -5328    -5287    -5294    -5402    -5769 
   -6388    -7051    -7534    -7689    -7504    -7078    -6557    -6084 
   -5764    -5624    -5667    -5951    -6463    -6968    -7239    -7283 
   -7145    -6809    -6357    -5981    -5779    -5665    -5515    -5356 
   -5280    -5277    -5328    -5523    -5875    -6170    -6185    -5937 
   -5586    -5273    -5120    -5226    -5594    -6117    -6617    -6982 
   -7213    -7269    -7070    -6701    -6344    -6051    -5812    -5684 
   -5751    -5988    -6271    -6514    -6639    -6521    -6101    -5443 
   -4704    -4111    -3847    -3914    -4210    -4682    -5283    -5895 
   -6454    -7019    -7548    -7814    -7715    -7414    -7073    -6720 
   -6321    -5901    -5556    -5327    -5189    -5171    -5335    -5625 
   -5932    -6298    -6794    -7222    -7289    -6957    -6416    -5875 
   -5484    -5351    -5479    -5711    -5832    -5774    -5665    -5625 
   -5708    -6008    -6542    -7121    -7546    -7757    -7738    -7429 
   -6812    -6017    -5231    -4609    -4336    -4560    -5202    -5984 
   -6709    -7274    -7468    -7123    -6405    -5640    -4983    -4438 
   -4085    -4088    -4490    -5143    -5853    -6494    -7001    -7315 
   -7364    -7177    -6977    -6912    -6871    -6794    -6803    -6904 
   -6877    -6586    -6142    -5675    -5197    -4766    -4549    -4629 
   -4945    -5407    -5881    -6169    -6166    -5965    -5741    -5592 
   -5556    -5713    -6116    -6613    -6984    -7209    -7332    -7282 
   -7071    -6869    -6700    -6409    -6008    -5698    -5562    -5518 
   -5560    -5804    -6231    -6559    -6524    -6190    -5800    -5472 
   -5223    -5153    -5326    -5621    -5934    -6295    -6615    -6672 
   -6431    -6076    -5741    -5434    -5137    -4894    -4822    -4976 
   -5257    -5516    -5667    -5698    -5648    -5585    -5537    -5424 
   -5203    -5048    -5153    -5425    -5644    -5777    -5889    -5974 
   -6048    -6166    -6330    -6454    -6424    -6196    -5848    -5518 
   -5250    -5024    -4932    -5090    -5438    -5845    -6275    -6720 
   -7098    -7360    -7558    -7672    -7573    -7237    -6737    -6118 
   -5507    -5145    -5162    -5489    -5978    -6502    -6972    -7309 
   -7395    -7176    -6822    -6511    -6171    -5724    -5345    -5180 
   -5073    -4852    -4586    -4446    -4528    -4821    -5282    -5961 
   -6818    -7563    -7927    -7900    -7629    -7198    -6610    -5982 
   -5503    -5208    -5034    -4925    -4848    -4895    -5208    -5712 
   -6173    -6522    -6863    -7128    -7130    -6903    -6591    -6213 
   -5748    -5316    -5174    -5438    -5905    -6337    -6660    -6815 
   -6736    -6451    -6095    -5855    -5851    -6046    -6326    -6561 
   -6640    -6475    -6075    -5627    -5410    -5585    -6054    -6600 
   -7118    -7517    -7604    -7296    -6753    -6226    -5856    -5679 
   -5723    -5951    -6181    -6232    -6148    -6149    -6352    -6670 
   -6938    -7065    -7022    -6764    -6324    -5799    -5200    -4565 
   -4134    -4106    -4381    -4782    -5364    -6202    -7069    -7632 
   -7794    -7675    -7346    -6783    -6057    -5332    -4716    -4274 
   -3993    -3805    -3825    -4227    -4879    -5454    -5856    -6241 
   -6606    -6770    -6787    -6928    -7181    -7192    -6800    -6217 
   -5574    -4791    -4010    -3646    -3893    -4538    -5322    -6139 
   -6794    -7001    -6789    -6498    -6326    -6203    -6083    -6056 
   -6141    -6240    -6279    -6274    -6300    -6378    -6500    -6622 
   -6633    -6521    -6375    -6128    -5687    -5189    -4836    -4661 
   -4629    -4809    -5257    -5830    -6329    -6682    -6929    -7159 
   -7371    -7412    -7207    -6905    -6625    -6314    -5994    -5818 
   -5799    -5768    -5671    -5665    -5844    -6063    -6131    -6067 
   -5975    -5757    -5307    -4872    -4794    -5049    -5377    -5698 
   -6076    -6439    -6616    -6609    -6576    -6547    -6384    -6065 
   -5814    -5812    -5985    -6191    -6417    -6690    -6939    -7025 
   -6925    -6768    -6616    -6399    -6091    -5713    -5277    -4858 
   -4608    -4623    -4849    -5194    -5630    -6111    -6526    -6722 
   -6644    -6435    -6238    -6069    -5942    -5927    -6018    -6083 
   -6011    -5856    -5739    -5656    -5516    -5356    -5397    -5750 
   -6211    -6605    -7059    -7628    -8033    -8045    -7813    -7537 
   -7150    -6605    -6099    -5732    -5371    -4936    -4564    -4439 
   -4492    -4527    -4592    -4826    -5103    -5234    -5321    -5565 
   -5885    -6078    -6187    -6364    -6557    -6647    -6719    -6922 
   -7215    -7435    -7465    -7315    -7090    -6846    -6560    -6174 
   -5675    -5156    -4686    -4213    -3742    -3493    -3715    -4377 
   -5274    -6244    -7097    -7601    -7677    -7450    -7044    -6540 
   -6121    -5953    -6014    -6210    -6450    -6542    -6310    -5896 
   -5572    -5373    -5280    -5423    -5834    -6298    -6561    -6543 
   -6282    -5786    -5089    -4414    -4087    -4234    -4741    -5502 
   -6405    -7165    -7499    -7388    -7008    -6533    -6065    -5699 
   -5608    -5890    -6346    -6664    -6761    -6690    -6498    -6288 
   -6135    -6006    -5906    -5879    -5828    -5660    -5506    -5522 
   -5668    -5872    -6176    -6602    -7068    -7437    -7564    -7466 
   -7313    -7117    -6735    -6186    -5654    -5225    -4827    -4463 
   -4303    -4469    -4926    -5587    -6372    -7215    -7995    -8462 
   -8362    -7695    -6782    -5977    -5348    -4850    -4603    -4678 
   -4925    -5170    -5303    -5214    -4872    -4458    -4255    -4469 
   -5187    -6290    -7451    -8402    -9013    -9110    -8529    -7402 
   -6125    -5033    -4379    -4381    -4985    -5882    -6808    -7601 
   -8110    -8211    -7898    -7293    -6594    -5957    -5449    -5113 
   -4913    -4688    -4353    -3983    -3665    -3452    -3481    -3940 
   -4853    -6013    -7172    -8206    -9033    -9462    -9308    -8619 
   -7617    -6447    -5208    -4204    -3825    -4110    -4677    -5148 
   -5473    -5753    -5873    -5669    -5283    -5012    -4900    -4803 
   -4813    -5212    -5946    -6610    -7008    -7252    -7336    -7124 
   -6698    -6328    -6152    -6108    -6114    -6163    -6240    -6273 
   -6235    -6225    -6326    -6486    -6618    -6681    -6677    -6613 
   -6447    -6191    -5946    -5767    -5633    -5517    -5431    -5401 
   -5394    -5333    -5182    -5002    -4905    -4970    -5309    -6046 
   -7018    -7834    -8307    -8473    -8225    -7330    -5950    -4627 
   -3660    -3050    -2847    -3074    -3637    -4427    -5325    -6192 
   -6922    -7454    -7691    -7510    -6933    -6122    -5276    -4659 
   -4485    -4713    -5143    -5594    -5887    -5910    -5779    -5738 
   -5922    -6232    -6536    -6867    -7201    -7349    -7213    -6922 
   -6612    -6256    -5895    -5761    -5961    -6363    -6832    -7318 
   -7672    -7643    -7146    -6320    -5369    -4502    -3936    -3845 
   -4239    -4942    -5741    -6570    -7446    -8229    -8639    -8601 
   -8321    -7972    -7516    -6958    -6583    -6665    -7115    -7668 
   -8137    -8376    -8273    -7835    -7170    -6419    -5747    -5322 
   -5208    -5300    -5496    -5755    -5982    -6035    -5883    -5703 
   -5732    -5973    -6190    -6222    -6198    -6282    -6339    -6136 
   -5704    -5219    -4721    -4200    -3739    -3467    -3453    -3581 
   -3614    -3497    -3356    -3214    -3005    -2877    -3142    -3908 
   -5041    -6340    -7637    -8854    -9849   -10399   -10557   -10640 
  -10707   -10492    -9945    -9336    -8765    -8040    -7101    -6210 
   -5605    -5162    -4708    -4390    -4312    -4258    -4036    -3744 
   -3508    -3232    -2880    -2625    -2582    -2744    -3093    -3554 
   -4009    -4440    -4939    -5531    -6185    -6959    -7853    -8592 
   -8867    -8609    -7864    -6590    -4800    -2831    -1139       81 
     843     1168     1043      515     -245    -1044    -1776    -2376 
   -2846    -3346    -4078    -5051    -6112    -7066    -7662    -7756 
   -7443    -6869    -6095    -5195    -4379    -3944    -4052    -4615 
   -5415    -6273    -7010    -7406    -7373    -7015    -6426    -5680 
   -4906    -4259    -3899    -3862    -3986    -4152    -4483    -5136 
   -5974    -6782    -7566    -8337    -8962    -9327    -9380    -9099 
   -8466    -7533    -6580    -6068    -6299    -7236    -8697   -10478 
  -12262   -13616   -14204   -13961   -13043   -11741   -10430    -9385 
   -8651    -8123    -7660    -7125    -6463    -5694    -4818    -3891 
   -3063    -2456    -2209    -2509    -3354    -4540    -5996    -7818 
   -9906   -11938   -13682   -15032   -15924   -16355   -16324   -15827 
  -14975   -13975   -12975   -11968   -10843    -9562    -8125    -6517 
   -4850    -3318    -2009     -921      -23      691     1085      975 
     265    -1012    -2657    -4363    -5862    -7056    -8074    -9008 
   -9734   -10225   -10621   -10756   -10174    -8780    -7023    -5356 
   -3899    -2745    -2123    -2080    -2377    -2812    -3441    -4395 
   -5609    -6842    -7919    -8879    -9818   -10576   -10770   -10197 
   -8996    -7403    -5625    -3952    -2686    -1905    -1439    -1108 
    -792     -298      521     1495     2182     2283     1918     1268 
     215    -1401    -3432    -5503    -7312    -8770    -9857   -10461 
  -10488   -10071    -9461    -8633    -7273    -5328    -3215    -1321 
     295     1605     2356     2368     1852     1155      469     -193 
    -954    -1854    -2762    -3567    -4248    -4828    -5405    -6095 
   -6932    -7835    -8616    -9052    -9077    -8866    -8621    -8426 
   -8371    -8625    -9196    -9757    -9983    -9852    -9418    -8688 
   -7871    -7314    -7228    -7561    -8081    -8567    -8848    -8724 
   -8130    -7289    -6558    -6229    -6475    -7301    -8493    -9643 
  -10246    -9832    -8233    -5750    -3003     -725      505      417 
   -1099    -3859    -7111    -9860   -11476   -11816   -10967    -9148 
   -6832    -4685    -3206    -2547    -2632    -3293    -4257    -5142 
   -5642    -5727    -5546    -5230    -4871    -4623    -4710    -5227 
   -6016    -6777    -7298    -7531    -7426    -6887    -5971    -5002 
   -4404    -4310    -4546    -5010    -5689    -6379    -6710    -6454 
   -5664    -4530    -3254    -2075    -1316    -1251    -1919    -3207 
   -4979    -6974    -8790   -10117   -10965   -11517   -11818   -11857 
  -11741   -11528   -11092   -10276    -9075    -7604    -5979    -4457 
   -3585    -3775    -4851    -6370    -8057    -9703   -11039   -11912 
  -12334   -12357   -12084   -11595   -10788    -9499    -7894    -6516 
   -5760    -5605    -5899    -6471    -6961    -6928    -6186    -4881 
   -3262    -1643     -501     -239     -876    -2108    -3619    -5165 
   -6325    -6632    -6054    -4952    -3728    -2762    -2398    -2693 
   -3278    -3635    -3531    -3149    -2860    -2906    -3322    -4040 
   -4996    -6060    -6920    -7288    -7226    -7055    -6937    -6826 
   -6769    -6835    -6871    -6650    -6153    -5505    -4730    -3829 
   -3018    -2571    -2535    -2795    -3249    -3806    -4322    -4708 
   -5035    -5379    -5671    -5851    -5999    -6173    -6211    -5954 
   -5610    -5563    -5936    -6574    -7311    -8074    -8750    -9123 
   -9051    -8562    -7801    -6921    -5942    -4878    -3923    -3291 
   -3013    -2960    -3138    -3768    -4793    -5650    -5879    -5677 
   -5482    -5297    -5023    -4985    -5536    -6511    -7339    -7552 
   -7050    -5944    -4440    -2927    -1930    -1953    -3215    -5400 
   -7848   -10108   -12067   -13557   -14262   -14157   -13653   -13110 
  -12473   -11551   -10377    -9124    -7884    -6586    -5125    -3568 
   -2216    -1450    -1474    -2192    -3338    -4609    -5651    -6139 
   -5999    -5484    -4963    -4731    -5025    -5950    -7275    -8556 
   -9431    -9740    -9486    -8663    -7243    -5394    -3571    -2226 
   -1500    -1359    -1888    -3127    -4751    -6303    -7602    -8544 
   -8837    -8395    -7588    -6729    -5828    -4977    -4480    -4469 
   -4618    -4504    -4140    -3822    -3715    -3908    -4543    -5604 
   -6783    -7704    -8123    -7850    -6763    -5063    -3346    -2261 
   -2132    -2965    -4676    -7034    -9540   -11610   -12747   -12759 
  -11913   -10657    -9279    -7940    -6793    -5980    -5521    -5252 
   -5009    -4785    -4596    -4378    -4141    -4115    -4510    -5303 
   -6450    -7832    -8981    -9327    -8686    -7315    -5585    -3854 
   -2619    -2354    -3047    -4192    -5372    -6526    -7549    -8081 
   -7906    -7243    -6530    -6030    -5727    -5529    -5409    -5324 
   -5108    -4601    -3943    -3563    -3845    -4908    -6539    -8252 
   -9522    -9917    -9069    -6946    -4107    -1387      568     1352 
     681    -1399    -4211    -6758    -8432    -9168    -9046    -8114 
   -6709    -5531    -5119    -5506    -6471    -7750    -8887    -9324 
   -8834    -7674    -6256    -4869    -3749    -3114    -3016    -3289 
   -3689    -4019    -4201    -4400    -4864    -5534    -6190    -6845 
   -7627    -8512    -9347    -9907    -9989    -9540    -8647    -7457 
   -6111    -4789    -3729    -3074    -2725    -2440    -2121    -1930 
   -2114    -2814    -4024    -5604    -7276    -8685    -9538    -9677 
   -9035    -7688    -5992    -4534    -3838    -4099    -5163    -6657 
   -8172    -9344    -9772    -9168    -7688    -5858    -4269    -3366 
   -3346    -4184    -5642    -7212    -8256    -8344    -7463    -5889 
   -4160    -2994    -2860    -3775    -5519    -7740    -9950   -11690 
  -12683   -12867   -12394   -11491   -10285    -8880    -7499    -6322 
   -5284    -4264    -3389    -2980    -3173    -3778    -4609    -5595 
   -6526    -7132    -7327    -7086    -6436    -5611    -4929    -4507 
   -4271    -4168    -4238    -4513    -4938    -5344    -5548    -5440 
   -4980    -4239    -3474    -2966    -2760    -2710    -2805    -3134 
   -3543    -3787    -3905    -4055    -4280    -4673    -5398    -6395 
   -7303    -7791    -7787    -7353    -6553    -5586    -4898    -4859 
   -5431    -6336    -7276    -7924    -7998    -7507    -6819    -6299 
   -6090    -6338    -7228    -8591    -9849   -10574   -10823   -10758 
  -10402    -9757    -8868    -7877    -6968    -6187    -5538    -5090 
   -4814    -4512    -4082    -3727    -3747    -4199    -4949    -5920 
   -7081    -8275    -9249    -9863   -10107   -10036    -9687    -8946 
