Origin Time       2024/04/02 04:24:00
Lat.              40.133
Long.             141.712
Depth. (km)       71
Mag.              6.0
Station Code      AOMH17
Station Lat.      40.4492
Station Long.     141.3374
Station Height(m) -49.1
Record Time       2024/04/02 04:24:50
Sampling Freq(Hz) 100Hz
Duration Time(s)  209
Dir.              3
Scale Factor      3923(gal)/8224838
Max. Acc. (gal)   24.133
Last Correction   2024/04/02 04:24:50
Memo.             
[...]
    9169     9174     9170     9163     9163     9169     9169     9167 
    9167     9165     9166     9170     9171     9169     9170     9169 
    9165     9166     9169     9169     9167     9167     9171     9169 
    9166     9169     9170     9169     9169     9170     9171     9170 
    9166     9166     9170     9171     9170     9169     9169     9167 
    9167     9169     9171     9170     9167     9170     9169     9163 
    9163     9167     9169     9170     9170     9167     9169     9169 
    9167     9169     9171     9169     9165     9169     9171     9170 
    9169     9167     9169     9173     9170     9165     9166     9167 
    9170     9170     9167     9169     9167     9166     9167     9169 
    9167     9166     9169     9170     9171     9173     9173     9170 
    9167     9167     9169     9167     9169     9171     9166     9162 
    9166     9169     9166     9165     9167     9170     9169     9167 
    9166     9167     9171     9173     9171     9169     9166     9167 
    9169     9167     9170     9173     9169     9167     9169     9167 
    9166     9167     9169     9170     9167     9165     9169     9171 
    9167     9169     9170     9166     9167     9171     9169     9165 
    9167     9170     9170     9167     9166     9166     9167     9171 
    9173     9170     9169     9169     9169     9167     9163     9166 
    9171     9170     9166     9167     9171     9171     9170     9170 
    9167     9169     9170     9169     9170     9173     9170     9167 
    9167     9167     9166     9165     9167     9171     9170     9167 
    9169     9169     9167     9169     9167     9166     9171     9170 
    9167     9169     9166     9162     9169     9173     9170     9169 
    9173     9171     9167     9169     9170     9169     9170     9170 
    9167     9167     9167     9170     9169     9166     9169     9167 
    9165     9170     9170     9166     9166     9169     9167     9165 
    9167     9170     9169     9169     9169     9167     9169     9169 
    9170     9170     9167     9167     9170     9167     9170     9173 
    9166     9167     9171     9167     9169     9173     9170     9167 
    9167     9169     9169     9169     9167     9166     9166     9166 
    9166     9166     9169     9171     9170     9166     9169     9170 
    9166     9169     9170     9166     9167     9171     9169     9167 
    9169     9170     9169     9166     9167     9169     9167     9169 
    9169     9167     9169     9170     9167     9170     9170     9166 
    9169     9170     9167     9167     9167     9167     9167     9169 
    9170     9169     9169     9170     9169     9167     9169     9170 
    9170     9169     9169     9171     9171     9167     9170     9170 
    9167     9169     9169     9166     9169     9170     9169     9170 
    9166     9163     9169     9171     9170     9170     9170     9167 
    9166     9169     9169     9171     9173     9171     9169     9170 
    9170     9170     9167     9166     9170     9170     9169     9169 
    9166     9163     9166     9169     9167     9166     9166     9167 
    9169     9167     9169     9169     9167     9169     9171     9171 
    9170     9169     9169     9166     9167     9171     9170     9167 
    9167     9170     9167     9163     9167     9171     9169     9166 
    9167     9167     9165     9165     9169     9171     9170     9166 
    9166     9169     9167     9167     9169     9171     9171     9167 
    9169     9167     9167     9170     9169     9167     9170     9170 
    9167     9166     9165     9167     9167     9166     9167     9169 
    9169     9170     9170     9166     9167     9170     9169     9169 
    9169     9170     9169     9167     9169     9169     9169     9170 
    9169     9169     9170     9169     9169     9169     9170     9170 
    9170     9169     9170     9169     9169     9170     9169     9169 
    9171     9174     9171     9170     9171     9170     9170     9170 
    9169     9170     9171     9169     9167     9167     9166     9166 
    9167     9167     9166     9166     9170     9171     9169     9173 
    9173     9169     9170     9170     9167     9170     9173     9170 
    9167     9167     9170     9171     9170     9171     9170     9170 
    9169     9167     9169     9170     9170     9167     9165     9169 
    9173     9167     9167     9171     9171     9170     9170     9170 
    9169     9167     9167     9167     9170     9173     9171     9167 
    9167     9166     9166     9170     9170     9167     9169     9167 
    9166     9167     9167     9170     9170     9167     9169     9171 
    9167     9166     9169     9167     9167     9170     9169     9169 
    9169     9166     9169     9170     9167     9169     9171     9169 
    9166     9166     9166     9166     9169     9167     9169     9170 
    9170     9167     9169     9171     9169     9167     9170     9170 
    9167     9169     9169     9167     9167     9166     9169     9171 
    9169     9167     9170     9169     9166     9166     9169     9167 
    9167     9167     9169     9170     9169     9167     9169     9169 
    9169     9169     9169     9169     9169     9170     9169     9169 
    9170     9171     9167     9167     9167     9169     9173     9171 
    9165     9166     9169     9166     9169     9170     9169     9169 
    9166     9165     9169     9167     9165     9169     9169     9167 
    9167     9170     9173     9167     9166     9167     9167     9167 
    9167     9170     9167     9163     9169     9170     9169     9173 
    9171     9167     9166     9167     9170     9170     9166     9167 
    9169     9166     9167     9166     9165     9167     9170     9169 
    9170     9170     9163     9166     9171     9167     9167     9170 
    9167     9166     9171     9170     9167     9169     9167     9170 
    9174     9171     9169     9166     9165     9170     9169     9165 
    9169     9170     9165     9163     9167     9166     9163     9166 
    9169     9166     9166     9166     9166     9170     9170     9165 
    9167     9170     9169     9170     9171     9169     9166     9169 
    9170     9169     9170     9170     9170     9170     9169     9169 
    9169     9166     9167     9169     9166     9169     9171     9167 
    9166     9167     9167     9170     9167     9167     9170     9171 
    9169     9169     9167     9165     9167     9171     9171     9167 
    9169     9171     9167     9166     9170     9169     9166     9169 
    9169     9167     9169     9170     9169     9166     9167     9170 
    9169     9166     9166     9167     9166     9166     9166     9165 
    9169     9171     9165     9162     9167     9167     9165     9167 
    9169     9167     9169     9170     9167     9167     9170     9173 
    9173     9170     9166     9166     9169     9169     9170     9173 
    9171     9167     9169     9167     9163     9165     9169     9167 
    9163     9163     9165     9166     9166     9167     9170     9169 
    9165     9167     9169     9167     9169     9171     9169     9169 
    9170     9167     9169     9170     9170     9169     9170     9171 
    9170     9167     9167     9167     9167     9170     9173     9171 
    9166     9166     9171     9171     9169     9166     9166     9167 
    9170     9170     9167     9166     9169     9170     9170     9169 
    9166     9167     9170     9169     9170     9171     9170     9170 
    9170     9170     9170     9173     9171     9169     9170     9173 
    9167     9163     9167     9167     9169     9169     9169     9170 
    9170     9167     9169     9171     9170     9167     9166     9167 
    9171     9170     9167     9170     9171     9170     9166     9167 
    9167     9167     9170     9170     9169     9171     9173     9170 
    9167     9165     9169     9171     9169     9167     9170     9167 
    9166     9167     9166     9166     9166     9167     9170     9169 
    9171     9174     9170     9166     9169     9169     9169     9166 
    9165     9171     9171     9167     9171     9170     9165     9167 
    9170     9169     9171     9171     9166     9169     9170     9167 
    9170     9171     9166     9166     9167     9166     9169     9169 
    9167     9169     9169     9167     9169     9167     9166     9167 
    9169     9169     9169     9169     9169     9167     9167     9170 
    9169     9169     9170     9167     9166     9170     9171     9170 
    9167     9165     9166     9169     9166     9166     9166     9165 
    9166     9169     9167     9163     9165     9169     9166     9169 
    9171     9169     9169     9171     9167     9167     9170     9170 
    9170     9169     9166     9169     9171     9169     9166     9169 
    9169     9167     9169     9167     9165     9169     9171     9166 
    9166     9170     9171     9170     9169     9167     9165     9166 
    9170     9169     9165     9167     9171     9169     9166     9167 
    9167     9167     9170     9169     9169     9170     9166     9166 
    9167     9166     9166     9171     9170     9163     9166     9170 
    9170     9169     9167     9167     9167     9167     9169     9169 
    9167     9169     9167     9166     9169     9170     9167     9169 
    9169     9169     9169     9171     9170     9166     9169     9171 
    9167     9169     9169     9166     9167     9167     9166     9166 
    9167     9163     9163     9169     9171     9167     9163     9165 
    9166     9166     9169     9173     9169     9163     9167     9173 
    9167     9169     9171     9171     9173     9170     9167     9171 
    9174     9169     9167     9171     9171     9167     9167     9167 
    9167     9170     9169     9167     9173     9170     9166     9169 
    9170     9170     9170     9171     9170     9167     9170     9169 
    9167     9169     9171     9167     9165     9163     9166     9169 
    9169     9169     9167     9166     9166     9169     9170     9167 
    9167     9169     9170     9170     9167     9169     9170     9170 
    9169     9169     9169     9170     9170     9170     9169     9169 
    9169     9169     9170     9171     9170     9166     9167     9169 
    9166     9165     9171     9171     9163     9165     9171     9169 
    9167     9171     9171     9169     9167     9167     9167     9170 
    9171     9170     9167     9167     9170     9171     9166     9163 
    9166     9167     9169     9171     9169     9165     9170     9173 
    9169     9167     9169     9169     9169     9171     9171     9167 
    9167     9169     9169     9167     9167     9170     9170     9169 
    9167     9167     9171     9171     9167     9169     9170     9167 
    9167     9167     9166     9167     9167     9166     9166     9167 
    9169     9167     9166     9166     9166     9170     9171     9170 
    9171     9170     9166     9167     9169     9170     9169     9166 
    9166     9169     9170     9170     9167     9166     9166     9167 
    9169     9169     9167     9166     9167     9170     9170     9165 
    9166     9170     9167     9163     9166     9170     9170     9169 
    9169     9170     9167     9166     9167     9167     9165     9165 
    9170     9170     9167     9167     9169     9169     9170     9166 
    9163     9167     9169     9167     9169     9173     9171     9167 
    9167     9170     9167     9169     9170     9170     9167     9167 
    9169     9169     9170     9170     9167     9169     9167     9166 
    9170     9169     9165     9167     9169     9167     9167     9167 
    9167     9169     9167     9167     9169     9170     9170     9169 
    9167     9167     9169     9171     9170     9169     9170     9169 
    9166     9169     9170     9167     9167     9167     9166     9166 
    9165     9165     9167     9169     9173     9170     9166     9169 
    9170     9167     9169     9171     9169     9167     9171     9173 
    9169     9170     9171     9166     9166     9170     9167     9166 
    9167     9169     9167     9165     9167     9170     9170     9169 
    9167     9167     9169     9167     9166     9169     9171     9171 
    9170     9167     9166     9169     9167     9167     9167     9166 
    9166     9169     9169     9165     9166     9170     9170     9169 
    9167     9167     9167     9169     9170     9170     9169     9171 
    9171     9167     9167     9170     9177     9200     9275     9468 
    9840    10403    11075    11699    12193    12502    12464    12195 
   12418    13471    14311    13945    12942    11961    10643     8810 
    6887     5803     6265     6498     4563     3056     4437     6068 
    6613     8692    12838    16151    17194    18569    20502    18576 
   13957    11830    10050     5175     1524     4247    11373    16051 
   18123    25184    30327    20187     6700     2393    -3684   -13339 
  -13679    -6170    -3582    -3132     5656    11680     5958     3863 
    7803     5309     -584    -1071     2824     1611      -24    17878 
   37914    27681    10895    16449    23460    17174    13956    23728 
   29093     9775    -8648     2386     9028    -6278   -11257    -4248 
    1607     6998    11395    28841    48109    36090    15732    17660 
   22333    14756     1208    -7088    -1544     -575    -7917     8438 
   33193    29157    16224    18038    26454    23483     6365     6160 
   22351    14218   -10770   -23264   -24988   -20812   -15682   -10114 
   -5340   -20700   -41428   -30099    -1368    13107    10843     3520 
    1860    -1528    -7986      745    11080      453    -5350    12255 
   31194    40136    38159    24838    10767    -1304    -7669    -2218 
    4642     9319    12208     2413    -6878    11483    42882    47148 
   21394     2286     4380     9165     9697    11009    15492    12988 
   -6003   -10700    11375    18611     7924    10432    24946    42159 
   54179    51003    44174    36936    12235   -15666   -19863   -10381 
   -5449    -5687    -7061    -3283     3600     4453     9208    19651 
   14089     4379    10982    13733     7603     9566    15886    14218 
    8687    19502    34666    24143     6964     5443    11381    21859 
   33455    40894    35939    15491     4102     8006     3389    -5273 
    2722    17821    16919     5429     4860     5236   -10832   -21668 
  -16201   -13626   -10014     4110    18993    22929     7894    -8591 
   -1497    12962    19724    32128    37717    25590    18732    16911 
    7554     2786     8116    10932      457   -10944     3149    25083 
   17979     3909     7136     5570    -4028    -5194      -47     6149 
   12787    12136     -652    -9675    -3890     3356     9693    22349 
   28544    22665    18708    17496     9828    -1240    -1802     9502 
   11538     2131     3109     8252    -1509    -9140     3551    14802 
   10589    10463    22118    27137    14323      514     -658      696 
    3500    10112    10665     6791     5443     7987    15134    22219 
   23159    14374     8541    24254    38884    27247    12954    12776 
   15693    18057    19068    15064     8128     2274     -815     -442 
    2323     5806     8257     3831    -8391   -12869    -2114     7264 
    9421     7736    -5643   -20256   -18474    -5351    11488    23252 
   21566    15338     8691      557      838     5703     7931    11900 
   14364    16748    19823    17869    16900    13423     1942    -3211 
     117     3048    10085    19267    19461    16471    18453    18142 
   17644    21180    17979    12299    13151    14430    17960    21200 
   16673    11145     6482     3352     6070     9590    11595    12208 
   12384    11745      706    -8680     1328    10089     5085      365 
   -2292    -4876    -6349    -2214     9763     8388    -6561    -5864 
     629    -2101     2115     8307     7030     7122     7951     9652 
   14810    16757    14638    12775    10606     9927    14106    20058 
   23494    24745    24520    22335    20434    19503    16987    13648 
    9258     5664     8355    10818     9960    11701    10424    10119 
   16372    14172     6428     5526     5684     5493     5244     5499 
    9873     8541      225     1281     9466    12032    12004    12548 
   12908    11892     8793    11404    12857     3574     -745     1985 
    3025     9116    14574     8942      240    -2274     1294     7893 
   14318    16866    13081     5401     3052     8032    10146     9891 
   13209    15114    13508    12510    15101    19229    18812    13729 
    7474     2631     1809     4908     9128     8428     2755     2041 
    6022     5998     6393    13786    19184    13367     3276      135 
    2983     5019     6822    10049    12195    12140     9587     9013 
   12630    11002     7267    12714    16525    13050    16054    22777 
   21055    13863    10322    12202    10601     5626     8160     9801 
    1709      187     9139    10882     6581     8533    11853    11898 
   13169    13392     8742     2546     -874       27     1383      -52 
    1961     6764     4769     -303      -22     4951     8472     6675 
    8140    14674    13522     8252     7701     4699     -302      799 
    6455    12337    11765     2820      414    12262    21401    15780 
    8567    10245    12233    12232    17860    24255    21130    14388 
   15437    18226    14904    13427    15673    15990    15538    10916 
    3079     2376     5374     6313     7198     6521     7114     8108 
    6077     9109    14758    13069     7708     4749     5921     8090 
    8239     9082     9132     7048     7021     9135    10948    10955 
    6651      476     1263     5644     2484     2656    11296     6269 
   -6783    -1394    11064    11329     7515     7145     7248     6435 
    8236    12752    14310    15804    16848    11770    11495    18820 
   17996    10309     9351    14269    17328    15371    10072     8761 
   12183    15292    19368    21293    18320    14114     7678     5360 
   10116     8540     4091     3244    -3385    -5136     6745    13560 
   10296     7252     5917     4125      -94    -2068     5790    12272 
    5116    -1574     1583     5325     9387    12752    11084    12969 
   16206    10165     3673     7832    18536    22774    15396     9678 
   10535     8255     5896     8199     8526     7126     8806     9737 
    9189    13254    16461    11697     8201    11593    15468    17481 
   19410    17722    10444     7263    10905    12012    11862    13833 
   12727     7982     3921     3789     5501     4027     3492     8257 
   12378    12633    10594     9167     9537     6285     3253     6960 
    8259     4996     4014     2724     1173      457    -3218    -2054 
    7847    12642     9624     8472    10806    12663    12093    10235 
    6642     3059     4699     8020     8919    10046     9331     7298 
    7242     5576     6378    13053    12282     4279     4283     8981 
   10727    11853    11859    12814    15695    14296    11487    15221 
   20910    19593    14062    12330    14480    18187    20707    18400 
   14033    11210    12555    16888    14550     6377     3345     4344 
    2755     2790     8645     9198      712    -1539     2583     4239 
    8171    10396     6579     6467     7850     4526     2508     5251 
   10131     7819    -1233     1451    11151     9310     5119     8098 
