Origin Time       2024/04/02 04:24:00
Lat.              40.133
Long.             141.712
Depth. (km)       71
Mag.              6.0
Station Code      AOMH16
Station Lat.      40.4624
Station Long.     141.0923
Station Height(m) 165
Record Time       2024/04/02 04:24:51
Sampling Freq(Hz) 100Hz
Duration Time(s)  202
Dir.              3
Scale Factor      2942(gal)/8224139
Max. Acc. (gal)   10.130
Last Correction   2024/04/02 04:24:51
Memo.             
[...]
    7553     7554     7554     7551     7550     7554     7554     7553 
    7553     7551     7551     7555     7555     7551     7551     7555 
    7557     7554     7554     7555     7554     7553     7553     7555 
    7554     7554     7554     7555     7557     7555     7553     7553 
    7555     7555     7554     7557     7557     7555     7555     7555 
    7557     7557     7555     7555     7555     7558     7557     7555 
    7558     7558     7554     7553     7554     7554     7554     7558 
    7558     7554     7554     7557     7555     7554     7554     7557 
    7554     7551     7555     7558     7555     7553     7553     7553 
    7557     7557     7554     7555     7555     7554     7554     7555 
    7554     7554     7557     7555     7554     7557     7555     7553 
    7551     7551     7553     7555     7554     7553     7554     7554 
    7551     7553     7555     7554     7553     7555     7553     7553 
    7555     7554     7553     7555     7557     7558     7560     7564 
    7573     7587     7597     7616     7643     7668     7690     7726 
    7767     7813     7869     7931     7986     8036     8094     8172 
    8274     8394     8532     8688     8872     9108     9410     9756 
   10098    10366    10476    10373    10037     9472     8750     7919 
    6944     5946     5198     4796     4729     5178     6365     8193 
   10253    12194    13979    15565    16563    16551    15514    13884 
   12251    10627     8422     5836     4023     3403     3524     4178 
    5121     5984     6983     8297     9200     8950     7851     7030 
    6922     6029     3703     2425     4283     8091    10395    10026 
   10569    12615    11210     5688      495    -1942    -2223    -2998 
   -4895    -3913      604     5016     9886    16015    18787    16340 
   12765    10719     9022     6006     3377     4224     7581    11808 
   15198    13192     7825     8127    13284    13833     9580     7788 
   10106    12276    10917     9292    11172    13581    15471    16025 
    9666     1279      217      556     -164     6430    14742    16590 
   15047     9999     5020     3831    -1210    -7582    -6369    -3858 
   -6008    -9065   -10315    -6662     2241     9242    10073     5902 
     113    -4699   -10916   -17940   -18831    -9470     3225     7638 
    4719     4365     8055     7196     -880    -3555     6651    16707 
   15159     8615     5066     4048     4413     5670     6701     7292 
    9555    11643     5606    -3177     -919     7989    16738    27502 
   32873    28768    20711     8145    -4229    -9475    -9553     -191 
   17937    28175    26761    21521    10316     -877     1993    14203 
   23562    24825    15503     1615    -5908    -3975     4734    18756 
   30518    28260    18121    13479     9472     1904      -55     5267 
   11622    17288    22866    25984    18526    -1354   -13913    -3736 
   12193    14520     6851     2581    12183    23390    15477     4118 
   10683    21317    23866    21932    12453    -3676   -16229   -19525 
  -13323    -1652    10539    23679    33910    30439    15626     7149 
   12154    16329     9470     2258     1449      865      106     1485 
    3608     3834      699    -2328    -5271    -9342    -6949     5424 
   19468    24445    17559    10998    14924    17335     9173     2475 
    2072    -2174   -11803   -13979    -2991     7546     9859    11259 
   11485     9348    10246     9174     2268    -3200    -4378     1223 
   11079    11925     8375    13107    17134    15394    16815    18021 
   10388     -378    -1937     5586    10953    11718    10732     6593 
    4032     5401     1360    -6345    -4982     3152    11245    20887 
   26374    22751    16271    10586     6003     3723     4000     4336 
     329    -5738    -8244    -5938      934     8927    12584    13346 
   17930    23140    19684    12328     9085     8004     8726    12680 
   14868    10338     5058     5449     6079     5090     8029    11021 
    8522     5192     5054     7307     9695    10164    10037     9852 
    9020     8653     7642     2216    -6701    -6721     6651    16301 
   14242    11319    12812    14114     8667     -445     -442     7514 
   11493     8510     2312     2199     9936    13053     9298     4976 
    2668     4653     4858     -634    -2347     1183     4930    11086 
   15055    12528    12606    12390     2160    -6481    -2870     5971 
   11136    10978    12067    15105    13246     9514     8487     7635 
    7689     8569     5822      571    -1105     5354    16289    19919 
   14463    11173    13940    12951     5771     4050     7007     6382 
    5738     5301     4126     5983     6922     3492    -1121    -3029 
    1027     6945     7538     6133     8719    13293    15303    13216 
   11107    13082    14877    13031    11384     9860     5220     2080 
    6300    12835    13138     9772    10396    14139    15005    11167 
    6512     4816     6412     9201     8139     3866     5644    11900 
   10415     3137     2389     8406    12012     9821     5009     1571 
    1984     4590     4891     -124    -6724    -6736    -2999    -2421 
    -558     3717     5737     7585    10210    10997    11238    11132 
    7568     1655    -1711    -1665    -1421     -816     2203     6161 
   10562    14833    15156    12563    11928    12920    12370    11375 
   12731    14181    13205    11813    10619    10903    14918    14771 
    6516     2903     6999    10280    11693    11007     9721    11759 
   13992    12075     7603     5406     4182     -588    -3589     -562 
    2332     2826     5227     8853     9745     9597    10870    11076 
    8534     5020     3784     5837     7426     6839     5836     4183 
    2929     3765     5055     5346     4506     4033     6509    11164 
   14835    15553    13142    11403    13248    14366    13971    15198 
   15288    14505    15051    14106    13150    14925    14620     8372 
    1786     1085     2236      677      842     3840     5215     8205 
   13779    12502     6106     6239    10207     8833     5089     4051 
    2929     1587     2930     4311     3906     3429     1848     -504 
    -872     1194     5456     8206     6249     4928     6690     7711 
    7793     7381     6664     6849     5487     2544      714    -2876 
   -5541      896    10233    12028     9667     8027     6396     6809 
    9238     9853    10300    12529    13176    12510    14203    16156 
   15381    14233    12249     7578     4891     7406    12687    17784 
   20359    19012    15642    14138    13220    10995    10492    10297 
    7923     6218     5363     4553     5501     6327     4681     3443 
    4653     5440     4423     5451     9166     9906     8294     9718 
   11265     9154     6535     5510     4071     1449     1030     2821 
    1100    -1259     2430     5548     3565     4846     9154     8816 
    6669     5339     2778     2660     4572     3310     1723     2369 
    1827     -502    -1583     1572     6917     9358    10801    12696 
   11010     8112     8228    10137    11983    12312    12159    13189 
   13864    13667    11981     9720    13194    19981    19032    12779 
   10835    11728    12089    13471    13865    11514    10449    11753 
   12243    12213    13429    13365    10208     7867     7755     7368 
    6035     3798     3102     4502     3303     1024     3557     6642 
    3717     1429     5998    10667    11369    10905     8819     5849 
    5279     5131     3173     1443      -55    -1611    -1113     1652 
    4995     6598     5000     2629     2933     5088     5908     4195 
     926        5     4774    11292    13614    11993     9597     7045 
    4565     4191     5575     7657    12366    16922    16093    14154 
   15788    16985    15751    13729    11599    11368    11969     9958 
    6874     4241     1952     2465     5026     5316     4550     6080 
    6736     4514     3013     2901     3643     5582     6404     6247 
    6754     6122     5319     6548     6515     4918     5740     6431 
    4766     4041     3572     3024     4648     6296     7173     6643 
    1574    -2571     -540      864    -1092     -932     1984     5463 
    8438    10031    11391    13028    13208    10357     5139     2913 
    6060     7858     6461     8162    11874    11689     8977     8405 
   10721    14065    16472    16425    15020    14152    12560    10652 
   10872    11743    11298     8938     4118     -421     -661     4407 
    9211     6220     2347     7452    12630    10035     7300     9207 
   11630    10795     8866    10215    11628     8862     6606     6617 
    6434     7717     8194     6477     7866     9663     6822     5383 
    8953    11649    10214     7326     7427    11097    11026     4429 
      85     2641     7468    11294    13878    14419    12865    12010 
   14172    16074    15075    14401    13293     9344     7460     9521 
   10686     8683     7025    10809    17170    18048    13464     9552 
    8127     7045     5497     3589     3267     6250     7672     4814 
    3470     5562     5967     2605    -1046     -633     4203     7776 
    5846     2758     4349     7996     6785     2482     2488     6270 
    7956     6245     5844    10091    14492    14253    11273     8665 
    8203    10388    10728     5128     -945       76     5093     4573 
   -1779    -4091      110     3478     3402     2203     1498     3520 
    6835     6438     3485     3353     6408     9436     9882     7010 
    4629     6122     7920     7284     6385     7002     9159     9285 
    5047     2825     6956    10999    10840    10525     9737     5108 
    1043     2316     6010     7943     8615    10161    10307     7534 
    7047     8847     7514     7422    12733    15889    11437     4396 
    2446     5713     9396    11755    11341     9447     9892     9012 
    5630     7041    12637    17134    19167    16962    13537    12024 
    9645     8001     7987     6621     6218     5941     2014     -965 
    -351     1109     3993     7176     9695    13632    14395     9738 
    8426    10056     6008     2627     6610     8592     4479      587 
      44     2695     6936    10635    11935    11113    10881    10149 
    7132     5821     9346    12256     7831      746     -531     2026 
    2992     2371     2020     4789    11288    15056    13797    13020 
   13262    13090    13923    14269    13377    11392     4804    -4394 
   -7392    -2763     3512     7547     8719     9046    10536    10814 
    7803     6550    10139    12197    10118     8995     9034     7693 
    6921     7684     9421    13142    16042    13369     8201     7072 
    7308     3647     2346     7992    12654    15013    19353    18779 
    9887     4036     6864     7446     -133    -4673     -224     5066 
    7839    11645    15500    16147    13122     9474     9917    11647 
    7501      695     -707     3202     7678    12094    17046    18364 
   14574     9189     3362    -2010    -4382    -3445    -2632    -2257 
    3192     9850     7792     2515     3465     6350     5524     1420 
   -4383    -7350    -3969     1046     1161    -1717     -345     5278 
    9823    12907    12525     6493     2374     2257     1788     6300 
   14354    16488    16949    18951    16542    10993     7164     7003 
    9898    11272     9502     8823    10274    11916    15369    19996 
   21828    19687    13732     6330     1545     1561     6787    12444 
   11890     8321     9171    10763     5386    -4386   -11119   -10779 
   -4405     3248     8935    11697    12663    12900    10045     6465 
    8964    15072    18237    19371    18526    13760    11619    15692 
   18817    17875    13332     5370    -1070    -5351    -9728    -6997 
    4997    11966     6239    -1053    -1190      629     -631    -2197 
    -598     4517    10062    10859     6311     3481     6589     8533 
    5548     4997     7966     9934    11013     6377    -4526    -5535 
    7052    16565    20139    26450    30678    25242    15017     7121 
    3252     5101    11292    13702    11712    13022    16283    15608 
    9634      596    -5493   -10301   -18650   -20322    -9576     -247 
    1933     3809     3504      382     -905    -3558    -6293    -3322 
    2274     7357    10098    10891    16286    22501    21490    21305 
   27621    31261    27221    19948    16645    20807    24325    18179 
    8163     4860     6563     4448    -1960    -4105     1393     6295 
    5533     3534     2512     2466     3993     7123    13818    22374 
   26109    23469    19467    17987    16923    12248     6377     4550 
    5302     4841     2772    -1549    -5119    -1648     5621     9680 
    9516     4919       47      467     1237    -2412    -3303     3901 
   10936    10107     5462     3426     5494     8299     8556     7854 
    9580    12634     9405    -3175   -15650   -17323    -7723     2965 
    4901      479    -1707     2378    10011    13968    11774     8510 
    8988    14944    21683    21984    20220    21303    18608    14000 
   15836    16827    10894     8715    13262    14817    13270    13653 
   12147     5080    -4793   -14304   -18247   -11634     -307     6588 
    8270     6600     1737    -4190    -4245     4806    13963    18528 
   24507    28748    25251    20637    19361    18594    19732    23523 
   23525    13760    -1483   -10139    -9859   -11157   -16839   -18539 
  -13416    -7967    -8725   -13406   -12744    -3762     5860     9157 
    7333     5837     9011    15381    18756    20380    27662    35873 
   34469    26990    20521    14334    11106    12471    12880    12837 
   11896     3106    -6617    -6039    -3268    -7527   -11651   -10062 
   -6357    -2417      -85     -837      886     9266    16360    12264 
    2920      573     4325    10046    18466    24178    23121    20665 
   17721    12973    11184    12468    12750    10825     6712     3368 
    3117     3175     1973     3253     9961    17400    18796    14688 
   11785    13401    13242     6735     -965    -4877    -2663     5279 
   12827    15558    15647    16789    16644    12231     9702    13305 
   18912    23170    25490    26503    26030    21883    14740    10855 
   14121    17979    14555     6183    -1815    -9397   -16754   -20320 
  -18358   -14752   -11083    -5587    -1717    -1948    -1721     1329 
    4116     5526     9174    16047    21030    20764    17072    12475 
    8637     5860     4725     5956     5146     1507     2350     6376 
    7138     7360     9603     8900     3974     3929    11685    16043 
   12580     6876     2970     5047    10625    12213    12931    16853 
   18423    15766    13289    10970     6083     -494    -4187     -969 
    5900    10498    12035    11074     9591     9784     7993     2115 
   -2430    -2376     -218     3781    10530    15965    16661    13906 
    9161     5198     5337     6378     3704    -2529    -9879   -12001 
   -7172    -3956    -5170    -6612    -6826    -5273    -2509      788 
    4135     7283    13269    19651    19130    14274    11711    11349 
   11716    11681     9558     7501     8731    10835     7743     1923 
    3375     9139     9923     9868    14536    20715    24457    25246 
   25527    27531    29805    29560    27733    26902    25895    21178 
   13402     8627     7646     5328     2855     2066      411      889 
    4626     5682     5715     9255    11268     6966      896    -1377 
   -2515    -4996    -5358    -4245    -4509    -4332    -3674    -6160 
   -9597    -6543     1325     5452     6123     8083     9482     7955 
    6466     7252     7916     5726     2764     2490     4306     6342 
    8175    10295    11381    10050     9790    11865    13252    13879 
   14671    16197    18567    19994    19444    17753    16942    17216 
   15719    12201    11007    13099    12839     9663     9603    11843 
   11495     9315     7904     7449     6897     6029     6257     7870 
    9258    10689    13432    15673    15422    14280    12949     9123 
    3518      191     1217     4522     5208     2023    -1999    -7549 
  -14980   -17923   -13936    -9057    -7431    -8035    -8494    -6666 
   -2984    -1340     -953     3134     6022     2794      205     -279 
   -1340      999     6708    11605    13683    11774     9393    10183 
   11433    12958    17659    22573    23982    23707    23527    21798 
   18009    15750    17112    16831    10569     3534     1206     2081 
    2920     1914     -540    -2023    -1425      292     1537     1923 
    4295     8232     8946     8333    10426    12989    13691    12916 
   13136    15689    17317    16915    16051    14297    13394    14594 
   14060    11065     8752     5582      144    -3433    -4068    -5817 
   -8869   -10354   -10496    -9869    -8360    -6930    -6736    -7704 
   -6092     -452     4941     9143    12679    12885    10908    10897 
   14199    20312    26152    27252    23994    20468    18114    16025 
   14904    15782    17130    16591    13362     8492     4571     3306 
    3423     3298     4072     7202     9844     8074     4594     4283 
    6543    10563    15121    14728    10292     8068     6704     4414 
    5404     9844    13690    15780    16808    16939    15759    13984 
   13356    12918    12835    16167    18943    15722    11011     7537 
    2643      270     3640     7785    10481    12521    10785     4012 
   -2073    -1649     1962     2589     2756     5275     5925     4747 
    4973     3186     -741     -460     2639     2833      861    -1034 
   -2282    -1242     2637     8008    13771    17487    16031    11807 
   10563    12106    12270    10218     7954     6772     6253     6835 
    9504    11699    11735    13059    16168    16794    14485    11680 
    9745     9598     8332     3546        2      395     1039      656 
     984     1003     -730    -1395      376     1374     2373     5871 
    8770     9593    10289    10736    10648     9398     6933     6444 
    8541    10806    11927    10216     7190     6566     6905     6513 
    7072     7210     4207      330    -1239     -102     3624     6602 
    5622     3859     3064     1356     -382     -140     2789     7009 
   10428    12916    13977    14237    15585    16155    16074    19001 
   21829    19229    14567    13015    13215    12546     9791     5381 
    4005     6365     6184     3169     3159     6303     8137     6858 
    4004     2698     4459     5965     3659     1726     5570     9416 
    6099      626      332     4028     6586     7086     7645     6798 
    3654     1964     3115     5339     7715     9097     8554     5929 
    2066     -375     -330      935     2708     4326     5212     5788 
    6049     5683     6960    11723    15951    16298    15669    16154 
   16001    14659    13772    14075    16202    19516    19579    16000 
   13892    13851    13286    12603    13500    15444    15502    12727 
    8820     4707     2069     2052     2683     3755     6416     8791 
   10123    11314    11377    11321    12582    12324     9803     8289 
    8742     9666     9967    10269    11479    11682     9614     7165 
    4638     2339     2242     1879    -1043    -1958      214      517 
   -1017    -2288    -3932    -4669    -3906    -3801    -5057    -5697 
   -3847    -1804    -1664     -857     1440     3609     5271     6295 
