Origin Time       2024/04/02 04:24:00
Lat.              40.133
Long.             141.712
Depth. (km)       71
Mag.              6.0
Station Code      AOMH16
Station Lat.      40.4624
Station Long.     141.0923
Station Height(m) 315
Record Time       2024/04/02 04:24:51
Sampling Freq(Hz) 100Hz
Duration Time(s)  202
Dir.              6
Scale Factor      7845(gal)/8223790
Max. Acc. (gal)   64.655
Last Correction   2024/04/02 04:24:51
Memo.             
[...]
    5664     5663     5661     5660     5664     5668     5668     5671 
    5670     5663     5661     5661     5661     5659     5659     5664 
    5668     5667     5664     5667     5670     5668     5661     5656 
    5660     5665     5661     5663     5665     5664     5663     5665 
    5664     5665     5668     5665     5661     5665     5668     5661 
    5659     5661     5664     5665     5667     5667     5665     5665 
    5663     5661     5661     5661     5661     5664     5667     5667 
    5665     5665     5664     5663     5664     5665     5664     5665 
    5667     5664     5661     5664     5668     5668     5667     5667 
    5665     5664     5660     5661     5665     5665     5664     5664 
    5665     5664     5664     5668     5667     5663     5660     5659 
    5659     5663     5668     5674     5671     5664     5663     5665 
    5661     5659     5661     5668     5672     5670     5661     5661 
    5664     5664     5664     5661     5659     5660     5664     5667 
    5665     5665     5665     5661     5661     5664     5664     5665 
    5668     5667     5664     5664     5663     5660     5660     5665 
    5671     5670     5664     5663     5663     5661     5660     5663 
    5668     5672     5670     5661     5657     5659     5660     5663 
    5668     5667     5663     5661     5665     5664     5660     5663 
    5667     5667     5667     5665     5660     5659     5661     5663 
    5664     5667     5665     5667     5667     5665     5667     5665 
    5660     5661     5667     5664     5661     5663     5665     5665 
    5664     5664     5663     5663     5665     5663     5659     5661 
    5667     5665     5664     5665     5667     5664     5659     5660 
    5664     5663     5663     5665     5665     5663     5661     5661 
    5663     5664     5665     5665     5667     5668     5664     5664 
    5667     5663     5660     5665     5665     5665     5668     5665 
    5663     5664     5665     5665     5667     5667     5664     5663 
    5665     5663     5660     5664     5670     5671     5667     5663 
    5660     5661     5661     5661     5659     5660     5663     5665 
    5665     5665     5665     5667     5665     5663     5664     5667 
    5667     5664     5664     5665     5661     5660     5660     5661 
    5665     5668     5668     5667     5664     5661     5663     5664 
    5663     5660     5660     5664     5670     5670     5665     5663 
    5661     5660     5660     5663     5667     5668     5664     5661 
    5667     5675     5678     5684     5702     5728     5755     5784 
    5819     5856     5887     5922     5971     6030     6099     6161 
    6207     6241     6277     6336     6440     6588     6752     6930 
    7148     7435     7813     8259     8645     8785     8519     7758 
    6511     4899     3123     1360     -286    -1607    -2200    -1760 
    -261     2289     5944    10434    14940    18520    20775    21737 
   21153    18493    13844     8310     3415      -51    -2556    -4687 
   -5805    -4938    -2250     1202     4206     5664     5405     4446 
    3424     1653    -1443    -4654    -5962    -5313    -4002     -962 
    6669    18563    29073    32865    31521    28406    20935     6787 
   -8635   -18069   -20193   -18850   -16152    -8896     3960    16557 
   25539    32899    35070    24517     4403   -11793   -16642   -16060 
  -16966   -15815    -5914    11994    29254    35378    28988    20949 
   19462    19656    15317     8595     3596      606    -2104    -3030 
     140     3474     3828     4518     5359     2057    -5192   -12811 
  -12464     2997    21319    24544    13544    -1780   -13527   -17077 
  -16947   -18018   -14557    -3134     8926    16698    21999    25731 
   26534    23299    15361     1557   -16239   -30423   -34461   -29079 
  -17242      561    20394    33760    35964    31237    26501    16609 
   -5753   -23507   -14808     8999    20339    13192     2604     -247 
    1174     3447     8795    12266     8509     3011      730     -276 
   -2177    -2004     9882    35094    53990    47699    21159    -8198 
  -28464   -36882   -33566   -16503    11200    38091    57005    63790 
   46349     6272   -26126   -28452   -11547     1725      811    -7061 
   -7731     3744    21176    36922    41980    25223    -4846   -15593 
    4064    25884    25326     4257   -21344   -34807   -28008     -403 
   31375    34233     5981   -13128    -2272    11869     2870   -13431 
   -4306    24892    38065    31557    30697    29818     8421   -18420 
  -27866   -30051   -39695   -40377    -8129    43112    69276    56493 
   35433    23895     9136    -8723   -11053    -1880    -8472   -30588 
  -36840   -16606     8951    18868    13710     8758     9261     7555 
    1301    -5539   -12919   -16002     -873    27916    45939    45095 
   35554    22674     4846   -16629   -33312   -37687   -28317    -2218 
   36796    63239    54774    23071    -5922   -20119   -19325   -11126 
   -6153    -9952   -17743   -11198    16922    41904    42823    30015 
   19251    14391    14345    12074    -2851   -28709   -45632   -33004 
    3348    32806    36120    22064     8626     4010      584    -8536 
  -13452    -7923     2813    17212    28366    22474     -345   -22071 
  -23334    -2763    21753    30400    18030    -2215   -13069    -7523 
    8502    20345    17838     7231     5001    15492    24449    21944 
   11627     -603    -6120     2195    15099    17686    10561     2590 
   -2994    -4912    -2231      800     -236    -1601     4164    16985 
   28537    29512    17223      758    -8087    -6988    -3682    -9686 
  -24129   -26829    -4537    26261    41642    38322    25864    12172 
    -378   -11403   -14268    -6043     2737     4298     3458     7365 
   11952     6728    -2255    -1929     3028     4132     2425     1964 
    3524     1818     -735     7931    26342    38448    35757    22889 
    4571   -16067   -27631   -18763     2918    17207    17432    14974 
   18522    25022    26916    19626     6712    -6268   -16842   -20182 
  -13250     -965     7815     7994     3846     4310    10098    10076 
     479    -5354    -2313    -1242    -4473    -3894     2515     9207 
   10706     6328     -739    -5512    -2606     7901    18268    21694 
   18439    12413     7298     4638     4735     9402    16765    21199 
   23414    23141    13894     1549     3566    20833    31641    20943 
     708    -7813    -1602     4444     -472   -11655   -17053   -11983 
   -3026     4569    10725     9894     -652    -7821    -2350     6358 
    7645     2490    -3422    -8189   -10457    -6527     2770     9358 
    6858      654     1264    10227    20748    26673    27664    25070 
   16563     4074    -3083    -2219    -1445    -5564    -9470    -8244 
   -2794     4540    11261    14852    14305    11280     9644    11743 
   15971    16318     9065      864    -1155     1248     6558    15832 
   23554    22253    13558     3466    -3534    -2532     6241    14945 
   15693     5985    -6219    -8461      -78     7967     6909    -1922 
  -12347   -18374   -12361     5171    19211    18212     8127     1332 
     634     2049     4918     8571     7425     -564    -5726     2589 
   19101    28813    25868    15280     5019      660     1385     2972 
    2173    -1478    -3145     2724    14504    23068    19978     7855 
   -1680     -716     8538    16537    15588     8374     2698     1216 
    3487     8110     7329    -3673   -13657   -10064     2803    13157 
   17197    17366    14872    11873    10929     7720     -174    -3958 
     414     4845     5209     3709       37    -3704    -2332     3406 
    9432    12128     7076    -2947    -8738    -8089    -3861     1838 
    5876     8055    11527    16551    19809    19003    14665     7446 
   -1371    -7674    -8356    -6262    -4507     1278    12915    21023 
   18663     9566      920    -1634     1182     3539     4521     6304 
    7595    10058    17745    25327    23880    15529     7973     2363 
   -3225    -5952     -878    10710    20348    22605    20097    14111 
    1628   -13528   -21294   -19087   -12332    -4949     2312     8773 
   14073    17521    16888    13007    10581     9825     7726     8927 
   16241    18724    11233     4178     3786     6272     7562     7609 
    9216    10856     7518      753    -4595    -7273    -7654    -6650 
   -4614     -480     4237     6018     6563     7186     1960    -7794 
  -11007    -4837     4911    12846    14513     9336     3252     3153 
    7932    11190    13284    16746    17968    14611     9567     8052 
   11757    13933     9990     5848     5634     5024     1152    -2527 
    -938     4692     6505     3307     3311     9547    16583    20028 
   18368    11595     3657      240     3613    10655    13707     6936 
   -4734    -8895    -1436     8630    11919     8883     5599     5435 
    7341     8930    10737    11365     4122    -7631   -10496    -2442 
    6482     8905     4972     -787    -4612    -6558    -7468    -6586 
   -4456    -1885     3512    13045    21957    22813    12663    -2357 
  -11161    -9134    -1817     3084     4382     7009    13770    22122 
   27419    25582    16140     3464    -5336    -4691     2369     6153 
    4083     1710     1933     5545    12505    17655    17145    13082 
    7620     3339     2415     2080     1647     4386     9045    12853 
   15815    15793    11669     8505     9283    10501     9331     5196 
   -1852    -9080   -12375    -9294    -1865     3284     3021     1297 
     481    -1309    -2285     1341     6795     9277     9144     8154 
    5751     2361     1182     1362    -2623    -8648    -7743     1309 
   10628    13919    11884     9621    11709    16934    19377    16560 
    9722     -160    -8803    -8664      892     9983    11389    10430 
   13653    16866    14076     9489    10260    14411    15250    12507 
   11337    12499    12067    10266    10210    11611    11423     5560 
   -5389   -14046   -15896   -10885    -1375     4834     4167     2544 
    3253     4914     6804     7076     4210      540      611     6727 
   14611    16414    11074     6116     6952    10434    10743     8214 
    8036     8708     4741     2093     8058    13821     9070    -1584 
   -5994      719     8630     6291    -1090    -1732     3087     5293 
    5957     9748    12711    10767    10183    15840    20680    15880 
    2940    -6381    -2008     9871    13502     6328      207     4544 
   18065    27859    20814     1483   -14177   -16299    -4546    11865 
   19353    12806    -1054    -9207    -2558    11639    14960      673 
  -16595   -18057    -3094    11688    13876     6930     2255     5242 
   10011    10849    10685     9995     4178    -2489     -147    10054 
   16380    13153     8280     8347     8989     7030     4592      472 
   -5634    -6751      931    10200    12052     6859     1817     -357 
   -2103    -2949      311     7206    11869     9863     4580     2169 
    2663     1979      549     1645     4432     6432     7967    10176 
   10866     8403     7870    10673     8783     2162     1829     9385 
   14970    14152     9487     2280    -5682    -8904    -3754     5026 
    9651     8957     5803     2847     4086     9751    15314    20511 
   27021    29494    19935      465   -14855   -15673    -6029     3283 
    5981     6034    10644    17219    19236    17969    16274    12544 
    5930       66      874     8305    13022     9456     1499    -7206 
  -13243   -14256   -12591    -7704      656     7797    12046    12935 
    9354     4754     1510    -1995    -3014      -97      225    -1887 
     904     6390     6292      103    -3022     4891    19373    28476 
   27170    21525    17992    15176    12625    14746    20036    19781 
    8841    -5494   -10582    -7069    -5294    -6940    -6502    -1522 
    6011    13122    19045    21797    16495     5451    -1362     -283 
    3650     3469    -4604   -14558   -15377    -5871     5950    15086 
   21620    25629    26258    22177    12465     1039    -6141    -9671 
  -11761    -9845    -3936     1912     6652    12586    21336    28833 
   25817     9636    -7951   -12845    -7242    -2755      769     8478 
   16059    21085    27187    29227    18218     -270   -11676   -13317 
  -14925   -18989   -17104    -6141     8633    23252    34731    35595 
   21343     2637    -2687     5239     5405    -9907   -19573    -7145 
   17192    36977    45972    41250    21994    -2718   -19272   -22291 
  -17844   -14809   -12727    -2285    18018    31973    25078     7329 
   -3971    -9096   -14073   -18570   -21930   -21917   -14431    -1282 
    9281    10894     6694     7429    18874    32908    34601    19664 
    2412    -1286     9414    26185    37104    33880    23662    17204 
   12822     4934    -6035   -14870   -16480   -12150    -7415    -4685 
   -2536      877     4739     6134     3813    -1102    -6674    -9682 
   -6354     4139    18058    27206    25640    19211    17712    20220 
   17308     4506   -11115   -17112    -4981    21583    44977    46294 
   21685   -12471   -33613   -32799   -16390     2411    12272    12509 
    8410     3262     1930     8417    17832    20645    12903     -553 
  -10567   -12037    -7781     1282    16480    26488    20949    10768 
   10886    18873    19781     6562   -11184   -21741   -22685   -15741 
   -2614    12294    21986    21965    15803    13107    16191    15407 
    3939   -15777   -35839   -39345   -13375    29589    63896    73441 
   53473    14359   -17130   -23637   -14446    -6288    -6608   -15855 
  -24652   -19090     -274    19519    30438    25212     9369     -924 
   -2848    -1763     4155    10058     6550     -265    -4348    -9906 
  -10692     1085    18242    30989    32996    22481     6496    -5485 
   -9996   -10018    -8086    -1485    11711    24648    27175    19283 
   11734    12442    17232    17748    14196    11578     8390     2371 
   -1026     1837     7192     9703     7349     5449    11217    20703 
   20367     7388    -4490    -7757    -7314    -3892     3229     7146 
    1188   -11061   -16869    -8838     4945    12040    11527    10069 
   10076    12658    17618    17990     9714    -1190    -4611     4753 
   18324    20691     9142    -5513   -15130   -20525   -23475   -22990 
  -17977    -7807     5238    16875    23359    19971     7855    -1138 
    1606    13247    30666    50338    60079    51992    34117    19548 
   10882    -1034   -19839   -34770   -36387   -26411    -9730     8719 
   20717    18264     3021   -11794   -16900   -18129   -22524   -24495 
  -16069    -2099     6682     8973     8901     8711    12075    20812 
   32248    43973    51185    47741    38005    32445    28935    18644 
    4811    -7003   -20750   -34973   -38610   -27831    -8428    12776 
   27688    30840    26364    20810    13537      265   -18427   -34917 
  -41226   -37339   -25895    -6012    18495    36931    39896    27306 
    8006    -9324   -18713   -17377    -7042    10010    32324    53801 
   62035    50782    27858     5078   -11352   -18858   -15977    -8703 
   -6843    -9717    -9810    -3387     7122    12958    10422     5706 
   -1188   -13510   -23031   -21979   -13286    -1520     9984    17112 
   18787    18701    21469    29285    39807    45378    40324    28944 
   18605     9725      496    -8039   -17375   -28602   -33201   -23233 
   -8224    -5958   -19826   -33540   -27954    -3636    23984    46527 
   58905    53685    33987    13536     3456     5772    15697    27600 
   39941    50103    49079    35124    19523    10018     2235   -11175 
  -28093   -38487   -36421   -25166   -14835   -14577   -23071   -28750 
  -23145    -9529     2664     6610     6997    13049    22775    27703 
   22566     9855    -1524    -4926     2532    18912    34950    39258 
   28156    13074     9887    19365    27768    23199     7619    -7150 
  -12784    -9131    -3418    -3607    -8912   -12611    -7312     8503 
   22273    19138     1945   -16114   -27341   -25253    -9474     5163 
    6484     1534     2937     7942     7306     4051     6512    17088 
   31182    41021    44610    43140    31803    11099    -4278    -5757 
   -1116     1462     1273      703      390    -1269    -5193    -8874 
   -5728     5603    16379    17996    10064    -1012   -10226   -16644 
  -18720   -15043    -6540     2829     7531     7391     6920     6173 
    3231    -1183    -7651   -13123   -11854    -7600    -6633    -6682 
   -3092     5547    16536    23934    25321    25353    29065    34592 
   36204    31880    25174    21671    22141    21146    15633     9479 
    7164     7439     5956     2336      -52    -1665    -5385    -8993 
   -9536    -9012   -10262   -12413   -10970    -4191     3041     5100 
    1728    -1075     2122     8541    12181    13220    15275    15832 
   11896     9498    13273    19410    22059    16592     5057    -3514 
   -5094    -2336     5178    17599    27118    28138    24162    18277 
    9818     -622    -9691   -14855   -18176   -23233   -29327   -33482 
  -33704   -26840   -13616     -399    10264    16700    15203     7303 
   -2754    -9475    -6027     7747    24664    38462    46138    44955 
   37139    30277    27060    25857    27368    33120    40286    41513 
   33411    21304    12656     9306     6102     -471    -5229    -4549 
   -3024    -3383    -3812    -5364   -10632   -17725   -22783   -24972 
  -25247   -23801   -20282   -14326    -7897    -5864    -8083    -8147 
   -4483     -731     2555     5449     5783     4584     6019    10974 
   16673    20451    21219    20559    19957    17525    12160     4865 
   -3520    -9940   -10943    -7813    -3187     2953     8742     9410 
    3530    -4171    -6482    -2621     1717     5070     8695    11547 
   13536    13560    10318     6670     5659     8120    13101    18962 
   26338    34524    39962    40108    34061    24676    16510     9637 
    2239    -4106    -5278     -766     3485     3175      986      135 
    -222    -1065     -136     3442     5297     1252    -6320    -9761 
   -5152     2296     4234    -2535   -11445   -13020    -8306    -4734 
   -4661    -6431    -6249    -1063     5593     9301     9459     3871 
   -8077   -18543   -19160   -12214    -3970     3329     9279    16725 
   25299    28448    25567    21297    19820    22404    24100    22064 
   19145    16147    11431     5881     4517    10384    17875    18181 
    9617     -604    -5034    -3316     2188     9946    15196    13960 
    9040     4826     3990     5829     4449    -2015    -6346    -2230 
    6816    12739    15083    18134    20864    21875    21537    15481 
    3343    -6496    -9282    -5907     2413    12815    18079    12541 
    2490    -1647      116     1765      683    -2228    -4487    -3373 
      56     1499      135    -3006    -8834   -14399   -13703    -5593 
    6809    17494    18519     8807    -2313    -5454     -684     5702 
    9994    12591    13691    13587    14405    16416    17540    16821 
   14702    13834    15500    14519     8309     3130     3102     5665 
    8731    11624    12052     9175     6354     5992     5409     1451 
   -3840    -5236    -1134     5146    10066    11560     8937     4548 
    2378     2771     1428    -3393    -7485    -6939    -2984     1312 
