Origin Time       2024/04/02 04:24:00
Lat.              40.133
Long.             141.712
Depth. (km)       71
Mag.              6.0
Station Code      AOMH16
Station Lat.      40.4624
Station Long.     141.0923
Station Height(m) 315
Record Time       2024/04/02 04:24:51
Sampling Freq(Hz) 100Hz
Duration Time(s)  202
Dir.              4
Scale Factor      7845(gal)/8223790
Max. Acc. (gal)   107.660
Last Correction   2024/04/02 04:24:51
Memo.             
[...]
   10347    10342    10338    10336    10336    10341    10339    10336 
   10336    10339    10338    10338    10339    10341    10341    10342 
   10343    10343    10345    10346    10346    10343    10342    10342 
   10341    10336    10332    10332    10335    10338    10342    10342 
   10343    10346    10345    10339    10339    10341    10338    10332 
   10334    10343    10351    10355    10354    10345    10338    10336 
   10334    10330    10328    10331    10338    10342    10345    10345 
   10343    10342    10338    10334    10332    10334    10342    10349 
   10350    10351    10353    10347    10339    10331    10327    10328 
   10332    10338    10343    10347    10346    10341    10336    10334 
   10331    10335    10346    10351    10350    10349    10347    10343 
   10338    10336    10339    10335    10334    10338    10339    10339 
   10339    10336    10338    10342    10343    10343    10349    10350 
   10347    10343    10342    10346    10347    10345    10343    10339 
   10335    10336    10338    10339    10345    10347    10342    10339 
   10339    10339    10343    10342    10339    10343    10346    10345 
   10346    10346    10343    10341    10341    10339    10336    10338 
   10341    10338    10338    10339    10339    10342    10345    10345 
   10342    10341    10343    10343    10342    10341    10339    10341 
   10342    10341    10341    10342    10341    10335    10335    10342 
   10341    10335    10338    10342    10342    10343    10345    10345 
   10345    10345    10345    10345    10342    10336    10334    10334 
   10334    10335    10338    10339    10342    10345    10346    10343 
   10341    10342    10341    10341    10342    10343    10343    10342 
   10342    10342    10341    10336    10335    10334    10334    10339 
   10345    10341    10342    10346    10343    10339    10338    10338 
   10341    10343    10342    10342    10342    10343    10342    10339 
   10335    10332    10335    10339    10341    10345    10353    10355 
   10355    10351    10347    10345    10341    10341    10350    10361 
   10366    10363    10357    10353    10354    10363    10376    10385 
   10395    10407    10431    10461    10474    10451    10378    10250 
   10091     9944     9855     9853     9938    10096    10334    10667 
   11055    11408    11682    11865    11870    11574    10983    10266 
    9594     9007     8509     8224     8392     9143    10272    11340 
   12100    12652    13053    13126    12684    11639    10071     8482 
    7546     7298     7241     7334     8082     9580    11209    12391 
   13385    14800    16209    16221    14446    12131    10262     8356 
    6282     5602     7063     9285    11261    12987    14108    14034 
   12332     9579     6912     3381    -1561    -3973     -392     6732 
   13149    17998    22750    27390    29277    26050    18243     8753 
    1408    -1838    -2523    -2127     -247     3246     8214    14091 
   18063    17685    14710    12519    11547     9381     5240     2782 
    5152    10805    16630    19118    16321    12603    11597    10215 
    8455     9428    10916    11804    14037    15157    13178    10328 
    7406     4522     2182     -650    -2916    -1493     4332    13402 
   22732    28900    31811    31318    25050    13605     1813    -5953 
   -9045    -8326    -2481     9042    21031    27191    27261    24015 
   18504    11758     5509       -1    -5178    -8896    -8657    -3681 
    2440     6494    10363    17057    25110    27144    19010     9282 
    6416     6421     5173     5036     6566     8167     8839     8370 
    7252     3469    -1652     1526    14235    23427    22613    17223 
   12438    11229    12113     8316     -774    -8937   -13799   -13672 
   -3079    15880    31816    39907    43491    43706    40494    35742 
   29423    18247     1097   -13929   -14777    -3362     4696     3769 
    4302    13500    24966    27877    21357    15533    13221     6674 
   -1513    -3366    -4742    -8730    -3956    11615    23411    20876 
   10995     8764    14285    14320     7400     3495     4247     4058 
    2598     3858     7951     9107     4102      114     2860     4912 
     580    -2678     1667     9625    17078    25779    32984    29506 
   15395     2803    -1499    -2066    -2324      638     9693    24526 
   40649    48863    42365    24840     8375     1551     1691     2917 
    2513    -1486    -5917    -4540      874     5591     8849     8745 
    6534     9358    18018    26493    29930    26323    21699    23896 
   29635    31764    25556     8380   -12194   -23936   -24706   -20320 
  -14617    -4352    14411    35934    50737    53674    41677    19552 
    1950    -4689    -7863   -12276   -14762   -11917    -3672     4456 
    6469     4260     1996      187      589     6257    16397    26080 
   31854    35623    37449    32166    18870     2897   -10428   -17382 
  -16576    -9844      322    12789    24580    30392    29643    25531 
   16406      205   -15804   -21107   -13868     -117    14913    28763 
   39289    46683    52768    55386    48857    30488     6052   -13008 
  -20150   -17436    -9521     1080    13047    23321    29357    31287 
   27627    17163     4536    -4175    -7083    -6925    -7064    -4893 
    2735     9802     8842     2224    -2747    -5456   -11148   -17413 
  -12885     5752    29700    51394    66368    69098    57951    37125 
   13435    -7314   -22763   -32003   -33721   -26508   -12673       41 
    7788    14365    21170    24769    24015    20206    14940    10687 
    8796     9288    11091    10764     6694     3700     6480    10069 
    7890     3021      781     3227    11622    23899    35888    44288 
   45945    41157    33758    25150    14337     1312   -10816   -16289 
  -14461   -10778    -7288    -3210     -179      978      697    -1995 
   -5794    -5736     1786    15137    27778    35426    39340    39382 
   33801    23531    11295     1701    -3040    -5872    -6034      -31 
    8066    12307    13771    14519    13077    10118     9086     9026 
    5316    -1329    -4712    -1173     6702    13329    15970    15232 
   13644    15531    20744    24105    24329    23089    20988    19533 
   18426    15175     9972     4010    -2589    -8920   -13572   -15612 
  -14894   -11838    -7569    -2937     4395    16455    29365    37014 
   36744    29724    19587    11020     6778     6519    10373    18789 
   27695    31428    28979    22296    13697     4761    -5431   -15938 
  -21420   -18335    -8019     5323    16680    22160    20316    13949 
    8299     5009     2971     3770     9247    16769    22599    26646 
   29546    29116    23538    14214     5028      816     3670    10841 
   18860    26624    32713    35108    34007    29513    19465     4604 
   -8777   -15591   -17311   -18220   -19209   -17590   -11767    -2502 
    8503    18603    25797    29373    29805    30051    30835    28258 
   21774    15973    13405    12337     9926     5448      567    -2178 
     -39     5902     9424     8100     5545     3397     1880     2126 
     607    -6222   -12452   -12178    -8380    -3542     3055     9053 
   12734    16090    19714    21662    20490    17196    14153    11418 
    8820     9528    14867    21710    28117    34485    40150    42417 
   37840    26771    14708     5655     -329    -3689    -5570    -7357 
   -7812    -6122    -4433    -3858    -4689    -7587    -9744    -7695 
   -2543     3677    11411    21429    32535    40763    42415    38616 
   32491    24821    17208    13020    12667    13613    14319    14373 
   12860     9872     6494     2593    -1683    -5475    -8415    -8635 
   -4121     2235     4278     1275     -810      303      734     -672 
   -1618    -1096     1987     8753    17316    24189    27549    27824 
   25853    22276    19303    18497    18501    19473    22246    22859 
   19036    15873    15375    12523     6207      230    -3443    -3634 
    -102     3346     2743     -538    -2164     -818     2330     7426 
   14273    20911    26673    32128    36197    36567    32259    24983 
   17429    10662     4824      221    -2926    -3256     -325     3303 
    7074    12020    14991    14002    13136    14416    14311    10524 
    4764      328     -866     -444    -1233    -3357    -4619    -3890 
   -2058      827     6212    13927    21250    26288    30712    36579 
   41953    43183    39548    32186    22288    12968     7453     5846 
    6906     8649     8900     8626     9235     8164     2670    -5599 
  -11697   -12050    -8203    -3358     2010     7134    10046    11350 
   12426    12491    11149     9355     7588     5931     3993      660 
   -3603    -6146    -5876    -4436    -1900     3782    11749    18553 
   23075    24983    22958    18781    15138    10976     5740      471 
   -5058    -9354   -10031    -7584    -3068     3109    10401    18580 
   26181    30847    32715    32729    29455    22419    14138     7311 
    3828     3855     5435     8336    13876    20063    23585    24001 
   21600    17278    14285    13999    14049    12758    10800     9105 
    7372     4849     2153      299     -238     1651     5559     8846 
   11249    13613    13605    10409     7672     6945     5680     2994 
    1113      839      747     2101     7769    15057    18353    17551 
   16348    16507    17065    15310    10135     5054     3703     5190 
    7784    12352    19681    27936    34303    37673    37439    32220 
   23427    14683     6682     -607    -5304    -7101    -6183    -1891 
    2829     3555      826    -1210      494     5533    11016    15633 
   20356    25519    29324    29187    25933    22933    19683    13987 
    8615     7796    10497    12125    10208     6691     5090     5548 
    6041     7192     9630    10594     9416    10156    13576    13792 
    7932     1753     1283     5189     7445     3842    -3123    -6673 
   -4607     -569     2007     2046     1723     5641    14401    22960 
   25666    20135    10565     4473     3256     3396     3164     2077 
    1047     2349     5694     8822    10150     9747    10575    14679 
   18885    19554    17304    14847    13853    13720    13629    14432 
   16480    18824    21058    23504    25450    24761    20853    15739 
   11192     8235     8249    11313    14883    16110    14959    14347 
   16177    17817    15399     9574     4237      723    -2317    -4383 
   -3925    -2095     -267     2932     7292     8329     4166     -330 
   -1690    -3244    -7385   -10328    -8814    -4699      211     6871 
   14542    21212    27537    32915    33777    30870    28437    26343 
   22337    16895    11106     5896     3055     3200     4436     4693 
    4757     6401     7641     5385     1669      387     2108     6010 
   10300    11861    10982    12050    16386    20349    22052    22373 
   20650    17551    16301    16665    15662    12791    10270    10399 
   12155    13181    14380    15801    14679    11793     9875     8671 
    7713     6750     5074     3832     3315     2007     -411    -4228 
   -8110    -8413    -5621    -2625     1298     6856    13495    21671 
   28768    30397    27541    24074    21343    19527    18941    18577 
   16885    15481    18067    23121    23971    19079    14323    12513 
   10268     6436     3551     2073      479    -1772    -3850    -3697 
    -796     2188     3889     5124     6002     6814     7572     7261 
    6041     4288     2276     2527     6188    10145    12537    14624 
   16295    15784    12781     8456     4699     4164     6925     9266 
    8556     5553     3457     6299    14283    22657    27436    28979 
   29276    27737    23024    17132    10833     3150     -753     3674 
   10828    14628    16760    20491    24229    23822    18835    11506 
    2385    -6716   -11368    -9918    -5348    -1780      238     5242 
   15226    23639    23838    17608     9795     2394    -2474    -2292 
    1436     4407     4992     6332    11369    16347    15052     8162 
    2674     3076     6172     7657     9298    12899    16330    19607 
   22792    21578    14629     6947     2716     1011    -2093    -8823 
  -17485   -23436   -22160   -15053    -7441      -29     9279    20717 
   34226    47997    58916    66910    72716    75843    76056    72310 
   64701    55532    44892    31302    14449    -5802   -27712   -46519 
  -59329   -67027   -70089   -68013   -60898   -48382   -31666   -15302 
   -3358     3511     7885    13629    23194    36424    49270    55652 
   53717    46988    40431    37525    38052    38531    35939    30892 
   26495    22480    14299     -297   -19048   -38533   -56554   -70679 
  -76833   -72929   -59387   -36860    -7678    23344    49289    66256 
   78074    87656    91381    86983    77122    65840    55582    45754 
   35228    24877    15861     8343     2166    -2436    -5471    -8865 
  -14940   -23423   -31503   -35463   -32182   -20961    -5594     8487 
   19018    24069    23064    22343    26099    29165    27344    23166 
   21860    27145    36379    41611    37183    24491    10863     2710 
     735     2728     6967    13171    19688    21755    17895    10169 
   -1979   -15988   -24271   -25884   -24533   -19192   -10201    -1000 
    8860    19464    27232    30073    28286    23062    16218    11859 
   16798    32100    49585    62170    67802    65626    56926    43452 
   26504    10755     -849   -11904   -26524   -45347   -65527   -82598 
  -94975  -102517  -101906   -89727   -67336   -39032    -7651    24606 
   51609    65873    66636    60046    51987    42843    30045    15919 
    7685     9211    18937    32923    45819    53458    55231    51432 
   42284    30496    19332    10153     4191      878    -5219   -18914 
  -37338   -53387   -60648   -54031   -36591   -20687   -12472    -4560 
   12947    40520    67008    80098    79224    73400    69782    70362 
   74359    77607    74799    66291    57300    49324    38403    22113 
    2817   -15538   -29890   -38400   -40360   -36374   -29278   -22883 
  -19047   -19218   -26104   -37694   -45319   -43046   -32895   -19074 
   -3931     9116    18027    27535    40980    52199    53561    45011 
   33099    25002    22627    21232    16173     8568      -83   -10922 
  -21897   -27596   -24900   -14933    -1613    10530    19522    26300 
   30501    30163    24722    15815     8193     7244    12653    17809 
   16281     7356    -4291   -13051   -16183   -14208    -9359    -3654 
    3041    12109    22635    30848    32671    27072    17926    10079 
    4407     -982    -6107    -7824    -4259     2666    10226    17213 
   24592    34182    45916    58341    68197    70437    64581    54234 
   39885    22239     5140   -10422   -24831   -34861   -37498   -33378 
  -24246   -10935     5471    21640    33663    40236    40863    34803 
   24233    10791    -8102   -30222   -45635   -48597   -41905   -29683 
  -12685     8239    28306    43866    55748    63296    62797    53034 
   36445    14932   -10492   -35336   -52033   -55111   -44728   -26751 
   -6667    15288    38645    58118    67413    63007    45864    22971 
    3674    -9101   -19415   -30319   -41359   -47709   -43569   -32703 
  -22235   -12221    -3326     2633     8838    17886    27546    33234 
   34200    38308    53127    74881    93849   103204    99149    83431 
   63360    43156    24289     9871     -117    -8371   -13030    -9651 
    -264     6551     5907     1895     1417     5567    10692    14193 
   13072     5710    -2519    -7385   -12480   -20104   -28020   -35213 
  -41553   -44864   -42885   -36270   -24775    -6065    16247    35434 
   50670    62577    68854    67774    59881    46585    29590    12868 
    1441    -2748    -1968     -962    -1552     -716     2808     6467 
    8181     7987     6151     2353     -206     2867    10125    18355 
   25402    28080    25159    16584     2424   -13770   -27452   -37156 
  -41912   -39879   -31081   -16021     3194    19660    30316    38766 
   45018    46230    42708    37373    34450    35954    40119    43492 
   42087    34476    22503     8480    -5112   -17458   -29072   -36721 
  -35711   -26230   -12557     1437    14787    27229    35357    34969 
   26821    16002     6598      410    -1428     1351     8640    20687 
   35654    48980    57144    59312    56509    51903    49202    49725 
   51877    51337    43586    28594     8580   -16756   -45042   -67733 
  -78408   -76947   -65354   -46444   -23233     1934    23743    35955 
   39121    37473    32863    26523    19164    10420      738    -8699 
  -16259   -20769   -22484   -22404   -21459   -19299   -14912    -7786 
    2351    14265    25022    31887    33450    30481    24761    17809 
   11199     5273      329    -1067     2751     9626    15708    19265 
   20993    20911    18670    15745    14007    14366    17635    24464 
   33405    40153    41269    37245    31063    26268    23751    20933 
   17316    15471    15832    15855    12950     6917      101    -4881 
   -6448    -3788     3350    14022    25207    32765    33767    28129 
   17926     5270    -7705   -17841   -22320   -20621   -13698    -2668 
   10350    21951    28663    29043    24856    17541     7447    -2317 
   -8619   -10654    -7321      526     9104    15611    18966    18130 
   11927     1156   -11308   -23467   -32922   -34942   -27606   -15828 
   -6035     -565     1115      938     1470     3427     6494    12055 
   21632    34057    47039    59327    68188    69677    64166    55814 
   46538    34743    19060     1020   -16046   -28899   -34986   -33814 
  -27257   -16958    -3987     9699    22605    33966    41848    44617 
   43417    40223    36255    33172    31014    28115    25108    22905 
   20694    19217    19332    19446    18349    16800    15730    15307 
   15434    16275    17753    18462    16893    13394     8182     -611 
  -13612   -27432   -37656   -42628   -43174   -40494   -35549   -29497 
  -23754   -19101   -15109   -11041    -6396     -105    10201    26312 
   45850    62349    69796    67149    57626    43873    27889    13508 
    3385    -2787    -4483     -571     6376    11740    12661     7792 
   -1259    -9043   -11016    -6743     1404    10118    16969    21303 
   23618    24070    21783    16808    10910     5810     3294     4617 
    7807     9424     8897     7792     7250     8899    14168    20895 
   25114    25695    23946    20934    17163    13501    10497     6968 
    1836    -3817    -8432   -11389   -12938   -13297   -11067    -5197 
    2393     9882    18069    26870    33558    36481    36063    32243 
   25050    16299     7723    -1347   -12214   -23886   -33507   -38556 
  -38188   -32811   -23679   -13431    -3665     6330    15708    21903 
   24202    23440    21139    19773    21035    25336    32647    41677 
   50151    56029    57366    53847    48207    43144    38659    33825 
   28451    22925    18550    16638    16791    17469    16718    13215 
    7762     2006    -2706    -5908    -8889   -12248   -15620   -20032 
  -25272   -29108   -30562   -29673   -27136   -23637   -17435    -7034 
    5628    17817    28474    37215    42940    44124    40282    33033 
   25442    19915    17001    15658    14204    11992     9756     8428 
    8237     7921     5857     3267     3110     6012     9819    11353 
