Origin Time       2024/04/02 04:24:00
Lat.              40.133
Long.             141.712
Depth. (km)       71
Mag.              6.0
Station Code      AOMH06
Station Lat.      40.9664
Station Long.     141.3738
Station Height(m) 5
Record Time       2024/04/02 04:24:55
Sampling Freq(Hz) 100Hz
Duration Time(s)  220
Dir.              5
Scale Factor      7845(gal)/8223790
Max. Acc. (gal)   45.431
Last Correction   2024/04/02 04:24:55
Memo.             
[...]
  -26148   -24746   -23296   -23168   -23832   -24389   -24656   -24436 
  -24367   -25235   -25918   -25706   -25564   -25762   -25393   -24187 
  -23550   -24320   -25299   -25427   -24792   -24138   -24196   -24649 
  -25031   -25482   -25419   -24525   -24183   -24845   -25193   -24869 
  -24213   -23494   -24005   -26131   -27726   -27160   -25272   -23961 
  -24414   -25598   -25783   -25776   -26796   -27189   -25400   -23102 
  -22341   -22647   -23446   -24937   -25957   -26053   -26586   -27205 
  -25971   -23244   -21813   -23160   -25883   -27492   -26985   -25637 
  -24331   -23249   -23701   -25211   -25524   -25398   -26565   -27028 
  -24949   -22991   -22924   -22885   -23106   -25583   -28915   -29496 
  -26735   -23781   -22022   -20467   -20336   -22900   -26422   -28374 
  -28244   -27712   -26850   -24802   -23766   -24347   -23966   -23672 
  -26046   -28944   -29288   -27317   -24290   -21779   -21539   -22285 
  -21946   -22549   -25080   -25752   -23877   -23317   -25020   -27024 
  -27977   -27476   -26703   -26489   -25489   -23819   -23413   -24401 
  -25978   -27248   -26659   -24258   -21444   -19005   -18534   -21377 
  -25423   -27572   -27715   -27233   -25894   -23207   -21378   -22553 
  -25334   -27973   -30217   -30916   -28512   -23828   -20856   -21944 
  -23575   -22738   -22254   -24240   -25817   -24672   -23373   -24899 
  -27136   -27492   -28028   -29515   -29066   -26320   -23458   -21389 
  -20443   -21213   -23201   -24939   -25974   -26990   -27465   -26449 
  -25812   -26755   -26473   -24381   -23673   -24802   -25639   -25810 
  -26111   -26176   -25242   -24295   -24760   -25438   -24497   -23134 
  -23545   -25304   -26482   -26712   -26376   -24786   -22422   -21066 
  -20452   -19923   -20969   -23823   -26414   -28131   -29957   -31841 
  -32158   -30528   -29084   -26865   -21172   -16330   -17683   -21315 
  -21894   -22364   -26307   -29907   -29047   -25497   -22238   -20125 
  -20474   -24902   -31240   -34755   -33783   -30067   -25011   -19749 
  -16459   -15988   -18373   -23758   -28633   -29492   -28624   -28448 
  -27542   -25178   -23481   -24169   -25474   -24981   -23334   -22372 
  -22427   -22774   -23851   -26250   -28163   -28659   -28794   -27873 
  -25546   -23427   -21897   -21204   -22553   -24791   -25726   -26064 
  -26739   -26647   -26088   -25830   -24694   -23805   -25274   -26200 
  -24159   -22086   -21992   -22565   -23153   -24896   -27419   -27425 
  -24754   -23884   -25515   -26298   -26083   -26789   -28271   -29236 
  -28702   -27020   -25805   -25100   -23472   -21049   -18855   -17297 
  -17131   -19236   -23260   -27529   -29793   -29035   -27272   -27124 
  -27706   -26816   -25546   -25813   -26389   -26266   -26755   -26751 
  -23706   -19973   -19884   -22815   -25304   -26581   -27656   -28163 
  -27679   -26620   -24876   -23137   -22847   -23322   -23002   -22216 
  -22092   -22964   -24466   -26352   -28602   -29668   -27999   -25489 
  -23944   -22374   -21367   -22713   -25108   -26245   -26496   -27160 
  -28058   -28312   -27048   -23932   -20498   -19484   -21621   -23893 
  -23919   -23612   -24297   -24360   -23803   -24281   -25571   -26123 
  -26127   -27344   -29596   -30504   -29259   -27494   -25729   -22860 
  -19994   -19253   -19997   -21454   -23994   -26335   -26842   -25585 
  -23989   -23907   -25458   -26628   -26412   -26457   -27611   -27878 
  -26580   -25220   -24156   -23965   -25691   -27708   -27816   -26489 
  -24814   -22356   -19512   -18706   -20106   -21537   -23411   -26998 
  -30797   -32641   -31938   -29448   -26145   -22177   -17932   -15552 
  -16702   -19742   -22419   -24938   -27546   -28756   -28194   -27583 
  -27762   -27645   -26428   -24916   -24075   -24042   -24602   -25257 
  -25632   -25475   -25003   -25353   -26299   -26580   -26499   -26191 
  -25265   -24783   -25033   -24769   -24070   -23359   -22383   -22185 
  -23600   -25735   -27981   -29787   -29793   -27565   -24351   -21687 
  -20185   -20136   -21838   -24236   -25640   -26061   -26458   -26727 
  -26680   -26896   -26959   -26264   -26032   -26865   -26908   -24865 
  -22256   -21200   -21725   -22967   -24721   -26140   -25702   -23508 
  -21837   -22450   -24408   -26082   -27406   -28374   -28027   -26433 
  -24983   -23807   -21972   -20509   -21307   -23481   -25189   -27126 
  -29890   -31380   -30360   -28560   -27301   -26133   -25342   -25466 
  -25542   -24359   -21980   -20321   -20737   -21652   -22207   -23583 
  -25679   -27681   -29142   -29517   -28939   -27525   -25509   -23951 
  -22443   -20395   -19772   -21529   -23683   -24630   -24925   -25917 
  -27475   -28116   -27024   -24761   -22958   -22310   -21996   -22176 
  -22913   -23080   -23368   -25149   -27596   -28761   -27673   -26352 
  -27549   -29952   -30129   -27699   -25127   -23159   -20837   -19542 
  -20702   -23148   -25705   -27360   -27621   -27533   -27132   -25628 
  -23724   -22372   -21474   -21122   -22285   -24833   -26773   -27020 
  -26339   -25839   -25929   -26204   -26546   -26651   -25465   -23442 
  -22423   -23058   -24360   -25146   -25558   -25895   -25284   -23822 
  -23199   -23949   -24759   -24579   -23402   -21988   -21520   -22081 
  -22954   -24486   -26734   -28165   -28236   -28131   -28075   -27190 
  -25794   -25230   -25421   -25211   -24740   -24510   -23919   -22743 
  -21851   -21957   -22990   -24914   -27585   -29683   -29776   -27723 
  -25182   -24309   -24649   -24726   -25168   -26152   -26176   -25157 
  -24401   -23901   -23201   -23650   -25924   -27754   -27571   -26400 
  -24888   -22594   -20069   -18939   -20148   -22987   -25855   -27743 
  -28285   -27076   -24844   -23537   -23321   -23124   -23827   -25640 
  -26384   -25887   -25799   -26100   -26312   -26580   -26766   -26373 
  -24808   -22732   -21915   -22477   -23361   -24672   -26539   -27656 
  -27120   -26470   -26927   -26997   -26428   -26835   -27388   -26360 
  -24278   -22235   -20412   -19307   -20129   -23175   -27058   -29641 
  -29930   -28837   -27031   -24368   -21982   -21375   -22225   -23691 
  -25159   -24885   -22389   -20294   -20484   -22179   -24390   -27508 
  -31276   -33451   -33079   -31072   -27660   -23720   -21190   -20578 
  -20839   -21438   -22918   -24769   -25400   -24819   -24079   -23491 
  -23218   -23541   -24661   -26612   -28065   -27517   -25982   -25178 
  -24991   -24574   -23923   -23984   -24979   -25579   -25448   -25802 
  -26499   -26446   -25982   -25381   -23890   -22187   -21994   -23167 
  -24707   -27048   -29494   -29398   -27020   -24505   -21602   -19241 
  -19851   -22243   -24657   -27606   -29990   -29805   -27596   -25313 
  -24023   -23745   -23915   -23766   -23800   -24956   -25762   -24876 
  -23847   -23548   -23612   -24853   -26929   -28111   -28071   -27203 
  -26014   -24489   -21753   -19479   -20480   -23257   -24875   -26113 
  -28486   -30357   -29980   -28780   -28239   -27450   -25656   -23618 
  -22148   -20908   -19418   -18913   -20645   -23588   -26261   -28217 
  -28956   -27959   -25593   -22901   -21481   -22516   -24659   -25506 
  -25180   -25019   -24354   -22455   -21243   -22500   -25677   -29479 
  -32688   -34219   -33381   -30352   -26484   -22743   -19341   -17392 
  -17933   -19996   -21922   -23492   -25212   -26528   -26763   -26646 
  -26847   -26948   -26638   -26163   -25824   -25515   -25178   -25265 
  -25417   -24480   -22624   -21011   -20009   -20027   -22094   -25604 
  -28125   -28880   -29074   -28722   -26950   -24387   -22465   -21763 
  -22060   -23457   -25979   -28161   -29014   -29065   -27680   -24409 
  -21425   -20555   -21150   -22072   -23264   -24842   -25911   -25947 
  -25866   -26202   -26543   -26863   -26994   -26260   -25262   -24933 
  -24327   -22648   -20889   -20314   -21458   -23996   -26897   -28892 
  -29868   -30951   -31564   -29951   -26608   -23349   -21096   -20004 
  -19822   -20231   -21037   -22230   -24000   -25593   -25694   -24830 
  -24452   -24717   -25365   -26256   -26746   -26536   -26291   -26083 
  -25122   -24028   -24139   -25132   -25976   -26098   -25686   -25679 
  -26283   -26627   -26087   -24903   -23723   -22732   -21894   -21932 
  -23677   -26365   -28274   -28918   -28918   -28204   -26096   -23117 
  -20768   -19496   -19252   -20790   -23965   -27106   -29273   -30449 
  -30171   -28510   -26761   -25540   -24264   -22790   -21455   -20455 
  -20353   -21130   -21960   -23504   -26682   -29951   -31534   -31305 
  -29253   -25682   -22292   -20926   -21616   -22671   -22933   -23198 
  -24509   -26077   -26461   -25758   -25250   -25716   -27058   -28583 
  -28907   -27410   -25208   -23105   -21139   -19727   -19103   -19429 
  -21231   -24148   -26811   -28405   -29280   -30173   -30805   -29774 
  -26754   -23286   -20642   -19066   -19107   -20876   -23280   -26019 
  -29091   -31305   -31726   -30241   -27515   -24846   -22518   -20453 
  -20366   -23021   -25350   -25591   -25922   -26360   -24744   -22300 
  -21533   -22225   -23352   -25313   -28463   -31263   -31757   -30261 
  -28082   -25147   -21586   -19271   -19431   -21097   -23386   -26457 
  -29520   -31044   -30748   -29349   -27378   -25263   -23087   -20652 
  -18824   -18620   -19519   -20785   -22904   -26377   -29559   -30323 
  -29490   -28428   -26291   -22627   -19012   -17670   -19388   -22712 
  -26119   -29201   -31301   -31606   -30198   -27953   -25508   -23117 
  -21856   -22107   -21895   -20988   -22056   -24903   -26526   -26422 
  -26312   -26859   -27847   -29577   -30989   -29697   -26293   -23716 
  -23153   -23554   -23562   -23769   -24754   -24678   -23229   -22848 
  -23766   -23538   -22077   -22010   -23229   -23398   -22886   -22742 
  -22246   -22113   -23935   -26927   -29790   -32151   -32769   -30751 
  -27226   -23758   -21319   -20119   -19719   -20409   -22608   -25056 
  -26091   -25678   -24540   -22879   -21636   -22365   -24672   -27436 
  -30159   -31236   -30176   -28502   -26111   -23091   -21267   -20235 
  -19152   -19534   -21276   -22777   -24317   -26365   -28148   -28791 
  -28314   -27976   -28433   -28444   -27224   -25961   -24946   -23078 
  -22042   -23751   -25091   -23620   -22133   -22372   -22746   -23210 
  -25251   -27421   -26809   -24295   -22681   -22407   -22696   -22790 
  -22632   -23317   -24833   -26611   -28725   -29629   -28129   -26327 
  -25698   -24784   -23033   -21855   -21847   -22650   -23967   -25548 
  -27240   -28678   -29249   -28545   -26901   -25151   -23620   -22653 
  -23001   -24578   -26365   -27515   -28281   -29107   -28999   -27028 
  -24314   -22732   -22871   -23791   -24305   -23863   -22284   -20235 
  -19703   -21824   -25394   -28964   -31882   -33420   -33161   -31071 
  -27074   -22261   -18898   -18126   -19966   -24297   -28998   -31329 
  -32327   -34091   -34160   -29619   -23546   -19799   -17528   -15772 
  -15264   -15993   -18058   -21401   -24568   -26258   -26269   -25060 
  -24020   -23963   -23674   -22719   -22162   -22366   -23415   -24856 
  -26503   -29683   -33998   -37463   -39375   -39509   -37982   -34873 
  -29907   -23861   -18036   -14099   -13491   -15542   -19263   -23830 
  -27089   -28080   -27303   -24444   -19543   -13555    -7762    -4249 
   -5255   -11092   -19032   -26527   -33727   -40435   -44720   -45277 
  -42975   -39492   -35000   -29196   -22756   -17209   -14681   -15693 
  -18864   -23321   -28401   -33178   -37002   -38376   -35588   -29122 
  -21636   -15857   -12503   -11082   -12449   -17703   -25097   -31059 
  -34365   -35684   -34026   -29473   -25281   -22875   -20781   -19114 
  -20000   -23805   -28409   -31606   -31729   -28398   -23500   -18616 
  -13046    -7514    -6372   -11794   -21451   -33212   -44532   -51713 
  -53775   -51426   -44751   -34331   -21984   -10473    -1414     5161 
    7757     4842    -1637    -9337   -18620   -29357   -38442   -43151 
  -43996   -41353   -34352   -25184   -17455   -12009    -9243   -10307 
  -14388   -19222   -24599   -31494   -37497   -39016   -36896   -34244 
  -31631   -27136   -19803   -11595    -4260     1821     4770     2890 
   -2948   -11658   -22624   -33909   -42415   -46352   -46800   -44791 
  -38803   -28541   -17830   -10632    -7592    -7485    -9163   -12218 
  -16502   -21478   -27324   -35160   -44930   -54031   -59259   -59987 
  -57142   -50255   -39339   -26959   -15300    -4770     2913     4349 
   -1011   -10574   -23410   -38163   -49881   -55938   -57415   -54147 
  -46133   -34356   -18538     -618    13830    20232    16322     1869 
  -19693   -42430   -60220   -68289   -66168   -57559   -46129   -34751 
  -26184   -20798   -16937   -13705   -10962    -8413    -5578    -2367 
    -471    -3419   -12850   -26018   -39577   -51305   -58094   -57865 
  -49789   -33235   -11782     6833    17282    19190    13792     1316 
  -17197   -36759   -50521   -55344   -53036   -47328   -39668   -28590 
  -15055    -3821     1035    -1466    -9300   -19939   -32286   -43910 
  -51094   -52733   -49100   -39918   -27058   -14947    -7786    -7989 
  -15483   -27854   -41526   -52523   -56266   -49954   -36574   -21616 
   -8001     1548     4928     3950      345    -6353   -15715   -25948 
  -33949   -37945   -40964   -44469   -43773   -36387   -25836   -15238 
   -5773      136     -780   -10756   -28426   -47294   -60338   -64675 
  -59810   -45700   -25543    -6939     3998     6673     1884    -9967 
  -25371   -38693   -46052   -45544   -37285   -23811    -8247     5528 
   12129     8298    -4892   -23611   -43075   -59728   -70823   -72605 
  -62480   -42801   -21062    -3703     8430    15114    13593     2967 
  -13599   -30937   -43742   -48351   -45612   -40057   -33844   -26241 
  -19221   -16353   -18727   -25690   -34638   -41273   -43124   -40196 
  -33689   -25334   -16888   -10818    -8899    -9774   -11098   -12336 
  -13365   -12842   -10791   -10509   -14878   -23364   -33901   -44794 
  -53460   -55540   -48037   -32040   -12201     4953    14374    14512 
    5717   -10350   -29732   -46530   -55890   -57298   -52910   -44072 
  -32247   -20574   -11531    -5024     -608      722    -2050    -8425 
  -16737   -25597   -34005   -40547   -44028   -44325   -41851   -37354 
  -32185   -27399   -23606   -21305   -20887   -22744   -25342   -26455 
  -26589   -26184   -24854   -23445   -21789   -19414   -17878   -19387 
  -24808   -32470   -39800   -45288   -47532   -45720   -40911   -34354 
  -26049   -17020   -10813    -9826   -12707   -17035   -21836   -27062 
  -30963   -30480   -26671   -23670   -21984   -20606   -21909   -27260 
  -32341   -32096   -26323   -17817    -9683    -5232    -7094   -15741 
  -28030   -38839   -45638   -48520   -47278   -41885   -34017   -26727 
  -21768   -17506   -11696    -5004     -118     1624     1329     -537 
   -5551   -14767   -27761   -42741   -55485   -61177   -58621   -49677 
  -35784   -19184    -4889     2382     1007    -8082   -21837   -35159 
  -42414   -40664   -32105   -22257   -15682   -13595   -14531   -16484 
  -18925   -22851   -28012   -32684   -36435   -39475   -40938   -39715 
  -35464   -29120   -22642   -17292   -13203   -11333   -12677   -15750 
  -19445   -24873   -30730   -33856   -34331   -33462   -30489   -25301 
  -20448   -18202   -18507   -20719   -24331   -28097   -30280   -29714 
  -26816   -23116   -20129   -18893   -20194   -24806   -32017   -39472 
  -44686   -44636   -36964   -22918    -7167     4413     8135     4858 
   -3187   -15646   -30996   -44097   -49697   -46947   -39509   -31048 
  -23112   -17631   -16379   -18496   -22446   -27747   -32989   -35349 
  -33046   -27018   -20228   -15889   -15472   -17716   -20814   -24528 
  -28746   -32656   -35395   -35729   -32842   -27500   -21807   -18416 
  -18044   -18955   -20634   -23936   -27797   -30115   -30715   -31334 
  -33045   -34350   -32273   -25388   -15881    -7573    -2184     -326 
   -4047   -14304   -28437   -41754   -49724   -50479   -45246   -35806 
  -24821   -15867   -10377    -8688   -12353   -21136   -31043   -38198 
  -41871   -42626   -40188   -34507   -27171   -19472   -11367    -4421 
   -1156    -1818    -5425   -10723   -16272   -21435   -25542   -28714 
  -32984   -38753   -43456   -45435   -44942   -41553   -34989   -27886 
  -23461   -21594   -20711   -20659   -20903   -19585   -16046   -11804 
   -8522    -6600    -6600   -10079   -17621   -27712   -38192   -47235 
  -53415   -56635   -57253   -53878   -45720   -35661   -26734   -18874 
  -11940    -7202    -5310    -5452    -5644    -4877    -4355    -5335 
   -8278   -13135   -19294   -25883   -31174   -33077   -30735   -25242 
  -20117   -18785   -21147   -25691   -31525   -36397   -38622   -39501 
  -39452   -37014   -33390   -31635   -31567   -31147   -30323   -28837 
  -25088   -19179   -12839    -7616    -4660    -4919    -9568   -18852 
  -30254   -39982   -46176   -48656   -46600   -39658   -29061   -16154 
   -3942     2871     2764    -2235   -10106   -19244   -27627   -33201 
  -35066   -34210   -32694   -31661   -30457   -28336   -25679   -23222 
  -21744   -21990   -23967   -26998   -30632   -34677   -38681   -41408 
  -40702   -35529   -27595   -19612   -13549   -10670   -11164   -14054 
  -18657   -24592   -30028   -32726   -32953   -32520   -31637   -29520 
  -26877   -25016   -23955   -23076   -22234   -21142   -19915   -20430 
  -23313   -26289   -28308   -29770   -29751   -27163   -22242   -16653 
  -12158    -9378    -9940   -15778   -25155   -34253   -40805   -43838 
  -43147   -39285   -33318   -26636   -20586   -17061   -17290   -19097 
  -19592   -19232   -19450   -20085   -21262   -23916   -28102   -32977 
  -37486   -40192   -39610   -35808   -30419   -24329   -18073   -13633 
  -12063   -11993   -12829   -15434   -19545   -24179   -28873   -33012 
  -35815   -36417   -34025   -29101   -23249   -17699   -13055   -10511 
  -11691   -16702   -23832   -30825   -36124   -39449   -40390   -38130 
  -33556   -28269   -22470   -16981   -13670   -12160   -10932   -11109 
  -14608   -20738   -27268   -32464   -35410   -35550   -32854   -28721 
  -24848   -21361   -17979   -15457   -14557   -15194   -17054   -19749 
  -22397   -24499   -26744   -29504   -31766   -32414   -31471   -29714 
  -26952   -22558   -18291   -16757   -17937   -20788   -25165   -30164 
  -33898   -35303   -34161   -30518   -25494   -20707   -16957   -15346 
  -16498   -18746   -20984   -24244   -28783   -33139   -36288   -38757 
  -40019   -37301   -30426   -23037   -16884   -11399    -8664   -11843 
  -19217   -26168   -31781   -36914   -39096   -35992   -29546   -22572 
  -16459   -13080   -13533   -16216   -19008   -21388   -24221   -27878 
  -31054   -32983   -34692   -36051   -34955   -30939   -25911   -21216 
  -17903   -17621   -19890   -22175   -23676   -25474   -27737   -29323 
  -29343   -28116   -27056   -27575   -29461   -31252   -32188   -31656 
  -28640   -23619   -18216   -13448    -9896    -8043    -8492   -11734 
  -17329   -24425   -32273   -39488   -43703   -43013   -37782   -29593 
  -20194   -12719   -10052   -11882   -16410   -23141   -31405   -37978 
  -39611   -36795   -32053   -26751   -21780   -18600   -18030   -19079 
  -20198   -21879   -25157   -28132   -28819   -28899   -30038   -30447 
  -28517   -25567   -22758   -19762   -17221   -16390   -17184   -18889 
  -20862   -22335   -23112   -23476   -23804   -24821   -26607   -28428 
