Origin Time       2024/04/02 04:24:00
Lat.              40.133
Long.             141.712
Depth. (km)       71
Mag.              6.0
Station Code      AOMH15
Station Lat.      40.4841
Station Long.     140.5565
Station Height(m) 130
Record Time       2024/04/02 04:24:55
Sampling Freq(Hz) 100Hz
Duration Time(s)  120
Dir.              4
Scale Factor      7845(gal)/8223790
Max. Acc. (gal)   4.936
Last Correction   2024/04/02 04:24:56
Memo.             
[...]
  -10548   -10157   -11271   -12930   -13668   -13066   -11944   -11165 
  -10962   -11391   -12329   -13140   -13198   -12386   -10951    -9464 
   -8784    -9529   -11619   -14303   -16402   -16902   -15579   -13275 
  -11659   -11875   -13583   -15589   -16538   -15736   -13788   -11726 
  -10207    -9815   -11044   -13717   -16463   -17454   -16205   -13404 
  -10060    -7959    -8201    -9811   -11665   -13379   -14457   -14457 
  -13571   -12734   -12357   -11705   -10970   -11327   -12406   -12843 
  -12594   -12575   -13012   -13258   -13101   -13051   -13134   -12696 
  -11375    -9834    -9477   -10847   -12865   -13999   -13590   -12333 
  -11716   -12299   -13225   -14031   -14974   -15396   -14274   -12078 
  -10266    -9732   -10612   -12267   -13360   -13389   -13317   -13828 
  -14478   -15012   -15618   -15843   -14827   -12453    -9666    -7866 
   -7897    -9730   -12768   -15493   -16190   -14932   -13162   -11743 
  -11040   -11693   -13514   -14570   -13701   -12237   -11379   -11029 
  -11063   -11225   -11380   -11989   -13085   -13948   -14154   -13886 
  -13224   -12175   -11269   -11140   -11846   -13011   -13743   -13174 
  -11940   -11252   -11145   -11799   -13699   -15574   -15531   -13481 
  -10779    -9212    -9917   -12186   -14220   -14829   -13890   -12150 
  -10804   -10598   -11593   -13524   -15475   -16083   -15071   -13315 
  -11511   -10265   -10272   -11325   -12505   -13208   -13324   -13043 
  -12575   -11961   -11176   -10466   -10309   -10774   -11643   -12677 
  -13078   -12117   -10481    -9589    -9790   -10636   -12125   -14003 
  -15219   -15291   -14646   -13626   -12293   -11134   -11300   -12974 
  -14408   -14142   -12650   -10968    -9850   -10018   -11213   -12110 
  -12235   -12213   -12178   -11512   -10378   -10251   -11866   -14108 
  -15588   -15427   -13424   -10976   -10254   -11884   -14311   -15442 
  -14663   -13162   -12410   -12744   -13304   -13346   -13108   -12927 
  -12735   -12737   -13223   -13797   -13841   -13528   -13389   -13410 
  -13643   -14386   -14806   -13759   -12135   -11584   -11986   -12348 
  -12487   -12530   -12225   -11740   -11797   -12144   -11831   -11049 
  -10789   -11435   -12579   -13428   -13339   -12488   -11858   -11870 
  -11963   -12101   -12922   -14095   -14291   -12939   -11053   -10260 
  -11072   -12474   -13413   -13485   -12491   -10836    -9504    -9232 
  -10258   -12252   -14377   -15697   -15591   -14185   -12332   -10868 
  -10247   -10867   -12807   -15109   -16131   -15009   -12841   -11820 
  -12754   -14463   -15427   -14867   -13004   -11291   -11199   -12421 
  -13459   -13402   -12349   -11021   -10390   -11148   -12897   -14176 
  -13914   -12698   -12031   -12322   -12614   -12502   -12595   -12860 
  -12640   -12058   -11835   -12074   -12205   -12301   -12981   -13730 
  -13517   -12403   -11024    -9931    -9826   -11047   -12696   -13370 
  -12857   -12171   -12150   -12739   -13491   -14079   -14137   -13365 
  -12253   -11854   -12478   -13248   -13207   -12483   -11978   -12160 
  -12799   -13487   -13852   -13717   -13186   -12544   -12221   -12150 
  -11826   -11622   -12291   -13419   -13950   -13433   -12217   -11095 
  -10606   -10789   -11480   -12275   -12600   -12202   -11461   -10979 
  -10760   -10544   -10467   -10656   -11169   -12048   -12834   -12910 
  -12336   -11880   -12189   -12873   -13063   -12722   -12511   -12711 
  -12960   -12772   -12164   -11862   -12355   -13150   -13521   -13189 
  -12370   -11682   -11726   -12876   -14863   -16488   -16679   -15446 
  -13703   -12575   -12523   -13200   -14058   -14634   -14570   -13929 
  -13127   -12483   -12050   -11896   -12159   -12623   -12775   -12441 
  -11674   -10439    -9518   -10091   -11699   -12883   -13167   -12835 
  -12367   -12309   -12583   -12684   -12587   -12529   -12455   -12282 
  -12135   -12155   -12225   -12154   -12202   -12723   -13344   -13444 
  -13127   -12777   -12297   -11659   -11299   -11256   -10979   -10589 
  -11014   -12193   -12789   -12177   -11133   -10601   -10941   -12100 
  -13598   -14588   -14573   -13988   -13513   -13207   -13042   -13423 
  -14328   -14933   -14659   -13755   -12781   -12110   -11820   -11927 
  -12409   -12862   -12823   -12278   -11492   -10883   -10999   -11890 
  -12920   -13489   -13305   -12322   -11132   -10837   -11838   -13288 
  -14121   -13845   -12653   -11583   -11623   -12359   -12789   -12995 
  -13537   -14056   -13868   -13113   -12244   -11550   -11591   -12580 
  -13718   -14065   -13466   -12534   -12094   -12415   -13150   -13813 
  -14029   -13622   -12742   -11950   -11851   -12330   -12760   -12807 
  -12552   -12313   -12386   -12745   -12995   -12698   -12151   -12166 
  -12688   -12920   -12702   -12560   -12684   -12634   -11970   -10972 
  -10519   -11078   -12204   -13084   -13089   -12237   -11385   -11156 
  -11383   -11940   -12569   -12544   -11800   -11321   -11735   -12501 
  -12962   -13092   -12810   -12271   -12403   -13500   -14539   -14608 
  -13752   -12568   -11742   -11672   -12271   -13181   -13821   -13806 
  -13633   -13776   -13745   -13247   -12739   -12472   -12432   -12602 
  -12800   -12845   -12563   -12067   -11770   -11581   -11453   -11874 
  -12623   -12850   -12378   -11884   -12151   -12973   -13343   -13131 
  -13124   -13464   -13475   -12900   -12253   -11916   -11888   -12133 
  -12341   -12191   -11905   -11859   -11979   -11808   -11304   -11048 
  -11213   -11576   -12136   -12557   -12449   -12108   -11996   -12330 
  -12907   -13103   -12762   -12361   -12212   -12195   -12168   -12360 
  -12819   -13076   -12949   -12672   -12442   -12460   -12707   -12976 
  -13259   -13535   -13670   -13547   -13117   -12727   -12699   -12646 
  -12307   -12050   -12083   -12303   -12588   -12853   -13127   -13381 
  -13383   -13038   -12530   -12033   -11726   -11765   -11974   -12116 
  -12154   -12027   -11751   -11726   -12310   -13041   -13254   -13099 
  -12816   -12266   -11696   -11641   -12074   -12584   -12835   -12664 
  -12271   -12166   -12652   -13321   -13470   -13154   -12865   -12515 
  -12033   -12039   -12708   -13238   -13225   -13031   -12838   -12687 
  -12807   -13196   -13340   -12841   -12136   -11880   -12069   -12367 
  -12501   -12214   -11589   -11187   -11354   -11774   -11977   -11836 
  -11670   -11862   -12216   -12289   -12019   -11619   -11583   -12426 
  -13703   -14324   -14077   -13479   -12788   -12438   -13046   -14277 
  -14885   -14079   -12432   -11284   -11445   -12708   -14184   -14856 
  -14341   -13265   -12510   -12204   -12058   -12247   -12860   -13235 
  -12950   -12438   -12124   -12066   -12260   -12576   -12789   -12773 
  -12494   -12201   -12266   -12621   -12843   -12654   -12189   -11697 
  -11356   -11458   -11875   -11940   -11605   -11508   -11913   -12348 
  -12202   -11593   -11098   -11070   -11691   -12691   -13311   -13227 
  -12795   -12474   -12339   -12191   -12117   -12249   -12376   -12588 
  -13414   -14682   -15176   -14253   -12938   -12339   -12302   -12579 
  -13240   -13651   -13205   -12507   -12241   -12309   -12673   -13352 
  -13801   -13608   -13022   -12415   -12085   -12086   -12239   -12594 
  -13093   -13232   -12804   -12077   -11381   -11240   -12055   -13483 
  -14585   -14639   -13863   -12981   -12403   -12328   -12572   -12721 
  -12831   -13018   -13166   -13227   -12915   -12064   -11119   -10559 
  -10721   -11695   -12819   -13344   -13223   -12637   -11770   -11141 
  -11063   -11372   -12163   -13448   -14457   -14368   -13138   -11684 
  -11074   -11245   -11692   -12407   -13063   -13162   -12911   -12455 
  -11605   -10832   -11051   -12402   -13782   -13848   -12494   -10808 
   -9940   -10265   -11295   -12397   -13122   -13049   -12278   -11450 
  -11020   -11210   -12124   -13356   -14134   -13983   -13053   -12039 
  -11610   -11939   -12858   -13867   -14327   -14073   -13289   -12193 
  -11379   -11419   -12105   -12897   -13549   -13838   -13412   -12297 
  -11242   -11014   -11560   -12525   -13707   -14428   -14006   -12864 
  -12013   -11916   -12411   -13177   -13853   -14033   -13625   -13051 
  -12706   -12567   -12665   -13112   -13475   -13289   -12789   -12289 
  -11909   -11908   -12303   -12688   -12683   -12177   -11515   -11290 
  -11546   -11898   -12118   -12187   -12135   -11834   -11348   -11187 
  -11589   -12313   -13062   -13379   -13096   -12883   -13088   -13177 
  -12960   -12775   -12839   -13225   -13585   -13473   -13154   -12964 
  -12775   -12723   -13001   -13177   -12804   -12127   -11672   -11745 
  -12394   -13263   -13644   -13316   -12680   -12028   -11820   -12482 
  -13414   -13994   -14291   -14104   -13362   -12559   -12090   -12155 
  -12591   -12907   -13055   -13224   -13209   -12949   -12737   -12556 
  -12160   -11732   -11736   -12152   -12468   -12418   -12071   -11674 
  -11512   -11560   -11719   -11921   -11986   -11944   -11916   -11913 
  -11935   -11970   -12144   -12478   -12517   -11993   -11538   -11862 
  -12611   -13070   -13077   -12781   -12445   -12393   -12795   -13441 
  -13662   -13097   -12280   -11734   -11407   -11323   -11583   -11896 
  -12023   -12074   -12042   -11684   -11129   -11034   -11697   -12714 
  -13649   -14239   -14227   -13694   -13275   -13425   -13846   -14108 
  -14081   -13751   -13296   -13045   -13139   -13392   -13463   -13277 
  -13011   -12596   -12017   -11713   -11950   -12455   -12818   -12771 
  -12199   -11300   -10886   -11650   -12955   -13620   -13536   -13263 
  -12791   -12137   -12016   -12460   -12556   -12278   -12305   -12441 
  -12282   -12233   -12545   -12706   -12420   -12070   -11983   -12002 
  -11828   -11470   -11196   -11165   -11304   -11456   -11483   -11350 
  -11315   -11695   -12287   -12688   -12776   -12468   -11878   -11610 
  -12125   -13051   -13597   -13304   -12337   -11533   -11780   -12866 
  -13706   -13782   -13483   -13304   -13389   -13628   -13765   -13570 
  -13277   -13471   -14083   -14362   -13968   -13128   -12287   -12097 
  -12777   -13513   -13490   -12939   -12492   -12279   -12212   -12285 
  -12282   -12143   -12260   -12652   -13001   -13327   -13501   -13279 
  -12992   -13008   -13212   -13387   -13447   -13301   -12745   -11951 
  -11518   -11553   -11773   -12078   -12226   -11994   -11682   -11769 
  -12334   -13016   -13293   -12910   -12087   -11487   -11812   -12961 
  -13967   -14062   -13158   -11707   -10766   -11159   -12409   -13369 
  -13389   -12634   -11952   -11935   -12089   -11786   -11357   -11423 
  -11962   -12606   -13059   -13188   -13036   -12629   -12199   -12290 
  -12951   -13525   -13554   -13340   -13433   -13910   -14301   -14179 
  -13552   -12737   -12232   -12309   -12552   -12526   -12422   -12451 
  -12367   -11869   -11138   -10659   -10579   -10845   -11533   -12253 
  -12324   -11988   -12125   -12865   -13640   -14131   -14335   -14197 
  -13872   -13784   -13910   -13880   -13826   -13975   -14037   -13767 
  -13144   -12181   -11281   -11030   -11515   -12262   -12665   -12565 
  -12159   -11584   -11071   -10768   -10559   -10569   -11029   -11632 
  -11931   -11967   -11919   -11778   -11727   -12162   -13034   -13699 
  -13771   -13410   -12891   -12764   -13513   -14539   -14760   -14008 
  -13005   -12636   -13232   -14254   -14958   -14985   -14436   -13749 
  -13126   -12472   -11965   -11970   -12448   -12827   -12785   -12495 
  -12044   -11624   -11481   -11470   -11537   -11715   -11682   -11376 
  -11219   -11272   -11292   -11319   -11412   -11427   -11396   -11562 
  -11788   -11653   -11225   -10924   -11044   -11626   -12402   -13123 
  -13603   -13643   -13371   -13027   -12688   -12672   -13273   -14122 
  -14561   -14330   -13551   -12671   -12295   -12573   -13252   -14031 
  -14332   -13694   -12410   -11065   -10131    -9969   -10457   -11298 
  -12202   -12322   -11249    -9983    -9616   -10249   -11314   -12148 
  -12433   -12428   -12726   -13397   -13792   -13552   -13018   -12710 
  -12958   -13778   -14710   -15028   -14455   -13479   -12752   -12420 
  -12247   -12048   -11907   -12183   -13028   -13852   -13848   -12978 
  -11969   -11443   -11500   -11836   -11889   -11383   -10600    -9869 
   -9470    -9688   -10438   -11306   -11770   -11470   -10651    -9890 
   -9575    -9944   -10940   -12000   -12641   -12958   -13051   -12896 
  -12756   -12892   -13319   -13906   -14412   -14372   -13419   -12167 
  -11703   -12156   -12922   -13579   -14060   -14372   -14393   -13956 
  -13011   -11975   -11659   -12316   -13374   -14239   -14578   -14188 
  -13286   -12291   -11452   -11167   -11593   -12194   -12561   -12683 
  -12397   -11632   -10783   -10399   -10816   -11966   -13259   -13842 
  -13354   -12253   -11408   -11543   -12685   -14111   -15137   -15553 
  -15430   -15070   -14863   -14939   -15064   -14894   -14393   -13956 
  -13794   -13617   -13081   -12244   -11634   -11711   -12259   -12737 
  -13019   -13332   -13922   -14944   -15975   -16113   -15179   -13899 
  -12908   -12573   -13076   -13995   -14559   -14505   -14052   -13169 
  -11693   -10241    -9845   -10615   -11680   -12073   -11411   -10266 
   -9556    -9693   -10601   -11925   -13297   -14620   -15527   -15292 
  -13911   -12150   -10686   -10083   -10733   -12171   -13281   -13304 
  -12170   -10459    -9242    -9348   -10709   -12432   -13483   -13482 
  -12609   -11407   -10982   -12110   -14199   -16110   -17143   -16714 
  -14604   -11817    -9984    -9718   -10343   -11132   -11762   -11792 
  -10893    -9320    -7789    -7377    -8652   -10660   -11998   -12324 
  -11979   -11303   -10945   -11572   -12673   -13207   -13306   -13626 
  -14197   -14947   -15601   -15438   -14353   -13335   -13354   -14341 
  -15457   -15965   -15607   -14482   -12926   -11553   -10955   -11038 
  -11310   -11820   -12761   -13540   -13425   -12367   -10806    -9541 
   -9417   -10579   -12302   -13495   -13397   -12125   -10700   -10328 
  -11403   -13290   -14843   -14978   -13558   -11519    -9904    -9451 
  -10496   -12442   -13896   -13942   -12933   -11846   -11627   -12842 
  -15010   -16725   -16838   -15363   -13227   -11225    -9914   -10188 
  -12098   -14058   -14866   -14596   -13250   -10926    -8789    -8218 
   -9518   -11684   -13277   -13626   -12857   -11470   -10520   -10860 
  -12156   -13495   -14243   -14077   -13270   -12711   -12749   -12677 
  -11977   -11117   -10666   -10717   -11210   -11647   -11329   -10642 
  -10689   -11894   -13936   -15851   -16320   -14837   -12523   -11245 
  -11705   -13221   -14931   -15882   -15419   -14172   -13020   -12016 
  -11477   -12051   -13358   -14450   -14998   -14989   -14270   -13032 
  -11912   -11213   -10841   -10909   -11380   -11902   -12268   -12297 
  -11948   -11722   -11990   -12306   -12042   -11267   -10789   -11403 
  -12942   -14412   -14975   -14604   -13969   -13352   -12594   -12185 
  -12564   -13225   -13779   -14239   -14355   -13956   -13223   -12457 
  -12073   -12253   -12826   -13421   -13387   -12395   -11161   -10609 
  -10746   -11187   -12027   -13154   -13705   -13143   -11988   -11260 
  -11686   -13105   -14543   -15145   -15036   -14835   -14800   -14944 
  -14878   -13868   -12137   -10801   -10419   -11028   -12411   -13558 
  -13410   -12087   -10423    -9255    -9340   -10849   -12766   -13613 
  -12808   -11002    -9281    -8469    -9170   -11403   -14040   -15527 
  -15037   -12881   -10457    -9394   -10372   -12721   -14798   -15153 
  -13996   -12648   -11572   -10505    -9811   -10004   -10828   -11777 
  -12584   -12881   -12345   -11279   -10532   -10847   -12085   -13112 
  -13046   -12151   -11203   -10966   -11898   -13601   -15067   -15592 
  -15191   -14278   -13489   -13396   -13783   -14160   -14520   -14454 
  -13284   -11611   -10781   -11136   -12206   -13660   -14775   -14585 
  -13236   -11865   -11581   -12618   -13965   -14632   -14581   -14030 
  -13176   -12502   -12266   -11885   -10783    -9620    -9526   -10373 
  -11350   -12318   -13034   -12873   -12216   -12198   -12846   -13047 
  -12506   -12039   -11959   -11881   -11747   -11692   -11539   -11233 
  -11024   -11090   -11416   -11781   -12067   -12586   -13119   -12760 
  -11685   -11338   -12498   -14463   -15835   -15684   -14214   -12442 
  -11367   -11377   -12113   -12908   -13516   -14119   -14547   -14168 
  -12947   -11569   -10652   -10840   -12472   -14605   -15788   -15580 
  -14613   -13563   -12613   -11965   -11935   -12418   -13065   -13490 
  -13105   -11838   -10625   -10511   -11789   -13756   -14974   -14567 
  -13120   -11685   -10848   -11086   -12361   -13535   -13674   -13016 
  -12131   -11537   -11511   -11894   -12815   -14288   -15287   -14877 
  -13325   -11624   -10710   -11041   -12185   -13101   -13274   -12730 
  -11516   -10234    -9952   -11057   -12834   -14145   -14378   -13633 
  -12468   -11589   -11304   -11419   -11716   -12075   -12326   -12438 
  -12452   -12366   -12270   -12032   -11515   -11288   -11983   -13038 
  -13265   -12621   -11958   -11730   -12140   -13151   -14000   -13802 
  -12664   -11782   -12048   -13130   -14280   -14827   -14219   -12772 
  -11529   -11114   -11512   -12282   -12719   -12598   -12428   -12546 
  -12727   -12825   -12961   -13066   -13005   -12951   -13014   -12927 
  -12642   -12679   -13333   -13998   -13934   -13324   -12742   -12263 
  -11898   -11800   -11754   -11654   -11720   -11734   -11468   -11102 
  -10775   -10849   -11511   -12193   -12498   -12428   -11939   -11327 
  -11256   -12177   -13842   -15159   -14991   -13398   -11522   -10480 
  -10744   -11962   -13360   -14358   -14509   -13560   -12023   -10975 
  -11028   -11971   -13348   -14391   -14103   -12579   -11249   -11263 
  -12372   -13548   -14165   -14220   -13945   -13494   -12715   -11518 
  -10312    -9794   -10210   -11016   -11638   -11804   -11442   -11124 
  -11514   -12467   -13259   -13247   -12495   -11688   -11360   -11556 
  -11963   -12328   -12843   -13612   -14283   -14690   -14796   -14492 
  -14108   -14057   -14381   -14787   -14567   -13435   -12056   -11268 
  -11700   -13377   -15273   -16065   -15128   -12876   -10500    -9408 
  -10210   -12027   -13640   -14612   -14586   -13333   -11649   -10685 
  -10894   -12056   -13591   -14667   -14585   -13532   -12279   -11052 
  -10034    -9933   -10831   -11932   -12575   -12538   -12120   -11859 
  -11954   -12374   -12881   -12954   -12496   -12144   -12424   -13062 
  -13401   -13124   -12325   -11288   -10478   -10172   -10184   -10501 
  -11389   -12486   -12911   -12361   -11419   -10875   -11106   -12070 
  -13342   -14175   -14003   -12981   -11988   -11815   -12456   -13281 
  -13625   -13510   -13347   -12992   -12267   -11508   -10967   -10862 
  -11466   -12488   -13169   -13005   -12129   -11267   -11211   -12179 
  -13714   -14901   -14956   -13914   -12498   -11624   -11793   -12660 
  -13695   -14566   -14713   -13734   -12174   -11180   -11265   -12135 
  -13544   -15009   -15538   -14764   -13410   -12491   -12563   -13417 
  -14237   -14256   -13531   -12769   -12363   -12186   -12096   -11958 
  -11695   -11661   -12259   -13161   -13614   -13340   -12598   -11919 
  -11908   -12579   -13346   -13747   -13513   -12685   -11958   -12039 
  -12792   -13460   -13549   -13092   -12348   -11851   -11955   -12144 
  -12112   -12310   -12729   -12992   -13061   -12908   -12513   -12083 
