Origin Time       2024/04/02 04:24:00
Lat.              40.133
Long.             141.712
Depth. (km)       71
Mag.              6.0
Station Code      AOMH12
Station Lat.      40.5846
Station Long.     141.1547
Station Height(m) -15
Record Time       2024/04/02 04:24:52
Sampling Freq(Hz) 100Hz
Duration Time(s)  280
Dir.              2
Scale Factor      2942(gal)/8224139
Max. Acc. (gal)   28.428
Last Correction   2024/04/02 04:24:52
Memo.             
[...]
  132985   132984   132980   132981   132985   132981   132976   132980 
  132985   132987   132987   132985   132983   132980   132980   132983 
  132985   132983   132980   132983   132984   132983   132985   132983 
  132977   132981   132988   132988   132988   132985   132985   132988 
  132984   132979   132980   132983   132981   132981   132983   132981 
  132981   132984   132984   132983   132983   132983   132981   132983 
  132984   132984   132984   132984   132984   132985   132985   132984 
  132984   132987   132985   132981   132983   132983   132981   132983 
  132985   132983   132981   132984   132985   132985   132984   132984 
  132984   132985   132987   132985   132985   132988   132988   132984 
  132984   132987   132984   132983   132985   132988   132987   132983 
  132985   132988   132985   132984   132983   132983   132987   132984 
  132983   132985   132984   132981   132985   132984   132981   132983 
  132984   132983   132987   132985   132981   132983   132985   132987 
  132985   132984   132985   132983   132983   132987   132987   132984 
  132984   132984   132981   132983   132984   132983   132987   132988 
  132985   132987   132985   132983   132987   132988   132985   132985 
  132985   132983   132983   132981   132980   132984   132985   132984 
  132987   132987   132984   132985   132985   132981   132981   132983 
  132984   132985   132983   132983   132984   132983   132984   132984 
  132983   132981   132981   132981   132984   132988   132983   132979 
  132983   132983   132984   132987   132979   132977   132983   132977 
  132979   132983   132980   132981   132984   132980   132979   132979 
  132977   132979   132980   132979   132979   132981   132980   132975 
  132976   132979   132979   132977   132977   132981   132981   132977 
  132979   132983   132980   132977   132980   132980   132977   132980 
  132984   132981   132980   132981   132983   132981   132977   132977 
  132983   132983   132981   132980   132979   132980   132981   132984 
  132984   132983   132980   132977   132979   132980   132977   132977 
  132981   132981   132979   132981   132983   132980   132983   132981 
  132976   132977   132983   132980   132979   132983   132981   132979 
  132983   132985   132981   132981   132981   132979   132981   132981 
  132977   132983   132985   132984   132983   132984   132984   132984 
  132980   132979   132980   132979   132973   132966   132958   132943 
  132922   132906   132894   132880   132862   132867   132919   132961 
  132933   132934   132958   132925   132923   132953   132966   133002 
  133020   133043   133100   133134   133150   133182   133212   133205 
  133115   132929   132725   132544   132370   132186   132098   132414 
  132888   132946   132939   133085   132918   132580   132517   132761 
  133039   133180   133170   132885   132516   132470   132752   133119 
  133458   133843   134157   134145   133978   133836   133470   132989 
  132715   132318   131720   131552   131971   132499   132567   132283 
  132375   132256   131197   130692   131453   131922   131826   132178 
  132985   133756   134268   134717   135044   134657   134146   134285 
  134262   133698   132891   131862   131247   131145   130898   131257 
  132804   133639   132813   132705   133778   133303   132004   132453 
  133008   132173   132097   133034   132273   130690   131620   133432 
  133139   132534   133019   132233   130246   130859   133631   133454 
  130742   130782   133151   134346   135018   136448   137137   135093 
  131900   131031   131140   129780   129859   132780   134624   134084 
  133492   133540   134204   134871   134061   133533   134947   135996 
  136236   135684   132088   127824   126669   126520   125977   127788 
  131035   131440   130542   131553   132256   133095   135716   137234 
  138199   139045   137139   135541   136263   135733   133887   133054 
  133303   133597   133080   132858   133119   131607   129223   128131 
  128274   129778   131666   133273   134746   134302   132108   129605 
  128356   131400   136425   138794   138422   136297   135207   136100 
  135112   133012   133299   134304   134418   134797   135522   136177 
  136278   134866   133046   132705   132466   131719   133218   133726 
  128256   123360   124366   126651   129560   134007   135450   133034 
  132100   136741   143013   142960   138163   135994   135291   133200 
  133351   134696   133513   132889   132590   131083   133020   135295 
  133092   134175   138998   137199   131519   130208   130422   129250 
  130607   135635   138291   136023   135068   135621   133230   133841 
  139002   138661   133666   133370   136089   135415   132151   128382 
  123958   121404   124063   131178   137405   139059   136883   132725 
  132004   135500   134335   128676   126792   129386   134156   139009 
  141031   141274   141212   139395   136873   135184   132941   130941 
  130971   131849   132871   133120   130446   126582   126189   130383 
  134438   133682   131275   132813   135064   133212   131089   131264 
  131178   130245   129232   130117   134580   139677   139858   133857 
  127847   127959   133527   138343   137444   133909   131522   128957 
  126692   126210   126725   127514   128333   129076   130836   133843 
  134134   132117   132918   133720   132297   133126   135554   136107 
  135259   135805   139176   141049   138271   135292   133901   130740 
  127309   128441   131483   129735   126557   127413   127256   124348 
  124794   129539   135353   138920   138153   135957   134994   134306 
  133378   132258   131387   131427   133034   136661   138893   135379 
  128761   125672   127646   131751   135850   137866   136894   134958 
  133020   130684   129374   130146   130343   128517   128933   133571 
  137902   138511   136054   133290   132514   132736   133875   136534 
  136129   132116   131433   133373   132570   131880   134762   137025 
  134357   130254   129600   129231   126436   126620   131414   134265 
  131965   128700   129173   132756   136092   139041   141586   141170 
  139216   138267   136143   133095   131773   130590   128353   127746 
  129770   131623   133031   136372   139411   138936   136298   133807 
  133159   134175   133933   132328   131652   131456   130877   129681 
  127758   127075   129209   132979   136231   137980   137575   134522 
  131464   130584   130027   128733   128285   129585   130472   129524 
  128856   129270   129683   130470   132721   135565   137828   140486 
  142217   140225   136954   136318   135704   131581   128116   128205 
  128310   128151   129906   132561   134411   134975   135237   135684 
  135301   134288   133131   131769   130894   131292   132543   132838 
  132767   134896   138140   139831   139746   138100   135027   132391 
  131248   129706   128295   129585   130470   128848   129235   131792 
  133446   134917   135874   135473   135071   135033   134653   133779 
  133405   134272   134700   134044   133482   133002   133353   134327 
  133714   132582   133100   133999   133763   133027   132538   131855 
  130121   128907   130997   133922   133837   133389   134713   134327 
  131588   130674   132455   132970   131753   132956   136399   138591 
  139137   138260   135070   130175   126065   124733   125914   128301 
  130669   131834   131535   130580   129861   129975   131537   134644 
  136983   135997   132671   130060   130536   132746   133359   133253 
  133847   133624   133042   133479   134098   133641   132225   130596 
  128818   128713   131271   132509   130985   128640   126262   127083 
  131203   133548   134673   136186   135627   134775   135689   135974 
  136336   139403   142906   142955   140024   136732   133955   131788 
  130443   129589   127831   125641   126326   128619   128385   127603 
  128364   129104   131517   135837   137205   134762   131863   129868 
  128888   128838   129917   132953   137011   139631   139311   136431 
  132892   130701   131085   133739   135805   135444   135051   136291 
  137147   135803   133672   133548   134352   134370   135938   138411 
  138021   135176   132644   131863   132298   131892   130542   130685 
  132817   134678   135222   135835   136387   135086   133286   132784 
  132661   132992   133650   132588   129942   128355   128777   129181 
  128484   128611   130293   132117   133471   134522   135094   134253 
  133011   133860   135390   135136   134056   132889   130931   128872 
  128023   128623   129802   130202   130257   131511   133088   133257 
  133092   133848   134439   134812   136163   138570   140773   140501 
  137625   134298   132043   132219   133535   133012   132355   134157 
  136398   136734   135522   133887   133266   134042   134568   134343 
  133319   130401   127184   126036   126513   128125   130045   130719 
  130643   130958   131880   133056   134449   136649   137682   135546 
  132763   131261   130500   130658   131716   133686   136107   137847 
  138726   136915   132151   130023   132290   133262   130793   128954 
  129764   130758   131016   132294   133866   134578   136129   137504 
  136150   134601   135044   134870   132308   129180   127521   126609 
  126245   128364   130879   129633   127766   130026   133627   135336 
  135444   134171   132605   131761   131818   132163   131793   133007 
  136355   137438   136437   136659   137322   137654   138141   138160 
  137246   135943   135392   135272   134040   132301   131430   131264 
  131939   133119   133197   132923   134665   137262   137501   135247 
  133008   132499   132551   130508   127009   124976   124348   124796 
  127143   129216   130088   132116   134441   134523   133417   133567 
  134669   134339   132552   131637   131693   131754   133423   137022 
  138667   136539   134597   136151   138523   138146   136053   133593 
  130833   130188   131708   132247   132799   135151   136918   135851 
  132659   129656   128110   128119   130577   134492   136308   135166 
  132952   131097   130786   131909   133348   135205   137255   137729 
  135666   132922   131306   130576   131464   133720   134862   134866 
  135005   135376   135704   135054   133945   134230   135045   135346 
  136281   136706   134461   131124   129608   130125   130864   130978 
  131064   131720   132823   133380   133026   133062   133743   133790 
  133921   134244   132011   128556   127930   128846   129847   133076 
  136642   136297   133635   132729   132784   130945   129078   129813 
  130573   130223   131419   132723   131083   128590   128051   129168 
  131787   134665   134898   133097   132034   132483   132711   131080 
  130063   131629   133720   135083   134896   132661   130607   130080 
  130971   133066   133753   131797   130928   133119   135037   134763 
  134646   135419   135594   135770   136540   136456   135665   136156 
  137187   136626   135835   136239   136755   137324   136706   133289 
  130277   129583   129454   130007   130419   129795   130716   132819 
  133240   132555   132043   131926   131893   131233   130519   130519 
  131403   133203   135025   134657   131484   129172   129703   131126 
  133000   134743   134771   134038   133930   133888   132931   130747 
  128194   126868   127319   128981   131588   134531   135861   135120 
  134480   134946   136186   138287   139973   138878   134900   130786 
  128838   128607   128241   127269   127639   130189   132702   134342 
  135627   135064   133560   135459   139588   140444   139434   140107 
  138375   133111   131572   133828   133261   131552   132968   134577 
  133300   131306   130727   129851   127666   126914   129039   131353 
  131488   131145   132115   132715   132375   132715   134071   135820 
  136648   135939   135851   136668   135459   133353   133965   135441 
  134014   130896   129304   129604   130982   133593   135950   135768 
  135234   136686   137596   137004   135796   132865   129128   127560 
  128852   131103   132148   131012   128884   128775   131134   133300 
  133921   133223   131715   131494   134175   137181   137575   135973 
  133240   130054   129031   130851   132220   131629   131291   132224 
  132993   132537   131252   130528   131480   133645   135001   134289 
  132332   129250   126117   125959   126677   125459   126846   130943 
  130812   129189   132482   136540   138230   139764   139419   136825 
  135126   134323   133533   132941   132247   131967   133012   135502 
  137006   134048   129730   128804   128850   128946   131207   133195 
  133344   133910   136709   140590   141012   137778   135409   134816 
  136301   138896   138613   137447   137766   135105   129536   126019 
  125685   127877   131629   135039   135842   132804   126681   118053 
  109332   103728   101611   103750   108985   113711   117131   119171 
  121096   124564   127380   130619   138546   149778   160618   168658 
  172685   172681   168000   161208   157599   157940   160817   166749 
  171783   168644   158375   148100   141806   138568   134312   125451 
  111192    95827    85572    77719    66422    58264    63567    81525 
  104016   124611   141851   155235   163296   168284   172723   175158 
  174712   170623   163578   157607   150840   139614   129062   122635 
  115731   106655   100201    99639   103727   109860   114097   112947 
  107619   102844   104472   116378   136275   159557   182896   199497 
  202701   195779   187153   180522   176327   173732   167973   155160 
  137218   117015    96619    77819    62010    53520    54950    63447 
   76685    94787   117180   139060   153225   157176   155961   157315 
  162326   166683   169572   170445   167198   162973   164111   173196 
  183451   182398   169353   153335   135959   117319   101198    87134 
   76761    79069    95567   113273   120174   115041   103900    97355 
  101306   109336   112692   110964   113036   127750   149100   162918 
  165335   163586   166918   175868   180860   174725   158610   138611 
  122250   114276   112985   113485   116409   127764   147472   164420 
  168814   164991   162642   160123   148724   128505   108186    92314 
   79312    72585    79887   100665   126454   151185   172039   182096 
  176083   163027   155457   152095   142742   123646   101028    81400 
   70360    73700    86163    95418    99459   102532   105646   113069 
  128142   142429   149403   154072   158025   159003   161677   167900 
  170222   165667   158882   152362   145783   140340   140557   147321 
  154797   160618   163019   157318   144514   128351   111863    98523 
   86838    75204    72515    85869   104070   112000   110107   107165 
  107819   113657   124926   136979   141756   135402   124605   122764 
  132325   140836   142512   143676   147999   155059   164003   171296 
  171983   164509   152913   142904   138631   139703   139507   136173 
  136294   142371   149925   153615   151518   146943   140877   128756 
  111348    94599    80701    71986    73191    85263   103820   122546 
  138133   149231   151668   144953   137231   134343   131980   124968 
  115977   110141   112789   127336   145550   156784   162446   168521 
  176272   181051   176666   162653   144413   129814   124434   124735 
  120680   110199   102662   103073   109250   121400   135259   142646 
  146254   152034   155488   151804   146076   143405   141409   140024 
  143228   148000   147596   139599   123903   105462    94279    93634 
   98077   102514   104782   104445   104116   109962   125216   142096 
  150070   149573   147995   149520   153065   154627   152849   152940 
  159333   168058   174172   177083   174166   161867   141469   120280 
  109355   111072   116256   119527   121583   120707   115357   109571 
  106870   105545   106201   109800   111522   109082   104692   100348 
  101201   110135   121161   130567   140300   149862   158379   166390 
  173524   177207   172928   161443   149681   143112   143830   148975 
  151706   148433   139814   128950   120343   114936   112083   113590 
  117782   120047   120471   120546   119765   119983   124383   132660 
  141146   145496   142636   134441   128698   129528   132468   135673 
  141744   146279   144526   141328   138917   133758   128119   125235 
  123650   124046   127338   131581   135626   137247   134523   131473 
  132790   138086   145153   150165   148554   142414   138935   140042 
  142272   144377   147324   148941   145964   141075   138389   134262 
  124594   114743   112021   116768   123747   127450   127526   126848 
  127591   130858   132935   129809   125618   125409   127207   127845 
  128379   128862   126422   123268   124748   128898   131172   132842 
  134482   133077   127849   120721   116143   118652   126951   136472 
  144209   149153   151830   151699   147753   141268   134121   127672 
  122035   115936   110663   108359   106868   105584   109571   120128 
  131159   138377   142794   145351   146659   147868   148613   149500 
  150138   147298   142078   139158   140429   144310   147228   147353 
  145671   142726   139287   137008   134165   128736   125562   127024 
  125722   119307   115169   116590   120854   126854   134511   141658 
  146661   149704   151413   152695   151563   146183   140356   136840 
  134546   131778   125918   117433   110978   109877   114694   123141 
  131318   136746   138217   137546   138007   139324   140778   141948 
  141239   139969   139904   140327   141631   143214   142812   141791 
  142476   143434   142101   138294   133435   127699   121895   118952 
  119583   121682   123849   125251   124661   122431   121471   124260 
  129774   135525   141394   147576   151108   149791   144752   135974 
  125042   117612   115484   116519   118342   117979   116228   116378 
  118978   123066   126499   127908   129078   130667   131939   133324 
  134198   133909   134221   136518   139056   139553   138310   136787 
  135835   135359   135286   136782   139552   141162   140809   139217 
  136888   135276   135280   134346   130824   127668   126570   125845 
  124470   121882   118793   117482   117347   116872   118655   124441 
  130416   133439   134272   133980   133951   135669   139716   145570 
  150028   150844   149184   145598   141269   139251   139029   136848 
  131467   124798   119570   117432   118075   120483   122612   122137 
  121487   125188   130630   131404   128349   127618   130536   134158 
  137346   139978   142172   145305   149476   152494   152459   149053 
  143004   137438   136302   137940   138524   138245   137145   136436 
  139249   142593   141539   137830   135291   134585   134981   135627 
  135144   133915   133844   134505   135567   137459   137739   135244 
  132220   130206   129905   131780   134667   135949   134435   133130 
  135540   139885   142533   142943   141723   139942   138275   136115 
  134428   133687   132759   131869   129922   126226   123662   123468 
  124942   127090   127458   125482   122690   120100   119206   120715 
  122685   123807   125043   126392   126711   126856   129504   134369 
  137934   140147   143364   146537   147681   147502   146614   143637 
  139515   136534   133983   132399   132858   132706   131292   131433 
  134040   137442   138902   137150   133307   128650   125061   124433 
  125354   125018   123908   124267   125658   126802   128541   131036 
