Origin Time       2024/04/02 04:24:00
Lat.              40.133
Long.             141.712
Depth. (km)       71
Mag.              6.0
Station Code      AOMH17
Station Lat.      40.4492
Station Long.     141.3374
Station Height(m) -49.1
Record Time       2024/04/02 04:24:50
Sampling Freq(Hz) 100Hz
Duration Time(s)  209
Dir.              2
Scale Factor      3923(gal)/8224838
Max. Acc. (gal)   24.118
Last Correction   2024/04/02 04:24:50
Memo.             
[...]
   -9896    -9895    -9895    -9896    -9895    -9892    -9892    -9894 
   -9895    -9894    -9895    -9898    -9896    -9895    -9896    -9896 
   -9895    -9896    -9899    -9898    -9895    -9896    -9898    -9895 
   -9895    -9896    -9895    -9895    -9898    -9895    -9894    -9896 
   -9898    -9896    -9896    -9895    -9896    -9898    -9896    -9895 
   -9895    -9894    -9898    -9898    -9895    -9896    -9896    -9892 
   -9896    -9898    -9895    -9896    -9899    -9898    -9898    -9898 
   -9896    -9896    -9896    -9895    -9895    -9898    -9898    -9896 
   -9898    -9896    -9896    -9896    -9895    -9896    -9896    -9896 
   -9896    -9898    -9896    -9896    -9895    -9896    -9898    -9898 
   -9896    -9895    -9895    -9896    -9896    -9895    -9895    -9895 
   -9896    -9898    -9899    -9899    -9895    -9894    -9896    -9898 
   -9895    -9895    -9895    -9898    -9898    -9896    -9898    -9898 
   -9898    -9898    -9895    -9894    -9895    -9896    -9896    -9898 
   -9898    -9899    -9898    -9895    -9895    -9896    -9896    -9895 
   -9895    -9898    -9896    -9894    -9896    -9898    -9896    -9896 
   -9898    -9898    -9898    -9896    -9896    -9896    -9898    -9896 
   -9896    -9898    -9898    -9895    -9895    -9895    -9894    -9896 
   -9898    -9899    -9899    -9894    -9892    -9895    -9896    -9895 
   -9898    -9896    -9892    -9896    -9898    -9896    -9896    -9894 
   -9894    -9896    -9895    -9895    -9896    -9896    -9898    -9896 
   -9896    -9896    -9894    -9895    -9899    -9898    -9896    -9896 
   -9896    -9896    -9898    -9896    -9898    -9898    -9895    -9896 
   -9898    -9896    -9898    -9898    -9895    -9895    -9898    -9899 
   -9896    -9892    -9894    -9896    -9896    -9896    -9896    -9894 
   -9895    -9896    -9896    -9896    -9895    -9895    -9896    -9896 
   -9896    -9896    -9899    -9899    -9896    -9898    -9899    -9898 
   -9898    -9898    -9896    -9898    -9898    -9896    -9898    -9900 
   -9899    -9896    -9895    -9895    -9896    -9899    -9898    -9895 
   -9896    -9896    -9896    -9899    -9898    -9898    -9898    -9898 
   -9898    -9896    -9895    -9896    -9898    -9898    -9896    -9896 
   -9896    -9898    -9895    -9895    -9898    -9898    -9895    -9896 
   -9898    -9898    -9896    -9896    -9895    -9895    -9895    -9896 
   -9898    -9896    -9896    -9899    -9898    -9896    -9898    -9898 
   -9896    -9898    -9898    -9895    -9896    -9896    -9895    -9896 
   -9898    -9896    -9895    -9898    -9896    -9895    -9896    -9896 
   -9895    -9896    -9898    -9899    -9900    -9896    -9894    -9898 
   -9902    -9898    -9895    -9896    -9898    -9895    -9894    -9895 
   -9896    -9898    -9898    -9896    -9898    -9896    -9898    -9899 
   -9896    -9894    -9895    -9896    -9898    -9898    -9898    -9898 
   -9895    -9896    -9898    -9896    -9898    -9899    -9898    -9898 
   -9898    -9895    -9894    -9896    -9896    -9895    -9894    -9896 
   -9896    -9895    -9896    -9895    -9896    -9896    -9896    -9898 
   -9898    -9896    -9898    -9899    -9899    -9898    -9899    -9899 
   -9896    -9896    -9899    -9898    -9896    -9898    -9898    -9898 
   -9898    -9895    -9894    -9895    -9896    -9896    -9898    -9900 
   -9898    -9895    -9899    -9899    -9896    -9896    -9896    -9895 
   -9898    -9898    -9895    -9896    -9896    -9895    -9896    -9896 
   -9896    -9896    -9898    -9898    -9896    -9894    -9896    -9898 
   -9895    -9894    -9898    -9896    -9892    -9894    -9896    -9896 
   -9896    -9895    -9894    -9894    -9895    -9895    -9894    -9896 
   -9898    -9898    -9896    -9895    -9896    -9896    -9894    -9898 
   -9899    -9895    -9896    -9898    -9896    -9895    -9896    -9898 
   -9899    -9896    -9894    -9895    -9896    -9895    -9896    -9899 
   -9898    -9896    -9898    -9896    -9896    -9898    -9899    -9899 
   -9896    -9894    -9895    -9895    -9898    -9900    -9902    -9898 
   -9895    -9896    -9895    -9895    -9895    -9895    -9896    -9898 
   -9898    -9896    -9896    -9898    -9896    -9896    -9898    -9899 
   -9896    -9896    -9898    -9898    -9900    -9909    -9923    -9969 
  -10058   -10185   -10327   -10443   -10512   -10540   -10493   -10361 
  -10318   -10532   -10727   -10477    -9965    -9725    -9705    -9378 
   -8618    -8036    -8480    -9610    -9678    -8523    -8536   -10330 
  -11392   -10777   -10539   -11797   -13591   -14627   -13782   -11983 
  -11389   -11068    -9402    -7431    -6855    -8334    -9853    -9945 
  -10663   -11811   -11558   -10795   -10188    -9948    -9383    -7998 
   -9535   -12911   -11074    -7227    -8972   -11098    -6615    -2303 
   -4730    -8270   -11065   -15849   -15890   -10687   -11106   -15427 
  -14708    -9867    -6104    -8903   -17477   -20846   -16135   -12384 
  -10428    -5881    -4066    -5621     -693     4876    -2666   -11645 
   -8733    -8329   -14872   -12648    -7326   -10399   -10889    -6172 
   -8775   -17123   -19786   -13833    -5977    -5591    -9294    -4654 
    1200    -4928   -11982   -12179   -15327   -18652   -15820   -13617 
  -12699    -9104    -6639    -8217    -9624    -6072    -4326    -9520 
   -8804    -1020     -255    -5410   -11797   -17528   -16128   -11712 
  -11060   -12463   -17942   -21479   -10712     -155    -5883   -11649 
   -9875   -12970   -16671   -10315      862     4970    -1669    -8510 
   -8228   -14214   -28806   -23577     2307    11190     -980   -10102 
  -11543    -7946    -1856     -676    -6151   -13085   -12933     -156 
   12694     8073     -754     4147     1474   -19390   -26149   -14022 
  -12048   -17358   -14385   -10563   -12671   -14206    -7107    -2828 
  -18769   -34929   -25837   -13097   -14982    -7585     4797    -5130 
  -15527   -12995   -15411   -15086   -17852   -29166   -12677    16742 
    7287   -16012   -19541   -22148   -21459   -12089   -12718   -11315 
     122    -3358   -14440   -18895   -30470   -29843    -6957    -4423 
  -19553   -17041    -8702    -7743    -6887    -3230     5868     8309 
   -4287   -10438    -7877   -14207   -16144    -9886   -14758   -16816 
  -10062   -15589   -19824   -12129    -8029    -1553     6208      797 
   -3248     3037     -584   -17406   -27465   -25898   -25799   -27292 
  -21149   -14461   -13525   -12113    -6914     -517     -758    -8050 
  -12671   -12178    -9139    -5142     -965     1921     1637     4020 
    6127    -4949   -14501    -7603    -4814    -9845    -5248     2161 
    1513    -7708   -21317   -27114   -22916   -15612   -10052    -6706 
   -1475     -731    -7765   -13803   -15334   -11014    -7335    -8611 
   -7496    -6774    -4953      812    -1300    -6839    -7082   -10713 
  -14781   -10922    -9967   -15853   -15619   -15055   -19156   -11858 
   -5787   -16119   -17857    -8434    -8756   -10216    -3937    -1046 
   -6986   -15211   -17922   -16213   -12764    -7060    -2562    -1104 
   -5557   -15291   -17795   -12617    -6021     2126     1298    -5834 
   -5146    -7029   -13649   -13047   -13323   -17267   -13529    -6887 
   -9807   -14914   -11263    -9774   -10050    -1830    -4779   -19394 
  -19512   -16919   -25978   -30388   -22072   -10665    -8610   -10550 
   -4293    -1737   -10983   -16027   -12236   -12195   -13763    -6805 
   -3549   -14246   -20453   -13189    -7676    -8623   -12449   -20656 
  -22449   -12132    -7110    -9348    -7269    -7371   -12363   -12766 
   -8222    -5614    -9144   -13421    -8754       82     1529    -2151 
   -4882    -6482    -6193    -7385   -12000   -14505   -15434   -13383 
   -6134    -5876   -11082    -8179    -5436    -8442   -10066   -12116 
   -8429     2674    -1345   -14883   -10759    -1290     -741       25 
   -4155   -11713   -10420   -10374   -13954    -8903    -5568   -11781 
  -12700    -9031   -10774    -9225    -5809   -11753   -15643   -11461 
  -10524   -10801    -7963    -6805    -9018   -13363   -15182   -11681 
   -6359    -4600    -8599   -10883   -12529   -18643   -16275    -8738 
  -10551   -13873   -16395   -17883   -10596    -5198    -8039    -8738 
   -7260    -6744    -6089    -8067    -9747    -5814    -3219    -7265 
   -8324    -3446    -4297   -11214   -15264   -18594   -22091   -19624 
  -12603    -6762    -6195   -11114   -12897    -7153    -2847    -4885 
   -5697    -1360      579    -3690    -8299   -10563   -12522   -12563 
   -8982    -7792   -10891   -10616   -10339   -14297   -14202   -13879 
  -17483   -14754    -8463    -7034    -7938   -11836   -18021   -18339 
  -13922   -14219   -17176   -12634    -4876    -5929    -9864    -7897 
   -8675   -12915   -10652    -6890    -7006    -5563    -4014    -6775 
  -11900   -15673   -15129   -11811   -10126   -11742   -14769   -13328 
   -8464    -8652   -10138    -8314    -7794    -5104    -2008    -4641 
   -5979    -8698   -13286    -6027     2038    -2704    -6440    -5892 
  -11319   -17829   -16424   -12418   -11581    -9813    -8796   -12279 
  -16241   -18391   -14967    -7213    -6451    -9239    -7911   -10632 
  -15970   -15357   -15153   -17863   -16699   -14924   -15070    -8046 
    3605     6480      665    -9528   -18014   -13738    -5544    -6714 
   -9344    -9506   -10008    -6021    -1143    -3330    -7392    -9891 
  -12792   -10778    -6889   -10669   -15147   -14187   -12933    -9660 
   -4693    -7415   -14172   -10847    -4518   -11044   -18937   -14632 
   -7009    -4800   -10328   -17482   -16659   -11935    -9744   -13257 
  -19101   -15508    -9243   -11850   -15091   -11125    -3200    -4961 
  -13609    -8313    -3079    -9587    -6273    -3275   -11175    -7195 
    -257    -5509    -5699    -1417    -2751    -4290    -6358    -7030 
   -3497    -2748    -5917   -10517   -15168   -14770   -11226   -15039 
  -22400   -21189   -19818   -22054   -17136   -12812   -12749    -8860 
   -6586    -5394    -2763    -4467    -6100    -8199   -14355   -16837 
  -18347   -20318   -15076   -12090   -15271   -14292   -13711   -13344 
   -8345   -11607   -18642   -12885    -7165   -12341   -15487   -10995 
   -7638    -9539    -6976     2232     4580     2830     3338    -4874 
  -12160    -4970    -1067    -2296     2816     1787    -4943    -6679 
  -10879   -14222    -9082    -6061    -8384    -8783   -11859   -19429 
  -19665   -14650   -15404   -17979   -18769   -20860   -22072   -17957 
  -10516    -7747   -10447   -12228   -10709    -7434    -6674    -8108 
   -8133   -10453   -13000   -10875    -9864    -9035    -4156      407 
    3172     1102    -7778   -13208   -11111    -8970    -7152    -4471 
   -6679   -12995   -15346   -11884    -8977   -12004   -17828   -20042 
  -16972   -12094    -9548    -9521   -12680   -15796    -9715    -3339 
   -9624   -14893   -11940   -10652    -7952    -5111    -8314    -6872 
   -2481    -7557   -13605   -12974    -9292    -5078    -4629    -7303 
  -12538   -20321   -21644   -19693   -22819   -21529   -12816    -7485 
   -7978    -7608    -4234    -3437    -4733    -2920    -1968    -3697 
   -3792    -6477   -12208   -12467   -11421   -12147    -6768    -2424 
   -6026    -7118    -2581     1405     -958   -10091   -12386    -4001 
   -1917    -5922    -4627    -7007   -13532   -13549   -14933   -17574 
  -13354   -11604   -12752   -11938   -15148   -15230    -8122    -6528 
   -9019    -8272   -10168   -15414   -15133   -10023    -8776   -11275 
  -13760   -15280   -13680   -12108   -13255   -13610   -14899   -15226 
   -9134    -5238    -7284    -6511    -4765    -5421    -5329    -7231 
  -11218   -12255   -11184   -10102    -9309    -7975    -4990    -6686 
  -14044   -14459    -8392    -6095    -5255    -4946    -7785   -10671 
  -14027   -16657   -13783    -9868    -9663    -9198    -7912    -7831 
   -4140     1544      -21    -4283    -6042   -11657   -16052   -12814 
  -11842   -16992   -18752   -13269    -8764   -10639   -13964   -16542 
  -17612   -14123   -11740   -13876   -13014    -9261    -9624   -12672 
  -14372   -14894   -12779    -7950    -6532   -10284   -13020   -11376 
   -8299    -8446   -10550    -7735    -2894    -6156   -12064    -8831 
   -6018   -13127   -13413    -4384    -7885   -16490   -11973    -7865 
  -12271   -14149   -12125    -9090    -6278    -8279   -12850   -11126 
   -6405   -10152   -17595   -18886   -16039   -11472   -10027   -12843 
  -10227    -4764    -4179    -6660   -11522   -12617    -7002    -3210 
      98     3287     -638    -5244    -6145    -8503   -10017    -8156 
   -5695    -7183   -13304   -16028   -14227   -12048    -7074    -4650 
  -10052   -14341   -14449   -16075   -19535   -21817   -20660   -18110 
  -18211   -16492    -6889     1329    -3160   -10076    -5474     2118 
   -1848   -11781   -14247   -11564   -11013   -15907   -24518   -23849 
  -17599   -20505   -23380   -23950   -27314   -20170    -8783    -9734 
  -10120    -4550    -7843   -14185   -12753   -13907   -18129   -13185 
   -4295     1529    10346    18098    13949     1884    -9950   -17177 
  -15187    -9825    -6103     -891    -4972   -17922   -19090   -16676 
  -21400   -18030   -12009   -12178   -10705   -16275   -23097   -11816 
    -425     1628     9134     7693    -5805    -7551    -3897    -3792 
   -2061    -5387    -7938      423    14242    18619    -6065   -38061 
  -34356   -14022   -13656   -20918   -20679   -14769    -2546      876 
  -10578   -15815   -11684    -4843    -3763   -22697   -42897   -41187 
  -18063    18882    40667    31550    10083   -11192   -25346   -33982 
  -41215   -33268   -19099   -20493   -23438   -22851   -28279   -20270 
   -1220    -4337   -23314   -29419   -14277    13599    23803      618 
  -12627     9108    25656    21378    12569     -870   -10327    -9447 
   -5356      375      445     -571    10192    18111    14083    10851 
    4515   -12883   -23834   -18678   -22157   -39289   -32845    -2166 
    9907     3422     2722    -3894   -22671   -31185   -17477     5379 
   11103    -3192   -12708    -9020     6837    28861    31104    18918 
   22948    29247    17016     2270    -9228   -23479   -27141   -19342 
  -22424   -38435   -48965   -46203   -31887   -12955    -6135   -22146 
  -44717   -44790   -20125        1    -4986   -19494   -16187    -1498 
   -8806   -39937   -57225   -48335   -40624   -41156   -25016    11975 
   33424    17335    -1680     5105    14674    13756    10534    -8002 
  -40248   -57569   -57310   -54008   -45813   -19869    19363    36945 
   20023    -8712   -34717   -43337   -36423   -35742   -28591   -10161 
   -5819    -4482     3341    -3380   -11677      966    18941    23643 
   16148     1314   -17955   -30905   -32499   -31602   -27911   -21595 
  -13936     4843    18677     3524   -22150   -29637   -14634     4282 
    2542   -15076   -26557   -31108   -32394   -24952   -13386     -859 
   12370    13656     4329    -1721    -6115    -8274    -4176    -1941 
     733    11414    14867     6677     9926    15167    -5436   -25882 
  -18377   -10791   -21446   -29623   -19167       99     5628    -4664 
  -15375   -25587   -33710   -30352   -21951   -13459     -999     5757 
    1244    -5526   -13900   -17467    -2690     9278    -1069    -9617 
  -10253   -14899   -11715    -3492      572     5138     1016    -6048 
   -3650   -12437   -31314   -34195   -28015   -20680    -5043     6286 
    8145     7584    -9157   -34947   -39290   -31657   -28225   -16992 
   -5074    -8783   -14399    -9053    -4368    -5035    -2506    -3703 
  -16399   -24227   -17518   -12105   -17486   -23966   -23942   -20821 
  -15441    -2111    12911    14470     1518   -19526   -39858   -42250 
  -23926    -2069    11538    13184     6297     1420     -814    -1861 
    1972      977    -9763   -17401   -21540   -24717   -16038      164 
   10326    16607    16780     2814   -10631    -7666    -2369    -6984 
   -9521    -5400    -5089    -8486    -7958    -7538   -12129   -12411 
   -6556    -9612   -20493   -22619   -16421   -10463    -7040    -9567 
  -14131   -11051    -4072    -2606    -3543      490     5489      252 
  -18918   -38292   -36630   -15830    -1070    -2574    -8731   -10871 
  -10531   -12622   -14716   -11889   -11804   -15080   -10760    -7379 
  -15384   -23534   -26499   -30281   -34173   -36209   -35179   -26649 
  -13504    -4869    -2812    -6231   -12282   -11506    -2508     5837 
    9390     6917     1227    -2558    -8197   -16920   -23835   -27665 
  -22836   -10143    -3933    -5085    -7202   -12140   -13937    -8969 
   -4256      573     5348     1854    -9336   -14516    -7948    -2085 
   -4056    -8999   -12887   -10135    -1252     4106     1129    -7452 
  -13112   -13003   -12029    -6311     2218     3192     2473     2840 
   -4426   -13522   -15172   -12614   -11595   -11877    -9909   -10616 
  -18387   -23120   -20108   -15708    -8780      -71    -1885   -16308 
  -27932   -28097   -22728   -15579    -9618   -10106   -10357    -4796 
   -2400    -4344    -4463    -6250   -10269   -11954   -14563   -18661 
  -19564   -17787   -13373   -11360   -18337   -22782   -18958   -16914 
  -14125   -10083   -13173   -17015   -15450   -11807    -5625      -60 
     261     -832     -770     -922     -411      989     2808     4249 
    1853    -3042    -5278    -5530    -4691    -1375     3608     8988 
    9791     3734     -280     -873    -5873   -10216    -8675    -9953 
  -15167   -15925   -14204   -15519   -17760   -18318   -16089   -11826 
   -9675   -10870   -11173    -7025    -4619   -10863   -15746   -11639 
   -8611    -9513   -10083   -16514   -28417   -32169   -27394   -28035 
  -32626   -28313   -20320   -20757   -25380   -28387   -30694   -28053 
  -20591   -15809   -12964    -9418    -5929    -2504    -2436    -3204 
    -742    -3173    -9020    -6597    -1173     -996    -2388    -3187 
   -3586    -3206    -2562     -348     2191     1634       -1    -1516 
   -5767    -9383    -8463    -7167    -7053    -5765    -2733      337 
   -2423    -8579    -9115    -7817    -6986    -2477    -1058    -6328 
  -11943   -13969   -10859    -6103    -4340    -5786    -8908    -7427 
   -1846    -1688    -3010     -872    -3573    -8352    -7884    -8676 
  -11789   -13028   -16015   -18675   -16645   -16719   -22111   -26168 
  -27824   -30464   -32281   -31283   -27537   -20479   -13370   -11290 
  -13113   -14050   -12598   -10257    -8100    -6308    -4895    -3661 
   -1165     1278    -3998   -15986   -20650   -16798   -14370   -10654 
   -5405    -7391    -9864    -6164    -6581   -10849    -9342    -5757 
   -5093    -3199     -629    -3223    -8079    -9720   -10467   -12279 
  -13959   -13695   -10979    -9367    -8116    -5410    -5525    -6107 
   -4263    -6307   -11549   -13447   -12020   -10030    -9821   -10744 
  -10840   -11326   -10222    -7202    -8176   -12050   -16231   -21340 
  -21316   -17095   -16799   -17061   -13799    -9197    -4947    -3989 
   -4509    -2803    -3693    -8745    -9779    -5283    -4213    -7867 
   -8195    -5120    -3284    -2208    -1614    -1579    -2033    -4930 
  -10766   -14844   -11503    -8056   -11982   -13663   -12380   -14088 
  -10947    -5759    -6457    -5668    -3021    -2820     -928        9 
   -3831    -7057    -8083    -8950    -7789    -6631    -8062    -7173 
   -5960   -10400   -14257   -16949   -22709   -22411   -17840   -18260 
