Origin Time       2024/04/02 04:24:00
Lat.              40.133
Long.             141.712
Depth. (km)       71
Mag.              6.0
Station Code      AOMH17
Station Lat.      40.4492
Station Long.     141.3374
Station Height(m) 65
Record Time       2024/04/02 04:24:50
Sampling Freq(Hz) 100Hz
Duration Time(s)  209
Dir.              4
Scale Factor      7845(gal)/8223790
Max. Acc. (gal)   211.888
Last Correction   2024/04/02 04:24:50
Memo.             
[...]
  -22327   -22326   -22326   -22326   -22327   -22327   -22329   -22331 
  -22333   -22331   -22329   -22330   -22333   -22331   -22327   -22327 
  -22327   -22329   -22331   -22331   -22330   -22327   -22326   -22329 
  -22333   -22333   -22333   -22330   -22329   -22330   -22330   -22329 
  -22330   -22333   -22331   -22330   -22329   -22326   -22326   -22326 
  -22326   -22326   -22327   -22330   -22329   -22327   -22329   -22330 
  -22329   -22330   -22333   -22333   -22331   -22331   -22330   -22329 
  -22329   -22324   -22324   -22329   -22329   -22330   -22331   -22330 
  -22330   -22330   -22329   -22329   -22330   -22331   -22333   -22330 
  -22329   -22330   -22327   -22327   -22330   -22330   -22327   -22327 
  -22329   -22327   -22327   -22330   -22329   -22326   -22327   -22329 
  -22326   -22327   -22330   -22331   -22331   -22331   -22329   -22330 
  -22330   -22330   -22329   -22330   -22331   -22330   -22330   -22333 
  -22330   -22327   -22327   -22327   -22324   -22329   -22331   -22329 
  -22329   -22331   -22331   -22331   -22330   -22329   -22330   -22331 
  -22331   -22331   -22329   -22324   -22326   -22331   -22333   -22333 
  -22333   -22333   -22331   -22330   -22329   -22330   -22331   -22330 
  -22329   -22330   -22330   -22329   -22327   -22329   -22327   -22329 
  -22330   -22329   -22330   -22331   -22330   -22329   -22329   -22329 
  -22331   -22333   -22329   -22329   -22329   -22329   -22329   -22330 
  -22331   -22331   -22333   -22334   -22333   -22331   -22329   -22330 
  -22331   -22331   -22331   -22330   -22329   -22327   -22327   -22327 
  -22329   -22330   -22331   -22330   -22327   -22329   -22329   -22333 
  -22333   -22330   -22333   -22333   -22327   -22326   -22329   -22330 
  -22331   -22329   -22327   -22327   -22327   -22330   -22331   -22329 
  -22330   -22330   -22329   -22330   -22331   -22330   -22329   -22331 
  -22331   -22330   -22329   -22327   -22327   -22331   -22334   -22331 
  -22329   -22330   -22331   -22331   -22331   -22330   -22329   -22329 
  -22329   -22329   -22330   -22329   -22327   -22329   -22329   -22329 
  -22330   -22331   -22333   -22331   -22330   -22329   -22329   -22329 
  -22327   -22327   -22329   -22327   -22329   -22330   -22329   -22329 
  -22329   -22331   -22331   -22330   -22330   -22331   -22330   -22331 
  -22333   -22331   -22330   -22331   -22331   -22329   -22329   -22327 
  -22327   -22329   -22330   -22330   -22330   -22327   -22326   -22327 
  -22327   -22329   -22330   -22330   -22330   -22330   -22331   -22331 
  -22331   -22331   -22331   -22331   -22330   -22330   -22330   -22326 
  -22326   -22327   -22326   -22326   -22327   -22326   -22329   -22333 
  -22333   -22331   -22331   -22330   -22330   -22329   -22329   -22329 
  -22329   -22330   -22331   -22329   -22329   -22331   -22330   -22327 
  -22329   -22330   -22329   -22327   -22329   -22329   -22324   -22324 
  -22327   -22330   -22327   -22329   -22330   -22327   -22327   -22331 
  -22333   -22331   -22330   -22329   -22329   -22327   -22327   -22330 
  -22330   -22327   -22330   -22331   -22329   -22329   -22329   -22330 
  -22331   -22331   -22331   -22333   -22330   -22327   -22330   -22330 
  -22330   -22329   -22324   -22327   -22330   -22329   -22329   -22333 
  -22333   -22329   -22327   -22329   -22329   -22327   -22327   -22330 
  -22331   -22331   -22333   -22333   -22333   -22333   -22330   -22330 
  -22329   -22327   -22327   -22330   -22330   -22330   -22331   -22329 
  -22327   -22329   -22327   -22327   -22329   -22329   -22329   -22330 
  -22330   -22330   -22330   -22330   -22331   -22330   -22327   -22326 
  -22327   -22330   -22329   -22327   -22333   -22334   -22330   -22330 
  -22329   -22327   -22330   -22330   -22329   -22331   -22333   -22333 
  -22331   -22330   -22330   -22334   -22333   -22329   -22330   -22329 
  -22326   -22329   -22330   -22330   -22330   -22331   -22330   -22329 
  -22329   -22331   -22330   -22326   -22326   -22327   -22327   -22327 
  -22327   -22330   -22335   -22334   -22330   -22334   -22347   -22368 
  -22405   -22453   -22473   -22424   -22277   -22038   -21775   -21590 
  -21582   -21818   -22233   -22501   -22258   -21600   -21132   -21251 
  -21735   -22400   -23419   -24479   -24571   -23357   -21921   -21469 
  -21903   -22249   -22135   -22071   -21751   -19705   -16548   -15538 
  -17321   -19128   -20721   -24356   -28741   -30258   -29829   -31180 
  -32676   -29913   -24943   -21713   -17469   -10361    -6467   -10251 
  -16930   -20085   -21512   -25120   -25940   -20444   -17871   -23346 
  -26993   -24980   -26464   -29907   -24713   -16636   -17454   -22037 
  -23587   -26408   -27688   -20345   -14143   -21082   -33378   -39055 
  -42006   -47838   -44716   -24024    -2786     1985     -423     6512 
   14319      993   -23391   -30316   -28335   -40055   -50629   -39267 
  -20540   -11406    -2820    10725    14465    -3335   -32194   -51590 
  -60948   -72632   -77213   -58911   -31120   -16578   -12830    -2795 
   13031    17582    11344    12112    16001     2111   -26300   -46082 
  -51929   -58622   -68605   -65896   -48876   -35440   -27770   -10092 
   17049    34187    32983    21733     1567   -30958   -61379   -75062 
  -79602   -79567   -62872   -29947     -978    10665     9417     6713 
    6401     2940    -2725    -3654    -6246   -24335   -56982   -84596 
  -85009   -57538   -21498     7564    22682    21724     6111   -19498 
  -38164   -34372   -20480   -20314   -36155   -46606   -39487   -34858 
  -44112   -43807   -26123   -13825   -11037    -1237    13078    14631 
    -645   -19830   -30022   -36181   -50109   -66721   -69627   -56490 
  -41404   -27778    -6408    21338    43052    45535    27737     2031 
  -25851   -51941   -66143   -66372   -52624   -26528    -6489    -8753 
  -21756   -21864    -3931    17388    29014    27517    13093   -10984 
  -37262   -58502   -76844   -96198  -101259   -76869   -39193   -13419 
   -2069     1757    -5247   -17933   -15893     -363     5503    -1312 
   -9440   -23650   -46710   -60717   -55906   -42240   -26161    -8240 
    5633     7615    -1628   -10227   -11832   -16402   -27527   -32346 
  -28890   -27225   -26113   -22320   -20317   -17934    -8730     -440 
   -6350   -19345   -26458   -33523   -45729   -55244   -54714   -42707 
  -26507   -13279     3086    23884    31110    15155    -7749   -24383 
  -42915   -65952   -74711   -59440   -38263   -28386   -27411   -28960 
  -29195   -21991    -3616    15757    18094     5950    -3269   -11653 
  -31255   -54013   -63163   -61420   -60864   -59447   -51156   -37725 
  -19793     4804    30198    39247    25807     6477    -5476   -10620 
  -12681   -16569   -19826   -15797   -10639   -11399   -12280   -12461 
  -20601   -36432   -52153   -63949   -68559   -61523   -46737   -35540 
  -29936   -21915    -9714     -542    -1370    -9250   -15049   -18253 
  -24004   -32117   -34516   -24606   -13396   -13617   -19045   -23139 
  -27604   -31035   -32732   -35071   -36572   -30734   -16645    -6254 
   -6366   -10172   -13701   -16314   -17235   -19564   -25435   -35392 
  -48776   -59308   -57492   -40786   -18858    -1269    11211    17933 
   16348     7210    -6284   -20406   -31777   -37582   -36518   -31020 
  -25357   -24640   -33147   -45793   -51709   -48215   -38511   -24687 
   -9780     1529     2600    -8054   -21585   -34302   -47642   -52371 
  -42911   -29694   -19125    -7695     1675     2262    -1725     -882 
    2957     1929    -1497    -5602   -17324   -31542   -39938   -48107 
  -53025   -43089   -24921   -13208    -7330    -1555      938    -1611 
   -7959   -19826   -33678   -44393   -52232   -54365   -48749   -41246 
  -35880   -30094   -21325   -11666    -5252    -4645    -9497   -15404 
  -20775   -27773   -31449   -26520   -20617   -22520   -26060   -22721 
  -19179   -23545   -29108   -26578   -18817   -13085    -7780     -672 
     137    -9310   -20264   -25340   -24058   -19839   -18489   -23187 
  -32574   -41100   -43561   -42016   -39499   -34044   -25435   -17757 
  -11635    -2689     6313     6924        5    -9011   -18667   -26863 
  -30883   -30896   -30072   -32035   -36822   -41652   -43457   -40167 
  -34356   -31575   -33053   -36032   -38753   -39167   -31945   -15375 
    1107     7792     6454     1367    -9254   -23631   -30743   -25914 
  -19330   -20590   -28275   -35993   -40402   -41839   -38661   -27966 
  -12703     -673     3003    -2717   -16125   -29937   -35121   -30680 
  -22601   -17651   -19712   -24921   -25431   -19341   -11182    -5121 
   -1475     -395    -3685   -11352   -20004   -25714   -30038   -36882 
  -43803   -46215   -42772   -33782   -22763   -15719   -15010   -16977 
  -17743   -19446   -25508   -32071   -31542   -24586   -20748   -24348 
  -29000   -28790   -25072   -19669   -12125    -7086   -10972   -20345 
  -26096   -27372   -30554   -34466   -30616   -21311   -19056   -23295 
  -21049   -13849   -13616   -16401   -13446   -11726   -17558   -23608 
  -25169   -26387   -29602   -34118   -38163   -39174   -37963   -34947 
  -26472   -12752    -2037    -2519    -9560   -10577    -6301    -7488 
  -15160   -23685   -31803   -39478   -42600   -39421   -35116   -30762 
  -22395   -13093    -7960    -6222    -7252   -10359   -12391   -14628 
  -19121   -21832   -24062   -33350   -44882   -44975   -34882   -29367 
  -29431   -22482   -12264   -13478   -20532   -18576   -10443    -6366 
   -8259   -14096   -22383   -32393   -42897   -48691   -42190   -23511 
   -6409    -2934    -6581    -9035   -16447   -28165   -31607   -27013 
  -24328   -25150   -27302   -31310   -35140   -34218   -26750   -14952 
   -5050    -1036     -463    -3113    -9972   -16348   -21058   -30129 
  -42385   -46067   -37741   -29120   -26171   -19955    -7693    -2330 
   -9728   -18318   -20628   -22675   -30146   -40837   -47923   -46178 
  -38249   -32451   -30302   -24433   -13112    -2691     3462     5239 
    1560    -7614   -20132   -32575   -41423   -45593   -46030   -42418 
  -33667   -20622    -7187     2077     3948    -4515   -19885   -30812 
  -34187   -36890   -39442   -40297   -43953   -48610   -46045   -34956 
  -18208     2520    20771    28371    25822    16128    -1830   -24098 
  -43241   -57882   -65978   -61068   -44550   -27229   -13697    -1764 
    2331    -8827   -25743   -33222   -31425   -29164   -27048   -22650 
  -19275   -17960   -16714   -17122   -18534   -18198   -18096   -19819 
  -22048   -25783   -33439   -41312   -38215   -18887     5867    18162 
   10895    -6138   -21944   -36760   -52164   -61807   -59775   -50114 
  -37984   -20844      626    18214    24329    15160    -3403   -19129 
  -30504   -43235   -53057   -52251   -44726   -36772   -27214   -17558 
  -12891   -12367   -11074    -7063    -2763    -1150    -5142   -18465 
  -38867   -55564   -59852   -53493   -42836   -29601   -12941     2845 
    8457      438    -9860   -10827   -10368   -19110   -29326   -32782 
  -34832   -39067   -40805   -38632   -37584   -38126   -31483   -13340 
    5537    12395     7898    -1694   -15518   -30447   -38335   -37482 
  -33255   -31213   -34790   -41081   -42854   -36958   -24375    -7915 
    6439    12035     6777    -6201   -22084   -35559   -42434   -42719 
  -37037   -27371   -23885   -31722   -35789   -24359   -11727   -10952 
  -12764   -11500   -14605   -19762   -18409   -13482   -11893   -15399 
  -22146   -27268   -28200   -28065   -29745   -31176   -27834   -21323 
  -20290   -25666   -28108   -24106   -20630   -24526   -30726   -28848 
  -23055   -21384   -17031    -6100     1347    -2428   -16191   -33215 
  -44666   -46379   -39988   -27722   -13784    -7075   -12413   -23957 
  -32347   -32930   -27287   -19738   -14598   -14909   -20598   -28946 
  -33023   -27132   -19080   -17496   -15773   -10608   -11873   -20844 
  -26604   -25991   -25704   -28829   -30470   -26616   -22971   -25573 
  -28077   -22131   -12960   -11172   -16023   -21533   -27769   -33975 
  -36013   -32439   -25046   -17960   -14015   -11318    -7560    -4212 
   -3545    -6054   -12946   -23422   -32582   -38727   -42419   -42634 
  -41200   -39451   -32806   -17644     -465     7318     4144    -3557 
  -14512   -29589   -42669   -46658   -41478   -31260   -22361   -18920 
  -17514   -16178   -17417   -18585   -15458   -12363   -17393   -30686 
  -44798   -50679   -42827   -26241    -8491     8706    18758    12168 
   -7014   -22736   -26302   -25559   -27021   -26817   -26788   -31471 
  -35430   -33594   -27472   -19354   -13618   -14218   -18643   -25699 
  -37401   -46041   -43155   -35668   -29978   -21352   -10207    -3366 
    -332     2771     3260     -727    -5135   -10774   -22978   -38935 
  -48879   -46504   -33289   -17103    -7843    -9231   -15454   -22405 
  -33569   -49181   -63232   -70914   -69138   -56347   -38215   -24058 
  -13518       45    12780    13803       36   -23784   -49063   -66611 
  -72748   -68346   -53516   -27490     4947    33027    54049    77275 
  103451   116131   103299    66348     5096   -78385  -161939  -210999 
 -211324  -181395  -139328   -85504   -28675    18484    60799    95080 
  101356    74605    25876   -33135   -90385  -134268  -151089  -125713 
  -57034    31338   102417   132208   123048    87516    33041   -29685 
  -82206  -109147  -105239   -81129   -59475   -49248   -38909   -22651 
   -7433     -109   -13205   -56729  -112293  -149250  -154903  -130801 
  -78796    -2486    79050   140620   175360   187967   178374   144023 
   89059    22607   -53177  -134859  -205051  -244449  -242730  -202745 
 -137127   -53678    32159    89145   107426   102369    79712    39568 
   -6489   -44304   -69849   -85182   -86285   -65938   -27384    17929 
   68574   119966   139784   109300    52623   -12943   -86067  -141728 
 -152189  -128445  -102001   -88196   -86250   -92605   -95783   -77703 
  -39395    -4978    11821    15136     7754     -827     3566    15207 
   25763    43877    66125    69992    46862    11122   -19966   -43498 
  -65516   -81810   -84238   -77190   -67969   -57073   -40462   -15789 
   16065    59514   105841   117412    70783   -13543   -97528  -153856 
 -180513  -188624  -170646  -115036   -41955    13518    43795    74857 
  117332   138073   115894    71815    20147   -40968   -97459  -134169 
 -153459  -158502  -148707  -124378   -85379   -36433    12908    49900 
   57171    30690    -7307   -34387   -46747   -44968   -30801   -11985 
    6918    24976    35260    26962      396   -29245   -51417   -66538 
  -73649   -76789   -87029   -98200   -85436   -43244    -2262    11175 
    9790    15624    25413    31000    36628    39598    31139    13498 
   -4633   -13859    -9597     -858     2189    -1930   -17323   -46606 
  -75637   -86015   -78590   -68295   -65441   -67807   -62703   -42387 
   -9221    29821    58850    68841    67853    55443    23843   -19811 
  -62220   -93650  -105520   -97326   -75053   -43120   -10887     6141 
     147   -19460   -32614   -28915   -16573    -6662    -4634   -20332 
  -58239   -96799  -109659   -95736   -63898   -18921    28116    62861 
   73179    54924    24241     1880    -8303   -11437   -13236   -21119 
  -39262   -60157   -69342   -63293   -47386   -23843      511    15854 
   21304    20061    14721     6264    -9741   -32719   -48959   -50313 
  -44625   -39668   -37770   -40474   -44099   -41362   -30510   -17262 
   -8149    -5537   -10111   -19197   -26245   -32788   -42828   -45571 
  -32834   -16046    -5155     2388     3492   -13636   -42457   -55602 
  -45885   -34696   -33139   -32019   -24741   -12262     4020    19194 
   23877    11013   -18864   -55977   -85781   -99879   -99937   -88177 
  -61581   -19739    27421    64401    81517    76887    51694    13456 
  -24351   -53908   -77167   -98806  -116056  -117088   -95389   -57680 
  -14782    26165    60527    81913    84346    68411    40566     6223 
  -34302   -77530  -109541  -117005   -99786   -67166   -28055     9639 
   35461    40702    27608     8135    -8348   -19566   -27521   -35648 
  -44718   -54697   -64345   -66255   -55148   -36879   -20806   -10103 
   -3809    -4683   -15557   -27681   -30169   -29033   -36676   -52080 
  -65369   -68010   -55733   -32930    -9528     9544    25658    38730 
   41837    30404    12857    -2651   -17992   -33195   -44901   -52527 
  -56997   -58167   -51108   -32356   -11088      329     1624     -240 
   -1395     -861       70    -3816   -17641   -39247   -57977   -64550 
  -60004   -48413   -29543    -8754     1891      133    -4905    -7342 
  -10207   -14885   -15807   -15294   -24259   -41080   -52502   -53873 
  -50330   -42596   -28813   -15647    -9965    -9733   -13662   -23507 
  -34568   -38267   -33378   -26862   -23481   -20268   -15013   -11399 
  -11065   -10740    -7446    -2782    -3503   -13059   -25390   -31402 
  -27649   -20605   -20667   -29139   -37656   -40464   -38950   -34033 
  -25812   -19830   -19082   -17770   -15441   -18993   -25139   -24503 
  -17720    -9432    -1495      812    -6868   -19252   -29061   -34500 
  -34279   -28251   -22153   -21008   -20733   -14062    -3854    -1325 
  -11560   -30365   -48941   -57019   -51910   -39750   -24629    -8880 
    2273     4642    -1902   -12070   -20916   -30519   -40945   -48868 
  -57195   -66773   -69851   -61701   -43575   -16911    13493    35999 
   40821    30801    16764     4754    -6489   -19662   -33520   -42993 
  -45050   -41160   -34005   -26589   -22099   -20333   -19187   -19993 
  -25234   -34322   -43538   -49252   -52907   -56313   -53991   -39237 
  -13238    14342    32201    36391    29686    14733    -5445   -24495 
  -37255   -45063   -51062   -54203   -52834   -47062   -36960   -25178 
  -15537    -7383      148     2497    -2964   -11311   -19097   -29195 
  -41732   -49989   -48872   -39398   -23554    -5609     6373    10469 
    8374    -4110   -25316   -41608   -45504   -43657   -43826   -45346 
  -44838   -43451   -40626   -29943   -10102    10586    23773    26874 
   20630     5976   -15785   -39475   -56496   -64052   -65064   -58874 
  -46526   -33463   -19357    -1019    17389    25841    20926    11095 
    2631    -7389   -21698   -37821   -49503   -52510   -49846   -46876 
  -44786   -42013   -39040   -37619   -35806   -29555   -20160   -14413 
  -15306   -17811   -16352   -12243   -10025    -8503    -3712     1363 
    1779    -1394    -6847   -15049   -23706   -31595   -39077   -42642 
  -40876   -37956   -34857   -29759   -24976   -22794   -20564   -18260 
  -22391   -33782   -42708   -43499   -40867   -36170   -23930    -6978 
    4594     8132     6507     2359    -1983    -7410   -14877   -22091 
  -29091   -37832   -45675   -47686   -42854   -33755   -23769   -16036 
  -12480   -13837   -20148   -30063   -40346   -46147   -43648   -35456 
  -29355   -27799   -25130   -18380   -11847    -8374    -6724    -8117 
  -13799   -19238   -20457   -20634   -23949   -27872   -27193   -22454 
  -18392   -16546   -13972    -7944     -963      973    -3537   -11303 
  -21361   -32599   -40063   -39793   -33027   -25412   -20850   -18123 
  -17815   -22304   -27545   -26932   -21367   -18688   -23221   -30188 
  -33496   -32599   -28759   -21870   -12935    -4752     1740     7632 
   11213     8330    -3411   -21822   -38479   -46137   -46990   -46017 
  -43310   -37497   -29926   -22832   -16708   -12818   -13652   -18123 
