Origin Time       2024/04/02 04:24:00
Lat.              40.133
Long.             141.712
Depth. (km)       71
Mag.              6.0
Station Code      AOMH18
Station Lat.      40.2962
Station Long.     141.0145
Station Height(m) 135
Record Time       2024/04/02 04:24:51
Sampling Freq(Hz) 100Hz
Duration Time(s)  133
Dir.              3
Scale Factor      2940(gal)/6170270
Max. Acc. (gal)   8.343
Last Correction   2024/04/02 04:24:36
Memo.             
[...]
  194858   194858   194855   194856   194858   194858   194854   194854 
  194857   194858   194857   194855   194854   194856   194857   194856 
  194858   194859   194858   194856   194855   194856   194859   194858 
  194855   194858   194858   194854   194857   194860   194856   194857 
  194860   194857   194855   194857   194859   194857   194855   194857 
  194855   194854   194856   194855   194856   194856   194857   194858 
  194856   194856   194860   194859   194855   194854   194855   194855 
  194855   194856   194856   194856   194858   194858   194857   194858 
  194859   194857   194856   194856   194857   194859   194858   194856 
  194854   194854   194856   194858   194857   194855   194854   194856 
  194857   194856   194856   194856   194856   194857   194855   194855 
  194856   194856   194856   194857   194855   194856   194857   194855 
  194853   194856   194859   194856   194854   194854   194854   194855 
  194856   194856   194856   194855   194854   194856   194857   194856 
  194855   194856   194855   194856   194858   194856   194856   194855 
  194855   194857   194855   194854   194859   194858   194854   194855 
  194854   194855   194857   194854   194855   194858   194855   194853 
  194857   194857   194855   194856   194856   194854   194854   194856 
  194855   194853   194855   194858   194858   194856   194857   194857 
  194855   194854   194856   194856   194855   194858   194860   194857 
  194854   194859   194860   194856   194857   194857   194854   194854 
  194857   194857   194856   194855   194857   194856   194856   194858 
  194855   194854   194860   194859   194852   194852   194857   194855 
  194855   194859   194856   194854   194859   194859   194855   194856 
  194854   194852   194857   194861   194858   194854   194855   194855 
  194854   194856   194860   194858   194855   194856   194857   194856 
  194857   194858   194855   194854   194859   194861   194857   194854 
  194856   194856   194855   194855   194856   194858   194859   194857 
  194854   194856   194859   194857   194855   194857   194857   194857 
  194858   194857   194854   194854   194855   194854   194855   194858 
  194857   194856   194857   194857   194858   194858   194857   194856 
  194855   194855   194856   194858   194860   194858   194854   194853 
  194854   194855   194857   194858   194857   194854   194856   194857 
  194855   194855   194856   194854   194856   194860   194858   194854 
  194855   194858   194857   194858   194860   194857   194855   194857 
  194857   194856   194855   194855   194858   194857   194852   194856 
  194858   194855   194856   194857   194855   194854   194854   194855 
  194856   194853   194853   194856   194855   194855   194857   194858 
  194858   194854   194853   194855   194855   194855   194856   194854 
  194855   194856   194854   194854   194856   194856   194856   194857 
  194857   194855   194856   194856   194854   194856   194858   194855 
  194854   194858   194858   194856   194856   194857   194857   194856 
  194856   194856   194855   194856   194856   194856   194856   194856 
  194854   194853   194856   194858   194857   194858   194859   194854 
  194854   194857   194856   194855   194856   194857   194854   194851 
  194853   194853   194852   194855   194858   194856   194853   194856 
  194857   194855   194854   194856   194857   194856   194855   194855 
  194854   194854   194857   194859   194857   194855   194856   194857 
  194855   194856   194857   194854   194856   194857   194854   194855 
  194858   194856   194856   194860   194856   194852   194856   194859 
  194857   194857   194858   194857   194859   194858   194854   194855 
  194858   194857   194856   194859   194858   194855   194856   194857 
  194858   194858   194855   194856   194859   194854   194853   194857 
  194857   194855   194855   194856   194855   194855   194857   194856 
  194855   194856   194857   194859   194857   194855   194857   194856 
  194856   194859   194856   194856   194858   194858   194859   194857 
  194856   194858   194858   194856   194857   194857   194857   194857 
  194856   194857   194858   194857   194857   194855   194855   194854 
  194855   194858   194859   194856   194858   194858   194854   194857 
  194860   194857   194855   194854   194858   194860   194855   194856 
  194859   194855   194856   194859   194857   194854   194855   194857 
  194859   194856   194855   194857   194856   194855   194857   194856 
  194855   194856   194854   194855   194859   194859   194856   194854 
  194858   194857   194853   194855   194855   194853   194855   194855 
  194855   194857   194855   194856   194858   194856   194855   194854 
  194856   194858   194855   194853   194856   194857   194856   194856 
  194856   194855   194855   194856   194855   194853   194855   194859 
  194854   194852   194858   194858   194854   194856   194857   194854 
  194856   194856   194853   194856   194857   194855   194856   194857 
  194855   194854   194854   194856   194857   194858   194856   194854 
  194856   194857   194853   194855   194859   194853   194851   194856 
  194856   194855   194854   194855   194859   194859   194856   194857 
  194856   194854   194856   194858   194856   194854   194853   194855 
  194857   194856   194855   194856   194855   194856   194858   194858 
  194855   194853   194856   194857   194853   194853   194856   194855 
  194854   194858   194858   194854   194855   194855   194854   194855 
  194856   194859   194858   194855   194855   194857   194858   194858 
  194854   194853   194856   194855   194854   194859   194859   194854 
  194856   194858   194857   194853   194854   194860   194859   194853 
  194853   194856   194858   194858   194859   194858   194855   194857 
  194859   194856   194855   194857   194858   194857   194855   194856 
  194857   194856   194856   194857   194855   194854   194855   194856 
  194853   194855   194857   194854   194855   194858   194857   194857 
  194856   194854   194855   194857   194856   194854   194855   194859 
  194860   194856   194854   194857   194857   194857   194857   194855 
  194856   194859   194858   194855   194855   194857   194856   194855 
  194857   194856   194854   194855   194856   194856   194855   194856 
  194857   194857   194855   194855   194856   194856   194856   194855 
  194855   194858   194855   194854   194857   194856   194856   194858 
  194854   194855   194858   194856   194855   194858   194856   194854 
  194857   194856   194854   194857   194856   194854   194855   194855 
  194855   194856   194856   194855   194856   194858   194857   194857 
  194857   194854   194854   194856   194856   194855   194853   194852 
  194854   194855   194857   194858   194855   194855   194857   194856 
  194855   194856   194857   194857   194857   194855   194855   194855 
  194855   194854   194855   194857   194855   194853   194855   194856 
  194856   194856   194858   194858   194856   194856   194858   194857 
  194855   194856   194856   194854   194853   194855   194855   194856 
  194857   194854   194855   194856   194853   194855   194857   194855 
  194857   194858   194856   194858   194858   194856   194857   194857 
  194855   194858   194859   194855   194855   194857   194856   194855 
  194856   194854   194854   194858   194857   194856   194854   194853 
  194858   194858   194855   194856   194855   194855   194859   194857 
  194856   194860   194856   194855   194857   194855   194855   194857 
  194856   194857   194860   194856   194854   194857   194857   194856 
  194855   194853   194856   194859   194855   194855   194858   194860 
  194855   194851   194854   194857   194857   194854   194854   194859 
  194857   194851   194854   194856   194853   194857   194859   194856 
  194857   194857   194856   194856   194855   194857   194856   194854 
  194855   194858   194857   194854   194856   194858   194853   194853 
  194859   194856   194853   194858   194858   194854   194855   194856 
  194852   194853   194858   194855   194853   194856   194858   194857 
  194858   194857   194856   194857   194855   194852   194854   194859 
  194859   194857   194859   194857   194856   194857   194855   194856 
  194857   194856   194855   194856   194855   194855   194857   194857 
  194854   194856   194858   194855   194856   194858   194857   194855 
  194855   194856   194856   194854   194855   194857   194857   194855 
  194852   194854   194857   194854   194852   194856   194858   194856 
  194857   194857   194856   194857   194855   194856   194857   194855 
  194855   194857   194858   194856   194855   194857   194856   194855 
  194857   194858   194855   194856   194857   194854   194856   194858 
  194853   194853   194857   194856   194857   194855   194853   194857 
  194859   194855   194854   194856   194856   194855   194855   194857 
  194857   194857   194858   194856   194855   194858   194857   194857 
  194858   194855   194854   194856   194857   194855   194856   194858 
  194855   194855   194859   194858   194855   194854   194854   194854 
  194857   194857   194855   194854   194853   194855   194856   194855 
  194856   194857   194855   194856   194858   194856   194855   194859 
  194859   194856   194856   194856   194855   194856   194857   194857 
  194858   194860   194859   194856   194856   194856   194855   194855 
  194858   194860   194857   194855   194855   194854   194855   194856 
  194856   194857   194857   194856   194857   194857   194854   194855 
  194858   194859   194858   194856   194853   194855   194857   194854 
  194853   194857   194859   194858   194855   194855   194855   194856 
  194859   194859   194855   194854   194856   194856   194856   194857 
  194856   194855   194854   194855   194857   194857   194857   194855 
  194855   194858   194856   194853   194855   194855   194856   194860 
  194858   194852   194854   194858   194857   194857   194854   194854 
  194859   194859   194856   194856   194855   194854   194856   194857 
  194854   194854   194855   194856   194857   194857   194855   194857 
  194860   194857   194853   194856   194858   194856   194856   194859 
  194858   194853   194855   194858   194857   194857   194855   194856 
  194857   194856   194859   194860   194855   194855   194857   194854 
  194855   194859   194859   194855   194853   194855   194859   194858 
  194857   194856   194855   194855   194856   194857   194855   194855 
  194858   194857   194855   194856   194856   194856   194856   194856 
  194856   194855   194856   194856   194856   194858   194857   194854 
  194855   194854   194854   194859   194858   194856   194857   194857 
  194857   194859   194857   194857   194861   194860   194854   194855 
  194859   194859   194857   194856   194856   194858   194857   194855 
  194854   194854   194858   194858   194856   194857   194858   194857 
  194858   194857   194855   194857   194858   194854   194855   194857 
  194854   194854   194856   194857   194857   194856   194855   194857 
  194858   194858   194859   194857   194856   194857   194855   194853 
  194857   194859   194857   194856   194855   194853   194855   194856 
  194853   194854   194858   194857   194857   194857   194857   194857 
  194856   194859   194858   194855   194856   194857   194856   194856 
  194855   194855   194856   194856   194855   194855   194856   194858 
  194857   194857   194857   194858   194858   194856   194856   194856 
  194853   194854   194857   194857   194855   194856   194856   194855 
  194856   194857   194855   194855   194858   194856   194854   194856 
  194856   194853   194853   194857   194857   194855   194857   194858 
  194855   194855   194855   194855   194855   194856   194855   194854 
  194855   194855   194854   194857   194861   194857   194853   194857 
  194858   194854   194854   194856   194855   194856   194856   194855 
  194855   194854   194856   194857   194854   194856   194858   194857 
  194857   194857   194855   194855   194855   194854   194855   194856 
  194857   194856   194855   194856   194854   194853   194855   194854 
  194855   194856   194855   194855   194855   194854   194855   194855 
  194854   194854   194856   194858   194857   194855   194855   194857 
  194858   194855   194853   194855   194857   194855   194855   194856 
  194856   194855   194855   194857   194858   194854   194853   194857 
  194856   194852   194852   194856   194860   194868   194876   194884 
  194900   194925   194963   195019   195104   195226   195393   195616 
  195887   196195   196522   196824   197065   197224   197262   197125 
  196772   196214   195587   195063   194733   194581   194447   194096 
  193550   193209   193424   194157   195087   195614   195154   193984 
  193115   193508   195622   198426   199887   199546   198692   198382 
  199052   200523   201571   201324   200268   198888   197476   196170 
  194179   191407   189202   187914   186942   186789   187622   188151 
  187443   185391   183475   184386   188170   192346   195275   196826 
  197451   196688   195243   196945   201912   205101   205585   205895 
  205391   203733   202438   200203   195634   190945   188269   188824 
  193442   198194   196899   190196   184590   184433   189006   194369 
  198236   201007   199851   194342   193277   198557   200847   200195 
  203619   207731   208124   208311   206532   198772   192159   191627 
  191222   190168   191405   189265   181533   177347   180054   182025 
  180091   178222   178198   180522   185414   189901   192970   194454 
  192246   188810   186725   185774   189005   195455   199011   198978 
  197472   194916   192307   193035   198223   199354   193289   191527 
  196241   199806   202444   201978   195203   191577   198007   205671 
  204944   200002   199761   203034   203244   199047   194407   193305 
  194252   193407   190917   187038   183866   186771   191202   188927 
  186392   193309   205534   211468   205168   194647   193622   200732 
  205344   205791   204548   200598   194777   193573   196757   194494 
  190224   194376   198586   195269   193255   193396   189957   187331 
  186261   184183   188735   198176   201079   199783   195790   187707 
  188983   202837   210730   207593   206203   205804   197951   192396 
  196701   198816   197022   198566   194949   185274   182945   185655 
  187670   193177   194921   188844   188837   192760   188442   186950 
  194245   196059   192824   192888   191646   189610   191856   193542 
  192880   194084   195338   194410   194886   198615   199827   195405 
  194128   198100   196918   192194   193039   196350   196460   194552 
  194106   196104   197028   196713   199384   202705   203041   203060 
  202814   199323   196157   198494   202501   202608   200631   198483 
  195356   192522   191365   191883   192300   191384   192068   193704 
  192225   190153   191459   194224   194814   193355   192629   193017 
  191955   189982   191109   192809   190668   189311   190455   190329 
  191716   195015   194564   192383   192695   193359   193621   193304 
  192523   194858   198154   197126   194169   193136   194417   198199 
  200824   197777   193502   193220   195151   197866   199632   198022 
  196446   197771   198157   196076   195168   196098   196637   196488 
  196432   196094   194811   193708   193617   194349   196088   197598 
  197884   197557   196996   196211   194647   192897   192565   193418 
  193910   192574   190750   190234   188840   188142   192730   198052 
  197659   194316   191856   190601   191768   194340   195752   196172 
  195753   195307   195358   195080   195806   196735   195991   195676 
  196072   195957   195251   192611   190915   193183   194334   193436 
  194779   194843   190527   188811   193875   198416   197861   196738 
  196228   194882   196290   200418   201195   199720   200849   200968 
  197493   194921   194236   194293   196399   198002   195435   192029 
  191042   190377   190709   192657   192718   191599   190991   189569 
  189296   191445   193576   194877   195460   195976   196972   196500 
  196216   199367   202012   202344   202797   200639   196984   196162 
  195825   196333   198830   199731   200004   199285   194796   191793 
  192894   193980   194279   193229   190751   190115   190756   191011 
  192133   192000   190240   191347   193730   193643   193605   194074 
  192338   190333   190565   192184   193972   194337   194482   197814 
  199894   196273   195031   198533   197564   193818   193567   193579 
  193298   195108   195032   191204   190666   195090   195150   192151 
  194586   196297   194513   196528   197494   194082   194962   198161 
  196110   193830   195998   198063   198212   198622   197823   194562 
  193739   197115   198438   196862   196692   196697   194560   192038 
  191653   192755   193034   192900   193290   192387   190603   191820 
  194597   195182   195977   197018   194814   193297   195447   195270 
  192096   191776   193911   195619   196245   195782   195299   194037 
  192597   193570   194942   195927   198309   198290   194805   193967 
  195059   194351   195814   198640   197159   194944   195818   196459 
  195871   195381   195424   196871   198814   199320   198103   196367 
  195349   195028   195202   195878   196521   195911   194064   193555 
  194346   193700   192743   193079   193048   192679   193050   192931 
  191829   191407   192024   192602   193674   194967   194404   192659 
  191594   191790   193263   194265   193796   192969   192317   192273 
  192959   193858   195434   197365   197526   195791   194572   194542 
  194672   195600   197636   198115   196281   195375   195881   195978 
  196614   197890   198642   198955   197753   195255   194366   195415 
  195911   195345   195230   194571   192931   193234   194834   195330 
  195138   194493   194643   196260   196839   195579   194331   194214 
  195147   195768   194893   194182   194486   194002   193838   195716 
  196754   195203   193441   192710   193109   194305   193905   193180 
  195451   196681   194252   193075   193521   193829   195806   197328 
  196479   195333   193778   192639   194063   195666   195118   194254 
  194278   194387   194194   193724   193076   192963   193606   194292 
  195190   195584   194117   192856   193377   194765   196901   197627 
  195482   194342   196283   198175   197740   196840   197448   198015 
  197579   196611   194731   193626   194490   195195   194501   193060 
  192441   192776   192196   191351   192242   194195   195204   194696 
  193095   191253   191769   194305   194787   193812   194079   194459 
  194300   194715   194624   192871   192313   193931   194650   195061 
  196151   195489   193940   193979   195034   195644   195093   194870 
  196135   196588   196159   197302   198651   198717   198810   198686 
  197832   196728   195711   195844   196006   194664   194184   195045 
  194871   194113   193846   194067   194930   195014   193889   193296 
  193335   193766   194602   194711   194281   194298   194667   195474 
  195980   195418   194991   194674   194714   196438   197524   196770 
  195849   194110   192750   193655   194251   193806   194262   194590 
  193266   191856   191815   191373   190437   191892   194575   195603 
