Origin Time       2024/04/02 04:24:00
Lat.              40.133
Long.             141.712
Depth. (km)       71
Mag.              6.0
Station Code      AOMH12
Station Lat.      40.5846
Station Long.     141.1547
Station Height(m) -15
Record Time       2024/04/02 04:24:52
Sampling Freq(Hz) 100Hz
Duration Time(s)  280
Dir.              3
Scale Factor      2942(gal)/8224139
Max. Acc. (gal)   10.422
Last Correction   2024/04/02 04:24:52
Memo.             
[...]
  -38801   -38801   -38800   -38800   -38797   -38797   -38799   -38797 
  -38796   -38799   -38799   -38799   -38799   -38797   -38799   -38799 
  -38797   -38799   -38799   -38797   -38796   -38797   -38796   -38793 
  -38794   -38797   -38797   -38796   -38797   -38800   -38799   -38797 
  -38797   -38799   -38800   -38799   -38797   -38799   -38799   -38796 
  -38797   -38799   -38800   -38800   -38800   -38800   -38799   -38797 
  -38797   -38799   -38799   -38799   -38800   -38799   -38799   -38801 
  -38801   -38800   -38800   -38800   -38800   -38799   -38799   -38799 
  -38799   -38799   -38800   -38799   -38797   -38797   -38797   -38799 
  -38799   -38800   -38799   -38799   -38799   -38797   -38797   -38797 
  -38799   -38799   -38797   -38800   -38800   -38797   -38797   -38799 
  -38799   -38796   -38796   -38800   -38799   -38797   -38800   -38799 
  -38799   -38800   -38800   -38799   -38799   -38800   -38801   -38801 
  -38801   -38801   -38801   -38801   -38800   -38801   -38801   -38803 
  -38803   -38801   -38804   -38803   -38800   -38801   -38801   -38800 
  -38800   -38803   -38803   -38803   -38803   -38803   -38800   -38801 
  -38803   -38803   -38803   -38803   -38801   -38801   -38800   -38800 
  -38801   -38801   -38800   -38803   -38804   -38803   -38800   -38800 
  -38803   -38805   -38805   -38804   -38803   -38804   -38804   -38803 
  -38803   -38803   -38801   -38801   -38801   -38804   -38805   -38803 
  -38801   -38803   -38803   -38801   -38800   -38796   -38792   -38780 
  -38753   -38707   -38624   -38491   -38284   -37972   -37528   -36954 
  -36282   -35606   -35083   -34920   -35251   -36007   -37027   -38186 
  -39148   -39626   -39976   -40636   -41566   -42358   -41994   -39604 
  -35950   -33122   -32674   -34291   -36358   -37756   -38713   -39415 
  -38784   -36459   -34469   -34514   -35411   -35468   -35125   -35159 
  -35020   -34587   -35263   -38047   -41320   -42904   -42917   -41998 
  -40356   -39043   -38869   -38911   -37346   -34438   -33324   -35872 
  -40266   -44096   -47125   -50538   -54398   -55935   -52328   -45183 
  -38612   -33485   -28402   -26067   -30177   -36418   -38416   -38379 
  -41161   -44944   -44280   -38869   -34103   -32521   -32807   -34002 
  -33894   -31576   -30595   -33785   -40004   -44875   -44478   -40878 
  -38399   -36147   -31688   -27999   -28925   -32044   -33949   -35756 
  -37736   -37647   -36756   -39665   -45527   -46560   -40184   -34658 
  -37737   -45752   -48382   -41989   -33201   -29826   -33952   -42284 
  -48104   -48452   -48145   -50067   -52126   -52956   -51368   -47547 
  -43561   -41399   -42677   -45254   -47383   -50699   -51128   -44718 
  -38047   -37843   -43046   -48486   -48184   -41867   -38261   -43143 
  -47960   -43640   -37665   -38473   -41296   -43896   -47293   -44047 
  -33500   -26252   -26651   -34345   -44097   -45376   -41709   -42097 
  -40882   -33822   -29265   -34279   -43622   -46421   -43783   -44261 
  -45088   -38877   -28775   -25222   -31761   -40105   -45881   -53705 
  -59756   -52887   -33934   -19345   -22628   -35021   -40811   -41598 
  -42535   -41574   -39393   -36385   -32688   -31573   -31031   -27577 
  -27434   -34415   -37135   -29701   -24644   -27946   -31880   -35941 
  -41588   -41176   -35368   -32985   -32275   -30045   -32119   -38874 
  -42662   -44729   -48150   -42228   -28460   -29482   -44216   -47344 
  -38529   -37424   -43297   -44031   -40713   -36069   -32192   -36369 
  -42835   -40072   -34778   -35731   -35122   -28483   -30103   -44227 
  -50230   -41083   -33399   -32937   -32012   -28752   -26724   -28624 
  -34308   -39168   -38654   -36364   -37746   -38870   -36531   -37010 
  -40537   -39143   -35090   -36076   -38728   -37528   -37195   -43227 
  -52605   -57306   -51840   -43158   -41104   -38869   -30662   -27202 
  -32479   -37204   -36315   -34591   -38726   -47225   -51416   -47318 
  -42213   -42375   -43033   -41725   -41804   -41376   -39020   -39310 
  -42678   -44335   -44204   -43642   -39344   -31645   -27020   -28594 
  -32960   -35823   -37358   -41774   -47703   -43515   -29666   -27276 
  -40764   -49196   -45557   -41700   -41274   -39218   -34526   -28858 
  -26253   -32626   -42969   -45758   -43880   -44274   -41152   -33619 
  -32108   -38696   -44352   -42097   -35417   -33309   -36085   -36933 
  -35109   -36516   -42607   -45288   -42372   -43482   -47587   -42867 
  -32069   -28717   -34273   -40541   -45431   -50276   -51081   -45249 
  -38882   -36826   -35140   -31243   -28937   -32216   -39926   -44354 
  -41729   -38338   -37686   -37103   -38059   -42749   -45473   -43098 
  -41764   -42538   -41585   -40431   -38391   -35216   -37887   -42722 
  -37282   -27238   -27525   -37207   -43906   -40057   -31842   -30802 
  -35711   -37312   -34939   -34511   -37142   -38349   -36336   -33721 
  -33538   -36524   -38543   -37551   -38511   -41069   -39309   -35888 
  -37840   -43660   -45563   -42045   -40741   -44957   -46495   -39487 
  -31484   -30422   -32360   -31849   -29712   -28802   -32549   -39819 
  -43530   -44134   -47721   -48724   -40529   -33625   -37419   -43239 
  -41646   -35538   -32702   -36782   -42660   -44672   -46129   -48550 
  -47418   -44805   -44494   -42643   -39168   -38711   -38304   -35806 
  -36815   -41222   -41905   -37706   -35461   -37895   -39199   -36408 
  -32742   -31606   -33046   -33912   -33883   -35577   -38944   -40668 
  -38682   -37093   -38520   -38684   -38053   -41153   -44689   -44182 
  -42661   -41870   -40154   -39837   -40944   -40300   -41269   -44986 
  -46214   -46013   -45879   -41972   -36910   -35807   -35745   -34848 
  -36950   -40244   -39010   -35770   -35992   -38400   -40107   -40898 
  -40851   -41285   -42442   -41631   -40625   -44316   -49642   -49581 
  -46494   -46711   -46803   -41335   -35854   -38993   -47780   -50213 
  -44294   -40423   -41107   -40257   -37409   -36007   -39129   -45443 
  -46558   -40637   -36454   -36860   -35970   -31774   -28742   -30404 
  -34528   -36738   -36186   -34148   -32167   -31866   -33000   -34801 
  -36055   -35109   -33631   -33224   -32761   -32775   -34084   -36216 
  -38616   -40444   -42322   -42778   -38931   -35329   -36101   -37253 
  -36637   -35586   -34878   -36252   -39726   -41339   -38406   -34663 
  -34295   -34290   -32008   -30738   -31097   -31122   -32406   -34823 
  -35733   -35889   -36752   -38176   -40286   -42209   -41388   -37277 
  -33701   -33340   -34167   -35158   -38199   -42232   -43240   -41724 
  -41045   -40772   -39984   -39060   -38084   -37848   -37682   -37025 
  -37041   -37246   -38152   -41442   -45192   -46692   -45085   -41268 
  -39388   -41002   -40992   -37046   -34739   -38273   -43035   -43144 
  -40238   -38639   -39424   -40336   -39656   -39631   -40545   -39278 
  -36418   -34886   -36267   -40459   -43610   -42039   -38341   -36917 
  -36471   -33731   -32518   -36948   -39621   -36246   -35816   -40306 
  -43011   -44298   -45189   -43780   -42299   -41322   -38115   -35824 
  -38272   -40641   -40305   -42206   -44998   -43127   -39799   -38792 
  -36840   -35509   -40182   -46766   -49103   -47640   -43503   -39179 
  -38492   -40092   -39343   -35694   -33712   -35081   -36810   -38846 
  -41978   -43075   -40167   -36413   -36131   -38044   -37818   -35718 
  -33411   -32599   -36698   -41972   -42191   -41292   -42649   -42565 
  -40930   -40136   -39406   -38527   -38412   -38125   -38037   -40670 
  -44585   -44464   -39314   -34481   -33808   -36090   -38232   -37825 
  -36756   -37945   -39361   -39708   -40076   -39961   -40699   -42137 
  -40528   -37789   -37935   -39287   -39351   -37519   -35179   -35149 
  -37839   -40398   -39280   -36398   -37322   -40096   -40281   -40099 
  -40990   -40861   -38804   -35376   -32841   -32076   -31089   -30794 
  -34423   -41361   -46642   -46503   -43129   -40136   -37536   -35484 
  -35638   -37650   -39683   -40386   -38877   -36148   -35284   -37135 
  -39833   -43132   -47166   -49574   -47432   -40753   -35395   -36607 
  -39615   -37586   -32481   -30256   -32927   -36807   -37606   -36865 
  -38411   -40533   -38927   -35810   -35496   -35004   -32395   -31997 
  -33438   -32979   -31928   -32216   -34248   -39366   -45400   -47209 
  -45119   -42916   -40414   -36418   -33316   -33018   -32941   -32668 
  -35394   -38367   -38307   -37612   -37138   -38178   -41472   -42939 
  -41771   -40408   -40038   -42122   -45395   -47015   -46392   -44671 
  -44348   -44517   -41597   -36830   -34168   -35144   -36892   -36736 
  -38323   -42313   -43187   -41230   -40259   -40170   -39829   -37169 
  -32074   -31588   -37638   -41177   -40991   -44329   -48956   -48145 
  -44300   -43945   -46423   -45457   -38796   -31476   -29980   -32161 
  -31572   -31575   -37118   -43287   -43908   -38836   -34623   -36971 
  -39888   -36852   -32690   -32040   -33664   -36174   -39276   -43397 
  -47179   -48174   -47056   -46175   -46668   -45331   -38827   -34061 
  -36782   -39445   -37072   -33592   -31507   -31081   -31858   -33725 
  -37068   -39571   -39529   -38780   -39039   -39819   -39583   -39496 
  -41638   -43089   -41297   -38426   -37010   -39297   -43054   -42531 
  -40095   -41210   -44076   -45754   -46326   -45156   -41253   -36466 
  -33211   -30967   -29760   -30766   -32352   -34373   -38916   -41652 
  -38391   -36535   -41242   -44045   -39351   -34032   -34233   -36447 
  -35522   -33633   -34064   -34456   -34472   -37542   -41434   -41677 
  -39548   -37484   -37620   -41115   -41574   -34616   -30196   -35248 
  -39217   -36360   -36560   -42840   -47598   -48112   -46673   -45496 
  -45189   -42201   -35588   -32764   -35630   -36364   -34614   -36710 
  -41239   -42179   -39401   -38275   -41172   -43613   -41373   -37573 
  -36417   -36559   -36074   -34558   -32355   -31639   -32441   -32948 
  -33629   -34746   -35860   -36995   -37265   -37559   -39702   -41423 
  -38790   -32452   -30123   -36586   -43745   -44702   -43545   -43560 
  -44270   -45526   -46608   -46869   -45922   -43322   -39784   -37397 
  -36572   -35297   -33816   -35440   -41432   -46963   -46392   -41886 
  -39390   -40377   -42264   -42776   -41831   -40239   -39194   -40026 
  -42595   -44909   -44273   -39906   -35995   -37442   -41067   -41274 
  -40085   -39748   -38500   -37720   -38812   -38658   -36458   -36374 
  -38966   -38944   -35333   -32566   -31602   -31734   -34223   -37543 
  -38558   -37871   -36742   -34661   -33461   -35070   -37372   -38813 
  -40401   -42631   -43632   -40783   -35758   -32462   -32355   -35865 
  -40882   -42126   -38196   -34588   -34893   -35418   -34037   -33517 
  -34796   -38997   -47530   -53676   -50291   -42238   -36833   -34836 
  -35334   -37353   -38545   -36845   -34466   -36821   -43248   -46986 
  -45638   -42792   -41818   -41998   -39195   -33081   -29257   -29745 
  -31337   -32840   -35839   -40817   -45006   -45323   -42523   -39838 
  -38678   -36940   -33890   -32540   -33274   -34955   -39037   -43552 
  -44845   -45142   -46633   -46457   -43945   -42789   -43108   -42383 
  -42267   -42840   -40154   -35418   -33783   -36061   -40186   -44136 
  -45191   -44116   -44266   -43314   -38931   -35600   -35299   -35480 
  -35785   -36539   -36281   -34322   -34149   -38897   -44987   -47903 
  -45809   -39784   -36518   -37359   -35973   -33727   -35580   -39671 
  -41096   -37932   -35924   -38238   -38059   -35943   -39351   -43885 
  -40564   -31722   -26507   -28606   -33783   -37307   -39159   -40666 
  -40770   -38043   -34842   -35503   -37147   -34354   -32236   -35378 
  -38786   -40599   -43052   -46099   -48432   -48235   -45852   -44226 
  -45033   -44853   -38078   -28556   -25650   -27103   -25589   -25947 
  -35854   -48384   -51799   -47823   -44930   -43912   -41494   -36840 
  -31368   -29234   -32046   -35621   -38387   -42703   -47163   -47502 
  -43768   -40959   -42682   -46792   -47903   -44982   -43198   -44366 
  -43773   -39403   -34582   -31858   -31453   -33322   -36505   -40459 
  -44419   -44450   -40745   -38129   -36440   -35518   -38319   -42948 
  -44552   -41185   -33960   -25852   -20745   -22208   -29228   -36227 
  -40369   -41692   -42164   -46172   -49870   -44770   -34909   -28344 
  -23537   -17008   -11400   -13078   -24317   -40150   -52513   -56253 
  -55219   -55239   -54157   -51339   -50006   -46653   -39949   -36799 
  -36841   -35708   -38670   -46252   -47461   -41354   -39158   -43741 
  -46978   -44899   -42900   -45072   -46168   -37509   -21878   -15468 
  -24150   -34906   -39938   -42718   -42579   -37203   -30713   -28350 
  -30334   -32985   -34587   -36868   -40666   -44497   -43965   -37054 
  -32197   -35864   -42053   -46518   -50688   -54166   -56886   -57082 
  -51206   -41704   -33887   -28128   -23614   -23792   -29158   -32589 
  -30917   -29182   -30221   -32016   -32971   -35417   -42396   -49619 
  -52078   -51452   -47264   -39587   -34695   -35482   -40107   -47321 
  -52921   -50984   -44373   -40289   -37966   -34780   -32185   -31158 
  -32568   -37299   -42272   -42461   -38796   -37837   -42140   -48134 
  -51740   -50953   -46982   -43197   -40250   -35617   -30341   -30343 
  -36057   -40595   -41542   -41353   -39046   -33589   -29648   -30917 
  -32726   -30300   -29339   -36333   -45469   -48196   -46430   -47094 
  -50872   -50241   -40597   -29664   -25920   -27541   -29916   -33025 
  -39451   -46269   -46488   -41588   -37659   -33558   -24925   -13900 
   -9666   -19140   -37654   -52629   -58410   -59578   -59935   -57998 
  -51912   -44251   -38275   -33945   -32306   -34092   -36394   -37339 
  -37071   -34668   -29926   -26115   -26369   -27459   -23815   -19211 
  -22401   -32248   -40902   -45308   -47906   -50843   -51524   -48543 
  -47121   -49484   -51413   -50808   -49597   -51440   -55219   -53827 
  -48019   -44613   -44124   -44131   -41485   -34595   -27805   -24574 
  -23284   -21845   -22208   -28364   -38800   -48281   -53414   -51767 
  -45527   -39920   -34508   -29481   -28915   -31617   -34202   -36566 
  -38696   -40606   -43191   -45944   -47815   -49215   -49392   -47355 
  -45378   -43764   -38583   -31892   -31546   -36439   -37994   -34928 
  -34165   -39494   -46229   -49532   -48582   -41224   -28553   -18175 
  -13682   -12474   -14305   -21838   -34661   -48120   -57179   -59297 
  -55954   -51086   -45613   -38611   -32491   -29505   -28274   -29110 
  -35008   -41785   -39762   -31315   -26892   -26806   -26643   -25254 
  -21637   -18188   -19160   -23190   -26794   -30478   -35880   -42032 
  -47868   -53368   -56604   -56590   -55278   -51842   -45690   -41424 
  -41181   -42557   -44077   -46619   -52209   -57835   -57792   -54592 
  -53215   -51615   -45604   -35937   -28837   -27244   -25594   -21249 
  -19739   -24328   -32209   -38259   -39055   -36602   -34936   -35112 
  -37431   -43357   -51506   -57327   -57400   -51345   -43478   -38763 
  -37060   -37233   -38692   -38958   -38165   -39174   -41121   -40259 
  -35981   -31857   -30802   -32815   -37295   -42124   -44485   -44961 
  -44109   -40085   -34273   -30191   -27569   -26203   -28044   -30678 
  -31680   -34677   -40332   -43937   -43849   -42195   -41769   -43752 
  -45605   -45501   -44409   -41241   -36216   -34157   -35862   -36532 
  -35492   -36941   -40971   -43055   -42554   -43073   -44963   -45243 
  -43613   -41750   -39178   -36077   -35340   -38059   -41805   -43544 
  -42558   -40868   -41359   -45206   -50155   -53208   -53630   -50626 
  -43414   -34811   -29216   -28750   -31595   -33535   -34372   -36092 
  -37405   -38392   -40115   -40278   -37948   -34889   -31841   -30370 
  -31544   -32178   -31044   -30915   -32250   -34055   -35962   -36972 
  -36400   -35239   -35251   -37362   -41608   -45536   -46665   -47494 
  -48987   -48570   -48320   -49283   -47177   -42830   -40400   -39183 
  -37886   -37104   -36086   -33373   -29357   -25030   -20268   -17586 
  -19823   -23344   -26298   -33336   -43497   -49740   -49516   -46006 
  -43677   -42732   -40302   -38009   -37741   -36686   -34881   -35934 
  -39930   -42703   -41268   -37821   -34469   -29513   -23553   -20004 
  -20106   -22945   -26946   -31018   -34734   -37755   -39799   -39399 
  -37208   -37997   -41932   -43904   -42542   -39482   -35873   -32051 
  -28139   -26789   -28979   -31388   -34211   -39553   -45939   -52199 
  -56172   -55212   -51737   -49032   -47196   -45368   -44347   -45361 
  -46330   -45161   -42454   -40069   -40903   -43713   -43876   -43328 
  -46919   -53207   -58696   -61110   -57781   -49982   -43286   -39495 
  -34925   -29643   -29068   -33373   -36894   -37970   -40647   -45936 
  -48775   -46674   -41994   -36973   -31433   -23589   -16644   -16684 
  -22003   -27280   -32246   -38124   -43001   -43950   -41260   -39116 
  -40628   -43036   -42107   -39845   -40302   -41562   -41423   -42477 
  -45577   -49539   -53624   -54386   -50252   -45916   -44790   -44589 
  -42434   -39625   -38809   -37997   -35124   -34441   -37876   -40188 
  -38784   -36767   -36671   -37270   -35949   -33835   -34483   -38168 
  -42803   -46313   -47353   -48220   -51597   -54288   -53626   -52785 
  -51802   -47109   -39997   -33007   -26759   -23294   -22950   -23939 
  -27168   -32948   -37844   -40196   -41327   -41461   -40605   -39025 
  -35714   -32101   -30931   -30300   -29099   -29898   -31342   -31160 
  -31509   -32726   -32601   -32162   -33839   -37359   -40383   -40593 
  -37768   -34574   -33366   -33239   -31877   -28935   -27284   -29485 
  -33567   -36914   -41215   -47906   -53574   -55475   -55451   -54780 
  -52051   -46743   -41135   -38153   -36728   -33548   -30307   -31149 
  -34076   -33664   -30622   -30505   -34695   -39187   -40657   -40315 
  -40365   -39627   -37334   -35108   -34488   -37162   -41422   -42109 
  -39152   -36815   -36713   -38384   -40983   -43398   -45453   -46526 
  -45249   -42261   -38892   -35726   -34094   -34123   -35395   -38780 
  -42210   -42905   -42049   -40050   -35710   -31143   -29273   -29176 
  -29590   -31035   -31996   -31517   -32047   -34001   -35872   -37926 
  -38828   -37488   -38195   -42890   -45590   -43206   -40764   -41080 
  -42067   -42866   -42110   -38997   -36944   -37177   -37581   -38344 
  -39870   -39960   -37932   -36304   -34904   -31980   -29745   -29830 
  -31698   -35295   -38125   -38164   -38338   -40244   -40717   -38268 
  -35109   -33011   -32124   -32007   -32395   -33502   -36007   -40625 
  -46217   -50523   -52837   -53295   -52326   -50854   -49523   -48689 
  -47788   -45723   -43815   -44302   -45315   -44128   -42489   -42462 
  -43031   -42303   -39785   -38261   -40513   -43970   -44246   -41736 
  -40234   -41017   -41972   -41438   -40081   -39741   -41042   -43098 
  -45226   -46549   -46458   -46052   -45995   -45420   -44059   -41959 
  -38816   -36439   -36647   -37551   -37909   -38681   -39019   -38223 
  -37866   -38476   -38334   -35866   -31090   -26433   -25262   -26601 
  -26565   -25407   -26215   -29019   -30672   -30420   -30828   -31878 
  -32294   -33357   -35303   -36686   -37003   -36888   -37596   -39700 
  -43074   -47173   -50048   -50422   -49542   -48690   -47383   -44892 
  -42429   -41777   -42030   -42136   -43730   -46606   -47412   -45207 
  -42938   -41974   -40620   -39584   -39731   -38797   -37204   -36425 
