Origin Time       2024/04/02 04:24:00
Lat.              40.133
Long.             141.712
Depth. (km)       71
Mag.              6.0
Station Code      AOMH18
Station Lat.      40.2962
Station Long.     141.0145
Station Height(m) 235
Record Time       2024/04/02 04:24:51
Sampling Freq(Hz) 100Hz
Duration Time(s)  133
Dir.              4
Scale Factor      3920(gal)/6170801
Max. Acc. (gal)   71.283
Last Correction   2024/04/02 04:24:36
Memo.             
[...]
    6218     6220     6222     6225     6230     6232     6236     6241 
    6234     6221     6218     6225     6232     6233     6227     6226 
    6240     6244     6227     6210     6212     6227     6240     6239 
    6227     6221     6230     6238     6233     6225     6220     6219 
    6226     6233     6233     6228     6222     6223     6234     6240 
    6236     6226     6218     6216     6225     6241     6244     6229 
    6212     6209     6227     6245     6246     6232     6211     6206 
    6222     6236     6240     6238     6228     6226     6231     6229 
    6223     6218     6219     6233     6247     6243     6229     6216 
    6218     6229     6230     6229     6234     6231     6224     6235 
    6247     6229     6212     6220     6224     6223     6235     6242 
    6235     6226     6224     6228     6232     6227     6217     6218 
    6234     6245     6241     6230     6221     6216     6219     6224 
    6229     6231     6231     6237     6243     6232     6219     6217 
    6217     6223     6238     6245     6239     6231     6228     6224 
    6216     6214     6220     6228     6236     6242     6239     6234 
    6231     6220     6210     6218     6234     6241     6236     6230 
    6228     6230     6230     6224     6217     6215     6226     6246 
    6250     6234     6220     6213     6218     6232     6239     6232 
    6227     6225     6226     6229     6234     6233     6224     6221 
    6228     6237     6237     6230     6221     6222     6226     6226 
    6224     6229     6231     6228     6226     6229     6228     6226 
    6228     6228     6228     6234     6235     6227     6222     6224 
    6228     6231     6232     6229     6225     6227     6232     6233 
    6230     6226     6223     6227     6234     6233     6226     6226 
    6231     6231     6228     6229     6228     6224     6222     6222 
    6234     6250     6239     6211     6207     6229     6244     6239 
    6220     6208     6215     6232     6244     6242     6228     6206 
    6199     6218     6245     6254     6238     6216     6214     6230 
    6243     6232     6214     6210     6221     6239     6247     6241 
    6228     6215     6215     6230     6239     6230     6217     6218 
    6233     6244     6238     6222     6208     6212     6234     6245 
    6238     6232     6221     6210     6222     6240     6240     6227 
    6217     6216     6228     6242     6244     6231     6217     6215 
    6223     6229     6226     6222     6227     6234     6238     6241 
    6235     6226     6232     6254     6278     6297     6319     6372 
    6464     6580     6716     6869     7030     7182     7275     7251 
    7083     6779     6366     5891     5381     4832     4319     4075 
    4295     4948     5850     6685     7067     7074     7136     7356 
    7701     7972     7566     6400     5355     5531     7351     9920 
   11253    10159     7965     6640     6375     6363     5628     3849 
    2057     1322     2058     4008     5740     5728     4233     2278 
      56    -1327      140     4334     8433     9820     9667    10916 
   13518    15831    16754    15877    14459    12650     8410     3462 
    2878     5204     3305    -2579    -5589    -3996     -234     3913 
    5904     4238      769     -948     2208     8922    12936    11831 
    9400     9180    12872    17105    16041    12754    12260     9881 
    4274     6795    18209    19841     8770     2779     3344    -1485 
  -10940   -17102   -17221   -10993       60     8846    10647     9284 
    6735     2063     -372     1987     4481     3761     4065    13153 
   26597    29679    22809    17625    15679    12077     5371    -2049 
   -8122   -10391    -5789    -1007    -4837    -9415    -3342     9483 
   19417    20953    12094    -1548    -9385    -5674     5219    14487 
   22672    32001    35955    31707    19620      536   -15886   -20505 
  -15315    -9268    -3962    10171    28611    32869    20100      945 
  -14293   -18948   -14995    -8541     1219    20447    44762    53953 
   33526    -3954   -28599   -24871    -9593    -6756    -6452    14486 
   39495    36726    12311    -9111   -19849   -21540   -17358   -13104 
   -3159    21985    48093    54827    42218    20195     1610    -6232 
  -11589   -20484   -21881    -8305     6882    14808    21284    23373 
   19852    20902    21890    10443    -4133    -5447     1524     -142 
  -14358   -28389   -26411    -7737    12180    25843    34521    33871 
   28513    27708    23715    12179     6296     9987     9520    -2305 
  -14451   -14795    -7028    -2725    -5388   -10048   -10982    -7341 
   -3277     3038    16992    29720    29184    21158    15805    10747 
    2959    -1154     1340     5053     8456    13469    16376    10824 
   -2576   -13435   -13693    -7256     -640     4303    10043    20961 
   32096    30774    15718     -890    -8443    -7474    -4997    -1756 
    5536    13922    17402    13033     3859    -3174    -4568     -664 
    5937    10648    14121    22174    30684    28001    17274    10515 
    5147    -6893   -19039   -18629    -5129     9113    12841     9085 
    8542    12483    14037    10236     6117     8815    14773    12859 
    4368     -133      358      730     -589    -4327    -9560   -10282 
   -3277     5292    10173    13307    16572    20173    22644    21860 
   19384    14858     4978    -6378   -10274    -4151     6035    12091 
   11582     9220     8414     6586    -1609   -15072   -19976    -7359 
   10970    20392    22417    25346    27252    19888     5095    -6378 
   -9561    -8207    -4490     2521    10235    15858    17968    15036 
    9000     3300     -606    -4113    -6537    -1773     8436    13667 
   11554     8274     9334    12426     9433     2606     1977     5796 
    5782     4026     7629    12103     7132    -3601    -8721    -6656 
    -462     8674    14600    12321     9109    11889    15752    14037 
    8302     6620    12478    17951    13944     4440     1841     6427 
    6540    -1448    -8878    -5878     3867     7230     5536     8839 
   12894     8414     -711    -3912     1956    11385    17543    18120 
   15699    12514     5258    -8134   -17179   -11902    -1148     4441 
    9221    17798    24403    21600    12849     7228     1424    -8696 
  -11706     -863    13673    21836    24366    24100    18277     6463 
   -5010    -9507    -5566     1805     7278     8994     6217     1016 
   -3619    -7514    -8008    -1816     6895    14451    22746    30925 
   35895    32868    18134     1803    -5110    -9218   -14076    -9128 
    3945     8998     5561     6480     9712     7363     4530     3857 
    3513     8196    14264    12281     6059     2761     1050    -1900 
   -3309      395     6755    12009    13173     8646     4349     5297 
    5586      730    -2675     1811    10774    17099    18884    17311 
   13460     9878     6614     2200     -290     2554     8017     8537 
    1886    -5669   -10365   -12267    -9876    -2510     8841    20203 
   24467    21648    18944    16570     9667      945    -1222     3491 
    6427     7578    14010    21284    19525     9515     -381    -6117 
   -8346    -6810    -2881     1287     6781    13573    18197    17846 
   13664     9467     6316      866    -7766   -12346    -6172     5978 
   14420    15787    13410    11366     9575     6371     3048     2876 
    7554    13085    13099     9806    10211    12036     8172       66 
   -4128    -2295      -85     1179     4381     8226     9969     9689 
    9391     7738     1813    -3772    -2651     3398     7937     8693 
    9852    12436    11474     6324     2613     2755     2891     2597 
    5419     8563     7947     6231     5871     5554     5337     5756 
    5693     6631    10496    13814    13598    12584    11485     6830 
    -329    -5969    -7655    -1975     8202    12908    10728     8624 
    9275     9635     8241     7734     7989     5452     1074      903 
    7713    16010    19451    17427    12600     8167     3817    -2779 
   -8291    -7156     -390     6117    10100    14470    19112    17816 
    8275    -3084   -11321   -15122    -9950     4622    19335    27051 
   28674    25040    14345    -1013   -14290   -21028   -19792   -10516 
    4047    18275    26829    29246    28094    22032     9636    -4000 
  -12225   -13294   -10332    -5054     4523    15515    20992    21554 
   22431    22687    17529     7279    -3513   -12028   -14761    -8788 
     853     8011    14297    22184    26469    19976     6365    -4764 
  -10923   -12490    -8604     -866     8405    16604    19749    16773 
   11261     5534    -1145    -6572    -5961     1656    11338    16208 
   14746    11508    10355     9189     3464    -2722    -1178     4866 
    6716     3669      681      386     2050     5301     9111    12055 
   15433    18208    15263     5678    -4103    -7325    -4346      503 
    6292    13569    18715    17862    13954    11499     9137     4014 
   -2450    -5517    -1631     6567    10998     7689     2556     2884 
    7346    10528    11803    13264    15077    15822    13145     6332 
   -2321   -10476   -15209   -13378    -5732     4195    12245    16267 
   19311    22608    20763    11655     1297    -4050    -3551      899 
    9119    18121    19728    12489     3571    -2611    -5726    -5321 
     251    10250    18960    23219    23798    19318     9984     -588 
   -9691   -15095   -14884    -8984      304     9167    15466    17550 
   13903     8006     4388     3033     2616     3669     8897    18055 
   25434    26722    22157    14467     5523    -3453    -7658    -4138 
    2606     6405     5059     1979     1316      900    -2663    -6055 
   -4006     1954     6784    10831    15487    16456    11520     4907 
      94    -1486     1771     8452    14977    18593    15675     6268 
   -1660    -2411     1133     4709     7861    11225    13008    11555 
    7632     3223     1756     4305     6287     3176    -2463    -2443 
    4983    11126    10882     8730     8282     7497     4632     1762 
    2588     8380    13536    10996     5393     7204    14810    17640 
   12121     4519      629     -423    -1294    -2189    -1022     4218 
   10928    13422    10908     8203     7262     5744     2870     -155 
   -1392      202     2287     2581     2519     4903     9600    12791 
   12384    11311    12568    14368    12699     7879     4280     2779 
    1206     -436    -2259    -3531     -243     8069    15332    15971 
   13004    12023     8281    -1280    -6553    -2483     2503     2351 
    2401     7915    15518    20174    18660    13143    10728    10705 
    7881     4615     5138     6922     5657     2365    -1133    -4296 
   -4061      844     6960    11107    13881    16411    16301    12195 
    7315     3781     1197      -27     -286     -421      896     3964 
    6171     6576     7210     9006    11359    13002    11263     6597 
    4461     6033     6561     4933     3493     3658     5513     5669 
    2213      -92     2810     8135    10457     8713     6753     8466 
   11901    10561     7089    10100    15179    13110     7195     5025 
    5625     3997      864      -16     1201     1733      -97    -3745 
   -6647    -6064    -2877      326     5340    14187    22910    25593 
   21531    15627     9750     2274    -3016       49    10037    16730 
   14073     8895     6738     3951    -1271    -5739    -6926    -4577 
     475     6018     8246     5360     1677     3281     8042     9182 
    8605    12707    18375    17606    10329     1828    -4061    -4906 
   -1317     3624     8573    13003    15861    17733    18414    14218 
    6262     2441     4159     4463     -426    -5786    -4383     2868 
    8632    10051    10690    13781    16977    16022     9826     1274 
   -3628    -3011     -614     3714    11916    20095    22506    17360 
    9208     4179     1184    -2685    -4437     -999     6119    12892 
   16548    16063    10813     4092     -773    -6004   -10627   -10141 
   -4946     2995    11078    14386    12037     9277    11133    14905 
   13880     8894     5578     5131     4983     3014      403      249 
    2276     3471     3796     4122     2215    -1887    -2957     1204 
    4718     3464     1817     3656     6781     7144     4891     4829 
    8189    12515    18945    28296    34657    31307    20814    11417 
    5228     -411    -5202    -6135    -2445     1046      777      157 
     414    -2234    -7810   -11460    -9239    -2286     6460    18676 
   35501    50271    54867    46520    26925     1680   -21644   -37881 
  -46022   -47822   -44521   -34142   -16005     3304    17327    27666 
   36687    39167    27926     6440   -13455   -24499   -25117   -15313 
    2849    23889    41472    54305    63239    65867    61304    53279 
   45108    36203    26541    17873     6570   -12737   -37269   -60032 
  -78349   -90525   -90597   -75749   -49935   -18235    13279    39742 
   58951    66999    62163    49295    37176    33840    39077    45486 
   47336    41821    29308    14732      814   -14095   -27396   -30552 
  -16063    14746    47854    65887    59659    29288   -15485   -57538 
  -83474   -91855   -88241   -74048   -46901   -11819    20551    44325 
   56048    53609    40633    23733    10361     5073     6459    13757 
   28320    45558    52491    40217    16061    -7476   -26665   -41810 
  -51395   -50537   -33462    -1343    39392    80020   104046   100180 
   79432    51216     8075   -43487   -82527  -102626  -105985   -86615 
  -39482    19267    64448    89257    94489    77055    41777     2829 
  -24711   -36302   -39303   -37102   -26071    -7801    11316    26886 
   35398    35833    33425    33835    35048    31814    24291    14445 
   -1099   -26661   -53410   -60561   -42503   -15277     9246    29628 
   42316    42509    31343    15446     3071     1793     9981    16135 
   17034    19207    23615    21797     2600   -29732   -53915   -60252 
  -57217   -48506   -26578    10879    51237    76113    77143    63513 
   48910    35532    18958     -709   -15208   -16434    -8791    -2797 
    -210     5744    14566    12420    -4957   -19458   -15443     1370 
   16263    20536    13169     -890   -14086   -22683   -27979   -28905 
  -19191     1601    25691    49647    71306    82429    79548    65131 
   38748     5330   -20489   -29565   -24585   -12027     1852    10003 
    4381   -17349   -43271   -54944   -47258   -33415   -22037    -1066 
   36158    69623    81130    77034    65641    42648     9727   -18361 
  -30134   -28726   -28219   -37945   -49801   -50733   -39861   -20644 
    6668    37347    62156    73347    67998    52629    39455    31535 
   19584    -1593   -24600   -39742   -42293   -33593   -20216    -6436 
    6509    16371    23142    27457    26182    15218    -4623   -24248 
  -32183   -25222    -8411    13808    37834    56520    62760    54188 
   34152     7822   -20205   -41649   -47440   -35478   -11417    16568 
   43367    63545    66445    44461     5000   -33268   -56562   -60123 
  -39638     4398    54724    87074    91814    74251    40180    -5833 
  -53241   -86793   -97368   -84938   -48910     4733    50570    67866 
   62613    45503    15893   -21938   -48851   -46053   -13490    31430 
   66513    77646    68160    49633    24618    -9086   -44117   -67193 
  -70945   -53504   -18053    20159    44790    56064    58900    48603 
   23654    -3846   -20477   -25902   -26154   -21355   -10329     3523 
   14200    18089    20046    25243    29206    26818    19491    11860 
    7320     5088     2839     -527    -2649      921     7487    11074 
   13211    16578    18376    15483     9550     3632    -2704    -8230 
  -10293   -10469    -8919    -4728     -687     2360     5804     7972 
    7877    10222    18308    28443    36383    37883    27830    10175 
   -3570   -10977   -19754   -30831   -35099   -28229   -15487       69 
   20369    39513    45706    38504    28584    22912    18093    10090 
    4568     4832     2979    -4632   -12107   -15175   -15009   -12548 
   -4817     7725    18531    23726    23504    19317    13366     6588 
    -436    -4978    -3375     4087    11949    14948    10856     1174 
   -8462   -13770   -13872    -5911    10728    26558    31578    28660 
   27131    26212    16303    -2875   -18682   -21401   -13416     -432 
   16692    34592    44058    40063    25245     5786   -10899   -20167 
  -22327   -18107    -8774      525     7555    15057    21406    20732 
   10661    -5051   -18258   -22814   -18507    -7031     6953    15859 
   20028    24675    28542    28145    22036    11390     1902    -1259 
    1028     3046     3093     6394    12435    13895     8519     -345 
   -6313    -5084    -1502    -1766    -4379    -3167     4001    10939 
   14132    17473    19143    13075     2600    -4953    -9298   -10450 
   -3285    11684    25901    35196    39080    32744    15728    -2697 
  -14534   -18361   -16251   -10724    -2136     8092    14718    14754 
   11309     8322     5366     2002     2335     7979    13535    13926 
   10939     9890    10205     4850    -6047   -10822    -3953     4412 
    5655     4819     6807     7323     4850     4200     7468    14063 
   22026    25987    22843    14916     4355    -7241   -16120   -18309 
  -12044     -227    12228    22460    25840    18669     5393    -5992 
  -11314   -11359    -6905     4407    20990    32938    31482    20591 
   11546     5865    -2687   -11003   -10151     -615     9852    15577 
   16276    14377     7250    -8046   -20537   -15238     3934    19660 
   23776    20961    17167    13596     9246     5503     6514    12425 
   17079    16863    12957     4761    -7565   -18063   -21108   -16357 
   -5404     9800    25879    36538    34794    20880     2278   -14130 
  -23342   -19914    -2827    19021    33616    36648    31553    22283 
    9496    -6728   -22348   -30323   -27283   -15269      952    14756 
   23336    27982    25341    12199    -3868   -10404    -5161     3680 
   12211    21483    28934    31762    30877    28300    22133     8669 
   -8347   -21707   -28734   -28826   -23246   -14632    -4267     5716 
   12808    16867    18788    18375    14414     9111     7717     8840 
    6469     2947     5197    11181    13521    11969    12256    16387 
   21094    21356    12490    -3800   -17600   -21628   -18016   -12043 
   -4708     6311    19068    26233    25142    20543    14543     4960 
   -5502    -9534    -4468     5801    16332    22893    21840    15410 
    9362     3309    -3151    -4284     1278     8378    13124    14420 
   11718     5198     -388      678     6178    10637    14571    20256 
   24329    22032    14400     5594    -3585   -14465   -22974   -20749 
   -6961     9295    19790    23678    23061    17172     5469    -6393 
  -10456    -6210    -1842    -2231     -884     7582    16870    19851 
   18347    17942    19431    17559     8387    -4181   -11282    -9305 
   -3999    -2150    -3570    -1942     5970    13866    15376    13419 
   13319    13930     9807      616    -5370    -2178     4167     4187 
   -1894    -5718    -2862     2607     6249     8676    12661    18607 
   21935    19293    15156    15524    19410    20463    16619    12617 
   10382     6156    -1463    -8003    -9119    -6496    -4464    -3555 
