Origin Time       2024/04/02 04:24:00
Lat.              40.133
Long.             141.712
Depth. (km)       71
Mag.              6.0
Station Code      AOMH11
Station Lat.      40.5800
Station Long.     140.9950
Station Height(m) 240
Record Time       2024/04/02 04:24:52
Sampling Freq(Hz) 100Hz
Duration Time(s)  142
Dir.              5
Scale Factor      3920(gal)/6170801
Max. Acc. (gal)   51.045
Last Correction   2024/04/02 04:24:37
Memo.             
[...]
  -58952   -58953   -58956   -58957   -58954   -58952   -58952   -58949 
  -58947   -58949   -58954   -58954   -58954   -58957   -58955   -58951 
  -58947   -58948   -58953   -58954   -58950   -58948   -58951   -58956 
  -58958   -58956   -58951   -58950   -58952   -58953   -58951   -58951 
  -58953   -58955   -58955   -58952   -58953   -58957   -58960   -58956 
  -58949   -58946   -58946   -58951   -58956   -58952   -58949   -58953 
  -58956   -58956   -58955   -58953   -58949   -58946   -58952   -58955 
  -58950   -58950   -58955   -58955   -58954   -58955   -58950   -58944 
  -58951   -58958   -58956   -58952   -58952   -58951   -58953   -58956 
  -58955   -58951   -58949   -58951   -58953   -58955   -58958   -58957 
  -58951   -58945   -58948   -58953   -58955   -58953   -58951   -58951 
  -58954   -58957   -58955   -58951   -58949   -58950   -58948   -58948 
  -58951   -58951   -58950   -58954   -58960   -58959   -58953   -58952 
  -58951   -58950   -58950   -58947   -58948   -58955   -58956   -58953 
  -58955   -58956   -58952   -58951   -58953   -58951   -58949   -58950 
  -58953   -58958   -58958   -58953   -58951   -58949   -58947   -58950 
  -58955   -58957   -58959   -58961   -58963   -58972   -58983   -58995 
  -59011   -59028   -59048   -59073   -59104   -59141   -59179   -59214 
  -59249   -59279   -59302   -59311   -59308   -59311   -59324   -59330 
  -59322   -59307   -59294   -59276   -59233   -59161   -59096   -59087 
  -59141   -59213   -59257   -59301   -59449   -59717   -59922   -59872 
  -59598   -59273   -58957   -58557   -58101   -57841   -57902   -58069 
  -58182   -58524   -59466   -60832   -61866   -61916   -61122   -60236 
  -59583   -58688   -57368   -56458   -56625   -57243   -57354   -57169 
  -57762   -59506   -61526   -62720   -62562   -61043   -58667   -56258 
  -54256   -52741   -52014   -52417   -53790   -55570   -57469   -59825 
  -62691   -65307   -67187   -68027   -66619   -62070   -55821   -50980 
  -49299   -49764   -51235   -54625   -60419   -66415   -70254   -72305 
  -74064   -75120   -74056   -70448   -63747   -54309   -45800   -42239 
  -44139   -48756   -53067   -56411   -59977   -64728   -69541   -71880 
  -70838   -66737   -59948   -52239   -46101   -43337   -44049   -45871 
  -47410   -50382   -55716   -62141   -68386   -73488   -76757   -76406 
  -69322   -56657   -45240   -40892   -42789   -44098   -40273   -36131 
  -41011   -56806   -74011   -82352   -80739   -74756   -70538   -69658 
  -66555   -56279   -43534   -37122   -39323   -45172   -49299   -52411 
  -59002   -69760   -81266   -88703   -87144   -77048   -65770   -59870 
  -58731   -55932   -48443   -41116   -38081   -38758   -44037   -55241 
  -67113   -72716   -72731   -70593   -67627   -65705   -64193   -60828 
  -56612   -52167   -47338   -44638   -44679   -45260   -48160   -55942 
  -64332   -68099   -69051   -71300   -73522   -71830   -66573   -59760 
  -51300   -41743   -34016   -33370   -43431   -59224   -70488   -73181 
  -73275   -77368   -82931   -83113   -75110   -61354   -48378   -40596 
  -37020   -36691   -39450   -44744   -53171   -64189   -74145   -78999 
  -78101   -74614   -71407   -67878   -60909   -49213   -39493   -41197 
  -50295   -53195   -47735   -43506   -48167   -62702   -78836   -83844 
  -76713   -68512   -66420   -67211   -61910   -48398   -38515   -41515 
  -50274   -53236   -49369   -48132   -57281   -71232   -77497   -72556 
  -64214   -61960   -65060   -61771   -47996   -36428   -39526   -54507 
  -67046   -67304   -61723   -62008   -69354   -77118   -78079   -70247 
  -60245   -53818   -49327   -45226   -43069   -43997   -49535   -60014 
  -69873   -72693   -69011   -63295   -58472   -55972   -56507   -59117 
  -60681   -58763   -56189   -58047   -62435   -62111   -56096   -51474 
  -53546   -60063   -64850   -63898   -59034   -56162   -58158   -59805 
  -55159   -49048   -49719   -54715   -56418   -55045   -57870   -67699 
  -76325   -73128   -59980   -49981   -50106   -54779   -55881   -50943 
  -44431   -44502   -54117   -66433   -73046   -72728   -69944   -68310 
  -67842   -67037   -64608   -60497   -55277   -50439   -49241   -50562 
  -50278   -51273   -58141   -67570   -72377   -69932   -64897   -63333 
  -66119   -68674   -64549   -53290   -43472   -42804   -50140   -57331 
  -56629   -50830   -50757   -59611   -69417   -72097   -67411   -61167 
  -57924   -57067   -56390   -55531   -54800   -55290   -57508   -58065 
  -55960   -57405   -65121   -73068   -75577   -72725   -68211   -63632 
  -55998   -44791   -35185   -32362   -38250   -50643   -62698   -68324 
  -68884   -71414   -78904   -83974   -78306   -64614   -52028   -45437 
  -41703   -36796   -34823   -41091   -52901   -64812   -73895   -77505 
  -74161   -67194   -61828   -60779   -62099   -60063   -53846   -48425 
  -47075   -50864   -56129   -56184   -52576   -52555   -57906   -64094 
  -65030   -60211   -57616   -63452   -72982   -75544   -66519   -53373 
  -46188   -45407   -45767   -45284   -46892   -53789   -62686   -67562 
  -68362   -69555   -72964   -74375   -68977   -58476   -49137   -45371 
  -47175   -52114   -57818   -63026   -67669   -70899   -70601   -66718 
  -61469   -56472   -52903   -51808   -52106   -52902   -57353   -66627 
  -74220   -73493   -66466   -61200   -60817   -61250   -59146   -52918 
  -43708   -38671   -42425   -50170   -54926   -55149   -55224   -60418 
  -68775   -71747   -66771   -60843   -58940   -58517   -54992   -47884 
  -43868   -49467   -60554   -69060   -73033   -73463   -72345   -71057 
  -66833   -58077   -47541   -39244   -36477   -38756   -43023   -49172 
  -59572   -71722   -77773   -75425   -69660   -64827   -62173   -59644 
  -55802   -52853   -52014   -54007   -59311   -63854   -65211   -66494 
  -67767   -66166   -63213   -62204   -63162   -63930   -63632   -62814 
  -60009   -54165   -48682   -47606   -51149   -55023   -55599   -55913 
  -60409   -67419   -71838   -71278   -66756   -60099   -54405   -53637 
  -56951   -57447   -52020   -47109   -48790   -54546   -58730   -60036 
  -60949   -62253   -62827   -63368   -64627   -64978   -62706   -58122 
  -53232   -49989   -48633   -48035   -48302   -51468   -57956   -64943 
  -68634   -67537   -65261   -66112   -68140   -66483   -59474   -49683 
  -42954   -43137   -47924   -52776   -55813   -58511   -62394   -66015 
  -67936   -69220   -70283   -68517   -62255   -54916   -50295   -48861 
  -50747   -55213   -60473   -65938   -71141   -75906   -79971   -80775 
  -75344   -64002   -51156   -40259   -31342   -26678   -28951   -36574 
  -48291   -62531   -74969   -83896   -89567   -89744   -82545   -69919 
  -55864   -43735   -36442   -35509   -38745   -42827   -46585   -50449 
  -55771   -62802   -68839   -71120   -69911   -67667   -65555   -61910 
  -55572   -48752   -45298   -47145   -52002   -55822   -57922   -59853 
  -61788   -63560   -64718   -64201   -63599   -66421   -71021   -71001 
  -66250   -63305   -63133   -60537   -53661   -46383   -44597   -50189 
  -58044   -63345   -67151   -71254   -74557   -75261   -71979   -64310 
  -54595   -46356   -41667   -41832   -45938   -50156   -52929   -57142 
  -65341   -74364   -77827   -74833   -70195   -66822   -63256   -57265 
  -50051   -45107   -43181   -41804   -39088   -37563   -42274   -51832 
  -58960   -61558   -63768   -69233   -76848   -80343   -76658   -70743 
  -66161   -60828   -53479   -45514   -38887   -37041   -42802   -53093 
  -61182   -64065   -65324   -70538   -79411   -84029   -76897   -61254 
  -48339   -43938   -45647   -48526   -48753   -47925   -51042   -58514 
  -65894   -70497   -73129   -73490   -70067   -63303   -55245   -49620 
  -48398   -48795   -48313   -46532   -45294   -49088   -58119   -67608 
  -73513   -72995   -67892   -64323   -64028   -64657   -64185   -61173 
  -56563   -53443   -53034   -52769   -50780   -50342   -53855   -58044 
  -60077   -61307   -64705   -70757   -74625   -70973   -61458   -53644 
  -52104   -53710   -53673   -51059   -48519   -49891   -54914   -59163 
  -59854   -57992   -58252   -64143   -71454   -73617   -69995   -64415 
  -60213   -57108   -53325   -49116   -45768   -45667   -50300   -56883 
  -62723   -67679   -70570   -70160   -67542   -63277   -56903   -50286 
  -46758   -48562   -54486   -59044   -59697   -60956   -65830   -70692 
  -71130   -66455   -59699   -55695   -55125   -53958   -51581   -51228 
  -53852   -58602   -64633   -69333   -69939   -68015   -67196   -66578 
  -62764   -55794   -49059   -47852   -54070   -60770   -60662   -56681 
  -56546   -60513   -61804   -57106   -50152   -47454   -51601   -58084 
  -62219   -64702   -67059   -68211   -67064   -63988   -59849   -56208 
  -54154   -52321   -50261   -50561   -53923   -57976   -61482   -64626 
  -67038   -67125   -63384   -58237   -55714   -54945   -53327   -52004 
  -53148   -56504   -60099   -62509   -64119   -65613   -65723   -63181 
  -59963   -58490   -58317   -58520   -59377   -60865   -61898   -60504 
  -55904   -51524   -51656   -55072   -56971   -55650   -54280   -56848 
  -63068   -68515   -69542   -67051   -64317   -61483   -56380   -50022 
  -46888   -49400   -53925   -55214   -53943   -55629   -62606   -70436 
  -73052   -69045   -61287   -53964   -51587   -55261   -59832   -60029 
  -56876   -55602   -59392   -65229   -67287   -63956   -58279   -54806 
  -55783   -57491   -56619   -56252   -59386   -64018   -64788   -59289 
  -52874   -50765   -52065   -54627   -56750   -56715   -55569   -56963 
  -62509   -68733   -70346   -66210   -60420   -57018   -55784   -55252 
  -55189   -54666   -53230   -53113   -56484   -61187   -63222   -62651 
  -60985   -58287   -57039   -59332   -62329   -62885   -60464   -56755 
  -55672   -58437   -61173   -60432   -56767   -52976   -51734   -54059 
  -57807   -59852   -61289   -64595   -67881   -68375   -65456   -60164 
  -56024   -55034   -53712   -48546   -43419   -45778   -55358   -64039 
  -66502   -64842   -63350   -62525   -60186   -56233   -53031   -51576 
  -50968   -53063   -60169   -67947   -70743   -69172   -66893   -66154 
  -65324   -61228   -55137   -50839   -49921   -51491   -53797   -56284 
  -59314   -63836   -69800   -72947   -69436   -61950   -56092   -53710 
  -52265   -50630   -50994   -54216   -59553   -65836   -70190   -70830 
  -68923   -66208   -63256   -58875   -53164   -49850   -50350   -51268 
  -51771   -55972   -64937   -71951   -70474   -63088   -57871   -58944 
  -62996   -63924   -59775   -54427   -52230   -52357   -51688   -50400 
  -50483   -52483   -55683   -59097   -62115   -64940   -67225   -66521 
  -61636   -56447   -55347   -56600   -55632   -53046   -53409   -57375 
  -60849   -61774   -62490   -65497   -69603   -69436   -62106   -53664 
  -51176   -52703   -51787   -47727   -47060   -54485   -65449   -71075 
  -68733   -63945   -61974   -61536   -58568   -52911   -48609   -48742 
  -52204   -56357   -60217   -64196   -67611   -67628   -64561   -63025 
  -63491   -61929   -57570   -53996   -54046   -55694   -55125   -53266 
  -54365   -59148   -64175   -66548   -65268   -61247   -57179   -53979 
  -51797   -52291   -53917   -54009   -54517   -57443   -62467   -68982 
  -73452   -71585   -65567   -61513   -60788   -59397   -54209   -47620 
  -44789   -46590   -50072   -53257   -56581   -62094   -68877   -72847 
  -72715   -69227   -63905   -60024   -57756   -54835   -52074   -51055 
  -51904   -53833   -54838   -54991   -57394   -62045   -63952   -60917 
  -57235   -57096   -61234   -66517   -66057   -59038   -53989   -55949 
  -59999   -58438   -51202   -46662   -50341   -59408   -67076   -68231 
  -64967   -63579   -65483   -66657   -63193   -55614   -48335   -45214 
  -47089   -51096   -53868   -56588   -62407   -70722   -76468   -74903 
  -68132   -62865   -60988   -58966   -54932   -50435   -48046   -50144 
  -56809   -63513   -64871   -61375   -57844   -57391   -59046   -58644 
  -55023   -52219   -52683   -56278   -61374   -63506   -61876   -62033 
  -66645   -71189   -71328   -69398   -69799   -71968   -72094   -68355 
  -61591   -53882   -48245   -46011   -44692   -41305   -36842   -36891 
  -44867   -54291   -55403   -49408   -45959   -48574   -53348   -57641 
  -61926   -66700   -71192   -74200   -75163   -73821   -70263   -66709 
  -65637   -66333   -67564   -68169   -65247   -58980   -52837   -48145 
  -45213   -44676   -45378   -46278   -49061   -55036   -61835   -65642 
  -65432   -62951   -58327   -50620   -42727   -39374   -42496   -50635 
  -59916   -67805   -75192   -82802   -88921   -90917   -87262   -78161 
  -65069   -50955   -39945   -35652   -38971   -46429   -53701   -59439 
  -63279   -65260   -65015   -59971   -51243   -44959   -44344   -48297 
  -53957   -59405   -65757   -71303   -70712   -64567   -57781   -51785 
  -46974   -44436   -44229   -46799   -52558   -59372   -61278   -53235 
  -40700   -36839   -46794   -62099   -73168   -80242   -88069   -96268 
  -99302   -92710   -76324   -53512   -30124   -12043    -4317   -10043 
  -25044   -41651   -57547   -73887   -90435  -103098  -105468   -96211 
  -81862   -70130   -62921   -59412   -61024   -65993   -66475   -57139 
  -42275   -33128   -35651   -42278   -42959   -38072   -36720   -49910 
  -79455  -110978  -127792  -125671  -110135   -88302   -63813   -38241 
  -15330        9     6045     3856    -8524   -34175   -68020   -97368 
 -112817  -114087  -105108   -89705   -72018   -55570   -40839   -25027 
   -8366      211   -10301   -40914   -78197  -103022  -107213  -101138 
  -99829  -103113   -99750   -83869   -57008   -26435     -912    16440 
   21403     7227   -20915   -45985   -58656   -68078   -87617  -115576 
 -136759  -138499  -120442   -91856   -63825   -44614   -38465   -40761 
  -37395   -21930    -8210   -13066   -34191   -56291   -68335   -67271 
  -58084   -51518   -52765   -56380   -56274   -56328   -63837   -76796 
  -87275   -89757   -82824   -69073   -54309   -45078   -40323   -32846 
  -25292   -27674   -41715   -61001   -78351   -89452   -94417   -94210 
  -88502   -80670   -76035   -73588   -65992   -47852   -25335   -13900 
  -22532   -43795   -61143   -67060   -66880   -65639   -65963   -70439 
  -77057   -80226   -74143   -57529   -38055   -25104   -22135   -28733 
  -43524   -62966   -79312   -87205   -91295   -97797  -103779  -100076 
  -81382   -53276   -26617    -7373     3097     6049     4404    -5310 
  -30996   -70073  -107228  -125933  -121933  -106302   -91052   -77558 
  -58414   -28784     1604    15386     5569   -19419   -47677   -75073 
  -97148  -104182   -97030   -88800   -85897   -81785   -68851   -51954 
  -44819   -52736   -66844   -72837   -64538   -50142   -40474   -38157 
  -40646   -43182   -42846   -44466   -54148   -70193   -85275   -92200 
  -89340   -81299   -71210   -59157   -47588   -39414   -35325   -35583 
  -41088   -53031   -67851   -78687   -85081   -88077   -83095   -69557 
  -56238   -51692   -54554   -55229   -46393   -32029   -25646   -35465 
  -54397   -68111   -70177   -67243   -67472   -69725   -67859   -61055 
  -56267   -56941   -56986   -51565   -43535   -38787   -42076   -53557 
  -66758   -72593   -65851   -51295   -43252   -50307   -63762   -70330 
  -67851   -63230   -65083   -77255   -92408   -97671   -87173   -65202 
  -42550   -28604   -23778   -24677   -31870   -45827   -60780   -69638 
  -74973   -85209   -98509  -103068   -91104   -64682   -34392   -13224 
   -6966   -13023   -25732   -40345   -56883   -76621   -94212  -101988 
  -98544   -87203   -71189   -53509   -38465   -30312   -29788   -33569 
  -38993   -47151   -59438   -73306   -81794   -80706   -74002   -64201 
  -51184   -41241   -38282   -38697   -40764   -44836   -51590   -61969 
  -72183   -75286   -70094   -63840   -63141   -65290   -62372   -52488 
  -43986   -46548   -59409   -71310   -72749   -65811   -60973   -65656 
  -73870   -72987   -61569   -48686   -41907   -41594   -42996   -45334 
  -51384   -59792   -66529   -70181   -72776   -73958   -70523   -64791 
  -62553   -65171   -70292   -74764   -76120   -74702   -72503   -68410 
  -59325   -47355   -39565   -39715   -44550   -48708   -50953   -54073 
  -59709   -65575   -68036   -65630   -60390   -56390   -56094   -58856 
  -60919   -57573   -50637   -47707   -50519   -54368   -56493   -56841 
  -57066   -59802   -62834   -61323   -58538   -60879   -65287   -65640 
  -64310   -67014   -72078   -72916   -68325   -63092   -61017   -60620 
  -57284   -51616   -50088   -54997   -61664   -63772   -59394   -54103 
  -53261   -55173   -56140   -54255   -51668   -54244   -60208   -60489 
  -56076   -57630   -67043   -72998   -66303   -52707   -45351   -48130 
  -53858   -56845   -58380   -60389   -62507   -64006   -64676   -65475 
  -67062   -67859   -64391   -55329   -47406   -49197   -56957   -59634 
  -56521   -55737   -59712   -63461   -62649   -58225   -54163   -50856 
  -45560   -40497   -42623   -53560   -65586   -70655   -69041   -66672 
  -67619   -69204   -65167   -54516   -44105   -41685   -46815   -52864 
  -57847   -63242   -65639   -62161   -58055   -59071   -64451   -69000 
  -65630   -52630   -39161   -36621   -44800   -52488   -54568   -56159 
  -61193   -69574   -77244   -79745   -79478   -78634   -72330   -57346 
  -40290   -33706   -41687   -52071   -51534   -43339   -40678   -49918 
  -66372   -79210   -81112   -75137   -68962   -65273   -62020   -59327 
  -57701   -55023   -52454   -52638   -54212   -55689   -57861   -62063 
  -68429   -73170   -70598   -60197   -48560   -43452   -46552   -53176 
  -58466   -61011   -63234   -68731   -76804   -83051   -83898   -77570 
  -64842   -50095   -39526   -37644   -45102   -58297   -70544   -76695 
  -76715   -73793   -70390   -65237   -55125   -40084   -24909   -16549 
  -20569   -37863   -60904   -77791   -84953   -87069   -85862   -78959 
  -65723   -49994   -38126   -33557   -35282   -41888   -52359   -65230 
  -79353   -89234   -86910   -74227   -59442   -46702   -38967   -38163 
  -41540   -45913   -51875   -61755   -74326   -83924   -84657   -75693 
  -63626   -54682   -47337   -39188   -34517   -37860   -47176   -58154 
  -67057   -71717   -74732   -78655   -79937   -72796   -58071   -45731 
  -43722   -49440   -56158   -60258   -63269   -68552   -74076   -74232 
  -69282   -65015   -62794   -59177   -53903   -50641   -53175   -60568 
  -66157   -65960   -61464   -54782   -49010   -47190   -48385   -49561 
  -48765   -46482   -46873   -53239   -62011   -66490   -64138   -58440 
  -55544   -58141   -62460   -62185   -56381   -50951   -50158   -52854 
  -56702   -59827   -61195   -61558   -62553   -65339   -68408   -67973 
  -62665   -55045   -49192   -47622   -48666   -49444   -50620   -54006 
  -58059   -59551   -58588   -58385   -59995   -61112   -59300   -55338 
  -54406   -59844   -67398   -71058   -70234   -68782   -69291   -69222 
  -65499   -59599   -53752   -48747   -46081   -46381   -48852   -53137 
  -58395   -62832   -65946   -69309   -72399   -70568   -62929   -56184 
  -55584   -59019   -60760   -58202   -55049   -55668   -58834   -60841 
  -60880   -59635   -56884   -53623   -52562   -55554   -60877   -63974 
  -64020   -64437   -65704   -65289   -63276   -62348   -62229   -59138 
  -52007   -45883   -47145   -53938   -58377   -58790   -59160   -62214 
  -66661   -66664   -59666   -51505   -48518   -50441   -52554   -52524 
  -54017   -61425   -71593   -76743   -74873   -69766   -63834   -57028 
  -50565   -47322   -48254   -51219   -52699   -51013   -49010   -50044 
