Origin Time       2024/04/02 04:24:00
Lat.              40.133
Long.             141.712
Depth. (km)       71
Mag.              6.0
Station Code      AOMH17
Station Lat.      40.4492
Station Long.     141.3374
Station Height(m) 65
Record Time       2024/04/02 04:24:50
Sampling Freq(Hz) 100Hz
Duration Time(s)  209
Dir.              5
Scale Factor      7845(gal)/8223790
Max. Acc. (gal)   146.804
Last Correction   2024/04/02 04:24:50
Memo.             
[...]
     843      841      841      846      847      843      841      843 
     841      841      845      845      842      843      843      842 
     843      846      847      846      843      842      841      842 
     843      846      847      846      846      847      845      843 
     839      839      845      846      843      843      843      842 
     841      845      845      843      846      847      845      843 
     842      843      845      847      849      846      845      841 
     839      842      842      839      841      843      842      843 
     845      843      846      847      846      842      841      841 
     842      846      849      846      842      841      841      842 
     843      843      843      845      846      843      842      843 
     843      845      847      846      843      842      842      842 
     841      842      845      847      846      845      843      842 
     843      843      845      843      842      843      845      842 
     839      841      842      845      846      845      846      843 
     841      842      843      842      845      847      846      845 
     845      843      842      843      843      843      842      843 
     845      843      843      845      845      843      843      842 
     843      846      845      843      842      839      843      846 
     845      845      845      843      841      839      842      845 
     843      845      843      843      842      842      845      846 
     846      843      842      843      845      845      845      845 
     845      845      845      842      841      841      842      842 
     842      845      846      846      846      847      847      847 
     847      845      845      845      841      839      842      845 
     845      843      846      843      839      841      845      845 
     843      843      845      847      845      843      845      843 
     845      846      845      842      841      841      842      845 
     846      846      845      843      842      841      843      845 
     845      845      845      845      845      842      841      841 
     842      843      845      843      845      845      843      845 
     845      842      842      843      843      843      842      843 
     846      846      843      841      841      843      845      845 
     846      847      847      845      843      843      841      841 
     843      845      846      845      843      846      846      843 
     842      842      843      843      842      842      843      842 
     843      846      842      839      839      842      843      843 
     843      842      842      845      845      843      842      841 
     842      845      845      842      839      823      780      706 
     616      552      571      685      826      927      943      703 
      63     -537     -313      633     1312     1370     1161      557 
    -554    -1422    -1017     1192     4014     4619     2686     1194 
     645     -720    -1102     1953     5495     5142     2131      276 
   -1696    -5765    -7433    -4837    -3964    -5999    -5432    -1567 
    1715     3874     9113    17469    19318    12201     6987     4243 
   -4109   -11045    -7963    -5497   -11889   -15579   -11719   -10404 
   -6438    10435    26370    29527    28084    21348     -463   -26715 
  -34362   -23315   -13582    -7869     6610    24132    29047    23785 
   22009    27610    22794    -7558   -39532   -49447   -51536   -46934 
  -18927    16239    34468    39043    40674    41621    32148     7423 
  -13776   -20430   -25795   -34427   -35148   -21243    -3267     1034 
    2076    20964    39819    37377    28863    25213    14085    -7780 
  -19904    -7007     9259      946   -21253   -33463   -33432   -26577 
  -11815    12475    35047    37511    24700    14006     5922       52 
    1120      882   -12685   -32944   -38134   -23376    -5998     9382 
   30824    50082    49536    23276   -14742   -39668   -46091   -43463 
  -28903    -1381    31803    55911    44444     4855   -17801    -8563 
   11491    22423    22941    23907    15165   -16294   -42766   -38034 
  -19526   -10056    -5637     4228    10427     4920     4023    16970 
   32131    40224    40448    37108    26275    -3924   -44585   -69817 
  -62997   -27238     6600    13988    13099    13975     1625    -9643 
     473    15425    19992    19005     4479   -27041   -48745   -46815 
  -31556    -5393    27896    50691    46091    16885   -14519   -30848 
  -31014   -20340    -5800     6010    11659     9757      603    -7835 
   -1262    21764    45431    50287    30689     8538    -2355   -18585 
  -38595   -39056   -24057   -12025     1910    22530    35345    30947 
   13068    -7658   -21014   -19723      537    23454    24347     4264 
  -20166   -39618   -46494   -30330     1613    21253    20017    20710 
   29398    26738    15433     8156    -5161   -25223   -37901   -38689 
  -22181     4330    15252    10023     6331     6664    12515    25258 
   34311    34553    23730    -3881   -35075   -49723   -46259   -24472 
   17277    58368    73699    65119    42993     7049   -34219   -58822 
  -54230   -29893    -5930     8862    14887     4425   -18222   -26121 
  -10667    13606    35494    43067    32694    14835    -3715   -13952 
   -7290     6200     9265    -2025   -15973   -25608   -36684   -40248 
  -24553    -4402    12428    30123    35338    26061    17371    10201 
    4355     4449     7823     9860     4673    -7080   -15897   -16615 
   -7499     7372    17880    16363     1772   -14044   -22627   -26908 
  -20974    -4482     6955     5655    -5104   -12411    -4430     8897 
   18638    27862    29006    14968    -4603   -16028   -19413   -24040 
  -24470   -12016     3357    14354    22820    23205    12279    -4526 
  -20819   -26414   -13937     6381    18758    21452    18245     7248 
   -9994   -21385   -17188    -4271     5255     8484     7736     6156 
    4722     3323     2482    -1723    -5790     3160    16804    14096 
     584    -6579    -9524   -14650   -16452    -7063    10960    24228 
   26530    19508     1486   -17487   -23961   -22131   -15550    -4533 
    3288     7813    12838    13466     8448     2157    -4658   -10554 
  -11719    -6659     2056    11070    19612    25555    27114    26676 
   24628    17381     3402   -12548   -24374   -28795   -20945    -2864 
   11581    16375    14636     6312    -2538    -4521    -5647   -10782 
  -14384   -14165   -14904   -17579   -13711      814    16603    26488 
   29481    24221    13490      599    -8122    -6594    -5150    -9601 
   -9803    -5459    -1988     1921     3034    -2146    -6790    -8113 
  -12541   -17300   -12468     1362    15352    23755    25512    22491 
   18616    14337     7009    -1784   -10054   -16239   -14359    -4715 
    4901    12345    16467    12877     4768     1884     3150    -1672 
   -8525    -8596    -9350   -12584    -7414     3102     6305     1362 
   -3753    -5589    -7538    -9493    -7140    -2444     1382     3478 
    1134    -4183    -8364    -8496    -1579     8235    13308    14658 
   12864     3580    -6226    -7816    -7152    -6970     -915     9504 
   14142     7896     -444    -2393    -2720      -37    12201    22077 
   20175    16227    11465     -209   -10789   -11878    -6655    -1021 
     373     -153     2713     4025      -10    -2623      265     5274 
    7558     7308     6623      842   -10577   -18627   -21127   -21188 
  -17108    -8071     4617    14659    10593    -1035     -841     6307 
    5802     5675    12363    12506     1367    -8401   -10041    -7128 
   -2305     2107     3079     1548     1590     4572     6825     5167 
     256    -5366    -7384    -4240     -677      515     3040     9256 
   13522    11587    11546    17319    18594    12347     4266    -5983 
  -15194   -16081   -12494    -9778    -4897     1806     5474     4996 
    2157    -2269    -7161    -8978    -7870    -7257    -3869     4546 
    8472     2500    -3962    -2062     6562    13740    14137    10374 
    4401    -2953    -7850    -9676    -5506     7126    14662     9327 
    4187      911    -7890   -10770    -2297     4683     8387    11469 
    9267     1081   -10864   -18458   -14311    -3635     9377    20957 
   23093    17590     8202    -5298   -15171   -18320   -19901   -15313 
   -3410     4446     6732    11040    15498    11604      805    -3466 
    -213    -5217   -17212   -21764   -20827   -16181    -2516    12818 
   25147    35941    33729    16252      758    -5167    -5119    -3052 
   -5586   -13506   -19633   -19892   -13821    -1227    14994    28472 
   32031    22935     5922   -13509   -27853   -26037   -12430    -3146 
    3319    15950    24062    17257     8525     7018     4671     2025 
    3349     2047    -2812    -6339    -9701   -12847   -13180   -10035 
   -2803     4904     6070     1390    -1237     -481    -3943    -9510 
   -4649     9173    19923    24098    21470     9418    -8518   -21687 
  -22792   -12804     2767    16291    20650    16490    10694     5103 
    -773    -4460    -7626   -11889   -14933   -17232   -15456    -4550 
    9031    16887    18207    16445    15430    11749     2182    -5456 
   -6859    -7516    -8451    -5967     -221     5533     6277    -1298 
  -11365   -14935   -12467    -8217     -707     9660    15426    12475 
    6204     2057     -373     -922     -144    -2525    -7128    -7624 
   -4156    -1408     1273     7497    15610    19727    16389     6457 
   -5061   -11011   -11975   -14519   -14359    -7150    -4536    -8257 
   -2382    15094    30433    35796    35604    34167    22346    -2137 
  -21046   -26828   -29151   -28578   -19930    -6070     8469    20289 
   23971    18855    10974     3888    -1215    -3796    -8903   -18762 
  -25722   -24046   -15180    -1321    14312    25164    26196    17269 
    3080    -7919   -11138   -10166    -9224    -6158     2146    11319 
   14536    10948     4851      280    -3593    -8160    -7176     3225 
   11307     7824      463    -3177    -3662    -3977    -5197    -3558 
    1216     2436    -1312    -3609     -361     5838     9711    11168 
   15272    19800    15223     1297   -11149   -15430   -13474    -7568 
    1428     9274    10966     7196     2524       18    -1039    -2673 
   -3989    -3245     -496     1745     -500    -5042    -6804    -8847 
  -11480    -4704    13113    26744    21213     2149   -11907   -17163 
  -20660   -18910    -6203     8847    11685     2184    -6065    -5628 
    -183     4920     8217    12059    13475     5238    -6439    -8626 
   -2640     2497     4344     4797     2691    -6031   -17417   -18150 
   -6257     6103    13500    16239    13108     7072      282    -6092 
   -5552     2223     8352     9232     7905     5040     -753    -5732 
   -3924     2424     7701    10916     8721     -529    -8121   -10334 
  -12517    -9960     2855    12645    10035     4656     1127    -3136 
   -5664    -4804     1957    15689    23727    13934    -5003   -18782 
  -24487   -19773    -2174    19989    32805    26396     3483   -20082 
  -29492   -21222    -2484    16977    27534    18110    -6014   -20902 
  -15970    -1417    12568    20185    13174    -9844   -33592   -41307 
  -29061    -3589    22756    37786    36285    24732    10887    -3361 
  -10882    -7893    -5125    -8602   -11026   -10224   -13949   -18727 
  -13684    -5991    -4163    -2829    -4251   -12048   -16281   -11763 
   -4419     2397    10359    20391    25267    17375     6567     2166 
   -2324    -4098     4831    15842    21527    25645    25762    16818 
    4970    -3207    -9305   -14634   -15817    -8452     2677     8974 
   12939    16137    12530     2701    -7146   -11692    -8078    -1746 
    1413     9236    27233    40502    36914    25378    13001    -4653 
  -21772   -25639   -20123   -18297   -20970   -17632    -8021    -6399 
  -15576   -24930   -33408   -46195   -59544   -63815   -48207    -6320 
   48471    93116   115186   108394    78543    40328    -4965   -54035 
  -86464   -86139   -52521     -450    43470    64137    69152    66328 
   46992     3095   -47376   -74942   -76669   -72658   -72427   -67651 
  -51960   -27625     2181    28224    39401    42222    51850    69302 
   84677    90003    85139    77363    65909    39484     4228   -17478 
  -21903   -19720   -12415    -5711   -10817   -17739   -12949    -8850 
  -19148   -35982   -45697   -45705   -40819   -30356   -11809    10589 
   35109    62267    81719    79384    53380    15489   -16771   -34353 
  -42900   -46376   -40324   -28914   -20491    -8853    10574    24645 
   28035    35654    49249    45108    11738   -33932   -72260   -94836 
 -102138   -97299   -72512   -20368    37527    71752    87394   101277 
  103202    78730    36567    -4874   -36857   -61221   -77330   -78169 
  -55201   -10164    29737    35573    12935    -8970   -15302   -20555 
  -31564   -25555    -1321    10332     8004    15766    29895    30056 
   14334    -9020   -33450   -49180   -49334   -34298    -3726    38171 
   74083    88464    80110    53627    16594   -20688   -54187   -83701 
 -106147  -111478   -83938   -28941    24397    65070   100587   125035 
  125347    99601    54070    -2552   -60289  -109202  -134520  -123827 
  -86664   -39202    15761    67999    98274   104028    93367    69997 
   34385   -10997   -53391   -83710  -106759  -113854   -87963   -36659 
   22626    84057   136115   154737   132628    89445    41494    -5999 
  -44023   -67846   -81498   -87447   -81002   -54392   -13213    24170 
   45017    46361    36501    26597    12486    -7360   -13957    -2280 
    2740   -10812   -21496   -14311    -3045     3111     9499    12992 
   12002    11371     7812     3844     9202    18485    18546     6010 
  -12847   -27751   -32196   -24570    -7503    10025    17906     7511 
  -18640   -37528   -33085   -15782     1386    14227    17633    10330 
    1085     1850    13305    21037    16606     7115    -3775   -20927 
  -41289   -50278   -38623   -14022    11766    39096    66734    78336 
   65587    39120     7072   -28127   -58345   -72187   -62712   -34599 
   -1404    27888    49797    58862    50134    26871      172   -22025 
  -38564   -46840   -42938   -29516   -14210       13    16289    34684 
   48357    50558    40756    22694     -707   -26408   -45293   -43131 
  -13385    30437    64463    76345    65477    32062   -15561   -55748 
  -73255   -71196   -56033   -28366     8506    42067    57758    54749 
   45998    36988    19059   -11703   -43009   -59360   -62236   -60405 
  -47220   -18667    12622    38416    55408    58727    49304    30250 
    4446   -23382   -47054   -58033   -50413   -25035     6998    25327 
   23391    18333    22235    27502    28804    30927    29185    10284 
  -21833   -47074   -56421   -52967   -37031   -11389    12577    23592 
   23283    21851    18002     5715    -7674   -14854   -19253   -22326 
  -21768   -18962   -12995      -58    16186    28413    32975    26742 
   10210    -7915   -19947   -24079   -18154    -1775    19823    37955 
   44714    40540    30713    16224     -742   -13949   -20231   -17820 
   -5409    10235    19649    21928    20250    13976     2203    -9337 
  -13439   -10941    -8041    -7877    -7445    -3847     1402     7427 
   13200    16062    15917    14018     9760      321   -12829   -21952 
  -25937   -29965   -32607   -28875   -19888   -11356    -5433     -422 
    1999    -1761    -8722   -12097   -11226    -8032     -891    10135 
   22239    31596    33115    27460    21425    16652    10366     3607 
   -2120    -6787    -9036    -8635    -8237   -12465   -20479   -21539 
  -10226     4267    12452    15460    16725    14006     8102     7454 
   15010    23627    27712    27371    23700    17876    10509     1651 
   -5220    -6185    -5111    -8004   -12073   -11803    -8675    -6648 
   -5340    -3667    -4290    -7098    -6328     -190     6562     9022 
    6814     4542     2852    -2087    -6628    -6500    -6652    -9865 
  -11697    -9748    -6832    -4333      579     6079     4901    -1497 
   -3855    -2448    -6106   -14646   -18129   -13761    -8700    -5850 
   -2604     -310    -1634    -3723    -2702     -940    -1143     -885 
   -2037    -8714   -14399   -10978    -1320     8648    19267    34118 
   48238    49113    36556    21492     6218   -10156   -18955   -13613 
   -1406     6855     8614     6928     4531     3855     6932    11146 
   12702    13073    11570     2423   -12442   -21983   -21412   -17070 
  -13203    -5395     7913    19225    23512    22886    17194     5864 
   -6596   -16877   -22991   -21196   -11175     1748    10531    12765 
   10490     4128    -2793    -2407     3759     4969    -2837   -14581 
  -26056   -35329   -36447   -25041    -8750     3175    12125    20380 
   24598    23638    20802    16240     6277    -6743   -14947   -13967 
   -5815     2960     9144    14744    17845    14118     6130     -318 
   -5418   -11929   -18169   -20976   -19190   -11952      720    13919 
   20529    20004    16164     9375     -391   -10177   -16960   -18459 
  -13838    -5259     3381    10085    15792    19978    20228    17448 
   13382     5468    -6365   -15637   -17822   -12772    -2863     5721 
    8819     7491     3298    -1989    -5640    -6053    -4972    -6265 
  -10027   -11785    -7599     2722    15325    24827    26553    18090 
    1632   -16463   -28445   -29847   -22227    -8788     8517    25903 
   36634    36286    28090    18813    10513      637   -10625   -18399 
  -20268   -17818   -11264     -464    12892    26474    35298    33354 
   21523     6947    -6590   -19839   -29887   -32516   -30173   -24730 
  -13099     3441    19201    29733    32115    26574    16499     4878 
   -6539   -14739   -16610   -13359    -8218    -1876     6552    15780 
   21007    19515    12937     2133   -11558   -24182   -32807   -35760 
  -32644   -25303   -15653    -5260     4916    14547    21385    23053 
   19647    12166     2627    -6772   -15260   -20259   -17694    -8685 
     962     8938    16198    20463    17986     9502      916    -2617 
   -2659    -3470    -6027    -9946   -13819   -14168    -9687    -1088 
   11194    22343    25667    21577    13873     4395    -2709    -3801 
   -2737    -4429    -7133    -7400    -4329     2928    13514    21778 
   22273    16135     8958     3825     -419    -5198   -10312   -14509 
  -16860   -18075   -17483   -12264    -2469     8318    15908    18021 
   16152    11497     2242    -9805   -17157   -15327    -7412      876 
    6381     8208     6146     2829     2536     5343     9175    13925 
   16934    13849     6875     1132    -2937    -5431    -5965    -7082 
   -9904   -12708   -12888    -7663      969     8441    13541    13984 
    8419     2041    -1628    -3609    -3577    -1840     -288      764 
    1189     1146     4241    12592    20938    24198    23025    18084 
    9240    -1664   -11936   -18789   -21004   -19770   -15449    -7013 
    3623    10782    11080     5962    -1896   -10378   -18192   -23183 
  -23229   -20710   -17631   -11913    -4356     1694     6704    12744 
   17628    17464    13420     8441     2600    -2624    -4330    -2455 
     729     3373     6642    11168    13358    11844     8438     2575 
