Origin Time       2024/04/02 04:24:00
Lat.              40.133
Long.             141.712
Depth. (km)       71
Mag.              6.0
Station Code      AOMH12
Station Lat.      40.5846
Station Long.     141.1547
Station Height(m) 85
Record Time       2024/04/02 04:24:52
Sampling Freq(Hz) 100Hz
Duration Time(s)  280
Dir.              5
Scale Factor      7845(gal)/8223790
Max. Acc. (gal)   136.984
Last Correction   2024/04/02 04:24:52
Memo.             
[...]
   36150    36150    36150    36148    36147    36148    36146    36144 
   36146    36144    36144    36150    36153    36151    36151    36147 
   36144    36147    36144    36143    36147    36147    36146    36147 
   36150    36153    36153    36153    36150    36147    36146    36146 
   36143    36140    36144    36147    36150    36153    36153    36151 
   36146    36142    36146    36147    36144    36144    36148    36151 
   36151    36151    36150    36147    36144    36144    36144    36143 
   36144    36150    36153    36150    36147    36148    36148    36148 
   36148    36146    36143    36143    36144    36147    36147    36150 
   36153    36150    36148    36151    36148    36146    36146    36144 
   36140    36140    36146    36147    36147    36147    36150    36151 
   36150    36148    36148    36147    36147    36147    36144    36146 
   36147    36144    36144    36147    36144    36146    36150    36150 
   36147    36147    36148    36148    36146    36146    36147    36144 
   36146    36150    36148    36147    36150    36148    36146    36143 
   36144    36147    36150    36151    36150    36147    36146    36147 
   36147    36148    36150    36150    36147    36148    36151    36147 
   36143    36144    36148    36148    36150    36150    36148    36150 
   36155    36157    36161    36171    36182    36198    36225    36255 
   36289    36317    36328    36309    36246    36138    36003    35868 
   35761    35694    35661    35650    35676    35784    36054    36526 
   37107    37551    37629    37319    36799    36296    35951    35775 
   35719    35606    35086    34219    33771    34407    35912    37368 
   38022    37844    37050    35856    34904    34858    35614    36606 
   37331    37492    37183    36755    36580    36884    37378    37561 
   37228    36262    34789    33270    31905    31055    31364    32583 
   34090    36173    39141    41944    42649    40822    38411    36811 
   35451    34184    33748    34114    34569    35016    36283    38518 
   40344    40477    38507    35185    32609    31919    32292    33042 
   34091    35187    35833    35534    34813    34983    36633    39505 
   42260    42677    40019    35623    31311    28983    29577    32189 
   35830    39764    42615    43671    43144    41061    37694    33795 
   30129    27541    27020    29550    34661    39159    40123    38232 
   35977    34936    35518    36876    36888    34055    30480    30453 
   34300    38450    41269    42776    42588    41235    39123    36499 
   34789    33928    31972    28930    27807    31650    38950    43762 
   42849    38464    34150    32073    32433    34573    37651    39260 
   38335    36394    33906    31569    31064    33588    39785    45742 
   46377    43812    40930    36362    30418    25709    24579    26781 
   29632    33474    39274    43432    42997    39499    36996    38416 
   41080    40923    37917    32533    26102    22557    24871    34481 
   48213    56737    55367    47943    39135    31884    27220    25353 
   27257    30954    33558    36289    39137    38654    34404    29897 
   29212    34076    41422    47250    50198    47641    37848    26566 
   21551    24354    32055    41300    48836    51250    47574    41534 
   36971    34009    32055    30195    26350    22638    24522    30927 
   36556    41251    44852    43848    39403    35279    32233    30456 
   29659    30091    32960    37085    41851    47105    49329    47353 
   43379    38484    35448    35708    36312    37413    39757    38921 
   33102    26536    24237    27561    31969    33539    34257    35893 
   38394    42240    45686    46519    44782    41135    38259    38889 
   40598    39577    35784    31475    28786    28359    30407    35143 
   39654    39415    34172    28336    25975    28016    32759    36582 
   37393    37069    37195    37532    38947    41496    42580    40113 
   35696    33581    34623    35237    34338    33698    33983    35564 
   37986    39920    41291    41993    40952    36899    29990    24119 
   23047    25200    28074    32266    36850    39091    39970    41847 
   42935    40500    36383    34971    37269    40455    42796    44759 
   45200    41967    35791    29404    25509    25659    28354    31691 
   35564    38249    37615    34375    30547    29016    31473    35440 
   37870    38275    38064    39363    41790    42893    41979    39136 
   34819    31806    31660    32617    34021    36703    39703    42107 
   44930    47375    45462    37403    27356    21672    21843    24568 
   28944    35677    41704    44367    44408    42178    38700    35694 
   32424    29230    28703    31523    36782    42364    45540    45786 
   43309    38940    35591    34096    32231    29266    27118    27448 
   28827    29432    31758    38491    46886    52228    52273    48235 
   43723    40163    35814    30537    26253    23687    22036    21423 
   24821    33818    43812    49545    51001    49107    42684    33166 
   25713    23642    26203    30766    35039    38722    42589    45809 
   45523    40166    32227    25398    21393    21539    27344    36829 
   44903    49384    51425    51106    47561    41215    33947    27692 
   23419    22245    25207    31463    38826    44699    46812    45196 
   41480    35961    28902    23383    23186    28610    36159    42061 
   44968    45153    43272    39893    35375    31311    29793    30766 
   33511    37810    41743    42410    38816    32657    27847    28063 
   33403    41108    48473    53071    52448    45598    34446    23518 
   16854    15201    17979    25242    35066    43559    48482    49613 
   47259    42287    36686    32800    31280    31043    31666    34028 
   38853    45262    49860    49364    45099    41241    38785    35405 
   30933    28328    28296    28684    29346    31750    36143    41625 
   46005    47844    48230    47260    43368    36335    27252    18644 
   14129    15597    22650    32498    40738    45700    48366    49164 
   48536    46502    42066    35676    29168    23873    21014    22115 
   27870    36607    44594    49104    49967    48054    44199    38387 
   30528    22608    16769    13952    16154    24178    34869    44470 
   51100    54148    53530    49268    42757    36250    30581    26337 
   24563    25492    29018    34180    38323    39307    37694    35816 
   35013    35191    36404    38192    39476    40362    41181    41052 
   38670    33659    28634    26806    27260    28416    31135    35629 
   40474    42969    41748    39424    38141    37608    38227    40120 
   41979    42271    39796    35025    30292    27648    27391    28645 
   31305    36104    41264    42715    40414    39002    39954    40412 
   39506    38205    36081    32895    30148    29956    32765    36914 
   41431    45567    47023    45214    41439    36150    30991    27598 
   25332    25118    28181    32051    33982    34199    35120    38507 
   42364    43749    42615    40058    37022    33868    30176    27176 
   26590    28440    33012    39989    47164    52737    55699    55350 
   51718    45453    37698    29562    22226    17821    18250    23174 
   30076    36003    39533    41467    43308    44915    44361    40732 
   35625    31114    28491    28421    30253    32775    35274    36602 
   36193    35711    36867    39258    41014    40714    38815    36540 
   34730    33845    33473    33065    32964    33944    36107    37439 
   36000    33095    30685    29533    30350    33015    36954    41125 
   43276    43216    42703    41324    38088    33976    30573    29513 
   31684    36047    40324    42261    41742    40516    38986    36791 
   34338    31558    28961    28476    30766    34306    37319    39289 
   40724    42237    44230    46094    46066    43298    38527    33214 
   29776    29647    31444    33853    36491    38052    37667    35561 
   32559    31171    33207    36888    39599    40972    42402    44228 
   43799    38979    31637    25024    20800    19417    21427    27438 
   36154    44311    49767    52343    52180    49335    44215    38350 
   33529    29824    26970    25651    26096    28586    33841    40594 
   44938    43984    39309    34298    30045    26669    24005    21655 
   21594    25286    30624    35460    38719    40343    41766    42766 
   42174    41110    40871    41291    41084    38406    34638    33772 
   36016    38373    39964    42117    45141    46989    45817    42649 
   39459    36279    31749    26458    23838    25660    30169    35482 
   40190    42040    39973    36159    33910    34433    36018    35934 
   34188    33741    35521    38134    41311    44046    43953    40381 
   34793    30252    29083    29683    29903    30165    30973    32150 
   33609    36016    40336    44429    45187    43633    42137    41188 
   39779    36261    31409    27568    25042    23780    24449    27541 
   33782    41904    48604    52494    53478    50895    45076    37791 
   31171    26399    23583    23572    27290    33648    40481    46152 
   49719    50226    46813    40734    35105    31837    31174    32417 
   33849    34476    34830    35048    34677    33956    32996    31344 
   29299    27565    26977    28977    33544    38956    44150    47776 
   47965    44856    40131    34969    30276    27306    26659    27750 
   30153    34346    39827    43750    44004    41771    38281    33366 
   28536    26104    26430    28782    32332    36277    39903    42252 
   42890    42637    42553    42273    40163    36348    33400    32491 
   32147    31544    31575    32655    34075    35413    37249    40084 
   43155    44799    43406    38750    32911    28219    25482    26079 
   31248    38809    45781    50820    52227    49003    42024    33293 
   26391    23090    21554    21567    24865    31178    38873    45688 
   49102    48207    43961    38719    34358    30952    29253    29781 
   30326    30285    32238    36481    40112    40917    40068    41040 
   43895    44813    42627    39275    36259    34429    33116    31068 
   29200    28787    30245    34048    38967    42260    42561    40474 
   37488    34528    31707    29339    27959    28232    30331    33305 
   36387    39199    40802    40420    38524    36783    36772    38534 
   40923    42925    43495    41654    37557    32308    27629    25189 
   25049    26777    30565    35675    40709    44207    44647    42483 
   39761    37613    36294    35506    34573    33120    31301    30092 
   29988    29961    29943    31792    36051    40483    43090    44101 
   44032    42982    42394    43614    45195    44552    40829    35347 
   29955    25803    24632    27642    33149    39402    45165    47569 
   45677    41431    36035    31268    29300    29654    31189    33072 
   34420    36300    39224    41200    41517    40790    39106    36965 
   34414    31121    28221    26800    26643    27657    29876    32375 
   33714    33859    34666    37265    40483    42723    43382    42649 
   41054    39089    36906    34273    31872    30883    30939    31483 
   32333    32556    32239    31996    31881    33120    36279    40401 
   45391    50028    50930    46890    40506    35159    32518    32552 
   34535    37627    41467    45540    47810    46398    41323    33772 
   26076    20830    19441    21978    26964    33056    39806    45243 
   47290    45760    40157    30890    21074    14027    12393    17200 
   26704    38909    51854    61554    63549    56118    42201    27681 
   17085    13446    18615    29316    39182    45916    50647    53239 
   52504    48523    43028    37832    33369    29536    26991    26761 
   29783    35684    41218    43972    45149    45200    42765    37855 
   32148    27699    24518    21425    19903    21744    25343    28190 
   29185    28513    27475    26311    24246    22312    21679    22412 
   24625    27217    29378    31436    32478    33359    37204    44504 
   54654    67281    79357    87636    91108    89133    82317    73233 
   63941    55013    45740    35988    28840    27851    33075    41197 
   46707    44695    34042    16831    -3848   -24780   -42111   -52047 
  -52378   -41895   -20791     7851    39424    69556    94290   110610 
  117871   118065   113606   105429    94065    80410    64801    48189 
   32806    19503     7144    -5304   -18295   -31344   -41427   -44610 
  -39991   -28906   -12141     8839    30865    49800    62012    67772 
   70669    72670    73759    75022    77638    80252    81031    80469 
   77962    69484    54001    36660    22690    11774      403   -10442 
  -17262   -20676   -21662   -18249    -7136    13072    38272    62459 
   80709    88669    86765    79274    68617    58229    53318    55389 
   63089    73496    81830    83332    72972    49860    21604    -3346 
  -20603   -26269   -18931    -2088    19954    43294    61938    69487 
   64021    47413    22284    -5505   -27475   -37575   -33484   -15778 
   13896    51676    88958   117196   131144   127527   107306    76137 
   42863    17066     3291      -17     2528     6450    10995    16977 
   22883    26530    28000    29168    31450    35781    42157    47093 
   45293    35006    19418     4232    -4757    -2731    13778    42006 
   69916    85666    86308    74487    54507    32907    15315     2451 
   -6662   -10984    -7865     4977    25654    47710    63755    66715 
   52193    23695    -7335   -28282   -30650   -10741    28140    75616 
  121676   159088   179745   176650   148861   103545    51017    -2058 
  -48222   -74960   -73867   -47185    -5173    36891    64966    75340 
   73504    63108    42639    13427   -16108   -36701   -43569   -35839 
  -16669     9477    39079    66665    87091    98663   101871    98753 
   91015    80122    68354    56093    42384    28165    15996     7771 
    2882       27      222     4765    13440    26057    40250    51181 
   57017    57793    53391    47412    42562    37241    33330    33392 
   33963    31912    28938    28641    32846    39888    46669    51563 
   55846    61870    68089    67940    55590    31398     2577   -21192 
  -34407   -35760   -25380    -6381    16749    41790    66000    82543 
   86281    80063    69565    58955    51756    48517    49810    58326 
   70316    77197    74702    62201    42749    21339      751   -14523 
  -19076   -12148     2512    19629    35545    45804    45395    36359 
   24402    12731     6093     7342    13412    23151    36167    48180 
   56862    61064    57748    47992    37212    29812    29054    35995 
   47817    60652    70428    72697    64858    47104    23614     1995 
  -11732   -14512    -4541    17718    48486    78844    97306    98973 
   86981    66555    42307    16992    -7866   -28215   -37366   -30777 
   -9717    20713    54814    85592   106255   113671   107306    87272 
   55340    16206   -22690   -53122   -68277   -63331   -37392     5051 
   55428   102571   136603   153349   152992   135491   102431    61597 
   22545    -8552   -27804   -32686   -22353     -360    24734    44315 
   52115    46159    30859    11758    -7612   -22353   -26050   -13776 
   13495    48061    80820   104133   112715   105088    83648    54503 
   25677     4822    -2436     4374    19869    37342    53102    65448 
   71529    68257    55036    34929    14018    -1892    -9462    -7460 
    3132    19643    38353    54853    65786    70127    68388    61774 
   52170    41354    30726    21999    16653    15363    17834    23141 
   30323    38032    45165    50881    53299    50886    43455    31513 
   17281     4507    -3264    -3937     2023    12978    27054    40783 
   51293    58167    61408    60673    56092    49565    44639    43935 
   47459    52860    57134    57361    50413    36047    19156     5116 
   -4363    -8428    -5089     5800    21722    39074    53666    62247 
   63424    57146    45225    31133    19109    13197    14983    23252 
   35341    47806    58106    65128    68087    66856    62255    56654 
   54159    56571    61462    65823    67205    63409    54378    42344 
   30441    20605    12210     4693     -946    -4152    -4926    -2810 
    2305     9491    17508    25986    35723    46602    55462    58914 
   57346    53910    51197    48951    45258    40876    38442    38473 
   40324    43326    46201    47810    46749    41642    33473    25326 
   19758    16883    15028    14604    18373    25979    33177    37424 
   40109    43287    46967    49901    50811    49212    45968    41589 
   36117    30858    26820    24201    24456    29238    38126    47880 
   53661    53356    48780    41847    32999    22351    11276     3019 
      75     2718    10442    22333    36760    50866    60971    65630 
   65854    61878    53755    43935    35780    29909    24717    20609 
   19953    23453    29525    35665    40200    43166    43825    40208 
   32499    23004    13984     6673     1563     1143     8645    22832 
   39263    54999    68613    78474    82682    80131    71319    57578 
   40620    23838    12143     9194    15512    28316    42356    52540 
   56053    52153    41692    26630    10026    -3549    -9981    -7970 
    1885    18091    37196    54666    67714    75234    76902    73399 
   65758    55852    46446    39564    36431    36873    39040    41403 
   43187    43484    41338    37006    32773    30933    31176    31104 
   29126    26211    24403    24788    27013    29635    32043    35348 
   40080    45287    49331    50434    48621    46052    44509    43950 
   42781    39849    35974    32266    28726    24962    21775    21497 
   24773    29741    35136    40308    44134    45300    42468    36105 
   28539    21257    15813    15215    21019    31849    44544    54642 
   58448    55227    46384    34609    23658    17101    17051    23029 
   32242    42705    53015    59695    60589    56524    48072    37203 
   27738    21415    18793    20806    27197    36084    44001    48076 
   48798    47931    45777    41237    33362    24000    17081    14812 
   17142    23376    32144    41395    49121    53312    52531    47409 
   40351    34041    30264    29061    29455    30758    32445    34053 
   35409    36082    35660    34233    31995    30029    30237    33556 
   39973    48261    55136    57273    54035    47016    37470    26520 
   17192    12675    13468    17883    24214    31610    39112    44833 
   46750    44709    40814    37045    34518    34441    37130    41407 
   45777    49064    50322    48888    44915    39627    34626    30948 
   28883    27680    25847    23785    23893    26451    29231    31087 
   32486    33562    33905    33404    32532    32263    33251    35023 
   37181    40043    42786    43977    43661    42252    40004    37647 
   35240    32568    30851    31938    36292    42641    49030    53169 
   53315    49295    41504    31148    20494    10974     4442     3867 
   10134    21799    36108    49165    58388    62336    59273    49944 
   37890    26913    20791    21369    26978    34874    42731    48459 
   50631    48894    43960    36872    28765    21346    16320    14808 
   17089    22142    28190    33577    37320    39260    39791    39634 
   39241    38639    38059    38738    42650    49609    56722    62033 
   64882    63706    57279    46198    32566    20097    12432    10822 
