Origin Time       2024/04/02 04:24:00
Lat.              40.133
Long.             141.712
Depth. (km)       71
Mag.              6.0
Station Code      AOMH16
Station Lat.      40.4624
Station Long.     141.0923
Station Height(m) 165
Record Time       2024/04/02 04:24:51
Sampling Freq(Hz) 100Hz
Duration Time(s)  202
Dir.              2
Scale Factor      2942(gal)/8224139
Max. Acc. (gal)   20.803
Last Correction   2024/04/02 04:24:51
Memo.             
[...]
   56739    56737    56737    56737    56739    56740    56739    56739 
   56739    56740    56739    56739    56739    56740    56741    56739 
   56737    56739    56739    56739    56740    56740    56737    56737 
   56739    56737    56737    56739    56739    56736    56737    56741 
   56741    56740    56739    56739    56739    56740    56739    56739 
   56740    56739    56737    56737    56737    56740    56740    56737 
   56739    56741    56741    56739    56737    56737    56739    56740 
   56739    56739    56739    56737    56739    56741    56740    56737 
   56737    56737    56739    56737    56737    56737    56737    56739 
   56739    56736    56736    56740    56740    56737    56737    56737 
   56737    56740    56740    56739    56739    56739    56740    56741 
   56739    56736    56740    56741    56740    56740    56743    56741 
   56737    56736    56741    56741    56737    56739    56741    56739 
   56739    56739    56737    56740    56743    56741    56739    56740 
   56740    56739    56740    56741    56740    56740    56741    56740 
   56739    56739    56739    56740    56740    56739    56739    56741 
   56743    56741    56740    56741    56740    56739    56741    56741 
   56740    56740    56741    56740    56740    56740    56740    56740 
   56740    56739    56740    56740    56741    56741    56739    56739 
   56740    56739    56739    56739    56739    56741    56740    56739 
   56739    56739    56737    56736    56737    56740    56740    56737 
   56737    56736    56735    56739    56740    56739    56739    56741 
   56740    56740    56740    56739    56740    56740    56737    56739 
   56740    56737    56736    56740    56741    56739    56737    56737 
   56737    56739    56740    56741    56741    56740    56739    56739 
   56740    56740    56739    56739    56739    56739    56740    56741 
   56740    56739    56740    56743    56740    56737    56740    56741 
   56739    56737    56737    56740    56741    56740    56740    56740 
   56739    56737    56739    56740    56739    56739    56739    56737 
   56739    56739    56739    56740    56739    56737    56740    56741 
   56740    56737    56740    56741    56737    56739    56741    56740 
   56739    56739    56739    56741    56740    56739    56740    56740 
   56739    56740    56741    56739    56737    56741    56740    56737 
   56739    56740    56740    56740    56739    56739    56741    56739 
   56739    56740    56739    56736    56739    56740    56737    56736 
   56737    56737    56739    56739    56737    56737    56736    56736 
   56740    56741    56740    56740    56740    56740    56739    56737 
   56737    56737    56739    56739    56737    56737    56740    56741 
   56740    56739    56737    56739    56740    56739    56737    56737 
   56736    56733    56733    56731    56728    56727    56720    56710 
   56706    56701    56690    56678    56668    56658    56644    56631 
   56616    56600    56583    56562    56539    56511    56469    56421 
   56371    56319    56281    56268    56284    56340    56446    56600 
   56809    57049    57271    57457    57631    57750    57708    57487 
   57175    56828    56385    55842    55348    55016    54834    54768 
   54764    54819    55111    55644    55938    55817    55919    56396 
   56682    57007    57670    58028    58025    58341    58826    58901 
   58611    58298    58164    57919    56901    55387    54707    54994 
   54629    53536    53916    55649    56220    55761    55929    56301 
   56029    55121    54190    54356    54958    54422    54167    55831 
   57384    57159    56970    58392    59778    58884    57044    56731 
   57179    57403    57705    57227    56300    56274    56203    55749 
   56150    56664    56182    55142    54569    55734    56984    55248 
   53446    55003    55929    54715    56296    59439    58707    56970 
   58796    60276    57680    55790    58774    61978    61272    60345 
   61233    60158    57254    57157    58054    55340    53643    57177 
   59382    57014    55131    53685    50305    47954    46453    44787 
   48853    56824    57183    52699    55873    61500    58565    57110 
   65894    70051    63445    60648    62457    57306    49411    48910 
   53114    56721    60660    64281    65132    65017    64644    60817 
   55736    55406    58005    56759    51903    51993    59528    63138 
   58851    58642    63034    61265    57472    58623    58133    54237 
   53765    56728    59857    62001    61145    59593    61462    62671 
   59641    57090    57300    57339    55266    50819    47042    46769 
   46462    45420    49431    55802    56737    56060    57807    55422 
   50333    53268    62911    67921    64527    59744    58822    56104 
   49478    50164    59938    64027    57591    52002    56268    65547 
   66386    59074    58178    61308    56502    52986    59474    61349 
   52914    50789    58309    60332    55406    54739    57445    55711 
   53077    54820    54648    53600    64108    75876    69109    59092 
   62430    61689    53689    56899    62257    54315    46890    48728 
   47541    41115    39641    44455    48994    52030    55879    57098 
   52785    49264    52180    57203    57767    54866    55189    59749 
   62209    61900    62829    63630    63485    62795    57496    50886 
   53468    62241    65547    62390    57812    53218    51560    57739 
   66343    66744    62023    59543    56091    51761    52195    53477 
   51318    49997    49183    47206    49723    56415    60701    62843 
   65340    68681    72347    71018    63856    59697    59954    57285 
   52331    50677    51567    52384    53333    53069    49778    46039 
   46051    51135    57627    59605    57542    54449    47625    40574 
   42854    49029    50040    53590    61888    62962    59285    61884 
   65056    63105    62464    60961    55605    58010    66636    64893 
   58482    62108    67115    63065    56452    52366    51135    55325 
   59470    55458    51158    55156    58922    57330    56301    54889 
   50553    48216    49752    52331    53935    54236    55702    58371 
   58741    60235    66237    66903    57234    48917    48068    49040 
   50043    51571    52517    56643    64211    65874    60906    59651 
   62102    60751    57688    57241    56886    54787    52089    49590 
   47819    47709    51329    58463    63481    62368    59698    60866 
   61319    55863    50876    52782    56805    55962    51754    51636 
   56278    59190    61960    68072    68991    63036    63042    68935 
   66761    56367    50499    52178    53437    51440    50287    49831 
   49084    52011    56100    56577    59914    66974    66387    59965 
   59535    60507    53946    49283    54149    56654    50797    47486 
   49986    50977    49515    49184    50611    52758    54978    57040 
   58683    60393    61558    60123    57761    57541    58209    57856 
   57612    59782    63364    63876    61524    60161    58082    51537 
   43290    41412    47572    51966    50365    51409    56274    55582 
   51520    55074    62534    62178    56714    55601    58198    59782 
   60162    61797    65700    68006    66690    66204    65433    59637 
   54872    57146    59752    58041    57261    58498    56481    52043 
   50950    53057    52899    48363    45361    50172    56909    57001 
   55036    56587    57123    54930    54689    55992    55098    53254 
   52386    52128    53138    53620    51236    51374    58503    66649 
   70991    74502    76819    73395    67231    63224    58729    55651 
   59128    62086    59198    56984    55451    50926    49688    54067 
   56767    55842    54716    53231    49615    45690    45438    49511 
   55046    59690    62769    64339    64366    63242    63113    65322 
   66438    64586    64974    67660    64805    58163    56172    57122 
   56334    55439    54683    52821    51637    51015    49462    48975 
   51075    53680    54403    52988    51417    51181    51587    53673 
   58078    59177    55019    54306    60043    62824    59764    60259 
   64644    62831    58866    61905    63405    57052    53180    56189 
   60124    63767    66162    63089    58436    58977    61312    61703 
   63871    65850    61186    53906    50373    48907    48822    50801 
   51872    51595    51995    51084    48193    48440    51975    52910 
   51923    52489    53152    53862    55617    56729    58074    60731 
   60949    58962    60400    62880    60289    57268    59267    60562 
   56916    53685    53744    52492    48855    47387    47833    46990 
   46674    47914    48033    47941    50541    54307    56142    55960 
   54920    53603    52712    52258    51719    52290    54562    55912 
   55636    56413    58401    59718    59869    58989    58039    58446 
   60093    61963    62773    60023    53508    49590    53420    59138 
   58666    53650    49140    46579    46811    49738    53582    57217 
   59198    58703    57761    57376    56177    55162    56471    59760 
   63861    66684    66100    63759    61978    60224    58939    59852 
   61291    59867    55772    52201    51426    52882    55007    57827 
   60679    61047    59632    59711    60504    59543    57569    55275 
   52639    51748    53461    55563    57268    58912    58978    58959 
   63202    69029    70356    68064    64902    61724    61824    64795 
   64000    59379    56884    55143    50950    49248    52267    53446 
   51491    52034    54333    54811    55135    55115    52515    51158 
   53793    54934    54009    57977    62527    59227    56380    61240 
   64983    64544    65268    64061    59405    58526    60781    59044 
   54801    52566    51653    52296    55888    60003    62746    64501 
   64112    60696    55555    51511    50819    51983    53817    57357 
   59799    59759    61499    64237    65045    66594    66326    60363 
   56559    57562    55417    53662    58764    62537    59501    55371 
   52752    50950    51024    51935    51902    52037    53412    54518 
   54060    53504    54083    54283    53599    54203    56484    57618 
   56292    55910    57870    57106    53981    55931    60648    60423 
   58444    58677    56825    53466    53214    53549    52762    54232 
   56717    57493    58928    60628    58009    53384    53399    55382 
   53468    51741    52165    48532    45418    51192    57481    57072 
   57072    59103    58124    56648    57213    56438    55111    56417 
   56700    53518    52740    55911    56446    53752    53536    54387 
   51748    50612    54855    55995    50579    47761    49819    49775 
   48099    49404    50442    49748    53416    58434    55436    51295 
   56879    62020    56315    51660    56308    59586    57797    58955 
   61011    58644    58062    60957    60081    58590    62136    64004 
   61333    60930    62328    59319    54652    55637    58523    55462 
   53755    62163    69896    66831    60774    58522    57377    56868 
   58218    58972    57577    55316    53916    54252    54915    55509 
   57898    60201    59306    58465    60994    62203    58206    54418 
   55910    58673    58276    57029    56801    55719    54419    55055 
   56315    56760    57431    57906    56650    55871    58032    60316 
   60593    60232    58392    55699    57451    63502    66572    64671 
   61672    57591    52910    52930    56255    56876    58082    62880 
   64050    59150    56062    58399    60547    59050    58189    60111 
   61300    61416    62506    62187    58263    54194    53396    54963 
   56717    56305    54179    55159    58461    57187    52340    50539 
   51889    53191    52759    49225    46272    49198    53536    54623 
   56945    59933    59171    59687    63513    64069    62926    64775 
   63594    56188    50415    49651    50017    51358    55098    57740 
   56269    54004    53392    50827    46417    46899    52505    55645 
   55028    55264    55642    53851    53171    55740    59490    64247 
   68608    69034    67934    66781    60872    52891    50310    51389 
   52359    54222    55031    52558    51133    52439    51864    50444 
   52240    53863    53149    53568    53794    51962    52602    55880 
   56340    54591    54963    57429    59216    58423    55420    53428 
   55659    60682    63459    61609    58186    56787    56014    54203 
   55139    59479    60521    57303    56230    57410    56835    55761 
   55802    56092    57208    57715    55385    54913    58631    58746 
   54496    54783    57982    57535    59254    67296    71257    66841 
   64882    67078    63568    57726    59065    60651    55121    52864 
   59216    61408    54816    50087    49775    48894    48801    49424 
   47105    45115    47054    49011    49202    50167    51525    52120 
   52552    54014    58149    61971    60851    58521    59070    59729 
   60633    63495    64629    62604    60737    59551    57511    55323 
   54442    55391    58522    62554    62421    55876    49882    50302 
   52698    52215    52093    55694    60312    64984    72558    79051 
   77095    70730    68848    69385    66050    62538    65219    70218 
   70544    64349    52506    40097    33091    29558    25397    23927 
   28053    31198    29293    30410    39397    49481    56008    59898 
   62229    68149    79888    87635    87408    89677    97087   100437 
   96727    88662    76338    61110    47032    36090    27850    20985 
   13153     4222    -1414      -95     8174    22527    39938    53859 
   61291    68006    78322    84699    80399    72931    71416    75247 
   82026    89698    94493    98485   105250   108459   102945    94629 
   84956    66240    42739    29814    28013    27537    26757    24713 
   20891    23014    32900    41091    43410    43908    43845    43506 
   47713    56115    61330    64056    70420    77483    80308    81560 
   82883    80434    72941    65126    62175    64018    66594    68582 
   71664    72986    66864    55632    48459    49419    54540    56930 
   51354    41130    35341    32096    24941    24325    38880    52744 
   54500    55286    57916    49734    32543    23545    30483    45361 
   57775    66425    73344    77503    81475    87180    87799    79392 
   69273    65900    69732    74029    72331    67470    68077    72902 
   69537    54175    34885    15728     1614      797     8830    19049 
   33430    44888    44532    42938    55371    77346    91095    91559 
   84747    70891    58160    59641    66286    68253    75998    85000 
   73291    47274    32124    28707    24603    19911    19795    27365 
   43472    58923    61095    53437    53497    68345    82278    79108 
   67883    64157    59636    46303    41908    52825    58903    55177 
   55686    61037    61256    56424    57028    68083    75317    63283 
   45106    40189    39853    31635    25415    31139    42446    50423 
   50949    44189    40173    48155    59765    67568    82817   106004 
  114578   101812    86609    80446    79347    79947    80238    74025 
   58371    39600    24281    13150     7528    10226    21290    38573 
   55105    58912    48389    40031    42815    44767    43918    55281 
   78544    96203    99998    98620   101147   102037    91783    75554 
   65874    62831    58324    53541    54993    57433    49825    41740 
   52677    68737    58563    28301     8672     6912    12359    23627 
   42221    61927    77647    87308    87318    77965    66992    62068 
   64795    73005    79766    79546    81595    92519    97382    85550 
   69483    63049    61246    50286    33794    30357    41793    51637 
   51954    46773    40282    37046    38815    38399    35553    40347 
   46124    39177    28818    27729    31422    38908    56015    72017 
   70402    60237    63555    79193    85121    74745    66351    68413 
   69885    69908    74359    74976    66688    60134    61362    64212 
   62587    54626    41303    27581    17848    11167    10667    23820 
   45080    62008    72769    80034    83866    84073    81399    76385 
   68212    61393    63383    69549    71555    73013    77997    81730 
   80418    73411    59115    42201    33029    33172    36285    39534 
   42812    43430    39201    34662    36846    46030    55899    58928 
   53046    47610    53712    65979    69958    63455    55772    55588 
   61257    61821    54469    46946    42114    36825    32386    36882 
   52131    65664    68161    65623    64447    62541    58009    50619 
   38614    25652    22221    32077    45883    52942    52593    49978 
   47275    44894    45951    53704    65526    73704    74842    73627 
   74609    76023    73284    67571    67348    73773    75115    66922 
   60474    62013    62856    57348    52350    53229    55539    53223 
   48523    50060    56632    57223    52772    53509    60463    69500 
   78641    85765    89183    86709    77033    66780    64922    68887 
   68681    62684    58005    59175    64230    65373    55306    38785 
   26894    24143    30620    41589    46249    41964    38277    39788 
   42005    44109    48871    54496    56847    54044    48037    45176 
   51074    63047    70175    66074    61808    71498    87026    90003 
   80052    69234    63013    59584    54837    46766    41527    44329 
   47677    46596    48153    52749    53576    53770    58232    60355 
   53950    44599    41503    46396    52231    53125    53422    57917 
   61202    61716    69566    82567    81984    67749    61209    66036 
   66673    60567    56844    56158    53627    49491    47399    47395 
   46325    43420    40227    37673    36533    37431    38897    42148 
   51668    62341    65060    64253    67281    70320    69279    68041 
   68362    66630    63721    63620    63864    58807    50045    44948 
   46240    50679    54380    55659    56548    59925    64403    66320 
   65259    64218    64293    60781    50804    43189    45797    49450 
   45859    45657    56478    66333    65013    58581    54143    51185 
   50311    52377    53496    51700    48998    46271    45324    50143 
   58735    61970    56290    48949    47395    51298    56234    57805 
   53619    47768    48243    55810    62002    61068    58268    60535 
   64431    64260    63121    63693    62662    60448    60242    60921 
   61311    63381    66893    67429    65119    66914    72257    72914 
   68698    64690    62428    63495    67956    69233    61331    49952 
   47019    51652    51408    46120    47440    55587    61179    62041 
   61753    62071    62521    61885    60650    59811    57966    54942 
   52154    48849    45333    43745    44679    48285    51579    48398 
   40790    37755    41339    47432    52844    54936    53728    54730 
   61933    70825    74588    71824    64336    56366    55364    62922 
   70976    73456    72160    69777    65088    57083    48687    43380 
   41594    41324    41970    44676    46982    46738    48640    54928 
   59850    60848    61473    61272    56300    48995    45501    46403 
   48825    50909    51592    53068    58149    63644    65118    63578 
   62268    61771    60574    58325    55818    54934    58499    64797 
   66924    62071    55239    51305    50808    53573    57010    56112 
   53111    54557    57462    55741    53694    56701    61500    65025 
