Origin Time       2024/04/02 04:24:00
Lat.              40.133
Long.             141.712
Depth. (km)       71
Mag.              6.0
Station Code      AOMH11
Station Lat.      40.5800
Station Long.     140.9950
Station Height(m) 240
Record Time       2024/04/02 04:24:52
Sampling Freq(Hz) 100Hz
Duration Time(s)  142
Dir.              6
Scale Factor      3920(gal)/6170801
Max. Acc. (gal)   22.297
Last Correction   2024/04/02 04:24:37
Memo.             
[...]
   -6276    -6272    -6262    -6244    -6217    -6184    -6137    -6074 
   -5999    -5912    -5818    -5710    -5585    -5448    -5317    -5207 
   -5124    -5087    -5119    -5207    -5298    -5340    -5347    -5408 
   -5601    -5914    -6283    -6656    -6996    -7220    -7177    -6768 
   -6165    -5805    -5926    -6156    -5830    -4767    -3549    -2951 
   -3290    -4437    -6088    -7673    -8313    -7504    -5873    -4774 
   -4974    -5923    -6308    -5423    -4052    -3363    -3053    -2264 
   -2154    -4834    -9678   -13633   -14979   -14108   -11780    -9549 
   -9971   -13186   -15548   -14298   -10758    -7065    -3759    -2001 
   -3452    -7198   -10618   -12299   -11322    -6370     1645     8170 
    8966     4733     -443    -3519    -3459    -1466    -1343    -5514 
  -11366   -14728   -14231   -10447    -5018    -1477    -2302    -5358 
   -6370    -2688     4549     8535     2295   -11063   -19465   -15112 
   -3171     4537     1751    -8323   -17319   -18315   -10145     2203 
    8794     2634   -10396   -17612   -13983    -5640    -3683   -13239 
  -26534   -31153   -22959    -9714    -4164   -10221   -18927   -21106 
  -16294    -9191    -4338    -3716    -5743    -6584    -5430    -5865 
   -9571   -13325   -12081    -4873     1023      113     -697     3654 
    4964    -1849   -10071   -11913    -4795     6993    13321     6542 
   -9319   -20870   -19350    -7980     3305     6749     3173    -1779 
   -6336   -10678   -11113    -5699     -752    -2516    -7687   -11605 
  -15751   -18584   -16633   -13245   -10164    -5840    -1685     4961 
   14909    16107     3151   -12520   -23549   -28168   -20605    -4605 
    4760     2443    -2483    -4581    -6975    -9435    -8961    -7223 
   -6170    -5082    -3202    -1792    -3922    -8455   -11395   -13736 
  -16052   -12600      908    17720    22895    11104    -7069   -19456 
  -19449    -7584     4207     3692    -5771   -12416   -12977   -11581 
   -9984    -7047     -511     8199     7510    -8278   -22192   -18976 
   -6833      712    -2206   -12747   -17234   -10361    -6007   -12204 
  -19051   -17501    -8083     4199     8581    -1875   -14792   -14083 
   -4256     -897    -7545   -12339    -5164     5345     3657    -9898 
  -23834   -27050   -13549     6841    14939     6292    -5989   -11481 
  -12488   -13213   -11717    -5940      -71    -1153    -9274   -15064 
  -11078    -1369     6036     7124      425   -10077   -17653   -20653 
  -18612   -10973    -2468      926      731     2773     5549     1886 
   -7804   -13975   -10736    -2322     2920    -1695   -14515   -23659 
  -20089    -6990     4590     5377    -3125    -9087    -3985     6240 
   10926     6483    -5374   -16240   -18338   -17624   -18875   -14430 
   -4498      611     -463    -4348    -8996    -6677     3577     6811 
   -5268   -21197   -25892   -15625      673     9704     5499    -7247 
  -18620   -20355   -11058     -514    -1510    -9273    -9111    -3112 
   -1144    -1851    -3990   -12375   -23569   -27081   -19591    -5231 
   10076    16881     6652   -13849   -26066   -20698    -4328     8790 
    9696     2368    -6824   -15085   -17329   -11731    -3562     2829 
    5551     4009     -583    -8611   -17779   -19931   -13552    -6304 
   -1675     1744     2222    -2626   -11764   -20967   -23198   -14874 
    -530    12219    16774     9515    -4500   -13198   -12147    -9592 
  -11600   -13151    -9858    -6761    -8869   -14094   -18062   -17633 
  -11534    -1974     4346      873    -9194   -14856   -11377    -3814 
     691    -2475   -10512   -12744    -4932     4967     8648     4475 
   -2093    -4709    -4972    -6479    -7461    -6323    -4253    -2626 
   -4035    -9777   -15417   -16466   -13976    -9786    -4725    -1703 
   -2120    -3804    -6548   -11011   -14013   -13163   -10044    -5818 
    -907     2319     1357    -3683    -9503   -11892    -9933    -5600 
     227     5603     4516    -4868   -14681   -17248   -12617    -4524 
    2360     2850    -2020    -5499    -7147   -10689   -13593   -11120 
   -5551    -4501    -9217   -12152    -8654    -2556     -571    -5169 
  -11319   -10955    -2444     6435     6227    -4098   -14202   -13494 
   -5191      119     -203    -2355    -3556    -3066    -3614    -7808 
  -12016   -13569   -14131   -11772    -6733    -4993    -5756    -4607 
   -4974    -8926   -10655    -8613    -7780    -9164    -9705    -8096 
   -5211    -3776    -5329    -6976    -6909    -5490     -925     5351 
    6406    -1563   -13035   -17654   -12636    -4954     -187      204 
   -4867   -10878    -9932    -4545    -3783    -8674   -13539   -15060 
  -13479    -9622    -5357    -2619    -2032    -5092   -10685   -12692 
   -8667    -3577    -2345    -5084    -8913   -11249   -11579   -10356 
   -7742    -4554    -1950     -437     -753    -3171    -5489    -5099 
   -3677    -4818    -7090    -7215    -6477    -6446    -5741    -4750 
   -5859    -8873   -11638   -12343    -9266    -4460    -3936    -8740 
  -13510   -13982   -10508    -6663    -4810    -3523    -2387    -3123 
   -3932    -2272     -250     -656    -3162    -5645    -6081    -4255 
   -2497    -3492    -8151   -14744   -17973   -14146    -6501      -51 
    1914    -2905   -11686   -16370   -12061    -2834     2922      345 
   -8620   -14040    -7901     1791     2432    -4357    -9699    -8976 
   -2541     3523     3561     -775    -6095   -10491   -11091    -7335 
   -3212    -2250    -4264    -7430    -9297    -7763    -5681    -7850 
  -11441   -10818    -6986    -3410    -1906    -3150    -5398    -7776 
  -11225   -12027    -6215       45    -1871    -9107   -12466    -9952 
   -6057    -4032    -5753   -11019   -13691    -8692    -1405      357 
   -2943    -7396   -10509    -9193    -4070    -1912    -5065    -7394 
   -5963    -4377    -4369    -5346    -6560    -5494    -2464    -2851 
   -8473   -14025   -14919   -12456   -10089    -8622    -7106    -6647 
   -9112   -12281   -12385   -10490    -8997    -6821    -4479    -4726 
   -6617    -7267    -6210    -5290    -5927    -6024    -3548    -1029 
    -509    -1183    -3178    -4871    -3153     -436    -1101    -4034 
   -5789    -4866    -2266    -2231    -6585   -10019    -9049    -7434 
   -8406   -11276   -13781   -11867    -4088     2981     2979    -2074 
   -7971   -11479    -9700    -4955    -1992    -2206    -5144    -8573 
   -9497    -7168    -4035    -4816    -9940   -13457   -10900    -4819 
   -1695    -3584    -7612   -11871   -14647   -14215   -10970    -5530 
   -1407    -4300   -10913   -12537    -8706    -4594    -3098    -4002 
   -5212    -4985    -3935    -3702    -4234    -4774    -5667    -6589 
   -6978    -7591    -7689    -4889     -305      911    -2955    -7593 
   -8885    -5907    -1779    -2500    -8633   -13153   -10282    -1984 
    3348     -416    -9294   -14122   -10680    -3027     1105     -707 
   -4643    -7216    -7535    -6916    -6292    -4988    -4845    -7751 
  -10305    -9933    -8748    -7015    -4119    -2963    -5269    -9186 
  -11997   -11540    -7975    -4306    -4081    -8486   -13714   -13190 
   -6836    -2902    -5460    -9523   -11031    -9548    -4955    -1589 
   -4928   -10604   -10229    -5031    -2129    -3709    -7233    -9005 
   -6269    -1712     -125     -567     -835    -3095    -7701   -10488 
   -9646    -6424    -2181     -469    -3274    -6753    -8006    -8182 
   -7267    -4960    -3622    -4207    -5028    -5669    -6329    -6120 
   -5444    -5876    -7446   -10192   -13624   -12937    -6275     -383 
     -87    -3715    -8340   -10552    -9359    -8321    -8794    -7470 
   -3228     -642    -4217   -10835   -12364    -7068    -2582    -4253 
   -7877    -8377    -6630    -5339    -6147    -8909   -10218    -7565 
   -3738    -2134    -2048    -1848    -2694    -6808   -12706   -14639 
   -8817      464     3535    -2215    -8222    -8697    -7445    -7388 
   -6555    -4355    -2567    -2613    -5262   -10003   -13920   -13334 
   -8421    -4564    -5710    -8485    -7212    -2150     1516    -1139 
  -11087   -21076   -20917   -10320     1355     4845    -1378    -9397 
  -12406   -10810    -6270    -2409    -3062    -4952    -4903    -5785 
   -7490    -6679    -4860    -5577    -8750   -11057    -9188    -3737 
    1580     3481      344    -5802    -9937    -9754    -6865    -3165 
    -597    -2491    -8956   -13042    -9908    -4732    -3882    -6354 
   -8154    -7448    -4577    -1603     -690    -2893    -8070   -12505 
  -10823    -3491     2254       59    -8488   -15358   -13993    -5305 
    1821       41    -7563   -14211   -16070   -11978    -5974    -3937 
   -5356    -6572    -8133   -10157    -8902    -4569    -2019    -3472 
   -7843   -12051   -10817    -2993     3213      368    -7566   -12124 
  -10096    -3665     1731     1844    -2048    -7051   -11521   -13211 
  -11205    -7926    -6891    -8559    -9216    -5579      466     2864 
   -1625    -9224   -14051   -14017   -10470    -4905      858     3070 
    -935    -9297   -16800   -17730   -10330     -505     3530     -469 
   -8490   -13847   -12582    -7677    -3677    -1841    -3442    -8058 
   -9844    -5232     -327    -2836   -10812   -16045   -14439    -8026 
   -1431      939    -1613    -6039    -9684   -10696    -7471    -1302 
    2456     -550    -6675    -8691    -6264    -4449    -5576    -7305 
   -6706    -4302    -2295    -1339    -2133    -5509    -9925   -13154 
  -13694   -10746    -6637    -4896    -6062    -9147   -12084   -10733 
   -5155    -1873    -3760    -6866    -7690    -5412    -1770     -779 
   -3634    -7895   -11222   -10591    -5354    -1337    -2462    -5610 
   -8015    -9764   -10352    -9785    -9771   -10024    -7814    -3646 
   -1212    -2796    -8731   -14404   -12723    -5716    -1060     -642 
   -3423    -8058    -9685    -5940    -2234    -2904    -5723    -8133 
   -8396    -4506      537      616    -4474    -8809    -8398    -5326 
   -3943    -5646    -8951   -11162    -8996    -4259    -3803    -8260 
  -11023    -7758    -1411      542    -4838   -12408   -14956   -10558 
   -4772    -2664    -2965    -3774    -5296    -6833    -7631    -7165 
   -3889       90    -1438    -8463   -12469    -8420    -1790      198 
   -2690    -7184   -10157    -9495    -6295    -4110    -6064   -10871 
  -12999    -9758    -5249    -5876   -11226   -13337    -8519    -2066 
     927      540    -2550    -7319    -9561    -7884    -6258    -4625 
     697     6326     5427    -1800    -8974   -10092    -6335    -5255 
   -8927   -11356    -9089    -4914    -3171    -6291   -12089   -15409 
  -15034   -13297   -10217    -5897    -2683     -527      170    -3530 
   -8786    -9654    -6051     -157     5353     4747    -3992   -13490 
  -15291    -9746    -3795    -2692    -5484    -8195    -9060    -8816 
   -9624   -12737   -15858   -14448    -5799     5063     7660      531 
   -6787    -9956   -11692   -10203    -4156      332     -207    -1758 
   -1536    -2757    -8840   -16077   -17582   -12892    -7118    -4746 
   -7258   -10749    -8896    -3639    -3911   -10049   -12496    -7813 
   -2393    -1406    -4409    -8061    -8693    -6098    -4422    -6806 
  -10733   -10917    -5316     3330     8420     3030   -11634   -23911 
  -22368    -8005     6149     8550       17   -10262   -15508   -14656 
   -9114    -2871    -1494    -6076   -13162   -18311   -16339    -6677 
    1772      974    -5455    -8098    -3285     2181     -453   -10266 
  -19697   -22953   -19914   -15224   -11319    -6016     1779     8678 
    9255     1459    -9437   -14352    -8839     3503    14060    14697 
    3647   -11802   -18892   -12694    -5580   -10753   -22936   -26946 
  -17067    -1239     9190     6803    -6248   -15731   -12153    -4086 
   -3631    -8344    -9087    -6010    -5601   -11356   -16645   -11593 
   -1404      915    -6284   -12889    -9468     2586    14116    15561 
    6126    -4164   -10396   -14179   -12713    -5820     -349     -348 
   -3878    -9613   -15971   -16902   -10952    -4367     -958      -92 
   -1551    -7505   -15348   -13713      718    14396    13389    -3300 
  -23839   -31913   -22388    -8397    -5085   -11486   -16536   -12032 
    1405    12005     8833    -4579   -16821   -22833   -23381   -16789 
   -4287     6447     9619     1661   -15203   -24967   -16815    -3824 
    -504    -3190    -4558    -3502    -1579    -2871    -9097   -15171 
  -15439    -9931    -4510     -960     7920    19763    17637    -3530 
  -26418   -31991   -17567     3233    15329    16547     9153    -7304 
  -24233   -25887    -7267    16584    22630     4393   -19940   -27507 
  -16837    -4774    -3168   -12064   -21324   -19076   -10924    -9955 
  -12078    -7170     1792     5880     1967    -4895    -5604      454 
    3437    -1685    -9588   -11527    -4237     5664     7842    -1885 
  -15911   -24509   -24892   -16232    -4580      -30    -2296    -7097 
  -14019   -23096   -29287   -24089    -7482    11254    18329     5134 
  -15833   -23850   -16098    -5417    -2062    -4219    -3942    -1323 
   -2734    -6014    -4242     1424     3613    -1263    -7283    -6410 
    -129     2978     -790    -7599   -14166   -18328   -14893    -3497 
    5695     4140    -4060    -8438    -5308    -2742    -8304   -15065 
  -13555    -7919    -6628   -10608   -15197   -16682   -14577    -8069 
    -343     1514     1301     5853     7021    -3243   -16298   -16246 
    1748    20166    16695    -5920   -22659   -16835     2108    12619 
    4510   -15318   -34198   -41386   -29564    -4735    12781     9219 
   -8462   -22323   -21833   -11619    -2706     -251    -2594    -5858 
   -6708    -5263    -6125   -11830   -15316    -9496      347     5648 
    6210     5860     3458    -4554   -14359   -18305   -15169    -8301 
   -1105     1140    -5296   -15117   -18394   -12277    -2622     4099 
    5761     3301    -2513   -10769   -15230    -9681     -260     2114 
   -3918   -10785    -9321     -901      863    -8691   -18066   -18338 
   -9592     4444    13481     6531   -13072   -28482   -25890    -8876 
    5254     5233    -3818   -11088   -13709   -15234   -14475    -6375 
    6628    15359    14372     4335    -9620   -17180   -13339    -5765 
   -1831    -2578    -5355    -5483    -1811     2855     2258    -7113 
  -18226   -23625   -20774    -9292     2032     1973    -8490   -21842 
  -29830   -25746   -13852    -4188     -716    -1546    -2714    -2311 
    -889      167    -1031    -3080    -2700     -311      739    -1898 
   -6342    -9215   -10095   -10283   -12570   -17363   -18100   -10637 
    -738     2637    -4275   -15428   -19232   -10938     1660     6757 
    2249    -3531    -3781     -295     -156    -6477   -13143   -12980 
   -7249    -1380     1085    -1904    -8634   -12889    -9895    -2829 
    -585    -4340    -5513    -1252     1618    -3284   -13924   -19391 
  -13241    -2768     2571     1819     -443    -3504   -11513   -20507 
  -19430    -7429     3166      719   -11916   -20577   -17655    -9443 
   -5175    -6917   -10699    -9152     1616    12391    10196    -3294 
  -14499   -17051   -15855   -13864   -10291    -6180    -3350    -5518 
  -13638   -19469   -16605    -8593    -1782     -880    -5861   -11347 
  -12488    -7177     1319     4481    -1167    -9789   -12825    -6790 
    3451     9607     6984    -1208    -6216    -4204     1264     6188 
    7969     5148     -719    -6111    -8243    -5970    -1621     -189 
   -4502   -12914   -18910   -17623   -12186    -7950    -7673    -9293 
   -8357    -7136    -9265   -10812    -7499     -663     4378     1331 
   -8691   -14778   -10201    -1097     3823     2170    -4250   -10511 
  -10529    -3809     3219     3036    -5074   -12936   -14031   -11219 
   -9073    -8286    -9614   -12481   -13401   -11698    -8676    -5232 
   -3991    -5358    -7792   -12056   -14798    -9374     -537    -1479 
  -11562   -15735    -8768      -74     2711    -1751    -9654   -13779 
  -12424    -7874    -2761    -2405    -6420    -7690    -5385    -4105 
   -4340    -4785    -7999   -15249   -19996   -15882    -6024     1858 
    1321    -8471   -19045   -20672   -11904     -133     4079    -1969 
   -9507   -10064    -5366    -2510    -3844    -4810    -2982    -2509 
   -3876    -2416     1792     4427     1526    -6436   -13539   -16427 
  -14307    -6310     1903     2938    -1161    -4586    -7238   -10170 
  -10721    -6892     -552     3741     3063    -1382    -6297    -7537 
   -4260    -1150    -1233    -3742    -8451   -14190   -16911   -13091 
   -4861      826      182    -5587   -11875   -11981    -6456    -2639 
   -2620    -5273   -11366   -17610   -18158   -13357    -7913    -4649 
   -4407    -7718   -13153   -15580   -10350     -367     5067     1634 
   -6789   -15632   -19673   -13347     -640     6046     1894    -6586 
  -11699   -10785    -7117    -4715    -4812    -8613   -14902   -18979 
  -17095    -9052     -608     1471    -2457    -8283   -11915    -8757 
     864     7854     3487    -7709   -12681    -6821     3162     8386 
    5559     -748    -6011    -9979   -10605    -6554    -2242    -1052 
   -3083    -8641   -13250   -10281    -2694     1046    -2132    -9368 
  -15389   -16083   -11437    -5582    -2795    -3549    -6231    -8098 
   -6024    -2155    -1840    -5181    -7742    -6527    -3310    -2496 
   -4527    -6848    -9936   -13559   -13337    -7809    -1554      795 
   -1202    -5715    -9801    -9754    -6236    -3931    -4805    -7375 
   -8867    -7665    -5975    -7207   -11316   -14740   -14453   -10751 
   -5503     -930     -168    -2947    -4427    -3345    -2959    -4052 
   -4529    -3514    -2781    -3980    -5950    -6127    -3946    -2754 
   -4703    -6587    -6524    -6355    -5778    -4261    -5246   -10325 
  -14862   -14381   -10374    -7816    -8875   -10463    -9407    -7326 
   -6695    -7137    -7831    -8086    -8717   -12258   -16116   -14128 
   -6673      488     2697    -1828    -9120   -13346   -14376   -13262 
   -9610    -5462    -3209    -3997    -7389    -9968    -8954    -6006 
   -5020    -7156    -9135    -7069    -1981      271    -3080    -7289 
   -7138    -3565    -1183    -2893    -6607    -6643    -1069     3950 
    1586    -6173   -10970    -8244    -1692     1492    -1457    -6008 
   -6776    -4233    -2520    -3716    -5241    -4018    -3134    -7545 
  -14268   -15442    -9498    -2619     -742    -4983   -11597   -13761 
   -9102    -3614    -3147    -6984    -9991    -6992      545     5318 
    4365     -428    -7555   -12912   -11362    -5268    -1290     -894 
   -2598    -6783   -11143   -11267    -8516    -6498    -5595    -7735 
  -13345   -14756    -7089     2177     3768    -2960   -12025   -16754 
  -14668    -8569    -3335    -2121    -4122    -5433    -4589    -3953 
   -2767      855     1570    -4633   -10164    -8165    -3061    -1098 
   -3697    -8781   -11505   -10083    -7735    -6484    -6420    -7682 
   -9432   -10069    -9187    -8158    -7969    -8560    -9679    -9706 
   -7181    -4123    -3550    -5430    -7041    -6983    -8009   -11298 
  -12108    -7883    -2667     -964    -3734    -7798    -9464    -9878 
  -11068   -11180    -8380    -4180    -2260    -5017   -10338   -13241 
  -11069    -6786    -4946    -4746    -2697      598     1700     -639 
   -4311    -7764   -11077   -11772    -7623    -2126      308     -455 
