Origin Time       2024/04/02 04:24:00
Lat.              40.133
Long.             141.712
Depth. (km)       71
Mag.              6.0
Station Code      AOMH01
Station Lat.      41.5273
Station Long.     140.9127
Station Height(m) 10
Record Time       2024/04/02 04:25:05
Sampling Freq(Hz) 100Hz
Duration Time(s)  120
Dir.              6
Scale Factor      3920(gal)/6170801
Max. Acc. (gal)   3.006
Last Correction   2024/04/02 04:24:50
Memo.             
[...]
  -27223   -27695   -27447   -27142   -27154   -27232   -27055   -26644 
  -26441   -26692   -26963   -26862   -26538   -26290   -26323   -26517 
  -26564   -26584   -26659   -26473   -26151   -25989   -25862   -25977 
  -26572   -27086   -27055   -26728   -26336   -25942   -25879   -26205 
  -26253   -25847   -25750   -26117   -26096   -25401   -24978   -25585 
  -26585   -26779   -26045   -25315   -25212   -25437   -25544   -25778 
  -26330   -26445   -25847   -25501   -25773   -26037   -26097   -26183 
  -26274   -26375   -26639   -26866   -26707   -26380   -26315   -26301 
  -25894   -25331   -25228   -25689   -26075   -25783   -25359   -25701 
  -26323   -26309   -25823   -25391   -25322   -25771   -26374   -26721 
  -26974   -27176   -27089   -26814   -26472   -26163   -26319   -26744 
  -26564   -26004   -26179   -26997   -27342   -27197   -27431   -27735 
  -27217   -26252   -25811   -26009   -26235   -26257   -26499   -26946 
  -26963   -26469   -26114   -26231   -26368   -26339   -26744   -27459 
  -27432   -26591   -25884   -25754   -25964   -26137   -26021   -25784 
  -25884   -26344   -26704   -26892   -27245   -27635   -27435   -26516 
  -25756   -25703   -25691   -25524   -25786   -26046   -25745   -25543 
  -25666   -25617   -25643   -25977   -26097   -25885   -25774   -25722 
  -25506   -25550   -26097   -26557   -26550   -26203   -25686   -25482 
  -25977   -26657   -26764   -26362   -26042   -26021   -26153   -26319 
  -26490   -26713   -26831   -26641   -26486   -26659   -26778   -26542 
  -26156   -25973   -26290   -26884   -27030   -26583   -26106   -25947 
  -26098   -26328   -26331   -26310   -26638   -26902   -26621   -26393 
  -26745   -27000   -26621   -26103   -25957   -26064   -26140   -26251 
  -26530   -26624   -26148   -25561   -25642   -26278   -26771   -26980 
  -27199   -27291   -26904   -26351   -26190   -26173   -25899   -25850 
  -26372   -26689   -26280   -25926   -26151   -26289   -26079   -26134 
  -26556   -26774   -26525   -26143   -25974   -25896   -25757   -25788 
  -25992   -25886   -25447   -25331   -25740   -26232   -26519   -26457 
  -26211   -26346   -26680   -26595   -26313   -26117   -25944   -26050 
  -26410   -26452   -26108   -25981   -26169   -26104   -25787   -25757 
  -25930   -25761   -25322   -25368   -25992   -26221   -25889   -26035 
  -26777   -27009   -26309   -25737   -26197   -26847   -26691   -26315 
  -26461   -26915   -27294   -27442   -27341   -26995   -26438   -25967 
  -25853   -26132   -26733   -27368   -27549   -26935   -25953   -25591 
  -25922   -26085   -25743   -25312   -25310   -25811   -26414   -26936 
  -27362   -27394   -27119   -27054   -27170   -27088   -26846   -26678 
  -26544   -26241   -25848   -25686   -25775   -25788   -25663   -25804 
  -26467   -27105   -26894   -26014   -25341   -25120   -25140   -25477 
  -26215   -26834   -26617   -25876   -25516   -25629   -25996   -26648 
  -27177   -27054   -26456   -25899   -25689   -25951   -26435   -26518 
  -26122   -25922   -26015   -25705   -25096   -25085   -25758   -26489 
  -26928   -26962   -26670   -26423   -26388   -26378   -26443   -26809 
  -27178   -27169   -26900   -26411   -25928   -26163   -26944   -27188 
  -26681   -26141   -26038   -26274   -26493   -26666   -26999   -27163 
  -26873   -26544   -26331   -26082   -25988   -26075   -26117   -25975 
  -25612   -25372   -25490   -25623   -25719   -26092   -26448   -26313 
  -26119   -26437   -26765   -26594   -26396   -26525   -26716   -26753 
  -26628   -26514   -26549   -26546   -26434   -26397   -26395   -26412 
  -26403   -26120   -26009   -26492   -26733   -26338   -26134   -26309 
  -26216   -25823   -25773   -26196   -26413   -26041   -25501   -25157 
  -25020   -25214   -25774   -26328   -26646   -26960   -27422   -27696 
  -27360   -26717   -26548   -26762   -26725   -26644   -26918   -27098 
  -26758   -26264   -25924   -25496   -25213   -25665   -26340   -26324 
  -25763   -25329   -25342   -25551   -25584   -25834   -26714   -27344 
  -26865   -25942   -25513   -25605   -26021   -26648   -27052   -26795 
  -26157   -25931   -26189   -26186   -25711   -25334   -25515   -26248 
  -27022   -27159   -26571   -25802   -25320   -25267   -25598   -25947 
  -25993   -26031   -26294   -26371   -26104   -26030   -26362   -26476 
  -25963   -25407   -25531   -26152   -26718   -27045   -27048   -26936 
  -27040   -26907   -26310   -26012   -26237   -26542   -26815   -26970 
  -26831   -26565   -26524   -26658   -26592   -26549   -26970   -27246 
  -26727   -26092   -26096   -26488   -26787   -26779   -26586   -26576 
  -26587   -26214   -25903   -26150   -26404   -26208   -26104   -26339 
  -26262   -25767   -25618   -26073   -26718   -27136   -27053   -26683 
  -26388   -25991   -25525   -25336   -25267   -25053   -24694   -24438 
  -24789   -25722   -26594   -26905   -26433   -25644   -25542   -26055 
  -26159   -25963   -26361   -26924   -26727   -26168   -25962   -26220 
  -26722   -26872   -26666   -26741   -26750   -26315   -26244   -26853 
  -27508   -27742   -27353   -26596   -26008   -25795   -26071   -26722 
  -27288   -27481   -27089   -26326   -25950   -26024   -26022   -25915 
  -25976   -26353   -26854   -26930   -26580   -26455   -26524   -26238 
  -25788   -25738   -26115   -26404   -26271   -26059   -26028   -25966 
  -25858   -25890   -26060   -26236   -26287   -26141   -25859   -25727 
  -26058   -26800   -27427   -27351   -26822   -26655   -26578   -25772 
  -24926   -25103   -25684   -25717   -25430   -25274   -25445   -26053 
  -26575   -26502   -26409   -26876   -27403   -27213   -26407   -26033 
  -26473   -26767   -26645   -26912   -27347   -27043   -26262   -25988 
  -26454   -26868   -26594   -26156   -26181   -26344   -26365   -26605 
  -27098   -27333   -27120   -26800   -26588   -26217   -25713   -25765 
  -26340   -26592   -26521   -26540   -26484   -26384   -26499   -26571 
  -26318   -26007   -25902   -25800   -25501   -25275   -25473   -25812 
  -25809   -25763   -26136   -26660   -27029   -27115   -26679   -26076 
  -25936   -26058   -26025   -26036   -26146   -25912   -25472   -25475 
  -25820   -26001   -25939   -25720   -25399   -25024   -24671   -24648 
  -25197   -25868   -25969   -25778   -26080   -26592   -26464   -25951 
  -26013   -26565   -26674   -26389   -26622   -27334   -27575   -27118 
  -26593   -26330   -26126   -25899   -25862   -26186   -26641   -26743 
  -26664   -26985   -27372   -27184   -26742   -26525   -26435   -26422 
  -26675   -27125   -27299   -26997   -26654   -26500   -26190   -25552 
  -25083   -25329   -25944   -26202   -25971   -25587   -25456   -25599 
  -25707   -25905   -26330   -26517   -26395   -26536   -27132   -27827 
  -27895   -26960   -25988   -25906   -26110   -25919   -25705   -25864 
  -25979   -25661   -25502   -25959   -26391   -26342   -26197   -26219 
  -26255   -26269   -26492   -26989   -27258   -26718   -25899   -25937 
  -26495   -26465   -26174   -26343   -26645   -26795   -27010   -27207 
  -27123   -26687   -26049   -25734   -25991   -26205   -25949   -25540 
  -25353   -25644   -26400   -26980   -26822   -26452   -26775   -27404 
  -27321   -26625   -25885   -25285   -25148   -25625   -26280   -26795 
  -27163   -27272   -26961   -26295   -25810   -25823   -25714   -25374 
  -25493   -25763   -25762   -25995   -26427   -26589   -26494   -26342 
  -26416   -26628   -26387   -25755   -25505   -25861   -26284   -26395 
  -26240   -25884   -25519   -25539   -26085   -26857   -27247   -26831 
  -26101   -26030   -26548   -26738   -26666   -26981   -27319   -27214 
  -26924   -26463   -25975   -26148   -26783   -26951   -26674   -26521 
  -26441   -26206   -26087   -26368   -26815   -26985   -26564   -25788 
  -25478   -25834   -26134   -25967   -25595   -25266   -24899   -24603 
  -24777   -25385   -26000   -26255   -26047   -25864   -26113   -26424 
  -26363   -25861   -25386   -25725   -26429   -26443   -26323   -26949 
  -27784   -28140   -28003   -27613   -27149   -26561   -25893   -25386 
  -25168   -25317   -25636   -25668   -25560   -25705   -25883   -26082 
  -26585   -26943   -26791   -26508   -26216   -25902   -25888   -26194 
  -26462   -26420   -26140   -25939   -25928   -25985   -25900   -25552 
  -25271   -25318   -25535   -26015   -26720   -26907   -26388   -26146 
  -26768   -27592   -27818   -27604   -27502   -27341   -26886   -26638 
  -26904   -27171   -26650   -25307   -24267   -24275   -24674   -24992 
  -25743   -26919   -27580   -27344   -26830   -26635   -26603   -26218 
  -25778   -26161   -27063   -27431   -27421   -27703   -27845   -27180 
  -26124   -25559   -25715   -26256   -26869   -27295   -27258   -26780 
  -26306   -26147   -25966   -25522   -25286   -25472   -25759   -25909 
  -25696   -25334   -25335   -25438   -25378   -25646   -26281   -26750 
  -26863   -26527   -25780   -25323   -25637   -26251   -26736   -27146 
  -27310   -27054   -26765   -26870   -27143   -27000   -26606   -26676 
  -26820   -26227   -25512   -25582   -26201   -26764   -26870   -26420 
  -25862   -25622   -25743   -26262   -26937   -27163   -26722   -25933 
  -25137   -24509   -24374   -25049   -26085   -26619   -26537   -26380 
  -26372   -26277   -26026   -25870   -25979   -26118   -25932   -25794 
  -26240   -26674   -26605   -26699   -27071   -27126   -26939   -26651 
  -26114   -25593   -25468   -25870   -26594   -26923   -26479   -25731 
  -25052   -24505   -24382   -24930   -25877   -26502   -26262   -25545 
  -25261   -25591   -25860   -25653   -25370   -25437   -25664   -25843 
  -26117   -26504   -26803   -26983   -27144   -27150   -26895   -26750 
  -26844   -26672   -26214   -26047   -26113   -25834   -25176   -24752 
  -25016   -25689   -26175   -26252   -26321   -26973   -27828   -27811 
  -27097   -26712   -26682   -26543   -26313   -26199   -26442   -26888 
  -26899   -26520   -26393   -26477   -26449   -26601   -27132   -27549 
  -27462   -27156   -27072   -27350   -27762   -27903   -27816   -27878 
  -27808   -27070   -26200   -26038   -26238   -26060   -25517   -25221 
  -25587   -25826   -25231   -24860   -25411   -25901   -25782   -25658 
  -26040   -26738   -27330   -27641   -27568   -27222   -26866   -26369 
  -25610   -25074   -25299   -25952   -26191   -25997   -25946   -26078 
  -26360   -27092   -27981   -28102   -27076   -25608   -24654   -24485 
  -24816   -25222   -25590   -26153   -26608   -26581   -26496   -26504 
  -26332   -26202   -26229   -26186   -26239   -26618   -27136   -27622 
  -27994   -28078   -27700   -26782   -25852   -25698   -26036   -26104 
  -25889   -25731   -25915   -26439   -27011   -27431   -27486   -27151 
  -26729   -26388   -26430   -27004   -27352   -27033   -26785   -27104 
  -27469   -27471   -27374   -27343   -27128   -26531   -25806   -25434 
  -25373   -25231   -25000   -24844   -24815   -24833   -24721   -24605 
  -24756   -24950   -24850   -24630   -24429   -24168   -24174   -24585 
  -24987   -25464   -26280   -27094   -27779   -28273   -28053   -27348 
  -26915   -26655   -26429   -26513   -26718   -26893   -27334   -28059 
  -28703   -28922   -28724   -28280   -27544   -26682   -25982   -25313 
  -24698   -24470   -24665   -25182   -25884   -26652   -27533   -28212 
  -28241   -27837   -27359   -26919   -26707   -26931   -27580   -28258 
  -28544   -28576   -28652   -28716   -28660   -28618   -28609   -28147 
  -26835   -25120   -24019   -24005   -24292   -24137   -24122   -24553 
  -24508   -23923   -23837   -24401   -25139   -25865   -26389   -26843 
  -27376   -27593   -27644   -28171   -28969   -29355   -29103   -28442 
  -27782   -27257   -26578   -25727   -25194   -25156   -25300   -25451 
  -25589   -25663   -25713   -25721   -25591   -25430   -25292   -25105 
  -25201   -25870   -26641   -26829   -26405   -26096   -26583   -27655 
  -28281   -27718   -26671   -25997   -25156   -24235   -24603   -26018 
  -26793   -26336   -25310   -24664   -24737   -24997   -24953   -24615 
  -24265   -24090   -23948   -23752   -23720   -24057   -24658   -25192 
  -25317   -25018   -24871   -25249   -25728   -26076   -26409   -26393 
  -25781   -24932   -24058   -23089   -22588   -23253   -24372   -24721 
  -24261   -23734   -23873   -24684   -25403   -25896   -26260   -25951 
  -25255   -25047   -25169   -25309   -25496   -25510   -25495   -25836 
  -26511   -27407   -28186   -28448   -28293   -27955   -27610   -27382 
  -27155   -27009   -27064   -26954   -26787   -27236   -27846   -27564 
  -26725   -26357   -26530   -26718   -26993   -27856   -29050   -29686 
  -29488   -28803   -27858   -26788   -25724   -24851   -24703   -25365 
  -26107   -26793   -27659   -28390   -28802   -28707   -27978   -27388 
  -27448   -27666   -27753   -27855   -28185   -28662   -28586   -27869 
  -27490   -27784   -28136   -27954   -27040   -25902   -25133   -24740 
  -24816   -25300   -25426   -25051   -25125   -25937   -26630   -26752 
  -26734   -26884   -26856   -26346   -26006   -26527   -27203   -27226 
  -27121   -27299   -27361   -27326   -27558   -27937   -28059   -27563 
  -26395   -24943   -23817   -23576   -24003   -24121   -24043   -24903 
  -26416   -27228   -27126   -26903   -27211   -28004   -28490   -28014 
  -26715   -25303   -24757   -25628   -27251   -28371   -28616   -28508 
  -28091   -27197   -26615   -26959   -27415   -26996   -25923   -25221 
  -25370   -25687   -25610   -25675   -26190   -26523   -26233   -25625 
  -25622   -26723   -27838   -27777   -26938   -26219   -25824   -25491 
  -25030   -24751   -25029   -25511   -25652   -25439   -24939   -24360 
  -24360   -24966   -25160   -24438   -23385   -22494   -21799   -21557 
  -22100   -23151   -24101   -24699   -25028   -25148   -25002   -24608 
  -24357   -24738   -25441   -25613   -25237   -25064   -25317   -25619 
  -25808   -25978   -26142   -26249   -26188   -25938   -25717   -25845 
  -26504   -27149   -27125   -27054   -27582   -27931   -27635   -27631 
  -28489   -29174   -28650   -27671   -27543   -28237   -28815   -28886 
  -28896   -29003   -28895   -28524   -27865   -27078   -26790   -26919 
  -26670   -26023   -25703   -25930   -25998   -25550   -25594   -26665 
  -27567   -27436   -26711   -26040   -25786   -25718   -25395   -25183 
  -25558   -26124   -26356   -26123   -25518   -24924   -24535   -24197 
  -24260   -25150   -26172   -26291   -25676   -25208   -25029   -24909 
  -25091   -25666   -26223   -26318   -25739   -24846   -24426   -24710 
  -25006   -24762   -24604   -25413   -26681   -27282   -27256   -27243 
  -27186   -26797   -26248   -25792   -25507   -25650   -26603   -28066 
  -28807   -28307   -27693   -27603   -27308   -26673   -26397   -26801 
  -27658   -28390   -28621   -28476   -28107   -27792   -27882   -28244 
  -28458   -28444   -28544   -28685   -28316   -27635   -27231   -27093 
  -27218   -27528   -27458   -26897   -26332   -26117   -26240   -26252 
  -25962   -25876   -26085   -26056   -25791   -25774   -25893   -25611 
  -25249   -25504   -26088   -26364   -26371   -26643   -27241   -27168 
  -26129   -25455   -25631   -25603   -25001   -24572   -24841   -25515 
  -26153   -26808   -27388   -27212   -26066   -24805   -24401   -25059 
  -26105   -26478   -25987   -25574   -25669   -25614   -25041   -24323 
  -24139   -24996   -26174   -26427   -26080   -26232   -26717   -26734 
  -26442   -26635   -27187   -27053   -26137   -25663   -26060   -26308 
  -26070   -26178   -26652   -26742   -26420   -26147   -26185   -26369 
  -26277   -25986   -25607   -24804   -24130   -24566   -25693   -26556 
  -26972   -27082   -26976   -26861   -26987   -27178   -26912   -26347 
  -26154   -26151   -25636   -24924   -25112   -26363   -27594   -27952 
  -27423   -26443   -25802   -25793   -25715   -25355   -25424   -25997 
  -26415   -26503   -26528   -26754   -27203   -27309   -26807   -26221 
  -25632   -24834   -24227   -24102   -24391   -25100   -25993   -26746 
  -27381   -27783   -27564   -26713   -25601   -24646   -24215   -24289 
  -24622   -25214   -25976   -26693   -27185   -27242   -27119   -27248 
  -27549   -27801   -27877   -27719   -27392   -26924   -26415   -26023 
  -25725   -25605   -25889   -26409   -26715   -26782   -27015   -27412 
  -27328   -26566   -26020   -26482   -27349   -27354   -26468   -25906 
  -26040   -26249   -26500   -26859   -26826   -26440   -26240   -26089 
  -25575   -24988   -24799   -25033   -25424   -25419   -24966   -25027 
  -25856   -26503   -26689   -26970   -27447   -27746   -27656   -27259 
  -26661   -25997   -25685   -26045   -26626   -26665   -26221   -25901 
  -25804   -25789   -25976   -26293   -26350   -26030   -25825   -26089 
  -26390   -26320   -26131   -26134   -26082   -25788   -25886   -26508 
  -26570   -25927   -25778   -26327   -26540   -26119   -25828   -25955 
  -25880   -25202   -24475   -24613   -25521   -26212   -26431   -26686 
  -27314   -28105   -28201   -27515   -27180   -27237   -26939   -26824 
  -27370   -27914   -27998   -27528   -26586   -25931   -25958   -25998 
  -25844   -26006   -26458   -26684   -26478   -26289   -26700   -27514 
  -28025   -27962   -27479   -26779   -26233   -26123   -26206   -26282 
  -26527   -26873   -27087   -27258   -27439   -27519   -27421   -26893 
  -25916   -25229   -25360   -25778   -25765   -25329   -24871   -24639 
  -24595   -24693   -25164   -25922   -26261   -25832   -25258   -25271 
  -25674   -25923   -26112   -26257   -25919   -25408   -25289   -25190 
  -24999   -25207   -25633   -25875   -25883   -25602   -25115   -24583 
  -24211   -24527   -25746   -27107   -27533   -26878   -25990   -25538 
  -25517   -25635   -25656   -25768   -26096   -26083   -25646   -25695 
  -26541   -27457   -27818   -27706   -27671   -27768   -27452   -26939 
  -26848   -26903   -26802   -26769   -26823   -26965   -27255   -27529 
  -27582   -27191   -26640   -26789   -27573   -27937   -27467   -26732 
  -26407   -26556   -26721   -26631   -26575   -26952   -27573   -27921 
  -27879   -27838   -28212   -28555   -27802   -25999   -24463   -23980 
  -24131   -24299   -24463   -25092   -26252   -26800   -25897   -24715 
  -24475   -24658   -24769   -25132   -25446   -25143   -24785   -25203 
  -26071   -26559   -26490   -26212   -25890   -25530   -25428   -25618 
  -25658   -25547   -25528   -25700   -26309   -27119   -27336   -26829 
  -26227   -25992   -26106   -26291   -26323   -26450   -27037   -27598 
  -27458   -27160   -27392   -27614   -27375   -27297   -27722   -27953 
  -27441   -26522   -25824   -25667   -25983   -26561   -27134   -27244 
  -26819   -26585   -27047   -27665   -27820   -27666   -27445   -27143 
  -26881   -26607   -26178   -25888   -25935   -26174   -26593   -26709 
  -25781   -24570   -24537   -25454   -26006   -25730   -25296   -25366 
  -25540   -25204   -24613   -24259   -24461   -25002   -24883   -24019 
  -23712   -24525   -25606   -26098   -26174   -26333   -26318   -25779 
  -25194   -25261   -25834   -26062   -25789   -25783   -26232   -26508 
  -26520   -26903   -27676   -28021   -27837   -27845   -28065   -28056 
  -27956   -28069   -28239   -27907   -26966   -26450   -27008   -27716 
  -27940   -28125   -28178   -27738   -27295   -27370   -27854   -28233 
  -27961   -27211   -26697   -26548   -26323   -26051   -26185   -26602 
  -26642   -26004   -25248   -25326   -26047   -26259   -26008   -26169 
  -26560   -26193   -24832   -23746   -24054   -24802   -24746   -24605 
  -25292   -25857   -25343   -24642   -24758   -25272   -25312   -24674 
