Origin Time       2024/04/02 04:24:00
Lat.              40.133
Long.             141.712
Depth. (km)       71
Mag.              6.0
Station Code      AOMH13
Station Lat.      40.5794
Station Long.     141.4451
Station Height(m) -140
Record Time       2024/04/02 04:24:50
Sampling Freq(Hz) 100Hz
Duration Time(s)  300
Dir.              2
Scale Factor      2942(gal)/8224139
Max. Acc. (gal)   29.671
Last Correction   2024/04/02 04:24:50
Memo.             
[...]
  146074   146071   146071   146074   146075   146074   146071   146070 
  146072   146078   146076   146072   146072   146072   146072   146072 
  146071   146075   146078   146075   146075   146078   146078   146076 
  146074   146071   146072   146075   146074   146074   146076   146074 
  146074   146075   146070   146067   146071   146072   146076   146076 
  146074   146071   146074   146078   146078   146076   146074   146072 
  146074   146075   146072   146074   146074   146074   146076   146074 
  146072   146072   146071   146074   146080   146079   146074   146076 
  146079   146076   146074   146075   146075   146072   146071   146072 
  146078   146078   146071   146071   146076   146078   146075   146074 
  146078   146079   146079   146076   146075   146076   146078   146080 
  146084   146080   146072   146070   146075   146080   146083   146082 
  146080   146076   146071   146072   146074   146076   146079   146078 
  146078   146080   146082   146079   146078   146079   146080   146079 
  146075   146072   146075   146079   146079   146075   146074   146076 
  146075   146071   146074   146078   146075   146071   146075   146078 
  146071   146068   146072   146075   146075   146072   146072   146076 
  146079   146078   146076   146075   146074   146072   146070   146071 
  146075   146075   146075   146078   146079   146075   146071   146075 
  146078   146074   146072   146075   146074   146074   146075   146075 
  146079   146082   146075   146074   146076   146075   146075   146076 
  146079   146080   146078   146076   146075   146076   146079   146080 
  146083   146084   146083   146079   146075   146078   146079   146080 
  146083   146088   146086   146080   146082   146084   146082   146080 
  146080   146080   146080   146080   146078   146080   146084   146083 
  146083   146088   146088   146082   146080   146084   146086   146084 
  146084   146086   146086   146086   146086   146084   146080   146080 
  146084   146083   146082   146082   146079   146076   146075   146076 
  146079   146080   146082   146082   146079   146078   146079   146083 
  146084   146084   146084   146086   146084   146079   146079   146080 
  146078   146076   146078   146083   146082   146075   146074   146076 
  146078   146079   146078   146078   146079   146075   146074   146075 
  146078   146078   146076   146075   146078   146076   146074   146075 
  146076   146079   146082   146078   146075   146080   146078   146075 
  146078   146079   146079   146075   146071   146074   146075   146072 
  146075   146079   146075   146071   146075   146076   146074   146068 
  146065   146068   146074   146074   146070   146071   146075   146079 
  146078   146076   146079   146078   146071   146072   146074   146068 
  146067   146071   146072   146074   146075   146076   146076   146072 
  146071   146072   146075   146075   146072   146071   146071   146070 
  146070   146071   146072   146074   146072   146070   146071   146074 
  146071   146068   146071   146075   146075   146072   146074   146076 
  146075   146065   146052   146034   146002   145953   145897   145833 
  145760   145677   145567   145432   145305   145247   145332   145597 
  145972   146306   146504   146601   146610   146445   146307   146870 
  147987   148059   146434   144701   144402   145376   146287   146250 
  145671   144890   144359   144913   145818   145813   145212   145066 
  145322   145258   145373   145921   146380   147279   148189   147702 
  146670   146115   146010   146979   147706   146227   144305   144250 
  145338   146106   146742   147125   146484   146622   147888   146715 
  144008   144201   146975   149507   150039   147638   143802   142053 
  143225   143626   142511   144027   146560   146286   145295   143654 
  142148   145085   148945   147825   144300   143005   143903   145361 
  146554   146877   148182   150345   149574   148292   148200   144394 
  141374   146125   149926   146094   143523   146877   149786   148259 
  145531   146772   149690   148273   146118   147804   148034   144715 
  143047   144061   145125   145945   146242   143486   140424   142325 
  146399   150738   155250   153769   146894   144329   147663   149555 
  146496   142663   144587   150909   151414   144313   139801   141122 
  144050   148486   150790   144976   138434   139958   144063   147009 
  149226   146531   143459   145608   146770   145223   143398   140810 
  142419   149512   153956   152703   147679   144142   149057   155295 
  150749   141427   142759   152193   154060   151691   154094   153122 
  149278   150466   149729   144468   143160   144475   141524   140413 
  145964   145989   142277   148100   150888   141955   137282   140755 
  144212   147348   150472   150475   146341   140416   136062   135994 
  139850   142852   144431   149584   154523   152959   149864   148745 
  146684   144229   143850   145462   146541   144157   141812   146172 
  150273   147530   148579   153445   150206   144670   146554   147437 
  142708   140971   143442   149053   154300   149219   141848   144123 
  146676   144251   144373   145986   143260   139603   139830   139726 
  138125   143041   151457   151499   146821   147089   147934   144494 
  145035   150977   152051   150099   149631   146070   141997   140368 
  139584   143321   148608   147549   143795   141575   141215   146944 
  152712   149582   145643   144409   142115   145247   150693   146842 
  140053   141898   147820   147692   143471   142179   143028   145717 
  150633   152343   151394   153504   156064   152794   146322   143109 
  142501   143476   145115   145431   145762   142017   135318   134940 
  135263   132289   136775   145624   146381   143473   144879   145068 
  140859   139602   142431   145366   150727   155632   152448   144852 
  140661   141022   143301   145234   147939   152047   154703   153778 
  150804   151559   156142   155410   149076   144131   141251   143989 
  150188   146496   139425   142695   146884   145072   146511   153519 
  155088   147744   144559   149493   150330   145237   143311   144436 
  144170   143959   144740   145160   145597   148613   151881   146136 
  135874   136688   142960   142244   142072   145806   146325   146931 
  150273   151244   151409   154766   157334   156500   156230   154106 
  145982   139611   138543   138149   140136   142087   140806   144907 
  155304   161597   160089   154242   149177   144938   137162   130104 
  130171   134022   137737   141662   144957   144872   143194   147287 
  153844   151259   143405   140254   141567   145239   148413   149224 
  149165   146072   141096   143209   151017   149798   140705   141147 
  148301   147621   144167   144520   143114   141986   145477   148964 
  149943   148350   146138   147690   149731   149011   149380   152061 
  154858   154244   148288   143958   147712   152455   152185   151954 
  151499   147729   145624   145018   141663   140335   144571   148909 
  149338   148547   148562   148363   148745   148387   146433   146994 
  146884   141750   138888   142323   146240   145908   142939   141894 
  142361   142334   144405   147829   148639   147552   145195   140884 
  137675   140125   148792   156404   156591   152329   148703   148230 
  147663   141914   136251   137438   142866   148282   151713   151332 
  147124   144085   146727   150971   152132   150587   145729   140236 
  138900   139054   138658   141165   146125   149748   150757   148159 
  141875   137246   137458   137594   136906   140734   146643   148317 
  147087   146597   146276   143865   140611   141064   144104   144371 
  143648   146153   149222   149827   150148   151306   151059   149843 
  150186   150171   147517   145498   146260   147741   148922   149663 
  149018   147938   147656   146678   145268   144717   144684   145621 
  144582   139691   138284   143537   147937   148039   147858   149578 
  152506   155449   155563   151773   147834   145800   144142   143750 
  144597   143270   142326   145446   146160   141197   137829   138504 
  138829   138198   139919   144335   147205   145235   140589   139259 
  143097   146118   146727   150144   153620   152280   150456   150138 
  148130   145758   144813   144620   145026   145432   148180   153458 
  155175   154315   154978   152220   144825   140798   142290   143619 
  142322   142114   145517   147761   145345   144019   147787   152004 
  152921   151715   150277   148433   145673   145598   149361   151239 
  148859   145134   142875   143002   143502   143143   142380   139774 
  137393   139814   143017   143091   144975   149008   150206   149763 
  150677   151738   152185   152967   153357   151471   147564   145006 
  145932   147307   145319   141450   139523   139824   139868   141417 
  149305   156909   153539   145328   142570   142796   141436   141389 
  144605   145882   143027   140231   138396   137444   141373   147974 
  150306   150985   153030   151918   147891   144397   142520   143537 
  144724   143380   143430   145303   144301   142654   146121   151625 
  151447   147773   147896   147784   141102   134636   136483   142052 
  144437   147216   153898   156905   151703   145125   142441   143849 
  148522   153391   155835   155899   153003   146608   140698   139734 
  142319   144408   145223   148198   153152   153630   148632   144323 
  143735   144856   145577   146874   149026   148246   144805   143823 
  143580   142005   143885   147453   148383   148338   145369   140026 
  138940   141500   143303   143108   141602   142550   147036   150873 
  151031   147807   145513   147428   148548   145107   141717   141872 
  144876   147750   147646   146676   146722   147204   148329   147795 
  145292   143559   140548   137945   143017   152032   155898   154327 
  149683   144294   141789   143278   146654   147858   147174   146125 
  143457   143808   148385   151183   152491   151985   148306   145868 
  143434   139475   138588   139199   140464   144733   146560   143590 
  142171   145150   150070   153169   151426   146735   143392   141218 
  139236   140000   142923   145671   149507   151237   147248   145150 
  150051   153180   149575   145675   143820   143083   144794   145640 
  144559   145447   145972   144162   145839   151019   151546   147077 
  144224   145017   147974   149905   148319   147012   147438   144675 
  141291   141880   140826   136953   137628   142950   146624   145300 
  141130   140162   143565   145894   146291   147417   146893   144289 
  143563   142900   141724   146434   153044   152323   149551   151085 
  152099   149737   147155   145970   145519   144683   144020   145496 
  148127   150163   150105   146981   145403   147663   148759   147594 
  148267   151109   152050   150238   148548   147123   144856   142950 
  142700   145131   150367   154645   154593   151314   146990   144061 
  143637   143131   141673   141759   143370   142915   139390   137546 
  139552   142871   146240   147167   145638   146315   148240   148437 
  148760   149773   149118   144394   138586   138361   142099   145326 
  148425   150183   147766   141122   136609   139876   143603   142010 
  142547   147131   150287   151537   149463   144736   144180   148207 
  151344   151047   149127   149848   153131   153912   152070   152250 
  151957   146215   141327   143010   143722   140132   140023   145712 
  152215   153782   148063   142207   142738   144904   144259   143941 
  145598   146547   145728   143284   140258   140043   142121   144067 
  147860   153162   155879   154961   152560   150169   147017   144657 
  146092   147371   145473   146080   151271   156375   155922   147286 
  138319   137380   140355   141986   142014   142269   146389   151075 
  148443   141872   139176   138873   138331   139966   145093   150687 
  152911   152599   152577   151410   145515   135800   130160   134260 
  141990   146670   150606   153457   152824   153546   156782   156230 
  151892   149089   147745   146064   144578   141478   136609   134183 
  136904   145303   154692   157723   155524   151864   145983   139641 
  137786   140485   141474   138620   137853   140749   141469   139471 
  138592   138663   140247   144127   147249   148500   150904   156574 
  161542   161299   160101   162457   166156   168858   166806   156775 
  143154   128980   112396    99709   100225   109135   116837   122875 
  127951   131998   139479   150354   157299   156073   149504   145412 
  148628   155860   163883   173811   181569   175906   157480   142276 
  137168   135295   131940   128282   127017   127634   126597   124957 
  128119   139824   156968   169265   174962   181533   187590   189974 
  191380   185549   160563   122813    95690    88140    89079    92919 
  103378   124117   156316   187041   199474   199635   192952   168172 
  134275   111310    96180    85351    88314   106254   127527   140243 
  146707   159079   179030   196773   203690   195026   172372   147511 
  130257   120075   111694   102964   106173   126125   139814   140301 
  148329   166183   177989   179463   177808   172979   154186   123209 
   96962    84234    85530    97798   113557   129313   141951   149949 
  160218   170070   168331   161774   165935   178773   184245   174857 
  159133   146907   142314   144321   144494   137582   124044   108398 
  107971   133971   174106   209933   223311   201807   162097   138335 
  137651   137458   124892   107406    93325    93047   118967   160509 
  192202   208780   220926   229020   218285   181291   136640   111211 
  114088   132248   147137   153963   156138   154349   152887   158452 
  165774   162163   148975   141176   149598   167791   178139   175822 
  160359   125220    91220    92622   122376   146402   144622   120218 
   97676    97366   116714   147096   179064   201312   208881   199412 
  176652   156297   147965   144894   140807   139357   140363   134357 
  121566   115695   122581   137632   153787   163574   167998   167977 
  155961   135607   121594   118694   119884   120131   126748   143198 
  154371   151957   147756   152913   165993   174750   171896   161670 
  143823   124083   119873   128343   133205   136952   143889   143532 
  135699   132543   137546   150612   166425   171697   166680   161927 
  162153   168292   175439   175454   165836   151366   140339   132840 
  124599   124237   137857   153508   162600   163121   151306   138117 
  138627   147064   151966   150966   145447   140582   142788   150595 
  156670   158340   154460   144852   140776   151834   170722   183979 
  182124   165551   146203   136845   143248   160046   173028   174307 
  162976   140352   118292   107173   103688   105795   112770   118859 
  124984   132042   131041   124675   127762   138096   144209   144529 
  136159   120830   117263   133718   153134   160930   161383   163105 
  162357   153349   145017   142140   136329   129357   129429   134734 
  137003   130081   119604   117356   123263   130329   138647   148367 
  155004   158071   161250   167624   173556   170680   160431   149793 
  140958   139133   147117   154272   154610   153685   147438   132714 
  124056   126349   128835   129570   127526   118639   113344   123869 
  144753   161323   165273   162538   161914   160725   153200   140420 
  130697   131303   136630   137185   134524   137898   151320   168786 
  184470   193522   188298   173097   159984   145527   124509   110578 
  111584   115375   118331   129591   146195   156362   160643   165827 
  167850   162490   154215   145200   137127   133216   130546   128578 
  135757   152307   165127   170086   175949   182277   177543   161395 
  146838   137612   128706   123974   126605   131124   136557   142227 
  144188   147625   153881   153561   148144   145571   146005   147147 
  145169   137866   132097   134640   141102   145890   153183   164015 
  166257   153377   136013   124497   119890   123388   135178   147083 
  150198   144925   135459   128020   133481   152374   171351   181234 
  178837   163428   144985   135973   135064   134778   134771   138998 
  144539   143517   137235   129844   120860   115840   117780   120469 
  126663   141655   156427   164107   167848   167119   161478   156500 
  156452   159872   161418   159009   154512   149200   145804   145941 
  149149   157285   167583   170352   161954   146859   129686   117177 
  115280   122164   135955   155032   170757   175441   169041   156494 
  142661   129041   118989   117486   123152   131058   141760   158757 
  175798   179811   170166   156487   142911   133381   134779   144155 
  150175   148829   147445   150354   153652   155447   154535   151478 
  152757   156204   152470   142325   130049   118732   114382   114725 
  113535   114251   119754   130383   147440   163437   172004   176212 
  175348   169172   162314   154781   148027   147328   152886   160793 
  165920   166417   165169   161824   153377   140321   127904   123284 
  126829   132174   134666   132247   128305   129649   133118   132791 
  133066   137096   141444   144381   147112   150693   153681   157669 
  165223   166914   157134   149011   147780   144585   139209   136424 
  138237   145893   155495   162344   165929   165516   161080   156676 
  154678   150917   144099   139768   137785   132403   125022   121528 
  124448   133045   141712   143745   140216   138145   142493   150739 
  156783   159443   159020   154878   149031   143413   141062   145226 
  151310   153538   154499   156667   157264   154728   150757   148988 
  150701   151582   149895   148576   147664   147486   149910   152271 
  151002   147116   143942   141529   137659   134586   134403   134592 
  135652   139067   141945   143078   142635   139997   138985   143673 
  151572   158094   159954   155679   149840   147514   146763   146889 
  150498   155881   159565   159321   155016   150159   146377   141905 
  135923   129057   124839   127315   134651   142423   149100   153743 
  154796   152435   148849   147328   150026   154846   157427   156178 
  154118   155817   160693   163247   161316   155773   146443   137497 
  134993   136344   136483   137150   139329   138163   132331   128128 
  129830   135904   143055   147004   146310   144817   146076   149675 
  152494   151383   146016   139796   137277   138042   135452   128626 
  126250   131545   140998   153180   163391   166895   167188   165234 
  159227   155486   157099   157527   154627   151079   145353   136225 
  128765   126211   124590   123330   127209   135103   142241   147386 
  149261   148633   150371   153918   154967   153117   148702   143179 
  139704   139436   142592   147877   151773   152655   152675   154839 
  157821   157945   157038   158449   160812   162527   161731   156594 
  150145   145052   141327   142014   148929   156212   158280   156883 
  152595   143282   132652   125743   123873   127300   131210   128661 
  121510   116208   115577   120604   132867   151379   168345   177434 
  181391   181048   172787   159696   149100   142794   137971   134165 
  132661   131379   128213   125636   126503   130315   135654   141470 
  145523   144317   137538   131757   132008   134931   138882   146323 
  153604   154792   150075   144036   142060   144792   147594   148544 
  147980   143819   137466   135141   138673   145185   153696   163561 
