Origin Time       2024/04/02 04:24:00
Lat.              40.133
Long.             141.712
Depth. (km)       71
Mag.              6.0
Station Code      AOMH13
Station Lat.      40.5794
Station Long.     141.4451
Station Height(m) 10
Record Time       2024/04/02 04:24:50
Sampling Freq(Hz) 100Hz
Duration Time(s)  300
Dir.              5
Scale Factor      7845(gal)/8223790
Max. Acc. (gal)   85.551
Last Correction   2024/04/02 04:24:50
Memo.             
[...]
   37758    37755    37750    37750    37755    37766    37775    37771 
   37756    37741    37743    37756    37764    37771    37767    37754 
   37744    37748    37760    37764    37758    37755    37756    37756 
   37756    37754    37744    37737    37744    37758    37763    37760 
   37760    37755    37744    37741    37746    37750    37752    37755 
   37758    37767    37771    37763    37752    37751    37746    37743 
   37751    37762    37764    37759    37755    37754    37758    37756 
   37754    37759    37759    37752    37750    37755    37760    37754 
   37744    37748    37760    37767    37766    37763    37763    37760 
   37754    37755    37760    37758    37748    37744    37754    37764 
   37770    37767    37754    37737    37739    37755    37771    37766 
   37746    37737    37743    37755    37763    37762    37764    37764 
   37760    37763    37764    37755    37748    37746    37750    37759 
   37762    37762    37759    37750    37744    37748    37751    37754 
   37747    37735    37744    37763    37768    37770    37767    37756 
   37750    37750    37755    37762    37759    37748    37756    37770 
   37766    37758    37758    37752    37744    37747    37759    37770 
   37766    37751    37741    37747    37762    37771    37762    37751 
   37746    37741    37750    37758    37760    37762    37754    37747 
   37750    37756    37767    37770    37756    37743    37750    37767 
   37771    37762    37748    37741    37750    37758    37760    37762 
   37756    37755    37756    37756    37755    37755    37754    37750 
   37743    37746    37762    37773    37762    37743    37735    37751 
   37773    37773    37770    37773    37760    37748    37756    37760 
   37755    37751    37748    37751    37758    37764    37766    37756 
   37748    37746    37747    37759    37764    37752    37746    37755 
   37770    37781    37781    37770    37751    37740    37744    37760 
   37770    37767    37758    37752    37755    37763    37768    37770 
   37762    37746    37740    37747    37759    37770    37764    37754 
   37752    37766    37773    37767    37762    37756    37744    37747 
   37764    37775    37777    37770    37762    37766    37770    37766 
   37770    37764    37748    37754    37777    37779    37766    37758 
   37752    37751    37762    37774    37773    37762    37754    37751 
   37750    37756    37763    37758    37750    37758    37773    37781 
   37774    37762    37747    37733    37739    37763    37777    37773 
   37755    37743    37750    37759    37760    37754    37744    37746 
   37756    37764    37773    37767    37750    37739    37736    37744 
   37758    37756    37754    37758    37751    37752    37762    37758 
   37747    37741    37743    37752    37756    37754    37743    37732 
   37740    37755    37764    37773    37767    37748    37740    37748 
   37759    37759    37747    37739    37740    37759    37782    37777 
   37748    37729    37723    37725    37741    37760    37766    37759 
   37752    37747    37748    37751    37750    37750    37754    37750 
   37752    37762    37767    37764    37751    37741    37744    37750 
   37756    37754    37746    37750    37754    37755    37751    37723 
   37689    37692    37737    37813    37890    37957    37991    37882 
   37588    37388    37557    37825    37816    37771    37862    37581 
   36818    36493    37319    38573    38898    38225    37478    37072 
   37241    38028    38597    38257    37409    37027    37450    38072 
   38379    38083    37160    36729    37500    38233    38056    37503 
   37168    37413    37716    37316    36973    37547    38308    38326 
   38011    37887    37362    36963    37818    38371    37413    37107 
   38566    39572    38477    36456    35402    36073    38318    40441 
   40201    38460    37215    36285    36119    37246    37817    37763 
   39002    39826    37895    35885    36532    38034    38353    38371 
   39071    38909    36930    35991    36867    35203    32707    36498 
   41976    40034    35378    35310    36991    37165    38234    41218 
   41841    38749    37253    37395    34951    33825    36657    38379 
   38977    40616    39310    34649    32557    34655    37866    40483 
   41187    39070    36504    35877    36620    38048    39977    41385 
   41222    39502    38331    38821    38033    35939    36510    38576 
   39112    38959    38067    36490    36674    38321    38931    39054 
   40706    43386    44351    41975    38105    35376    35016    37120 
   39199    38205    34634    31864    32432    35329    37728    38365 
   38074    38713    40657    41422    39544    36494    34065    34373 
   37446    38800    37093    35781    34902    33802    34565    36305 
   37017    38067    40666    42400    40840    38265    37369    37281 
   37417    37913    38169    38686    39837    40408    39814    38225 
   36772    37338    38464    38662    39887    40230    36886    34825 
   37681    41848    45338    47391    46130    44271    44064    42263 
   38846    37794    37928    34904    30580    29878    31907    33363 
   35160    39002    42431    42957    41237    37519    33083    31460 
   32691    33309    32992    33700    34014    33054    34132    37692 
   39272    37014    34308    33894    34838    36421    38264    38408 
   37404    38144    39615    39283    38001    36229    33474    32005 
   33521    36737    39706    40520    40421    42935    45489    43258 
   39118    36828    35677    36510    38928    38948    36560    36054 
   38549    40522    39707    37227    33504    28979    27575    31303 
   35793    38458    40959    41118    37305    35480    38983    42404 
   41779    39640    38877    38669    37694    38121    40834    41677 
   39109    35977    32675    29772    31070    36381    41531    45446 
   48169    48253    45774    41755    36679    31739    28120    26099 
   26468    30040    34977    37640    37739    39320    42873    42734 
   38063    35325    36811    38898    39403    39371    39414    37951 
   36259    37277    38180    36532    34820    33122    31716    33548 
   36670    37316    35957    33725    31553    30377    30007    32069 
   37840    43286    44614    43708    43173    42593    40535    37280 
   35552    36859    39765    43081    46453    49674    52050    50890 
   46094    42066    39599    36409    34388    36055    39568    41850 
   42408    42812    43341    42229    39609    38263    38516    38140 
   37432    37824    38129    37069    35745    35179    34931    34935 
   35216    35058    35253    36899    38217    38132    38295    38777 
   38565    37874    36090    33554    32975    34975    38369    42738 
   46568    47872    46057    41224    35677    33358    34192    34985 
   35391    36899    39054    40313    40192    39407    38704    37751 
   36470    36088    36830    37849    38527    37656    34950    31286 
   26871    23785    24467    26370    27384    30154    34867    39195 
   43017    44776    42160    36679    30897    26530    24927    25724 
   29029    35742    43449    49086    52026    50683    44884    38400 
   33081    29070    28489    31253    34902    39325    44007    45312 
   42122    38236    36313    36294    38935    43681    46480    44745 
   40524    36749    35172    37397    42195    45307    45369    43704 
   40250    36099    34177    34531    34653    34179    35217    38020 
   39942    40093    40545    41833    42466    42423    41912    39321 
   34564    30591    29552    30947    33523    36074    36855    35232 
   33482    34002    35914    37293    38064    38257    37870    38202 
   39452    40174    39866    39294    38564    37064    36621    39411 
   42379    41878    39141    35918    32934    31923    32819    33435 
   33995    36593    40583    43837    46325    47718    46272    42569 
   38499    34391    31418    31629    34242    36946    38846    39646 
   39378    39133    39465    39536    38661    37377    36281    34589 
   32474    32130    33546    34634    35403    37127    39887    42915 
   45561    47066    46315    44034    42649    41791    39976    38749 
   38549    37608    36633    37000    37646    37413    37226    38213 
   38776    36833    33259    29876    28440    30358    33910    37021 
   40147    42886    43881    43104    41713    40919    39734    37270 
   35689    35603    35405    35361    35228    33895    32896    34114 
   36919    39127    39402    38722    37184    33508    29776    29002 
   30546    32879    34596    34431    33889    34522    35271    35750 
   37037    39179    40801    41571    42574    42558    40269    38770 
   39600    40375    41469    44667    47289    46489    44398    43609 
   43278    42579    42714    42909    40321    35941    33389    32475 
   31365    31255    32958    34160    33523    33037    34564    37222 
   39903    43175    46881    49729    50963    49621    45075    38832 
   32854    28493    27845    30933    34102    35931    38009    38943 
   36834    34384    33490    31752    29361    30183    34487    39108 
   42989    46160    46477    43025    38643    34674    30119    26948 
   27486    29979    32709    36616    41662    45639    47580    48290 
   47482    45061    42669    40277    36540    32853    31479    31577 
   31120    29967    28148    25683    25463    29377    34187    37708 
   41270    44035    44431    44091    44074    43051    40699    38254 
   36412    35014    34708    36200    38040    39145    40289    40846 
   39960    38360    36512    35901    37697    40058    42307    44691 
   45580    44662    42198    38246    35328    34280    33691    34962 
   38353    41412    43748    44329    41251    36790    34025    33733 
   36477    39977    40463    39525    39991    40705    41929    44172 
   43707    39069    33532    29606    28116    29189    32293    36337 
   39282    40254    40374    39403    36468    33338    31531    30511 
   31179    33855    35868    36464    37100    37935    39164    40925 
   41732    40606    38589    36855    35108    33683    34875    38346 
   40410    40458    40734    41497    41661    40437    38145    36216 
   34244    31056    28912    30562    34974    39911    44443    48215 
   51104    52081    49470    44525    40842    39434    38067    35218 
   32232    30802    30843    32098    34618    37409    39226    39626 
   38611    36525    34167    32633    32227    32212    33133    36051 
   38916    39240    38334    37797    36606    34365    32661    33103 
   35347    37142    37875    38619    38483    37625    39042    41949 
   42402    40147    37471    35648    34346    32809    32451    33863 
   33887    31804    30667    31116    32863    36832    41386    45193 
   49015    50159    46603    41971    38084    33654    30333    30048 
   31515    33320    35013    36142    36848    37397    37967    39089 
   40019    39675    39555    40932    42192    41970    40946    40393 
   40259    39609    39280    40105    40004    37794    35745    35625 
   36730    37787    38470    39484    40963    42033    42653    43410 
   44284    45075    44880    42942    41067    40170    38257    35519 
   33462    31401    30701    34065    39117    42423    44691    46151 
   45550    43255    39737    35781    33320    32624    33200    34960 
   35530    33450    31390    30881    30994    31598    31931    31549 
   33049    37307    41457    44794    48111    49235    46786    42368 
   36587    30159    26426    27387    30925    34294    37261    40458 
   42805    42805    40613    37081    33890    33555    35398    36629 
   37897    40190    41422    42020    44945    48587    48864    45850 
   42021    37982    33524    30049    28772    28806    29864    32591 
   35402    36589    37075    37281    36819    37116    38990    41168 
   42579    42277    40041    37922    37104    35919    33354    31047 
   31194    33079    33477    32703    34843    39943    43764    45292 
   46599    46993    44325    40142    38538    39919    40286    38541 
   37260    35873    33135    32597    36201    39892    41130    41566 
   40979    37597    33300    31742    33170    35091    36289    37087 
   37342    37022    37214    39010    41956    43382    40888    35812 
   30879    26796    24359    24753    27078    30065    33921    39432 
   46739    53509    56620    55351    49789    41555    36045    35621 
   35738    34011    33168    33481    33245    33434    34994    36944 
   38821    41146    44178    47838    51354    52288    48520    40910 
   32917    28875    29764    31504    30910    28933    27349    26180 
   24760    24322    25579    26136    26650    31973    42419    53676 
   62492    66993    67505    65577    61380    55393    47314    35688 
   22655    11622     2550    -4891    -9224    -9980    -9207    -8514 
   -5235     3790    16480    29151    40865    51579    62035    73881 
   86304    96697   102300    98185    82088    58631    33454    12379 
    1944     2643     9466    18115    25999    31363    32763    29609 
   24723    23124    27016    36861    53866    75681    95346   106428 
  105630    91347    63645    28949    -1190   -21509   -35718   -45886 
  -47709   -34094    -1337    42294    82001   109906   121725   115142 
   96445    73649    50133    28323     9281    -5710   -12383   -10119 
    -982    17041    41697    64596    82306    92782    90877    77506 
   58357    33616     1818   -30065   -50031   -51921   -35846    -2781 
   41959    85770   115551   123452   109906    83662    52770    19954 
  -10889   -33226   -43171   -40294   -24580     2199    34784    67103 
   91037    99582    95450    85394    73122    62324    55634    53037 
   53393    54579    55096    53154    44776    29548    12779     -465 
   -5155     4041    27190    58320    87187   103296   103249    89708 
   66737    40981    20908    11893    13466    20865    29349    37511 
   47557    60801    72739    78250    76570    66121    48288    33597 
   29836    35972    49615    65646    76127    78378    73326    60089 
   40828    22315     7726    -2724    -5533      584    11619    23661 
   31152    28209    16615     2678    -8059   -10396    -3906     5606 
   13301    19626    27156    36607    48466    63032    76060    80850 
   74398    59117    41053    27013    21216    22581    26450    27892 
   24865    21747    21820    20943    16904    11379     6004     5082 
   11777    24275    38263    49418    55679    55098    47652    39465 
   34157    29689    27033    28335    32667    39584    48196    54845 
   57211    56170    53299    50696    50422    52636    56489    60462 
   60659    52806    37100    17706     -124   -10042    -8768     1005 
   16918    38263    60519    76697    83087    80979    73660    62959 
   49963    37087    26154    16540     8352     4645     7678    16082 
   27692    40599    50441    52737    47923    40564    35418    34530 
   36344    38059    38267    37802    39434    45430    55385    67292 
   78493    85467    85280    77193    63429    48941    37172    26698 
   15908     6912     2230     2431     6077    12183    22586    35746 
   44494    44628    37547    26264    14585     6295     3113     5784 
   14612    27899    43356    59170    72688    80353    78197    64428 
   42998    20808     2937    -6342    -4122     7766    25650    47055 
   68835    86891    96711    94335    78884    52948    22134    -5260 
  -21116   -21675    -9613     8409    27287    45289    59391    64793 
   61788    54747    45455    35019    26454    21351    18492    16586 
   17211    22100    29369    37906    49019    61059    69562    70715 
   63950    53422    43613    36082    31622    30399    31569    34638 
   38477    41816    44822    44982    38271    27583    18863    13473 
   11520    13358    18323    26401    37521    50311    61824    68925 
   70930    66748    54102    36147    20110     9737     6867    13867 
   28834    45215    56467    58230    50706    38908    27980    21729 
   23832    33883    45142    52101    56230    59406    58900    53858 
   48211    44219    39972    33913    27649    23847    23531    25845 
   30210    37288    45983    52822    55193    51788    43110    32381 
   22535    15865    15155    19448    24817    31737    43181    56851 
   66904    70414    66928    56851    43438    30658    20352    14002 
   12501    15643    23329    33980    45365    56886    65423    64600 
   52631    34180    14575    -2142   -10709    -6022    10291    29596 
   45836    58012    61020    48983    27819     7431    -8182   -13994 
   -5142    16154    43405    70719    95423   113552   118601   111850 
   98685    78464    52550    27938     9406    -1046    -1672     7094 
   20599    34200    46242    51996    46793    36035    27155    21378 
   21123    28895    40450    49708    54067    53217    47051    36613 
   26779    22833    25208    31190    39082    48691    58151    64000 
   65454    63143    55946    44358    31710    20179    11365     8437 
   12762    22210    33968    45580    54253    57592    55345    49407 
   40976    30261    19877    13625    12031    13235    16121    19834 
   22333    22812    23679    26202    28553    30322    32628    34944 
   36942    40212    46542    56648    68593    77862    81430    78953 
   70437    57072    42083    28429    17869    10989     7071     5771 
    7501    12314    20104    30337    41161    50029    56486    62348 
   67227    68860    67309    63879    59420    55069    51962    49970 
   46483    38682    26897    13378      785    -7738   -10521    -8032 
    -803    10579    24942    41319    56976    67309    71058    70042 
   65067    57404    48967    40428    32583    25844    19523    13952 
   10415     9775    11697    14127    15337    16410    20078    27784 
   38217    47956    54487    58198    60258    61398    62552    63423 
   62444    59028    53450    46495    40563    38353    40100    43902 
   47825    50503    50577    46623    38595    28856    20379    15333 
   15402    20665    29262    39148    48235    54525    57040    55615 
   51462    46788    42862    40370    39644    40248    42492    46264 
   49351    50638    51252    51989    52575    51638    47547    40196 
   31190    22897    17226    15024    15800    17433    17647    15811 
   12727     9649     8793    12831    21262    30981    40787    50622 
   58904    63498    63342    59023    51883    42799    33693    28539 
   30141    37107    45434    52343    56272    54942    48026    38592 
   29334    21254    14991    11155    10930    15472    23841    33716 
   43588    51853    55653    53639    47787    40768    34645    31395 
   31170    31576    30109    26690    23024    19746    17625    19445 
   26221    35950    46742    56378    62298    63585    60154    52982 
   45071    39164    36286    35694    35603    35773    36336    35455 
   32995    31438    30861    29655    28570    28807    29933    32105 
   35962    39819    41276    40543    38411    34314    29141    25209 
   22720    20704    20220    22977    29076    37955    48454    57983 
   64099    66641    67697    68886    69400    67913    64318    58514 
   50627    43050    38703    37941    39320    40663    40036    37720 
