Origin Time       2024/04/02 04:24:00
Lat.              40.133
Long.             141.712
Depth. (km)       71
Mag.              6.0
Station Code      AOMH12
Station Lat.      40.5846
Station Long.     141.1547
Station Height(m) 85
Record Time       2024/04/02 04:24:52
Sampling Freq(Hz) 100Hz
Duration Time(s)  280
Dir.              4
Scale Factor      7845(gal)/8223790
Max. Acc. (gal)   116.393
Last Correction   2024/04/02 04:24:52
Memo.             
[...]
   -2597    -2594    -2592    -2593    -2594    -2590    -2592    -2593 
   -2590    -2594    -2597    -2592    -2589    -2592    -2593    -2589 
   -2586    -2587    -2589    -2589    -2593    -2597    -2600    -2596 
   -2592    -2590    -2589    -2586    -2586    -2587    -2587    -2592 
   -2598    -2602    -2598    -2592    -2590    -2590    -2592    -2594 
   -2593    -2587    -2587    -2593    -2594    -2593    -2594    -2596 
   -2594    -2590    -2589    -2587    -2587    -2592    -2594    -2596 
   -2600    -2602    -2598    -2592    -2589    -2587    -2587    -2587 
   -2586    -2587    -2594    -2600    -2600    -2600    -2597    -2593 
   -2592    -2592    -2587    -2589    -2592    -2592    -2592    -2598 
   -2601    -2600    -2597    -2594    -2593    -2593    -2592    -2587 
   -2586    -2594    -2600    -2601    -2600    -2598    -2597    -2593 
   -2590    -2592    -2589    -2585    -2581    -2577    -2566    -2551 
   -2531    -2497    -2451    -2404    -2371    -2367    -2398    -2454 
   -2512    -2536    -2505    -2438    -2397    -2463    -2675    -2965 
   -3163    -3110    -2852    -2608    -2535    -2627    -2790    -2947 
   -3109    -3186    -2849    -2027    -1193     -893    -1290    -2177 
   -3129    -3608    -3160    -1896     -588       12     -445    -1985 
   -4039    -5529    -5764    -4861    -3284    -1529     -241     -243 
   -1896    -4369    -6097    -6073    -4537    -2694    -1567    -1094 
    -901    -1189    -1946    -2336    -1918    -1486    -1696    -1912 
   -1566    -1312    -1675    -2165    -2401    -2814    -3786    -4973 
   -5736    -5167    -2432     1459     3951     3573      739    -3191 
   -6658    -8573    -8642    -6860    -3492       20     1829     1680 
     429    -1436    -3419    -4733    -5022    -4652    -4120    -3591 
   -3196    -3244    -3931    -4576    -3651     -446     3782     6363 
    5108      488    -4776    -8434   -10008    -9911    -8355    -5238 
   -1120     2344     3554     1929    -1480    -4305    -5174    -4094 
   -1314     1274      873    -2365    -5595    -6971    -6242    -3800 
   -1467     -488     1173     4059     4032     -957    -7738   -12869 
  -14175   -10276    -2847     4089     7450     5944      388    -6412 
  -11556   -12345    -7665     -750     3454     3005     -216    -3550 
   -7001   -10741   -11917    -7904      195     8136    11778     9429 
    1668    -7549   -12425   -10635    -4058     3038     5891     3177 
   -3072   -10165   -14104   -11612    -3682     5930    12607    12398 
    5460    -5016   -16328   -23926   -21594    -9111     6941    19386 
   22543    14330     -799   -15059   -23191   -24301   -19078    -8181 
    4371    11940    11128     2349    -9355   -14716   -11314    -5135 
    1390     8112    10227     3959    -7165   -16233   -19288   -15202 
   -5547     3666     7971     8434     6258     1405    -3707    -5954 
   -6331    -6465    -3534     2320     5057     3507     1113    -2282 
   -5852    -5536    -2342    -1090    -2604    -5328    -8419    -9698 
   -7566    -4090    -1340      387     -255    -3365    -4922    -2511 
      36     -531    -1536     -947    -1023    -2925    -4082    -1919 
    1563     1995    -1518    -6596   -10227   -10372    -7778    -4498 
   -1544      550      996     -602    -3345    -5678    -6154    -3716 
    1093     6551    11024    12209     8193      724    -5599    -8507 
   -9643   -10616   -10644    -8283    -3616      913     2790     2870 
    2751      534    -5146   -11102   -13914   -13560   -11556    -9412 
   -7933    -5670    -1129     3578     5695     5215     3164      805 
    -961    -2787    -4695    -5416    -4923    -4557    -4804    -3798 
     471     6442    10685    11308     7955     1684    -6340   -15728 
  -23121   -22635   -13564    -2274     4472     4734     1278    -2184 
   -4263    -4932    -3944    -1359     1865     3848     2558    -2362 
   -8013   -10021    -7784    -4615    -2731    -2695    -4973    -8838 
  -12096   -13104   -11821    -8059    -1318     7524    16129    20128 
   15952     6168    -4444   -14175   -20579   -19633   -10999      606 
    8700    10129     6743     1371    -4029    -7634    -8807    -7724 
   -5020    -3176    -3797    -4297    -2502     -526      226     1278 
    3036     4602     4804     1478    -5602   -13003   -16822   -14646 
   -7145     1243     7041     9890     9402     6141     2828     -156 
   -4446    -8479    -9896    -9242    -6994    -3485    -1730    -4074 
   -8691   -12536   -13651   -11022    -5591      576     5208     5899 
    3704     2794     4268     6027     6635     5556     2901     -357 
   -3801    -7496   -10318   -11137    -9661    -6208    -2992    -1856 
   -1695    -1035      197     1776     3319     3592     2508     1684 
     849    -1248    -4241    -8147   -13204   -18094   -20925   -20133 
  -14931    -6736     1085     5991     6994     4239     -159    -3960 
   -6490    -6771    -4086      703     6916    13375    17184    16825 
   12897     5454    -4599   -13761   -19257   -21343   -21413   -20086 
  -16977   -11670    -4947     1861     8201    13737    17146    16178 
    9895      298    -9467   -16646   -19194   -16663   -10515    -3099 
    4274    10700    13176     9622     3091    -2107    -4923    -6003 
   -6555    -7738    -8221    -5900    -1709     1748     2817      360 
   -5715   -13070   -18939   -21838   -19831   -11546      326    10493 
   15861    16779    14338     9377     3790     -126    -1782    -2886 
   -5069    -8027   -10798   -11913    -9444    -3157     4646    10455 
   11728     8552     2662    -4563   -11497   -16020   -17064   -13891 
   -6602     1792     7781    10476    10505     7757     2020    -5358 
  -12260   -16704   -17381   -15063   -11923    -9363    -7483    -5620 
   -3253     -368     3022     6752     9749    10187     7074     1748 
   -3480    -7894   -11488   -13050   -11767    -8467    -4294     -540 
    1834     3167     4081     5046     5962     5753     3515    -1588 
   -9362   -17255   -22731   -23947   -19510   -10559     -448     7780 
   13026    15538    15732    13775     8904     1517    -6172   -13130 
  -18237   -19205   -15232    -7639      716     6824     9834    10608 
    9498     6448     2211    -2385    -6990   -10422   -11588   -11611 
  -11927   -12204   -12046   -11495    -9792    -6718    -3545    -1381 
    -220      471      801      507     -619    -2182    -2570    -1009 
    1061     2065     1344     -542    -1979    -2249    -1800     -727 
     576      540    -1548    -4446    -7055    -9547   -11722   -11776 
   -8441    -3150     2025     6030     7524     5892     3080      967 
   -1135    -3496    -4302    -3669    -4195    -6517    -8865   -10068 
  -10147    -9092    -7022    -4556    -1510     2587     6228     6970 
    4529      919    -2231    -4762    -6606    -7412    -7115    -6080 
   -5351    -5941    -7622    -8997    -8122    -3684     2898     7470 
    7264     3721     -884    -6068   -10814   -13401   -13292   -10832 
   -7138    -3711     -612     3572     9020    12972    12644     8347 
    2035    -4611   -10449   -14766   -16627   -15303   -10949    -4116 
    3727    10312    14007    13876    10372     5381     -410    -7283 
  -14158   -18981   -19872   -16848   -12272    -7338    -1401     4599 
    8675    10358     9990     7701     4036     -187    -4168    -7005 
   -8581    -9344    -9003    -7492    -5566    -3681    -2097     -886 
     352     1718     2820     3069     1861    -1005    -4957    -8395 
   -9771    -9057    -7042    -4349    -1705      -20     -369    -3591 
   -8317   -10639    -8052    -1988     4388     8455     9269     8175 
    6528     3612    -1001    -5890    -9701   -11499   -10736    -8583 
   -6647    -5393    -4576    -2925      596     4923     8565    10454 
    9385     5004    -2262   -11146   -18274   -20002   -16101    -9201 
   -1752     3773     5495     4860     4170     3438     1931     -781 
   -4419    -7658    -9981   -11634   -10928    -5784     2069     8367 
   10631     9305     5969     1381    -4588   -11388   -17193   -20309 
  -19927   -15835    -9146    -2022     4025     8137     9775     9026 
    5854      769    -4078    -7161    -8619    -8480    -6897    -4683 
   -2558     -973       -9      272     -517    -2087    -3042    -2088 
     340     1975     1606      546      -39     -436    -1314    -3277 
   -6237    -9387   -11952   -13108   -11907    -7786    -1740     3802 
    7414     9115     8823     6320     1586    -4657   -10345   -13119 
  -11935    -8263    -5046    -3832    -4664    -7281   -10509   -11890 
   -9175    -2687     4739    10146    11408     8245     2853    -2528 
   -6654    -8170    -7048    -5328    -4353    -3451    -1927     -556 
    -101      530     2533     4792     5162     2506    -2948    -9342 
  -13898   -15441   -14033    -8515      814    10085    16267    17930 
   13243     3592    -5840   -11762   -14659   -15664   -14250    -9926 
   -4645     -450     3115     6868    10282    12062    10030     2605 
   -8118   -17599   -22778   -22686   -17784    -9976    -1795     5013 
    9745    11362     9574     6166     1880    -3647    -8823   -12232 
  -13971   -13394   -10249    -5706     -687     4125     7665     8893 
    7298     2932    -3113    -8278   -11049   -11967   -10844    -7420 
   -3063     1219     4947     7121     7553     6642     3738    -1243 
   -6485   -10652   -13263   -13170   -10220    -6444    -4234    -4131 
   -4500    -3920    -2405     -299     1621     2235     1953     2008 
    1665     -430    -3736    -7334   -10762   -13027   -14011   -14513 
  -13517    -9487    -3501     2612     8002    11260    11569    10218 
    7223      336   -10035   -19093   -22245   -18679   -10717    -2232 
    3657     6814     8163     7743     6146     3900      417    -3982 
   -7592    -9220    -9259    -8773    -7528    -4706     -868     3268 
    7393     9968     9741     7415     3514    -1846    -6558    -7809 
   -5598    -1950      851     -159    -5451   -10866   -12681   -10569 
   -5868     -969     1942     2594     1856      517    -1123    -3075 
   -4820    -5833    -6883    -9304   -13643   -18729   -21185   -17949 
   -9487     1101    10458    15789    15674    10770     3258    -4653 
  -11697   -16328   -16178   -10795    -2732     4949     9849    10450 
    7415     3075    -1437    -6523   -11630   -15246   -16552   -15525 
  -12430    -7396    -1012     5239    10361    13612    13124     8100 
     318    -8367   -15685   -18220   -15176    -8388      317     8567 
   13988    15240    12062     6385     1355    -1440    -2714    -4378 
   -7542   -10939   -11985    -9900    -6574    -3461     -230     2592 
    3225     1080    -2303    -5279    -7924    -9579    -8764    -6934 
   -5917    -4487    -1563     1784     4256     5687     5833     3607 
    -955    -5663    -7497    -5067     -217     4129     6643     6404 
    1636    -7618   -17378   -22755   -21772   -15476    -6723      440 
    3138     1798    -1487    -4079    -3493     -737      823      792 
     796       36    -2890    -5645    -4676     -391     4827     9396 
   10777     8287     5098     2802      727     -780    -1443    -1787 
   -2045    -2367    -4099    -8874   -15758   -21602   -24241   -24001 
  -22110   -19496   -17705   -17811   -19469   -22188   -24425   -22713 
  -14480    -1117    13221    24984    32115    34650    34195    31325 
   26195    19938    13848     8885     5232     2662     1081       87 
    -915    -2778    -6455   -12579   -22135   -34734   -46156   -52404 
  -53786   -51152   -43117   -28615    -8163    15611    37241    50565 
   51921    41500    22902     2193   -14393   -23101   -22678   -15340 
   -5903     3357    11545    15951    14708     8537      346    -8430 
  -20426   -35602   -48091   -53447   -51969   -45064   -33212   -16954 
    1242    16220    24104    25447    22196    17373    15746    19649 
   28212    39633    51578    61578    66830    63562    48703    23082 
   -9022   -42475   -71577   -92546  -105651  -110760  -104672   -85475 
  -53858   -11078    36597    77471   104049   116695   115238    94545 
   57817    20973    -4002   -14262   -12869    -8598    -9517   -17208 
  -26401   -31692   -33278   -31511   -24807   -14018    -3447      724 
   -3920   -13203   -21902   -27835   -31526   -33023   -29686   -20746 
   -9668      252     7446    12903    21942    38084    57418    72094 
   75412    64353    39185     3735   -33952   -64795   -81946   -83142 
  -71265   -51611   -29106    -7080    11011    23170    32158    39768 
   43814    42971    36410    22698     2648   -19903   -39012   -48795 
  -46273   -32270   -11676     9498    27800    39386    39870    29000 
   10821    -8060   -22766   -33778   -43397   -52787   -61202   -64656 
  -59246   -45350   -24950      943    28067    47358    50625    37219 
   14910    -6666   -20719   -24366   -18955    -7504     6093    17720 
   23994    21195    11488     4695     4171     4507     3403     1710 
   -1418    -7272   -14698   -20814   -26559   -33889   -38445   -35768 
  -28520   -20934   -14247    -8077     -163    12390    29000    44215 
   53127    56243    54063    43437    23241    -2150   -24463   -36466 
  -37881   -32078   -20299    -4672    11400    25286    33718    34744 
   27456    10689   -13255   -39082   -61246   -73129   -69546   -51112 
  -21420    15913    53119    79751    90408    84284    59787    16978 
  -35955   -85287  -117594  -124610  -108692   -76577   -34020     8460 
   39498    55715    62212    64577    57802    35417     5306   -21944 
  -42565   -50572   -40252   -13949    17865    41207    49639    46495 
   32343     4781   -30261   -62791   -84354   -86653   -69322   -41304 
  -11596    14941    36537    51904    59946    57593    40612    14289 
   -9428   -24914   -30314   -25560   -13581     5308    28352    45573 
   49455    41380    27421    10570    -8554   -26003   -37362   -42122 
  -41476   -35837   -27710   -22096   -21697   -25027   -27342   -26018 
  -22815   -17783   -10385    -1567     9512    22500    34703    43081 
   44869    40436    30875    16056    -1058   -15381   -22477   -20503 
  -13089    -4675     2479     5616     4260     -301    -8202   -19222 
  -33187   -47229   -53913   -50785   -41789   -29160   -15323    -3686 
    6790    18092    26325    26360    18690     6639    -5644   -12947 
  -12310    -4224     8757    22702    33296    38298    37616    31132 
   20027     7042    -6840   -21138   -33075   -40119   -41289   -36066 
  -25589   -13122    -2710     3862     8564    12818    14901    13263 
    8716     2810    -2698    -5931    -6365    -3677     1875     7346 
    9568     7580     1119   -10006   -21845   -27459   -25201   -17537 
   -5644     8513    21134    29841    34515    33745    24995     9931 
   -6658   -22254   -36508   -47792   -52046   -46688   -33459   -15921 
    1942    15998    23583    24675    21658    16746    10384     3442 
   -1618    -3439    -3111    -2350    -1543      997     5795     8938 
    6810      149    -9159   -18102   -22913   -23853   -22455   -18316 
  -12673    -7631    -4158    -3835    -7692   -13826   -19097   -20552 
  -15226    -3943     8760    21114    32533    40502    44076    42576 
   33964    19298     3265   -10405   -21141   -29616   -35841   -39303 
  -39325   -35311   -27159   -15668    -3021     7668    14729    18881 
   20649    19901    18065    16775    14631     8500    -3067   -18976 
  -35298   -45806   -46106   -36618   -20127      707    22549    40582 
   49881    49032    40419    26304     9005    -8525   -25218   -39930 
  -49806   -53770   -52393   -44915   -30727   -12113     6462    21226 
   30303    33396    31637    25852    16023     3132   -10507   -21443 
  -27360   -28979   -26905   -21408   -14871    -9468    -4955      319 
    8140    18293    27407    31866    30885    25878    18222     9065 
     495    -5832    -9593    -9867    -6064     -197     5150     8824 
    9879     7859     3505    -2960   -11882   -22284   -31341   -35989 
  -35823   -33045   -28998   -22893   -13482    -1291    10874    20417 
   26167    27558    24972    19446    11584     2490    -5208    -9347 
  -10253    -9451    -8741   -10139   -13093   -14613   -13566   -11037 
   -8320    -6016    -3461     -213     2794     4741     5105     2910 
   -1510    -5389    -6787    -7290    -8861   -10481   -10079    -7083 
   -2214     3431     9161    14621    18481    18176    12051     1269 
  -10732   -20517   -25816   -25350   -19631   -10355     1046    12565 
   21722    26470    25267    18468     8202    -4310   -17702   -28094 
  -32737   -32242   -27126   -18322    -8721      122     7738    12337 
   12961    10029     4270    -2007    -5977    -7094    -6409    -4812 
   -3365    -3389    -5794   -11080   -18657   -26423   -31693   -32370 
  -28139   -19803    -8035     5163    16414    23700    26515    24420 
   17841     8969      718    -4542    -5898    -4372    -1468     2486 
    7843    14037    18462    18212    12393     1521   -12118   -24575 
  -33918   -40104   -41308   -35081   -21714    -4459    12164    24468 
   30944    31060    24652    13752     1792    -8868   -16567   -20083 
  -19336   -14818    -7577      838     9004    14783    16062    13178 
    7551       56    -7530   -13716   -18354   -20650   -19940   -17284 
  -14451   -12194    -9991    -7947    -6724    -6110    -6021    -6453 
   -6732    -6577    -5584    -2964      946     5336     9936    14164 
   16443    15395    11952     8116     4627     1854      518      487 
     325    -1310    -4725    -9506   -14139   -16564   -15877   -12383 
   -6825     -622     3944     5783     5719     4241     1386    -2164 
   -5443    -7643    -8078    -6239    -2400     2646     8068    12734 
   15749    16464    14530    10359     4592    -1583    -6889   -10908 
  -13127   -12719    -9483    -4779     -691     2173     4564     7364 
   10949    14574    16667    15884    11665     4032    -6146   -16700 
  -25188   -30190   -31469   -29446   -25033   -19306   -13158    -8633 
   -8155   -11855   -18414   -25951   -31860   -34288   -31820   -23282 
   -9767     6502    23753    38472    46322    46182    38577    23102 
    2189   -18110   -33161   -40720   -39970   -31837   -17562      464 
   17506    29286    33768    31186    22820     9652    -6204   -21548 
  -33497   -39853   -39719   -33079   -21049    -6536     7472    18959 
   26073    27112    21270     9350    -5098   -16962   -23457   -24505 
  -20748   -13832    -5796     1848     7165     8455     6003     1641 
   -2563    -4426    -2986     -508      454      193      -12      654 
    2195     3940     5876     8399    11142    12301     9157     1275 
   -7435   -12121   -11380    -6858     -781     4857     8448     8812 
    5576     -616    -8383   -15103   -17809   -16044   -12433    -9936 
   -9078    -7956    -4750      387     6723    13875    20191    23847 
   24210    20428    12357     1989    -7908   -14801   -17097   -15499 
  -12145    -8293    -4787    -2712    -1915    -1561     -837     1501 
    4758     6129     4357      -82    -6660   -14459   -22168   -28297 
  -31163   -30308   -27298   -23614   -19128   -12879    -4122     6412 
   16372    23255    25454    22970    17185     9310       90    -9270 
