Origin Time       2024/04/02 04:24:00
Lat.              40.133
Long.             141.712
Depth. (km)       71
Mag.              6.0
Station Code      CHBH13
Station Lat.      35.8307
Station Long.     140.2980
Station Height(m) -1288
Record Time       2024/04/02 04:26:31
Sampling Freq(Hz) 100Hz
Duration Time(s)  120
Dir.              1
Scale Factor      2942(gal)/8224139
Max. Acc. (gal)   0.200
Last Correction   2024/04/02 04:26:31
Memo.             
[...]
   85896    85905    85908    85915    85959    85981    85946    85926 
   85954    85959    85916    85904    85930    85918    85889    85914 
   85949    85958    85947    85915    85915    85949    85919    85838 
   85801    85824    85881    85972    86040    86013    85955    85946 
   85942    85923    85970    86062    86067    86003    85985    85976 
   85932    85915    85924    85930    85924    85928    85918    85873 
   85895    85982    85974    85876    85827    85857    85926    85958 
   85881    85808    85858    85889    85824    85789    85815    85816 
   85780    85776    85811    85837    85864    85870    85818    85760 
   85714    85676    85676    85687    85718    85772    85791    85810 
   85854    85842    85781    85741    85739    85779    85806    85803 
   85819    85849    85828    85792    85826    85885    85915    85962 
   85976    85947    85981    86024    86000    85976    85980    85978 
   85951    85904    85904    85936    85928    85942    86007    86020 
   85959    85914    85928    85949    85936    85931    85938    85935 
   85962    86032    86054    86031    86027    85992    85942    85931 
   85897    85851    85851    85858    85885    85955    85978    85939 
   85931    85938    85919    85911    85911    85885    85853    85857 
   85895    85897    85839    85803    85849    85889    85842    85793 
   85826    85845    85801    85777    85806    85866    85912    85888 
   85838    85833    85827    85801    85819    85862    85853    85835 
   85860    85857    85846    85866    85841    85799    85800    85803 
   85811    85819    85785    85760    85792    85853    85899    85897 
   85864    85858    85876    85896    85930    85961    85963    85953 
   85958    85946    85878    85861    85926    85934    85893    85918 
   85943    85901    85866    85881    85891    85873    85896    85941 
   85918    85866    85873    85916    85951    85976    85974    85954 
   85951    85951    85962    85977    85930    85866    85892    85941 
   85912    85909    85981    86003    85969    85923    85888    85916 
   85941    85892    85881    85942    85942    85860    85810    85824 
   85865    85918    85938    85919    85932    85954    85907    85845 
   85846    85897    85946    85926    85874    85908    85947    85888 
   85839    85853    85880    85901    85864    85784    85753    85756 
   85756    85789    85861    85897    85878    85864    85887    85941 
   85980    85972    85961    85970    85945    85872    85855    85889 
   85882    85870    85878    85882    85900    85904    85919    85945 
   85897    85835    85842    85849    85833    85846    85891    85911 
   85903    85903    85899    85903    85938    85946    85928    85969 
   86039    86035    85966    85922    85920    85941    85965    85957 
   85905    85877    85884    85864    85830    85850    85905    85915 
   85885    85896    85897    85869    85907    85947    85930    85946 
   85986    85996    85980    85951    85915    85891    85899    85901 
   85864    85838    85838    85845    85892    85946    85955    85949 
   85934    85907    85893    85888    85899    85924    85912    85869 
   85841    85815    85819    85887    85938    85939    85954    85990 
   85989    85936    85900    85907    85880    85855    85915    85968 
   85957    85920    85853    85799    85800    85843    85907    85938 
   85959    85996    85957    85897    85922    85914    85845    85849 
   85908    85941    85950    85916    85857    85841    85849    85841 
   85845    85843    85828    85849    85868    85850    85872    85927 
   85930    85901    85905    85903    85846    85833    85880    85868 
   85824    85796    85792    85839    85860    85838    85847    85830 
   85783    85781    85788    85824    85882    85860    85826    85835 
   85816    85842    85912    85909    85872    85839    85835    85903 
   85958    85947    85945    85954    85934    85901    85885    85889 
   85891    85849    85800    85831    85900    85942    85973    85996 
   85992    85958    85931    85939    85958    85986    86017    86040 
   86040    85996    85941    85903    85900    85941    85918    85846 
   85858    85895    85878    85851    85843    85889    85922    85872 
   85834    85824    85799    85827    85903    85907    85858    85841 
   85843    85839    85839    85857    85858    85819    85812    85853 
   85862    85869    85914    85946    85941    85916    85893    85884 
   85877    85881    85911    85911    85851    85816    85868    85923 
   85909    85887    85909    85904    85857    85846    85843    85815 
   85793    85799    85843    85862    85818    85822    85884    85885 
   85820    85789    85826    85849    85845    85860    85861    85826 
   85796    85828    85901    85912    85880    85880    85878    85869 
   85891    85932    85954    85945    85936    85928    85922    85949 
   85966    85962    85954    85915    85891    85893    85878    85901 
   85951    85939    85911    85904    85874    85860    85903    85954 
   85989    85989    85938    85893    85884    85888    85919    85941 
   85932    85958    86005    86007    85993    86019    86026    85992 
   85982    85941    85862    85887    85950    85914    85826    85787 
   85824    85854    85860    85893    85895    85881    85900    85868 
   85811    85834    85893    85909    85901    85924    85930    85908 
   85945    85966    85928    85942    85985    85963    85932    85936 
   85941    85905    85858    85849    85815    85754    85776    85842 
   85865    85860    85872    85908    85907    85870    85866    85865 
   85872    85909    85903    85893    85951    85966    85916    85899 
   85899    85919    85935    85892    85882    85931    85949    85932 
   85943    85984    85970    85900    85862    85847    85861    85911 
   85891    85854    85919    85966    85951    85968    85957    85912 
   85927    85954    85951    85962    85982    85984    85911    85788 
   85742    85779    85828    85855    85847    85834    85806    85764 
   85764    85789    85801    85811    85822    85816    85815    85839 
   85839    85818    85833    85845    85853    85893    85893    85842 
   85843    85882    85884    85870    85876    85884    85897    85930 
   85945    85953    85981    85968    85945    85972    85965    85931 
   85936    85918    85866    85853    85865    85876    85914    85974 
   85957    85880    85878    85909    85901    85908    85919    85936 
   85981    85985    85954    85909    85869    85897    85934    85907 
   85893    85923    85927    85884    85868    85897    85905    85895 
   85897    85907    85923    85935    85928    85891    85847    85849 
   85860    85851    85846    85849    85888    85928    85897    85850 
   85855    85854    85839    85876    85885    85849    85891    85949 
   85931    85918    85911    85862    85854    85930    85969    85935 
   85936    85951    85936    85924    85915    85936    85970    85951 
   85957    86001    85972    85891    85849    85830    85793    85750 
   85749    85799    85845    85872    85901    85885    85826    85792 
   85776    85803    85880    85887    85839    85864    85900    85885 
   85876    85887    85865    85807    85795    85803    85726    85660 
   85711    85772    85780    85811    85870    85866    85819    85857 
   85945    85949    85936    85977    85993    85985    85981    85973 
   85990    86003    85962    85904    85865    85864    85919    85988 
   86009    86011    86015    85988    85947    85947    85969    85982 
   85988    85978    85972    85982    85969    85922    85889    85891 
   85882    85870    85904    85931    85912    85916    85965    85996 
   85970    85939    85970    86016    86054    86088    86065    86008 
   85988    85965    85919    85911    85914    85880    85853    85843 
   85851    85877    85835    85750    85762    85824    85824    85783 
   85747    85770    85862    85941    85951    85936    85914    85897 
   85908    85914    85901    85872    85822    85787    85784    85830 
   85881    85828    85761    85808    85876    85885    85882    85857 
   85801    85781    85803    85830    85845    85861    85905    85930 
   85887    85837    85819    85820    85838    85845    85837    85823 
   85835    85869    85861    85810    85792    85837    85895    85954 
   86023    85993    85841    85765    85838    85838    85719    85680 
   85734    85783    85877    85966    85962    85988    86071    86062 
   85980    85911    85880    85946    86030    85995    85955    85982 
   85949    85865    85787    85692    85637    85653    85679    85707 
   85783    85876    85912    85882    85882    85972    86036    85934 
   85783    85785    85858    85872    85904    85972    85963    85885 
   85826    85780    85734    85727    85760    85815    85881    85909 
   85946    86031    86059    86011    85997    86038    86044    85981 
   85930    85905    85818    85747    85765    85781    85784    85807 
   85851    85938    86054    86143    86196    86204    86130    86030 
   85985    85959    85936    85947    85980    86026    86051    85974 
   85864    85833    85781    85703    85734    85822    85841    85826 
   85882    86020    86159    86186    86027    85858    85851    85877 
   85869    85881    85908    85954    85996    86023    86051    86011 
   85930    85926    85965    85969    85911    85854    85904    86028 
   86170    86285    86238    85995    85784    85739    85743    85774 
   85857    85841    85733    85715    85792    85891    85965    85951 
   85877    85854    85920    85980    85996    86001    85924    85862 
   86009    86143    86000    85800    85792    85837    85785    85789 
   85901    85949    85943    85955    85932    85946    86044    86147 
   86224    86258    86220    86100    85912    85711    85581    85563 
   85646    85781    85858    85862    85870    85849    85754    85711 
   85772    85830    85911    86073    86113    85935    85827    85897 
   85939    85909    85881    85819    85714    85623    85595    85641 
   85761    85896    85916    85861    85919    85985    85912    85872 
   85811    85600    85619    85989    86256    86282    86159    85887 
   85645    85602    85654    85584    85396    85360    85484    85568 
   85669    85888    86112    86181    86119    86073    86031    85936 
   85849    85810    85893    86081    86188    86132    86004    85909 
   85815    85688    85693    85807    85827    85845    85938    85974 
   85947    85934    85974    86059    86069    86061    86240    86363 
   86157    85969    85976    85838    85608    85635    85842    86065 
   86286    86323    86105    85914    85835    85739    85723    85854 
   85959    85904    85708    85545    85472    85367    85353    85644 
   86031    86144    86078    86143    86143    85800    85468    85426 
   85515    85749    86078    86205    86086    85862    85626    85511 
   85517    85612    85878    86134    86201    86197    86019    85599 
   85428    85770    86098    86076    86028    86032    85857    85587 
   85402    85398    85572    85760    85970    86235    86320    86136 
   85900    85808    85816    85799    85823    85954    86005    85882 
   85770    85716    85650    85745    85957    85955    85915    86086 
   86146    85951    85734    85648    85699    85680    85641    85885 
   86188    86165    85892    85627    85654    85920    86053    86111 
   86229    86100    85808    85745    85861    86023    86147    86086 
   85942    85918    86011    86001    85787    85664    85733    85743 
   85831    86144    86301    86174    86140    86294    86378    86221 
   85881    85695    85876    86074    86027    85961    85982    85941 
   85801    85681    85719    85907    86028    86100    86269    86287 
   86078    85970    85981    85949    85927    85955    86032    86092 
   85992    85877    85953    85982    85804    85676    85671    85633 
   85617    85750    85873    85889    85978    86061    86053    86182 
   86341    86258    86104    85980    85739    85565    85687    85869 
   85919    85980    86108    86223    86175    85977    85853    85772 
   85680    85734    85816    85808    85815    85758    85676    85855 
   86073    85934    85781    85887    85989    86009    86013    85951 
   85814    85687    85657    85708    85796    85927    86031    86022 
   85943    85815    85627    85546    85623    85687    85687    85585 
   85429    85517    85777    85862    85958    86181    86136    85868 
   85754    85746    85729    85729    85688    85662    85804    86039 
   86159    86085    85901    85776    85841    85989    85932    85757 
   85824    85986    85918    85784    85792    85909    85997    85955 
   85899    85893    85857    85756    85603    85515    85591    85834 
   86158    86290    86138    85950    85843    85781    85733    85591 
   85450    85468    85468    85459    85645    85846    85885    85953 
   86051    85947    85695    85558    85603    85720    85824    85895 
   85876    85765    85716    85725    85704    85750    85861    85973 
   86047    85968    85752    85591    85635    85770    85826    85935 
   86175    86370    86385    86267    86190    86127    85868    85513 
   85348    85448    85719    85935    85995    86082    86205    86220 
   86221    86262    86231    86161    86080    85884    85577    85368 
   85433    85687    85926    86139    86405    86452    86136    85938 
   86055    86107    85974    85936    86077    86071    85853    85828 
   85995    85934    85812    86028    86282    86266    86147    85980 
   85865    85909    85878    85780    85872    85985    85866    85762 
   85935    86113    86036    85945    86055    86154    86032    85918 
   85962    85957    85930    85968    85901    85834    85915    85955 
   85843    85680    85612    85649    85689    85816    85990    86067 
   86057    85862    85649    85749    85946    86071    86246    86208 
   85858    85739    85955    85926    85762    85938    85995    85658 
   85558    85746    85758    85812    86059    86080    86009    86166 
   86134    85807    85716    85903    85970    85932    86026    86152 
   86123    86044    86020    85992    85927    85826    85715    85657 
   85693    85830    85957    85962    85918    85923    85918    85899 
   85963    86089    86225    86269    86135    85989    85941    85887 
   85850    85905    85936    85958    86108    86225    86096    85868 
   85839    86004    86011    85781    85684    85780    85837    85969 
   86162    86193    86186    86151    85916    85695    85654    85610 
   85533    85631    85847    85901    85742    85592    85661    85787 
   85707    85646    85754    85785    85726    85681    85608    85496 
   85419    85467    85545    85580    85711    85862    85911    86003 
   86125    86036    85781    85683    85725    85669    85615    85722 
   85842    85931    86061    86008    85758    85675    85750    85900 
   86125    86134    85930    85823    85765    85734    85860    86009 
   86022    85986    86012    86042    85993    85904    85833    85806 
   85807    85733    85662    85853    86124    86143    86117    86115 
   85855    85614    85634    85638    85644    85784    85908    85986 
   86022    85904    85750    85741    85818    85901    85958    85995 
   86069    86081    86008    86036    86135    86100    85957    85909 
   85943    85955    86088    86246    86038    85654    85577    85742 
   85854    85918    86076    86181    86042    85915    85966    85981 
   85965    86031    86065    86043    86049    85980    85815    85779 
   85880    85969    86036    86035    85973    86046    86124    85965 
   85807    85788    85787    85869    86011    86092    86173    86189 
   86069    85981    85981    86003    86061    86130    86171    86132 
   85981    85843    85789    85720    85608    85689    86022    86197 
   86121    86039    85854    85641    85652    85668    85561    85584 
   85758    85903    85954    85953    85866    85653    85536    85664 
   85826    85918    86020    86111    86089    85932    85819    85853 
   85861    85807    85781    85793    85909    86040    86046    86047 
   86050    85934    85758    85595    85490    85515    85681    85968 
   86182    86077    85878    85851    85820    85757    85742    85743 
   85833    85918    85815    85743    85855    85874    85769    85774 
   85776    85638    85580    85725    85884    85876    85780    85806 
   85957    86065    86054    85984    85970    86016    85955    85747 
   85611    85714    85977    86194    86204    86055    85939    85864 
   85779    85837    86024    86051    85860    85700    85760    85934 
   86005    85984    86058    86208    86212    86055    85907    85801 
   85727    85769    85884    85909    85942    86066    86085    85965 
   85885    85841    85824    85980    86188    86159    86013    85981 
   85926    85787    85733    85741    85692    85685    85870    86121 
   86174    86049    85992    86089    86116    85945    85810    85801 
   85780    85788    85846    85899    85941    85909    85839    85855 
   85941    85992    85963    85873    85776    85734    85746    85754 
   85793    85838    85766    85708    85788    85827    85797    85843 
   85920    85919    85850    85769    85708    85661    85633    85673 
   85781    85838    85814    85822    85869    85915    85922    85827 
   85745    85770    85762    85715    85679    85631    85703    85897 
   86055    86171    86202    86101    86034    86061    86000    85864 
   85851    85909    85941    85997    85993    85936    85934    85889 
   85838    85831    85711    85656    85815    85837    85704    85681 
   85703    85803    86022    86081    85995    86080    86239    86192 
   86057    86040    86031    85927    85876    85955    86035    86024 
   86066    86189    86152    85981    85923    85903    85816    85828 
   85954    86003    85923    85853    85835    85792    85815    85955 
   86046    86027    85950    85891    85924    85963    85914    85812 
   85785    85882    85959    85958    85978    86040    86097    86055 
   85946    85916    85876    85756    85739    85835    85868    85853 
   85911    85980    85931    85837    85801    85777    85814    85962 
   86013    85946    85989    86094    86120    86113    86093    86094 
   86154    86150    86040    85909    85787    85720    85731    85776 
   85818    85853    85919    85943    85834    85737    85804    85955 
   86011    85993    86036    86043    85872    85675    85672    85774 
   85845    85939    85966    85866    85837    85865    85785    85681 
   85666    85673    85714    85833    85889    85846    85839    85865 
   85862    85850    85830    85806    85822    85885    85936    85893 
   85792    85795    85922    85980    85889    85828    85891    85985 
   86046    86023    85953    85945    85990    85993    85920    85857 
   85841    85812    85807    85843    85792    85676    85641    85639 
   85633    85702    85773    85780    85766    85731    85757    85892 
   86004    85934    85656    85491    85611    85699    85704    85842 
   85997    86067    86073    85920    85720    85677    85712    85773 
