Origin Time       2024/04/02 04:24:00
Lat.              40.133
Long.             141.712
Depth. (km)       71
Mag.              6.0
Station Code      CHBH06
Station Lat.      35.7215
Station Long.     140.5046
Station Height(m) -145
Record Time       2024/04/02 04:25:51
Sampling Freq(Hz) 100Hz
Duration Time(s)  164
Dir.              3
Scale Factor      3923(gal)/8224838
Max. Acc. (gal)   0.196
Last Correction   2024/04/02 04:25:52
Memo.             
[...]
      54       48       52       56       68       86       89       85 
      83       85       87       72       52       47       29       -2 
      -4       16       28       58       97      105       89       72 
      52       51       72       86       79       52       -4      -54 
     -58      -43      -32       -1       58      109      140      166 
     170      133       85       66       72       81       86       98 
     106       83       62      106      148      113       93      108 
      86       66       67       44       13       24       66       94 
      98      112      151      170      143      124      144      148 
     125      137      174      166      135      116       98       95 
     133      184      202      195      203      194      130       74 
      59       58       66       87       97      117      168      213 
     251      297      280      209      184      186      167      159 
     160      156      162      174      176      174      167      163 
     163      149      129      124      118      106      106       97 
      66       40        5      -22      -18      -18      -33      -37 
     -41      -54      -54      -32      -14       -2       13       14 
      29       68       44      -24      -35      -13      -21      -45 
     -64      -82     -101     -105      -74      -24        5       -5 
     -28      -54      -91     -112     -108     -121     -133      -94 
     -33        8       31       29        6      -12       -6       18 
      22        5       -5        4       28       72      113      108 
      71       27      -13        1       35       10      -29      -36 
     -21        8       44       85      113      118      149      213 
     252      255      226      175      112       55       39       51 
      48       52       90      120      124      130      144      147 
     140      156      189      189      168      167      179      197 
     218      240      247      213      184      210      222      166 
     108       86       72       82      101      101       94       86 
      95      135      166      174      184      180      124       41 
      -4      -17       -6       47      106      120      108      103 
     118      120       86       76      122      151      130      108 
     120      157      190      221      241      229      222      236 
     226      194      164      133       83       35       27       44 
      79      136      160      128       83       52       55       87 
      90       68       75       85       71       55       60       87 
     102       98      114      145      126       52       -1      -18 
     -47      -67      -67      -81      -89      -67      -51      -62 
     -51        5       41       35       43       75       83       56 
      39       48       64       79       87       76       58       66 
     109      117       54       -5       20       60       40       21 
      52       91      117      143      182      216      218      229 
     240      190      125      110      105       87       85       99 
     102       72       40       52       59       12      -12       18 
      21        2       33       56       10      -18       18       76 
     120      117       85       62       32       18       41       27 
       1       43       79       75      110      168      193      176 
     148      151      166      143      116      109      101       90 
      95       98       62       32       71      120      116       62 
     -13      -52      -13       63      136      179      175      152 
     135      114      109      129      163      195      201      197 
     182      147      106       82       94      118      125      128 
     120       90       71       48        4       -2       48      116 
     182      233      245      203      124       72       72       81 
      87       89       81       60        4      -60      -75      -45 
       1       56      102      106       56        4      -32      -60 
     -44       12       47       47       24        4       10       -9 
     -44      -29        5       32       48       12      -54      -79 
     -67      -52      -20       40       76       97      130      143 
     121       70        0      -22       17       68       94       98 
      86       47       16       36       76      102      118      139 
     170      198      213      210      195      193      198      195 
     207      224      238      229      132       20        4       39 
      67       98      136      170      176      157      132       87 
      29       40      124      174      148      102       44       -2 
       0       32       62       75       58       24       -8      -24 
     -14       -4      -16      -33        0       91      143      113 
      66       41       27       22       35       33       -5      -48 
     -62      -64      -78      -79      -31       47      109      174 
     238      222      120       29       -1       -8      -27      -31 
      -8       -4       -6       -9      -33      -54      -66      -48 
      14       56       56       78       97       66       24       10 
      10       28       89      167      229      265      206       47 
     -76     -122     -156     -166     -141     -125      -98      -21 
      63       94       86       75       51       33       52       82 
     102       83       27       13       39       41       68      144 
     184      193      213      220      210      179      103       18 
     -32      -39        2       55       99      163      233      241 
     164       85       66       71       64       75      117      153 
     162      157      167      164      153      180      224      211 
     148       87       48       60      124      164      157      156 
     179      222      247      197      112       44        0        1 
      55      109      132      163      194      182      194      243 
     222      171      189      199      135       49      -18      -63 
     -40       49      160      234      245      234      189       72 
     -40      -82     -106     -106      -28       62      110      155 
     197      225      234      206      199      226      210      144 
      60      -43     -105      -68        2       71      182      283 
     294      265      237      183      128       93       36      -31 
     -56      -45      -27      -13      -43      -86      -43       90 
     234      352      414      380      276      153       51       31 
      54       29       18       58       49      -20      -49       -8 
      58      130      162      102       27      -20      -82     -136 
    -155     -130      -41       83      194      265      275      203 
      99       58       43      -32     -122     -163     -151      -93 
     -37      -40      -58        0      117      202      211      155 
      48      -37      -35       -9      -51     -116     -143     -130 
    -106      -83      -45       -4       40      130      253      324 
     301      213      114       66       79       82       47       40 
      76      109      113       78       25        6       37       76 
      98      101       91       91      114      135      121       81 
      74      132      214      294      349      348      310      260 
     191      130      114      133      145      109       58       55 
      82       81       66       68       70       82      153      237 
     247      197      130       41      -31      -25       12        5 
       1       43       93      124      113       71       68      102 
     122      125      117      116      137      157      126       35 
     -68     -143     -162     -129      -75      -37      -27      -47 
     -81      -66       20       86      105      144      176      155 
     145      183      203      207      230      213      128       56 
      45       66       60       27        4      -16      -41      -17 
      44       83      109      126      105       66       54       70 
      85       91      117      175      197      141      106      137 
     159      160      159      113       54       48       59       24 
     -41      -91     -113     -103      -36       51       86      101 
     105       89      132      211      225      222      280      355 
     384      317      153        0      -45       -5       51      101 
     128      125      137      159      145      106       52       10 
      39      126      222      319      379      365      315      271 
     226      202      229      267      260      205      122       24 
     -90     -176     -156      -35       86      176      249      268 
     186       32      -98     -160     -163      -83       32       81 
      41      -41     -124     -156     -132      -71       -4       51 
     120      137       49      -43      -66      -48      -43      -47 
      10       91       91       43      -24      -90      -89      -37 
      20       91      159      213      236      163       49       29 
     106      203      288      321      264      170       76      -31 
    -129     -176     -176     -125      -36       45      118      193 
     260      338      391      346      267      224      157       74 
      56       78       94      135      179      216      278      305 
     247      184      147       97       60       54       54       47 
      21        9       47      103      147      172      168      139 
     110       64       -9      -66     -105     -120      -62       -6 
     -54     -130     -151     -157     -152      -75       39       66 
     -22      -70      -27      -13      -29       -9       39      106 
     184      232      245      243      187       62      -62     -105 
     -74      -32      -24      -63     -102      -94      -83     -105 
     -95      -35       31      124      245      298      295      291 
     206       70       37       95      126      122      101       37 
     -54     -129     -152      -98      -41      -75     -132     -148 
    -136      -95      -44       18      108      163      166      162 
     153      139       98       24        2       48       81       87 
      49      -16      -36       -5       33       60       62       58 
      48       12      -27      -45      -41        0       93      184 
     180       87        0      -32       -5       97      232      288 
     243      168      108       51        9       29      118      198 
     182      101       29      -43     -139     -203     -172      -59 
      60      139      166      144      102       56        9        2 
      48       99      151      207      221      199      206      216 
     193      168      147       63      -51      -81      -27       71 
     211      324      361      337      241      128       72       48 
      49       95      116       82       67       71       83      129 
     167      171      195      230      229      209      197      167 
     132      130      148      170      201      214      202      183 
     151      125      168      245      268      257      234      183 
     174      226      257      240      220      211      198      147 
      68       25       33       14      -40      -24      105      251 
     344      356      265      149      109       87       33       18 
      56       78       58       24        8        1      -22      -72 
    -109      -72      -14       10       62      147      230      283 
     216       54      -47      -56      -17       56      112      114 
     117      143      135       68       36       60       74       60 
      25        6       33       27       -5       -2       -9       -5 
      58      129      171      182      151       94       36       13 
      24       24       20       37       72      102       89       67 
      83      101       82       17      -76     -110      -72      -28 
      12       79      174      271      346      372      314      237 
     206      166      135      166      182      136       86       51 
       2      -44      -36       28       97      168      261      307 
     234      110       29        5       -1      -31      -45       10 
      75       71       27       -6        2       51       86       74 
      67      105      105       10      -90     -145     -202     -270 
    -283     -194      -78      -29      -35      -47      -44      -22 
     -13      -32      -28       24       97      148      164      145 
      90       17      -24      -14       22       76      132      166 
     141       56      -22      -56      -74      -81      -47       -2 
      16       25       31       16       21      108      233      276 
     238      201      133       33      -37      -75      -62       -4 
      18       10       25       47       74      133      194      241 
     305      360      355      295      209       97        8      -10 
      32      105      162      170      129       72       44       44 
      56      105      179      232      265      288      279      265 
     295      341      359      346      272      130       -1      -85 
    -157     -210     -214     -178     -124      -90      -72      -22 
      47      109      172      232      297      378      410      325 
     170       68       29      -43     -135     -193     -237     -278 
    -283     -279     -309     -333     -290     -199     -110      -16 
      93      187      244      268      279      294      299      276 
     232      157       68        0      -48      -71      -51      -41 
     -64      -54       -1       54      101      125      149      182 
     176      189      272      341      383      441      457      396 
     291      170       85       76      137      232      297      306 
     243      113      -27     -124     -133      -70       -8       39 
      90      124      139      149      182      263      363      396 
     365      341      322      261      163       83       49       14 
     -35      -40        5       43       37       17       16       32 
      40        6      -62     -116     -121      -70       31      137 
     186      166      116       66       18      -12      -37      -82 
    -114      -98      -71      -91     -140     -144     -113      -94 
     -51       16       32        6      -14      -37      -45      -27 
      -6      -16      -39      -39      -47      -90     -120     -120 
    -132     -175     -183     -125      -67      -37      -16        9 
      45       78       99      122      149      211      310      387 
     409      376      299      230      211      217      213      189 
     132       74       72      103      118      149      202      220 
     217      221      226      222      180      120       85       52 
      27       41       83      117      125      112       91       62 
      25       24       45       62       83      102       99       99 
     124      156      176      194      210      202      163       90 
      -6      -49      -24        2       24       54       74      106 
     149      140       81       39       45       74       87       74 
      58       49       47       52       68       93      118      152 
     183      187      163      113       41      -35     -103     -133 
    -101      -37       12       54      114      152      128      110 
     126      121      102       89       58       16       -4       -6 
     -25      -49      -27       22       31       12       -2      -41 
    -112     -176     -211     -202     -144      -72      -25        5 
      24       33       66      112      120      114      132      148 
     168      202      213      197      193      198      187      168 
     143      105       78       74       89      126      157      153 
     151      162      166      184      222      244      259      282 
     295      288      272      244      214      197      168      135 
     128      140      143      118       60       -9      -58      -67 
     -54      -35      -17        4       27       32       22       28 
      31       10       -8       -5       14       45       89      128 
     143      145      157      187      209      189      149      137 
     126       94       74       67       43       -2      -52      -72 
     -55      -18       21       71      166      295      394      437 
     437      415      402      373      329      313      282      201 
     141      121       93       64       68      105      139      152 
     149      129      106       81       29        6       62      143 
     199      220      221      221      195      145      103       58 
      12      -13      -44      -94     -128     -139     -149     -155 
    -118      -64      -66     -109     -141     -160     -164     -149 
    -128     -105      -64      -16       29       74       91       78 
      63       44        4      -14       12       37       21      -24 
     -75     -116     -128     -130     -126      -97      -48        6 
      86      174      238      271      260      213      174      133 
      79       54       60       76       85       58        1      -56 
     -89      -64       14       94      125      120      113      102 
      79       44       22       28       52      118      211      265 
     261      237      202      155      144      175      199      191 
     168      164      178      160      102       47       13      -13 
     -16        5        5      -22      -51      -68      -59      -25 
      14       59      108      144      178      226      260      252 
     228      228      249      256      226      153       70       37 
      43        9      -39      -35      -21      -45      -71      -67 
     -41      -25      -47      -85     -108     -105      -56       27 
      85      116      144      164      168      155      125       71 
       2      -37      -37      -25       17       86      113       98 
      82       74       66       32      -16      -37      -39      -59 
    -113     -167     -186     -179     -153      -93      -14       41 
      63       59       63      102      145      163      157      122 
      83       72       70       59       63       90      118      144 
     166      178      166      114       58       32       20       10 
      28       60       81       93      109      136      156      147 
     129      133      141      129      112      102      102      114 
     147      195      214      178      117       59       18       31 
      89      151      198      225      226      210      190      174 
     189      233      291      332      305      230      183      180 
     189      198      218      238      237      232      228      216 
     199      167      113       81       98      153      214      230 
     211      207      229      228      172      108       70       49 
      64      106      108       76       64       62       59       72 
     102      133      153      160      149      113       63       27 
      14       16       28       52       60       44       33       22 
     -12      -60      -98     -136     -160     -140      -98      -70 
