Origin Time       2024/04/02 04:24:00
Lat.              40.133
Long.             141.712
Depth. (km)       71
Mag.              6.0
Station Code      CHBH10
Station Lat.      35.5458
Station Long.     140.2417
Station Height(m) 65
Record Time       2024/04/02 04:26:41
Sampling Freq(Hz) 100Hz
Duration Time(s)  120
Dir.              4
Scale Factor      7845(gal)/8223790
Max. Acc. (gal)   0.699
Last Correction   2024/04/02 04:26:42
Memo.             
[...]
    4048     4168     4282     4383     4496     4580     4576     4487 
    4360     4243     4159     4125     4180     4295     4387     4410 
    4334     4182     4051     4020     4098     4234     4344     4369 
    4309     4217     4174     4194     4234     4267     4290     4291 
    4270     4220     4152     4112     4122     4166     4210     4237 
    4236     4229     4248     4298     4356     4355     4260     4128 
    4027     3983     4006     4079     4149     4179     4166     4144 
    4152     4168     4156     4121     4087     4071     4113     4247 
    4421     4521     4468     4298     4101     3946     3869     3877 
    3928     3978     4018     4055     4097     4145     4202     4278 
    4361     4414     4418     4411     4437     4515     4606     4625 
    4534     4386     4266     4234     4291     4357     4369     4317 
    4210     4089     4021     4040     4118     4224     4313     4351 
    4340     4311     4307     4351     4406     4450     4482     4468 
    4415     4372     4353     4351     4340     4276     4167     4059 
    3983     3954     3959     3966     3928     3844     3790     3846 
    4010     4243     4475     4618     4644     4579     4457     4318 
    4197     4137     4174     4264     4322     4320     4272     4203 
    4121     4025     3939     3894     3900     3971     4098     4224 
    4309     4356     4374     4387     4419     4463     4517     4581 
    4606     4537     4356     4113     3908     3804     3793     3861 
    3981     4093     4170     4241     4306     4351     4399     4455 
    4494     4499     4457     4390     4324     4261     4218     4194 
    4151     4078     4010     3978     3993     4043     4104     4160 
    4189     4183     4179     4198     4237     4299     4371     4395 
    4352     4294     4276     4307     4341     4332     4291     4243 
    4166     4070     4004     3979     3981     3974     3921     3834 
    3751     3740     3847     4016     4170     4284     4355     4383 
    4392     4403     4405     4388     4361     4328     4283     4230 
    4191     4187     4218     4248     4247     4206     4136     4054 
    4005     4036     4129     4247     4383     4530     4652     4707 
    4671     4552     4382     4199     4060     4006     4020     4075 
    4158     4256     4369     4484     4558     4538     4391     4166 
    3962     3842     3836     3935     4072     4183     4237     4237 
    4195     4137     4094     4085     4105     4131     4148     4158 
    4140     4101     4067     4050     4060     4112     4186     4275 
    4378     4476     4527     4504     4423     4342     4303     4284 
    4270     4271     4279     4272     4240     4167     4063     3978 
    3927     3900     3912     3973     4066     4171     4267     4333 
    4351     4297     4198     4104     4025     3950     3879     3819 
    3775     3767     3800     3839     3879     3962     4094     4212 
    4248     4202     4110     4010     3951     3956     4009     4090 
    4183     4241     4247     4234     4248     4301     4365     4419 
    4460     4477     4473     4468     4461     4419     4322     4197 
    4098     4050     4052     4114     4221     4332     4419     4468 
    4472     4440     4387     4336     4298     4290     4325     4386 
    4440     4456     4429     4367     4287     4190     4082     3979 
    3900     3847     3824     3831     3867     3924     3979     4032 
    4083     4133     4197     4287     4369     4386     4332     4233 
    4129     4067     4059     4085     4116     4129     4125     4135 
    4180     4239     4261     4251     4236     4224     4207     4202 
    4226     4299     4406     4503     4564     4558     4468     4328 
    4189     4081     4024     4027     4079     4164     4257     4332 
    4365     4355     4311     4283     4320     4405     4486     4550 
    4584     4554     4469     4378     4309     4290     4311     4311 
    4245     4116     3946     3801     3759     3813     3916     4025 
    4102     4120     4079     4033     4048     4118     4198     4263 
    4299     4307     4318     4369     4460     4515     4476     4369 
    4241     4117     4032     4010     4041     4077     4087     4094 
    4110     4128     4163     4236     4333     4423     4476     4472 
    4413     4320     4233     4167     4105     4066     4062     4071 
    4081     4091     4105     4139     4189     4226     4220     4158 
    4090     4075     4135     4245     4359     4437     4445     4376 
    4286     4221     4186     4199     4248     4282     4286     4256 
    4198     4160     4176     4237     4307     4333     4293     4216 
    4141     4093     4083     4089     4068     4013     3946     3909 
    3946     4062     4193     4256     4222     4133     4064     4056 
    4082     4106     4117     4114     4124     4170     4229     4288 
    4353     4410     4449     4457     4437     4413     4380     4322 
    4249     4187     4163     4189     4239     4288     4334     4361 
    4369     4357     4321     4280     4243     4217     4210     4210 
    4199     4171     4151     4187     4299     4456     4610     4707 
    4726     4672     4552     4390     4252     4175     4132     4089 
    4052     4052     4109     4207     4307     4360     4367     4369 
    4413     4496     4588     4649     4658     4634     4600     4564 
    4538     4541     4556     4544     4495     4410     4294     4182 
    4117     4099     4093     4071     4054     4070     4120     4179 
    4212     4182     4101     4008     3959     3994     4095     4185 
    4202     4152     4068     3989     3939     3940     3977     4008 
    4012     4006     4005     4014     4031     4021     3979     3931 
    3905     3925     3985     4059     4131     4195     4270     4360 
    4433     4471     4491     4500     4490     4468     4448     4438 
    4429     4403     4353     4293     4251     4230     4217     4206 
    4195     4167     4118     4066     4047     4094     4186     4276 
    4337     4349     4311     4239     4158     4093     4051     4021 
    4012     4031     4063     4091     4105     4113     4129     4152 
    4190     4234     4276     4297     4297     4278     4236     4185 
    4132     4062     3993     3952     3940     3951     3971     3989 
    4000     4016     4054     4099     4117     4091     4033     3986 
    3994     4071     4194     4311     4388     4405     4351     4264 
    4205     4178     4152     4122     4108     4104     4091     4086 
    4101     4124     4140     4139     4128     4143     4194     4253 
    4305     4359     4421     4457     4426     4340     4245     4170 
    4099     4016     3919     3829     3794     3838     3937     4058 
    4166     4255     4322     4359     4365     4352     4307     4243 
    4195     4182     4190     4198     4202     4202     4194     4179 
    4172     4182     4202     4226     4234     4199     4143     4113 
    4117     4155     4226     4297     4357     4423     4500     4571 
    4604     4577     4487     4352     4209     4083     3973     3888 
    3865     3917     4009     4113     4224     4322     4365     4349 
    4303     4255     4222     4228     4274     4337     4387     4396 
    4361     4301     4244     4212     4213     4222     4193     4141 
    4126     4160     4226     4306     4359     4348     4284     4217 
    4187     4203     4253     4313     4360     4380     4365     4337 
    4305     4257     4193     4117     4052     4031     4081     4197 
    4334     4436     4469     4457     4423     4368     4299     4234 
    4185     4148     4133     4155     4209     4284     4367     4418 
    4426     4415     4401     4384     4368     4360     4348     4318 
    4278     4226     4166     4106     4064     4055     4077     4102 
    4089     4002     3863     3719     3615     3578     3618     3720 
    3858     3997     4131     4263     4378     4444     4442     4391 
    4322     4264     4233     4209     4176     4163     4178     4197 
    4218     4241     4245     4216     4141     4044     3959     3898 
    3878     3909     3973     4045     4110     4155     4180     4201 
    4212     4206     4190     4167     4144     4120     4101     4090 
    4079     4060     4039     4024     4027     4027     4021     4047 
    4113     4187     4248     4301     4355     4398     4429     4464 
    4509     4557     4606     4637     4626     4575     4503     4438 
    4394     4364     4345     4326     4286     4237     4217     4239 
    4286     4328     4351     4368     4382     4394     4407     4407 
    4374     4314     4259     4226     4203     4178     4141     4095 
    4054     4032     4056     4147     4288     4436     4558     4642 
    4683     4687     4672     4656     4626     4577     4541     4540 
    4550     4554     4540     4482     4375     4248     4137     4056 
    3997     3958     3943     3960     4017     4087     4125     4143 
    4160     4171     4172     4163     4143     4116     4085     4072 
    4108     4178     4260     4338     4376     4341     4239     4113 
    4002     3917     3873     3886     3932     3974     4009     4052 
    4086     4083     4036     3985     3971     3989     4023     4068 
    4116     4155     4171     4162     4141     4110     4081     4067 
    4068     4094     4147     4197     4225     4222     4193     4145 
    4105     4094     4129     4206     4303     4387     4425     4419 
    4390     4338     4266     4191     4143     4145     4201     4287 
    4372     4426     4434     4409     4360     4287     4197     4110 
    4043     4002     3991     4020     4083     4162     4225     4264 
    4294     4322     4342     4355     4360     4364     4387     4423 
    4449     4457     4457     4445     4430     4430     4457     4500 
    4530     4544     4565     4599     4623     4618     4591     4579 
    4585     4588     4580     4568     4536     4461     4356     4253 
    4160     4091     4062     4048     4032     4041     4093     4155 
    4197     4214     4214     4186     4131     4078     4050     4029 
    4001     3963     3929     3917     3929     3962     3998     4017 
    4033     4070     4095     4074     4014     3956     3933     3944 
    3967     3987     4014     4066     4139     4199     4228     4237 
    4233     4217     4202     4195     4201     4221     4260     4306 
    4329     4315     4282     4268     4278     4283     4264     4226 
    4201     4205     4224     4240     4240     4229     4210     4190 
    4189     4216     4267     4338     4415     4479     4509     4494 
    4444     4369     4282     4214     4175     4136     4091     4045 
    3989     3933     3913     3939     3996     4048     4077     4089 
    4082     4060     4048     4055     4077     4101     4120     4135 
    4126     4085     4029     3982     3954     3942     3939     3932 
    3933     3959     4001     4045     4077     4093     4117     4153 
    4180     4195     4221     4270     4324     4334     4291     4224 
    4147     4060     3978     3919     3886     3871     3874     3898 
    3948     4014     4085     4141     4167     4162     4133     4101 
    4108     4149     4194     4226     4241     4226     4185     4149 
    4133     4117     4083     4035     3975     3898     3820     3771 
    3761     3788     3842     3896     3954     4023     4091     4164 
    4232     4276     4303     4314     4302     4288     4294     4330 
    4398     4480     4561     4618     4626     4584     4519     4476 
    4469     4480     4494     4514     4538     4572     4596     4592 
    4581     4575     4569     4575     4595     4621     4638     4638 
    4615     4579     4533     4484     4445     4422     4413     4398 
    4369     4332     4279     4209     4125     4025     3912     3807 
    3740     3734     3771     3840     3935     4029     4101     4168 
    4249     4318     4348     4337     4291     4239     4198     4176 
    4185     4206     4201     4156     4097     4048     4023     4028 
    4048     4058     4066     4093     4136     4198     4270     4330 
    4368     4380     4375     4363     4357     4379     4409     4395 
    4320     4205     4085     4000     3963     3969     4000     4032 
    4043     4047     4055     4071     4091     4105     4098     4063 
    4032     4044     4098     4178     4268     4353     4421     4448 
    4436     4423     4430     4441     4452     4448     4430     4417 
    4428     4467     4499     4500     4498     4498     4488     4484 
    4492     4486     4456     4405     4357     4351     4372     4392 
    4406     4411     4423     4464     4527     4587     4618     4600 
    4552     4491     4429     4374     4328     4288     4256     4221 
    4180     4145     4121     4097     4062     4016     3978     3966 
    3981     4028     4095     4145     4163     4166     4179     4216 
    4272     4342     4405     4430     4421     4418     4442     4472 
    4492     4496     4482     4445     4390     4337     4301     4270 
    4236     4199     4162     4118     4082     4083     4122     4166 
    4199     4218     4210     4197     4191     4180     4170     4160 
    4143     4114     4068     4014     3977     3964     3974     4001 
    4020     4008     3973     3919     3839     3736     3628     3542 
    3491     3480     3497     3522     3523     3504     3491     3504 
    3541     3592     3642     3680     3715     3750     3789     3838 
    3889     3944     4006     4071     4131     4185     4252     4325 
    4379     4410     4430     4441     4440     4429     4411     4406 
    4433     4480     4527     4556     4549     4518     4488     4467 
    4456     4455     4455     4459     4484     4540     4615     4689 
    4739     4754     4738     4696     4631     4544     4453     4372 
    4297     4230     4175     4129     4093     4068     4074     4112 
    4148     4163     4159     4145     4135     4129     4137     4168 
    4213     4264     4315     4361     4418     4483     4534     4560 
    4548     4487     4409     4356     4344     4361     4383     4390 
    4375     4337     4298     4279     4276     4279     4271     4234 
    4172     4098     4029     3996     4008     4048     4085     4104 
    4102     4070     4016     3959     3905     3867     3848     3840 
    3850     3890     3944     3979     3993     3991     3971     3933 
    3897     3881     3890     3916     3956     4004     4033     4047 
    4070     4110     4168     4249     4347     4436     4483     4484 
    4455     4415     4369     4338     4340     4352     4344     4325 
    4301     4270     4243     4225     4221     4224     4230     4253 
    4290     4320     4337     4344     4328     4294     4255     4221 
    4222     4270     4325     4359     4375     4367     4340     4314 
    4295     4279     4251     4214     4183     4166     4162     4178 
    4198     4209     4205     4187     4170     4158     4152     4152 
    4152     4156     4162     4176     4224     4298     4379     4449 
    4469     4428     4374     4336     4309     4283     4244     4195 
    4155     4131     4139     4179     4225     4253     4260     4253 
    4233     4194     4153     4143     4152     4156     4149     4136 
    4114     4089     4072     4083     4112     4136     4158     4183 
    4210     4221     4201     4153     4101     4060     4036     4028 
    4036     4058     4090     4129     4153     4162     4176     4222 
    4290     4357     4406     4426     4419     4392     4364     4356 
    4372     4395     4392     4345     4264     4162     4050     3962 
    3923     3919     3923     3937     3971     4014     4055     4091 
    4116     4121     4114     4120     4136     4147     4163     4198 
    4237     4259     4259     4240     4207     4171     4136     4113 
    4099     4086     4068     4052     4043     4029     4006     3991 
    4005     4037     4079     4126     4176     4230     4299     4372 
    4423     4449     4446     4426     4419     4426     4437     4464 
    4514     4558     4568     4529     4453     4369     4302     4272 
    4282     4303     4320     4348     4396     4453     4496     4513 
    4511     4507     4502     4491     4483     4500     4541     4587 
    4608     4595     4564     4530     4496     4464     4414     4329 
    4236     4159     4098     4071     4082     4118     4175     4241 
    4305     4364     4396     4395     4382     4367     4372     4417 
    4483     4552     4619     4660     4652     4610     4553     4499 
    4457     4411     4340     4247     4149     4074     4028     4002 
    3981     3962     3969     4001     4044     4081     4093     4089 
    4083     4079     4090     4117     4135     4132     4114     4085 
    4051     4017     3982     3969     3987     4021     4072     4129 
    4180     4232     4275     4302     4310     4287     4248     4225 
    4230     4256     4301     4344     4374     4386     4368     4325 
    4274     4222     4163     4095     4035     3975     3913     3863 
    3825     3802     3790     3773     3761     3766     3773     3785 
    3805     3829     3861     3888     3898     3882     3840     3800 
    3794     3821     3869     3924     3966     3977     3948     3896 
    3850     3843     3874     3942     4039     4149     4249     4330 
    4379     4380     4345     4306     4275     4257     4255     4252 
    4253     4280     4324     4363     4387     4387     4357     4325 
    4321     4351     4391     4418     4432     4446     4457     4455 
    4442     4430     4418     4413     4410     4391     4351     4298 
    4241     4189     4133     4071     4016     3977     3947     3920 
    3896     3875     3858     3850     3873     3925     3973     3997 
    4016     4036     4047     4062     4098     4147     4187     4232 
    4294     4364     4425     4471     4492     4492     4475     4448 
    4434     4438     4452     4473     4500     4515     4525     4531 
    4523     4490     4437     4382     4347     4333     4332     4326 
    4311     4293     4275     4264     4260     4256     4244     4225 
    4203     4172     4141     4121     4117     4125     4126     4112 
    4090     4064     4044     4045     4062     4059     4018     3951 
    3883     3835     3825     3854     3896     3927     3940     3947 
    3964     3994     4017     4023     4014     4008     4023     4077 
    4183     4310     4405     4457     4468     4440     4409     4392 
    4388     4391     4382     4360     4351     4351     4349     4351 
    4352     4355     4361     4376     4399     4417     4406     4372 
    4333     4302     4276     4251     4230     4225     4230     4240 
    4247     4239     4220     4197     4166     4125     4085     4054 
    4063     4128     4224     4309     4355     4355     4328     4301 
    4301     4336     4376     4407     4419     4411     4392     4365 
    4337     4322     4309     4278     4244     4224     4225     4256 
    4302     4351     4395     4415     4417     4426     4436     4422 
    4378     4307     4234     4171     4125     4098     4074     4037 
