Origin Time       2024/04/02 04:24:00
Lat.              40.133
Long.             141.712
Depth. (km)       71
Mag.              6.0
Station Code      CHBH10
Station Lat.      35.5458
Station Long.     140.2417
Station Height(m) -1935
Record Time       2024/04/02 04:26:41
Sampling Freq(Hz) 100Hz
Duration Time(s)  120
Dir.              2
Scale Factor      2942(gal)/8224139
Max. Acc. (gal)   0.228
Last Correction   2024/04/02 04:26:42
Memo.             
[...]
  -54244   -54286   -54311   -54318   -54311   -54295   -54287   -54278 
  -54257   -54248   -54268   -54324   -54402   -54467   -54488   -54472 
  -54456   -54457   -54445   -54405   -54349   -54294   -54265   -54271 
  -54302   -54355   -54409   -54448   -54481   -54504   -54500   -54475 
  -54437   -54378   -54290   -54209   -54168   -54136   -54105   -54132 
  -54202   -54241   -54220   -54176   -54189   -54284   -54400   -54457 
  -54442   -54400   -54368   -54361   -54349   -54284   -54187   -54086 
  -53983   -53947   -54002   -54048   -54044   -54051   -54091   -54114 
  -54086   -54039   -54002   -53967   -53932   -53927   -53955   -53987 
  -53995   -53975   -53950   -53956   -53987   -54010   -54054   -54125 
  -54184   -54232   -54279   -54310   -54325   -54341   -54365   -54383 
  -54355   -54284   -54234   -54230   -54252   -54268   -54261   -54234 
  -54199   -54194   -54248   -54313   -54346   -54388   -54461   -54518 
  -54530   -54514   -54508   -54514   -54504   -54508   -54537   -54541 
  -54487   -54398   -54306   -54234   -54210   -54224   -54238   -54238 
  -54245   -54263   -54249   -54209   -54180   -54163   -54155   -54162 
  -54148   -54113   -54114   -54160   -54230   -54321   -54395   -54425 
  -54441   -54472   -54487   -54452   -54392   -54356   -54360   -54373 
  -54352   -54295   -54229   -54148   -54075   -54058   -54095   -54166 
  -54229   -54248   -54226   -54197   -54171   -54139   -54094   -54068 
  -54078   -54095   -54108   -54117   -54103   -54066   -54059   -54124 
  -54220   -54279   -54280   -54238   -54182   -54141   -54132   -54155 
  -54190   -54207   -54198   -54175   -54143   -54113   -54103   -54101 
  -54097   -54116   -54157   -54186   -54207   -54249   -54271   -54249 
  -54221   -54187   -54136   -54105   -54113   -54144   -54193   -54272 
  -54357   -54422   -54467   -54499   -54510   -54486   -54427   -54372 
  -54361   -54387   -54425   -54469   -54491   -54465   -54417   -54376 
  -54322   -54270   -54282   -54317   -54283   -54207   -54145   -54114 
  -54129   -54191   -54270   -54330   -54364   -54378   -54376   -54336 
  -54270   -54229   -54214   -54194   -54193   -54224   -54247   -54241 
  -54224   -54193   -54143   -54105   -54089   -54062   -54028   -54012 
  -54013   -54036   -54091   -54140   -54145   -54132   -54130   -54133 
  -54128   -54148   -54222   -54294   -54314   -54328   -54371   -54423 
  -54471   -54503   -54494   -54468   -54453   -54436   -54413   -54396 
  -54388   -54407   -54450   -54479   -54464   -54394   -54307   -54274 
  -54287   -54294   -54283   -54272   -54256   -54214   -54155   -54102 
  -54049   -54000   -54002   -54081   -54186   -54274   -54349   -54395 
  -54390   -54369   -54333   -54247   -54135   -54036   -53960   -53920 
  -53923   -53960   -54031   -54093   -54103   -54078   -54049   -54043 
  -54089   -54167   -54225   -54256   -54287   -54295   -54280   -54295 
  -54345   -54369   -54351   -54328   -54311   -54294   -54292   -54306 
  -54302   -54279   -54267   -54267   -54265   -54267   -54274   -54282 
  -54305   -54341   -54360   -54341   -54311   -54318   -54333   -54305 
  -54261   -54236   -54211   -54214   -54261   -54307   -54336   -54356 
  -54356   -54341   -54344   -54355   -54352   -54369   -54430   -54487 
  -54488   -54440   -54382   -54332   -54287   -54272   -54294   -54346 
  -54413   -54436   -54386   -54311   -54241   -54186   -54170   -54180 
  -54210   -54261   -54288   -54267   -54245   -54261   -54279   -54257 
  -54216   -54190   -54190   -54195   -54184   -54156   -54118   -54078 
  -54039   -54002   -53982   -53986   -54012   -54045   -54058   -54043 
  -54020   -53998   -53990   -54025   -54082   -54097   -54068   -54041 
  -54036   -54054   -54094   -54144   -54189   -54232   -54276   -54302 
  -54314   -54326   -54313   -54256   -54182   -54113   -54067   -54049 
  -54058   -54075   -54095   -54116   -54148   -54193   -54230   -54245 
  -54253   -54270   -54271   -54249   -54233   -54241   -54268   -54306 
  -54337   -54332   -54297   -54245   -54180   -54128   -54108   -54099 
  -54083   -54071   -54043   -54008   -54022   -54087   -54159   -54238 
  -54318   -54360   -54368   -54375   -54396   -54407   -54392   -54371 
  -54342   -54283   -54209   -54171   -54183   -54202   -54201   -54199 
  -54207   -54198   -54178   -54179   -54205   -54232   -54245   -54244 
  -54224   -54198   -54193   -54201   -54210   -54228   -54234   -54203 
  -54170   -54180   -54216   -54228   -54216   -54186   -54155   -54151 
  -54160   -54144   -54112   -54094   -54103   -54133   -54162   -54168 
  -54170   -54191   -54220   -54249   -54280   -54309   -54318   -54324 
  -54365   -54427   -54448   -54413   -54371   -54356   -54363   -54373 
  -54402   -54446   -54480   -54491   -54487   -54486   -54494   -54499 
  -54499   -54511   -54530   -54533   -54507   -54479   -54465   -54463 
  -54465   -54472   -54484   -54506   -54518   -54502   -54469   -54441 
  -54422   -54396   -54353   -54303   -54264   -54238   -54226   -54225 
  -54226   -54249   -54290   -54322   -54321   -54297   -54267   -54232 
  -54201   -54182   -54194   -54243   -54306   -54359   -54386   -54382 
  -54351   -54291   -54220   -54171   -54164   -54170   -54133   -54076 
  -54062   -54081   -54085   -54094   -54139   -54180   -54184   -54170 
  -54149   -54130   -54136   -54195   -54302   -54403   -54441   -54405 
  -54338   -54257   -54162   -54078   -54028   -53995   -53977   -53963 
  -53946   -53944   -53973   -54004   -54018   -54024   -54045   -54079 
  -54102   -54117   -54116   -54085   -54043   -54025   -54032   -54035 
  -54025   -54009   -54005   -54033   -54070   -54094   -54117   -54132 
  -54124   -54109   -54114   -54140   -54182   -54243   -54302   -54341 
  -54360   -54361   -54355   -54328   -54276   -54228   -54209   -54224 
  -54263   -54303   -54311   -54288   -54251   -54207   -54153   -54108 
  -54094   -54102   -54118   -54139   -54145   -54153   -54184   -54213 
  -54224   -54224   -54213   -54197   -54174   -54144   -54120   -54098 
  -54083   -54075   -54051   -54004   -53960   -53951   -53967   -53998 
  -54031   -54036   -54029   -54051   -54118   -54198   -54257   -54311 
  -54363   -54378   -54364   -54359   -54359   -54352   -54355   -54369 
  -54390   -54414   -54426   -54415   -54400   -54400   -54410   -54429 
  -54463   -54515   -54567   -54603   -54634   -54662   -54684   -54689 
  -54685   -54676   -54656   -54626   -54584   -54522   -54457   -54413 
  -54390   -54395   -54436   -54502   -54560   -54588   -54583   -54533 
  -54460   -54400   -54363   -54356   -54376   -54380   -54355   -54325 
  -54297   -54271   -54257   -54257   -54264   -54275   -54297   -54325 
  -54342   -54345   -54341   -54329   -54324   -54344   -54391   -54434 
  -54433   -54391   -54344   -54318   -54326   -54363   -54396   -54406 
  -54390   -54349   -54290   -54234   -54206   -54201   -54201   -54198 
  -54190   -54178   -54162   -54144   -54137   -54141   -54141   -54120 
  -54081   -54043   -54024   -54024   -54021   -54016   -54020   -54025 
  -54022   -54021   -54035   -54060   -54075   -54076   -54071   -54070 
  -54067   -54058   -54059   -54070   -54059   -54031   -54029   -54068 
  -54124   -54171   -54191   -54187   -54180   -54179   -54186   -54210 
  -54249   -54268   -54253   -54224   -54206   -54221   -54274   -54329 
  -54352   -54352   -54346   -54329   -54298   -54271   -54274   -54301 
  -54332   -54352   -54352   -54333   -54321   -54321   -54310   -54274 
  -54238   -54229   -54225   -54225   -54245   -54261   -54251   -54221 
  -54164   -54082   -54009   -53968   -53956   -53954   -53947   -53948 
  -53979   -54040   -54093   -54106   -54103   -54124   -54172   -54241 
  -54310   -54363   -54409   -54445   -54453   -54423   -54361   -54286 
  -54228   -54217   -54255   -54309   -54341   -54336   -54302   -54257 
  -54224   -54249   -54330   -54394   -54399   -54368   -54332   -54297 
  -54263   -54238   -54236   -54256   -54282   -54295   -54288   -54275 
  -54261   -54244   -54217   -54193   -54174   -54167   -54179   -54191 
  -54205   -54245   -54305   -54359   -54396   -54405   -54371   -54302 
  -54222   -54160   -54118   -54087   -54079   -54102   -54132   -54141 
  -54132   -54132   -54166   -54224   -54282   -54322   -54326   -54297 
  -54256   -54221   -54201   -54193   -54184   -54184   -54205   -54230 
  -54237   -54218   -54194   -54186   -54183   -54160   -54122   -54094 
  -54071   -54052   -54055   -54075   -54101   -54117   -54118   -54117 
  -54130   -54152   -54159   -54149   -54125   -54082   -54041   -54045 
  -54082   -54117   -54144   -54187   -54226   -54225   -54197   -54176 
  -54167   -54175   -54190   -54186   -54171   -54145   -54097   -54047 
  -54040   -54082   -54148   -54211   -54261   -54299   -54332   -54365 
  -54387   -54380   -54352   -54337   -54355   -54369   -54342   -54276 
  -54213   -54180   -54172   -54183   -54217   -54253   -54272   -54265 
  -54230   -54176   -54130   -54110   -54112   -54135   -54190   -54264 
  -54325   -54351   -54359   -54361   -54355   -54369   -54417   -54457 
  -54490   -54535   -54572   -54579   -54567   -54542   -54498   -54454 
  -54434   -54422   -54399   -54379   -54369   -54349   -54310   -54274 
  -54251   -54232   -54220   -54220   -54234   -54261   -54287   -54299 
  -54301   -54297   -54297   -54309   -54330   -54352   -54356   -54338 
  -54313   -54297   -54303   -54321   -54317   -54294   -54278   -54280 
  -54290   -54311   -54364   -54430   -54475   -54494   -54502   -54492 
  -54469   -54448   -54432   -54410   -54392   -54382   -54369   -54372 
  -54396   -54402   -54378   -54351   -54332   -54326   -54341   -54363 
  -54376   -54373   -54353   -54342   -54348   -54345   -54338   -54338 
  -54315   -54260   -54206   -54166   -54132   -54109   -54087   -54067 
  -54067   -54076   -54075   -54071   -54063   -54047   -54039   -54066 
  -54113   -54133   -54120   -54090   -54040   -53981   -53946   -53952 
  -53981   -53990   -53974   -53959   -53950   -53929   -53905   -53881 
  -53850   -53809   -53785   -53794   -53827   -53862   -53902   -53946 
  -53985   -54017   -54040   -54054   -54052   -54043   -54049   -54074 
  -54085   -54090   -54103   -54114   -54120   -54135   -54156   -54175 
  -54184   -54182   -54171   -54164   -54162   -54166   -54182   -54202 
  -54216   -54233   -54255   -54263   -54263   -54274   -54305   -54344 
  -54403   -54480   -54544   -54568   -54568   -54553   -54538   -54540 
  -54540   -54529   -54514   -54492   -54457   -54427   -54414   -54396 
  -54368   -54338   -54309   -54291   -54298   -54321   -54360   -54414 
  -54461   -54490   -54503   -54513   -54510   -54498   -54473   -54438 
  -54415   -54402   -54379   -54342   -54310   -54286   -54256   -54222 
  -54205   -54221   -54252   -54271   -54267   -54244   -54210   -54170 
  -54130   -54097   -54072   -54071   -54090   -54114   -54141   -54166 
  -54174   -54153   -54120   -54093   -54090   -54113   -54151   -54199 
  -54251   -54292   -54333   -54378   -54400   -54396   -54390   -54371 
  -54333   -54301   -54275   -54241   -54214   -54197   -54175   -54151 
  -54122   -54090   -54063   -54047   -54044   -54060   -54087   -54117 
  -54140   -54148   -54145   -54153   -54182   -54225   -54276   -54315 
  -54328   -54317   -54305   -54311   -54345   -54386   -54415   -54436 
  -54441   -54445   -54476   -54522   -54540   -54529   -54515   -54507 
  -54484   -54433   -54379   -54361   -54361   -54346   -54326   -54307 
  -54272   -54222   -54176   -54140   -54113   -54098   -54097   -54106 
  -54113   -54103   -54097   -54101   -54094   -54070   -54036   -54009 
  -54009   -54035   -54062   -54076   -54081   -54079   -54083   -54098 
  -54124   -54156   -54184   -54205   -54218   -54221   -54218   -54210 
  -54189   -54163   -54140   -54122   -54124   -54147   -54176   -54213 
  -54245   -54264   -54272   -54271   -54290   -54341   -54386   -54398 
  -54394   -54387   -54365   -54333   -54309   -54306   -54321   -54353 
  -54388   -54415   -54437   -54445   -54432   -54406   -54382   -54371 
  -54376   -54387   -54387   -54384   -54386   -54383   -54369   -54352 
  -54328   -54297   -54260   -54230   -54230   -54268   -54324   -54361 
  -54365   -54348   -54326   -54303   -54272   -54221   -54144   -54066 
  -54006   -53968   -53954   -53958   -53983   -54031   -54067   -54075 
  -54079   -54090   -54095   -54099   -54116   -54143   -54178   -54205 
  -54205   -54172   -54130   -54090   -54051   -54027   -54036   -54066 
  -54090   -54093   -54068   -54054   -54059   -54059   -54052   -54048 
  -54037   -54022   -54012   -54001   -53995   -54004   -54014   -54021 
  -54024   -54033   -54051   -54076   -54110   -54139   -54162   -54182 
  -54198   -54216   -54247   -54286   -54310   -54324   -54342   -54361 
  -54363   -54361   -54371   -54379   -54373   -54369   -54380   -54406 
  -54426   -54422   -54403   -54371   -54326   -54290   -54272   -54249 
  -54205   -54160   -54133   -54112   -54082   -54049   -54022   -54002 
  -53989   -53975   -53968   -53971   -53968   -53967   -53981   -53993 
  -53995   -54006   -54010   -53990   -53974   -53978   -53991   -54002 
  -54020   -54052   -54094   -54139   -54179   -54198   -54195   -54201 
  -54217   -54233   -54248   -54267   -54284   -54298   -54314   -54340 
  -54363   -54379   -54386   -54373   -54356   -54352   -54345   -54325 
  -54311   -54314   -54324   -54348   -54392   -54438   -54459   -54465 
  -54487   -54525   -54572   -54621   -54665   -54702   -54727   -54735 
  -54739   -54762   -54801   -54831   -54855   -54877   -54880   -54845 
  -54784   -54719   -54670   -54641   -54619   -54587   -54554   -54537 
  -54525   -54515   -54519   -54517   -54491   -54460   -54422   -54373 
  -54337   -54317   -54292   -54276   -54282   -54295   -54292   -54282 
  -54261   -54224   -54187   -54163   -54129   -54087   -54067   -54068 
  -54064   -54060   -54072   -54085   -54083   -54076   -54067   -54056 
  -54066   -54093   -54112   -54112   -54094   -54072   -54066   -54070 
  -54078   -54106   -54143   -54159   -54155   -54148   -54148   -54133 
  -54108   -54109   -54133   -54148   -54152   -54156   -54164   -54182 
  -54210   -54232   -54230   -54216   -54201   -54186   -54171   -54163 
  -54155   -54140   -54118   -54097   -54078   -54066   -54052   -54036 
  -54036   -54060   -54102   -54155   -54202   -54226   -54224   -54193 
  -54155   -54133   -54132   -54149   -54171   -54176   -54159   -54124 
  -54090   -54060   -54022   -53982   -53963   -53968   -53986   -54001 
  -54009   -54016   -54013   -54008   -54024   -54055   -54087   -54120 
  -54155   -54193   -54230   -54257   -54283   -54319   -54355   -54383 
  -54403   -54413   -54415   -54414   -54405   -54399   -54421   -54468 
  -54527   -54588   -54634   -54650   -54637   -54610   -54588   -54576 
  -54567   -54550   -54522   -54492   -54469   -54454   -54430   -54406 
  -54400   -54407   -54409   -54405   -54400   -54400   -54396   -54383 
  -54368   -54349   -54324   -54288   -54255   -54232   -54217   -54222 
  -54249   -54275   -54283   -54278   -54271   -54256   -54226   -54198 
  -54171   -54135   -54108   -54110   -54129   -54147   -54166   -54182 
  -54182   -54171   -54164   -54175   -54203   -54240   -54271   -54284 
  -54290   -54303   -54318   -54332   -54341   -54334   -54330   -54344 
  -54364   -54371   -54359   -54333   -54298   -54260   -54225   -54197 
  -54179   -54164   -54149   -54141   -54132   -54125   -54130   -54144 
  -54168   -54197   -54206   -54187   -54155   -54118   -54083   -54058 
  -54045   -54055   -54072   -54085   -54094   -54095   -54093   -54102 
  -54121   -54137   -54145   -54160   -54184   -54207   -54224   -54245 
  -54270   -54299   -54338   -54368   -54371   -54348   -54313   -54283 
  -54267   -54255   -54236   -54209   -54178   -54152   -54130   -54112 
  -54102   -54099   -54097   -54086   -54066   -54040   -54022   -54009 
  -53998   -54009   -54037   -54062   -54072   -54067   -54055   -54047 
  -54043   -54035   -54035   -54052   -54068   -54083   -54103   -54118 
  -54129   -54149   -54176   -54205   -54236   -54259   -54271   -54280 
  -54286   -54279   -54255   -54232   -54229   -54238   -54257   -54286 
  -54310   -54337   -54382   -54415   -54434   -54456   -54486   -54521 
  -54561   -54602   -54629   -54634   -54614   -54577   -54549   -54535 
  -54518   -54486   -54452   -54429   -54407   -54379   -54345   -54317 
  -54299   -54280   -54243   -54194   -54148   -54108   -54082   -54071 
  -54068   -54071   -54074   -54067   -54055   -54052   -54059   -54075 
  -54101   -54121   -54108   -54072   -54058   -54064   -54071   -54074 
  -54079   -54093   -54110   -54147   -54206   -54263   -54303   -54328 
  -54348   -54368   -54378   -54384   -54402   -54421   -54426   -54421 
  -54409   -54396   -54386   -54363   -54330   -54307   -54295   -54291 
  -54292   -54282   -54256   -54233   -54207   -54171   -54147   -54162 
  -54189   -54197   -54184   -54170   -54163   -54170   -54186   -54205 
  -54214   -54209   -54186   -54141   -54097   -54071   -54060   -54058 
  -54051   -54037   -54028   -54029   -54044   -54066   -54091   -54125 
  -54148   -54151   -54144   -54126   -54098   -54083   -54094   -54114 
  -54129   -54135   -54137   -54135   -54132   -54140   -54157   -54176 
  -54202   -54232   -54259   -54276   -54284   -54286   -54295   -54307 
  -54315   -54332   -54351   -54359   -54353   -54351   -54359   -54369 
  -54378   -54384   -54384   -54367   -54341   -54329   -54328   -54315 
  -54297   -54287   -54286   -54287   -54288   -54286   -54280   -54279 
  -54280   -54280   -54291   -54306   -54314   -54319   -54336   -54360 
  -54376   -54382   -54378   -54371   -54361   -54365   -54388   -54400 
  -54383   -54356   -54329   -54298   -54271   -54253   -54243   -54240 
  -54244   -54243   -54229   -54202   -54176   -54163   -54151   -54141 
  -54143   -54151   -54155   -54149   -54144   -54156   -54172   -54179 
  -54178   -54172   -54167   -54172   -54182   -54186   -54195   -54206 
  -54213   -54230   -54251   -54264   -54279   -54292   -54294   -54282 
  -54255   -54228   -54221   -54237   -54271   -54303   -54314   -54319 
  -54336   -54360   -54398   -54441   -54468   -54475   -54473   -54472 
  -54480   -54484   -54469   -54453   -54444   -54430   -54425   -54436 
  -54448   -54449   -54446   -54445   -54436   -54414   -54386   -54348 
  -54303   -54267   -54244   -54234   -54233   -54241   -54259   -54280 
  -54302   -54317   -54318   -54321   -54334   -54344   -54344   -54338 
  -54322   -54291   -54267   -54252   -54234   -54207   -54167   -54117 
  -54075   -54044   -54013   -53990   -53970   -53947   -53928   -53920 
  -53927   -53937   -53939   -53937   -53944   -53954   -53971   -53998 
  -54024   -54051   -54079   -54098   -54116   -54136   -54148   -54160 
  -54180   -54194   -54201   -54206   -54207   -54210   -54229   -54264 
  -54295   -54302   -54301   -54313   -54328   -54330   -54314   -54283 
  -54256   -54237   -54222   -54218   -54218   -54213   -54199   -54189 
  -54191   -54197   -54197   -54193   -54189   -54193   -54207   -54220 
  -54213   -54189   -54164   -54139   -54112   -54103   -54113   -54118 
  -54114   -54105   -54105   -54126   -54162   -54197   -54230   -54270 
  -54309   -54332   -54328   -54317   -54317   -54317   -54317   -54319 
  -54301   -54263   -54241   -54244   -54259   -54274   -54286   -54290 
