Origin Time       2024/04/02 04:24:00
Lat.              40.133
Long.             141.712
Depth. (km)       71
Mag.              6.0
Station Code      CHBH13
Station Lat.      35.8307
Station Long.     140.2980
Station Height(m) 12
Record Time       2024/04/02 04:26:31
Sampling Freq(Hz) 100Hz
Duration Time(s)  120
Dir.              5
Scale Factor      7845(gal)/8223790
Max. Acc. (gal)   1.901
Last Correction   2024/04/02 04:26:31
Memo.             
[...]
   -1359    -1358    -1344    -1324    -1310    -1269    -1193    -1096 
    -978     -957    -1053    -1144    -1198    -1204    -1179    -1202 
   -1233    -1233    -1256    -1323    -1389    -1406    -1413    -1448 
   -1478    -1502    -1472    -1389    -1404    -1493    -1532    -1559 
   -1540    -1445    -1358    -1247    -1128    -1100    -1132    -1171 
   -1192    -1179    -1158    -1117    -1081    -1097    -1119    -1132 
   -1209    -1332    -1397    -1378    -1351    -1375    -1417    -1433 
   -1443    -1453    -1424    -1371    -1351    -1332    -1289    -1282 
   -1312    -1308    -1308    -1332    -1300    -1228    -1179    -1143 
   -1107    -1085    -1105    -1152    -1190    -1204    -1200    -1221 
   -1274    -1335    -1429    -1537    -1570    -1561    -1579    -1583 
   -1574    -1570    -1528    -1453    -1406    -1391    -1394    -1416 
   -1445    -1451    -1439    -1413    -1324    -1192    -1120    -1113 
   -1131    -1169    -1193    -1167    -1112    -1061    -1024    -1035 
   -1108    -1186    -1220    -1229    -1251    -1300    -1348    -1356 
   -1324    -1293    -1271    -1244    -1243    -1290    -1347    -1420 
   -1510    -1518    -1448    -1399    -1374    -1343    -1277    -1143 
    -990     -866     -819     -908    -1063    -1185    -1264    -1327 
   -1406    -1483    -1512    -1512    -1480    -1425    -1378    -1278 
   -1132    -1062    -1089    -1152    -1193    -1206    -1252    -1331 
   -1404    -1460    -1506    -1553    -1547    -1490    -1478    -1468 
   -1417    -1401    -1386    -1355    -1387    -1455    -1505    -1536 
   -1518    -1444    -1339    -1254    -1246    -1296    -1363    -1416 
   -1459    -1480    -1414    -1285    -1190    -1154    -1147    -1143 
   -1111    -1043     -992    -1035    -1143    -1206    -1213    -1216 
   -1219    -1220    -1228    -1200    -1125    -1042    -1004    -1047 
   -1124    -1154    -1158    -1189    -1235    -1274    -1304    -1332 
   -1425    -1576    -1683    -1725    -1714    -1610    -1449    -1318 
   -1246    -1198    -1144    -1105    -1081    -1053    -1034    -1021 
   -1039    -1121    -1206    -1247    -1298    -1335    -1341    -1363 
   -1364    -1333    -1294    -1233    -1194    -1209    -1231    -1217 
   -1193    -1216    -1256    -1248    -1254    -1305    -1368    -1452 
   -1490    -1467    -1475    -1483    -1476    -1510    -1561    -1605 
   -1625    -1578    -1485    -1421    -1387    -1323    -1246    -1217 
   -1208    -1239    -1332    -1385    -1385    -1377    -1367    -1367 
   -1329    -1232    -1132    -1012     -912     -886     -878     -936 
   -1067    -1151    -1219    -1298    -1310    -1277    -1252    -1267 
   -1370    -1520    -1609    -1584    -1501    -1429    -1375    -1358 
   -1414    -1514    -1609    -1638    -1555    -1414    -1260    -1107 
   -1038    -1057    -1073    -1093    -1159    -1206    -1182    -1150 
   -1158    -1143    -1128    -1202    -1291    -1318    -1325    -1316 
   -1283    -1235    -1148    -1074    -1066    -1077    -1053     -972 
    -855     -795     -866    -1026    -1205    -1402    -1560    -1609 
   -1552    -1418    -1266    -1169    -1169    -1287    -1445    -1539 
   -1594    -1632    -1634    -1637    -1678    -1763    -1871    -1914 
   -1856    -1737    -1557    -1300    -1078    -1031    -1147    -1348 
   -1575    -1723    -1711    -1594    -1433    -1258    -1136    -1090 
   -1081    -1111    -1171    -1219    -1233    -1237    -1254    -1294 
   -1339    -1356    -1360    -1381    -1385    -1355    -1323    -1266 
   -1163    -1075    -1097    -1246    -1375    -1347    -1170     -911 
    -695     -672     -807     -954    -1050    -1132    -1262    -1362 
   -1332    -1274    -1283    -1347    -1467    -1548    -1485    -1332 
   -1197    -1140    -1107    -1013     -955    -1036    -1175    -1281 
   -1328    -1306    -1225    -1158    -1174    -1240    -1313    -1372 
   -1343    -1196     -982     -797     -751     -839     -989    -1194 
   -1345    -1377    -1391    -1422    -1498    -1698    -1883    -1907 
   -1854    -1741    -1520    -1325    -1255    -1270    -1356    -1452 
   -1429    -1286    -1121     -923     -702     -635     -769     -947 
   -1105    -1256    -1402    -1486    -1444    -1314    -1120     -877 
    -718     -742     -896    -1080    -1197    -1225    -1198    -1147 
   -1179    -1339    -1489    -1532    -1429    -1186     -980     -977 
   -1151    -1408    -1726    -2042    -2165    -2046    -1818    -1598 
   -1482    -1443    -1408    -1417    -1437    -1422    -1440    -1489 
   -1563    -1706    -1819    -1757    -1544    -1348    -1313    -1431 
   -1610    -1783    -1876    -1804    -1530    -1107     -653     -341 
    -326     -633    -1113    -1543    -1761    -1821    -1888    -2010 
   -2099    -2060    -1822    -1445    -1123     -927     -778     -622 
    -494     -479     -564     -731    -1065    -1470    -1710    -1671 
   -1409    -1204    -1354    -1745    -2006    -1944    -1602    -1074 
    -460       85      372      216     -413    -1158    -1593    -1692 
   -1710    -1749    -1709    -1576    -1482    -1552    -1807    -2012 
   -1895    -1506     -996     -507     -237     -264     -584    -1124 
   -1730    -2161    -2119    -1759    -1478    -1223     -892     -669 
    -685     -980    -1368    -1610    -1799    -2012    -2085    -1896 
   -1497    -1113     -886     -734     -637     -648     -870    -1382 
   -1914    -2158    -2114    -1840    -1475    -1231    -1117    -1108 
   -1274    -1533    -1660    -1591    -1418    -1179     -982     -999 
   -1215    -1501    -1715    -1761    -1665    -1447    -1125     -876 
    -839     -935    -1073    -1266    -1439    -1474    -1412    -1274 
    -994     -722     -700     -874    -1050    -1190    -1277    -1243 
   -1188    -1293    -1586    -1968    -2235    -2124    -1609     -955 
    -449     -225     -241     -407     -666     -885     -861     -572 
    -283     -237     -351     -383     -359     -607    -1198    -1776 
   -2038    -1991    -1767    -1522    -1486    -1813    -2319    -2641 
   -2602    -2177    -1466     -855     -700     -880    -1132    -1323 
   -1302    -1129    -1067    -1200    -1451    -1675    -1729    -1671 
   -1579    -1459    -1351    -1240    -1074     -922     -849     -845 
    -927    -1092    -1231    -1242    -1077     -877     -919    -1333 
   -1980    -2478    -2482    -2039    -1463    -1043     -966    -1200 
   -1480    -1595    -1587    -1655    -1811    -1856    -1795    -1821 
   -1884    -1838    -1744    -1665    -1530    -1291     -990     -770 
    -822    -1186    -1736    -2239    -2500    -2470    -2153    -1584 
   -1000     -696     -730     -889     -908     -747     -553     -394 
    -355     -529     -865    -1314    -1822    -2211    -2339    -2189 
   -1888    -1607    -1310     -891     -508     -421     -633     -927 
   -1051     -885     -638     -560     -589     -610     -683     -870 
   -1050     -988     -714     -467     -325     -357     -656    -1088 
   -1602    -2212    -2646    -2709    -2438    -1991    -1622    -1377 
   -1208    -1212    -1360    -1641    -1927    -1865    -1567    -1394 
   -1310    -1228    -1135     -993     -901     -915     -999    -1065 
    -967     -826     -904    -1212    -1644    -2080    -2292    -2095 
   -1566     -992     -534     -329     -565    -1112    -1664    -2002 
   -2045    -1939    -1715    -1302     -843     -453     -274     -503 
    -945    -1345    -1684    -1888    -2015    -2155    -2212    -2173 
   -2004    -1593    -1005     -438     -186     -390     -803    -1158 
   -1345    -1382    -1413    -1497    -1583    -1629    -1579    -1540 
   -1647    -1710    -1570    -1459    -1530    -1572    -1414    -1075 
    -662     -379     -338     -417     -529     -625     -523     -240 
     -71     -170     -525    -1053    -1467    -1614    -1719    -1861 
   -1752    -1301     -795     -461     -365     -606    -1147    -1691 
   -2066    -2347    -2466    -2346    -2181    -2054    -1827    -1579 
   -1479    -1452    -1316    -1036     -791     -737     -835    -1048 
   -1437    -1938    -2238    -2072    -1557    -1046     -679     -453 
    -491     -743    -1001    -1282    -1564    -1706    -1749    -1810 
   -1845    -1686    -1250     -773     -571     -726    -1135    -1680 
   -2204    -2482    -2451    -2215    -1849    -1493    -1274    -1124 
    -967     -804     -588     -359     -284     -410     -511     -496 
    -598     -915    -1302    -1540    -1487    -1374    -1348    -1190 
    -966     -934    -1073    -1350    -1755    -2093    -2205    -2133 
   -1926    -1580    -1248    -1077     -994    -1001    -1123    -1233 
   -1355    -1564    -1737    -1844    -1971    -2053    -1957    -1605 
   -1040     -514     -286     -422     -831    -1374    -1937    -2390 
   -2574    -2473    -2162    -1642     -994     -434      -59      151 
     237      263      103     -311     -733    -1101    -1588    -2205 
   -2863    -3252    -3082    -2641    -2269    -1917    -1587    -1385 
   -1345    -1460    -1584    -1587    -1482    -1273    -1001     -720 
    -405     -126       20       41      -99     -314     -510     -776 
   -1035    -1229    -1551    -1871    -1980    -2038    -1985    -1699 
   -1451    -1320    -1084     -737     -542     -734    -1202    -1626 
   -1865    -1911    -1827    -1744    -1728    -1718    -1667    -1564 
   -1229     -589      -76      -79     -446     -823    -1058    -1228 
   -1332    -1254    -1143    -1228    -1409    -1580    -1710    -1607 
   -1339    -1198    -1190    -1236    -1377    -1530    -1544    -1385 
   -1171    -1071    -1173    -1470    -1838    -2043    -2018    -1865 
   -1575    -1181     -908     -853     -877     -869     -857     -889 
    -932    -1039    -1264    -1409    -1394    -1426    -1536    -1609 
   -1675    -1732    -1644    -1378    -1165    -1132    -1097    -1057 
   -1244    -1620    -1930    -2034    -1964    -1867    -1779    -1537 
   -1086     -661     -479     -510     -692     -977    -1239    -1398 
   -1399    -1219     -905     -490     -206     -392     -928    -1431 
   -1786    -2101    -2411    -2601    -2593    -2430    -2230    -2185 
   -2255    -2118    -1730    -1363    -1129     -981     -909     -953 
   -1121    -1340    -1464    -1387    -1148     -874     -730     -874 
   -1235    -1537    -1729    -1904    -1957    -1819    -1599    -1337 
   -1035     -810     -799     -951    -1098    -1235    -1413    -1566 
   -1669    -1719    -1664    -1605    -1602    -1544    -1491    -1520 
   -1494    -1413    -1425    -1486    -1489    -1455    -1379    -1201 
    -922     -649     -495     -422     -426     -629     -919    -1088 
   -1148    -1074     -880     -780     -801     -803     -770     -791 
    -830     -734     -558     -510     -564     -666     -864    -1063 
   -1219    -1358    -1366    -1215    -1124    -1244    -1475    -1610 
   -1603    -1574    -1537    -1493    -1548    -1682    -1763    -1782 
   -1823    -1877    -1838    -1682    -1507    -1417    -1437    -1505 
   -1545    -1572    -1624    -1622    -1381     -935     -634     -602 
    -683     -832    -1026    -1092     -907     -515     -103      105 
      17     -278     -596     -822     -961    -1078    -1246    -1441 
   -1594    -1761    -1948    -2002    -1964    -2012    -2174    -2313 
   -2250    -1939    -1566    -1327    -1240    -1217    -1183    -1136 
   -1170    -1296    -1375    -1406    -1490    -1637    -1837    -2003 
   -2049    -2077    -2066    -1875    -1607    -1355    -1039     -768 
    -741     -950    -1224    -1447    -1651    -1821    -1826    -1620 
   -1275     -945     -777     -745     -729     -692     -680     -764 
    -893     -950     -985    -1150    -1410    -1514    -1264     -853 
    -642     -714     -926    -1132    -1269    -1413    -1610    -1753 
   -1852    -2057    -2323    -2343    -2002    -1506    -1073     -835 
    -783     -791     -828     -957    -1148    -1254    -1197    -1167 
   -1310    -1517    -1684    -1769    -1750    -1753    -1800    -1694 
   -1410    -1155    -1082    -1182    -1255    -1170    -1077    -1120 
   -1228    -1323    -1389    -1358    -1213    -1047     -904     -826 
    -926    -1232    -1622    -1946    -2093    -2037    -1908    -1844 
   -1786    -1578    -1165     -665     -260      -29      -21     -253 
    -615     -981    -1231    -1275    -1223    -1239    -1323    -1378 
   -1340    -1205     -986     -733     -625     -796    -1147    -1503 
   -1775    -1912    -1880    -1759    -1672    -1621    -1601    -1644 
   -1682    -1702    -1784    -1845    -1707    -1314     -760     -325 
    -195     -274     -427     -571     -608     -523     -363     -259 
    -444    -1044    -1864    -2485    -2683    -2535    -2103    -1491 
    -935     -537     -334     -448     -781    -1071    -1287    -1435 
   -1421    -1301    -1173    -1050    -1004    -1069    -1139    -1178 
   -1271    -1429    -1548    -1588    -1644    -1799    -1989    -2060 
   -1952    -1750    -1518    -1275    -1104    -1011     -927     -954 
   -1204    -1536    -1800    -1969    -2015    -1968    -1894    -1749 
   -1526    -1332    -1185    -1013     -881     -885     -950    -1057 
   -1278    -1460    -1425    -1289    -1186    -1030     -758     -487 
    -351     -398     -560     -729     -819     -795     -743     -768 
    -928    -1240    -1567    -1736    -1702    -1499    -1247    -1089 
   -1111    -1387    -1917    -2529    -3038    -3284    -3217    -2992 
   -2721    -2338    -1911    -1634    -1512    -1385    -1159     -900 
    -704     -600     -577     -630     -811    -1146    -1548    -1869 
   -1973    -1827    -1571    -1381    -1277    -1156     -936     -649 
    -368      -86      179      211     -118     -603     -970    -1115 
   -1086    -1021     -980     -951    -1020    -1210    -1414    -1564 
   -1633    -1595    -1506    -1436    -1406    -1441    -1560    -1703 
   -1791    -1836    -1858    -1827    -1800    -1898    -2081    -2218 
   -2307    -2392    -2419    -2317    -2047    -1656    -1310    -1074 
    -854     -630     -473     -442     -507     -537     -544     -700 
    -981    -1263    -1534    -1752    -1904    -2046    -2114    -2033 
   -1827    -1579    -1344    -1073     -727     -392     -207     -271 
    -552     -922    -1309    -1628    -1742    -1687    -1602    -1579 
   -1732    -2087    -2465    -2712    -2776    -2558    -2047    -1385 
    -706     -159      130      210      106     -225     -687    -1154 
   -1582    -1861    -1908    -1794    -1620    -1393    -1115     -845 
    -600     -392     -305     -353     -475     -672     -926    -1124 
   -1248    -1332    -1354    -1368    -1486    -1659    -1721    -1609 
   -1431    -1363    -1460    -1561    -1530    -1443    -1351    -1158 
    -830     -507     -402     -600     -974    -1345    -1633    -1831 
   -1953    -1981    -1864    -1572    -1247    -1081     -999     -896 
    -900    -1063    -1236    -1327    -1336    -1312    -1337    -1460 
   -1624    -1682    -1564    -1355    -1138     -957     -835     -799 
    -839     -843     -757     -704     -722     -722     -733     -773 
    -778     -777     -861    -1046    -1274    -1510    -1772    -1981 
   -2011    -1896    -1752    -1625    -1526    -1472    -1436    -1440 
   -1557    -1672    -1593    -1404    -1313    -1306    -1252    -1174 
   -1215    -1406    -1629    -1744    -1680    -1503    -1354    -1210 
   -1000     -818     -791     -909    -1070    -1192    -1343    -1626 
   -2016    -2381    -2527    -2405    -2204    -1999    -1667    -1243 
    -881     -615     -403     -245     -194     -310     -625    -1081 
   -1561    -1950    -2164    -2173    -2025    -1840    -1771    -1777 
   -1696    -1617    -1664    -1692    -1615    -1514    -1387    -1212 
   -1031     -868     -716     -641     -715     -895    -1054    -1123 
   -1109    -1100    -1202    -1404    -1607    -1759    -1807    -1711 
   -1572    -1545    -1655    -1853    -2077    -2235    -2280    -2195 
   -1922    -1544    -1246    -1038     -864     -762     -746     -811 
    -974    -1161    -1285    -1344    -1356    -1367    -1360    -1286 
   -1215    -1209    -1193    -1089     -927     -796     -760     -804 
    -818     -702     -459     -191      -21       16      -81     -302 
    -488     -567     -656     -703     -658     -707     -878    -1073 
   -1301    -1517    -1653    -1753    -1881    -2019    -2088    -2092 
   -2054    -1922    -1707    -1493    -1351    -1347    -1429    -1487 
   -1475    -1389    -1290    -1251    -1224    -1170    -1154    -1190 
   -1206    -1190    -1177    -1189    -1289    -1513    -1746    -1838 
   -1796    -1746    -1744    -1741    -1692    -1614    -1556    -1539 
   -1532    -1468    -1308    -1111     -904     -692     -525     -403 
    -418     -704    -1113    -1421    -1594    -1645    -1630    -1580 
   -1470    -1363    -1308    -1224    -1082     -946     -877     -913 
   -1044    -1201    -1279    -1306    -1414    -1517    -1391    -1093 
    -823     -633     -554     -603     -679     -749     -877    -1053 
   -1290    -1620    -1949    -2193    -2309    -2205    -1890    -1539 
   -1323    -1277    -1345    -1444    -1490    -1495    -1536    -1551 
   -1503    -1549    -1686    -1776    -1840    -1863    -1784    -1671 
   -1572    -1472    -1356    -1215    -1143    -1200    -1243    -1167 
   -1015     -850     -793     -888     -958     -909     -881     -916 
    -895     -804     -805     -986    -1213    -1306    -1278    -1223 
   -1189    -1174    -1134    -1066    -1042    -1063    -1063    -1015 
    -878     -695     -616     -642     -691     -810     -990    -1127 
   -1221    -1321    -1435    -1591    -1792    -1958    -2046    -2087 
   -2123    -2143    -2120    -2050    -1953    -1867    -1806    -1780 
   -1795    -1725    -1458    -1171     -993     -812     -680     -757 
    -962    -1159    -1325    -1422    -1441    -1437    -1432    -1462 
   -1590    -1767    -1891    -1939    -1933    -1898    -1837    -1686 
   -1401    -1080     -851     -726     -649     -642     -700     -708 
    -662     -669     -738     -872    -1150    -1493    -1678    -1647 
   -1474    -1215     -963     -743     -502     -342     -411     -680 
   -1059    -1460    -1792    -2020    -2158    -2170    -2027    -1799 
   -1625    -1564    -1539    -1521    -1571    -1674    -1761    -1790 
   -1682    -1447    -1244    -1163    -1142    -1115    -1065     -999 
    -940     -862     -750     -629     -456     -265     -233     -380 
    -585     -801    -1040    -1269    -1444    -1563    -1647    -1718 
   -1796    -1887    -1931    -1865    -1722    -1553    -1366    -1247 
   -1269    -1374    -1495    -1586    -1578    -1447    -1242    -1028 
    -812     -599     -457     -450     -595     -845    -1115    -1382 
   -1665    -1914    -2031    -2010    -1949    -1883    -1803    -1791 
   -1764    -1556    -1298    -1177    -1154    -1135    -1105    -1088 
   -1062    -1036    -1074    -1144    -1193    -1281    -1428    -1602 
   -1790    -1896    -1911    -1915    -1906    -1869    -1795    -1671 
   -1594    -1593    -1568    -1476    -1310    -1089     -913     -832 
    -758     -657     -589     -585     -604     -580     -530     -503 
