Origin Time       2024/04/02 04:24:00
Lat.              40.133
Long.             141.712
Depth. (km)       71
Mag.              6.0
Station Code      CHBH10
Station Lat.      35.5458
Station Long.     140.2417
Station Height(m) -1935
Record Time       2024/04/02 04:26:41
Sampling Freq(Hz) 100Hz
Duration Time(s)  120
Dir.              3
Scale Factor      2942(gal)/8224139
Max. Acc. (gal)   0.140
Last Correction   2024/04/02 04:26:42
Memo.             
[...]
  238173   238162   238176   238203   238230   238245   238246   238237 
  238222   238212   238210   238200   238179   238152   238123   238099 
  238080   238080   238099   238106   238088   238073   238079   238086 
  238072   238048   238015   237980   237963   237963   237969   237984 
  238017   238065   238092   238084   238086   238110   238121   238114 
  238115   238126   238125   238114   238121   238146   238168   238191 
  238229   238265   238281   238293   238303   238296   238281   238261 
  238227   238206   238211   238214   238212   238214   238212   238204 
  238187   238160   238142   238145   238146   238137   238133   238150 
  238179   238210   238229   238210   238171   238148   238140   238153 
  238179   238179   238160   238158   238145   238118   238122   238145 
  238156   238160   238150   238127   238123   238140   238153   238152 
  238125   238092   238081   238075   238053   238052   238072   238084 
  238098   238121   238140   238148   238144   238138   238140   238127 
  238110   238098   238083   238064   238054   238065   238096   238115 
  238111   238099   238079   238063   238072   238086   238088   238092 
  238095   238102   238121   238133   238127   238122   238133   238150 
  238160   238171   238179   238176   238183   238192   238168   238129 
  238103   238077   238050   238029   238002   237979   237961   237945 
  237936   237955   237986   238010   238044   238087   238118   238123 
  238098   238056   238015   237980   237956   237926   237879   237843 
  237837   237833   237828   237838   237848   237836   237832   237849 
  237856   237863   237884   237909   237936   237964   237988   238007 
  238002   237976   237961   237961   237969   237967   237940   237926 
  237946   237971   238003   238053   238092   238119   238146   238167 
  238173   238167   238148   238134   238135   238146   238154   238168 
  238199   238237   238258   238269   238289   238316   238333   238337 
  238335   238326   238308   238285   238250   238208   238195   238215 
  238235   238245   238248   238246   238250   238257   238252   238258 
  238279   238275   238257   238273   238302   238299   238280   238276 
  238284   238291   238287   238276   238268   238258   238248   238231 
  238189   238141   238113   238096   238090   238088   238065   238019 
  237984   237967   237952   237949   237951   237951   237967   237998 
  238018   238025   238025   238018   238011   238009   238014   238026 
  238048   238061   238044   238015   238002   237996   237991   237990 
  237982   237964   237959   237964   237972   237978   237968   237951 
  237946   237940   237922   237925   237945   237964   237969   237956 
  237936   237929   237919   237894   237870   237853   237847   237851 
  237853   237857   237876   237888   237888   237907   237949   237982 
  237992   237999   238011   238017   238019   238030   238041   238046 
  238057   238076   238091   238115   238167   238210   238208   238184 
  238168   238160   238168   238188   238204   238216   238226   238235 
  238241   238219   238196   238203   238207   238191   238177   238167 
  238150   238137   238121   238100   238100   238129   238158   238169 
  238168   238154   238142   238168   238227   238287   238343   238388 
  238392   238374   238360   238326   238287   238277   238276   238260 
  238252   238258   238256   238230   238195   238171   238152   238127 
  238104   238087   238059   238029   238022   238022   238022   238023 
  238021   238023   238048   238087   238123   238140   238140   238146 
  238171   238189   238195   238196   238194   238184   238165   238144 
  238121   238092   238067   238061   238063   238053   238049   238059 
  238075   238086   238091   238095   238103   238113   238121   238131 
  238148   238167   238181   238188   238189   238184   238180   238181 
  238183   238187   238191   238175   238150   238144   238153   238169 
  238189   238206   238207   238210   238216   238208   238191   238185 
  238183   238161   238134   238115   238098   238079   238063   238057 
  238063   238064   238057   238059   238054   238040   238033   238025 
  237995   237959   237929   237906   237902   237921   237934   237925 
  237913   237903   237894   237910   237941   237955   237967   237991 
  238003   238002   238011   238032   238052   238073   238094   238104 
  238104   238092   238086   238090   238084   238077   238091   238106 
  238100   238088   238099   238119   238118   238110   238117   238107 
  238077   238052   238041   238030   238018   238015   238014   238011 
  238023   238049   238076   238108   238131   238137   238141   238148 
  238153   238160   238171   238187   238203   238202   238183   238158 
  238135   238118   238121   238146   238176   238202   238222   238223 
  238211   238207   238208   238215   238235   238253   238254   238245 
  238214   238177   238167   238169   238171   238171   238164   238149 
  238130   238113   238103   238099   238099   238100   238107   238125 
  238144   238144   238130   238133   238152   238169   238181   238185 
  238185   238191   238199   238198   238188   238177   238162   238146 
  238121   238104   238123   238158   238172   238160   238142   238134 
  238123   238096   238071   238053   238034   238011   237988   237980 
  237975   237964   237968   237979   237976   237971   237979   238003 
  238026   238037   238049   238056   238037   238018   238011   237999 
  237991   237987   237973   237959   237945   237937   237951   237987 
  238017   238030   238041   238061   238091   238108   238102   238096 
  238106   238117   238125   238134   238134   238123   238111   238111 
  238125   238134   238145   238165   238187   238194   238185   238177 
  238175   238175   238180   238180   238176   238162   238150   238145 
  238131   238103   238087   238086   238083   238076   238060   238036 
  238021   238034   238063   238083   238098   238118   238138   238150 
  238153   238161   238172   238179   238199   238229   238237   238219 
  238198   238180   238165   238158   238162   238165   238149   238118 
  238086   238065   238063   238068   238079   238102   238123   238131 
  238133   238127   238119   238113   238113   238119   238125   238135 
  238149   238158   238173   238189   238196   238195   238192   238191 
  238184   238164   238145   238138   238131   238122   238121   238126 
  238118   238102   238091   238081   238072   238057   238038   238022 
  238010   238005   238006   238014   238032   238056   238076   238096 
  238114   238111   238090   238073   238068   238063   238053   238038 
  238017   237995   237988   238000   238005   237999   238014   238038 
  238042   238025   238014   238011   238006   237999   238005   238007 
  237996   237987   237978   237961   237951   237959   237976   237982 
  237973   237973   237996   238026   238049   238083   238126   238148 
  238154   238172   238191   238195   238207   238237   238265   238277 
  238284   238293   238310   238327   238339   238342   238341   238337 
  238329   238323   238331   238351   238372   238378   238376   238374 
  238380   238385   238378   238368   238353   238323   238292   238276 
  238258   238225   238187   238160   238142   238125   238113   238108 
  238094   238075   238068   238061   238048   238036   238029   238030 
  238037   238041   238038   238034   238042   238053   238057   238063 
  238069   238068   238056   238041   238036   238038   238042   238044 
  238040   238037   238033   238018   238002   237995   237999   238002 
  238011   238032   238049   238053   238052   238037   238002   237976 
  237976   237988   237998   238007   238017   238015   238007   237994 
  237972   237952   237942   237929   237907   237891   237878   237870 
  237872   237875   237884   237910   237934   237940   237937   237940 
  237942   237941   237930   237921   237924   237937   237961   238000 
  238036   238056   238072   238095   238117   238134   238157   238183 
  238196   238198   238204   238229   238262   238281   238291   238306 
  238318   238315   238304   238300   238306   238316   238329   238339 
  238342   238326   238288   238245   238215   238195   238180   238180 
  238191   238189   238169   238137   238113   238110   238122   238125 
  238126   238153   238183   238189   238192   238196   238184   238171 
  238167   238150   238121   238095   238086   238091   238104   238117 
  238125   238129   238133   238133   238134   238137   238145   238153 
  238160   238169   238176   238176   238168   238158   238157   238160 
  238168   238181   238180   238161   238153   238152   238137   238125 
  238130   238138   238134   238119   238113   238117   238111   238100 
  238103   238121   238138   238149   238153   238148   238135   238125 
  238115   238103   238094   238086   238071   238041   238010   237994 
  237990   237986   237972   237957   237945   237925   237901   237894 
  237906   237919   237925   237919   237915   237917   237917   237913 
  237909   237907   237914   237924   237926   237921   237921   237937 
  237963   237995   238027   238057   238080   238090   238094   238092 
  238086   238095   238113   238114   238113   238121   238126   238126 
  238125   238115   238100   238081   238052   238027   238025   238034 
  238045   238061   238073   238068   238061   238060   238048   238044 
  238057   238071   238067   238049   238044   238050   238045   238038 
  238037   238027   238013   238003   237996   237990   237976   237948 
  237910   237895   237907   237926   237945   237960   237971   237990 
  238005   237995   237973   237967   237976   237994   238015   238033 
  238048   238063   238072   238079   238084   238088   238095   238111 
  238126   238133   238134   238134   238137   238145   238168   238198 
  238223   238246   238260   238261   238264   238280   238304   238324 
  238331   238338   238361   238392   238403   238393   238395   238414 
  238414   238392   238377   238366   238346   238324   238307   238288 
  238269   238253   238257   238283   238306   238311   238310   238312 
  238318   238320   238326   238324   238312   238308   238310   238308 
  238302   238288   238270   238254   238231   238208   238203   238203 
  238198   238184   238168   238162   238168   238164   238153   238146 
  238140   238135   238142   238150   238138   238106   238076   238057 
  238037   238021   238022   238022   238006   237995   238000   237995 
  237982   237983   237990   237986   237987   237998   238002   237990 
  237976   237979   237990   237992   237986   237972   237957   237944 
  237932   237915   237899   237892   237891   237882   237867   237853 
  237845   237847   237857   237867   237883   237914   237946   237973 
  238005   238030   238050   238077   238104   238127   238149   238171 
  238196   238223   238237   238238   238233   238231   238242   238253 
  238256   238249   238237   238219   238196   238172   238150   238133 
  238125   238119   238108   238095   238084   238076   238071   238063 
  238053   238046   238045   238049   238061   238077   238095   238106 
  238102   238084   238067   238056   238049   238052   238054   238045 
  238036   238040   238049   238065   238083   238090   238096   238113 
  238138   238161   238176   238192   238207   238206   238192   238175 
  238157   238145   238135   238130   238133   238131   238118   238098 
  238076   238061   238059   238050   238033   238021   238015   238011 
  238006   238007   238021   238033   238042   238049   238056   238068 
  238076   238075   238069   238067   238067   238067   238059   238044 
  238037   238034   238018   238002   237988   237982   237995   238013 
  238014   238022   238052   238092   238130   238168   238200   238216 
  238223   238223   238218   238221   238227   238214   238188   238169 
  238160   238154   238146   238133   238131   238135   238135   238138 
  238146   238150   238149   238148   238148   238148   238148   238149 
  238158   238172   238176   238175   238172   238157   238135   238126 
  238119   238102   238087   238077   238073   238081   238080   238064 
  238052   238057   238073   238088   238087   238088   238096   238107 
  238123   238137   238137   238133   238133   238134   238130   238119 
  238098   238075   238060   238041   238011   237995   238000   237996 
  237986   237991   238002   237998   237994   237995   237983   237961 
  237942   237919   237911   237922   237928   237928   237940   237951 
  237969   238009   238050   238081   238106   238126   238146   238164 
  238177   238192   238206   238206   238203   238206   238216   238233 
  238237   238235   238256   238280   238295   238306   238310   238306 
  238299   238293   238277   238258   238253   238256   238253   238261 
  238279   238287   238291   238295   238283   238260   238238   238219 
  238200   238180   238158   238135   238118   238104   238096   238107 
  238118   238113   238108   238100   238083   238067   238057   238049 
  238034   238023   238027   238046   238065   238064   238049   238038 
  238029   238021   238019   238022   238034   238064   238104   238149 
  238180   238196   238223   238258   238276   238291   238315   238326 
  238314   238289   238272   238266   238256   238235   238215   238200 
  238187   238168   238141   238122   238115   238106   238090   238067 
  238041   238010   237979   237959   237933   237898   237875   237865 
  237851   237826   237806   237791   237770   237745   237732   237725 
  237718   237713   237717   237725   237732   237743   237764   237778 
  237783   237795   237818   237844   237875   237907   237928   237945 
  237978   238019   238065   238117   238171   238212   238231   238239 
  238256   238288   238330   238369   238399   238416   238427   238435 
  238438   238435   238427   238414   238408   238405   238400   238396 
  238381   238356   238334   238310   238280   238253   238237   238226 
  238215   238202   238195   238202   238216   238231   238246   238252 
  238246   238242   238248   238261   238281   238293   238289   238270 
  238250   238237   238221   238200   238188   238184   238177   238162 
  238140   238107   238071   238038   238017   238000   237994   237995 
  237991   237991   238002   237998   237978   237968   237959   237945 
  237940   237944   237957   237980   237990   237986   237992   238006 
  238013   238013   238009   238009   238011   238006   237998   237994 
  237991   237986   237983   237982   237975   237969   237971   237972 
  237968   237956   237934   237921   237915   237906   237901   237903 
  237890   237871   237870   237872   237874   237890   237918   237937 
  237945   237946   237944   237945   237967   237992   238009   238021 
  238026   238038   238068   238102   238129   238157   238181   238199 
  238215   238222   238225   238231   238242   238260   238284   238299 
  238304   238311   238315   238314   238310   238304   238302   238299 
  238302   238308   238311   238306   238296   238295   238300   238307 
  238312   238316   238318   238318   238312   238302   238283   238257 
  238243   238246   238249   238242   238235   238226   238206   238172 
  238137   238121   238118   238126   238138   238135   238118   238100 
  238084   238054   238026   238017   238018   238017   238014   238027 
  238050   238067   238075   238090   238106   238115   238121   238134 
  238160   238180   238191   238203   238215   238218   238222   238234 
  238245   238242   238233   238221   238206   238188   238165   238145 
  238121   238096   238081   238064   238042   238023   238006   237988 
  237979   237978   237983   237988   237984   237976   237967   237949 
  237926   237915   237915   237917   237914   237911   237899   237880 
  237870   237861   237857   237864   237871   237872   237875   237879 
  237882   237890   237910   237934   237967   238009   238046   238064 
  238076   238092   238107   238107   238102   238096   238094   238086 
  238069   238052   238037   238025   238017   238014   238014   238017 
  238019   238015   238009   238003   237999   238003   238025   238050 
  238065   238080   238107   238133   238146   238156   238161   238161 
  238167   238176   238176   238160   238142   238131   238119   238104 
  238096   238099   238102   238102   238104   238106   238100   238098 
  238110   238134   238148   238154   238169   238177   238171   238171 
  238183   238192   238191   238194   238211   238230   238235   238242 
  238250   238254   238261   238275   238288   238304   238318   238308 
  238289   238285   238287   238283   238276   238266   238258   238254 
  238258   238265   238261   238253   238252   238250   238237   238215 
  238199   238184   238171   238158   238150   238135   238111   238090 
  238068   238040   238025   238009   237979   237959   237952   237948 
  237953   237959   237963   237967   237963   237961   237969   237980 
  237994   238011   238021   238026   238041   238063   238077   238084 
  238087   238080   238068   238072   238083   238081   238075   238073 
  238080   238091   238103   238115   238119   238114   238114   238126 
  238142   238144   238133   238130   238134   238129   238114   238087 
  238060   238048   238037   238021   238013   238011   238011   238007 
  238000   237996   238006   238025   238044   238056   238069   238083 
  238095   238110   238126   238138   238146   238153   238154   238156 
  238167   238171   238161   238152   238152   238157   238156   238142 
  238125   238114   238100   238090   238087   238088   238090   238090 
  238086   238087   238096   238107   238125   238142   238156   238168 
  238176   238180   238179   238176   238169   238158   238149   238148 
  238142   238119   238092   238083   238077   238071   238069   238064 
  238059   238056   238041   238017   238005   238009   238003   237992 
  237994   238007   238018   238025   238027   238027   238036   238056 
  238075   238087   238095   238102   238118   238134   238141   238146 
  238160   238179   238192   238196   238196   238194   238198   238210 
  238210   238206   238215   238226   238229   238223   238210   238198 
  238192   238189   238187   238180   238175   238173   238169   238153 
  238125   238102   238087   238067   238045   238022   237996   237978 
  237961   237946   237949   237957   237956   237956   237965   237978 
  237991   237999   237992   237980   237973   237975   237973   237961 
  237949   237948   237956   237957   237942   237928   237922   237913 
  237907   237913   237925   237949   237978   238002   238029   238059 
  238079   238095   238106   238108   238114   238126   238131   238123 
  238111   238106   238096   238086   238088   238098   238100   238103 
  238107   238108   238113   238121   238137   238158   238177   238188 
  238192   238202   238216   238229   238233   238234   238239   238243 
  238239   238235   238242   238250   238258   238272   238285   238293 
  238303   238306   238300   238303   238308   238303   238297   238299 
  238297   238291   238281   238265   238243   238230   238219   238200 
  238176   238153   238129   238102   238088   238083   238073   238068 
  238068   238068   238076   238088   238088   238090   238099   238096 
  238091   238100   238115   238129   238148   238172   238185   238194 
  238207   238216   238230   238250   238260   238260   238268   238284 
