Origin Time       2024/04/02 04:24:00
Lat.              40.133
Long.             141.712
Depth. (km)       71
Mag.              6.0
Station Code      CHBH13
Station Lat.      35.8307
Station Long.     140.2980
Station Height(m) -1288
Record Time       2024/04/02 04:26:31
Sampling Freq(Hz) 100Hz
Duration Time(s)  120
Dir.              2
Scale Factor      2942(gal)/8224139
Max. Acc. (gal)   0.211
Last Correction   2024/04/02 04:26:31
Memo.             
 -120577  -120600  -120588  -120571  -120567  -120564  -120565  -120588 
 -120598  -120544  -120514  -120559  -120591  -120596  -120614  -120599 
 -120563  -120575  -120598  -120602  -120619  -120617  -120583  -120586 
 -120619  -120644  -120642  -120627  -120617  -120576  -120522  -120498 
 -120496  -120530  -120557  -120541  -120568  -120625  -120619  -120596 
 -120580  -120546  -120567  -120634  -120665  -120650  -120610  -120606 
 -120627  -120594  -120577  -120625  -120610  -120546  -120528  -120521 
 -120503  -120526  -120569  -120557  -120515  -120526  -120552  -120522 
 -120501  -120536  -120563  -120573  -120606  -120613  -120552  -120488 
 -120490  -120541  -120564  -120540  -120536  -120552  -120544  -120532 
 -120536  -120556  -120588  -120575  -120542  -120545  -120534  -120518 
 -120537  -120563  -120568  -120542  -120521  -120501  -120460  -120460 
 -120488  -120498  -120529  -120567  -120555  -120546  -120586  -120599 
 -120565  -120549  -120569  -120598  -120568  -120492  -120498  -120591 
 -120637  -120613  -120587  -120560  -120526  -120532  -120567  -120582 
 -120579  -120595  -120610  -120588  -120556  -120573  -120619  -120610 
 -120565  -120564  -120576  -120569  -120573  -120565  -120526  -120526 
 -120573  -120557  -120499  -120502  -120528  -120541  -120552  -120536 
 -120533  -120548  -120503  -120453  -120482  -120528  -120540  -120538 
 -120513  -120467  -120442  -120444  -120488  -120553  -120540  -120484 
 -120491  -120502  -120480  -120491  -120502  -120494  -120540  -120619 
 -120644  -120600  -120549  -120538  -120529  -120501  -120511  -120561 
 -120583  -120568  -120583  -120610  -120550  -120474  -120468  -120467 
 -120502  -120595  -120625  -120595  -120561  -120525  -120509  -120523 
 -120583  -120638  -120613  -120573  -120575  -120591  -120617  -120615 
 -120567  -120533  -120537  -120563  -120595  -120600  -120600  -120607 
 -120577  -120573  -120627  -120634  -120582  -120564  -120560  -120519 
 -120495  -120544  -120625  -120650  -120629  -120600  -120563  -120563 
 -120600  -120607  -120609  -120621  -120617  -120618  -120617  -120567 
 -120523  -120538  -120586  -120621  -120607  -120586  -120594  -120588 
 -120583  -120588  -120586  -120586  -120573  -120567  -120580  -120580 
 -120568  -120532  -120511  -120538  -120549  -120541  -120525  -120498 
 -120523  -120561  -120536  -120510  -120522  -120555  -120576  -120561 
 -120557  -120569  -120552  -120533  -120536  -120517  -120491  -120499 
 -120502  -120484  -120492  -120522  -120513  -120494  -120519  -120536 
 -120521  -120537  -120572  -120569  -120542  -120505  -120499  -120559 
 -120591  -120556  -120540  -120545  -120517  -120479  -120480  -120483 
 -120455  -120464  -120509  -120488  -120433  -120447  -120488  -120505 
 -120546  -120595  -120596  -120591  -120618  -120646  -120652  -120654 
 -120629  -120546  -120511  -120550  -120557  -120536  -120549  -120571 
 -120549  -120517  -120536  -120564  -120541  -120518  -120542  -120553 
 -120533  -120553  -120592  -120630  -120653  -120595  -120549  -120607 
 -120621  -120563  -120552  -120577  -120629  -120688  -120681  -120656 
 -120663  -120650  -120630  -120617  -120594  -120591  -120599  -120590 
 -120563  -120523  -120519  -120556  -120569  -120560  -120549  -120530 
 -120518  -120521  -120541  -120549  -120513  -120501  -120532  -120545 
 -120563  -120567  -120521  -120492  -120483  -120471  -120492  -120529 
 -120575  -120631  -120634  -120610  -120583  -120522  -120507  -120540 
 -120515  -120519  -120588  -120588  -120557  -120603  -120611  -120525 
 -120486  -120523  -120534  -120514  -120525  -120549  -120542  -120526 
 -120525  -120523  -120507  -120506  -120521  -120518  -120510  -120525 
 -120546  -120576  -120604  -120587  -120559  -120564  -120560  -120553 
 -120552  -120532  -120544  -120594  -120615  -120604  -120583  -120561 
 -120567  -120552  -120479  -120474  -120545  -120537  -120506  -120552 
 -120582  -120565  -120557  -120563  -120576  -120567  -120563  -120575 
 -120536  -120496  -120505  -120509  -120510  -120511  -120537  -120602 
 -120615  -120595  -120602  -120603  -120603  -120594  -120564  -120552 
 -120571  -120595  -120590  -120567  -120564  -120571  -120564  -120538 
 -120506  -120532  -120567  -120517  -120483  -120514  -120502  -120479 
 -120517  -120560  -120564  -120540  -120518  -120519  -120534  -120545 
 -120563  -120584  -120590  -120594  -120576  -120542  -120559  -120580 
 -120549  -120542  -120579  -120580  -120529  -120483  -120478  -120507 
 -120528  -120505  -120456  -120447  -120490  -120529  -120540  -120561 
 -120577  -120549  -120541  -120568  -120561  -120556  -120567  -120536 
 -120526  -120576  -120618  -120595  -120530  -120526  -120587  -120629 
 -120633  -120610  -120611  -120649  -120648  -120602  -120571  -120569 
 -120569  -120556  -120542  -120550  -120575  -120600  -120611  -120592 
 -120584  -120588  -120557  -120523  -120529  -120569  -120609  -120619 
 -120614  -120587  -120546  -120538  -120567  -120596  -120577  -120538 
 -120557  -120573  -120548  -120545  -120546  -120529  -120528  -120548 
 -120561  -120544  -120534  -120568  -120567  -120533  -120563  -120598 
 -120588  -120583  -120595  -120604  -120565  -120513  -120532  -120559 
 -120560  -120579  -120598  -120590  -120561  -120541  -120538  -120546 
 -120557  -120523  -120503  -120563  -120594  -120572  -120579  -120556 
 -120511  -120548  -120576  -120507  -120468  -120507  -120541  -120556 
 -120582  -120610  -120572  -120482  -120467  -120509  -120507  -120510 
 -120557  -120579  -120545  -120511  -120515  -120525  -120506  -120494 
 -120525  -120545  -120545  -120576  -120588  -120563  -120571  -120560 
 -120486  -120445  -120445  -120452  -120499  -120553  -120567  -120561 
 -120546  -120540  -120528  -120487  -120509  -120587  -120584  -120553 
 -120579  -120580  -120571  -120621  -120640  -120590  -120555  -120545 
 -120555  -120583  -120579  -120556  -120587  -120634  -120603  -120556 
 -120563  -120544  -120525  -120573  -120599  -120553  -120528  -120571 
 -120607  -120588  -120609  -120663  -120634  -120577  -120575  -120595 
 -120611  -120621  -120622  -120621  -120609  -120598  -120598  -120590 
 -120565  -120560  -120573  -120563  -120544  -120521  -120506  -120556 
 -120590  -120556  -120556  -120565  -120534  -120548  -120586  -120572 
 -120586  -120623  -120561  -120484  -120526  -120549  -120494  -120492 
 -120513  -120488  -120488  -120515  -120560  -120595  -120590  -120634 
 -120684  -120633  -120572  -120545  -120515  -120513  -120511  -120529 
 -120580  -120557  -120488  -120483  -120495  -120492  -120496  -120506 
 -120556  -120618  -120602  -120545  -120505  -120486  -120502  -120541 
 -120559  -120544  -120528  -120544  -120563  -120567  -120571  -120552 
 -120533  -120545  -120550  -120572  -120594  -120555  -120507  -120495 
 -120510  -120529  -120521  -120536  -120573  -120565  -120548  -120544 
 -120494  -120460  -120523  -120619  -120645  -120576  -120533  -120582 
 -120598  -120565  -120579  -120607  -120621  -120619  -120600  -120588 
 -120583  -120568  -120557  -120553  -120555  -120576  -120604  -120591 
 -120559  -120544  -120515  -120507  -120553  -120572  -120549  -120560 
 -120602  -120592  -120557  -120572  -120594  -120590  -120586  -120582 
 -120590  -120607  -120607  -120590  -120561  -120553  -120569  -120561 
 -120522  -120484  -120461  -120465  -120502  -120530  -120514  -120494 
 -120490  -120492  -120509  -120511  -120517  -120541  -120519  -120523 
 -120604  -120614  -120550  -120544  -120584  -120591  -120555  -120549 
 -120576  -120553  -120507  -120514  -120518  -120501  -120526  -120545 
 -120501  -120475  -120476  -120461  -120486  -120533  -120532  -120507 
 -120517  -120586  -120650  -120636  -120626  -120657  -120626  -120576 
 -120596  -120641  -120672  -120650  -120572  -120540  -120563  -120561 
 -120555  -120577  -120599  -120609  -120621  -120648  -120650  -120594 
 -120538  -120555  -120584  -120561  -120552  -120569  -120553  -120541 
 -120552  -120550  -120545  -120533  -120541  -120577  -120591  -120590 
 -120575  -120573  -120595  -120560  -120538  -120584  -120567  -120502 
 -120487  -120486  -120479  -120495  -120522  -120545  -120567  -120552 
 -120503  -120495  -120518  -120503  -120475  -120506  -120538  -120501 
 -120469  -120505  -120537  -120541  -120563  -120572  -120549  -120542 
 -120522  -120507  -120557  -120588  -120563  -120561  -120577  -120542 
 -120491  -120514  -120540  -120487  -120471  -120523  -120538  -120536 
 -120556  -120552  -120510  -120471  -120486  -120534  -120557  -120595 
 -120650  -120671  -120667  -120637  -120583  -120572  -120598  -120583 
 -120544  -120552  -120609  -120657  -120626  -120546  -120513  -120515 
 -120509  -120545  -120614  -120609  -120536  -120496  -120511  -120529 
 -120522  -120528  -120530  -120506  -120514  -120537  -120523  -120502 
 -120488  -120498  -120518  -120513  -120542  -120591  -120569  -120545 
 -120569  -120567  -120555  -120591  -120619  -120598  -120592  -120599 
 -120559  -120540  -120577  -120599  -120573  -120549  -120567  -120619 
 -120633  -120586  -120565  -120580  -120559  -120549  -120595  -120591 
 -120548  -120575  -120604  -120584  -120590  -120617  -120645  -120676 
 -120658  -120604  -120568  -120560  -120586  -120633  -120637  -120577 
 -120526  -120511  -120488  -120460  -120471  -120514  -120540  -120549 
 -120580  -120591  -120561  -120561  -120582  -120590  -120595  -120567 
 -120560  -120613  -120607  -120588  -120625  -120619  -120596  -120586 
 -120521  -120482  -120525  -120557  -120552  -120548  -120518  -120503 
 -120541  -120530  -120472  -120469  -120471  -120453  -120486  -120513 
 -120511  -120519  -120507  -120487  -120503  -120513  -120502  -120514 
 -120561  -120627  -120648  -120615  -120604  -120586  -120548  -120571 
 -120604  -120577  -120556  -120542  -120503  -120511  -120557  -120511 
 -120451  -120495  -120511  -120447  -120430  -120475  -120540  -120552 
 -120498  -120518  -120575  -120545  -120509  -120533  -120569  -120567 
 -120534  -120521  -120526  -120517  -120519  -120556  -120586  -120575 
 -120541  -120517  -120506  -120487  -120496  -120546  -120573  -120584 
 -120619  -120631  -120615  -120596  -120523  -120461  -120503  -120549 
 -120579  -120625  -120614  -120577  -120582  -120590  -120584  -120582 
 -120575  -120561  -120564  -120568  -120542  -120530  -120545  -120540 
 -120545  -120594  -120644  -120657  -120626  -120588  -120579  -120603 
 -120617  -120575  -120545  -120553  -120572  -120636  -120671  -120613 
 -120561  -120536  -120502  -120506  -120518  -120480  -120437  -120432 
 -120474  -120523  -120532  -120534  -120561  -120584  -120610  -120604 
 -120552  -120518  -120528  -120568  -120606  -120611  -120621  -120641 
 -120644  -120653  -120657  -120645  -120626  -120572  -120509  -120491 
 -120464  -120401  -120387  -120442  -120491  -120537  -120591  -120587 
 -120532  -120537  -120599  -120575  -120514  -120542  -120571  -120569 
 -120637  -120688  -120646  -120617  -120618  -120575  -120545  -120599 
 -120630  -120560  -120471  -120402  -120378  -120437  -120522  -120591 
 -120715  -120838  -120834  -120762  -120671  -120513  -120414  -120452 
 -120492  -120507  -120556  -120600  -120646  -120672  -120642  -120640 
 -120638  -120572  -120561  -120609  -120625  -120660  -120683  -120590 
 -120490  -120494  -120517  -120534  -120573  -120580  -120523  -120425 
 -120368  -120418  -120487  -120546  -120630  -120613  -120483  -120401 
 -120330  -120255  -120305  -120401  -120465  -120563  -120575  -120487 
 -120537  -120646  -120592  -120523  -120586  -120622  -120534  -120442 
 -120448  -120491  -120549  -120649  -120673  -120584  -120509  -120445 
 -120360  -120329  -120401  -120498  -120523  -120514  -120538  -120492 
 -120333  -120299  -120468  -120640  -120766  -120843  -120722  -120441 
 -120256  -120244  -120318  -120440  -120576  -120665  -120679  -120657 
 -120661  -120636  -120532  -120433  -120383  -120390  -120530  -120734 
 -120827  -120792  -120702  -120614  -120549  -120499  -120526  -120668 
 -120823  -120846  -120711  -120498  -120286  -120156  -120217  -120471 
 -120672  -120631  -120567  -120698  -120825  -120771  -120739  -120829 
 -120852  -120753  -120611  -120457  -120383  -120476  -120637  -120669 
 -120576  -120491  -120421  -120442  -120661  -120873  -120865  -120779 
 -120799  -120819  -120668  -120506  -120521  -120548  -120525  -120540 
 -120538  -120549  -120542  -120398  -120333  -120534  -120764  -120853 
 -120858  -120762  -120529  -120268  -120097  -119983  -119966  -120141 
 -120414  -120687  -120923  -120968  -120835  -120733  -120665  -120572 
 -120602  -120762  -120827  -120702  -120522  -120442  -120388  -120253 
 -120191  -120271  -120426  -120677  -120876  -120831  -120661  -120536 
 -120430  -120260  -120150  -120216  -120355  -120536  -120741  -120912 
 -121032  -120977  -120773  -120631  -120571  -120496  -120411  -120420 
 -120437  -120285  -120143  -120291  -120599  -120788  -120883  -120953 
 -120864  -120625  -120429  -120340  -120336  -120388  -120445  -120475 
 -120506  -120533  -120487  -120422  -120455  -120498  -120491  -120536 
 -120631  -120711  -120739  -120734  -120760  -120744  -120607  -120476 
 -120425  -120449  -120642  -120880  -120934  -120795  -120496  -120293 
 -120421  -120567  -120501  -120345  -120194  -120222  -120491  -120764 
 -120891  -120831  -120656  -120580  -120588  -120530  -120442  -120321 
 -120178  -120204  -120395  -120536  -120599  -120569  -120405  -120309 
 -120388  -120469  -120407  -120249  -120170  -120226  -120293  -120287 
 -120372  -120734  -121097  -121031  -120696  -120542  -120534  -120440 
 -120366  -120428  -120526  -120582  -120617  -120569  -120391  -120318 
 -120434  -120523  -120573  -120565  -120456  -120476  -120658  -120731 
 -120583  -120340  -120199  -120198  -120351  -120684  -120903  -120872 
 -120812  -120702  -120568  -120629  -120694  -120502  -120336  -120447 
 -120545  -120499  -120572  -120806  -120957  -120939  -120897  -120856 
 -120730  -120698  -120885  -120996  -120906  -120858  -120864  -120725 
 -120469  -120347  -120452  -120518  -120488  -120636  -120739  -120640 
 -120723  -120833  -120636  -120472  -120507  -120564  -120572  -120452 
 -120306  -120382  -120568  -120633  -120667  -120780  -120920  -121022 
 -120997  -120887  -120775  -120598  -120428  -120433  -120496  -120410 
 -120279  -120243  -120244  -120287  -120326  -120279  -120324  -120487 
 -120486  -120375  -120406  -120476  -120405  -120260  -120172  -120123 
 -120075  -120168  -120398  -120564  -120648  -120725  -120808  -120835 
 -120745  -120658  -120561  -120372  -120232  -120213  -120316  -120478 
 -120545  -120594  -120721  -120769  -120664  -120584  -120577  -120498 
 -120444  -120511  -120511  -120356  -120181  -120156  -120359  -120614 
 -120690  -120679  -120752  -120768  -120707  -120717  -120658  -120498 
 -120490  -120645  -120787  -120758  -120572  -120555  -120730  -120802 
 -120847  -120945  -120978  -121003  -120951  -120768  -120619  -120541 
 -120525  -120559  -120622  -120758  -120892  -120904  -120690  -120321 
 -120252  -120546  -120704  -120625  -120575  -120617  -120683  -120707 
 -120672  -120711  -120791  -120702  -120517  -120445  -120577  -120772 
 -120744  -120529  -120309  -120204  -120330  -120445  -120347  -120252 
 -120252  -120278  -120278  -120243  -120289  -120344  -120305  -120388 
 -120609  -120680  -120576  -120448  -120398  -120469  -120611  -120644 
 -120468  -120328  -120341  -120325  -120398  -120623  -120712  -120735 
 -120873  -120899  -120721  -120582  -120469  -120282  -120276  -120479 
 -120604  -120600  -120530  -120501  -120533  -120495  -120522  -120648 
 -120576  -120426  -120444  -120430  -120279  -120164  -120221  -120505 
 -120773  -120741  -120677  -120829  -120884  -120669  -120471  -120447 
 -120447  -120445  -120530  -120602  -120621  -120765  -120964  -120964 
 -120874  -120880  -120804  -120583  -120491  -120503  -120361  -120186 
 -120216  -120345  -120384  -120403  -120468  -120486  -120475  -120532 
 -120633  -120648  -120475  -120283  -120328  -120469  -120471  -120475 
 -120629  -120734  -120718  -120744  -120741  -120648  -120572  -120424 
 -120239  -120260  -120341  -120293  -120313  -120422  -120440  -120464 
 -120622  -120791  -120775  -120502  -120244  -120248  -120372  -120460 
 -120514  -120546  -120523  -120440  -120414  -120487  -120538  -120557 
 -120546  -120448  -120388  -120448  -120510  -120580  -120677  -120723 
 -120715  -120657  -120511  -120428  -120560  -120745  -120812  -120730 
 -120501  -120360  -120507  -120761  -120887  -120876  -120897  -121008 
 -121001  -120741  -120397  -120264  -120428  -120650  -120708  -120667 
 -120650  -120584  -120437  -120430  -120664  -120862  -120796  -120610 
 -120536  -120564  -120582  -120604  -120685  -120685  -120532  -120495 
 -120607  -120556  -120437  -120455  -120467  -120479  -120573  -120648 
 -120684  -120785  -121014  -121124  -120876  -120665  -120789  -120837 
 -120722  -120756  -120722  -120475  -120399  -120521  -120468  -120275 
 -120274  -120411  -120399  -120309  -120295  -120336  -120440  -120568 
 -120548  -120375  -120382  -120613  -120653  -120548  -120633  -120752 
 -120711  -120595  -120546  -120590  -120586  -120546  -120502  -120349 
 -120208  -120240  -120348  -120402  -120463  -120540  -120517  -120475 
 -120449  -120344  -120330  -120521  -120694  -120708  -120625  -120534 
 -120464  -120375  -120287  -120318  -120515  -120657  -120550  -120425 
 -120511  -120626  -120591  -120486  -120356  -120247  -120282  -120432 
 -120564  -120708  -120880  -120846  -120579  -120465  -120560  -120576 
 -120575  -120645  -120676  -120695  -120712  -120671  -120617  -120582 
 -120548  -120546  -120568  -120538  -120579  -120749  -120785  -120592 
 -120303  -120186  -120451  -120706  -120699  -120746  -120791  -120630 
 -120452  -120347  -120352  -120615  -120933  -120989  -120884  -120825 
 -120827  -120852  -120843  -120757  -120653  -120667  -120750  -120738 
 -120626  -120509  -120464  -120564  -120748  -120810  -120700  -120623 
 -120668  -120739  -120734  -120613  -120541  -120538  -120459  -120577 
 -120870  -120858  -120768  -120842  -120711  -120463  -120414  -120383 
 -120253  -120129  -120102  -120225  -120333  -120359  -120372  -120285 
 -120225  -120401  -120517  -120397  -120363  -120459  -120417  -120270 
 -120210  -120306  -120441  -120432  -120352  -120393  -120468  -120492 
 -120572  -120654  -120619  -120572  -120523  -120406  -120353  -120406 
 -120465  -120573  -120703  -120741  -120748  -120776  -120750  -120629 
 -120496  -120538  -120696  -120668  -120461  -120395  -120507  -120510 
 -120440  -120557  -120664  -120536  -120428  -120463  -120461  -120449 
 -120526  -120582  -120532  -120451  -120496  -120646  -120692  -120642 
 -120559  -120479  -120592  -120796  -120785  -120645  -120584  -120588 
 -120590  -120537  -120455  -120464  -120488  -120364  -120316  -120529 
 -120719  -120742  -120737  -120676  -120540  -120556  -120710  -120648 
 -120457  -120522  -120719  -120807  -120789  -120665  -120625  -120793 
 -120819  -120627  -120522  -120476  -120414  -120441  -120517  -120523 
 -120490  -120502  -120549  -120618  -120676  -120614  -120513  -120510 
 -120492  -120475  -120569  -120587  -120478  -120467  -120541  -120625 
 -120723  -120679  -120483  -120438  -120618  -120714  -120645  -120606 
