Origin Time       2024/04/02 04:24:00
Lat.              40.133
Long.             141.712
Depth. (km)       71
Mag.              6.0
Station Code      CHBH06
Station Lat.      35.7215
Station Long.     140.5046
Station Height(m) 35
Record Time       2024/04/02 04:25:51
Sampling Freq(Hz) 100Hz
Duration Time(s)  164
Dir.              6
Scale Factor      7845(gal)/8223790
Max. Acc. (gal)   0.859
Last Correction   2024/04/02 04:25:52
Memo.             
[...]
  -19334   -19333   -19327   -19322   -19302   -19241   -19156   -19094 
  -19071   -19055   -19020   -18982   -18993   -19087   -19236   -19345 
  -19315   -19170   -19037   -19012   -19084   -19182   -19217   -19170 
  -19113   -19124   -19182   -19246   -19311   -19363   -19371   -19334 
  -19260   -19156   -19060   -19028   -19053   -19068   -19044   -19035 
  -19082   -19151   -19219   -19291   -19329   -19315   -19290   -19265 
  -19230   -19215   -19230   -19210   -19113   -19012   -18971   -19008 
  -19137   -19306   -19377   -19306   -19164   -19045   -18994   -18991 
  -19003   -19016   -19029   -19067   -19109   -19122   -19140   -19214 
  -19302   -19333   -19311   -19256   -19174   -19102   -19082   -19087 
  -19082   -19093   -19156   -19236   -19284   -19318   -19354   -19357 
  -19298   -19236   -19205   -19198   -19233   -19282   -19280   -19213 
  -19114   -19035   -19012   -19071   -19180   -19245   -19224   -19149 
  -19052   -18989   -19037   -19176   -19302   -19350   -19319   -19252 
  -19206   -19205   -19226   -19237   -19228   -19217   -19184   -19118 
  -19076   -19082   -19133   -19237   -19352   -19379   -19298   -19203 
  -19160   -19164   -19221   -19282   -19275   -19214   -19156   -19137 
  -19159   -19156   -19087   -18991   -18941   -18987   -19136   -19307 
  -19373   -19309   -19218   -19201   -19256   -19313   -19310   -19229 
  -19117   -19043   -19026   -19035   -19048   -19057   -19045   -19024 
  -19049   -19138   -19201   -19192   -19187   -19229   -19288   -19313 
  -19263   -19172   -19125   -19170   -19251   -19272   -19211   -19113 
  -19030   -19018   -19111   -19286   -19422   -19429   -19321   -19165 
  -19048   -19055   -19171   -19265   -19268   -19218   -19175   -19159 
  -19156   -19145   -19144   -19180   -19241   -19273   -19245   -19180 
  -19136   -19165   -19244   -19307   -19338   -19323   -19241   -19133 
  -19057   -19016   -18983   -18948   -18921   -18925   -18976   -19076 
  -19179   -19234   -19245   -19248   -19271   -19332   -19408   -19440 
  -19394   -19303   -19215   -19175   -19170   -19151   -19087   -19009 
  -18975   -19003   -19049   -19075   -19089   -19093   -19111   -19165 
  -19221   -19217   -19151   -19095   -19132   -19249   -19375   -19442 
  -19414   -19309   -19194   -19133   -19148   -19194   -19188   -19125 
  -19070   -19060   -19086   -19116   -19126   -19111   -19075   -19074 
  -19171   -19291   -19322   -19295   -19296   -19307   -19276   -19228 
  -19202   -19187   -19171   -19176   -19194   -19182   -19143   -19116 
  -19121   -19194   -19330   -19429   -19402   -19290   -19187   -19133 
  -19125   -19149   -19144   -19047   -18941   -18981   -19153   -19310 
  -19346   -19272   -19165   -19120   -19159   -19186   -19144   -19098 
  -19120   -19198   -19267   -19269   -19236   -19221   -19207   -19172 
  -19134   -19118   -19129   -19160   -19195   -19237   -19286   -19305 
  -19280   -19232   -19182   -19151   -19144   -19152   -19155   -19145 
  -19141   -19164   -19195   -19194   -19137   -19059   -19018   -19055 
  -19145   -19229   -19276   -19306   -19344   -19394   -19434   -19438 
  -19408   -19341   -19252   -19172   -19105   -19036   -18952   -18856 
  -18823   -18916   -19071   -19203   -19286   -19291   -19232   -19167 
  -19125   -19120   -19138   -19160   -19190   -19244   -19321   -19383 
  -19364   -19269   -19147   -19025   -18960   -19001   -19083   -19132 
  -19175   -19238   -19305   -19380   -19441   -19422   -19340   -19242 
  -19155   -19111   -19133   -19187   -19233   -19244   -19206   -19143 
  -19101   -19099   -19130   -19201   -19314   -19402   -19390   -19307 
  -19224   -19165   -19149   -19175   -19184   -19140   -19087   -19083 
  -19141   -19251   -19330   -19279   -19132   -19009   -18959   -18963 
  -19003   -19080   -19187   -19265   -19257   -19202   -19180   -19199 
  -19215   -19222   -19214   -19175   -19120   -19098   -19143   -19219 
  -19263   -19268   -19267   -19273   -19298   -19341   -19383   -19390 
  -19340   -19232   -19116   -19052   -19039   -19048   -19055   -19048 
  -19040   -19044   -19041   -19037   -19078   -19184   -19306   -19383 
  -19403   -19338   -19191   -19075   -19067   -19106   -19136   -19159 
  -19165   -19156   -19155   -19164   -19180   -19202   -19207   -19186 
  -19159   -19138   -19117   -19089   -19068   -19086   -19141   -19213 
  -19246   -19188   -19078   -19018   -19051   -19125   -19155   -19125 
  -19111   -19148   -19171   -19160   -19161   -19207   -19263   -19278 
  -19246   -19207   -19199   -19237   -19283   -19275   -19205   -19113 
  -19037   -19021   -19080   -19152   -19195   -19248   -19322   -19372 
  -19364   -19317   -19263   -19213   -19179   -19168   -19157   -19137 
  -19155   -19210   -19228   -19190   -19144   -19089   -19059   -19121 
  -19232   -19302   -19337   -19364   -19368   -19359   -19348   -19302 
  -19225   -19168   -19124   -19040   -18947   -18921   -18993   -19095 
  -19157   -19194   -19232   -19241   -19228   -19248   -19307   -19361 
  -19383   -19367   -19321   -19263   -19206   -19180   -19221   -19309 
  -19361   -19329   -19261   -19234   -19267   -19330   -19400   -19448 
  -19427   -19333   -19215   -19149   -19159   -19175   -19128   -19056 
  -19030   -19062   -19116   -19156   -19165   -19148   -19137   -19161 
  -19203   -19237   -19255   -19267   -19272   -19253   -19197   -19103 
  -18987   -18887   -18837   -18847   -18913   -18983   -18995   -18963 
  -18967   -19066   -19237   -19407   -19506   -19502   -19421   -19332 
  -19260   -19178   -19076   -18982   -18918   -18885   -18881   -18916 
  -18998   -19118   -19261   -19375   -19381   -19288   -19182   -19153 
  -19228   -19313   -19338   -19310   -19242   -19157   -19094   -19083 
  -19132   -19192   -19187   -19120   -19057   -19029   -19039   -19093 
  -19168   -19232   -19284   -19326   -19338   -19314   -19296   -19290 
  -19228   -19124   -19039   -18981   -18989   -19074   -19138   -19140 
  -19149   -19201   -19221   -19197   -19210   -19283   -19341   -19353 
  -19321   -19228   -19082   -18959   -18936   -19010   -19103   -19144 
  -19125   -19109   -19140   -19211   -19309   -19407   -19441   -19356 
  -19206   -19117   -19148   -19228   -19287   -19321   -19309   -19244 
  -19174   -19144   -19159   -19199   -19224   -19190   -19110   -19036 
  -19009   -19041   -19121   -19215   -19287   -19326   -19365   -19419 
  -19434   -19399   -19346   -19265   -19164   -19113   -19143   -19172 
  -19130   -19053   -19010   -19014   -19045   -19080   -19110   -19111 
  -19083   -19068   -19105   -19163   -19175   -19148   -19144   -19179 
  -19249   -19340   -19368   -19278   -19125   -19018   -19021   -19117 
  -19197   -19179   -19106   -19059   -19079   -19152   -19191   -19157 
  -19128   -19164   -19234   -19269   -19228   -19143   -19097   -19107 
  -19141   -19161   -19157   -19157   -19215   -19327   -19431   -19469 
  -19413   -19291   -19197   -19184   -19202   -19192   -19164   -19111 
  -19059   -19079   -19165   -19240   -19261   -19240   -19210   -19197 
  -19188   -19176   -19159   -19117   -19080   -19090   -19126   -19149 
  -19148   -19124   -19095   -19117   -19217   -19332   -19373   -19352 
  -19319   -19311   -19344   -19360   -19294   -19203   -19190   -19237 
  -19245   -19163   -19008   -18852   -18808   -18894   -19003   -19055 
  -19090   -19129   -19124   -19068   -19001   -18974   -19064   -19257 
  -19398   -19381   -19280   -19191   -19136   -19098   -19080   -19122 
  -19237   -19368   -19434   -19429   -19369   -19248   -19114   -19051 
  -19067   -19140   -19245   -19326   -19315   -19209   -19082   -19037 
  -19121   -19257   -19317   -19290   -19264   -19233   -19145   -19055 
  -19033   -19093   -19205   -19307   -19341   -19309   -19265   -19224 
  -19175   -19165   -19232   -19354   -19467   -19480   -19395   -19298 
  -19248   -19236   -19221   -19186   -19182   -19236   -19265   -19225 
  -19165   -19107   -19056   -19068   -19126   -19149   -19143   -19172 
  -19244   -19291   -19259   -19165   -19083   -19087   -19161   -19205 
  -19183   -19137   -19082   -19028   -19021   -19066   -19082   -19030 
  -18974   -18944   -18924   -18948   -19030   -19113   -19149   -19153 
  -19145   -19129   -19147   -19263   -19418   -19481   -19398   -19215 
  -19060   -19047   -19138   -19202   -19178   -19113   -19091   -19144 
  -19228   -19282   -19290   -19287   -19337   -19441   -19487   -19398 
  -19260   -19195   -19222   -19276   -19309   -19280   -19182   -19074 
  -19017   -19016   -19064   -19125   -19132   -19116   -19149   -19228 
  -19306   -19354   -19354   -19327   -19323   -19367   -19413   -19369 
  -19206   -19025   -18968   -19051   -19132   -19087   -18960   -18900 
  -18981   -19153   -19283   -19307   -19317   -19387   -19484   -19543 
  -19492   -19345   -19260   -19306   -19349   -19275   -19107   -18928 
  -18829   -18879   -19039   -19192   -19268   -19287   -19332   -19398 
  -19404   -19307   -19137   -18989   -18940   -19005   -19168   -19342 
  -19398   -19346   -19318   -19348   -19361   -19303   -19186   -19078 
  -19030   -19049   -19136   -19268   -19372   -19360   -19219   -19064 
  -19030   -19110   -19179   -19165   -19089   -18979   -18889   -18879 
  -18936   -19016   -19116   -19213   -19275   -19321   -19322   -19211 
  -19082   -19082   -19176   -19209   -19140   -19045   -19018   -19097 
  -19214   -19267   -19249   -19219   -19194   -19147   -19064   -18987 
  -18958   -18985   -19074   -19194   -19251   -19222   -19202   -19255 
  -19340   -19375   -19305   -19175   -19109   -19168   -19259   -19265 
  -19205   -19149   -19126   -19149   -19234   -19322   -19327   -19275 
  -19230   -19195   -19161   -19140   -19128   -19102   -19087   -19126 
  -19153   -19102   -19049   -19090   -19180   -19255   -19287   -19209 
  -19026   -18883   -18874   -18959   -19060   -19138   -19180   -19210 
  -19300   -19448   -19514   -19410   -19201   -19010   -18937   -18991 
  -19105   -19197   -19215   -19176   -19147   -19184   -19290   -19402 
  -19457   -19445   -19391   -19303   -19174   -19016   -18918   -18967 
  -19106   -19180   -19124   -18986   -18875   -18932   -19184   -19450 
  -19583   -19619   -19614   -19557   -19446   -19276   -19037   -18781 
  -18593   -18493   -18474   -18585   -18837   -19149   -19419   -19600 
  -19662   -19602   -19487   -19423   -19442   -19462   -19384   -19215 
  -19026   -18909   -18921   -18985   -18998   -19010   -19075   -19144 
  -19190   -19219   -19191   -19145   -19219   -19426   -19612   -19653 
  -19539   -19353   -19214   -19179   -19165   -19071   -18941   -18922 
  -19076   -19272   -19340   -19282   -19226   -19263   -19396   -19527 
  -19527   -19403   -19287   -19288   -19410   -19507   -19429   -19232 
  -19102   -19060   -18987   -18839   -18663   -18555   -18615   -18850 
  -19151   -19353   -19336   -19160   -19051   -19121   -19248   -19287 
  -19265   -19269   -19290   -19273   -19210   -19132   -19067   -19047 
  -19125   -19287   -19391   -19341   -19197   -19044   -18958   -18954 
  -18972   -19003   -19087   -19184   -19244   -19284   -19295   -19236 
  -19140   -19070   -19013   -18962   -18983   -19137   -19353   -19481 
  -19473   -19377   -19229   -19076   -18967   -18866   -18797   -18856 
  -19013   -19130   -19201   -19265   -19256   -19182   -19194   -19299 
  -19357   -19336   -19302   -19305   -19341   -19337   -19245   -19136 
  -19080   -19067   -19072   -19113   -19164   -19153   -19091   -19109 
  -19230   -19319   -19346   -19396   -19445   -19410   -19305   -19206 
  -19152   -19122   -19113   -19145   -19179   -19164   -19126   -19102 
  -19105   -19138   -19179   -19203   -19222   -19201   -19106   -18999 
  -19002   -19161   -19403   -19610   -19716   -19656   -19404   -19090 
  -18877   -18848   -19018   -19303   -19543   -19633   -19576   -19425 
  -19224   -19036   -18909   -18814   -18748   -18739   -18736   -18723 
  -18804   -19022   -19271   -19442   -19518   -19523   -19480   -19404 
  -19323   -19238   -19147   -19095   -19122   -19207   -19268   -19233 
  -19145   -19041   -18897   -18750   -18675   -18705   -18819   -18951 
  -19080   -19248   -19396   -19422   -19369   -19363   -19386   -19333 
  -19190   -19055   -18993   -18997   -19076   -19207   -19276   -19234 
  -19134   -19043   -18986   -18970   -19005   -19084   -19202   -19310 
  -19286   -19080   -18848   -18798   -18994   -19356   -19680   -19776 
  -19660   -19469   -19283   -19116   -18966   -18887   -18985   -19279 
  -19629   -19831   -19781   -19553   -19288   -19093   -19053   -19178 
  -19342   -19440   -19421   -19272   -19044   -18862   -18808   -18829 
  -18890   -19068   -19359   -19577   -19583   -19423   -19226   -19075 
  -19002   -19020   -19090   -19167   -19280   -19429   -19530   -19511 
  -19352   -19098   -18886   -18809   -18851   -18940   -18978   -18914 
  -18817   -18813   -18985   -19260   -19467   -19558   -19592   -19542 
  -19360   -19097   -18847   -18693   -18697   -18843   -19008   -19066 
  -19039   -19036   -19105   -19222   -19319   -19356   -19406   -19522 
  -19623   -19589   -19363   -19021   -18713   -18574   -18682   -18962 
  -19218   -19348   -19363   -19280   -19156   -19103   -19199   -19426 
  -19677   -19809   -19747   -19523   -19248   -19041   -18935   -18875 
  -18858   -18960   -19179   -19392   -19494   -19452   -19273   -19033 
  -18832   -18751   -18828   -18998   -19125   -19184   -19264   -19377 
  -19422   -19325   -19171   -19064   -19026   -19074   -19215   -19325 
  -19318   -19273   -19298   -19483   -19835   -20085   -19931   -19508 
  -19167   -19016   -19010   -19109   -19184   -19140   -19075   -19090 
  -19120   -19124   -19145   -19124   -18955   -18716   -18612   -18750 
  -19060   -19395   -19599   -19585   -19410   -19176   -18970   -18909 
  -19089   -19418   -19714   -19882   -19861   -19627   -19303   -19020 
  -18792   -18694   -18790   -18928   -19010   -19151   -19329   -19361 
  -19256   -19165   -19122   -19049   -18935   -18887   -18991   -19191 
  -19332   -19276   -19089   -18995   -19116   -19364   -19580   -19665 
  -19616   -19483   -19350   -19249   -19121   -18954   -18832   -18809 
  -18866   -18974   -19075   -19130   -19167   -19190   -19171   -19117 
  -19053   -19002   -18997   -19020   -19001   -18974   -19048   -19236 
  -19448   -19622   -19732   -19753   -19685   -19543   -19319   -19056 
  -18819   -18616   -18508   -18585   -18770   -18962   -19218   -19543 
  -19788   -19830   -19656   -19327   -18967   -18708   -18647   -18823 
  -19120   -19326   -19307   -19103   -18909   -18928   -19136   -19334 
  -19429   -19496   -19600   -19715   -19716   -19467   -19071   -18798 
  -18739   -18846   -19089   -19341   -19399   -19232   -19012   -18897 
  -18910   -19018   -19165   -19273   -19329   -19350   -19317   -19213 
  -19040   -18824   -18709   -18819   -19059   -19240   -19291   -19255 
  -19194   -19103   -18967   -18848   -18793   -18804   -18913   -19082 
  -19207   -19252   -19187   -19045   -19022   -19242   -19566   -19796 
  -19886   -19885   -19766   -19491   -19178   -18976   -18914   -18955 
  -19066   -19201   -19283   -19237   -19097   -19005   -19026   -19110 
  -19179   -19209   -19197   -19105   -18935   -18763   -18659   -18674 
  -18841   -19114   -19356   -19458   -19449   -19454   -19535   -19622 
  -19602   -19442   -19241   -19124   -19122   -19232   -19408   -19488 
  -19334   -19056   -18866   -18821   -18846   -18885   -18967   -19084 
  -19165   -19172   -19155   -19147   -19156   -19232   -19390   -19570 
  -19658   -19535   -19237   -18954   -18787   -18732   -18781   -18914 
  -19093   -19291   -19518   -19727   -19768   -19560   -19236   -18974 
  -18874   -18941   -19094   -19238   -19329   -19342   -19280   -19163 
  -19002   -18814   -18648   -18581   -18662   -18848   -19052   -19259 
  -19506   -19731   -19801   -19703   -19518   -19306   -19178   -19234 
  -19377   -19390   -19184   -18859   -18569   -18441   -18530   -18789 
  -19064   -19237   -19326   -19390   -19441   -19472   -19476   -19498 
  -19581   -19678   -19672   -19489   -19201   -18963   -18840   -18790 
  -18771   -18779   -18824   -18905   -19010   -19143   -19330   -19552 
  -19683   -19631   -19488   -19395   -19373   -19367   -19330   -19248 
  -19149   -19060   -19020   -19111   -19290   -19377   -19329   -19242 
  -19174   -19107   -19025   -18963   -18971   -19043   -19178   -19383 
  -19570   -19637   -19568   -19384   -19149   -18962   -18863   -18847 
  -18929   -19141   -19418   -19588   -19546   -19352   -19160   -19091 
  -19136   -19197   -19203   -19164   -19152   -19251   -19422   -19521 
  -19442   -19210   -18925   -18700   -18589   -18561   -18594   -18719 
  -18952   -19252   -19546   -19766   -19801   -19558   -19128   -18775 
  -18667   -18733   -18828   -18908   -19012   -19179   -19360   -19442 
  -19399   -19306   -19230   -19221   -19299   -19379   -19338   -19197 
  -19068   -19025   -19089   -19255   -19425   -19499   -19475   -19381 
  -19244   -19138   -19128   -19152   -19134   -19076   -18999   -18927 
  -18891   -18924   -18998   -19052   -19084   -19147   -19271   -19444 
  -19593   -19638   -19603   -19564   -19496   -19354   -19184   -19056 
  -18993   -18998   -19045   -19080   -19076   -19078   -19151   -19269 
  -19336   -19292   -19171   -19045   -18947   -18878   -18870   -18939 
  -19070   -19211   -19302   -19364   -19446   -19498   -19456   -19290 
  -19005   -18751   -18724   -18895   -19116   -19302   -19395   -19388 
  -19334   -19222   -19028   -18836   -18785   -18935   -19192   -19361 
  -19327   -19179   -19082   -19089   -19151   -19234   -19292   -19291 
  -19248   -19182   -19109   -19078   -19106   -19129   -19091   -19009 
  -18924   -18858   -18821   -18835   -18875   -18893   -18927   -19062 
  -19263   -19441   -19561   -19603   -19564   -19531   -19610   -19724 
  -19699   -19495   -19224   -19012   -18937   -18970   -19003   -19044 
  -19170   -19349   -19480   -19525   -19461   -19298   -19153   -19155 
  -19276   -19364   -19341   -19268   -19217   -19233   -19361   -19515 
  -19527   -19386   -19214   -19089   -19047   -19103   -19171   -19138 
  -19025   -18924   -18905   -19030   -19251   -19356   -19240   -19055 
  -18974   -18997   -19049   -19109   -19183   -19286   -19411   -19516 
  -19514   -19349   -19107   -18958   -18936   -18959   -18968   -18939 
  -18893   -18904   -18976   -19030   -19047   -19097   -19224   -19380 
  -19483   -19502   -19446   -19338   -19240   -19209   -19255   -19365 
  -19453   -19413   -19241   -19010   -18823   -18756   -18810   -18933 
  -19056   -19148   -19280   -19484   -19614   -19564   -19437   -19350 
  -19269   -19121   -18908   -18725   -18698   -18847   -19035   -19136 
  -19153   -19160   -19207   -19276   -19338   -19350   -19257   -19125 
  -19045   -18982   -18906   -18906   -19045   -19241   -19346   -19307 
  -19192   -19101   -19090   -19152   -19233   -19244   -19122   -18945 
  -18889   -19020   -19218   -19345   -19367   -19348   -19375   -19456 
  -19525   -19535   -19503   -19465   -19438   -19423   -19381   -19303 
  -19253   -19272   -19318   -19313   -19226   -19117   -19059   -19067 
  -19095   -19093   -19049   -19018   -19076   -19229   -19395   -19499 
  -19491   -19359   -19163   -18962   -18778   -18708   -18856   -19144 
  -19363   -19433   -19404   -19290   -19120   -18979   -18904   -18871 
