Origin Time       2024/04/02 04:24:00
Lat.              40.133
Long.             141.712
Depth. (km)       71
Mag.              6.0
Station Code      CHBH10
Station Lat.      35.5458
Station Long.     140.2417
Station Height(m) 65
Record Time       2024/04/02 04:26:41
Sampling Freq(Hz) 100Hz
Duration Time(s)  120
Dir.              6
Scale Factor      7845(gal)/8223790
Max. Acc. (gal)   0.419
Last Correction   2024/04/02 04:26:42
Memo.             
[...]
   -6138    -6142    -6156    -6168    -6170    -6200    -6239    -6247 
   -6243    -6249    -6241    -6205    -6166    -6150    -6156    -6160 
   -6153    -6156    -6169    -6174    -6168    -6161    -6165    -6176 
   -6189    -6193    -6176    -6150    -6150    -6177    -6204    -6226 
   -6259    -6289    -6295    -6273    -6242    -6214    -6196    -6188 
   -6191    -6196    -6193    -6193    -6210    -6231    -6246    -6257 
   -6265    -6274    -6285    -6289    -6277    -6257    -6242    -6215 
   -6191    -6181    -6169    -6156    -6157    -6172    -6193    -6211 
   -6211    -6205    -6203    -6214    -6242    -6254    -6243    -6237 
   -6241    -6245    -6239    -6234    -6220    -6176    -6126    -6108 
   -6115    -6115    -6103    -6100    -6122    -6143    -6154    -6172 
   -6185    -6181    -6178    -6183    -6187    -6199    -6211    -6216 
   -6227    -6246    -6265    -6286    -6322    -6357    -6369    -6353 
   -6340    -6334    -6315    -6292    -6278    -6269    -6262    -6257 
   -6257    -6258    -6235    -6200    -6173    -6170    -6187    -6197 
   -6207    -6223    -6228    -6226    -6237    -6257    -6264    -6262 
   -6269    -6270    -6255    -6230    -6212    -6214    -6219    -6208 
   -6192    -6193    -6207    -6204    -6191    -6204    -6232    -6237 
   -6220    -6200    -6185    -6173    -6161    -6169    -6203    -6238 
   -6247    -6239    -6231    -6223    -6218    -6232    -6258    -6269 
   -6249    -6199    -6154    -6138    -6149    -6170    -6193    -6201 
   -6191    -6165    -6139    -6153    -6204    -6247    -6269    -6278 
   -6274    -6272    -6261    -6219    -6173    -6158    -6165    -6157 
   -6149    -6180    -6222    -6220    -6191    -6170    -6173    -6180 
   -6158    -6118    -6097    -6114    -6145    -6173    -6204    -6232 
   -6245    -6250    -6264    -6270    -6232    -6173    -6137    -6102 
   -6056    -6026    -6027    -6061    -6110    -6137    -6143    -6158 
   -6178    -6187    -6185    -6185    -6188    -6197    -6196    -6201 
   -6232    -6268    -6297    -6320    -6322    -6309    -6300    -6291 
   -6274    -6251    -6235    -6231    -6215    -6188    -6181    -6197 
   -6219    -6249    -6284    -6299    -6296    -6291    -6272    -6245 
   -6224    -6216    -6232    -6270    -6295    -6278    -6246    -6241 
   -6272    -6297    -6289    -6274    -6282    -6305    -6316    -6292 
   -6255    -6255    -6286    -6315    -6323    -6318    -6320    -6316 
   -6276    -6232    -6208    -6181    -6161    -6177    -6203    -6207 
   -6201    -6195    -6180    -6156    -6122    -6089    -6089    -6119 
   -6139    -6142    -6156    -6193    -6226    -6211    -6173    -6147 
   -6129    -6118    -6127    -6150    -6185    -6232    -6274    -6307 
   -6331    -6332    -6315    -6295    -6273    -6239    -6189    -6130 
   -6091    -6087    -6111    -6157    -6214    -6232    -6215    -6188 
   -6154    -6123    -6107    -6096    -6097    -6123    -6169    -6228 
   -6286    -6319    -6320    -6296    -6246    -6183    -6129    -6111 
   -6131    -6161    -6178    -6196    -6228    -6265    -6282    -6281 
   -6280    -6269    -6237    -6210    -6204    -6207    -6216    -6237 
   -6250    -6241    -6215    -6184    -6172    -6191    -6211    -6211 
   -6208    -6214    -6216    -6216    -6224    -6245    -6274    -6291 
   -6284    -6262    -6238    -6215    -6205    -6210    -6219    -6247 
   -6286    -6322    -6353    -6363    -6351    -6328    -6299    -6268 
   -6243    -6222    -6215    -6208    -6174    -6135    -6116    -6124 
   -6162    -6201    -6218    -6222    -6219    -6200    -6165    -6114 
   -6058    -6030    -6043    -6077    -6120    -6173    -6215    -6241 
   -6261    -6273    -6272    -6261    -6245    -6226    -6214    -6201 
   -6197    -6212    -6238    -6255    -6253    -6249    -6264    -6273 
   -6273    -6300    -6334    -6326    -6286    -6245    -6214    -6197 
   -6189    -6196    -6223    -6247    -6268    -6291    -6305    -6297 
   -6259    -6199    -6141    -6110    -6114    -6151    -6203    -6245 
   -6264    -6250    -6219    -6180    -6137    -6129    -6161    -6195 
   -6207    -6192    -6161    -6139    -6130    -6129    -6131    -6143 
   -6180    -6222    -6235    -6232    -6215    -6164    -6099    -6058 
   -6053    -6079    -6107    -6114    -6118    -6141    -6176    -6199 
   -6201    -6207    -6220    -6219    -6197    -6189    -6200    -6207 
   -6210    -6219    -6228    -6243    -6266    -6288    -6305    -6305 
   -6266    -6214    -6177    -6160    -6162    -6178    -6205    -6237 
   -6235    -6210    -6215    -6246    -6251    -6220    -6184    -6161 
   -6149    -6135    -6123    -6129    -6156    -6188    -6218    -6241 
   -6258    -6280    -6296    -6296    -6277    -6239    -6189    -6158 
   -6154    -6165    -6192    -6234    -6273    -6303    -6319    -6324 
   -6332    -6342    -6332    -6289    -6234    -6197    -6173    -6134 
   -6100    -6108    -6164    -6235    -6289    -6304    -6300    -6307 
   -6311    -6307    -6315    -6332    -6349    -6361    -6353    -6316 
   -6273    -6243    -6234    -6242    -6255    -6257    -6254    -6253 
   -6247    -6237    -6218    -6189    -6168    -6166    -6161    -6142 
   -6133    -6138    -6135    -6106    -6077    -6084    -6122    -6160 
   -6189    -6207    -6211    -6210    -6201    -6181    -6164    -6166 
   -6174    -6180    -6187    -6192    -6191    -6195    -6203    -6205 
   -6205    -6192    -6166    -6149    -6137    -6122    -6138    -6185 
   -6216    -6203    -6169    -6157    -6185    -6234    -6276    -6295 
   -6291    -6270    -6247    -6234    -6246    -6262    -6258    -6242 
   -6234    -6242    -6255    -6257    -6264    -6278    -6258    -6216 
   -6192    -6176    -6164    -6177    -6212    -6246    -6255    -6242 
   -6222    -6187    -6134    -6088    -6070    -6080    -6102    -6129 
   -6165    -6203    -6216    -6197    -6170    -6162    -6170    -6174 
   -6164    -6156    -6164    -6177    -6181    -6183    -6181    -6162 
   -6143    -6174    -6242    -6289    -6307    -6313    -6295    -6242 
   -6181    -6135    -6123    -6141    -6157    -6156    -6153    -6187 
   -6249    -6288    -6308    -6336    -6347    -6315    -6272    -6249 
   -6232    -6207    -6181    -6166    -6174    -6200    -6208    -6201 
   -6224    -6257    -6249    -6230    -6234    -6245    -6232    -6200 
   -6172    -6157    -6147    -6164    -6234    -6330    -6380    -6376 
   -6369    -6362    -6316    -6239    -6188    -6191    -6216    -6216 
   -6204    -6224    -6261    -6269    -6224    -6164    -6143    -6162 
   -6170    -6162    -6176    -6207    -6207    -6164    -6119    -6095 
   -6081    -6092    -6142    -6204    -6243    -6242    -6231    -6249 
   -6265    -6246    -6216    -6203    -6195    -6188    -6193    -6222 
   -6257    -6276    -6282    -6284    -6278    -6268    -6243    -6211 
   -6200    -6205    -6191    -6170    -6174    -6187    -6201    -6234 
   -6264    -6261    -6242    -6219    -6183    -6129    -6099    -6133 
   -6210    -6278    -6319    -6338    -6331    -6282    -6211    -6153 
   -6133    -6135    -6137    -6161    -6232    -6304    -6328    -6319 
   -6312    -6316    -6303    -6274    -6268    -6277    -6258    -6201 
   -6164    -6160    -6150    -6127    -6115    -6123    -6138    -6138 
   -6107    -6066    -6048    -6053    -6069    -6107    -6178    -6261 
   -6308    -6311    -6288    -6258    -6219    -6174    -6147    -6149 
   -6181    -6228    -6255    -6269    -6289    -6313    -6318    -6296 
   -6262    -6239    -6222    -6197    -6192    -6232    -6296    -6330 
   -6332    -6323    -6303    -6269    -6237    -6231    -6255    -6274 
   -6265    -6253    -6246    -6211    -6133    -6064    -6053    -6093 
   -6151    -6201    -6241    -6289    -6343    -6354    -6322    -6280 
   -6219    -6143    -6087    -6057    -6052    -6077    -6130    -6189 
   -6238    -6272    -6266    -6197    -6103    -6019    -5956    -5941 
   -5988    -6075    -6170    -6247    -6282    -6277    -6246    -6200 
   -6154    -6126    -6108    -6096    -6104    -6141    -6205    -6284 
   -6336    -6342    -6313    -6274    -6245    -6226    -6232    -6276 
   -6313    -6315    -6327    -6351    -6339    -6307    -6280    -6242 
   -6219    -6234    -6265    -6300    -6330    -6328    -6296    -6273 
   -6254    -6223    -6196    -6189    -6196    -6214    -6224    -6222 
   -6203    -6162    -6119    -6103    -6108    -6129    -6165    -6192 
   -6203    -6210    -6208    -6207    -6214    -6208    -6185    -6166 
   -6134    -6076    -6029    -6035    -6118    -6241    -6320    -6331 
   -6304    -6247    -6157    -6075    -6039    -6060    -6120    -6195 
   -6277    -6358    -6405    -6407    -6357    -6245    -6103    -5992 
   -5948    -5971    -6037    -6110    -6187    -6270    -6331    -6343 
   -6332    -6327    -6311    -6280    -6243    -6210    -6220    -6274 
   -6323    -6330    -6292    -6231    -6170    -6108    -6053    -6049 
   -6142    -6277    -6354    -6369    -6359    -6301    -6192    -6081 
   -6004    -5983    -6007    -6064    -6161    -6274    -6328    -6305 
   -6251    -6212    -6200    -6188    -6164    -6151    -6158    -6166 
   -6187    -6258    -6359    -6440    -6489    -6500    -6448    -6340 
   -6222    -6134    -6085    -6072    -6106    -6184    -6277    -6374 
   -6478    -6536    -6501    -6405    -6296    -6195    -6110    -6039 
   -5992    -6010    -6093    -6192    -6276    -6372    -6473    -6532 
   -6528    -6471    -6381    -6276    -6174    -6099    -6052    -6021 
   -6023    -6070    -6138    -6208    -6262    -6278    -6282    -6284 
   -6249    -6180    -6114    -6064    -6050    -6095    -6177    -6262 
   -6315    -6308    -6251    -6200    -6183    -6173    -6153    -6157 
   -6204    -6246    -6238    -6196    -6151    -6127    -6131    -6145 
   -6145    -6142    -6141    -6123    -6107    -6127    -6174    -6219 
   -6250    -6254    -6234    -6195    -6137    -6087    -6065    -6087 
   -6166    -6276    -6374    -6432    -6409    -6320    -6218    -6123 
   -6019    -5914    -5867    -5911    -6007    -6103    -6151    -6146 
   -6127    -6107    -6099    -6118    -6137    -6147    -6169    -6188 
   -6189    -6178    -6185    -6232    -6301    -6340    -6332    -6313 
   -6295    -6253    -6188    -6147    -6169    -6245    -6323    -6381 
   -6408    -6373    -6280    -6199    -6181    -6199    -6214    -6237 
   -6265    -6278    -6254    -6193    -6142    -6123    -6118    -6150 
   -6239    -6338    -6389    -6336    -6193    -6058    -5992    -5979 
   -6002    -6066    -6173    -6299    -6388    -6399    -6378    -6372 
   -6353    -6301    -6226    -6139    -6083    -6073    -6110    -6201 
   -6307    -6345    -6313    -6272    -6238    -6210    -6178    -6161 
   -6205    -6291    -6355    -6400    -6435    -6419    -6320    -6174 
   -6064    -6042    -6080    -6147    -6234    -6297    -6293    -6185 
   -5989    -5836    -5837    -5952    -6093    -6228    -6323    -6351 
   -6322    -6255    -6192    -6174    -6212    -6273    -6323    -6355 
   -6358    -6313    -6245    -6219    -6253    -6276    -6227    -6138 
   -6073    -6052    -6075    -6131    -6201    -6278    -6350    -6416 
   -6480    -6519    -6508    -6440    -6334    -6234    -6153    -6060 
   -5981    -5983    -6070    -6207    -6323    -6363    -6365    -6361 
   -6313    -6226    -6158    -6133    -6129    -6126    -6133    -6178 
   -6258    -6319    -6342    -6342    -6307    -6216    -6097    -6015 
   -6004    -6027    -6034    -6037    -6083    -6164    -6230    -6261 
   -6262    -6238    -6200    -6191    -6224    -6258    -6234    -6156 
   -6083    -6046    -6070    -6169    -6313    -6455    -6546    -6561 
   -6525    -6462    -6367    -6272    -6196    -6161    -6204    -6292 
   -6339    -6339    -6311    -6264    -6235    -6207    -6139    -6070 
   -6046    -6092    -6203    -6307    -6353    -6366    -6361    -6312 
   -6223    -6108    -6018    -6010    -6069    -6112    -6106    -6056 
   -5989    -5965    -6012    -6123    -6285    -6438    -6482    -6388 
   -6211    -6010    -5848    -5800    -5867    -5995    -6150    -6300 
   -6389    -6359    -6241    -6149    -6141    -6177    -6224    -6242 
   -6173    -6062    -5981    -5944    -5981    -6106    -6253    -6378 
   -6454    -6442    -6355    -6223    -6072    -5965    -5952    -6026 
   -6142    -6220    -6223    -6212    -6220    -6223    -6227    -6255 
   -6297    -6309    -6245    -6131    -6073    -6124    -6226    -6308 
   -6374    -6411    -6389    -6327    -6270    -6242    -6214    -6165 
   -6129    -6131    -6139    -6118    -6100    -6126    -6170    -6172 
   -6131    -6135    -6214    -6295    -6323    -6324    -6345    -6372 
   -6357    -6307    -6301    -6373    -6458    -6475    -6413    -6336 
   -6291    -6245    -6199    -6197    -6250    -6308    -6327    -6323 
   -6320    -6281    -6227    -6214    -6223    -6211    -6153    -6073 
   -6016    -5984    -5984    -6025    -6095    -6204    -6327    -6385 
   -6361    -6282    -6178    -6091    -6076    -6115    -6126    -6107 
   -6115    -6153    -6195    -6207    -6185    -6183    -6207    -6222 
   -6227    -6222    -6195    -6166    -6164    -6195    -6246    -6286 
   -6315    -6339    -6328    -6272    -6193    -6122    -6061    -6012 
   -6002    -6069    -6192    -6315    -6409    -6439    -6373    -6258 
   -6160    -6106    -6092    -6069    -6010    -5935    -5896    -5933 
   -6077    -6315    -6542    -6652    -6642    -6548    -6404    -6234 
   -6079    -5996    -6003    -6064    -6151    -6238    -6259    -6193 
   -6088    -6002    -5960    -5953    -5981    -6060    -6153    -6204 
   -6230    -6284    -6367    -6439    -6448    -6377    -6277    -6201 
   -6142    -6107    -6120    -6174    -6232    -6262    -6289    -6347 
   -6408    -6438    -6459    -6490    -6507    -6486    -6434    -6369 
   -6312    -6255    -6177    -6122    -6122    -6141    -6173    -6246 
   -6319    -6319    -6214    -6065    -6007    -6079    -6188    -6269 
   -6315    -6340    -6342    -6318    -6284    -6247    -6193    -6141 
   -6127    -6162    -6210    -6230    -6238    -6254    -6269    -6278 
   -6276    -6262    -6254    -6239    -6181    -6092    -6015    -5996 
   -6050    -6146    -6226    -6241    -6189    -6135    -6131    -6176 
   -6249    -6330    -6384    -6417    -6430    -6377    -6269    -6149 
   -6030    -5949    -5942    -5992    -6079    -6170    -6227    -6254 
   -6268    -6274    -6277    -6243    -6153    -6062    -6004    -5976 
   -6008    -6096    -6195    -6293    -6381    -6430    -6407    -6281 
   -6083    -5896    -5813    -5896    -6112    -6332    -6475    -6535 
   -6515    -6436    -6351    -6289    -6250    -6231    -6226    -6218 
   -6211    -6203    -6176    -6158    -6184    -6224    -6251    -6266 
   -6265    -6243    -6201    -6161    -6178    -6280    -6400    -6453 
   -6427    -6365    -6297    -6215    -6131    -6103    -6143    -6203 
   -6237    -6245    -6247    -6234    -6187    -6147    -6162    -6220 
   -6272    -6274    -6242    -6215    -6205    -6226    -6262    -6264 
   -6192    -6075    -5981    -5976    -6049    -6133    -6199    -6269 
   -6331    -6332    -6254    -6149    -6091    -6108    -6189    -6300 
   -6381    -6403    -6377    -6323    -6266    -6214    -6170    -6151 
   -6138    -6143    -6215    -6297    -6311    -6268    -6201    -6133 
   -6084    -6075    -6103    -6138    -6174    -6224    -6258    -6253 
   -6224    -6177    -6130    -6134    -6185    -6227    -6230    -6201 
   -6165    -6137    -6107    -6084    -6084    -6103    -6122    -6138 
   -6162    -6197    -6234    -6272    -6319    -6384    -6444    -6439 
   -6342    -6192    -6058    -5987    -5968    -6002    -6079    -6146 
   -6176    -6203    -6249    -6273    -6224    -6137    -6092    -6112 
   -6165    -6222    -6268    -6308    -6354    -6419    -6492    -6535 
   -6527    -6474    -6397    -6318    -6254    -6204    -6142    -6077 
   -6049    -6072    -6156    -6292    -6404    -6435    -6378    -6255 
   -6118    -6030    -6015    -6035    -6083    -6176    -6276    -6319 
   -6292    -6238    -6203    -6173    -6114    -6046    -6021    -6066 
   -6137    -6172    -6180    -6176    -6153    -6126    -6141    -6185 
   -6211    -6199    -6160    -6099    -6035    -6006    -6027    -6114 
   -6237    -6327    -6358    -6350    -6319    -6276    -6234    -6210 
   -6211    -6239    -6276    -6289    -6278    -6272    -6278    -6300 
   -6339    -6382    -6384    -6328    -6243    -6153    -6085    -6066 
   -6079    -6110    -6154    -6199    -6235    -6273    -6319    -6353 
   -6343    -6307    -6276    -6241    -6166    -6046    -5937    -5907 
   -5960    -6066    -6176    -6239    -6258    -6243    -6201    -6161 
   -6150    -6153    -6164    -6196    -6239    -6276    -6277    -6234 
   -6196    -6201    -6218    -6219    -6203    -6149    -6070    -6016 
   -6029    -6107    -6188    -6224    -6251    -6289    -6324    -6361 
   -6369    -6328    -6273    -6197    -6091    -5999    -5967    -6016 
   -6143    -6276    -6349    -6373    -6366    -6318    -6246    -6177 
   -6149    -6176    -6210    -6230    -6258    -6265    -6237    -6224 
   -6262    -6338    -6384    -6335    -6226    -6124    -6056    -6031 
   -6060    -6123    -6180    -6191    -6162    -6126    -6089    -6064 
   -6070    -6111    -6173    -6230    -6268    -6281    -6262    -6218 
   -6183    -6187    -6228    -6249    -6216    -6172    -6168    -6210 
   -6245    -6238    -6232    -6245    -6239    -6196    -6129    -6075 
   -6068    -6108    -6178    -6261    -6312    -6305    -6273    -6235 
   -6200    -6183    -6161    -6134    -6151    -6218    -6273    -6293 
   -6277    -6232    -6199    -6188    -6183    -6176    -6173    -6172 
   -6170    -6170    -6181    -6212    -6238    -6269    -6340    -6432 
   -6501    -6512    -6432    -6299    -6188    -6120    -6118    -6205 
   -6338    -6435    -6467    -6461    -6434    -6386    -6335    -6300 
   -6278    -6288    -6326    -6347    -6350    -6334    -6278    -6200 
   -6143    -6103    -6060    -6031    -6037    -6072    -6112    -6143 
   -6183    -6242    -6301    -6349    -6388    -6409    -6409    -6390 
   -6346    -6272    -6185    -6106    -6056    -6060    -6110    -6180 
   -6246    -6295    -6309    -6274    -6197    -6100    -6015    -5988 
   -6034    -6123    -6220    -6309    -6349    -6313    -6242    -6158 
   -6087    -6061    -6079    -6126    -6191    -6223    -6204    -6166 
   -6135    -6126    -6145    -6188    -6243    -6282    -6286    -6264 
   -6214    -6154    -6108    -6100    -6135    -6204    -6282    -6328 
   -6330    -6311    -6288    -6297    -6369    -6444    -6485    -6502 
   -6478    -6408    -6326    -6228    -6142    -6096    -6095    -6147 
   -6230    -6291    -6315    -6304    -6261    -6215    -6199    -6219 
   -6268    -6332    -6388    -6397    -6354    -6282    -6218    -6174 
   -6130    -6079    -6038    -6019    -6019    -6031    -6058    -6111 
   -6183    -6249    -6280    -6268    -6242    -6222    -6204    -6196 
   -6201    -6210    -6193    -6139    -6077    -6053    -6075    -6118 
   -6153    -6162    -6146    -6115    -6083    -6083    -6131    -6188 
   -6227    -6262    -6300    -6343    -6377    -6374    -6336    -6284 
