Origin Time       2024/04/02 04:24:00
Lat.              40.133
Long.             141.712
Depth. (km)       71
Mag.              6.0
Station Code      FKSH06
Station Lat.      37.1723
Station Long.     139.5199
Station Height(m) 471.7
Record Time       2024/04/02 04:25:59
Sampling Freq(Hz) 100Hz
Duration Time(s)  120
Dir.              2
Scale Factor      2942(gal)/8224139
Max. Acc. (gal)   0.192
Last Correction   2024/04/02 04:26:00
Memo.             
[...]
 -125452  -125469  -125482  -125493  -125498  -125497  -125497  -125500 
 -125504  -125512  -125517  -125514  -125510  -125498  -125482  -125474 
 -125470  -125467  -125464  -125455  -125444  -125437  -125431  -125421 
 -125410  -125402  -125404  -125409  -125408  -125406  -125405  -125396 
 -125386  -125374  -125362  -125355  -125354  -125355  -125355  -125351 
 -125348  -125346  -125347  -125350  -125350  -125344  -125342  -125348 
 -125359  -125365  -125362  -125356  -125348  -125339  -125325  -125307 
 -125292  -125286  -125286  -125293  -125305  -125317  -125329  -125344 
 -125352  -125350  -125343  -125338  -125335  -125339  -125352  -125365 
 -125377  -125389  -125396  -125398  -125400  -125396  -125393  -125393 
 -125396  -125406  -125424  -125440  -125455  -125462  -125458  -125447 
 -125437  -125433  -125428  -125419  -125408  -125397  -125388  -125385 
 -125388  -125386  -125381  -125373  -125365  -125359  -125362  -125367 
 -125374  -125378  -125377  -125373  -125370  -125366  -125363  -125361 
 -125354  -125339  -125317  -125294  -125278  -125271  -125270  -125267 
 -125266  -125270  -125271  -125267  -125258  -125247  -125236  -125224 
 -125221  -125230  -125238  -125242  -125238  -125227  -125217  -125213 
 -125216  -125223  -125232  -125248  -125265  -125271  -125271  -125269 
 -125266  -125267  -125277  -125294  -125316  -125339  -125354  -125347 
 -125332  -125321  -125316  -125321  -125336  -125352  -125363  -125369 
 -125371  -125375  -125377  -125378  -125382  -125382  -125379  -125383 
 -125394  -125406  -125420  -125432  -125442  -125455  -125470  -125485 
 -125491  -125487  -125479  -125475  -125471  -125467  -125471  -125479 
 -125486  -125494  -125498  -125491  -125483  -125478  -125470  -125458 
 -125443  -125428  -125410  -125394  -125378  -125356  -125338  -125325 
 -125320  -125319  -125319  -125320  -125316  -125308  -125297  -125281 
 -125265  -125253  -125243  -125235  -125230  -125227  -125226  -125220 
 -125213  -125217  -125226  -125231  -125239  -125248  -125258  -125270 
 -125286  -125300  -125307  -125309  -125315  -125321  -125328  -125335 
 -125339  -125342  -125347  -125358  -125374  -125389  -125396  -125398 
 -125396  -125390  -125394  -125405  -125415  -125423  -125428  -125432 
 -125425  -125413  -125405  -125400  -125393  -125385  -125377  -125371 
 -125373  -125381  -125385  -125378  -125371  -125365  -125358  -125355 
 -125358  -125358  -125354  -125354  -125362  -125373  -125377  -125378 
 -125377  -125365  -125351  -125340  -125328  -125315  -125313  -125320 
 -125325  -125335  -125351  -125369  -125383  -125393  -125393  -125388 
 -125386  -125392  -125404  -125408  -125408  -125409  -125410  -125412 
 -125419  -125424  -125421  -125413  -125402  -125392  -125388  -125389 
 -125388  -125386  -125388  -125388  -125386  -125383  -125377  -125374 
 -125374  -125370  -125369  -125369  -125363  -125356  -125352  -125348 
 -125344  -125346  -125351  -125352  -125346  -125332  -125320  -125313 
 -125311  -125309  -125313  -125321  -125331  -125340  -125351  -125363 
 -125371  -125378  -125382  -125382  -125382  -125385  -125385  -125382 
 -125379  -125379  -125385  -125390  -125396  -125405  -125419  -125433 
 -125442  -125451  -125460  -125459  -125455  -125451  -125443  -125437 
 -125435  -125431  -125428  -125421  -125415  -125416  -125416  -125410 
 -125402  -125401  -125402  -125397  -125382  -125369  -125363  -125358 
 -125351  -125346  -125336  -125323  -125311  -125302  -125297  -125290 
 -125278  -125262  -125248  -125238  -125224  -125211  -125205  -125205 
 -125199  -125190  -125186  -125180  -125172  -125163  -125154  -125150 
 -125151  -125155  -125161  -125167  -125178  -125189  -125194  -125204 
 -125220  -125235  -125247  -125251  -125255  -125259  -125262  -125262 
 -125265  -125266  -125261  -125258  -125261  -125265  -125265  -125270 
 -125288  -125309  -125329  -125344  -125355  -125371  -125389  -125402 
 -125413  -125424  -125437  -125452  -125463  -125469  -125470  -125467 
 -125463  -125456  -125442  -125429  -125429  -125436  -125446  -125455 
 -125458  -125456  -125454  -125454  -125459  -125471  -125490  -125505 
 -125510  -125512  -125510  -125509  -125510  -125505  -125491  -125479 
 -125474  -125473  -125470  -125467  -125459  -125450  -125446  -125443 
 -125437  -125435  -125428  -125419  -125406  -125385  -125367  -125356 
 -125344  -125331  -125317  -125313  -125309  -125301  -125298  -125297 
 -125288  -125277  -125269  -125261  -125253  -125244  -125235  -125228 
 -125224  -125220  -125216  -125215  -125219  -125227  -125242  -125250 
 -125243  -125231  -125221  -125209  -125201  -125205  -125219  -125232 
 -125244  -125253  -125253  -125250  -125254  -125266  -125288  -125312 
 -125340  -125365  -125379  -125390  -125398  -125401  -125397  -125396 
 -125400  -125402  -125410  -125424  -125435  -125448  -125464  -125475 
 -125486  -125497  -125504  -125506  -125505  -125502  -125500  -125497 
 -125500  -125504  -125497  -125489  -125481  -125469  -125456  -125451 
 -125450  -125450  -125452  -125450  -125451  -125455  -125456  -125456 
 -125458  -125462  -125460  -125451  -125446  -125448  -125454  -125459 
 -125463  -125460  -125455  -125454  -125456  -125458  -125452  -125440 
 -125431  -125419  -125405  -125400  -125396  -125383  -125369  -125348 
 -125338  -125340  -125343  -125339  -125335  -125327  -125315  -125298 
 -125280  -125262  -125251  -125247  -125244  -125235  -125226  -125223 
 -125221  -125224  -125223  -125213  -125204  -125199  -125194  -125199 
 -125211  -125221  -125228  -125235  -125239  -125239  -125242  -125247 
 -125247  -125247  -125250  -125255  -125261  -125263  -125269  -125280 
 -125288  -125297  -125298  -125293  -125292  -125298  -125305  -125309 
 -125312  -125312  -125309  -125311  -125316  -125327  -125343  -125355 
 -125361  -125365  -125367  -125366  -125367  -125366  -125359  -125348 
 -125342  -125339  -125340  -125352  -125367  -125375  -125373  -125363 
 -125355  -125352  -125355  -125365  -125374  -125381  -125389  -125400 
 -125405  -125406  -125405  -125396  -125382  -125378  -125381  -125382 
 -125393  -125413  -125432  -125448  -125463  -125474  -125474  -125469 
 -125462  -125454  -125450  -125450  -125443  -125433  -125429  -125425 
 -125420  -125416  -125413  -125408  -125398  -125392  -125389  -125392 
 -125398  -125405  -125415  -125424  -125427  -125424  -125417  -125410 
 -125412  -125417  -125419  -125419  -125419  -125419  -125420  -125419 
 -125420  -125425  -125424  -125421  -125416  -125400  -125378  -125365 
 -125358  -125355  -125354  -125354  -125348  -125338  -125334  -125331 
 -125321  -125305  -125288  -125275  -125271  -125267  -125262  -125259 
 -125257  -125253  -125248  -125240  -125235  -125243  -125259  -125269 
 -125274  -125277  -125278  -125277  -125271  -125263  -125259  -125261 
 -125261  -125258  -125257  -125254  -125250  -125243  -125234  -125224 
 -125212  -125201  -125197  -125194  -125193  -125196  -125194  -125192 
 -125193  -125193  -125197  -125200  -125204  -125211  -125216  -125216 
 -125219  -125220  -125217  -125221  -125234  -125251  -125266  -125275 
 -125278  -125280  -125282  -125293  -125313  -125336  -125359  -125388 
 -125419  -125442  -125459  -125473  -125474  -125466  -125454  -125444 
 -125437  -125437  -125442  -125446  -125447  -125450  -125454  -125456 
 -125455  -125456  -125459  -125459  -125459  -125462  -125466  -125473 
 -125481  -125483  -125478  -125467  -125458  -125452  -125451  -125458 
 -125471  -125477  -125477  -125475  -125464  -125443  -125427  -125419 
 -125406  -125396  -125396  -125393  -125389  -125392  -125394  -125394 
 -125396  -125393  -125385  -125385  -125386  -125377  -125363  -125350 
 -125343  -125336  -125327  -125317  -125311  -125305  -125304  -125307 
 -125307  -125302  -125294  -125284  -125277  -125275  -125281  -125293 
 -125302  -125307  -125315  -125317  -125309  -125302  -125305  -125308 
 -125309  -125311  -125316  -125323  -125329  -125336  -125347  -125359 
 -125370  -125381  -125396  -125410  -125417  -125415  -125408  -125397 
 -125386  -125382  -125378  -125375  -125377  -125377  -125373  -125369 
 -125369  -125367  -125365  -125359  -125352  -125350  -125346  -125340 
 -125338  -125342  -125344  -125339  -125332  -125328  -125321  -125312 
 -125311  -125319  -125340  -125366  -125382  -125392  -125398  -125402 
 -125405  -125412  -125423  -125431  -125431  -125432  -125437  -125443 
 -125446  -125454  -125466  -125479  -125493  -125504  -125508  -125510 
 -125516  -125524  -125528  -125524  -125518  -125514  -125506  -125497 
 -125493  -125489  -125486  -125485  -125482  -125475  -125470  -125471 
 -125470  -125466  -125458  -125446  -125432  -125420  -125409  -125401 
 -125400  -125393  -125381  -125365  -125346  -125334  -125335  -125346 
 -125359  -125373  -125382  -125379  -125371  -125365  -125359  -125352 
 -125342  -125331  -125321  -125308  -125297  -125296  -125297  -125300 
 -125307  -125309  -125311  -125312  -125315  -125320  -125327  -125335 
 -125346  -125351  -125347  -125347  -125351  -125355  -125355  -125348 
 -125340  -125329  -125316  -125309  -125312  -125317  -125323  -125321 
 -125315  -125315  -125317  -125316  -125317  -125321  -125323  -125325 
 -125329  -125334  -125332  -125329  -125332  -125332  -125328  -125323 
 -125315  -125302  -125294  -125286  -125275  -125270  -125270  -125277 
 -125284  -125290  -125294  -125293  -125285  -125277  -125273  -125270 
 -125263  -125259  -125254  -125239  -125226  -125220  -125221  -125224 
 -125226  -125226  -125226  -125226  -125226  -125228  -125232  -125235 
 -125235  -125232  -125230  -125230  -125234  -125234  -125231  -125231 
 -125236  -125246  -125253  -125255  -125259  -125265  -125269  -125270 
 -125280  -125288  -125290  -125296  -125305  -125317  -125332  -125352 
 -125367  -125371  -125370  -125369  -125373  -125382  -125390  -125396 
 -125401  -125402  -125398  -125393  -125386  -125379  -125377  -125374 
 -125367  -125367  -125371  -125370  -125373  -125381  -125385  -125390 
 -125390  -125383  -125378  -125375  -125379  -125394  -125412  -125425 
 -125436  -125440  -125437  -125432  -125421  -125408  -125402  -125404 
 -125406  -125412  -125421  -125429  -125431  -125428  -125429  -125433 
 -125437  -125439  -125442  -125444  -125442  -125440  -125443  -125447 
 -125450  -125454  -125456  -125458  -125460  -125470  -125479  -125483 
 -125482  -125483  -125487  -125490  -125491  -125487  -125473  -125454 
 -125433  -125423  -125433  -125450  -125452  -125452  -125448  -125440 
 -125431  -125421  -125413  -125402  -125390  -125379  -125374  -125374 
 -125379  -125388  -125393  -125398  -125406  -125416  -125413  -125405 
 -125406  -125412  -125410  -125412  -125416  -125415  -125406  -125400 
 -125398  -125396  -125390  -125382  -125379  -125381  -125378  -125363 
 -125343  -125331  -125319  -125307  -125298  -125289  -125280  -125271 
 -125263  -125257  -125253  -125253  -125250  -125246  -125243  -125239 
 -125234  -125228  -125227  -125230  -125228  -125226  -125224  -125221 
 -125224  -125234  -125246  -125258  -125266  -125261  -125250  -125243 
 -125240  -125239  -125240  -125242  -125242  -125243  -125243  -125242 
 -125240  -125236  -125230  -125226  -125221  -125212  -125203  -125194 
 -125186  -125184  -125190  -125197  -125199  -125205  -125216  -125223 
 -125227  -125234  -125240  -125246  -125251  -125255  -125261  -125271 
 -125282  -125292  -125302  -125315  -125324  -125338  -125358  -125379 
 -125400  -125417  -125431  -125437  -125452  -125467  -125469  -125469 
 -125474  -125481  -125494  -125506  -125513  -125523  -125531  -125531 
 -125531  -125531  -125532  -125535  -125532  -125527  -125520  -125512 
 -125510  -125513  -125513  -125514  -125520  -125523  -125523  -125524 
 -125521  -125510  -125497  -125483  -125479  -125479  -125479  -125479 
 -125481  -125478  -125475  -125474  -125471  -125467  -125463  -125456 
 -125454  -125458  -125467  -125473  -125470  -125460  -125450  -125437 
 -125427  -125417  -125406  -125396  -125385  -125378  -125375  -125373 
 -125370  -125367  -125366  -125369  -125375  -125373  -125363  -125358 
 -125348  -125332  -125324  -125321  -125319  -125316  -125315  -125311 
 -125305  -125290  -125271  -125254  -125246  -125242  -125235  -125220 
 -125201  -125188  -125180  -125176  -125173  -125167  -125165  -125166 
 -125163  -125155  -125147  -125142  -125140  -125138  -125130  -125116 
 -125105  -125099  -125099  -125100  -125099  -125093  -125082  -125072 
 -125068  -125072  -125080  -125092  -125105  -125116  -125126  -125131 
 -125139  -125149  -125161  -125181  -125200  -125212  -125224  -125235 
 -125240  -125251  -125274  -125300  -125321  -125339  -125356  -125370 
 -125383  -125404  -125428  -125450  -125471  -125493  -125506  -125514 
 -125528  -125548  -125568  -125581  -125586  -125585  -125582  -125574 
 -125566  -125566  -125568  -125567  -125568  -125571  -125562  -125552 
 -125554  -125562  -125571  -125583  -125598  -125616  -125629  -125636 
 -125640  -125645  -125649  -125649  -125651  -125653  -125656  -125666 
 -125679  -125687  -125693  -125698  -125699  -125699  -125706  -125710 
 -125706  -125699  -125685  -125660  -125641  -125620  -125597  -125581 
 -125570  -125559  -125543  -125524  -125504  -125482  -125460  -125437 
 -125417  -125401  -125385  -125373  -125361  -125339  -125307  -125270 
 -125234  -125200  -125172  -125140  -125104  -125066  -125028  -124993 
 -124969  -124960  -124958  -124956  -124949  -124938  -124919  -124900 
 -124885  -124869  -124852  -124834  -124819  -124818  -124825  -124825 
 -124825  -124830  -124835  -124845  -124868  -124891  -124904  -124912 
 -124919  -124926  -124931  -124942  -124962  -124985  -125012  -125041 
 -125066  -125093  -125123  -125153  -125188  -125221  -125250  -125282 
 -125311  -125329  -125350  -125374  -125400  -125424  -125446  -125471 
 -125504  -125532  -125555  -125577  -125601  -125624  -125643  -125662 
 -125686  -125713  -125729  -125734  -125733  -125730  -125730  -125734 
 -125739  -125739  -125730  -125720  -125705  -125680  -125653  -125640 
 -125635  -125631  -125626  -125620  -125618  -125622  -125624  -125628 
 -125639  -125651  -125655  -125649  -125643  -125636  -125624  -125613 
 -125605  -125593  -125579  -125568  -125558  -125545  -125529  -125510 
 -125496  -125485  -125482  -125481  -125481  -125474  -125455  -125428 
 -125394  -125366  -125348  -125335  -125316  -125292  -125267  -125244 
 -125227  -125216  -125204  -125186  -125174  -125163  -125151  -125138 
 -125120  -125096  -125070  -125046  -125016  -124980  -124954  -124942 
 -124934  -124926  -124919  -124918  -124916  -124914  -124912  -124914 
 -124911  -124906  -124900  -124902  -124907  -124916  -124930  -124950 
 -124976  -125000  -125024  -125054  -125092  -125134  -125170  -125200 
 -125238  -125282  -125321  -125352  -125377  -125393  -125410  -125433 
 -125464  -125502  -125539  -125575  -125613  -125645  -125675  -125705 
 -125733  -125756  -125774  -125787  -125797  -125799  -125810  -125830 
 -125848  -125863  -125875  -125884  -125891  -125890  -125875  -125853 
 -125833  -125806  -125770  -125733  -125702  -125668  -125633  -125593 
 -125548  -125510  -125483  -125463  -125443  -125420  -125398  -125373 
 -125342  -125308  -125282  -125266  -125251  -125234  -125221  -125216 
 -125212  -125212  -125213  -125209  -125203  -125196  -125192  -125194 
 -125193  -125185  -125180  -125181  -125178  -125170  -125155  -125140 
 -125132  -125130  -125124  -125126  -125132  -125136  -125138  -125140 
 -125140  -125147  -125162  -125177  -125194  -125212  -125220  -125230 
 -125253  -125280  -125305  -125325  -125343  -125366  -125390  -125415 
 -125446  -125477  -125497  -125514  -125533  -125551  -125568  -125587 
 -125604  -125620  -125637  -125644  -125647  -125653  -125662  -125663 
 -125664  -125659  -125655  -125651  -125636  -125617  -125601  -125583 
 -125571  -125566  -125563  -125556  -125544  -125528  -125504  -125474 
 -125446  -125417  -125386  -125356  -125335  -125319  -125298  -125267 
 -125230  -125193  -125161  -125131  -125107  -125088  -125069  -125039 
 -125000  -124961  -124929  -124904  -124888  -124876  -124868  -124866 
 -124872  -124881  -124889  -124897  -124902  -124907  -124914  -124920 
 -124934  -124945  -124947  -124957  -124972  -124980  -124992  -125010 
 -125035  -125070  -125101  -125122  -125149  -125192  -125242  -125285 
 -125315  -125334  -125350  -125369  -125390  -125409  -125425  -125442 
 -125459  -125474  -125478  -125486  -125502  -125517  -125529  -125541 
 -125552  -125568  -125591  -125610  -125624  -125640  -125662  -125678 
 -125686  -125687  -125683  -125675  -125675  -125682  -125689  -125702 
 -125721  -125737  -125751  -125763  -125776  -125786  -125784  -125780 
 -125772  -125757  -125743  -125721  -125694  -125671  -125647  -125621 
 -125608  -125608  -125613  -125613  -125605  -125591  -125579  -125567 
 -125554  -125541  -125540  -125545  -125554  -125562  -125564  -125562 
 -125554  -125540  -125525  -125512  -125493  -125474  -125462  -125447 
 -125431  -125413  -125393  -125374  -125362  -125343  -125321  -125301 
 -125281  -125257  -125228  -125197  -125172  -125145  -125112  -125085 
 -125062  -125038  -125018  -125005  -124997  -124999  -125001  -124999 
 -124993  -124985  -124969  -124950  -124941  -124938  -124935  -124931 
 -124931  -124926  -124918  -124919  -124929  -124937  -124942  -124951 
 -124969  -124985  -124997  -125014  -125028  -125043  -125074  -125105 
 -125127  -125146  -125159  -125170  -125182  -125194  -125209  -125230 
 -125251  -125262  -125274  -125300  -125327  -125350  -125370  -125388 
 -125394  -125393  -125396  -125398  -125398  -125404  -125416  -125427 
 -125439  -125452  -125466  -125483  -125500  -125510  -125521  -125532 
 -125540  -125543  -125544  -125547  -125545  -125543  -125548  -125564 
 -125583  -125585  -125572  -125566  -125562  -125554  -125550  -125552 
 -125554  -125551  -125544  -125531  -125514  -125502  -125491  -125487 
 -125487  -125485  -125485  -125486  -125477  -125462  -125448  -125435 
 -125417  -125394  -125377  -125363  -125348  -125334  -125327  -125317 
 -125301  -125289  -125282  -125278  -125271  -125259  -125250  -125244 
 -125239  -125240  -125242  -125244  -125253  -125269  -125284  -125294 
 -125307  -125325  -125342  -125355  -125369  -125381  -125386  -125389 
 -125394  -125401  -125406  -125406  -125406  -125410  -125408  -125404 
 -125402  -125401  -125397  -125392  -125382  -125375  -125374  -125374 
 -125371  -125370  -125369  -125371  -125381  -125396  -125406  -125416 
 -125425  -125432  -125429  -125420  -125408  -125393  -125382  -125377 
 -125373  -125374  -125379  -125378  -125370  -125359  -125346  -125332 
 -125325  -125323  -125321  -125325  -125334  -125334  -125327  -125315 
 -125305  -125304  -125308  -125313  -125313  -125308  -125311  -125315 
 -125315  -125316  -125319  -125320  -125325  -125338  -125350  -125362 
 -125378  -125390  -125397  -125408  -125420  -125423  -125423  -125421 
 -125419  -125415  -125410  -125400  -125386  -125371  -125369  -125377 
 -125383  -125386  -125393  -125396  -125386  -125363  -125343  -125332 
 -125321  -125316  -125315  -125305  -125292  -125284  -125271  -125261 
 -125257  -125255  -125254  -125250  -125247  -125246  -125238  -125223 
 -125217  -125224  -125236  -125243  -125247  -125253  -125261  -125269 
