Origin Time       2024/04/02 04:24:00
Lat.              40.133
Long.             141.712
Depth. (km)       71
Mag.              6.0
Station Code      FKSH18
Station Lat.      37.4894
Station Long.     140.5380
Station Height(m) 310
Record Time       2024/04/02 04:25:21
Sampling Freq(Hz) 100Hz
Duration Time(s)  120
Dir.              2
Scale Factor      3923(gal)/8224838
Max. Acc. (gal)   0.748
Last Correction   2024/04/02 04:25:21
Memo.             
[...]
   -7018    -7159    -7253    -7144    -7045    -7148    -7245    -7207 
   -7188    -7209    -7177    -7144    -7092    -7024    -7052    -7088 
   -7020    -6998    -7041    -7033    -7024    -7060    -7101    -7079 
   -7002    -7044    -7183    -7191    -7137    -7138    -7102    -7106 
   -7257    -7330    -7176    -7022    -7069    -7187    -7200    -7225 
   -7338    -7352    -7245    -7145    -7052    -7015    -7088    -7157 
   -7130    -7111    -7161    -7207    -7268    -7308    -7256    -7221 
   -7225    -7153    -7088    -7119    -7184    -7244    -7246    -7211 
   -7233    -7227    -7092    -6944    -6913    -6948    -6972    -7014 
   -7086    -7113    -7056    -7014    -7048    -7055    -7067    -7200 
   -7272    -7168    -7136    -7218    -7163    -7022    -7042    -7144 
   -7183    -7214    -7177    -7026    -6990    -7121    -7167    -7119 
   -7215    -7339    -7207    -6999    -7049    -7223    -7214    -7067 
   -6994    -7025    -7056    -7041    -7018    -7034    -7095    -7167 
   -7183    -7163    -7217    -7283    -7198    -7068    -7115    -7258 
   -7272    -7222    -7281    -7342    -7311    -7244    -7144    -7096 
   -7200    -7290    -7252    -7257    -7333    -7308    -7202    -7192 
   -7280    -7311    -7275    -7290    -7318    -7285    -7279    -7364 
   -7399    -7277    -7196    -7303    -7404    -7360    -7290    -7308 
   -7372    -7354    -7267    -7236    -7263    -7249    -7199    -7175 
   -7199    -7275    -7314    -7223    -7126    -7125    -7092    -6993 
   -7053    -7267    -7318    -7184    -7134    -7188    -7163    -7067 
   -7061    -7156    -7203    -7176    -7187    -7196    -7072    -6953 
   -6972    -7006    -7063    -7175    -7175    -7119    -7150    -7145 
   -7082    -7109    -7159    -7074    -6990    -7086    -7187    -7114 
   -7020    -7078    -7203    -7241    -7200    -7187    -7245    -7273 
   -7191    -7123    -7175    -7161    -7041    -7013    -7026    -7036 
   -7145    -7161    -7017    -7015    -7071    -6948    -6889    -6987 
   -6980    -6913    -6983    -7040    -6956    -6941    -7065    -7157 
   -7132    -7051    -7036    -7088    -7091    -7088    -7171    -7244 
   -7207    -7122    -7076    -7078    -7096    -7173    -7310    -7326 
   -7173    -7074    -7094    -7129    -7196    -7277    -7244    -7204 
   -7284    -7248    -7072    -7040    -7132    -7164    -7145    -7150 
   -7172    -7140    -7048    -7002    -7074    -7156    -7134    -7107 
   -7184    -7254    -7222    -7202    -7257    -7258    -7211    -7241 
   -7280    -7285    -7296    -7225    -7164    -7211    -7180    -7113 
   -7145    -7123    -6994    -6947    -7044    -7083    -7005    -6994 
   -7040    -7068    -7160    -7223    -7142    -7110    -7198    -7222 
   -7198    -7265    -7326    -7252    -7133    -7101    -7148    -7129 
   -7017    -6988    -7056    -7064    -7075    -7184    -7199    -7040 
   -6972    -7059    -7095    -7099    -7126    -7138    -7167    -7128 
   -7037    -7102    -7183    -7109    -7099    -7221    -7252    -7200 
   -7211    -7175    -7011    -6939    -7048    -7137    -7101    -7041 
   -7055    -7107    -7094    -7052    -7098    -7188    -7264    -7322 
   -7315    -7249    -7155    -7069    -7057    -7119    -7210    -7283 
   -7338    -7356    -7318    -7307    -7296    -7222    -7184    -7165 
   -7117    -7107    -7138    -7213    -7203    -7065    -7042    -7117 
   -7123    -7141    -7207    -7276    -7277    -7211    -7194    -7242 
   -7308    -7348    -7304    -7186    -7075    -7067    -7122    -7173 
   -7188    -7119    -7036    -7034    -7026    -6966    -6967    -7061 
   -7155    -7217    -7238    -7204    -7192    -7222    -7229    -7254 
   -7296    -7268    -7276    -7330    -7227    -7109    -7225    -7300 
   -7105    -6957    -7021    -7087    -7159    -7238    -7155    -7020 
   -7025    -7080    -7030    -6961    -7053    -7167    -7122    -7074 
   -7072    -7038    -7041    -7114    -7218    -7284    -7237    -7230 
   -7352    -7335    -7184    -7206    -7281    -7177    -7088    -7096 
   -7029    -7011    -7171    -7285    -7226    -7145    -7180    -7252 
   -7207    -7115    -7136    -7204    -7155    -7042    -7064    -7190 
   -7199    -7114    -7126    -7209    -7275    -7337    -7341    -7260 
   -7219    -7244    -7214    -7101    -7006    -6974    -6974    -7013 
   -7099    -7136    -7068    -7029    -7063    -7059    -7047    -7110 
   -7173    -7129    -7075    -7141    -7204    -7190    -7210    -7211 
   -7137    -7177    -7341    -7358    -7152    -7013    -7117    -7202 
   -7106    -7036    -7087    -7191    -7267    -7225    -7091    -7009 
   -7074    -7169    -7122    -7060    -7087    -7082    -7057    -7067 
   -7098    -7164    -7182    -7121    -7056    -7014    -7001    -6957 
   -6912    -7024    -7160    -7134    -7149    -7196    -7063    -6982 
   -7101    -7169    -7164    -7250    -7325    -7202    -7094    -7196 
   -7246    -7179    -7183    -7156    -7076    -7099    -7142    -7110 
   -7132    -7265    -7337    -7253    -7148    -7111    -7123    -7184 
   -7298    -7368    -7323    -7307    -7364    -7331    -7265    -7261 
   -7223    -7188    -7194    -7198    -7256    -7295    -7226    -7186 
   -7218    -7241    -7248    -7246    -7214    -7132    -7079    -7133 
   -7240    -7288    -7226    -7152    -7129    -7090    -7109    -7203 
   -7214    -7161    -7123    -7084    -7064    -7017    -6953    -6982 
   -7025    -6997    -7006    -7052    -7057    -7036    -7001    -6964 
   -6912    -6853    -6837    -6885    -6963    -6956    -6913    -7017 
   -7153    -7146    -7096    -7114    -7204    -7292    -7302    -7281 
   -7303    -7323    -7292    -7329    -7430    -7418    -7353    -7314 
   -7161    -7007    -7044    -7119    -7098    -7096    -7132    -7084 
   -7076    -7300    -7500    -7415    -7294    -7273    -7238    -7279 
   -7398    -7391    -7303    -7327    -7402    -7398    -7389    -7384 
   -7258    -7122    -7149    -7196    -7092    -7006    -7056    -7087 
   -7071    -7061    -6976    -6960    -7150    -7207    -7001    -6943 
   -7107    -7113    -6936    -6876    -6933    -6944    -6936    -6952 
   -6963    -7005    -7114    -7126    -6951    -6817    -6872    -6993 
   -7065    -7051    -6972    -6963    -7060    -7132    -7106    -7094 
   -7180    -7195    -7084    -7083    -7226    -7295    -7210    -7095 
   -7111    -7209    -7202    -7136    -7157    -7194    -7113    -7025 
   -7051    -7109    -7172    -7229    -7182    -7145    -7209    -7246 
   -7273    -7321    -7330    -7350    -7372    -7329    -7254    -7234 
   -7245    -7200    -7175    -7132    -6974    -6952    -7168    -7334 
   -7303    -7149    -7020    -7024    -7106    -7137    -7152    -7273 
   -7404    -7392    -7292    -7248    -7292    -7345    -7349    -7261 
   -7134    -7141    -7219    -7168    -7133    -7253    -7310    -7207 
   -7075    -6959    -6905    -7002    -7160    -7225    -7238    -7223 
   -7138    -7111    -7159    -7150    -7163    -7263    -7300    -7213 
   -7141    -7164    -7110    -6976    -6991    -7072    -7033    -7009 
   -7040    -6993    -6975    -7076    -7092    -7006    -7026    -7090 
   -7014    -6970    -7126    -7219    -7156    -7161    -7207    -7210 
   -7209    -7159    -7072    -7015    -7048    -7173    -7217    -7160 
   -7217    -7290    -7191    -7118    -7172    -7177    -7129    -7123 
   -7115    -7057    -7037    -7115    -7200    -7207    -7206    -7218 
   -7152    -7060    -7047    -7101    -7128    -7072    -7069    -7153 
   -7142    -7080    -7171    -7318    -7306    -7219    -7194    -7105 
   -6995    -7071    -7195    -7233    -7329    -7419    -7349    -7321 
   -7408    -7356    -7219    -7249    -7296    -7211    -7168    -7221 
   -7221    -7157    -7122    -7165    -7246    -7211    -7111    -7122 
   -7161    -7137    -7099    -7091    -7137    -7172    -7171    -7227 
   -7271    -7226    -7230    -7263    -7191    -7088    -7071    -7095 
   -7067    -7053    -7172    -7295    -7229    -7038    -6922    -6951 
   -7028    -7037    -7028    -7084    -7063    -6905    -6832    -6912 
   -6988    -7028    -7095    -7164    -7190    -7198    -7214    -7194 
   -7121    -7095    -7148    -7157    -7144    -7146    -7069    -7011 
   -7101    -7144    -7007    -6918    -6983    -6990    -6916    -6940 
   -6994    -6970    -6997    -7025    -6918    -6916    -7105    -7184 
   -7173    -7276    -7345    -7272    -7221    -7217    -7225    -7268 
   -7298    -7284    -7268    -7272    -7311    -7346    -7333    -7271 
   -7209    -7244    -7372    -7443    -7375    -7288    -7290    -7256 
   -7137    -7128    -7233    -7303    -7361    -7415    -7392    -7319 
   -7249    -7231    -7256    -7199    -7109    -7169    -7253    -7140 
   -6971    -6979    -7061    -6997    -6876    -6934    -7065    -7026 
   -6948    -7040    -7117    -7002    -6880    -6866    -6937    -7123 
   -7273    -7227    -7150    -7183    -7226    -7237    -7207    -7122 
   -7086    -7091    -7049    -7040    -7129    -7184    -7094    -6983 
   -7001    -7088    -7176    -7252    -7291    -7318    -7348    -7356 
   -7330    -7248    -7200    -7273    -7314    -7237    -7202    -7258 
   -7267    -7209    -7231    -7300    -7237    -7141    -7194    -7252 
   -7195    -7171    -7187    -7076    -6913    -6906    -6972    -6967 
   -7052    -7267    -7337    -7171    -7005    -7006    -7072    -7084 
   -7086    -7122    -7155    -7129    -7030    -6978    -7042    -7057 
   -6986    -7036    -7164    -7172    -7107    -7059    -6998    -6970 
   -7028    -7083    -7055    -7047    -7141    -7180    -7105    -7110 
   -7209    -7248    -7234    -7223    -7252    -7307    -7304    -7288 
   -7337    -7362    -7303    -7241    -7231    -7209    -7142    -7137 
   -7240    -7296    -7199    -7095    -7092    -7155    -7280    -7380 
   -7364    -7346    -7381    -7357    -7230    -7105    -7109    -7157 
   -7082    -6995    -7061    -7109    -7020    -6999    -7044    -7017 
   -7051    -7142    -7134    -7096    -7128    -7159    -7126    -7067 
   -6975    -6906    -6997    -7156    -7241    -7272    -7204    -7063 
   -6998    -7013    -7038    -7047    -7014    -6939    -6867    -6918 
   -7083    -7179    -7176    -7160    -7121    -7029    -6995    -7102 
   -7240    -7300    -7249    -7090    -7002    -7078    -7134    -7126 
   -7167    -7267    -7338    -7277    -7163    -7171    -7200    -7168 
   -7260    -7441    -7435    -7325    -7331    -7291    -7161    -7215 
   -7360    -7304    -7176    -7159    -7140    -7107    -7161    -7188 
   -7137    -7163    -7219    -7210    -7253    -7306    -7290    -7361 
   -7433    -7315    -7258    -7453    -7577    -7395    -7190    -7163 
   -7095    -6957    -6987    -7126    -7119    -6982    -6889    -6887 
   -6956    -7083    -7194    -7176    -7064    -7082    -7218    -7237 
   -7172    -7125    -7076    -7180    -7381    -7364    -7214    -7237 
   -7377    -7376    -7206    -7084    -7069    -7029    -6961    -6941 
   -6982    -7061    -7115    -7117    -7101    -7114    -7171    -7194 
   -7173    -7211    -7214    -7171    -7294    -7392    -7272    -7238 
   -7304    -7238    -7172    -7196    -7180    -7137    -7187    -7268 
   -7163    -6991    -7011    -7013    -6932    -7060    -7217    -7144 
   -7064    -7072    -7044    -7067    -7163    -7113    -6951    -6976 
   -7076    -6940    -6822    -6959    -7036    -6984    -6993    -6914 
   -6777    -6836    -6895    -6795    -6840    -6972    -6833    -6621 
   -6656    -6737    -6702    -6710    -6745    -6669    -6602    -6674 
   -6718    -6647    -6652    -6790    -6922    -7015    -7074    -7049 
   -6959    -6849    -6844    -6967    -6945    -6767    -6700    -6660 
   -6535    -6554    -6778    -6875    -6724    -6679    -6874    -6975 
   -6940    -7010    -7113    -7092    -7017    -6983    -7044    -7219 
   -7411    -7472    -7453    -7473    -7500    -7472    -7429    -7500 
   -7638    -7651    -7634    -7730    -7789    -7711    -7597    -7577 
   -7711    -7821    -7751    -7677    -7686    -7611    -7466    -7497 
   -7708    -7867    -7959    -8079    -8113    -8037    -8031    -8086 
   -8048    -7924    -7850    -7838    -7769    -7636    -7503    -7371 
   -7249    -7206    -7253    -7292    -7291    -7346    -7468    -7577 
   -7661    -7723    -7807    -7919    -7909    -7824    -7834    -7757 
   -7477    -7245    -7148    -7045    -6956    -6944    -6967    -6993 
   -6998    -7061    -7214    -7296    -7252    -7129    -6939    -6798 
   -6787    -6743    -6631    -6648    -6740    -6724    -6720    -6822 
   -6934    -6991    -6982    -7003    -7061    -6964    -6771    -6713 
   -6693    -6502    -6276    -6174    -6091    -6042    -6238    -6563 
   -6663    -6556    -6585    -6700    -6682    -6847    -7376    -7735 
   -7673    -7636    -7820    -7997    -8017    -7871    -7653    -7456 
   -7273    -7140    -7076    -7032    -6976    -6933    -6953    -7086 
   -7312    -7568    -7713    -7585    -7236    -6889    -6613    -6367 
   -6142    -5973    -5969    -6147    -6373    -6583    -6759    -6839 
   -6812    -6685    -6474    -6396    -6540    -6624    -6613    -6743 
   -6937    -7024    -7096    -7283    -7427    -7366    -7302    -7284 
   -7094    -6782    -6589    -6686    -6995    -7246    -7396    -7429 
   -7298    -7222    -7344    -7636    -8008    -8183    -8125    -8100 
   -8059    -7858    -7689    -7672    -7676    -7803    -8244    -8704 
   -8718    -8297    -7732    -7265    -7024    -6970    -7045    -7245 
   -7524    -7782    -7867    -7712    -7427    -7173    -7022    -6929 
   -6860    -6809    -6717    -6592    -6524    -6471    -6401    -6436 
   -6631    -6856    -6967    -7034    -7150    -7149    -6925    -6648 
   -6569    -6801    -7198    -7493    -7677    -7881    -7965    -7755 
   -7473    -7250    -6976    -6785    -6727    -6602    -6529    -6689 
   -6871    -6960    -7145    -7398    -7492    -7489    -7554    -7622 
   -7631    -7692    -7732    -7632    -7533    -7553    -7620    -7609 
   -7418    -7119    -6917    -6855    -6687    -6318    -6088    -6089 
   -6016    -5934    -6045    -6181    -6274    -6420    -6502    -6462 
   -6461    -6523    -6562    -6650    -6822    -6955    -7132    -7438 
   -7605    -7673    -7894    -7993    -7759    -7524    -7453    -7396 
   -7288    -7214    -7163    -7020    -6902    -6901    -6944    -7090 
   -7312    -7539    -7765    -7801    -7654    -7584    -7655    -7815 
   -8027    -8186    -8220    -8114    -7902    -7724    -7643    -7562 
   -7427    -7169    -6847    -6727    -6762    -6720    -6670    -6714 
   -6716    -6563    -6470    -6608    -6771    -6775    -6608    -6324 
   -6169    -6207    -6253    -6419    -6756    -6984    -7106    -7263 
   -7288    -7090    -6845    -6685    -6682    -6889    -7055    -6966 
   -6824    -6754    -6675    -6554    -6465    -6627    -6901    -6929 
   -6907    -7065    -7125    -6979    -6921    -7048    -7130    -7106 
   -7229    -7542    -7803    -7994    -8166    -8118    -7753    -7244 
   -6872    -6845    -7083    -7268    -7210    -6990    -6768    -6687 
   -6791    -6894    -6993    -7257    -7501    -7600    -7692    -7797 
   -7942    -8050    -7992    -7869    -7746    -7704    -7862    -8056 
   -8093    -8021    -7927    -7692    -7284    -7017    -7017    -7092 
   -7182    -7215    -7065    -6889    -6856    -6829    -6717    -6608 
   -6555    -6563    -6647    -6783    -6891    -7078    -7416    -7607 
   -7492    -7318    -7275    -7260    -7122    -7003    -7060    -7121 
   -7076    -7040    -6978    -6805    -6701    -6793    -6894    -6880 
   -6890    -6984    -7071    -7129    -7248    -7450    -7591    -7576 
   -7531    -7557    -7574    -7497    -7396    -7261    -7032    -6995 
   -7276    -7449    -7365    -7314    -7402    -7535    -7611    -7577 
   -7480    -7445    -7541    -7672    -7720    -7634    -7419    -7184 
   -6975    -6735    -6620    -6739    -6781    -6544    -6245    -6103 
   -6012    -5849    -5965    -6501    -6910    -7032    -7144    -7254 
   -7298    -7207    -7025    -7003    -7125    -7129    -7037    -7030 
   -6978    -6817    -6851    -6983    -6812    -6621    -6839    -7084 
   -7010    -6879    -6836    -6882    -7138    -7419    -7441    -7404 
   -7569    -7690    -7551    -7358    -7333    -7419    -7462    -7518 
   -7653    -7701    -7655    -7630    -7468    -7190    -7053    -6970 
   -6835    -6906    -7157    -7226    -7114    -7065    -7118    -7222 
   -7377    -7520    -7500    -7308    -7184    -7210    -7271    -7341 
   -7384    -7389    -7314    -7126    -7069    -7219    -7315    -7265 
   -7184    -7222    -7357    -7427    -7493    -7572    -7531    -7435 
   -7377    -7317    -7105    -6782    -6798    -7171    -7314    -7142 
   -6995    -6953    -6960    -6994    -7051    -7169    -7339    -7449 
   -7302    -6891    -6609    -6687    -6798    -6656    -6448    -6407 
   -6550    -6833    -7069    -7025    -6825    -6764    -6907    -7102 
   -7145    -7103    -7159    -7183    -7129    -7153    -7167    -7128 
   -7128    -7091    -7067    -7088    -7030    -7026    -7125    -7187 
   -7325    -7479    -7512    -7593    -7627    -7458    -7408    -7558 
   -7578    -7520    -7626    -7626    -7257    -6948    -7056    -7237 
   -7163    -6947    -6793    -6787    -6906    -7060    -7071    -6944 
   -6974    -7172    -7294    -7465    -7800    -7900    -7605    -7342 
   -7362    -7460    -7479    -7515    -7477    -7223    -7005    -6972 
   -6875    -6642    -6551    -6658    -6604    -6448    -6656    -7015 
   -7087    -7105    -7308    -7472    -7420    -7365    -7614    -7950 
   -7858    -7447    -7186    -7157    -7173    -7057    -6928    -7014 
   -7106    -6956    -6791    -6775    -6771    -6781    -6921    -7107 
   -7146    -7134    -7356    -7642    -7604    -7365    -7261    -7291 
   -7245    -7096    -7068    -7156    -7065    -6868    -6891    -6928 
   -6615    -6326    -6500    -6763    -6831    -6959    -7187    -7366 
   -7460    -7492    -7576    -7634    -7423    -7045    -6848    -6817 
   -6615    -6384    -6528    -6787    -6737    -6550    -6552    -6858 
   -7281    -7472    -7379    -7299    -7379    -7348    -7102    -7061 
   -7348    -7531    -7439    -7272    -7308    -7609    -7761    -7565 
   -7345    -7194    -7119    -7240    -7306    -7213    -7227    -7221 
   -7076    -7079    -7153    -7061    -6967    -6982    -7007    -7051 
   -7168    -7334    -7335    -7092    -6933    -7001    -6993    -6913 
   -7034    -7188    -7051    -6829    -6891    -7113    -7226    -7384 
   -7669    -7766    -7693    -7689    -7491    -7053    -6975    -7260 
   -7230    -6924    -6836    -6872    -6856    -6972    -7233    -7418 
   -7472    -7516    -7628    -7784    -7858    -7677    -7388    -7272 
   -7115    -6810    -6748    -6912    -7018    -7258    -7623    -7665 
   -7380    -7133    -6991    -6964    -7202    -7461    -7375    -7213 
   -7303    -7357    -7173    -7045    -7082    -7001    -6774    -6683 
   -6745    -6760    -6687    -6662    -6731    -6704    -6601    -6743 
   -7069    -7249    -7249    -7060    -6716    -6604    -6794    -6825 
   -6740    -6937    -7268    -7435    -7354    -7072    -6922    -7136 
   -7446    -7454    -7160    -6945    -6967    -7014    -7115    -7391 
