Origin Time       2024/04/02 04:24:00
Lat.              40.133
Long.             141.712
Depth. (km)       71
Mag.              6.0
Station Code      FKSH09
Station Lat.      37.3530
Station Long.     140.4264
Station Height(m) 60
Record Time       2024/04/02 04:25:35
Sampling Freq(Hz) 100Hz
Duration Time(s)  120
Dir.              1
Scale Factor      2942(gal)/8224139
Max. Acc. (gal)   0.598
Last Correction   2024/04/02 04:25:36
Memo.             
[...]
  141720   141524   141328   141319   141392   141544   141655   141588 
  141539   141520   141432   141461   141531   141470   141415   141447 
  141538   141593   141610   141694   141627   141457   141519   141517 
  141322   141319   141481   141588   141551   141378   141281   141326 
  141389   141454   141508   141559   141629   141609   141453   141304 
  141231   141280   141475   141567   141467   141396   141427   141550 
  141685   141772   141786   141602   141504   141714   141805   141728 
  141778   141845   141825   141747   141743   141855   141809   141616 
  141505   141430   141373   141436   141624   141760   141697   141575 
  141507   141396   141265   141272   141430   141577   141643   141627 
  141477   141354   141388   141376   141293   141257   141220   141258 
  141365   141400   141432   141462   141393   141315   141280   141255 
  141227   141174   141139   141238   141369   141305   141237   141336 
  141323   141280   141403   141312   141072   141079   141031   140913 
  141072   141276   141382   141497   141563   141624   141658   141605 
  141525   141404   141351   141454   141420   141241   141261   141331 
  141232   141295   141555   141608   141548   141662   141735   141612 
  141513   141519   141424   141301   141359   141349   141173   141172 
  141322   141363   141361   141412   141394   141309   141278   141268 
  141247   141288   141299   141141   141058   141316   141664   141886 
  142069   142109   141952   141832   141696   141501   141486   141512 
  141461   141583   141791   141887   142059   142276   142277   142175 
  142182   142295   142391   142329   142257   142307   142322   142371 
  142605   142819   142835   142909   143132   143108   142920   142878 
  142681   142344   142272   142369   142338   142252   142350   142479 
  142350   142167   142186   142335   142400   142167   141864   141901 
  142042   141899   141573   141365   141500   141805   141851   141655 
  141485   141345   141099   140792   140560   140398   140394   140671 
  141021   141208   141257   141234   141145   141038   141018   140992 
  140921   140896   140742   140582   140641   140474   140124   140232 
  140556   140556   140410   140448   140624   140815   141115   141535 
  141828   141912   141831   141554   141241   141085   141065   141080 
  141081   141161   141403   141762   142119   142199   142079   142171 
  142398   142423   142079   141527   141262   141386   141585   141674 
  141663   141797   142115   142334   142545   142825   142788   142369 
  141917   141542   141210   141052   141119   141242   141365   141532 
  141723   141930   142137   142195   142006   141774   141594   141300 
  141045   141154   141554   141880   141851   141562   141405   141543 
  141809   142033   142096   141951   141837   142022   142250   142186 
  141979   141728   141399   141172   141110   141162   141257   141309 
  141443   141667   141795   141728   141502   141381   141505   141647 
  141648   141516   141330   141214   141156   141237   141475   141521 
  141424   141431   141324   141253   141442   141509   141365   141296 
  141338   141359   141335   141374   141403   141399   141686   142145 
  142257   142003   141725   141575   141490   141338   141041   140799 
  140871   141004   141016   141222   141691   142191   142454   142396 
  142271   142005   141439   141076   141174   141273   141141   140969 
  140953   141095   141178   141247   141551   141894   141991   141944 
  141858   141705   141474   141282   141285   141367   141365   141280 
  141131   141006   141037   141218   141469   141681   141685   141571 
  141681   141937   141902   141531   141253   141409   141808   142098 
  142307   142480   142452   142334   142354   142254   141925   141689 
  141467   141366   141790   142396   142774   142996   142982   142739 
  142493   142334   142244   142123   141937   141894   142001   142009 
  141975   141998   142017   141991   141837   141728   141801   141831 
  141921   142034   141740   141427   141505   141355   140705   140154 
  140026   140247   140810   141454   141604   141203   140838   140856 
  140981   140923   140906   140987   140832   140749   141095   141403 
  141435   141264   140817   140447   140503   140726   140890   140914 
  140710   140491   140409   140402   140501   140701   141057   141501 
  141777   141922   141937   141771   141652   141555   141392   141303 
  141095   140751   140729   140845   140746   140818   141153   141405 
  141585   141754   141709   141245   140597   140269   140350   140682 
  141119   141369   141481   141879   142294   142080   141365   140725 
  140499   140738   141164   141412   141540   141679   141697   141633 
  141539   141471   141804   142308   142364   142242   142236   142042 
  141887   142083   142249   142207   142187   142165   142145   142213 
  142167   141955   141921   142119   142242   142380   142754   142946 
  142680   142457   142542   142736   142906   142816   142425   142150 
  142007   141775   141708   141859   141926   141816   141600   141430 
  141346   141315   141384   141345   141235   141544   142068   142221 
  142024   141555   140977   140859   141201   141523   141714   141729 
  141616   141559   141521   141461   141264   140825   140567   140814 
  141255   141554   141647   141602   141565   141505   141293   141034 
  141033   141384   141725   141878   142074   142264   142244   142071 
  141963   142034   142105   141844   141232   140746   140790   141153 
  141462   141579   141543   141613   142026   142526   142538   142051 
  141741   141724   141624   141729   142115   142275   142303   142434 
  142322   141828   141428   141515   141793   141866   141752   141512 
  141211   141056   141038   140969   141031   141403   141535   141280 
  141339   141484   141177   141184   141685   141596   141002   140771 
  140717   140589   140584   140594   140570   140601   140670   140930 
  141193   141088   141087   141238   140983   140958   141389   141454 
  141613   142207   142327   141961   141714   141637   141744   141890 
  141821   141569   141315   141399   141777   141910   141716   141459 
  141205   141141   141431   141832   142076   142106   141848   141435 
  141326   141689   141939   141637   141427   141728   141886   141677 
  141505   141332   141073   141061   141277   141312   141238   141301 
  141346   141312   141467   141767   141640   141064   140802   140967 
  141099   141077   140846   140813   141475   142123   142132   142083 
  142159   141966   141678   141524   141347   141046   140911   141228 
  141694   141925   141901   141934   142290   142483   142227   142005 
  141798   141448   141434   141729   141741   141709   141960   141910 
  141783   142265   142591   142250   141872   141646   141548   141686 
  141970   142294   142457   142393   142280   142176   142207   142376 
  142398   142277   142157   142036   141918   141544   141069   141247 
  141951   142425   142534   142345   141868   141659   141955   141936 
  141430   141153   141284   141666   141957   141909   141754   141508 
  141420   141876   142295   142195   141737   141030   140572   140699 
  140950   141223   141690   141979   141918   141744   141486   141250 
  141246   141430   141648   141635   141184   140775   140979   141463 
  141750   141949   142056   141924   141673   141316   140929   140840 
  140919   140746   140528   140603   140691   140678   140915   141164 
  141031   140896   141053   141401   141778   141671   141133   141143 
  141586   141493   141219   141285   141178   140922   140933   140883 
  140769   141034   141338   141336   141255   141016   140629   140602 
  141031   141536   141791   141529   141035   141045   141561   142052 
  142227   142001   141673   141635   141728   141702   141791   142098 
  142163   141924   141902   142107   142101   141829   141644   141744 
  141922   141956   141934   141936   141936   142040   142268   142348 
  142229   142157   142014   141755   141658   141612   141534   141516 
  141255   140879   140965   141215   141173   141172   141259   141200 
  141303   141511   141280   140898   140902   141065   141143   141289 
  141458   141409   141370   141593   141750   141756   141840   141906 
  141747   141355   141151   141289   141320   141382   141828   142317 
  142619   142657   142342   142038   141924   141759   141624   141666 
  141651   141451   141397   141623   141725   141687   141941   142433 
  142680   142539   142214   141903   141848   142025   142055   142014 
  142184   142246   142028   141872   141706   141330   141019   140948 
  141010   141034   140884   140744   140736   140788   141018   141297 
  141434   141498   141374   141223   141351   141412   141312   141421 
  141501   141332   141246   141276   141185   140869   140672   141006 
  141286   141210   141342   141652   141766   141550   141397   141817 
  142211   142209   142331   142430   142331   142288   142034   141710 
  141943   142376   142358   141974   141733   141832   141739   141390 
  141319   141535   141786   141864   141860   141889   141804   141880 
  141974   141513   141042   141057   141220   141328   141222   140953 
  141043   141631   142078   141991   141751   141432   140906   140548 
  140632   141092   141463   141365   141183   141216   141374   141498 
  141307   140899   140637   140543   140498   140390   140254   140354 
  140687   141039   141415   141701   141801   141920   141871   141467 
  141174   141162   141118   141104   141351   141677   141794   141710 
  141605   141697   142056   142408   142474   142315   142148   142078 
  142006   141797   141552   141494   141801   142400   142744   142608 
  142588   142724   142416   142099   142439   142790   142574   142353 
  142446   142334   142005   141993   142175   142191   142001   141652 
  141346   141158   140981   140930   141147   141485   141571   141494 
  141845   142253   142022   141666   141512   141291   141095   140798 
  140414   140587   141224   141516   141397   141249   141262   141577 
  141917   142098   142284   142169   141583   141025   140786   140760 
  140921   141207   141369   141481   141691   141674   141436   141349 
  141178   140918   141170   141620   141480   141188   141404   141740 
  141670   141327   141006   140880   141076   141305   141300   141376 
  141465   141223   141003   140900   140648   140529   140668   140767 
  140782   140941   141311   141555   141485   141403   141470   141446 
  141366   141571   141844   141763   141519   141579   141916   142053 
  141956   141813   141647   141654   141828   141905   141878   141897 
  142087   142470   142827   142759   142341   142020   141713   141400 
  141513   141916   142051   141816   141605   141681   141771   141812 
  142233   142782   142676   142141   141898   141960   142086   142020 
  141597   141100   140852   140906   141060   141129   141212   141430 
  141702   141799   141798   141983   142034   141710   141625   141918 
  141831   141276   141043   141451   141984   142172   142244   142269 
  141793   141066   140841   141093   141386   141435   141245   141180 
  141309   141473   141658   141704   141829   142109   141936   141400 
  140958   140683   140802   141037   140853   140641   140864   141265 
  141493   141501   141520   141721   141781   141608   141646   141853 
  141885   141871   142032   142096   141640   141143   141284   141439 
  141205   141386   141970   142053   141702   141516   141505   141489 
  141382   141185   141183   141497   141751   141818   141710   141332 
  141228   141643   141948   141913   141612   141161   141010   141205 
  141160   140892   141064   141365   141380   141741   142337   142248 
  141766   141755   142068   142148   141975   141858   141868   141772 
  141669   141778   141777   141650   141978   142555   142672   142453 
  142215   141844   141440   141265   141407   141697   141790   141613 
  141426   141507   141979   142472   142507   142337   142248   141936 
  141466   141242   141262   141373   141520   141589   141543   141444 
  141138   140671   140643   141156   141654   141824   141605   141301 
  141122   140988   141401   142156   142125   141578   141339   141338 
  141523   141790   141966   142049   141737   141134   140879   140896 
  140649   140441   140822   141216   141154   141192   141297   141123 
  141204   141475   141235   140884   140892   141038   141504   142182 
  142273   141920   141922   142047   141805   141563   141629   141666 
  141382   141156   141434   141723   141370   140908   140980   141042 
  140891   141197   141704   141816   141691   141444   141277   141286 
  141143   140934   140930   140968   140930   141122   141501   141470 
  141154   141176   141293   141299   141581   141804   141436   141010 
  141053   141177   141139   141284   141598   141760   141785   141833 
  141978   142080   141907   141809   142250   142460   141797   141301 
  141531   141689   141640   141704   141820   142036   142165   142102 
  142269   142605   142742   142681   142361   141867   141612   141646 
  141660   141677   141948   142258   142164   141901   141875   141832 
  141754   141894   141910   141810   141990   142194   142299   142439 
  142330   142060   142049   142207   142195   141835   141400   141196 
  141129   141251   141404   141183   140926   141127   141320   141087 
  141053   141400   141528   141475   141547   141519   141029   140277 
  139896   140022   140400   140813   140899   140753   140840   140948 
  140865   141050   141536   141879   141978   141809   141538   141388 
  141183   141183   141567   141790   141820   141872   141912   141948 
  141713   141365   141269   141129   141075   141261   141353   141566 
  141767   141583   141562   141706   141532   141451   141647   141681 
  141644   141716   141740   141685   141519   141261   141208   141509 
  141951   142267   142296   142014   141758   141778   141687   141474 
  141670   142068   142182   141968   141582   141423   141556   141693 
  141858   141922   141720   141519   141529   141754   141995   141872 
  141500   141403   141536   141647   141883   141976   141666   141544 
  141816   142099   142339   142414   142285   142222   142238   142222 
  142028   141620   141408   141534   141453   140944   140773   141207 
  141502   141643   141880   141993   142145   142296   142128   141894 
  141816   141670   141273   140894   140989   141338   141415   141363 
  141490   141625   141589   141579   141578   141316   141135   141334 
  141423   141170   140867   140724   140841   141219   141453   141180 
  141041   141488   141762   141617   141555   141578   141421   141114 
  141038   141363   141605   141475   141367   141589   141920   142153 
  142356   142404   142213   141886   141519   141446   141563   141427 
  141331   141427   141440   141461   141496   141446   141359   141215 
  141011   140880   140989   141227   141316   141208   141118   141284 
  141547   141594   141485   141409   141424   141524   141655   141781 
  141853   141660   141192   140962   141075   141002   140890   141219 
  141547   141484   141544   141891   142132   142265   142303   142225 
  142144   141825   141327   141184   141384   141546   141577   141519 
  141488   141575   141696   141774   141862   141997   141970   141751 
  141724   141812   141728   141575   141323   141025   140917   140952 
  141043   141081   140987   141053   141346   141424   141247   141208 
  141295   141392   141597   141736   141567   141277   141165   141295 
  141566   141708   141683   141853   141933   141527   141376   141696 
  141704   141660   142115   142488   142437   142345   142314   142285 
  142261   142134   141813   141438   141322   141388   141384   141573 
  142009   142246   142253   142186   142006   141941   142075   142129 
  142134   142182   142048   141677   141326   141068   140984   141258 
  141478   141423   141546   141747   141863   141910   141546   141174 
  141272   141304   141045   140690   140451   140602   140864   141039 
  141157   140950   140763   140985   141200   141223   141112   141042 
  141311   141420   141161   141323   141889   142272   142474   142457 
  142094   141662   141471   141444   141475   141625   141588   141281 
  141164   141154   141091   141172   141293   141515   141917   142065 
  141754   141365   141332   141563   141687   141660   141559   141494 
  141579   141710   141779   141697   141453   141328   141527   141743 
  141621   141393   141416   141443   141237   141099   141192   141516 
  141922   141872   141566   141747   142011   141737   141505   141774 
  141890   141602   141574   141706   141480   141423   141859   142086 
  142009   142159   142412   142495   142488   142381   142146   141936 
  141995   142342   142439   142180   142092   142148   142038   141808 
  141511   141165   141007   141232   141380   141123   141039   141299 
  141539   141763   141949   142017   141918   141606   141515   141840 
  142009   141829   141818   142067   142074   141809   141627   141536 
  141508   141605   141624   141470   141419   141551   141713   141766 
  141708   141862   142086   141937   141786   141804   141596   141396 
  141330   141062   140780   140728   140726   140767   140911   141015 
  141127   141381   141579   141512   141200   140902   140991   141231 
  141162   141100   141281   141392   141405   141346   141238   141272 
  141384   141493   141517   141320   141184   141427   141816   141991 
  141984   141984   141987   141960   142007   142136   142138   141970 
  141863   141856   141781   141701   141801   141930   141793   141586 
  141659   141775   141675   141540   141500   141600   141845   141947 
  141698   141361   141228   141161   140954   140649   140389   140364 
  140559   140744   140825   140915   141116   141258   141351   141521 
  141436   141185   141231   141291   141099   140977   141079   141231 
  141313   141331   141214   141129   141346   141500   141465   141643 
  141779   141693   141620   141458   141376   141466   141413   141466 
  141760   141933   142118   142307   142214   142207   142364   142292 
  142223   142203   141934   141741   141783   141713   141555   141581 
  141752   141791   141717   141797   141922   141817   141513   141266 
  141215   141249   141227   141114   141008   140983   141004   141104 
  141280   141386   141277   141097   141116   141234   141331   141569 
  141772   141663   141512   141509   141480   141426   141551   141944 
  142176   141897   141664   141859   142088   142184   142209   142168 
  142221   142258   142025   141816   141899   141939   141817   141870 
  142022   141964   141867   141925   141922   141745   141534   141409 
  141496   141712   141832   141897   141961   141898   141778   141831 
  141928   141643   141130   140931   140957   140940   140967   140956 
  140836   140864   141041   141064   140996   141000   140940   140850 
  140846   140960   141185   141346   141489   141608   141480   141493 
  141871   142082   141972   141774   141578   141478   141439   141349 
  141347   141604   141836   141839   141940   142176   142252   142171 
  141979   141890   142203   142507   142407   142303   142356   142290 
  142113   141934   141924   142206   142433   142454   142433   142190 
