Origin Time       2024/04/02 04:24:00
Lat.              40.133
Long.             141.712
Depth. (km)       71
Mag.              6.0
Station Code      FKSH12
Station Lat.      37.2169
Station Long.     140.5703
Station Height(m) 470
Record Time       2024/04/02 04:25:30
Sampling Freq(Hz) 100Hz
Duration Time(s)  120
Dir.              4
Scale Factor      7845(gal)/8223790
Max. Acc. (gal)   5.953
Last Correction   2024/04/02 04:25:30
Memo.             
[...]
    6531     6361     6207     6039     5876     5964     6181     6141 
    5940     5956     6033     5795     5506     5528     5555     5341 
    5167     5209     5395     5719     6197     6666     6956     7094 
    7059     6797     6484     6288     6210     6257     6394     6488 
    6509     6551     6448     5984     5641     5829     5938     5680 
    5649     5841     5718     5470     5610     5910     5972     6093 
    6477     6747     6768     6790     6893     6920     6777     6484 
    6077     5705     5641     5873     5917     5620     5422     5521 
    5599     5555     5744     6112     6050     5725     5861     6200 
    6207     6242     6582     6744     6458     6205     6291     6338 
    6297     6482     6539     6157     5861     5922     5840     5313 
    4783     4726     5040     5439     5894     6432     6895     7169 
    7245     7018     6690     6681     6764     6527     6169     5898 
    5578     5321     5412     5796     6093     6058     5864     5628 
    5229     4924     5080     5424     5591     5809     6301     6785 
    6975     7042     7155     7149     7018     6932     6705     6212 
    5876     5918     5834     5290     4833     4881     5040     5181 
    5628     6184     6443     6481     6575     6770     6899     6893 
    6799     6610     6336     5964     5509     5343     5638     5929 
    5929     5883     5988     6123     6120     6021     5971     6093 
    6309     6315     6183     6280     6457     6346     6099     5938 
    5764     5601     5625     5687     5649     5699     5860     6037 
    6259     6428     6467     6462     6467     6465     6343     6162 
    6201     6423     6393     6042     5814     5748     5562     5483 
    5641     5725     5840     6268     6562     6276     6124     6596 
    6700     6187     6054     6157     5814     5618     6103     6571 
    6477     6361     6543     6415     6022     6065     6243     6008 
    5748     5773     5788     5752     6002     6404     6462     6266 
    6196     6069     5744     5628     5841     6026     6027     5988 
    6073     6215     6297     6315     6201     6026     5918     5800 
    5755     5906     6042     6130     6357     6586     6681     6808 
    6999     6951     6579     6195     5823     5436     5348     5501 
    5522     5481     5649     5944     5945     5698     5655     5549 
    5116     4922     5073     5228     5589     6173     6573     6802 
    7161     7485     7450     7339     7321     6998     6436     5983 
    5629     5449     5459     5433     5305     5163     5119     5119 
    5057     5142     5455     5684     5751     5891     6262     6831 
    7408     7843     8093     7981     7461     6806     6156     5539 
    5108     4869     4781     4860     5017     5248     5649     5992 
    5961     5782     5815     5942     6088     6420     6833     7159 
    7373     7406     7254     6991     6701     6469     6180     5678 
    5169     4996     5055     5057     5163     5508     5827     6134 
    6546     6806     6894     6961     6885     6740     6767     6845 
    6716     6443     6300     6316     6335     6231     6015     5975 
    6037     5767     5344     5309     5659     5890     5849     5962 
    6161     6030     5887     5952     5852     5675     5803     6076 
    6161     6195     6457     6632     6408     6272     6385     6222 
    5879     5860     5906     5566     5227     5289     5390     5485 
    5989     6544     6547     6396     6528     6501     6102     5759 
    5552     5325     5410     5946     6323     6193     6027     6162 
    6311     6251     6076     5977     6021     5911     5549     5400 
    5755     6377     6891     7111     7076     6806     6288     5746 
    5421     5263     5304     5687     6145     6382     6615     6858 
    6833     6694     6646     6523     6305     6259     6382     6269 
    5883     5790     6012     5906     5572     5544     5602     5556 
    5640     5823     6033     6316     6540     6615     6679     6794 
    6791     6598     6342     6088     5868     5691     5544     5632 
    5934     5999     5767     5539     5360     5128     4905     4930 
    5229     5629     6111     6604     6898     6976     6944     6902 
    6812     6561     6257     6022     5756     5398     5161     5225 
    5410     5590     5873     6178     6378     6492     6485     6345 
    6210     6332     6673     6717     6345     6110     6166     6223 
    6363     6687     6948     7014     6853     6324     5483     4733 
    4510     4749     5004     5309     5869     6392     6781     7233 
    7585     7639     7547     7365     6874     6173     5721     5549 
    5451     5529     5679     5703     5815     5967     5887     5679 
    5478     5320     5273     5481     5996     6454     6667     6909 
    7157     7190     7034     6895     6802     6393     5692     5286 
    5198     5070     4981     5069     5170     5190     5232     5360 
    5606     6046     6602     7052     7308     7452     7501     7294 
    6804     6313     5938     5536     5105     4795     4700     4873 
    5248     5537     5632     5817     6200     6438     6374     6312 
    6270     6116     6253     6791     7087     6947     6860     6939 
    6802     6288     5782     5555     5314     5034     4973     5086 
    5327     5759     6301     6652     6678     6741     6968     6870 
    6409     6197     6264     6161     6049     6282     6588     6579 
    6400     6226     5890     5409     5143     5255     5467     5595 
    5871     6222     6272     6239     6423     6504     6335     6189 
    6168     6139     6087     6203     6300     6118     6062     6170 
    5908     5463     5409     5702     5911     6018     6297     6525 
    6426     6424     6727     6880     6733     6475     6131     5736 
    5428     5248     5179     5314     5539     5539     5474     5709 
    6189     6663     6895     6856     6718     6474     6214     6251 
    6474     6524     6450     6358     6158     5998     6054     6160 
    6066     5771     5503     5512     5759     5989     6077     6035 
    5814     5541     5541     5782     5973     6168     6484     6741 
    6825     6817     6656     6230     5710     5406     5371     5420 
    5555     5921     6393     6578     6381     6222     6300     6370 
    6301     6075     5822     5818     5999     6100     6103     6141 
    6230     6173     5919     5733     5806     5972     5960     5842 
    5802     5817     6029     6470     6666     6470     6323     6416 
    6481     6208     5780     5703     5846     5725     5518     5583 
    5854     6185     6485     6627     6488     6280     6342     6427 
    6195     5933     6011     6340     6509     6415     6342     6158 
    5566     5009     5020     5421     5881     6320     6646     6710 
    6517     6232     5940     5705     5742     5967     6016     6007 
    6265     6504     6323     5981     5763     5476     5146     5213 
    5692     5969     5875     5937     6327     6538     6416     6606 
    7258     7572     7242     6717     6184     5659     5350     5331 
    5487     5741     6035     6189     6069     5891     5879     5911 
    5972     6161     6249     6088     5937     5937     5940     5914 
    6022     6241     6289     6214     6438     6868     6916     6516 
    6145     6019     5890     5594     5387     5378     5367     5493 
    5834     5980     6018     6405     6901     7079     7015     6840 
    6588     6444     6401     6295     6313     6509     6440     6003 
    5663     5514     5258     4989     4912     4904     4907     5057 
    5389     5773     6174     6609     6816     6678     6643     6806 
    6748     6617     6847     7149     7101     7007     6990     6624 
    6161     6088     5979     5348     4594     4275     4248     4244 
    4514     5134     5674     5998     6354     6682     6826     7032 
    7357     7430     7229     7048     6897     6673     6477     6446 
    6448     6277     6008     5718     5321     4953     4799     4731 
    4657     4792     5236     5780     6219     6554     6997     7535 
    7609     7171     6953     6863     6291     5694     5717     5961 
    5913     5840     5921     5744     5463     5683     6079     6066 
    6002     6350     6736     6721     6628     6654     6357     5815 
    5556     5489     5282     5175     5536     5977     6056     6158 
    6386     6226     5860     5871     6103     6088     6033     6312 
    6516     6385     6438     6660     6501     6119     5972     5946 
    5715     5363     5239     5390     5652     5877     5910     5949 
    6232     6403     6381     6610     6984     7063     6748     6145 
    5485     5020     4962     5327     5791     6165     6489     6762 
    6955     6936     6697     6377     6070     5948     5958     5969 
    6201     6554     6610     6474     6386     6169     5779     5459 
    5197     4999     5105     5301     5325     5648     6390     6786 
    6577     6405     6478     6249     5856     6006     6316     6188 
    6180     6512     6386     5841     5805     6123     6048     5937 
    6385     7034     7373     7373     6959     6069     5233     4943 
    4920     4892     5125     5549     5697     5811     6296     6663 
    6538     6350     6331     6139     5757     5715     6146     6467 
    6461     6585     6858     6793     6505     6399     6239     5792 
    5462     5459     5479     5478     5729     6111     6150     5961 
    6029     6106     5888     5786     5961     6023     5833     5724 
    5845     5962     5996     6041     6000     5859     5971     6430 
    6770     6816     6858     6906     6772     6450     6091     5908 
    5841     5672     5518     5522     5602     5891     6458     6864 
    6878     6717     6382     5791     5202     4920     5004     5391 
    6054     6652     6718     6524     6536     6593     6556     6485 
    6297     6002     5665     5481     5702     6149     6424     6361 
    6080     5811     5552     5398     5528     5695     5791     5884 
    5799     5763     6089     6421     6486     6455     6346     6110 
    5968     6110     6392     6601     6741     6833     6717     6296 
    5807     5514     5327     5202     5252     5437     5763     6270 
    6863     7283     7368     7327     7064     6308     5499     5071 
    4827     4630     4696     5022     5283     5481     5786     5979 
    5958     5934     5967     6076     6320     6658     7084     7597 
    8010     7994     7524     6991     6592     6253     5872     5360 
    4927     4777     4723     4630     4463     4252     4293     4525 
    4801     5560     6740     7658     8163     8428     8592     8707 
    8629     8352     7920     7182     6243     5410     4781     4402 
    4260     4210     4180     4303     4758     5416     5980     6407 
    6744     7020     7392     7816     8012     7970     7820     7523 
    6961     6246     5701     5386     5163     4969     4687     4252 
    3834     3672     3704     3703     3856     4583     5706     6826 
    8002     9063     9568     9610     9431     9077     8621     7911 
    6785     5443     4099     2905     2145     1965     2255     2899 
    3592     4024     4577     5603     6616     7252     7585     7599 
    7516     7539     7473     7373     7519     7867     8152     8199 
    8000     7676     7236     6412     5162     3858     2840     2311 
    2322     2752     3508     4602     5965     7321     8434     9115 
    9108     8579     7987     7501     7094     6708     6412     6276 
    6062     5836     5875     6000     6102     6218     6211     6102 
    5914     5674     5644     5926     6264     6309     5991     5557 
    5151     4770     4541     4634     5034     5482     5757     6100 
    6733     7300     7507     7452     7254     6988     6655     6355 
    6323     6478     6551     6386     6022     5768     5601     5116 
    4461     4151     4326     4772     5228     5583     5854     6037 
    6191     6654     7496     8208     8522     8428     7695     6498 
    5444     4772     4422     4430     4741     4903     4646     4448 
    4714     5370     6397     7727     8826     9058     8530     7913 
    7438     6967     6704     6789     6621     5875     5269     4954 
    4394     3942     4078     4399     4492     4544     4738     4779 
    4633     4950     6030     7450     8849     9933    10247     9711 
    8823     7970     7013     5948     5031     4168     3385     3068 
    3234     3532     3844     4378     5084     5559     5841     6412 
    7427     8478     8986     8770     7913     6424     4680     3500 
    3433     4303     5466     6574     7577     8160     8074     7574 
    6990     6181     4876     3495     2887     3316     4553     6343 
    8051     8900     8893     8455     7682     6750     5983     5371 
    4784     4301     4025     4082     4749     6118     7650     8567 
    8785     8784     8425     7206     5622     4491     3708     3171 
    3326     4243     5305     5977     6292     6339     6119     5967 
    6048     6204     6691     7591     8181     8074     7739     7704 
    7893     7757     7213     6621     5684     4071     2779     2895 
    3819     4409     4722     5115     5121     4687     4680     5340 
    6203     7198     8193     8883     9402     9798     9879     9624 
    8731     6814     4221     1734       74     -157      901     2407 
    3996     5751     7285     8139     8530     8897     9072     8769 
    8405     8205     7668     6727     5933     5636     5895     6519 
    7030     7002     6458     5709     4695     3242     1817     1094 
    1225     2099     3678     5525     7092     8515     9890    10843 
   11064    10521     9517     8078     6118     4361     3454     3298 
    3786     4881     6359     7782     8681     8584     7269     5503 
    4168     3229     2640     2511     2833     3852     5420     6825 
    7697     8149     8237     7732     6790     6075     5726     5572 
    5846     6565     7233     7649     8095     8467     8240     7495 
    6786     6261     5674     4857     3892     3094     2941     3623 
    4623     5274     5621     6038     6455     6755     6929     6957 
    7168     7634     7861     7836     8073     8712     9115     8414 
    6809     5278     4050     2847     1961     2035     3079     4267 
    5050     5564     5907     6127     6218     6091     6015     6276 
    6798     7628     8830     9861    10065     9533     8788     8012 
    7118     6106     5030     4052     3261     2471     1703     1418 
    2025     3114     3948     4811     6257     7875     9193    10301 
   11191    11623    11435    10404     8507     6328     4513     3303 
    2708     2512     2370     2181     2162     2565     3368     4380 
    5638     7129     8322     8866     9123     9316     9159     8722 
    8293     7635     6845     6515     6443     6064     5506     5057 
    4677     4396     4330     4342     4217     4145     4376     4758 
    5281     6076     6902     7743     8806     9431     8887     7812 
    7069     6432     5478     4336     3391     2816     2685     3384 
    4780     5894     6465     7057     7616     7622     7040     6185 
    5306     4750     5009     5979     6751     6840     6683     6783 
    7179     7425     7015     6161     5548     5429     5404     5008 
    4542     4699     5239     5560     6022     7090     8283     9055 
    9450     9319     8318     6736     5298     4367     3673     2941 
    2552     3037     4153     5159     5918     6798     7645     8172 
    8541     8610     8112     7515     7271     6964     6223     5603 
    5418     5093     4781     5255     6091     6358     6075     5755 
    5611     5489     5140     4644     4494     5019     5992     6941 
    7541     7863     7983     7585     6691     5962     5684     5404 
    4922     4541     4322     4228     4225     4133     4206     4803 
    5587     6390     7582     8685     8804     8347     8135     7990 
    7415     6511     5904     5807     5786     5999     6706     7173 
    7049     6656     5805     4448     3183     2492     2601     3739 
    5667     7470     8479     8673     8289     7798     7573     7615 
    7832     7896     7514     6945     6517     6120     5363     4186 
    3118     2263     1350     1097     2370     4635     6791     8429 
    9852    10929    11017    10501    10096     9369     8112     6975 
    5988     4723     3512     2995     3051     3134     3211     3426 
    3466     3221     3160     3670     4727     6096     7686     9382 
   10683    11250    11098    10386     9491     8554     7404     5948 
    4214     2481     1190      541      436      830     1844     3299 
    4854     6497     8070     9151     9686     9865     9715     9135 
    8243     7472     6917     6416     6239     6447     6565     6596 
    6608     5929     4272     2367     1142      942     1516     2733 
    4522     6272     7504     8279     8517     8124     7722     7861 
    8036     7797     7445     7064     6448     5810     5563     5721 
    5826     5526     5270     5617     6201     6620     7030     7103 
    6249     4900     3971     3414     2883     2959     4041     5358 
    6459     7824     9167     9666     9566     9315     8410     6606 
    5036     4761     5192     5429     5622     6027     6355     6172 
    5559     5150     5259     5714     6160     6251     6189     6153 
    5821     5364     5235     5212     5043     5242     6254     7342 
    7581     7261     7011     6805     6401     5819     5427     5379 
    5242     4881     4639     4661     5101     6072     7198     7781 
    7472     6994     7281     8112     8658     8468     7736     7160 
    7148     7331     7183     6909     6997     6994     6139     4653 
    3230     2141     1406     1246     1752     2381     2916     3969 
    5462     6616     7487     8510     9512     9999     9690     8969 
    8579     8540     8472     8359     8081     7561     7110     6682 
    5937     4793     3346     1930      973      587      826     1948 
    3897     6027     7646     8515     8954     9251     9196     8769 
    8361     8141     7946     7508     7003     7079     7573     7479 
    6544     5219     3708     2405     1790     1861     2706     4163 
    5229     5605     6041     6628     6813     6592     6531     6797 
    6921     6829     6813     6836     7040     7663     8244     8000 
    6848     5611     4812     4118     3595     3645     4283     5732 
    7663     8756     8703     8392     7763     5958     3645     2772 
    3384     3798     4044     5070     6185     6644     6988     7593 
    8159     8388     8272     7933     7538     7294     7052     6520 
    6025     5960     6065     5871     5290     4633     4050     3215 
    2099     1426     1690     2678     4197     6041     7584     8442 
    9049     9733    10107     9942     9458     8752     7885     6929 
    5776     4568     3836     3672     3514     3034     2478     2355 
    3217     5142     7489     9408    10395    10373     9509     8311 
    7164     5895     4919     5036     5799     6434     7114     7889 
