Origin Time       2024/04/02 04:24:00
Lat.              40.133
Long.             141.712
Depth. (km)       71
Mag.              6.0
Station Code      FKSH14
Station Lat.      37.0264
Station Long.     140.9702
Station Height(m) 3
Record Time       2024/04/02 04:25:26
Sampling Freq(Hz) 100Hz
Duration Time(s)  150
Dir.              6
Scale Factor      7845(gal)/8223790
Max. Acc. (gal)   2.478
Last Correction   2024/04/02 04:25:26
Memo.             
[...]
  -27360   -27392   -27337   -27332   -27307   -27275   -27372   -27594 
  -27772   -27780   -27653   -27515   -27486   -27531   -27519   -27521 
  -27554   -27442   -27314   -27337   -27280   -27160   -27234   -27307 
  -27117   -26952   -27126   -27400   -27464   -27444   -27498   -27480 
  -27326   -27241   -27330   -27363   -27265   -27284   -27364   -27333 
  -27340   -27394   -27452   -27595   -27610   -27472   -27426   -27311 
  -27129   -27202   -27367   -27382   -27467   -27658   -27629   -27369 
  -27193   -27164   -27252   -27433   -27477   -27357   -27306   -27238 
  -27103   -27172   -27363   -27384   -27353   -27352   -27288   -27290 
  -27373   -27352   -27278   -27291   -27405   -27540   -27507   -27336 
  -27268   -27301   -27315   -27280   -27156   -27132   -27349   -27476 
  -27490   -27666   -27766   -27683   -27695   -27688   -27587   -27657 
  -27815   -27796   -27626   -27468   -27481   -27584   -27562   -27581 
  -27708   -27567   -27288   -27234   -27106   -26852   -26838   -26905 
  -26890   -27028   -27336   -27531   -27406   -27137   -27071   -27224 
  -27390   -27494   -27672   -27904   -27908   -27716   -27560   -27390 
  -27121   -26940   -27056   -27226   -27147   -27101   -27282   -27438 
  -27537   -27619   -27607   -27581   -27538   -27409   -27360   -27382 
  -27314   -27369   -27650   -27815   -27739   -27579   -27418   -27349 
  -27328   -27237   -27171   -27244   -27441   -27635   -27679   -27560 
  -27317   -27159   -27326   -27548   -27513   -27454   -27483   -27356 
  -27159   -27198   -27406   -27480   -27348   -27198   -27171   -27206 
  -27199   -27186   -27256   -27394   -27481   -27472   -27545   -27793 
  -27908   -27756   -27727   -27935   -27915   -27572   -27332   -27356 
  -27423   -27313   -27114   -27130   -27344   -27496   -27523   -27514 
  -27513   -27411   -27136   -26944   -26967   -27010   -27090   -27278 
  -27375   -27334   -27294   -27264   -27355   -27585   -27618   -27461 
  -27498   -27548   -27372   -27341   -27453   -27287   -27076   -27112 
  -27120   -27063   -27122   -27179   -27132   -27102   -27213   -27396 
  -27467   -27442   -27449   -27508   -27676   -27857   -27923   -27954 
  -27810   -27498   -27531   -27807   -27753   -27557   -27495   -27356 
  -27279   -27441   -27569   -27630   -27731   -27688   -27553   -27548 
  -27525   -27388   -27379   -27538   -27580   -27531   -27627   -27653 
  -27365   -27052   -26975   -26944   -26817   -26798   -26905   -26870 
  -26723   -26689   -26763   -26842   -26875   -26874   -26994   -27294 
  -27463   -27338   -27221   -27222   -27172   -27145   -27294   -27545 
  -27768   -27934   -27997   -27849   -27581   -27399   -27325   -27363 
  -27452   -27487   -27571   -27726   -27801   -27731   -27557   -27437 
  -27355   -27216   -27268   -27453   -27440   -27494   -27761   -27827 
  -27627   -27488   -27561   -27700   -27619   -27400   -27472   -27722 
  -27629   -27330   -27315   -27410   -27287   -27063   -26877   -26744 
  -26742   -26873   -27028   -27128   -27149   -27120   -27114   -27126 
  -27172   -27372   -27534   -27438   -27379   -27449   -27361   -27318 
  -27560   -27716   -27606   -27537   -27588   -27642   -27643   -27492 
  -27345   -27467   -27618   -27514   -27287   -27051   -26964   -27232 
  -27573   -27602   -27419   -27280   -27261   -27329   -27376   -27337 
  -27294   -27325   -27373   -27376   -27333   -27248   -27237   -27363 
  -27383   -27257   -27303   -27475   -27488   -27395   -27349   -27395 
  -27561   -27761   -27783   -27665   -27645   -27652   -27567   -27602 
  -27697   -27569   -27427   -27461   -27467   -27398   -27388   -27445 
  -27392   -27209   -27213   -27349   -27213   -26994   -27055   -27183 
  -27120   -27010   -27102   -27338   -27438   -27453   -27591   -27664 
  -27584   -27618   -27675   -27542   -27406   -27446   -27614   -27703 
  -27567   -27449   -27503   -27562   -27670   -27764   -27665   -27635 
  -27692   -27437   -27117   -27184   -27318   -27176   -27067   -27207 
  -27363   -27359   -27321   -27368   -27417   -27409   -27427   -27445 
  -27398   -27321   -27175   -27101   -27272   -27345   -27275   -27481 
  -27673   -27495   -27375   -27463   -27469   -27396   -27278   -27140 
  -27125   -27105   -27018   -27083   -27143   -27010   -26944   -27009 
  -27081   -27089   -26893   -26661   -26674   -26759   -26792   -26995 
  -27391   -27625   -27580   -27652   -27892   -27824   -27564   -27635 
  -27857   -27884   -27861   -27810   -27650   -27572   -27584   -27498 
  -27314   -27214   -27330   -27490   -27464   -27371   -27384   -27480 
  -27650   -27839   -27869   -27664   -27373   -27194   -27193   -27236 
  -27237   -27337   -27456   -27380   -27337   -27471   -27508   -27440 
  -27515   -27631   -27494   -27224   -27175   -27325   -27440   -27479 
  -27573   -27749   -27793   -27670   -27600   -27622   -27646   -27606 
  -27444   -27252   -27171   -27236   -27338   -27328   -27317   -27486 
  -27662   -27653   -27522   -27284   -26982   -26886   -27095   -27271 
  -27172   -27085   -27214   -27290   -27243   -27290   -27432   -27616 
  -27757   -27687   -27608   -27710   -27692   -27473   -27295   -27205 
  -27187   -27270   -27407   -27521   -27522   -27434   -27321   -27187 
  -27141   -27213   -27260   -27403   -27770   -27895   -27494   -27222 
  -27430   -27492   -27330   -27554   -27920   -27882   -27710   -27625 
  -27565   -27622   -27621   -27442   -27342   -27291   -27171   -27136 
  -27122   -27032   -27106   -27328   -27365   -27284   -27294   -27328 
  -27400   -27576   -27683   -27625   -27611   -27685   -27580   -27351 
  -27251   -27066   -26678   -26536   -26744   -26883   -26933   -27106 
  -27257   -27261   -27221   -27344   -27645   -27773   -27656   -27589 
  -27581   -27498   -27384   -27394   -27639   -27920   -27963   -27842 
  -27699   -27488   -27263   -27101   -26912   -26763   -26709   -26599 
  -26577   -26731   -26873   -27137   -27459   -27468   -27317   -27279 
  -27365   -27545   -27621   -27514   -27411   -27373   -27388   -27461 
  -27535   -27558   -27387   -27106   -27144   -27384   -27355   -27317 
  -27504   -27522   -27465   -27653   -27850   -27923   -27868   -27688 
  -27693   -27876   -27951   -27993   -28026   -27994   -27922   -27789 
  -27783   -27799   -27479   -27168   -27180   -27126   -26995   -27148 
  -27379   -27307   -27098   -27020   -27004   -27159   -27589   -27878 
  -27843   -27778   -27707   -27553   -27382   -27241   -27205   -27093 
  -26835   -26846   -27120   -27189   -27062   -27032   -27182   -27471 
  -27668   -27571   -27469   -27533   -27349   -26943   -26777   -26809 
  -26952   -27263   -27491   -27592   -27669   -27571   -27400   -27309 
  -27245   -27233   -27085   -26862   -26995   -27153   -26963   -26928 
  -27156   -27167   -27054   -27234   -27591   -27777   -27868   -27931 
  -27785   -27654   -27828   -27963   -27851   -27693   -27423   -27063 
  -26870   -26781   -26678   -26666   -26832   -27147   -27403   -27490 
  -27553   -27631   -27621   -27538   -27599   -27805   -27853   -27957 
  -28313   -28270   -27872   -27913   -27985   -27527   -27203   -27243 
  -27172   -27029   -26923   -26879   -26985   -27012   -27024   -27179 
  -27075   -26951   -27353   -27733   -27770   -27985   -28269   -28206 
  -27908   -27568   -27318   -27229   -27163   -27120   -27164   -27120 
  -27095   -27394   -27697   -27511   -27086   -26879   -26744   -26509 
  -26478   -26690   -26717   -26636   -26921   -27268   -27197   -27071 
  -27180   -27369   -27665   -27945   -28027   -28048   -28036   -27978 
  -27859   -27553   -27361   -27409   -27187   -26936   -27121   -27176 
  -26995   -27152   -27454   -27619   -27687   -27567   -27552   -27850 
  -28048   -28098   -28286   -28534   -28642   -28510   -28318   -28221 
  -27888   -27407   -27167   -26812   -26279   -26187   -26392   -26341 
  -26257   -26458   -26607   -26500   -26492   -26730   -27035   -27298 
  -27355   -27202   -27147   -27199   -27125   -26991   -27060   -27290 
  -27330   -27288   -27508   -27540   -26914   -26261   -26210   -26553 
  -26950   -27205   -27351   -27707   -28213   -28547   -28858   -29161 
  -29128   -28837   -28526   -28293   -28142   -27768   -27249   -27182 
  -27432   -27506   -27427   -27206   -26944   -26866   -26761   -26711 
  -27109   -27490   -27473   -27522   -27650   -27681   -27891   -28138 
  -28055   -27722   -27348   -27059   -26821   -26509   -26356   -26609 
  -26897   -26890   -26932   -27257   -27585   -27685   -27646   -27596 
  -27415   -27079   -26936   -26971   -26936   -27068   -27402   -27612 
  -27761   -27928   -27973   -27909   -27826   -27877   -28019   -27761 
  -27221   -27218   -27626   -27661   -27461   -27425   -27295   -27056 
  -26993   -26998   -27010   -27018   -26806   -26638   -26859   -27108 
  -27205   -27475   -27795   -27849   -27773   -27768   -27822   -27857 
  -27604   -26873   -26210   -26211   -26470   -26460   -26453   -26732 
  -27091   -27302   -27386   -27598   -27884   -27839   -27603   -27502 
  -27467   -27625   -27924   -27958   -27837   -27708   -27417   -27174 
  -27078   -26990   -27010   -27032   -27009   -27159   -27346   -27627 
  -28201   -28598   -28603   -28640   -28682   -28447   -28181   -28161 
  -28146   -27859   -27581   -27665   -27801   -27639   -27476   -27421 
  -27226   -27139   -27267   -27244   -27149   -27066   -26658   -26127 
  -25937   -26017   -26150   -26343   -26635   -27087   -27656   -28123 
  -28441   -28598   -28418   -28165   -28273   -28386   -27997   -27513 
  -27440   -27440   -27122   -26951   -27314   -27579   -27481   -27583 
  -27660   -27453   -27668   -28123   -27970   -27611   -27526   -27467 
  -27581   -27839   -27783   -27662   -27807   -28043   -28198   -28074 
  -27716   -27344   -26890   -26570   -26604   -26539   -26285   -26296 
  -26485   -26589   -26721   -26839   -26832   -26952   -27325   -27511 
  -27206   -26809   -26762   -26959   -27198   -27496   -27826   -28165 
  -28499   -28606   -28452   -28260   -27888   -27314   -27037   -27029 
  -26944   -27027   -27314   -27499   -27600   -27626   -27600   -27664 
  -27706   -27726   -27884   -27992   -27880   -27676   -27375   -26912 
  -26493   -26331   -26412   -26536   -26545   -26684   -27136   -27454 
  -27388   -27344   -27513   -27546   -27245   -26939   -27028   -27390 
  -27654   -27702   -27468   -27048   -26785   -26721   -26740   -26943 
  -27210   -27372   -27592   -27884   -28073   -28220   -28325   -28131 
  -27751   -27573   -27467   -27144   -26781   -26596   -26569   -26662 
  -26871   -27040   -26968   -26816   -26829   -26901   -26931   -26875 
  -26647   -26582   -26959   -27386   -27710   -28155   -28489   -28510 
  -28447   -28352   -28246   -28325   -28459   -28443   -28399   -28297 
  -28066   -27839   -27473   -26967   -26708   -26698   -26747   -26757 
  -26696   -26924   -27430   -27656   -27722   -27984   -28150   -28107 
  -28031   -27859   -27580   -27270   -27028   -26902   -26644   -26279 
  -26180   -26304   -26545   -26994   -27297   -27095   -26832   -26994 
  -27295   -27465   -27702   -27907   -27778   -27297   -26697   -26523 
  -26817   -27055   -27338   -27619   -27322   -26917   -26982   -26936 
  -26615   -26611   -27029   -27561   -27928   -28059   -28181   -28302 
  -28309   -28406   -28530   -28285   -27866   -27668   -27414   -26887 
  -26482   -26516   -26805   -27120   -27518   -27942   -28082   -28005 
  -27974   -27834   -27568   -27480   -27546   -27634   -27657   -27440 
  -27229   -27183   -26858   -26500   -26750   -27105   -27129   -27174 
  -27143   -26982   -26990   -26909   -26592   -26334   -26264   -26543 
  -27055   -27373   -27610   -27842   -27855   -27864   -27876   -27517 
  -27010   -26870   -27129   -27560   -27962   -28232   -28382   -28273 
  -27946   -27855   -27901   -27666   -27508   -27704   -27841   -27751 
  -27643   -27639   -27634   -27479   -27325   -27255   -27167   -27226 
  -27367   -27210   -27024   -27287   -27576   -27488   -27652   -28229 
  -28345   -27939   -27610   -27270   -26854   -26630   -26519   -26511 
  -26762   -27031   -27216   -27495   -27677   -27679   -27710   -27603 
  -27310   -27233   -27284   -27153   -27121   -27338   -27503   -27513 
  -27572   -27789   -27808   -27376   -26997   -27018   -27155   -27287 
  -27500   -27820   -28107   -28008   -27635   -27418   -27287   -27137 
  -27132   -27244   -27363   -27386   -27248   -27129   -27110   -27044 
  -27017   -27180   -27388   -27519   -27760   -28217   -28642   -28841 
  -28825   -28543   -28085   -27650   -27284   -27058   -26892   -26549 
  -26207   -26046   -25922   -25998   -26424   -26854   -27041   -27145 
  -27406   -27688   -27679   -27716   -28089   -28105   -27577   -27341 
  -27418   -27214   -26967   -27076   -27307   -27433   -27621   -27880 
  -27816   -27427   -27252   -27297   -27189   -27180   -27580   -28170 
  -28672   -28804   -28590   -28391   -28057   -27450   -27072   -26919 
  -26624   -26388   -26391   -26504   -26557   -26428   -26393   -26647 
  -26839   -26950   -27328   -27707   -27693   -27533   -27410   -27141 
  -26862   -26786   -26657   -26512   -26789   -27301   -27588   -27697 
  -27756   -27787   -27868   -27827   -27411   -26979   -27078   -27333 
  -27234   -27333   -27885   -28094   -27807   -27652   -27652   -27436 
  -27132   -27194   -27577   -27637   -27379   -27545   -28078   -28360 
  -28451   -28642   -28852   -28849   -28522   -28163   -28181   -28332 
  -28233   -28120   -28047   -27573   -26778   -26090   -25502   -24983 
  -24791   -25097   -25768   -26366   -26623   -26735   -26898   -27099 
  -27261   -27400   -27657   -27820   -27506   -27032   -27018   -27467 
  -27920   -28105   -28117   -28012   -27735   -27488   -27378   -27241 
  -27130   -27102   -27010   -26881   -26738   -26501   -26379   -26539 
  -26811   -27103   -27425   -27692   -27899   -28067   -28159   -28161 
  -28078   -27985   -28036   -28150   -28132   -28062   -27972   -27877 
  -28034   -28426   -28732   -28746   -28451   -28138   -28001   -27777 
  -27454   -27305   -27284   -27292   -27306   -27171   -26990   -27031 
  -27072   -26947   -26951   -27110   -27338   -27665   -27807   -27761 
  -27730   -27432   -26982   -26821   -26685   -26462   -26473   -26412 
  -25990   -25668   -25702   -25995   -26558   -27105   -27287   -27299 
  -27355   -27357   -27313   -27361   -27565   -27781   -27819   -27692 
  -27496   -27399   -27522   -27645   -27710   -27899   -28069   -28098 
  -28036   -27855   -27758   -27865   -27943   -28017   -28135   -28011 
  -27696   -27423   -27155   -26956   -26924   -27074   -27469   -27912 
  -28228   -28530   -28668   -28551   -28417   -28232   -27920   -27552 
  -27110   -26626   -26044   -25490   -25350   -25401   -25234   -25245 
  -25706   -26192   -26585   -27094   -27654   -28144   -28356   -28200 
  -28001   -27877   -27784   -27899   -28109   -28302   -28587   -28686 
  -28413   -27999   -27464   -26921   -26689   -26676   -26774   -27020 
  -27153   -27132   -27207   -27380   -27580   -27750   -27889   -28082 
  -28263   -28449   -28668   -28668   -28391   -28080   -27757   -27311 
  -26879   -26740   -26867   -26921   -26754   -26613   -26721   -26844 
  -26801   -26893   -27130   -27118   -26889   -26825   -27010   -27195 
  -27149   -26865   -26531   -26442   -26671   -27051   -27544   -27985 
  -28066   -27997   -28051   -28051   -28036   -28171   -28183   -27851 
  -27429   -27179   -27052   -26940   -26921   -27006   -26993   -26839 
  -26765   -26847   -26923   -26977   -27145   -27360   -27429   -27384 
  -27461   -27730   -27943   -27864   -27533   -27221   -27112   -26975 
  -26684   -26561   -26600   -26546   -26574   -26674   -26689   -26909 
  -27318   -27572   -27656   -27611   -27507   -27490   -27476   -27487 
  -27639   -27853   -28125   -28485   -28741   -28755   -28675   -28664 
  -28541   -28154   -27734   -27461   -27318   -27211   -26989   -26751 
  -26673   -26642   -26658   -26838   -26977   -26820   -26620   -26789 
  -27049   -27083   -27287   -27692   -27880   -27984   -28120   -28165 
  -28327   -28534   -28429   -28125   -27750   -27234   -26717   -26250 
  -25766   -25434   -25396   -25617   -25992   -26396   -26870   -27375 
  -27675   -27850   -28151   -28452   -28541   -28561   -28705   -28865 
  -28918   -28926   -28844   -28574   -28185   -27715   -27303   -27205 
  -27299   -27313   -27241   -27171   -27220   -27298   -27099   -26850 
  -26921   -27012   -26817   -26595   -26557   -26559   -26562   -26804 
  -27207   -27398   -27372   -27371   -27437   -27425   -27244   -27171 
  -27368   -27579   -27703   -27766   -27730   -27621   -27449   -27274 
  -27136   -27075   -27163   -27206   -27079   -26958   -26913   -26979 
  -27159   -27279   -27365   -27587   -27753   -27726   -27739   -27773 
  -27619   -27332   -27044   -26986   -27238   -27434   -27572   -27920 
  -28177   -28173   -28131   -28005   -27830   -27765   -27773   -27895 
  -28057   -28058   -28044   -28186   -28286   -28235   -28186   -28112 
  -27783   -27236   -26731   -26485   -26518   -26589   -26684   -26933 
  -27106   -27167   -27264   -27149   -26904   -26813   -26613   -26307 
  -26337   -26670   -27060   -27426   -27677   -27837   -27926   -27839 
  -27579   -27260   -27112   -27284   -27436   -27342   -27307   -27361 
  -27329   -27336   -27324   -27178   -27130   -27198   -27126   -26943 
  -26929   -27130   -27241   -27198   -27390   -27826   -28086   -28181 
  -28273   -28124   -27819   -27776   -27865   -27816   -27676   -27426 
  -27191   -27168   -27054   -26784   -26723   -26723   -26623   -26665 
  -26761   -26859   -27122   -27332   -27400   -27527   -27614   -27693 
  -27845   -27781   -27611   -27626   -27525   -27260   -27186   -27183 
  -27018   -26767   -26484   -26181   -25902   -25807   -26030   -26327 
  -26554   -26887   -27272   -27611   -27970   -28262   -28362   -28389 
  -28510   -28633   -28593   -28435   -28269   -28151   -28048   -27893 
  -27787   -27751   -27568   -27333   -27340   -27367   -27180   -27120 
  -27259   -27238   -27166   -27222   -27189   -27048   -26908   -26742 
  -26711   -26819   -26905   -27193   -27747   -28154   -28312   -28424 
  -28426   -28190   -27800   -27394   -26979   -26623   -26541   -26596 
  -26484   -26451   -26721   -26913   -26908   -26971   -27054   -27081 
  -27268   -27649   -27959   -28003   -27931   -27993   -28104   -28205 
  -28460   -28682   -28622   -28458   -28267   -28009   -27865   -27918 
  -27969   -27831   -27527   -27284   -27156   -27006   -26925   -26921 
  -26805   -26762   -26886   -26812   -26685   -26856   -26986   -26898 
  -26866   -26958   -27124   -27213   -27129   -27136   -27278   -27309 
  -27220   -27160   -27139   -27033   -26831   -26732   -26865   -27063 
  -27085   -26923   -26770   -26808   -27033   -27203   -27197   -27209 
  -27403   -27599   -27608   -27569   -27572   -27560   -27715   -28042 
  -28188   -28239   -28436   -28493   -28248   -27954   -27724   -27544 
  -27480   -27529   -27565   -27535   -27517   -27565   -27668   -27799 
  -27926   -28098   -28296   -28302   -28098   -27911   -27789   -27750 
  -27812   -27764   -27465   -27108   -26870   -26613   -26252   -26036 
  -25976   -25828   -25812   -26229   -26743   -27009   -27210   -27513 
  -27795   -27912   -27908   -27986   -28127   -28156   -28078   -27858 
  -27531   -27413   -27540   -27664   -27729   -27739   -27715   -27687 
