Origin Time       2024/04/02 04:24:00
Lat.              40.133
Long.             141.712
Depth. (km)       71
Mag.              6.0
Station Code      FKSH14
Station Lat.      37.0264
Station Long.     140.9702
Station Height(m) -144
Record Time       2024/04/02 04:25:26
Sampling Freq(Hz) 100Hz
Duration Time(s)  150
Dir.              1
Scale Factor      2942(gal)/8224139
Max. Acc. (gal)   0.749
Last Correction   2024/04/02 04:25:26
Memo.             
[...]
   17666    17680    17618    17514    17473    17450    17379    17352 
   17370    17347    17312    17328    17381    17427    17473    17486 
   17454    17463    17509    17489    17392    17315    17331    17386 
   17444    17528    17574    17544    17494    17450    17437    17471 
   17462    17366    17265    17177    17157    17325    17545    17628 
   17636    17635    17602    17567    17551    17527    17469    17419 
   17412    17429    17439    17413    17393    17402    17373    17313 
   17324    17431    17591    17722    17780    17807    17807    17755 
   17671    17594    17582    17605    17564    17501    17471    17469 
   17540    17629    17620    17528    17427    17354    17307    17289 
   17294    17282    17304    17428    17552    17602    17625    17601 
   17493    17404    17413    17458    17487    17525    17544    17523 
   17521    17570    17645    17706    17728    17716    17698    17728 
   17755    17733    17728    17721    17698    17718    17729    17683 
   17676    17734    17741    17685    17709    17794    17810    17818 
   17874    17884    17825    17757    17733    17745    17733    17687 
   17613    17533    17505    17500    17510    17597    17691    17698 
   17670    17687    17737    17751    17671    17583    17586    17606 
   17571    17550    17567    17545    17463    17400    17415    17489 
   17577    17625    17608    17560    17537    17540    17568    17610 
   17575    17477    17440    17481    17496    17415    17282    17211 
   17223    17290    17375    17477    17609    17695    17706    17706 
   17675    17579    17481    17479    17610    17732    17736    17705 
   17674    17618    17589    17593    17586    17582    17628    17680 
   17705    17718    17690    17594    17514    17513    17543    17552 
   17550    17543    17462    17332    17281    17317    17381    17451 
   17506    17540    17548    17496    17392    17304    17258    17296 
   17392    17405    17328    17285    17288    17288    17285    17307 
   17365    17455    17524    17501    17444    17417    17366    17308 
   17309    17355    17439    17523    17531    17524    17563    17606 
   17624    17608    17587    17574    17559    17590    17653    17701 
   17767    17853    17914    17934    17864    17729    17624    17541 
   17474    17487    17568    17625    17614    17590    17640    17701 
   17641    17517    17440    17437    17483    17560    17664    17755 
   17767    17698    17645    17675    17698    17653    17637    17695 
   17790    17879    17932    17941    17880    17751    17626    17572 
   17575    17572    17626    17775    17892    17928    17950    17930 
   17803    17617    17481    17485    17574    17602    17578    17556 
   17497    17442    17428    17412    17406    17428    17440    17467 
   17541    17612    17622    17605    17594    17594    17604    17582 
   17475    17378    17388    17452    17543    17639    17670    17658 
   17629    17579    17593    17682    17722    17702    17724    17778 
   17771    17733    17710    17631    17493    17394    17365    17424 
   17550    17641    17676    17663    17604    17539    17456    17382 
   17408    17470    17513    17563    17555    17481    17410    17312 
   17208    17209    17324    17471    17559    17539    17473    17401 
   17325    17316    17329    17307    17358    17462    17470    17429 
   17392    17302    17227    17219    17177    17158    17286    17398 
   17379    17340    17298    17288    17390    17508    17532    17490 
   17463    17508    17591    17656    17706    17741    17709    17606 
   17548    17628    17772    17867    17884    17860    17853    17848 
   17774    17659    17548    17444    17402    17440    17498    17537 
   17525    17473    17486    17591    17687    17694    17618    17548 
   17575    17680    17757    17763    17753    17753    17713    17652 
   17653    17679    17649    17612    17628    17668    17679    17701 
   17745    17712    17658    17687    17724    17725    17741    17809 
   17896    17952    17998    18023    17957    17833    17755    17729 
   17714    17676    17621    17595    17594    17521    17366    17263 
   17209    17150    17173    17267    17307    17290    17247    17176 
   17112    17089    17150    17242    17251    17219    17180    17145 
   17184    17259    17319    17405    17501    17555    17563    17547 
   17509    17451    17389    17362    17402    17464    17531    17629 
   17707    17737    17747    17714    17670    17682    17682    17622 
   17618    17702    17756    17756    17755    17771    17813    17844 
   17817    17766    17682    17571    17544    17589    17556    17473 
   17485    17536    17520    17458    17378    17305    17258    17231 
   17255    17311    17354    17413    17497    17555    17585    17621 
   17672    17676    17593    17543    17587    17608    17583    17575 
   17575    17602    17670    17739    17760    17702    17597    17516 
   17477    17482    17531    17602    17667    17706    17741    17795 
   17864    17894    17844    17782    17740    17690    17683    17690 
   17649    17602    17528    17463    17474    17448    17371    17332 
   17300    17305    17396    17459    17415    17327    17267    17232 
   17174    17116    17109    17147    17230    17328    17398    17455 
   17475    17443    17428    17466    17487    17504    17560    17552 
   17419    17315    17346    17416    17421    17417    17482    17598 
   17702    17764    17806    17806    17707    17539    17440    17493 
   17609    17682    17709    17714    17666    17562    17516    17559 
   17591    17595    17574    17527    17510    17543    17613    17676 
   17653    17550    17459    17464    17540    17591    17604    17613 
   17610    17572    17520    17496    17493    17481    17486    17550 
   17637    17710    17747    17728    17685    17648    17641    17676 
   17685    17676    17747    17815    17767    17679    17647    17660 
   17674    17695    17717    17709    17709    17697    17639    17609 
   17602    17544    17479    17464    17447    17429    17491    17598 
   17624    17568    17531    17533    17537    17514    17475    17473 
   17527    17574    17583    17601    17598    17533    17482    17514 
   17567    17554    17501    17473    17478    17497    17505    17539 
   17614    17641    17620    17659    17724    17743    17761    17759 
   17656    17554    17570    17606    17533    17435    17410    17398 
   17334    17262    17250    17284    17352    17454    17512    17504 
   17513    17570    17622    17639    17637    17662    17702    17699 
   17620    17556    17636    17752    17749    17679    17635    17626 
   17606    17533    17460    17419    17400    17447    17570    17666 
   17680    17659    17608    17574    17602    17628    17652    17674 
   17664    17703    17798    17869    17911    17919    17903    17872 
   17834    17826    17828    17795    17741    17653    17540    17481 
   17512    17574    17599    17583    17550    17504    17466    17500 
   17635    17770    17814    17849    17898    17825    17720    17714 
   17679    17593    17552    17556    17574    17552    17564    17678 
   17744    17682    17554    17421    17359    17319    17221    17204 
   17344    17475    17493    17481    17502    17493    17427    17400 
   17452    17517    17551    17571    17564    17544    17581    17612 
   17605    17640    17671    17647    17618    17581    17525    17446 
   17363    17317    17259    17196    17182    17170    17184    17304 
   17450    17524    17555    17593    17641    17679    17670    17543 
   17334    17230    17259    17312    17375    17425    17390    17327 
   17335    17397    17443    17444    17454    17527    17635    17710 
   17726    17691    17614    17516    17432    17404    17417    17383 
   17336    17396    17485    17496    17478    17455    17417    17402 
   17417    17491    17594    17626    17563    17420    17267    17230 
   17315    17448    17570    17598    17552    17483    17354    17238 
   17238    17277    17313    17359    17374    17375    17419    17454 
   17410    17316    17201    17093    17030    16977    16920    16872 
   16826    16872    17032    17216    17382    17500    17570    17617 
   17636    17663    17705    17722    17743    17760    17729    17722 
   17817    17888    17782    17587    17462    17459    17628    17880 
   18038    18118    18162    18165    18180    18241    18315    18330 
   18270    18185    18079    17969    17894    17813    17728    17701 
   17682    17633    17637    17666    17577    17369    17182    17054 
   16919    16819    16829    16946    17109    17227    17290    17319 
   17235    17073    16973    16937    16953    17037    17147    17258 
   17275    17161    17030    16887    16745    16742    16853    16966 
   17151    17393    17540    17625    17728    17847    18009    18220 
   18445    18565    18512    18382    18189    17929    17722    17610 
   17595    17685    17764    17787    17806    17790    17736    17709 
   17702    17729    17864    18084    18281    18393    18382    18260 
   18112    17975    17810    17595    17382    17209    16977    16691 
   16560    16645    16810    16947    17070    17212    17298    17274 
   17235    17219    17209    17273    17416    17556    17618    17582 
   17491    17388    17338    17405    17509    17587    17707    17891 
   18102    18262    18320    18276    18050    17749    17633    17628 
   17595    17605    17583    17467    17401    17433    17505    17668 
   17955    18223    18319    18222    17961    17658    17442    17234 
   16977    16854    16947    17124    17319    17485    17543    17460 
   17224    16993    16958    17057    17219    17427    17582    17659 
   17732    17815    17852    17852    17884    17844    17644    17489 
   17496    17531    17531    17567    17714    17910    18007    18072 
   18172    18133    17945    17841    17896    17988    18000    17969 
   17965    17909    17763    17628    17574    17598    17628    17614 
   17597    17508    17305    17203    17293    17409    17475    17490 
   17496    17621    17807    17911    17995    18061    18017    17945 
   17917    17888    17915    18027    18149    18215    18223    18187 
   18046    17811    17639    17593    17670    17901    18260    18573 
   18725    18773    18728    18617    18542    18459    18324    18212 
   18085    17892    17736    17689    17701    17736    17810    17876 
   17859    17797    17725    17649    17672    17776    17778    17722 
   17790    17859    17747    17581    17494    17443    17454    17500 
   17455    17347    17239    17139    17065    17080    17224    17352 
   17348    17250    17045    16795    16625    16518    16480    16545 
   16632    16726    16887    17065    17221    17343    17382    17319 
   17157    16933    16692    16455    16210    15907    15642    15619 
   15817    16077    16326    16587    16815    16908    16911    16950 
   16987    16947    16987    17224    17487    17689    17853    17882 
   17844    17828    17690    17460    17275    17116    17032    17100 
   17288    17504    17651    17809    18042    18162    18118    18087 
   18038    17806    17450    17162    16969    16845    16821    16876 
   17042    17327    17651    18063    18511    18735    18642    18370 
   18117    17923    17698    17451    17159    16792    16515    16472 
   16653    16999    17325    17386    17205    16991    16823    16776 
   16837    16877    17001    17297    17593    17884    18261    18627 
   18891    18983    18832    18520    18181    17883    17652    17524 
   17501    17558    17706    17853    17871    17859    17887    17869 
   17864    17932    18081    18326    18472    18472    18523    18603 
   18586    18501    18423    18438    18559    18670    18694    18661 
   18550    18306    18006    17752    17481    17138    16807    16590 
   16594    16814    17108    17379    17485    17350    17196    17158 
   17135    17135    17224    17284    17203    17092    17031    16939 
   16784    16690    16753    16876    17019    17254    17431    17405 
   17292    17188    17169    17379    17668    17772    17770    17695 
   17419    17047    16814    16807    16966    17127    17224    17365 
   17548    17678    17820    18011    18179    18347    18497    18519 
   18432    18281    18118    17980    17768    17535    17477    17554 
   17637    17663    17567    17452    17440    17435    17432    17528 
   17641    17678    17672    17621    17532    17459    17433    17487 
   17562    17498    17294    17091    16953    16895    16949    17078 
   17240    17410    17452    17312    17204    17224    17262    17338 
   17435    17459    17447    17413    17359    17402    17604    17860 
   18090    18211    18131    17948    17817    17686    17532    17532 
   17712    17888    18037    18142    18046    17778    17521    17400 
   17470    17621    17706    17787    17861    17768    17586    17482 
   17415    17339    17247    17096    16877    16551    16191    15998 
   15961    16021    16229    16433    16459    16397    16397    16546 
   16831    17123    17325    17421    17408    17316    17238    17262 
   17356    17435    17558    17768    17929    17991    18036    18042 
   17977    17919    17977    18137    18269    18256    18150    18164 
   18404    18801    19233    19543    19646    19564    19303    18944 
   18659    18472    18349    18331    18353    18292    18179    18112 
   18094    18125    18214    18308    18412    18513    18516    18374 
   18063    17597    17177    16969    17019    17296    17589    17670 
   17531    17304    17066    16854    16725    16623    16491    16405 
   16375    16359    16456    16708    16960    17136    17294    17415 
   17432    17390    17325    17153    16958    16900    16916    17016 
   17269    17510    17608    17656    17749    17968    18316    18617 
   18835    19052    19178    19086    18805    18412    17976    17572 
   17254    17072    17078    17189    17320    17517    17749    17867 
   17795    17625    17491    17408    17336    17328    17429    17502 
   17408    17324    17423    17469    17240    16892    16595    16337 
   16189    16218    16305    16394    16518    16632    16725    16835 
   16895    16873    16887    16962    17070    17296    17520    17466 
   17192    16927    16761    16694    16679    16757    16973    17162 
   17269    17489    17805    17991    17952    17737    17462    17200 
   17028    17124    17479    17859    18157    18342    18354    18311 
   18328    18392    18501    18632    18775    19017    19290    19388 
   19318    19152    18859    18592    18539    18607    18659    18709 
   18723    18617    18419    18192    17964    17807    17741    17729 
   17828    17987    18071    18100    18131    18067    17901    17815 
   17814    17830    17918    17972    17892    17751    17541    17315 
   17205    17189    17095    16842    16590    16515    16588    16702 
   16816    16919    16984    16969    16858    16731    16696    16752 
   16861    17039    17232    17316    17359    17512    17695    17801 
   17759    17556    17378    17342    17413    17558    17604    17460 
   17263    17091    16950    16884    16947    17140    17352    17475 
   17473    17361    17205    17047    16973    17107    17379    17560 
   17594    17651    17745    17691    17478    17298    17286    17440 
   17671    17842    17929    17967    17830    17485    17166    16978 
   16907    16981    17128    17205    17176    17165    17274    17363 
   17334    17301    17369    17506    17624    17652    17614    17550 
   17437    17294    17231    17351    17566    17644    17625    17776 
   18021    18083    17982    17844    17694    17556    17502    17572 
   17671    17713    17714    17664    17577    17498    17439    17416 
   17470    17678    18018    18318    18508    18669    18731    18586 
   18414    18393    18474    18574    18628    18551    18328    18063 
   17811    17544    17331    17275    17313    17371    17494    17641 
   17631    17437    17271    17262    17282    17201    17151    17288 
   17520    17749    17945    17984    17803    17482    17085    16710 
   16475    16357    16303    16322    16324    16221    16140    16222 
   16394    16521    16580    16583    16528    16409    16231    16128 
   16239    16534    16902    17192    17435    17775    18094    18241 
   18193    17956    17734    17663    17560    17402    17319    17290 
   17257    17204    17212    17282    17313    17354    17460    17675 
   18021    18258    18308    18365    18376    18254    18088    17942 
   17898    17896    17809    17706    17672    17640    17535    17307 
   17022    16788    16586    16444    16482    16663    16853    16960 
   16991    17059    17234    17444    17631    17791    17848    17791 
   17786    17824    17768    17737    17855    18018    18119    18148 
   18135    18094    18014    17936    17928    17960    17941    17864 
   17766    17679    17682    17787    18000    18360    18729    18960 
   19093    19147    19114    19052    18976    18913    18928    19001 
   18999    18862    18651    18427    18239    18152    18108    17964 
   17751    17572    17386    17208    17097    17018    16999    17024 
   16930    16717    16506    16318    16164    16102    16202    16457 
   16815    17226    17574    17707    17632    17502    17394    17298 
   17259    17359    17624    17872    17895    17763    17622    17502 
   17460    17532    17609    17624    17655    17716    17714    17698 
   17774    17898    17979    18018    18115    18296    18409    18462 
   18605    18736    18682    18474    18191    17868    17496    17124 
   16906    16838    16880    17057    17239    17347    17435    17447 
   17423    17543    17788    17938    17882    17697    17487    17327 
   17207    17139    17203    17369    17521    17585    17564    17479 
   17343    17270    17288    17273    17196    17077    16942    16912 
   17039    17157    17134    17047    17011    17055    17104    17074 
   16970    16804    16688    16794    17127    17564    17959    18181 
   18216    18127    17973    17868    17902    18023    18154    18233 
   18214    18071    17749    17321    17019    16912    16884    16938 
   17172    17463    17612    17595    17464    17213    16895    16721 
   16829    17057    17157    17015    16686    16355    16117    15963 
   15998    16217    16422    16575    16718    16772    16706    16560 
   16438    16465    16594    16792    17111    17390    17458    17352 
   17181    17139    17343    17641    17901    18154    18369    18423 
   18293    18083    17880    17693    17571    17629    17845    18092 
   18364    18701    18968    19063    19075    19056    18945    18744 
   18531    18366    18307    18366    18503    18719    18979    19172 
   19201    18994    18589    18171    17898    17753    17612    17478 
   17463    17498    17442    17415    17533    17632    17685    17811 
   17938    18019    18095    18139    18169    18214    18210    18096 
   17936    17779    17586    17346    17061    16834    16814    16857 
