Origin Time       2024/04/02 04:24:00
Lat.              40.133
Long.             141.712
Depth. (km)       71
Mag.              6.0
Station Code      FKSH09
Station Lat.      37.3530
Station Long.     140.4264
Station Height(m) 260
Record Time       2024/04/02 04:25:35
Sampling Freq(Hz) 100Hz
Duration Time(s)  120
Dir.              6
Scale Factor      7845(gal)/8223790
Max. Acc. (gal)   1.061
Last Correction   2024/04/02 04:25:36
Memo.             
[...]
  -20552   -20517   -20459   -20486   -20736   -21074   -21027   -20734 
  -20584   -20578   -20804   -21054   -20821   -20513   -20777   -21141 
  -20941   -20748   -21093   -21089   -20555   -20663   -21215   -21053 
  -20484   -20425   -20696   -20717   -20718   -20979   -20918   -20460 
  -20515   -21006   -21182   -21219   -21274   -21132   -20895   -20725 
  -20775   -20884   -20729   -20605   -20788   -21010   -21022   -20911 
  -20831   -20738   -20696   -20844   -20900   -20769   -20833   -20785 
  -20337   -20374   -21003   -21174   -20884   -20800   -20833   -20769 
  -20795   -20889   -20887   -20887   -20939   -20927   -20814   -20699 
  -20717   -20810   -20834   -20939   -21172   -20997   -20347   -20100 
  -20641   -21150   -20879   -20363   -20595   -21255   -21205   -20638 
  -20571   -20826   -20787   -20561   -20425   -20636   -21058   -21127 
  -20841   -20690   -20861   -20906   -20683   -20885   -21228   -20815 
  -20301   -20476   -20935   -21124   -20848   -20590   -20865   -21131 
  -20806   -20397   -20555   -20803   -20628   -20592   -20861   -20895 
  -20740   -20710   -20839   -20930   -20803   -20775   -20989   -20970 
  -20807   -21015   -21292   -21176   -20808   -20655   -20969   -21107 
  -20791   -20868   -21095   -20873   -20900   -21054   -20727   -20460 
  -20457   -20636   -20961   -20857   -20614   -20753   -20787   -20783 
  -20887   -20757   -20812   -21100   -20861   -20363   -20537   -21101 
  -21060   -20711   -20730   -20528   -20127   -20412   -21003   -21018 
  -20488   -20214   -20607   -20949   -20831   -20731   -20773   -20857 
  -21053   -20997   -20553   -20563   -21084   -21161   -20846   -20690 
  -20680   -20709   -20757   -20938   -21127   -20911   -20509   -20569 
  -20942   -20814   -20362   -20660   -21289   -21088   -20736   -20912 
  -20974   -21006   -21173   -21000   -20765   -20796   -20950   -21136 
  -21165   -21099   -20918   -20514   -20490   -21092   -21508   -21263 
  -20925   -21011   -21217   -21131   -20860   -20784   -20925   -20922 
  -20736   -20522   -20502   -20860   -21004   -20430   -19970   -20364 
  -20854   -20634   -20254   -20453   -20950   -21091   -20768   -20494 
  -20688   -20953   -20898   -20817   -20760   -20534   -20291   -20217 
  -20432   -20822   -21068   -20988   -20425   -19866   -20090   -20503 
  -20331   -20139   -20302   -20445   -20552   -20810   -21057   -20958 
  -20588   -20534   -20788   -20729   -20412   -20487   -20947   -21041 
  -20800   -20812   -20737   -20488   -20731   -20953   -20414   -20190 
  -20958   -21421   -20956   -20582   -20804   -20949   -20638   -20433 
  -20718   -21215   -21500   -21182   -20648   -20709   -21132   -21254 
  -21143   -21072   -20943   -20804   -20981   -21235   -21134   -20873 
  -20869   -21216   -21355   -21051   -20934   -21085   -21131   -21043 
  -20830   -20563   -20406   -20672   -21384   -21544   -20833   -20672 
  -21286   -21170   -20428   -20344   -20729   -20898   -21018   -21243 
  -21231   -20692   -20142   -20352   -20869   -20804   -20538   -20869 
  -21452   -21384   -20779   -20530   -20731   -20753   -20536   -20517 
  -20904   -21467   -21585   -21024   -20464   -20480   -20695   -20552 
  -20448   -20892   -21041   -20493   -20366   -20665   -20487   -20362 
  -20796   -20930   -20497   -20410   -20841   -21015   -20818   -20599 
  -20398   -20424   -20650   -20683   -20623   -20650   -20713   -20875 
  -20900   -20671   -20749   -21011   -20704   -20336   -20729   -21324 
  -21385   -21050   -20714   -20583   -20549   -20565   -20729   -20764 
  -20767   -21006   -20962   -20737   -20992   -21317   -21362   -21369 
  -21151   -20942   -21154   -21199   -20814   -20595   -20733   -21004 
  -21093   -20756   -20564   -20912   -20838   -20223   -20376   -21084 
  -21011   -20480   -20628   -21085   -20871   -20464   -20565   -20591 
  -20414   -20505   -20574   -20636   -20979   -21024   -20698   -20621 
  -20582   -20416   -20553   -20769   -20700   -20470   -20205   -20262 
  -20672   -20880   -20810   -20595   -20428   -20625   -20911   -21043 
  -21149   -21000   -20551   -20466   -20920   -21055   -20761   -20806 
  -21011   -21024   -21109   -21141   -21066   -20965   -20676   -20731 
  -21199   -21007   -20443   -20575   -20908   -20757   -20553   -20680 
  -20834   -20780   -20835   -21199   -21335   -20939   -20718   -20985 
  -21047   -20865   -20958   -21019   -20790   -20736   -20868   -20753 
  -20398   -20198   -20461   -20795   -20676   -20756   -21307   -21132 
  -20299   -20187   -20557   -20653   -20846   -20997   -20821   -21004 
  -21406   -20991   -20156   -20214   -20935   -21111   -20827   -20839 
  -21011   -20997   -20911   -20926   -20947   -20775   -20668   -20872 
  -20837   -20347   -20475   -21451   -21627   -20758   -20509   -20885 
  -20919   -20962   -21037   -20750   -20784   -21296   -21286   -20650 
  -20439   -20827   -20854   -20449   -20521   -20985   -21122   -20915 
  -20628   -20555   -20727   -20621   -20291   -20457   -21027   -21147 
  -20649   -20287   -20499   -20835   -20807   -20687   -20804   -20861 
  -20807   -20796   -20664   -20596   -20709   -20703   -20784   -21092 
  -21227   -21116   -20972   -20799   -20583   -20623   -21081   -21313 
  -20875   -20471   -20451   -20366   -20271   -20339   -20545   -20858 
  -20676   -20159   -20553   -21224   -20798   -20313   -20719   -21119 
  -21062   -20937   -20906   -20933   -20898   -20706   -20521   -20455 
  -20472   -20700   -20961   -20858   -20753   -20916   -20796   -20511 
  -20919   -21454   -20841   -20071   -20684   -21388   -20880   -20522 
  -21108   -21556   -21255   -20684   -20596   -20992   -21062   -20856 
  -21028   -21104   -20818   -21022   -21321   -20765   -20326   -20795 
  -21111   -20619   -20216   -20679   -21321   -21347   -21035   -20857 
  -20911   -21092   -21323   -21373   -20918   -20453   -20569   -20915 
  -20974   -20676   -20472   -20642   -20854   -20839   -20590   -20449 
  -20642   -20780   -20754   -20660   -20538   -20553   -20418   -20248 
  -20518   -20675   -20389   -20402   -20974   -21207   -20503   -19978 
  -20501   -21031   -20973   -20907   -20864   -20750   -20831   -20873 
  -20625   -20452   -20711   -21158   -21136   -20568   -20275   -20656 
  -20864   -20426   -20312   -20748   -20943   -21043   -21122   -20844 
  -20810   -21186   -21200   -20864   -20749   -21153   -21587   -20981 
  -19953   -20152   -21060   -21238   -20853   -20761   -21024   -20954 
  -20623   -20595   -20448   -20432   -21015   -21087   -20771   -20991 
  -20970   -20749   -21132   -21370   -20854   -20390   -20686   -21216 
  -21145   -20687   -20542   -20873   -21269   -21134   -20588   -20429 
  -20783   -21037   -20830   -20540   -20760   -21216   -21347   -21250 
  -20876   -20353   -20475   -20974   -20753   -20232   -20494   -21145 
  -21254   -20746   -20310   -20537   -20916   -20715   -20293   -20370 
  -20796   -20988   -20939   -20912   -21114   -21351   -20857   -20038 
  -20231   -21097   -21313   -20860   -20590   -20771   -21016   -20993 
  -20783   -20588   -20478   -20413   -20324   -20364   -20677   -21001 
  -21178   -21111   -20596   -20305   -20646   -20669   -20510   -21008 
  -21301   -20798   -20461   -20750   -21072   -20935   -20567   -20613 
  -21073   -21078   -20688   -20868   -21267   -21023   -20528   -20590 
  -21089   -20999   -20302   -20345   -21008   -21014   -20619   -20661 
  -21101   -21544   -21315   -20451   -20156   -20548   -20741   -20698 
  -20733   -21061   -21267   -20672   -20152   -20676   -21431   -21309 
  -20507   -20258   -20799   -20931   -20470   -20439   -20942   -21293 
  -21103   -20499   -20482   -21212   -21223   -20564   -20480   -20606 
  -20619   -21028   -21255   -20952   -20933   -20993   -20553   -20417 
  -20821   -20821   -20761   -21267   -21300   -20709   -20615   -20610 
  -20258   -20540   -21163   -20952   -20619   -21028   -21246   -20953 
  -20910   -20900   -20623   -20548   -20671   -20568   -20329   -20514 
  -20995   -20839   -20341   -20610   -20988   -20607   -20459   -20970 
  -21219   -20896   -20264   -19958   -20626   -21342   -21057   -20610 
  -20672   -20691   -20628   -20923   -21263   -21204   -21107   -21091 
  -20841   -20841   -21114   -20822   -20556   -20844   -20613   -20166 
  -20686   -21294   -20910   -20266   -20243   -20653   -20889   -20641 
  -20507   -20957   -21011   -20445   -20444   -20823   -20734   -20552 
  -20677   -21069   -21359   -20918   -20440   -20903   -21238   -20742 
  -20659   -21217   -21384   -21186   -20962   -20524   -20329   -20723 
  -21146   -21155   -20718   -20461   -20922   -21222   -20875   -20737 
  -21007   -21239   -21373   -21429   -21386   -21035   -20368   -20127 
  -20580   -20911   -20567   -20065   -20140   -20645   -21023   -21118 
  -20925   -20783   -21068   -21188   -20779   -20694   -21246   -21440 
  -20850   -20399   -20655   -20980   -20946   -20930   -20942   -20648 
  -20499   -20804   -20763   -20160   -20061   -20937   -21629   -21026 
  -20129   -20349   -20845   -20518   -20217   -20748   -21392   -21195 
  -20497   -20326   -20555   -20428   -20083   -20051   -20326   -20586 
  -20745   -20881   -21099   -21346   -21239   -20970   -21074   -21087 
  -20726   -20615   -20746   -20803   -20866   -20765   -20733   -21178 
  -21222   -20533   -20464   -21132   -21280   -20795   -20520   -20950 
  -21452   -21041   -20526   -21057   -21531   -20772   -19882   -20186 
  -20981   -21153   -20960   -20875   -20902   -20815   -20324   -19975 
  -20406   -21023   -21204   -21041   -20761   -20709   -20991   -21180 
  -20941   -20703   -20954   -21001   -20370   -20209   -20868   -20937 
  -20359   -20461   -21037   -21061   -20682   -20457   -20428   -20540 
  -20764   -20900   -20772   -20493   -20572   -20943   -20795   -20428 
  -20713   -21135   -20950   -20536   -20684   -21319   -21343   -20730 
  -20652   -20988   -20903   -20703   -20872   -21003   -20625   -20329 
  -20831   -21285   -20919   -20694   -21054   -21200   -20850   -20498 
  -20629   -20877   -20704   -20710   -21141   -21350   -21365   -21169 
  -20718   -20679   -20869   -20648   -20425   -20653   -21018   -20827 
  -20324   -20548   -21004   -20802   -20565   -20413   -19985   -20046 
  -20833   -21330   -21153   -20806   -20661   -20760   -20714   -20502 
  -20833   -21239   -20934   -20811   -21131   -21019   -20637   -20655 
  -21185   -21416   -20673   -20177   -20792   -21290   -21074   -20912 
  -20918   -20664   -20505   -20811   -21114   -21157   -21077   -20849 
  -20731   -20849   -20769   -20507   -20548   -20758   -20765   -20721 
  -20707   -20625   -20619   -20646   -20517   -20614   -21146   -21304 
  -20791   -20387   -20463   -20700   -20703   -20663   -21028   -21257 
  -20829   -20417   -20518   -20760   -20680   -20383   -20494   -20919 
  -20865   -20594   -20761   -21126   -21123   -20695   -20687   -21282 
  -21236   -20425   -20216   -20961   -21370   -20829   -20576   -20973 
  -20869   -20418   -20314   -20399   -20849   -21217   -20551   -19872 
  -20491   -21297   -21024   -20563   -20837   -21177   -20960   -20574 
  -20761   -21525   -21716   -21092   -20888   -21112   -20956   -20837 
  -20964   -20865   -20744   -20611   -20325   -20659   -21343   -21026 
  -20285   -20483   -21189   -21297   -20667   -20241   -20710   -21276 
  -21208   -20772   -20256   -20283   -21049   -21339   -20857   -20598 
  -20741   -21037   -21107   -20528   -20202   -20702   -20919   -20536 
  -20478   -20919   -21077   -20788   -20753   -20896   -20534   -20163 
  -20781   -21587   -21320   -20783   -20875   -20919   -20544   -20379 
  -20737   -20999   -20802   -20775   -21066   -20950   -20447   -20289 
  -20515   -20725   -20926   -21033   -20714   -20453   -20945   -21421 
  -20950   -20398   -20698   -21085   -20869   -20602   -20818   -21192 
  -21068   -20591   -20574   -21012   -21108   -20757   -20555   -20700 
  -20908   -20725   -20217   -20244   -20819   -20919   -20486   -20397 
  -20780   -21033   -20830   -20383   -20281   -20644   -20844   -20846 
  -20977   -20914   -20673   -20812   -21192   -21182   -20823   -20545 
  -20387   -20584   -21199   -21234   -20466   -19966   -20160   -20625 
  -20792   -20702   -20800   -20892   -20860   -20866   -20861   -21041 
  -21124   -20717   -20563   -20918   -21014   -20717   -20536   -20818 
  -21288   -21197   -20679   -20733   -21143   -20997   -20727   -20821 
  -20857   -20731   -20520   -20366   -20687   -21195   -21192   -20881 
  -20757   -20687   -20652   -20829   -20864   -20784   -21104   -21313 
  -20775   -20302   -20799   -21470   -21150   -20565   -20814   -21240 
  -21128   -20885   -20825   -20850   -20854   -20726   -20432   -20282 
  -20642   -21138   -21139   -20798   -20641   -20838   -21049   -20844 
  -20578   -20768   -20972   -20796   -20677   -20785   -20812   -20721 
  -20740   -20953   -20980   -20606   -20379   -20611   -20993   -21114 
  -20715   -20255   -20360   -20586   -20328   -20144   -20556   -20969 
  -20920   -20680   -20542   -20592   -20684   -20763   -20962   -21023 
  -20790   -20775   -21078   -21105   -20740   -20560   -20827   -20997 
  -20679   -20461   -20802   -21035   -20883   -20942   -21050   -20865 
  -20829   -20808   -20499   -20526   -20980   -21091   -20587   -20004 
  -20193   -20981   -21158   -20680   -20540   -20731   -20736   -20763 
  -20925   -20877   -20869   -21020   -20750   -20349   -20561   -21062 
  -21172   -20900   -20767   -20981   -21138   -21042   -21069   -21161 
  -20818   -20696   -21536   -21907   -20956   -20463   -21014   -21204 
  -20817   -20586   -20750   -21001   -20964   -20823   -20718   -20591 
  -20700   -20726   -20321   -20347   -21145   -21475   -20749   -20229 
  -20738   -21172   -20930   -20877   -21092   -20989   -20721   -20621 
  -20862   -21249   -21128   -20725   -20795   -20908   -20725   -20822 
  -20839   -20345   -20073   -20204   -20372   -20632   -20765   -20606 
  -20488   -20517   -20574   -20565   -20596   -20911   -21169   -21019 
  -20742   -20641   -20741   -20883   -20923   -20902   -20902   -20974 
  -20970   -20842   -20981   -21215   -20827   -20312   -20525   -20915 
  -20918   -20656   -20337   -20463   -20794   -20578   -20223   -20387 
  -20860   -21062   -20844   -20659   -20700   -20764   -20700   -20540 
  -20688   -21127   -21054   -20457   -20302   -20781   -20926   -20364 
  -20167   -20819   -21097   -20560   -20430   -20960   -21197   -21070 
  -20960   -20875   -21034   -21358   -21168   -20707   -20888   -21189 
  -20736   -20360   -20669   -20775   -20619   -20810   -20915   -20721 
  -20672   -20818   -21028   -21093   -20945   -20925   -20935   -20838 
  -21051   -21220   -20873   -20883   -21447   -21381   -20575   -20202 
  -20652   -20970   -20607   -20368   -20725   -21018   -20823   -20544 
  -20555   -20769   -20954   -20792   -20430   -20613   -21128   -21066 
  -20673   -20768   -21162   -21091   -20601   -20405   -20706   -21042 
  -20989   -20709   -20605   -20575   -20541   -20725   -20938   -21041 
  -21188   -21172   -20888   -20648   -20645   -20839   -20987   -20825 
  -20455   -20256   -20445   -20715   -20698   -20578   -20709   -20953 
  -20889   -20653   -20642   -20676   -20617   -20723   -20877   -20892 
  -20976   -21082   -20988   -20758   -20650   -20812   -20903   -20629 
  -20449   -20744   -21070   -20892   -20556   -20625   -20819   -20862 
  -20947   -21082   -21240   -21247   -20892   -20683   -20997   -21204 
  -20817   -20461   -20729   -20988   -20827   -20849   -20964   -20822 
  -20910   -21074   -20910   -20872   -20938   -20680   -20524   -20853 
  -21174   -21037   -20696   -20699   -21139   -21224   -20594   -20247 
  -20491   -20565   -20494   -20645   -20938   -21131   -21046   -20795 
  -20588   -20637   -20892   -20818   -20426   -20371   -20606   -20609 
  -20642   -21041   -21136   -20742   -20694   -20903   -20775   -20707 
  -20769   -20518   -20486   -20923   -21030   -20738   -20673   -20771 
  -20679   -20655   -20922   -21085   -20987   -20958   -21053   -20961 
  -20692   -20669   -20872   -21003   -21138   -21100   -20761   -20637 
  -20804   -20896   -20939   -20992   -20893   -20837   -20992   -20903 
  -20564   -20568   -20767   -20613   -20290   -20394   -20791   -20750 
  -20345   -20312   -20665   -20914   -20960   -20883   -20699   -20537 
  -20569   -20754   -20842   -20834   -20953   -21126   -21037   -20768 
  -20817   -21042   -20952   -20857   -20923   -20754   -20702   -21043 
  -21061   -20688   -20682   -21042   -21150   -20795   -20440   -20569 
  -20817   -20723   -20661   -20814   -20869   -20952   -21022   -20725 
  -20563   -20879   -20950   -20645   -20668   -21085   -21215   -20756 
  -20403   -20665   -20877   -20744   -20823   -20845   -20402   -20317 
  -20892   -21111   -20648   -20406   -20773   -20962   -20599   -20436 
  -20761   -20896   -20775   -20930   -21069   -20865   -20902   -21235 
  -21243   -21000   -20880   -20848   -20854   -20912   -20952   -21024 
  -21095   -20904   -20607   -20641   -20884   -20889   -20706   -20779 
  -21045   -20954   -20610   -20596   -20826   -20831   -20710   -20660 
  -20653   -20866   -21080   -20895   -20582   -20356   -20271   -20507 
  -20853   -20906   -20584   -20312   -20561   -20865   -20640   -20309 
  -20339   -20633   -20784   -20549   -20403   -20694   -20964   -20941 
  -20866   -20733   -20510   -20560   -20791   -20784   -20790   -20985 
  -20930   -20645   -20648   -20889   -20887   -20618   -20648   -20931 
  -20694   -20349   -20710   -21073   -21018   -20968   -20811   -20614 
  -20706   -20808   -20714   -20731   -20931   -20938   -20676   -20568 
  -20842   -21097   -20896   -20552   -20603   -20958   -21135   -20933 
  -20737   -20838   -20879   -20730   -20780   -20980   -21022   -20987 
  -20899   -20700   -20733   -21015   -20946   -20702   -20907   -21193 
  -21000   -20611   -20634   -21016   -20987   -20610   -20718   -21142 
  -21130   -20710   -20529   -20773   -20885   -20718   -20690   -20749 
  -20841   -21128   -21185   -20884   -20831   -20927   -20756   -20703 
  -20954   -21049   -20888   -20785   -20907   -20999   -20834   -20749 
  -20879   -20856   -20744   -20796   -20899   -20954   -20741   -20206 
  -20274   -21162   -21321   -20418   -20047   -20622   -21050   -20792 
  -20353   -20370   -20680   -20757   -20598   -20591   -20849   -20984 
  -20781   -20617   -20703   -20844   -20997   -21057   -20865   -20838 
  -21088   -21004   -20711   -20799   -21010   -20984   -20984   -21039 
  -20910   -20710   -20622   -20677   -20804   -20902   -20891   -20729 
  -20663   -20817   -20811   -20687   -20852   -20979   -20657   -20378 
  -20594   -20893   -20725   -20371   -20509   -20795   -20551   -20282 
  -20555   -20810   -20619   -20459   -20556   -20641   -20711   -20848 
  -20996   -21039   -20815   -20610   -20633   -20470   -20322   -20779 
  -21250   -21051   -20827   -21038   -21103   -21026   -21163   -21101 
  -20880   -20950   -21084   -21078   -21030   -21028   -21161   -21180 
  -20896   -20707   -20825   -21008   -21181   -21234   -21041   -20861 
  -20862   -20888   -20742   -20582   -20817   -21046   -20721   -20553 
  -20880   -20848   -20439   -20475   -20865   -20823   -20406   -20413 
  -20748   -20610   -20293   -20534   -20812   -20715   -20899   -21159 
  -20892   -20687   -20750   -20588   -20467   -20636   -20731   -20653 
