Origin Time       2024/04/02 04:24:00
Lat.              40.133
Long.             141.712
Depth. (km)       71
Mag.              6.0
Station Code      FKSH19
Station Lat.      37.4703
Station Long.     140.7227
Station Height(m) 410
Record Time       2024/04/02 04:25:20
Sampling Freq(Hz) 100Hz
Duration Time(s)  120
Dir.              2
Scale Factor      2942(gal)/8224139
Max. Acc. (gal)   0.605
Last Correction   2024/04/02 04:25:21
Memo.             
[...]
   79417    79494    79451    79569    79674    79554    79473    79392 
   79359    79531    79516    79323    79365    79494    79439    79294 
   79351    79540    79540    79536    79605    79628    79816    79903 
   79714    79712    79794    79658    79529    79573    79717    79809 
   79782    79656    79547    79613    79587    79374    79353    79347 
   79201    79212    79323    79385    79330    79192    79176    79158 
   79119    79222    79261    79161    79178    79382    79509    79470 
   79536    79636    79613    79710    79795    79683    79613    79548 
   79475    79443    79344    79397    79540    79496    79357    79276 
   79389    79506    79439    79443    79478    79412    79456    79546 
   79473    79416    79474    79462    79393    79331    79263    79293 
   79397    79431    79361    79196    79181    79432    79535    79462 
   79540    79604    79532    79544    79633    79651    79655    79650 
   79581    79577    79547    79429    79398    79384    79366    79392 
   79380    79342    79332    79429    79528    79479    79394    79300 
   79222    79239    79196    79184    79362    79448    79436    79354 
   79107    79162    79567    79767    79683    79409    79162    79293 
   79474    79381    79311    79355    79429    79459    79339    79323 
   79492    79547    79477    79465    79546    79533    79415    79447 
   79554    79548    79552    79604    79516    79415    79452    79469 
   79544    79652    79608    79537    79450    79385    79493    79591 
   79567    79537    79458    79404    79564    79672    79521    79469 
   79645    79780    79741    79574    79429    79374    79334    79351 
   79351    79227    79254    79404    79313    79257    79389    79319 
   79236    79361    79351    79305    79408    79385    79286    79297 
   79339    79461    79577    79527    79405    79257    79242    79493 
   79613    79420    79300    79346    79362    79293    79286    79440 
   79556    79600    79594    79521    79593    79666    79702    79891 
   79929    79789    79790    79853    79749    79566    79559    79617 
   79654    79672    79489    79369    79473    79415    79324    79502 
   79609    79485    79478    79617    79699    79820    79938    79818 
   79658    79699    79728    79686    79708    79681    79579    79558 
   79678    79817    79825    79701    79510    79470    79654    79698 
   79505    79401    79481    79539    79413    79208    79215    79436 
   79520    79408    79245    79081    79141    79351    79359    79281 
   79263    79230    79259    79315    79293    79273    79274    79326 
   79382    79429    79575    79596    79502    79654    79790    79612 
   79486    79571    79578    79463    79340    79319    79377    79312 
   79297    79412    79455    79569    79682    79675    79672    79546 
   79397    79404    79340    79253    79340    79375    79273    79340 
   79483    79354    79197    79323    79455    79447    79465    79490 
   79540    79651    79690    79725    79782    79744    79697    79633 
   79537    79513    79520    79469    79312    79226    79336    79371 
   79278    79281    79293    79253    79303    79357    79394    79600 
   79745    79617    79473    79444    79494    79560    79497    79411 
   79427    79382    79354    79375    79294    79359    79485    79358 
   79348    79574    79651    79643    79682    79656    79705    79799 
   79656    79335    79058    79089    79462    79559    79258    79195 
   79346    79384    79342    79258    79313    79440    79366    79313 
   79327    79228    79292    79440    79354    79382    79574    79528 
   79390    79336    79354    79462    79469    79367    79389    79489 
   79477    79436    79494    79567    79647    79678    79569    79582 
   79771    79760    79612    79625    79704    79699    79617    79575 
   79678    79706    79560    79489    79532    79587    79579    79447 
   79305    79236    79288    79400    79340    79257    79367    79519 
   79528    79351    79245    79377    79497    79501    79466    79478 
   79548    79451    79303    79386    79420    79261    79200    79293 
   79479    79674    79733    79647    79531    79521    79600    79683 
   79698    79614    79655    79771    79682    79544    79532    79604 
   79760    79897    79890    79752    79682    79832    79866    79574 
   79478    79682    79583    79393    79571    79596    79382    79386 
   79362    79311    79536    79690    79544    79357    79301    79365 
   79463    79555    79605    79606    79583    79434    79184    79195 
   79442    79479    79427    79455    79394    79388    79436    79407 
   79323    79211    79297    79409    79263    79270    79466    79420 
   79261    79282    79416    79450    79456    79537    79413    79224 
   79401    79593    79409    79207    79359    79577    79525    79443 
   79353    79269    79475    79683    79687    79689    79617    79504 
   79496    79504    79481    79508    79478    79299    79207    79297 
   79272    79239    79398    79319    79135    79286    79348    79270 
   79436    79515    79277    79114    79189    79317    79397    79408 
   79434    79498    79502    79528    79564    79505    79520    79695 
   79759    79496    79326    79625    79849    79714    79643    79575 
   79357    79246    79343    79533    79635    79620    79521    79338 
   79332    79524    79618    79587    79458    79320    79353    79416 
   79416    79493    79493    79462    79614    79605    79450    79525 
   79600    79481    79417    79489    79400    79178    79262    79440 
   79436    79550    79650    79578    79662    79751    79677    79677 
   79681    79675    79666    79551    79552    79627    79608    79506 
   79359    79448    79644    79475    79205    79243    79321    79297 
   79304    79218    79139    79245    79257    79158    79235    79375 
   79427    79521    79639    79644    79550    79506    79573    79594 
   79536    79520    79552    79562    79544    79515    79512    79510 
   79411    79420    79609    79647    79623    79714    79627    79402 
   79377    79497    79635    79704    79637    79594    79640    79656 
   79668    79708    79645    79537    79543    79477    79262    79269 
   79594    79751    79571    79502    79536    79404    79370    79493 
   79492    79467    79555    79573    79494    79425    79371    79469 
   79695    79712    79546    79585    79691    79590    79550    79525 
   79386    79382    79365    79235    79215    79218    79173    79154 
   79180    79199    79146    79182    79267    79126    79039    79178 
   79139    79074    79172    79150    79174    79307    79332    79363 
   79419    79435    79401    79343    79417    79552    79581    79547 
   79531    79525    79489    79451    79540    79643    79536    79462 
   79629    79668    79462    79465    79747    79922    79878    79741 
   79708    79825    79844    79733    79594    79362    79288    79478 
   79467    79307    79375    79483    79455    79377    79290    79289 
   79384    79458    79554    79681    79581    79411    79569    79645 
   79506    79675    79864    79751    79682    79654    79510    79452 
   79556    79629    79577    79531    79443    79226    79191    79257 
   79168    79261    79442    79459    79496    79446    79547    79837 
   79655    79431    79643    79798    79756    79591    79560    79763 
   79739    79547    79416    79355    79496    79533    79381    79375 
   79389    79425    79554    79516    79444    79506    79540    79613 
   79793    79802    79670    79655    79577    79439    79552    79631 
   79362    79168    79226    79245    79197    79126    79100    79224 
   79311    79292    79278    79177    79103    79259    79381    79354 
   79498    79756    79797    79691    79623    79521    79416    79431 
   79501    79529    79505    79494    79450    79335    79292    79293 
   79339    79517    79587    79409    79272    79359    79475    79478 
   79571    79771    79732    79494    79434    79509    79610    79716 
   79709    79720    79718    79573    79509    79502    79309    79139 
   79321    79542    79400    79334    79556    79569    79428    79412 
   79381    79304    79288    79474    79613    79400    79294    79416 
   79315    79215    79394    79428    79123    78946    79058    79203 
   79281    79245    79250    79459    79574    79521    79539    79666 
   79832    79855    79756    79729    79787    79863    79822    79601 
   79385    79412    79577    79641    79566    79305    79131    79305 
   79488    79559    79629    79569    79502    79512    79429    79479 
   79671    79631    79552    79583    79555    79562    79552    79528 
   79589    79473    79281    79382    79569    79539    79415    79388 
   79510    79597    79471    79340    79370    79469    79490    79446 
   79515    79631    79617    79532    79558    79695    79668    79542 
   79578    79583    79559    79590    79411    79235    79386    79536 
   79461    79301    79180    79218    79366    79357    79226    79204 
   79209    79205    79324    79467    79515    79451    79316    79299 
   79397    79493    79567    79581    79590    79552    79450    79500 
   79535    79463    79583    79666    79520    79450    79586    79786 
   79818    79717    79566    79392    79502    79583    79219    79073 
   79301    79284    79166    79185    79151    79184    79382    79517 
   79467    79281    79208    79428    79618    79594    79555    79473 
   79323    79346    79564    79704    79610    79404    79270    79236 
   79253    79392    79602    79659    79618    79625    79581    79519 
   79585    79731    79867    79807    79563    79574    79814    79778 
   79543    79380    79236    79212    79294    79319    79370    79455 
   79456    79334    79285    79429    79459    79482    79566    79342 
   79205    79353    79305    79299    79448    79478    79571    79597 
   79428    79501    79691    79689    79705    79712    79609    79456 
   79276    79319    79498    79398    79307    79417    79370    79266 
   79338    79381    79377    79508    79609    79488    79336    79266 
   79215    79250    79278    79232    79331    79536    79645    79652 
   79569    79489    79552    79720    79825    79726    79409    79159 
   79296    79577    79582    79370    79330    79539    79663    79608 
   79668    79745    79563    79564    79780    79660    79621    79766 
   79537    79388    79521    79462    79475    79644    79586    79525 
   79667    79807    79799    79666    79635    79731    79759    79782 
   79758    79691    79820    79907    79797    79798    79848    79789 
   79747    79798    79855    79802    79772    79760    79737    79848 
   79868    79829    79932    79845    79681    79864    79998    79677 
   79408    79431    79413    79450    79443    79243    79270    79388 
   79307    79289    79255    79201    79380    79473    79222    78956 
   78899    78956    79053    79141    79263    79423    79362    79184 
   79111    78979    78838    78729    78520    78436    78629    78776 
   78703    78628    78703    78800    78791    78776    78779    78726 
   78703    78711    78765    78896    78983    79038    79101    79255 
   79547    79745    79843    79870    79748    79650    79581    79455 
   79332    79281    79498    79840    79937    79952    80042    80006 
   79884    79894    80037    80200    80266    80202    80192    80281 
   80204    79947    79668    79448    79458    79583    79535    79458 
   79506    79517    79532    79668    79735    79816    79995    80063 
   80119    79976    79648    79686    79789    79694    79759    79886 
   79925    79956    79894    79702    79610    79726    79797    79774 
   79780    79748    79718    79650    79428    79304    79305    79216 
   79320    79658    79744    79662    79570    79290    79015    78857 
   78690    78683    78810    78776    78748    78887    78854    78625 
   78622    78887    79186    79492    79770    79944    80049    80156 
   80153    79955    79799    79786    79718    79448    79080    78852 
   78692    78599    78672    78672    78551    78424    78274    78290 
   78688    79282    79726    80003    80117    79986    79786    79678 
   79701    79870    79988    79953    79924    79760    79277    78899 
   78931    79103    79228    79350    79435    79346    79254    79304 
   79188    78969    78873    78749    78740    78894    79050    79339 
   79465    79307    79382    79544    79452    79340    79390    79546 
   79829    80195    80310    80229    80266    80061    79525    79300 
   79362    79222    78995    78961    79007    79057    79273    79709 
   80160    80207    79859    79701    79704    79590    79686    79945 
   80118    80358    80634    80812    80809    80473    79847    79199 
   78835    78808    78979    79174    79181    79188    79489    79606 
   79145    78741    78852    79014    78957    78988    79074    78992 
   78930    78960    79043    79419    79955    80156    79845    79246 
   78709    78470    78548    78721    78784    78845    78846    78638 
   78509    78634    78721    78629    78480    78494    79004    79650 
   79709    79573    79693    79643    79446    79556    79953    80389 
   80538    80260    79938    79886    79949    79947    79968    80038 
   80025    79990    80133    80352    80339    80271    80434    80592 
   80481    80217    80133    80302    80214    79610    79073    78861 
   78490    77986    77781    77981    78448    78641    78588    78968 
   79552    79849    79925    80036    80338    80438    80315    80632 
   81091    81049    80860    80752    80401    79902    79735    79987 
   80134    80022    79922    79596    79145    79234    79731    80033 
   80168    80495    80882    80878    80589    80384    80172    79863 
   79616    79485    79408    79377    79402    79323    79041    78934 
   79147    79251    79407    79825    79797    79402    79450    79664 
   79490    79177    79107    79041    78725    78621    78992    79519 
   79948    80049    79799    79435    79131    79016    78907    78745 
   78844    78981    78946    79034    79231    79366    79416    79326 
   79293    79443    79509    79601    79898    79930    79598    79398 
   79443    79521    79273    78796    78794    79088    79149    79108 
   78938    78781    79002    79143    78872    78626    78544    78493 
   78478    78522    78717    78877    78873    79006    79192    79189 
   79407    79964    80114    79720    79496    79509    79307    78962 
   78699    78503    78490    78524    78279    78036    78241    78753 
   79043    79149    79554    79913    79839    79581    79132    78939 
   79447    79929    79898    79668    79544    79486    79357    79415 
   79640    79677    79632    79625    79493    79222    79033    78975 
   78969    79168    79498    79868    80099    79868    79848    80137 
   80007    79979    80064    79772    79631    79690    79817    80130 
   80242    80179    80200    80194    80300    80384    80176    80136 
   80326    80381    80464    80536    80372    80173    80068    79930 
   79760    79721    79821    79870    79798    79681    79760    79934 
   79689    79444    79712    79921    80072    80366    80180    79656 
   79432    79397    79209    78680    78331    78574    78799    78987 
   79313    79212    78794    78584    78725    79204    79651    79936 
   80341    80667    80838    80894    80649    80431    80380    80284 
   80125    79813    79659    79683    79516    79373    79265    79127 
   79095    79093    79145    79074    79062    79413    79531    79450 
   79631    79764    79880    79794    79199    78937    78946    78397 
   78113    78503    78414    77959    78240    78819    79008    79161 
   79147    78984    79265    79498    79267    79138    79155    79010 
   78625    78314    78514    78822    78973    79139    78969    78667 
   78759    79010    79270    79398    79180    79141    79479    79632 
   79748    79968    79840    79686    79667    79375    79137    79101 
   79162    79520    79693    79284    79011    79338    79807    80055 
   80079    80088    80183    80038    79702    79654    79871    79956 
   79752    79398    79065    79002    79226    79377    79481    79717 
   79722    79392    79235    79299    79218    79030    78965    79235 
   79624    79660    79618    79570    79303    79127    78781    78336 
   78386    78540    78678    78916    79027    79274    79605    79849 
   80184    80268    80149    80373    80455    79999    79847    80152 
   80388    80720    80858    80611    80649    80674    80237    79945 
   79959    79951    79797    79537    79429    79447    79332    79205 
   79280    79466    79625    79834    80117    80167    79988    80037 
   80104    79771    79521    79500    79087    78688    78966    79142 
   78628    78189    78374    78788    79034    79126    79015    78680 
   78472    78559    78834    79357    79996    80347    80401    80392 
   80064    79550    79614    79806    79407    78997    78786    78641 
   78777    78831    78736    78775    78838    79008    79123    79011 
   79238    79841    80256    80360    80136    79799    79745    79697 
   79404    79064    78671    78486    78807    79120    79034    79015 
   79304    79381    79170    79169    79274    79188    79303    79890 
   80512    80748    80553    80288    80073    79547    79165    79396 
   79660    79729    79832    79936    79921    79699    79483    79367 
   79115    79029    79388    79787    79886    79555    79132    79065 
   79062    78919    78976    79452    79969    79941    79632    79712 
   79874    79583    79285    79396    79594    79504    79245    79243 
   79404    79456    79597    79729    79589    79458    79416    79188 
   79076    79305    79443    79494    79793    80137    80202    80069 
   80127    80353    80256    79789    79444    79438    79458    79366 
   79278    79169    79284    79559    79505    79442    79605    79500 
   79127    78972    79192    79475    79621    79932    80443    80604 
   80345    80434    80873    80774    80315    80173    80088    79837 
   79575    79137    78498    78189    78456    78673    78387    78217 
   78467    78661    78773    78907    79084    79340    79262    79066 
   79431    79921    79960    79740    79544    79428    79301    79228 
   79243    79267    79286    79041    78498    78213    78358    78633 
   78970    79293    79390    79367    79469    79512    79234    79068 
   79397    79564    79258    79195    79585    79941    80079    80145 
   80127    80123    80360    80453    80114    79991    80262    80226 
   79928    79961    80061    79748    79375    79319    79397    79351 
   79245    79498    80032    80152    79837    79689    79851    79840 
   79644    79843    79942    79438    79150    79251    79254    79285 
   79525    79768    79660    79375    79346    79370    79072    78765 
   78815    78845    78914    79285    79285    79049    79324    79543 
   79324    79317    79587    79633    79398    79038    78605    78351 
   78418    78420    78235    78309    78680    79010    79132    78948 
   78745    79042    79552    79532    79215    79416    79789    79652 
   79591    79901    79887    79573    79443    79443    79351    79220 
