Origin Time       2024/04/02 04:24:00
Lat.              40.133
Long.             141.712
Depth. (km)       71
Mag.              6.0
Station Code      FKSH17
Station Lat.      37.6636
Station Long.     140.5974
Station Height(m) 105
Record Time       2024/04/02 04:25:18
Sampling Freq(Hz) 100Hz
Duration Time(s)  120
Dir.              1
Scale Factor      2942(gal)/8224139
Max. Acc. (gal)   0.843
Last Correction   2024/04/02 04:25:19
Memo.             
[...]
  178054   177992   178024   178074   178048   178024   178071   178127 
  178148   178113   177979   177912   178006   178101   178198   178308 
  178293   178216   178164   178120   178191   178432   178599   178502 
  178352   178379   178372   178193   178119   178220   178266   178260 
  178309   178347   178281   178186   178164   178164   178147   178143 
  178159   178170   178136   178133   178236   178274   178200   178229 
  178301   178205   178112   178201   178262   178212   178252   178345 
  178266   178113   178109   178209   178256   178264   178306   178294 
  178174   178098   178167   178266   178220   178077   178012   178058 
  178193   178297   178245   178171   178151   178148   178140   178097 
  178141   178221   178210   178282   178321   178132   177997   178055 
  178143   178158   178133   178133   178109   178096   178159   178166 
  178154   178267   178301   178164   178117   178163   178164   178191 
  178244   178245   178193   178154   178204   178259   178232   178202 
  178179   178194   178289   178275   178156   178214   178395   178453 
  178409   178378   178366   178336   178330   178387   178403   178335 
  178244   178168   178108   178059   178002   177898   177843   177963 
  178065   177974   177928   178040   178125   178133   178104   178040 
  178046   178140   178193   178236   178312   178321   178271   178235 
  178254   178240   178105   178089   178343   178490   178291   178075 
  178067   178090   178106   178189   178224   178148   178077   178117 
  178159   178048   177940   178028   178224   178324   178312   178258 
  178105   177998   178156   178316   178249   178116   178017   178046 
  178158   178183   178227   178336   178313   178162   178087   178123 
  178168   178214   178244   178158   178017   178031   178127   178073 
  177965   177996   178106   178174   178186   178148   178025   177924 
  178047   178283   178370   178314   178260   178289   178344   178333 
  178329   178393   178418   178375   178380   178397   178314   178232 
  178221   178198   178156   178160   178173   178164   178158   178079 
  177981   178004   178092   178105   178040   178031   178116   178132 
  178081   178098   178098   178096   178147   178093   178031   178100 
  178167   178189   178164   178113   178109   178137   178232   178294 
  178190   178136   178194   178120   177963   177928   178008   178109 
  178120   178044   178044   178112   178141   178177   178233   178272 
  178249   178171   178167   178271   178375   178399   178341   178243 
  178237   178395   178546   178572   178480   178340   178402   178579 
  178532   178409   178418   178433   178405   178375   178378   178413 
  178434   178475   178521   178483   178409   178364   178353   178399 
  178422   178363   178324   178351   178368   178310   178244   178306 
  178490   178648   178686   178644   178525   178336   178345   178627 
  178762   178661   178641   178659   178605   178571   178538   178474 
  178418   178393   178376   178355   178347   178345   178326   178233 
  178154   178272   178434   178386   178301   178384   178468   178424 
  178384   178394   178308   178190   178235   178290   178187   178108 
  178119   178059   177938   177862   177822   177790   177778   177778 
  177795   177808   177782   177754   177758   177745   177665   177591 
  177624   177655   177539   177473   177607   177701   177664   177639 
  177589   177519   177589   177789   178050   178254   178185   178002 
  177979   178042   178121   178124   178024   178016   178028   177951 
  177981   178043   177900   177788   177884   177946   177904   177865 
  177859   177898   177866   177769   177823   177955   177971   177989 
  178054   178050   178033   178073   178139   178225   178264   178212 
  178227   178397   178592   178688   178663   178533   178389   178421 
  178622   178792   178829   178746   178661   178633   178586   178538 
  178560   178672   178772   178690   178505   178434   178433   178389 
  178328   178233   178121   178087   178089   178035   177965   178042 
  178240   178294   178233   178249   178245   178189   178240   178366 
  178389   178291   178210   178240   178356   178483   178522   178452 
  178367   178355   178440   178515   178416   178222   178129   178189 
  178326   178335   178208   178135   178042   177890   177892   178038 
  178020   177797   177716   177858   177951   177927   177843   177778 
  177911   178123   178168   178173   178227   178236   178231   178248 
  178260   178252   178182   178114   178190   178258   178163   178148 
  178249   178209   178093   178096   178156   178125   178017   177954 
  177932   177944   178020   178021   177853   177668   177649   177788 
  177948   178008   177907   177817   177950   178110   178117   178135 
  178186   178181   178205   178256   178248   178263   178368   178410 
  178329   178275   178248   178254   178380   178420   178249   178151 
  178222   178314   178441   178544   178426   178248   178295   178405 
  178324   178194   178204   178264   178225   178146   178164   178243 
  178281   178302   178348   178321   178252   178345   178514   178540 
  178495   178495   178501   178505   178505   178441   178336   178322 
  178383   178343   178272   178312   178370   178389   178421   178440 
  178394   178294   178245   178317   178417   178428   178378   178339 
  178295   178297   178383   178472   178456   178293   178131   178140 
  178213   178200   178136   178136   178181   178159   178113   178163 
  178256   178244   178119   177997   177959   178008   178073   178124 
  178151   178109   178093   178174   178191   178089   178056   178100 
  178044   177946   177974   178081   178156   178202   178147   177970 
  177893   177984   178042   178027   178027   178024   178031   178063 
  178035   177982   178004   178048   178055   178028   178016   178071 
  178197   178295   178252   178214   178357   178507   178437   178286 
  178283   178355   178370   178380   178387   178349   178371   178422 
  178278   178027   177966   178017   177998   177954   177927   177923 
  177909   177885   177942   178048   178119   178166   178214   178217 
  178109   178015   178081   178194   178221   178156   178004   177874 
  177878   177907   177882   177889   177938   177984   178019   177982 
  177903   177878   177916   177970   178019   178098   178159   178144 
  178220   178397   178421   178317   178318   178430   178542   178656 
  178750   178729   178663   178690   178723   178710   178722   178700 
  178627   178603   178568   178491   178457   178380   178262   178306 
  178430   178418   178328   178213   178101   178105   178113   178036 
  178016   177985   177874   177853   177920   177961   177989   178059 
  178148   178185   178179   178175   178191   178236   178243   178150 
  178032   178024   178179   178326   178248   178059   178083   178254 
  178245   178128   178119   178177   178259   178298   178202   178179 
  178337   178422   178387   178359   178299   178240   178263   178287 
  178266   178245   178272   178360   178391   178298   178268   178313 
  178227   178097   178102   178136   178101   178046   178042   178066 
  178006   177992   178093   178036   177915   178031   178170   178106 
  178031   178058   178108   178174   178233   178240   178205   178177 
  178198   178181   178110   178067   178039   178108   178186   178086 
  178025   178055   177979   177969   178089   178086   177998   177993 
  177973   177892   177901   178040   178148   178082   178002   178097 
  178186   178150   178151   178178   178086   178055   178249   178374 
  178295   178260   178276   178295   178395   178465   178398   178303 
  178329   178474   178575   178498   178357   178355   178401   178305 
  178214   178275   178262   178114   178092   178159   178133   178106 
  178166   178240   178197   178062   178066   178191   178209   178154 
  178210   178344   178378   178360   178420   178394   178258   178294 
  178429   178384   178276   178251   178204   178128   178132   178154 
  178059   177963   177998   178040   178062   178069   177967   177889 
  177935   177979   178069   178163   178071   177921   177947   178073 
  178167   178241   178236   178152   178201   178355   178355   178252 
  178272   178378   178441   178482   178510   178470   178389   178398 
  178511   178602   178548   178366   178220   178183   178182   178140 
  178079   178048   177997   177884   177836   177871   177849   177854 
  177978   178001   177835   177750   177877   177992   178013   178081 
  178120   178083   178082   178105   178123   178160   178228   178255 
  178183   178119   178143   178239   178332   178324   178286   178299 
  178286   178285   178395   178486   178401   178289   178297   178348 
  178405   178420   178360   178371   178498   178561   178416   178222 
  178218   178314   178298   178191   178136   178171   178232   178236 
  178191   178200   178249   178286   178335   178344   178249   178190 
  178272   178371   178375   178340   178283   178216   178217   178236 
  178251   178303   178291   178197   178112   178079   178105   178082 
  178020   178052   178071   177978   177954   178001   177975   177975 
  178042   178046   178013   178017   178033   178000   177967   178048 
  178116   178056   178032   178056   178052   178079   178128   178185 
  178210   178197   178260   178320   178310   178402   178537   178511 
  178467   178514   178461   178371   178426   178484   178426   178310 
  178236   178281   178309   178166   178006   177950   177881   177853 
  177934   177925   177793   177749   177826   177909   177912   177857 
  177909   178062   178119   178100   178117   178078   177975   177969 
  178036   178074   178087   178102   178185   178194   178040   178073 
  178279   178270   178182   178256   178359   178393   178399   178391 
  178380   178409   178461   178468   178372   178251   178266   178411 
  178465   178356   178263   178286   178356   178391   178397   178397 
  178335   178225   178193   178198   178175   178198   178276   178316 
  178227   178132   178220   178314   178235   178160   178175   178150 
  178073   178033   178101   178212   178202   178079   177936   177859 
  177969   178121   178047   177884   177925   178113   178189   178077 
  177944   178004   178212   178332   178286   178148   178025   178085 
  178259   178233   178112   178228   178370   178360   178389   178378 
  178251   178233   178372   178482   178429   178294   178222   178183 
  178135   178154   178216   178205   178086   178019   178108   178144 
  178086   178140   178218   178175   178144   178150   178085   178043 
  178069   177993   177907   178025   178163   178060   177943   178000 
  178012   177944   177952   177963   177959   178029   178108   178123 
  178117   178112   178073   178046   178054   177996   177967   178092 
  178189   178101   177955   177908   177950   178013   178063   178059 
  178051   178040   177942   177884   178025   178212   178259   178195 
  178136   178116   178054   178017   178187   178324   178200   178167 
  178309   178266   178110   178171   178322   178317   178312   178484 
  178638   178587   178475   178497   178557   178542   178572   178611 
  178534   178498   178524   178456   178411   178451   178514   178594 
  178587   178515   178495   178490   178498   178519   178526   178538 
  178522   178503   178552   178565   178491   178467   178503   178551 
  178676   178780   178723   178637   178671   178799   178876   178808 
  178781   178935   179096   179081   178914   178794   178818   178861 
  178908   178957   178837   178692   178752   178827   178825   178864 
  178908   178914   178833   178688   178702   178808   178741   178642 
  178721   178775   178623   178413   178333   178297   178204   178183 
  178178   178039   177894   177854   177927   178020   177904   177618 
  177527   177734   177939   177940   177882   177919   177975   177959 
  177908   177896   177897   177827   177781   177838   177786   177630 
  177619   177593   177407   177380   177572   177643   177566   177512 
  177400   177246   177265   177402   177448   177357   177219   177101 
  176936   176728   176617   176571   176454   176308   176241   176233 
  176208   176218   176305   176305   176216   176292   176544   176727 
  176818   177012   177271   177414   177439   177476   177579   177639 
  177695   177934   178141   178089   178131   178463   178699   178771 
  179007   179316   179450   179501   179513   179440   179428   179500 
  179455   179398   179622   179906   179918   179944   180141   180216 
  180220   180323   180347   180272   180254   180242   180166   179991 
  179641   179220   178995   178970   178758   178266   177849   177635 
  177512   177568   177753   177668   177371   177249   177151   176928 
  176801   176793   176821   176917   177174   177620   177952   178008 
  178131   178368   178430   178461   178669   178769   178606   178382 
  178168   178008   177948   177876   177859   177982   178033   178004 
  178047   178047   177971   178004   178137   178239   178297   178324 
  178293   178271   178333   178420   178453   178451   178465   178438 
  178298   178162   178096   178044   178123   178360   178483   178379 
  178198   178097   178147   178252   178335   178418   178402   178244 
  178178   178329   178487   178436   178263   178081   177908   177881 
  177952   177854   177600   177408   177341   177280   177084   176752 
  176369   176008   175838   175884   175887   175878   176149   176631 
  177133   177600   177979   178384   178919   179420   179694   179747 
  179729   179786   179888   179899   179863   179838   179583   179142 
  178922   178816   178622   178533   178513   178494   178627   178866 
  179122   179305   179220   178995   178880   178731   178607   178758 
  178830   178659   178634   178684   178571   178501   178614   178733 
  178754   178834   179022   179072   178854   178553   178375   178352 
  178389   178389   178390   178375   178217   177977   177859   177939 
  178048   177936   177589   177307   177268   177367   177520   177689 
  177839   177974   178083   178163   178127   178040   178047   178020 
  177908   177805   177720   177763   178020   178302   178380   178283 
  178131   177969   177935   178023   178024   178012   178044   177947 
  177803   177817   177998   178324   178661   178866   178974   178965 
  178730   178363   178148   178110   177958   177692   177492   177344 
  177311   177398   177398   177345   177461   177835   178330   178636 
  178609   178451   178314   178229   178356   178665   178899   179018 
  179099   179120   179095   178968   178773   178671   178521   178264 
  178276   178460   178371   178182   178129   178070   178035   178104 
  178164   178185   178231   178251   178158   178020   177930   178017 
  178341   178561   178418   178137   177873   177681   177772   178079 
  178278   178229   178081   178009   177967   177857   177741   177776 
  177998   178160   178043   177812   177755   177745   177569   177520 
  177719   177877   178023   178248   178397   178414   178299   178039 
  177773   177534   177344   177404   177560   177520   177516   177719 
  177874   177880   177908   177948   177903   177900   177971   178050 
  178252   178468   178464   178356   178187   177861   177573   177651 
  177997   178194   178218   178144   177871   177620   177641   177847 
  178063   178208   178298   178298   178232   178197   178094   177897 
  177776   177844   178208   178713   178854   178573   178320   178181 
  177931   177651   177616   177813   177990   178071   178079   178008 
  178032   178160   178171   178104   178102   178163   178240   178330 
  178424   178549   178837   179207   179527   179798   179828   179695 
  179786   179887   179609   179172   178908   178748   178518   178282 
  178137   178071   178089   178220   178380   178410   178297   178194 
  178303   178576   178703   178725   178875   178980   178911   178735 
  178393   178019   177781   177549   177267   177082   177029   176982 
  176925   176982   177145   177306   177441   177558   177696   177940 
  178159   178120   177981   178055   178232   178295   178359   178498 
  178578   178644   178846   179076   179100   179051   179190   179398 
  179532   179690   179872   180000   180095   180022   179635   179212 
  178949   178650   178383   178343   178345   178195   178038   178031 
  178156   178303   178241   177913   177584   177431   177434   177485 
  177442   177361   177307   177209   177163   177093   176775   176569 
  176732   176820   176620   176377   176260   176361   176656   176941 
  177048   177028   177056   177279   177616   177762   177731   177796 
  177974   178141   178094   177847   177855   178085   178056   177921 
  178027   178185   178213   178336   178618   178704   178626   178764 
  178956   179028   179170   179257   179113   178918   178831   178869 
  178968   178984   178943   178984   178993   178893   178818   178640 
  178329   178363   178784   178953   178684   178374   178229   178213 
  178213   178133   178110   178183   178083   177838   177654   177400 
  177121   177103   177233   177229   177202   177363   177627   177849 
  178117   178410   178401   178289   178524   178722   178557   178511 
  178696   178704   178595   178660   178735   178683   178760   179008 
  179072   178950   178966   178962   178773   178727   178746   178518 
  178279   178182   177998   177790   177870   178040   177890   177642 
  177597   177554   177550   177913   178357   178445   178426   178474 
  178413   178474   178719   178659   178293   178110   178190   178294 
  178379   178505   178556   178519   178665   178966   179093   179031 
  178893   178584   178294   178325   178438   178349   178239   178244 
  178181   177971   177820   177799   177723   177606   177714   178016 
  178252   178386   178370   178227   178225   178320   178303   178254 
  178222   178218   178225   178178   178136   178133   178228   178395 
  178441   178483   178553   178308   177819   177519   177520   177689 
  177928   178102   178050   177844   177658   177487   177376   177327 
  177147   176978   177101   177344   177453   177407   177338   177456 
  177755   177930   177889   177890   177977   177965   177930   178011 
  178128   178237   178353   178424   178552   178777   178835   178656 
  178582   178834   179158   179227   179081   178877   178609   178293 
  178081   178125   178276   178174   177974   178106   178314   178306 
  178290   178259   178190   178154   177974   177805   178019   178336 
  178274   177990   177793   177614   177473   177589   177846   177898 
  177768   177669   177646   177759   178015   178272   178542   178816 
  178879   178668   178438   178356   178341   178438   178668   178833 
  178911   178985   178969   178869   178868   178903   178700   178433 
  178433   178532   178613   178757   178835   178881   178989   178949 
  178698   178479   178393   178403   178432   178349   178254   178209 
  177974   177684   177727   177947   177967   177699   177334   177164 
  177279   177466   177460   177264   177194   177454   177646   177449 
  177368   177641   177793   177777   177765   177529   177157   177007 
  177001   176964   176905   176912   177234   177784   178035   177916 
