Origin Time       2024/04/02 04:24:00
Lat.              40.133
Long.             141.712
Depth. (km)       71
Mag.              6.0
Station Code      FKSH18
Station Lat.      37.4894
Station Long.     140.5380
Station Height(m) 310
Record Time       2024/04/02 04:25:21
Sampling Freq(Hz) 100Hz
Duration Time(s)  120
Dir.              1
Scale Factor      3923(gal)/8224838
Max. Acc. (gal)   0.526
Last Correction   2024/04/02 04:25:21
Memo.             
[...]
   -1887    -1910    -1822    -1840    -1966    -1953    -1857    -1911 
   -2050    -2073    -2035    -2095    -2128    -2008    -1941    -2007 
   -1984    -1857    -1825    -1906    -1968    -1960    -2003    -2110 
   -2038    -1861    -1906    -2016    -1942    -1910    -2049    -2138 
   -2084    -1998    -1995    -2052    -2114    -2196    -2199    -2068 
   -1980    -2002    -2025    -2027    -2010    -1923    -1857    -1921 
   -1984    -1993    -2108    -2247    -2166    -2012    -2037    -2118 
   -2099    -2049    -2064    -2130    -2127    -2035    -1935    -1900 
   -1935    -1925    -1879    -1985    -2149    -2135    -2065    -2092 
   -2101    -2095    -2143    -2157    -2126    -2116    -2099    -2123 
   -2246    -2335    -2270    -2114    -1987    -1972    -2018    -1991 
   -1939    -1942    -1912    -1900    -1984    -2045    -2085    -2139 
   -2089    -1998    -2027    -2087    -2069    -2095    -2118    -1989 
   -1867    -1840    -1856    -1939    -1957    -1879    -1875    -1933 
   -1985    -1991    -1931    -1884    -1861    -1895    -1998    -2007 
   -1965    -2037    -2091    -2026    -1965    -1971    -2033    -2114 
   -2120    -2073    -2065    -2092    -2145    -2153    -2085    -2043 
   -1989    -1942    -2025    -2058    -1954    -1979    -2112    -2116 
   -2104    -2231    -2312    -2199    -2064    -2100    -2196    -2205 
   -2187    -2128    -2014    -1944    -1989    -2088    -2103    -2084 
   -2110    -2080    -2031    -2043    -2012    -1937    -1906    -1903 
   -1942    -2050    -2153    -2181    -2173    -2138    -2053    -2019 
   -2084    -2100    -1991    -1921    -2019    -2060    -1934    -1918 
   -1917    -1733    -1722    -1894    -1854    -1775    -1896    -2002 
   -1984    -1949    -1973    -2087    -2168    -2112    -2043    -2069 
   -2083    -2033    -2092    -2162    -2010    -1840    -1842    -1922 
   -2004    -1987    -1865    -1749    -1745    -1891    -2022    -2042 
   -2002    -1892    -1821    -1873    -1950    -2018    -2029    -1941 
   -1895    -1919    -1957    -2065    -2087    -1953    -1961    -2114 
   -2112    -2023    -2045    -2111    -2154    -2200    -2212    -2196 
   -2199    -2193    -2181    -2187    -2128    -2061    -2083    -2069 
   -2012    -2062    -2131    -2100    -2056    -2080    -2153    -2214 
   -2209    -2153    -2124    -2146    -2160    -2189    -2269    -2268 
   -2177    -2177    -2196    -2131    -2151    -2247    -2224    -2232 
   -2355    -2331    -2208    -2230    -2257    -2162    -2107    -2153 
   -2177    -2157    -2187    -2236    -2231    -2243    -2282    -2278 
   -2238    -2137    -2034    -2083    -2211    -2245    -2230    -2230 
   -2142    -2042    -2104    -2177    -2139    -2155    -2165    -2045 
   -2014    -2130    -2162    -2085    -2002    -2026    -2209    -2304 
   -2182    -2127    -2232    -2284    -2258    -2268    -2242    -2110 
   -1996    -2022    -2089    -2089    -2076    -2037    -1927    -1907 
   -2031    -2070    -1944    -1842    -1829    -1868    -1975    -1949 
   -1753    -1694    -1764    -1753    -1656    -1622    -1707    -1721 
   -1664    -1709    -1740    -1729    -1795    -1892    -1998    -2039 
   -1973    -2010    -2184    -2250    -2222    -2319    -2484    -2471 
   -2326    -2223    -2085    -1896    -1888    -1992    -1902    -1740 
   -1752    -1772    -1675    -1632    -1752    -1903    -1881    -1742 
   -1691    -1707    -1728    -1765    -1764    -1788    -1918    -1988 
   -1945    -1904    -1829    -1761    -1910    -2176    -2270    -2182 
   -2089    -2006    -1925    -1987    -2131    -2157    -2155    -2205 
   -2123    -1983    -2065    -2201    -2111    -1957    -1929    -1979 
   -2087    -2182    -2158    -2064    -1980    -1952    -1983    -2018 
   -2049    -2054    -2020    -2015    -2020    -2023    -2050    -2037 
   -2057    -2151    -2128    -2058    -2126    -2165    -2103    -2111 
   -2142    -2085    -2035    -2066    -2081    -2002    -1980    -2104 
   -2149    -2047    -1992    -1973    -2020    -2196    -2218    -2035 
   -1999    -2103    -2154    -2208    -2263    -2189    -2087    -2151 
   -2270    -2246    -2170    -2158    -2124    -2096    -2187    -2234 
   -2101    -2019    -2060    -2043    -2018    -2025    -2025    -2097 
   -2096    -1883    -1792    -1915    -1926    -1836    -1908    -2018 
   -1892    -1784    -1930    -1971    -1845    -1876    -1937    -1908 
   -1968    -2074    -2083    -1979    -1900    -1966    -1999    -1902 
   -1908    -2069    -2146    -2073    -2020    -2064    -2104    -2111 
   -2185    -2259    -2172    -2084    -2130    -2122    -2088    -2191 
   -2203    -2023    -1945    -1993    -2023    -2079    -2122    -2023 
   -1850    -1806    -1942    -2037    -1956    -1898    -1934    -1912 
   -1904    -1927    -1845    -1850    -2052    -2116    -1989    -1954 
   -1983    -1926    -1917    -2026    -2089    -2056    -2003    -2004 
   -2057    -2070    -2079    -2184    -2243    -2157    -2088    -2104 
   -2124    -2133    -2154    -2228    -2293    -2176    -2003    -2029 
   -2080    -2026    -2085    -2199    -2170    -2169    -2278    -2292 
   -2161    -2068    -2135    -2193    -2064    -1987    -2089    -2133 
   -2099    -2070    -2016    -1981    -1946    -1987    -2204    -2309 
   -2187    -2110    -2092    -2074    -2143    -2172    -2088    -2060 
   -2111    -2119    -2049    -1993    -2022    -2069    -2054    -1992 
   -1888    -1836    -1904    -1923    -1856    -1873    -1958    -2065 
   -2160    -2164    -2174    -2212    -2101    -2020    -2157    -2204 
   -2080    -2049    -2043    -1987    -1979    -1939    -1877    -1863 
   -1773    -1742    -1890    -1930    -1837    -1813    -1836    -1900 
   -1981    -2030    -2087    -2085    -2046    -2099    -2176    -2145 
   -2012    -1858    -1822    -1894    -1881    -1802    -1775    -1769 
   -1780    -1780    -1782    -1895    -1991    -1896    -1830    -1949 
   -2046    -2085    -2137    -2106    -2085    -2145    -2151    -2151 
   -2188    -2205    -2197    -2161    -2147    -2177    -2188    -2176 
   -2122    -2011    -1972    -2042    -2122    -2212    -2281    -2230 
   -2176    -2255    -2359    -2384    -2355    -2255    -2099    -2014 
   -2029    -2027    -2003    -2042    -2060    -1960    -1937    -2096 
   -2226    -2241    -2220    -2201    -2192    -2211    -2289    -2342 
   -2286    -2231    -2216    -2157    -2095    -2099    -2095    -2039 
   -2007    -2002    -2008    -2062    -2061    -1998    -2008    -1995 
   -1885    -1872    -1968    -1980    -1890    -1818    -1771    -1722 
   -1749    -1815    -1806    -1799    -1821    -1802    -1814    -1861 
   -1868    -1899    -2039    -2169    -2101    -1985    -2089    -2231 
   -2180    -2124    -2137    -2103    -2139    -2180    -2014    -1910 
   -2003    -1968    -1903    -2014    -2000    -1898    -1981    -2089 
   -2191    -2388    -2497    -2462    -2386    -2308    -2307    -2374 
   -2425    -2385    -2253    -2191    -2215    -2123    -1969    -1950 
   -1989    -1999    -1981    -1858    -1761    -1854    -1919    -1863 
   -1877    -1904    -1833    -1819    -1938    -1984    -1933    -1950 
   -1961    -1911    -2002    -2157    -2076    -1898    -1856    -1834 
   -1840    -1945    -1949    -1798    -1703    -1734    -1788    -1817 
   -1830    -1848    -1867    -1910    -1979    -1968    -1930    -2011 
   -2054    -1927    -1908    -2039    -1987    -1896    -2006    -1971 
   -1822    -1877    -1861    -1733    -1799    -1850    -1776    -1850 
   -2006    -2037    -2011    -1999    -2019    -2099    -2184    -2270 
   -2400    -2400    -2203    -2141    -2269    -2245    -2124    -2187 
   -2220    -2045    -1945    -1989    -1999    -2030    -2091    -2057 
   -2007    -2076    -2158    -2130    -2145    -2303    -2404    -2369 
   -2334    -2336    -2328    -2344    -2366    -2344    -2280    -2153 
   -2047    -2052    -2046    -2056    -2176    -2153    -1980    -2038 
   -2149    -2015    -1941    -2050    -2141    -2216    -2261    -2245 
   -2266    -2258    -2127    -2004    -2043    -2143    -2112    -2054 
   -2097    -2084    -2003    -2039    -2116    -2065    -2012    -2065 
   -2049    -1917    -1888    -2023    -2093    -2041    -2018    -2000 
   -1956    -1926    -1836    -1763    -1760    -1763    -1842    -1887 
   -1761    -1680    -1740    -1798    -1853    -1929    -1908    -1788 
   -1759    -1867    -1958    -2033    -2108    -2054    -1954    -1953 
   -1999    -2081    -2146    -2096    -2056    -2104    -2084    -1981 
   -1942    -1979    -2027    -2023    -2023    -2107    -2073    -1890 
   -1903    -2091    -2133    -2084    -2080    -2072    -2042    -1956 
   -1884    -1984    -2070    -2042    -2092    -2087    -1968    -2026 
   -2139    -2119    -2142    -2176    -2114    -2060    -2054    -2112 
   -2138    -2023    -1946    -1937    -1881    -1875    -1883    -1863 
   -1917    -1880    -1726    -1798    -2053    -2153    -2101    -2080 
   -2149    -2235    -2254    -2249    -2254    -2238    -2249    -2303 
   -2324    -2284    -2220    -2170    -2126    -2157    -2273    -2238 
   -2069    -2033    -2037    -1956    -1945    -1961    -1958    -2062 
   -2151    -2103    -2050    -2060    -2135    -2197    -2130    -2043 
   -2018    -1977    -1991    -2081    -2062    -1887    -1806    -1949 
   -2030    -1850    -1742    -1885    -1956    -1883    -1876    -1858 
   -1818    -1903    -1949    -1840    -1786    -1784    -1761    -1945 
   -2238    -2254    -2114    -2093    -2081    -2026    -2060    -2138 
   -2155    -2091    -2025    -2101    -2215    -2203    -2181    -2122 
   -2010    -2103    -2262    -2218    -2126    -2058    -2053    -2197 
   -2227    -2126    -2192    -2208    -2025    -1984    -2022    -1925 
   -1934    -2060    -2025    -1917    -1907    -1908    -1865    -1891 
   -1958    -1939    -1927    -2016    -2027    -1902    -1845    -1944 
   -2091    -2120    -1999    -1948    -2004    -1993    -2000    -2091 
   -2128    -2087    -2002    -1985    -2095    -2146    -2108    -2091 
   -2056    -2029    -2045    -2065    -2128    -2158    -2133    -2177 
   -2170    -2065    -2029    -2010    -1968    -1983    -2012    -2072 
   -2192    -2250    -2204    -2157    -2154    -2122    -2066    -2084 
   -2131    -2131    -2093    -2026    -1971    -1966    -1912    -1809 
   -1834    -1948    -1950    -1853    -1833    -1933    -1964    -1906 
   -1971    -2050    -1961    -1899    -1969    -2034    -2142    -2343 
   -2417    -2324    -2257    -2160    -2045    -2106    -2165    -2027 
   -1931    -2003    -2018    -1918    -1899    -1929    -1825    -1759 
   -1844    -1877    -1958    -2126    -2106    -2025    -2056    -2064 
   -2085    -2174    -2239    -2281    -2276    -2195    -2168    -2227 
   -2235    -2155    -2070    -2035    -2025    -2020    -2045    -2057 
   -2053    -2054    -2006    -1962    -2025    -2126    -2208    -2228 
   -2093    -2020    -2160    -2166    -2020    -2064    -2158    -2072 
   -2011    -2104    -2134    -2046    -2026    -2065    -2047    -2065 
   -2120    -2056    -1949    -1968    -1991    -1931    -1961    -2074 
   -2070    -2018    -2087    -2126    -2010    -1903    -1875    -1849 
   -1910    -2030    -2035    -2043    -2100    -2004    -1881    -1904 
   -1906    -1850    -1867    -1904    -1887    -1856    -1881    -1925 
   -1880    -1848    -1930    -1965    -1891    -1818    -1792    -1871 
   -2062    -2131    -1973    -1894    -2026    -2106    -2083    -2100 
   -2079    -1968    -1923    -1958    -1925    -1877    -1973    -2104 
   -2023    -1821    -1821    -2023    -2160    -2214    -2289    -2299 
   -2243    -2250    -2236    -2201    -2268    -2249    -2041    -1925 
   -2041    -2176    -2161    -2073    -2047    -2118    -2118    -1962 
   -1883    -1965    -2042    -2041    -2006    -2003    -2064    -2119 
   -2178    -2277    -2236    -2100    -2123    -2142    -2084    -2189 
   -2304    -2250    -2212    -2209    -2114    -1977    -1912    -1895 
   -1787    -1702    -1815    -1899    -1830    -1818    -1864    -1865 
   -1952    -2149    -2234    -2181    -2169    -2131    -2006    -1957 
   -2039    -2168    -2247    -2236    -2169    -2031    -1894    -1971 
   -2151    -2153    -2112    -2168    -2168    -2230    -2442    -2454 
   -2245    -2170    -2214    -2220    -2307    -2463    -2454    -2280 
   -2193    -2273    -2330    -2284    -2282    -2297    -2195    -2107 
   -2118    -2187    -2305    -2320    -2184    -2095    -2161    -2281 
   -2286    -2189    -2166    -2251    -2317    -2258    -2115    -2081 
   -2154    -2089    -1999    -2103    -2142    -2030    -2085    -2191 
   -2087    -1996    -2038    -2061    -2046    -2029    -2025    -2029 
   -2068    -2139    -2101    -1984    -1983    -2004    -1925    -1865 
   -1894    -1971    -2003    -1902    -1763    -1705    -1696    -1709 
   -1794    -1931    -1976    -1937    -1975    -2012    -1938    -1904 
   -2008    -2088    -2008    -1858    -1806    -1848    -1854    -1815 
   -1806    -1771    -1674    -1672    -1807    -1869    -1836    -1853 
   -1861    -1815    -1873    -2033    -2087    -2033    -1965    -1817 
   -1653    -1586    -1537    -1534    -1534    -1422    -1339    -1260 
   -1084    -1092    -1348    -1572    -1692    -1715    -1645    -1629 
   -1719    -1715    -1611    -1668    -1852    -1983    -2100    -2108 
   -1912    -1723    -1672    -1660    -1711    -1979    -2334    -2538 
   -2614    -2691    -2744    -2836    -3061    -3144    -2949    -2859 
   -2835    -2525    -2231    -2320    -2531    -2604    -2656    -2678 
   -2524    -2270    -2077    -2097    -2247    -2257    -2265    -2366 
   -2255    -2052    -1964    -1771    -1578    -1574    -1614    -1683 
   -1786    -1831    -1736    -1417    -1107    -1031    -1012     -978 
   -1005    -1065    -1216    -1449    -1696    -2002    -2266    -2374 
   -2493    -2729    -2798    -2605    -2477    -2385    -2180    -2101 
   -2084    -1969    -2016    -2188    -2269    -2430    -2732    -2890 
   -2673    -2290    -2142    -2218    -2338    -2547    -2781    -2852 
   -2837    -2857    -2782    -2643    -2589    -2523    -2362    -2200 
   -2119    -2135    -2236    -2309    -2222    -2142    -2211    -2170 
   -1998    -2020    -2188    -2241    -2238    -2220    -2124    -2037 
   -1939    -1776    -1706    -1768    -1826    -1813    -1674    -1539 
   -1587    -1676    -1736    -1863    -1981    -2042    -2145    -2363 
   -2540    -2515    -2475    -2466    -2253    -2004    -1962    -1900 
   -1783    -1867    -1971    -1885    -1807    -1775    -1671    -1595 
   -1630    -1661    -1628    -1582    -1582    -1667    -1748    -1755 
   -1803    -1845    -1732    -1610    -1617    -1682    -1753    -1761 
   -1744    -1786    -1741    -1701    -1888    -1952    -1734    -1768 
   -2066    -2095    -1869    -1638    -1444    -1466    -1675    -1775 
   -1865    -2130    -2334    -2288    -2118    -2058    -2215    -2373 
   -2304    -2231    -2346    -2354    -2097    -1837    -1682    -1644 
   -1896    -2269    -2405    -2336    -2220    -2114    -2056    -2016 
   -2045    -2164    -2236    -2330    -2554    -2720    -2774    -2812 
   -2619    -2168    -1869    -1763    -1675    -1671    -1626    -1539 
   -1684    -1925    -1948    -1823    -1674    -1517    -1532    -1759 
   -1846    -1742    -1837    -2166    -2335    -2199    -2203    -2598 
   -2835    -2674    -2666    -2826    -2673    -2404    -2384    -2392 
   -2293    -2231    -2146    -2020    -2070    -2286    -2269    -1946 
   -1875    -2096    -2133    -2200    -2538    -2745    -2770    -2856 
   -2860    -2604    -2201    -1890    -1810    -1871    -1953    -2069 
   -2157    -2045    -1784    -1719    -1925    -2038    -1989    -2064 
   -2187    -2093    -1953    -1980    -1954    -1711    -1510    -1566 
   -1783    -2026    -2189    -2204    -2119    -1973    -1848    -1887 
   -1976    -1946    -2025    -2269    -2374    -2420    -2570    -2505 
   -2107    -1695    -1490    -1485    -1547    -1588    -1769    -2035 
   -2056    -1952    -1941    -1838    -1729    -1867    -2096    -2176 
   -2000    -1730    -1752    -2022    -2150    -2197    -2339    -2365 
   -2205    -2073    -1927    -1695    -1575    -1648    -1756    -1756 
   -1687    -1710    -1773    -1680    -1507    -1449    -1536    -1669 
   -1688    -1617    -1618    -1663    -1694    -1660    -1622    -1817 
   -2122    -2231    -2162    -2084    -2133    -2242    -2389    -2619 
   -2629    -2438    -2471    -2547    -2419    -2385    -2427    -2281 
   -2114    -2076    -2025    -1976    -2070    -2141    -2019    -1968 
   -2147    -2367    -2550    -2596    -2413    -2174    -1985    -1975 
   -2272    -2473    -2417    -2609    -2785    -2354    -1906    -1923 
   -2053    -2241    -2378    -2124    -1836    -1926    -2047    -1995 
   -2041    -2147    -2155    -2187    -2258    -2286    -2189    -1914 
   -1682    -1663    -1674    -1633    -1687    -1772    -1725    -1665 
   -1714    -1750    -1717    -1695    -1686    -1703    -1799    -1850 
   -1821    -1899    -2041    -1957    -1679    -1512    -1449    -1327 
   -1327    -1560    -1740    -1745    -1702    -1597    -1474    -1479 
   -1660    -2088    -2656    -2975    -2924    -2714    -2501    -2269 
   -2066    -2146    -2444    -2542    -2466    -2430    -2339    -2236 
   -2311    -2513    -2639    -2690    -2756    -2678    -2509    -2512 
   -2512    -2344    -2312    -2451    -2461    -2505    -2732    -2695 
   -2447    -2489    -2548    -2296    -2131    -2104    -1891    -1752 
   -1869    -1957    -1962    -1892    -1777    -1767    -1648    -1386 
   -1260    -1178    -1062    -1004    -1051    -1320    -1602    -1688 
   -1822    -1896    -1705    -1688    -1879    -1815    -1771    -2018 
   -2173    -2155    -2089    -1976    -2014    -2180    -2243    -2327 
   -2427    -2305    -2147    -2137    -2095    -1991    -1864    -1779 
   -1907    -2124    -2263    -2394    -2448    -2440    -2505    -2455 
   -2307    -2482    -2898    -3041    -2887    -2687    -2317    -1800 
   -1588    -1590    -1337    -1140    -1277    -1256    -1081    -1259 
   -1615    -1796    -1992    -2226    -2272    -2322    -2425    -2204 
   -1790    -1672    -1864    -2064    -2164    -2285    -2380    -2173 
   -1838    -1736    -1690    -1637    -1813    -1908    -1714    -1630 
   -1715    -1638    -1458    -1530    -1894    -2142    -2097    -2018 
   -1939    -1651    -1331    -1350    -1629    -1880    -2124    -2381 
   -2305    -1929    -1873    -2227    -2434    -2459    -2710    -3034 
   -3013    -2866    -2839    -2633    -2317    -2145    -1871    -1678 
   -1961    -2205    -2112    -2232    -2506    -2397    -2066    -1891 
   -1881    -1956    -1993    -1807    -1437    -1296    -1648    -2128 
   -2322    -2380    -2504    -2474    -2220    -2080    -2126    -2085 
   -1949    -1956    -1991    -1858    -1790    -1863    -1817    -1705 
   -1792    -1976    -2003    -1881    -1707    -1620    -1775    -2087 
   -2286    -2330    -2392    -2461    -2380    -2216    -2134    -2072 
   -1927    -1777    -1695    -1719    -1842    -1867    -1791    -1786 
   -1821    -2046    -2457    -2601    -2600    -2805    -2894    -2720 
   -2592    -2471    -2263    -2185    -2288    -2455    -2521    -2313 
