Origin Time       2024/04/02 04:24:00
Lat.              40.133
Long.             141.712
Depth. (km)       71
Mag.              6.0
Station Code      FKSH18
Station Lat.      37.4894
Station Long.     140.5380
Station Height(m) 410
Record Time       2024/04/02 04:25:21
Sampling Freq(Hz) 100Hz
Duration Time(s)  120
Dir.              6
Scale Factor      7845(gal)/8223790
Max. Acc. (gal)   2.239
Last Correction   2024/04/02 04:25:21
Memo.             
[...]
   -9142    -9108    -8811    -8745    -8922    -9078    -9177    -9274 
   -9363    -9472    -9536    -9344    -8962    -8695    -8530    -8405 
   -8590    -9015    -9204    -9223    -9324    -9343    -9207    -8938 
   -8656    -8733    -9121    -9327    -9225    -9057    -8945    -8869 
   -8765    -8596    -8584    -8885    -9170    -9167    -8945    -8629 
   -8451    -8510    -8614    -8712    -8905    -9111    -9146    -9024 
   -8972    -9130    -9321    -9204    -8764    -8382    -8306    -8592 
   -9059    -9255    -9229    -9344    -9454    -9385    -9117    -8646 
   -8426    -8729    -9023    -9016    -8981    -8932    -8797    -8792 
   -8845    -8780    -8770    -8789    -8764    -8887    -9063    -9163 
   -9209    -8999    -8627    -8568    -8818    -9059    -9229    -9374 
   -9433    -9201    -8696    -8401    -8546    -8897    -9204    -9277 
   -9166    -9066    -8895    -8679    -8635    -8648    -8608    -8694 
   -8874    -9063    -9185    -9047    -8868    -8901    -8883    -8831 
   -9011    -9277    -9517    -9672    -9518    -9116    -8776    -8606 
   -8596    -8795    -9043    -9126    -9085    -8986    -8935    -8986 
   -8861    -8557    -8494    -8719    -8916    -8903    -8758    -8792 
   -9146    -9455    -9324    -8957    -8792    -8769    -8667    -8689 
   -8858    -8899    -8934    -9051    -9066    -8973    -8834    -8764 
   -8916    -9047    -8922    -8847    -8912    -8878    -8904    -9008 
   -8870    -8788    -9213    -9725    -9788    -9467    -9016    -8745 
   -8702    -8634    -8604    -8792    -9038    -9121    -9032    -8904 
   -8926    -9047    -8949    -8654    -8553    -8729    -8926    -9063 
   -9324    -9517    -9242    -8820    -8750    -8954    -9190    -9127 
   -8704    -8544    -8808    -9020    -9166    -9310    -9252    -9086 
   -8853    -8611    -8725    -8986    -8864    -8560    -8506    -8675 
   -8910    -9055    -9049    -9185    -9472    -9437    -9089    -8773 
   -8691    -8982    -9238    -9027    -8715    -8545    -8386    -8360 
   -8486    -8569    -8660    -8922    -9275    -9559    -9798    -9915 
   -9715    -9292    -8868    -8498    -8186    -8075    -8209    -8395 
   -8592    -8846    -9022    -9082    -9078    -9026    -9039    -9135 
   -9181    -9139    -9175    -9304    -9177    -8754    -8403    -8301 
   -8479    -8816    -8954    -8816    -8777    -9046    -9394    -9640 
   -9726    -9571    -9296    -9099    -8999    -8938    -8850    -8841 
   -9059    -9256    -9032    -8649    -8648    -8802    -8752    -8592 
   -8310    -8083    -8294    -8716    -9001    -9238    -9444    -9587 
   -9695    -9494    -8895    -8502    -8726    -9113    -9127    -8876 
   -8707    -8752    -8961    -9178    -9277    -9105    -8575    -8083 
   -8109    -8518    -8850    -8942    -9007    -9101    -9120    -9150 
   -9180    -9057    -8812    -8739    -8985    -9143    -8965    -8742 
   -8645    -8764    -9130    -9381    -9316    -9161    -9047    -9051 
   -9321    -9590    -9348    -8837    -8734    -8922    -8912    -8773 
   -8785    -9039    -9321    -9146    -8534    -8216    -8464    -8768 
   -8804    -8779    -8950    -9309    -9637    -9711    -9553    -9394 
   -9240    -8951    -8665    -8634    -8918    -9080    -8676    -8176 
   -8120    -8407    -8935    -9471    -9738    -9791    -9518    -8939 
   -8683    -8926    -9078    -8959    -8864    -8873    -8965    -9019 
   -8887    -8860    -9081    -9090    -8864    -8831    -8814    -8532 
   -8303    -8343    -8510    -8730    -8900    -8985    -9221    -9613 
   -9807    -9674    -9340    -8985    -8830    -8745    -8456    -8305 
   -8661    -9140    -9323    -9289    -9126    -8864    -8706    -8563 
   -8295    -8266    -8517    -8637    -8668    -8865    -9178    -9373 
   -9254    -8826    -8391    -8338    -8610    -8900    -9178    -9367 
   -9433    -9443    -9193    -8734    -8446    -8542    -8949    -9136 
   -8918    -8819    -8864    -8776    -8779    -8861    -8857    -8966 
   -9058    -8884    -8849    -9082    -9148    -9093    -9158    -9229 
   -9250    -9231    -9188    -9178    -9094    -8887    -8757    -8804 
   -8915    -9011    -9062    -8959    -8629    -8311    -8407    -8793 
   -9000    -9047    -9142    -9239    -9431    -9683    -9644    -9308 
   -8892    -8453    -8187    -8297    -8662    -8980    -9181    -9447 
   -9686    -9598    -9212    -8811    -8650    -8760    -8907    -8973 
   -9051    -9124    -9181    -9279    -9248    -8966    -8727    -8722 
   -8683    -8472    -8380    -8671    -9256    -9761    -9833    -9512 
   -9077    -8711    -8382    -8060    -7908    -7965    -8199    -8631 
   -8991    -9144    -9321    -9495    -9607    -9720    -9630    -9292 
   -9053    -9050    -9042    -8827    -8564    -8622    -8885    -8868 
   -8667    -8711    -8922    -9055    -9086    -8986    -8845    -8831 
   -8916    -8961    -8908    -8791    -8696    -8715    -8874    -9023 
   -8993    -8748    -8376    -8247    -8649    -9235    -9451    -9244 
   -8939    -8793    -8881    -9058    -9144    -9208    -9294    -9266 
   -9053    -8703    -8403    -8432    -8784    -9105    -9144    -9086 
   -9228    -9454    -9369    -9035    -8834    -8768    -8699    -8749 
   -9001    -9273    -9300    -9150    -9094    -9120    -9057    -8911 
   -8816    -8946    -9305    -9475    -9120    -8523    -8077    -7971 
   -8289    -8646    -8723    -8835    -9031    -9039    -9111    -9371 
   -9364    -9053    -8912    -9030    -9088    -8965    -8700    -8347 
   -8203    -8422    -8652    -8741    -8935    -9308    -9747   -10041 
   -9892    -9374    -9053    -9099    -9070    -8845    -8652    -8598 
   -8704    -8878    -8965    -8965    -9019    -9140    -9151    -9036 
   -8900    -8868    -9100    -9255    -8945    -8603    -8595    -8680 
   -8837    -9013    -9018    -9073    -9040    -8596    -8318    -8571 
   -8854    -8797    -8471    -8406    -9018    -9688    -9674    -9288 
   -9128    -9126    -9072    -9031    -8943    -8862    -9022    -9239 
   -9200    -8968    -8761    -8708    -8788    -8768    -8471    -8203 
   -8194    -8206    -8303    -8661    -9039    -9316    -9525    -9571 
   -9490    -9421    -9363    -9301    -9171    -8877    -8610    -8527 
   -8579    -8892    -9447    -9852    -9822    -9390    -8826    -8473 
   -8492    -8680    -8823    -8950    -8965    -8834    -8735    -8564 
   -8374    -8494    -8731    -8869    -9035    -9151    -9242    -9335 
   -9178    -8934    -8873    -8883    -8965    -9072    -9031    -9063 
   -9174    -8986    -8749    -8781    -8824    -8796    -8706    -8487 
   -8441    -8617    -8668    -8680    -8820    -8961    -9104    -9167 
   -9078    -9208    -9524    -9591    -9398    -8992    -8588    -8615 
   -8851    -9015    -9196    -9225    -9036    -8762    -8594    -8802 
   -9112    -9216    -9394    -9517    -9255    -8959    -8851    -8746 
   -8773    -8918    -8768    -8405    -8324    -8559    -8884    -9215 
   -9335    -9127    -8939    -9119    -9555    -9815    -9603    -9196 
   -8981    -8743    -8209    -7801    -8036    -8723    -9198    -9159 
   -8945    -9036    -9440    -9657    -9375    -8899    -8662    -8685 
   -8750    -8874    -9084    -9170    -9188    -9246    -9020    -8575 
   -8448    -8727    -9196    -9459    -9213    -8888    -8644    -8059 
   -7560    -7785    -8453    -9161    -9698    -9857    -9648    -9270 
   -9105    -9297    -9385    -9117    -8835    -8772    -8835    -8937 
   -8931    -8780    -8731    -8712    -8665    -8935    -9198    -8962 
   -8631    -8519    -8473    -8565    -8905    -9333    -9597    -9564 
   -9266    -8754    -8217    -8101    -8511    -9011    -9200    -9036 
   -8914    -9251    -9788    -9906    -9383    -8695    -8548    -8769 
   -8660    -8286    -8073    -8183    -8627    -8988    -8995    -9177 
   -9640    -9640    -9082    -8700    -8810    -9121    -9266    -9101 
   -8897    -8966    -9116    -8989    -8657    -8487    -8610    -8748 
   -8685    -8594    -8660    -8904    -9175    -9165    -8954    -8947 
   -9045    -9047    -9086    -9097    -9111    -9197    -8895    -8359 
   -8298    -8438    -8537    -8864    -8937    -8668    -8764    -9077 
   -9248    -9555    -9857    -9701    -9178    -8719    -8532    -8484 
   -8480    -8514    -8502    -8672    -9216    -9545    -9402    -9445 
   -9686    -9564    -9139    -8648    -8387    -8650    -9005    -9061 
   -9165    -9383    -9340    -9167    -9235    -9402    -9427    -9180 
   -8695    -8491    -8824    -9202    -9363    -9433    -9378    -9348 
   -9506    -9445    -8968    -8521    -8338    -8390    -8658    -8858 
   -8839    -8930    -9321    -9640    -9447    -8984    -8843    -9066 
   -9242    -9108    -8880    -8860    -8876    -8775    -8764    -8977 
   -9293    -9444    -9440    -9435    -9319    -9085    -8703    -8178 
   -8021    -8282    -8478    -8692    -8922    -8839    -8741    -8914 
   -9059    -9026    -8977    -9205    -9782   -10138    -9740    -8892 
   -8348    -8340    -8459    -8322    -8050    -8104    -8542    -8976 
   -9093    -8812    -8595    -8835    -9148    -9306    -9398    -9409 
   -9455    -9440    -9103    -8641    -8379    -8201    -7915    -7774 
   -8143    -8912    -9545    -9683    -9558    -9423    -9228    -9123 
   -9227    -9229    -9100    -9115    -9207    -9224    -9077    -8860 
   -8986    -9448    -9722    -9661    -9493    -9252    -9027    -8951 
   -8891    -8973    -9188    -9062    -8800    -8853    -9050    -9262 
   -9369    -9040    -8422    -8066    -8047    -8087    -8262    -8681 
   -9231    -9695    -9736    -9352    -8947    -8679    -8398    -7987 
   -7495    -7115    -7087    -7399    -7678    -7807    -8143    -8777 
   -9285    -9467    -9586    -9671    -9477    -9121    -8900    -8830 
   -8846    -8889    -8907    -8922    -8823    -8476    -7966    -7597 
   -7780    -8344    -8691    -8843    -9130    -9540   -10012   -10461 
  -10682   -10536   -10029    -9474    -9327    -9456    -9412    -9144 
   -8664    -7921    -7218    -7030    -7360    -7672    -7893    -8449 
   -9247    -9926   -10343   -10509   -10588   -10554   -10282    -9841 
   -9258    -8722    -8541    -8565    -8467    -8306    -8260    -8217 
   -8225    -8456    -8631    -8600    -8513    -8376    -8197    -7998 
   -8137    -8919    -9687   -10049   -10312   -10389   -10407   -10694 
  -10752   -10192    -9439    -8851    -8468    -8235    -7996    -7839 
   -7977    -8187    -8264    -8487    -8981    -9551    -9965   -10030 
   -9840    -9663    -9699    -9980   -10187   -10084    -9678    -8985 
   -8271    -7867    -7838    -8012    -8127    -8217    -8351    -8357 
   -8437    -8820    -9131    -9154    -9263    -9620    -9817    -9562 
   -9004    -8410    -8002    -7839    -7824    -8058    -8648    -9217 
   -9462    -9539    -9409    -9016    -8707    -8596    -8725    -9294 
   -9830    -9933   -10026   -10126    -9913    -9566    -9140    -8561 
   -8181    -8139    -8037    -7762    -7566    -7487    -7603    -8044 
   -8554    -8905    -9246    -9664    -9886    -9740    -9421    -8937 
   -8380    -8340    -8888    -9601   -10324   -10685   -10328    -9601 
   -8888    -8371    -8364    -8792    -9127    -9171    -9151    -9162 
   -8920    -8289    -7649    -7281    -7345    -7962    -8750    -9308 
   -9470    -9246    -9003    -8847    -8750    -8920    -9166    -9213 
   -9356    -9853   -10400   -10620   -10404    -9628    -8560    -7915 
   -7812    -7967    -8384    -8986    -9429    -9543    -9575    -9572 
   -9277    -8847    -8406    -7879    -7807    -8510    -9435   -10080 
  -10165    -9616    -8924    -8494    -8445    -8772    -8914    -8542 
   -8172    -8233    -8704    -9190    -9351    -9499    -9809    -9961 
   -9990   -10053    -9899    -9289    -8303    -7334    -7017    -7543 
   -8368    -9148    -9782    -9923    -9863   -10007    -9693    -8685 
   -7746    -7342    -7622    -8367    -8942    -9151    -9217    -9148 
   -8824    -8340    -8086    -8309    -8631    -8576    -8364    -8391 
   -8437    -8262    -8089    -8104    -8267    -8575    -9074    -9509 
   -9576    -9358    -8838    -8035    -7516    -7666    -8262    -8977 
   -9580    -9903    -9988    -9894    -9552    -9113    -8634    -7927 
   -7384    -7507    -8140    -9001    -9693    -9909   -10083   -10373 
  -10253    -9775    -9379    -9082    -8777    -8390    -8121    -8467 
   -9279    -9825    -9948    -9922    -9720    -9346    -9024    -8787 
   -8600    -8695    -9238    -9869   -10058    -9875    -9726    -9715 
   -9767    -9614    -8959    -8275    -8237    -8545    -8733    -8816 
   -8746    -8641    -8831    -9190    -9356    -9288    -9378    -9828 
  -10061    -9655    -8926    -8310    -8147    -8275    -8144    -7889 
   -7946    -8195    -8480    -8820    -9124    -9335    -9383    -9231 
   -9198    -9548    -9972   -10004    -9717    -9617    -9725    -9568 
   -9059    -8453    -7938    -7603    -7524    -7771    -8268    -8928 
   -9574    -9821    -9613    -9196    -8802    -8723    -8924    -8996 
   -8843    -8584    -8174    -7742    -7639    -8028    -8677    -9207 
   -9562    -9844    -9891    -9485    -8789    -8374    -8446    -8536 
   -8459    -8573    -8969    -9331    -9406    -9196    -8689    -8062 
   -7824    -8001    -8374    -9173   -10033   -10150    -9744    -9356 
   -9031    -8892    -8907    -8739    -8391    -8073    -7925    -8066 
   -8348    -8495    -8532    -8646    -8949    -9580   -10471   -11138 
  -11292   -10947   -10075    -8958    -8074    -7592    -7642    -8140 
   -8452    -8263    -7986    -7881    -7996    -8541    -9344    -9895 
  -10073   -10041    -9926    -9718    -9383    -9178    -9213    -9173 
   -9054    -9130    -9294    -9343    -9185    -8514    -7608    -7403 
   -7676    -7704    -7875    -8380    -8822    -9261    -9682    -9967 
  -10227   -10147    -9567    -9004    -8596    -8224    -8077    -8120 
   -8301    -8737    -9124    -9239    -9460    -9837    -9923    -9657 
   -9209    -8569    -7963    -7762    -7893    -8093    -8357    -8707 
   -9049    -9350    -9659    -9884    -9987   -10066    -9923    -9501 
   -9047    -8505    -8197    -8534    -8874    -8772    -8567    -8256 
   -8074    -8452    -8939    -9301    -9732    -9895    -9826    -9778 
   -9562    -9516    -9811    -9848    -9514    -8934    -8237    -7924 
   -7939    -7955    -8058    -8190    -8418    -8887    -9347    -9778 
  -10114    -9937    -9521    -9267    -8830    -8344    -8270    -8382 
   -8591    -8895    -8864    -8552    -8422    -8688    -9344    -9778 
   -9505    -9107    -8977    -9015    -9406    -9849    -9869    -9833 
   -9759    -9046    -8085    -7778    -7928    -7842    -7518    -7372 
   -7565    -8001    -8552    -8947    -9136    -9435    -9628    -9402 
   -9285    -9613    -9952    -9976    -9618    -8959    -8521    -8563 
   -8576    -8297    -7998    -7886    -7942    -8040    -8268    -8903 
   -9933   -10760   -10764   -10147    -9479    -9058    -9034    -9043 
   -8569    -8032    -8079    -8604    -9211    -9535    -9390    -8993 
   -8556    -8176    -8019    -8059    -8278    -8615    -8826    -9144 
   -9776   -10203   -10269   -10269   -10034    -9498    -8918    -8341 
   -7909    -7676    -7560    -7893    -8654    -9262    -9720   -10195 
  -10308   -10046    -9776    -9417    -8972    -8743    -8549    -8197 
   -8059    -8183    -8213    -8364    -8869    -9169    -8931    -8648 
   -8691    -8993    -9258    -9247    -9335    -9760    -9860    -9325 
   -8776    -8689    -9015    -9333    -9211    -8731    -8163    -7730 
   -7765    -8189    -8716    -9316    -9803   -10038   -10199   -10237 
   -9832    -9020    -8318    -8106    -8135    -7852    -7271    -7010 
   -7501    -8580    -9564    -9872    -9757    -9738    -9782    -9545 
   -8959    -8434    -8368    -8513    -8518    -8667    -9127    -9437 
   -9329    -8808    -8048    -7669    -7866    -8149    -8317    -8553 
   -9018    -9659   -10172   -10195    -9721    -9263    -9038    -8793 
   -8718    -9074    -9547    -9791    -9614    -9038    -8561    -8436 
   -8382    -8313    -8266    -8351    -8715    -9045    -9197    -9393 
   -9346    -8950    -8833    -9135    -9404    -9643    -9906    -9922 
   -9803    -9717    -9487    -9236    -9228    -9278    -9127    -8741 
   -8158    -7834    -8352    -9181    -9327    -9094    -9153    -9193 
   -9138    -9294    -9374    -9256    -9072    -8581    -8095    -8311 
   -8910    -9131    -8959    -8649    -8357    -8352    -8506    -8621 
   -9049    -9666    -9934   -10110   -10282    -9899    -9174    -8625 
   -8125    -7753    -7762    -7894    -8047    -8523    -9146    -9367 
   -9186    -8980    -9027    -9281    -9312    -9148    -9296    -9636 
   -9644    -9171    -8540    -8220    -8244    -8448    -8847    -9238 
   -9474    -9552    -9178    -8463    -8149    -8314    -8399    -8401 
   -8502    -8625    -9055    -9684    -9711    -9356    -9205    -8918 
   -8563    -8594    -8829    -9018    -8938    -8317    -7489    -7213 
   -7680    -8322    -8742    -9244    -9981   -10489   -10612   -10535 
  -10037    -9317    -8997    -8830    -8606    -8627    -8482    -7979 
   -7761    -7928    -8287    -8780    -9043    -9005    -9086    -9359 
   -9482    -9408    -9344    -9231    -9063    -9053    -9132    -9144 
   -9182    -9177    -8893    -8572    -8584    -8788    -9001    -9166 
   -9101    -8922    -8984    -9202    -9254    -9217    -9212    -9139 
   -9123    -9278    -9435    -9431    -9062    -8387    -8037    -8313 
   -8780    -9088    -9238    -9239    -9140    -8980    -8633    -8114 
   -7739    -7805    -8320    -8978    -9393    -9428    -9309    -9225 
   -9088    -8811    -8519    -8527    -8873    -9086    -8951    -8795 
   -8908    -9134    -9198    -9286    -9497    -9479    -9161    -8645 
   -7955    -7519    -7761    -8401    -8988    -9412    -9603    -9671 
   -9774    -9703    -9567    -9605    -9381    -8850    -8569    -8425 
   -8328    -8599    -8856    -8806    -8783    -8858    -9198    -9921 
  -10426   -10207    -9564    -8984    -8478    -8116    -8203    -8532 
   -8695    -8672    -8656    -8791    -8915    -8955    -8957    -8710 
   -8372    -8260    -8445    -9333   -10646   -11199   -10832   -10122 
   -9236    -8441    -8020    -7811    -7573    -7240    -6860    -6930 
   -8170   -10037   -11068   -10994   -10419    -9850    -9672    -9506 
   -8961    -8471    -8132    -7800    -7844    -8434    -9312   -10058 
  -10156    -9497    -8667    -8340    -8413    -8338    -8206    -8401 
   -8756    -9042    -9382    -9757    -9872    -9598    -9082    -8583 
   -8318    -8320    -8491    -8745    -8910    -8901    -8955    -9076 
   -8988    -8945    -9301    -9772    -9934    -9856    -9891    -9869 
   -9313    -8330    -7430    -7141    -7622    -8399    -9076    -9486 
   -9526    -9526    -9671    -9668    -9386    -8842    -8314    -8237 
   -8441    -8650    -9019    -9302    -9138    -8883    -8748    -8571 
   -8606    -8826    -8748    -8606    -8824    -9027    -8887    -8741 
   -8924    -9335    -9628    -9525    -9035    -8491    -8257    -8371 
   -8534    -8577    -8741    -9116    -9362    -9394    -9509    -9502 
   -8997    -8425    -8245    -8291    -8473    -8866    -9396    -9829 
   -9795    -9243    -8711    -8545    -8351    -7996    -7956    -8198 
