Origin Time       2024/04/02 04:24:00
Lat.              40.133
Long.             141.712
Depth. (km)       71
Mag.              6.0
Station Code      FKSH19
Station Lat.      37.4703
Station Long.     140.7227
Station Height(m) 410
Record Time       2024/04/02 04:25:20
Sampling Freq(Hz) 100Hz
Duration Time(s)  120
Dir.              3
Scale Factor      2942(gal)/8224139
Max. Acc. (gal)   0.645
Last Correction   2024/04/02 04:25:21
Memo.             
[...]
 -103580  -103427  -103339  -103462  -103378  -103110  -103096  -103219 
 -103192  -103122  -103184  -103295  -103231  -103135  -103216  -103172 
 -102895  -102743  -102836  -102949  -102880  -102829  -103063  -103237 
 -103099  -103026  -103169  -103243  -103135  -103048  -103177  -103368 
 -103351  -103256  -103347  -103611  -103705  -103424  -103200  -103188 
 -102909  -102544  -102617  -102840  -102836  -102793  -102848  -102805 
 -102674  -102705  -102814  -102841  -102967  -103215  -103503  -103789 
 -103846  -103746  -103704  -103532  -103270  -103210  -103289  -103334 
 -103293  -103221  -103287  -103288  -102949  -102844  -103111  -102994 
 -102820  -103086  -103141  -102986  -103165  -103407  -103308  -103100 
 -103211  -103284  -102845  -102620  -102933  -102863  -102571  -102806 
 -102982  -102810  -102886  -103087  -103115  -103157  -103207  -103117 
 -102990  -103095  -103393  -103550  -103504  -103489  -103566  -103504 
 -103266  -103119  -103150  -103238  -103265  -103260  -103426  -103547 
 -103268  -103081  -103299  -103364  -103270  -103370  -103396  -103346 
 -103450  -103414  -103265  -103273  -103345  -103380  -103316  -103307 
 -103400  -103254  -102998  -103018  -103172  -103095  -102917  -103077 
 -103273  -103142  -103107  -103168  -103165  -103334  -103353  -103152 
 -103265  -103442  -103350  -103304  -103304  -103144  -102972  -103022 
 -103156  -103111  -103077  -103258  -103327  -103091  -102937  -103100 
 -103303  -103380  -103415  -103559  -103738  -103638  -103427  -103427 
 -103478  -103401  -103253  -103141  -103063  -102992  -102982  -103014 
 -103102  -103235  -103203  -103081  -103162  -103258  -103161  -103023 
 -102917  -102917  -102948  -102861  -102957  -103218  -103254  -103253 
 -103408  -103626  -103751  -103578  -103438  -103735  -104021  -103816 
 -103501  -103647  -103914  -103669  -103276  -103141  -103079  -103160 
 -103249  -103176  -103275  -103430  -103369  -103210  -102999  -102865 
 -102857  -102678  -102389  -102404  -102633  -102666  -102605  -102658 
 -102698  -102817  -102918  -102825  -102911  -103081  -103037  -103221 
 -103527  -103275  -102845  -102982  -103273  -103113  -102859  -102929 
 -103079  -103137  -103181  -103202  -103200  -103179  -103096  -102910 
 -102745  -102829  -102972  -102930  -102951  -103096  -103121  -103010 
 -102994  -103265  -103428  -103239  -103308  -103553  -103326  -103122 
 -103329  -103385  -103208  -103067  -103052  -103118  -102984  -102825 
 -102941  -103023  -102944  -102973  -103219  -103485  -103569  -103612 
 -103650  -103473  -103318  -103404  -103342  -103117  -103214  -103361 
 -103145  -102990  -103088  -103189  -103396  -103667  -103640  -103420 
 -103434  -103577  -103468  -103350  -103511  -103509  -103187  -103015 
 -103071  -102987  -102880  -103044  -103095  -102922  -102995  -103092 
 -102856  -102683  -102759  -102778  -102722  -102724  -102736  -102826 
 -102991  -103037  -103108  -103250  -103295  -103389  -103482  -103488 
 -103473  -103242  -103107  -103415  -103493  -103158  -103054  -103117 
 -103181  -103522  -103747  -103459  -103345  -103707  -103650  -103073 
 -102994  -103320  -103227  -102999  -103160  -103357  -103284  -103172 
 -103264  -103480  -103539  -103427  -103343  -103296  -103365  -103580 
 -103559  -103350  -103396  -103497  -103264  -103019  -103113  -103141 
 -102996  -103059  -103121  -103165  -103370  -103351  -103221  -103350 
 -103346  -103060  -103065  -103439  -103539  -103308  -103322  -103462 
 -103253  -102942  -102888  -102929  -102872  -102793  -102838  -102959 
 -103071  -103227  -103273  -103208  -103285  -103281  -103069  -103009 
 -103229  -103474  -103378  -103168  -103249  -103258  -103061  -102983 
 -103010  -103134  -103280  -103158  -103019  -103258  -103404  -103091 
 -102949  -103148  -103115  -102905  -102856  -102879  -102861  -102859 
 -102876  -102791  -102655  -102647  -102651  -102546  -102602  -102914 
 -103129  -103183  -103303  -103555  -103782  -103713  -103534  -103603 
 -103670  -103458  -103281  -103432  -103569  -103361  -103226  -103412 
 -103454  -103296  -103335  -103450  -103361  -103234  -103264  -103354 
 -103331  -103160  -103023  -103177  -103496  -103640  -103547  -103472 
 -103682  -103775  -103324  -102967  -103041  -103006  -102822  -102834 
 -103061  -103291  -103357  -103392  -103459  -103297  -102930  -102780 
 -102941  -102963  -102807  -102926  -103113  -103002  -102807  -102662 
 -102690  -102929  -103026  -103176  -103540  -103489  -103122  -103077 
 -103183  -103069  -102915  -103033  -103123  -102811  -102594  -102805 
 -102930  -102971  -103261  -103427  -103435  -103653  -103738  -103482 
 -103343  -103496  -103615  -103423  -103189  -103269  -103310  -102987 
 -102818  -103076  -103238  -103198  -103231  -103215  -103202  -103404 
 -103501  -103254  -103081  -103206  -103307  -103262  -103192  -103295 
 -103554  -103489  -103250  -103401  -103578  -103423  -103378  -103554 
 -103569  -103477  -103392  -103249  -103254  -103291  -103131  -103113 
 -103199  -102951  -102644  -102726  -102843  -102674  -102682  -103069 
 -103341  -103391  -103547  -103712  -103565  -103262  -103172  -103150 
 -103026  -102995  -103063  -103214  -103422  -103387  -103140  -102972 
 -102940  -103099  -103275  -103150  -103125  -103464  -103441  -102996 
 -103067  -103368  -103107  -102875  -102995  -103002  -102959  -102983 
 -103011  -103033  -103019  -103073  -103087  -102882  -102674  -102617 
 -102639  -102685  -102786  -103072  -103388  -103478  -103532  -103619 
 -103428  -103086  -102930  -102820  -102636  -102609  -102836  -103080 
 -103138  -103230  -103415  -103269  -102926  -102892  -102883  -102629 
 -102641  -102976  -103179  -103387  -103642  -103651  -103650  -103636 
 -103293  -103022  -103189  -103431  -103389  -103350  -103665  -103867 
 -103638  -103580  -103775  -103677  -103403  -103319  -103427  -103576 
 -103612  -103582  -103630  -103690  -103590  -103306  -103073  -103059 
 -103007  -102870  -102895  -102810  -102597  -102766  -102929  -102783 
 -102918  -103192  -103218  -103276  -103243  -103033  -103150  -103411 
 -103270  -103096  -103265  -103432  -103350  -103226  -103277  -103408 
 -103337  -103069  -103018  -103172  -103226  -103273  -103256  -103165 
 -103219  -103215  -103118  -103198  -103260  -103221  -103399  -103681 
 -103662  -103383  -103219  -103235  -103121  -102921  -102948  -103072 
 -103090  -103176  -103291  -103160  -103034  -103137  -103081  -102944 
 -103118  -103269  -103208  -103287  -103395  -103284  -103272  -103491 
 -103500  -103299  -103307  -103369  -103241  -103210  -103380  -103384 
 -103202  -103144  -103075  -102971  -103083  -103080  -102795  -102648 
 -102702  -102708  -102660  -102691  -102861  -103003  -102917  -102838 
 -102895  -102853  -102859  -102945  -102864  -102855  -103045  -103103 
 -102988  -102998  -103079  -103000  -102949  -103107  -103242  -103211 
 -103230  -103323  -103249  -103216  -103372  -103266  -103054  -103168 
 -103241  -103150  -103221  -103239  -103127  -103133  -103165  -103206 
 -103239  -103150  -103165  -103234  -103119  -103083  -103245  -103384 
 -103450  -103396  -103246  -103239  -103387  -103497  -103393  -103162 
 -103212  -103466  -103528  -103466  -103469  -103578  -103686  -103476 
 -103216  -103404  -103459  -103049  -102874  -103013  -103049  -103002 
 -102948  -102941  -103071  -103156  -103168  -103295  -103268  -103017 
 -103000  -103060  -103018  -103191  -103300  -103095  -102940  -102882 
 -102787  -102699  -102640  -102735  -103054  -103364  -103405  -103373 
 -103427  -103257  -102994  -103038  -103117  -103069  -103122  -103185 
 -103160  -103177  -103192  -103154  -103292  -103476  -103356  -103231 
 -103495  -103728  -103457  -103308  -103673  -103573  -103113  -103284 
 -103438  -103115  -103107  -103376  -103397  -103296  -103292  -103357 
 -103405  -103428  -103504  -103673  -103805  -103738  -103570  -103550 
 -103459  -103196  -103316  -103607  -103383  -103135  -103320  -103492 
 -103512  -103437  -103289  -103415  -103711  -103623  -103234  -103011 
 -103067  -103185  -103123  -103009  -103157  -103411  -103414  -103280 
 -103177  -103042  -103065  -103173  -102999  -102894  -103133  -103218 
 -102955  -102789  -102951  -103076  -102949  -102892  -103156  -103364 
 -103150  -102978  -103010  -102902  -102844  -102878  -102982  -103256 
 -103353  -103361  -103470  -103346  -103204  -103419  -103639  -103569 
 -103420  -103347  -103248  -103059  -102949  -102986  -103014  -103054 
 -103086  -102988  -102980  -103156  -103212  -103110  -103125  -103184 
 -103126  -103144  -103275  -103281  -103235  -103351  -103416  -103227 
 -103023  -102988  -103034  -102928  -102743  -102790  -102942  -103063 
 -103148  -103106  -103117  -103262  -103312  -103279  -103403  -103597 
 -103592  -103492  -103478  -103538  -103630  -103601  -103476  -103505 
 -103636  -103639  -103426  -102948  -102579  -102668  -102762  -102805 
 -103083  -103233  -103338  -103547  -103377  -103010  -102870  -102755 
 -102500  -102249  -102269  -102489  -102492  -102343  -102388  -102456 
 -102428  -102568  -102780  -102874  -102979  -103138  -103246  -103206 
 -103145  -103133  -103046  -103096  -103281  -103378  -103632  -103912 
 -103819  -103704  -103885  -104010  -104033  -104206  -104190  -103879 
 -103657  -103346  -102964  -102841  -102739  -102594  -102628  -102751 
 -102806  -102764  -102790  -102944  -103026  -103146  -103470  -103646 
 -103496  -103350  -103404  -103488  -103454  -103420  -103450  -103450 
 -103283  -102944  -102721  -102798  -102995  -103122  -103073  -102894 
 -102803  -102710  -102493  -102401  -102485  -102685  -102901  -102968 
 -103122  -103333  -103234  -102975  -102797  -102791  -103010  -103219 
 -103350  -103642  -103862  -103689  -103505  -103566  -103670  -103662 
 -103511  -103482  -103685  -103770  -103659  -103651  -103654  -103420 
 -103175  -103077  -103119  -103261  -103273  -103277  -103464  -103604 
 -103567  -103466  -103465  -103469  -103189  -102678  -102316  -102307 
 -102289  -102055  -102095  -102546  -102972  -103161  -103198  -103200 
 -103187  -103145  -103092  -102932  -102714  -102724  -102863  -102891 
 -103098  -103403  -103241  -102955  -102980  -102982  -102996  -103064 
 -103029  -103222  -103439  -103266  -103123  -103287  -103549  -103759 
 -103928  -104099  -104066  -103702  -103489  -103697  -103850  -103840 
 -103852  -103700  -103523  -103341  -103013  -102984  -103223  -103368 
 -103700  -104139  -104263  -104294  -104160  -103484  -102787  -102361 
 -102001  -102145  -102716  -103131  -103446  -103497  -103111  -102732 
 -102620  -102752  -102964  -103042  -102975  -102875  -102832  -102726 
 -102637  -102787  -102963  -103068  -103179  -103057  -102736  -102641 
 -102795  -102865  -102760  -102600  -102469  -102481  -102604  -102652 
 -102829  -103191  -103258  -103059  -102975  -103122  -103482  -103692 
 -103671  -103785  -103905  -103840  -103769  -103728  -103675  -103526 
 -103318  -103219  -103069  -102924  -103037  -103080  -103072  -103306 
 -103385  -103296  -103396  -103534  -103690  -103825  -103727  -103516 
 -103125  -102612  -102539  -102818  -102941  -103153  -103566  -103500 
 -103002  -102795  -102648  -102154  -101862  -102084  -102348  -102528 
 -102830  -103061  -103287  -103766  -104036  -103967  -104021  -103910 
 -103470  -103362  -103678  -103917  -103997  -104071  -104033  -103866 
 -103734  -103611  -103499  -103361  -103026  -102821  -102860  -102730 
 -102590  -102608  -102614  -102795  -103127  -103401  -103680  -103945 
 -104099  -104045  -103805  -103577  -103287  -102882  -102693  -102833 
 -103045  -103090  -102874  -102593  -102644  -102983  -103169  -103131 
 -103015  -102851  -102743  -102722  -102733  -102790  -102936  -103114 
 -103041  -102833  -102999  -103287  -103075  -102644  -102570  -102627 
 -102463  -102439  -102695  -102689  -102586  -102872  -103091  -103198 
 -103539  -103659  -103500  -103543  -103667  -103495  -103158  -103283 
 -103692  -103577  -103289  -103324  -103339  -103347  -103403  -103354 
 -103377  -103353  -103115  -103095  -103446  -103680  -103617  -103627 
 -103675  -103464  -103277  -103324  -103399  -103508  -103616  -103486 
 -103183  -103126  -103346  -103341  -103123  -103297  -103696  -103550 
 -103171  -103330  -103589  -103243  -102860  -103177  -103464  -103150 
 -103076  -103327  -103324  -103300  -103329  -103152  -102999  -103060 
 -103019  -102875  -102967  -102941  -102609  -102631  -102924  -102849 
 -102747  -103006  -103233  -103226  -103144  -103073  -103160  -103351 
 -103465  -103627  -103801  -103833  -103792  -103435  -102994  -102990 
 -102887  -102654  -102929  -103252  -103172  -103086  -103245  -103465 
 -103545  -103553  -103550  -103673  -103848  -103481  -102983  -103198 
 -103399  -103123  -102999  -102988  -102978  -103115  -103044  -102735 
 -102685  -102817  -102674  -102451  -102454  -102365  -102154  -102192 
 -102307  -102280  -102371  -102581  -102651  -102659  -102905  -103292 
 -103264  -102845  -102586  -102652  -102934  -103102  -103063  -103291 
 -103635  -103578  -103491  -103671  -103642  -103426  -103662  -104043 
 -103904  -103608  -103651  -103858  -103882  -103856  -104178  -104494 
 -104399  -104382  -104652  -104685  -104352  -104134  -104089  -103945 
 -103889  -103909  -103758  -103566  -103439  -103280  -102990  -102582 
 -102424  -102664  -102841  -102802  -102767  -102852  -103033  -103048 
 -103002  -103059  -102992  -102973  -103025  -102771  -102369  -102181 
 -102004  -101590  -101385  -101607  -101945  -102311  -102497  -102604 
 -102929  -103021  -102776  -102739  -102888  -102901  -102969  -103353 
 -103553  -103322  -103152  -103071  -103107  -103508  -103782  -103785 
 -103848  -103674  -103434  -103654  -103789  -103512  -103605  -104129 
 -104133  -103617  -103335  -103264  -103157  -103176  -103208  -103038 
 -102975  -103235  -103329  -103045  -102964  -103115  -102990  -102830 
 -102902  -102897  -102971  -103248  -103270  -103104  -103064  -103063 
 -103015  -103000  -103149  -103327  -103431  -103538  -103472  -103356 
 -103449  -103420  -103146  -103095  -103245  -103157  -103126  -103594 
 -104117  -103940  -103380  -103430  -103689  -103424  -103196  -103126 
 -103015  -103269  -103613  -103648  -103616  -103555  -103565  -103755 
 -103835  -103788  -103709  -103536  -103423  -103265  -102910  -102660 
 -102560  -102442  -102448  -102679  -102956  -103104  -103173  -103250 
 -103288  -103212  -103014  -102829  -102791  -102770  -102764  -103009 
 -103260  -103054  -102645  -102455  -102408  -102409  -102377  -102307 
 -102363  -102386  -102313  -102357  -102456  -102624  -103015  -103346 
 -103364  -103356  -103310  -103094  -103125  -103289  -103160  -102995 
 -103023  -103084  -103188  -103427  -103557  -103551  -103674  -103762 
 -103636  -103485  -103609  -103904  -103941  -103847  -103831  -103854 
 -104002  -103997  -103693  -103464  -103322  -103177  -103129  -103187 
 -103252  -103218  -103365  -103605  -103269  -102786  -102942  -103195 
 -103045  -103095  -103615  -103783  -103381  -103297  -103505  -103266 
 -102864  -102744  -102705  -102725  -102880  -103073  -103281  -103377 
 -103289  -103054  -102741  -102691  -102775  -102641  -102760  -103114 
 -103198  -103242  -103199  -103077  -103408  -103617  -103108  -102747 
 -102899  -102864  -102655  -102703  -102722  -102663  -102888  -103207 
 -103458  -103783  -103968  -103860  -103832  -104147  -104436  -104337 
 -104066  -103908  -103657  -103180  -103006  -103238  -103207  -103025 
 -103202  -103306  -103000  -102710  -102681  -102764  -102853  -102960 
 -103113  -103338  -103551  -103628  -103599  -103497  -103454  -103484 
 -103181  -102676  -102640  -102917  -102830  -102452  -102309  -102240 
 -101954  -101889  -102153  -102392  -102586  -102775  -103098  -103404 
 -103249  -103100  -103396  -103546  -103279  -102994  -103104  -103499 
 -103497  -103256  -103565  -103998  -103852  -103616  -103675  -103732 
 -103662  -103623  -103648  -103631  -103608  -103499  -103210  -103080 
 -103199  -103160  -102932  -102861  -102982  -102995  -102798  -102833 
 -103204  -103165  -102762  -102789  -103018  -102959  -102905  -103061 
 -103196  -103104  -102953  -103064  -103202  -103113  -103121  -103162 
 -102921  -102882  -103256  -103349  -103256  -103503  -103720  -103798 
 -103975  -103875  -103416  -103153  -103256  -103303  -103054  -102851 
 -102832  -102737  -102676  -102716  -102627  -102672  -102918  -102780 
 -102539  -102856  -103202  -103023  -102776  -102884  -103061  -103050 
 -103122  -103276  -103202  -103044  -103104  -103207  -103086  -102998 
 -103141  -103268  -103346  -103481  -103700  -103846  -103619  -103347 
 -103319  -103295  -103430  -103558  -103439  -103505  -103601  -103530 
 -103702  -103912  -103773  -103553  -103572  -103686  -103607  -103581 
 -103796  -103735  -103485  -103578  -103509  -102965  -102729  -102952 
 -103083  -103099  -103162  -103168  -103064  -103115  -103431  -103601 
 -103520  -103565  -103721  -103678  -103491  -103484  -103597  -103446 
 -103302  -103518  -103527  -103134  -102999  -103272  -103497  -103389 
 -103114  -103003  -102853  -102581  -102729  -102969  -102664  -102550 
 -102994  -103235  -103102  -102969  -103108  -103372  -103173  -102679 
 -102454  -102298  -102055  -101881  -101790  -101879  -102100  -102347 
 -102629  -102726  -102685  -102872  -103050  -102767  -102400  -102556 
 -102932  -102932  -102810  -103009  -103304  -103511  -103677  -103611 
 -103403  -103287  -103076  -102949  -103156  -103161  -103010  -103349 
 -103778  -103785  -103786  -103935  -103844  -103523  -103250  -103050 
 -102874  -102987  -103465  -103671  -103516  -103491  -103431  -103310 
 -103383  -103442  -103454  -103569  -103767  -103968  -103955  -103709 
 -103511  -103528  -103569  -103457  -103365  -103368  -103462  -103551 
 -103316  -103049  -103133  -103084  -102865  -102913  -102952  -102864 
 -102770  -102625  -102579  -102529  -102423  -102475  -102394  -102080 
 -102157  -102463  -102361  -102313  -102705  -102811  -102486  -102454 
 -102705  -102841  -103037  -103333  -103576  -103887  -104028  -103716 
 -103445  -103599  -103812  -103713  -103636  -103871  -103890  -103563 
 -103354  -103235  -103100  -103108  -103158  -103185  -103437  -103797 
 -103979  -104091  -104261  -104284  -104031  -103804  -103742  -103667 
 -103673  -103844  -103972  -103910  -103820  -103693  -103279  -102875 
 -102716  -102548  -102398  -102293  -102350  -102635  -102718  -102674 
 -102771  -102786  -102770  -102870  -102924  -103000  -103146  -103181 
 -103451  -103912  -103750  -103418  -103522  -103351  -102967  -102840 
 -102867  -103059  -103125  -102984  -103007  -103227  -103501  -103530 
 -103275  -103140  -103262  -103455  -103372  -103164  -103311  -103522 
 -103450  -103293  -103299  -103619  -103939  -104033  -103967  -103603 
 -103329  -103370  -103091  -102558  -102465  -102848  -103176  -103130 
 -103080  -103239  -103270  -103144  -103115  -103199  -103276  -103316 
 -103422  -103539  -103536  -103612  -103728  -103577  -103365  -103369 
 -103354  -103134  -102963  -102965  -102944  -102911  -102861  -102778 
 -102845  -102851  -102739  -102872  -103084  -103235  -103400  -103304 
 -103135  -103113  -102929  -102757  -102743  -102551  -102328  -102419 
 -102631  -102616  -102583  -102874  -103103  -103019  -103064  -103046 
