Origin Time       2024/04/02 04:24:00
Lat.              40.133
Long.             141.712
Depth. (km)       71
Mag.              6.0
Station Code      FKSH19
Station Lat.      37.4703
Station Long.     140.7227
Station Height(m) 510
Record Time       2024/04/02 04:25:20
Sampling Freq(Hz) 100Hz
Duration Time(s)  120
Dir.              6
Scale Factor      7845(gal)/8223790
Max. Acc. (gal)   3.166
Last Correction   2024/04/02 04:25:21
Memo.             
[...]
  -22121   -22374   -22512   -22315   -21917   -22194   -22979   -23060 
  -22503   -22200   -22091   -22032   -22242   -22254   -21778   -21590 
  -21872   -21775   -21304   -21282   -21663   -21836   -21829   -21853 
  -21852   -22127   -22769   -23033   -22674   -22281   -22045   -21913 
  -22002   -22148   -22138   -22038   -21879   -21681   -21741   -22233 
  -22592   -22360   -21992   -21987   -22265   -22599   -22612   -22130 
  -21865   -22118   -22083   -21776   -21829   -21922   -21767   -21814 
  -22218   -22526   -22504   -22480   -22542   -22350   -21919   -21608 
  -21612   -21763   -21726   -21671   -21867   -22000   -22018   -22183 
  -22378   -22450   -22437   -22437   -22543   -22689   -22747   -22611 
  -22443   -22486   -22231   -21278   -20459   -20449   -20812   -21212 
  -21797   -22302   -22410   -22504   -22651   -22437   -22242   -22492 
  -22639   -22476   -22454   -22555   -22612   -22740   -22775   -22384 
  -21717   -21277   -21309   -21655   -21983   -22002   -21674   -21443 
  -21714   -22107   -22297   -22588   -22609   -22014   -21828   -22354 
  -22621   -22620   -22823   -22832   -22329   -21856   -21717   -21325 
  -20771   -20938   -21452   -21436   -21436   -21976   -22354   -22356 
  -22513   -22654   -22478   -22391   -22555   -22519   -22385   -22740 
  -23188   -22999   -22377   -21774   -21389   -21196   -21085   -21276 
  -21810   -22215   -22316   -22384   -22561   -22661   -22530   -22468 
  -22538   -22358   -22171   -22254   -22234   -22192   -22257   -21956 
  -21539   -21718   -22235   -22266   -21766   -21501   -21581   -21550 
  -21760   -22396   -22816   -22640   -22134   -22005   -22474   -22929 
  -22987   -22680   -22346   -22307   -22158   -21698   -21475   -21662 
  -21851   -21756   -21510   -21424   -21628   -22117   -22554   -22611 
  -22596   -22553   -22122   -21676   -21824   -22399   -22789   -22701 
  -22350   -22087   -22072   -22149   -22142   -22148   -22130   -21961 
  -21878   -22026   -22156   -22227   -22361   -22320   -22092   -22017 
  -21968   -21807   -21917   -22296   -22337   -21856   -21494   -21610 
  -21780   -21982   -22373   -22434   -22114   -21949   -22141   -22762 
  -23288   -22940   -22361   -22586   -23064   -22848   -22238   -21924 
  -21820   -21524   -21131   -20981   -21328   -22123   -22561   -22261 
  -22025   -22253   -22578   -22643   -22387   -22038   -21570   -20954 
  -20776   -21375   -22198   -22516   -22250   -21833   -21767   -22223 
  -22684   -22681   -22468   -22272   -22175   -22432   -22655   -22045 
  -21135   -21118   -21698   -21975   -22000   -21952   -21867   -22226 
  -22871   -22856   -22238   -21905   -21870   -21685   -21647   -21946 
  -21945   -21497   -21297   -21637   -22171   -22480   -22673   -22993 
  -22950   -22561   -22586   -22752   -22530   -22276   -22067   -21651 
  -21289   -21255   -21412   -21554   -21737   -21976   -21956   -21895 
  -22361   -22927   -23036   -22925   -22766   -22488   -22114   -21795 
  -21828   -22088   -22064   -21780   -21578   -21420   -21425   -21891 
  -22578   -23062   -23205   -22908   -22212   -21814   -22347   -23064 
  -22833   -21990   -21347   -21035   -21224   -21913   -22414   -22272 
  -21915   -21805   -21728   -21733   -22009   -22015   -21691   -21662 
  -21825   -21875   -22071   -22407   -22481   -22372   -22403   -22504 
  -22573   -22657   -22681   -22611   -22563   -22455   -21928   -21173 
  -21037   -21604   -22059   -22023   -21674   -21385   -21784   -22821 
  -23268   -22619   -22211   -22680   -22809   -22441   -22495   -22516 
  -21919   -21382   -21331   -21471   -21670   -21910   -22010   -22050 
  -22295   -22539   -22573   -22743   -23159   -23330   -22944   -22320 
  -21938   -21685   -21149   -20780   -21142   -21671   -21932   -22057 
  -22103   -22397   -22796   -22715   -22513   -22604   -22530   -22102 
  -21865   -22027   -22053   -21948   -22195   -22357   -21975   -21585 
  -21528   -21629   -21860   -22127   -22195   -22160   -22269   -22353 
  -22119   -21867   -22083   -22434   -22272   -21872   -22084   -22766 
  -22873   -22438   -22262   -22203   -22032   -22027   -22026   -21797 
  -21555   -21357   -21293   -21795   -22445   -22339   -21951   -21992 
  -22044   -21952   -22115   -22345   -22291   -22126   -21824   -21296 
  -21216   -21774   -22013   -21814   -22061   -22599   -22684   -22588 
  -22717   -22877   -22890   -22611   -22189   -22137   -22330   -22199 
  -21944   -22059   -22164   -21941   -21910   -22015   -21759   -21602 
  -21879   -22076   -22113   -22222   -22288   -22254   -22221   -22162 
  -22118   -22383   -22962   -23166   -22547   -21880   -22046   -22339 
  -21898   -21420   -21402   -21446   -21558   -21852   -22189   -22410 
  -22396   -22334   -22369   -22300   -22075   -22044   -22353   -22480 
  -22269   -22169   -22060   -21824   -21605   -21269   -21147   -21502 
  -21875   -22142   -22361   -22430   -22492   -22621   -22639   -22368 
  -22177   -22339   -22131   -21481   -21361   -21793   -22160   -22419 
  -22540   -22284   -22079   -22468   -22754   -22283   -21853   -22018 
  -22135   -21967   -21995   -22167   -22059   -21890   -22027   -22237 
  -22264   -22257   -22169   -21867   -21851   -22412   -22770   -22388 
  -21868   -21733   -21806   -21895   -22071   -22377   -22531   -22310 
  -22207   -22553   -22859   -22812   -22540   -22034   -21405   -21177 
  -21469   -21884   -22289   -22431   -22067   -21753   -21829   -21829 
  -21757   -22094   -22503   -22500   -22532   -22771   -22725   -22511 
  -22378   -22029   -21498   -21250   -21309   -21406   -21644   -21998 
  -22158   -22366   -22833   -23012   -22580   -21982   -21836   -22212 
  -22383   -22042   -21941   -22342   -22497   -22133   -21837   -21764 
  -21555   -21548   -21897   -22007   -22042   -22320   -22351   -22077 
  -22071   -22335   -22194   -21570   -21138   -21172   -21524   -22022 
  -22531   -22985   -23170   -23040   -22832   -22508   -21870   -21297 
  -21312   -21525   -21517   -21712   -22158   -22362   -22315   -22184 
  -21806   -21309   -21328   -21928   -22335   -22374   -22601   -22960 
  -23105   -23128   -22994   -22562   -22060   -21610   -21082   -20802 
  -21377   -22428   -22889   -22771   -22665   -22423   -22011   -21807 
  -21774   -21764   -21836   -22069   -22582   -23209   -23483   -23160 
  -22511   -22088   -21934   -21699   -21609   -21762   -21575   -21184 
  -21062   -20925   -21115   -22114   -22874   -22796   -22572   -22481 
  -22565   -22893   -22951   -22472   -22131   -22273   -22239   -21876 
  -21803   -21851   -21535   -21235   -21286   -21496   -21852   -22268 
  -22400   -22426   -22694   -22874   -22690   -22484   -22338   -22094 
  -22037   -22270   -22358   -22289   -22404   -22522   -22194   -21562 
  -21271   -21494   -21770   -21860   -21733   -21440   -21547   -22369 
  -23052   -22762   -22038   -21671   -21693   -22211   -23110   -23449 
  -22983   -22464   -22057   -21683   -21779   -22149   -21987   -21471 
  -21278   -21455   -21886   -22449   -22820   -22732   -22327   -21960 
  -21713   -21897   -22509   -22445   -21496   -20850   -20989   -21501 
  -22014   -22373   -22492   -22319   -22023   -21768   -21636   -21929 
  -22600   -22905   -22639   -22368   -22211   -22027   -22005   -22133 
  -22007   -21616   -21454   -21675   -21971   -22252   -22636   -22810 
  -22513   -22207   -22052   -21775   -21745   -22129   -22218   -21879 
  -21671   -21691   -21861   -22277   -22646   -22567   -22173   -21837 
  -21744   -21946   -22395   -22750   -22739   -22550   -22364   -22204 
  -22161   -22192   -22246   -22214   -21782   -21321   -21524   -22181 
  -22713   -22721   -22254   -21948   -21888   -21749   -21906   -22461 
  -22616   -22171   -21836   -21894   -22149   -22531   -22673   -22249 
  -21749   -21547   -21539   -21733   -21914   -21946   -22061   -22215 
  -22353   -22507   -22343   -21847   -21636   -21872   -22073   -22037 
  -21983   -22167   -22582   -22751   -22349   -21820   -21620   -21656 
  -21868   -22199   -22222   -21973   -22063   -22369   -22415   -22451 
  -22523   -22266   -22090   -22273   -22181   -21907   -22148   -22372 
  -21980   -21829   -22091   -21857   -21618   -22033   -22254   -22148 
  -22458   -22766   -22391   -21957   -22145   -22484   -22623   -22885 
  -22968   -22522   -22168   -22094   -21863   -21643   -21577   -21682 
  -22188   -22484   -22077   -21722   -21822   -22117   -22496   -22644 
  -22408   -22261   -22377   -22229   -21682   -21498   -22068   -22599 
  -22454   -22098   -22067   -22266   -22335   -22117   -21856   -21909 
  -22338   -22578   -22026   -21386   -21479   -21694   -21625   -21795 
  -22227   -22347   -22126   -22188   -22694   -22999   -22774   -22415 
  -22049   -21532   -21231   -21433   -21864   -22165   -22144   -21902 
  -21689   -21725   -22189   -22928   -23512   -23606   -23095   -22234 
  -21543   -21369   -21540   -21570   -21400   -21357   -21344   -21338 
  -21803   -22608   -23010   -22893   -22690   -22550   -22428   -22431 
  -22477   -22250   -21817   -21628   -21725   -21787   -21780   -21744 
  -21682   -21660   -21695   -21844   -22100   -22360   -22407   -22131 
  -21945   -22157   -22449   -22594   -22742   -22883   -22801   -22555 
  -22481   -22600   -22520   -22165   -21891   -21876   -22050   -22084 
  -21597   -20915   -20908   -21608   -22211   -22542   -22708   -22410 
  -22010   -22083   -22222   -22036   -21844   -21832   -21751   -21567 
  -21531   -21521   -21408   -21423   -21490   -21459   -21744   -22508 
  -23093   -23024   -22527   -22072   -21978   -22164   -22380   -22373 
  -22114   -22002   -22080   -22227   -22639   -22843   -22319   -21822 
  -22030   -22597   -23229   -23689   -23340   -22297   -21470   -21107 
  -21097   -21419   -21663   -21493   -21239   -21324   -21578   -21884 
  -22403   -22766   -22621   -22292   -22015   -21764   -21832   -22392 
  -23028   -23284   -23090   -22729   -22512   -22447   -22283   -21732 
  -21122   -21309   -22100   -22400   -21880   -20969   -20310   -20237 
  -20569   -21282   -22250   -23025   -23325   -23236   -23313   -23565 
  -23336   -22662   -22076   -22019   -22358   -22175   -21253   -20418 
  -20139   -20372   -21118   -22200   -23085   -23247   -22914   -22889 
  -23184   -23242   -23163   -23323   -23492   -23152   -22361   -21644 
  -21317   -21282   -21346   -21578   -21870   -21807   -21258   -20578 
  -20548   -21450   -22333   -22395   -22156   -22333   -22570   -22314 
  -21887   -21770   -21979   -22391   -22809   -22966   -22864   -22806 
  -22696   -22145   -21397   -20856   -20491   -20579   -21408   -22252 
  -22372   -22400   -23159   -24162   -24440   -23614   -22157   -20981 
  -20325   -20047   -20336   -21239   -22407   -23275   -23477   -23047 
  -22296   -21849   -22015   -22528   -23118   -23395   -23018   -22590 
  -22819   -23129   -22923   -22536   -22040   -21312   -20753   -20530 
  -20407   -20517   -21088   -21811   -22410   -22902   -23141   -23093 
  -22819   -22250   -21714   -21506   -21354   -21315   -21976   -23314 
  -24318   -24166   -22940   -21325   -20351   -20468   -21022   -21375 
  -21447   -21415   -21525   -21716   -21834   -22241   -23095   -23515 
  -22763   -21501   -20800   -21020   -21836   -22550   -22748   -22509 
  -22014   -21475   -21157   -21398   -22113   -22707   -23089   -23503 
  -23853   -23923   -23552   -22785   -21870   -21097   -20854   -21145 
  -21498   -21726   -21805   -21570   -21409   -21775   -22269   -22496 
  -22538   -22473   -22438   -22562   -22759   -22724   -22254   -21798 
  -21972   -22507   -22636   -22204   -21478   -20574   -20009   -20547 
  -21783   -22569   -22662   -22542   -22507   -22698   -22959   -22943 
  -22825   -22875   -22913   -22740   -22366   -21867   -21404   -21327 
  -21685   -21907   -21784   -21439   -20787   -20368   -20811   -21784 
  -22921   -24050   -24769   -24861   -24379   -23716   -23137   -22297 
  -21325   -20825   -20684   -20484   -20275   -20317   -20595   -20968 
  -21544   -22392   -23283   -24039   -24522   -24524   -23997   -22962 
  -21470   -20094   -19616   -20136   -20952   -21308   -21261   -21481 
  -22285   -23153   -23279   -22731   -22335   -22341   -22243   -21874 
  -21767   -22175   -22551   -22558   -22482   -22391   -22059   -21639 
  -21297   -20907   -20817   -21293   -21845   -22462   -23120   -22940 
  -22173   -22026   -22314   -22103   -21664   -21987   -22756   -22761 
  -22025   -21485   -21766   -22674   -23198   -22906   -22354   -21995 
  -21959   -22218   -22581   -22677   -22241   -21640   -21340   -21474 
  -22095   -22705   -22742   -22682   -22937   -22898   -22354   -22014 
  -21975   -21609   -21111   -21316   -21818   -21556   -21124   -21506 
  -22088   -22239   -22469   -23107   -23552   -23485   -23263   -22774 
  -22158   -22242   -22570   -21955   -20900   -20520   -20583   -20915 
  -21887   -22607   -22265   -21913   -22038   -21892   -21714   -21924 
  -22009   -22009   -22320   -22790   -23319   -23735   -23561   -22693 
  -21590   -21020   -21249   -21771   -22389   -22806   -22191   -21019 
  -20587   -20896   -21339   -21884   -22642   -23168   -23218   -23255 
  -23398   -23527   -23449   -22489   -21124   -20842   -21467   -21853 
  -21805   -21529   -21442   -21798   -21906   -21481   -21354   -21767 
  -21933   -21624   -21398   -21451   -21789   -22624   -23414   -23194 
  -22314   -21797   -21737   -21945   -22396   -22509   -21960   -21423 
  -21315   -21401   -21529   -21481   -21069   -20757   -21111   -21882 
  -22759   -23981   -25111   -25434   -25311   -24783   -23288   -21568 
  -20768   -20686   -20808   -21192   -21590   -21498   -21439   -22168 
  -22968   -22944   -22476   -22100   -22002   -22519   -23329   -23368 
  -22824   -22842   -23276   -23133   -22077   -20706   -20069   -20433 
  -20947   -20862   -20483   -20839   -22080   -23157   -23468   -23125 
  -22538   -22431   -22836   -22955   -22373   -21327   -20344   -20066 
  -20748   -21802   -22442   -22346   -21659   -21131   -21212   -21448 
  -21664   -22025   -22362   -22567   -22869   -23295   -23411   -23155 
  -22793   -22198   -21718   -21969   -22461   -22608   -22597   -22441 
  -22090   -21903   -21787   -21197   -20682   -21070   -21610   -21640 
  -21924   -22783   -23836   -24884   -25089   -23661   -21811   -21150 
  -21406   -21725   -21820   -21433   -20649   -20135   -20347   -21007 
  -21683   -22270   -22469   -22168   -21982   -22277   -22734   -23052 
  -23355   -23754   -24058   -24108   -23620   -22378   -20910   -19901 
  -19657   -20287   -21292   -21917   -22291   -23008   -23789   -23680 
  -22846   -22254   -21824   -21459   -21546   -21639   -21695   -22230 
  -22578   -22299   -22099   -22252   -22519   -22725   -22771   -22701 
  -22423   -22038   -21946   -21951   -21691   -21465   -21501   -21664 
  -21679   -21195   -20676   -21119   -22507   -23942   -24345   -23314 
  -21996   -21528   -21654   -21771   -21602   -21412   -21560   -21579 
  -21313   -21392   -21907   -22520   -22813   -22461   -21793   -21205 
  -20831   -20780   -21001   -21679   -22890   -23711   -23506   -22936 
  -22403   -21921   -22127   -22887   -23026   -22472   -22157   -22266 
  -22345   -22100   -21301   -20328   -20098   -20563   -21145   -21972 
  -23252   -24517   -25010   -24541   -23531   -22616   -22369   -22388 
  -21942   -21381   -21024   -20730   -20883   -21635   -22262   -22327 
  -22218   -21973   -21265   -20906   -21762   -23017   -23753   -24005 
  -23645   -22519   -21644   -22046   -22636   -22069   -21168   -20795 
  -20569   -20578   -21131   -21779   -22183   -22630   -23012   -22686 
  -22154   -22526   -23252   -23299   -22995   -22734   -22222   -21498 
  -20935   -20799   -21120   -21375   -21172   -21103   -21651   -22326 
  -22717   -22817   -22491   -22010   -21952   -22175   -22311   -22754 
  -23660   -24171   -24048   -23855   -23348   -22327   -21469   -20880 
  -20124   -19592   -19993   -20898   -21524   -22154   -22902   -22928 
  -22256   -21990   -22489   -23207   -23781   -23866   -22974   -21720 
  -21428   -21928   -22100   -21834   -21591   -21475   -21408   -21456 
  -21621   -21601   -21348   -21182   -21060   -20893   -21105   -21833 
  -22358   -22378   -22662   -23646   -24696   -24864   -23845   -22411 
  -21598   -21575   -21600   -21061   -20363   -20108   -20159   -20518 
  -21509   -22620   -23163   -23431   -23699   -23730   -23700   -23905 
  -23947   -23383   -22588   -21969   -21398   -21039   -20995   -20664 
  -20133   -20320   -20903   -20891   -20745   -21521   -22882   -23542 
  -23315   -23043   -23143   -23430   -23464   -22933   -22013   -21278 
  -21315   -21894   -22164   -21849   -21400   -21220   -21131   -21196 
  -21855   -22504   -22546   -22462   -22353   -22318   -22998   -24132 
  -24548   -23796   -22555   -21328   -20255   -19954   -20525   -21064 
  -21095   -21035   -21377   -22045   -22605   -22640   -22140   -21833 
  -22152   -22621   -23008   -23344   -23215   -22600   -22369   -22605 
  -22341   -21755   -21698   -21681   -21249   -20947   -20864   -20972 
  -21532   -21944   -21778   -21770   -22427   -23349   -23832   -23753 
  -23704   -23780   -23710   -23666   -23477   -22697   -21643   -20904 
  -20451   -20081   -20011   -20328   -20876   -21671   -22480   -22889 
  -23052   -23193   -22991   -22485   -22454   -22987   -23198   -22929 
  -22655   -22149   -21431   -21288   -21662   -21736   -21540   -21581 
  -21817   -22054   -22337   -22480   -22165   -21987   -22823   -23884 
  -23809   -22886   -22036   -21729   -21952   -21841   -21034   -20187 
  -19577   -19642   -20981   -22603   -23040   -22636   -22538   -22810 
  -23098   -23508   -23812   -23484   -22732   -22015   -21390   -21073 
  -21022   -20618   -19916   -19468   -19498   -20254   -21531   -22545 
  -23062   -23402   -23576   -23449   -23282   -23265   -23049   -22644 
  -22489   -22180   -21456   -21178   -21469   -21597   -21597   -21639 
  -21369   -21030   -21259   -21884   -22561   -23369   -24023   -23988 
  -23367   -22617   -21930   -21583   -21697   -21500   -20692   -20525 
  -21627   -22801   -23145   -22883   -22329   -22040   -22508   -23045 
  -22924   -22632   -22634   -22783   -23159   -23444   -22825   -21745 
  -21207   -20966   -20645   -20695   -21169   -21390   -21404   -21818 
  -22343   -22605   -22835   -22620   -21718   -21244   -21712   -22314 
  -22574   -22580   -22401   -22115   -21902   -21922   -22195   -22412 
  -22036   -21186   -20629   -20449   -20366   -20811   -21918   -23070 
  -23990   -24399   -23745   -22522   -21911   -22107   -22717   -23562 
  -23958   -23130   -21648   -20623   -20245   -20189   -20426   -21006 
  -21583   -21979   -22485   -23198   -23984   -24617   -24619   -23963 
  -23255   -22573   -21713   -21227   -21242   -21050   -20804   -21138 
  -21718   -22137   -22586   -22809   -22366   -21782   -21624   -21679 
  -21990   -22674   -22943   -22265   -21485   -21384   -21655   -22007 
  -22393   -22441   -22237   -22202   -22076   -21825   -21971   -22184 
  -21914   -21702   -21856   -21855   -21729   -21778   -22081   -22708 
  -23377   -23591   -22982   -22080   -21824   -21946   -21957   -21948 
  -21924   -22107   -22329   -22103   -21770   -21681   -21818   -22127 
  -22366   -22635   -23094   -23340   -22921   -21913   -21088   -20949 
  -21055   -21065   -21147   -21605   -22431   -23024   -23095   -23028 
