Origin Time       2024/04/02 04:24:00
Lat.              40.133
Long.             141.712
Depth. (km)       71
Mag.              6.0
Station Code      FKSH10
Station Lat.      37.1616
Station Long.     140.0930
Station Height(m) 564.9
Record Time       2024/04/02 04:25:30
Sampling Freq(Hz) 100Hz
Duration Time(s)  149
Dir.              6
Scale Factor      7845(gal)/8223790
Max. Acc. (gal)   1.865
Last Correction   2024/04/02 04:25:31
Memo.             
[...]
   17969    18094    18330    18557    18667    18678    18616    18493 
   18389    18353    18388    18509    18643    18692    18698    18739 
   18766    18716    18621    18459    18184    17953    17986    18284 
   18644    18868    18877    18631    18227    17911    17863    18119 
   18555    18897    18974    18819    18519    18158    17909    17979 
   18400    18947    19287    19186    18681    18073    17671    17645 
   17988    18497    18945    19206    19184    18836    18266    17741 
   17521    17668    18064    18528    18908    19075    18943    18566 
   18160    17913    17884    18072    18420    18783    18983    18898 
   18544    18112    17845    17875    18181    18612    18982    19140 
   18956    18449    17898    17648    17788    18161    18594    18960 
   19062    18814    18441    18171    18054    18127    18405    18783 
   19060    19062    18798    18458    18243    18268    18486    18752 
   18941    18941    18727    18480    18373    18365    18405    18563 
   18816    18991    18914    18577    18183    17975    18026    18323 
   18783    19148    19147    18775    18276    17886    17740    17918 
   18388    18933    19219    19029    18445    17775    17331    17290 
   17629    18157    18638    18866    18777    18496    18210    18077 
   18172    18400    18598    18647    18519    18322    18177    18107 
   18077    18150    18395    18696    18886    18912    18789    18569 
   18374    18319    18369    18393    18426    18596    18821    18895 
   18813    18690    18573    18512    18547    18615    18625    18562 
   18436    18276    18180    18212    18287    18326    18354    18353 
   18270    18169    18123    18111    18134    18250    18432    18566 
   18574    18500    18493    18603    18711    18782    18848    18790 
   18536    18284    18233    18349    18543    18756    18862    18750 
   18480    18207    18040    18042    18216    18428    18574    18655 
   18632    18474    18276    18161    18168    18270    18418    18550 
   18634    18619    18481    18338    18333    18453    18611    18771 
   18889    18832    18605    18385    18230    18106    18137    18459 
   18897    19089    18900    18513    18168    18025    18164    18492 
   18739    18728    18540    18326    18146    18077    18183    18418 
   18615    18627    18480    18310    18245    18320    18434    18486 
   18481    18397    18252    18173    18229    18341    18412    18466 
   18527    18501    18337    18141    18098    18277    18567    18792 
   18848    18766    18670    18628    18623    18638    18621    18542 
   18503    18546    18566    18538    18501    18441    18391    18424 
   18477    18426    18333    18350    18481    18643    18729    18635 
   18427    18260    18165    18118    18200    18468    18770    18952 
   19002    18927    18689    18308    18027    18117    18424    18613 
   18642    18600    18443    18164    17967    18045    18349    18739 
   19076    19155    18862    18360    17968    17911    18202    18678 
   19099    19251    19079    18728    18382    18154    18090    18191 
   18403    18578    18569    18389    18175    18087    18185    18327 
   18372    18349    18322    18291    18268    18328    18461    18505 
   18387    18229    18164    18218    18358    18574    18828    18928 
   18738    18438    18270    18226    18246    18396    18627    18751 
   18708    18576    18412    18316    18369    18497    18597    18673 
   18755    18819    18825    18794    18740    18643    18524    18416 
   18326    18333    18451    18530    18513    18530    18578    18508 
   18287    18054    17936    17984    18187    18400    18481    18499 
   18527    18458    18260    18108    18065    18049    18098    18264 
   18404    18382    18264    18160    18111    18161    18310    18484 
   18624    18716    18702    18570    18397    18257    18219    18368 
   18642    18847    18894    18817    18643    18457    18423    18527 
   18600    18612    18590    18524    18470    18449    18436    18507 
   18651    18682    18507    18268    18164    18241    18415    18573 
   18632    18554    18338    18067    17934    18031    18253    18496 
   18751    18949    18925    18652    18331    18166    18216    18411 
   18582    18588    18454    18289    18168    18117    18149    18264 
   18449    18647    18773    18759    18601    18453    18515    18746 
   18908    18886    18724    18476    18225    18087    18125    18341 
   18632    18819    18804    18636    18349    17967    17707    17851 
   18328    18841    19224    19375    19148    18620    18149    17929 
   17925    18173    18566    18804    18750    18431    17949    17604 
   17713    18216    18743    19053    19053    18666    18009    17466 
   17377    17730    18269    18797    19157    19152    18739    18150 
   17756    17795    18161    18594    18932    19087    19005    18731 
   18400    18142    18079    18283    18673    19040    19202    19118 
   18831    18457    18199    18139    18193    18308    18482    18698 
   18900    19009    19013    18913    18717    18513    18387    18364 
   18455    18585    18700    18824    18904    18855    18651    18334 
   18073    18073    18341    18651    18750    18584    18285    18011 
   17879    17983    18355    18851    19168    19143    18850    18430 
   18058    17930    18060    18333    18621    18743    18613    18392 
   18243    18171    18196    18370    18611    18754    18732    18620 
   18531    18516    18520    18454    18368    18345    18312    18247 
   18241    18299    18347    18338    18304    18314    18364    18404 
   18411    18389    18381    18396    18431    18526    18674    18774 
   18736    18625    18534    18485    18528    18658    18690    18562 
   18474    18519    18536    18438    18331    18343    18465    18571 
   18594    18530    18346    18148    18153    18342    18512    18623 
   18698    18655    18508    18447    18536    18628    18647    18623 
   18501    18272    18041    17909    18003    18361    18786    19074 
   19071    18708    18145    17691    17567    17847    18449    19106 
   19426    19207    18678    18204    17961    17977    18219    18554 
   18821    18912    18733    18300    17857    17687    17840    18191 
   18584    18840    18812    18489    18049    17743    17728    18036 
   18593    19157    19427    19249    18698    18065    17728    17848 
   18258    18665    18883    18843    18565    18192    17915    17847 
   17999    18295    18586    18686    18484    18164    18081    18381 
   18917    19423    19604    19284    18582    17841    17415    17489 
   17987    18640    19134    19256    18960    18409    17953    17909 
   18300    18887    19311    19314    18882    18250    17748    17608 
   17872    18369    18816    19028    18929    18530    18027    17686 
   17579    17653    17856    18104    18333    18536    18744    18945 
   19055    18987    18769    18474    18193    18071    18168    18407 
   18658    18792    18709    18411    18023    17818    17995    18493 
   19048    19360    19290    18939    18459    17964    17707    17892 
   18295    18561    18693    18748    18582    18227    18019    18130 
   18391    18569    18571    18443    18326    18272    18249    18330 
   18558    18789    18856    18800    18701    18586    18608    18862 
   19124    19176    19044    18798    18476    18139    17923    17999 
   18392    18844    19071    19062    18891    18562    18177    17942 
   17918    18033    18216    18384    18441    18430    18468    18504 
   18481    18463    18435    18416    18542    18736    18765    18648 
   18592    18580    18495    18431    18419    18343    18283    18369 
   18565    18787    18948    18958    18823    18640    18450    18253 
   18114    18123    18351    18738    19037    19033    18769    18489 
   18378    18391    18445    18513    18488    18337    18171    17986 
   17751    17622    17772    18146    18522    18744    18786    18663 
   18414    18119    17919    17968    18272    18584    18663    18540 
   18374    18266    18264    18335    18384    18355    18257    18123 
   18027    17975    17919    17922    18042    18183    18288    18424 
   18503    18366    18141    18056    18127    18281    18497    18692 
   18727    18593    18384    18233    18297    18605    18985    19184 
   19082    18775    18450    18269    18318    18539    18823    19051 
   19122    19048    18843    18526    18276    18254    18395    18516 
   18554    18569    18636    18809    19033    19106    18947    18725 
   18573    18501    18598    18882    19182    19321    19194    18840 
   18435    18118    18045    18381    18943    19257    19072    18569 
   18145    18054    18328    18837    19313    19533    19448    19113 
   18725    18484    18388    18393    18492    18597    18588    18468 
   18345    18270    18249    18296    18378    18404    18326    18208 
   18130    18048    17884    17712    17710    17950    18281    18509 
   18608    18585    18377    17976    17518    17224    17246    17551 
   18017    18495    18779    18711    18292    17728    17321    17216 
   17419    17972    18686    19138    19072    18527    17779    17173 
   16930    17104    17562    18073    18517    18806    18824    18531 
   18056    17686    17640    17929    18369    18644    18612    18389 
   18111    17911    17986    18311    18632    18816    18893    18897 
   18816    18624    18396    18296    18403    18598    18732    18848 
   19029    19168    19211    19275    19352    19332    19273    19299 
   19361    19361    19269    19052    18752    18477    18296    18370 
   18775    19226    19441    19408    19172    18746    18268    17990 
   18034    18250    18450    18555    18532    18430    18308    18214 
   18289    18546    18743    18729    18555    18250    17869    17670 
   17901    18436    18898    19040    18831    18397    17971    17733 
   17725    17964    18384    18744    18835    18627    18270    18041 
   18075    18254    18462    18661    18705    18480    18137    17940 
   17960    18206    18690    19163    19224    18841    18297    17826 
   17609    17809    18364    18948    19302    19313    18943    18369 
   17929    17845    18145    18694    19183    19322    19122    18743 
   18308    17975    17878    18049    18388    18654    18712    18704 
   18752    18805    18837    18871    18848    18732    18592    18513 
   18485    18439    18395    18420    18532    18631    18580    18411 
   18312    18381    18561    18717    18704    18462    18044    17605 
   17429    17663    18139    18679    19137    19230    18840    18227 
   17678    17389    17567    18219    19020    19566    19635    19192 
   18382    17568    17242    17624    18459    19305    19768    19592 
   18833    17853    17065    16776    17103    17875    18756    19419 
   19560    19018    18080    17398    17354    17826    18589    19342 
   19646    19311    18515    17608    17076    17286    18102    19026 
   19595    19525    18897    18092    17424    17140    17402    18015 
   18669    19179    19383    19205    18821    18496    18341    18374 
   18519    18603    18607    18670    18708    18499    18114    17832 
   17801    18023    18454    18952    19286    19319    19001    18311 
   17512    17069    17181    17730    18523    19237    19453    19033 
   18269    17606    17343    17582    18266    19055    19452    19246 
   18565    17686    17007    16923    17585    18729    19815    20309 
   19950    18971    17953    17408    17570    18281    19087    19533 
   19376    18752    18152    17984    18257    18721    19172    19452 
   19333    18716    17909    17440    17599    18264    19083    19670 
   19724    19244    18581    18060    17809    17936    18387    18770 
   18850    18775    18596    18242    17880    17737    17841    18104 
   18404    18578    18539    18345    18110    17976    18096    18409 
   18713    18924    18991    18871    18632    18389    18274    18418 
   18779    19102    19153    18959    18670    18399    18222    18184 
   18314    18597    18867    18917    18684    18314    18114    18238 
   18499    18673    18759    18786    18743    18732    18805    18824 
   18770    18801    18894    18850    18554    18130    17871    17971 
   18409    18968    19242    18968    18274    17524    17064    17101 
   17632    18403    19028    19179    18738    17956    17320    17142 
   17501    18341    19282    19711    19350    18459    17533    17092 
   17405    18264    19170    19701    19718    19260    18473    17745 
   17537    17907    18520    18993    19138    19001    18711    18351 
   18022    17959    18342    19009    19549    19608    19097    18289 
   17636    17456    17801    18470    19163    19623    19703    19279 
   18361    17323    16769    17035    17874    18755    19303    19259 
   18569    17682    17220    17374    17888    18462    18921    19098 
   18863    18327    17767    17440    17504    17949    18589    19113 
   19165    18635    17869    17351    17258    17510    17884    18100 
   18125    18145    18191    18135    18031    18076    18274    18443 
   18482    18392    18274    18362    18715    19124    19446    19614 
   19476    18972    18311    17869    17917    18453    19244    19889 
   19927    19206    18152    17425    17398    18071    19157    20116 
   20414    19815    18566    17381    16888    17248    18300    19550 
   20295    20142    19199    17907    16924    16825    17618    18783 
   19747    20140    19815    18943    17984    17409    17473    18165 
   19161    19842    19732    18928    17930    17275    17301    17982 
   18951    19649    19635    18921    17902    17101    16956    17552 
   18520    19279    19419    18912    17999    17100    16738    17166 
   18161    19233    19865    19830    19248    18315    17382    17008 
   17513    18574    19542    20038    19908    19157    18272    17852 
   18025    18580    19271    19823    19912    19441    18657    17921 
   17571    17733    18173    18566    18786    18800    18558    18166 
   17915    17929    18009    17942    17818    17788    17799    17899 
   18260    18669    18773    18597    18296    17922    17685    17813 
   18222    18701    19116    19300    19132    18712    18249    17894 
   17830    18242    18916    19380    19425    19066    18391    17672 
   17262    17348    17909    18759    19519    19750    19344    18553 
   17716    17215    17329    17914    18543    18951    19052    18775 
   18180    17595    17344    17456    17764    18110    18358    18414 
   18301    18220    18320    18455    18446    18396    18459    18639 
   18859    18989    18937    18752    18504    18237    17960    17710 
   17647    17887    18335    18743    18817    18509    18145    17971 
   17902    17921    18199    18690    19010    18909    18535    18145 
   18000    18270    18797    19265    19531    19545    19248    18696 
   18193    18061    18326    18796    19202    19323    19180    18982 
   18910    18989    19111    19195    19205    19098    18893    18648 
   18374    18085    17901    17994    18387    18841    19093    19047 
   18698    18166    17755    17707    18054    18628    19103    19182 
   18783    18108    17498    17219    17374    17944    18711    19276 
   19337    18932    18328    17740    17402    17567    18181    18835 
   19102    18874    18385    17894    17550    17540    17932    18522 
   18966    19006    18665    18189    17845    17825    18160    18594 
   18781    18589    18161    17767    17683    18104    18939    19743 
   20025    19543    18486    17415    16899    17192    18142    19257 
   19911    19704    18817    17852    17292    17378    18098    19036 
   19660    19662    19055    18235    17747    17865    18462    19151 
   19550    19467    18967    18323    17813    17672    18003    18574 
   18994    19016    18612    17995    17510    17416    17793    18524 
   19263    19580    19268    18501    17793    17707    18337    19165 
   19631    19593    19198    18600    18002    17752    17986    18419 
   18798    19030    18894    18396    18007    18052    18374    18743 
   19053    19091    18706    18204    17955    17956    18162    18546 
   18848    18850    18674    18504    18334    18212    18304    18582 
   18805    18775    18500    18204    18091    18114    18193    18339 
   18503    18603    18648    18646    18550    18346    18104    17956 
   17986    18157    18420    18717    18874    18751    18418    18054 
   17842    17896    18208    18685    19143    19283    18906    18211 
   17694    17666    18081    18725    19269    19306    18692    17868 
   17386    17373    17740    18403    19082    19329    18960    18270 
   17675    17432    17703    18354    18883    18890    18388    17672 
   17139    17054    17405    18000    18607    18968    18922    18531 
   18025    17663    17589    17736    17988    18314    18567    18508 
   18247    18218    18515    18824    18981    19039    18917    18536 
   18200    18229    18490    18758    18993    19132    19099    18906 
   18607    18326    18225    18377    18731    19148    19485    19656 
   19587    19284    18939    18766    18766    18824    18914    19026 
   19056    18925    18755    18733    18844    18893    18770    18472 
   18091    17865    17967    18355    18835    19138    19066    18581 
   17872    17293    17130    17486    18258    19025    19251    18756 
   17848    17042    16780    17235    18230    19315    19974    19822 
   18843    17621    16924    17023    17732    18729    19496    19552 
   18937    18098    17509    17525    18108    18875    19445    19504 
   18947    18068    17369    17207    17668    18558    19395    19693 
   19391    18787    18188    17899    18215    18983    19589    19615 
   19120    18376    17701    17417    17697    18365    18989    19219 
   18940    18297    17674    17425    17610    18081    18675    19124 
   19078    18500    17805    17482    17631    18002    18404    18752 
   18925    18922    18839    18639    18300    18046    18084    18311 
   18544    18756    18887    18827    18662    18524    18380    18212 
   18100    18111    18320    18708    19071    19207    19067    18751 
   18382    18061    17948    18168    18597    18971    19066    18792 
   18300    17875    17714    17922    18465    19060    19377    19291 
   18843    18207    17653    17446    17728    18366    18976    19237 
   19080    18605    17980    17451    17316    17689    18347    18929 
   19147    18860    18245    17764    17756    18131    18553    18777 
   18698    18311    17818    17570    17709    18068    18459    18870 
   19184    19136    18743    18366    18291    18505    18862    19213 
   19322    19017    18470    17994    17760    17856    18295    18902 
   19379    19522    19323    18904    18453    18179    18216    18565 
   19032    19334    19292    18951    18574    18414    18503    18742 
   19057    19340    19357    18998    18501    18211    18237    18486 
   18760    18779    18455    18021    17747    17744    17980    18319 
   18613    18781    18740    18442    18040    17845    18011    18364 
