Origin Time       2024/04/02 04:24:00
Lat.              40.133
Long.             141.712
Depth. (km)       71
Mag.              6.0
Station Code      FKSH05
Station Lat.      37.2544
Station Long.     139.8725
Station Height(m) 390.5
Record Time       2024/04/02 04:25:48
Sampling Freq(Hz) 100Hz
Duration Time(s)  120
Dir.              2
Scale Factor      2942(gal)/8224139
Max. Acc. (gal)   0.359
Last Correction   2024/04/02 04:25:49
Memo.             
[...]
  215250   215288   215311   215319   215352   215416   215461   215470 
  215462   215466   215485   215491   215477   215441   215393   215365 
  215330   215256   215198   215199   215207   215167   215107   215087 
  215103   215136   215167   215163   215145   215157   215187   215208 
  215245   215299   215316   215296   215302   215333   215326   215310 
  215338   215397   215449   215477   215478   215466   215461   215476 
  215519   215576   215609   215607   215586   215562   215539   215514 
  215478   215455   215437   215393   215357   215353   215353   215345 
  215318   215264   215210   215187   215198   215221   215207   215141 
  215057   215011   215019   215057   215104   215122   215083   215013 
  214951   214910   214888   214886   214909   214964   215030   215086 
  215140   215191   215230   215269   215318   215362   215388   215404 
  215406   215391   215362   215323   215295   215302   215339   215383 
  215408   215397   215358   215346   215383   215412   215399   215376 
  215379   215383   215387   215414   215451   215470   215481   215488 
  215468   215420   215373   215334   215304   215291   215287   215279 
  215264   215257   215269   215277   215256   215222   215208   215204 
  215173   215131   215115   215103   215068   215045   215053   215067 
  215096   215140   215150   215169   215238   215279   215241   215196 
  215208   215254   215289   215295   215296   215316   215335   215349 
  215362   215373   215387   215379   215335   215293   215258   215223 
  215210   215219   215227   215229   215214   215187   215160   215134 
  215121   215123   215117   215114   215152   215211   215250   215265 
  215280   215308   215330   215326   215325   215341   215364   215389 
  215419   215462   215496   215482   215462   215482   215497   215445 
  215362   215330   215329   215318   215326   215364   215397   215416 
  215423   215418   215419   215438   215469   215489   215487   215482 
  215484   215468   215441   215400   215357   215333   215306   215265 
  215245   215246   215218   215145   215071   215014   214995   215021 
  215030   214991   214960   214963   214979   215014   215055   215077 
  215103   215157   215229   215284   215315   215343   215372   215389 
  215395   215400   215408   215420   215464   215507   215504   215489 
  215485   215451   215396   215361   215341   215320   215314   215306 
  215285   215299   215333   215339   215335   215347   215350   215329 
  215312   215326   215337   215338   215362   215387   215370   215333 
  215320   215357   215427   215474   215461   215418   215384   215343 
  215285   215253   215229   215187   215167   215148   215086   215046 
  215049   215048   215063   215100   215117   215111   215107   215106 
  215113   215149   215202   215234   215249   215256   215269   215300 
  215293   215230   215183   215176   215179   215175   215152   215126 
  215104   215069   215050   215082   215133   215158   215150   215142 
  215141   215130   215103   215063   215017   214986   214983   214998 
  215033   215082   215133   215192   215249   215310   215410   215522 
  215599   215651   215696   215712   215705   215696   215671   215624 
  215584   215558   215534   215500   215465   215437   215426   215438 
  215449   215428   215399   215403   215424   215416   215392   215373 
  215341   215318   215325   215335   215334   215307   215271   215276 
  215298   215289   215271   215265   215262   215242   215195   215133 
  215084   215059   215045   215021   214968   214894   214839   214851 
  214906   214933   214910   214895   214944   215019   215072   215125 
  215175   215187   215177   215195   215223   215229   215212   215188 
  215175   215203   215256   215277   215287   215302   215295   215285 
  215322   215383   215411   215396   215358   215314   215293   215293 
  215287   215283   215298   215308   215307   215322   215353   215361 
  215334   215280   215223   215198   215185   215171   215184   215238 
  215299   215341   215370   215404   215435   215449   215461   215473 
  215453   215415   215411   215411   215385   215373   215372   215361 
  215354   215350   215356   215385   215414   215410   215388   215380 
  215381   215366   215339   215327   215342   215353   215337   215311 
  215296   215281   215261   215244   215230   215204   215161   215127 
  215106   215080   215072   215084   215094   215103   215094   215059 
  215041   215071   215144   215221   215269   215304   215325   215338 
  215373   215403   215388   215352   215316   215296   215284   215238 
  215163   215111   215104   215102   215099   215115   215118   215107 
  215129   215144   215136   215158   215192   215202   215214   215219 
  215215   215221   215218   215194   215195   215246   215302   215330 
  215339   215345   215366   215427   215503   215562   215604   215639 
  215669   215707   215746   215754   215717   215659   215605   215582 
  215574   215538   215478   215414   215338   215281   215275   215281 
  215275   215276   215288   215277   215252   215254   215276   215272 
  215239   215210   215203   215215   215211   215196   215211   215234 
  215241   215242   215244   215233   215195   215142   215095   215050 
  215017   214999   214980   214978   215017   215045   215028   215007 
  215040   215119   215190   215226   215256   215281   215285   215272 
  215257   215268   215291   215284   215245   215195   215148   215123 
  215104   215087   215110   215169   215215   215231   215231   215235 
  215242   215233   215226   215248   215266   215268   215289   215327 
  215337   215308   215262   215222   215227   215287   215326   215303 
  215254   215225   215231   215256   215262   215260   215284   215311 
  215318   215337   215369   215384   215381   215357   215304   215271 
  215285   215303   215295   215280   215262   215238   215230   215248 
  215271   215268   215225   215181   215194   215225   215230   215244 
  215293   215345   215366   215381   215393   215401   215422   215449 
  215460   215465   215496   215542   215574   215570   215526   215474 
  215445   215439   215447   215445   215416   215377   215339   215306 
  215279   215261   215242   215227   215230   215254   215276   215280 
  215280   215295   215326   215373   215424   215453   215460   215446 
  215400   215350   215323   215307   215300   215307   215304   215285 
  215287   215322   215338   215331   215331   215312   215254   215191 
  215152   215126   215094   215082   215109   215137   215148   215148 
  215117   215060   215023   215017   215025   215040   215034   215002 
  214968   214934   214905   214901   214918   214949   215001   215060 
  215094   215102   215115   215140   215145   215137   215145   215185 
  215253   215295   215279   215238   215217   215227   215269   215311 
  215310   215276   215264   215287   215334   215384   215408   215403 
  215392   215384   215389   215416   215434   215424   215410   215400 
  215388   215370   215345   215310   215298   215316   215327   215330 
  215352   215374   215376   215357   215357   215368   215345   215306 
  215285   215271   215252   215239   215248   215288   215326   215310 
  215279   215277   215276   215291   215329   215345   215334   215322 
  215293   215257   215226   215200   215179   215175   215195   215215 
  215212   215204   215190   215150   215115   215117   215146   215172 
  215181   215190   215185   215161   215142   215140   215146   215169 
  215175   215157   215145   215171   215234   215303   215333   215341 
  215365   215406   215433   215426   215411   215414   215414   215406 
  215430   215489   215539   215542   215501   215439   215372   215337 
  215354   215369   215353   215350   215387   215443   215489   215508 
  215523   215550   215563   215553   215532   215520   215515   215504 
  215465   215410   215362   215318   215281   215269   215264   215229 
  215169   215140   215149   215167   215160   215117   215090   215110 
  215129   215125   215102   215072   215076   215111   215134   215156 
  215195   215219   215196   215157   215152   215179   215203   215227 
  215276   215310   215298   215296   215298   215260   215221   215217 
  215221   215223   215221   215196   215172   215172   215191   215208 
  215207   215199   215225   215303   215380   215397   215368   215337 
  215322   215312   215295   215266   215238   215234   215258   215269 
  215237   215196   215185   215184   215172   215177   215210   215244 
  215253   215239   215261   215358   215464   215504   215497   215500 
  215520   215526   215508   215489   215500   215530   215535   215519 
  215524   215549   215562   215565   215574   215585   215574   215557 
  215546   215511   215454   215426   215420   215403   215397   215411 
  215426   215446   215460   215454   215453   215445   215416   215384 
  215349   215327   215337   215341   215303   215249   215207   215154 
  215117   215127   215148   215144   215142   215134   215103   215076 
  215042   214996   214980   214994   214995   214987   214988   214983 
  214964   214956   214955   214960   214980   214991   214988   214986 
  214979   214971   214971   214986   215005   215003   214984   214967 
  214959   214968   215006   215059   215100   215118   215110   215092 
  215083   215092   215126   215157   215172   215207   215250   215261 
  215283   215342   215379   215376   215353   215308   215260   215234 
  215245   215280   215291   215261   215256   215299   215325   215318 
  215302   215291   215315   215347   215352   215356   215374   215383 
  215391   215418   215443   215451   215450   215423   215362   215315 
  215303   215293   215269   215244   215235   215241   215237   215219 
  215196   215188   215211   215265   215334   215373   215352   215302 
  215264   215245   215249   215276   215295   215296   215310   215334 
  215339   215325   215334   215383   215423   215423   215392   215350 
  215320   215307   215299   215308   215330   215337   215337   215322 
  215273   215230   215221   215218   215229   215253   215261   215260 
  215279   215312   215339   215353   215370   215397   215415   215424 
  215423   215392   215350   215341   215361   215380   215383   215360 
  215326   215311   215298   215268   215250   215244   215245   215273 
  215302   215312   215327   215339   215347   215370   215397   215418 
  215423   215407   215384   215357   215322   215284   215258   215260 
  215256   215208   215156   215157   215202   215227   215219   215225 
  215252   215279   215288   215268   215253   215280   215329   215365 
  215381   215407   215441   215431   215377   215338   215318   215292 
  215257   215221   215210   215210   215198   215194   215199   215184 
  215163   215163   215177   215176   215150   215141   215177   215203 
  215180   215168   215206   215245   215271   215300   215318   215327 
  215350   215361   215339   215304   215284   215279   215273   215276 
  215287   215288   215273   215217   215133   215103   215141   215157 
  215121   215094   215104   215102   215057   215017   215013   215019 
  215034   215067   215100   215125   215150   215179   215206   215217 
  215204   215187   215168   215145   215131   215134   215130   215115 
  215111   215109   215100   215092   215083   215060   215036   215052 
  215088   215099   215109   215137   215157   215141   215109   215087 
  215069   215065   215083   215084   215071   215092   215134   215133 
  215106   215095   215104   215127   215141   215131   215127   215149 
  215190   215229   215241   215238   215260   215319   215389   215443 
  215500   215578   215654   215669   215612   215547   215550   215612 
  215665   215671   215686   215746   215788   215777   215761   215767 
  215781   215777   215746   215735   215774   215829   215862   215877 
  215867   215798   215701   215646   215628   215596   215568   215546 
  215508   215480   215472   215442   215401   215379   215350   215311 
  215298   215311   215304   215253   215206   215194   215200   215222 
  215248   215264   215295   215325   215299   215223   215148   215102 
  215075   215063   215088   215145   215210   215254   215265   215257 
  215239   215210   215173   215119   215075   215077   215103   215121 
  215156   215208   215264   215316   215335   215307   215271   215242 
  215206   215157   215104   215068   215050   215038   215033   215036 
  215030   215006   214952   214890   214848   214837   214857   214913 
  215005   215098   215133   215115   215096   215079   215061   215079 
  215156   215238   215253   215219   215206   215212   215207   215173 
  215115   215075   215063   215036   214998   214982   214971   214953 
  214982   215057   215129   215184   215208   215179   215130   215091 
  215045   214990   214944   214951   215019   215096   215183   215314 
  215450   215547   215605   215630   215634   215627   215626   215627 
  215613   215617   215646   215642   215609   215611   215651   215694 
  215732   215785   215863   215932   215958   215955   215937   215913 
  215905   215932   215977   215990   215943   215882   215847   215796 
  215712   215639   215576   215511   215481   215481   215464   215435 
  215434   215443   215457   215509   215570   215584   215553   215511 
  215476   215442   215423   215422   215403   215353   215277   215185 
  215076   214961   214876   214833   214814   214801   214776   214740 
  214720   214724   214726   214718   214708   214686   214650   214627 
  214598   214537   214459   214396   214355   214312   214269   214272 
  214308   214338   214365   214424   214515   214594   214624   214620 
  214624   214655   214687   214720   214786   214867   214920   214968 
  215023   215073   215144   215233   215307   215361   215419   215507 
  215620   215719   215782   215823   215836   215821   215788   215732 
  215684   215688   215713   215696   215630   215578   215582   215619 
  215644   215634   215585   215536   215528   215562   215620   215704 
  215788   215829   215836   215806   215717   215599   215504   215446 
  215414   215415   215447   215481   215497   215516   215538   215551 
  215578   215623   215644   215616   215563   215555   215582   215563 
  215508   215478   215484   215516   215558   215557   215518   215496 
  215481   215441   215389   215352   215320   215284   215246   215212 
  215198   215233   215296   215334   215362   215424   215491   215516 
  215507   215460   215372   215264   215153   215045   214941   214871 
  214836   214793   214763   214767   214758   214729   214694   214632 
  214562   214517   214482   214446   214420   214413   214415   214393 
  214361   214366   214417   214492   214577   214648   214681   214712 
  214793   214888   214961   215034   215117   215161   215145   215096 
  215067   215084   215122   215148   215176   215241   215341   215441 
  215481   215458   215433   215441   215464   215472   215453   215434 
  215458   215532   215631   215732   215796   215806   215824   215862 
  215867   215847   215840   215842   215823   215815   215862   215947 
  216025   216041   215994   215959   215962   215939   215908   215923 
  215925   215859   215765   215694   215684   215704   215696   215674 
  215666   215643   215608   215592   215577   215539   215504   215476 
  215437   215389   215333   215262   215200   215165   215168   215212 
  215298   215403   215493   215568   215631   215626   215547   215474 
  215447   215422   215376   215333   215284   215235   215231   215252 
  215249   215223   215202   215211   215227   215204   215168   215141 
  215107   215057   214994   214906   214828   214797   214787   214778 
  214766   214720   214667   214674   214720   214745   214753   214762 
  214748   214717   214712   214728   214725   214721   214726   214702 
  214648   214606   214596   214625   214686   214760   214848   214934 
  215009   215080   215150   215210   215261   215325   215404   215455 
  215461   215434   215381   215356   215399   215454   215447   215403 
  215385   215411   215457   215491   215495   215473   215445   215426 
  215418   215388   215358   215400   215508   215593   215638   215680 
  215713   215711   215697   215694   215673   215604   215501   215407 
  215352   215354   215395   215389   215311   215233   215190   215156 
  215107   215060   215044   215041   215021   214998   214986   214948 
  214852   214729   214627   214564   214555   214606   214681   214726 
  214775   214847   214890   214890   214871   214821   214758   214722 
  214743   214824   214915   214987   215060   215133   215187   215208 
  215194   215153   215113   215115   215167   215233   215279   215295 
  215281   215272   215287   215302   215335   215423   215535   215636 
  215757   215877   215941   215981   216024   216036   216047   216101 
  216152   216157   216139   216124   216133   216164   216191   216201 
  216198   216176   216110   216035   216001   216000   216013   216025 
  216014   215982   215951   215923   215883   215847   215823   215800 
  215762   215682   215563   215472   215442   215457   215476   215438 
  215358   215319   215327   215306   215242   215188   215175   215175 
  215150   215104   215057   215007   214953   214875   214783   214741 
  214740   214718   214690   214681   214687   214695   214671   214617 
  214556   214485   214415   214363   214338   214339   214354   214353 
  214324   214319   214384   214470   214542   214601   214627   214632 
  214639   214618   214590   214606   214674   214747   214745   214704 
  214743   214864   214979   215068   215133   215165   215184   215207 
  215234   215265   215319   215419   215530   215582   215593   215611 
  215634   215657   215669   215667   215693   215748   215777   215775 
  215797   215869   215954   215998   215979   215933   215881   215821 
  215761   215698   215651   215623   215592   215584   215613   215611 
  215557   215504   215441   215350   215288   215281   215304   215365 
  215454   215504   215495   215477   215477   215497   215539   215547 
  215487   215418   215365   215287   215198   215133   215075   215011 
  214967   214965   215002   215055   215133   215230   215281   215272 
  215271   215292   215310   215339   215374   215373   215337   215295 
  215258   215235   215223   215210   215203   215207   215208   215198 
  215172   215144   215161   215235   215293   215316   215362   215388 
  215325   215219   215153   215154   215181   215173   215126   215068 
  215007   214925   214828   214772   214797   214836   214816   214762 
  214748   214794   214878   214968   215050   215125   215172   215187 
  215208   215244   215258   215252   215245   215241   215233   215239 
  215279   215343   215437   215527   215550   215509   215451   215381 
  215312   215264   215239   215256   215318   215403   215480   215507 
  215473   215420   215401   215442   215535   215639   215701   215685 
  215627   215593   215609   215626   215613   215627   215676   215654 
  215542   215478   215501   215493   215427   215387   215403   215453 
  215524   215570   215568   215589   215642   215647   215596   215508 
  215384   215283   215229   215185   215199   215276   215312   215279 
  215238   215200   215150   215098   215057   215060   215098   215092 
  215063   215103   215163   215130   215018   214911   214871   214876 
