Origin Time       2024/04/02 04:24:00
Lat.              40.133
Long.             141.712
Depth. (km)       71
Mag.              6.0
Station Code      FKSH10
Station Lat.      37.1616
Station Long.     140.0930
Station Height(m) 364.4
Record Time       2024/04/02 04:25:30
Sampling Freq(Hz) 100Hz
Duration Time(s)  149
Dir.              2
Scale Factor      2942(gal)/8224139
Max. Acc. (gal)   0.447
Last Correction   2024/04/02 04:25:31
Memo.             
[...]
  314716   314826   314905   314841   314776   314774   314705   314608 
  314616   314660   314686   314761   314844   314849   314788   314737 
  314729   314724   314698   314632   314479   314317   314271   314302 
  314331   314369   314424   314471   314487   314442   314404   314489 
  314636   314672   314578   314474   314471   314513   314464   314439 
  314560   314651   314620   314616   314697   314753   314732   314733 
  314790   314797   314759   314755   314739   314698   314720   314767 
  314716   314648   314724   314855   314864   314786   314744   314721 
  314676   314682   314794   314926   314945   314895   314911   314975 
  315021   315071   315072   314963   314859   314917   315025   314979 
  314815   314695   314645   314620   314612   314602   314586   314606 
  314641   314625   314610   314655   314712   314739   314747   314730 
  314678   314640   314675   314749   314794   314774   314728   314701 
  314686   314701   314821   315015   315129   315084   314938   314743 
  314571   314532   314575   314614   314645   314606   314508   314442 
  314413   314446   314531   314579   314626   314722   314818   314879 
  314863   314757   314667   314693   314776   314794   314757   314744 
  314728   314685   314649   314655   314699   314721   314759   314894 
  315000   314994   314963   314909   314810   314752   314783   314824 
  314756   314601   314537   314594   314590   314506   314487   314541 
  314617   314713   314791   314826   314838   314821   314821   314895 
  314975   314999   314994   314952   314896   314879   314867   314868 
  314899   314869   314779   314749   314806   314886   314898   314824 
  314775   314770   314741   314726   314757   314795   314841   314888 
  314894   314856   314826   314849   314847   314768   314733   314759 
  314771   314793   314807   314807   314817   314788   314745   314726 
  314659   314601   314670   314733   314676   314664   314798   314910 
  314861   314782   314784   314771   314729   314713   314676   314656 
  314712   314757   314740   314705   314703   314701   314620   314523 
  314508   314541   314582   314609   314574   314537   314606   314693 
  314749   314868   314941   314848   314755   314745   314721   314725 
  314786   314778   314662   314548   314520   314567   314617   314610 
  314562   314536   314541   314516   314433   314335   314280   314267 
  314301   314424   314564   314639   314689   314672   314613   314626 
  314645   314633   314660   314672   314671   314730   314782   314756 
  314667   314533   314454   314518   314645   314732   314798   314851 
  314882   314879   314790   314713   314737   314745   314740   314770 
  314749   314721   314741   314702   314616   314604   314643   314649 
  314649   314695   314775   314856   314929   314955   314913   314902 
  315002   315077   315003   314944   315025   315112   315126   315112 
  315052   314925   314802   314721   314666   314659   314689   314714 
  314751   314776   314747   314695   314703   314788   314890   314932 
  314907   314865   314826   314794   314790   314798   314818   314871 
  314887   314829   314767   314709   314635   314624   314712   314795 
  314841   314879   314853   314809   314886   314968   314882   314779 
  314799   314861   314891   314880   314882   314890   314801   314666 
  314586   314516   314421   314361   314404   314523   314574   314498 
  314401   314412   314505   314541   314543   314612   314702   314733 
  314737   314803   314919   314964   314926   314907   314952   315000 
  314955   314797   314602   314460   314431   314493   314523   314451 
  314390   314443   314551   314626   314645   314581   314494   314502 
  314567   314590   314609   314667   314694   314651   314616   314629 
  314651   314631   314605   314662   314737   314744   314755   314797 
  314794   314783   314840   314901   314883   314863   314878   314856 
  314830   314833   314806   314786   314776   314726   314679   314624 
  314548   314540   314543   314517   314595   314716   314733   314706 
  314680   314645   314622   314663   314736   314747   314775   314910 
  315022   315054   315080   315045   314940   314902   314957   314982 
  314942   314923   314926   314896   314876   314918   314964   314903 
  314761   314685   314737   314847   314909   314907   314905   314923 
  314886   314774   314712   314739   314725   314662   314655   314710 
  314759   314739   314629   314520   314516   314599   314709   314788 
  314821   314845   314865   314852   314833   314832   314791   314701 
  314648   314683   314774   314888   314986   315003   314934   314884 
  314944   315025   314999   314909   314891   314945   314921   314794 
  314682   314613   314587   314617   314612   314552   314527   314529 
  314535   314509   314475   314540   314625   314639   314645   314633 
  314624   314647   314617   314585   314631   314671   314645   314632 
  314653   314601   314440   314320   314352   314450   314508   314548 
  314543   314458   314381   314312   314228   314236   314381   314517 
  314524   314467   314469   314500   314504   314510   314505   314491 
  314550   314670   314766   314790   314755   314772   314867   314891 
  314815   314739   314666   314628   314670   314680   314629   314644 
  314699   314685   314621   314597   314647   314701   314760   314884 
  314946   314909   314948   315013   314914   314736   314658   314664 
  314667   314679   314757   314857   314874   314795   314714   314710 
  314782   314888   314957   314952   314934   314959   315013   315071 
  315098   315118   315157   315165   315148   315148   315133   315118 
  315129   315049   314883   314833   314913   314988   315021   315036 
  315073   315080   314991   314922   314906   314851   314834   314857 
  314837   314869   314950   314957   314899   314824   314783   314859 
  314965   315017   315056   315025   314892   314786   314701   314613 
  314643   314766   314791   314690   314605   314582   314524   314443 
  314410   314371   314305   314288   314332   314409   314477   314463 
  314427   314474   314483   314415   314428   314532   314651   314702 
  314629   314545   314529   314548   314610   314659   314621   314574 
  314560   314514   314424   314383   314446   314482   314440   314471 
  314640   314771   314734   314676   314713   314698   314571   314527 
  314632   314728   314729   314682   314649   314640   314641   314626 
  314551   314483   314525   314625   314671   314616   314543   314585 
  314659   314647   314656   314749   314855   314945   314988   314949 
  314891   314872   314864   314891   314963   314984   314969   314952 
  314891   314891   314959   314972   314992   315014   314945   314883 
  314883   314928   315031   315096   315050   314995   314960   314923 
  314891   314828   314761   314759   314756   314724   314721   314766 
  314798   314802   314825   314861   314913   314980   314988   314913 
  314795   314707   314713   314753   314795   314868   314919   314910 
  314879   314822   314791   314890   315056   315098   315013   314937 
  314891   314861   314849   314824   314824   314837   314774   314686 
  314625   314594   314655   314724   314682   314651   314666   314614 
  314618   314724   314724   314670   314771   314926   314968   314986 
  315061   315112   315123   315108   315061   315042   315067   315076 
  315038   314999   315023   315036   314982   314990   315106   315179 
  315103   314973   314903   314867   314874   314941   314982   314964 
  314937   314896   314863   314855   314821   314768   314755   314768 
  314787   314814   314786   314683   314583   314525   314498   314528 
  314635   314771   314833   314747   314601   314527   314478   314436 
  314482   314528   314501   314489   314470   314409   314390   314378 
  314294   314209   314146   314088   314091   314118   314082   314022 
  314032   314112   314159   314113   314024   314018   314138   314274 
  314328   314342   314338   314270   314209   314285   314432   314497 
  314435   314328   314315   314363   314359   314381   314466   314485 
  314431   314390   314398   314471   314572   314590   314518   314489 
  314535   314551   314525   314504   314459   314405   314417   314451 
  314448   314471   314462   314362   314321   314382   314423   314404 
  314383   314428   314464   314431   314456   314554   314612   314640 
  314622   314556   314528   314520   314491   314551   314737   314903 
  314975   315018   315031   314987   314948   314952   314968   314960 
  314942   314965   315000   314973   314859   314717   314622   314531 
  314433   314424   314487   314604   314810   314971   314946   314797 
  314651   314667   314822   314933   315025   315117   315056   314913 
  314857   314856   314861   314891   314948   315060   315214   315346 
  315432   315401   315257   315141   315077   315073   315152   315204 
  315193   315133   314977   314787   314686   314721   314842   314957 
  315053   315129   315112   315048   315041   315041   315006   315002 
  315040   315098   315215   315426   315636   315733   315694   315559 
  315447   315393   315299   315180   315057   314934   314956   315068 
  315080   315121   315270   315293   315133   314969   314882   314833 
  314829   314857   314848   314828   314806   314703   314637   314745 
  314859   314872   314928   315007   314980   314907   314869   314847 
  314797   314706   314686   314756   314770   314737   314767   314782 
  314697   314577   314528   314591   314686   314768   314868   314911 
  314864   314814   314772   314695   314578   314471   314456   314518 
  314579   314582   314541   314523   314485   314382   314323   314309 
  314261   314254   314302   314286   314266   314313   314292   314216 
  314269   314382   314432   314490   314536   314493   314443   314402 
  314311   314262   314278   314269   314269   314270   314226   314180 
  314078   313939   313945   314050   314146   314311   314510   314622 
  314621   314548   314504   314506   314516   314575   314679   314776 
  314845   314869   314880   314878   314817   314726   314690   314744 
  314786   314729   314649   314595   314483   314334   314257   314282 
  314367   314462   314529   314574   314621   314680   314720   314729 
  314766   314855   314907   314880   314921   315069   315134   315098 
  315083   315030   314895   314763   314644   314493   314308   314138 
  314093   314228   314389   314473   314544   314644   314824   315030 
  315117   315135   315106   314952   314810   314751   314705   314690 
  314668   314589   314540   314539   314550   314640   314759   314717 
  314572   314590   314710   314698   314587   314516   314483   314420 
  314311   314277   314425   314614   314689   314733   314772   314770 
  314848   315031   315156   315181   315188   315188   315169   315117 
  315025   314991   315044   315046   314998   314977   314901   314768 
  314744   314842   314932   314971   315014   315049   315077   315216 
  315435   315559   315563   315544   315569   315590   315542   315488 
  315441   315296   315108   315027   315103   315230   315296   315324 
  315361   315422   315503   315530   315505   315531   315571   315532 
  315485   315499   315465   315369   315377   315450   315401   315243 
  315157   315249   315392   315405   315245   315013   314874   314851 
  314811   314690   314529   314375   314315   314425   314599   314675 
  314643   314516   314354   314288   314308   314356   314455   314517 
  314446   314332   314240   314120   314037   314035   313956   313740 
  313629   313740   313912   314120   314329   314394   314413   314521 
  314635   314716   314782   314761   314645   314582   314671   314759 
  314755   314832   314986   315038   315036   315085   315130   315110 
  315022   314867   314721   314671   314690   314675   314586   314483 
  314390   314305   314211   314072   314020   314097   314055   313907 
  313904   313978   313966   313984   314085   314186   314309   314416 
  314400   314375   314428   314417   314315   314317   314437   314463 
  314377   314292   314186   314135   314263   314482   314725   314953 
  315007   314899   314824   314820   314820   314795   314743   314717 
  314770   314810   314783   314824   314899   314806   314667   314699 
  314840   314952   314944   314803   314666   314616   314616   314660 
  314794   314886   314779   314594   314462   314348   314246   314180 
  314176   314244   314293   314280   314236   314120   313981   313910 
  313827   313788   313920   314132   314331   314494   314593   314651 
  314636   314518   314375   314307   314416   314689   314948   315125 
  315237   315265   315253   315216   315169   315183   315188   315111 
  315014   315009   315184   315420   315554   315666   315729   315651 
  315573   315559   315512   315453   315476   315611   315729   315692 
  315669   315755   315704   315513   315416   315351   315185   314999 
  314941   314996   315031   315023   315027   315046   315087   315168 
  315198   315065   314848   314703   314647   314631   314682   314847 
  315019   315007   314878   314802   314695   314528   314458   314528 
  314724   314965   315094   315148   315231   315252   315111   314911 
  314856   314923   314887   314772   314656   314448   314293   314378 
  314597   314828   314996   315019   314915   314748   314616   314574 
  314521   314467   314475   314420   314363   314487   314591   314469 
  314331   314315   314212   313943   313694   313536   313484   313555 
  313590   313576   313663   313802   313949   314169   314335   314328 
  314244   314122   313964   313922   314061   314244   314343   314385 
  314444   314509   314517   314400   314261   314286   314440   314622 
  314797   314841   314741   314663   314660   314658   314682   314848 
  315073   315160   315125   315022   314841   314713   314651   314579 
  314737   315184   315512   315553   315428   315185   314953   314883 
  314969   315161   315350   315393   315330   315249   315077   314836 
  314764   314930   315129   315297   315513   315671   315659   315504 
  315223   314998   315006   315079   315156   315306   315292   314976 
  314581   314317   314163   314073   314158   314424   314662   314783 
  314892   315036   315075   314944   314814   314761   314803   315014 
  315219   315210   315021   314705   314420   314442   314736   314980 
  315025   315002   314946   314739   314471   314359   314437   314595 
  314720   314806   314848   314779   314679   314640   314595   314454 
  314224   314088   314201   314436   314597   314617   314544   314471 
  314416   314432   314554   314667   314713   314687   314705   314903 
  315133   315319   315457   315326   315090   315090   315157   315146 
  315142   315152   315146   315017   314771   314636   314612   314587 
  314605   314577   314397   314300   314412   314471   314366   314244 
  314194   314215   314296   314412   314477   314517   314655   314826 
  314936   314965   314876   314767   314771   314824   314802   314698 
  314617   314622   314635   314528   314293   314069   313942   313937 
  313999   313976   313922   313954   313919   313835   313943   314163 
  314257   314196   314159   314289   314451   314490   314545   314751 
  315034   315196   315104   314961   314969   314936   314793   314810 
  314921   314875   314879   315052   315108   315033   314938   314801 
  314810   315040   315207   315265   315335   315346   315276   315247 
  315296   315303   315184   315046   314987   314975   314961   314959 
  315021   315073   314977   314826   314786   314856   314841   314599 
  314406   314494   314616   314548   314454   314487   314566   314674 
  314922   315150   315122   314917   314702   314540   314469   314508 
  314632   314729   314729   314737   314748   314671   314683   314894 
  315034   315017   315033   315046   314967   314938   315037   315108 
  315091   315079   315072   314998   314875   314701   314532   314469 
  314485   314578   314741   314860   314869   314749   314577   314558 
  314741   315000   315218   315260   315017   314587   314305   314359 
  314525   314640   314815   315015   315141   315202   315166   315103 
  315090   315054   315049   315164   315243   315171   315064   315072 
  315195   315266   315214   315100   314930   314722   314597   314537 
  314425   314336   314334   314257   314113   314101   314095   313939 
  313877   313960   314003   314095   314213   314182   314074   314046 
  314136   314232   314248   314236   314167   314086   314173   314355 
  314365   314219   314177   314359   314701   315052   315176   315017 
  314868   314940   315041   315021   315004   315026   314952   314838 
  314828   314825   314662   314419   314323   314409   314516   314524 
  314509   314586   314608   314462   314340   314285   314216   314234 
  314355   314475   314504   314369   314127   313973   314018   314177 
  314346   314540   314799   315121   315435   315589   315555   315465 
  315362   315235   315142   315038   314871   314774   314774   314759 
  314790   314915   315075   315296   315504   315532   315470   315412 
  315281   315156   315210   315304   315210   315114   315184   315165 
  315052   315106   315204   315208   315268   315392   315420   315288 
  315061   314973   315176   315409   315403   315306   315285   315289 
  315270   315202   315192   315384   315496   315296   315135   315187 
  315138   315004   315050   315121   315058   315023   315033   314967 
  314882   314828   314728   314601   314536   314483   314311   314096 
  314099   314251   314278   314204   314084   313895   313760   313698 
  313645   313641   313638   313609   313617   313626   313665   313860 
  314085   314230   314386   314490   314493   314598   314722   314589 
  314383   314313   314234   314138   314128   314142   314165   314255 
  314346   314398   314498   314651   314787   314851   314768   314590 
  314494   314485   314381   314162   314053   314084   314074   314095 
  314352   314693   314759   314595   314512   314491   314423   314442 
  314631   314817   314891   314964   315069   315131   315179   315300 
  315466   315535   315493   315457   315376   315243   315274   315418 
  315478   315557   315601   315380   314992   314741   314780   314955 
  315026   315041   315103   315154   315229   315337   315296   315098 
  314967   315018   315084   315084   315230   315432   315385   315280 
  315408   315535   315372   315110   315013   314957   314807   314782 
  314934   315010   315038   315145   315130   314910   314703   314621 
  314581   314539   314494   314473   314482   314462   314386   314325 
  314350   314369   314328   314398   314529   314471   314319   314261 
  314219   314093   314014   314120   314273   314331   314436   314612 
  314722   314766   314705   314518   314300   314097   314014   314077 
  314158   314302   314463   314429   314327   314321   314251   314077 
  313993   314053   314115   314120   314181   314334   314427   314362 
  314267   314254   314234   314253   314494   314811   314975   315053 
  315053   314950   314905   314906   314861   314921   315110   315117 
  314825   314517   314348   314293   314436   314749   314969   315025 
  315104   315238   315269   315231   315272   315210   314965   314914 
