Origin Time       2024/04/02 04:24:00
Lat.              40.133
Long.             141.712
Depth. (km)       71
Mag.              6.0
Station Code      FKSH16
Station Lat.      37.7643
Station Long.     140.3766
Station Height(m) 135
Record Time       2024/04/02 04:25:23
Sampling Freq(Hz) 100Hz
Duration Time(s)  120
Dir.              4
Scale Factor      7845(gal)/8223790
Max. Acc. (gal)   1.583
Last Correction   2024/04/02 04:25:23
Memo.             
[...]
   -1926    -1823    -1723    -1671    -1655    -1686    -1763    -1830 
   -1845    -1837    -1810    -1755    -1742    -1717    -1567    -1420 
   -1428    -1583    -1850    -2069    -2057    -1860    -1564    -1270 
   -1178    -1312    -1521    -1653    -1625    -1593    -1621    -1533 
   -1460    -1595    -1814    -2007    -2065    -1950    -1757    -1518 
   -1409    -1574    -1765    -1753    -1659    -1655    -1653    -1485 
   -1323    -1459    -1738    -1838    -1802    -1806    -1788    -1607 
   -1358    -1281    -1378    -1420    -1402    -1470    -1567    -1615 
   -1660    -1759    -1896    -1950    -1872    -1815    -1844    -1817 
   -1787    -1946    -2166    -2172    -2006    -1935    -2042    -2150 
   -2182    -2266    -2404    -2448    -2292    -1998    -1819    -1846 
   -1945    -2085    -2201    -2137    -1937    -1706    -1510    -1594 
   -2015    -2386    -2423    -2209    -1906    -1576    -1328    -1339 
   -1614    -1906    -2015    -1965    -1775    -1539    -1533    -1795 
   -2089    -2269    -2236    -2000    -1702    -1513    -1614    -1872 
   -1956    -1863    -1640    -1343    -1274    -1503    -1809    -2074 
   -2232    -2246    -2134    -1884    -1667    -1750    -2096    -2430 
   -2531    -2374    -2025    -1464     -980     -990    -1298    -1522 
   -1684    -1825    -1837    -1698    -1560    -1651    -1964    -2226 
   -2253    -2014    -1614    -1394    -1472    -1591    -1629    -1644 
   -1602    -1398    -1152    -1171    -1429    -1584    -1548    -1433 
   -1221     -970     -911    -1159    -1547    -1817    -1937    -1950 
   -1773    -1490    -1459    -1732    -1911    -1896    -1894    -1858 
   -1680    -1471    -1374    -1379    -1399    -1460    -1633    -1834 
   -1930    -1883    -1807    -1964    -2300    -2448    -2444    -2508 
   -2447    -2196    -2066    -2203    -2516    -2768    -2697    -2413 
   -2128    -1819    -1539    -1375    -1398    -1675    -1911    -1784 
   -1483    -1236    -1088    -1158    -1482    -1919    -2301    -2423 
   -2224    -1892    -1626    -1551    -1711    -2014    -2301    -2415 
   -2197    -1668    -1097     -776     -895    -1367    -1719    -1696 
   -1460    -1112     -788     -720     -967    -1495    -2074    -2303 
   -2141    -1814    -1501    -1545    -2092    -2652    -2775    -2463 
   -1881    -1204     -689     -724    -1344    -2015    -2262    -2081 
   -1798    -1667    -1626    -1701    -1946    -2072    -1952    -1795 
   -1640    -1615    -1950    -2343    -2332    -1933    -1480    -1277 
   -1401    -1714    -2014    -2134    -1973    -1652    -1602    -2030 
   -2493    -2596    -2471    -2278    -2027    -1749    -1540    -1620 
   -1969    -2251    -2234    -1896    -1553    -1556    -1713    -1796 
   -1952    -2255    -2587    -2691    -2359    -1956    -1960    -2141 
   -2130    -2034    -1979    -1894    -1760    -1703    -1756    -1702 
   -1448    -1181    -1085    -1335    -1935    -2413    -2303    -1895 
   -1729    -1795    -1865    -1998    -2362    -2789    -2799    -2259 
   -1611    -1240    -1148    -1318    -1705    -2049    -2100    -1790 
   -1394    -1324    -1578    -1949    -2251    -2285    -2133    -1919 
   -1579    -1196     -976    -1032    -1310    -1503    -1378    -1111 
    -945     -965    -1143    -1382    -1686    -1872    -1634    -1165 
    -742     -429     -453     -824    -1279    -1736    -2014    -1918 
   -1564    -1081     -649     -591     -922    -1393    -1748    -1763 
   -1471    -1109     -874     -869    -1030    -1335    -1822    -2216 
   -2243    -2104    -2022    -1981    -1958    -1879    -1776    -1872 
   -2106    -2273    -2377    -2388    -2285    -2226    -2289    -2469 
   -2698    -2806    -2737    -2547    -2253    -1923    -1620    -1424 
   -1512    -1787    -2000    -2178    -2301    -2253    -2079    -1792 
   -1501    -1416    -1517    -1682    -1863    -2015    -2134    -2161 
   -2043    -1884    -1756    -1660    -1633    -1676    -1803    -1919 
   -1802    -1530    -1363    -1377    -1539    -1742    -1937    -2160 
   -2270    -2043    -1582    -1379    -1705    -2212    -2496    -2501 
   -2363    -2128    -1713    -1290    -1221    -1513    -1931    -2235 
   -2208    -1890    -1445    -1007     -847    -1189    -1822    -2299 
   -2330    -2012    -1594    -1212    -1067    -1304    -1776    -2286 
   -2565    -2342    -1809    -1337    -1129    -1347    -1910    -2489 
   -2822    -2775    -2413    -1968    -1722    -2004    -2763    -3373 
   -3337    -2666    -1714     -992     -796    -1124    -1846    -2529 
   -2673    -2215    -1447     -761     -486     -756    -1425    -2061 
   -2276    -2058    -1675    -1393    -1306    -1429    -1698    -1911 
   -1891    -1615    -1309    -1278    -1594    -2154    -2644    -2667 
   -2317    -2003    -1777    -1474    -1134     -999    -1125    -1262 
   -1267    -1273    -1381    -1522    -1544    -1429    -1399    -1638 
   -2003    -2192    -2149    -1972    -1629    -1088     -594     -529 
    -959    -1560    -1961    -1960    -1617    -1233     -978     -873 
   -1093    -1575    -1815    -1578    -1119     -776     -768    -1050 
   -1329    -1467    -1613    -1779    -1806    -1799    -1935    -2029 
   -1788    -1236     -772     -751    -1015    -1239    -1476    -1869 
   -2226    -2324    -2192    -1977    -1923    -2142    -2403    -2559 
   -2697    -2720    -2465    -2058    -1807    -1858    -2122    -2454 
   -2655    -2515    -2166    -1912    -1846    -2023    -2396    -2709 
   -2752    -2462    -1981    -1644    -1648    -1915    -2322    -2751 
   -3038    -3021    -2658    -2170    -1903    -1954    -2087    -2092 
   -2042    -1992    -1814    -1552    -1478    -1614    -1701    -1707 
   -1819    -1964    -1934    -1852    -1995    -2320    -2501    -2401 
   -2204    -1926    -1505    -1274    -1409    -1591    -1678    -1769 
   -1875    -1906    -1796    -1633    -1522    -1458    -1513    -1744 
   -2045    -2365    -2552    -2419    -2062    -1595    -1216    -1317 
   -1795    -2162    -2231    -1998    -1510     -950     -526     -432 
    -708    -1150    -1490    -1553    -1368    -1183    -1258    -1640 
   -2127    -2408    -2305    -1960    -1684    -1579    -1455    -1221 
   -1047    -1013     -945     -773     -675     -719     -812     -915 
   -1007    -1124    -1345    -1584    -1678    -1609    -1561    -1671 
   -1771    -1669    -1505    -1467    -1522    -1557    -1566    -1595 
   -1586    -1448    -1250    -1102    -1071    -1224    -1617    -2076 
   -2286    -2228    -2038    -1726    -1516    -1678    -2015    -2134 
   -1925    -1576    -1313    -1190    -1279    -1582    -1883    -2058 
   -2151    -2207    -2251    -2288    -2289    -2204    -2054    -2004 
   -2100    -2216    -2228    -2069    -1795    -1537    -1479    -1768 
   -2289    -2733    -2897    -2793    -2542    -2222    -1984    -2042 
   -2409    -2825    -2945    -2739    -2471    -2255    -2107    -2124 
   -2334    -2596    -2627    -2297    -1891    -1761    -1942    -2215 
   -2435    -2690    -2947    -2970    -2731    -2421    -2153    -1918 
   -1741    -1756    -2015    -2340    -2548    -2646    -2597    -2220 
   -1547     -926     -637     -766    -1285    -1898    -2176    -1980 
   -1494    -1003     -820    -1127    -1761    -2332    -2539    -2317 
   -1821    -1337    -1132    -1205    -1375    -1513    -1518    -1279 
    -895     -693     -834    -1131    -1429    -1609    -1422     -994 
    -834     -999    -1148    -1204    -1215    -1150     -978     -730 
    -610     -799    -1182    -1539    -1730    -1749    -1605    -1297 
   -1089    -1266    -1656    -1910    -1903    -1767    -1669    -1568 
   -1398    -1360    -1621    -1945    -2019    -1838    -1551    -1263 
   -1108    -1213    -1501    -1763    -1898    -1849    -1576    -1313 
   -1471    -2006    -2317    -2208    -1987    -1641    -1074     -703 
    -923    -1548    -2222    -2739    -2903    -2667    -2268    -1911 
   -1678    -1642    -1888    -2381    -2830    -2955    -2863    -2744 
   -2506    -2101    -1818    -1931    -2285    -2462    -2330    -2131 
   -1976    -1748    -1532    -1521    -1713    -1980    -2168    -2158 
   -2045    -2106    -2461    -2825    -2828    -2511    -2137    -1696 
   -1197    -1021    -1367    -1817    -1911    -1715    -1529    -1426 
   -1318    -1250    -1368    -1653    -1818    -1653    -1417    -1416 
   -1566    -1765    -2076    -2371    -2392    -2043    -1458     -915 
    -652     -693    -1009    -1498    -1854    -1896    -1741    -1571 
   -1572    -1888    -2389    -2716    -2632    -2230    -1763    -1366 
   -1150    -1312    -1799    -2293    -2527    -2347    -1872    -1402 
   -1150    -1298    -1802    -2255    -2428    -2443    -2313    -1979 
   -1615    -1398    -1436    -1715    -1888    -1846    -1873    -1933 
   -1844    -1728    -1763    -1899    -1971    -2012    -2084    -2041 
   -1860    -1683    -1582    -1526    -1447    -1368    -1409    -1485 
   -1421    -1350    -1472    -1710    -1837    -1764    -1626    -1518 
   -1451    -1570    -1860    -2083    -2184    -2079    -1678    -1213 
    -934     -992    -1431    -1914    -2065    -1861    -1499    -1215 
   -1129    -1208    -1433    -1711    -1806    -1701    -1621    -1661 
   -1671    -1520    -1355    -1379    -1506    -1555    -1588    -1705 
   -1792    -1649    -1271     -988    -1036    -1282    -1641    -2034 
   -2150    -1885    -1471    -1205    -1293    -1669    -2091    -2338 
   -2300    -2108    -2011    -2060    -2195    -2411    -2592    -2532 
   -2226    -1896    -1775    -1806    -1757    -1707    -1813    -1910 
   -1876    -1827    -1872    -2062    -2315    -2397    -2243    -2046 
   -2064    -2392    -2813    -3003    -2924    -2702    -2284    -1628 
   -1042     -918    -1277    -1788    -2211    -2458    -2427    -2095 
   -1634    -1393    -1533    -1752    -1749    -1599    -1455    -1405 
   -1567    -1917    -2322    -2606    -2489    -2038    -1756    -1880 
   -2238    -2558    -2686    -2633    -2412    -2072    -1787    -1696 
   -1846    -2124    -2235    -2014    -1656    -1462    -1435    -1443 
   -1521    -1664    -1691    -1513    -1254    -1150    -1285    -1495 
   -1625    -1696    -1788    -1830    -1725    -1628    -1615    -1528 
   -1406    -1367    -1387    -1499    -1613    -1487    -1174     -935 
    -950    -1281    -1771    -2083    -1999    -1545     -965     -607 
    -769    -1406    -2099    -2416    -2174    -1557     -900     -375 
    -129     -325     -908    -1494    -1632    -1340     -981     -819 
   -1017    -1490    -1922    -2147    -2145    -1999    -1888    -1846 
   -1798    -1836    -2101    -2416    -2517    -2478    -2361    -2061 
   -1730    -1614    -1699    -1799    -1848    -1931    -2031    -2069 
   -2177    -2417    -2590    -2586    -2482    -2280    -1923    -1460 
   -1188    -1455    -2052    -2340    -2049    -1432     -892     -650 
    -764    -1246    -1881    -2278    -2320    -2073    -1607    -1233 
   -1227    -1458    -1637    -1601    -1502    -1570    -1669    -1678 
   -1745    -1794    -1602    -1252    -1058    -1256    -1663    -1849 
   -1830    -1896    -2031    -2074    -2089    -2246    -2556    -2849 
   -2856    -2454    -1890    -1549    -1630    -1992    -2273    -2309 
   -2077    -1574    -1115    -1115    -1588    -2208    -2643    -2754 
   -2523    -2068    -1750    -1852    -2199    -2398    -2330    -2178 
   -1977    -1664    -1555    -1944    -2492    -2702    -2532    -2231 
   -1996    -1926    -2010    -2162    -2227    -2120    -2050    -2126 
   -2195    -2235    -2193    -2020    -2018    -2332    -2683    -2767 
   -2421    -1815    -1333    -1134    -1255    -1661    -2122    -2392 
   -2224    -1606     -969     -708     -924    -1417    -1771    -1836 
   -1644    -1165     -595     -225     -283     -864    -1555    -1846 
   -1777    -1605    -1439    -1251    -1048    -1069    -1347    -1505 
   -1416    -1251    -1070     -990    -1073    -1247    -1422    -1329 
    -940     -683     -723     -904    -1129    -1316    -1420    -1483 
   -1566    -1759    -2023    -2197    -2347    -2538    -2494    -2106 
   -1733    -1690    -1771    -1682    -1564    -1584    -1567    -1455 
   -1493    -1806    -2239    -2505    -2431    -2101    -1767    -1699 
   -1983    -2363    -2573    -2640    -2758    -2922    -2936    -2754 
   -2558    -2509    -2497    -2238    -1938    -2112    -2546    -2727 
   -2597    -2292    -2027    -1907    -1777    -1732    -2039    -2511 
   -2614    -2230    -1763    -1591    -1698    -1846    -1952    -2020 
   -1875    -1399     -885     -780    -1077    -1335    -1343    -1277 
   -1296    -1350    -1325    -1159     -865     -623     -580     -643 
    -808    -1212    -1800    -2249    -2255    -1968    -1783    -1779 
   -1845    -1935    -1973    -1921    -1696    -1279    -1040    -1286 
   -1794    -2100    -1853    -1264     -938    -1061    -1560    -2250 
   -2663    -2604    -2228    -1721    -1333    -1215    -1499    -2247 
   -2976    -3121    -2616    -1823    -1386    -1497    -1680    -1769 
   -1825    -1707    -1572    -1572    -1576    -1628    -1636    -1410 
   -1193    -1171    -1387    -1927    -2405    -2412    -2137    -1759 
   -1362    -1138    -1115    -1287    -1549    -1672    -1722    -1678 
   -1422    -1275    -1287    -1181    -1039     -999    -1205    -1777 
   -2281    -2263    -1768    -1048     -577     -625    -1073    -1971 
   -3007    -3431    -3125    -2407    -1686    -1426    -1545    -1819 
   -2226    -2390    -2141    -1746    -1298    -1108    -1474    -2034 
   -2515    -2744    -2439    -1945    -1682    -1696    -2095    -2583 
   -2747    -2609    -2083    -1431    -1333    -1669    -2070    -2523 
   -2578    -2073    -1499    -1135    -1247    -1803    -2250    -2502 
   -2620    -2416    -2123    -2111    -2394    -2778    -3029    -3165 
   -3194    -2884    -2398    -2076    -1957    -2115    -2400    -2367 
   -2003    -1524    -1088     -996    -1217    -1459    -1765    -2054 
   -2091    -2030    -1902    -1675    -1780    -2238    -2493    -2416 
   -2097    -1634    -1356    -1325    -1436    -1610    -1521    -1202 
   -1039     -965     -949    -1120    -1220    -1061     -762     -538 
    -576     -729     -889    -1220    -1497    -1455    -1364    -1325 
   -1242    -1248    -1378    -1548    -1602    -1350    -1224    -1615 
   -1958    -1850    -1525    -1178    -1019    -1171    -1572    -2083 
   -2289    -2008    -1617    -1294    -1038    -1078    -1364    -1591 
   -1756    -1880    -1941    -2019    -2083    -2087    -2011    -1848 
   -1775    -1844    -1826    -1809    -2025    -2146    -1962    -1800 
   -1657    -1337    -1017     -962    -1274    -1787    -2201    -2434 
   -2409    -1946    -1302    -1034    -1193    -1485    -1877    -2353 
   -2538    -2173    -1588    -1217    -1081    -1246    -1814    -2404 
   -2612    -2469    -2174    -1917    -1750    -1706    -1894    -2254 
   -2585    -2749    -2754    -2700    -2586    -2494    -2517    -2469 
   -2430    -2547    -2365    -1809    -1449    -1468    -1687    -1979 
   -2243    -2458    -2551    -2362    -1946    -1657    -1610    -1624 
   -1702    -1867    -1883    -1629    -1351    -1312    -1393    -1412 
   -1486    -1657    -1792    -1903    -1914    -1780    -1637    -1418 
   -1258    -1458    -1690    -1687    -1671    -1620    -1448    -1377 
   -1551    -1896    -2270    -2425    -2247    -1854    -1381    -1082 
   -1147    -1517    -2065    -2411    -2312    -1957    -1437     -959 
    -930    -1282    -1609    -1683    -1478    -1131     -858     -908 
   -1347    -1815    -2124    -2343    -2238    -1768    -1350    -1208 
   -1328    -1549    -1672    -1705    -1642    -1425    -1223    -1215 
   -1317    -1402    -1491    -1574    -1534    -1483    -1648    -1890 
   -2025    -2172    -2308    -2216    -1985    -1935    -2127    -2405 
   -2555    -2363    -1958    -1570    -1242    -1229    -1602    -1944 
   -2030    -1868    -1540    -1348    -1522    -1925    -2214    -2228 
   -1995    -1607    -1308    -1300    -1537    -1848    -2089    -2115 
   -1873    -1606    -1583    -1784    -2053    -2212    -2146    -2004 
   -1989    -2025    -2002    -2014    -2123    -2184    -2034    -1787 
   -1653    -1676    -1883    -2114    -2049    -1834    -1680    -1412 
   -1270    -1633    -2093    -2227    -2207    -2180    -2099    -1846 
   -1462    -1318    -1555    -1892    -2120    -2189    -2166    -2124 
   -1944    -1591    -1350    -1467    -1906    -2331    -2435    -2342 
   -2135    -1625    -1061     -951    -1273    -1661    -1841    -1691 
   -1405    -1252    -1259    -1513    -2062    -2581    -2806    -2635 
   -2124    -1622    -1300    -1267    -1687    -2164    -2342    -2382 
   -2153    -1603    -1294    -1368    -1530    -1764    -1917    -1840 
   -1715    -1571    -1375    -1312    -1491    -1730    -1728    -1518 
   -1425    -1478    -1483    -1468    -1475    -1491    -1557    -1525 
   -1397    -1466    -1647    -1647    -1456    -1227    -1093    -1046 
   -1077    -1289    -1653    -1996    -2189    -2246    -2236    -2127 
   -1875    -1583    -1431    -1579    -1995    -2301    -2192    -1883 
   -1688    -1582    -1572    -1741    -1845    -1713    -1597    -1706 
   -2023    -2366    -2430    -2112    -1652    -1331    -1312    -1568 
   -1896    -2104    -2035    -1722    -1375    -1159    -1183    -1443 
   -1719    -1787    -1682    -1660    -1873    -2231    -2469    -2415 
   -2197    -1956    -1733    -1652    -1694    -1725    -1817    -1999 
   -2096    -2065    -2080    -2226    -2349    -2386    -2485    -2579 
   -2520    -2416    -2257    -2011    -1973    -2172    -2243    -2155 
   -2169    -2331    -2447    -2346    -2122    -1948    -1826    -1742 
   -1771    -1910    -1900    -1485     -870     -583     -757    -1111 
   -1489    -1782    -1776    -1509    -1156     -857     -870    -1277 
   -1790    -2088    -2043    -1772    -1566    -1640    -1860    -1864 
   -1718    -1765    -1786    -1548    -1355    -1341    -1421    -1567 
   -1638    -1609    -1571    -1472    -1316    -1225    -1237    -1327 
   -1459    -1584    -1698    -1813    -1904    -1919    -1813    -1625 
   -1466    -1391    -1435    -1611    -1877    -2165    -2351    -2274 
   -2033    -1917    -1876    -1701    -1641    -1921    -2220    -2315 
   -2285    -2162    -2018    -1922    -1826    -1799    -1917    -2049 
   -2076    -1980    -1891    -2007    -2158    -2054    -1890    -1948 
   -2104    -2095    -1961    -1981    -2049    -1852    -1582    -1422 
   -1243    -1221    -1458    -1669    -1714    -1579    -1336    -1167 
   -1138    -1300    -1648    -1976    -2112    -2027    -1817    -1606 
   -1426    -1306    -1324    -1567    -1965    -2170    -2015    -1742 
   -1633    -1748    -1988    -2261    -2434    -2311    -1908    -1422 
   -1066     -981    -1107    -1333    -1583    -1732    -1714    -1583 
   -1435    -1378    -1486    -1660    -1692    -1529    -1381    -1502 
   -1775    -1807    -1575    -1451    -1541    -1663    -1844    -2207 
   -2619    -2727    -2407    -1980    -1730    -1675    -1782    -1966 
   -2245    -2569    -2539    -2041    -1494    -1228    -1286    -1507 
   -1657    -1706    -1696    -1613    -1633    -1933    -2396    -2803 
