Origin Time       2024/04/02 04:24:00
Lat.              40.133
Long.             141.712
Depth. (km)       71
Mag.              6.0
Station Code      FKSH09
Station Lat.      37.3530
Station Long.     140.4264
Station Height(m) 60
Record Time       2024/04/02 04:25:35
Sampling Freq(Hz) 100Hz
Duration Time(s)  120
Dir.              2
Scale Factor      2942(gal)/8224139
Max. Acc. (gal)   0.529
Last Correction   2024/04/02 04:25:36
Memo.             
[...]
   15043    14989    15003    15030    14956    14928    15012    14979 
   14754    14580    14544    14500    14477    14582    14710    14724 
   14713    14816    14831    14674    14559    14405    14249    14420 
   14702    14770    14841    14918    14777    14669    14692    14543 
   14405    14534    14650    14665    14727    14827    14843    14744 
   14719    14724    14623    14617    14794    14958    14918    14736 
   14686    14816    14850    14706    14727    14976    15071    14970 
   14872    14793    14727    14689    14659    14600    14590    14774 
   14920    14885    14933    14912    14766    14905    15076    14971 
   14890    14916    14914    14831    14759    14812    14802    14724 
   14800    14924    14949    14935    14935    14994    14975    14901 
   15084    15253    15071    14976    15194    15307    15102    14897 
   14914    14895    14781    14790    14855    14908    15014    15068 
   15057    15029    14898    14785    14763    14721    14735    14748 
   14662    14634    14661    14697    14816    14885    14926    15122 
   15107    14706    14447    14426    14355    14413    14634    14647 
   14613    14906    15125    14964    14844    14824    14655    14571 
   14659    14677    14665    14759    14948    15018    14889    14885 
   14995    14959    14924    14998    15045    14947    14710    14600 
   14677    14663    14613    14648    14620    14638    14735    14719 
   14717    14719    14563    14484    14446    14335    14477    14644 
   14484    14516    14824    14827    14710    14779    14689    14527 
   14662    14808    14689    14593    14705    14797    14715    14688 
   14843    14909    14856    14910    14924    14870    14991    15138 
   15175    15184    15083    14974    15032    15071    14998    15047 
   15180    15147    15068    15013    14774    14527    14620    14831 
   14770    14573    14593    14760    14737    14620    14540    14384 
   14350    14319    14080    14156    14459    14488    14485    14463 
   14330    14408    14562    14526    14571    14771    14729    14439 
   14369    14557    14670    14706    14751    14821    14994    15169 
   15269    15333    15317    15211    15125    15106    15040    15002 
   15144    15271    15255    15155    15003    14975    15097    15165 
   15199    15264    15269    15237    15237    15213    15126    15014 
   14916    14909    14939    14856    14829    14945    14987    15109 
   15302    15155    14997    15049    14855    14720    14987    15029 
   14770    14816    15044    14987    14770    14725    14854    14837 
   14609    14540    14683    14773    14758    14652    14609    14856 
   15001    14727    14594    14750    14742    14628    14547    14477 
   14536    14661    14758    14825    14744    14697    14847    14783 
   14601    14721    14720    14542    14667    14728    14573    14736 
   14940    14770    14697    14921    15099    15017    14750    14663 
   14729    14733    14904    15001    14837    14926    15009    14728 
   14681    14848    14694    14567    14855    15064    14882    14727 
   14844    14936    14831    14710    14706    14798    14904    14899 
   14827    14827    14798    14766    14894    14925    14808    14777 
   14774    14777    14774    14748    14767    14791    14935    15153 
   15137    15045    15030    14939    14890    14881    14783    14686 
   14631    14752    14967    14949    14858    14866    14909    14959 
   14905    14906    15013    14899    14774    14798    14616    14440 
   14609    14854    14975    14997    14877    14682    14625    14704 
   14629    14467    14478    14481    14409    14478    14566    14580 
   14648    14783    14991    15057    14858    14752    14731    14594 
   14638    14879    15034    15157    15267    15192    15040    15021 
   14976    14812    14785    14931    14994    14921    14867    14895 
   14913    14854    14841    15028    15165    15014    14922    14972 
   14793    14686    14955    15079    14926    14852    14860    14824 
   14659    14508    14658    14904    14944    14897    14814    14616 
   14467    14624    14866    14748    14523    14639    14728    14461 
   14330    14513    14507    14423    14708    14989    14944    14812 
   14717    14715    14746    14654    14561    14575    14609    14675 
   14833    14956    14959    14936    14883    14785    14656    14589 
   14779    14999    15021    15107    15105    14864    14810    14894 
   14802    14801    14989    14962    14855    14985    14945    14720 
   14769    14898    14937    14947    14775    14725    14949    14891 
   14634    14708    14886    14824    14628    14547    14731    14998 
   15080    14978    14850    14823    14756    14528    14405    14438 
   14415    14436    14538    14620    14806    14991    14904    14778 
   14918    15064    15017    15029    15043    14835    14697    14790 
   14856    14897    14999    15051    15055    15022    14908    14840 
   14850    14820    14858    14997    15052    15121    15317    15300 
   15005    14902    14990    14831    14613    14674    14740    14624 
   14654    14933    14989    14713    14658    14859    14906    14820 
   14831    14939    14863    14524    14316    14372    14497    14686 
   14862    14860    14798    14818    14732    14592    14729    14887 
   14794    14671    14590    14588    14667    14746    14831    14810 
   14774    14908    14976    15028    15265    15313    15032    14851 
   14921    15010    15005    15034    15097    15010    14920    15018 
   15022    14901    14990    15114    15005    14878    14891    14859 
   14754    14823    15052    15159    15021    14806    14681    14615 
   14667    14871    15095    15156    14924    14597    14384    14268 
   14393    14828    15213    15269    15156    15028    14913    14778 
   14555    14459    14589    14692    14727    14713    14629    14596 
   14567    14474    14427    14647    15009    14998    14828    15005 
   15145    14879    14466    14233    14281    14432    14634    14945 
   15071    14985    14993    14921    14666    14553    14617    14643 
   14685    14936    15202    15109    14805    14636    14574    14543 
   14644    14773    14719    14654    14782    14859    14704    14528 
   14492    14613    14863    15003    14901    14782    14752    14719 
   14737    14754    14693    14782    14956    14812    14531    14615 
   14793    14617    14543    14864    15013    14925    14960    14882 
   14575    14397    14458    14607    14760    14886    14958    15039 
   15044    14885    14837    14897    14782    14773    14916    14898 
   14912    14955    14874    14852    14863    14894    15012    15012 
   14875    14790    14708    14683    14879    15067    15055    15030 
   15012    14971    14987    14893    14712    14644    14589    14651 
   14863    14835    14674    14777    14964    14983    14902    14781 
   14690    14744    14877    14991    14995    14821    14748    14989 
   15137    14979    14964    15217    15323    15176    14936    14752 
   14756    14855    14870    14905    15102    15228    15129    15013 
   14906    14743    14624    14547    14613    14917    15068    14886 
   14790    14926    14985    14779    14561    14632    14752    14693 
   14696    14823    14889    14891    14909    14832    14634    14528 
   14520    14480    14519    14666    14829    14999    14978    14644 
   14458    14654    14719    14562    14604    14619    14466    14662 
   14949    14829    14728    14824    14882    15018    15115    14991 
   14893    14889    14866    14920    15041    15043    15001    15095 
   15075    14862    14759    14635    14350    14303    14569    14750 
   14824    14922    14882    14798    14864    14874    14710    14619 
   14737    14808    14732    14820    14994    15034    15088    15056 
   14864    14782    14744    14717    14742    14574    14478    14777 
   15002    14983    15043    15010    14754    14597    14530    14376 
   14301    14399    14573    14758    14864    14841    14732    14571 
   14476    14501    14519    14520    14597    14746    14801    14658 
   14581    14615    14474    14364    14536    14712    14728    14705 
   14655    14623    14729    14875    14825    14646    14624    14725 
   14798    14990    15169    15101    15028    15013    14917    14845 
   14774    14677    14685    14777    14909    15057    15056    14949 
   14937    14963    15025    15136    15103    14990    14933    14814 
   14682    14731    14951    15137    15195    15250    15195    14941 
   14805    14839    14867    14926    14980    15018    15088    15091 
   15049    15048    15025    14986    15024    15106    15078    14991 
   15013    15024    15013    15068    15036    14962    15048    15118 
   14986    14898    14953    14856    14697    14832    14991    14837 
   14724    14864    14871    14771    14925    15055    14886    14683 
   14561    14404    14297    14420    14625    14605    14496    14605 
   14764    14716    14670    14778    14659    14343    14372    14601 
   14661    14719    14778    14720    14625    14562    14647    14721 
   14638    14731    14901    14800    14674    14600    14469    14563 
   14829    14855    14731    14762    14805    14701    14712    14804 
   14689    14598    14725    14836    14864    14889    14910    14904 
   14921    14910    14754    14736    14937    14943    14879    14978 
   14978    14939    14987    14967    14908    14843    14779    14827 
   14890    14844    14806    14901    15043    15029    14816    14671 
   14755    14754    14559    14527    14658    14662    14584    14612 
   14661    14663    14850    15040    14944    14898    14937    14782 
   14727    14841    14708    14504    14524    14504    14513    14763 
   14958    14998    15066    15121    15022    14912    15029    15052 
   14796    14809    15034    15001    15009    15160    15048    14920 
   15113    15229    15076    15063    15218    15277    15313    15294 
   15114    14959    14916    14901    14773    14470    14243    14265 
   14434    14578    14586    14613    14720    14717    14661    14608 
   14524    14590    14852    15095    15148    15048    14986    14960 
   14848    14689    14679    14891    15025    14960    14917    14875 
   14808    14931    15242    15400    15263    15136    15230    15475 
   15597    15426    15288    15223    14905    14602    14585    14567 
   14401    14227    14320    14667    14809    14827    15030    15016 
   14698    14692    15001    15110    15033    15076    15225    15325 
   15264    14947    14507    14307    14407    14467    14388    14355 
   14399    14361    14266    14378    14569    14505    14428    14486 
   14401    14246    14185    14115    14103    14195    14215    14214 
   14327    14478    14627    14721    14639    14419    14238    14257 
   14396    14436    14404    14439    14602    14754    14639    14570 
   14825    14958    14913    15012    15153    15165    15010    14902 
   15066    15259    15242    15133    14922    14616    14600    14797 
   14782    14824    15121    15244    15086    14917    14936    15142 
   15142    14863    14760    14727    14623    14833    15122    15103 
   15064    15048    14979    15167    15441    15356    15174    15240 
   15388    15488    15569    15670    15738    15502    15180    15288 
   15430    15313    15361    15437    15392    15493    15600    15666 
   15654    15225    14712    14546    14446    14511    14874    14868 
   14431    14193    14241    14532    14949    15105    15060    14940 
   14717    14685    14755    14526    14283    14381    14567    14685 
   14840    14947    14901    14783    14708    14763    14832    14666 
   14431    14357    14243    14149    14354    14567    14467    14442 
   14694    14781    14607    14420    14206    14085    14203    14303 
   14242    14292    14617    14924    15002    15186    15473    15384 
   15175    15084    14701    14435    14690    14760    14580    14729 
   15012    15030    14970    15141    15449    15700    15795    15622 
   15460    15441    15187    14852    14667    14427    14362    14520 
   14526    14504    14501    14350    14256    14299    14467    14810 
   15025    14964    14871    14701    14539    14674    14824    14796 
   14801    14667    14426    14473    14548    14395    14347    14359 
   14161    13981    14025    14110    14119    14137    14114    14017 
   14237    14883    15261    15264    15426    15358    14836    14602 
   14666    14557    14403    14235    14083    14297    14644    14627 
   14584    14851    14994    14863    14874    15117    15487    15886 
   15894    15430    15142    15284    15423    15504    15664    15615 
   15360    15213    15093    14966    15061    15319    15539    15593 
   15365    15066    14858    14519    14191    14192    14328    14447 
   14719    15122    15319    15149    15043    15156    15044    14648 
   14308    14296    14562    14634    14440    14312    14229    14119 
   14091    14160    14208    14173    14283    14661    14967    14926 
   14640    14264    13953    13950    14299    14715    14951    15030 
   15057    15078    15084    14991    14804    14708    14608    14366 
   14231    14181    14142    14465    14902    14940    14891    15013 
   15168    15300    15155    14642    14226    14357    14874    15267 
   15529    15965    16294    16204    16044    15966    15661    15145 
   14825    15061    15642    15973    15984    15876    15476    14905 
   14895    15421    15487    14948    14563    14639    14918    14993 
   14893    14924    14774    14280    14015    14230    14355    13886 
   13474    13864    14416    14551    14652    14908    15129    15180 
   14985    14644    14521    14751    14972    15084    15318    15550 
   15620    15546    15344    15167    15018    14823    14733    14727 
   14796    15082    15336    15372    15448    15507    15275    15029 
   14897    14648    14613    14801    14723    14646    14650    14268 
   13857    13909    13998    13822    13682    13811    14119    14322 
   14300    14314    14524    14652    14534    14467    14513    14296 
   13787    13454    13612    14015    14395    14728    14924    15016 
   15103    14990    14671    14581    14852    15044    14917    14889 
   15168    15344    15298    15225    15044    14771    14663    14829 
   15199    15519    15483    15113    14693    14500    14611    14840 
   15074    15331    15503    15526    15485    15273    14889    14580 
   14408    14484    14929    15421    15500    15145    14828    14643 
   14233    13891    14042    14393    14580    14577    14559    14744 
   15079    15020    14466    14319    14654    14592    14350    14481 
   14621    14652    14863    15090    15176    15260    15256    15034 
   14844    14825    14733    14582    14736    15169    15377    15086 
   14602    14376    14553    14775    14782    14825    14947    15188 
   15723    16038    15904    15877    15758    15110    14775    15174 
   15321    15140    15213    15233    15147    15107    14755    14295 
   14322    14709    14810    14442    14187    14320    14538    14769 
   14878    14719    14665    14816    14764    14504    14462    14654 
   14546    14161    14154    14528    14669    14385    14211    14617 
   15149    15249    15102    15003    14894    14654    14512    14702 
   15057    15426    15716    15664    15345    15226    15141    14706 
   14428    14766    15329    15591    15493    15415    15399    15047 
   14559    14623    15045    15030    14789    14945    15001    14585 
   14278    14239    14311    14629    14936    14856    14665    14642 
   14571    14571    14818    14720    14277    14304    14589    14550 
   14628    15129    15465    15260    14874    14644    14538    14476 
   14484    14578    14584    14307    14100    14310    14550    14678 
   14945    15024    14713    14489    14566    14647    14661    14839 
   14924    14663    14635    14972    14959    14617    14511    14489 
   14161    13927    14400    15066    15101    14866    14949    15045 
   14995    15114    15233    15099    14881    14893    15265    15481 
   15275    15210    15340    15333    15395    15423    15184    15132 
   15288    15113    14727    14528    14484    14426    14349    14439 
   14615    14590    14635    14963    15184    15252    15350    15102 
   14466    14215    14527    14890    15228    15465    15237    14909 
   15141    15419    14985    14499    14581    14581    14312    14310 
   14535    14740    14956    15214    15425    15322    14951    14813 
   14821    14602    14442    14423    14300    14265    14490    14689 
   14578    14520    14773    14944    15071    15179    14928    14667 
   14735    14901    15157    15454    15349    14818    14422    14400 
   14601    14719    14451    14088    14098    14335    14369    14299 
   14609    14999    14850    14601    14647    14507    14176    14238 
   14697    14916    14770    14881    15093    14794    14530    14912 
   15380    15425    15182    14829    14540    14484    14623    14778 
   14867    14885    14855    15055    15373    15337    15248    15414 
   15342    14883    14623    14821    14944    14759    14688    14729 
   14782    15196    15633    15431    15067    14989    14744    14413 
   14557    14936    14953    14619    14350    14334    14472    14773 
   15097    15026    14713    14647    14512    14069    13940    14127 
   14234    14478    14723    14625    14481    14524    14439    14089 
   14048    14644    15450    16012    15916    15313    14964    14827 
   14558    14523    14963    15457    15469    15219    15183    15014 
   14465    14130    14353    14644    14411    14022    14246    14574 
   14347    14185    14418    14661    14789    14739    14667    14914 
   15103    14829    14636    14855    14860    14405    14204    14494 
   14685    14715    14951    15311    15419    15083    14688    14701 
   14931    15012    15039    15402    15896    15654    14999    15057 
   15329    15098    15187    15662    15515    15022    15052    15249 
   14924    14486    14577    14727    14554    14611    15013    15395 
   15711    15781    15457    15263    15329    15082    14925    15411 
   15674    15439    15485    15550    15217    14908    14661    14625 
   15196    15670    15510    15438    15516    15140    14817    14793 
   14461    14326    14750    14958    14901    14868    14628    14347 
   14365    14517    14706    14979    14936    14526    14459    14781 
   14866    14889    15101    14951    14490    14330    14331    14272 
   14301    14303    14061    13871    13949    13921    13902    14424 
   14924    14613    14330    14783    14881    14251    13853    13713 
   13593    13834    14315    14742    14955    14773    14567    14629 
   14616    14566    14762    14960    14836    14538    14607    14948 
   14881    14571    14470    14547    14870    15153    14943    14550 
   14323    14243    14235    14165    14293    14762    15033    15055 
   15184    15219    15099    14955    14836    15088    15492    15550 
   15488    15510    15547    15507    15180    14715    14597    14786 
