Origin Time       2024/04/02 04:24:00
Lat.              40.133
Long.             141.712
Depth. (km)       71
Mag.              6.0
Station Code      FKSH10
Station Lat.      37.1616
Station Long.     140.0930
Station Height(m) 564.9
Record Time       2024/04/02 04:25:30
Sampling Freq(Hz) 100Hz
Duration Time(s)  149
Dir.              5
Scale Factor      7845(gal)/8223790
Max. Acc. (gal)   2.568
Last Correction   2024/04/02 04:25:31
Memo.             
[...]
   -3665    -3645    -3600    -3545    -3456    -3329    -3219    -3154 
   -3105    -3076    -3107    -3199    -3302    -3385    -3476    -3576 
   -3630    -3618    -3549    -3415    -3276    -3192    -3121    -3053 
   -3029    -3042    -3080    -3146    -3235    -3331    -3385    -3387 
   -3403    -3483    -3585    -3682    -3781    -3854    -3825    -3665 
   -3431    -3217    -3057    -3005    -3119    -3372    -3639    -3815 
   -3839    -3736    -3639    -3635    -3674    -3716    -3784    -3825 
   -3778    -3694    -3651    -3632    -3577    -3505    -3507    -3589 
   -3676    -3728    -3751    -3793    -3890    -3977    -3977    -3936 
   -3862    -3674    -3466    -3457    -3628    -3744    -3693    -3564 
   -3446    -3354    -3308    -3319    -3373    -3480    -3627    -3746 
   -3797    -3846    -3878    -3778    -3638    -3604    -3586    -3528 
   -3510    -3488    -3350    -3154    -3068    -3138    -3299    -3491 
   -3665    -3761    -3703    -3488    -3254    -3163    -3275    -3537 
   -3850    -4155    -4378    -4392    -4101    -3600    -3149    -2844 
   -2605    -2416    -2353    -2484    -2787    -3146    -3503    -3843 
   -4082    -4118    -3958    -3681    -3369    -3082    -2836    -2627 
   -2494    -2481    -2543    -2609    -2662    -2755    -2970    -3250 
   -3469    -3609    -3670    -3597    -3414    -3208    -3046    -2986 
   -3079    -3318    -3645    -3950    -4101    -4091    -4010    -3847 
   -3550    -3168    -2847    -2655    -2566    -2562    -2674    -2952 
   -3358    -3738    -3967    -4045    -3993    -3792    -3484    -3183 
   -2971    -2814    -2646    -2506    -2498    -2656    -2924    -3196 
   -3441    -3694    -3923    -4002    -3900    -3700    -3403    -2983 
   -2563    -2308    -2301    -2517    -2814    -3090    -3316    -3437 
   -3437    -3379    -3284    -3132    -2972    -2911    -2983    -3134 
   -3300    -3397    -3365    -3284    -3288    -3402    -3522    -3537 
   -3403    -3153    -2841    -2570    -2496    -2678    -3013    -3418 
   -3886    -4309    -4518    -4510    -4347    -4071    -3751    -3465 
   -3268    -3136    -3009    -2909    -2878    -2937    -3109    -3334 
   -3499    -3576    -3630    -3692    -3723    -3684    -3618    -3646 
   -3755    -3789    -3697    -3573    -3446    -3280    -3134    -3119 
   -3242    -3429    -3626    -3809    -3946    -3978    -3915    -3813 
   -3685    -3520    -3345    -3163    -3015    -3015    -3211    -3565 
   -4075    -4708    -5274    -5555    -5439    -4895    -4012    -3009 
   -2154    -1669    -1661    -2058    -2701    -3477    -4252    -4823 
   -5049    -4955    -4644    -4229    -3808    -3453    -3233    -3154 
   -3138    -3125    -3126    -3152    -3172    -3176    -3173    -3156 
   -3133    -3150    -3187    -3192    -3194    -3200    -3179    -3140 
   -3063    -2955    -2933    -3024    -3126    -3206    -3294    -3381 
   -3376    -3171    -2799    -2463    -2354    -2484    -2802    -3279 
   -3836    -4344    -4664    -4735    -4572    -4229    -3790    -3289 
   -2720    -2193    -1900    -1910    -2205    -2771    -3500    -4203 
   -4734    -5026    -5065    -4884    -4575    -4232    -3905    -3636 
   -3431    -3215    -2955    -2740    -2640    -2671    -2922    -3402 
   -3874    -4078    -3985    -3775    -3593    -3472    -3485    -3685 
   -3939    -4079    -4071    -3900    -3573    -3250    -3078    -3083 
   -3244    -3456    -3623    -3726    -3716    -3541    -3279    -3098 
   -3057    -3105    -3191    -3298    -3389    -3404    -3285    -3032 
   -2698    -2390    -2245    -2317    -2601    -3059    -3577    -4044 
   -4345    -4295    -3855    -3190    -2463    -1811    -1393    -1296 
   -1524    -2020    -2636    -3164    -3472    -3538    -3385    -3079 
   -2729    -2505    -2555    -2803    -3087    -3337    -3505    -3562 
   -3546    -3518    -3507    -3516    -3492    -3318    -2983    -2587 
   -2196    -1857    -1626    -1561    -1768    -2270    -2961    -3712 
   -4378    -4783    -4824    -4534    -4002    -3370    -2856    -2636 
   -2689    -2803    -2863    -2937    -3063    -3231    -3480    -3804 
   -4190    -4592    -4828    -4750    -4380    -3863    -3418    -3245 
   -3377    -3700    -4066    -4365    -4533    -4546    -4452    -4348 
   -4324    -4355    -4333    -4143    -3755    -3357    -3208    -3412 
   -3847    -4261    -4504    -4615    -4608    -4419    -4083    -3753 
   -3507    -3275    -3049    -2955    -2997    -3060    -3091    -3090 
   -3071    -3086    -3105    -3057    -3009    -3037    -3088    -3119 
   -3161    -3215    -3241    -3140    -2864    -2542    -2332    -2309 
   -2490    -2891    -3487    -4122    -4607    -4837    -4785    -4487 
   -4000    -3372    -2760    -2411    -2415    -2643    -2947    -3311 
   -3740    -4064    -4147    -4066    -3951    -3848    -3747    -3589 
   -3426    -3454    -3739    -4122    -4414    -4503    -4368    -4035 
   -3577    -3149    -2905    -2943    -3260    -3700    -4122    -4494 
   -4726    -4653    -4187    -3474    -2782    -2254    -1929    -1833 
   -1964    -2344    -2961    -3659    -4266    -4702    -4893    -4733 
   -4209    -3492    -2759    -2118    -1698    -1620    -1891    -2419 
   -3042    -3572    -3882    -3933    -3790    -3639    -3640    -3759 
   -3877    -3975    -4083    -4144    -4059    -3847    -3613    -3360 
   -2999    -2567    -2201    -1991    -2011    -2339    -2878    -3460 
   -4004    -4361    -4341    -3931    -3288    -2627    -2143    -1957 
   -2041    -2278    -2558    -2821    -3022    -3071    -2925    -2727 
   -2610    -2581    -2625    -2744    -2891    -2955    -2875    -2708 
   -2552    -2430    -2332    -2363    -2639    -3119    -3669    -4164 
   -4479    -4477    -4155    -3694    -3285    -2976    -2778    -2774 
   -3036    -3516    -4074    -4545    -4843    -4924    -4719    -4244 
   -3632    -3007    -2519    -2331    -2516    -3080    -3909    -4702 
   -5219    -5428    -5305    -4806    -4035    -3258    -2737    -2586 
   -2759    -3123    -3600    -4132    -4527    -4588    -4302    -3793 
   -3213    -2671    -2262    -2160    -2496    -3150    -3836    -4336 
   -4561    -4518    -4233    -3700    -3003    -2401    -2137    -2269 
   -2725    -3412    -4214    -4968    -5451    -5520    -5166    -4396 
   -3352    -2419    -1922    -1858    -2093    -2609    -3366    -4101 
   -4496    -4468    -4199    -3916    -3665    -3461    -3385    -3429 
   -3449    -3272    -2864    -2430    -2234    -2309    -2520    -2887 
   -3435    -3932    -4141    -4090    -3932    -3676    -3268    -2849 
   -2660    -2785    -3110    -3454    -3689    -3755    -3609    -3204 
   -2596    -2026    -1775    -1872    -2137    -2527    -3096    -3717 
   -4212    -4534    -4699    -4707    -4533    -4132    -3527    -2843 
   -2232    -1804    -1663    -1941    -2658    -3619    -4573    -5325 
   -5722    -5645    -5057    -4108    -3102    -2299    -1841    -1786 
   -2119    -2776    -3613    -4302    -4563    -4418    -4008    -3450 
   -2920    -2556    -2412    -2448    -2521    -2523    -2509    -2566 
   -2700    -2925    -3238    -3572    -3859    -3990    -3861    -3516 
   -3056    -2623    -2459    -2655    -3090    -3619    -4068    -4226 
   -4016    -3600    -3203    -2983    -3033    -3361    -3879    -4411 
   -4723    -4649    -4210    -3605    -3044    -2624    -2401    -2459 
   -2810    -3357    -4000    -4610    -5031    -5197    -5123    -4762 
   -4052    -3078    -2076    -1263     -778     -826    -1587    -2876 
   -4264    -5401    -6016    -5994    -5433    -4536    -3505    -2540 
   -1854    -1599    -1760    -2216    -2825    -3483    -4135    -4718 
   -5105    -5159    -4874    -4403    -3850    -3213    -2606    -2257 
   -2205    -2288    -2398    -2569    -2839    -3152    -3423    -3636 
   -3777    -3831    -3820    -3727    -3578    -3512    -3577    -3697 
   -3831    -3993    -4195    -4363    -4382    -4249    -4033    -3758 
   -3412    -2992    -2533    -2120    -1883    -1919    -2204    -2621 
   -3060    -3458    -3811    -4020    -3936    -3619    -3280    -3053 
   -2978    -2997    -3056    -3240    -3547    -3690    -3451    -2999 
   -2670    -2633    -2822    -3105    -3499    -3989    -4302    -4210 
   -3827    -3368    -2911    -2532    -2377    -2520    -2924    -3469 
   -3915    -4074    -3967    -3689    -3333    -3037    -2951    -3203 
   -3754    -4328    -4687    -4727    -4402    -3785    -3061    -2403 
   -1968    -1908    -2212    -2674    -3169    -3696    -4153    -4394 
   -4353    -4075    -3654    -3163    -2702    -2419    -2412    -2629 
   -2955    -3333    -3666    -3817    -3740    -3537    -3360    -3235 
   -3165    -3245    -3439    -3573    -3562    -3462    -3358    -3272 
   -3211    -3221    -3306    -3370    -3314    -3164    -3015    -2972 
   -3113    -3303    -3350    -3325    -3361    -3510    -3801    -4140 
   -4342    -4352    -4191    -3836    -3262    -2587    -2007    -1659 
   -1583    -1756    -2151    -2694    -3203    -3607    -3993    -4375 
   -4661    -4789    -4745    -4502    -4045    -3499    -3133    -3125 
   -3402    -3790    -4193    -4515    -4633    -4494    -4193    -3919 
   -3811    -3813    -3808    -3784    -3816    -3935    -4105    -4299 
   -4449    -4444    -4274    -3974    -3585    -3218    -2967    -2882 
   -2964    -3127    -3260    -3264    -3099    -2853    -2641    -2509 
   -2486    -2606    -2860    -3167    -3422    -3543    -3572    -3642 
   -3746    -3788    -3738    -3599    -3407    -3227    -3060    -2917 
   -2862    -2837    -2695    -2413    -2133    -2015    -2133    -2457 
   -2934    -3572    -4379    -5169    -5590    -5441    -4777    -3762 
   -2604    -1595    -1040    -1062    -1557    -2308    -3106    -3771 
   -4175    -4361    -4471    -4536    -4495    -4320    -4043    -3699 
   -3258    -2697    -2056    -1512    -1270    -1336    -1661    -2265 
   -2972    -3458    -3635    -3640    -3597    -3549    -3492    -3407 
   -3303    -3203    -3071    -2853    -2674    -2758    -3142    -3638 
   -4010    -4155    -4110    -3969    -3793    -3576    -3329    -3187 
   -3234    -3373    -3478    -3528    -3553    -3496    -3303    -3067 
   -2913    -2925    -3167    -3613    -4186    -4742    -5094    -5086 
   -4714    -4129    -3472    -2879    -2575    -2633    -2898    -3260 
   -3738    -4274    -4669    -4846    -4889    -4824    -4642    -4438 
   -4318    -4237    -4118    -3973    -3790    -3535    -3223    -2887 
   -2587    -2420    -2430    -2583    -2862    -3268    -3728    -4135 
   -4425    -4541    -4392    -3977    -3449    -2971    -2594    -2385 
   -2393    -2548    -2806    -3168    -3545    -3807    -3990    -4225 
   -4429    -4367    -4037    -3620    -3156    -2608    -2069    -1695 
   -1615    -1875    -2361    -2841    -3140    -3291    -3387    -3370 
   -3246    -3213    -3333    -3357    -3103    -2716    -2358    -2031 
   -1807    -1877    -2296    -2903    -3512    -3962    -4144    -4093 
   -3848    -3361    -2762    -2342    -2254    -2506    -3069    -3828 
   -4575    -5130    -5339    -5016    -4147    -3056    -2178    -1777 
   -1930    -2560    -3404    -4114    -4521    -4635    -4518    -4282 
   -4063    -3851    -3508    -3007    -2463    -2035    -1929    -2295 
   -3041    -3881    -4529    -4882    -5022    -4965    -4642    -4172 
   -3832    -3677    -3528    -3322    -3098    -2884    -2802    -2975 
   -3370    -3923    -4526    -4897    -4797    -4333    -3781    -3300 
   -2978    -2895    -3014    -3168    -3171    -2956    -2687    -2589 
   -2737    -3075    -3499    -3915    -4203    -4240    -3963    -3451 
   -2940    -2643    -2593    -2694    -2876    -3129    -3397    -3574 
   -3600    -3523    -3466    -3465    -3477    -3507    -3565    -3661 
   -3832    -4021    -4074    -3970    -3801    -3566    -3240    -2893 
   -2612    -2467    -2517    -2728    -3067    -3546    -4067    -4438 
   -4550    -4425    -4178    -3870    -3462    -2997    -2641    -2497 
   -2494    -2578    -2774    -3018    -3213    -3319    -3302    -3200 
   -3171    -3318    -3578    -3863    -4167    -4437    -4511    -4239 
   -3603    -2808    -2166    -1937    -2191    -2808    -3640    -4529 
   -5186    -5313    -4915    -4268    -3624    -3113    -2758    -2497 
   -2270    -2115    -2092    -2230    -2620    -3318    -4098    -4630 
   -4773    -4491    -3824    -3049    -2463    -2110    -1960    -2073 
   -2407    -2783    -3068    -3256    -3387    -3450    -3446    -3427 
   -3385    -3267    -3105    -3003    -2992    -2976    -2882    -2751 
   -2690    -2779    -2999    -3261    -3487    -3635    -3654    -3537 
   -3360    -3245    -3314    -3615    -4037    -4365    -4465    -4291 
   -3811    -3110    -2496    -2266    -2513    -3109    -3742    -4113 
   -4198    -4098    -3770    -3214    -2679    -2388    -2359    -2596 
   -3163    -4009    -4895    -5543    -5730    -5333    -4491    -3518 
   -2629    -1950    -1661    -1906    -2562    -3321    -3943    -4320 
   -4401    -4176    -3715    -3130    -2520    -2030    -1827    -1977 
   -2465    -3277    -4239    -4982    -5239    -4999    -4409    -3649 
   -2921    -2550    -2776    -3433    -4120    -4587    -4646    -4160 
   -3298    -2504    -2153    -2416    -3277    -4433    -5394    -5798 
   -5505    -4579    -3322    -2149    -1426    -1393    -2068    -3234 
   -4498    -5435    -5764    -5436    -4596    -3431    -2174    -1165 
    -704     -837    -1399    -2261    -3322    -4332    -4974    -5098 
   -4747    -4014    -3069    -2246    -1872    -2073    -2695    -3406 
   -3942    -4261    -4398    -4298    -3942    -3461    -3065    -2901 
   -2960    -3117    -3273    -3431    -3604    -3731    -3743    -3613 
   -3368    -3071    -2781    -2548    -2490    -2712    -3103    -3481 
   -3746    -3809    -3622    -3207    -2727    -2424    -2416    -2659 
   -3119    -3757    -4364    -4671    -4553    -4033    -3250    -2478 
   -2022    -2042    -2452    -3046    -3612    -3967    -3987    -3615 
   -3006    -2493    -2228    -2223    -2556    -3157    -3754    -4222 
   -4573    -4716    -4596    -4291    -3829    -3264    -2736    -2330 
   -2081    -2089    -2458    -3153    -3906    -4415    -4584    -4483 
   -4182    -3769    -3411    -3222    -3188    -3237    -3265    -3184 
   -3049    -3038    -3208    -3416    -3593    -3815    -4070    -4176 
   -4060    -3835    -3599    -3410    -3341    -3388    -3435    -3396 
   -3288    -3144    -3014    -3022    -3218    -3474    -3626    -3647 
   -3632    -3628    -3623    -3669    -3854    -4147    -4390    -4429 
   -4205    -3736    -3159    -2666    -2411    -2519    -3036    -3812 
   -4553    -4972    -4930    -4460    -3728    -2983    -2486    -2450 
   -2859    -3454    -4016    -4411    -4506    -4267    -3815    -3281 
   -2824    -2574    -2513    -2616    -2905    -3300    -3680    -4002 
   -4248    -4348    -4241    -3944    -3472    -2860    -2263    -1881 
   -1795    -1911    -2118    -2416    -2775    -3106    -3331    -3420 
   -3443    -3453    -3383    -3153    -2789    -2428    -2193    -2054 
   -2011    -2209    -2691    -3312    -3890    -4338    -4633    -4677 
   -4450    -4105    -3751    -3377    -3034    -2825    -2743    -2778 
   -2984    -3350    -3734    -3956    -3960    -3850    -3653    -3284 
   -2845    -2601    -2682    -2987    -3288    -3412    -3381    -3319 
   -3345    -3445    -3499    -3503    -3503    -3423    -3198    -2906 
   -2687    -2646    -2855    -3299    -3866    -4453    -4908    -5051 
   -4837    -4396    -3928    -3499    -3079    -2690    -2396    -2303 
   -2488    -2925    -3497    -4002    -4237    -4143    -3831    -3476 
   -3149    -2876    -2840    -3154    -3597    -3898    -4033    -4085 
   -4048    -3869    -3588    -3308    -3078    -2937    -2941    -3133 
   -3524    -4017    -4411    -4530    -4315    -3813    -3113    -2427 
   -2057    -2092    -2393    -2875    -3484    -4017    -4284    -4322 
   -4271    -4143    -3919    -3680    -3441    -3164    -2949    -2920 
   -3078    -3384    -3792    -4137    -4198    -3971    -3655    -3383 
   -3230    -3279    -3473    -3665    -3848    -4097    -4344    -4444 
   -4363    -4171    -3915    -3631    -3399    -3258    -3134    -2983 
   -2884    -2864    -2828    -2751    -2782    -3037    -3414    -3742 
   -3928    -3928    -3716    -3312    -2847    -2511    -2415    -2567 
   -2856    -3126    -3325    -3437    -3369    -3117    -2936    -3025 
   -3244    -3356    -3302    -3186    -3136    -3152    -3136    -3082 
   -3084    -3215    -3422    -3495    -3358    -3230    -3269    -3400 
   -3510    -3603    -3734    -3846    -3773    -3492    -3211    -3111 
   -3187    -3350    -3542    -3761    -3987    -4129    -4077    -3854 
   -3592    -3372    -3219    -3173    -3268    -3438    -3565    -3645 
   -3709    -3650    -3377    -2967    -2548    -2223    -2035    -1992 
   -2112    -2423    -2874    -3337    -3676    -3847    -3917    -3935 
   -3832    -3549    -3146    -2683    -2169    -1755    -1630    -1764 
   -2062    -2571    -3280    -3964    -4422    -4607    -4529    -4194 
   -3634    -2907    -2166    -1630    -1493    -1803    -2473    -3361 
   -4256    -4839    -4901    -4473    -3703    -2832    -2215    -2064 
   -2327    -2872    -3524    -4054    -4357    -4434    -4288    -4016 
   -3782    -3700    -3727    -3765    -3850    -4047    -4283    -4384 
   -4249    -3897    -3404    -2938    -2687    -2720    -3053    -3632 
   -4252    -4742    -5057    -5144    -4958    -4538    -4013    -3505 
   -3092    -2845    -2816    -2991    -3267    -3491    -3627    -3721 
   -3778    -3807    -3865    -3990    -4124    -4144    -3982    -3628 
   -3103    -2528    -2031    -1669    -1580    -1890    -2523    -3322 
   -4179    -4988    -5622    -5948    -5771    -4982    -3808    -2664 
   -1850    -1452    -1448    -1806    -2392    -3025    -3613    -4033 
   -4170    -4113    -4036    -3978    -3890    -3713    -3422    -3060 
   -2666    -2350    -2374    -2812    -3434    -4095    -4781    -5301 
   -5448    -5243    -4738    -3948    -3013    -2185    -1675    -1560 
   -1849    -2492    -3295    -4045    -4679    -5119    -5174    -4791 
   -4168    -3505    -2862    -2357    -2172    -2344    -2743    -3175 
   -3465    -3565    -3550    -3514    -3526    -3650    -3881    -4079 
   -4029    -3651    -3049    -2416    -1988    -1888    -2061    -2469 
   -3059    -3676    -4124    -4236    -3991    -3558    -3103    -2701 
   -2413    -2257    -2178    -2162    -2262    -2473    -2736    -3090 
   -3541    -3915    -4068    -4010    -3781    -3424    -3064    -2821 
   -2687    -2647    -2768    -3042    -3272    -3288    -3180    -3163 
   -3306    -3516    -3721    -3973    -4248    -4326    -4077    -3701 
   -3464    -3361    -3273    -3160    -3003    -2789    -2585    -2492 
   -2515    -2617    -2821    -3090    -3246    -3153    -2864    -2598 
   -2586    -2922    -3480    -4058    -4537    -4787    -4656    -4168 
   -3558    -3046    -2712    -2539    -2490    -2484    -2521    -2767 
   -3287    -3933    -4527    -4931    -5086    -4922    -4357    -3554 
   -2878    -2578    -2658    -2922    -3194    -3465    -3757    -3982 
   -4054    -4009    -3967    -3950    -3874    -3690    -3414    -3091 
