Origin Time       2024/04/02 04:24:00
Lat.              40.133
Long.             141.712
Depth. (km)       71
Mag.              6.0
Station Code      FKSH14
Station Lat.      37.0264
Station Long.     140.9702
Station Height(m) -144
Record Time       2024/04/02 04:25:26
Sampling Freq(Hz) 100Hz
Duration Time(s)  150
Dir.              3
Scale Factor      2942(gal)/8224139
Max. Acc. (gal)   0.450
Last Correction   2024/04/02 04:25:26
Memo.             
[...]
  106641   106563   106479   106427   106510   106654   106631   106497 
  106465   106528   106617   106687   106660   106548   106421   106350 
  106363   106389   106409   106446   106435   106366   106284   106224 
  106222   106211   106137   106058   106010   105970   105965   106053 
  106222   106338   106348   106351   106353   106285   106184   106122 
  106097   106049   105995   105962   105926   105988   106196   106394 
  106513   106570   106585   106627   106683   106659   106528   106371 
  106293   106267   106249   106293   106389   106474   106589   106679 
  106601   106481   106542   106635   106506   106272   106192   106250 
  106290   106282   106263   106297   106436   106556   106497   106348 
  106308   106369   106335   106151   106046   106145   106219   106157 
  106100   106073   106070   106124   106216   106421   106705   106805 
  106677   106539   106563   106712   106787   106774   106828   106903 
  106893   106840   106771   106748   106849   106926   106867   106814 
  106820   106763   106602   106427   106374   106440   106508   106524 
  106517   106500   106416   106304   106267   106249   106173   106100 
  106057   106007   105939   105891   105891   105934   106041   106153 
  106168   106204   106342   106423   106397   106332   106181   106012 
  106043   106207   106266   106223   106207   106258   106353   106425 
  106469   106555   106652   106650   106528   106351   106272   106258 
  106120   106046   106251   106463   106466   106400   106361   106309 
  106258   106211   106157   106174   106269   106297   106232   106213 
  106317   106482   106552   106443   106335   106404   106566   106581 
  106362   106168   106235   106408   106463   106459   106536   106672 
  106764   106749   106651   106655   106836   106969   106909   106755 
  106616   106591   106695   106786   106801   106791   106798   106799 
  106720   106559   106436   106473   106600   106610   106528   106552 
  106681   106775   106753   106589   106390   106303   106342   106416 
  106389   106282   106284   106361   106323   106299   106440   106547 
  106496   106373   106189   106092   106257   106535   106674   106613 
  106492   106477   106488   106378   106249   106228   106281   106277 
  106132   105960   105960   106096   106146   106073   106012   106066 
  106239   106401   106455   106474   106521   106542   106513   106482 
  106498   106550   106529   106373   106216   106231   106338   106340 
  106303   106385   106517   106616   106714   106783   106789   106748 
  106670   106578   106496   106505   106663   106764   106628   106427 
  106350   106381   106425   106409   106392   106432   106429   106358 
  106330   106330   106300   106332   106425   106465   106527   106658 
  106674   106515   106301   106150   106189   106386   106582   106726 
  106766   106659   106558   106591   106633   106567   106506   106486 
  106412   106324   106294   106317   106436   106612   106694   106637 
  106516   106436   106412   106312   106164   106154   106293   106432 
  106478   106407   106312   106359   106440   106354   106296   106402 
  106427   106299   106176   106161   106324   106532   106578   106533 
  106477   106440   106493   106497   106405   106459   106609   106575 
  106424   106369   106428   106521   106508   106354   106212   106143 
  106157   106321   106456   106374   106282   106317   106357   106347 
  106340   106398   106447   106361   106286   106342   106342   106220 
  106180   106286   106338   106276   106284   106396   106493   106550 
  106569   106502   106421   106505   106701   106747   106582   106362 
  106181   106095   106101   106158   106311   106535   106682   106770 
  106836   106755   106535   106311   106184   106182   106207   106245 
  106355   106424   106413   106454   106494   106469   106451   106485 
  106544   106447   106130   105958   106096   106234   106253   106317 
  106450   106517   106429   106249   106130   106132   106196   106261 
  106290   106261   106226   106212   106196   106203   106207   106139 
  106058   106047   106099   106189   106320   106469   106582   106618 
  106551   106459   106492   106587   106552   106370   106226   106243 
  106336   106440   106589   106724   106820   106884   106771   106551 
  106515   106569   106520   106471   106416   106309   106317   106483 
  106608   106609   106594   106558   106486   106496   106525   106475 
  106458   106435   106278   106124   106141   106231   106204   106070 
  105983   105970   106043   106207   106354   106448   106486   106374 
  106224   106220   106205   106105   106137   106247   106282   106367 
  106496   106509   106419   106257   106068   105993   106118   106343 
  106467   106447   106363   106239   106207   106293   106301   106226 
  106211   106270   106312   106328   106454   106639   106659   106608 
  106720   106888   106909   106817   106733   106731   106807   106833 
  106820   106945   107154   107237   107183   107083   106992   106947 
  106888   106758   106658   106667   106721   106735   106631   106478 
  106474   106573   106583   106539   106494   106415   106278   106068 
  105925   105987   106054   106034   106081   106095   105956   105869 
  105900   105873   105777   105740   105848   106070   106184   106068 
  105953   105989   106022   106019   106108   106293   106506   106713 
  106809   106693   106524   106537   106632   106623   106551   106504 
  106498   106551   106683   106830   106864   106840   106942   107028 
  106814   106524   106502   106612   106602   106520   106496   106591 
  106735   106749   106616   106510   106532   106671   106813   106713 
  106446   106385   106540   106598   106455   106338   106390   106425 
  106326   106211   106166   106249   106444   106554   106469   106311 
  106251   106317   106350   106257   106134   106093   106142   106180 
  106096   105964   105995   106155   106205   106170   106257   106394 
  106398   106373   106408   106359   106285   106366   106456   106362 
  106265   106353   106405   106305   106323   106510   106625   106594 
  106537   106552   106520   106313   106134   106145   106265   106440 
  106505   106330   106182   106261   106390   106409   106308   106197 
  106184   106185   106134   106083   106014   105989   106116   106184 
  106088   106166   106447   106529   106348   106164   106108   106143 
  106177   106216   106288   106304   106267   106259   106290   106398 
  106623   106841   106967   107021   106974   106843   106706   106601 
  106586   106675   106713   106636   106548   106470   106400   106451 
  106644   106855   106902   106722   106550   106520   106519   106550 
  106606   106628   106690   106778   106816   106826   106805   106731 
  106598   106443   106385   106444   106542   106655   106729   106663 
  106521   106498   106633   106798   106901   106893   106677   106309 
  106087   106112   106151   106131   106266   106465   106392   106103 
  105921   105958   106151   106401   106570   106571   106474   106425 
  106423   106326   106191   106182   106180   106069   105984   105958 
  105910   105922   106108   106367   106505   106475   106377   106303 
  106236   106158   106116   106108   106105   106128   106207   106320 
  106400   106454   106482   106389   106203   106122   106170   106176 
  106139   106131   106119   106166   106319   106444   106421   106370 
  106497   106606   106436   106254   106309   106463   106532   106375 
  106104   106031   106103   106105   106124   106261   106461   106627 
  106625   106427   106246   106274   106382   106370   106292   106281 
  106296   106236   106182   106191   106120   106088   106327   106544 
  106471   106425   106517   106443   106261   106253   106420   106631 
  106741   106636   106374   106153   106154   106332   106492   106554 
  106550   106569   106543   106350   106222   106353   106524   106517 
  106388   106339   106411   106469   106475   106450   106440   106501 
  106540   106543   106623   106655   106548   106517   106620   106702 
  106749   106841   106880   106640   106253   106149   106338   106512 
  106575   106585   106567   106523   106421   106319   106363   106542 
  106686   106708   106605   106519   106635   106780   106762   106706 
  106616   106454   106370   106285   106155   106208   106425   106601 
  106706   106748   106736   106737   106779   106780   106667   106532 
  106456   106400   106413   106512   106529   106463   106420   106299 
  106096   106047   106177   106312   106294   106091   105957   106057 
  106193   106307   106417   106423   106363   106303   106243   106208 
  106068   105879   105911   106046   106105   106276   106552   106641 
  106475   106267   106195   106218   106245   106218   106038   105800 
  105775   105948   106089   106184   106386   106621   106656   106579 
  106612   106682   106664   106609   106546   106420   106192   105885 
  105642   105622   105726   105775   105925   106365   106882   107134 
  107048   106860   106818   106906   106967   106895   106706   106587 
  106589   106493   106385   106525   106725   106760   106787   106801 
  106658   106494   106420   106346   106267   106265   106338   106498 
  106807   107118   107130   106906   106798   106843   106833   106731 
  106647   106610   106574   106556   106525   106407   106332   106434 
  106555   106463   106238   106184   106247   106180   106143   106238 
  106303   106452   106704   106718   106525   106448   106439   106353 
  106305   106359   106385   106265   106147   106193   106181   106147 
  106439   106701   106496   106255   106266   106203   106007   105895 
  105987   106301   106612   106686   106651   106648   106658   106745 
  106849   106693   106343   106181   106239   106226   106145   106270 
  106479   106442   106343   106411   106440   106365   106278   106169 
  106119   106205   106338   106444   106515   106471   106299   106088 
  105931   105943   106035   105993   106012   106208   106303   106327 
  106424   106521   106591   106536   106389   106417   106566   106627 
  106644   106685   106743   106768   106712   106681   106786   106975 
  107083   106909   106577   106535   106775   106932   106982   107050 
  107025   106787   106488   106371   106392   106336   106196   106093 
  106138   106424   106839   107142   107280   107307   107127   106724 
  106401   106259   106087   106026   106235   106447   106548   106644 
  106651   106560   106496   106404   106267   106208   106204   106172 
  106089   106012   106068   106142   106051   106026   106130   106155 
  106219   106258   106058   105918   105973   105973   105946   105923 
  105830   105862   106100   106365   106672   106957   106941   106623 
  106320   106324   106562   106747   106845   106975   106948   106551 
  106099   106051   106334   106490   106359   106254   106393   106612 
  106774   106830   106686   106537   106602   106637   106548   106605 
  106775   106818   106698   106566   106618   106721   106604   106436 
  106357   106080   105611   105327   105316   105532   105964   106344 
  106469   106465   106415   106328   106269   106215   106269   106535 
  106729   106662   106555   106585   106721   106836   106805   106645 
  106536   106656   106903   106969   106848   106884   107160   107345 
  107296   107239   107300   107310   107137   106866   106621   106524 
  106587   106608   106513   106448   106440   106479   106504   106424 
  106419   106493   106397   106265   106180   106093   106219   106347 
  106139   105889   105746   105532   105341   105289   105304   105333 
  105414   105702   106182   106473   106439   106254   105876   105480 
  105534   105952   106294   106424   106384   106273   106254   106348 
  106459   106560   106589   106459   106270   106031   105750   105657 
  105741   105815   105961   106158   106162   106026   106006   105979 
  105714   105448   105580   105992   106236   106288   106278   106149 
  106180   106443   106324   105845   105671   105732   105673   105563 
  105490   105571   105876   106185   106335   106331   106249   106199 
  106099   105911   105857   106002   106193   106313   106315   106230 
  106165   106204   106294   106335   106380   106427   106330   106247 
  106454   106766   106942   107072   107187   107141   106955   106793 
  106699   106677   106764   106880   106924   106879   106810   106876 
  107003   106960   106879   106893   106875   106884   106921   106803 
  106609   106537   106629   106813   106948   106907   106748   106691 
  106783   106782   106686   106778   106991   106980   106708   106416 
  106247   106146   106077   106159   106389   106542   106536   106417 
  106196   106062   106292   106729   106968   106911   106729   106662 
  106790   106930   107061   107254   107231   106766   106158   105868 
  105906   106016   106155   106330   106469   106585   106712   106824 
  106882   106906   106895   106762   106552   106489   106563   106567 
  106523   106508   106490   106547   106567   106323   106064   106037 
  106046   106041   106166   106323   106375   106417   106544   106654 
  106528   106178   105903   105791   105672   105575   105653   105946 
  106284   106316   106043   105833   105706   105557   105602   105864 
  106080   106122   106057   106046   106097   106162   106429   106758 
  106816   106803   106867   106798   106708   106848   107037   106974 
  106751   106562   106358   106120   105911   105838   106014   106230 
  106304   106366   106436   106663   107230   107669   107604   107377 
  107249   107121   106910   106621   106416   106401   106377   106297 
  106353   106470   106529   106658   106841   106910   106948   107092 
  107148   106949   106763   106767   106737   106658   106798   107067 
  107172   107163   107153   107079   106922   106704   106496   106394 
  106323   106299   106482   106658   106509   106274   106216   106234 
  106276   106239   106024   105792   105598   105474   105533   105561 
  105506   105609   105764   105814   105763   105601   105556   105845 
  106304   106689   106880   106907   106886   106812   106694   106689 
  106741   106620   106465   106528   106609   106537   106528   106635 
  106667   106562   106423   106361   106315   106213   106139   106087 
  106046   106258   106706   106924   106867   106940   106992   106736 
  106424   106200   105902   105560   105297   105177   105268   105466 
  105617   105833   106112   106251   106273   106213   106029   105935 
  106080   106232   106308   106428   106570   106662   106679   106643 
  106559   106420   106386   106505   106547   106508   106516   106469 
  106357   106257   106192   106246   106336   106347   106375   106365 
  106189   106046   106105   106254   106331   106311   106284   106222 
  106015   105838   105914   106131   106317   106428   106435   106305 
  106161   106234   106455   106618   106717   106733   106744   106880 
  106965   106895   106782   106614   106390   106199   106172   106320 
  106357   106234   106273   106370   106266   106259   106560   106864 
  106975   106972   106876   106624   106328   106250   106336   106357 
  106381   106521   106504   106226   106149   106461   106748   106724 
  106517   106361   106224   105981   105857   105993   106168   106377 
  106717   106964   107006   106988   106974   106948   106918   106893 
  106942   107072   107107   106990   106829   106685   106635   106726 
  106802   106768   106786   106834   106641   106227   105927   105939 
  106122   106150   106046   106153   106447   106590   106486   106347 
  106370   106452   106348   106115   105973   105923   105876   105918 
  106045   105962   105707   105761   106093   106215   106078   105957 
  105976   106093   106165   106224   106506   106990   107252   107059 
  106674   106353   106123   106085   106219   106269   106262   106442 
  106686   106724   106659   106785   107034   107127   107104   107086 
  106991   106824   106644   106471   106479   106770   107067   107079 
  106803   106361   105946   105804   105939   106128   106303   106519 
  106650   106550   106348   106332   106537   106663   106533   106367 
  106312   106262   106242   106293   106338   106428   106583   106651 
  106560   106289   105929   105771   105819   105818   105777   105802 
  105873   105950   105937   105852   105825   105818   105830   105912 
  105973   106045   106196   106299   106339   106421   106438   106312 
  106253   106250   106123   106045   106056   106022   106143   106366 
  106424   106515   106687   106741   106816   106978   107063   107114 
  107248   107431   107585   107541   107235   106909   106709   106579 
  106567   106708   106880   106941   106843   106679   106563   106562 
  106639   106620   106450   106284   106169   106104   106103   106035 
  105929   105979   106093   106103   106039   106029   106122   106213 
  106235   106272   106269   106126   105939   105717   105428   105293 
  105343   105345   105344   105462   105655   105875   106008   106078 
  106240   106424   106632   106872   106882   106783   106940   107160 
  107175   107163   107194   107106   106917   106685   106415   106282 
  106424   106753   107040   107110   107068   106986   106809   106659 
  106604   106623   106809   107013   106987   106845   106689   106483 
  106307   106188   106138   106110   105916   105691   105633   105636 
  105726   105957   106112   106122   106115   106049   105884   105802 
  105885   105958   105842   105632   105605   105787   105867   105725 
  105540   105403   105318   105367   105667   106178   106641   106898 
  107022   107073   107069   106969   106731   106428   106154   106024 
  106108   106301   106601   107032   107333   107314   107140   107079 
  107204   107320   107308   107272   107202   107033   106893   106932 
  107099   107273   107419   107536   107588   107565   107530   107499 
  107400   107211   107001   106870   106825   106741   106552   106359 
  106250   106238   106316   106353   106231   106153   106205   106120 
  105898   105780   105888   106235   106579   106739   106870   106982 
  106978   106884   106670   106358   106095   106010   106041   105941 
  105802   105949   106253   106386   106300   106080   105885   105860 
  105918   105935   105953   106050   106192   106342   106477   106486 
  106485   106637   106658   106396   106165   106130   106249   106419 
  106490   106497   106569   106729   106883   106880   106778   106793 
  106895   106905   106826   106739   106664   106587   106448   106308 
  106257   106228   106164   106108   106128   106223   106344   106459 
  106438   106224   106004   105856   105745   105786   105984   106085 
  105979   105835   105830   105927   105912   105756   105733   105856 
  105856   105752   105769   106000   106273   106415   106459   106458 
  106463   106586   106748   106758   106606   106452   106451   106521 
  106500   106440   106427   106439   106459   106498   106564   106644 
  106751   106807   106675   106470   106412   106508   106577   106473 
  106296   106255   106339   106451   106643   106841   106828   106641 
  106394   106151   106065   106101   106084   106037   105983   105884 
  105841   105896   106003   106147   106231   106251   106312   106331 
  106288   106323   106405   106415   106435   106587   106736   106693 
