Origin Time       2024/04/02 04:24:00
Lat.              40.133
Long.             141.712
Depth. (km)       71
Mag.              6.0
Station Code      FKSH16
Station Lat.      37.7643
Station Long.     140.3766
Station Height(m) 135
Record Time       2024/04/02 04:25:23
Sampling Freq(Hz) 100Hz
Duration Time(s)  120
Dir.              6
Scale Factor      7845(gal)/8223790
Max. Acc. (gal)   0.657
Last Correction   2024/04/02 04:25:23
Memo.             
[...]
   27342    27351    27351    27301    27206    27211    27346    27440 
   27426    27378    27290    27210    27189    27217    27318    27391 
   27324    27201    27110    27114    27176    27193    27233    27278 
   27252    27291    27364    27378    27444    27481    27418    27421 
   27461    27457    27437    27418    27427    27402    27384    27500 
   27650    27708    27654    27568    27572    27611    27612    27611 
   27625    27623    27544    27441    27403    27380    27386    27422 
   27392    27356    27436    27576    27656    27615    27523    27461 
   27430    27384    27292    27268    27356    27355    27271    27249 
   27253    27317    27421    27352    27145    27044    27099    27184 
   27207    27195    27206    27244    27301    27329    27294    27255 
   27255    27267    27265    27287    27359    27413    27415    27360 
   27270    27268    27368    27442    27461    27410    27338    27360 
   27422    27459    27495    27481    27414    27391    27400    27414 
   27442    27407    27369    27433    27469    27465    27508    27502 
   27449    27457    27452    27364    27306    27333    27338    27237 
   27109    27049    27079    27109    27056    27027    27058    27051 
   27032    27004    26956    26955    27000    27072    27106    27070 
   27090    27147    27221    27403    27549    27534    27464    27415 
   27480    27673    27845    27919    27907    27827    27758    27774 
   27837    27862    27850    27784    27643    27554    27621    27730 
   27735    27607    27445    27345    27306    27337    27380    27319 
   27202    27098    27010    27021    27124    27216    27284    27321 
   27306    27230    27094    27048    27151    27270    27342    27342 
   27317    27311    27260    27213    27206    27148    27063    27009 
   27021    27136    27245    27249    27182    27141    27186    27195 
   27082    26982    27032    27203    27353    27402    27422    27387 
   27290    27263    27283    27302    27369    27461    27538    27544 
   27488    27450    27432    27457    27491    27453    27432    27475 
   27545    27643    27684    27625    27572    27564    27534    27442 
   27368    27411    27495    27554    27614    27616    27554    27440 
   27322    27356    27476    27515    27473    27392    27321    27252 
   27167    27162    27236    27341    27430    27386    27272    27182 
   27082    27059    27087    27071    27110    27179    27224    27291 
   27315    27361    27471    27523    27561    27567    27550    27614 
   27646    27634    27658    27688    27739    27743    27656    27567 
   27513    27514    27477    27324    27264    27349    27351    27275 
   27234    27216    27234    27243    27147    27051    27059    27067 
   27039    27040    27039    27047    27062    27001    26994    27071 
   27070    27059    27093    27128    27182    27209    27222    27290 
   27365    27363    27286    27214    27172    27162    27178    27171 
   27183    27255    27305    27317    27324    27395    27541    27622 
   27625    27608    27538    27490    27521    27568    27625    27639 
   27610    27602    27615    27676    27702    27641    27623    27557 
   27419    27425    27488    27475    27391    27245    27155    27132 
   27109    27081    27045    27118    27179    27064    26982    26966 
   27017    27226    27292    27147    27081    27109    27163    27206 
   27229    27297    27375    27391    27322    27240    27290    27423 
   27498    27518    27526    27556    27594    27573    27548    27591 
   27661    27677    27619    27573    27581    27596    27623    27612 
   27500    27349    27240    27236    27272    27261    27332    27460 
   27510    27519    27531    27606    27631    27488    27376    27384 
   27422    27409    27328    27325    27352    27245    27163    27168 
   27157    27184    27178    27064    26989    27008    27109    27187 
   27140    27103    27109    27090    27085    27102    27147    27168 
   27145    27151    27175    27255    27364    27430    27503    27491 
   27361    27341    27436    27545    27645    27618    27510    27471 
   27503    27583    27630    27625    27669    27685    27585    27446 
   27345    27337    27372    27344    27282    27191    27098    27133 
   27284    27448    27548    27540    27483    27400    27319    27326 
   27444    27611    27664    27594    27550    27502    27496    27561 
   27521    27406    27291    27214    27261    27322    27325    27315 
   27283    27271    27271    27263    27305    27364    27405    27476 
   27544    27510    27407    27365    27349    27282    27210    27162 
   27155    27210    27238    27163    27106    27151    27166    27132 
   27114    27105    27147    27226    27302    27378    27411    27463 
   27506    27411    27287    27240    27253    27326    27351    27303 
   27330    27322    27166    27091    27155    27153    27130    27190 
   27247    27297    27330    27286    27264    27334    27398    27411 
   27398    27356    27334    27326    27306    27345    27422    27490 
   27579    27607    27553    27507    27517    27646    27788    27730 
   27568    27495    27483    27498    27558    27634    27729    27753 
   27558    27297    27190    27179    27206    27251    27243    27230 
   27267    27256    27148    27060    27048    27056    27087    27112 
   27176    27395    27603    27649    27598    27496    27376    27268 
   27229    27297    27430    27583    27629    27584    27588    27541 
   27469    27526    27558    27494    27395    27257    27195    27241 
   27305    27353    27291    27099    26986    27012    27060    27135 
   27228    27291    27310    27243    27218    27310    27311    27248 
   27319    27469    27588    27637    27627    27608    27517    27357 
   27283    27256    27193    27160    27178    27205    27193    27147 
   27163    27183    27183    27286    27440    27562    27602    27476 
   27329    27268    27240    27311    27494    27658    27716    27669 
   27615    27569    27496    27450    27427    27375    27315    27305 
   27387    27530    27615    27594    27560    27529    27398    27256 
   27283    27405    27502    27562    27487    27345    27310    27318 
   27329    27325    27255    27228    27280    27310    27337    27382 
   27410    27367    27197    26995    26902    26862    26866    27008 
   27209    27340    27382    27333    27292    27355    27392    27332 
   27275    27203    27163    27264    27367    27399    27427    27390 
   27321    27276    27302    27465    27589    27584    27525    27396 
   27337    27375    27390    27448    27442    27367    27386    27286 
   27112    27137    27168    27141    27124    27031    27018    27094 
   27075    27035    26997    26963    27022    27086    27091    27075 
   27062    27132    27229    27268    27313    27307    27236    27228 
   27279    27369    27452    27464    27460    27403    27329    27330 
   27305    27294    27357    27360    27378    27453    27468    27490 
   27542    27587    27634    27610    27571    27619    27683    27670 
   27556    27499    27591    27634    27587    27526    27456    27460 
   27490    27454    27425    27459    27507    27533    27554    27541 
   27522    27603    27627    27534    27526    27541    27479    27392 
   27255    27167    27225    27333    27442    27480    27452    27475 
   27498    27487    27448    27398    27450    27525    27448    27344 
   27360    27454    27541    27535    27430    27349    27372    27405 
   27394    27391    27279    27044    26905    26869    26904    27033 
   27103    27114    27179    27236    27247    27217    27174    27168 
   27164    27166    27172    27133    27136    27153    27029    26927 
   26991    27074    27151    27238    27275    27282    27245    27203 
   27256    27336    27338    27313    27346    27405    27430    27494 
   27585    27588    27546    27500    27440    27400    27383    27434 
   27553    27591    27502    27382    27415    27571    27546    27379 
   27275    27240    27363    27569    27589    27468    27392    27410 
   27459    27415    27353    27438    27537    27487    27411    27423 
   27487    27492    27413    27348    27309    27317    27396    27453 
   27552    27710    27774    27800    27865    27861    27734    27552 
   27409    27395    27476    27531    27573    27591    27517    27467 
   27464    27365    27205    27120    27132    27153    27157    27202 
   27288    27352    27313    27183    27098    27020    26855    26755 
   26829    26941    26978    26955    26912    26889    26904    26916 
   26900    26916    26990    27062    27136    27245    27400    27552 
   27635    27660    27607    27513    27473    27409    27330    27348 
   27342    27315    27376    27390    27383    27445    27411    27274 
   27197    27194    27247    27391    27530    27565    27568    27585 
   27662    27804    27827    27727    27660    27615    27583    27596 
   27685    27805    27745    27507    27346    27306    27307    27314 
   27280    27229    27202    27222    27287    27290    27275    27329 
   27314    27251    27224    27166    27163    27189    27083    26973 
   26967    27018    27047    26981    26983    27125    27178    27167 
   27268    27390    27448    27403    27244    27205    27322    27344 
   27287    27251    27202    27214    27283    27345    27413    27434 
   27391    27259    27066    27031    27140    27240    27352    27434 
   27469    27500    27437    27297    27232    27244    27217    27216 
   27388    27576    27538    27364    27256    27283    27334    27283 
   27225    27319    27469    27554    27621    27719    27814    27827 
   27746    27693    27826    28011    28030    27984    27940    27882 
   27881    27849    27804    27874    27916    27847    27697    27488 
   27422    27492    27468    27405    27446    27519    27481    27337 
   27259    27368    27549    27529    27290    27091    27004    26982 
   27033    27090    27070    26970    26912    26951    27025    27149 
   27194    27086    27062    27067    27012    27143    27365    27484 
   27540    27463    27372    27391    27352    27288    27278    27211 
   27083    27012    27083    27137    27040    26920    26809    26771 
   26877    26947    26979    27010    26948    26966    27085    27136 
   27206    27324    27417    27469    27538    27765    27954    27796 
   27500    27348    27292    27256    27243    27248    27220    27130 
   27113    27247    27437    27529    27495    27449    27363    27224 
   27232    27376    27550    27770    27843    27641    27445    27465 
   27614    27681    27560    27367    27301    27422    27530    27523 
   27587    27742    27857    27819    27635    27549    27627    27661 
   27560    27444    27368    27229    27081    27089    27175    27257 
   27290    27186    27151    27311    27394    27375    27427    27476 
   27423    27309    27263    27352    27399    27353    27307    27162 
   26981    26927    26937    27012    27114    27184    27214    27148 
   27099    27167    27243    27264    27253    27333    27425    27336 
   27265    27367    27483    27508    27434    27332    27302    27319 
   27321    27259    27197    27247    27334    27433    27521    27518 
   27585    27711    27669    27588    27579    27622    27730    27693 
   27571    27561    27576    27649    27677    27436    27162    27055 
   27013    26982    26967    27089    27338    27504    27627    27762 
   27772    27648    27394    27166    27237    27396    27427    27444 
   27359    27191    27178    27240    27272    27319    27279    27175 
   27191    27259    27256    27230    27240    27306    27328    27245 
   27228    27322    27378    27322    27148    26960    26943    27029 
   27121    27265    27328    27199    27009    26839    26755    26800 
   26851    26890    26937    26959    27095    27348    27473    27490 
   27504    27471    27468    27507    27490    27562    27726    27730 
   27572    27310    27066    27031    27079    27171    27353    27454 
   27515    27525    27328    27194    27288    27479    27697    27777 
   27781    27865    27812    27661    27618    27611    27661    27710 
   27572    27365    27225    27133    27102    27094    27124    27280 
   27454    27481    27413    27355    27317    27298    27322    27392 
   27465    27430    27337    27329    27291    27159    27099    27139 
   27191    27205    27194    27225    27291    27378    27472    27527 
   27553    27525    27417    27330    27341    27449    27611    27706 
   27646    27552    27545    27492    27418    27514    27633    27650 
   27614    27459    27345    27425    27454    27403    27445    27573 
   27687    27629    27488    27494    27571    27612    27583    27475 
   27375    27314    27321    27359    27311    27245    27214    27148 
   27097    27140    27284    27414    27417    27383    27338    27267 
   27228    27162    27153    27265    27286    27230    27179    27089 
   27144    27375    27533    27500    27376    27317    27307    27319 
   27384    27398    27399    27446    27452    27490    27519    27427 
   27373    27414    27388    27245    27118    27121    27179    27186 
   27126    27056    27113    27244    27291    27280    27272    27369 
   27535    27571    27507    27398    27287    27288    27287    27314 
   27480    27554    27508    27437    27348    27392    27421    27261 
   27094    26954    26873    26843    26715    26662    26786    26908 
   26967    26890    26788    26892    27075    27168    27155    27135 
   27199    27133    26929    26843    26823    26900    27139    27319 
   27395    27429    27514    27699    27734    27649    27691    27724 
   27675    27657    27726    27854    27857    27730    27650    27653 
   27733    27737    27583    27530    27573    27610    27737    27773 
   27691    27715    27706    27658    27753    27818    27734    27614 
   27553    27599    27615    27527    27442    27346    27265    27255 
   27202    27116    27117    27153    27087    26929    26863    26987 
   27194    27371    27475    27491    27415    27315    27336    27479 
   27622    27672    27548    27336    27225    27224    27268    27365 
   27511    27654    27708    27679    27683    27738    27754    27677 
   27477    27236    27112    27071    27063    27180    27351    27419 
   27450    27433    27321    27286    27274    27166    27135    27160 
   27186    27244    27179    27062    26986    26813    26720    26766 
   26797    26973    27132    27060    26990    26923    26887    26943 
   26856    26831    27052    27186    27214    27330    27459    27448 
   27274    27133    27164    27305    27468    27507    27405    27302 
   27282    27390    27526    27554    27540    27503    27417    27330 
   27329    27457    27531    27423    27294    27245    27278    27395 
   27498    27540    27641    27766    27734    27604    27561    27646 
   27788    27787    27538    27299    27251    27321    27476    27666 
   27792    27842    27857    27824    27741    27662    27577    27502 
   27461    27338    27203    27195    27172    27103    27116    27172 
   27187    27103    26933    26863    27005    27126    27063    27029 
   27117    27166    27233    27430    27665    27799    27720    27550 
   27438    27361    27371    27405    27372    27395    27373    27252 
   27203    27170    27206    27426    27537    27434    27317    27268 
   27386    27538    27475    27359    27338    27390    27503    27503 
   27421    27432    27421    27352    27294    27280    27376    27483 
   27484    27464    27436    27407    27480    27548    27461    27359 
   27309    27190    27120    27202    27279    27313    27321    27265 
   27232    27267    27379    27521    27529    27437    27369    27305 
   27276    27302    27346    27371    27265    27113    27062    27012 
   26994    27093    27164    27167    27152    27157    27237    27309 
   27372    27510    27562    27494    27492    27517    27452    27391 
   27418    27440    27352    27259    27310    27441    27479    27365 
   27206    27085    27001    27040    27176    27238    27261    27287 
   27197    27114    27155    27226    27365    27465    27365    27252 
   27257    27418    27729    27939    27961    27911    27787    27621 
   27450    27329    27353    27379    27357    27402    27380    27341 
   27434    27479    27446    27409    27342    27356    27396    27388 
   27402    27383    27421    27588    27712    27785    27843    27778 
   27621    27463    27363    27396    27475    27454    27383    27310 
   27253    27272    27314    27279    27184    27075    26952    26877 
   26940    27054    27070    27006    26962    26925    26848    26786 
   26824    26948    27097    27201    27272    27310    27206    27060 
   27074    27152    27191    27253    27322    27330    27294    27310 
   27388    27373    27287    27319    27391    27348    27279    27292 
   27375    27382    27252    27172    27207    27240    27222    27172 
   27205    27395    27589    27656    27608    27472    27315    27251 
   27301    27413    27527    27596    27665    27687    27567    27523 
   27672    27751    27680    27585    27523    27500    27453    27411 
   27504    27635    27612    27427    27198    27113    27211    27355 
   27507    27634    27661    27626    27521    27430    27506    27583 
   27525    27494    27479    27403    27444    27691    27951    28036 
   27932    27746    27598    27471    27328    27253    27271    27288 
   27257    27214    27178    27152    27166    27195    27240    27391 
   27598    27635    27449    27214    27101    27091    27020    26870 
   26808    26883    27035    27156    27168    27157    27151    27099 
   27035    27020    27155    27349    27382    27329    27283    27168 
   27041    27014    27141    27398    27592    27581    27514    27580 
   27680    27649    27487    27256    27133    27166    27147    27144 
   27286    27351    27302    27288    27232    27153    27190    27272 
   27259    27148    27064    27125    27276    27371    27419    27529 
   27652    27665    27614    27575    27557    27618    27718    27662 
   27457    27325    27336    27436    27568    27633    27631    27626 
   27558    27450    27434    27500    27542    27511    27434    27376 
   27391    27476    27575    27677    27800    27804    27606    27396 
   27305    27318    27398    27368    27179    27055    27075    27124 
   27213    27329    27340    27314    27317    27214    27075    27058 
   27101    27145    27214    27279    27278    27172    27047    27059 
   27199    27241    27122    27097    27241    27352    27310    27144 
   27013    27029    27060    27051    27059    27064    27144    27260 
   27217    27086    27045    27121    27244    27252    27163    27163 
   27206    27303    27500    27573    27531    27498    27461    27548 
   27680    27720    27754    27731    27641    27533    27386    27307 
   27292    27298    27405    27531    27562    27444    27271    27238 
   27211    27156    27244    27380    27519    27684    27766    27776 
   27784    27830    27845    27727    27619    27616    27635    27664 
   27687    27758    27846    27745    27592    27598    27675    27768 
