Origin Time       2024/04/02 04:24:00
Lat.              40.133
Long.             141.712
Depth. (km)       71
Mag.              6.0
Station Code      FKSH06
Station Lat.      37.1723
Station Long.     139.5199
Station Height(m) 471.7
Record Time       2024/04/02 04:25:59
Sampling Freq(Hz) 100Hz
Duration Time(s)  120
Dir.              3
Scale Factor      2942(gal)/8224139
Max. Acc. (gal)   0.151
Last Correction   2024/04/02 04:26:00
Memo.             
[...]
  -94192   -94211   -94223   -94235   -94248   -94259   -94271   -94281 
  -94277   -94267   -94269   -94269   -94254   -94238   -94227   -94216 
  -94209   -94207   -94204   -94201   -94203   -94205   -94205   -94212 
  -94215   -94212   -94217   -94225   -94232   -94240   -94250   -94258 
  -94259   -94251   -94242   -94231   -94228   -94242   -94263   -94278 
  -94278   -94266   -94250   -94236   -94232   -94236   -94243   -94242 
  -94238   -94238   -94239   -94238   -94232   -94230   -94228   -94232 
  -94244   -94259   -94271   -94278   -94288   -94304   -94313   -94316 
  -94321   -94328   -94332   -94343   -94351   -94347   -94338   -94331 
  -94329   -94329   -94332   -94343   -94355   -94358   -94354   -94342 
  -94317   -94290   -94267   -94251   -94243   -94232   -94215   -94194 
  -94177   -94163   -94151   -94147   -94159   -94176   -94181   -94186 
  -94197   -94209   -94221   -94236   -94255   -94277   -94293   -94301 
  -94300   -94290   -94278   -94266   -94254   -94240   -94227   -94213 
  -94190   -94162   -94143   -94132   -94120   -94111   -94105   -94103 
  -94099   -94100   -94105   -94104   -94100   -94101   -94105   -94111 
  -94122   -94123   -94111   -94095   -94081   -94070   -94070   -94073 
  -94066   -94055   -94050   -94055   -94066   -94074   -94082   -94097 
  -94111   -94122   -94138   -94158   -94177   -94200   -94221   -94232 
  -94239   -94250   -94265   -94281   -94293   -94304   -94308   -94311 
  -94320   -94332   -94346   -94362   -94371   -94369   -94371   -94381 
  -94387   -94389   -94389   -94378   -94359   -94338   -94316   -94297 
  -94277   -94250   -94227   -94213   -94204   -94194   -94185   -94177 
  -94162   -94144   -94135   -94138   -94151   -94166   -94176   -94176 
  -94169   -94159   -94153   -94153   -94159   -94166   -94167   -94166 
  -94158   -94161   -94185   -94208   -94213   -94215   -94215   -94213 
  -94213   -94223   -94239   -94254   -94254   -94242   -94232   -94228 
  -94224   -94221   -94223   -94227   -94228   -94221   -94215   -94220 
  -94231   -94243   -94259   -94274   -94284   -94288   -94294   -94308 
  -94327   -94344   -94354   -94352   -94348   -94354   -94367   -94378 
  -94381   -94378   -94379   -94378   -94370   -94370   -94375   -94373 
  -94359   -94339   -94321   -94319   -94323   -94331   -94336   -94333 
  -94331   -94338   -94350   -94363   -94375   -94379   -94377   -94379 
  -94383   -94383   -94381   -94374   -94369   -94366   -94359   -94347 
  -94336   -94335   -94340   -94347   -94348   -94340   -94329   -94327 
  -94321   -94308   -94300   -94294   -94275   -94255   -94240   -94227 
  -94216   -94208   -94200   -94190   -94177   -94163   -94158   -94157 
  -94157   -94155   -94155   -94154   -94147   -94149   -94161   -94166 
  -94163   -94154   -94139   -94127   -94127   -94126   -94122   -94126 
  -94128   -94124   -94122   -94128   -94136   -94146   -94159   -94174 
  -94186   -94196   -94197   -94186   -94173   -94171   -94174   -94176 
  -94176   -94177   -94182   -94188   -94196   -94205   -94212   -94215 
  -94217   -94227   -94239   -94251   -94262   -94266   -94262   -94258 
  -94255   -94261   -94273   -94288   -94293   -94285   -94265   -94246 
  -94232   -94221   -94213   -94213   -94209   -94201   -94188   -94181 
  -94178   -94173   -94171   -94174   -94170   -94166   -94167   -94174 
  -94186   -94189   -94184   -94181   -94174   -94161   -94147   -94131 
  -94113   -94097   -94084   -94069   -94053   -94041   -94039   -94042 
  -94035   -94024   -94022   -94028   -94041   -94059   -94082   -94108 
  -94124   -94126   -94124   -94132   -94147   -94158   -94165   -94170 
  -94174   -94174   -94171   -94167   -94171   -94180   -94181   -94181 
  -94186   -94197   -94208   -94219   -94227   -94234   -94234   -94224 
  -94213   -94213   -94217   -94216   -94212   -94205   -94188   -94169 
  -94161   -94157   -94155   -94161   -94165   -94159   -94150   -94153 
  -94169   -94188   -94200   -94208   -94219   -94230   -94236   -94246 
  -94251   -94244   -94238   -94240   -94246   -94246   -94243   -94242 
  -94242   -94240   -94236   -94234   -94238   -94246   -94252   -94255 
  -94254   -94247   -94239   -94238   -94235   -94227   -94227   -94232 
  -94236   -94250   -94267   -94282   -94296   -94304   -94311   -94320 
  -94328   -94338   -94346   -94346   -94343   -94339   -94329   -94317 
  -94302   -94289   -94279   -94273   -94265   -94257   -94250   -94239 
  -94230   -94231   -94239   -94246   -94247   -94246   -94248   -94252 
  -94254   -94259   -94269   -94288   -94313   -94328   -94328   -94321 
  -94312   -94309   -94312   -94312   -94312   -94308   -94300   -94289 
  -94273   -94254   -94242   -94230   -94219   -94220   -94227   -94231 
  -94235   -94238   -94236   -94238   -94239   -94230   -94216   -94211 
  -94211   -94212   -94215   -94216   -94215   -94213   -94219   -94227 
  -94227   -94216   -94203   -94193   -94193   -94201   -94197   -94185 
  -94176   -94171   -94165   -94162   -94165   -94166   -94171   -94178 
  -94182   -94182   -94178   -94169   -94169   -94178   -94180   -94176 
  -94169   -94158   -94155   -94157   -94154   -94153   -94151   -94146 
  -94149   -94167   -94178   -94177   -94174   -94174   -94184   -94200 
  -94215   -94236   -94255   -94262   -94273   -94297   -94321   -94336 
  -94342   -94343   -94347   -94358   -94369   -94377   -94369   -94351 
  -94339   -94328   -94315   -94311   -94305   -94289   -94269   -94251 
  -94240   -94232   -94221   -94211   -94203   -94192   -94185   -94185 
  -94189   -94192   -94186   -94184   -94186   -94193   -94201   -94213 
  -94217   -94213   -94215   -94221   -94223   -94221   -94224   -94225 
  -94228   -94234   -94231   -94216   -94201   -94188   -94182   -94184 
  -94186   -94186   -94184   -94177   -94169   -94162   -94163   -94173 
  -94192   -94215   -94238   -94257   -94278   -94297   -94301   -94305 
  -94321   -94340   -94355   -94362   -94363   -94365   -94370   -94375 
  -94374   -94371   -94377   -94390   -94401   -94402   -94404   -94417 
  -94425   -94419   -94405   -94390   -94374   -94358   -94344   -94331 
  -94305   -94269   -94231   -94196   -94174   -94161   -94142   -94119 
  -94099   -94085   -94074   -94059   -94046   -94045   -94054   -94065 
  -94072   -94076   -94080   -94084   -94085   -94088   -94086   -94077 
  -94066   -94055   -94051   -94058   -94065   -94062   -94053   -94042 
  -94041   -94053   -94072   -94092   -94117   -94142   -94165   -94188 
  -94208   -94228   -94250   -94269   -94285   -94302   -94319   -94333 
  -94350   -94360   -94363   -94367   -94371   -94375   -94385   -94393 
  -94400   -94406   -94410   -94409   -94409   -94405   -94397   -94390 
  -94379   -94363   -94350   -94339   -94327   -94319   -94316   -94311 
  -94300   -94285   -94269   -94258   -94251   -94248   -94247   -94246 
  -94244   -94246   -94247   -94247   -94240   -94230   -94230   -94238 
  -94242   -94242   -94239   -94228   -94219   -94219   -94220   -94219 
  -94219   -94217   -94211   -94200   -94188   -94178   -94173   -94173 
  -94174   -94174   -94170   -94167   -94171   -94177   -94180   -94185 
  -94193   -94198   -94204   -94204   -94203   -94207   -94212   -94209 
  -94193   -94171   -94157   -94154   -94161   -94174   -94177   -94161 
  -94135   -94120   -94116   -94115   -94108   -94103   -94097   -94093 
  -94086   -94082   -94076   -94059   -94043   -94038   -94043   -94059 
  -94072   -94073   -94074   -94080   -94084   -94092   -94104   -94112 
  -94120   -94134   -94153   -94171   -94182   -94188   -94196   -94213 
  -94235   -94252   -94257   -94255   -94265   -94277   -94282   -94284 
  -94284   -94282   -94285   -94297   -94308   -94313   -94319   -94324 
  -94336   -94348   -94344   -94328   -94317   -94320   -94331   -94340 
  -94338   -94320   -94300   -94285   -94275   -94271   -94271   -94259 
  -94234   -94203   -94173   -94149   -94136   -94130   -94126   -94123 
  -94117   -94109   -94108   -94115   -94122   -94131   -94142   -94162 
  -94193   -94224   -94240   -94248   -94258   -94266   -94275   -94288 
  -94293   -94290   -94286   -94288   -94294   -94292   -94284   -94289 
  -94296   -94293   -94292   -94297   -94292   -94279   -94279   -94297 
  -94320   -94336   -94342   -94338   -94331   -94336   -94350   -94352 
  -94355   -94367   -94381   -94390   -94402   -94413   -94424   -94437 
  -94450   -94462   -94483   -94500   -94509   -94514   -94509   -94489 
  -94467   -94451   -94435   -94408   -94373   -94336   -94297   -94259 
  -94228   -94204   -94189   -94181   -94177   -94180   -94171   -94155 
  -94146   -94142   -94146   -94157   -94155   -94134   -94109   -94090 
  -94070   -94059   -94061   -94058   -94043   -94030   -94023   -94019 
  -94020   -94026   -94030   -94031   -94032   -94038   -94054   -94073 
  -94089   -94093   -94090   -94090   -94084   -94072   -94066   -94058 
  -94049   -94043   -94031   -94014   -94008   -94009   -94011   -94023 
  -94045   -94058   -94069   -94089   -94108   -94123   -94136   -94153 
  -94176   -94201   -94219   -94234   -94250   -94262   -94270   -94278 
  -94285   -94290   -94300   -94319   -94339   -94355   -94366   -94379 
  -94400   -94419   -94436   -94450   -94454   -94456   -94467   -94478 
  -94482   -94482   -94475   -94467   -94468   -94474   -94471   -94464 
  -94448   -94428   -94413   -94396   -94375   -94365   -94348   -94320 
  -94293   -94270   -94248   -94231   -94215   -94201   -94186   -94169 
  -94157   -94151   -94144   -94132   -94117   -94101   -94090   -94090 
  -94099   -94100   -94085   -94066   -94053   -94043   -94038   -94042 
  -94049   -94057   -94063   -94066   -94068   -94073   -94074   -94072 
  -94072   -94072   -94058   -94041   -94031   -94032   -94043   -94057 
  -94062   -94058   -94053   -94057   -94072   -94086   -94099   -94108 
  -94122   -94140   -94159   -94181   -94200   -94217   -94239   -94258 
  -94277   -94301   -94321   -94328   -94329   -94332   -94332   -94332 
  -94332   -94327   -94319   -94306   -94294   -94292   -94294   -94297 
  -94294   -94284   -94273   -94273   -94282   -94286   -94278   -94269 
  -94270   -94277   -94290   -94306   -94321   -94338   -94359   -94379 
  -94396   -94408   -94412   -94412   -94423   -94432   -94433   -94437 
  -94440   -94436   -94431   -94420   -94405   -94392   -94370   -94342 
  -94315   -94293   -94274   -94257   -94242   -94228   -94209   -94189 
  -94177   -94174   -94177   -94177   -94162   -94146   -94142   -94146 
  -94155   -94166   -94165   -94155   -94146   -94142   -94143   -94147 
  -94154   -94159   -94161   -94151   -94146   -94151   -94162   -94167 
  -94163   -94154   -94144   -94136   -94127   -94120   -94119   -94120 
  -94117   -94107   -94096   -94093   -94090   -94092   -94099   -94104 
  -94103   -94103   -94111   -94122   -94128   -94126   -94126   -94134 
  -94151   -94169   -94185   -94198   -94207   -94217   -94239   -94262 
  -94279   -94300   -94321   -94336   -94354   -94370   -94377   -94382 
  -94392   -94401   -94410   -94424   -94433   -94432   -94427   -94424 
  -94419   -94423   -94444   -94462   -94473   -94489   -94506   -94514 
  -94517   -94518   -94524   -94536   -94545   -94549   -94548   -94545 
  -94536   -94522   -94504   -94477   -94446   -94423   -94412   -94397 
  -94371   -94343   -94320   -94297   -94271   -94248   -94231   -94213 
  -94189   -94158   -94127   -94101   -94081   -94062   -94041   -94023 
  -94014   -94001   -93991   -93985   -93974   -93962   -93954   -93950 
  -93946   -93942   -93937   -93935   -93935   -93927   -93910   -93896 
  -93895   -93893   -93891   -93888   -93888   -93889   -93888   -93889 
  -93901   -93924   -93945   -93957   -93962   -93968   -93977   -93993 
  -94014   -94030   -94041   -94049   -94063   -94078   -94095   -94122 
  -94150   -94173   -94190   -94205   -94216   -94230   -94246   -94259 
  -94269   -94271   -94271   -94281   -94296   -94311   -94325   -94339 
  -94343   -94340   -94347   -94367   -94381   -94373   -94360   -94356 
  -94367   -94386   -94393   -94387   -94386   -94389   -94397   -94406 
  -94409   -94408   -94410   -94419   -94429   -94431   -94431   -94440 
  -94452   -94460   -94471   -94485   -94487   -94487   -94495   -94504 
  -94501   -94490   -94481   -94470   -94463   -94458   -94450   -94435 
  -94419   -94405   -94389   -94369   -94336   -94301   -94271   -94250 
  -94236   -94225   -94209   -94188   -94159   -94127   -94096   -94069 
  -94057   -94049   -94039   -94034   -94031   -94027   -94022   -94018 
  -94004   -93989   -93978   -93970   -93968   -93962   -93951   -93946 
  -93946   -93949   -93949   -93935   -93918   -93916   -93923   -93927 
  -93939   -93960   -93977   -93995   -94016   -94043   -94077   -94116 
  -94142   -94157   -94176   -94200   -94228   -94254   -94277   -94297 
  -94311   -94325   -94352   -94375   -94397   -94417   -94428   -94437 
  -94455   -94474   -94485   -94493   -94502   -94510   -94518   -94527 
  -94536   -94541   -94544   -94544   -94543   -94535   -94518   -94497 
  -94474   -94455   -94435   -94406   -94373   -94338   -94306   -94281 
  -94252   -94230   -94216   -94198   -94167   -94130   -94095   -94074 
  -94068   -94057   -94028   -93992   -93969   -93966   -93970   -93981 
  -93991   -93980   -93961   -93960   -93980   -94001   -94011   -94014 
  -94018   -94026   -94039   -94053   -94059   -94066   -94078   -94096 
  -94119   -94146   -94170   -94194   -94220   -94244   -94271   -94308 
  -94355   -94404   -94451   -94493   -94525   -94551   -94571   -94594 
  -94617   -94633   -94644   -94651   -94649   -94641   -94622   -94598 
  -94575   -94556   -94536   -94512   -94493   -94479   -94455   -94425 
  -94404   -94382   -94352   -94323   -94297   -94277   -94257   -94234 
  -94213   -94192   -94167   -94139   -94113   -94096   -94082   -94072 
  -94066   -94065   -94057   -94042   -94014   -93972   -93949   -93945 
  -93934   -93915   -93900   -93879   -93858   -93857   -93861   -93866 
  -93872   -93874   -93877   -93881   -93885   -93896   -93920   -93953 
  -93982   -94005   -94027   -94055   -94088   -94124   -94169   -94211 
  -94232   -94244   -94261   -94277   -94293   -94305   -94315   -94323 
  -94329   -94328   -94320   -94313   -94308   -94301   -94297   -94297 
  -94290   -94271   -94251   -94236   -94219   -94203   -94198   -94203 
  -94208   -94204   -94190   -94178   -94178   -94184   -94190   -94194 
  -94200   -94207   -94200   -94190   -94192   -94203   -94212   -94219 
  -94220   -94230   -94239   -94236   -94232   -94235   -94235   -94232 
  -94235   -94238   -94235   -94228   -94227   -94236   -94247   -94258 
  -94266   -94273   -94286   -94305   -94329   -94344   -94352   -94363 
  -94378   -94396   -94412   -94419   -94421   -94423   -94410   -94389 
  -94374   -94362   -94351   -94340   -94317   -94285   -94257   -94232 
  -94208   -94190   -94182   -94171   -94147   -94119   -94101   -94093 
  -94092   -94092   -94081   -94063   -94050   -94041   -94030   -94018 
  -94008   -94003   -94001   -94001   -94007   -94014   -94022   -94034 
  -94042   -94046   -94047   -94058   -94076   -94096   -94117   -94134 
  -94136   -94132   -94139   -94161   -94190   -94219   -94234   -94247 
  -94271   -94301   -94331   -94358   -94387   -94425   -94462   -94490 
  -94505   -94509   -94509   -94510   -94524   -94547   -94560   -94558 
  -94548   -94535   -94512   -94481   -94459   -94452   -94447   -94435 
  -94421   -94404   -94382   -94360   -94340   -94327   -94323   -94316 
  -94300   -94278   -94257   -94238   -94228   -94219   -94198   -94182 
  -94174   -94169   -94165   -94162   -94157   -94153   -94154   -94157 
  -94153   -94147   -94151   -94155   -94161   -94174   -94189   -94200 
  -94205   -94204   -94205   -94215   -94217   -94213   -94217   -94223 
  -94219   -94215   -94216   -94212   -94205   -94201   -94198   -94201 
  -94207   -94208   -94207   -94211   -94215   -94221   -94232   -94232 
  -94236   -94251   -94266   -94279   -94289   -94285   -94270   -94265 
  -94269   -94275   -94279   -94282   -94281   -94269   -94261   -94267 
  -94271   -94265   -94258   -94251   -94247   -94254   -94257   -94258 
  -94261   -94258   -94250   -94246   -94243   -94234   -94225   -94216 
  -94205   -94192   -94176   -94157   -94140   -94128   -94117   -94105 
  -94095   -94081   -94063   -94053   -94050   -94050   -94051   -94058 
  -94066   -94077   -94104   -94131   -94146   -94150   -94154   -94163 
  -94181   -94200   -94212   -94217   -94215   -94201   -94186   -94185 
  -94190   -94184   -94159   -94134   -94124   -94126   -94126   -94126 
  -94128   -94127   -94120   -94113   -94115   -94120   -94130   -94135 
  -94130   -94112   -94096   -94088   -94085   -94084   -94081   -94074 
  -94070   -94068   -94066   -94070   -94081   -94089   -94092   -94090 
  -94097   -94116   -94136   -94158   -94181   -94207   -94238   -94277 
  -94315   -94346   -94379   -94417   -94456   -94493   -94521   -94535 
  -94541   -94549   -94566   -94591   -94609   -94617   -94626   -94636 
  -94640   -94639   -94626   -94603   -94575   -94547   -94524   -94509 
  -94495   -94477   -94452   -94419   -94382   -94354   -94340   -94338 
  -94338   -94331   -94311   -94290   -94270   -94252   -94242   -94227 
  -94205   -94186   -94171   -94161   -94143   -94117   -94092   -94073 
  -94053   -94039   -94039   -94035   -94022   -94014   -94015   -94024 
  -94046   -94068   -94078   -94082   -94093   -94112   -94140   -94169 
  -94185   -94192   -94196   -94197   -94192   -94186   -94186   -94190 
  -94192   -94194   -94198   -94194   -94186   -94180   -94176   -94174 
  -94169   -94165   -94176   -94186   -94184   -94177   -94171   -94162 
  -94157   -94155   -94154   -94161   -94174   -94180   -94167   -94153 
  -94147   -94143   -94142   -94151   -94155   -94151   -94153   -94143 
  -94122   -94119   -94132   -94140   -94135   -94126   -94127   -94140 
  -94158   -94173   -94182   -94186   -94189   -94190   -94196   -94200 
  -94189   -94184   -94190   -94197   -94200   -94204   -94208   -94213 
  -94216   -94224   -94244   -94269   -94292   -94315   -94333   -94355 
  -94382   -94404   -94416   -94428   -94443   -94456   -94466   -94475 
  -94486   -94490   -94486   -94491   -94512   -94528   -94533   -94536 
  -94540   -94540   -94535   -94527   -94517   -94504   -94486   -94473 
  -94452   -94424   -94394   -94360   -94328   -94309   -94292   -94275 
  -94262   -94243   -94224   -94215   -94213   -94216   -94221   -94217 
  -94201   -94184   -94171   -94157   -94138   -94124   -94117   -94103 
  -94081   -94070   -94066   -94054   -94038   -94018   -93997   -93980 
  -93965   -93958   -93958   -93958   -93961   -93966   -93969   -93972 
  -93969   -93961   -93961   -93972   -93988   -94009   -94024   -94024 
  -94023   -94028   -94036   -94050   -94065   -94074   -94081   -94092 
  -94101   -94109   -94117   -94127   -94138   -94146   -94153   -94157 
  -94161   -94169   -94181   -94200   -94217   -94221   -94228   -94242 
  -94247   -94250   -94257   -94267   -94278   -94282   -94285   -94296 
  -94305   -94312   -94317   -94325   -94333   -94344   -94348   -94344 
  -94347   -94355   -94356   -94360   -94370   -94370   -94369   -94366 
  -94359   -94358   -94354   -94340   -94335   -94327   -94309   -94302 
  -94302   -94297   -94290   -94288   -94289   -94290   -94284   -94269 
  -94263   -94267   -94270   -94274   -94278   -94270   -94254   -94250 
