Origin Time       2024/04/02 04:24:00
Lat.              40.133
Long.             141.712
Depth. (km)       71
Mag.              6.0
Station Code      FKSH11
Station Lat.      37.2006
Station Long.     140.3386
Station Height(m) 170.5
Record Time       2024/04/02 04:25:25
Sampling Freq(Hz) 100Hz
Duration Time(s)  178
Dir.              2
Scale Factor      2942(gal)/8224139
Max. Acc. (gal)   1.093
Last Correction   2024/04/02 04:25:25
Memo.             
[...]
   35820    35893    35937    35847    35758    35746    35745    35700 
   35629    35614    35772    36039    36151    36159    36266    36298 
   36212    36186    36193    36194    36155    36030    35918    35784 
   35645    35723    35945    36097    36234    36439    36521    36277 
   35981    35903    35883    35858    35891    35942    35941    35756 
   35444    35266    35251    35298    35403    35514    35534    35505 
   35565    35691    35742    35726    35711    35692    35653    35588 
   35554    35607    35695    35814    35918    35881    35811    35793 
   35721    35669    35641    35498    35476    35633    35708    35847 
   36077    36082    36018    36073    36086    36144    36274    36269 
   36108    35818    35590    35623    35629    35487    35473    35468 
   35256    35082    35127    35222    35253    35301    35453    35669 
   35735    35595    35532    35622    35715    35846    35989    36070 
   36142    36217    36259    36229    36188    36204    36197    36165 
   36117    35995    35984    36139    36117    35985    36003    36053 
   36161    36316    36327    36305    36342    36378    36391    36346 
   36304    36304    36224    36053    35908    35842    35814    35706 
   35634    35762    35829    35800    35869    35741    35438    35467 
   35727    35862    35991    36173    36115    35814    35635    35722 
   35908    36007    35972    35907    35919    35943    35822    35706 
   35856    36113    36235    36209    36086    35973    35970    36050 
   36103    36153    36269    36350    36200    35873    35766    35942 
   36016    35989    36045    36077    36126    36205    36096    35891 
   35776    35696    35718    35849    35842    35704    35688    35776 
   35869    35928    35914    35966    36047    35954    35860    35872 
   35814    35753    35837    35915    35884    35806    35677    35529 
   35526    35716    35847    35874    35962    35889    35592    35478 
   35518    35394    35290    35406    35576    35687    35688    35542 
   35438    35507    35645    35811    35970    35957    35826    35725 
   35586    35475    35580    35792    35973    36140    36209    36096 
   35962    35927    35806    35588    35502    35478    35456    35591 
   35768    35815    35785    35743    35819    35978    36051    36143 
   36216    36104    36066    36305    36548    36483    36205    36063 
   36078    36043    36009    36019    35889    35688    35594    35563 
   35646    35811    35726    35448    35376    35426    35357    35318 
   35415    35610    35910    36165    36162    35972    35803    35820 
   36009    36123    36150    36208    36301    36424    36402    36221 
   36163    36212    36163    36104    36076    35999    35943    35792 
   35564    35646    35888    35904    35889    35954    35926    35903 
   35970    36024    36036    36020    36032    36055    35922    35681 
   35548    35563    35688    35868    35959    35982    36011    35920 
   35753    35665    35568    35480    35527    35660    35691    35478 
   35222    35217    35297    35284    35324    35382    35328    35282 
   35363    35498    35610    35735    35849    35853    35860    36003 
   36053    35843    35694    35791    35857    35783    35807    35962 
   36058    36073    36046    35978    35920    35878    35850    35851 
   35881    35919    35878    35773    35714    35727    35856    36117 
   36321    36293    36116    35949    35846    35789    35729    35770 
   36059    36467    36701    36644    36425    36227    36078    35945 
   35965    36154    36204    36059    35976    35999    36078    36153 
   36153    36154    36134    36026    35896    35766    35742    35884 
   36016    36136    36239    36240    36296    36402    36327    36057 
   35793    35696    35711    35721    35712    35649    35644    35816 
   35887    35781    35807    35897    35905    35919    35881    35716 
   35491    35299    35239    35233    35284    35527    35752    35845 
   36005    36115    36028    35946    35982    36094    36155    36045 
   35939    35991    36020    35954    35816    35712    35883    36162 
   36184    35969    35743    35630    35540    35476    35594    35665 
   35559    35646    35988    36205    36181    36089    36103    36175 
   36119    35982    35853    35637    35417    35332    35336    35387 
   35459    35514    35642    35869    35947    35899    35986    36105 
   36196    36346    36331    36050    35797    35642    35456    35421 
   35598    35752    35814    35721    35449    35332    35448    35532 
   35542    35511    35472    35625    35861    35878    35856    36036 
   36243    36336    36347    36193    35903    35646    35475    35523 
   35780    35947    36013    36130    36186    36121    36109    36211 
   36347    36537    36733    36872    36995    36957    36667    36444 
   36505    36629    36632    36559    36455    36321    36186    36124 
   36111    36007    35907    35912    35877    35742    35456    35166 
   35191    35367    35495    35708    35961    36093    36158    36232 
   36240    36186    36189    36255    36301    36248    36158    36200 
   36312    36283    36184    36178    36258    36447    36682    36695 
   36506    36391    36417    36397    36242    36196    36286    36251 
   36216    36279    36146    35926    35992    36188    36165    36036 
   36045    36107    36081    35949    35826    35841    35876    35846 
   35905    36016    35907    35668    35607    35604    35441    35221 
   35031    34867    34805    34877    35081    35444    35757    35746 
   35638    35672    35675    35707    35907    35953    35675    35328 
   35110    35116    35222    35259    35417    35657    35595    35340 
   35282    35372    35355    35197    35050    34923    34686    34503 
   34631    34886    34959    35044    35318    35500    35471    35330 
   35098    34897    34801    34753    34780    34855    34942    35105 
   35256    35284    35253    35194    35087    34956    34800    34744 
   34858    34877    34820    35001    35303    35465    35517    35565 
   35653    35721    35783    35900    35965    35993    36067    35996 
   35823    35847    36053    36306    36526    36672    36729    36549 
   36103    35800    35920    36050    36012    36070    36032    35887 
   36034    36250    36225    36194    36169    36049    35993    35932 
   35677    35280    35062    35263    35614    35873    36163    36518 
   36802    36786    36420    36022    35872    35943    36093    36239 
   36293    36217    36086    35942    35793    35752    35946    36279 
   36432    36325    36119    35937    36032    36532    37134    37563 
   37697    37585    37439    37237    36906    36686    36706    36697 
   36563    36487    36520    36640    36725    36545    36319    36367 
   36440    36374    36339    36306    36112    35729    35353    35144 
   35151    35465    35930    36258    36428    36383    36073    35819 
   35772    35702    35614    35525    35256    34946    34801    34778 
   34963    35418    35943    36401    36624    36409    35989    35789 
   35873    36080    36259    36352    36383    36223    35914    35901 
   36201    36336    36250    36136    36001    35839    35652    35653 
   36094    36724    37152    37265    37062    36660    36333    36256 
   36306    36306    36305    36402    36478    36369    36005    35428 
   34897    34655    34674    34803    34893    34794    34603    34681 
   35213    35869    36190    36124    35815    35448    35411    35779 
   36198    36444    36417    36117    35773    35552    35328    35017 
   34825    34834    34839    34819    34838    34932    35291    35854 
   36319    36517    36379    36159    36147    36182    36132    36116 
   36099    36009    35946    35931    35945    35988    35927    35714 
   35533    35519    35564    35473    35298    35278    35340    35255 
   35224    35382    35378    35229    35347    35588    35668    35685 
   35576    35259    34915    34647    34511    34514    34555    34700 
   34893    34838    34739    34955    35093    34839    34657    34905 
   35414    35926    36267    36428    36552    36643    36501    36136 
   35900    35939    36085    36134    35843    35256    34722    34503 
   34867    35522    35635    35376    35471    35742    35829    35791 
   35861    36356    37135    37633    37644    37408    37234    37273 
   37450    37662    37843    37708    37376    37249    37065    36595 
   36112    35893    36136    36690    37061    37071    36930    36791 
   36678    36525    36248    35953    35915    36123    36224    36247 
   36483    36713    36729    36848    37129    37106    36678    36278 
   36043    35742    35496    35488    35554    35671    35830    35970 
   36236    36456    36378    36225    36166    36190    36370    36714 
   37192    37806    38341    38473    38264    38033    37854    37623 
   37439    37455    37404    37037    36624    36213    35687    35345 
   35241    35100    34956    34966    35230    35749    36121    36127 
   35989    35745    35379    34952    34493    34200    34153    34223 
   34250    34146    34044    33955    33754    33631    33781    33868 
   33627    33399    33531    33880    34168    34477    34893    35085 
   34974    34884    34871    34805    34804    34996    35244    35453 
   35554    35391    35028    34668    34403    34306    34373    34570 
   34794    34878    34946    35187    35453    35526    35283    34896 
   34708    34722    34871    35117    35338    35699    36228    36587 
   36668    36525    36248    36148    36293    36352    36367    36576 
   36798    36945    37165    37332    37312    37034    36486    36043 
   35977    36076    36165    36305    36522    36702    36906    37222 
   37245    36748    36258    36132    36251    36524    36803    36922 
   36884    36753    36670    36688    36695    36610    36486    36539 
   36803    37123    37413    37396    37119    37180    37415    37164 
   36589    36084    35758    35704    35757    35757    35746    35699 
   35685    35804    35988    36236    36458    36393    36278    36549 
   36900    36971    36913    36795    36560    36167    35608    35033 
   34686    34692    34948    35194    35259    35303    35455    35433 
   35091    34808    34825    34859    34798    34871    34992    34982 
   34928    34893    35000    35337    35634    35696    35614    35394 
   34996    34595    34466    34738    35176    35473    35664    35820 
   35862    35746    35703    36019    36505    36822    36834    36447 
   35930    35773    35804    35691    35741    36040    36209    36227 
   36298    36381    36363    36283    36159    35926    35770    35811 
   35851    35837    35812    35880    36146    36451    36567    36394 
   35991    35590    35467    35494    35243    34757    34506    34704 
   35086    35194    34952    34843    34965    35009    35144    35442 
   35648    35829    35965    35849    35591    35364    35311    35536 
   35687    35484    35240    35268    35511    35846    36097    36103 
   35974    35838    35689    35468    35241    35183    35193    35203 
   35510    36104    36509    36575    36456    36126    35652    35365 
   35583    36115    36472    36628    36571    36182    35757    35571 
   35591    35721    35876    36080    36296    36285    35992    35554 
   35127    34879    34751    34615    34519    34555    34746    34858 
   34797    34840    35163    35727    36211    36297    36265    36370 
   36427    36487    36803    37316    37666    37786    37912    37801 
   37361    37134    37162    36991    36707    36664    36768    36791 
   36695    36536    36316    36136    36335    36857    37158    37102 
   36994    36981    36931    36675    36405    36443    36621    36734 
   36902    37071    37146    37207    37187    37110    37026    36544 
   35685    35124    35014    35255    35877    36576    37035    37197 
   37245    37246    36894    36308    35811    35375    35125    35178 
   35178    34813    34433    34411    34588    34766    35033    35365 
   35507    35490    35424    35175    34889    34877    35085    35191 
   35127    35035    34977    34966    34950    34924    34933    34896 
   34839    34786    34624    34472    34480    34597    34839    35176 
   35519    36040    36718    37052    36892    36560    36266    36175 
   36406    36852    37095    36794    36265    35950    35974    36351 
   36726    36701    36421    36036    35357    34546    34237    34619 
   35275    35893    36356    36556    36486    36205    35830    35633 
   35812    36251    36728    36931    36587    35937    35527    35618 
   35991    36190    36140    36047    35777    35334    35064    34927 
   34908    35311    35766    35649    35208    35035    35120    35087 
   35144    35785    36574    36850    36882    36857    36713    36721 
   36705    36412    36231    36212    36165    36323    36393    35779 
   35001    34848    34917    34624    34288    34281    34531    34909 
   35290    35537    35590    35572    35698    35760    35401    35024 
   35058    35236    35480    35862    36124    36310    36568    36657 
   36675    36730    36447    35962    35602    35221    35016    35171 
   35357    35652    36312    36918    37154    37300    37444    37365 
   37041    36628    36405    36616    36904    36992    37096    37107 
   36907    36760    36752    36590    35972    35002    33993    33177 
   32815    33012    33613    34400    35140    35646    35872    35964 
   35962    35712    35505    35627    35847    35949    35870    35692 
   35487    35167    34839    34881    35229    35355    35237    35214 
   35270    35284    35375    35630    35903    36059    36105    36115 
   36107    36259    36760    37270    37575    37855    37956    37710 
   37300    36921    36632    36240    35664    35392    35775    36474 
   37081    37407    37282    36610    35815    35436    35279    35101 
   35051    35137    35329    35583    35665    35505    35413    35596 
   35748    35478    34830    34276    34157    34211    34165    34179 
   34474    35148    35904    36225    36066    35685    35275    34948 
   34840    35181    35834    36278    36270    35932    35546    35399 
   35436    35455    35491    35642    35962    36201    36030    35780 
   35986    36564    37157    37611    37883    37862    37625    37577 
   37752    37720    37309    36782    36423    36155    35962    35995 
   35941    35718    35876    36309    36224    35677    35459    35594 
   35665    35727    35905    36019    35829    35460    35316    35568 
   36024    36398    36549    36451    36347    36483    36590    36413 
   36051    35814    36193    36877    37049    37156    37789    38159 
   37875    37435    36799    36009    35590    35573    35791    36108 
   36198    36112    36123    36169    36304    36545    36443    36119 
   36228    36464    36278    35931    35729    35692    35777    35907 
   35989    35946    35837    35640    35268    34975    35029    35284 
   35557    35748    35662    35379    35040    34526    34067    33943 
   33936    33964    34183    34435    34412    34273    34299    34344 
   34438    34781    35187    35436    35432    35147    34836    34769 
   34958    35295    35600    35580    35132    34626    34268    33921 
   33910    34460    34888    34749    34373    34123    34230    34601 
   35010    35550    36211    36737    37025    37089    37022    36911 
   36822    36922    37246    37558    37551    37211    36922    36868 
   36886    36892    36705    36328    36333    36733    36895    36748 
   36540    36437    36532    36721    37030    37334    37131    36672 
   36676    36796    36549    36383    36477    36471    36320    36008 
   35580    35367    35256    35052    35128    35565    35926    35937 
   35780    35835    36059    36059    35699    35182    34807    34599 
   34518    34638    34726    34630    34554    34634    34855    34917 
   34708    34665    34800    34782    34678    34649    34894    35432 
   35722    35530    35268    35256    35661    36491    37326    37687 
   37613    37374    37031    36794    36788    36590    36120    35820 
   35688    35638    35868    36200    36413    36660    36849    36655 
   36190    35872    35878    36157    36549    36802    36877    36867 
   36726    36537    36409    36477    36818    37053    36983    36832 
   36698    36602    36435    36147    36150    36417    36366    36078 
   35862    35768    35973    36243    36304    36474    36749    36736 
   36562    36585    36590    36379    36304    36208    35757    35515 
   35784    36026    36007    35833    35506    35271    35348    35548 
   35789    35985    35783    35114    34479    34473    34951    35344 
   35572    35675    35525    35299    35128    34743    34157    33858 
   33974    34101    34134    34246    34280    34314    34753    35330 
   35602    35862    36275    36505    36622    36760    36601    36134 
   35816    35916    36332    36694    36744    36656    36543    36499 
   36651    36759    36699    36643    36582    36370    36090    35988 
   35928    35625    35445    35823    36251    36121    35804    35885 
   36054    35781    35230    34565    33839    33562    34002    34720 
   35320    35784    36127    36158    35869    35691    35668    35482 
   35320    35316    35210    35001    34839    34854    35079    35236 
   35226    35189    34935    34523    34387    34443    34607    35112 
   35726    36197    36666    36985    37010    36969    36840    36621 
   36612    36740    36742    36628    36455    36283    36047    35661 
   35441    35603    35838    35937    35827    35424    35083    35243 
   35698    35981    36016    36147    36412    36308    35922    35835 
   35991    36128    36385    36817    37179    37336    37308    36942 
   36267    35773    35696    35818    36130    36555    36633    36437 
   36520    36834    37104    37427    37674    37582    37415    37388 
   37187    36886    36867    36984    37022    36811    36363    36285 
   36660    36887    36954    37092    37041    36809    36693    36432 
   35856    35527    35668    35826    35685    35260    34982    35322 
   35934    36231    36246    36134    35893    35503    34871    34279 
   34121    34371    34852    35243    35310    35286    35206    34896 
   34635    34717    34862    34711    34369    34175    34265    34506 
   34685    34925    35515    36188    36506    36505    36269    35889 
   35700    35939    36375    36502    36294    36279    36522    36547 
   36321    36216    36213    36205    36342    36402    35995    35455 
   35278    35278    35388    35637    35575    35376    35484    35479 
   35276    35283    35310    35083    34784    34650    34603    34554 
   34805    35279    35494    35529    35658    35802    35885    35896 
   35725    35503    35503    35556    35465    35376    35395    35623 
   36051    36289    36229    36281    36483    36657    36813    36742 
   36355    35959    35789    35951    36342    36508    36309    36096 
   36132    36390    36629    36659    36644    36726    36732    36498 
   36066    35708    35698    35856    36023    36425    36933    37192 
   37231    37115    36933    36956    37029    36649    35814    34952 
