Origin Time       2024/04/02 04:24:00
Lat.              40.133
Long.             141.712
Depth. (km)       71
Mag.              6.0
Station Code      FKSH17
Station Lat.      37.6636
Station Long.     140.5974
Station Height(m) 205
Record Time       2024/04/02 04:25:18
Sampling Freq(Hz) 100Hz
Duration Time(s)  120
Dir.              5
Scale Factor      7845(gal)/8223790
Max. Acc. (gal)   4.274
Last Correction   2024/04/02 04:25:19
Memo.             
[...]
  -10710   -10689   -10864   -11043   -11076   -11095   -11079   -10959 
  -10810   -10692   -10635   -10693   -10862   -11079   -11307   -11358 
  -11017   -10604   -10539   -10666   -10737   -10786   -10829   -10844 
  -10822   -10798   -10837   -10855   -10841   -10995   -11210   -11215 
  -11167   -11117   -10909   -10758   -10800   -10859   -10906   -10905 
  -10766   -10490   -10189   -10052   -10130   -10405   -10844   -11095 
  -10944   -10725   -10566   -10363   -10347   -10633   -10991   -11249 
  -11315   -11163   -10956   -10902   -11037   -11140   -11079   -10983 
  -10781   -10405   -10206   -10269   -10311   -10343   -10381   -10260 
  -10176   -10282   -10347   -10401   -10621   -10833   -10955   -11171 
  -11364   -11259   -11014   -10822   -10566   -10386   -10509   -10727 
  -10771   -10655   -10476   -10292   -10231   -10324   -10458   -10624 
  -10814   -10912   -10891   -10831   -10782   -10675   -10551   -10694 
  -11009   -11151   -11213   -11256   -11153   -11001   -10808   -10619 
  -10639   -10713   -10697   -10677   -10535   -10300   -10278   -10459 
  -10654   -10832   -10929   -10871   -10729   -10534   -10353   -10392 
  -10660   -10999   -11298   -11427   -11358   -11244   -11203   -11206 
  -11125   -10956   -10837   -10812   -10849   -10885   -10817   -10694 
  -10606   -10508   -10395   -10335   -10434   -10636   -10692   -10647 
  -10642   -10579   -10582   -10720   -10751   -10713   -10723   -10731 
  -10872   -11138   -11168   -10933   -10750   -10675   -10710   -10851 
  -10844   -10685   -10652   -10679   -10700   -10889   -11090   -11078 
  -11013   -10955   -10878   -10914   -10951   -10883   -10935   -10998 
  -10793   -10525   -10381   -10260   -10141    -9990    -9861    -9909 
  -10044   -10165   -10376   -10660   -10845   -10875   -10970   -11233 
  -11402   -11437   -11470   -11361   -11202   -11230   -11261   -11146 
  -10986   -10768   -10566   -10415   -10179   -10010   -10125   -10370 
  -10605   -10732   -10674   -10590   -10621   -10782   -10993   -10929 
  -10602   -10473   -10590   -10758   -10920   -10914   -10789   -10714 
  -10542   -10349   -10455   -10663   -10685   -10681   -10802   -11060 
  -11380   -11457   -11129   -10693   -10469   -10574   -10921   -11148 
  -11064   -10926   -10879   -10785   -10636   -10548   -10548   -10590 
  -10623   -10670   -10770   -10882   -10944   -10968   -10908   -10596 
  -10200   -10176   -10417   -10525   -10588   -10710   -10764   -10847 
  -11021   -11091   -11075   -11142   -11200   -11203   -11280   -11353 
  -11346   -11308   -11195   -11028   -10874   -10727   -10658   -10666 
  -10565   -10324   -10161   -10096    -9967    -9865    -9977   -10255 
  -10578   -10906   -11141   -11115   -10963   -11040   -11344   -11587 
  -11658   -11546   -11257   -10989   -10929   -10982   -10939   -10659 
  -10216    -9960    -9994   -10112   -10264   -10331   -10274   -10415 
  -10719   -10895   -11057   -11253   -11335   -11349   -11354   -11349 
  -11341   -11222   -10987   -10832   -10839   -10849   -10706   -10439 
  -10084    -9690    -9533    -9795   -10180   -10417   -10617   -10812 
  -10925   -11048   -11180   -11156   -11022   -10944   -10874   -10866 
  -11142   -11475   -11470   -11246   -10998   -10643   -10273   -10106 
  -10103   -10197   -10463   -10766   -10837   -10725   -10596   -10412 
  -10281   -10458   -10847   -11098   -11167   -11267   -11391   -11317 
  -11053   -10889   -10940   -10882   -10454   -10034   -10087   -10443 
  -10725   -10805   -10617   -10296   -10212   -10480   -10903   -11308 
  -11554   -11526   -11302   -11130   -11052   -10898   -10787   -10804 
  -10700   -10527   -10490   -10482   -10420   -10270   -10057   -10031 
  -10192   -10304   -10326   -10373   -10643   -11056   -11226   -11119 
  -11059   -11218   -11452   -11458   -11362   -11497   -11588   -11341 
  -11128   -11142   -11107   -10893   -10588   -10349   -10176    -9942 
   -9705    -9535    -9490    -9686   -10014   -10314   -10574   -10763 
  -10798   -10710   -10804   -11142   -11372   -11464   -11492   -11388 
  -11381   -11491   -11399   -11098   -10704   -10351   -10260   -10376 
  -10538   -10681   -10764   -10822   -10808   -10690   -10619   -10527 
  -10330   -10239   -10335   -10582   -10960   -11200   -11129   -10909 
  -10693   -10624   -10851   -11229   -11466   -11485   -11357   -11152 
  -10939   -10837   -10855   -10767   -10577   -10536   -10659   -10820 
  -10929   -10875   -10648   -10324   -10104   -10242   -10562   -10694 
  -10675   -10720   -10813   -10864   -10882   -10849   -10725   -10581 
  -10527   -10631   -10840   -10986   -11016   -10941   -10773   -10686 
  -10843   -11103   -11128   -10821   -10528   -10492   -10613   -10785 
  -10875   -10709   -10404   -10316   -10476   -10663   -10860   -10943 
  -10752   -10551   -10581   -10778   -10978   -11005   -10891   -10763 
  -10659   -10647   -10768   -10935   -10982   -10818   -10592   -10492 
  -10488   -10440   -10353   -10331   -10463   -10759   -10989   -10932 
  -10729   -10612   -10652   -10775   -10872   -10990   -11106   -11009 
  -10724   -10566   -10677   -10863   -10906   -10732   -10450   -10380 
  -10621   -10841   -10868   -10818   -10666   -10481   -10585   -10910 
  -11095   -11156   -11173   -11111   -11172   -11322   -11244   -11083 
  -10983   -10727   -10535   -10677   -10804   -10771   -10793   -10797 
  -10709   -10609   -10481   -10447   -10633   -10901   -11124   -11138 
  -10837   -10561   -10515   -10473   -10489   -10693   -10897   -10960 
  -10899   -10763   -10590   -10401   -10309   -10376   -10530   -10713 
  -10866   -10887   -10835   -10828   -10806   -10728   -10644   -10582 
  -10704   -10993   -11142   -11194   -11269   -11219   -11133   -11128 
  -11020   -10706   -10396   -10369   -10565   -10706   -10706   -10596 
  -10474   -10422   -10339   -10214   -10231   -10374   -10504   -10639 
  -10717   -10678   -10648   -10613   -10508   -10531   -10760   -10940 
  -10995   -11095   -11101   -10813   -10593   -10740   -11038   -11337 
  -11518   -11411   -11106   -10782   -10615   -10697   -10827   -10791 
  -10613   -10480   -10609   -10905   -11053   -11013   -10883   -10712 
  -10627   -10633   -10666   -10748   -10678   -10382   -10261   -10489 
  -10743   -10719   -10504   -10323   -10254   -10287   -10346   -10396 
  -10466   -10539   -10673   -10908   -11144   -11330   -11499   -11647 
  -11670   -11641   -11669   -11529   -11261   -11142   -11018   -10886 
  -10912   -10910   -10809   -10623   -10249    -9879    -9713    -9690 
   -9815   -10025   -10216   -10508   -10782   -10806   -10837   -11071 
  -11222   -11229   -11290   -11341   -11342   -11414   -11460   -11438 
  -11442   -11350   -11106   -10746   -10297   -10066   -10081   -10041 
  -10017    -9968    -9742    -9657    -9884   -10242   -10573   -10731 
  -10763   -10752   -10686   -10767   -11105   -11496   -11809   -11885 
  -11473   -10849   -10561   -10492   -10350   -10238   -10089    -9879 
   -9826    -9895    -9975   -10048   -10066   -10173   -10444   -10789 
  -11245   -11610   -11692   -11880   -12131   -12019   -11880   -11928 
  -11763   -11483   -11318   -11036   -10601   -10297   -10180   -10098 
  -10022    -9963    -9949   -10083   -10262   -10316   -10327   -10389 
  -10516   -10713   -10953   -11263   -11535   -11591   -11508   -11392 
  -11279   -11192   -10982   -10732   -10743   -10897   -10975   -10999 
  -10875   -10550   -10235    -9936    -9568    -9489    -9921   -10399 
  -10635   -10835   -10989   -11078   -11238   -11346   -11290   -11144 
  -10994   -11052   -11357   -11574   -11454   -11013   -10485   -10177 
  -10134   -10239   -10435   -10602   -10578   -10389   -10257   -10297 
  -10426   -10606   -10833   -10994   -10991   -10926   -11030   -11211 
  -11101   -10855   -10909   -11191   -11492   -11695   -11543   -11113 
  -10858   -10874   -10848   -10582   -10258   -10100    -9960    -9795 
   -9958   -10323   -10380   -10274   -10311   -10350   -10515   -10991 
  -11441   -11665   -11673   -11407   -11203   -11246   -11206   -11106 
  -11076   -10975   -10837   -10658   -10392   -10274   -10338   -10365 
  -10296   -10242   -10428   -10701   -10627   -10413   -10444   -10551 
  -10579   -10638   -10758   -10917   -11111   -11219   -11187   -11213 
  -11257   -11128   -10991   -10933   -10828   -10762   -10759   -10728 
  -10670   -10602   -10550   -10523   -10494   -10478   -10473   -10444 
  -10424   -10490   -10565   -10578   -10697   -10874   -10966   -11130 
  -11333   -11344   -11223   -11041   -10760   -10558   -10619   -10686 
  -10494   -10341   -10423   -10498   -10477   -10350   -10130   -10008 
  -10065   -10312   -10713   -10945   -10986   -11092   -11134   -11107 
  -11287   -11492   -11484   -11425   -11314   -11022   -10746   -10598 
  -10349    -9998    -9850    -9923   -10000   -10102   -10262   -10285 
  -10214   -10278   -10381   -10567   -11057   -11365   -11142   -10987 
  -11155   -11364   -11599   -11770   -11670   -11435   -11230   -10952 
  -10559   -10204   -10010   -10023   -10183   -10332   -10392   -10362 
  -10262   -10137   -10064   -10156   -10384   -10574   -10716   -10881 
  -11059   -11210   -11205   -10984   -10752   -10598   -10432   -10409 
  -10509   -10412   -10292   -10345   -10284   -10120   -10066   -10133 
  -10315   -10470   -10624   -11071   -11662   -12047   -12222   -12166 
  -11873   -11581   -11421   -11422   -11653   -11989   -12220   -12208 
  -11867   -11264   -10539    -9960    -9840   -10031   -10203   -10296 
  -10346   -10511   -10804   -10910   -10866   -11021   -11407   -11796 
  -12091   -12436   -12812   -13059   -13134   -12858   -12120   -11225 
  -10400    -9688    -9296    -9344    -9705   -10133   -10292   -10125 
  -10041   -10257   -10598   -11060   -11605   -11912   -11966   -12050 
  -12113   -11875   -11394   -10959   -10516   -10000    -9675    -9583 
   -9659    -9913   -10007    -9742    -9370    -8972    -8592    -8402 
   -8446    -8818    -9560   -10480   -11402   -12222   -12812   -12965 
  -12631   -12168   -11857   -11659   -11611   -11607   -11199   -10192 
   -8985    -8095    -7654    -7495    -7392    -7192    -7045    -7315 
   -8210    -9526   -10760   -11587   -12059   -12344   -12536   -12827 
  -13389   -13813   -13643   -13267   -12951   -12316   -11402   -10471 
   -9493    -8665    -8268    -8194    -8293    -8486    -8579    -8676 
   -9174   -10033   -10974   -11782   -12225   -12529   -12930   -13174 
  -13412   -13867   -14145   -14114   -13907   -13333   -12428   -11456 
  -10512    -9624    -8699    -7798    -7371    -7546    -8031    -8626 
   -9138    -9548   -10138   -10820   -11313   -11738   -12120   -12384 
  -12708   -13005   -13072   -13007   -12676   -11812   -10693    -9791 
   -9317    -9374    -9886   -10592   -11287   -11769   -11809   -11360 
  -10621    -9937    -9734   -10277   -11295   -12083   -12185   -11705 
  -10998   -10395   -10011    -9680    -9306    -8932    -8529    -8172 
   -8133    -8634    -9672   -10916   -11823   -12175   -12337   -12580 
  -12756   -12895   -13138   -13350   -13436   -13429   -13185   -12567 
  -11692   -10666    -9591    -8776    -8326    -7969    -7713    -7817 
   -8098    -8197    -8336    -8954    -9909   -10905   -11846   -12428 
  -12490   -12295   -12048   -11774   -11601   -11759   -12040   -11944 
  -11681   -11645   -11410   -10725   -10131    -9848    -9612    -9414 
   -9425    -9686   -10075   -10318   -10353   -10540   -11086   -11641 
  -11826   -11614   -11167   -10808   -10800   -10939   -10964   -10854 
  -10493    -9860    -9227    -8853    -8869    -9305   -10114   -11021 
  -11435   -11198   -10754   -10354   -10098   -10201   -10736   -11530 
  -12252   -12490   -11994   -11053   -10341   -10206   -10656   -11549 
  -12482   -13186   -13478   -13080   -12110   -10804    -9305    -8101 
   -7468    -7337    -7870    -8889    -9706   -10041    -9998    -9675 
   -9477    -9621    -9805   -10122   -10820   -11533   -12104   -12816 
  -13564   -14056   -14265   -14065   -13284   -12185   -11118   -10116 
   -9252    -8785    -8803    -9181    -9661    -9715    -9089    -8448 
   -8302    -8293    -8287    -8542    -9036    -9759   -10847   -12185 
  -13301   -13711   -13486   -13038   -12421   -11781   -11666   -12051 
  -12353   -12449   -12390   -11913   -10989    -9818    -8487    -7296 
   -6804    -7263    -8422    -9825   -11003   -11581   -11564   -11362 
  -11160   -10720   -10235   -10345   -11221   -12549   -13857   -14485 
  -13925   -12379   -10685    -9528    -9121    -9472   -10253   -10828 
  -10894   -10605   -10231    -9976    -9703    -9167    -8675    -8837 
   -9661   -10660   -11538   -12183   -12482   -12411   -12112   -11867 
  -11993   -12492   -13020   -13251   -13046   -12448   -11726   -11101 
  -10481    -9776    -9239    -9223    -9702   -10191   -10292   -10000 
   -9541    -9333    -9722   -10501   -11218   -11722   -11934   -11799 
  -11703   -12129   -12861   -13327   -13397   -13290   -13072   -12398 
  -11029    -9591    -8773    -8486    -8500    -8621    -8577    -8380 
   -8044    -7443    -6890    -7071    -8154    -9645   -11130   -12249 
  -12621   -12495   -12399   -12318   -12143   -12085   -12131   -11975 
  -11639   -11334   -11060   -10821   -10601   -10280    -9795    -9158 
   -8509    -7963    -7568    -7674    -8471    -9640   -10945   -12029 
  -12451   -12519   -12695   -12870   -13159   -13718   -14068   -14087 
  -14170   -14207   -13864   -13134   -12144   -10972    -9730    -8868 
   -8675    -8660    -8440    -8041    -7303    -6492    -6280    -6687 
   -7348    -8050    -8579    -8930    -9466   -10397   -11533   -12600 
  -13478   -14166   -14709   -14967   -14615   -13670   -12636   -11812 
  -11268   -11187   -11281   -10833    -9687    -8402    -7608    -7476 
   -7681    -7885    -7935    -7858    -7996    -8775   -10215   -11769 
  -12707   -12827   -12368   -11599   -11064   -11203   -11720   -12245 
  -12611   -12510   -12047   -11699   -11389   -10889   -10540   -10584 
  -10698   -10694   -10756   -10960   -11292   -11587   -11333   -10578 
  -10243   -10716   -11495   -12047   -12027   -11434   -10690   -10098 
   -9607    -9190    -9027    -9308   -10053   -10993   -11600   -11686 
  -11495   -11227   -11021   -10963   -10978   -10894   -10681   -10598 
  -10751   -11045   -11504   -11777   -11354   -10628   -10395   -10727 
  -11314   -12005   -12480   -12343   -11661   -10822   -10189   -10056 
  -10235   -10092    -9517    -9099    -9171    -9613   -10234   -10714 
  -10852   -10856   -10813   -10760   -11072   -11658   -11919   -11781 
  -11526   -11084   -10484   -10060    -9794    -9605    -9787   -10260 
  -10773   -11352   -11573   -10995    -9944    -8941    -8409    -8719 
   -9738   -10791   -11377   -11488   -11188   -10693   -10619   -11115 
  -11624   -11929   -12244   -12484   -12414   -12083   -11564   -10812 
   -9999    -9428    -9292    -9558    -9923   -10119   -10011    -9798 
  -10004   -10440   -10532   -10455   -10471   -10732   -11545   -12619 
  -13389   -13590   -13069   -12145   -11311   -10642   -10234    -9999 
   -9787    -9956   -10467   -10843   -10924   -10435    -9490    -8930 
   -8946    -9266    -9981   -10723   -11038   -11441   -12322   -13124 
  -13190   -12322   -11018   -10260   -10370   -10872   -11273   -11124 
  -10247    -9100    -8316    -8183    -8499    -8802    -8935    -9113 
   -9425    -9892   -10588   -11273   -11712   -12116   -12495   -12548 
  -12453   -12583   -12830   -12949   -12870   -12487   -11647   -10469 
   -9317    -8411    -7854    -7861    -8364    -8919    -9263    -9416 
   -9358    -9281    -9548   -10075   -10604   -11280   -12237   -13294 
  -14210   -14705   -14532   -13740   -12703   -11824   -11233   -10983 
  -11009   -10905   -10623   -10515   -10423    -9994    -9428    -9069 
   -8895    -8833    -9042    -9576   -10179   -10565   -10650   -10636 
  -10829   -11048   -10943   -10839   -11173   -11762   -12286   -12598 
  -12440   -11759   -11047   -10667   -10515   -10559   -10781   -10805 
  -10454    -9968    -9406    -8843    -8645    -8785    -8829    -8870 
   -9486   -10666   -11713   -12159   -12094   -11935   -12136   -12665 
  -13007   -12966   -12789   -12588   -12301   -11989   -11689   -11237 
  -10525    -9620    -8652    -7970    -7913    -8410    -9139    -9733 
   -9869    -9593    -9335    -9477   -10126   -11241   -12521   -13346 
  -13408   -13053   -12703   -12519   -12735   -13288   -13290   -12320 
  -11238   -10636   -10273    -9930    -9232    -7929    -6696    -6299 
   -6723    -7565    -8378    -9057   -10010   -11090   -11570   -11669 
  -12060   -12502   -12642   -12664   -12626   -12550   -12579   -12532 
  -12083   -11334   -10731   -10422   -10199    -9936    -9553    -9130 
   -9031    -9190    -9128    -9039    -9394    -9850   -10045   -10336 
  -10924   -11610   -12178   -12386   -12258   -12102   -12147   -12384 
  -12445   -12144   -11907   -11944   -11997   -11828   -11331   -10640 
   -9981    -9513    -9450    -9645    -9501    -8912    -8482    -8579 
   -9162   -10062   -10836   -11230   -11381   -11272   -11097   -11406 
  -12210   -12873   -13003   -12764   -12299   -11600   -11087   -10984 
  -10565    -9533    -8660    -8316    -8320    -8692    -9090    -8969 
   -8641    -8850    -9722   -10801   -11543   -11792   -11955   -12359 
  -12760   -12887   -12816   -12622   -12174   -11553   -11182   -11044 
  -10737   -10381   -10137    -9636    -8788    -8066    -7859    -8151 
   -8617    -9138    -9918   -10966   -12048   -12852   -12922   -12247 
  -11641   -11723   -12199   -12675   -13012   -12792   -11843   -10870 
  -10349   -10153   -10195   -10150    -9767    -9402    -9313    -9559 
  -10152   -10708   -10885   -10816   -10882   -11299   -11819   -12050 
  -11890   -11477   -11034   -10724   -10659   -10917   -11281   -11426 
  -11315   -10962   -10362    -9702    -9244    -9158    -9425    -9911 
  -10485   -10875   -10930   -10875   -10791   -10627   -10581   -10735 
  -10918   -11052   -11055   -10836   -10648   -10806   -11076   -11178 
  -11314   -11483   -11391   -11153   -11084   -11214   -11407   -11443 
  -11196   -10905   -10837   -11045   -11523   -11939   -11785   -11241 
  -10872   -10768   -10548    -9972    -9513    -9644   -10066   -10504 
  -10845   -10791   -10519   -10223    -9612    -9059    -9271   -10077 
  -10882   -11287   -11341   -11421   -11562   -11529   -11377   -11334 
  -11331   -11026   -10476   -10231   -10413   -10562   -10584   -10710 
  -10836   -10817   -10561    -9991    -9454    -9262    -9402    -9822 
  -10230   -10400   -10524   -10629   -10569   -10554   -10832   -11241 
  -11535   -11746   -12001   -12241   -12303   -12255   -12251   -12158 
  -11765   -11010   -10050    -9485    -9585    -9836   -10023   -10206 
  -10093    -9751    -9539    -9404    -9290    -9331    -9574   -10048 
  -10593   -11030   -11557   -12243   -12731   -12748   -12376   -11942 
  -11715   -11589   -11321   -10984   -10685   -10266    -9709    -9131 
   -8637    -8370    -8271    -8344    -8851    -9741   -10694   -11502 
  -12125   -12671   -13005   -12916   -12533   -11938   -11187   -10710 
  -10808   -11160   -11304   -11230   -11016   -10501    -9848    -9455 
   -9205    -9035    -9300    -9810   -10192   -10600   -10966   -11198 
  -11504   -11754   -11874   -12023   -12069   -11971   -11874   -11824 
