Origin Time       2024/04/02 04:24:00
Lat.              40.133
Long.             141.712
Depth. (km)       71
Mag.              6.0
Station Code      FKSH11
Station Lat.      37.2006
Station Long.     140.3386
Station Height(m) 170.5
Record Time       2024/04/02 04:25:25
Sampling Freq(Hz) 100Hz
Duration Time(s)  178
Dir.              1
Scale Factor      2942(gal)/8224139
Max. Acc. (gal)   1.017
Last Correction   2024/04/02 04:25:25
Memo.             
[...]
  133054   133069   133243   133423   133543   133698   133824   133775 
  133659   133635   133621   133686   133951   134055   133813   133591 
  133525   133466   133481   133647   133749   133668   133537   133450 
  133424   133432   133404   133328   133284   133367   133474   133400 
  133311   133461   133644   133712   133901   134273   134604   134662 
  134420   134121   133929   133845   133914   134114   134362   134573 
  134698   134765   134715   134461   134198   134104   133971   133724 
  133667   133832   133871   133713   133729   134068   134422   134520 
  134441   134407   134482   134561   134582   134554   134538   134643 
  134842   135037   135182   135189   135081   134955   134713   134376 
  134227   134218   134131   134138   134300   134423   134468   134470 
  134416   134315   134306   134392   134219   133760   133412   133272 
  133266   133432   133604   133573   133439   133339   133346   133497 
  133515   133200   132803   132455   132178   132156   132352   132490 
  132561   132764   132983   132895   132615   132610   132860   133022 
  133104   133142   133047   132953   132950   132941   133051   133402 
  133704   133814   133936   134011   133886   133770   133874   134127 
  134275   134210   134136   134138   134103   134026   134042   134172 
  134200   134094   134079   134111   133979   133779   133714   133779 
  133940   134158   134273   134221   134171   134226   134312   134410 
  134509   134466   134238   134073   134015   133829   133677   133767 
  133860   133822   133682   133443   133234   133138   133143   133270 
  133513   133720   133803   133861   133813   133635   133644   133766 
  133648   133450   133465   133586   133668   133721   133686   133636 
  133763   133905   133833   133660   133470   133249   133064   132999 
  133112   133323   133516   133737   134022   134222   134261   134268 
  134222   133905   133365   132977   133033   133361   133574   133654 
  133758   133820   133786   133752   133822   133894   133832   133772 
  133780   133685   133402   133100   132970   132953   132956   133011 
  133126   133284   133434   133551   133671   133666   133415   133170 
  133208   133493   133837   133982   133780   133521   133448   133405 
  133348   133317   133161   132869   132579   132333   132171   132205 
  132452   132817   133180   133401   133466   133516   133745   134250 
  134851   135276   135479   135492   135392   135357   135409   135410 
  135163   134685   134299   134086   133920   133903   134052   134121 
  134017   133751   133330   132999   132883   132858   133062   133537 
  133937   134150   134316   134435   134518   134550   134291   133768 
  133398   133116   132613   132190   132124   132193   132278   132486 
  132858   133168   133093   132791   132619   132597   132584   132555 
  132657   132929   133151   133296   133424   133461   133542   133733 
  133828   133787   133620   133304   132958   132819   133045   133451 
  133772   133848   133651   133483   133552   133745   134071   134477 
  134704   134662   134478   134323   134352   134487   134412   134169 
  134084   134079   133948   133828   133920   134214   134570   134809 
  134789   134504   134087   133891   134150   134528   134715   134778 
  134779   134824   134858   134574   134149   133967   133867   133709 
  133672   133671   133558   133520   133640   133713   133596   133454 
  133488   133617   133733   133845   133920   133909   133872   133874 
  133959   134227   134657   135037   135182   135078   134923   134859 
  134812   134708   134578   134489   134439   134342   134241   134084 
  133671   133258   133238   133409   133456   133452   133448   133313 
  133068   132880   132845   132965   133165   133290   133319   133416 
  133578   133590   133502   133681   134157   134454   134296   133870 
  133385   132929   132642   132637   132738   132763   132791   132918 
  133119   133251   133139   132919   132765   132556   132356   132318 
  132275   132061   131830   131886   132167   132300   132286   132325 
  132305   132108   131973   132123   132451   132757   132933   133042 
  133150   133131   133011   133018   133266   133664   133994   134104 
  134037   133901   133793   133760   133697   133613   133860   134407 
  134704   134658   134509   134360   134374   134611   134950   135256 
  135411   135395   135157   134724   134393   134380   134630   134947 
  135233   135518   135611   135367   135004   134684   134435   134407 
  134532   134458   134030   133385   132780   132475   132609   133120 
  133767   134257   134388   134076   133573   133245   133010   132780 
  132916   133474   134002   134271   134333   134306   134365   134536 
  134716   134827   134577   133787   132961   132719   133027   133431 
  133848   134496   135089   135126   134793   134601   134555   134407 
  134264   134312   134416   134385   134291   134312   134428   134465 
  134310   133982   133698   133628   133718   133898   134010   133996 
  133891   133596   133297   133280   133350   133277   133238   133462 
  133699   133644   133542   133590   133660   133713   133606   133242 
  132850   132497   132175   132223   132597   132795   132807   132985 
  133290   133481   133508   133338   133104   133068   133103   133023 
  132991   133122   133272   133369   133469   133574   133640   133520 
  133297   133367   133713   134001   134181   134191   133866   133377 
  133176   133428   133822   134140   134392   134401   134121   133876 
  133780   133722   133814   134134   134404   134374   134146   133882 
  133752   133776   133602   133272   133240   133350   133280   133215 
  133189   133120   133309   133660   133650   133386   133212   133164 
  133313   133636   133903   133971   134025   134254   134330   134053 
  133779   133547   133068   132572   132502   132756   133019   133289 
  133633   134015   134288   134265   134126   134190   134295   134198 
  134107   134180   134199   134180   134383   134584   134302   133628 
  133123   133080   133211   133299   133540   133824   133898   133963 
  134115   134129   134028   134131   134383   134500   134568   134597 
  134434   134210   134172   134262   134150   133836   133579   133350 
  133092   132916   132831   132821   132954   133204   133396   133359 
  133088   132799   132833   133285   133829   134264   134659   134823 
  134592   134223   133882   133574   133450   133582   133740   133664 
  133347   132969   132834   133066   133582   134239   134647   134697 
  134707   134596   134234   133884   133623   133440   133432   133594 
  133868   134015   133940   133894   133880   133818   133867   133987 
  134022   133874   133492   133186   133242   133424   133675   134082 
  134198   133841   133524   133455   133420   133393   133467   133564 
  133531   133344   133070   132872   132850   132761   132467   132220 
  132177   132160   132059   131916   131733   131595   131677   132061 
  132613   132992   132962   132746   132718   132845   133035   133431 
  133886   134077   134009   133884   133725   133439   133170   133070 
  133112   133396   133751   133666   133240   132962   132962   133259 
  133849   134415   134596   134470   134314   134002   133474   133272 
  133735   134484   135044   135372   135448   135062   134422   133999 
  133820   133798   134065   134439   134632   134728   134720   134550 
  134426   134331   134239   134353   134439   134175   133834   133712 
  133814   134144   134559   134955   135313   135373   135132   134858 
  134484   134129   134126   134304   134433   134644   134858   134806 
  134690   134798   134943   134887   134707   134581   134626   134831 
  135086   135218   135117   134943   134898   134786   134524   134535 
  134893   135089   134859   134387   133913   133564   133397   133489 
  133839   134073   133933   133731   133625   133442   133262   133277 
  133359   133261   133045   132931   132753   132309   131890   131737 
  131761   131882   132066   132362   132696   132787   132648   132490 
  132246   131955   131849   131791   131583   131480   131608   131684 
  131741   132061   132459   132599   132618   132769   132927   132903 
  132799   132930   133527   134287   134813   135152   135238   134901 
  134293   133789   133674   133821   134018   134221   134173   133744 
  133350   133305   133458   133791   134481   135183   135399   135244 
  134939   134634   134562   134636   134778   135108   135359   135292 
  135295   135553   135603   135221   134680   134287   133986   133429 
  132695   132281   132240   132244   132340   132671   132983   133286 
  133717   133967   134053   134202   134289   134489   134947   135193 
  134958   134553   134385   134481   134565   134524   134461   134449 
  134433   134180   133672   133411   133550   133509   133128   132705 
  132289   132011   132085   132455   133015   133625   133940   133783 
  133382   133073   132964   132888   132744   132668   132709   132717 
  132723   132942   133289   133432   133272   133126   133131   132864 
  132379   132255   132270   131922   131614   131820   132300   132800 
  133319   133683   133795   133732   133551   133351   133142   133072 
  133219   133064   132587   132401   132522   132682   132858   133164 
  133439   133262   132923   132970   133223   133423   133423   133178 
  133053   133197   133427   133701   133882   133907   133971   134110 
  134260   134392   134523   134746   134967   134986   134746   134262 
  133822   133772   134046   134407   134909   135706   136424   136476 
  135966   135310   134681   134256   134068   133948   133855   133951 
  134266   134461   134419   134426   134546   134665   134613   134289 
  134013   133990   133945   133839   133938   134202   134511   134842 
  134978   134798   134464   134154   134022   134145   134341   134362 
  134212   133875   133374   133191   133458   133564   133392   133398 
  133625   133798   133960   134296   134465   134150   133814   133798 
  133851   133759   133605   133672   133918   133956   133767   133559 
  133393   133328   133301   133173   133137   133251   133227   133142 
  133184   133066   132667   132428   132567   132857   133134   133316 
  133415   133543   133650   133672   133668   133581   133361   133027 
  132826   133182   133789   133968   134042   134366   134370   133949 
  133789   134134   134549   134673   134632   134639   134650   134563 
  134420   134530   135048   135472   135468   135351   135149   134798 
  134860   135413   135726   135764   135951   135945   135423   134964 
  134905   134781   134461   134260   134273   134499   134913   135183 
  134901   134130   133309   132784   132664   132804   132969   133054 
  133012   132853   132648   132447   132370   132533   132802   132806 
  132410   131892   131533   131423   131549   131822   132223   132624 
  132621   132247   131923   131642   131473   131695   131981   132150 
  132582   132964   132634   131928   131585   131643   131719   131811 
  132092   132371   132474   132470   132390   132223   132024   131997 
  132306   132775   133126   133313   133272   132825   132140   131701 
  131696   132038   132719   133466   133801   133758   133632   133552 
  133633   133890   134141   134289   134304   134175   134063   134022 
  134022   134276   134755   135021   134928   134708   134514   134258 
  134001   134005   134185   134314   134495   134750   134827   134670 
  134403   134198   134276   134527   134670   134724   134751   134735 
  134750   134870   135025   135087   135009   134833   134628   134434 
  134333   134470   134802   135054   135060   134944   134894   134846 
  134649   134453   134381   134173   133798   133731   134021   134175 
  134217   134489   134717   134596   134561   134952   135291   135090 
  134677   134508   134346   134050   134007   134152   134168   134234 
  134387   134273   133880   133608   133566   133488   133385   133470 
  133616   133501   133265   133434   133921   134148   134082   134179 
  134505   134634   134393   134013   133612   133273   133211   133479 
  133812   133952   133975   133899   133537   133153   133197   133443 
  133432   133317   133424   133533   133431   133467   133853   134292 
  134516   134507   134451   134401   134169   133961   134018   134079 
  134049   134021   133903   133721   133515   133197   132817   132660 
  132933   133324   133394   133168   132825   132509   132255   132016 
  131976   132208   132597   133000   133116   132972   132868   132763 
  132611   132579   132651   132625   132455   132260   132048   131850 
  131822   131858   131969   132464   133168   133691   134034   134087 
  133668   133172   133068   133292   133668   134109   134478   134616 
  134388   133933   133681   133789   133955   133994   134015   133938 
  133537   132877   132344   132185   132345   132796   133371   133675 
  133600   133250   132761   132430   132409   132606   132989   133618 
  134273   134636   134761   134755   134689   134719   134789   134877 
  134954   134568   133693   132956   132468   132013   131877   132279 
  132845   133304   133805   134175   133986   133451   133197   133303 
  133394   133336   133196   133030   132984   133172   133577   134056 
  134264   134118   134086   134285   134206   133953   134102   134428 
  134630   135051   135692   136151   136237   135963   135534   135155 
  134757   134385   134287   134352   134285   134171   134221   134349 
  134450   134654   135037   135492   135888   136171   136401   136551 
  136428   136007   135441   134923   134624   134458   134345   134472 
  134742   134788   134661   134674   134762   134555   133990   133343 
  132807   132463   132332   132332   132491   132926   133347   133366 
  133250   133267   133200   133087   133084   133095   133215   133438 
  133296   132808   132567   132548   132412   132374   132460   132281 
  131930   131711   131588   131473   131336   131276   131539   131982 
  132239   132565   133228   133780   133996   134148   134222   134013 
  133581   133073   132597   132343   132375   132486   132592   132672 
  132441   132031   131965   132082   132020   132062   132359   132588 
  132641   132625   132656   132856   133080   133142   133149   133116 
  133029   133130   133451   133635   133593   133529   133450   133370 
  133483   133849   134308   134553   134481   134466   134746   135004 
  134964   134820   134908   135232   135579   135939   136270   136370 
  136266   136127   136004   135993   136165   136314   136287   136293 
  136456   136507   136305   136107   136098   136097   135924   135789 
  135797   135727   135656   135760   135811   135587   135190   134885 
  134816   134798   134674   134535   134361   134065   133735   133535 
  133420   133034   132390   131931   131689   131587   131670   131680 
  131587   131739   132066   132198   132101   131965   131888   131886 
  132012   132202   132282   132371   132617   132722   132574   132491 
  132487   132389   132352   132478   132665   132880   133174   133520 
  133674   133516   133266   133205   133320   133315   133099   132949 
  133110   133412   133475   133332   133296   133421   133573   133623 
  133469   133143   132881   132835   132921   133026   133154   133381 
  133564   133465   133240   133085   132960   132972   133146   133324 
  133540   133851   134134   134225   134115   133999   134069   134238 
  134250   134244   134430   134557   134499   134439   134395   134227 
  133967   133766   133689   133801   134077   134343   134487   134461 
  134271   134018   133840   133799   133934   134234   134477   134495 
  134408   134315   134241   134271   134373   134435   134559   134770 
  134743   134458   134238   134026   133647   133321   133243   133309 
  133365   133316   133239   133147   132991   132977   133143   133230 
  133157   132926   132511   132074   131885   132001   132200   132424 
  132709   132899   133012   133164   133231   133119   133061   133261 
  133539   133601   133331   132970   132815   132841   133038   133339 
  133494   133532   133675   133883   133883   133655   133551   133747 
  134176   134707   135072   135263   135471   135517   135301   135033 
  134677   134264   134067   133968   133721   133492   133479   133551 
  133659   133893   134086   134190   134374   134526   134562   134644 
  134754   134674   134333   133960   133821   133853   133866   133909 
  134050   134052   133807   133550   133505   133816   134298   134604 
  134731   134703   134534   134470   134523   134609   134886   135226 
  135302   135074   134632   134241   134211   134361   134391   134505 
  134863   135098   134975   134793   134813   134997   135143   135126 
  135059   134894   134441   133801   133240   132964   132954   133042 
  133178   133342   133421   133338   133164   132999   132899   132914 
  133038   133220   133307   133242   133261   133429   133543   133532 
  133525   133594   133625   133606   133609   133509   133280   133110 
  133143   133304   133347   133203   133022   132868   132784   132853 
  133095   133451   133753   133852   133786   133701   133745   133785 
  133552   133201   133000   132899   132815   132827   132930   132926 
  132864   132976   133026   132802   132664   132723   132664   132501 
  132405   132405   132440   132430   132430   132487   132479   132359 
  132232   132120   131973   131838   131800   131795   131723   131751 
  132066   132444   132630   132861   133351   133802   134033   134250 
  134514   134608   134435   134253   134289   134377   134303   134218 
  134334   134492   134585   134739   134811   134773   134935   135172 
  135178   135101   135124   135153   135076   134859   134623   134642 
  134890   135062   135218   135481   135580   135413   135122   134846 
  134740   134716   134589   134493   134470   134304   134009   133834 
  133787   133726   133606   133402   133197   133157   133239   133280 
  133236   133174   133154   133138   133060   133137   133543   133968 
  134176   134279   134288   134087   133689   133370   133334   133415 
  133436   133455   133587   133794   133839   133637   133367   133196 
  133099   132887   132549   132321   132313   132426   132571   132688 
  132752   132916   133307   133713   133876   133743   133479   133358 
  133308   133119   133039   133224   133319   133161   133084   133362 
  133704   133772   133731   133685   133542   133363   133166   132916 
  132871   133253   133830   134244   134311   134117   133898   133732 
  133596   133525   133555   133679   133799   133834   133817   133816 
  133891   134053   134214   134268   134222   134191   134183   134090 
  133987   133979   133980   133991   134095   134225   134304   134349 
  134276   134060   133936   134029   134215   134412   134608   134767 
  134871   134840   134678   134623   134709   134730   134689   134723 
  134742   134561   134326   134235   134098   133821   133597   133456 
  133351   133323   133381   133390   133278   133185   133157   133039 
  132869   132798   132846   132914   132911   132891   132900   132892 
  132781   132565   132426   132417   132293   131998   131812   131873 
  132004   132032   132086   132378   132729   132796   132656   132611 
  132786   133042   133315   133721   134137   134330   134391   134481 
