Origin Time       2024/04/02 04:24:00
Lat.              40.133
Long.             141.712
Depth. (km)       71
Mag.              6.0
Station Code      FKSH14
Station Lat.      37.0264
Station Long.     140.9702
Station Height(m) 3
Record Time       2024/04/02 04:25:26
Sampling Freq(Hz) 100Hz
Duration Time(s)  150
Dir.              5
Scale Factor      7845(gal)/8223790
Max. Acc. (gal)   3.449
Last Correction   2024/04/02 04:25:26
Memo.             
[...]
   -1914    -1995    -2035    -2065    -2107    -2188    -2259    -2259 
   -2257    -2327    -2361    -2263    -2145    -2089    -2045    -1987 
   -1925    -1844    -1750    -1664    -1602    -1610    -1692    -1782 
   -1792    -1734    -1783    -2031    -2295    -2382    -2358    -2301 
   -2151    -1915    -1676    -1452    -1255    -1146    -1156    -1220 
   -1231    -1135     -959     -799     -734     -789     -936    -1078 
   -1139    -1171    -1270    -1422    -1549    -1632    -1686    -1710 
   -1732    -1768    -1807    -1826    -1765    -1624    -1522    -1539 
   -1553    -1464    -1347    -1290    -1313    -1421    -1575    -1661 
   -1634    -1557    -1505    -1551    -1738    -1976    -2092    -2011 
   -1806    -1620    -1583    -1744    -1958    -2016    -1884    -1667 
   -1439    -1269    -1212    -1239    -1320    -1443    -1549    -1618 
   -1668    -1678    -1614    -1536    -1560    -1676    -1788    -1914 
   -2073    -2182    -2153    -1984    -1782    -1638    -1516    -1386 
   -1301    -1247    -1205    -1225    -1328    -1460    -1583    -1713 
   -1798    -1775    -1701    -1603    -1428    -1220    -1101    -1138 
   -1297    -1478    -1649    -1819    -1933    -1968    -1960    -1868 
   -1675    -1445    -1250    -1162    -1221    -1336    -1395    -1350 
   -1171     -951     -866     -951    -1155    -1463    -1796    -2035 
   -2111    -2043    -1952    -1939    -1995    -2057    -2041    -1918 
   -1764    -1649    -1571    -1540    -1609    -1799    -2011    -2088 
   -1988    -1884    -1926    -1966    -1877    -1783    -1746    -1705 
   -1690    -1746    -1794    -1760    -1709    -1640    -1479    -1309 
   -1270    -1358    -1485    -1571    -1628    -1694    -1722    -1641 
   -1476    -1321    -1228    -1208    -1278    -1435    -1628    -1849 
   -2064    -2173    -2157    -2069    -1960    -1836    -1667    -1483 
   -1347    -1244    -1138    -1116    -1263    -1514    -1740    -1885 
   -1992    -2096    -2187    -2289    -2419    -2513    -2478    -2259 
   -1915    -1594    -1354    -1181    -1100    -1090    -1119    -1177 
   -1190    -1134    -1098    -1129    -1194    -1254    -1267    -1254 
   -1243    -1231    -1239    -1273    -1317    -1383    -1499    -1661 
   -1780    -1777    -1695    -1605    -1532    -1475    -1431    -1398 
   -1383    -1389    -1391    -1377    -1418    -1603    -1857    -2022 
   -2007    -1850    -1717    -1710    -1695    -1545    -1370    -1313 
   -1381    -1470    -1517    -1564    -1614    -1568    -1467    -1443 
   -1452    -1413    -1424    -1593    -1823    -1965    -1971    -1898 
   -1853    -1867    -1906    -1972    -2072    -2146    -2118    -2025 
   -1961    -1872    -1682    -1525    -1512    -1591    -1713    -1834 
   -1939    -2054    -2122    -2085    -2053    -2092    -2103    -2045 
   -1987    -1918    -1791    -1611    -1436    -1290    -1132     -985 
    -919     -936     -992    -1011     -970     -928     -923     -966 
   -1104    -1341    -1609    -1783    -1800    -1768    -1803    -1840 
   -1764    -1610    -1494    -1449    -1460    -1512    -1587    -1653 
   -1664    -1583    -1436    -1347    -1410    -1586    -1744    -1776 
   -1725    -1707    -1742    -1829    -1950    -2025    -2022    -1964 
   -1864    -1776    -1765    -1806    -1788    -1657    -1493    -1360 
   -1306    -1379    -1479    -1507    -1516    -1491    -1401    -1331 
   -1331    -1362    -1406    -1489    -1545    -1480    -1336    -1252 
   -1328    -1536    -1699    -1726    -1684    -1595    -1490    -1524 
   -1729    -1956    -2110    -2172    -2130    -2034    -1968    -1953 
   -1964    -1965    -1908    -1821    -1748    -1633    -1497    -1417 
   -1335    -1240    -1291    -1486    -1649    -1709    -1718    -1713 
   -1652    -1509    -1366    -1323    -1329    -1328    -1399    -1575 
   -1759    -1872    -1853    -1679    -1501    -1468    -1529    -1587 
   -1593    -1480    -1323    -1296    -1383    -1451    -1505    -1543 
   -1459    -1260    -1113    -1154    -1329    -1506    -1632    -1655 
   -1571    -1529    -1599    -1680    -1696    -1671    -1634    -1580 
   -1571    -1695    -1880    -2018    -2095    -2115    -2053    -1863 
   -1549    -1243    -1036     -957    -1031    -1217    -1424    -1597 
   -1711    -1817    -1991    -2215    -2386    -2421    -2320    -2170 
   -2062    -2035    -2066    -2014    -1804    -1556    -1360    -1205 
   -1108    -1061    -1074    -1167    -1269    -1350    -1480    -1676 
   -1871    -2004    -2020    -1898    -1706    -1590    -1618    -1675 
   -1647    -1599    -1625    -1702    -1809    -1938    -1972    -1864 
   -1725    -1553    -1316    -1117    -1012     -977    -1003    -1088 
   -1243    -1420    -1551    -1653    -1782    -1921    -2061    -2164 
   -2089    -1798    -1455    -1212    -1105    -1136    -1240    -1321 
   -1366    -1397    -1412    -1439    -1479    -1487    -1475    -1506 
   -1574    -1620    -1587    -1468    -1343    -1293    -1314    -1344 
   -1327    -1270    -1255    -1340    -1432    -1462    -1521    -1641 
   -1761    -1850    -1837    -1706    -1574    -1493    -1455    -1517 
   -1691    -1861    -1941    -1952    -1898    -1813    -1786    -1827 
   -1898    -1911    -1760    -1510    -1339    -1283    -1255    -1262 
   -1377    -1532    -1630    -1714    -1844    -1975    -2045    -2088 
   -2141    -2147    -2131    -2164    -2168    -2060    -1844    -1532 
   -1263    -1237    -1451    -1740    -1998    -2184    -2195    -1968 
   -1696    -1598    -1610    -1576    -1516    -1497    -1452    -1344 
   -1300    -1356    -1433    -1544    -1657    -1607    -1378    -1156 
   -1030     -999    -1120    -1358    -1556    -1597    -1491    -1350 
   -1291    -1405    -1683    -1971    -2133    -2189    -2215    -2286 
   -2455    -2667    -2821    -2841    -2659    -2312    -1992    -1829 
   -1740    -1629    -1540    -1474    -1406    -1412    -1480    -1491 
   -1410    -1308    -1282    -1358    -1447    -1459    -1381    -1294 
   -1290    -1372    -1459    -1503    -1503    -1402    -1189    -1015 
   -1031    -1162    -1246    -1333    -1537    -1769    -1890    -1904 
   -1892    -1858    -1779    -1661    -1557    -1514    -1464    -1306 
   -1100     -966     -951    -1016    -1134    -1306    -1448    -1482 
   -1444    -1354    -1173     -957     -849     -943    -1185    -1382 
   -1372    -1220    -1074     -959     -946    -1143    -1482    -1836 
   -2087    -2130    -2010    -1850    -1702    -1543    -1336    -1144 
   -1055    -1050    -1092    -1181    -1351    -1676    -2106    -2504 
   -2810    -2991    -3034    -2967    -2826    -2639    -2374    -2022 
   -1678    -1475    -1516    -1826    -2278    -2651    -2824    -2816 
   -2677    -2524    -2481    -2463    -2347    -2162    -1946    -1723 
   -1575    -1548    -1583    -1553    -1417    -1286    -1212    -1143 
   -1116    -1193    -1260    -1154     -967     -938    -1070    -1236 
   -1390    -1487    -1455    -1236     -889     -568     -346     -267 
    -329     -409     -425     -498     -715     -950    -1059    -1046 
    -999    -1013    -1189    -1506    -1799    -1921    -1871    -1796 
   -1868    -2131    -2532    -2906    -3078    -3056    -2947    -2763 
   -2475    -2054    -1471     -778     -197      -59     -469    -1188 
   -1962    -2664    -3245    -3717    -4017    -4070    -3910    -3557 
   -3048    -2555    -2282    -2320    -2535    -2563    -2212    -1624 
   -1042     -719     -797    -1163    -1594    -1942    -2150    -2184 
   -2057    -1846    -1591    -1337    -1216    -1266    -1358    -1350 
   -1174     -870     -541     -265     -179     -271     -210      118 
     446      618      630      461      159     -180     -483     -770 
   -1193    -1722    -2076    -2135    -2029    -1794    -1462    -1279 
   -1452    -1881    -2323    -2601    -2577    -2182    -1597    -1097 
    -747     -463     -248     -245     -564    -1123    -1748    -2305 
   -2660    -2728    -2662    -2740    -3033    -3377    -3565    -3496 
   -3184    -2735    -2353    -2209    -2255    -2363    -2596    -3018 
   -3451    -3643    -3420    -2708    -1705     -828     -337     -232 
    -411     -720    -1028    -1300    -1559    -1791    -1908    -1910 
   -1896    -1823    -1620    -1377    -1175    -1031     -940     -893 
   -1001    -1402    -1918    -2197    -2151    -1926    -1601    -1179 
    -780     -554     -486     -477     -488     -510     -508     -465 
    -427     -446     -496     -508     -459     -430     -567     -901 
   -1337    -1744    -1981    -1958    -1686    -1262     -868     -658 
    -676     -893    -1236    -1641    -2115    -2542    -2682    -2513 
   -2243    -1977    -1733    -1547    -1360    -1097     -778     -542 
    -684    -1413    -2571    -3711    -4364    -4320    -3765    -3018 
   -2261    -1732    -1620    -1717    -1738    -1664    -1598    -1599 
   -1705    -1910    -2107    -2199    -2214    -2174    -1988    -1649 
   -1356    -1258    -1383    -1745    -2243    -2733    -3168    -3510 
   -3777    -4051    -4228    -4170    -3960    -3631    -3102    -2465 
   -1799    -1053     -257      426      808      832      649      336 
     -97     -459     -607     -649     -666     -537     -257     -110 
    -282     -684    -1169    -1625    -1938    -1980    -1750    -1386 
    -900     -253      413      928     1229     1273     1058      708 
     372       60     -352     -949    -1723    -2505    -2887    -2690 
   -2238    -1888    -1706    -1649    -1726    -1935    -2130    -2124 
   -1933    -1755    -1763    -1975    -2258    -2590    -3113    -3699 
   -4001    -3929    -3600    -3198    -2965    -3013    -3300    -3700 
   -4033    -4114    -3786    -3113    -2413    -1944    -1771    -1873 
   -2061    -2092    -1912    -1563    -1101     -673     -384     -314 
    -560    -1057    -1638    -2151    -2394    -2226    -1717    -1115 
    -623     -238      117      414      610      712      692      502 
     152     -275     -692    -1096    -1482    -1757    -1764    -1440 
    -981     -641     -584     -926    -1516    -1998    -2143    -1903 
   -1445    -1151    -1246    -1672    -2247    -2694    -2816    -2625 
   -2216    -1737    -1277     -766     -329     -270     -641    -1310 
   -2181    -3106    -3885    -4379    -4603    -4607    -4303    -3676 
   -2914    -2214    -1683    -1302     -988     -711     -464     -295 
    -365     -722    -1256    -1895    -2533    -2918    -2887    -2623 
   -2452    -2501    -2652    -2717    -2563    -2135    -1448     -672 
     -85      211      357      508      711      818      565     -151 
   -1142    -2080    -2670    -2801    -2628    -2396    -2235    -2147 
   -2080    -1996    -1899    -1831    -1788    -1667    -1463    -1252 
   -1027     -778     -639     -769    -1155    -1582    -1854    -1964 
   -1945    -1740    -1348     -916     -534     -229     -106     -228 
    -486     -841    -1413    -2185    -2941    -3561    -4023    -4205 
   -3981    -3441    -2766    -2008    -1197     -494     -160     -403 
   -1177    -2193    -3149    -3811    -4004    -3711    -2998    -1961 
    -865      -72      180     -139     -805    -1444    -1861    -2061 
   -2104    -2182    -2544    -3086    -3484    -3615    -3487    -3152 
   -2820    -2681    -2710    -2713    -2525    -2200    -1898    -1622 
   -1246     -743     -265       -4      -48     -380     -935    -1470 
   -1698    -1590    -1282     -905     -538     -186       63      102 
     -14     -167     -244     -133      167      537      811      870 
     735      558      548      730      955     1148     1227     1100 
     778      247     -450    -1109    -1633    -2035    -2312    -2521 
   -2702    -2836    -2945    -3073    -3211    -3249    -3044    -2641 
   -2261    -2076    -2120    -2270    -2328    -2189    -1942    -1829 
   -2070    -2612    -3192    -3632    -3798    -3612    -3308    -3163 
   -3140    -3229    -3495    -3817    -4113    -4436    -4683    -4669 
   -4364    -3867    -3318    -2731    -2010    -1240     -626     -225 
     -51     -132     -419     -796    -1078    -1165    -1131    -1004 
    -812     -733     -754     -693     -545     -373     -193     -101 
    -233     -594    -1059    -1472    -1683    -1579    -1136     -446 
     287      796      842      363     -483    -1559    -2787    -3924 
   -4634    -4783    -4473    -3932    -3318    -2728    -2295    -2072 
   -1999    -1953    -1814    -1502     -985     -390       78      345 
     402      272       90      -98     -422     -977    -1745    -2627 
   -3460    -4113    -4503    -4513    -4074    -3310    -2425    -1624 
   -1111     -885     -793     -756     -657     -421     -244     -361 
    -726    -1092    -1286    -1256     -976     -580     -342     -384 
    -680    -1074    -1360    -1583    -1849    -2016    -1980    -1763 
   -1302     -679     -155      140      166      -90     -498     -849 
   -1012    -1026    -1024    -1112    -1378    -1811    -2246    -2575 
   -2775    -2781    -2567    -2181    -1710    -1290    -1020     -873 
    -757     -715     -864    -1171    -1594    -2187    -2847    -3330 
   -3572    -3715    -3800    -3543    -2694    -1518     -502      105 
     147     -534    -1775    -3037    -3937    -4511    -4858    -4896 
   -4633    -4282    -3944    -3555    -3127    -2704    -2355    -2211 
   -2214    -2236    -2307    -2386    -2377    -2259    -1983    -1502 
    -832       -2      846     1490     1838     1968     2006     1966 
    1718     1146      270     -737    -1669    -2427    -2879    -2920 
   -2698    -2397    -2029    -1644    -1410    -1412    -1571    -1742 
   -1810    -1736    -1559    -1313     -990     -567      -55      384 
     480      160     -432    -1204    -2034    -2709    -3176    -3542 
   -3836    -3985    -3870    -3491    -3007    -2539    -2134    -1904 
   -1810    -1618    -1302    -1086    -1088    -1188    -1196     -965 
    -430      272      797      842      348     -575    -1723    -2770 
   -3442    -3708    -3611    -3194    -2578    -1983    -1640    -1588 
   -1607    -1435     -985     -387      141      422      322     -195 
   -1008    -1892    -2683    -3289    -3604    -3528    -3100    -2486 
   -1786    -1028     -379      -75     -149     -418     -715     -985 
   -1248    -1564    -2004    -2556    -2986    -2941    -2365    -1507 
    -666     -106       70     -101     -561    -1112    -1563    -1930 
   -2214    -2392    -2505    -2525    -2428    -2197    -1802    -1343 
    -865     -314      172      423      422      197     -210     -766 
   -1512    -2369    -3102    -3581    -3793    -3723    -3435    -3079 
   -2705    -2331    -2061    -1935    -1907    -1935    -2006    -2196 
   -2554    -2952    -3298    -3558    -3640    -3445    -2953    -2224 
   -1383     -614     -126      -10     -152     -410     -693     -835 
    -778     -745     -922    -1363    -2084    -2961    -3739    -4179 
   -4120    -3535    -2565    -1432     -403      274      469      159 
    -511    -1213    -1678    -1826    -1682    -1302     -766     -209 
     298      760     1120     1355     1464     1304      765     -147 
   -1394    -2779    -3955    -4668    -4873    -4629    -4036    -3246 
   -2436    -1726    -1108     -491      135      615      772      556 
      10     -797    -1794    -2829    -3634    -4070    -4249    -4212 
   -3877    -3272    -2543    -1935    -1757    -2143    -2917    -3751 
   -4441    -4907    -5067    -4853    -4275    -3458    -2457    -1273 
    -152      608      967      992      814      634      481      168 
    -484    -1447    -2420    -2987    -2932    -2427    -1884    -1641 
   -1768    -2022    -2033    -1626     -981     -414      -59       97 
      68      -55     -174     -279     -329     -243       36      500 
     978     1248     1209      870      344     -163     -513     -747 
    -992    -1296    -1645    -2010    -2370    -2740    -3063    -3238 
   -3250    -3114    -2835    -2479    -2085    -1613    -1177    -1017 
   -1216    -1656    -2209    -2766    -3181    -3331    -3249    -3121 
   -3068    -3057    -3037    -3010    -2895    -2644    -2424    -2411 
   -2610    -2882    -3026    -2988    -2837    -2662    -2547    -2450 
   -2247    -1927    -1556    -1216    -1001     -955    -1039    -1124 
   -1146    -1194    -1263    -1213    -1004     -676     -307      -60 
     -48     -232     -472     -643     -672     -535     -342     -201 
     -71      109      375      662      737      476      -20     -653 
   -1348    -2053    -2709    -3149    -3308    -3285    -3038    -2539 
   -2064    -1864    -1883    -1953    -2022    -2124    -2274    -2470 
   -2710    -2930    -3036    -2999    -2786    -2317    -1668    -1127 
    -939    -1104    -1505    -2039    -2551    -2816    -2751    -2470 
   -2123    -1804    -1582    -1506    -1526    -1570    -1705    -1972 
   -2249    -2428    -2488    -2396    -2141    -1829    -1599    -1466 
   -1341    -1129     -749     -252      184      454      562      594 
     618      552      279     -199     -774    -1401    -2095    -2735 
   -3163    -3368    -3424    -3391    -3219    -2836    -2331    -1854 
   -1480    -1271    -1198    -1152    -1158    -1270    -1381    -1402 
   -1418    -1471    -1501    -1514    -1516    -1506    -1557    -1642 
   -1718    -1834    -2016    -2270    -2598    -2944    -3167    -3103 
   -2826    -2592    -2442    -2263    -2023    -1679    -1177     -639 
    -291     -184     -180     -174     -187     -333     -730    -1354 
   -2007    -2477    -2641    -2477    -1993    -1293     -633     -222 
    -113     -302     -720    -1283    -1922    -2473    -2763    -2799 
   -2681    -2504    -2366    -2311    -2311    -2263    -2062    -1794 
   -1626    -1578    -1575    -1583    -1647    -1799    -1966    -2058 
   -2045    -1871    -1499    -1050     -706     -581     -722    -1007 
   -1236    -1422    -1687    -2000    -2276    -2479    -2554    -2447 
   -2204    -1957    -1791    -1656    -1485    -1323    -1200    -1021 
    -735     -360      109      616     1023     1232     1167      781 
     175     -454     -909    -1097    -1093    -1015     -963    -1074 
   -1351    -1653    -1842    -1799    -1541    -1246    -1058    -1062 
   -1259    -1502    -1674    -1752    -1742    -1734    -1852    -2091 
   -2349    -2575    -2785    -2961    -3010    -2883    -2651    -2397 
   -2120    -1830    -1669    -1696    -1725    -1663    -1653    -1736 
   -1810    -1908    -2106    -2308    -2385    -2359    -2327    -2309 
   -2308    -2388    -2610    -2922    -3206    -3435    -3657    -3863 
   -3978    -3910    -3581    -2918    -1945     -897      -56      472 
     685      572      191     -324     -901    -1537    -2241    -2968 
   -3599    -3985    -4035    -3757    -3308    -2876    -2565    -2385 
   -2243    -2033    -1744    -1406    -1038     -741     -669     -893 
   -1327    -1802    -2138    -2235    -2135    -1961    -1779    -1583 
   -1437    -1393    -1355    -1223     -936     -490      -41      236 
     303      203       64       13      116      399      785     1143 
    1408     1555     1495     1112      414     -472    -1444    -2385 
   -3169    -3748    -4102    -4230    -4245    -4203    -3944    -3325 
