Origin Time       2024/04/02 04:24:00
Lat.              40.133
Long.             141.712
Depth. (km)       71
Mag.              6.0
Station Code      FKSH17
Station Lat.      37.6636
Station Long.     140.5974
Station Height(m) 205
Record Time       2024/04/02 04:25:18
Sampling Freq(Hz) 100Hz
Duration Time(s)  120
Dir.              6
Scale Factor      7845(gal)/8223790
Max. Acc. (gal)   1.713
Last Correction   2024/04/02 04:25:19
Memo.             
[...]
   13884    13672    13549    13420    13274    13397    13427    13088 
   13149    13950    14287    13643    13220    13522    13830    13537 
   12973    13108    13474    13181    13184    13697    13648    13414 
   13633    13911    14081    14035    13682    13389    13258    13333 
   13601    13595    13504    13679    13645    13464    13698    13865 
   13429    13149    13495    13759    13782    13932    13782    13250 
   13136    13394    13536    13761    13899    13803    14021    14085 
   13447    13146    13510    13563    13203    13115    13505    13871 
   13734    13482    13778    14139    13732    13255    13635    14071 
   13722    13285    13509    13975    13919    13483    13428    13575 
   13371    13549    14287    14334    13876    13801    13510    12955 
   12968    13273    13328    13360    13613    13811    13722    13609 
   13483    13211    13174    13385    13371    13392    13745    13911 
   13678    13427    13252    13115    13146    13390    13672    13734 
   13549    13289    13099    13073    12922    12567    12725    13432 
   13841    13861    13697    13329    13180    13180    12920    12910 
   13366    13671    13748    13838    13647    13059    12846    13298 
   13473    13166    13142    13369    13447    13502    13729    14008 
   13977    13417    12949    13289    13810    13809    13844    14130 
   14040    13486    13113    13252    13317    12995    13099    13765 
   14110    14013    13641    13113    13018    13113    12891    12984 
   13533    13795    13813    13895    13768    13409    13109    13003 
   13192    13429    13436    13663    14264    14540    14231    13814 
   13529    13316    13433    13882    13950    13529    13435    13703 
   13529    13059    13131    13703    14104    14106    13946    13763 
   13551    13294    12976    12912    13221    13387    13522    13906 
   13950    13670    13699    13756    13529    13373    13215    12981 
   13221    13830    14025    13663    13155    13008    13402    13771 
   13805    13932    14029    13756    13624    13732    13474    13008 
   12762    12781    13242    13783    13690    13419    13494    13439 
   13265    13327    13313    13089    13026    13311    13649    13794 
   13883    13834    13628    13606    13575    13477    13738    13984 
   13838    13656    13468    13209    13049    13045    13369    13801 
   13706    13401    13517    13568    13255    13212    13509    13559 
   13200    12981    13292    13495    13394    13622    13667    13177 
   13251    13795    13780    13521    13444    13387    13598    13892 
   13694    13359    13356    13564    13832    13879    13591    13478 
   13717    13802    13618    13423    13236    13277    13702    13888 
   13522    13427    13891    14037    13633    13370    13377    13375 
   13423    13536    13560    13402    13332    13632    13599    12933 
   12900    13659    13818    13475    13637    13960    13840    13599 
   13568    13710    13863    13679    13383    13552    13806    13644 
   13425    13516    13721    13710    13487    13278    13320    13539 
   13505    13409    13786    14062    13532    13003    13300    13689 
   13517    13316    13371    13266    13107    13398    13748    13486 
   13123    13416    13863    13606    13022    13086    13628    13756 
   13570    13593    13648    13575    13485    13478    13791    14046 
   13651    13274    13560    13826    13616    13373    13362    13447 
   13567    13593    13375    13211    13225    13054    13086    13787 
   14061    13339    13081    13721    13896    13525    13614    13851 
   13585    13362    13410    13324    13517    13960    13703    13190 
   13273    13265    12899    13034    13489    13463    13327    13657 
   13867    13571    13525    13842    13801    13579    13648    13655 
   13552    13707    13701    13279    13115    13359    13531    13459 
   13302    13475    13872    13572    12955    13348    13990    13667 
   13343    13663    13636    13028    12843    13320    13531    13338 
   13497    13755    13693    13660    13359    12887    13170    13717 
   13613    13240    13119    13352    13687    13647    13420    13516 
   13725    13509    13062    13186    13752    13805    13468    13448 
   13753    14181    14258    13718    13420    13609    13549    13379 
   13478    13672    13768    13689    13753    13922    13644    13217 
   13193    13340    13451    13718    13810    13308    13122    13734 
   13900    13400    13185    13261    13467    13678    13517    13427 
   13695    13794    13729    13616    13319    13196    13433    13693 
   13770    13775    13743    13344    12839    12987    13344    13228 
   13243    13679    13946    13918    13768    13728    13979    13986 
   13390    12880    13049    13576    13859    13929    14033    13840 
   13451    13340    13198    13073    13358    13506    13324    13352 
   13548    13657    13581    13297    13286    13709    13840    13414 
   13122    13270    13432    13351    13178    13277    13756    14131 
   14076    13678    13120    12915    13333    13798    13776    13510 
   13536    13828    13919    13724    13437    13096    12847    13131 
   13772    13872    13481    13340    13387    13385    13419    13486 
   13454    13343    13413    13579    13618    13717    13822    13652 
   13320    13208    13436    13720    13792    13598    13298    13294 
   13578    13540    13134    13096    13471    13578    13473    13532 
   13599    13668    13730    13543    13393    13635    13851    13676 
   13517    13612    13686    13730    13734    13533    13516    13798 
   13694    13332    13529    13934    13753    13398    13423    13475 
   13413    13425    13387    13540    13883    13602    13084    13298 
   13460    13100    13224    13709    13728    13547    13413    13261 
   13378    13660    13740    13655    13424    13248    13436    13563 
   13281    13123    13332    13410    13294    13487    13764    13532 
   13163    13236    13539    13686    13587    13332    13275    13586 
   13698    13405    13370    13629    13825    14050    14100    13888 
   13682    13482    13456    13578    13441    13228    13230    13377 
   13539    13556    13509    13489    13392    13171    12949    13181 
   13845    13994    13589    13547    13566    13232    13373    13786 
   13475    13101    13479    13797    13536    13481    13759    13568 
   13198    13455    13801    13670    13610    13811    13833    13636 
   13443    13389    13487    13533    13446    13501    13748    13724 
   13354    13320    13647    13552    13207    13279    13591    13824 
   13838    13562    13312    13320    13423    13331    13045    12976 
   13365    13809    13687    13325    13527    13887    13711    13398 
   13414    13493    13450    13587    13767    13684    13589    13468 
   13336    13504    13701    13806    13995    13902    13529    13275 
   13000    12845    13180    13609    13751    13743    13782    13810 
   13413    12884    13239    14026    13883    13250    13301    13612 
   13520    13560    13728    13392    13190    13630    13878    13690 
   13572    13640    13608    13193    12928    13219    13451    13537 
   13659    13597    13626    13898    13964    13620    13188    13170 
   13473    13545    13518    13798    13818    13177    12896    13274 
   13419    13408    13447    13201    13065    13350    13478    13162 
   12969    13470    14150    14199    14015    14023    13914    13853 
   13751    13169    13077    13860    14029    13527    13528    13733 
   13567    13505    13680    13547    13402    13729    13917    13747 
   13613    13390    13240    13429    13454    13204    13254    13648 
   13807    13446    13085    13016    13030    13274    13481    13420 
   13763    14149    13782    13481    13620    13428    13154    13278 
   13389    13525    13842    13662    13085    13007    13162    13193 
   13548    13871    13603    13266    13300    13527    13726    13676 
   13396    13348    13695    13859    13590    13494    13622    13397 
   13139    13342    13531    13377    13373    13803    14026    13581 
   13070    13031    13311    13489    13271    13192    13720    14022 
   13686    13467    13532    13678    13990    14069    13698    13475 
   13513    13401    13228    13219    13402    13617    13599    13614 
   13794    13593    13263    13532    13829    13645    13562    13541 
   13421    13598    13728    13594    13693    13801    13594    13452 
   13446    13396    13454    13628    13502    13011    12961    13474 
   13477    13126    13436    13860    13624    13409    13628    13583 
   13342    13560    13763    13686    13830    13768    13271    13248 
   13845    14164    13852    13506    13468    13443    13350    13294 
   13383    13670    13803    13552    13231    13203    13455    13717 
   13869    13722    13265    13219    13629    13536    13103    13288 
   13853    13942    13686    13524    13362    13406    13749    13899 
   13896    13861    13556    13356    13544    13678    13531    13150 
   12914    13371    13932    13807    13512    13505    13466    13267 
   13058    12924    13065    13455    13618    13563    13697    13728 
   13298    13058    13464    13668    13396    13533    13729    13275 
   13016    13119    12870    12980    13772    13988    13419    13109 
   13247    13243    13053    13081    13308    13370    13254    13239 
   13312    13329    13500    13759    13575    13103    13072    13508 
   13703    13381    13219    13554    13709    13400    13150    13190 
   13464    13991    14268    13944    13568    13444    13456    13560 
   13578    13632    13826    13973    14077    13891    13517    13636 
   13805    13406    13232    13563    13695    13726    13948    14087 
   14067    13906    13556    13203    13043    13120    13305    13554 
   13882    13763    13042    12654    12891    13153    13126    12931 
   13216    13991    14185    13558    13113    13477    13892    13616 
   13444    13863    14010    13706    13560    13532    13356    13284 
   13506    13668    13402    13039    13186    13578    13509    13471 
   14145    14608    14148    13716    13768    13574    13161    13158 
   13239    13196    13656    14241    14229    14094    13864    13289 
   13259    13807    13882    13734    14108    14544    14335    13833 
   13570    13213    12849    13058    13324    13255    13414    13626 
   13338    12955    12872    12760    12752    13505    14553    14837 
   14534    14256    13859    13208    12847    13049    13239    13192 
   13257    13549    13952    14223    14189    13790    13161    13003 
   13302    13024    12522    12893    13459    13352    13194    13485 
   13906    14152    13936    13412    13338    13517    13382    13366 
   13493    13520    13649    13470    13096    13243    13327    13147 
   13610    14191    13900    13371    13281    13140    12447    11865 
   12390    13535    14253    14611    14770    14527    14185    13954 
   13641    13373    13178    13093    13567    14181    14119    13729 
   13513    13355    13273    13290    13360    13701    14034    13734 
   13111    12910    12982    12742    12468    12784    13408    13798 
   13894    13537    12879    12777    13273    13475    13215    12943 
   13001    13482    13923    13900    13741    13863    14121    14131 
   13875    13706    13856    14096    14033    13787    13635    13494 
   13387    13509    13926    14335    14261    13859    13747    13913 
   13694    13061    12881    13343    13509    13027    12772    13100 
   13224    13115    13306    13437    13528    14038    14459    14291 
   13775    13439    13447    13315    13197    13490    13483    13203 
   13522    13851    13570    13689    14505    14742    13848    12718 
   12071    11796    11923    12474    12970    13440    14164    14635 
   14466    13956    13447    12985    12479    12275    12711    13352 
   13976    14547    14474    13788    13107    12591    12399    12602 
   12891    13190    13568    13844    13890    13836    13657    13448 
   13641    13909    13733    13508    13410    13509    13995    14266 
   14052    13774    13414    13046    12901    12879    13031    13370 
   13509    13398    13315    13342    13601    13887    13921    14203 
   14656    14509    13992    13662    13440    13198    13255    13694 
   14041    14331    14702    14565    13779    13041    12676    12456 
   12417    12649    13081    13836    14377    13996    13562    13716 
   13450    12769    13036    14107    14536    14015    13397    13239 
   13115    12815    13211    14118    14133    13590    13527    13261 
   12415    11956    12114    12534    13387    14411    14800    14652 
   14581    14400    13714    13093    13211    13533    13733    14426 
   15151    14921    14226    13834    13502    13092    12984    12939 
   12663    12750    13155    13031    12788    13382    14148    14057 
   13693    13725    13613    13177    12989    13088    12988    12792 
   13128    13709    13630    13131    12982    13158    13329    13524 
   13837    14164    14326    14056    13443    13182    13362    13401 
   13356    13504    13657    13598    13155    12708    12943    13296 
   13031    12923    13320    13394    13265    13585    13733    13257 
   13122    13710    14320    14704    14902    14837    14373    13428 
   12615    12465    12536    12634    13194    14191    15052    15309 
   14746    13694    13046    12900    12738    12922    13679    14207 
   14157    13991    13902    13544    12780    12148    12133    12602 
   13113    13359    13501    13819    14246    14440    14100    13566 
   13281    12965    12735    12978    13219    13495    14296    14555 
   13605    12783    12631    12630    12833    13258    13775    14212 
   14227    13837    13344    13193    13583    13863    13724    13770 
   13795    13419    13281    13296    12892    12688    13012    13238 
   13471    14146    14593    14295    14014    13853    13122    12668 
   13207    13471    13116    13116    13254    13113    13189    13386 
   13155    12937    13320    13725    13624    13494    13535    13477 
   13640    14197    14563    14589    14496    14191    13784    13478 
   13328    13409    13527    13621    13825    13915    13819    13748 
   13585    13335    13473    14013    14315    14122    13753    13342 
   12934    12876    13038    13073    13320    13668    13581    13397 
   13252    12862    12845    13433    13753    13768    14122    14331 
   13830    13343    13385    13505    13483    13467    13516    13635 
   13775    13724    13329    12973    12845    12598    12540    13072 
   13564    13578    13549    13624    13497    13379    13494    13414 
   13271    13624    13887    13571    13404    13448    13240    13343 
   13875    13875    13347    13036    12999    13255    13743    14033 
   14353    14729    14426    13757    13639    13722    13440    13128 
   12823    12542    12928    13390    13080    12972    13491    13752 
   13729    13817    13797    13713    13913    13913    13319    12927 
   13009    13081    13410    13828    13483    12984    13221    13564 
   13475    13365    13603    13960    13884    13532    13621    13865 
   13532    13262    13621    13629    13085    12881    13020    13165 
   13275    13429    13768    13975    13868    13572    13077    13108 
   13857    14226    14445    14806    14435    14034    14034    13424 
   12872    13063    13093    13019    13224    13194    13127    13192 
   12711    12226    12792    13797    14193    14041    13968    14265 
   14485    14254    13844    13257    12483    12237    12858    13640 
   13878    13807    13919    14083    14045    13875    13674    13338 
   12908    12918    13460    13853    13995    14218    14085    13477 
   13204    13317    13251    13298    13702    13844    13610    13594 
   13771    13687    13463    13568    13776    13541    13207    13138 
   13068    13136    13408    13443    13427    13624    13628    13486 
   13589    13799    13818    13605    13478    13614    13757    13923 
   14116    13871    13290    13045    13177    13412    13756    13969 
   13722    13136    12559    12361    12769    13275    13239    13188 
   13616    13694    13244    13215    13446    13262    13207    13663 
   13923    13821    13844    13718    13201    13032    13443    13794 
   14006    14310    14440    14203    13842    13508    13181    13001 
   13004    13086    13386    14022    14511    14253    13652    13491 
   13435    12893    12495    12766    13039    13068    13478    14022 
   13825    13397    13528    13429    12803    12660    13022    13304 
   13703    14289    14639    14447    13832    13429    13467    13201 
   12544    12483    12864    12889    13244    14102    14331    14106 
   13923    13262    12656    12981    13475    13683    14230    14742 
   14428    13663    13203    13325    13629    13478    13246    13663 
   14273    14235    13533    12916    13012    13324    13321    13591 
   14212    14369    13984    13625    13571    13590    13412    13401 
   13802    13822    13150    12916    13360    13409    13112    13331 
   13868    13964    13765    13780    13625    13177    13192    13595 
   13837    13946    13942    13910    13842    13435    12927    12829 
   12866    12725    12930    13582    14227    14750    14643    13983 
   13751    13555    12958    12877    13366    13753    13948    14037 
   14121    13987    13560    13493    13566    13007    12552    12694 
   12784    12989    13311    13000    12573    13016    13749    13772 
   13377    13250    13317    13304    13366    13725    14033    13887 
   13513    13217    13203    13348    13176    12938    13153    13375 
   13055    12683    13004    13552    13440    13220    13630    13965 
   13945    14204    14318    13795    13525    13768    13614    13219 
   13410    13659    13225    13031    13632    13821    13377    13178 
   13170    13181    13305    13551    14023    14179    13535    12953 
   13177    13540    13412    13263    13570    13960    13829    13281 
   12989    13059    12977    12993    13697    14222    13822    13576 
   13825    13617    13238    13474    13942    14067    13894    13635 
   13446    13462    13636    13786    13790    13703    13849    14189 
   14158    13738    13367    13134    13072    13213    13288    13258 
   13405    13572    13548    13587    13667    13504    13313    13485 
   13868    13990    13798    13706    13743    13667    13714    13976 
   14173    14268    14021    13477    13292    13254    12950    12841 
   13155    13979    14947    14774    13610    12957    12973    12915 
   12663    12804    13680    14497    14513    14099    13721    13425 
   13046    12523    12444    12943    13189    13150    13365    13656 
   13817    13776    13516    13390    13513    13609    13567    13493 
   13541    13740    13703    13111    12652    13065    13643    13649 
   13702    14008    13799    13224    12976    12864    12827    13332 
   13905    13798    13680    14008    13918    13351    13078    13112 
   13297    13466    13390    13516    13926    13913    13455    13142 
