Origin Time       2024/04/02 04:24:00
Lat.              40.133
Long.             141.712
Depth. (km)       71
Mag.              6.0
Station Code      FKSH16
Station Lat.      37.7643
Station Long.     140.3766
Station Height(m) 135
Record Time       2024/04/02 04:25:23
Sampling Freq(Hz) 100Hz
Duration Time(s)  120
Dir.              5
Scale Factor      7845(gal)/8223790
Max. Acc. (gal)   1.684
Last Correction   2024/04/02 04:25:23
Memo.             
[...]
   -6484    -6534    -6651    -6635    -6558    -6520    -6450    -6328 
   -6245    -6280    -6388    -6384    -6268    -6195    -6162    -6228 
   -6481    -6685    -6664    -6569    -6470    -6342    -6254    -6266 
   -6359    -6428    -6382    -6297    -6266    -6307    -6435    -6542 
   -6471    -6286    -6188    -6230    -6277    -6237    -6176    -6099 
   -5952    -5907    -6106    -6274    -6214    -6143    -6201    -6293 
   -6419    -6521    -6447    -6246    -6124    -6151    -6286    -6448 
   -6574    -6632    -6578    -6457    -6412    -6477    -6548    -6546 
   -6474    -6357    -6250    -6293    -6451    -6523    -6461    -6359 
   -6266    -6207    -6227    -6324    -6362    -6311    -6278    -6235 
   -6118    -6012    -5977    -6007    -6092    -6181    -6220    -6168 
   -6072    -6052    -6134    -6303    -6466    -6438    -6238    -6114 
   -6166    -6199    -6039    -5817    -5680    -5633    -5730    -5960 
   -6168    -6254    -6160    -5941    -5809    -5819    -5875    -5957 
   -6103    -6304    -6502    -6588    -6532    -6416    -6278    -6168 
   -6147    -6234    -6384    -6523    -6593    -6589    -6562    -6559 
   -6535    -6446    -6345    -6311    -6436    -6701    -6913    -6891 
   -6706    -6565    -6542    -6644    -6829    -6864    -6655    -6528 
   -6689    -6916    -7040    -7067    -6925    -6643    -6467    -6515 
   -6619    -6662    -6635    -6524    -6413    -6388    -6436    -6516 
   -6531    -6521    -6619    -6705    -6615    -6390    -6184    -6124 
   -6224    -6400    -6542    -6562    -6461    -6342    -6311    -6381 
   -6471    -6494    -6480    -6477    -6444    -6423    -6428    -6412 
   -6443    -6461    -6400    -6405    -6426    -6332    -6220    -6192 
   -6264    -6357    -6404    -6446    -6459    -6399    -6339    -6251 
   -6052    -5852    -5769    -5850    -6118    -6400    -6459    -6316 
   -6196    -6189    -6249    -6362    -6376    -6208    -6142    -6266 
   -6361    -6336    -6241    -6154    -6153    -6197    -6231    -6251 
   -6237    -6168    -6106    -6141    -6201    -6141    -6016    -5937 
   -5929    -6035    -6154    -6158    -6116    -6111    -6134    -6099 
   -6002    -5934    -5884    -5871    -5919    -5941    -5979    -6057 
   -6062    -6066    -6196    -6350    -6386    -6336    -6299    -6199 
   -6015    -5973    -6068    -6097    -6154    -6245    -6177    -6099 
   -6162    -6170    -6131    -6228    -6313    -6273    -6323    -6475 
   -6567    -6605    -6565    -6485    -6539    -6644    -6656    -6650 
   -6690    -6775    -6845    -6825    -6721    -6601    -6567    -6629 
   -6615    -6558    -6631    -6685    -6691    -6880    -7061    -6943 
   -6731    -6590    -6444    -6440    -6632    -6751    -6691    -6534 
   -6359    -6300    -6426    -6632    -6787    -6889    -6944    -6886 
   -6756    -6670    -6631    -6573    -6532    -6583    -6662    -6705 
   -6709    -6556    -6284    -6178    -6328    -6520    -6566    -6501 
   -6481    -6443    -6251    -6131    -6249    -6301    -6238    -6374 
   -6539    -6409    -6169    -5991    -5876    -5896    -6008    -6114 
   -6106    -5998    -6007    -6066    -5977    -5931    -6029    -6019 
   -5861    -5822    -6015    -6205    -6188    -6103    -6091    -6023 
   -5865    -5830    -5965    -6064    -6073    -6076    -5999    -5834 
   -5803    -5884    -5853    -5821    -5957    -6081    -6097    -6141 
   -6215    -6195    -6029    -5844    -5833    -5964    -6080    -6173 
   -6254    -6255    -6189    -6168    -6230    -6276    -6223    -6147 
   -6151    -6192    -6296    -6505    -6594    -6520    -6542    -6625 
   -6600    -6565    -6621    -6687    -6720    -6779    -6817    -6766 
   -6691    -6621    -6571    -6627    -6718    -6723    -6675    -6619 
   -6608    -6681    -6787    -6824    -6720    -6588    -6554    -6604 
   -6736    -6902    -6972    -6963    -6917    -6802    -6691    -6662 
   -6643    -6563    -6540    -6744    -7037    -7117    -6957    -6750 
   -6571    -6377    -6228    -6303    -6471    -6412    -6250    -6285 
   -6423    -6484    -6490    -6486    -6474    -6399    -6262    -6189 
   -6203    -6189    -6129    -6100    -6156    -6265    -6313    -6251 
   -6192    -6219    -6238    -6138    -6023    -6018    -5999    -5872 
   -5805    -5873    -5960    -6004    -5985    -5863    -5703    -5640 
   -5721    -5884    -6014    -6062    -6077    -6045    -5962    -5981 
   -6064    -5930    -5710    -5757    -5931    -5989    -6049    -6197 
   -6354    -6440    -6370    -6188    -6057    -5973    -5925    -6052 
   -6313    -6497    -6531    -6451    -6311    -6266    -6419    -6628 
   -6754    -6779    -6709    -6655    -6741    -6894    -6906    -6724 
   -6565    -6551    -6590    -6648    -6713    -6739    -6764    -6789 
   -6724    -6575    -6442    -6355    -6292    -6274    -6340    -6497 
   -6697    -6764    -6644    -6559    -6561    -6434    -6238    -6195 
   -6266    -6340    -6424    -6489    -6436    -6239    -6089    -6168 
   -6320    -6355    -6349    -6372    -6342    -6191    -6081    -6191 
   -6318    -6296    -6354    -6490    -6451    -6365    -6388    -6349 
   -6272    -6273    -6292    -6409    -6617    -6666    -6569    -6492 
   -6405    -6259    -6135    -6104    -6126    -6172    -6228    -6211 
   -6114    -6052    -6053    -6088    -6180    -6254    -6204    -6115 
   -6096    -6096    -6133    -6269    -6369    -6354    -6345    -6347 
   -6278    -6123    -5918    -5806    -5914    -6174    -6446    -6588 
   -6573    -6489    -6381    -6253    -6097    -5984    -6000    -6065 
   -6201    -6458    -6574    -6462    -6339    -6301    -6343    -6369 
   -6332    -6399    -6539    -6635    -6706    -6578    -6204    -5957 
   -6052    -6374    -6710    -6832    -6674    -6338    -5998    -5877 
   -6018    -6212    -6300    -6288    -6228    -6135    -6052    -6035 
   -5985    -5892    -5952    -6133    -6241    -6239    -6185    -6153 
   -6127    -6046    -5976    -5991    -6120    -6327    -6404    -6334 
   -6347    -6443    -6484    -6520    -6596    -6585    -6490    -6474 
   -6570    -6712    -6781    -6646    -6440    -6354    -6347    -6424 
   -6612    -6760    -6831    -6901    -6910    -6833    -6801    -6818 
   -6801    -6836    -6976    -7022    -6853    -6660    -6643    -6748 
   -6837    -6885    -6858    -6733    -6670    -6766    -6961    -7144 
   -7168    -7061    -6967    -6891    -6859    -6932    -7007    -6972 
   -6886    -6872    -6916    -6920    -6822    -6632    -6457    -6342 
   -6226    -6169    -6192    -6210    -6276    -6339    -6257    -6211 
   -6259    -6114    -5815    -5721    -5938    -6216    -6239    -5965 
   -5575    -5238    -5111    -5225    -5466    -5771    -6016    -5981 
   -5730    -5548    -5528    -5555    -5570    -5664    -5895    -6111 
   -6092    -5880    -5761    -5810    -5934    -6139    -6369    -6508 
   -6454    -6192    -6037    -6185    -6326    -6284    -6261    -6345 
   -6415    -6403    -6349    -6218    -5964    -5796    -5887    -6068 
   -6119    -5967    -5702    -5514    -5439    -5417    -5481    -5597 
   -5714    -5860    -6004    -6130    -6270    -6324    -6210    -6160 
   -6459    -6937    -7226    -7230    -7038    -6845    -6818    -6867 
   -6853    -6805    -6806    -6878    -6949    -6951    -6867    -6727 
   -6575    -6471    -6559    -6809    -6905    -6787    -6766    -6929 
   -7041    -6975    -6822    -6710    -6671    -6705    -6852    -7033 
   -7092    -7088    -7138    -7217    -7348    -7530    -7547    -7310 
   -6972    -6654    -6465    -6492    -6571    -6475    -6255    -6056 
   -5886    -5718    -5602    -5629    -5737    -5746    -5686    -5722 
   -5911    -6131    -6223    -6214    -6187    -6073    -5883    -5728 
   -5694    -5894    -6295    -6511    -6288    -5942    -5788    -5759 
   -5890    -6172    -6242    -5998    -5709    -5510    -5545    -5896 
   -6238    -6293    -6211    -6237    -6365    -6374    -6216    -6095 
   -6166    -6409    -6663    -6785    -6650    -6218    -5823    -5788 
   -5913    -5967    -6000    -6064    -6154    -6277    -6439    -6562 
   -6439    -6120    -5907    -5913    -6076    -6258    -6320    -6374 
   -6486    -6508    -6475    -6475    -6477    -6548    -6700    -6754 
   -6596    -6297    -6042    -6002    -6192    -6492    -6741    -6785 
   -6631    -6389    -6107    -5995    -6241    -6633    -6889    -6961 
   -6936    -6837    -6625    -6439    -6444    -6486    -6455    -6493 
   -6570    -6551    -6521    -6600    -6791    -6963    -6921    -6673 
   -6365    -6045    -5825    -5895    -6161    -6378    -6505    -6490 
   -6249    -6000    -5989    -6091    -6208    -6411    -6574    -6582 
   -6567    -6623    -6628    -6505    -6330    -6177    -6089    -6029 
   -6016    -6153    -6245    -6107    -5998    -6037    -6016    -5892 
   -5768    -5736    -5868    -6070    -6205    -6243    -6185    -6126 
   -6110    -6061    -5952    -5786    -5630    -5609    -5699    -5836 
   -6010    -6166    -6222    -6177    -6239    -6547    -6878    -7038 
   -7021    -6768    -6394    -6083    -5945    -6126    -6465    -6651 
   -6697    -6604    -6268    -5863    -5680    -5783    -6022    -6205 
   -6281    -6369    -6516    -6623    -6768    -7094    -7285    -7007 
   -6539    -6274    -6227    -6288    -6347    -6336    -6316    -6319 
   -6289    -6195    -6106    -6249    -6697    -7168    -7466    -7546 
   -7233    -6546    -5917    -5761    -6172    -6840    -7199    -7087 
   -6871    -6810    -6852    -6853    -6650    -6214    -5799    -5668 
   -5809    -6146    -6640    -7015    -7122    -7161    -7096    -6853 
   -6760    -7056    -7546    -7801    -7593    -7182    -6944    -7020 
   -7261    -7434    -7454    -7268    -6813    -6340    -6151    -6124 
   -6114    -6115    -5988    -5813    -5879    -6149    -6296    -6165 
   -5976    -5926    -5892    -5842    -5899    -6046    -6053    -5719 
   -5281    -5150    -5294    -5408    -5437    -5514    -5699    -6035 
   -6409    -6504    -6353    -6326    -6409    -6363    -6296    -6335 
   -6334    -6235    -6160    -6130    -5980    -5803    -5876    -5996 
   -5921    -5861    -5919    -5894    -5641    -5316    -5259    -5536 
   -5894    -6272    -6723    -6984    -6828    -6531    -6407    -6358 
   -6261    -6261    -6338    -6269    -6061    -5798    -5454    -5147 
   -5032    -5109    -5397    -5887    -6328    -6475    -6416    -6384 
   -6461    -6548    -6565    -6592    -6648    -6654    -6656    -6693 
   -6701    -6646    -6461    -6224    -6181    -6250    -6250    -6335 
   -6511    -6708    -7111    -7560    -7620    -7410    -7334    -7426 
   -7538    -7673    -7777    -7689    -7415    -7061    -6650    -6276 
   -6087    -6025    -6022    -6224    -6615    -6905    -6856    -6388 
   -5780    -5557    -5800    -6095    -6180    -6143    -6087    -6065 
   -6166    -6363    -6471    -6401    -6265    -6177    -6131    -6052 
   -5860    -5574    -5286    -5063    -4999    -5189    -5497    -5633 
   -5633    -5706    -5819    -5948    -6177    -6427    -6610    -6635 
   -6471    -6384    -6511    -6646    -6592    -6369    -6220    -6301 
   -6501    -6717    -6851    -6728    -6390    -6112    -6119    -6389 
   -6593    -6519    -6363    -6312    -6359    -6448    -6451    -6340 
   -6239    -6259    -6411    -6561    -6642    -6623    -6397    -6201 
   -6400    -6795    -6978    -6883    -6701    -6646    -6652    -6535 
   -6430    -6421    -6316    -6115    -6062    -6296    -6643    -6822 
   -6793    -6598    -6342    -6251    -6332    -6446    -6615    -6797 
   -6763    -6482    -6307    -6393    -6555    -6816    -7138    -7167 
   -6849    -6448    -6200    -6372    -6913    -7387    -7438    -6971 
   -6197    -5553    -5375    -5653    -6097    -6474    -6678    -6662 
   -6548    -6432    -6272    -6133    -6106    -6124    -6066    -5992 
   -6110    -6326    -6372    -6247    -6081    -5930    -5846    -5864 
   -5895    -5798    -5670    -5742    -5919    -6030    -6251    -6582 
   -6642    -6378    -6118    -5996    -5984    -6070    -6160    -6299 
   -6635    -6993    -7037    -6714    -6178    -5699    -5537    -5660 
   -5942    -6390    -6821    -6945    -6833    -6713    -6586    -6338 
   -5975    -5746    -5857    -6141    -6377    -6552    -6593    -6343 
   -5925    -5719    -5840    -6061    -6292    -6532    -6600    -6473 
   -6361    -6282    -6205    -6219    -6319    -6427    -6493    -6502 
   -6492    -6461    -6400    -6320    -6211    -6149    -6172    -6103 
   -5868    -5625    -5441    -5332    -5391    -5665    -6027    -6238 
   -6177    -5918    -5665    -5636    -5861    -6250    -6656    -6806 
   -6617    -6347    -6166    -6084    -6120    -6253    -6377    -6373 
   -6184    -5902    -5738    -5819    -6056    -6340    -6686    -7003 
   -7156    -7130    -6964    -6829    -6810    -6822    -7015    -7391 
   -7547    -7435    -7317    -7246    -7223    -7273    -7443    -7682 
   -7732    -7574    -7456    -7398    -7352    -7265    -6997    -6745 
   -6802    -6999    -7072    -6991    -6821    -6658    -6625    -6747 
   -6872    -6912    -6956    -7044    -7118    -7182    -7203    -7052 
   -6659    -6160    -5818    -5728    -5763    -5760    -5643    -5499 
   -5445    -5475    -5587    -5814    -6080    -6129    -5838    -5622 
   -5842    -6151    -6122    -5871    -5626    -5405    -5227    -5115 
   -5080    -5086    -4984    -4872    -4968    -5139    -5212    -5108 
   -4791    -4579    -4781    -5250    -5676    -5830    -5659    -5350 
   -5080    -4972    -5158    -5556    -5954    -6223    -6245    -6084 
   -6019    -6068    -6043    -5969    -6000    -6218    -6590    -6994 
   -7277    -7258    -6882    -6457    -6435    -6909    -7515    -7804 
   -7615    -7156    -6771    -6613    -6650    -6891    -7249    -7369 
   -7129    -6871    -6828    -6837    -6831    -7065    -7569    -7897 
   -7831    -7528    -7118    -6783    -6733    -6984    -7387    -7605 
   -7418    -6975    -6504    -6228    -6357    -6779    -7190    -7438 
   -7501    -7396    -7211    -6967    -6646    -6430    -6420    -6450 
   -6475    -6551    -6546    -6361    -6058    -5765    -5699    -5933 
   -6216    -6346    -6284    -6023    -5792    -5802    -5845    -5742 
   -5636    -5657    -5872    -6219    -6458    -6408    -6080    -5721 
   -5498    -5309    -5266    -5532    -5798    -5806    -5660    -5487 
   -5397    -5390    -5417    -5574    -5718    -5566    -5265    -5115 
   -5205    -5517    -5908    -6226    -6382    -6266    -5942    -5679 
   -5587    -5553    -5602    -5825    -6006    -5911    -5772    -5881 
   -6072    -6156    -6367    -6804    -7156    -7260    -7080    -6601 
   -6191    -6216    -6528    -6871    -7203    -7442    -7362    -6833 
   -6226    -6104    -6359    -6467    -6407    -6439    -6501    -6496 
   -6586    -6759    -6805    -6812    -6943    -7032    -6970    -7020 
   -7369    -7695    -7607    -7292    -7121    -6970    -6636    -6378 
   -6493    -6905    -7254    -7252    -7060    -6978    -6941    -6789 
   -6520    -6246    -6147    -6269    -6462    -6637    -6754    -6679 
   -6362    -6041    -6029    -6355    -6755    -6902    -6762    -6625 
   -6561    -6471    -6415    -6392    -6421    -6531    -6498    -6285 
   -6201    -6300    -6257    -6031    -5964    -6048    -6008    -5829 
   -5557    -5346    -5495    -5938    -6323    -6415    -6123    -5616 
   -5233    -5144    -5323    -5582    -5674    -5562    -5427    -5487 
   -5726    -5853    -5759    -5656    -5701    -5898    -6218    -6507 
   -6536    -6357    -6149    -6035    -6154    -6397    -6481    -6354 
   -6119    -5954    -6081    -6332    -6346    -6156    -5981    -5994 
   -6369    -6948    -7349    -7395    -7045    -6462    -6008    -5854 
   -5875    -5898    -6039    -6527    -7149    -7495    -7379    -6868 
   -6323    -6122    -6315    -6656    -6875    -6916    -6912    -6955 
   -7059    -7121    -6890    -6386    -6002    -5996    -6292    -6546 
   -6498    -6285    -6102    -6030    -6161    -6393    -6532    -6579 
   -6621    -6794    -7179    -7515    -7458    -7003    -6416    -6068 
   -6146    -6363    -6385    -6234    -6007    -5813    -5776    -5876 
   -6103    -6409    -6660    -6743    -6527    -6110    -5798    -5715 
   -5891    -6284    -6620    -6731    -6693    -6579    -6451    -6424 
   -6519    -6619    -6635    -6708    -6967    -7156    -6999    -6610 
   -6270    -6110    -6145    -6421    -6826    -7026    -6787    -6261 
   -5841    -5690    -5674    -5760    -5992    -6268    -6416    -6305 
   -6012    -5814    -5830    -6026    -6427    -6789    -6613    -5911 
   -5204    -4919    -5238    -5946    -6540    -6810    -6858    -6655 
   -6165    -5575    -5116    -4963    -5256    -5880    -6475    -6772 
   -6751    -6515    -6161    -5899    -5971    -6296    -6606    -6767 
   -6781    -6687    -6480    -6214    -6075    -6115    -6150    -6106 
   -6185    -6539    -6953    -7069    -6794    -6327    -5917    -5752 
   -5958    -6419    -6739    -6739    -6504    -6146    -5949    -6027 
   -6139    -6214    -6262    -6238    -6296    -6444    -6451    -6380 
   -6403    -6385    -6193    -5941    -5792    -5795    -5913    -6100 
   -6308    -6471    -6507    -6400    -6265    -6195    -6212    -6280 
   -6299    -6361    -6664    -7061    -7175    -6883    -6474    -6254 
   -6176    -6187    -6390    -6667    -6810    -6801    -6663    -6504 
   -6477    -6558    -6702    -6868    -6909    -6837    -6779    -6720 
   -6644    -6610    -6621    -6616    -6523    -6311    -6058    -5917 
   -5931    -6062    -6268    -6489    -6735    -6886    -6667    -6161 
   -5775    -5713    -5948    -6359    -6620    -6458    -6130    -5989 
   -6042    -6269    -6609    -6858    -6994    -7080    -7060    -6917 
   -6714    -6529    -6444    -6498    -6658    -6743    -6579    -6307 
   -6184    -6280    -6562    -6894    -7025    -6866    -6520    -6089 
   -5773    -5827    -6100    -6199    -6043    -5856    -5900    -6226 
   -6519    -6536    -6389    -6250    -6162    -6161    -6304    -6512 
   -6565    -6308    -5854    -5566    -5599    -5760    -5948    -6142 
   -6164    -5934    -5610    -5437    -5624    -6069    -6447    -6556 
   -6405    -6150    -6021    -6131    -6431    -6783    -7005    -7005 
   -6858    -6621    -6291    -5972    -5879    -6079    -6345    -6480 
   -6492    -6305    -5921    -5706    -5933    -6459    -6966    -7074 
   -6705    -6316    -6238    -6335    -6390    -6201    -5859    -5761 
   -5877    -5949    -6064    -6237    -6304    -6295    -6340    -6488 
   -6640    -6558    -6138    -5659    -5481    -5652    -5998    -6311 
   -6508    -6583    -6408    -5930    -5491    -5475    -5765    -6018 
   -6237    -6597    -6970    -7057    -6839    -6563    -6512    -6818 
   -7238    -7408    -7365    -7268    -7044    -6798    -6775    -6847 
   -6829    -6853    -6890    -6710    -6416    -6311    -6370    -6377 
   -6380    -6513    -6704    -6863    -6852    -6551    -6255    -6172 
   -6075    -6012    -6232    -6583    -6786    -6774    -6651    -6446 
   -6100    -5841    -5923    -6110    -6176    -6239    -6180    -5813 
   -5547    -5796    -6257    -6409    -6041    -5333    -4731    -4594 
   -5076    -5961    -6623    -6696    -6396    -6076    -5964    -6089 
