Origin Time       2024/04/02 04:24:00
Lat.              40.133
Long.             141.712
Depth. (km)       71
Mag.              6.0
Station Code      FKSH09
Station Lat.      37.3530
Station Long.     140.4264
Station Height(m) 260
Record Time       2024/04/02 04:25:35
Sampling Freq(Hz) 100Hz
Duration Time(s)  120
Dir.              4
Scale Factor      7845(gal)/8223790
Max. Acc. (gal)   2.980
Last Correction   2024/04/02 04:25:36
Memo.             
[...]
  -11634   -11898   -12051   -12225   -12383   -12313   -12102   -11835 
  -11592   -11460   -11448   -11597   -11865   -12214   -12603   -12675 
  -12213   -11612   -11306   -11292   -11520   -11934   -12148   -11935 
  -11657   -11684   -11834   -11794   -11678   -11681   -11781   -11919 
  -11983   -11907   -11811   -11727   -11665   -11796   -11927   -11766 
  -11713   -12029   -12210   -12128   -12104   -11934   -11545   -11607 
  -12017   -11884   -11508   -11668   -11948   -12021   -12220   -12310 
  -11956   -11500   -11334   -11502   -11773   -12004   -12201   -12191 
  -11961   -11853   -11985   -12091   -12013   -11956   -11959   -11735 
  -11524   -11712   -11853   -11576   -11290   -11389   -11781   -12079 
  -12139   -12152   -12108   -11824   -11437   -11277   -11403   -11574 
  -11753   -11988   -12055   -11888   -11649   -11518   -11743   -12152 
  -12160   -11831   -11627   -11554   -11576   -11705   -11759   -11799 
  -11929   -12040   -12105   -12033   -11855   -11873   -11994   -12062 
  -12256   -12306   -11986   -11755   -11701   -11703   -11917   -12086 
  -12051   -11969   -11724   -11502   -11588   -11726   -11780   -11866 
  -11958   -12029   -12079   -12050   -11878   -11637   -11600   -11780 
  -11942   -12195   -12487   -12383   -11965   -11526   -11128   -11146 
  -11742   -12359   -12614   -12503   -12074   -11620   -11364   -11232 
  -11394   -11889   -12195   -12268   -12407   -12268   -11740   -11242 
  -10980   -11190   -11823   -12286   -12453   -12457   -12010   -11381 
  -11403   -11902   -12070   -11966   -11940   -11762   -11539   -11699 
  -11932   -11827   -11643   -11620   -11655   -11703   -11834   -12005 
  -12025   -11805   -11610   -11697   -11844   -11839   -11955   -12152 
  -11927   -11450   -11311   -11472   -11680   -11923   -12085   -12028 
  -11809   -11685   -11858   -12029   -11832   -11626   -11800   -12032 
  -12145   -12239   -11981   -11441   -11286   -11522   -11865   -12268 
  -12437   -12349   -12220   -11924   -11568   -11402   -11358   -11434 
  -11707   -12135   -12388   -12150   -11813   -11855   -12063   -12177 
  -12233   -12174   -11745   -11192   -11179   -11539   -11778   -12010 
  -12181   -12050   -11796   -11688   -11749   -11838   -11907   -11954 
  -11866   -11722   -11676   -11699   -11865   -12185   -12425   -12368 
  -12006   -11668   -11638   -11782   -11925   -12031   -12008   -11904 
  -11855   -11928   -12062   -11981   -11750   -11740   -11812   -11897 
  -12243   -12492   -12289   -11913   -11608   -11403   -11356   -11597 
  -11990   -12067   -11936   -12035   -12062   -11695   -11380   -11385 
  -11394   -11503   -11952   -12228   -12059   -11965   -12086   -11979 
  -11588   -11331   -11215   -11124   -11473   -12177   -12433   -12186 
  -12069   -11998   -11593   -11484   -12098   -12490   -12236   -12013 
  -11936   -11801   -11927   -12349   -12491   -12148   -11807   -11665 
  -11558   -11844   -12555   -12789   -12298   -11703   -11271   -11095 
  -11435   -12024   -12272   -12156   -11996   -11886   -11781   -11693 
  -11596   -11392   -11304   -11630   -11958   -11843   -11651   -11678 
  -11624   -11520   -11789   -12087   -11855   -11592   -11709   -11746 
  -11761   -12000   -12055   -11974   -11954   -11643   -11389   -11673 
  -11857   -11686   -11668   -11681   -11562   -11666   -11915   -11966 
  -11959   -12066   -12110   -11959   -11747   -11689   -11701   -11603 
  -11678   -11996   -12002   -11753   -11654   -11576   -11527   -11659 
  -11885   -12132   -12097   -11653   -11429   -11692   -12009   -12253 
  -12426   -12401   -12263   -12017   -11699   -11645   -11759   -11646 
  -11519   -11691   -11946   -12082   -12055   -11927   -11928   -11878 
  -11553   -11410   -11682   -12043   -12276   -12210   -11788   -11344 
  -11237   -11608   -12343   -12885   -12761   -12193   -11680   -11465 
  -11537   -11731   -11923   -12067   -12116   -12098   -11896   -11356 
  -11013   -11346   -11794   -12009   -12249   -12124   -11430   -11179 
  -11739   -12186   -12228   -12295   -12410   -12406   -12290   -12139 
  -11788   -11141   -10786   -11168   -11877   -12393   -12544   -12287 
  -11753   -11429   -11578   -11754   -11754   -11869   -11973   -11858 
  -11766   -11877   -12094   -12210   -12044   -11740   -11526   -11406 
  -11403   -11527   -11618   -11611   -11715   -12017   -12156   -12019 
  -11946   -11931   -11936   -12140   -12141   -11716   -11408   -11412 
  -11704   -12222   -12426   -12197   -11913   -11704   -11677   -11828 
  -11947   -11931   -11861   -11869   -11834   -11655   -11608   -11823 
  -12079   -12226   -12210   -11870   -11376   -11331   -11758   -12143 
  -12314   -12260   -12035   -11832   -11638   -11426   -11461   -11797 
  -12058   -12143   -12225   -12082   -11564   -11057   -10932   -11200 
  -11595   -11994   -12436   -12576   -12239   -11801   -11533   -11468 
  -11527   -11678   -12033   -12344   -12247   -11875   -11562   -11500 
  -11700   -12015   -12214   -12055   -11658   -11523   -11718   -11934 
  -12085   -12129   -12074   -12042   -12048   -12091   -12015   -11639 
  -11338   -11450   -11707   -11901   -12106   -12262   -12195   -12032 
  -12043   -12033   -11920   -11998   -12024   -11773   -11581   -11500 
  -11499   -11782   -12152   -12255   -12101   -11772   -11330   -11144 
  -11516   -12056   -12326   -12343   -11896   -11160   -11101   -11804 
  -12460   -12757   -12623   -12009   -11211   -10719   -10876   -11493 
  -12123   -12526   -12534   -12260   -11988   -11708   -11493   -11511 
  -11763   -12124   -12190   -11920   -11757   -11605   -11437   -11835 
  -12580   -12798   -12417   -11776   -11071   -10843   -11443   -12194 
  -12324   -12083   -11893   -11585   -11325   -11610   -12167   -12410 
  -12336   -12086   -11740   -11499   -11392   -11416   -11624   -11739 
  -11682   -11767   -11815   -11553   -11425   -11672   -11958   -12193 
  -12371   -12270   -11873   -11537   -11704   -12148   -12167   -11878 
  -11712   -11581   -11659   -12141   -12519   -12302   -11615   -11002 
  -10916   -11313   -11866   -12328   -12577   -12440   -11969   -11713 
  -11750   -11643   -11587   -11769   -11828   -11862   -12083   -12193 
  -12064   -11881   -11809   -11777   -11634   -11785   -12287   -12407 
  -12194   -12082   -11716   -11033   -10800   -11348   -11992   -12259 
  -12426   -12382   -11894   -11504   -11560   -11700   -11765   -12008 
  -12204   -11889   -11531   -11628   -11641   -11353   -11338   -11646 
  -11765   -11727   -12029   -12405   -12181   -11711   -11584   -11592 
  -11718   -12127   -12398   -12268   -12029   -11851   -11614   -11403 
  -11492   -11772   -12062   -12363   -12306   -11781   -11414   -11439 
  -11577   -11917   -12476   -12641   -12151   -11510   -11094   -11033 
  -11523   -12374   -12885   -12582   -11769   -11006   -10611   -10966 
  -11973   -12660   -12626   -12409   -12163   -11799   -11753   -12071 
  -12139   -12002   -12083   -12140   -11936   -11622   -11392   -11372 
  -11454   -11612   -11921   -11973   -11561   -11400   -11804   -12160 
  -12382   -12572   -12121   -11334   -11311   -11790   -12036   -12129 
  -12201   -12114   -11803   -11599   -11759   -11827   -11647   -11658 
  -11869   -12135   -12259   -11939   -11577   -11562   -11543   -11576 
  -11915   -12133   -12019   -11894   -11815   -11815   -12093   -12290 
  -12139   -12097   -12081   -11742   -11562   -11807   -12108   -12228 
  -12035   -11672   -11541   -11565   -11492   -11520   -11755   -11871 
  -11716   -11700   -12077   -12295   -12090   -11948   -11842   -11639 
  -11803   -12174   -12253   -12226   -12139   -11740   -11203   -11007 
  -11398   -11878   -11921   -11921   -12047   -11830   -11553   -11712 
  -11929   -11925   -11951   -12047   -12028   -11913   -11885   -11788 
  -11448   -11271   -11522   -11925   -12337   -12636   -12544   -12135 
  -11595   -11138   -11207   -11608   -11766   -11830   -11974   -12015 
  -12005   -12070   -12104   -11908   -11595   -11520   -11642   -11727 
  -11788   -11840   -11794   -11642   -11580   -11742   -11967   -12083 
  -12039   -11843   -11628   -11531   -11557   -11612   -11786   -12272 
  -12711   -12475   -11870   -11615   -11546   -11484   -11777   -11946 
  -11472   -11261   -11713   -12023   -12214   -12498   -12278   -11697 
  -11473   -11637   -11913   -11985   -11754   -11678   -11826   -11823 
  -11998   -12529   -12610   -12137   -11904   -11839   -11519   -11335 
  -11493   -11560   -11616   -12112   -12594   -12469   -12097   -11689 
  -11238   -11267   -11647   -11782   -11774   -11767   -11726   -11794 
  -11946   -12056   -12121   -12106   -11932   -11691   -11649   -11855 
  -12015   -11913   -11773   -11843   -12079   -12426   -12673   -12403 
  -11624   -10909   -10786   -11250   -11889   -12316   -12275   -11915 
  -11790   -11924   -11959   -11940   -11746   -11371   -11346   -11807 
  -12405   -12695   -12433   -11981   -11719   -11740   -11961   -11989 
  -11784   -11630   -11491   -11438   -11651   -11928   -12010   -11873 
  -11801   -12054   -12278   -12208   -12105   -11924   -11611   -11537 
  -11703   -11889   -12109   -12194   -12093   -12067   -12066   -11871 
  -11631   -11623   -11785   -11830   -11850   -12021   -11989   -11680 
  -11569   -11681   -11793   -12043   -12287   -12037   -11496   -11273 
  -11400   -11730   -12171   -12322   -11962   -11473   -11367   -11680 
  -12033   -12229   -12268   -12078   -11820   -11739   -11692   -11523 
  -11307   -11145   -11275   -11875   -12563   -12741   -12306   -11595 
  -11047   -11025   -11499   -12121   -12521   -12355   -11758   -11344 
  -11437   -11897   -12326   -12351   -11971   -11433   -11115   -11264 
  -11673   -12089   -12341   -12201   -11817   -11589   -11507   -11473 
  -11597   -11803   -11943   -11920   -11619   -11361   -11477   -11635 
  -11757   -12231   -12683   -12534   -12171   -11929   -11632   -11529 
  -11843   -12174   -12228   -12128   -11986   -11750   -11472   -11481 
  -11745   -11738   -11677   -11981   -12087   -11934   -12075   -12195 
  -11988   -11770   -11739   -11767   -11669   -11618   -11821   -12114 
  -12355   -12413   -12070   -11530   -11407   -11762   -11996   -12048 
  -12189   -12043   -11635   -11688   -12082   -12241   -12160   -11943 
  -11696   -11658   -11885   -12182   -12260   -12091   -11874   -11650 
  -11475   -11503   -11715   -11990   -12113   -12017   -11943   -11896 
  -11740   -11631   -11678   -11730   -11649   -11632   -11892   -12260 
  -12525   -12499   -12094   -11635   -11422   -11506   -11826   -12074 
  -12040   -11821   -11674   -11836   -12048   -11907   -11576   -11350 
  -11318   -11531   -11940   -12376   -12586   -12442   -12004   -11508 
  -11468   -11862   -12136   -12332   -12424   -12050   -11638   -11580 
  -11658   -11924   -12159   -11898   -11526   -11547   -11713   -11819 
  -12075   -12343   -12090   -11535   -11461   -11736   -11778   -11773 
  -11870   -11700   -11379   -11398   -11776   -12150   -12171   -11925 
  -11754   -11576   -11384   -11493   -11674   -11628   -11581   -11564 
  -11322   -11009   -11145   -11655   -11979   -12289   -12656   -12546 
  -12195   -11969   -11650   -11400   -11416   -11573   -11742   -11750 
  -11749   -11857   -11851   -11896   -12023   -11809   -11392   -11246 
  -11362   -11461   -11516   -11704   -11808   -11573   -11466   -11732 
  -11916   -12081   -12436   -12397   -11758   -11205   -11106   -11199 
  -11379   -11836   -12353   -12576   -12773   -13158   -13325   -13104 
  -12660   -12008   -11419   -11265   -11383   -11599   -11934   -12020 
  -11753   -11574   -11519   -11580   -11857   -11928   -11867   -12074 
  -12031   -11718   -11851   -12086   -12010   -12172   -12618   -12731 
  -12393   -11878   -11367   -11168   -11533   -12063   -12239   -12190 
  -12268   -12456   -12587   -12596   -12437   -12133   -11664   -11169 
  -11209   -11645   -11726   -11655   -11867   -12015   -11940   -11915 
  -11978   -11839   -11416   -11259   -11500   -11554   -11466   -11483 
  -11354   -11368   -11897   -12633   -13169   -13119   -12410   -11510 
  -10864   -10735   -11030   -11380   -11610   -11761   -12112   -12800 
  -13359   -13458   -13003   -11727   -10228    -9672   -10107   -11018 
  -12147   -12862   -12613   -11893   -11580   -11834   -12243   -12290 
  -11607   -10544   -10133   -10947   -12372   -13269   -13039   -12047 
  -11091   -10609   -10712   -11249   -11495   -11075   -10843   -11480 
  -12297   -12609   -12667   -12479   -11732   -10959   -10849   -11202 
  -11713   -12289   -12513   -12272   -12044   -12225   -12710   -12823 
  -12298   -11755   -11566   -11755   -12398   -13007   -12798   -11724 
  -10651   -10408   -10952   -11681   -12039   -11893   -11595   -11604 
  -12085   -12514   -12253   -11561   -11007   -10943   -11531   -12363 
  -12897   -12861   -12239   -11801   -12221   -12900   -13166   -13092 
  -12623   -11769   -11128   -11128   -11596   -11979   -11959   -11992 
  -12225   -12144   -11838   -11549   -11045   -10501   -10272   -10444 
  -11092   -11974   -12858   -13635   -13799   -13225   -12368   -11458 
  -10754   -10638   -11041   -11472   -11645   -11750   -11826   -11803 
  -11885   -11840   -11408   -11018   -10902   -11065   -11597   -12179 
  -12501   -12629   -12627   -12478   -12175   -11755   -11394   -11248 
  -11221   -11342   -11761   -12178   -12333   -12495   -12779   -12748 
  -12096   -11159   -10498   -10469   -11183   -12391   -13533   -13860 
  -13027   -12016   -11819   -11912   -11905   -11857   -11180   -10498 
  -11364   -13243   -14435   -14264   -12777   -10508    -8727    -8842 
  -10851   -13054   -14007   -13666   -12749   -12029   -11842   -11955 
  -11938   -11553   -11003   -10856   -11399   -12294   -12993   -12907 
  -11731   -10233    -9643   -10362   -11854   -13132   -13360   -12447 
  -11016   -10056   -10350   -11669   -12922   -13297   -12835   -11963 
  -11217   -11137   -11627   -12037   -12133   -12170   -12380   -12676 
  -12741   -12530   -12073   -11358   -10882   -11099   -11686   -12195 
  -12590   -12787   -12607   -12187   -11820   -11465   -10957   -10719 
  -11326   -12457   -13270   -13547   -13562   -13054   -11784   -10597 
  -10041    -9686    -9823   -11036   -12586   -13482   -13626   -13019 
  -11641   -10233    -9859   -10736   -12179   -13320   -13454   -12478 
  -11245   -10732   -11236   -12360   -13205   -13027   -11923   -10713 
  -10096   -10147   -10585   -10868   -10858   -11153   -11859   -12583 
  -13069   -12795   -11539   -10098    -9499    -9929   -10906   -12212 
  -13514   -14095   -13849   -12992   -11438    -9776    -9188    -9998 
  -11631   -13288   -14087   -13666   -12633   -11932   -11901   -12021 
  -11777   -11392   -11205   -11307   -11819   -12503   -12829   -12760 
  -12522   -12298   -12368   -12607   -12511   -11948   -11094   -10322 
  -10162   -10768   -11866   -12939   -13284   -12545   -11202   -10142 
   -9802   -10172   -11090   -11952   -12291   -12486   -12845   -12918 
  -12402   -11785   -11499   -11265   -11153   -11469   -11572   -11296 
  -11485   -12029   -12436   -12934   -13250   -12893   -12205   -11516 
  -10989   -11040   -11577   -12056   -12476   -12923   -13000   -12482 
  -11759   -11531   -11888   -12147   -12047   -11724   -11215   -10945 
  -11364   -12422   -13524   -13822   -13306   -12515   -11558   -10847 
  -10886   -11142   -11171   -11537   -12360   -12947   -13119   -12996 
  -12310   -11211   -10417   -10349   -10812   -11325   -11821   -12383 
  -12641   -12479   -11966   -11082   -10389   -10521   -11477   -12757 
  -13231   -12263   -10859   -10251   -10786   -12217   -13471   -13609 
  -13030   -12312   -11788   -11815   -11724   -10795    -9880    -9990 
  -11122   -12793   -14249   -14540   -13258   -11223    -9895    -9903 
  -10685   -11572   -12309   -12451   -12083   -12345   -13352   -13844 
  -13416   -12472   -11196   -10131   -10071   -11013   -12090   -12548 
  -12375   -11836   -11291   -11298   -11859   -12198   -11838   -11173 
  -10732   -10604   -10818   -11495   -12414   -13088   -13246   -13039 
  -12733   -12175   -11048    -9811    -9391   -10039   -11314   -12641 
  -13548   -13587   -12561   -11195   -10503   -10585   -11142   -11996 
  -12629   -12721   -12587   -12322   -11859   -11542   -11553   -11884 
  -12468   -12717   -12298   -11610   -11044   -10995   -11654   -12424 
  -12522   -11909   -11292   -11195   -11342   -11503   -12033   -12548 
  -12182   -11531   -11349   -10959   -10366   -10521   -11358   -12388 
  -13343   -13601   -12744   -11186    -9981   -10045   -11222   -12625 
  -13629   -14015   -13684   -12646   -11300   -10147    -9400    -9675 
  -11529   -13805   -14662   -13732   -11904   -10206    -9489   -10096 
  -11456   -12584   -12997   -12884   -12687   -12584   -12495   -12189 
  -11423   -10659   -10621   -11253   -12244   -13197   -13417   -13009 
  -12722   -12463   -11755   -10883   -10372   -10400   -11097   -12391 
  -13470   -13369   -12233   -10995   -10450   -11173   -12685   -13522 
  -13270   -12414   -11268   -10619   -11018   -11901   -12752   -13289 
  -12955   -11934   -11226   -11140   -11259   -11425   -11593   -11591 
  -11607   -11985   -12492   -12645   -12243   -11425   -10740   -10739 
  -11269   -11740   -11877   -11781   -11651   -11693   -11961   -12147 
  -11892   -11411   -11182   -11145   -11101   -11219   -11628   -12145 
  -12494   -12653   -12580   -12090   -11553   -11503   -11816   -12102 
  -12272   -12447   -12391   -11790   -11148   -11099   -11458   -11813 
  -12177   -12537   -12676   -12592   -12244   -11561   -10858   -10264 
   -9999   -10735   -12372   -13884   -14376   -13618   -12096   -10760 
  -10488   -11194   -12032   -12399   -12116   -11645   -11581   -11750 
  -11850   -11732   -11431   -11541   -12236   -12978   -13300   -12769 
  -11568   -10589   -10185   -10201   -10681   -11545   -12351   -12845 
  -13166   -13180   -12571   -11344    -9856    -9151    -9992   -11680 
  -13378   -14469   -13981   -12260   -10987   -11051   -12206   -13562 
  -14025   -13176   -11345    -9570    -9136   -10023   -11326   -12800 
  -13960   -13940   -12950   -11828   -11086   -10817   -10924   -11338 
  -11580   -11475   -11639   -12021   -12232   -12486   -12681   -12573 
  -12224   -11708   -11349   -11229   -11097   -11136   -11530   -12044 
  -12357   -12297   -12063   -11824   -11435   -11074   -11124   -11615 
  -12276   -12607   -12266   -11340   -10201    -9756   -10686   -12231 
  -13292   -13721   -13462   -12506   -11554   -11169   -11488   -12438 
  -13246   -13111   -12175   -11133   -10774   -11511   -12738   -13339 
  -12999   -12097   -11002   -10316   -10486   -11106   -11614   -11963 
  -12318   -12626   -12540   -12008   -11353   -10581    -9975   -10342 
  -11754   -13447   -14451   -13986   -12383   -11003   -10835   -11736 
  -12660   -12880   -12532   -11742   -11036   -11554   -12931   -13448 
  -12872   -12147   -11492   -11006   -10937   -10953   -10881   -11029 
  -11445   -12029   -12829   -13531   -13396   -12410   -11510   -10998 
  -10554   -10438   -10752   -10983   -11106   -11272   -11295   -11570 
  -12337   -12908   -13089   -12879   -11916   -10682    -9840    -9583 
  -10307   -11816   -13127   -13599   -13333   -12663   -11711   -10983 
  -11014   -11306   -11304   -11308   -11542   -11757   -11981   -12372 
  -12425   -11649   -10633   -10297   -10774   -11776   -12911   -13464 
