Origin Time       2024/04/02 04:24:00
Lat.              40.133
Long.             141.712
Depth. (km)       71
Mag.              6.0
Station Code      FKSH10
Station Lat.      37.1616
Station Long.     140.0930
Station Height(m) 364.4
Record Time       2024/04/02 04:25:30
Sampling Freq(Hz) 100Hz
Duration Time(s)  149
Dir.              1
Scale Factor      2942(gal)/8224139
Max. Acc. (gal)   0.487
Last Correction   2024/04/02 04:25:31
Memo.             
[...]
  -20039   -20044   -20081   -20133   -20268   -20478   -20611   -20615 
  -20587   -20537   -20421   -20324   -20291   -20299   -20374   -20413 
  -20298   -20206   -20297   -20420   -20463   -20544   -20775   -21111 
  -21386   -21439   -21301   -21173   -21095   -20969   -20842   -20812 
  -20875   -20981   -21078   -21155   -21273   -21419   -21502   -21498 
  -21392   -21186   -20992   -20839   -20687   -20614   -20642   -20640 
  -20598   -20609   -20665   -20754   -20857   -20839   -20661   -20553 
  -20590   -20583   -20609   -20862   -21142   -21259   -21325   -21397 
  -21463   -21508   -21454   -21294   -21107   -20938   -20817   -20868 
  -21145   -21390   -21458   -21578   -21794   -21863   -21776   -21735 
  -21736   -21639   -21516   -21529   -21591   -21473   -21209   -21074 
  -21065   -20954   -20818   -20864   -20980   -20973   -20918   -20976 
  -21132   -21219   -21174   -21132   -21165   -21161   -21068   -20930 
  -20746   -20532   -20359   -20228   -20100   -20008   -20012   -20051 
  -20079   -20196   -20398   -20556   -20607   -20551   -20406   -20236 
  -20156   -20163   -20115   -20040   -20021   -19988   -19947   -19947 
  -19913   -19826   -19696   -19599   -19645   -19774   -19905   -19997 
  -19974   -19977   -20194   -20482   -20622   -20584   -20418   -20208 
  -20034   -19936   -19935   -19981   -19957   -19863   -19831   -19854 
  -19899   -20035   -20189   -20189   -20025   -19854   -19872   -20066 
  -20236   -20310   -20331   -20286   -20127   -19840   -19576   -19427 
  -19319   -19257   -19287   -19387   -19558   -19719   -19780   -19804 
  -19847   -19915   -20015   -20112   -20143   -20117   -20129   -20140 
  -20038   -19940   -19981   -20121   -20351   -20609   -20704   -20611 
  -20514   -20490   -20499   -20534   -20575   -20642   -20744   -20779 
  -20767   -20795   -20776   -20609   -20374   -20295   -20463   -20698 
  -20865   -21057   -21261   -21243   -21016   -20906   -21006   -21046 
  -20834   -20580   -20568   -20703   -20695   -20541   -20468   -20498 
  -20499   -20476   -20501   -20533   -20460   -20355   -20347   -20320 
  -20250   -20287   -20371   -20449   -20628   -20808   -20844   -20734 
  -20459   -20110   -19966   -20119   -20390   -20691   -21051   -21265 
  -21172   -21026   -21035   -21087   -21095   -21082   -21024   -20950 
  -20938   -20968   -20979   -20965   -20977   -21039   -21089   -21119 
  -21127   -21068   -21066   -21203   -21331   -21411   -21456   -21393 
  -21323   -21390   -21471   -21458   -21406   -21303   -21091   -20821 
  -20571   -20417   -20385   -20416   -20451   -20479   -20487   -20452 
  -20433   -20549   -20764   -20864   -20745   -20564   -20557   -20710 
  -20844   -20906   -20896   -20814   -20745   -20761   -20818   -20852 
  -20858   -20846   -20841   -20889   -20969   -21033   -21038   -20983 
  -20925   -20880   -20834   -20802   -20799   -20811   -20734   -20525 
  -20318   -20187   -20102   -20051   -20042   -20098   -20212   -20359 
  -20565   -20741   -20772   -20672   -20445   -20171   -20002   -19997 
  -20132   -20297   -20329   -20232   -20183   -20254   -20268   -20136 
  -20004   -19923   -19824   -19818   -19989   -20213   -20393   -20483 
  -20522   -20625   -20725   -20717   -20679   -20696   -20707   -20656 
  -20642   -20661   -20561   -20432   -20403   -20401   -20416   -20487 
  -20565   -20606   -20544   -20356   -20162   -20115   -20297   -20576 
  -20777   -20895   -20889   -20719   -20502   -20378   -20403   -20484 
  -20479   -20386   -20297   -20343   -20522   -20615   -20596   -20610 
  -20578   -20502   -20567   -20692   -20696   -20536   -20239   -19940 
  -19768   -19728   -19811   -19954   -20077   -20177   -20260   -20281 
  -20259   -20298   -20379   -20434   -20490   -20530   -20568   -20688 
  -20764   -20660   -20613   -20726   -20734   -20642   -20679   -20763 
  -20692   -20511   -20429   -20413   -20256   -20083   -20098   -20159 
  -20170   -20175   -20109   -19993   -19953   -19974   -20002   -20008 
  -19969   -19917   -19845   -19719   -19720   -19977   -20262   -20399 
  -20480   -20563   -20669   -20835   -20952   -20880   -20768   -20869 
  -20979   -20749   -20433   -20341   -20227   -19997   -19927   -19997 
  -19985   -19955   -20017   -20009   -19881   -19838   -19899   -20021 
  -20263   -20507   -20649   -20760   -20799   -20717   -20657   -20650 
  -20599   -20572   -20657   -20723   -20632   -20405   -20162   -20016 
  -19981   -20007   -20046   -20046   -20055   -20166   -20320   -20480 
  -20709   -20956   -21174   -21438   -21670   -21712   -21627   -21500 
  -21303   -21111   -21100   -21250   -21355   -21325   -21216   -21076 
  -20934   -20769   -20652   -20704   -20800   -20717   -20544   -20514 
  -20556   -20470   -20375   -20452   -20630   -20853   -21115   -21280 
  -21298   -21308   -21343   -21290   -21193   -21239   -21438   -21617 
  -21668   -21593   -21455   -21366   -21303   -21128   -20957   -20919 
  -20808   -20511   -20187   -19975   -19994   -20187   -20302   -20383 
  -20607   -20869   -21034   -21088   -21068   -21055   -21060   -21053 
  -21093   -21207   -21297   -21239   -21026   -20841   -20682   -20349 
  -20023   -19978   -20115   -20266   -20366   -20403   -20426   -20385 
  -20279   -20263   -20320   -20308   -20287   -20362   -20451   -20506 
  -20532   -20517   -20490   -20403   -20221   -20106   -20160   -20304 
  -20468   -20559   -20441   -20166   -19939   -19773   -19573   -19472 
  -19634   -19966   -20240   -20268   -20054   -19766   -19565   -19554 
  -19670   -19786   -19943   -20110   -20163   -20189   -20262   -20221 
  -20024   -19890   -19969   -20155   -20291   -20320   -20264   -20239 
  -20297   -20286   -20162   -20144   -20281   -20387   -20430   -20491 
  -20569   -20648   -20757   -20881   -20887   -20760   -20718   -20752 
  -20663   -20633   -20879   -21185   -21301   -21259   -21199   -21134 
  -20965   -20704   -20475   -20313   -20205   -20133   -20082   -20147 
  -20337   -20472   -20474   -20409   -20412   -20522   -20622   -20702 
  -20829   -20923   -20888   -20795   -20688   -20525   -20403   -20393 
  -20417   -20549   -20823   -20966   -20811   -20560   -20467   -20560 
  -20572   -20403   -20409   -20694   -20868   -20745   -20601   -20640 
  -20677   -20615   -20615   -20726   -20891   -20988   -20873   -20630 
  -20463   -20484   -20613   -20702   -20802   -20919   -20896   -20696 
  -20421   -20286   -20380   -20425   -20293   -20306   -20564   -20682 
  -20499   -20341   -20353   -20301   -20175   -20173   -20326   -20611 
  -20880   -20927   -20831   -20737   -20633   -20430   -20121   -19997 
  -20221   -20551   -20787   -20856   -20692   -20406   -20187   -20106 
  -20110   -20123   -20069   -20011   -20098   -20244   -20317   -20393 
  -20472   -20515   -20671   -20950   -21060   -20903   -20776   -20775 
  -20625   -20322   -20225   -20476   -20868   -21119   -21136   -21108 
  -21236   -21442   -21586   -21685   -21682   -21496   -21235   -21053 
  -21001   -21037   -21030   -20918   -20792   -20811   -20910   -20803 
  -20532   -20493   -20695   -20768   -20659   -20557   -20463   -20356 
  -20312   -20275   -20224   -20251   -20328   -20335   -20282   -20223 
  -20092   -19927   -19882   -19989   -20220   -20440   -20561   -20673 
  -20727   -20607   -20491   -20559   -20637   -20553   -20393   -20228 
  -20108   -20079   -20027   -19880   -19803   -19944   -20193   -20349 
  -20433   -20580   -20734   -20738   -20632   -20571   -20559   -20522 
  -20464   -20345   -20132   -19897   -19683   -19467   -19329   -19421 
  -19669   -19857   -19993   -20228   -20540   -20814   -21050   -21255 
  -21292   -21091   -20871   -20849   -20899   -20858   -20765   -20618 
  -20437   -20372   -20451   -20556   -20578   -20499   -20455   -20459 
  -20344   -20196   -20214   -20345   -20495   -20687   -20934   -21162 
  -21277   -21313   -21309   -21180   -20947   -20736   -20626   -20699 
  -20853   -20912   -20861   -20677   -20521   -20622   -20756   -20760 
  -20860   -21033   -20999   -20765   -20596   -20499   -20316   -20132 
  -20050   -20086   -20209   -20235   -20235   -20421   -20618   -20655 
  -20588   -20484   -20467   -20544   -20630   -20788   -20993   -21091 
  -20984   -20691   -20359   -20142   -20124   -20293   -20467   -20553 
  -20680   -20912   -21122   -21185   -21108   -20895   -20556   -20302 
  -20251   -20196   -20079   -20075   -20204   -20335   -20364   -20277 
  -20196   -20185   -20187   -20213   -20244   -20267   -20235   -20055 
  -19876   -19855   -19901   -19901   -19781   -19596   -19523   -19527 
  -19452   -19327   -19321   -19561   -19926   -20190   -20378   -20551 
  -20694   -20819   -20926   -21064   -21178   -21161   -21141   -21181 
  -21135   -21045   -20960   -20758   -20521   -20478   -20640   -20802 
  -20772   -20623   -20520   -20389   -20272   -20364   -20568   -20771 
  -21078   -21424   -21563   -21506   -21415   -21240   -20984   -20850 
  -20856   -20821   -20781   -20868   -20938   -20795   -20556   -20524 
  -20730   -20908   -20961   -20914   -20710   -20453   -20375   -20505 
  -20673   -20775   -20881   -20976   -20942   -20821   -20694   -20602 
  -20646   -20825   -20997   -21038   -20933   -20834   -20845   -20850 
  -20807   -20764   -20655   -20476   -20335   -20200   -20017   -19843 
  -19712   -19701   -19873   -20086   -20171   -20098   -19909   -19728 
  -19704   -19847   -20089   -20333   -20444   -20409   -20293   -20124 
  -19971   -19908   -19966   -20067   -20051   -19959   -19904   -19866 
  -19862   -19971   -20197   -20412   -20416   -20167   -19926   -19921 
  -20029   -20013   -19928   -19966   -20079   -20151   -20216   -20308 
  -20425   -20565   -20679   -20737   -20754   -20821   -21028   -21261 
  -21296   -21134   -20918   -20718   -20591   -20587   -20671   -20823 
  -21008   -21066   -21003   -21020   -21062   -20942   -20860   -20922 
  -20881   -20821   -20900   -20927   -20898   -20916   -20838   -20675 
  -20641   -20734   -20875   -21061   -21173   -21108   -20964   -20854 
  -20773   -20663   -20552   -20480   -20402   -20339   -20325   -20278 
  -20194   -20187   -20304   -20441   -20515   -20642   -20818   -20877 
  -20898   -20962   -20945   -20911   -21087   -21343   -21477   -21605 
  -21721   -21624   -21392   -21186   -21004   -20866   -20829   -20806 
  -20650   -20364   -20040   -19812   -19854   -20117   -20324   -20367 
  -20356   -20394   -20482   -20559   -20565   -20478   -20487   -20767 
  -21045   -21065   -20995   -20942   -20763   -20511   -20480   -20719 
  -20903   -20833   -20633   -20468   -20409   -20453   -20646   -20989 
  -21199   -21130   -21092   -21157   -21012   -20726   -20611   -20578 
  -20449   -20340   -20321   -20287   -20225   -20202   -20248   -20344 
  -20502   -20757   -21001   -21142   -21266   -21309   -21138   -20935 
  -20885   -20802   -20541   -20336   -20394   -20575   -20676   -20714 
  -20771   -20829   -20850   -20848   -20780   -20580   -20356   -20252 
  -20214   -20140   -20038   -19965   -19921   -19836   -19687   -19529 
  -19449   -19500   -19651   -19839   -19966   -19928   -19774   -19658 
  -19660   -19735   -19828   -19909   -19975   -20032   -20016   -19886 
  -19759   -19712   -19722   -19761   -19720   -19616   -19641   -19684 
  -19635   -19719   -19888   -19915   -19870   -19842   -19850   -19896 
  -19872   -19784   -19800   -19897   -19951   -19989   -19967   -19849 
  -19809   -19903   -19990   -20082   -20198   -20182   -20077   -20058 
  -20009   -19936   -20067   -20299   -20521   -20787   -20957   -20956 
  -20950   -20969   -20888   -20742   -20671   -20638   -20556   -20493 
  -20537   -20614   -20657   -20723   -20791   -20827   -20877   -20887 
  -20804   -20664   -20499   -20437   -20552   -20750   -20956   -21176 
  -21444   -21682   -21735   -21652   -21612   -21664   -21663   -21500 
  -21390   -21489   -21574   -21535   -21541   -21641   -21705   -21697 
  -21720   -21774   -21740   -21676   -21687   -21728   -21762   -21745 
  -21674   -21687   -21790   -21837   -21828   -21790   -21670   -21551 
  -21497   -21355   -21131   -20973   -20896   -20953   -21120   -21250 
  -21378   -21494   -21397   -21099   -20845   -20788   -20839   -20821 
  -20754   -20738   -20718   -20537   -20178   -19950   -19962   -19948 
  -19915   -20062   -20271   -20345   -20353   -20418   -20503   -20557 
  -20588   -20649   -20740   -20675   -20416   -20171   -19978   -19803 
  -19757   -19840   -19907   -19920   -19986   -20106   -20083   -19872 
  -19705   -19704   -19773   -19855   -19971   -20123   -20245   -20216 
  -20009   -19762   -19588   -19552   -19665   -19758   -19745   -19719 
  -19623   -19406   -19265   -19333   -19542   -19811   -20040   -20089 
  -19984   -19896   -19874   -19827   -19716   -19620   -19610   -19687 
  -19870   -20058   -20048   -19901   -19807   -19757   -19692   -19646 
  -19645   -19658   -19707   -19799   -19878   -19984   -20244   -20575 
  -20696   -20553   -20376   -20271   -20178   -20142   -20227   -20331 
  -20355   -20370   -20425   -20437   -20434   -20526   -20640   -20664 
  -20601   -20490   -20453   -20555   -20704   -20834   -20911   -20930 
  -20941   -20844   -20561   -20358   -20467   -20758   -20943   -20916 
  -20838   -20790   -20713   -20706   -20779   -20788   -20807   -20920 
  -20989   -20920   -20818   -20802   -20829   -20806   -20740   -20719 
  -20858   -21066   -21112   -21039   -21105   -21352   -21556   -21528 
  -21382   -21332   -21342   -21308   -21316   -21440   -21609   -21763 
  -21883   -21898   -21801   -21730   -21697   -21552   -21379   -21338 
  -21313   -21212   -21103   -21030   -21037   -21055   -20908   -20667 
  -20586   -20680   -20745   -20684   -20590   -20545   -20530   -20518 
  -20557   -20640   -20595   -20366   -20170   -20197   -20385   -20528 
  -20582   -20690   -20803   -20760   -20665   -20633   -20618   -20611 
  -20590   -20480   -20250   -20039   -20065   -20243   -20395   -20598 
  -20787   -20742   -20509   -20244   -20058   -20089   -20317   -20576 
  -20767   -20826   -20780   -20796   -20876   -20783   -20553   -20475 
  -20541   -20586   -20650   -20686   -20507   -20213   -20042   -19978 
  -19913   -19917   -20048   -20231   -20317   -20150   -19819   -19576 
  -19430   -19287   -19233   -19318   -19421   -19426   -19319   -19222 
  -19284   -19417   -19469   -19502   -19581   -19639   -19665   -19701 
  -19753   -19832   -19957   -20120   -20295   -20387   -20379   -20367 
  -20282   -20112   -20071   -20148   -20174   -20200   -20314   -20474 
  -20569   -20533   -20467   -20466   -20486   -20530   -20636   -20746 
  -20794   -20776   -20696   -20559   -20429   -20397   -20486   -20664 
  -20795   -20763   -20713   -20753   -20761   -20714   -20659   -20618 
  -20695   -20873   -20996   -21034   -20999   -20876   -20727   -20601 
  -20483   -20444   -20553   -20663   -20619   -20556   -20588   -20659 
  -20726   -20785   -20838   -20850   -20765   -20659   -20668   -20810 
  -20903   -20825   -20699   -20605   -20517   -20497   -20569   -20628 
  -20547   -20385   -20378   -20588   -20757   -20698   -20592   -20590 
  -20561   -20599   -20834   -21054   -21136   -21122   -21039   -21031 
  -21149   -21240   -21238   -21201   -21209   -21304   -21393   -21327 
  -21163   -21118   -21173   -21203   -21259   -21330   -21249   -21007 
  -20798   -20781   -20866   -20881   -20977   -21288   -21517   -21529 
  -21506   -21408   -21153   -20934   -20892   -20960   -21020   -20970 
  -20775   -20574   -20534   -20601   -20623   -20625   -20680   -20715 
  -20632   -20555   -20644   -20763   -20727   -20641   -20656   -20730 
  -20756   -20686   -20538   -20380   -20268   -20206   -20147   -20089 
  -20051   -19986   -19892   -19913   -20113   -20316   -20433   -20544 
  -20648   -20757   -20899   -20907   -20719   -20515   -20367   -20272 
  -20256   -20205   -20021   -19832   -19784   -19843   -19912   -19939 
  -19936   -19951   -19944   -19867   -19826   -19885   -19975   -20032 
  -20017   -19951   -19889   -19819   -19769   -19781   -19861   -20029 
  -20232   -20366   -20416   -20370   -20223   -20050   -19998   -20143 
  -20363   -20555   -20668   -20603   -20479   -20525   -20717   -20931 
  -21062   -21051   -20966   -20831   -20694   -20710   -20861   -20939 
  -20914   -20912   -20946   -20945   -20916   -20865   -20784   -20682 
  -20522   -20285   -20083   -20020   -20004   -19943   -19903   -19909 
  -19905   -19899   -19899   -19882   -19904   -19946   -19881   -19746 
  -19714   -19832   -20013   -20140   -20228   -20368   -20517   -20583 
  -20560   -20453   -20314   -20237   -20240   -20263   -20301   -20406 
  -20524   -20495   -20414   -20502   -20661   -20686   -20638   -20560 
  -20383   -20344   -20619   -20873   -20950   -21087   -21247   -21250 
  -21222   -21246   -21213   -21182   -21249   -21323   -21312   -21263 
  -21289   -21378   -21324   -21103   -20950   -20941   -20950   -20942 
  -20972   -21037   -21020   -20823   -20501   -20201   -20054   -20074 
  -20218   -20410   -20536   -20591   -20590   -20478   -20341   -20277 
  -20291   -20367   -20364   -20260   -20185   -20164   -20190   -20227 
  -20283   -20414   -20520   -20568   -20652   -20667   -20560   -20490 
  -20533   -20614   -20645   -20598   -20559   -20609   -20633   -20522 
  -20418   -20480   -20676   -20898   -21073   -21208   -21316   -21338 
  -21234   -21053   -20854   -20719   -20680   -20645   -20549   -20394 
  -20148   -19927   -19912   -19985   -19944   -19885   -19965   -20128 
  -20258   -20343   -20417   -20448   -20414   -20436   -20613   -20810 
  -20927   -21074   -21255   -21292   -21169   -21082   -21096   -21054 
  -20902   -20768   -20661   -20509   -20422   -20507   -20650   -20784 
  -20954   -21062   -21008   -20969   -21082   -21193   -21169   -21043 
  -20887   -20810   -20853   -20907   -20821   -20580   -20375   -20340 
  -20331   -20262   -20245   -20295   -20368   -20387   -20210   -19985 
  -19943   -19947   -19885   -19892   -20021   -20155   -20170   -20144 
  -20205   -20248   -20205   -20167   -20135   -20004   -19881   -19966 
  -20075   -20001   -19912   -19876   -19878   -20027   -20233   -20379 
  -20524   -20671   -20733   -20632   -20422   -20301   -20320   -20343 
  -20310   -20317   -20449   -20640   -20764   -20826   -20904   -20988 
  -21031   -21043   -21019   -20922   -20838   -20860   -20853   -20723 
  -20613   -20572   -20522   -20471   -20430   -20394   -20379   -20375 
  -20401   -20480   -20526   -20563   -20742   -20969   -21054   -21084 
  -21150   -21201   -21227   -21189   -21101   -21042   -20946   -20800 
  -20644   -20387   -20177   -20208   -20290   -20331   -20495   -20714 
  -20833   -20889   -20919   -20908   -20857   -20736   -20611   -20598 
  -20588   -20490   -20358   -20196   -20070   -20067   -20058   -19975 
  -19994   -20137   -20251   -20282   -20301   -20395   -20528   -20563 
  -20479   -20326   -20204   -20223   -20335   -20452   -20524   -20476 
  -20341   -20170   -19978   -19892   -19947   -20019   -20062   -20065 
  -20015   -19984   -20005   -20054   -20105   -20108   -20028   -19920 
  -19863   -19874   -19926   -19994   -20039   -20052   -20063   -20104 
  -20229   -20380   -20422   -20380   -20329   -20310   -20422   -20630 
  -20706   -20594   -20490   -20495   -20503   -20468   -20460   -20455 
  -20436   -20490   -20594   -20621   -20553   -20466   -20418   -20425 
