Origin Time       2024/04/02 04:24:00
Lat.              40.133
Long.             141.712
Depth. (km)       71
Mag.              6.0
Station Code      HDKH05
Station Lat.      42.5977
Station Long.     142.5446
Station Height(m) 305
Record Time       2024/04/02 04:25:45
Sampling Freq(Hz) 100Hz
Duration Time(s)  120
Dir.              5
Scale Factor      3920(gal)/6170801
Max. Acc. (gal)   1.015
Last Correction   2024/04/02 04:25:29
Memo.             
[...]
   -7329    -7292    -7247    -7217    -7227    -7277    -7349    -7449 
   -7551    -7593    -7602    -7662    -7773    -7865    -7900    -7863 
   -7755    -7612    -7463    -7324    -7240    -7247    -7320    -7416 
   -7517    -7613    -7673    -7672    -7637    -7601    -7552    -7493 
   -7458    -7453    -7469    -7530    -7639    -7725    -7724    -7641 
   -7538    -7496    -7553    -7684    -7819    -7867    -7797    -7689 
   -7596    -7501    -7438    -7446    -7473    -7478    -7496    -7540 
   -7568    -7549    -7493    -7441    -7418    -7413    -7418    -7441 
   -7475    -7521    -7579    -7612    -7576    -7499    -7451    -7454 
   -7466    -7467    -7469    -7467    -7464    -7504    -7615    -7742 
   -7816    -7816    -7750    -7634    -7516    -7432    -7366    -7305 
   -7280    -7318    -7403    -7493    -7536    -7501    -7397    -7290 
   -7266    -7361    -7503    -7604    -7652    -7645    -7572    -7483 
   -7442    -7447    -7459    -7458    -7464    -7521    -7638    -7763 
   -7851    -7906    -7935    -7928    -7888    -7836    -7784    -7709 
   -7615    -7549    -7512    -7445    -7342    -7271    -7274    -7366 
   -7545    -7705    -7722    -7621    -7509    -7432    -7410    -7454 
   -7535    -7591    -7556    -7433    -7315    -7264    -7281    -7377 
   -7502    -7564    -7580    -7613    -7649    -7649    -7586    -7478 
   -7413    -7433    -7476    -7521    -7584    -7609    -7549    -7471 
   -7468    -7546    -7627    -7668    -7701    -7700    -7591    -7414 
   -7277    -7207    -7169    -7170    -7230    -7339    -7461    -7567 
   -7645    -7692    -7698    -7658    -7580    -7501    -7473    -7521 
   -7623    -7741    -7836    -7876    -7841    -7737    -7605    -7497 
   -7451    -7475    -7561    -7672    -7738    -7720    -7643    -7575 
   -7559    -7547    -7483    -7403    -7365    -7385    -7447    -7519 
   -7574    -7593    -7576    -7566    -7599    -7620    -7533    -7366 
   -7252    -7257    -7347    -7465    -7568    -7619    -7595    -7509 
   -7417    -7388    -7449    -7552    -7603    -7556    -7462    -7385 
   -7354    -7384    -7460    -7530    -7563    -7580    -7574    -7489 
   -7347    -7261    -7291    -7383    -7458    -7497    -7527    -7561 
   -7593    -7637    -7699    -7728    -7692    -7623    -7578    -7585 
   -7615    -7620    -7613    -7640    -7670    -7638    -7569    -7537 
   -7563    -7646    -7762    -7840    -7805    -7667    -7478    -7303 
   -7231    -7305    -7453    -7562    -7576    -7511    -7462    -7490 
   -7564    -7634    -7643    -7556    -7437    -7393    -7421    -7426 
   -7398    -7400    -7429    -7446    -7484    -7579    -7683    -7735 
   -7716    -7633    -7551    -7551    -7624    -7686    -7689    -7627 
   -7499    -7337    -7226    -7217    -7277    -7374    -7516    -7674 
   -7758    -7715    -7596    -7506    -7488    -7504    -7512    -7499 
   -7468    -7434    -7428    -7454    -7489    -7524    -7564    -7606 
   -7654    -7719    -7759    -7733    -7676    -7614    -7528    -7433 
   -7381    -7389    -7415    -7412    -7425    -7507    -7583    -7556 
   -7474    -7445    -7499    -7605    -7698    -7699    -7590    -7452 
   -7372    -7367    -7423    -7536    -7651    -7685    -7640    -7579 
   -7535    -7507    -7493    -7489    -7505    -7562    -7670    -7792 
   -7852    -7799    -7657    -7511    -7451    -7481    -7538    -7570 
   -7591    -7632    -7654    -7613    -7569    -7585    -7593    -7514 
   -7405    -7365    -7404    -7481    -7557    -7592    -7577    -7519 
   -7416    -7294    -7220    -7231    -7293    -7366    -7457    -7567 
   -7633    -7619    -7577    -7580    -7639    -7700    -7721    -7706 
   -7644    -7515    -7380    -7329    -7353    -7378    -7391    -7439 
   -7538    -7644    -7693    -7661    -7558    -7418    -7299    -7281 
   -7369    -7463    -7487    -7478    -7477    -7474    -7478    -7492 
   -7471    -7425    -7447    -7585    -7780    -7937    -7969    -7860 
   -7661    -7452    -7304    -7256    -7312    -7435    -7557    -7636 
   -7668    -7663    -7648    -7636    -7629    -7640    -7660    -7647 
   -7571    -7456    -7356    -7326    -7386    -7498    -7593    -7635 
   -7652    -7676    -7680    -7652    -7607    -7505    -7354    -7260 
   -7269    -7331    -7414    -7506    -7597    -7693    -7799    -7894 
   -7912    -7792    -7559    -7326    -7211    -7253    -7369    -7436 
   -7444    -7415    -7321    -7185    -7105    -7126    -7232    -7415 
   -7642    -7809    -7842    -7783    -7704    -7618    -7525    -7472 
   -7486    -7511    -7499    -7489    -7504    -7496    -7436    -7345 
   -7273    -7281    -7376    -7492    -7575    -7626    -7654    -7673 
   -7701    -7716    -7696    -7664    -7625    -7543    -7456    -7426 
   -7449    -7509    -7603    -7691    -7728    -7703    -7607    -7454 
   -7312    -7239    -7237    -7276    -7348    -7477    -7674    -7862 
   -7933    -7863    -7689    -7492    -7397    -7451    -7547    -7591 
   -7601    -7603    -7577    -7534    -7518    -7548    -7575    -7516 
   -7397    -7355    -7444    -7575    -7671    -7715    -7718    -7704 
   -7687    -7667    -7659    -7654    -7629    -7566    -7435    -7258 
   -7148    -7203    -7384    -7534    -7536    -7425    -7329    -7330 
   -7412    -7530    -7636    -7664    -7612    -7593    -7659    -7713 
   -7700    -7665    -7631    -7576    -7531    -7549    -7584    -7555 
   -7485    -7442    -7416    -7390    -7406    -7483    -7577    -7632 
   -7642    -7644    -7628    -7564    -7506    -7528    -7606    -7704 
   -7826    -7925    -7899    -7736    -7555    -7490    -7546    -7607 
   -7609    -7604    -7586    -7510    -7432    -7426    -7478    -7572 
   -7701    -7770    -7740    -7691    -7653    -7601    -7555    -7539 
   -7550    -7580    -7614    -7628    -7602    -7532    -7469    -7457 
   -7441    -7394    -7407    -7509    -7596    -7611    -7594    -7568 
   -7525    -7478    -7446    -7447    -7484    -7528    -7551    -7539 
   -7480    -7406    -7373    -7394    -7460    -7553    -7646    -7729 
   -7786    -7781    -7723    -7646    -7524    -7346    -7168    -7033 
   -7008    -7171    -7465    -7731    -7874    -7887    -7797    -7660 
   -7554    -7520    -7526    -7512    -7456    -7416    -7466    -7577 
   -7676    -7750    -7764    -7695    -7632    -7639    -7666    -7665 
   -7646    -7614    -7565    -7507    -7467    -7442    -7383    -7288 
   -7222    -7214    -7263    -7374    -7486    -7530    -7529    -7522 
   -7514    -7520    -7531    -7536    -7555    -7584    -7606    -7602 
   -7565    -7557    -7600    -7619    -7602    -7600    -7580    -7481 
   -7326    -7185    -7126    -7197    -7365    -7524    -7575    -7499 
   -7359    -7278    -7350    -7505    -7593    -7602    -7624    -7662 
   -7679    -7690    -7665    -7554    -7398    -7270    -7194    -7162 
   -7148    -7145    -7165    -7206    -7275    -7388    -7501    -7538 
   -7479    -7390    -7365    -7454    -7648    -7857    -7936    -7817 
   -7608    -7447    -7362    -7348    -7416    -7529    -7616    -7680 
   -7751    -7774    -7703    -7626    -7651    -7731    -7751    -7691 
   -7626    -7594    -7555    -7520    -7589    -7754    -7875    -7883 
   -7836    -7793    -7743    -7672    -7611    -7569    -7522    -7457 
   -7401    -7424    -7534    -7629    -7623    -7537    -7458    -7460 
   -7550    -7671    -7734    -7657    -7486    -7366    -7341    -7346 
   -7389    -7497    -7575    -7541    -7470    -7464    -7568    -7751 
   -7912    -8005    -8062    -8083    -8058    -8004    -7902    -7744 
   -7578    -7420    -7218    -6944    -6653    -6469    -6498    -6717 
   -7039    -7403    -7750    -7990    -8086    -8087    -8067    -8056 
   -8063    -8064    -7968    -7698    -7355    -7127    -7099    -7210 
   -7345    -7446    -7540    -7655    -7770    -7848    -7862    -7811 
   -7703    -7545    -7391    -7313    -7292    -7263    -7218    -7180 
   -7153    -7185    -7335    -7546    -7702    -7756    -7735    -7703 
   -7675    -7604    -7489    -7398    -7347    -7296    -7253    -7270 
   -7323    -7325    -7278    -7282    -7393    -7554    -7676    -7719 
   -7680    -7609    -7609    -7688    -7714    -7590    -7323    -6982 
   -6687    -6551    -6626    -6870    -7161    -7432    -7705    -7976 
   -8180    -8242    -8125    -7853    -7493    -7143    -6912    -6855 
   -6930    -7061    -7175    -7241    -7324    -7449    -7505    -7467 
   -7456    -7514    -7619    -7796    -8011    -8153    -8162    -8049 
   -7865    -7666    -7493    -7383    -7376    -7451    -7520    -7541 
   -7579    -7664    -7711    -7663    -7545    -7369    -7151    -6922 
   -6737    -6673    -6720    -6821    -7004    -7295    -7628    -7919 
   -8088    -8112    -8083    -8090    -8118    -8137    -8109    -7977 
   -7728    -7430    -7217    -7206    -7348    -7457    -7432    -7325 
   -7221    -7179    -7256    -7454    -7709    -7968    -8207    -8400 
   -8489    -8384    -8086    -7735    -7471    -7357    -7350    -7313 
   -7224    -7215    -7345    -7530    -7672    -7714    -7637    -7458 
   -7237    -7115    -7198    -7434    -7707    -7883    -7845    -7654 
   -7519    -7566    -7762    -8000    -8155    -8154    -8007    -7773 
   -7535    -7334    -7178    -7160    -7357    -7671    -7978    -8250 
   -8410    -8343    -8081    -7780    -7556    -7451    -7452    -7502 
   -7545    -7562    -7551    -7511    -7457    -7408    -7392    -7415 
   -7405    -7301    -7191    -7195    -7336    -7575    -7823    -7961 
   -7971    -7951    -7952    -7921    -7811    -7635    -7458    -7362 
   -7358    -7411    -7509    -7632    -7717    -7722    -7666    -7562 
   -7386    -7162    -7007    -7002    -7092    -7200    -7330    -7445 
   -7445    -7328    -7203    -7128    -7092    -7087    -7108    -7156 
   -7258    -7400    -7511    -7528    -7455    -7344    -7263    -7279 
   -7417    -7630    -7843    -8014    -8163    -8281    -8262    -8026 
   -7681    -7431    -7358    -7433    -7596    -7749    -7734    -7472 
   -7102    -6818    -6668    -6620    -6655    -6738    -6870    -7082 
   -7334    -7540    -7649    -7666    -7623    -7537    -7427    -7361 
   -7396    -7504    -7640    -7795    -7941    -8049    -8135    -8182 
   -8094    -7819    -7441    -7116    -6955    -6977    -7161    -7459 
   -7772    -7984    -8068    -8077    -8034    -7924    -7747    -7502 
   -7165    -6777    -6499    -6474    -6710    -7122    -7571    -7901 
   -8033    -7972    -7754    -7472    -7236    -7097    -7075    -7196 
   -7416    -7668    -7932    -8179    -8331    -8308    -8101    -7790 
   -7481    -7234    -7091    -7088    -7198    -7357    -7574    -7862 
   -8141    -8311    -8281    -8001    -7587    -7241    -7047    -7000 
   -7115    -7377    -7712    -8020    -8193    -8175    -7994    -7713 
   -7366    -7029    -6853    -6885    -7007    -7143    -7321    -7522 
   -7660    -7715    -7765    -7836    -7872    -7868    -7874    -7890 
   -7877    -7868    -7946    -8096    -8207    -8202    -8040    -7710 
   -7335    -7075    -6961    -6970    -7107    -7315    -7479    -7547 
   -7529    -7459    -7403    -7404    -7449    -7527    -7629    -7687 
   -7616    -7437    -7235    -7055    -6940    -6920    -6963    -7051 
   -7202    -7366    -7500    -7666    -7902    -8120    -8198    -8060 
   -7686    -7133    -6566    -6244    -6348    -6781    -7290    -7722 
   -8004    -8073    -7964    -7793    -7624    -7457    -7296    -7161 
   -7099    -7183    -7394    -7568    -7556    -7410    -7279    -7267 
   -7413    -7648    -7846    -7998    -8158    -8302    -8402    -8454 
   -8403    -8204    -7866    -7447    -7058    -6824    -6833    -7093 
   -7512    -7913    -8134    -8139    -7989    -7748    -7474    -7270 
   -7217    -7281    -7362    -7423    -7480    -7522    -7570    -7701 
   -7915    -8057    -8004    -7835    -7717    -7702    -7748    -7856 
   -8011    -8053    -7845    -7487    -7157    -6910    -6742    -6678 
   -6707    -6779    -6877    -7052    -7350    -7728    -8081    -8355 
   -8563    -8684    -8629    -8310    -7746    -7083    -6519    -6209 
   -6243    -6612    -7168    -7703    -8055    -8186    -8165    -8038 
   -7829    -7653    -7618    -7698    -7791    -7841    -7873    -7892 
   -7777    -7452    -7072    -6861    -6855    -6952    -7063    -7152 
   -7195    -7197    -7281    -7566    -7950    -8207    -8243    -8102 
   -7874    -7648    -7477    -7392    -7415    -7531    -7717    -7947 
   -8158    -8232    -8074    -7731    -7344    -6984    -6700    -6573 
   -6613    -6729    -6822    -6885    -7004    -7224    -7473    -7692 
   -7889    -8060    -8169    -8153    -7913    -7409    -6805    -6404 
   -6393    -6730    -7238    -7697    -7925    -7886    -7684    -7460 
   -7302    -7229    -7224    -7277    -7389    -7578    -7808    -7949 
   -7886    -7636    -7354    -7244    -7380    -7662    -7937    -8102 
   -8119    -7984    -7708    -7325    -6904    -6551    -6401    -6592 
   -7164    -7947    -8641    -8988    -8903    -8488    -7934    -7432 
   -7138    -7110    -7261    -7426    -7481    -7430    -7340    -7224 
   -7080    -6992    -7022    -7127    -7279    -7482    -7682    -7821 
   -7893    -7898    -7837    -7735    -7611    -7479    -7372    -7340 
   -7415    -7552    -7670    -7746    -7804    -7846    -7872    -7894 
   -7895    -7846    -7747    -7633    -7594    -7745    -8087    -8432 
   -8498    -8116    -7392    -6630    -6108    -5936    -6106    -6531 
   -7041    -7491    -7849    -8096    -8117    -7832    -7372    -6995 
   -6917    -7223    -7799    -8354    -8658    -8696    -8546    -8292 
   -8045    -7869    -7729    -7612    -7570    -7624    -7756    -7938 
   -8090    -8101    -7927    -7599    -7178    -6749    -6435    -6360 
   -6567    -6981    -7450    -7788    -7838    -7569    -7124    -6776 
   -6764    -7119    -7659    -8138    -8400    -8415    -8236    -7927 
   -7554    -7191    -6908    -6746    -6745    -6939    -7302    -7712 
   -8017    -8166    -8204    -8185    -8157    -8120    -7974    -7623 
   -7126    -6693    -6486    -6485    -6599    -6794    -7052    -7341 
   -7613    -7814    -7917    -7967    -8063    -8232    -8353    -8294 
   -8073    -7773    -7421    -7069    -6851    -6861    -7103    -7523 
   -8009    -8414    -8621    -8583    -8305    -7851    -7350    -6950 
   -6761    -6800    -6975    -7152    -7273    -7367    -7439    -7460 
   -7497    -7653    -7917    -8184    -8340    -8314    -8113    -7818 
   -7517    -7290    -7179    -7159    -7233    -7413    -7592    -7649 
   -7587    -7476    -7405    -7414    -7446    -7466    -7527    -7658 
   -7809    -7897    -7851    -7683    -7476    -7283    -7115    -7035 
   -7120    -7356    -7642    -7841    -7844    -7669    -7424    -7197 
   -7035    -6958    -6936    -6915    -6919    -7029    -7265    -7553 
   -7796    -7943    -7998    -7980    -7907    -7809    -7700    -7548 
   -7361    -7235    -7218    -7245    -7281    -7395    -7638    -7939 
   -8189    -8340    -8360    -8223    -7997    -7791    -7609    -7366 
   -7032    -6709    -6534    -6582    -6844    -7205    -7490    -7607 
   -7582    -7495    -7431    -7413    -7357    -7201    -7041    -7021 
   -7128    -7254    -7345    -7393    -7383    -7349    -7378    -7539 
   -7855    -8267    -8591    -8628    -8355    -7902    -7405    -6978 
   -6723    -6694    -6887    -7265    -7765    -8287    -8663    -8725 
   -8435    -7934    -7419    -7022    -6817    -6830    -7011    -7258 
   -7461    -7567    -7612    -7656    -7707    -7742    -7753    -7742 
   -7735    -7804    -7984    -8187    -8264    -8149    -7894    -7581 
   -7268    -7024    -6904    -6878    -6891    -6940    -7075    -7362 
   -7802    -8266    -8578    -8627    -8412    -8011    -7579    -7290 
   -7207    -7246    -7302    -7335    -7349    -7329    -7227    -7054 
   -6921    -6925    -7067    -7319    -7651    -7989    -8235    -8331 
   -8269    -8053    -7708    -7333    -7049    -6880    -6815    -6903 
   -7164    -7536    -7954    -8328    -8529    -8484    -8205    -7791 
   -7412    -7195    -7141    -7176    -7245    -7344    -7488    -7661 
   -7832    -7995    -8154    -8262    -8245    -8095    -7902    -7788 
   -7786    -7819    -7783    -7642    -7434    -7212    -7027    -6931 
   -6919    -6944    -6974    -7006    -7065    -7166    -7257    -7262 
   -7170    -7048    -6998    -7091    -7313    -7568    -7751    -7801 
   -7706    -7544    -7417    -7349    -7337    -7388    -7468    -7539 
   -7585    -7585    -7524    -7418    -7294    -7223    -7268    -7391 
   -7511    -7581    -7568    -7479    -7368    -7263    -7171    -7121 
   -7159    -7342    -7677    -8064    -8361    -8462    -8313    -7976 
   -7604    -7303    -7120    -7083    -7163    -7289    -7441    -7634 
   -7804    -7860    -7795    -7653    -7495    -7379    -7320    -7299 
   -7293    -7308    -7389    -7548    -7763    -8012    -8220    -8278 
   -8194    -8085    -8035    -8040    -8083    -8112    -8038    -7828 
   -7552    -7300    -7115    -6979    -6896    -6925    -7074    -7259 
   -7387    -7411    -7360    -7308    -7277    -7223    -7117    -6975 
   -6858    -6836    -6967    -7261    -7648    -7988    -8181    -8212 
   -8107    -7891    -7602    -7306    -7074    -6968    -7027    -7219 
   -7418    -7505    -7473    -7356    -7174    -6986    -6857    -6806 
   -6867    -7097    -7465    -7847    -8102    -8160    -8061    -7881 
   -7687    -7569    -7580    -7659    -7712    -7728    -7742    -7771 
   -7803    -7782    -7642    -7385    -7096    -6881    -6796    -6805 
   -6843    -6908    -7006    -7074    -7085    -7124    -7257    -7444 
   -7641    -7837    -8017    -8182    -8331    -8415    -8363    -8155 
   -7868    -7622    -7486    -7436    -7414    -7384    -7359    -7394 
   -7515    -7677    -7820    -7936    -8023    -8047    -7969    -7799 
   -7589    -7400    -7283    -7275    -7370    -7537    -7738    -7908 
   -7966    -7866    -7641    -7389    -7210    -7153    -7203    -7317 
   -7436    -7502    -7504    -7481    -7464    -7489    -7582    -7708 
   -7785    -7769    -7704    -7686    -7764    -7910    -8086    -8226 
   -8256    -8221    -8218    -8241    -8202    -8031    -7717    -7309 
   -6886    -6560    -6418    -6445    -6572    -6772    -6998    -7159 
   -7231    -7268    -7291    -7280    -7255    -7279    -7404    -7633 
   -7932    -8233    -8450    -8540    -8495    -8301    -7979    -7618 
   -7311    -7094    -6955    -6872    -6848    -6921    -7140    -7486 
   -7820    -7981    -7906    -7639    -7282    -6979    -6874    -7009 
   -7309    -7654    -7940    -8091    -8095    -7997    -7835    -7627 
   -7401    -7216    -7145    -7227    -7434    -7709    -7975    -8121 
   -8075    -7890    -7688    -7545    -7487    -7523    -7622    -7728 
   -7818    -7890    -7920    -7860    -7686    -7447    -7259    -7212 
   -7310    -7503    -7726    -7911    -7989    -7905    -7677    -7383 
   -7083    -6865    -6835    -6983    -7202    -7430    -7645    -7809 
   -7896    -7908    -7863    -7772    -7663    -7613    -7664    -7772 
   -7846    -7786    -7542    -7187    -6859    -6653    -6599    -6698 
   -6930    -7223    -7499    -7729    -7898    -7955    -7856    -7642 
