Origin Time       2024/04/02 04:24:00
Lat.              40.133
Long.             141.712
Depth. (km)       71
Mag.              6.0
Station Code      HDKH01
Station Lat.      42.7031
Station Long.     142.2296
Station Height(m) -18
Record Time       2024/04/02 04:25:20
Sampling Freq(Hz) 100Hz
Duration Time(s)  127
Dir.              2
Scale Factor      2942(gal)/8224139
Max. Acc. (gal)   0.558
Last Correction   2024/04/02 04:25:21
Memo.             
[...]
  129882   129830   129768   129712   129670   129633   129598   129578 
  129581   129612   129659   129709   129759   129817   129890   129956 
  130009   130050   130072   130071   130060   130048   130041   130044 
  130049   130048   130041   130029   130011   129984   129951   129925 
  129906   129870   129826   129793   129770   129770   129790   129822 
  129867   129918   129971   130025   130064   130071   130053   130033 
  130013   129996   129995   129992   129973   129941   129891   129828 
  129775   129730   129690   129649   129606   129566   129540   129554 
  129606   129674   129743   129810   129874   129926   129960   129971 
  129960   129930   129898   129870   129837   129807   129794   129791 
  129786   129768   129752   129757   129778   129794   129805   129811 
  129830   129874   129934   129992   130040   130077   130096   130094 
  130086   130080   130075   130061   130029   129984   129942   129911 
  129891   129867   129830   129801   129794   129809   129836   129863 
  129880   129897   129913   129922   129922   129919   129921   129930 
  129937   129921   129888   129844   129795   129759   129733   129718 
  129722   129735   129747   129763   129789   129825   129864   129886 
  129891   129894   129899   129917   129945   129969   129986   129996 
  130000   129984   129944   129888   129837   129805   129793   129793 
  129791   129793   129805   129821   129833   129844   129852   129872 
  129909   129942   129956   129953   129952   129952   129942   129938 
  129957   129983   130003   130015   130015   130009   130009   130017 
  130018   130017   130021   130026   130036   130059   130088   130103 
  130094   130073   130044   129999   129957   129932   129915   129914 
  129937   129976   130011   130034   130041   130036   130026   130010 
  129998   129998   130007   130023   130041   130061   130068   130067 
  130071   130072   130048   130002   129952   129907   129871   129847 
  129830   129807   129780   129756   129751   129778   129829   129871 
  129894   129905   129899   129875   129845   129817   129784   129744 
  129701   129667   129654   129652   129654   129666   129694   129722 
  129739   129748   129766   129780   129794   129822   129843   129830 
  129807   129791   129780   129772   129762   129743   129717   129697 
  129698   129725   129762   129803   129857   129915   129969   130021 
  130059   130080   130095   130086   130041   129999   129973   129951 
  129933   129921   129907   129897   129887   129878   129882   129899 
  129921   129938   129945   129936   129915   129898   129894   129915 
  129955   129991   130002   129987   129963   129936   129911   129899 
  129879   129844   129816   129799   129780   129771   129787   129816 
  129841   129870   129902   129930   129949   129953   129938   129919 
  129910   129913   129911   129899   129886   129876   129859   129830 
  129794   129752   129714   129694   129681   129668   129683   129739 
  129810   129883   129960   130033   130098   130153   130179   130164 
  130121   130056   129990   129938   129897   129872   129865   129851 
  129833   129825   129816   129818   129845   129868   129867   129847 
  129818   129797   129797   129818   129861   129921   129980   130017 
  130025   130002   129953   129895   129838   129779   129747   129753 
  129771   129789   129807   129821   129841   129882   129928   129963 
  129976   129959   129932   129915   129911   129914   129928   129937 
  129937   129948   129967   129987   130013   130018   130005   129995 
  129976   129952   129928   129886   129845   129837   129856   129902 
  129971   130036   130092   130145   130169   130164   130138   130102 
  130065   130038   130018   129999   129983   129971   129959   129948 
  129941   129941   129940   129929   129899   129861   129837   129841 
  129880   129933   129969   129984   129978   129946   129901   129837 
  129764   129695   129635   129585   129550   129516   129489   129487 
  129521   129587   129668   129747   129820   129882   129930   129960 
  129965   129952   129921   129883   129855   129830   129814   129828 
  129875   129924   129955   129975   129990   129992   129983   129965 
  129948   129936   129925   129906   129886   129870   129853   129836 
  129821   129813   129813   129824   129849   129880   129901   129907 
  129919   129948   129979   130002   130025   130060   130111   130160 
  130191   130195   130162   130095   130010   129919   129844   129807 
  129805   129799   129783   129780   129798   129822   129851   129887 
  129925   129965   130006   130030   130040   130046   130056   130077 
  130095   130083   130042   129984   129919   129851   129793   129756 
  129741   129726   129702   129685   129697   129732   129770   129799 
  129816   129834   129861   129890   129901   129883   129848   129816 
  129803   129813   129832   129853   129874   129883   129876   129860 
  129844   129826   129810   129793   129768   129739   129708   129685 
  129672   129664   129662   129675   129705   129740   129770   129794 
  129811   129825   129844   129867   129890   129918   129932   129914 
  129895   129905   129928   129941   129955   129980   130017   130054 
  130094   130119   130117   130102   130090   130073   130061   130061 
  130053   130036   130023   130021   130034   130063   130083   130081 
  130057   130010   129952   129905   129880   129878   129892   129922 
  129953   129972   129968   129944   129907   129865   129837   129820 
  129794   129774   129789   129832   129884   129926   129942   129946 
  129953   129953   129945   129936   129907   129860   129806   129752 
  129721   129724   129736   129739   129739   129733   129710   129686 
  129683   129705   129732   129752   129762   129776   129810   129845 
  129853   129838   129830   129840   129857   129880   129902   129917 
  129929   129940   129938   129924   129902   129883   129868   129859 
  129861   129879   129919   129982   130037   130067   130084   130092 
  130080   130059   130032   130003   129980   129956   129922   129886 
  129853   129820   129809   129836   129884   129929   129973   130023 
  130068   130102   130130   130142   130140   130125   130106   130087 
  130075   130060   130023   129979   129949   129938   129933   129917 
  129899   129895   129903   129909   129899   129868   129824   129790 
  129782   129786   129782   129774   129776   129798   129845   129897 
  129929   129934   129917   129886   129857   129843   129844   129849 
  129857   129876   129905   129933   129960   129971   129964   129945 
  129921   129892   129864   129836   129817   129820   129840   129865 
  129899   129932   129952   129961   129967   129961   129937   129883 
  129807   129736   129690   129676   129689   129714   129733   129735 
  129718   129702   129690   129678   129668   129679   129722   129797 
  129883   129955   129995   129991   129949   129902   129872   129865 
  129884   129918   129952   129969   129961   129942   129941   129953 
  129960   129955   129937   129911   129879   129857   129857   129874 
  129888   129894   129891   129883   129875   129871   129880   129909 
  129944   129978   130011   130036   130049   130061   130059   130027 
  129986   129952   129936   129936   129953   129991   130029   130036 
  130011   129976   129941   129910   129891   129882   129874   129874 
  129892   129929   129967   129990   129998   129996   129983   129960 
  129938   129913   129876   129836   129797   129778   129780   129784 
  129779   129780   129789   129802   129830   129860   129875   129882 
  129899   129915   129907   129882   129853   129824   129791   129751 
  129709   129689   129698   129718   129732   129751   129797   129867 
  129933   129964   129941   129864   129760   129674   129636   129639 
  129668   129712   129767   129830   129897   129965   130033   130071 
  130072   130053   130022   129991   129986   130014   130050   130079 
  130098   130100   130081   130059   130041   130040   130063   130083 
  130069   130040   130007   129948   129855   129752   129676   129649 
  129659   129679   129708   129764   129856   129957   130040   130098 
  130134   130164   130175   130148   130084   130009   129934   129859 
  129778   129695   129633   129608   129610   129629   129645   129645 
  129652   129685   129745   129824   129898   129953   130005   130072 
  130161   130253   130311   130311   130272   130212   130129   130025 
  129928   129848   129782   129729   129705   129710   129717   129713 
  129716   129728   129743   129763   129794   129838   129891   129941 
  129979   129996   129998   129995   129996   129998   129994   129973 
  129937   129892   129836   129768   129709   129670   129645   129645 
  129678   129739   129807   129868   129911   129933   129940   129937 
  129932   129940   129960   129973   129975   129972   129975   129994 
  130034   130083   130108   130102   130067   130011   129959   129921 
  129883   129849   129837   129836   129833   129822   129794   129749 
  129705   129676   129670   129685   129730   129810   129906   130006 
  130091   130152   130192   130214   130219   130229   130234   130207 
  130144   130077   130021   129968   129910   129856   129818   129786 
  129745   129701   129676   129699   129755   129807   129844   129867 
  129886   129907   129929   129945   129952   129934   129894   129860 
  129851   129861   129875   129878   129875   129860   129811   129745 
  129699   129685   129695   129725   129764   129805   129860   129928 
  129991   130037   130072   130113   130157   130187   130172   130123 
  130079   130054   130046   130041   130032   130019   130014   130018 
  130032   130044   130046   130038   130018   129996   129984   129987 
  130002   130003   129978   129940   129915   129913   129926   129949 
  129969   129972   129957   129937   129929   129937   129949   129967 
  130010   130076   130126   130148   130153   130118   130030   129926 
  129849   129822   129852   129906   129946   129969   129976   129963 
  129921   129863   129824   129826   129851   129884   129921   129938 
  129926   129897   129868   129859   129872   129879   129844   129776 
  129710   129664   129644   129633   129621   129604   129591   129604 
  129639   129676   129716   129753   129784   129803   129810   129806 
  129791   129768   129756   129767   129798   129834   129861   129870 
  129859   129826   129778   129729   129695   129678   129682   129721 
  129776   129820   129851   129876   129888   129890   129892   129897 
  129899   129906   129928   129972   130041   130110   130156   130176 
  130175   130153   130114   130050   129972   129905   129867   129861 
  129861   129848   129837   129843   129849   129844   129837   129848 
  129876   129891   129875   129853   129834   129806   129772   129745 
  129712   129654   129579   129513   129479   129485   129506   129532 
  129563   129589   129597   129597   129608   129639   129687   129728 
  129733   129713   129699   129672   129614   129563   129544   129548 
  129583   129655   129745   129825   129884   129918   129926   129913 
  129887   129856   129826   129811   129828   129867   129903   129921 
  129926   129917   129892   129880   129888   129903   129933   129965 
  129971   129971   129999   130029   130054   130091   130129   130158 
  130184   130183   130134   130067   129996   129909   129830   129793 
  129789   129811   129875   129964   130046   130114   130149   130130 
  130067   129982   129892   129814   129766   129744   129729   129710 
  129699   129691   129682   129686   129703   129716   129736   129770 
  129776   129757   129744   129729   129718   129728   129721   129683 
  129655   129654   129652   129640   129609   129562   129529   129528 
  129547   129594   129670   129740   129802   129868   129926   129980 
  130046   130117   130202   130319   130441   130539   130608   130623 
  130570   130493   130407   130299   130199   130115   130018   129925 
  129856   129805   129778   129775   129786   129817   129891   130003 
  130133   130243   130312   130341   130345   130358   130408   130499 
  130611   130705   130759   130766   130720   130615   130466   130287 
  130091   129902   129751   129664   129639   129663   129733   129834 
  129930   129995   130018   130006   129983   129960   129948   129956 
  129980   130000   130000   129982   129934   129848   129729   129593 
  129447   129304   129177   129082   129027   129020   129062   129136 
  129235   129365   129506   129639   129753   129840   129894   129921 
  129928   129938   129972   130025   130073   130104   130115   130100 
  130059   129998   129921   129830   129755   129718   129706   129710 
  129744   129820   129925   130029   130118   130196   130258   130289 
  130292   130273   130221   130134   130033   129936   129845   129762 
  129670   129564   129459   129369   129296   129247   129223   129215 
  129224   129249   129288   129354   129467   129636   129821   129968 
  130056   130103   130118   130098   130045   129971   129875   129752 
  129606   129454   129313   129208   129143   129101   129078   129088 
  129135   129235   129394   129589   129797   130002   130177   130307 
  130392   130415   130365   130261   130131   129999   129872   129737 
  129597   129475   129393   129338   129300   129285   129300   129362 
  129494   129671   129871   130113   130405   130717   131017   131260 
  131402   131454   131453   131396   131272   131095   130889   130675 
  130465   130272   130099   129951   129821   129703   129604   129531 
  129482   129460   129474   129535   129663   129841   130037   130239 
  130431   130586   130693   130748   130752   130720   130673   130599 
  130480   130331   130177   130049   129972   129946   129933   129911 
  129898   129917   129956   129995   130023   130033   130038   130076 
  130156   130241   130308   130350   130356   130333   130289   130202 
  130060   129894   129714   129537   129404   129323   129278   129280 
  129323   129384   129451   129533   129627   129729   129837   129936 
  130019   130091   130154   130210   130241   130226   130165   130086 
  130009   129936   129867   129806   129763   129747   129760   129799 
  129857   129926   129996   130064   130127   130177   130206   130204 
  130172   130118   130045   129967   129905   129860   129814   129748 
  129640   129501   129374   129277   129189   129112   129074   129088 
  129153   129258   129382   129508   129633   129756   129859   129942 
  130002   130023   129994   129924   129816   129687   129577   129516 
  129505   129537   129593   129648   129710   129767   129795   129802 
  129811   129837   129874   129909   129929   129936   129933   129930 
  129929   129932   129945   129980   130027   130075   130099   130084 
  130036   129967   129890   129833   129817   129838   129892   129963 
  130023   130046   130018   129937   129820   129674   129517   129379 
  129271   129201   129176   129161   129139   129123   129130   129170 
  129262   129396   129560   129760   129953   130094   130189   130264 
  130308   130333   130346   130347   130337   130335   130345   130326 
  130258   130140   129979   129818   129702   129658   129687   129771 
  129884   130015   130150   130266   130353   130424   130478   130513 
  130551   130593   130620   130626   130609   130572   130516   130442 
  130341   130223   130110   130006   129917   129856   129821   129801 
  129803   129841   129907   130013   130146   130268   130365   130441 
  130493   130523   130526   130495   130434   130341   130214   130065 
  129909   129757   129625   129508   129401   129312   129223   129127 
  129058   129037   129060   129123   129211   129325   129481   129648 
  129809   129967   130119   130246   130324   130326   130254   130142 
  130009   129864   129736   129654   129627   129654   129721   129817 
  129938   130073   130181   130252   130299   130335   130357   130347 
  130296   130206   130102   130003   129915   129852   129843   129874 
  129899   129903   129888   129855   129810   129755   129694   129645 
  129610   129579   129547   129510   129465   129408   129335   129242 
  129153   129091   129045   129012   129000   128999   129010   129038 
  129095   129178   129265   129328   129357   129358   129348   129330 
  129290   129232   129165   129093   129028   128991   128987   129000 
  129027   129064   129107   129163   129250   129378   129532   129671 
  129776   129853   129909   129944   129971   129996   130033   130083 
  130146   130216   130287   130354   130426   130508   130594   130662 
  130713   130759   130789   130794   130771   130719   130640   130554 
  130488   130442   130395   130322   130230   130137   130061   130018 
  130009   130032   130079   130145   130229   130333   130450   130566 
  130658   130716   130761   130806   130843   130864   130878   130885 
  130893   130893   130859   130777   130648   130481   130299   130141 
  130026   129960   129948   129975   130010   130049   130094   130148 
  130229   130331   130416   130457   130449   130395   130308   130207 
  130095   129975   129852   129740   129651   129594   129579   129602 
  129631   129644   129645   129633   129616   129614   129637   129675 
  129721   129768   129807   129822   129816   129798   129768   129726 
  129668   129589   129487   129363   129215   129055   128910   128806 
  128764   128804   128935   129124   129336   129552   129740   129878 
  129965   130010   130025   130018   129988   129934   129870   129787 
  129676   129547   129428   129336   129281   129276   129312   129381 
  129483   129601   129722   129847   129968   130096   130233   130357 
  130447   130485   130449   130338   130173   129971   129753   129551 
  129379   129253   129174   129143   129132   129127   129130   129143 
  129173   129246   129375   129556   129762   129951   130103   130214 
  130281   130315   130320   130296   130252   130184   130108   130045 
  129990   129921   129853   129803   129770   129764   129803   129890 
  130011   130141   130248   130331   130401   130447   130469   130482 
  130500   130512   130512   130499   130462   130401   130327   130250 
  130179   130111   130021   129899   129782   129703   129666   129654 
  129644   129616   129571   129528   129489   129450   129425   129433 
  129478   129563   129683   129809   129922   130017   130083   130117 
  130141   130165   130175   130158   130125   130073   130002   129919 
  129834   129751   129675   129601   129540   129512   129506   129520 
  129555   129600   129655   129728   129817   129926   130054   130187 
  130300   130378   130423   130434   130408   130347   130269   130206 
  130173   130160   130160   130156   130122   130064   129999   129945 
  129925   129949   130005   130086   130198   130318   130408   130469 
  130501   130507   130500   130486   130451   130400   130343   130268 
  130167   130054   129944   129848   129782   129749   129730   129717 
  129724   129755   129794   129832   129871   129894   129899   129907 
  129926   129942   129956   129959   129940   129892   129797   129656 
  129506   129357   129217   129116   129061   129057   129108   129197 
  129298   129392   129466   129516   129543   129543   129525   129513 
