Origin Time       2024/04/02 04:24:00
Lat.              40.133
Long.             141.712
Depth. (km)       71
Mag.              6.0
Station Code      HDKH03
Station Lat.      42.5934
Station Long.     142.3521
Station Height(m) 54
Record Time       2024/04/02 04:25:46
Sampling Freq(Hz) 100Hz
Duration Time(s)  120
Dir.              1
Scale Factor      2942(gal)/8224139
Max. Acc. (gal)   0.434
Last Correction   2024/04/02 04:25:30
Memo.             
[...]
  -37378   -37377   -37382   -37399   -37413   -37413   -37405   -37400 
  -37397   -37390   -37369   -37336   -37314   -37304   -37307   -37318 
  -37334   -37366   -37411   -37440   -37440   -37409   -37355   -37307 
  -37280   -37273   -37282   -37297   -37309   -37322   -37322   -37304 
  -37277   -37245   -37208   -37173   -37147   -37138   -37139   -37129 
  -37111   -37106   -37116   -37141   -37185   -37243   -37296   -37335 
  -37374   -37411   -37412   -37368   -37291   -37207   -37143   -37107 
  -37095   -37099   -37110   -37125   -37141   -37149   -37145   -37131 
  -37112   -37095   -37091   -37104   -37129   -37166   -37223   -37304 
  -37395   -37476   -37536   -37574   -37600   -37621   -37628   -37608 
  -37561   -37501   -37439   -37374   -37312   -37265   -37243   -37253 
  -37296   -37359   -37424   -37480   -37508   -37511   -37509   -37509 
  -37508   -37513   -37527   -37536   -37540   -37540   -37531   -37509 
  -37482   -37458   -37430   -37384   -37322   -37265   -37226   -37210 
  -37212   -37226   -37238   -37249   -37264   -37285   -37309   -37323 
  -37328   -37347   -37374   -37396   -37407   -37403   -37384   -37359 
  -37332   -37308   -37285   -37261   -37238   -37228   -37233   -37246 
  -37268   -37293   -37316   -37326   -37322   -37318   -37331   -37357 
  -37382   -37407   -37424   -37431   -37436   -37440   -37439   -37427 
  -37407   -37389   -37380   -37378   -37382   -37393   -37411   -37423 
  -37407   -37353   -37284   -37231   -37200   -37188   -37195   -37226 
  -37276   -37338   -37396   -37431   -37431   -37404   -37365   -37320 
  -37272   -37224   -37180   -37150   -37149   -37177   -37235   -37312 
  -37380   -37422   -37440   -37450   -37461   -37471   -37462   -37424 
  -37374   -37328   -37292   -37266   -37246   -37234   -37238   -37258 
  -37284   -37300   -37301   -37300   -37307   -37324   -37345   -37369 
  -37393   -37404   -37403   -37409   -37436   -37470   -37501   -37512 
  -37500   -37470   -37440   -37422   -37409   -37401   -37405   -37434 
  -37471   -37505   -37542   -37588   -37636   -37667   -37678   -37674 
  -37658   -37624   -37573   -37513   -37463   -37432   -37419   -37423 
  -37440   -37462   -37467   -37451   -37424   -37401   -37386   -37374 
  -37368   -37366   -37362   -37361   -37357   -37339   -37314   -37295 
  -37288   -37296   -37318   -37334   -37334   -37327   -37334   -37359 
  -37384   -37384   -37358   -37322   -37293   -37288   -37300   -37318 
  -37330   -37339   -37355   -37378   -37386   -37378   -37381   -37399 
  -37411   -37412   -37409   -37405   -37403   -37385   -37347   -37305 
  -37281   -37281   -37296   -37303   -37282   -37233   -37174   -37114 
  -37045   -36977   -36941   -36954   -37007   -37080   -37156   -37238 
  -37328   -37416   -37497   -37566   -37612   -37619   -37590   -37530 
  -37450   -37361   -37281   -37224   -37191   -37170   -37158   -37150 
  -37154   -37173   -37189   -37192   -37196   -37218   -37255   -37309 
  -37365   -37405   -37439   -37489   -37548   -37593   -37623   -37632 
  -37613   -37573   -37507   -37422   -37347   -37314   -37315   -37316 
  -37304   -37287   -37278   -37280   -37287   -37293   -37309   -37338 
  -37370   -37388   -37393   -37390   -37358   -37288   -37189   -37076 
  -36967   -36884   -36837   -36803   -36755   -36679   -36586   -36497 
  -36439   -36418   -36427   -36445   -36464   -36495   -36551   -36630 
  -36722   -36809   -36883   -36952   -37026   -37116   -37212   -37287 
  -37330   -37347   -37343   -37309   -37249   -37183   -37131   -37100 
  -37088   -37089   -37096   -37099   -37099   -37108   -37139   -37188 
  -37245   -37311   -37396   -37498   -37606   -37710   -37795   -37843 
  -37851   -37836   -37818   -37805   -37809   -37825   -37827   -37797 
  -37732   -37650   -37577   -37535   -37530   -37546   -37565   -37581 
  -37597   -37613   -37621   -37616   -37613   -37639   -37679   -37708 
  -37714   -37706   -37679   -37632   -37559   -37451   -37319   -37188 
  -37080   -36995   -36933   -36894   -36900   -36963   -37057   -37158 
  -37260   -37350   -37417   -37470   -37509   -37536   -37563   -37597 
  -37638   -37687   -37731   -37744   -37714   -37640   -37525   -37390 
  -37260   -37149   -37050   -36950   -36833   -36699   -36564   -36454 
  -36386   -36367   -36401   -36472   -36571   -36684   -36802   -36913 
  -37007   -37069   -37103   -37130   -37165   -37204   -37247   -37288 
  -37308   -37305   -37280   -37223   -37149   -37069   -36990   -36921 
  -36877   -36856   -36841   -36822   -36795   -36767   -36755   -36764 
  -36798   -36877   -36991   -37107   -37200   -37269   -37304   -37305 
  -37282   -37243   -37203   -37189   -37222   -37277   -37323   -37347 
  -37361   -37380   -37413   -37459   -37501   -37534   -37567   -37600 
  -37620   -37642   -37673   -37700   -37704   -37683   -37669   -37694 
  -37755   -37822   -37875   -37898   -37864   -37762   -37608   -37434 
  -37273   -37150   -37064   -37017   -37021   -37049   -37057   -37029 
  -36971   -36903   -36853   -36834   -36848   -36890   -36946   -37008 
  -37069   -37119   -37157   -37184   -37204   -37231   -37272   -37318 
  -37359   -37399   -37423   -37401   -37314   -37177   -37037   -36936 
  -36896   -36925   -37010   -37133   -37274   -37420   -37567   -37717 
  -37871   -38030   -38179   -38303   -38391   -38426   -38403   -38330 
  -38214   -38060   -37882   -37709   -37558   -37427   -37309   -37207 
  -37125   -37076   -37056   -37049   -37048   -37058   -37102   -37176 
  -37258   -37354   -37481   -37628   -37775   -37908   -38018   -38103 
  -38157   -38180   -38187   -38190   -38178   -38137   -38057   -37928 
  -37747   -37543   -37343   -37172   -37037   -36946   -36903   -36900 
  -36934   -36998   -37084   -37195   -37327   -37473   -37617   -37751 
  -37866   -37956   -38007   -38033   -38051   -38055   -38028   -37955 
  -37825   -37658   -37476   -37293   -37129   -36984   -36848   -36724 
  -36636   -36589   -36579   -36610   -36668   -36745   -36834   -36919 
  -37002   -37083   -37164   -37257   -37361   -37461   -37552   -37632 
  -37687   -37709   -37687   -37627   -37543   -37439   -37312   -37174 
  -37042   -36940   -36872   -36830   -36798   -36782   -36799   -36857 
  -36952   -37075   -37212   -37347   -37469   -37579   -37683   -37777 
  -37858   -37918   -37948   -37947   -37916   -37851   -37752   -37612 
  -37436   -37250   -37065   -36888   -36736   -36624   -36571   -36580 
  -36626   -36686   -36768   -36872   -36977   -37072   -37166   -37287 
  -37436   -37594   -37733   -37852   -37945   -38001   -38024   -38020 
  -38002   -37978   -37937   -37875   -37809   -37740   -37659   -37566 
  -37463   -37365   -37288   -37234   -37204   -37200   -37228   -37281 
  -37330   -37342   -37307   -37246   -37187   -37142   -37120   -37122 
  -37149   -37196   -37245   -37255   -37219   -37172   -37135   -37107 
  -37092   -37106   -37158   -37242   -37328   -37404   -37471   -37538 
  -37600   -37648   -37671   -37669   -37647   -37617   -37588   -37552 
  -37503   -37434   -37341   -37226   -37107   -37000   -36917   -36848 
  -36776   -36713   -36686   -36705   -36753   -36821   -36911   -37023 
  -37143   -37250   -37312   -37319   -37296   -37264   -37220   -37150 
  -37050   -36949   -36869   -36809   -36755   -36697   -36651   -36645 
  -36688   -36774   -36887   -37008   -37120   -37215   -37292   -37354 
  -37401   -37444   -37504   -37592   -37712   -37848   -37952   -37980 
  -37922   -37797   -37627   -37430   -37219   -37029   -36903   -36850 
  -36856   -36910   -37004   -37135   -37288   -37443   -37593   -37731 
  -37843   -37910   -37925   -37901   -37851   -37783   -37712   -37636 
  -37550   -37474   -37432   -37409   -37386   -37363   -37342   -37326 
  -37347   -37422   -37528   -37643   -37758   -37867   -37967   -38045 
  -38090   -38098   -38071   -38017   -37940   -37840   -37725   -37608 
  -37480   -37338   -37180   -37007   -36837   -36695   -36589   -36501 
  -36440   -36423   -36458   -36540   -36652   -36792   -36967   -37150 
  -37309   -37432   -37523   -37578   -37588   -37544   -37455   -37353 
  -37266   -37203   -37145   -37089   -37050   -37044   -37068   -37114 
  -37168   -37220   -37274   -37341   -37407   -37461   -37497   -37532 
  -37581   -37638   -37677   -37682   -37648   -37585   -37500   -37407 
  -37323   -37251   -37187   -37131   -37092   -37060   -37033   -37015 
  -37019   -37053   -37106   -37160   -37212   -37260   -37303   -37354 
  -37420   -37494   -37559   -37602   -37619   -37608   -37570   -37501 
  -37416   -37332   -37254   -37192   -37157   -37149   -37170   -37208 
  -37243   -37260   -37245   -37207   -37169   -37143   -37131   -37126 
  -37120   -37116   -37126   -37160   -37207   -37238   -37234   -37201 
  -37158   -37122   -37092   -37058   -37012   -36972   -36948   -36945 
  -36961   -36983   -37002   -37029   -37072   -37138   -37219   -37296 
  -37357   -37395   -37411   -37415   -37428   -37455   -37482   -37501 
  -37520   -37554   -37612   -37678   -37721   -37731   -37713   -37678 
  -37629   -37567   -37496   -37432   -37388   -37341   -37262   -37152 
  -37033   -36938   -36877   -36844   -36836   -36838   -36842   -36852 
  -36864   -36876   -36882   -36882   -36879   -36868   -36856   -36863 
  -36895   -36941   -36991   -37046   -37092   -37126   -37153   -37180 
  -37204   -37220   -37233   -37245   -37247   -37233   -37200   -37172 
  -37177   -37218   -37262   -37274   -37251   -37212   -37166   -37126 
  -37108   -37131   -37200   -37307   -37439   -37593   -37750   -37887 
  -38007   -38115   -38209   -38275   -38298   -38276   -38218   -38128 
  -38005   -37843   -37663   -37503   -37373   -37269   -37201   -37165 
  -37143   -37138   -37154   -37210   -37305   -37403   -37461   -37480 
  -37474   -37465   -37457   -37450   -37446   -37443   -37446   -37442 
  -37408   -37341   -37255   -37169   -37098   -37053   -37029   -37029 
  -37071   -37152   -37257   -37370   -37480   -37575   -37652   -37687 
  -37677   -37652   -37639   -37628   -37609   -37584   -37552   -37519 
  -37482   -37439   -37390   -37349   -37334   -37346   -37372   -37395 
  -37411   -37431   -37463   -37520   -37605   -37706   -37814   -37917 
  -37986   -38020   -38026   -38010   -37976   -37926   -37876   -37844 
  -37827   -37804   -37766   -37713   -37652   -37600   -37563   -37534 
  -37501   -37480   -37476   -37478   -37477   -37459   -37413   -37347 
  -37272   -37192   -37116   -37062   -37041   -37046   -37060   -37057 
  -37029   -36980   -36936   -36904   -36871   -36832   -36795   -36769 
  -36765   -36795   -36849   -36910   -36977   -37053   -37131   -37196 
  -37233   -37237   -37218   -37185   -37149   -37118   -37104   -37111 
  -37131   -37153   -37161   -37138   -37084   -37025   -36983   -36964 
  -36967   -36996   -37060   -37157   -37276   -37396   -37496   -37584 
  -37663   -37710   -37710   -37670   -37598   -37500   -37384   -37264 
  -37161   -37089   -37049   -37031   -37039   -37093   -37185   -37296 
  -37413   -37532   -37632   -37693   -37714   -37709   -37694   -37683 
  -37689   -37704   -37717   -37714   -37685   -37628   -37544   -37434 
  -37312   -37200   -37091   -36979   -36873   -36788   -36741   -36738 
  -36769   -36838   -36949   -37088   -37231   -37350   -37439   -37512 
  -37579   -37631   -37650   -37631   -37588   -37535   -37473   -37399 
  -37330   -37285   -37262   -37253   -37254   -37268   -37289   -37314 
  -37339   -37363   -37384   -37409   -37450   -37503   -37550   -37574 
  -37574   -37562   -37540   -37493   -37420   -37338   -37264   -37204 
  -37149   -37080   -37004   -36933   -36871   -36818   -36779   -36761 
  -36772   -36801   -36837   -36876   -36914   -36944   -36961   -36969 
  -36981   -37010   -37064   -37135   -37204   -37258   -37291   -37301 
  -37301   -37293   -37272   -37247   -37235   -37216   -37179   -37139 
  -37116   -37119   -37154   -37211   -37272   -37332   -37396   -37454 
  -37504   -37542   -37573   -37605   -37640   -37666   -37678   -37685 
  -37694   -37710   -37729   -37740   -37740   -37737   -37752   -37794 
  -37848   -37894   -37930   -37953   -37948   -37901   -37813   -37697 
  -37563   -37424   -37285   -37164   -37075   -37018   -36983   -36980 
  -37010   -37056   -37110   -37164   -37204   -37230   -37241   -37234 
  -37235   -37254   -37289   -37338   -37390   -37426   -37436   -37423 
  -37380   -37307   -37212   -37115   -37034   -36969   -36921   -36888 
  -36863   -36841   -36833   -36855   -36907   -36972   -37039   -37118 
  -37215   -37323   -37422   -37488   -37515   -37511   -37478   -37424 
  -37358   -37292   -37242   -37230   -37254   -37295   -37345   -37411 
  -37490   -37577   -37655   -37709   -37750   -37787   -37829   -37875 
  -37924   -37971   -38016   -38048   -38049   -38018   -37967   -37906 
  -37847   -37790   -37725   -37643   -37546   -37443   -37338   -37237 
  -37142   -37058   -36987   -36926   -36873   -36828   -36786   -36748 
  -36714   -36680   -36647   -36621   -36605   -36601   -36613   -36629 
  -36637   -36634   -36629   -36626   -36632   -36634   -36629   -36633 
  -36664   -36714   -36753   -36767   -36759   -36733   -36687   -36616 
  -36531   -36448   -36389   -36351   -36327   -36315   -36315   -36331 
  -36373   -36439   -36522   -36622   -36741   -36873   -37004   -37123 
  -37238   -37351   -37458   -37543   -37606   -37667   -37729   -37786 
  -37833   -37866   -37875   -37872   -37871   -37875   -37891   -37929 
  -37991   -38074   -38165   -38268   -38380   -38477   -38533   -38534 
  -38481   -38392   -38280   -38152   -38003   -37852   -37727   -37625 
  -37535   -37447   -37361   -37285   -37231   -37196   -37170   -37156 
  -37158   -37185   -37237   -37296   -37350   -37389   -37412   -37428 
  -37449   -37473   -37484   -37469   -37424   -37351   -37247   -37130 
  -37023   -36938   -36879   -36833   -36786   -36749   -36740   -36771 
  -36837   -36929   -37021   -37091   -37133   -37158   -37185   -37226 
  -37268   -37305   -37342   -37363   -37373   -37377   -37365   -37339 
  -37322   -37315   -37307   -37292   -37278   -37280   -37299   -37316 
  -37332   -37370   -37436   -37515   -37598   -37673   -37720   -37736 
  -37728   -37706   -37677   -37656   -37648   -37638   -37604   -37547 
  -37474   -37405   -37353   -37301   -37238   -37160   -37071   -36985 
  -36915   -36859   -36825   -36841   -36914   -37033   -37172   -37299 
  -37397   -37466   -37509   -37531   -37521   -37480   -37415   -37351 
  -37303   -37258   -37208   -37153   -37093   -37023   -36948   -36883 
  -36845   -36853   -36911   -37000   -37103   -37212   -37323   -37436 
  -37561   -37694   -37821   -37939   -38044   -38126   -38173   -38179 
  -38136   -38053   -37951   -37851   -37764   -37683   -37596   -37503 
  -37409   -37328   -37262   -37199   -37146   -37127   -37156   -37238 
  -37354   -37480   -37593   -37689   -37751   -37768   -37747   -37696 
  -37633   -37592   -37574   -37563   -37534   -37480   -37409   -37324 
  -37223   -37112   -37006   -36926   -36873   -36848   -36852   -36873 
  -36904   -36948   -37007   -37085   -37184   -37293   -37396   -37481 
  -37536   -37559   -37562   -37552   -37535   -37534   -37559   -37608 
  -37663   -37710   -37740   -37750   -37735   -37689   -37615   -37523 
  -37428   -37339   -37255   -37181   -37120   -37085   -37087   -37118 
  -37157   -37195   -37231   -37268   -37303   -37347   -37411   -37485 
  -37557   -37616   -37656   -37678   -37675   -37654   -37620   -37579 
  -37540   -37507   -37473   -37439   -37409   -37392   -37381   -37366 
  -37345   -37315   -37284   -37260   -37245   -37231   -37214   -37193 
  -37180   -37177   -37181   -37191   -37206   -37222   -37234   -37239 
  -37242   -37250   -37258   -37255   -37234   -37203   -37170   -37139 
  -37110   -37091   -37088   -37098   -37114   -37129   -37135   -37129 
  -37110   -37099   -37112   -37143   -37174   -37203   -37234   -37264 
  -37288   -37305   -37300   -37257   -37177   -37081   -36990   -36907 
  -36829   -36761   -36703   -36664   -36655   -36682   -36736   -36805 
  -36875   -36933   -36983   -37035   -37108   -37199   -37288   -37361 
  -37417   -37459   -37489   -37496   -37465   -37407   -37335   -37262 
  -37188   -37115   -37053   -37017   -37004   -36996   -36983   -36964 
  -36946   -36942   -36961   -37002   -37064   -37145   -37241   -37343 
  -37436   -37515   -37582   -37633   -37660   -37663   -37648   -37621 
  -37582   -37528   -37454   -37363   -37274   -37207   -37157   -37116 
  -37088   -37096   -37153   -37254   -37372   -37478   -37561   -37627 
  -37670   -37681   -37670   -37659   -37662   -37685   -37720   -37756 
  -37783   -37793   -37773   -37714   -37624   -37519   -37420   -37341 
  -37291   -37277   -37282   -37285   -37281   -37282   -37288   -37287 
  -37285   -37293   -37311   -37330   -37354   -37384   -37407   -37409 
  -37396   -37374   -37357   -37357   -37365   -37374   -37385   -37393 
  -37397   -37395   -37384   -37384   -37407   -37443   -37477   -37508 
  -37544   -37585   -37605   -37597   -37569   -37527   -37477   -37423 
  -37372   -37323   -37282   -37251   -37231   -37233   -37255   -37299 
  -37358   -37424   -37480   -37521   -37561   -37605   -37651   -37686 
  -37698   -37687   -37656   -37615   -37571   -37521   -37458   -37386 
  -37308   -37230   -37158   -37096   -37050   -37023   -37011   -37011 
  -37026   -37061   -37119   -37199   -37303   -37419   -37540   -37666 
  -37781   -37856   -37879   -37855   -37794   -37706   -37598   -37473 
  -37342   -37211   -37081   -36954   -36834   -36721   -36629   -36575 
  -36563   -36591   -36651   -36725   -36807   -36895   -36980   -37049 
  -37103   -37138   -37153   -37154   -37143   -37126   -37110   -37095 
  -37062   -37017   -36973   -36941   -36930   -36942   -36975   -37017 
  -37071   -37139   -37223   -37316   -37422   -37538   -37667   -37814 
  -37970   -38114   -38229   -38292   -38315   -38310   -38276   -38215 
  -38134   -38040   -37937   -37828   -37721   -37631   -37559   -37509 
  -37477   -37457   -37444   -37432   -37423   -37423   -37427   -37432 
  -37436   -37440   -37442   -37435   -37416   -37382   -37332   -37272 
  -37208   -37158   -37134   -37133   -37137   -37142   -37138   -37119 
  -37081   -37034   -36987   -36948   -36909   -36864   -36817   -36776 
  -36748   -36737   -36748   -36775   -36811   -36853   -36902   -36954 
  -37004   -37049   -37084   -37103   -37108   -37106   -37098   -37085 
  -37073   -37073   -37096   -37141   -37195   -37249   -37296   -37342 
  -37389   -37444   -37509   -37579   -37655   -37737   -37821   -37891 
  -37944   -37971   -37962   -37918   -37852   -37770   -37679   -37592 
  -37515   -37436   -37355   -37277   -37208   -37160   -37141   -37158 
  -37206   -37269   -37341   -37408   -37449   -37444   -37405   -37339 
  -37255   -37173   -37098   -37019   -36944   -36883   -36848   -36832 
  -36828   -36821   -36811   -36801   -36792   -36798   -36817   -36844 
  -36876   -36919   -36975   -37038   -37110   -37184   -37242   -37277 
  -37282   -37262   -37223   -37172   -37126   -37102   -37100   -37119 
  -37152   -37187   -37219   -37245   -37270   -37296   -37332   -37392 
  -37454   -37512   -37577   -37639   -37679   -37700   -37701   -37687 
  -37673   -37655   -37629   -37605   -37575   -37528   -37470   -37422 
