Origin Time       2024/04/02 04:24:00
Lat.              40.133
Long.             141.712
Depth. (km)       71
Mag.              6.0
Station Code      HDKH01
Station Lat.      42.7031
Station Long.     142.2296
Station Height(m) -18
Record Time       2024/04/02 04:25:20
Sampling Freq(Hz) 100Hz
Duration Time(s)  127
Dir.              1
Scale Factor      2942(gal)/8224139
Max. Acc. (gal)   0.395
Last Correction   2024/04/02 04:25:21
Memo.             
[...]
   40882    40859    40826    40788    40747    40710    40686    40686 
   40718    40771    40828    40880    40921    40949    40961    40957 
   40945    40937    40934    40942    40959    40972    40979    40981 
   40968    40936    40894    40853    40821    40798    40776    40748 
   40714    40676    40637    40613    40612    40628    40663    40707 
   40744    40772    40790    40801    40815    40828    40836    40844 
   40844    40830    40810    40790    40759    40716    40666    40608 
   40555    40524    40524    40562    40622    40690    40738    40757 
   40753    40741    40728    40717    40713    40729    40772    40836 
   40888    40921    40941    40954    40956    40941    40909    40859 
   40807    40767    40744    40737    40730    40720    40714    40717 
   40736    40768    40788    40784    40768    40757    40760    40771 
   40775    40765    40747    40730    40736    40768    40806    40828 
   40834    40829    40813    40801    40797    40790    40775    40755 
   40728    40706    40698    40711    40748    40794    40830    40860 
   40900    40949    40986    41011    41025    41027    41033    41035 
   41018    40979    40921    40856    40795    40745    40706    40674 
   40645    40625    40614    40621    40656    40720    40809    40910 
   40996    41046    41056    41030    40975    40900    40826    40767 
   40738    40748    40788    40844    40894    40925    40941    40953 
   40964    40961    40950    40948    40957    40975    40991    40994 
   40977    40942    40900    40864    40836    40818    40828    40868 
   40923    40977    41015    41019    40999    40965    40914    40842 
   40760    40687    40641    40632    40656    40689    40697    40667 
   40618    40576    40566    40585    40613    40643    40671    40691 
   40702    40709    40720    40733    40749    40759    40767    40775 
   40774    40757    40737    40710    40674    40644    40643    40679 
   40756    40859    40967    41065    41148    41211    41253    41269 
   41260    41222    41154    41079    41023    40992    40963    40917 
   40865    40822    40791    40770    40744    40703    40657    40628 
   40632    40672    40737    40790    40811    40810    40795    40774 
   40751    40722    40687    40648    40610    40578    40554    40539 
   40533    40536    40549    40570    40591    40613    40647    40691 
   40725    40725    40698    40666    40649    40657    40683    40705 
   40711    40709    40710    40718    40729    40737    40744    40748 
   40756    40771    40790    40805    40828    40867    40907    40937 
   40960    40976    40980    40972    40940    40887    40833    40782 
   40717    40640    40578    40556    40574    40626    40698    40770 
   40844    40929    41006    41049    41067    41069    41056    41029 
   41000    40968    40913    40837    40753    40678    40625    40589 
   40566    40564    40583    40617    40666    40724    40784    40842 
   40898    40948    40994    41038    41076    41103    41121    41110 
   41052    40967    40887    40825    40786    40771    40770    40771 
   40770    40763    40748    40726    40707    40702    40716    40737 
   40761    40798    40856    40913    40952    40971    40971    40948 
   40910    40871    40838    40814    40790    40771    40755    40729 
   40695    40668    40656    40655    40666    40686    40699    40709 
   40728    40751    40760    40745    40703    40652    40613    40606 
   40633    40675    40720    40764    40809    40853    40894    40932 
   40964    40973    40944    40883    40813    40760    40736    40738 
   40757    40786    40822    40846    40846    40840    40822    40784 
   40741    40705    40691    40722    40784    40846    40895    40921 
   40917    40882    40829    40767    40693    40622    40595    40621 
   40672    40726    40768    40795    40809    40811    40809    40815 
   40829    40851    40882    40913    40936    40948    40956    40961 
   40956    40938    40913    40878    40845    40825    40825    40842 
   40859    40855    40840    40825    40819    40828    40840    40836 
   40817    40788    40764    40765    40790    40821    40848    40871 
   40887    40892    40880    40863    40837    40801    40760    40720 
   40684    40671    40675    40686    40698    40705    40697    40678 
   40659    40648    40662    40702    40756    40813    40876    40932 
   40963    40977    40990    40999    40996    40986    40967    40949 
   40937    40926    40905    40876    40855    40855    40872    40909 
   40953    40990    41007    40999    40979    40950    40911    40887 
   40882    40882    40894    40923    40949    40953    40936    40914 
   40900    40902    40910    40918    40932    40945    40950    40945 
   40927    40906    40884    40864    40849    40841    40838    40841 
   40849    40867    40896    40938    40977    41002    41014    41014 
   40995    40952    40888    40818    40751    40697    40668    40676 
   40714    40771    40833    40886    40909    40894    40844    40778 
   40726    40699    40671    40629    40587    40558    40541    40525 
   40504    40481    40463    40454    40448    40448    40459    40482 
   40506    40520    40521    40527    40541    40562    40575    40571 
   40544    40501    40464    40450    40440    40428    40433    40467 
   40529    40608    40678    40734    40786    40828    40846    40855 
   40851    40830    40811    40815    40836    40865    40895    40915 
   40936    40949    40946    40941    40940    40937    40923    40895 
   40849    40807    40787    40775    40763    40753    40725    40670 
   40605    40541    40497    40485    40498    40529    40579    40630 
   40671    40699    40705    40687    40653    40601    40525    40443 
   40375    40335    40327    40338    40346    40347    40347    40362 
   40400    40447    40498    40543    40589    40662    40761    40857 
   40934    40975    40969    40930    40873    40813    40745    40668 
   40595    40514    40419    40333    40286    40285    40332    40417 
   40513    40589    40629    40629    40603    40581    40581    40609 
   40663    40736    40830    40932    41006    41029    41023    41004 
   40976    40949    40938    40948    40957    40969    40999    41017 
   40991    40952    40918    40882    40867    40883    40914    40952 
   40984    41008    41031    41049    41061    41075    41088    41099 
   41107    41108    41099    41065    40998    40910    40818    40733 
   40674    40641    40616    40585    40540    40490    40450    40414 
   40396    40410    40464    40555    40664    40771    40864    40936 
   40991    41048    41099    41130    41154    41192    41238    41273 
   41288    41273    41224    41165    41106    41044    41003    40987 
   40964    40932    40890    40828    40772    40747    40751    40784 
   40845    40923    41013    41103    41177    41215    41222    41203 
   41156    41085    41008    40937    40895    40907    40976    41080 
   41181    41246    41269    41266    41257    41256    41270    41295 
   41322    41354    41395    41426    41436    41430    41408    41381 
   41353    41330    41324    41331    41337    41343    41342    41327 
   41312    41296    41261    41214    41152    41058    40938    40805 
   40679    40585    40544    40558    40621    40716    40814    40913 
   40990    41008    40957    40871    40788    40747    40763    40836 
   40953    41089    41208    41287    41316    41295    41222    41111 
   40998    40914    40864    40826    40788    40748    40711    40684 
   40656    40616    40582    40560    40548    40564    40618    40687 
   40741    40768    40764    40734    40703    40690    40686    40687 
   40706    40745    40788    40811    40801    40760    40705    40653 
   40626    40630    40656    40697    40744    40791    40841    40895 
   40954    41031    41133    41238    41322    41377    41399    41384 
   41349    41297    41226    41133    41025    40911    40792    40667 
   40539    40414    40308    40235    40204    40227    40313    40452 
   40612    40753    40851    40898    40894    40855    40805    40747 
   40683    40617    40541    40446    40348    40278    40240    40224 
   40234    40269    40325    40404    40489    40547    40554    40502 
   40405    40292    40184    40099    40062    40084    40149    40250 
   40385    40539    40693    40826    40930    41014    41096    41184 
   41272    41337    41362    41358    41338    41310    41284    41262 
   41235    41207    41168    41098    40995    40878    40756    40652 
   40581    40554    40571    40629    40711    40787    40829    40838 
   40818    40774    40716    40648    40568    40473    40378    40308 
   40284    40319    40409    40529    40660    40770    40817    40798 
   40740    40657    40571    40505    40463    40463    40518    40628 
   40772    40913    41023    41099    41137    41150    41166    41180 
   41180    41173    41160    41138    41115    41084    41037    40973 
   40903    40824    40730    40641    40578    40537    40520    40502 
   40458    40401    40379    40427    40560    40770    41019    41269 
   41470    41592    41632    41604    41511    41369    41206    41040 
   40879    40733    40593    40444    40302    40193    40115    40089 
   40134    40221    40321    40423    40521    40612    40690    40752 
   40792    40811    40821    40822    40799    40743    40645    40512 
   40359    40193    40028    39896    39831    39833    39885    39977 
   40089    40200    40313    40441    40578    40703    40810    40888 
   40957    41052    41168    41266    41322    41331    41300    41241 
   41175    41100    41000    40879    40757    40653    40590    40581 
   40610    40664    40733    40807    40888    40972    41029    41034 
   40992    40906    40792    40679    40566    40446    40329    40235 
   40165    40111    40086    40103    40144    40193    40246    40302 
   40351    40377    40385    40387    40397    40417    40458    40527 
   40617    40703    40770    40806    40811    40778    40706    40609 
   40508    40423    40377    40379    40439    40555    40698    40826 
   40919    40963    40953    40926    40906    40898    40905    40929 
   40968    41021    41087    41150    41181    41175    41162    41162 
   41175    41185    41175    41153    41153    41185    41235    41293 
   41345    41372    41366    41328    41261    41180    41102    41034 
   40994    40981    40983    41002    41030    41054    41068    41046 
   40987    40929    40896    40888    40896    40903    40880    40818 
   40720    40598    40466    40348    40265    40216    40205    40234 
   40279    40332    40394    40462    40531    40601    40660    40707 
   40757    40809    40846    40859    40838    40794    40744    40702 
   40671    40659    40672    40702    40736    40764    40772    40755 
   40720    40670    40612    40570    40564    40606    40699    40832 
   40969    41083    41170    41242    41293    41326    41324    41281 
   41211    41127    41037    40952    40880    40837    40836    40864 
   40910    40967    41018    41049    41060    41062    41073    41103 
   41161    41243    41334    41422    41496    41538    41534    41485 
   41389    41249    41085    40923    40791    40717    40698    40726 
   40797    40891    41000    41122    41239    41337    41404    41430 
   41412    41372    41316    41251    41191    41146    41116    41100 
   41092    41071    41026    40969    40918    40892    40899    40936 
   40996    41067    41139    41224    41326    41428    41520    41584 
   41615    41609    41559    41481    41396    41312    41230    41157 
   41098    41049    41013    40991    40973    40948    40918    40890 
   40867    40846    40821    40782    40740    40705    40678    40655 
   40637    40636    40659    40691    40711    40720    40726    40736 
   40749    40759    40752    40736    40725    40730    40743    40753 
   40753    40721    40656    40568    40473    40392    40335    40285 
   40244    40215    40197    40207    40252    40312    40350    40359 
   40350    40327    40298    40266    40244    40244    40259    40282 
   40306    40315    40285    40219    40134    40053    39996    39976 
   39982    39999    40024    40053    40066    40069    40078    40111 
   40173    40263    40379    40514    40660    40788    40871    40890 
   40846    40751    40630    40514    40406    40315    40244    40193 
   40170    40177    40207    40255    40315    40362    40406    40468 
   40541    40618    40691    40748    40779    40788    40778    40736 
   40664    40586    40522    40487    40481    40505    40559    40625 
   40699    40797    40929    41088    41241    41350    41409    41428 
   41423    41408    41396    41386    41359    41326    41319    41337 
   41369    41422    41478    41523    41555    41573    41578    41578 
   41578    41573    41544    41493    41440    41395    41354    41312 
   41268    41226    41188    41153    41130    41115    41094    41056 
   40999    40913    40807    40693    40578    40481    40410    40363 
   40346    40367    40428    40518    40616    40705    40772    40809 
   40810    40778    40721    40656    40597    40560    40548    40548 
   40552    40564    40591    40630    40668    40694    40713    40725 
   40722    40697    40639    40548    40437    40313    40180    40049 
   39923    39815    39737    39700    39717    39785    39893    40034 
   40200    40377    40562    40759    40976    41200    41400    41567 
   41698    41787    41827    41817    41769    41686    41574    41445 
   41314    41185    41067    40969    40903    40890    40941    41044 
   41176    41324    41458    41559    41617    41627    41586    41507 
   41405    41303    41207    41125    41062    41017    40979    40952 
   40936    40921    40919    40929    40929    40922    40917    40917 
   40944    41000    41075    41152    41211    41234    41219    41176 
   41119    41062    41008    40971    40961    40971    40992    41015 
   41011    40973    40917    40846    40770    40697    40626    40566 
   40525    40494    40466    40439    40416    40387    40352    40327 
   40317    40319    40323    40317    40300    40278    40254    40231 
   40219    40223    40239    40269    40315    40370    40427    40482 
   40522    40551    40575    40605    40648    40705    40772    40863 
   40981    41111    41220    41280    41277    41223    41138    41038 
   40936    40841    40759    40690    40628    40571    40524    40485 
   40452    40436    40458    40521    40621    40741    40860    40960 
   41046    41126    41200    41266    41315    41343    41349    41318 
   41242    41119    40961    40783    40605    40443    40309    40215 
   40158    40135    40149    40193    40258    40333    40420    40512 
   40594    40663    40716    40733    40713    40678    40632    40568 
   40502    40437    40379    40343    40329    40324    40323    40335 
   40377    40456    40562    40687    40814    40905    40957    40988 
   40988    40952    40895    40830    40763    40702    40660    40643 
   40633    40628    40630    40637    40647    40663    40686    40721 
   40774    40834    40894    40942    40987    41041    41099    41157 
   41215    41262    41300    41328    41338    41324    41300    41285 
   41291    41310    41330    41343    41331    41276    41173    41046 
   40922    40818    40752    40726    40722    40728    40732    40726 
   40716    40703    40694    40694    40697    40702    40716    40726 
   40726    40720    40707    40695    40680    40649    40601    40533 
   40456    40394    40362    40367    40425    40524    40632    40728 
   40807    40868    40917    40980    41072    41177    41289    41382 
   41426    41416    41378    41320    41251    41184    41116    41053 
   41010    40977    40940    40896    40848    40805    40788    40805 
   40829    40849    40857    40838    40803    40779    40774    40792 
   40834    40872    40891    40892    40872    40836    40795    40744 
   40690    40657    40667    40729    40834    40946    41040    41100 
   41123    41114    41075    41013    40940    40857    40772    40693 
   40617    40543    40483    40447    40429    40417    40396    40367 
   40328    40284    40252    40242    40234    40221    40212    40204 
   40200    40197    40182    40151    40122    40101    40092    40112 
   40166    40250    40363    40485    40595    40697    40780    40845 
   40896    40936    40964    41000    41061    41142    41233    41328 
   41428    41527    41613    41677    41708    41706    41674    41617 
   41562    41516    41478    41457    41446    41432    41428    41430 
   41409    41365    41301    41214    41133    41083    41060    41060 
   41080    41088    41072    41048    41011    40961    40917    40864 
   40775    40668    40567    40474    40413    40397    40410    40450 
   40504    40552    40601    40652    40693    40721    40759    40814 
   40875    40938    40986    41006    41010    40998    40963    40915 
   40864    40814    40757    40686    40601    40513    40436    40365 
   40281    40203    40146    40119    40130    40171    40220    40278 
   40342    40404    40456    40490    40505    40517    40539    40566 
   40606    40652    40697    40751    40813    40867    40913    40948 
   40956    40941    40921    40896    40879    40884    40921    40991 
   41081    41170    41237    41274    41296    41300    41285    41257 
   41200    41115    41026    40960    40923    40910    40911    40930 
   40965    41013    41062    41091    41085    41054    41000    40933 
   40865    40806    40756    40725    40713    40717    40737    40767 
   40794    40813    40819    40819    40817    40807    40795    40786 
   40779    40782    40802    40834    40879    40921    40933    40909 
   40860    40801    40737    40678    40620    40560    40505    40448 
   40382    40319    40281    40278    40308    40358    40414    40467 
   40524    40598    40691    40802    40937    41095    41260    41403 
   41500    41538    41512    41434    41322    41183    41038    40919 
   40842    40807    40807    40838    40888    40950    41022    41103 
   41184    41250    41291    41305    41303    41285    41262    41239 
   41219    41191    41158    41134    41110    41079    41052    41030 
   40995    40949    40909    40875    40844    40818    40799    40784 
   40783    40809    40841    40864    40876    40876    40856    40821 
   40770    40701    40614    40531    40477    40464    40485    40533 
   40598    40657    40705    40738    40749    40736    40705    40668 
   40633    40605    40590    40595    40624    40675    40744    40825 
   40913    41000    41076    41127    41135    41089    41007    40921 
   40848    40790    40756    40745    40737    40726    40707    40667 
   40601    40525    40451    40386    40340    40306    40271    40235 
   40194    40144    40097    40066    40069    40111    40184    40271 
   40352    40412    40454    40486    40505    40514    40517    40506 
   40478    40436    40392    40350    40296    40225    40153    40092 
   40051    40041    40068    40127    40211    40302    40382    40444 
