Origin Time       2024/04/02 04:24:00
Lat.              40.133
Long.             141.712
Depth. (km)       71
Mag.              6.0
Station Code      HDKH03
Station Lat.      42.5934
Station Long.     142.3521
Station Height(m) 54
Record Time       2024/04/02 04:25:46
Sampling Freq(Hz) 100Hz
Duration Time(s)  120
Dir.              2
Scale Factor      2942(gal)/8224139
Max. Acc. (gal)   0.389
Last Correction   2024/04/02 04:25:30
Memo.             
[...]
   70285    70302    70353    70395    70420    70428    70414    70382 
   70325    70270    70232    70181    70125    70092    70062    70048 
   70044    70036    70040    70040    70025    70019    70006    70004 
   70019    70020    70027    70055    70073    70090    70108    70093 
   70078    70083    70074    70052    70033    70021    70008    69978 
   69948    69939    69928    69923    69955    69997    70019    70044 
   70087    70133    70151    70150    70159    70164    70148    70125 
   70094    70056    70031    70004    69986    69990    70000    70042 
   70131    70208    70254    70293    70305    70289    70267    70233 
   70206    70201    70190    70179    70174    70163    70168    70173 
   70160    70160    70163    70152    70160    70167    70139    70114 
   70086    70038    70006    69989    69965    69965    69977    69971 
   69967    69969    69951    69934    69955    69982    69997    70025 
   70056    70067    70066    70075    70081    70078    70092    70093 
   70073    70070    70074    70070    70070    70070    70074    70094 
   70100    70094    70108    70124    70123    70113    70100    70077 
   70070    70085    70093    70105    70125    70136    70158    70204 
   70239    70258    70274    70278    70259    70251    70251    70235 
   70218    70212    70213    70218    70201    70175    70147    70098 
   70062    70056    70056    70067    70116    70166    70191    70209 
   70217    70222    70221    70212    70208    70189    70163    70148 
   70132    70102    70066    70043    70024    69998    69994    69992 
   69969    69944    69932    69936    69943    69952    70000    70060 
   70105    70155    70202    70228    70248    70262    70256    70231 
   70202    70173    70141    70137    70150    70141    70123    70109 
   70105    70117    70133    70154    70182    70222    70272    70303 
   70298    70297    70318    70341    70366    70389    70394    70382 
   70371    70355    70313    70266    70251    70237    70197    70150 
   70108    70071    70051    70070    70121    70168    70200    70202 
   70170    70137    70104    70055    70009    69971    69943    69931 
   69942    69970    69986    69984    69986    70002    70017    70019 
   70013    70021    70042    70056    70073    70093    70101    70106 
   70120    70129    70143    70162    70183    70218    70258    70275 
   70291    70316    70321    70299    70266    70236    70216    70193 
   70170    70154    70133    70112    70096    70073    70056    70055 
   70036    70006    69981    69950    69936    69940    69932    69932 
   69959    69992    70024    70040    70021    69993    69971    69955 
   69966    69977    69957    69940    69940    69938    69939    69951 
   69975    70023    70060    70063    70059    70067    70083    70097 
   70108    70124    70132    70131    70133    70123    70102    70102 
   70113    70123    70139    70183    70251    70314    70379    70430 
   70436    70429    70447    70474    70478    70470    70472    70474 
   70480    70476    70434    70393    70362    70309    70259    70229 
   70197    70155    70108    70069    70024    69961    69925    69915 
   69897    69900    69936    69981    70012    70020    70012    69993 
   69978    69970    69965    69967    70000    70056    70098    70112 
   70105    70094    70085    70060    70017    69984    69985    70002 
   70024    70063    70105    70128    70150    70167    70159    70150 
   70150    70117    70067    70035    70011    70006    70028    70035 
   70023    70021    70023    70017    70023    70039    70054    70065 
   70081    70092    70101    70112    70092    70050    70016    69969 
   69924    69901    69878    69866    69876    69885    69897    69915 
   69947    70001    70046    70077    70121    70163    70178    70213 
   70287    70344    70378    70409    70416    70403    70391    70376 
   70341    70299    70272    70220    70150    70124    70116    70117 
   70158    70206    70249    70290    70314    70343    70360    70343 
   70320    70301    70278    70255    70228    70200    70186    70189 
   70179    70155    70143    70132    70114    70104    70097    70090 
   70085    70071    70075    70114    70168    70213    70243    70259 
   70262    70248    70231    70208    70189    70195    70201    70187 
   70181    70183    70175    70177    70190    70182    70156    70136 
   70125    70120    70123    70136    70141    70131    70124    70135 
   70132    70101    70071    70055    70062    70096    70112    70098 
   70079    70059    70032    70013    70011    70015    70012    70000 
   69982    69967    69966    69977    69998    70032    70073    70114 
   70147    70156    70148    70128    70092    70063    70070    70096 
   70114    70113    70093    70073    70060    70042    70017    70002 
   69996    69985    69966    69967    70001    70023    70036    70081 
   70109    70096    70089    70096    70098    70116    70151    70193 
   70236    70249    70229    70208    70208    70221    70227    70240 
   70271    70293    70293    70283    70274    70258    70237    70212 
   70195    70200    70191    70150    70116    70089    70059    70051 
   70059    70069    70069    70050    70033    70038    70044    70054 
   70078    70094    70071    70035    70005    69974    69965    69973 
   69974    69992    70025    70023    69986    69965    69951    69939 
   69950    69966    69981    70013    70052    70083    70112    70133 
   70133    70128    70127    70110    70087    70074    70071    70077 
   70087    70097    70096    70082    70067    70067    70092    70136 
   70194    70252    70281    70274    70255    70205    70139    70109 
   70092    70067    70069    70082    70083    70081    70067    70050 
   70036    70027    70040    70078    70139    70205    70256    70301 
   70335    70356    70370    70344    70293    70266    70275    70308 
   70344    70363    70348    70312    70283    70263    70244    70227 
   70220    70239    70260    70262    70256    70227    70167    70125 
   70117    70110    70100    70104    70098    70058    70027    70024 
   70027    70050    70078    70075    70059    70033    69990    69951 
   69944    69962    69975    69990    69993    69979    69993    70039 
   70077    70101    70116    70114    70119    70137    70163    70194 
   70224    70239    70243    70231    70190    70148    70137    70140 
   70140    70146    70162    70189    70213    70239    70287    70351 
   70414    70457    70460    70437    70411    70390    70384    70370 
   70325    70279    70249    70227    70214    70209    70195    70171 
   70139    70098    70055    70009    69961    69940    69948    69969 
   70006    70051    70085    70116    70152    70177    70177    70140 
   70067    70006    69984    69967    69940    69904    69863    69828 
   69799    69792    69824    69867    69919    69993    70077    70141 
   70166    70152    70120    70085    70067    70050    70016    70006 
   70042    70109    70185    70212    70186    70144    70075    70004 
   69985    69993    69998    70017    70039    70066    70105    70147 
   70195    70258    70305    70340    70374    70387    70394    70418 
   70445    70448    70429    70417    70398    70363    70339    70306 
   70256    70237    70241    70218    70173    70114    70056    70006 
   69962    69935    69935    69948    69961    69982    70023    70071 
   70121    70170    70204    70205    70179    70159    70151    70159 
   70189    70216    70213    70190    70174    70178    70183    70146 
   70070    70013    69990    69989    70004    70013    70025    70073 
   70127    70160    70171    70151    70113    70081    70059    70060 
   70085    70101    70116    70167    70224    70232    70195    70147 
   70096    70054    70025    69992    69957    69961    69994    70015 
   70023    70035    70047    70052    70043    70036    70044    70042 
   70050    70083    70098    70109    70135    70155    70190    70227 
   70214    70194    70182    70156    70133    70116    70102    70100 
   70098    70114    70167    70217    70252    70281    70294    70308 
   70336    70362    70384    70403    70411    70433    70460    70461 
   70474    70495    70502    70519    70537    70533    70522    70495 
   70436    70359    70283    70202    70104    70012    69943    69893 
   69869    69871    69892    69904    69909    69939    69989    70038 
   70086    70123    70119    70073    70020    69984    69965    69963 
   69948    69919    69923    69940    69925    69889    69854    69835 
   69824    69823    69843    69874    69909    69957    70019    70092 
   70156    70201    70240    70262    70248    70235    70236    70244 
   70252    70247    70232    70228    70251    70274    70270    70258 
   70254    70237    70218    70208    70198    70181    70152    70121 
   70108    70112    70106    70093    70077    70047    70019    70006 
   69996    69997    70017    70033    70044    70063    70082    70086 
   70079    70079    70077    70044    70000    69957    69898    69850 
   69822    69809    69819    69850    69903    69947    69962    69970 
   69973    69971    69997    70028    70054    70067    70035    69966 
   69892    69823    69763    69715    69682    69674    69715    69811 
   69924    70016    70075    70105    70116    70102    70074    70052 
   70032    70012    69998    69979    69984    70054    70144    70214 
   70294    70372    70433    70490    70522    70506    70447    70352 
   70232    70101    69975    69890    69839    69800    69803    69838 
   69876    69915    69940    69932    69894    69844    69796    69730 
   69655    69622    69630    69633    69622    69641    69701    69769 
   69831    69886    69913    69917    69942    69981    70013    70035 
   70025    69986    69938    69892    69851    69828    69851    69943 
   70071    70173    70236    70291    70340    70394    70467    70519 
   70529    70533    70545    70542    70541    70553    70542    70503 
   70453    70398    70360    70348    70332    70314    70303    70252 
   70147    70023    69885    69772    69715    69680    69684    69746 
   69842    69973    70119    70232    70317    70389    70441    70475 
   70484    70470    70434    70389    70344    70305    70270    70233 
   70170    70078    70013    70011    70051    70112    70186    70263 
   70341    70420    70475    70483    70452    70418    70397    70387 
   70389    70403    70420    70410    70364    70298    70231    70175 
   70137    70125    70136    70166    70209    70222    70197    70140 
   70048    69942    69836    69735    69670    69654    69677    69736 
   69832    69932    69993    70015    70031    70051    70079    70129 
   70183    70209    70191    70131    70038    69931    69844    69784 
   69734    69695    69701    69784    69905    70011    70079    70094 
   70050    69970    69900    69843    69785    69759    69804    69907 
   70044    70197    70336    70447    70530    70599    70649    70668 
   70650    70610    70572    70546    70525    70509    70509    70534 
   70557    70538    70503    70475    70440    70402    70383    70394 
   70441    70503    70556    70618    70680    70695    70695    70725 
   70757    70788    70811    70808    70798    70762    70681    70596 
   70514    70432    70391    70410    70459    70514    70560    70591 
   70602    70560    70459    70344    70227    70113    70033    69981 
   69935    69893    69846    69780    69719    69674    69651    69670 
   69728    69817    69917    69970    69961    69930    69911    69932 
   70001    70094    70185    70252    70293    70308    70314    70329 
   70340    70328    70314    70298    70251    70198    70168    70151 
   70173    70237    70281    70299    70324    70328    70287    70231 
   70167    70094    70028    69961    69870    69776    69688    69587 
   69483    69425    69410    69418    69487    69608    69735    69871 
   70005    70101    70155    70190    70229    70276    70325    70375 
   70414    70436    70451    70448    70391    70322    70309    70343 
   70379    70405    70422    70429    70406    70348    70251    70135 
   70035    69962    69948    69994    70048    70105    70160    70168 
   70132    70085    70012    69909    69817    69776    69800    69876 
   69966    70055    70119    70132    70148    70189    70228    70270 
   70298    70297    70287    70263    70208    70151    70109    70077 
   70075    70108    70156    70204    70244    70268    70276    70259 
   70217    70178    70159    70144    70125    70097    70021    69884 
   69763    69688    69618    69580    69584    69584    69592    69593 
   69574    69558    69556    69565    69583    69630    69692    69734 
   69788    69859    69912    69950    69965    69927    69842    69761 
   69711    69695    69714    69757    69815    69892    69970    70033 
   70079    70120    70181    70283    70402    70499    70582    70653 
   70691    70714    70741    70748    70742    70748    70748    70733 
   70704    70661    70615    70588    70590    70633    70704    70767 
   70812    70830    70799    70725    70611    70460    70295    70129 
   69961    69822    69728    69645    69573    69541    69518    69481 
   69458    69450    69445    69460    69487    69511    69549    69627 
   69742    69867    69988    70083    70136    70140    70070    69924 
   69745    69558    69395    69257    69125    69047    69036    69048 
   69093    69168    69238    69304    69385    69475    69557    69645 
   69747    69855    69970    70073    70141    70189    70239    70306 
   70368    70362    70290    70186    70044    69893    69741    69580 
   69458    69394    69364    69392    69484    69637    69851    70090 
   70352    70622    70826    70950    71011    70989    70914    70825 
   70740    70677    70634    70590    70560    70553    70528    70463 
   70393    70320    70236    70167    70114    70058    70024    70047 
   70100    70158    70239    70324    70383    70424    70441    70451 
   70472    70498    70519    70532    70529    70522    70518    70538 
   70590    70657    70742    70838    70934    71032    71108    71150 
   71173    71173    71146    71107    71054    70980    70870    70735 
   70590    70438    70293    70167    70073    70008    69971    69962 
   69948    69903    69830    69755    69716    69720    69746    69790 
   69847    69876    69857    69785    69657    69507    69383    69302 
   69253    69230    69222    69238    69292    69360    69408    69438 
   69449    69437    69435    69465    69531    69638    69761    69877 
   69963    69997    69989    69982    70006    70044    70082    70110 
   70117    70152    70245    70348    70443    70511    70524    70517 
   70514    70502    70494    70515    70568    70617    70625    70591 
   70522    70438    70379    70351    70330    70326    70352    70407 
   70468    70509    70529    70549    70568    70572    70565    70563 
   70575    70583    70561    70511    70443    70349    70236    70110 
   69965    69792    69643    69557    69520    69539    69601    69672 
   69742    69805    69857    69896    69908    69890    69847    69786 
   69732    69704    69689    69687    69726    69803    69890    69967 
   69994    69978    69966    69970    69992    70036    70105    70163 
   70197    70244    70283    70294    70328    70364    70360    70349 
   70347    70326    70285    70249    70252    70293    70376    70480 
   70564    70619    70660    70686    70672    70617    70561    70538 
   70513    70472    70444    70403    70333    70264    70193    70113 
   70059    70038    70031    70046    70078    70109    70132    70147 
   70146    70135    70140    70164    70212    70285    70344    70375 
   70399    70402    70378    70340    70289    70236    70175    70112 
   70071    70042    70001    69981    69986    69994    70015    70044 
   70065    70063    70040    70023    70008    69981    69977    69981 
   69950    69898    69859    69842    69844    69862    69904    69975 
   70069    70175    70293    70375    70403    70420    70429    70416 
   70395    70374    70363    70351    70305    70241    70186    70127 
   70048    69955    69871    69819    69820    69884    69985    70090 
   70182    70213    70171    70090    69998    69927    69892    69888 
   69921    69958    69973    69994    70015    70020    70027    70038 
   70040    70035    70042    70060    70062    70060    70092    70146 
   70193    70205    70182    70135    70062    69973    69898    69866 
   69863    69858    69838    69827    69832    69859    69920    69988 
   70038    70083    70116    70121    70110    70102    70112    70140 
   70143    70097    70038    69977    69932    69930    69974    70054 
   70150    70245    70312    70318    70309    70313    70320    70345 
   70390    70432    70472    70503    70503    70456    70371    70283 
   70218    70171    70141    70132    70120    70104    70098    70106 
   70137    70187    70247    70317    70384    70447    70509    70540 
   70519    70452    70359    70256    70175    70139    70135    70137 
   70121    70062    69992    69966    69975    69971    69959    69961 
   69936    69878    69819    69770    69751    69776    69830    69912 
   70008    70101    70178    70213    70201    70163    70102    70008 
   69915    69861    69831    69820    69832    69861    69893    69896 
   69874    69861    69859    69869    69886    69898    69876    69811 
   69742    69681    69627    69607    69627    69670    69728    69797 
   69878    69952    69997    70042    70081    70079    70055    70038 
   70019    70000    69990    69997    70020    70052    70082    70120 
   70173    70218    70254    70309    70380    70443    70484    70525 
   70588    70677    70775    70865    70927    70961    70997    71034 
   71043    71014    70945    70842    70734    70637    70559    70517 
   70503    70476    70421    70324    70193    70073    69971    69896 
   69865    69882    69952    70044    70102    70102    70046    69985 
   69954    69927    69911    69921    69934    69935    69942    69936 
   69888    69832    69772    69666    69566    69507    69460    69437 
   69453    69500    69569    69661    69759    69854    69965    70062 
   70100    70097    70074    70042    70027    70019    70012    70015 
   70011    70001    70002    69992    69965    69934    69892    69857 
   69861    69892    69927    69959    69984    69988    69989    70008 
   70035    70078    70140    70197    70254    70339    70424    70482 
   70544    70595    70596    70579    70552    70482    70383    70285 
   70197    70120    70070    70077    70121    70160    70189    70194 
   70171    70133    70074    70021    70009    70006    70008    70035 
   70070    70106    70131    70120    70106    70104    70077    70028 
   69975    69909    69836    69774    69734    69727    69750    69801 
   69858    69905    69974    70047    70085    70106    70133    70155 
   70163    70151    70146    70177    70233    70305    70387    70468 
   70542    70607    70653    70677    70699    70707    70694    70691 
   70696    70700    70711    70710    70687    70659    70629    70592 
