Origin Time       2024/04/02 04:24:00
Lat.              40.133
Long.             141.712
Depth. (km)       71
Mag.              6.0
Station Code      HDKH06
Station Lat.      42.3498
Station Long.     142.3572
Station Height(m) -105
Record Time       2024/04/02 04:25:19
Sampling Freq(Hz) 100Hz
Duration Time(s)  143
Dir.              2
Scale Factor      2942(gal)/8224139
Max. Acc. (gal)   0.729
Last Correction   2024/04/02 04:25:20
Memo.             
[...]
   82429    82408    82404    82416    82439    82456    82456    82439 
   82408    82381    82378    82408    82463    82526    82571    82597 
   82618    82625    82593    82536    82490    82489    82530    82587 
   82633    82665    82678    82651    82580    82490    82410    82355 
   82323    82308    82298    82274    82250    82250    82264    82273 
   82266    82247    82239    82260    82301    82339    82358    82371 
   82397    82428    82458    82485    82487    82451    82399    82352 
   82304    82244    82177    82115    82066    82040    82040    82077 
   82146    82225    82279    82287    82258    82210    82162    82124 
   82104    82098    82119    82173    82246    82317    82379    82421 
   82439    82436    82428    82422    82425    82431    82445    82470 
   82487    82491    82503    82533    82564    82572    82551    82526 
   82505    82468    82409    82350    82306    82285    82281    82294 
   82320    82356    82412    82482    82545    82579    82583    82580 
   82587    82597    82601    82586    82537    82464    82410    82414 
   82464    82525    82590    82655    82713    82753    82777    82780 
   82748    82690    82625    82570    82524    82499    82506    82543 
   82582    82602    82595    82556    82498    82444    82406    82389 
   82381    82385    82410    82448    82482    82518    82567    82626 
   82683    82714    82709    82672    82614    82540    82451    82360 
   82281    82221    82183    82148    82100    82034    81963    81905 
   81868    81853    81855    81864    81874    81915    81997    82089 
   82156    82192    82206    82198    82178    82175    82197    82224 
   82243    82256    82273    82290    82302    82309    82327    82367 
   82421    82474    82510    82524    82506    82467    82420    82375 
   82348    82355    82406    82485    82557    82601    82609    82602 
   82611    82663    82714    82710    82645    82566    82503    82470 
   82458    82453    82449    82448    82463    82489    82503    82501 
   82483    82443    82381    82316    82275    82273    82309    82358 
   82401    82441    82476    82487    82480    82489    82518    82537 
   82529    82506    82495    82494    82483    82443    82387    82347 
   82350    82393    82448    82479    82475    82458    82444    82436 
   82443    82464    82497    82540    82595    82644    82659    82647 
   82633    82621    82593    82544    82491    82451    82437    82451 
   82470    82467    82440    82405    82378    82363    82351    82332 
   82302    82274    82260    82258    82251    82237    82236    82262 
   82312    82363    82390    82382    82352    82301    82213    82116 
   82051    82021    82005    82007    82030    82077    82138    82196 
   82242    82274    82310    82358    82394    82395    82368    82336 
   82327    82354    82397    82433    82455    82458    82440    82414 
   82387    82370    82375    82395    82399    82382    82370    82364 
   82362    82370    82378    82354    82306    82274    82269    82281 
   82298    82312    82324    82335    82345    82370    82402    82433 
   82468    82520    82578    82628    82665    82692    82688    82638 
   82555    82471    82397    82343    82325    82333    82331    82305 
   82277    82270    82269    82256    82232    82223    82248    82296 
   82341    82385    82437    82493    82541    82579    82606    82611 
   82595    82568    82530    82483    82437    82409    82398    82397 
   82395    82390    82387    82379    82348    82294    82221    82146 
   82094    82086    82123    82182    82252    82332    82398    82432 
   82451    82479    82513    82551    82591    82620    82607    82551 
   82479    82426    82408    82421    82451    82485    82537    82607 
   82676    82732    82777    82800    82784    82729    82644    82544 
   82452    82393    82368    82359    82337    82290    82244    82233 
   82255    82277    82273    82256    82262    82293    82329    82350 
   82348    82343    82347    82360    82382    82416    82459    82514 
   82586    82644    82653    82621    82590    82594    82622    82620 
   82560    82467    82398    82386    82406    82424    82436    82467 
   82528    82593    82611    82582    82543    82512    82480    82436 
   82368    82287    82224    82204    82216    82231    82239    82244 
   82259    82278    82281    82258    82224    82208    82224    82262 
   82282    82267    82240    82237    82256    82275    82279    82273 
   82271    82263    82217    82142    82081    82061    82069    82073 
   82054    82038    82059    82129    82219    82289    82316    82314 
   82331    82401    82494    82536    82509    82470    82486    82549 
   82602    82615    82613    82606    82591    82570    82548    82530 
   82520    82522    82529    82530    82524    82512    82505    82510 
   82528    82549    82566    82568    82559    82532    82486    82444 
   82451    82509    82591    82672    82745    82792    82795    82756 
   82680    82571    82443    82339    82300    82325    82378    82429 
   82471    82510    82528    82507    82487    82513    82580    82651 
   82699    82733    82765    82803    82841    82854    82813    82711 
   82576    82452    82362    82309    82286    82289    82314    82339 
   82335    82306    82285    82278    82285    82282    82266    82263 
   82310    82401    82502    82590    82653    82678    82674    82653 
   82621    82572    82493    82385    82269    82165    82081    82023 
   82004    82023    82062    82112    82165    82201    82215    82200 
   82171    82156    82159    82158    82146    82136    82147    82167 
   82170    82174    82213    82282    82345    82382    82397    82399 
   82383    82339    82255    82151    82071    82039    82034    82043 
   82071    82131    82209    82263    82277    82263    82213    82119 
   82009    81934    81916    81936    81961    81972    81977    81985 
   81999    82020    82047    82071    82092    82116    82138    82142 
   82127    82082    82003    81899    81793    81722    81708    81733 
   81762    81797    81858    81949    82034    82084    82096    82066 
   82007    81965    81961    81972    81978    81994    82042    82125 
   82220    82278    82302    82333    82386    82439    82478    82516 
   82548    82567    82561    82530    82489    82439    82368    82283 
   82201    82139    82115    82128    82170    82237    82336    82451 
   82551    82615    82661    82726    82818    82910    82983    83030 
   83050    83035    82985    82929    82902    82904    82910    82895 
   82841    82748    82634    82517    82395    82270    82147    82038 
   81949    81892    81878    81916    82000    82120    82259    82401 
   82534    82634    82684    82694    82665    82609    82557    82540 
   82559    82588    82602    82582    82530    82480    82459    82472 
   82510    82552    82583    82593    82571    82525    82497    82510 
   82545    82572    82586    82603    82629    82647    82655    82653 
   82633    82595    82553    82521    82503    82486    82451    82412 
   82404    82431    82464    82510    82599    82733    82873    82980 
   83056    83119    83172    83197    83200    83187    83135    83035 
   82914    82809    82737    82698    82687    82679    82642    82570 
   82498    82452    82405    82337    82271    82236    82240    82267 
   82285    82281    82281    82301    82332    82372    82428    82487 
   82541    82584    82613    82609    82551    82433    82283    82158 
   82081    82035    81994    81957    81916    81868    81832    81843 
   81922    82039    82159    82264    82355    82432    82502    82547 
   82548    82501    82399    82269    82138    82023    81946    81924 
   81959    82044    82169    82306    82421    82475    82467    82439 
   82421    82404    82379    82381    82431    82513    82605    82686 
   82750    82792    82796    82741    82632    82491    82339    82188 
   82053    81950    81881    81853    81870    81923    82005    82117 
   82236    82337    82416    82478    82529    82579    82621    82614 
   82536    82410    82290    82189    82081    81949    81805    81683 
   81626    81672    81804    81982    82166    82316    82425    82516 
   82590    82638    82656    82641    82605    82572    82557    82559 
   82564    82561    82551    82533    82502    82464    82429    82382 
   82313    82251    82252    82337    82471    82597    82664    82679 
   82688    82729    82803    82900    83018    83172    83349    83500 
   83581    83589    83565    83533    83485    83400    83296    83209 
   83161    83139    83134    83149    83178    83222    83266    83274 
   83239    83203    83199    83234    83282    83299    83258    83181 
   83099    83012    82908    82780    82638    82497    82359    82235 
   82139    82085    82057    82036    82028    82055    82125    82229 
   82344    82462    82561    82624    82645    82632    82580    82502 
   82417    82327    82225    82144    82112    82124    82161    82194 
   82219    82220    82177    82089    81982    81877    81789    81716 
   81642    81571    81521    81504    81518    81553    81616    81718 
   81837    81946    82027    82088    82152    82232    82313    82362 
   82352    82283    82189    82116    82092    82112    82158    82213 
   82267    82316    82356    82375    82356    82298    82213    82139 
   82116    82163    82255    82344    82395    82412    82420    82439 
   82462    82486    82532    82614    82713    82783    82800    82760 
   82687    82615    82553    82476    82368    82262    82196    82161 
   82119    82047    81967    81899    81814    81689    81541    81395 
   81255    81132    81044    80995    80975    80982    81041    81166 
   81342    81542    81731    81900    82069    82229    82333    82351 
   82302    82223    82135    82035    81924    81812    81708    81610 
   81504    81364    81179    80981    80817    80707    80647    80658 
   80757    80931    81152    81388    81641    81922    82242    82574 
   82869    83093    83249    83350    83397    83392    83353    83301 
   83238    83160    83064    82960    82858    82773    82717    82709 
   82768    82885    83022    83133    83189    83191    83174    83177 
   83197    83239    83342    83521    83737    83937    84079    84133 
   84090    83949    83735    83486    83230    82985    82779    82622 
   82522    82466    82424    82386    82362    82355    82359    82367 
   82374    82367    82347    82310    82255    82201    82173    82166 
   82167    82177    82198    82216    82216    82201    82183    82175 
   82179    82174    82159    82165    82204    82250    82275    82269 
   82242    82219    82208    82192    82166    82136    82115    82101 
   82100    82128    82217    82371    82544    82679    82746    82746 
   82701    82637    82571    82505    82458    82447    82468    82510 
   82556    82591    82622    82656    82686    82723    82773    82833 
   82907    82999    83088    83154    83195    83235    83305    83400 
   83490    83554    83574    83546    83471    83353    83204    83056 
   82926    82796    82640    82464    82298    82166    82090    82088 
   82155    82279    82428    82553    82620    82628    82606    82575 
   82539    82487    82421    82351    82279    82194    82094    81997 
   81934    81912    81900    81854    81750    81587    81395    81211 
   81089    81085    81198    81376    81583    81805    82042    82283 
   82506    82679    82804    82899    82968    82977    82894    82738 
   82563    82406    82281    82170    82057    81938    81812    81681 
   81569    81508    81517    81585    81685    81783    81865    81930 
   81978    82000    82003    82012    82030    82032    82007    81965 
   81927    81918    81953    82035    82158    82281    82366    82406 
   82405    82358    82267    82155    82044    81945    81868    81828 
   81832    81881    81961    82042    82089    82094    82062    82003 
   81935    81882    81854    81837    81823    81819    81837    81880 
   81935    81980    82019    82067    82135    82216    82293    82348 
   82378    82391    82399    82417    82458    82537    82642    82728 
   82761    82755    82722    82686    82661    82638    82603    82570 
   82574    82622    82684    82726    82746    82753    82744    82713 
   82669    82644    82642    82649    82638    82595    82533    82478 
   82445    82426    82416    82414    82426    82455    82503    82568 
   82647    82729    82784    82791    82776    82780    82809    82834 
   82849    82872    82900    82919    82945    83003    83080    83143 
   83180    83192    83204    83219    83222    83196    83135    83023 
   82860    82660    82448    82256    82097    81967    81869    81810 
   81805    81869    81972    82073    82156    82220    82258    82279 
   82304    82336    82366    82378    82389    82422    82494    82606 
   82742    82872    82989    83114    83257    83398    83496    83521 
   83465    83322    83110    82871    82647    82463    82335    82281 
   82304    82387    82513    82671    82848    83000    83093    83138 
   83162    83164    83130    83056    82939    82783    82626    82506 
   82414    82337    82293    82293    82306    82302    82294    82308 
   82356    82448    82571    82701    82830    82961    83083    83176 
   83235    83255    83231    83165    83062    82910    82688    82390 
   82043    81691    81353    81039    80769    80562    80423    80356 
   80358    80430    80562    80742    80964    81221    81486    81753 
   82030    82291    82507    82657    82721    82705    82633    82529 
   82416    82333    82300    82302    82314    82302    82247    82143 
   82000    81816    81618    81450    81355    81353    81427    81538 
   81654    81789    81967    82169    82344    82471    82552    82588 
   82586    82545    82466    82367    82271    82197    82146    82120 
   82125    82152    82188    82216    82229    82236    82246    82256 
   82275    82289    82285    82271    82259    82258    82263    82277 
   82298    82335    82379    82409    82397    82356    82328    82337 
   82387    82478    82620    82799    82976    83104    83164    83160 
   83106    83006    82885    82782    82722    82723    82775    82840 
   82890    82919    82930    82930    82908    82842    82732    82621 
   82564    82574    82625    82695    82767    82815    82823    82780 
   82691    82586    82494    82412    82325    82242    82181    82144 
   82134    82144    82156    82156    82152    82158    82178    82194 
   82181    82134    82063    81978    81889    81812    81758    81729 
   81710    81699    81695    81706    81735    81766    81788    81805 
   81811    81795    81769    81749    81739    81758    81819    81918 
   82039    82155    82252    82354    82480    82603    82686    82707 
   82686    82657    82645    82653    82694    82772    82871    82969 
   83038    83066    83052    83003    82930    82825    82686    82534 
   82390    82263    82183    82169    82198    82239    82278    82321 
   82367    82391    82394    82402    82426    82460    82509    82570 
   82630    82692    82769    82867    82962    83025    83029    82962 
   82838    82679    82502    82327    82181    82096    82084    82131 
   82220    82335    82458    82586    82715    82830    82917    82983 
   83022    83033    83027    83010    82983    82956    82912    82841 
   82746    82637    82518    82402    82301    82219    82144    82086 
   82055    82054    82081    82109    82119    82121    82121    82112 
   82111    82146    82231    82358    82494    82615    82722    82807 
   82852    82840    82776    82684    82593    82522    82476    82436 
   82386    82321    82240    82148    82050    81966    81913    81889 
   81870    81842    81808    81781    81769    81772    81774    81778 
   81812    81888    81997    82102    82173    82213    82243    82259 
   82271    82287    82313    82356    82416    82478    82521    82532 
   82521    82520    82517    82474    82383    82277    82201    82192 
   82251    82348    82466    82598    82738    82876    82993    83081 
   83135    83158    83164    83174    83208    83250    83280    83274 
   83219    83103    82931    82741    82563    82395    82228    82071 
   81949    81859    81793    81757    81768    81843    81978    82143 
   82305    82432    82517    82574    82624    82680    82745    82811 
   82853    82848    82804    82748    82679    82586    82471    82358 
   82273    82231    82228    82251    82306    82386    82472    82545 
   82610    82657    82663    82626    82568    82499    82426    82354 
   82298    82269    82246    82221    82205    82194    82179    82169 
   82171    82194    82229    82263    82293    82332    82386    82462 
   82556    82651    82723    82756    82745    82694    82621    82555 
   82502    82447    82372    82278    82185    82120    82090    82086 
   82100    82142    82217    82318    82425    82510    82551    82548 
   82521    82489    82462    82432    82391    82343    82300    82263 
   82210    82121    81986    81820    81661    81552    81515    81549 
   81638    81772    81947    82156    82385    82606    82786    82914 
   83000    83056    83087    83099    83079    83003    82877    82728 
   82582    82462    82387    82351    82327    82287    82221    82138 
   82061    82020    82031    82082    82156    82258    82389    82518 
   82595    82602    82556    82485    82397    82304    82217    82147 
   82112    82116    82151    82221    82323    82418    82486    82514 
   82513    82517    82547    82583    82620    82659    82683    82683 
   82660    82614    82537    82432    82310    82193    82104    82040 
   81990    81942    81891    81850    81839    81874    81959    82078 
   82193    82275    82323    82364    82420    82475    82510    82528 
   82541    82563    82587    82597    82578    82537    82491    82463 
   82466    82487    82509    82526    82540    82545    82537    82516 
   82487    82471    82493    82553    82626    82686    82726    82755 
   82772    82777    82765    82719    82628    82509    82385    82260 
   82148    82069    82035    82055    82115    82192    82274    82356 
   82433    82501    82557    82598    82602    82555    82459    82343 
   82233    82140    82059    81994    81969    82001    82078    82175 
   82275    82378    82478    82559    82609    82624    82605    82568 
   82529    82495    82485    82505    82552    82621    82713    82819 
   82921    83002    83062    83103    83118    83092    83012    82877 
   82698    82503    82318    82144    81993    81893    81855    81869 
   81909    81942    81955    81958    81961    81972    82007    82086 
   82210    82340    82432    82470    82462    82426    82378    82314 
   82231    82127    82011    81897    81801    81722    81657    81603 
   81548    81503    81488    81507    81553    81625    81723    81858 
   82026    82206    82377    82522    82630    82691    82702    82678 
   82636    82584    82532    82474    82409    82344    82296    82283 
   82321    82394    82478    82559    82629    82679    82719    82784 
   82884    82995    83099    83205    83320    83428    83509    83543 
