Origin Time       2024/04/02 04:24:00
Lat.              40.133
Long.             141.712
Depth. (km)       71
Mag.              6.0
Station Code      HDKH04
Station Lat.      42.5126
Station Long.     142.0381
Station Height(m) -210
Record Time       2024/04/02 04:25:16
Sampling Freq(Hz) 100Hz
Duration Time(s)  152
Dir.              3
Scale Factor      2942(gal)/8224139
Max. Acc. (gal)   0.429
Last Correction   2024/04/02 04:25:17
Memo.             
[...]
  -31851   -31846   -31853   -31877   -31860   -31784   -31691   -31622 
  -31577   -31514   -31455   -31483   -31588   -31657   -31660   -31649 
  -31625   -31561   -31475   -31403   -31363   -31376   -31460   -31572 
  -31642   -31652   -31657   -31700   -31762   -31819   -31872   -31927 
  -31968   -31978   -31988   -32013   -31988   -31837   -31590   -31386 
  -31317   -31314   -31294   -31307   -31430   -31579   -31633   -31608 
  -31587   -31600   -31660   -31743   -31788   -31777   -31752   -31729 
  -31725   -31749   -31770   -31769   -31772   -31795   -31796   -31714 
  -31572   -31456   -31410   -31418   -31446   -31436   -31359   -31288 
  -31299   -31390   -31542   -31710   -31811   -31820   -31793   -31777 
  -31792   -31834   -31851   -31801   -31725   -31666   -31608   -31542 
  -31477   -31395   -31280   -31168   -31094   -31052   -31058   -31125 
  -31210   -31276   -31353   -31475   -31596   -31637   -31608   -31573 
  -31523   -31455   -31428   -31465   -31542   -31641   -31684   -31611 
  -31491   -31417   -31359   -31283   -31245   -31297   -31405   -31521 
  -31642   -31760   -31823   -31819   -31784   -31746   -31704   -31653 
  -31595   -31558   -31590   -31702   -31834   -31907   -31896   -31827 
  -31768   -31792   -31864   -31873   -31827   -31827   -31888   -31918 
  -31868   -31769   -31669   -31600   -31573   -31563   -31560   -31596 
  -31698   -31820   -31897   -31919   -31919   -31892   -31804   -31669 
  -31552   -31491   -31483   -31504   -31541   -31591   -31629   -31611 
  -31545   -31469   -31413   -31415   -31507   -31631   -31675   -31607 
  -31540   -31561   -31634   -31687   -31699   -31683   -31653   -31623 
  -31635   -31729   -31837   -31877   -31853   -31784   -31680   -31581 
  -31536   -31549   -31592   -31621   -31611   -31571   -31507   -31457 
  -31475   -31558   -31625   -31642   -31687   -31796   -31923   -32019 
  -32059   -32051   -32049   -32039   -31982   -31909   -31855   -31808 
  -31756   -31692   -31607   -31515   -31465   -31498   -31594   -31672 
  -31689   -31691   -31742   -31855   -31976   -32058   -32104   -32103 
  -32022   -31866   -31710   -31585   -31453   -31334   -31286   -31268 
  -31233   -31222   -31275   -31384   -31494   -31557   -31621   -31731 
  -31822   -31857   -31915   -32013   -32081   -32081   -32019   -31897 
  -31733   -31583   -31527   -31556   -31567   -31479   -31291   -31090 
  -30979   -30996   -31124   -31317   -31526   -31703   -31806   -31850 
  -31872   -31880   -31882   -31884   -31841   -31739   -31644   -31600 
  -31579   -31507   -31357   -31194   -31091   -31052   -31063   -31140 
  -31279   -31430   -31548   -31626   -31695   -31770   -31837   -31850 
  -31796   -31730   -31715   -31722   -31683   -31577   -31441   -31340 
  -31290   -31283   -31324   -31414   -31542   -31679   -31762   -31758 
  -31704   -31666   -31673   -31706   -31735   -31757   -31781   -31804 
  -31819   -31850   -31916   -31954   -31878   -31749   -31711   -31766 
  -31791   -31735   -31661   -31592   -31515   -31437   -31367   -31309 
  -31302   -31369   -31475   -31618   -31810   -31982   -32065   -32089 
  -32081   -32012   -31904   -31807   -31743   -31716   -31699   -31675 
  -31635   -31540   -31398   -31279   -31187   -31122   -31118   -31187 
  -31302   -31437   -31556   -31641   -31692   -31716   -31731   -31762 
  -31811   -31861   -31884   -31900   -31969   -32059   -32074   -31995 
  -31884   -31761   -31585   -31399   -31307   -31318   -31341   -31337 
  -31340   -31382   -31452   -31498   -31499   -31477   -31456   -31477 
  -31575   -31673   -31723   -31766   -31814   -31837   -31830   -31803 
  -31761   -31727   -31718   -31714   -31712   -31730   -31714   -31602 
  -31449   -31348   -31306   -31256   -31172   -31114   -31149   -31295 
  -31500   -31637   -31639   -31608   -31658   -31791   -31927   -32017 
  -32076   -32111   -32107   -32058   -31927   -31714   -31494   -31307 
  -31176   -31156   -31221   -31287   -31359   -31490   -31646   -31720 
  -31668   -31567   -31533   -31606   -31725   -31793   -31764   -31661 
  -31549   -31467   -31430   -31445   -31480   -31491   -31506   -31585 
  -31747   -31943   -32081   -32111   -32054   -31961   -31874   -31795 
  -31707   -31649   -31622   -31579   -31526   -31511   -31565   -31687 
  -31830   -31931   -31966   -31934   -31823   -31668   -31558   -31544 
  -31577   -31622   -31703   -31822   -31931   -31995   -32013   -31995 
  -31954   -31896   -31769   -31606   -31536   -31572   -31635   -31704 
  -31770   -31803   -31772   -31672   -31571   -31558   -31625   -31692 
  -31719   -31718   -31737   -31819   -31920   -31953   -31874   -31720 
  -31561   -31452   -31406   -31401   -31405   -31378   -31302   -31212 
  -31160   -31158   -31155   -31139   -31160   -31247   -31372   -31487 
  -31568   -31623   -31662   -31685   -31722   -31770   -31789   -31770 
  -31750   -31745   -31726   -31654   -31554   -31500   -31506   -31502 
  -31459   -31423   -31419   -31444   -31530   -31695   -31884   -32015 
  -32044   -31992   -31911   -31870   -31878   -31885   -31878   -31851 
  -31765   -31642   -31544   -31471   -31382   -31283   -31213   -31176 
  -31190   -31301   -31496   -31714   -31901   -31988   -31954   -31899 
  -31870   -31831   -31788   -31765   -31747   -31749   -31806   -31853 
  -31792   -31661   -31569   -31522   -31487   -31487   -31526   -31545 
  -31534   -31537   -31550   -31569   -31633   -31708   -31711   -31679 
  -31669   -31604   -31475   -31437   -31536   -31630   -31658   -31672 
  -31671   -31641   -31637   -31660   -31657   -31661   -31696   -31664 
  -31548   -31463   -31418   -31337   -31263   -31276   -31348   -31436 
  -31538   -31610   -31608   -31608   -31672   -31710   -31656   -31585 
  -31556   -31569   -31660   -31783   -31789   -31642   -31486   -31425 
  -31421   -31453   -31545   -31658   -31769   -31877   -31919   -31872 
  -31824   -31811   -31772   -31698   -31622   -31558   -31506   -31480 
  -31506   -31567   -31599   -31595   -31580   -31553   -31544   -31608 
  -31726   -31826   -31827   -31691   -31513   -31419   -31421   -31463 
  -31545   -31668   -31754   -31749   -31707   -31711   -31758   -31783 
  -31749   -31689   -31644   -31618   -31594   -31546   -31498   -31476 
  -31475   -31488   -31527   -31607   -31735   -31870   -31923   -31862 
  -31764   -31706   -31683   -31680   -31735   -31842   -31905   -31834 
  -31644   -31428   -31301   -31318   -31405   -31453   -31510   -31658 
  -31831   -31904   -31880   -31853   -31853   -31876   -31959   -32077 
  -32124   -32097   -32057   -31982   -31827   -31626   -31414   -31213 
  -31105   -31131   -31193   -31221   -31253   -31306   -31337   -31355 
  -31409   -31504   -31631   -31815   -31995   -32047   -31950   -31776 
  -31604   -31490   -31445   -31476   -31577   -31684   -31756   -31779 
  -31738   -31650   -31564   -31509   -31491   -31482   -31418   -31338 
  -31353   -31450   -31553   -31661   -31742   -31746   -31706   -31672 
  -31673   -31750   -31878   -31976   -32008   -32007   -31995   -31942 
  -31811   -31660   -31602   -31621   -31596   -31491   -31359   -31270 
  -31274   -31344   -31411   -31484   -31579   -31646   -31680   -31742 
  -31830   -31853   -31804   -31762   -31752   -31774   -31845   -31901 
  -31880   -31811   -31754   -31695   -31602   -31510   -31476   -31461 
  -31411   -31345   -31299   -31284   -31321   -31423   -31558   -31656 
  -31683   -31656   -31630   -31696   -31851   -31973   -32016   -32024 
  -31990   -31909   -31826   -31753   -31676   -31583   -31480   -31407 
  -31419   -31517   -31630   -31675   -31635   -31581   -31568   -31587 
  -31645   -31779   -31962   -32086   -32101   -32057   -31981   -31866 
  -31746   -31653   -31584   -31533   -31534   -31596   -31625   -31544 
  -31433   -31396   -31441   -31500   -31527   -31567   -31698   -31881 
  -31968   -31900   -31812   -31780   -31720   -31607   -31498   -31429 
  -31432   -31503   -31542   -31492   -31422   -31405   -31419   -31441 
  -31490   -31544   -31572   -31621   -31725   -31834   -31882   -31865 
  -31801   -31700   -31595   -31548   -31552   -31544   -31502   -31460 
  -31484   -31610   -31789   -31926   -31976   -31976   -31936   -31834 
  -31738   -31716   -31729   -31707   -31661   -31661   -31731   -31795 
  -31801   -31783   -31738   -31657   -31561   -31471   -31407   -31386 
  -31411   -31471   -31545   -31610   -31621   -31588   -31607   -31680 
  -31719   -31735   -31791   -31838   -31792   -31654   -31513   -31434 
  -31428   -31467   -31504   -31521   -31541   -31552   -31537   -31522 
  -31526   -31549   -31585   -31603   -31591   -31573   -31588   -31645 
  -31693   -31681   -31669   -31718   -31738   -31681   -31626   -31619 
  -31633   -31629   -31592   -31522   -31425   -31342   -31347   -31425 
  -31488   -31457   -31337   -31222   -31221   -31360   -31550   -31700 
  -31810   -31853   -31787   -31687   -31635   -31575   -31459   -31384 
  -31430   -31544   -31650   -31689   -31633   -31531   -31434   -31332 
  -31251   -31271   -31392   -31527   -31611   -31673   -31745   -31792 
  -31789   -31769   -31788   -31866   -31965   -31995   -31891   -31715 
  -31575   -31494   -31423   -31347   -31302   -31313   -31342   -31367 
  -31406   -31475   -31568   -31672   -31720   -31634   -31455   -31317 
  -31283   -31328   -31440   -31625   -31810   -31888   -31866   -31842 
  -31835   -31777   -31644   -31525   -31510   -31550   -31569   -31584 
  -31590   -31511   -31325   -31105   -30950   -30908   -31014   -31271 
  -31588   -31860   -32028   -32100   -32100   -32034   -31877   -31693 
  -31575   -31515   -31494   -31534   -31592   -31565   -31448   -31322 
  -31274   -31314   -31415   -31590   -31837   -32035   -32097   -32078 
  -32011   -31896   -31788   -31725   -31706   -31773   -31954   -32188 
  -32378   -32447   -32382   -32255   -32115   -31922   -31685   -31510 
  -31453   -31450   -31457   -31491   -31530   -31531   -31506   -31495 
  -31537   -31648   -31803   -31941   -32032   -32098   -32162   -32202 
  -32196   -32130   -32022   -31932   -31920   -31924   -31843   -31725 
  -31683   -31683   -31629   -31546   -31506   -31503   -31499   -31488 
  -31468   -31434   -31430   -31484   -31526   -31526   -31550   -31648 
  -31799   -31949   -32082   -32204   -32277   -32266   -32182   -32061 
  -31961   -31891   -31772   -31596   -31477   -31457   -31460   -31444 
  -31410   -31342   -31261   -31220   -31210   -31217   -31297   -31440 
  -31552   -31623   -31752   -31918   -31955   -31804   -31604   -31490 
  -31459   -31445   -31432   -31448   -31492   -31509   -31488   -31499 
  -31572   -31634   -31612   -31527   -31430   -31332   -31297   -31410 
  -31587   -31668   -31660   -31660   -31677   -31681   -31657   -31630 
  -31676   -31804   -31895   -31899   -31887   -31876   -31838   -31803 
  -31769   -31693   -31583   -31510   -31483   -31436   -31361   -31321 
  -31349   -31438   -31567   -31684   -31758   -31774   -31718   -31622 
  -31576   -31623   -31720   -31818   -31891   -31905   -31857   -31791 
  -31725   -31618   -31479   -31391   -31361   -31334   -31317   -31371 
  -31515   -31680   -31777   -31792   -31750   -31687   -31680   -31800 
  -31997   -32157   -32232   -32240   -32209   -32170   -32094   -31973 
  -31869   -31783   -31645   -31460   -31306   -31251   -31264   -31253 
  -31186   -31101   -31027   -31008   -31128   -31344   -31503   -31588 
  -31644   -31623   -31536   -31482   -31498   -31585   -31746   -31923 
  -32050   -32120   -32151   -32131   -32016   -31793   -31507   -31229 
  -31044   -31020   -31109   -31212   -31317   -31450   -31541   -31579 
  -31664   -31784   -31866   -31939   -32054   -32162   -32212   -32221 
  -32219   -32200   -32178   -32165   -32135   -32094   -32054   -31972 
  -31796   -31536   -31256   -31031   -30916   -30897   -30896   -30905 
  -30959   -31006   -30996   -30977   -31035   -31221   -31504   -31784 
  -31996   -32148   -32252   -32258   -32155   -31996   -31833   -31714 
  -31677   -31699   -31733   -31730   -31639   -31448   -31218   -31024 
  -30848   -30666   -30570   -30649   -30870   -31185   -31567   -31931 
  -32158   -32232   -32235   -32186   -32038   -31838   -31712   -31734 
  -31889   -32080   -32188   -32181   -32077   -31872   -31618   -31378 
  -31121   -30869   -30762   -30851   -31041   -31259   -31492   -31716 
  -31896   -32001   -31989   -31862   -31706   -31603   -31584   -31629 
  -31695   -31725   -31706   -31729   -31888   -32109   -32258   -32308 
  -32277   -32184   -32076   -31981   -31854   -31696   -31567   -31445 
  -31295   -31198   -31193   -31228   -31329   -31537   -31766   -31905 
  -31949   -31939   -31887   -31797   -31725   -31687   -31637   -31548 
  -31465   -31406   -31326   -31202   -31082   -31028   -31087   -31252 
  -31409   -31479   -31510   -31561   -31617   -31635   -31594   -31482 
  -31320   -31185   -31175   -31286   -31401   -31441   -31440   -31467 
  -31521   -31577   -31648   -31725   -31756   -31704   -31577   -31456 
  -31403   -31347   -31249   -31209   -31266   -31317   -31291   -31270 
  -31355   -31533   -31739   -31962   -32188   -32370   -32485   -32548 
  -32556   -32487   -32362   -32242   -32167   -32107   -32016   -31908 
  -31800   -31657   -31483   -31345   -31288   -31297   -31326   -31341 
  -31355   -31414   -31538   -31669   -31725   -31712   -31738   -31842 
  -31918   -31896   -31860   -31858   -31858   -31843   -31822   -31807 
  -31828   -31880   -31909   -31866   -31733   -31507   -31202   -30873 
  -30613   -30470   -30437   -30520   -30697   -30894   -31112   -31390 
  -31704   -32000   -32219   -32293   -32220   -32078   -31953   -31881 
  -31820   -31700   -31534   -31379   -31245   -31155   -31152   -31240 
  -31365   -31475   -31536   -31553   -31538   -31518   -31558   -31681 
  -31814   -31897   -31958   -32051   -32202   -32397   -32605   -32765 
  -32787   -32638   -32402   -32213   -32100   -31985   -31850   -31758 
  -31725   -31685   -31626   -31638   -31779   -32000   -32221   -32373 
  -32417   -32368   -32274   -32171   -32069   -31963   -31862   -31777 
  -31729   -31722   -31714   -31700   -31718   -31742   -31725   -31700 
  -31683   -31592   -31386   -31125   -30874   -30676   -30581   -30636 
  -30813   -31058   -31303   -31473   -31564   -31642   -31714   -31766 
  -31839   -31932   -31992   -32009   -32008   -31972   -31870   -31738 
  -31657   -31625   -31571   -31490   -31414   -31333   -31284   -31307 
  -31318   -31284   -31290   -31340   -31396   -31491   -31642   -31833 
  -32036   -32186   -32219   -32146   -31996   -31806   -31657   -31580 
  -31517   -31414   -31278   -31143   -31072   -31105   -31216   -31355 
  -31494   -31642   -31789   -31847   -31762   -31598   -31430   -31278 
  -31139   -31050   -31039   -31083   -31163   -31293   -31444   -31522 
  -31494   -31433   -31405   -31425   -31487   -31538   -31556   -31591 
  -31661   -31726   -31774   -31768   -31665   -31533   -31446   -31375 
  -31288   -31224   -31237   -31310   -31375   -31434   -31540   -31664 
  -31756   -31801   -31795   -31756   -31739   -31746   -31745   -31765 
  -31834   -31922   -31970   -31924   -31761   -31554   -31409   -31367 
  -31401   -31473   -31571   -31649   -31653   -31631   -31619   -31538 
  -31402   -31314   -31275   -31225   -31151   -31064   -31009   -31013 
  -31031   -31016   -31002   -31048   -31152   -31280   -31452   -31693 
  -31931   -32044   -32050   -32023   -31955   -31841   -31729   -31619 
  -31504   -31433   -31414   -31401   -31382   -31398   -31483   -31608 
  -31676   -31635   -31557   -31552   -31661   -31831   -31980   -32077 
  -32101   -32039   -31938   -31861   -31811   -31761   -31730   -31745 
  -31777   -31781   -31772   -31764   -31720   -31629   -31513   -31391 
  -31317   -31337   -31444   -31615   -31816   -32004   -32157   -32292 
  -32443   -32609   -32729   -32738   -32611   -32381   -32132   -31953 
  -31877   -31908   -32028   -32143   -32113   -31911   -31660   -31469 
  -31353   -31299   -31321   -31407   -31511   -31588   -31650   -31749 
  -31876   -31963   -31969   -31899   -31769   -31638   -31544   -31459 
  -31372   -31278   -31148   -31045   -31097   -31271   -31430   -31531 
  -31606   -31639   -31650   -31693   -31749   -31746   -31692   -31661 
  -31669   -31669   -31658   -31652   -31633   -31652   -31765   -31904 
  -31978   -31997   -31946   -31779   -31583   -31500   -31538   -31580 
  -31550   -31444   -31290   -31155   -31091   -31066   -31075   -31183 
  -31367   -31518   -31585   -31560   -31476   -31422   -31436   -31472 
  -31465   -31372   -31263   -31270   -31398   -31521   -31515   -31369 
  -31216   -31180   -31230   -31284   -31332   -31367   -31372   -31340 
  -31263   -31147   -31028   -30960   -30974   -31043   -31120   -31174 
  -31222   -31326   -31525   -31791   -32054   -32221   -32254   -32216 
  -32190   -32185   -32157   -32092   -32043   -32057   -32136   -32251 
  -32336   -32306   -32124   -31864   -31649   -31523   -31455   -31411 
  -31375   -31332   -31322   -31403   -31538   -31649   -31754   -31920 
  -32148   -32390   -32564   -32606   -32535   -32428   -32335   -32235 
  -32101   -31968   -31878   -31816   -31703   -31495   -31229   -30981 
  -30824   -30797   -30881   -31035   -31222   -31392   -31554   -31757 
  -31978   -32155   -32274   -32348   -32397   -32447   -32495   -32512 
  -32471   -32358   -32146   -31862   -31588   -31376   -31226   -31132 
  -31133   -31260   -31452   -31650   -31864   -32026   -32055   -31997 
  -31922   -31862   -31849   -31877   -31922   -31984   -32050   -32103 
  -32140   -32158   -32142   -32085   -31970   -31815   -31688   -31596 
  -31457   -31272   -31137   -31095   -31116   -31185   -31288   -31363 
  -31371   -31371   -31433   -31538   -31677   -31869   -32038   -32047 
  -31907   -31753   -31619   -31465   -31294   -31122   -30948   -30794 
  -30693   -30626   -30592   -30632   -30704   -30727   -30730   -30777 
  -30873   -31021   -31213   -31402   -31523   -31576   -31629   -31716 
  -31837   -31995   -32139   -32211   -32244   -32289   -32329   -32309 
  -32174   -31934   -31654   -31432   -31311   -31253   -31226   -31234 
  -31270   -31372   -31557   -31735   -31833   -31877   -31957   -32088 
  -32196   -32209   -32112   -31938   -31754   -31618   -31573   -31599 
  -31602   -31558   -31526   -31544   -31590   -31615   -31614   -31635 
  -31711   -31810   -31899   -31981   -32062   -32113   -32116   -32103 
  -32097   -32101   -32115   -32111   -32066   -32009   -31965   -31882 
  -31738   -31595   -31514   -31491   -31499   -31511   -31526   -31556 
  -31580   -31565   -31510   -31457   -31429   -31417   -31441   -31514 
  -31583   -31588   -31556   -31546   -31530   -31479   -31457   -31514 
  -31612   -31733   -31876   -31969   -31951   -31861   -31749   -31625 
  -31500   -31375   -31255   -31205   -31263   -31351   -31399   -31445 
  -31490   -31504   -31517   -31560   -31599   -31585   -31546   -31558 
  -31631   -31698   -31729   -31733   -31700   -31657   -31625   -31568 
  -31472   -31386   -31309   -31214   -31126   -31059   -30948   -30775 
  -30640   -30658   -30832   -31083   -31326   -31537   -31729   -31853 
  -31842   -31729   -31631   -31634   -31716   -31806   -31884   -31958 
  -31988   -31955   -31899   -31824   -31703   -31553   -31426   -31367 
  -31406   -31507   -31576   -31587   -31573   -31545   -31542   -31634 
