Origin Time       2024/04/02 04:24:00
Lat.              40.133
Long.             141.712
Depth. (km)       71
Mag.              6.0
Station Code      HDKH04
Station Lat.      42.5126
Station Long.     142.0381
Station Height(m) 10
Record Time       2024/04/02 04:25:16
Sampling Freq(Hz) 100Hz
Duration Time(s)  152
Dir.              5
Scale Factor      7845(gal)/8223790
Max. Acc. (gal)   2.488
Last Correction   2024/04/02 04:25:17
Memo.             
[...]
   -3821    -3971    -4116    -4176    -4122    -4006    -3908    -3862 
   -3856    -3861    -3828    -3739    -3634    -3569    -3574    -3657 
   -3802    -3977    -4117    -4178    -4176    -4120    -4006    -3916 
   -3948    -4077    -4206    -4275    -4248    -4129    -3970    -3823 
   -3730    -3700    -3678    -3638    -3628    -3649    -3655    -3650 
   -3649    -3651    -3685    -3789    -3935    -4077    -4174    -4186 
   -4122    -4039    -3989    -4028    -4168    -4338    -4445    -4425 
   -4282    -4085    -3923    -3858    -3888    -3959    -4035    -4095 
   -4128    -4137    -4121    -4079    -4008    -3915    -3828    -3759 
   -3657    -3500    -3318    -3148    -3057    -3106    -3302    -3581 
   -3836    -3977    -3974    -3866    -3721    -3623    -3646    -3800 
   -4032    -4259    -4403    -4433    -4383    -4302    -4199    -4086 
   -4008    -3987    -4006    -4036    -4043    -4028    -4023    -4050 
   -4089    -4105    -4077    -3997    -3893    -3801    -3758    -3782 
   -3855    -3924    -3958    -3955    -3929    -3893    -3842    -3766 
   -3680    -3608    -3585    -3608    -3626    -3624    -3647    -3728 
   -3869    -4025    -4137    -4170    -4122    -4043    -4027    -4116 
   -4253    -4361    -4388    -4315    -4172    -4006    -3862    -3751 
   -3672    -3634    -3647    -3681    -3703    -3694    -3666    -3654 
   -3690    -3789    -3932    -4050    -4074    -4016    -3935    -3882 
   -3885    -3936    -4005    -4029    -3987    -3905    -3827    -3773 
   -3726    -3663    -3597    -3543    -3519    -3538    -3596    -3669 
   -3726    -3747    -3761    -3798    -3862    -3928    -3954    -3919 
   -3846    -3775    -3743    -3770    -3842    -3921    -3993    -4056 
   -4086    -4062    -4017    -3986    -3989    -4029    -4074    -4099 
   -4091    -4009    -3855    -3692    -3570    -3535    -3612    -3773 
   -3963    -4120    -4175    -4143    -4085    -4032    -3985    -3939 
   -3909    -3916    -3960    -4010    -4017    -3955    -3852    -3784 
   -3808    -3920    -4060    -4172    -4230    -4245    -4239    -4220 
   -4178    -4097    -3986    -3888    -3847    -3875    -3946    -4002 
   -4008    -3947    -3840    -3748    -3734    -3785    -3839    -3848 
   -3807    -3755    -3730    -3743    -3792    -3877    -4010    -4171 
   -4306    -4356    -4286    -4108    -3855    -3592    -3426    -3406 
   -3489    -3608    -3666    -3609    -3476    -3357    -3341    -3451 
   -3653    -3879    -4032    -4032    -3916    -3784    -3705    -3719 
   -3816    -3954    -4090    -4191    -4205    -4106    -3962    -3862 
   -3843    -3906    -4024    -4131    -4170    -4151    -4098    -4051 
   -4051    -4102    -4164    -4212    -4244    -4244    -4201    -4139 
   -4078    -4051    -4086    -4148    -4160    -4083    -3925    -3731 
   -3569    -3483    -3484    -3578    -3750    -3948    -4113    -4191 
   -4170    -4083    -3997    -3959    -3969    -4000    -4024    -3996 
   -3893    -3758    -3658    -3655    -3767    -3940    -4093    -4152 
   -4068    -3865    -3619    -3414    -3322    -3360    -3500    -3673 
   -3777    -3774    -3705    -3636    -3651    -3793    -4006    -4179 
   -4234    -4149    -3944    -3701    -3532    -3499    -3596    -3775 
   -3942    -4014    -3993    -3932    -3913    -4001    -4179    -4374 
   -4504    -4531    -4472    -4363    -4221    -4064    -3931    -3863 
   -3870    -3909    -3904    -3807    -3646    -3500    -3430    -3438 
   -3496    -3595    -3727    -3846    -3921    -3948    -3936    -3921 
   -3952    -4044    -4174    -4284    -4290    -4163    -3986    -3848 
   -3761    -3721    -3732    -3784    -3847    -3871    -3835    -3785 
   -3788    -3855    -3947    -4032    -4097    -4125    -4129    -4148 
   -4183    -4203    -4182    -4114    -4018    -3955    -3974    -4043 
   -4085    -4081    -4056    -4033    -3982    -3870    -3731    -3628 
   -3593    -3619    -3688    -3748    -3735    -3647    -3561    -3551 
   -3658    -3832    -3958    -3964    -3881    -3780    -3715    -3697 
   -3726    -3782    -3831    -3873    -3951    -4072    -4190    -4237 
   -4199    -4105    -3997    -3906    -3836    -3765    -3699    -3674 
   -3713    -3801    -3925    -4085    -4245    -4341    -4345    -4263 
   -4129    -4010    -3932    -3865    -3802    -3766    -3763    -3788 
   -3824    -3843    -3813    -3740    -3701    -3744    -3813    -3819 
   -3699    -3458    -3221    -3142    -3268    -3508    -3713    -3793 
   -3765    -3711    -3728    -3858    -4020    -4118    -4116    -4045 
   -3982    -3974    -3998    -4000    -3966    -3935    -3939    -3994 
   -4085    -4149    -4148    -4093    -4021    -3989    -4014    -4050 
   -4045    -3997    -3931    -3883    -3882    -3908    -3915    -3870 
   -3780    -3682    -3634    -3673    -3770    -3856    -3909    -3964 
   -4051    -4166    -4286    -4348    -4283    -4135    -3987    -3870 
   -3793    -3788    -3850    -3942    -4032    -4082    -4074    -4006 
   -3886    -3735    -3613    -3591    -3681    -3825    -3939    -3973 
   -3925    -3813    -3697    -3650    -3689    -3798    -3932    -4010 
   -3973    -3827    -3613    -3411    -3319    -3395    -3604    -3873 
   -4128    -4298    -4383    -4432    -4449    -4410    -4351    -4321 
   -4326    -4341    -4322    -4245    -4128    -4005    -3882    -3758 
   -3658    -3615    -3635    -3717    -3834    -3935    -3989    -3985 
   -3927    -3839    -3757    -3705    -3703    -3753    -3834    -3908 
   -3939    -3931    -3915    -3881    -3805    -3699    -3573    -3449 
   -3369    -3366    -3447    -3596    -3774    -3936    -4064    -4170 
   -4274    -4364    -4387    -4314    -4187    -4075    -4020    -4021 
   -4052    -4072    -4078    -4093    -4137    -4205    -4257    -4253 
   -4179    -4051    -3916    -3820    -3767    -3738    -3716    -3696 
   -3716    -3805    -3923    -4024    -4083    -4075    -4016    -3960 
   -3927    -3894    -3838    -3738    -3605    -3503    -3484    -3515 
   -3518    -3449    -3349    -3295    -3314    -3397    -3530    -3684 
   -3816    -3890    -3889    -3832    -3800    -3842    -3936    -4050 
   -4156    -4228    -4234    -4172    -4071    -3975    -3910    -3883 
   -3910    -3993    -4075    -4093    -4037    -3946    -3871    -3861 
   -3883    -3890    -3879    -3875    -3882    -3905    -3954    -4008 
   -4054    -4083    -4090    -4072    -4044    -4012    -3982    -3964 
   -3969    -3986    -4013    -4054    -4098    -4129    -4171    -4232 
   -4264    -4218    -4078    -3878    -3693    -3589    -3599    -3693 
   -3817    -3924    -3978    -3962    -3904    -3827    -3739    -3655 
   -3582    -3522    -3507    -3574    -3704    -3834    -3913    -3942 
   -3948    -3944    -3915    -3867    -3839    -3842    -3866    -3892 
   -3892    -3867    -3825    -3746    -3647    -3582    -3551    -3522 
   -3505    -3545    -3640    -3758    -3888    -4020    -4120    -4166 
   -4153    -4082    -4002    -3981    -4035    -4155    -4329    -4503 
   -4596    -4565    -4403    -4158    -3912    -3736    -3657    -3655 
   -3697    -3735    -3746    -3744    -3748    -3751    -3762    -3792 
   -3847    -3943    -4063    -4153    -4178    -4140    -4083    -4043 
   -4025    -4009    -3975    -3906    -3797    -3662    -3565    -3585 
   -3730    -3923    -4086    -4176    -4187    -4125    -4000    -3838 
   -3704    -3665    -3730    -3854    -3977    -4027    -3969    -3859 
   -3761    -3682    -3631    -3608    -3615    -3654    -3692    -3703 
   -3700    -3689    -3700    -3788    -3978    -4239    -4483    -4602 
   -4569    -4460    -4330    -4206    -4099    -4005    -3933    -3916 
   -3947    -4023    -4145    -4255    -4294    -4260    -4162    -4021 
   -3862    -3686    -3543    -3492    -3528    -3639    -3793    -3874 
   -3794    -3585    -3331    -3129    -3075    -3194    -3415    -3645 
   -3817    -3901    -3925    -3950    -3993    -4031    -4050    -4077 
   -4143    -4214    -4230    -4189    -4117    -4045    -4006    -4029 
   -4106    -4167    -4149    -4068    -3987    -3958    -4017    -4129 
   -4186    -4121    -3943    -3724    -3572    -3549    -3647    -3786 
   -3878    -3878    -3770    -3597    -3424    -3285    -3211    -3252 
   -3404    -3622    -3808    -3862    -3761    -3588    -3481    -3569 
   -3867    -4234    -4471    -4471    -4233    -3855    -3505    -3308 
   -3289    -3420    -3628    -3840    -4040    -4206    -4284    -4256 
   -4149    -4025    -3950    -3929    -3915    -3889    -3885    -3912 
   -3974    -4077    -4179    -4212    -4143    -4005    -3879    -3829 
   -3839    -3861    -3851    -3784    -3707    -3680    -3694    -3709 
   -3688    -3635    -3626    -3740    -3971    -4233    -4384    -4322 
   -4098    -3882    -3781    -3790    -3862    -3969    -4104    -4226 
   -4287    -4272    -4164    -3960    -3716    -3514    -3426    -3458 
   -3539    -3577    -3534    -3443    -3362    -3319    -3321    -3383 
   -3484    -3604    -3765    -3974    -4191    -4375    -4514    -4606 
   -4641    -4656    -4680    -4676    -4603    -4486    -4396    -4406 
   -4527    -4698    -4791    -4711    -4468    -4140    -3829    -3654 
   -3657    -3757    -3820    -3767    -3624    -3470    -3349    -3253 
   -3194    -3192    -3252    -3360    -3481    -3581    -3640    -3662 
   -3667    -3723    -3896    -4199    -4557    -4849    -4985    -4934 
   -4731    -4475    -4251    -4089    -3975    -3861    -3699    -3514 
   -3377    -3343    -3423    -3609    -3885    -4217    -4533    -4743 
   -4807    -4726    -4540    -4318    -4133    -4002    -3885    -3743 
   -3580    -3441    -3377    -3445    -3654    -3936    -4183    -4336 
   -4396    -4388    -4337    -4263    -4197    -4187    -4284    -4488 
   -4735    -4942    -5032    -4969    -4792    -4581    -4387    -4222 
   -4050    -3808    -3511    -3253    -3102    -3064    -3084    -3083 
   -3032    -2940    -2839    -2776    -2789    -2857    -2926    -2943 
   -2910    -2890    -2944    -3100    -3360    -3693    -4055    -4382 
   -4604    -4658    -4519    -4280    -4067    -3920    -3835    -3815 
   -3846    -3877    -3843    -3719    -3541    -3383    -3330    -3430 
   -3700    -4122    -4619    -5078    -5424    -5620    -5636    -5458 
   -5120    -4733    -4446    -4359    -4449    -4585    -4604    -4425 
   -4081    -3703    -3408    -3198    -2988    -2725    -2447    -2258 
   -2218    -2303    -2458    -2627    -2794    -3002    -3285    -3628 
   -4010    -4399    -4726    -4951    -5107    -5178    -5071    -4743 
   -4298    -3893    -3658    -3647    -3797    -3978    -4083    -4041 
   -3855    -3630    -3485    -3481    -3653    -3971    -4314    -4573 
   -4658    -4486    -4090    -3632    -3284    -3156    -3298    -3658 
   -4074    -4349    -4345    -4044    -3554    -3017    -2536    -2181 
   -2006    -2011    -2118    -2249    -2416    -2671    -3015    -3429 
   -3850    -4132    -4163    -3977    -3713    -3561    -3684    -4097 
   -4660    -5204    -5580    -5680    -5520    -5219    -4907    -4692 
   -4634    -4708    -4833    -4885    -4765    -4459    -4055    -3727 
   -3632    -3782    -4037    -4205    -4148    -3878    -3522    -3223 
   -3072    -3071    -3175    -3338    -3550    -3844    -4206    -4504 
   -4571    -4325    -3839    -3307    -2948    -2906    -3202    -3708 
   -4234    -4653    -4914    -5003    -4950    -4793    -4569    -4365 
   -4267    -4294    -4418    -4560    -4654    -4719    -4779    -4824 
   -4862    -4874    -4816    -4652    -4374    -4010    -3609    -3227 
   -2928    -2740    -2697    -2833    -3103    -3434    -3742    -3904 
   -3831    -3531    -3096    -2660    -2355    -2268    -2423    -2802 
   -3379    -4054    -4653    -4984    -4869    -4287    -3403    -2462 
   -1763    -1529    -1753    -2280    -2906    -3458    -3897    -4267 
   -4591    -4880    -5117    -5256    -5297    -5240    -5044    -4706 
   -4271    -3827    -3487    -3331    -3372    -3510    -3581    -3454 
   -3115    -2682    -2351    -2285    -2556    -3127    -3851    -4548 
   -5076    -5363    -5433    -5370    -5247    -5152    -5161    -5281 
   -5462    -5598    -5537    -5175    -4564    -3856    -3218    -2790 
   -2601    -2550    -2519    -2434    -2290    -2149    -2065    -2066 
   -2199    -2508    -2983    -3515    -3931    -4086    -3977    -3746 
   -3592    -3661    -3982    -4457    -4885    -5096    -5082    -4941 
   -4754    -4563    -4349    -4060    -3680    -3287    -3019    -2988 
   -3231    -3682    -4198    -4637    -4895    -4928    -4761    -4472 
   -4172    -3962    -3916    -4102    -4514    -5030    -5486    -5740 
   -5721    -5495    -5220    -5003    -4873    -4795    -4635    -4270 
   -3703    -3064    -2502    -2160    -2142    -2465    -3063    -3815 
   -4540    -5078    -5410    -5626    -5830    -6056    -6215    -6162 
   -5811    -5189    -4446    -3773    -3295    -3042    -2964    -2983 
   -3029    -3021    -2905    -2694    -2434    -2172    -1948    -1826 
   -1887    -2178    -2689    -3302    -3825    -4099    -4056    -3740 
   -3330    -3078    -3152    -3505    -3927    -4237    -4380    -4398 
   -4396    -4444    -4546    -4666    -4710    -4603    -4336    -3916 
   -3357    -2721    -2146    -1830    -1949    -2523    -3404    -4351 
   -5130    -5613    -5768    -5634    -5329    -5003    -4773    -4703 
   -4760    -4818    -4777    -4626    -4428    -4293    -4290    -4379 
   -4402    -4160    -3586    -2808    -2043    -1497    -1294    -1448 
   -1888    -2531    -3272    -3963    -4491    -4800    -4857    -4680 
   -4344    -3931    -3522    -3202    -3014    -2963    -3021    -3127 
   -3242    -3356    -3485    -3713    -4114    -4654    -5204    -5576 
   -5621    -5314    -4777    -4216    -3823    -3665    -3681    -3739 
   -3753    -3754    -3831    -4037    -4361    -4680    -4819    -4675 
   -4253    -3677    -3125    -2749    -2627    -2749    -3079    -3581 
   -4193    -4793    -5229    -5351    -5073    -4467    -3750    -3167 
   -2876    -2924    -3215    -3562    -3797    -3858    -3773    -3627 
   -3522    -3518    -3596    -3715    -3863    -4070    -4352    -4684 
   -4945    -4966    -4683    -4189    -3676    -3361    -3392    -3728 
   -4166    -4503    -4638    -4557    -4309    -3991    -3712    -3591 
   -3697    -3966    -4234    -4369    -4298    -4014    -3624    -3303 
   -3194    -3334    -3639    -3989    -4311    -4590    -4824    -4997 
   -5071    -5009    -4765    -4310    -3719    -3188    -2903    -2945 
   -3299    -3844    -4384    -4753    -4860    -4671    -4209    -3570 
   -2899    -2313    -1887    -1665    -1671    -1879    -2214    -2593 
   -2938    -3171    -3272    -3279    -3249    -3275    -3429    -3686 
   -3967    -4145    -4094    -3774    -3302    -2884    -2708    -2905 
   -3500    -4352    -5236    -5972    -6397    -6401    -6057    -5540 
   -5008    -4588    -4329    -4194    -4132    -4095    -4058    -4040 
   -4082    -4189    -4337    -4479    -4560    -4557    -4442    -4190 
   -3821    -3391    -2947    -2550    -2251    -2068    -2043    -2249 
   -2693    -3334    -4094    -4835    -5422    -5779    -5896    -5829 
   -5653    -5422    -5167    -4905    -4660    -4463    -4345    -4334 
   -4423    -4550    -4590    -4422    -4028    -3512    -3045    -2779 
   -2782    -3014    -3339    -3605    -3730    -3734    -3680    -3580 
   -3397    -3123    -2813    -2593    -2604    -2918    -3483    -4113 
   -4610    -4818    -4692    -4321    -3854    -3383    -2952    -2600 
   -2366    -2301    -2411    -2647    -2922    -3130    -3211    -3180 
   -3117    -3132    -3310    -3667    -4175    -4766    -5336    -5751 
   -5910    -5792    -5456    -5036    -4681    -4463    -4379    -4398 
   -4456    -4471    -4405    -4244    -3982    -3665    -3402    -3312 
   -3483    -3902    -4448    -4959    -5310    -5410    -5204    -4720 
   -4083    -3454    -2980    -2724    -2650    -2674    -2706    -2710 
   -2724    -2803    -2968    -3168    -3289    -3248    -3059    -2824 
   -2673    -2693    -2895    -3206    -3510    -3743    -3897    -3982 
   -4024    -4063    -4151    -4332    -4619    -4965    -5285    -5518 
   -5645    -5703    -5718    -5664    -5537    -5350    -5089    -4754 
   -4351    -3877    -3376    -2938    -2658    -2601    -2759    -3042 
   -3335    -3557    -3719    -3874    -4043    -4199    -4295    -4320 
   -4303    -4290    -4321    -4383    -4422    -4417    -4383    -4349 
   -4336    -4324    -4294    -4279    -4336    -4484    -4671    -4776 
   -4704    -4455    -4122    -3831    -3650    -3577    -3555    -3514 
   -3402    -3184    -2844    -2432    -2045    -1757    -1597    -1548 
   -1594    -1765    -2104    -2612    -3206    -3750    -4108    -4198 
   -4035    -3736    -3477    -3387    -3522    -3858    -4299    -4723 
   -5038    -5205    -5225    -5098    -4843    -4510    -4187    -4000 
   -4033    -4271    -4608    -4924    -5135    -5208    -5184    -5115 
   -5003    -4853    -4695    -4544    -4387    -4217    -4021    -3796 
   -3588    -3477    -3514    -3669    -3831    -3882    -3765    -3503 
   -3211    -3041    -3096    -3399    -3858    -4276    -4471    -4351 
   -3932    -3346    -2785    -2397    -2250    -2339    -2605    -2953 
   -3292    -3572    -3742    -3767    -3709    -3686    -3800    -4087 
   -4496    -4918    -5265    -5474    -5499    -5325    -4980    -4534 
   -4072    -3697    -3514    -3537    -3693    -3877    -3993    -4006 
   -3977    -4000    -4131    -4353    -4576    -4675    -4568    -4287 
   -3963    -3759    -3796    -4071    -4467    -4834    -5070    -5139 
   -5044    -4796    -4440    -4023    -3582    -3159    -2766    -2393 
   -2053    -1795    -1675    -1756    -2043    -2459    -2901    -3275 
   -3547    -3744    -3894    -4018    -4117    -4186    -4217    -4198 
   -4136    -4083    -4099    -4221    -4449    -4725    -4942    -5004 
   -4873    -4558    -4095    -3547    -3006    -2563    -2317    -2340 
   -2600    -2979    -3368    -3686    -3909    -4054    -4124    -4125 
   -4041    -3835    -3519    -3172    -2895    -2749    -2758    -2965 
   -3414    -4082    -4869    -5599    -6057    -6085    -5672    -4963 
   -4206    -3638    -3362    -3338    -3445    -3545    -3564    -3507 
   -3419    -3339    -3285    -3294    -3420    -3686    -4020    -4290 
   -4372    -4229    -3962    -3754    -3726    -3888    -4160    -4426 
   -4579    -4591    -4491    -4295    -4017    -3703    -3414    -3218 
   -3217    -3473    -3939    -4491    -4990    -5290    -5310    -5105 
   -4780    -4453    -4203    -4032    -3898    -3751    -3554    -3329 
   -3132    -2997    -2930    -2916    -2937    -2986    -3065    -3196 
   -3384    -3597    -3788    -3919    -3991    -4072    -4222    -4441 
   -4691    -4896    -4989    -4972    -4893    -4812    -4768    -4768 
   -4777    -4741    -4635    -4453    -4199    -3901    -3619    -3415 
   -3327    -3334    -3387    -3461    -3554    -3636    -3682    -3690 
   -3672    -3653    -3662    -3715    -3812    -3946    -4097    -4226 
   -4298    -4313    -4290    -4229    -4135    -4012    -3862    -3696 
   -3550    -3487    -3550    -3736    -4018    -4320    -4534    -4617 
   -4618    -4600    -4617    -4688    -4795    -4869    -4828    -4627 
