Origin Time       2024/04/02 04:24:00
Lat.              40.133
Long.             141.712
Depth. (km)       71
Mag.              6.0
Station Code      HDKH02
Station Lat.      42.7061
Station Long.     142.4054
Station Height(m) 120
Record Time       2024/04/02 04:25:34
Sampling Freq(Hz) 100Hz
Duration Time(s)  120
Dir.              3
Scale Factor      2940(gal)/6170270
Max. Acc. (gal)   0.364
Last Correction   2024/04/02 04:25:19
Memo.             
[...]
   60396    60393    60381    60375    60369    60335    60304    60299 
   60286    60256    60230    60214    60202    60184    60168    60162 
   60152    60144    60160    60198    60249    60287    60276    60241 
   60227    60214    60206    60245    60284    60255    60210    60200 
   60205    60214    60232    60241    60247    60271    60302    60344 
   60391    60396    60361    60350    60392    60450    60472    60445 
   60405    60380    60379    60404    60412    60369    60310    60287 
   60287    60266    60243    60244    60243    60250    60282    60309 
   60315    60330    60364    60400    60426    60423    60401    60390 
   60378    60334    60297    60308    60328    60344    60380    60405 
   60379    60321    60293    60303    60310    60309    60309    60298 
   60288    60309    60346    60333    60250    60167    60118    60083 
   60052    60024    60029    60100    60175    60187    60174    60189 
   60214    60234    60258    60279    60293    60312    60325    60301 
   60251    60186    60109    60078    60138    60210    60188    60119 
   60113    60168    60211    60230    60218    60148    60083    60099 
   60169    60241    60301    60347    60390    60407    60369    60344 
   60364    60367    60363    60380    60377    60337    60275    60230 
   60206    60134    60052    60090    60207    60268    60261    60245 
   60246    60263    60267    60233    60219    60282    60366    60413 
   60453    60461    60384    60294    60285    60322    60312    60258 
   60229    60241    60270    60288    60252    60187    60150    60143 
   60171    60245    60313    60343    60369    60411    60453    60461 
   60407    60329    60284    60278    60298    60337    60364    60346 
   60322    60347    60376    60342    60284    60270    60289    60314 
   60363    60416    60426    60423    60466    60513    60461    60331 
   60263    60300    60342    60331    60302    60276    60238    60219 
   60241    60252    60235    60235    60274    60331    60357    60330 
   60293    60294    60311    60313    60309    60307    60288    60267 
   60298    60371    60401    60364    60331    60346    60378    60397 
   60407    60414    60435    60466    60492    60537    60600    60619 
   60575    60515    60468    60424    60378    60337    60299    60280 
   60291    60313    60319    60286    60219    60160    60154    60189 
   60215    60215    60200    60192    60202    60233    60257    60239 
   60224    60275    60324    60299    60251    60212    60151    60092 
   60074    60061    60046    60067    60096    60098    60082    60079 
   60128    60207    60254    60268    60288    60320    60333    60341 
   60371    60380    60349    60325    60317    60302    60275    60238 
   60210    60196    60186    60191    60208    60216    60222    60221 
   60189    60150    60141    60164    60237    60348    60401    60382 
   60380    60400    60377    60311    60261    60250    60255    60269 
   60271    60223    60141    60085    60068    60036    59988    59994 
   60052    60101    60125    60149    60197    60280    60357    60378 
   60362    60337    60293    60270    60307    60338    60334    60364 
   60420    60431    60425    60434    60378    60263    60221    60266 
   60308    60321    60339    60395    60492    60569    60585    60592 
   60602    60583    60586    60612    60559    60445    60378    60379 
   60400    60396    60338    60252    60217    60254    60295    60286 
   60241    60199    60193    60214    60240    60253    60243    60228 
   60236    60284    60350    60381    60363    60329    60302    60277 
   60247    60216    60211    60244    60259    60222    60219    60265 
   60246    60156    60114    60140    60183    60208    60188    60140 
   60124    60181    60284    60363    60386    60392    60407    60411 
   60387    60354    60351    60386    60417    60417    60425    60447 
   60400    60299    60273    60325    60360    60363    60349    60315 
   60300    60344    60388    60365    60331    60347    60369    60356 
   60348    60352    60347    60359    60396    60432    60444    60388 
   60292    60264    60316    60350    60327    60306    60310    60299 
   60306    60356    60367    60316    60293    60338    60397    60409 
   60372    60333    60322    60342    60360    60316    60227    60190 
   60219    60215    60147    60098    60111    60133    60116    60059 
   59998    59975    60006    60083    60159    60180    60164    60172 
   60223    60266    60242    60203    60234    60290    60302    60302 
   60319    60323    60296    60260    60222    60188    60198    60260 
   60306    60312    60321    60331    60297    60253    60257    60265 
   60241    60265    60363    60430    60409    60373    60374    60366 
   60326    60304    60312    60302    60257    60221    60222    60222 
   60196    60164    60127    60105    60142    60179    60139    60112 
   60157    60171    60135    60146    60199    60226    60234    60266 
   60316    60355    60389    60437    60479    60505    60530    60541 
   60530    60535    60553    60528    60469    60440    60452    60479 
   60492    60479    60444    60387    60316    60257    60235    60280 
   60385    60475    60486    60417    60317    60239    60196    60184 
   60216    60280    60309    60282    60267    60270    60206    60104 
   60092    60165    60223    60264    60302    60283    60213    60159 
   60143    60169    60217    60230    60222    60254    60292    60272 
   60222    60214    60239    60243    60236    60234    60190    60103 
   60088    60202    60318    60327    60263    60186    60145    60139 
   60138    60145    60174    60227    60291    60324    60309    60302 
   60342    60403    60448    60464    60477    60508    60497    60410 
   60318    60251    60188    60192    60282    60343    60328    60293 
   60242    60168    60113    60095    60114    60209    60363    60460 
   60452    60412    60393    60397    60426    60448    60394    60297 
   60277    60362    60457    60490    60473    60439    60377    60298 
   60258    60244    60219    60255    60349    60388    60381    60391 
   60370    60287    60210    60183    60184    60220    60307    60369 
   60333    60239    60144    60089    60117    60187    60225    60235 
   60235    60213    60198    60236    60277    60258    60233    60259 
   60301    60313    60300    60298    60299    60287    60320    60418 
   60497    60512    60488    60415    60323    60292    60317    60385 
   60515    60616    60612    60573    60539    60496    60463    60427 
   60374    60378    60459    60499    60433    60307    60167    60045 
   59990    60016    60068    60109    60157    60197    60215    60262 
   60293    60197    60067    60102    60268    60370    60357    60321 
   60322    60363    60353    60244    60177    60214    60233    60229 
   60286    60345    60316    60252    60227    60220    60180    60137 
   60192    60341    60438    60418    60367    60354    60338    60304 
   60306    60325    60307    60255    60207    60199    60209    60200 
   60191    60171    60113    60092    60142    60176    60149    60104 
   60093    60135    60198    60228    60241    60291    60357    60391 
   60433    60514    60559    60507    60403    60340    60346    60357 
   60346    60353    60361    60305    60217    60170    60172    60174 
   60151    60139    60186    60251    60277    60302    60338    60310 
   60221    60198    60285    60407    60507    60544    60487    60412 
   60399    60401    60370    60325    60288    60298    60357    60403 
   60380    60279    60158    60104    60150    60240    60276    60252 
   60265    60334    60420    60495    60508    60460    60411    60388 
   60397    60430    60441    60406    60340    60256    60180    60149 
   60163    60155    60088    60035    60052    60090    60129    60213 
   60293    60284    60256    60307    60374    60365    60311    60269 
   60254    60266    60291    60325    60374    60414    60446    60465 
   60415    60314    60247    60218    60185    60187    60299    60462 
   60566    60604    60576    60473    60366    60306    60293    60336 
   60461    60637    60713    60602    60413    60274    60208    60199 
   60233    60266    60260    60252    60272    60265    60207    60148 
   60134    60165    60247    60382    60493    60486    60382    60266 
   60185    60177    60232    60286    60347    60448    60524    60515 
   60449    60364    60281    60245    60292    60390    60474    60537 
   60573    60494    60306    60157    60116    60164    60276    60397 
   60480    60478    60387    60320    60318    60260    60159    60159 
   60224    60248    60248    60243    60203    60139    60103    60109 
   60127    60147    60177    60204    60257    60326    60321    60233 
   60161    60144    60150    60170    60196    60213    60234    60257 
   60231    60152    60079    60064    60098    60135    60144    60141 
   60175    60272    60387    60460    60474    60429    60345    60277 
   60248    60218    60207    60278    60357    60329    60270    60301 
   60371    60396    60390    60365    60323    60333    60438    60543 
   60549    60481    60384    60296    60271    60289    60260    60165 
   60069    60068    60199    60339    60340    60211    60044    59921 
   59882    59907    59933    59935    59968    60072    60194    60255 
   60232    60185    60153    60130    60142    60203    60296    60396 
   60431    60410    60433    60486    60495    60475    60457    60452 
   60460    60459    60448    60436    60410    60377    60341    60304 
   60305    60345    60367    60356    60324    60266    60212    60200 
   60236    60286    60282    60224    60220    60283    60280    60187 
   60107    60068    60029    59965    59903    59909    59959    59973 
   60007    60141    60261    60244    60170    60119    60056    60014 
   60098    60272    60401    60455    60484    60488    60417    60288 
   60198    60198    60227    60239    60274    60319    60278    60165 
   60093    60103    60150    60182    60196    60232    60258    60205 
   60152    60230    60347    60340    60278    60301    60359    60386 
   60406    60423    60400    60304    60164    60076    60059    60007 
   59913    59905    59995    60083    60116    60067    59967    59952 
   60059    60186    60299    60394    60402    60343    60344    60405 
   60430    60409    60391    60420    60461    60402    60239    60111 
   60104    60189    60278    60301    60272    60251    60281    60372 
   60480    60509    60449    60423    60479    60530    60539    60540 
   60506    60423    60389    60463    60566    60589    60509    60396 
   60308    60263    60260    60264    60229    60190    60233    60369 
   60502    60537    60479    60438    60461    60447    60377    60337 
   60301    60241    60261    60398    60548    60652    60715    60712 
   60653    60566    60450    60358    60326    60304    60282    60307 
   60371    60416    60428    60404    60325    60225    60158    60131 
   60125    60102    60048    60009    60027    60118    60258    60363 
   60401    60417    60436    60482    60582    60680    60690    60604 
   60488    60389    60289    60217    60245    60345    60417    60432 
   60443    60446    60404    60329    60223    60092    60012    60048 
   60161    60273    60369    60470    60524    60466    60339    60235 
   60168    60112    60078    60060    60046    60100    60206    60225 
   60138    60068    60087    60158    60240    60328    60382    60357 
   60295    60280    60332    60387    60405    60403    60408    60438 
   60485    60492    60424    60338    60331    60412    60493    60533 
   60550    60524    60440    60316    60179    60101    60117    60162 
   60202    60270    60347    60363    60334    60313    60275    60216 
   60197    60246    60356    60491    60592    60634    60606    60489 
   60342    60287    60314    60313    60299    60330    60356    60310 
   60177    60006    59904    59930    60053    60207    60335    60426 
   60503    60539    60467    60281    60092    60036    60140    60314 
   60483    60623    60695    60694    60650    60565    60448    60341 
   60285    60333    60473    60597    60639    60614    60546    60478 
   60448    60477    60570    60643    60636    60639    60700    60739 
   60741    60698    60570    60439    60396    60363    60281    60188 
   60111    60062    60016    59920    59829    59816    59842    59900 
   59990    59986    59854    59728    59679    59680    59704    59745 
   59840    59959    60010    60009    60057    60153    60229    60293 
   60378    60437    60432    60407    60407    60404    60320    60160 
   60052    60067    60133    60175    60192    60206    60243    60320 
   60377    60366    60315    60249    60207    60262    60392    60511 
   60591    60619    60563    60444    60336    60258    60191    60154 
   60160    60166    60148    60132    60140    60169    60189    60188 
   60229    60336    60402    60377    60334    60290    60195    60087 
   60075    60143    60151    60083    60019    59957    59852    59723 
   59640    59633    59631    59614    59691    59847    59913    59868 
   59839    59854    59874    59942    60055    60099    60060    60047 
   60082    60109    60142    60221    60303    60303    60249    60255 
   60318    60368    60408    60443    60467    60521    60646    60765 
   60783    60758    60755    60768    60831    60960    61056    61010 
   60874    60776    60744    60716    60653    60558    60473    60435 
   60421    60383    60327    60285    60249    60185    60119    60107 
   60108    60073    60041    60022    59971    59919    59903    59894 
   59901    59958    60046    60156    60259    60300    60277    60242 
   60215    60194    60215    60298    60381    60422    60425    60376 
   60275    60186    60187    60285    60403    60484    60541    60593 
   60615    60576    60497    60427    60404    60437    60495    60538 
   60585    60663    60729    60737    60761    60872    60996    61032 
   60988    60932    60892    60873    60891    60889    60790    60623 
   60478    60401    60365    60300    60207    60183    60241    60269 
   60219    60153    60084    59992    59963    60045    60134    60141 
   60100    60060    60057    60140    60270    60340    60329    60294 
   60232    60102    59950    59848    59799    59806    59859    59905 
   59916    59891    59850    59878    60010    60141    60166    60136 
   60148    60207    60239    60187    60092    60032    60037    60098 
   60155    60172    60190    60216    60212    60201    60245    60312 
   60343    60375    60458    60565    60652    60715    60761    60793 
   60786    60731    60673    60633    60577    60522    60488    60452 
   60404    60361    60312    60241    60171    60167    60262    60361 
   60355    60290    60231    60158    60094    60065    60007    59890 
   59808    59817    59835    59788    59704    59643    59650    59728 
   59837    59973    60138    60259    60324    60390    60426    60389 
   60347    60352    60385    60437    60490    60495    60477    60501 
   60528    60484    60380    60263    60141    60035    60016    60100 
   60225    60341    60433    60516    60565    60539    60517    60573 
   60621    60614    60604    60587    60556    60529    60464    60356 
   60275    60259    60291    60348    60424    60471    60435    60380 
   60395    60442    60443    60416    60412    60431    60452    60468 
   60485    60468    60384    60263    60133    60029    59991    59972 
   59944    59968    60054    60135    60174    60177    60161    60141 
   60157    60225    60285    60257    60151    60078    60081    60090 
   60079    60087    60129    60218    60344    60433    60445    60405 
   60340    60280    60251    60227    60197    60193    60227    60287 
   60325    60281    60164    60066    60038    60050    60098    60196 
   60282    60302    60295    60307    60336    60366    60417    60498 
   60579    60627    60634    60626    60608    60540    60444    60423 
   60469    60488    60467    60437    60352    60174    59985    59899 
   59925    60006    60095    60164    60183    60192    60261    60353 
   60396    60430    60497    60543    60540    60541    60566    60569 
   60519    60431    60347    60320    60353    60381    60358    60329 
   60357    60431    60519    60590    60581    60503    60463    60501 
   60574    60639    60642    60574    60509    60485    60477    60455 
   60390    60294    60210    60149    60090    60037    59994    59949 
   59914    59906    59927    59981    60061    60147    60212    60232 
   60220    60235    60301    60354    60340    60300    60305    60346 
   60358    60309    60256    60244    60223    60154    60110    60124 
   60127    60138    60267    60490    60663    60725    60726    60698 
   60632    60538    60455    60422    60443    60474    60487    60479 
   60426    60306    60148    59990    59874    59863    59944    60025 
   60045    60037    60043    60028    59963    59901    59879    59877 
   59912    59989    60039    60044    60082    60165    60208    60211 
   60226    60228    60216    60238    60262    60227    60167    60147 
   60167    60200    60242    60296    60343    60372    60380    60365 
   60343    60341    60366    60411    60452    60458    60422    60393 
   60419    60470    60504    60535    60551    60548    60526    60445 
   60334    60276    60273    60282    60281    60257    60240    60255 
   60254    60197    60115    60038    59998    60042    60127    60152 
   60118    60091    60092    60119    60179    60261    60319    60305 
   60259    60279    60331    60304    60228    60183    60175    60209 
   60296    60405    60504    60575    60599    60577    60542    60527 
   60547    60585    60610    60615    60622    60622    60585    60517 
   60437    60348    60289    60318    60400    60418    60340    60241 
   60151    60035    59906    59819    59797    59830    59899    59988 
   60053    60037    59953    59912    59981    60091    60165    60207 
   60242    60282    60336    60398    60460    60508    60517    60513 
   60545    60586    60598    60582    60548    60500    60435    60358 
   60284    60216    60170    60181    60235    60290    60325    60315 
   60263    60234    60268    60344    60433    60524    60604    60647 
   60658    60663    60642    60576    60499    60441    60382    60300 
   60217    60181    60196    60225    60259    60298    60310    60305 
   60298    60275    60285    60368    60472    60578    60663    60659 
   60591    60527    60468    60410    60359    60297    60233    60201 
   60179    60149    60156    60217    60290    60352    60402    60448 
   60488    60508    60491    60401    60247    60110    60033    60013 
   60037    60076    60122    60169    60186    60171    60161    60178 
   60202    60209    60217    60209    60145    60077    60074    60116 
   60157    60171    60167    60180    60201    60179    60110    60037 
   60016    60070    60169    60273    60376    60471    60532    60559 
   60580    60589    60583    60595    60622    60627    60590    60523 
   60435    60341    60289    60303    60336    60350    60353    60334 
