Origin Time       2024/04/02 04:24:00
Lat.              40.133
Long.             141.712
Depth. (km)       71
Mag.              6.0
Station Code      HDKH06
Station Lat.      42.3498
Station Long.     142.3572
Station Height(m) 10
Record Time       2024/04/02 04:25:19
Sampling Freq(Hz) 100Hz
Duration Time(s)  143
Dir.              5
Scale Factor      7845(gal)/8223790
Max. Acc. (gal)   3.820
Last Correction   2024/04/02 04:25:20
Memo.             
[...]
  -33736   -33718   -33716   -33736   -33785   -33853   -33916   -33951 
  -33941   -33891   -33821   -33762   -33735   -33744   -33777   -33820 
  -33870   -33926   -33994   -34065   -34132   -34191   -34246   -34307 
  -34388   -34489   -34597   -34699   -34782   -34831   -34838   -34808 
  -34751   -34682   -34615   -34547   -34474   -34403   -34348   -34329 
  -34354   -34416   -34481   -34523   -34527   -34489   -34418   -34318 
  -34203   -34099   -34018   -33956   -33914   -33885   -33864   -33866 
  -33889   -33918   -33941   -33955   -33947   -33910   -33851   -33767 
  -33669   -33573   -33493   -33448   -33453   -33508   -33604   -33731 
  -33875   -34022   -34153   -34258   -34345   -34415   -34466   -34493 
  -34501   -34493   -34488   -34497   -34515   -34533   -34551   -34558 
  -34537   -34487   -34408   -34311   -34214   -34138   -34102   -34113 
  -34160   -34210   -34244   -34244   -34207   -34137   -34040   -33924 
  -33809   -33714   -33659   -33647   -33673   -33720   -33771   -33818 
  -33858   -33874   -33860   -33812   -33725   -33609   -33493   -33411 
  -33381   -33409   -33500   -33650   -33845   -34068   -34302   -34530 
  -34727   -34865   -34924   -34902   -34820   -34708   -34588   -34472 
  -34371   -34291   -34237   -34217   -34238   -34290   -34348   -34403 
  -34443   -34449   -34403   -34295   -34128   -33922   -33718   -33554 
  -33467   -33486   -33605   -33793   -34006   -34214   -34398   -34553 
  -34670   -34743   -34763   -34723   -34634   -34508   -34369   -34254 
  -34182   -34156   -34171   -34211   -34252   -34280   -34296   -34298 
  -34280   -34248   -34214   -34188   -34182   -34186   -34187   -34176 
  -34153   -34121   -34091   -34064   -34041   -34022   -33997   -33959 
  -33909   -33848   -33785   -33732   -33691   -33660   -33635   -33612 
  -33593   -33571   -33552   -33548   -33574   -33633   -33714   -33791 
  -33848   -33890   -33932   -33990   -34076   -34198   -34348   -34503 
  -34638   -34735   -34777   -34758   -34693   -34611   -34549   -34528 
  -34542   -34569   -34593   -34608   -34618   -34624   -34631   -34622 
  -34584   -34511   -34404   -34272   -34134   -34010   -33909   -33841 
  -33806   -33787   -33768   -33747   -33736   -33745   -33767   -33786 
  -33787   -33759   -33706   -33639   -33567   -33493   -33415   -33349 
  -33313   -33315   -33353   -33426   -33527   -33654   -33808   -33975 
  -34138   -34284   -34396   -34469   -34512   -34541   -34578   -34647 
  -34738   -34838   -34931   -34997   -35036   -35060   -35074   -35070 
  -35036   -34962   -34852   -34720   -34578   -34443   -34339   -34294 
  -34307   -34362   -34439   -34515   -34562   -34576   -34549   -34479 
  -34372   -34242   -34084   -33897   -33685   -33469   -33280   -33139 
  -33054   -33012   -32996   -32996   -33008   -33034   -33083   -33161 
  -33262   -33373   -33484   -33590   -33687   -33789   -33906   -34038 
  -34188   -34342   -34479   -34589   -34669   -34727   -34785   -34852 
  -34925   -34989   -35013   -34982   -34905   -34808   -34716   -34645 
  -34601   -34574   -34550   -34519   -34480   -34433   -34376   -34315 
  -34257   -34202   -34150   -34110   -34078   -34044   -34001   -33952 
  -33905   -33855   -33808   -33772   -33744   -33727   -33723   -33728 
  -33736   -33741   -33737   -33728   -33713   -33691   -33685   -33697 
  -33727   -33767   -33804   -33816   -33797   -33750   -33702   -33693 
  -33744   -33870   -34056   -34258   -34433   -34561   -34639   -34666 
  -34649   -34596   -34530   -34474   -34462   -34511   -34611   -34727 
  -34821   -34861   -34847   -34801   -34731   -34642   -34546   -34458 
  -34391   -34341   -34295   -34242   -34182   -34110   -34036   -33970 
  -33899   -33818   -33727   -33619   -33494   -33376   -33277   -33212 
  -33204   -33251   -33330   -33420   -33523   -33639   -33759   -33871 
  -33959   -34018   -34060   -34103   -34155   -34204   -34231   -34223 
  -34196   -34184   -34202   -34248   -34306   -34356   -34387   -34402 
  -34402   -34392   -34388   -34400   -34427   -34468   -34514   -34553 
  -34581   -34599   -34601   -34569   -34489   -34375   -34256   -34172 
  -34142   -34167   -34229   -34310   -34379   -34411   -34403   -34346 
  -34234   -34078   -33914   -33762   -33627   -33513   -33427   -33377 
  -33365   -33390   -33447   -33529   -33635   -33751   -33852   -33922 
  -33966   -33997   -34034   -34088   -34155   -34218   -34276   -34331 
  -34391   -34457   -34520   -34573   -34619   -34674   -34744   -34823 
  -34885   -34908   -34879   -34801   -34680   -34541   -34414   -34323 
  -34284   -34292   -34326   -34362   -34384   -34385   -34365   -34323 
  -34263   -34183   -34084   -33979   -33871   -33759   -33643   -33524 
  -33416   -33336   -33295   -33285   -33291   -33284   -33259   -33230 
  -33218   -33231   -33270   -33327   -33388   -33443   -33497   -33561 
  -33651   -33777   -33940   -34142   -34362   -34565   -34716   -34800 
  -34813   -34771   -34700   -34636   -34611   -34649   -34762   -34927 
  -35091   -35208   -35244   -35197   -35093   -34955   -34813   -34677 
  -34531   -34373   -34217   -34076   -33957   -33863   -33790   -33720 
  -33640   -33558   -33482   -33417   -33359   -33311   -33277   -33269 
  -33284   -33316   -33363   -33432   -33531   -33652   -33786   -33909 
  -33993   -34038   -34059   -34060   -34047   -34022   -33998   -33988 
  -34001   -34036   -34088   -34150   -34218   -34294   -34391   -34523 
  -34692   -34885   -35078   -35243   -35355   -35405   -35399   -35348 
  -35248   -35110   -34956   -34811   -34689   -34603   -34542   -34481 
  -34415   -34354   -34314   -34298   -34296   -34300   -34299   -34279 
  -34231   -34149   -34020   -33843   -33633   -33424   -33242   -33102 
  -33002   -32944   -32929   -32953   -33021   -33143   -33315   -33519 
  -33720   -33875   -33976   -34041   -34095   -34160   -34236   -34307 
  -34358   -34379   -34383   -34399   -34443   -34512   -34608   -34726 
  -34848   -34959   -35059   -35151   -35243   -35334   -35414   -35459 
  -35457   -35407   -35329   -35243   -35159   -35083   -35004   -34902 
  -34769   -34593   -34380   -34146   -33920   -33729   -33597   -33532 
  -33529   -33571   -33640   -33718   -33777   -33791   -33744   -33628 
  -33471   -33316   -33195   -33127   -33115   -33146   -33208   -33295 
  -33394   -33496   -33597   -33690   -33767   -33818   -33833   -33813 
  -33781   -33755   -33760   -33814   -33907   -34011   -34098   -34149 
  -34155   -34119   -34057   -33991   -33952   -33963   -34029   -34125 
  -34213   -34276   -34331   -34414   -34542   -34712   -34896   -35051 
  -35147   -35186   -35201   -35224   -35272   -35322   -35345   -35303 
  -35167   -34940   -34646   -34317   -33995   -33708   -33474   -33330 
  -33280   -33316   -33427   -33583   -33758   -33920   -34032   -34071 
  -34036   -33932   -33772   -33586   -33403   -33251   -33151   -33111 
  -33135   -33224   -33359   -33527   -33708   -33876   -34011   -34113 
  -34179   -34207   -34195   -34142   -34059   -33966   -33899   -33898 
  -33982   -34153   -34389   -34645   -34865   -34997   -35013   -34919 
  -34728   -34453   -34121   -33775   -33446   -33166   -32964   -32850 
  -32842   -32948   -33170   -33497   -33902   -34329   -34719   -35029 
  -35232   -35307   -35248   -35068   -34801   -34493   -34184   -33898 
  -33655   -33480   -33384   -33378   -33448   -33554   -33659   -33755 
  -33839   -33918   -34015   -34141   -34281   -34429   -34566   -34684 
  -34785   -34892   -35031   -35194   -35347   -35456   -35498   -35468 
  -35380   -35244   -35054   -34804   -34508   -34199   -33920   -33706 
  -33579   -33528   -33544   -33619   -33733   -33859   -33971   -34057 
  -34119   -34168   -34213   -34241   -34233   -34183   -34091   -33957 
  -33798   -33625   -33443   -33259   -33083   -32931   -32833   -32803 
  -32838   -32929   -33060   -33201   -33326   -33412   -33455   -33470 
  -33475   -33485   -33523   -33616   -33774   -33998   -34281   -34607 
  -34960   -35311   -35621   -35862   -36016   -36069   -36012   -35861 
  -35634   -35349   -35037   -34744   -34514   -34376   -34346   -34415 
  -34569   -34781   -35009   -35220   -35376   -35441   -35388   -35216 
  -34950   -34636   -34323   -34034   -33778   -33561   -33390   -33268 
  -33183   -33112   -33034   -32931   -32790   -32613   -32420   -32235 
  -32089   -32009   -32015   -32107   -32285   -32547   -32884   -33272 
  -33667   -34032   -34322   -34512   -34592   -34557   -34411   -34187 
  -33934   -33702   -33538   -33475   -33519   -33643   -33813   -34001 
  -34169   -34291   -34358   -34377   -34362   -34339   -34333   -34354 
  -34399   -34456   -34514   -34560   -34581   -34565   -34504   -34402 
  -34280   -34164   -34063   -33979   -33917   -33879   -33875   -33906 
  -33967   -34048   -34138   -34237   -34348   -34473   -34607   -34732 
  -34832   -34893   -34897   -34831   -34689   -34473   -34202   -33917 
  -33660   -33482   -33431   -33529   -33767   -34109   -34500   -34888 
  -35229   -35499   -35672   -35731   -35675   -35518   -35294   -35043 
  -34797   -34584   -34403   -34249   -34122   -34028   -33964   -33929 
  -33914   -33907   -33898   -33878   -33848   -33816   -33781   -33731 
  -33651   -33544   -33436   -33354   -33307   -33292   -33300   -33331 
  -33373   -33413   -33443   -33455   -33442   -33409   -33362   -33307 
  -33262   -33261   -33326   -33474   -33712   -34011   -34338   -34661 
  -34944   -35141   -35217   -35170   -35033   -34854   -34690   -34587 
  -34549   -34554   -34574   -34578   -34549   -34483   -34398   -34326 
  -34292   -34300   -34348   -34441   -34576   -34738   -34911   -35078 
  -35216   -35298   -35320   -35287   -35203   -35085   -34956   -34843 
  -34762   -34720   -34708   -34712   -34709   -34670   -34561   -34383 
  -34165   -33956   -33785   -33660   -33583   -33551   -33569   -33644 
  -33783   -33998   -34273   -34584   -34901   -35193   -35422   -35553 
  -35563   -35453   -35245   -34967   -34658   -34356   -34084   -33856 
  -33666   -33474   -33239   -32945   -32594   -32220   -31878   -31625 
  -31500   -31536   -31722   -32032   -32436   -32900   -33380   -33835 
  -34219   -34503   -34688   -34794   -34834   -34821   -34765   -34654 
  -34479   -34237   -33943   -33635   -33365   -33176   -33073   -33046 
  -33068   -33102   -33123   -33129   -33118   -33108   -33131   -33214 
  -33373   -33610   -33913   -34265   -34643   -35029   -35406   -35743 
  -36008   -36153   -36151   -36016   -35772   -35467   -35152   -34870 
  -34649   -34497   -34422   -34426   -34501   -34632   -34792   -34955 
  -35106   -35230   -35320   -35371   -35382   -35344   -35248   -35081 
  -34832   -34519   -34182   -33852   -33548   -33289   -33085   -32925 
  -32784   -32648   -32490   -32298   -32088   -31887   -31731   -31653 
  -31662   -31753   -31905   -32101   -32324   -32570   -32836   -33122 
  -33431   -33764   -34110   -34446   -34744   -34983   -35155   -35262 
  -35302   -35302   -35302   -35333   -35407   -35507   -35598   -35645 
  -35619   -35513   -35344   -35143   -34944   -34774   -34643   -34542 
  -34453   -34362   -34253   -34109   -33924   -33704   -33467   -33251 
  -33087   -32983   -32926   -32894   -32864   -32810   -32709   -32555 
  -32355   -32134   -31939   -31830   -31853   -32051   -32445   -33021 
  -33732   -34523   -35324   -36063   -36690   -37164   -37462   -37582 
  -37534   -37334   -37018   -36636   -36227   -35841   -35511   -35253 
  -35068   -34944   -34850   -34763   -34666   -34547   -34419   -34304 
  -34222   -34187   -34195   -34218   -34219   -34157   -34010   -33805 
  -33569   -33326   -33088   -32846   -32601   -32360   -32138   -31953 
  -31822   -31743   -31719   -31754   -31853   -32031   -32308   -32684 
  -33154   -33700   -34295   -34898   -35452   -35901   -36201   -36332 
  -36308   -36167   -35964   -35735   -35511   -35318   -35181   -35110 
  -35117   -35189   -35305   -35440   -35553   -35607   -35584   -35487 
  -35343   -35179   -35031   -34919   -34843   -34784   -34707   -34587 
  -34410   -34176   -33889   -33554   -33177   -32780   -32393   -32054 
  -31803   -31662   -31638   -31733   -31935   -32224   -32576   -32965 
  -33351   -33694   -33960   -34126   -34196   -34191   -34128   -34042 
  -33971   -33937   -33961   -34057   -34230   -34461   -34712   -34936 
  -35081   -35116   -35048   -34897   -34699   -34491   -34296   -34138 
  -34041   -34018   -34060   -34141   -34223   -34276   -34284   -34264 
  -34242   -34237   -34248   -34271   -34291   -34294   -34276   -34245 
  -34203   -34150   -34074   -33952   -33791   -33616   -33454   -33330 
  -33261   -33245   -33262   -33293   -33336   -33400   -33502   -33656 
  -33859   -34111   -34400   -34692   -34950   -35155   -35291   -35363 
  -35383   -35361   -35305   -35212   -35077   -34888   -34632   -34311 
  -33948   -33569   -33189   -32832   -32529   -32308   -32181   -32159 
  -32247   -32436   -32707   -33037   -33390   -33728   -34018   -34249 
  -34429   -34572   -34681   -34758   -34819   -34889   -34998   -35151 
  -35321   -35479   -35595   -35650   -35644   -35572   -35415   -35152 
  -34774   -34296   -33751   -33195   -32703   -32329   -32098   -32007 
  -32042   -32190   -32433   -32737   -33076   -33436   -33804   -34153 
  -34445   -34634   -34692   -34603   -34379   -34063   -33708   -33357 
  -33053   -32845   -32751   -32760   -32854   -33018   -33237   -33513 
  -33841   -34200   -34574   -34948   -35325   -35715   -36124   -36548 
  -36976   -37381   -37731   -37995   -38138   -38122   -37928   -37552 
  -37015   -36362   -35653   -34952   -34300   -33714   -33189   -32733 
  -32375   -32152   -32096   -32205   -32436   -32725   -33006   -33218 
  -33320   -33300   -33176   -32976   -32744   -32521   -32340   -32220 
  -32170   -32190   -32269   -32389   -32549   -32745   -32980   -33246 
  -33532   -33832   -34140   -34453   -34765   -35063   -35338   -35588 
  -35814   -36026   -36234   -36429   -36572   -36609   -36499   -36261 
  -35947   -35615   -35317   -35095   -34960   -34888   -34844   -34796 
  -34728   -34627   -34476   -34273   -34032   -33759   -33470   -33173 
  -32869   -32567   -32279   -32040   -31887   -31843   -31918   -32089 
  -32333   -32638   -32973   -33291   -33552   -33735   -33840   -33901 
  -33957   -34045   -34168   -34303   -34426   -34510   -34526   -34472 
  -34362   -34214   -34061   -33945   -33885   -33864   -33858   -33847 
  -33831   -33826   -33871   -33997   -34203   -34484   -34835   -35225 
  -35607   -35937   -36175   -36298   -36305   -36202   -35997   -35708 
  -35355   -34954   -34522   -34078   -33658   -33318   -33111   -33072 
  -33188   -33424   -33733   -34063   -34358   -34585   -34732   -34807 
  -34831   -34834   -34821   -34778   -34690   -34542   -34319   -34036 
  -33721   -33401   -33116   -32904   -32779   -32722   -32698   -32687 
  -32691   -32732   -32823   -32967   -33157   -33382   -33635   -33905 
  -34176   -34429   -34628   -34734   -34726   -34607   -34395   -34123 
  -33837   -33585   -33415   -33358   -33428   -33613   -33882   -34206 
  -34560   -34921   -35275   -35592   -35842   -36004   -36057   -35984 
  -35788   -35492   -35143   -34789   -34465   -34183   -33947   -33755 
  -33601   -33474   -33367   -33288   -33246   -33251   -33311   -33420 
  -33573   -33759   -33963   -34153   -34304   -34393   -34396   -34312 
  -34148   -33909   -33624   -33331   -33069   -32864   -32732   -32671 
  -32664   -32707   -32800   -32934   -33088   -33249   -33404   -33559 
  -33723   -33903   -34109   -34338   -34582   -34815   -35004   -35140 
  -35225   -35267   -35289   -35301   -35310   -35322   -35338   -35344 
  -35324   -35271   -35182   -35055   -34900   -34738   -34595   -34503 
  -34460   -34446   -34465   -34507   -34557   -34608   -34639   -34620 
  -34535   -34384   -34192   -34001   -33825   -33670   -33540   -33439 
  -33363   -33316   -33288   -33272   -33258   -33246   -33228   -33192 
  -33139   -33080   -33023   -32983   -32968   -32980   -33012   -33049 
  -33081   -33124   -33197   -33315   -33480   -33689   -33939   -34209 
  -34472   -34726   -34959   -35149   -35298   -35403   -35455   -35460 
  -35441   -35414   -35397   -35399   -35414   -35429   -35425   -35390 
  -35332   -35257   -35166   -35043   -34884   -34688   -34465   -34231 
  -34003   -33812   -33674   -33594   -33566   -33561   -33547   -33497 
  -33388   -33219   -33006   -32755   -32490   -32239   -32024   -31868 
  -31803   -31850   -32008   -32258   -32559   -32864   -33142   -33390 
  -33632   -33901   -34223   -34605   -35024   -35436   -35791   -36046 
  -36182   -36198   -36101   -35908   -35652   -35375   -35129   -34951 
  -34862   -34862   -34933   -35050   -35170   -35262   -35306   -35294 
  -35228   -35125   -35004   -34865   -34699   -34495   -34249   -33971 
  -33694   -33455   -33281   -33181   -33146   -33149   -33168   -33199 
  -33249   -33319   -33397   -33463   -33497   -33490   -33430   -33315 
  -33156   -32975   -32803   -32683   -32634   -32657   -32742   -32873 
  -33041   -33228   -33424   -33617   -33809   -34005   -34217   -34453 
  -34709   -34970   -35213   -35417   -35559   -35627   -35630   -35573 
  -35479   -35374   -35266   -35159   -35051   -34939   -34831   -34728 
  -34624   -34518   -34410   -34300   -34190   -34094   -34036   -34041 
  -34128   -34300   -34542   -34808   -35054   -35229   -35298   -35245 
  -35070   -34782   -34414   -34003   -33589   -33199   -32852   -32564 
  -32336   -32158   -32046   -32001   -32016   -32086   -32206   -32371 
  -32582   -32836   -33131   -33463   -33817   -34159   -34462   -34704 
  -34862   -34928   -34912   -34830   -34703   -34565   -34446   -34381 
  -34403   -34519   -34700   -34905   -35102   -35268   -35382   -35434 
  -35436   -35388   -35306   -35222   -35156   -35114   -35102   -35122 
  -35174   -35245   -35311   -35343   -35318   -35226   -35058   -34816 
  -34512   -34152   -33750   -33336   -32946   -32610   -32354   -32182 
  -32082   -32031   -32013   -32019   -32047   -32107   -32205   -32341 
  -32510   -32697   -32888   -33077   -33257   -33432   -33615   -33813 
  -34038   -34287   -34542   -34789   -35020   -35225   -35387   -35482 
  -35495   -35434   -35309   -35149   -34992   -34861   -34776   -34743 
  -34763   -34824   -34911   -35008   -35109   -35213   -35309   -35388 
  -35441   -35453   -35410   -35303   -35137   -34923   -34673   -34410 
  -34149   -33895   -33664   -33462   -33276   -33083   -32859   -32593 
  -32297   -32013   -31795   -31679   -31679   -31796   -32017   -32319 
  -32674   -33050   -33408   -33698   -33887   -33959   -33932   -33841 
  -33725   -33619   -33548   -33542   -33621   -33793   -34042   -34348 
  -34677   -35008   -35325   -35610   -35851   -36054   -36215   -36336 
  -36429   -36513   -36591   -36651   -36671   -36630   -36506   -36301 
  -36028   -35704   -35365   -35044   -34761   -34528   -34352   -34219 
  -34123   -34053   -33994   -33939   -33872   -33782   -33663   -33513 
  -33336   -33143   -32950   -32771   -32607   -32463   -32329   -32200 
  -32066   -31931   -31801   -31696   -31646   -31669   -31770   -31951 
  -32205   -32518   -32876   -33255   -33628   -33975   -34288   -34561 
  -34798   -35019   -35232   -35436   -35610   -35735   -35811   -35842 
  -35831   -35793   -35731   -35638   -35505   -35322   -35091   -34820 
