Origin Time       2024/04/02 04:24:00
Lat.              40.133
Long.             141.712
Depth. (km)       71
Mag.              6.0
Station Code      HDKH07
Station Lat.      42.1330
Station Long.     142.9164
Station Height(m) -61
Record Time       2024/04/02 04:25:13
Sampling Freq(Hz) 100Hz
Duration Time(s)  164
Dir.              1
Scale Factor      2942(gal)/8224139
Max. Acc. (gal)   1.042
Last Correction   2024/04/02 04:25:13
Memo.             
[...]
   12447    12372    12355    12361    12324    12193    12008    11855 
   11749    11657    11601    11592    11604    11620    11638    11659 
   11692    11742    11808    11881    11939    11985    12029    12079 
   12159    12231    12210    12125    12063    12037    12028    12047 
   12089    12121    12123    12093    12056    12036    12028    12031 
   12062    12110    12150    12182    12218    12240    12198    12105 
   12028    12000    11990    11965    11934    11938    11973    11981 
   11952    11948    11970    11969    11966    12016    12121    12212 
   12224    12175    12140    12172    12233    12236    12162    12089 
   12075    12108    12144    12143    12102    12062    12025    11944 
   11786    11616    11526    11510    11514    11518    11543    11591 
   11626    11624    11635    11730    11889    12020    12056    12012 
   11951    11954    12032    12113    12128    12087    12050    12059 
   12129    12218    12253    12190    12047    11892    11793    11772 
   11817    11881    11889    11838    11796    11778    11751    11728 
   11709    11669    11662    11765    11956    12182    12383    12499 
   12501    12426    12353    12307    12272    12231    12162    12066 
   11973    11917    11938    12040    12168    12272    12318    12275 
   12167    12075    12031    11997    11940    11894    11896    11911 
   11927    11986    12082    12166    12210    12221    12195    12151 
   12125    12129    12156    12193    12199    12167    12127    12097 
   12066    12010    11924    11828    11749    11668    11566    11479 
   11462    11519    11635    11815    11992    12075    12075    12048 
   12010    11983    11974    11947    11928    11978    12091    12224 
   12348    12428    12438    12406    12347    12247    12147    12091 
   12051    11986    11924    11897    11890    11893    11925    12028 
   12185    12329    12444    12544    12595    12567    12476    12360 
   12245    12143    12064    12040    12098    12236    12413    12561 
   12622    12572    12445    12293    12154    12055    12004    11978 
   11966    11966    11981    12019    12066    12091    12083    12056 
   12029    12021    12044    12098    12137    12109    12027    11963 
   11969    12020    12059    12069    12069    12062    12040    11981 
   11871    11785    11793    11850    11905    11962    11990    11969 
   11943    11942    11934    11902    11875    11881    11871    11813 
   11759    11730    11686    11664    11722    11836    11939    11975 
   11928    11842    11770    11712    11668    11666    11735    11846 
   11965    12112    12271    12367    12390    12372    12314    12228 
   12152    12118    12118    12123    12128    12118    12075    12023 
   11996    11988    11971    11974    12033    12098    12104    12051 
   11956    11862    11830    11844    11851    11863    11913    11982 
   12033    12037    11974    11886    11836    11846    11912    11982 
   11981    11907    11832    11807    11804    11797    11839    11942 
   12002    11958    11857    11784    11776    11800    11808    11766 
   11693    11658    11700    11781    11857    11920    11979    12016 
   12012    11955    11854    11788    11832    11955    12070    12150 
   12213    12263    12274    12235    12182    12158    12172    12202 
   12179    12096    12044    12082    12140    12164    12181    12191 
   12187    12202    12255    12328    12376    12364    12310    12267 
   12243    12224    12206    12182    12167    12187    12237    12285 
   12325    12345    12303    12208    12116    12058    12040    12079 
   12147    12164    12104    12021    11966    11950    11958    11955 
   11927    11898    11896    11916    11943    11981    12009    11996 
   11965    11958    11958    11956    11994    12086    12187    12266 
   12307    12276    12170    12040    11923    11847    11839    11850 
   11830    11799    11808    11851    11875    11874    11877    11886 
   11904    11950    12033    12151    12287    12395    12441    12453 
   12447    12403    12344    12276    12181    12073    11969    11885 
   11853    11847    11811    11750    11700    11653    11596    11573 
   11631    11757    11896    12002    12085    12189    12291    12324 
   12293    12240    12158    12059    11985    11975    12052    12174 
   12276    12313    12236    12085    11936    11789    11650    11585 
   11607    11676    11742    11776    11789    11799    11793    11780 
   11792    11821    11819    11797    11828    11931    12046    12128 
   12162    12106    11950    11770    11661    11662    11772    11956 
   12135    12231    12245    12240    12235    12202    12124    12012 
   11897    11813    11777    11770    11785    11869    12047    12224 
   12287    12278    12251    12175    12039    11920    11878    11890 
   11917    11956    12008    12078    12148    12185    12166    12109 
   12074    12073    12060    12021    11996    12021    12086    12145 
   12190    12231    12251    12278    12330    12356    12336    12329 
   12344    12325    12239    12128    12077    12094    12120    12108 
   12040    11935    11853    11816    11799    11789    11790    11807 
   11819    11797    11767    11767    11809    11894    11986    12035 
   12062    12128    12228    12299    12302    12260    12195    12100 
   11988    11889    11817    11796    11807    11772    11691    11620 
   11592    11628    11736    11873    11988    12070    12108    12083 
   12017    11966    11956    11970    11966    11936    11928    12005 
   12148    12268    12322    12336    12294    12164    12020    11943 
   11932    11963    12025    12087    12110    12101    12106    12155 
   12213    12218    12177    12140    12132    12162    12247    12363 
   12441    12433    12334    12197    12106    12085    12082    12063 
   12015    11938    11861    11781    11693    11646    11647    11645 
   11657    11713    11769    11824    11923    12048    12132    12123 
   12021    11890    11801    11793    11850    11943    12048    12121 
   12121    12070    12025    12033    12070    12074    12048    12036 
   12043    12073    12113    12136    12136    12102    12037    11977 
   11936    11920    11931    11967    12021    12077    12139    12218 
   12299    12363    12406    12434    12452    12471    12474    12409 
   12255    12062    11902    11821    11812    11842    11886    11969 
   12133    12334    12455    12445    12348    12232    12131    12023 
   11924    11881    11873    11877    11920    11997    12070    12106 
   12071    11966    11862    11792    11704    11578    11449    11365 
   11375    11496    11668    11805    11912    12024    12143    12266 
   12391    12509    12586    12618    12609    12517    12313    12060 
   11850    11736    11728    11789    11843    11828    11747    11635 
   11511    11419    11399    11435    11493    11558    11642    11772 
   11948    12150    12333    12468    12602    12789    12997    13201 
   13412    13559    13567    13452    13284    13088    12870    12649 
   12438    12253    12109    11983    11866    11754    11604    11400 
   11223    11121    11028    10921    10881    10926    11010    11153 
   11396    11688    11935    12102    12212    12267    12264    12213 
   12158    12170    12279    12442    12586    12676    12700    12665 
   12599    12532    12475    12402    12289    12148    11989    11784 
   11538    11299    11125    11049    11063    11118    11199    11310 
   11435    11518    11504    11412    11319    11303    11371    11488 
   11643    11863    12156    12486    12784    13014    13166    13248 
   13288    13293    13259    13200    13112    12946    12684    12368 
   12043    11751    11550    11435    11340    11241    11140    11014 
   10866    10712    10613    10644    10856    11254    11751    12228 
   12648    12989    13190    13207    13069    12888    12768    12766 
   12881    13020    13088    13074    12988    12853    12760    12775 
   12843    12843    12706    12453    12106    11673    11186    10675 
   10192     9838     9693     9767    10031    10444    10972    11553 
   12106    12580    12949    13204    13347    13393    13406    13428 
   13401    13274    13080    12869    12669    12529    12488    12498 
   12444    12279    12015    11649    11215    10795    10454    10176 
    9938     9811     9898    10234    10785    11445    12086    12637 
   13068    13358    13527    13616    13672    13717    13684    13473 
   13124    12803    12584    12411    12216    11977    11715    11458 
   11242    11092    11005    10968    10964    10956    10916    10866 
   10840    10844    10879    10997    11256    11643    12056    12415 
   12707    12912    13014    13036    12999    12914    12806    12676 
   12553    12483    12448    12374    12220    11974    11655    11311 
   10998    10774    10693    10740    10859    11013    11178    11326 
   11429    11481    11526    11607    11749    11954    12187    12425 
   12667    12876    13012    13095    13144    13130    13008    12802 
   12555    12279    11993    11738    11545    11443    11433    11481 
   11561    11626    11628    11588    11588    11711    11959    12241 
   12461    12599    12708    12810    12856    12838    12807    12768 
   12715    12715    12776    12787    12719    12644    12575    12467 
   12302    12091    11843    11568    11290    11065    10966    10975 
   11007    11033    11075    11145    11254    11395    11511    11583 
   11645    11726    11823    11961    12124    12229    12258    12243 
   12210    12217    12297    12380    12410    12414    12441    12487 
   12507    12474    12363    12163    11938    11769    11684    11668 
   11696    11743    11805    11908    12062    12245    12459    12684 
   12843    12892    12849    12730    12553    12376    12237    12127 
   12036    11954    11850    11763    11780    11913    12112    12321 
   12505    12642    12692    12633    12515    12394    12290    12217 
   12170    12147    12148    12167    12185    12212    12291    12410 
   12474    12417    12259    12000    11620    11211    10908    10743 
   10671    10654    10658    10654    10654    10702    10801    10893 
   10952    11011    11097    11234    11446    11705    11962    12191 
   12406    12594    12700    12722    12730    12746    12715    12599 
   12380    12059    11704    11384    11076    10812    10690    10685 
   10717    10820    11021    11229    11400    11557    11682    11827 
   12058    12336    12641    12981    13290    13498    13555    13444 
   13239    13012    12723    12326    11890    11499    11133    10754 
   10431    10264    10247    10319    10444    10616    10795    10918 
   11002    11144    11402    11750    12133    12483    12733    12838 
   12854    12897    12991    13084    13144    13134    13028    12877 
   12742    12657    12629    12640    12625    12533    12407    12309 
   12252    12249    12310    12421    12572    12752    12912    13005 
   13047    13081    13113    13144    13213    13327    13410    13389 
   13254    13039    12791    12563    12406    12355    12379    12451 
   12595    12798    12958    13043    13093    13131    13158    13176 
   13162    13070    12891    12664    12455    12310    12208    12067 
   11853    11587    11291    10997    10791    10693    10621    10539 
   10435    10323    10274    10353    10550    10831    11130    11377 
   11550    11673    11773    11851    11878    11823    11715    11638 
   11631    11689    11817    11996    12148    12210    12172    12051 
   11881    11731    11647    11622    11635    11695    11805    11969 
   12214    12550    12912    13219    13425    13527    13517    13393 
   13194    12985    12804    12656    12522    12352    12109    11839 
   11619    11454    11314    11194    11107    11030    10935    10827 
   10719    10648    10646    10678    10721    10773    10789    10759 
   10748    10768    10775    10782    10825    10918    11071    11272 
   11479    11661    11808    11916    11970    11969    11936    11875 
   11813    11800    11820    11854    11934    12027    12082    12100 
   12098    12100    12139    12233    12361    12475    12549    12587 
   12579    12534    12494    12455    12399    12351    12359    12475 
   12712    13030    13360    13640    13813    13845    13753    13578 
   13363    13117    12838    12565    12352    12197    12089    12036 
   12064    12186    12386    12588    12704    12703    12625    12540 
   12503    12529    12591    12644    12649    12591    12455    12268 
   12086    11901    11692    11492    11334    11213    11142    11130 
   11155    11194    11241    11313    11412    11516    11604    11658 
   11653    11601    11527    11446    11399    11438    11572    11758 
   11944    12091    12198    12272    12318    12347    12367    12402 
   12475    12537    12507    12390    12228    12028    11780    11489 
   11184    10925    10768    10708    10663    10563    10413    10288 
   10237    10258    10343    10469    10605    10759    10962    11225 
   11534    11855    12152    12379    12518    12613    12698    12748 
   12725    12625    12457    12229    11950    11661    11433    11287 
   11200    11191    11333    11638    12017    12374    12658    12868 
   13042    13211    13362    13504    13672    13903    14184    14484 
   14752    14922    14939    14802    14575    14330    14076    13779 
   13431    13055    12717    12479    12357    12321    12333    12360 
   12384    12399    12409    12440    12518    12633    12758    12864 
   12919    12918    12881    12823    12742    12626    12451    12221 
   11989    11790    11643    11566    11535    11481    11371    11234 
   11128    11102    11133    11137    11071    10947    10797    10662 
   10563    10520    10552    10644    10755    10881    11024    11171 
   11345    11561    11751    11847    11840    11754    11591    11349 
   11086    10852    10658    10505    10422    10446    10570    10719 
   10825    10895    10924    10855    10687    10492    10323    10222 
   10196    10195    10180    10176    10227    10342    10482    10616 
   10750    10908    11118    11389    11696    11979    12186    12291 
   12302    12256    12185    12123    12121    12208    12371    12590 
   12831    13050    13186    13205    13130    13030    12966    12955 
   12974    12989    12995    12974    12910    12830    12806    12852 
   12924    13004    13116    13246    13350    13398    13390    13350 
   13298    13228    13138    13065    13036    13050    13099    13174 
   13263    13331    13348    13343    13383    13468    13548    13613 
   13657    13648    13574    13467    13371    13311    13262    13200 
   13140    13084    12995    12854    12656    12367    11962    11491 
   11048    10696    10431    10211    10048     9992    10046    10173 
   10330    10453    10504    10523    10567    10654    10775    10949 
   11190    11449    11659    11819    11962    12098    12201    12263 
   12287    12239    12113    11955    11785    11603    11437    11315 
   11257    11257    11265    11253    11244    11250    11275    11333 
   11431    11551    11697    11881    12086    12298    12505    12675 
   12780    12823    12829    12814    12803    12816    12850    12892 
   12926    12933    12899    12838    12769    12698    12623    12559 
   12505    12456    12422    12415    12434    12471    12523    12580 
   12619    12629    12640    12698    12785    12849    12877    12877 
   12833    12742    12637    12529    12395    12236    12081    11936 
   11815    11735    11693    11689    11731    11811    11905    12010 
   12127    12232    12283    12271    12213    12116    11974    11777 
   11539    11287    11048    10868    10786    10825    10998    11281 
   11604    11865    11998    11997    11898    11751    11581    11411 
   11296    11273    11326    11427    11550    11672    11786    11877 
   11893    11817    11701    11608    11568    11603    11707    11853 
   12001    12090    12085    11997    11827    11585    11330    11099 
   10901    10746    10631    10536    10476    10465    10489    10524 
   10543    10543    10550    10596    10678    10786    10933    11101 
   11246    11368    11468    11549    11657    11819    11994    12158 
   12306    12432    12518    12564    12582    12599    12614    12600 
   12542    12455    12380    12363    12398    12480    12614    12769 
   12901    13008    13103    13181    13246    13275    13246    13171 
   13089    13011    12937    12879    12823    12752    12685    12675 
   12744    12862    12987    13086    13120    13059    12928    12777 
   12636    12541    12526    12575    12654    12756    12884    13011 
   13090    13107    13070    12981    12854    12721    12563    12361 
   12164    12020    11938    11912    11928    11955    12000    12071 
   12136    12166    12178    12150    12020    11809    11568    11306 
   11043    10820    10656    10551    10505    10505    10516    10536 
   10598    10704    10818    10922    11041    11176    11290    11364 
   11421    11475    11519    11549    11564    11576    11616    11697 
   11809    11961    12144    12314    12437    12486    12429    12274 
   12078    11898    11759    11659    11578    11504    11466    11483 
   11519    11547    11561    11566    11577    11627    11739    11900 
   12063    12177    12221    12205    12136    12043    11952    11861 
   11780    11755    11793    11859    11911    11913    11874    11823 
   11762    11700    11664    11665    11693    11757    11867    12020 
   12197    12370    12525    12667    12810    12947    13068    13162 
   13230    13269    13281    13271    13239    13153    13000    12803 
   12583    12322    12015    11711    11484    11372    11365    11439 
   11545    11632    11728    11884    12081    12272    12464    12671 
   12856    12970    13000    12957    12856    12704    12510    12290 
   12054    11786    11493    11229    11033    10902    10820    10782 
   10774    10766    10728    10671    10647    10698    10817    10989 
   11213    11469    11716    11935    12132    12317    12484    12638 
   12789    12934    13074    13205    13298    13327    13294    13211 
   13082    12930    12772    12617    12469    12347    12258    12204 
   12156    12079    11977    11881    11797    11713    11657    11661 
   11713    11782    11869    11974    12079    12172    12262    12367 
   12503    12667    12856    13066    13297    13527    13694    13763 
   13743    13657    13509    13315    13108    12903    12696    12498 
   12341    12264    12271    12329    12401    12465    12511    12550 
   12611    12715    12842    12950    13004    13012    13001    12981 
   12953    12920    12869    12752    12534    12231    11896    11589 
   11326    11105    10940    10822    10740    10712    10737    10804 
   10920    11088    11300    11510    11658    11715    11680    11577 
   11457    11361    11317    11318    11333    11315    11234    11103 
   10955    10802    10642    10459    10264    10098     9995     9950 
    9957    10022    10146    10319    10505    10674    10836    10987 
