Origin Time       2024/04/02 04:24:00
Lat.              40.133
Long.             141.712
Depth. (km)       71
Mag.              6.0
Station Code      HDKH04
Station Lat.      42.5126
Station Long.     142.0381
Station Height(m) -210
Record Time       2024/04/02 04:25:16
Sampling Freq(Hz) 100Hz
Duration Time(s)  152
Dir.              1
Scale Factor      2942(gal)/8224139
Max. Acc. (gal)   0.627
Last Correction   2024/04/02 04:25:17
Memo.             
[...]
   43860    43922    43964    43985    44008    44034    44034    43997 
   43937    43879    43856    43873    43919    43962    43934    43830 
   43725    43665    43649    43664    43698    43725    43734    43773 
   43854    43942    44019    44076    44105    44120    44118    44093 
   44065    44032    43977    43891    43800    43753    43765    43810 
   43850    43861    43858    43875    43896    43911    43900    43830 
   43746    43706    43692    43687    43684    43671    43648    43627 
   43626    43646    43667    43677    43695    43691    43653    43615 
   43572    43506    43471    43497    43544    43575    43591    43610 
   43640    43696    43814    43947    44015    44024    44016    44012 
   44014    44001    43953    43887    43845    43823    43772    43684 
   43625    43626    43636    43644    43691    43769    43849    43895 
   43877    43827    43783    43752    43772    43845    43893    43862 
   43787    43745    43757    43776    43769    43773    43816    43868 
   43896    43893    43854    43775    43677    43611    43602    43641 
   43683    43690    43665    43617    43579    43582    43591    43569 
   43541    43533    43529    43515    43537    43617    43691    43702 
   43673    43665    43706    43754    43771    43767    43788    43853 
   43926    43973    44022    44084    44078    43981    43892    43873 
   43875    43841    43787    43748    43717    43671    43636    43642 
   43669    43696    43730    43756    43785    43852    43946    44015 
   44039    44045    44041    44014    43977    43950    43916    43870 
   43819    43788    43792    43799    43787    43783    43776    43741 
   43703    43673    43664    43673    43690    43731    43807    43900 
   44000    44088    44145    44140    44085    44026    43984    43931 
   43846    43754    43671    43567    43471    43433    43418    43399 
   43417    43480    43533    43533    43533    43622    43802    43985 
   44103    44136    44105    44061    44045    44042    44037    44038 
   44041    44023    44007    44011    43988    43902    43800    43756 
   43757    43760    43769    43802    43825    43838    43873    43911 
   43927    43922    43862    43737    43625    43596    43644    43707 
   43734    43726    43703    43671    43633    43594    43541    43494 
   43479    43501    43575    43688    43789    43866    43915    43911 
   43884    43883    43911    43934    43900    43829    43791    43781 
   43762    43745    43715    43650    43565    43498    43459    43432 
   43425    43448    43511    43629    43787    43942    44035    44032 
   44010    44035    44039    43965    43860    43773    43746    43812 
   43941    44041    44026    43883    43691    43538    43464    43465 
   43507    43564    43638    43702    43710    43681    43694    43771 
   43860    43919    43949    43950    43953    43973    43974    43945 
   43908    43849    43779    43757    43779    43777    43733    43686 
   43676    43690    43665    43575    43448    43345    43316    43367 
   43470    43594    43700    43753    43765    43777    43815    43870 
   43907    43897    43843    43789    43750    43698    43650    43636 
   43630    43644    43708    43821    43935    43991    43953    43852 
   43750    43683    43641    43622    43636    43686    43767    43870 
   43973    44023    44008    43985    44010    44058    44093    44104 
   44086    44038    43991    43950    43892    43846    43841    43822 
   43776    43761    43780    43779    43764    43791    43854    43927 
   43987    44007    44011    44030    44039    44030    44000    43931 
   43849    43772    43681    43583    43513    43488    43515    43573 
   43633    43667    43659    43625    43596    43578    43565    43578 
   43629    43695    43772    43857    43879    43803    43707    43673 
   43696    43740    43784    43821    43812    43737    43636    43542 
   43478    43465    43510    43595    43672    43741    43835    43897 
   43893    43877    43862    43837    43812    43795    43791    43808 
   43827    43834    43816    43772    43727    43719    43729    43718 
   43708    43748    43812    43876    43930    43964    43985    44041 
   44134    44199    44197    44161    44119    44080    44041    43992 
   43910    43795    43675    43568    43492    43474    43499    43538 
   43564    43553    43498    43444    43432    43449    43478    43519 
   43569    43641    43756    43875    43942    43939    43893    43843 
   43811    43796    43785    43758    43723    43686    43650    43645 
   43676    43731    43804    43862    43876    43862    43858    43857 
   43850    43865    43891    43887    43857    43819    43776    43733 
   43679    43617    43586    43594    43602    43599    43623    43690 
   43741    43737    43699    43677    43704    43776    43858    43924 
   43945    43920    43877    43814    43760    43775    43854    43900 
   43877    43865    43885    43884    43830    43717    43572    43447 
   43356    43324    43379    43488    43576    43627    43661    43694 
   43737    43762    43752    43731    43714    43673    43637    43642 
   43676    43699    43710    43744    43803    43852    43860    43853 
   43854    43833    43772    43723    43715    43723    43715    43696 
   43703    43737    43788    43862    43945    44016    44069    44082 
   44027    43933    43831    43721    43615    43536    43497    43503 
   43522    43530    43555    43600    43630    43613    43551    43437 
   43285    43177    43187    43289    43393    43463    43519    43568 
   43588    43600    43640    43680    43694    43702    43734    43776 
   43794    43768    43707    43675    43733    43854    43964    44037 
   44105    44157    44147    44093    44051    44012    43931    43822 
   43735    43652    43532    43403    43309    43220    43100    42963 
   42862    42842    42892    42986    43136    43303    43437    43548 
   43629    43669    43702    43761    43885    44080    44294    44493 
   44645    44720    44690    44581    44450    44335    44235    44127 
   43996    43861    43738    43626    43513    43425    43379    43340 
   43302    43302    43330    43378    43444    43519    43600    43673 
   43731    43792    43848    43888    43943    43995    43970    43883 
   43792    43696    43563    43428    43353    43317    43297    43368 
   43575    43850    44082    44221    44282    44263    44173    44066 
   43965    43900    43922    44035    44221    44429    44562    44598 
   44597    44579    44518    44410    44277    44147    44041    43941 
   43827    43706    43615    43594    43606    43625    43702    43850 
   44024    44190    44331    44410    44421    44412    44427    44442 
   44421    44358    44224    44010    43753    43501    43290    43141 
   43075    43096    43159    43240    43364    43526    43680    43795 
   43853    43849    43825    43835    43908    44041    44186    44304 
   44363    44348    44311    44315    44359    44398    44394    44302 
   44126    43922    43733    43553    43376    43258    43252    43332 
   43428    43522    43613    43683    43740    43784    43783    43727 
   43636    43525    43445    43418    43421    43451    43510    43622 
   43835    44105    44329    44482    44552    44520    44444    44415 
   44448    44485    44485    44498    44545    44571    44587    44662 
   44757    44752    44594    44324    44015    43706    43372    43012 
   42699    42489    42435    42603    42955    43380    43768    44028 
   44138    44178    44228    44286    44323    44359    44462    44668 
   44899    45017    44976    44815    44544    44189    43839    43560 
   43339    43146    42971    42816    42719    42732    42849    43013 
   43214    43451    43686    43879    44012    44057    44004    43908 
   43858    43875    43903    43922    43962    43989    43950    43868 
   43803    43765    43680    43490    43247    43044    42947    42997 
   43155    43305    43401    43494    43642    43875    44096    44163 
   44069    43923    43826    43825    43880    43933    43942    43904 
   43869    43876    43872    43789    43687    43656    43676    43690 
   43694    43713    43744    43768    43816    43906    43985    44045 
   44130    44240    44343    44389    44296    44046    43718    43386 
   43105    42919    42850    42898    43046    43266    43530    43839 
   44189    44528    44794    44948    44955    44822    44621    44394 
   44162    43970    43826    43684    43541    43445    43401    43378 
   43370    43332    43220    43079    42973    42911    42869    42822 
   42763    42732    42805    43020    43337    43683    43973    44170 
   44273    44292    44251    44181    44108    44015    43850    43614 
   43353    43135    43012    42981    43017    43133    43337    43609 
   43904    44135    44208    44092    43864    43687    43672    43777 
   43908    43993    43978    43861    43680    43449    43194    42998 
   42954    43087    43362    43731    44149    44512    44713    44741 
   44648    44455    44174    43864    43572    43328    43186    43200 
   43364    43603    43823    43930    43870    43700    43515    43349 
   43206    43096    43040    43071    43151    43224    43287    43383 
   43528    43683    43772    43757    43664    43533    43368    43190 
   43078    43074    43154    43309    43528    43750    43919    44014 
   44007    43884    43717    43613    43641    43800    43999    44099 
   44058    43934    43788    43641    43497    43359    43263    43258 
   43348    43482    43590    43625    43609    43598    43650    43799 
   44018    44236    44420    44560    44631    44613    44555    44551 
   44620    44717    44844    44973    45017    44946    44795    44566 
   44232    43807    43384    43036    42755    42562    42492    42535 
   42688    42948    43249    43510    43696    43827    43926    43983 
   43972    43884    43745    43611    43548    43572    43637    43696 
   43753    43818    43857    43833    43773    43713    43673    43661 
   43603    43459    43306    43206    43151    43159    43267    43449 
   43619    43708    43737    43758    43784    43789    43775    43771 
   43775    43754    43713    43704    43749    43785    43773    43745 
   43722    43714    43703    43646    43538    43417    43335    43344 
   43503    43808    44150    44415    44560    44595    44562    44541 
   44601    44725    44815    44801    44699    44566    44402    44193 
   43943    43644    43336    43106    42981    42900    42823    42776 
   42772    42815    42913    43062    43225    43383    43540    43686 
   43773    43780    43729    43681    43708    43848    44069    44311 
   44498    44597    44601    44518    44397    44307    44257    44177 
   44043    43884    43691    43452    43197    42966    42808    42778 
   42861    43028    43281    43595    43953    44327    44637    44829 
   44882    44791    44626    44471    44356    44277    44220    44166 
   44109    44047    43985    43938    43914    43911    43926    43958 
   44024    44124    44238    44323    44319    44255    44221    44248 
   44332    44477    44641    44732    44675    44474    44194    43923 
   43692    43503    43355    43248    43183    43164    43190    43266 
   43372    43495    43632    43776    43935    44084    44153    44080 
   43869    43622    43470    43426    43422    43414    43384    43339 
   43332    43386    43455    43553    43721    43923    44116    44281 
   44420    44551    44622    44531    44232    43784    43301    42886 
   42620    42539    42643    42881    43155    43391    43569    43675 
   43729    43799    43926    44113    44361    44625    44852    45004 
   45025    44891    44663    44420    44190    43961    43744    43587 
   43518    43521    43548    43552    43542    43560    43572    43524 
   43440    43383    43364    43370    43401    43448    43498    43555 
   43634    43761    43947    44140    44223    44116    43846    43471 
   43063    42711    42493    42483    42660    42938    43272    43640 
   43993    44278    44466    44589    44703    44833    44953    44995 
   44899    44675    44377    44039    43717    43490    43384    43380 
   43429    43482    43534    43594    43617    43572    43486    43383 
   43287    43235    43225    43249    43309    43375    43455    43578 
   43713    43829    43950    44095    44288    44524    44713    44793 
   44783    44695    44551    44381    44184    43966    43752    43525 
   43274    43048    42927    42935    43032    43179    43348    43476 
   43509    43456    43351    43209    43109    43135    43282    43524 
   43818    44082    44271    44381    44450    44551    44680    44793 
   44879    44926    44914    44817    44613    44344    44069    43821 
   43611    43465    43440    43568    43806    44055    44205    44184 
   44003    43714    43389    43110    42951    42946    43070    43248 
   43410    43519    43540    43483    43448    43529    43727    43966 
   44165    44273    44254    44100    43879    43671    43486    43337 
   43259    43205    43119    43033    43011    43071    43206    43387 
   43571    43690    43703    43644    43572    43509    43478    43494 
   43515    43515    43514    43501    43434    43279    43047    42817 
   42662    42583    42564    42622    42781    43032    43340    43665 
   43941    44120    44207    44220    44192    44194    44309    44545 
   44848    45161    45409    45530    45516    45384    45149    44859 
   44544    44221    43929    43714    43596    43572    43603    43615 
   43575    43515    43470    43480    43621    43889    44197    44470 
   44635    44639    44478    44176    43789    43405    43083    42851 
   42722    42660    42610    42564    42539    42539    42589    42735 
   42974    43281    43622    43949    44201    44351    44420    44423 
   44354    44234    44111    44012    43929    43839    43730    43584 
   43425    43302    43221    43152    43108    43105    43123    43170 
   43299    43511    43737    43915    44031    44086    44108    44130 
   44162    44213    44280    44334    44355    44339    44285    44163 
   43974    43784    43652    43582    43564    43607    43726    43911 
   44127    44315    44436    44493    44489    44421    44327    44238 
   44120    43957    43794    43669    43572    43471    43336    43156 
   42957    42799    42724    42712    42709    42688    42677    42703 
   42758    42831    42900    42947    42966    42984    43050    43202 
   43397    43552    43675    43800    43924    44023    44085    44142 
   44221    44300    44358    44400    44421    44431    44437    44447 
   44491    44586    44682    44717    44647    44456    44193    43912 
   43636    43399    43279    43290    43371    43480    43600    43699 
   43757    43784    43812    43897    44058    44250    44431    44567 
   44599    44510    44340    44108    43833    43564    43371    43289 
   43317    43407    43499    43578    43637    43650    43627    43607 
   43610    43629    43638    43606    43521    43410    43312    43274 
   43336    43464    43590    43688    43757    43795    43827    43906 
   44020    44105    44122    44100    44068    44028    43965    43858 
   43764    43762    43839    43957    44100    44194    44170    44037 
   43826    43586    43362    43214    43187    43274    43461    43706 
   43934    44136    44329    44505    44660    44757    44751    44663 
   44540    44406    44286    44192    44143    44161    44224    44266 
   44235    44151    44034    43876    43699    43525    43355    43204 
   43109    43092    43143    43278    43494    43734    43929    44045 
   44104    44169    44253    44296    44274    44238    44235    44267 
   44321    44375    44393    44343    44217    44032    43834    43665 
   43502    43317    43152    43070    43054    43089    43214    43463 
   43819    44217    44531    44686    44706    44610    44413    44177 
   43933    43706    43564    43538    43602    43717    43833    43906 
   43897    43803    43671    43542    43433    43362    43351    43393 
   43471    43578    43703    43854    44042    44250    44435    44571 
   44631    44587    44470    44339    44209    44093    44042    44073 
   44126    44119    44011    43826    43621    43447    43339    43309 
   43343    43405    43470    43518    43560    43645    43802    43993 
   44138    44182    44150    44107    44084    44081    44082    44072 
   44062    44062    44047    43973    43812    43607    43413    43243 
   43143    43160    43248    43326    43356    43348    43333    43317 
   43295    43289    43321    43418    43571    43713    43785    43783 
   43726    43640    43552    43524    43580    43667    43707    43683 
   43614    43524    43436    43389    43428    43559    43744    43947 
   44132    44240    44259    44213    44101    43930    43729    43534 
   43397    43318    43260    43204    43143    43093    43085    43127 
   43222    43356    43480    43567    43614    43661    43707    43729 
   43754    43808    43884    43987    44080    44119    44127    44122 
   44099    44039    43908    43710    43509    43367    43299    43279 
   43283    43295    43289    43259    43209    43141    43096    43110 
   43177    43266    43333    43344    43297    43241    43216    43208 
   43204    43256    43391    43575    43758    43900    43977    43978 
   43904    43776    43614    43471    43403    43411    43447    43488 
   43525    43571    43677    43862    44076    44255    44370    44398 
   44336    44226    44095    43962    43858    43798    43791    43858 
   43996    44177    44365    44512    44577    44551    44454    44296 
   44124    43972    43821    43673    43561    43488    43456    43463 
   43478    43483    43490    43503    43548    43638    43742    43830 
   43881    43900    43924    43995    44118    44254    44365    44437 
   44458    44404    44285    44113    43903    43695    43544    43445 
   43362    43291    43247    43220    43193    43178    43198    43255 
   43340    43444    43551    43653    43750    43831    43881    43902 
   43923    43965    44018    44068    44091    44068    43991    43885 
   43776    43653    43526    43460    43492    43580    43676    43773 
   43869    43954    44027    44127    44277    44436    44562    44631 
   44608    44490    44286    44018    43773    43625    43522    43401 
   43258    43116    43008    42939    42880    42826    42819    42874 
   42997    43217    43528    43864    44157    44370    44486    44520 
   44501    44431    44319    44215    44138    44092    44065    44001 
   43881    43726    43540    43364    43260    43233    43260    43337 
   43441    43517    43524    43482    43459    43501    43580    43665 
   43749    43829    43911    43985    44007    43957    43868    43769 
   43677    43648    43734    43899    44073    44211    44267    44236 
   44142    44005    43875    43794    43745    43696    43633    43552 
   43480    43445    43436    43457    43534    43672    43862    44076 
   44277    44443    44544    44555    44497    44427    44366    44307 
   44230    44126    44015    43951    43934    43899    43830    43737 
   43611    43479    43393    43372    43386    43401    43424    43464 
