Origin Time       2024/04/02 04:24:00
Lat.              40.133
Long.             141.712
Depth. (km)       71
Mag.              6.0
Station Code      HDKH02
Station Lat.      42.7061
Station Long.     142.4054
Station Height(m) 120
Record Time       2024/04/02 04:25:34
Sampling Freq(Hz) 100Hz
Duration Time(s)  120
Dir.              1
Scale Factor      2940(gal)/6170270
Max. Acc. (gal)   0.478
Last Correction   2024/04/02 04:25:19
Memo.             
[...]
  117090   117134   117151   117131   117065   116990   116937   116901 
  116846   116757   116653   116573   116559   116609   116680   116761 
  116823   116848   116884   116956   117037   117111   117170   117204 
  117212   117211   117213   117197   117148   117098   117048   116970 
  116915   116929   116973   117035   117131   117239   117315   117337 
  117304   117241   117171   117118   117071   117012   116956   116903 
  116836   116795   116798   116790   116749   116684   116589   116488 
  116413   116396   116469   116579   116635   116626   116579   116546 
  116567   116618   116684   116763   116807   116790   116757   116736 
  116702   116631   116526   116397   116277   116229   116259   116318 
  116399   116497   116583   116672   116750   116762   116737   116738 
  116760   116798   116859   116914   116925   116896   116873   116857 
  116814   116768   116732   116677   116618   116586   116593   116666 
  116783   116881   116950   117020   117085   117094   117057   117047 
  117071   117087   117112   117154   117160   117088   116946   116786 
  116662   116588   116549   116511   116450   116366   116272   116204 
  116179   116159   116121   116095   116110   116168   116269   116397 
  116526   116634   116717   116788   116847   116887   116904   116898 
  116873   116814   116721   116620   116503   116390   116341   116330 
  116331   116380   116462   116522   116543   116520   116463   116417 
  116416   116456   116524   116616   116707   116762   116786   116793 
  116774   116739   116723   116728   116747   116772   116761   116695 
  116620   116551   116461   116379   116342   116328   116323   116337 
  116362   116384   116415   116473   116544   116599   116617   116607 
  116607   116639   116696   116761   116812   116844   116864   116854 
  116785   116690   116612   116548   116494   116466   116455   116441 
  116430   116432   116424   116385   116336   116317   116361   116466 
  116593   116703   116753   116729   116698   116716   116735   116722 
  116717   116731   116744   116749   116722   116658   116606   116593 
  116578   116528   116459   116387   116312   116262   116267   116304 
  116326   116312   116271   116231   116213   116220   116260   116347 
  116469   116578   116660   116743   116826   116900   116965   116998 
  116986   116967   116960   116957   116967   116966   116928   116883 
  116830   116769   116731   116711   116702   116721   116741   116740 
  116722   116701   116713   116757   116779   116773   116782   116838 
  116930   117009   117070   117129   117165   117175   117193   117219 
  117221   117184   117118   117044   116963   116877   116803   116760 
  116731   116689   116630   116575   116542   116529   116530   116560 
  116632   116731   116824   116888   116954   117037   117084   117083 
  117068   117019   116926   116840   116797   116803   116855   116936 
  117016   117070   117076   117027   116944   116846   116732   116616 
  116540   116512   116516   116559   116644   116741   116819   116873 
  116911   116934   116954   116962   116929   116892   116896   116905 
  116914   116962   117003   117005   117011   117049   117105   117140 
  117131   117112   117108   117110   117103   117064   116993   116919 
  116850   116793   116767   116778   116825   116893   116952   116997 
  117035   117051   117038   116994   116920   116846   116795   116757 
  116740   116757   116775   116770   116777   116811   116844   116847 
  116792   116670   116519   116390   116307   116282   116289   116280 
  116262   116258   116251   116235   116223   116220   116244   116316 
  116424   116531   116599   116613   116586   116540   116497   116472 
  116470   116482   116493   116488   116448   116374   116299   116251 
  116229   116250   116330   116433   116526   116617   116698   116753 
  116783   116794   116791   116794   116828   116878   116896   116873 
  116838   116823   116841   116882   116937   116997   117037   117041 
  117018   116989   116976   116981   116996   117019   117060   117127 
  117205   117289   117392   117486   117529   117521   117467   117375 
  117287   117236   117214   117235   117327   117442   117517   117554 
  117553   117481   117363   117234   117080   116910   116758   116606 
  116455   116362   116341   116343   116348   116358   116368   116389 
  116439   116504   116573   116638   116669   116657   116638   116635 
  116644   116671   116724   116779   116794   116760   116691   116601 
  116505   116406   116293   116176   116086   116037   116019   116025 
  116060   116125   116210   116301   116360   116365   116368   116414 
  116487   116573   116679   116779   116849   116892   116893   116847 
  116790   116733   116681   116657   116639   116601   116593   116648 
  116704   116720   116719   116675   116564   116467   116450   116481 
  116519   116558   116583   116593   116602   116590   116548   116487 
  116434   116428   116454   116455   116444   116470   116536   116622 
  116705   116751   116744   116704   116681   116690   116700   116695 
  116677   116658   116654   116636   116577   116496   116407   116340 
  116344   116406   116489   116592   116713   116832   116923   116975 
  117008   117029   117027   117011   116984   116957   116947   116940 
  116927   116924   116914   116894   116877   116849   116804   116771 
  116745   116701   116644   116589   116546   116536   116570   116634 
  116711   116791   116852   116862   116834   116795   116740   116676 
  116626   116594   116587   116623   116685   116737   116781   116824 
  116837   116794   116721   116665   116637   116640   116676   116707 
  116710   116705   116694   116657   116603   116552   116515   116519 
  116575   116641   116676   116677   116648   116603   116566   116545 
  116541   116548   116548   116544   116536   116508   116478   116471 
  116480   116494   116513   116534   116541   116521   116482   116441 
  116414   116417   116466   116549   116628   116692   116751   116783 
  116769   116739   116720   116690   116615   116492   116357   116259 
  116197   116161   116174   116226   116276   116321   116371   116434 
  116526   116645   116773   116876   116939   116985   117029   117079 
  117137   117173   117173   117161   117140   117095   117035   116977 
  116930   116895   116879   116874   116856   116828   116815   116820 
  116838   116876   116928   116969   117000   117049   117117   117185 
  117251   117308   117341   117343   117324   117286   117226   117155 
  117097   117048   116998   116966   116962   116966   116963   116944 
  116905   116854   116809   116782   116755   116716   116679   116653 
  116621   116578   116541   116501   116445   116408   116404   116394 
  116377   116377   116383   116396   116411   116404   116397   116402 
  116396   116377   116357   116339   116352   116412   116485   116552 
  116611   116663   116706   116717   116694   116633   116524   116395 
  116282   116194   116163   116203   116272   116347   116434   116514 
  116554   116558   116548   116528   116504   116508   116547   116590 
  116638   116713   116804   116896   116983   117060   117140   117229 
  117297   117316   117296   117258   117209   117156   117115   117085 
  117063   117056   117046   117010   116968   116935   116886   116818 
  116774   116762   116768   116794   116816   116806   116785   116775 
  116767   116765   116782   116817   116851   116875   116889   116885 
  116863   116846   116820   116777   116740   116695   116629   116581 
  116574   116595   116643   116712   116784   116854   116929   117010 
  117066   117056   116976   116860   116750   116667   116618   116601 
  116614   116647   116687   116720   116732   116724   116714   116724 
  116754   116794   116837   116882   116918   116934   116950   116993 
  117045   117091   117143   117186   117196   117186   117147   117054 
  116932   116808   116690   116608   116577   116571   116584   116617 
  116636   116625   116603   116581   116547   116496   116457   116451 
  116464   116483   116507   116542   116606   116693   116763   116801 
  116831   116854   116843   116800   116761   116732   116700   116666 
  116619   116541   116459   116407   116394   116409   116429   116434 
  116433   116428   116417   116402   116389   116387   116404   116425 
  116454   116498   116539   116570   116584   116568   116541   116530 
  116532   116545   116577   116619   116644   116642   116631   116620 
  116611   116607   116618   116664   116732   116775   116777   116760 
  116736   116706   116678   116664   116663   116669   116698   116752 
  116804   116837   116858   116865   116846   116795   116736   116686 
  116636   116604   116618   116661   116718   116785   116839   116856 
  116821   116734   116635   116551   116471   116394   116352   116359 
  116387   116412   116429   116439   116449   116481   116532   116582 
  116607   116593   116551   116507   116470   116448   116454   116478 
  116500   116525   116572   116623   116645   116663   116691   116693 
  116669   116646   116624   116604   116592   116591   116613   116673 
  116753   116824   116870   116898   116921   116936   116954   116995 
  117057   117118   117166   117191   117180   117138   117077   117002 
  116938   116909   116892   116856   116812   116786   116775   116773 
  116768   116757   116747   116737   116719   116709   116727   116762 
  116795   116828   116852   116856   116857   116865   116881   116907 
  116934   116954   116966   116970   116965   116945   116928   116941 
  116969   116997   117029   117051   117044   117014   116980   116957 
  116947   116939   116931   116917   116891   116857   116813   116759 
  116727   116726   116720   116682   116624   116564   116514   116482 
  116456   116429   116413   116421   116455   116500   116534   116558 
  116578   116590   116606   116637   116666   116683   116699   116713 
  116707   116686   116664   116642   116627   116626   116617   116588 
  116555   116530   116510   116479   116438   116404   116375   116335 
  116284   116248   116240   116256   116293   116352   116413   116471 
  116530   116585   116639   116699   116754   116800   116833   116847 
  116856   116874   116891   116901   116906   116902   116890   116850 
  116776   116714   116692   116679   116655   116635   116633   116637 
  116640   116655   116676   116700   116744   116799   116846   116891 
  116945   117003   117051   117088   117127   117171   117213   117246 
  117256   117247   117238   117231   117217   117196   117157   117092 
  117019   116947   116870   116795   116726   116676   116656   116648 
  116639   116628   116628   116652   116687   116709   116723   116740 
  116759   116791   116827   116837   116826   116812   116788   116753 
  116711   116668   116631   116591   116547   116506   116461   116431 
  116435   116455   116482   116522   116556   116580   116614   116658 
  116704   116756   116799   116814   116807   116782   116747   116722 
  116711   116686   116637   116588   116557   116551   116590   116671 
  116751   116806   116823   116788   116737   116721   116709   116669 
  116629   116606   116592   116601   116634   116677   116733   116790 
  116807   116768   116707   116660   116640   116645   116659   116675 
  116693   116705   116706   116704   116711   116726   116740   116758 
  116783   116791   116770   116741   116704   116648   116600   116589 
  116599   116606   116608   116602   116584   116565   116556   116561 
  116578   116589   116592   116610   116644   116668   116664   116641 
  116630   116631   116622   116605   116586   116562   116544   116525 
  116501   116492   116496   116507   116531   116553   116565   116570 
  116551   116501   116451   116426   116422   116447   116507   116580 
  116641   116687   116718   116743   116773   116791   116781   116738 
  116677   116634   116642   116695   116771   116850   116907   116938 
  116967   117001   117035   117078   117141   117204   117255   117307 
  117339   117335   117319   117299   117276   117270   117271   117257 
  117236   117208   117166   117112   117042   116962   116888   116831 
  116785   116749   116720   116696   116677   116665   116648   116625 
  116600   116564   116511   116452   116398   116354   116324   116296 
  116263   116236   116227   116230   116238   116244   116240   116234 
  116234   116238   116240   116236   116221   116191   116154   116123 
  116097   116076   116063   116061   116088   116143   116200   116260 
  116333   116408   116485   116576   116660   116712   116732   116734 
  116723   116710   116712   116735   116767   116807   116857   116903 
  116942   116972   116983   116988   116991   116992   117007   117043 
  117095   117141   117157   117153   117135   117089   117019   116935 
  116845   116758   116691   116648   116626   116622   116636   116656 
  116671   116690   116710   116722   116745   116778   116794   116800 
  116797   116758   116708   116669   116612   116535   116475   116435 
  116387   116324   116270   116226   116174   116118   116071   116027 
  115991   115975   115983   116020   116082   116159   116241   116325 
  116413   116497   116564   116626   116695   116757   116814   116878 
  116934   116968   116980   116975   116965   116962   116960   116958 
  116969   116998   117033   117062   117097   117146   117200   117251 
  117296   117329   117351   117375   117408   117460   117530   117597 
  117654   117701   117719   117703   117684   117674   117661   117646 
  117631   117598   117543   117476   117414   117363   117319   117283 
  117256   117245   117242   117224   117171   117087   117002   116935 
  116884   116843   116818   116810   116817   116830   116841   116842 
  116825   116778   116709   116635   116559   116492   116449   116418 
  116395   116388   116382   116365   116351   116337   116303   116254 
  116210   116183   116159   116131   116115   116117   116130   116155 
  116190   116228   116270   116319   116379   116452   116531   116597 
  116644   116688   116734   116774   116797   116801   116802   116805 
  116802   116807   116828   116841   116842   116833   116797   116739 
  116682   116622   116568   116551   116568   116595   116634   116678 
  116707   116708   116693   116682   116690   116712   116725   116715 
  116695   116672   116633   116585   116541   116502   116469   116450 
  116444   116441   116438   116437   116431   116424   116423   116421 
  116409   116390   116382   116383   116383   116397   116426   116436 
  116414   116381   116334   116275   116223   116194   116193   116220 
  116264   116302   116335   116384   116441   116494   116548   116602 
  116653   116716   116782   116842   116904   116970   117040   117115 
  117191   117255   117302   117337   117362   117364   117355   117352 
  117345   117331   117315   117288   117249   117201   117134   117073 
  117044   117039   117043   117040   117016   116976   116934   116907 
  116896   116894   116906   116921   116925   116926   116931   116918 
  116897   116886   116866   116828   116769   116680   116582   116505 
  116453   116413   116379   116352   116327   116306   116303   116317 
  116338   116362   116394   116421   116430   116417   116386   116357 
  116354   116365   116365   116361   116368   116376   116373   116369 
  116376   116397   116427   116461   116506   116569   116625   116659 
  116690   116725   116756   116778   116789   116791   116782   116766 
  116759   116773   116802   116845   116898   116932   116922   116898 
  116883   116875   116878   116895   116915   116935   116955   116966 
  116951   116917   116896   116886   116865   116850   116846   116826 
  116795   116768   116724   116659   116597   116544   116488   116448 
  116439   116445   116449   116453   116450   116436   116427   116418 
  116408   116412   116427   116446   116478   116523   116564   116602 
  116633   116643   116638   116639   116642   116646   116670   116712 
  116746   116771   116798   116814   116820   116836   116841   116830 
  116830   116839   116851   116888   116935   116976   117021   117072 
  117111   117130   117137   117131   117110   117085   117069   117055 
  117035   117017   117002   116987   116980   116975   116970   116970 
  116976   116988   117004   117013   117010   117005   116999   116992 
  116988   116985   116979   116961   116924   116872   116821   116781 
  116757   116747   116737   116709   116660   116595   116521   116459 
  116427   116423   116432   116447   116465   116474   116477   116485 
  116488   116485   116486   116483   116476   116478   116495   116516 
  116533   116540   116529   116496   116450   116405   116374   116358 
  116364   116397   116451   116512   116567   116606   116639   116679 
  116715   116738   116751   116760   116764   116763   116761   116749 
  116719   116683   116647   116613   116598   116598   116600   116604 
  116599   116566   116529   116518   116534   116555   116571   116596 
  116639   116686   116729   116761   116772   116778   116787   116794 
  116802   116808   116810   116818   116826   116820   116804   116799 
  116810   116813   116805   116799   116782   116754   116738   116733 
  116726   116719   116710   116697   116678   116647   116613   116590 
  116579   116573   116571   116577   116588   116592   116590   116582 
  116566   116553   116548   116541   116534   116539   116557   116576 
  116582   116562   116532   116516   116516   116519   116529   116543 
  116553   116552   116547   116550   116563   116583   116607   116622 
  116633   116657   116686   116713   116757   116805   116834   116852 
  116863   116865   116872   116883   116882   116877   116875   116867 
  116850   116831   116806   116779   116770   116782   116798   116832 
  116884   116935   116985   117031   117054   117064   117072   117076 
  117084   117103   117118   117115   117096   117077   117056   117027 
  117007   117003   116989   116967   116952   116922   116871   116827 
  116796   116775   116772   116773   116767   116773   116796   116815 
  116825   116847   116869   116867   116858   116847   116821   116799 
  116796   116792   116779   116768   116766   116784   116816   116827 
  116809   116781   116756   116735   116716   116707   116710   116712 
  116704   116694   116675   116650   116629   116611   116600   116599 
  116598   116582   116562   116554   116549   116533   116523   116530 
  116526   116500   116470   116426   116372   116333   116297   116247 
  116196   116158   116137   116143   116172   116221   116282   116328 
  116349   116362   116369   116374   116383   116406   116452   116504 
  116546   116591   116643   116688   116726   116766   116802   116829 
  116847   116863   116881   116909   116951   116993   117024   117053 
  117087   117125   117173   117224   117269   117311   117343   117360 
  117356   117325   117283   117251   117235   117224   117211   117208 
  117207   117188   117159   117136   117115   117093   117060   117017 
  116982   116961   116940   116917   116899   116884   116864   116842 
  116820   116789   116750   116710   116656   116581   116509   116454 
  116411   116386   116367   116342   116317   116295   116271   116247 
  116225   116203   116190   116195   116210   116235   116277   116314 
