Origin Time       2024/04/02 04:24:00
Lat.              40.133
Long.             141.712
Depth. (km)       71
Mag.              6.0
Station Code      HYMH01
Station Lat.      42.4851
Station Long.     139.9678
Station Height(m) 55
Record Time       2024/04/02 04:25:19
Sampling Freq(Hz) 100Hz
Duration Time(s)  133
Dir.              3
Scale Factor      2940(gal)/6170270
Max. Acc. (gal)   1.254
Last Correction   2024/04/02 04:25:04
Memo.             
[...]
   34942    34941    34944    34947    34945    34943    34944    34946 
   34944    34943    34944    34945    34943    34941    34943    34945 
   34946    34944    34940    34940    34945    34944    34941    34943 
   34943    34942    34944    34942    34941    34942    34943    34943 
   34944    34945    34943    34940    34942    34942    34942    34943 
   34942    34942    34942    34941    34942    34941    34941    34943 
   34943    34942    34942    34943    34943    34943    34942    34941 
   34943    34944    34944    34943    34942    34942    34943    34943 
   34942    34943    34942    34941    34941    34942    34943    34943 
   34941    34942    34944    34946    34945    34938    34936    34944 
   34947    34941    34942    34944    34942    34943    34944    34943 
   34943    34943    34942    34944    34944    34940    34940    34943 
   34942    34942    34945    34942    34941    34943    34945    34946 
   34944    34939    34941    34946    34940    34939    34946    34943 
   34941    34942    34943    34944    34943    34942    34944    34942 
   34942    34943    34941    34940    34943    34942    34941    34943 
   34945    34943    34942    34944    34944    34941    34941    34943 
   34943    34943    34944    34944    34942    34942    34943    34942 
   34942    34944    34942    34940    34942    34944    34942    34942 
   34944    34944    34943    34941    34942    34941    34939    34943 
   34945    34943    34944    34943    34940    34942    34944    34943 
   34943    34944    34944    34942    34943    34945    34946    34945 
   34941    34939    34944    34944    34941    34944    34945    34942 
   34942    34942    34943    34945    34945    34944    34943    34943 
   34944    34944    34944    34944    34944    34944    34943    34941 
   34942    34944    34944    34944    34942    34941    34943    34944 
   34942    34941    34942    34943    34944    34943    34942    34944 
   34944    34943    34942    34941    34942    34943    34943    34944 
   34944    34943    34944    34942    34941    34941    34942    34943 
   34944    34944    34944    34942    34941    34942    34943    34944 
   34942    34941    34942    34941    34941    34942    34942    34941 
   34943    34943    34943    34943    34942    34942    34943    34942 
   34941    34941    34941    34941    34942    34943    34943    34943 
   34941    34941    34942    34942    34943    34943    34942    34941 
   34942    34944    34944    34943    34943    34943    34944    34943 
   34943    34944    34944    34942    34944    34945    34942    34941 
   34942    34942    34941    34944    34944    34943    34942    34943 
   34943    34941    34941    34943    34943    34943    34945    34945 
   34942    34942    34943    34942    34943    34944    34944    34943 
   34943    34944    34944    34944    34943    34945    34945    34940 
   34938    34945    34946    34940    34941    34944    34943    34943 
   34943    34943    34943    34942    34943    34943    34941    34943 
   34946    34944    34943    34944    34944    34944    34945    34941 
   34940    34944    34944    34941    34943    34942    34941    34943 
   34943    34943    34945    34945    34944    34944    34943    34942 
   34942    34944    34944    34942    34942    34943    34943    34944 
   34943    34942    34942    34944    34945    34945    34943    34942 
   34942    34942    34944    34943    34943    34946    34946    34941 
   34937    34942    34945    34941    34941    34943    34941    34942 
   34942    34942    34941    34941    34942    34941    34941    34942 
   34942    34941    34943    34945    34945    34944    34942    34941 
   34942    34942    34941    34942    34941    34942    34943    34945 
   34946    34942    34936    34938    34944    34945    34943    34944 
   34942    34942    34944    34943    34942    34941    34941    34942 
   34943    34942    34941    34941    34942    34944    34945    34941 
   34940    34942    34942    34941    34942    34942    34943    34944 
   34943    34941    34942    34942    34942    34942    34941    34943 
   34945    34943    34941    34943    34944    34943    34943    34943 
   34943    34943    34943    34942    34943    34944    34944    34944 
   34943    34943    34944    34944    34943    34943    34944    34943 
   34944    34944    34942    34943    34944    34944    34943    34943 
   34943    34943    34942    34942    34943    34944    34943    34943 
   34945    34945    34943    34942    34943    34942    34942    34943 
   34943    34943    34943    34941    34941    34943    34943    34942 
   34942    34944    34942    34942    34943    34944    34944    34944 
   34942    34943    34944    34944    34943    34942    34944    34946 
   34944    34942    34945    34944    34942    34943    34944    34943 
   34943    34941    34941    34943    34944    34942    34942    34942 
   34943    34942    34942    34944    34946    34946    34944    34940 
   34940    34943    34943    34941    34940    34942    34943    34943 
   34944    34944    34942    34942    34943    34943    34942    34943 
   34944    34943    34940    34941    34943    34942    34941    34941 
   34941    34941    34942    34941    34939    34941    34943    34940 
   34939    34942    34944    34944    34942    34942    34942    34941 
   34940    34941    34941    34941    34942    34943    34941    34940 
   34941    34942    34942    34943    34943    34943    34944    34943 
   34943    34943    34941    34942    34944    34944    34945    34942 
   34938    34944    34949    34941    34938    34943    34944    34938 
   34936    34945    34946    34939    34943    34944    34942    34944 
   34942    34941    34944    34944    34941    34941    34944    34943 
   34941    34943    34944    34942    34941    34941    34943    34943 
   34942    34943    34942    34942    34943    34943    34944    34943 
   34942    34944    34942    34940    34943    34943    34942    34943 
   34943    34942    34942    34941    34941    34942    34942    34943 
   34942    34942    34943    34942    34941    34943    34942    34941 
   34942    34942    34943    34943    34942    34943    34944    34944 
   34942    34942    34944    34942    34940    34945    34945    34939 
   34942    34944    34941    34942    34943    34944    34945    34942 
   34941    34942    34942    34941    34942    34942    34943    34944 
   34943    34944    34944    34943    34944    34944    34942    34942 
   34944    34942    34943    34945    34944    34944    34943    34943 
   34942    34942    34944    34945    34944    34944    34944    34943 
   34944    34944    34944    34945    34943    34942    34943    34944 
   34943    34943    34943    34944    34944    34943    34944    34945 
   34944    34943    34943    34942    34941    34941    34943    34944 
   34945    34944    34944    34944    34943    34941    34943    34946 
   34944    34942    34944    34944    34942    34944    34943    34942 
   34944    34944    34943    34945    34945    34943    34943    34943 
   34942    34943    34943    34942    34943    34943    34940    34940 
   34944    34943    34940    34941    34943    34942    34942    34942 
   34941    34942    34942    34942    34943    34943    34941    34940 
   34941    34942    34942    34942    34943    34943    34942    34941 
   34942    34941    34938    34941    34942    34942    34943    34942 
   34942    34943    34942    34941    34941    34942    34942    34943 
   34942    34941    34941    34941    34941    34941    34941    34943 
   34943    34942    34941    34940    34942    34943    34942    34942 
   34942    34941    34942    34945    34946    34944    34942    34943 
   34943    34942    34943    34944    34943    34942    34942    34942 
   34942    34941    34942    34943    34943    34943    34942    34943 
   34943    34943    34943    34943    34943    34942    34942    34943 
   34943    34943    34943    34942    34942    34944    34944    34943 
   34944    34945    34945    34943    34942    34943    34944    34944 
   34944    34946    34944    34942    34944    34945    34944    34943 
   34942    34942    34944    34944    34944    34942    34942    34943 
   34944    34943    34942    34943    34942    34940    34942    34945 
   34943    34941    34943    34944    34943    34942    34941    34943 
   34944    34943    34943    34944    34943    34943    34943    34944 
   34944    34944    34944    34941    34940    34942    34942    34941 
   34942    34943    34941    34941    34943    34942    34941    34943 
   34943    34942    34945    34943    34941    34943    34944    34942 
   34941    34940    34941    34944    34943    34941    34943    34942 
   34941    34943    34944    34942    34943    34943    34942    34943 
   34943    34944    34944    34943    34941    34941    34942    34943 
   34943    34943    34941    34942    34942    34941    34944    34944 
   34942    34943    34945    34945    34944    34942    34942    34944 
   34943    34942    34943    34944    34944    34944    34943    34942 
   34944    34945    34943    34941    34944    34946    34945    34944 
   34943    34943    34944    34943    34943    34943    34944    34945 
   34944    34944    34944    34940    34941    34944    34942    34943 
   34946    34943    34941    34942    34942    34942    34943    34943 
   34943    34942    34944    34945    34943    34943    34943    34942 
   34943    34944    34945    34946    34945    34943    34943    34944 
   34944    34943    34944    34943    34944    34945    34944    34943 
   34945    34946    34945    34944    34944    34943    34943    34943 
   34943    34944    34945    34945    34943    34943    34944    34945 
   34944    34943    34944    34944    34942    34944    34947    34944 
   34940    34943    34945    34942    34942    34945    34944    34942 
   34944    34945    34946    34945    34943    34943    34943    34940 
   34940    34944    34944    34941    34940    34942    34944    34945 
   34945    34943    34942    34943    34942    34940    34941    34943 
   34943    34942    34943    34944    34942    34940    34943    34943 
   34941    34942    34942    34943    34944    34945    34944    34943 
   34943    34943    34945    34945    34944    34945    34944    34941 
   34942    34944    34943    34945    34944    34941    34942    34942 
   34942    34943    34942    34942    34942    34941    34943    34944 
   34943    34942    34943    34946    34944    34943    34943    34940 
   34941    34942    34941    34942    34943    34941    34942    34941 
   34941    34942    34943    34943    34944    34943    34943    34943 
   34943    34943    34943    34941    34941    34942    34942    34942 
   34944    34945    34943    34942    34943    34942    34943    34943 
   34941    34941    34941    34941    34941    34942    34942    34940 
   34941    34941    34941    34944    34945    34943    34942    34943 
   34944    34943    34943    34944    34943    34942    34942    34942 
   34943    34943    34943    34943    34944    34946    34945    34944 
   34944    34943    34942    34943    34943    34943    34942    34942 
   34943    34944    34945    34944    34944    34944    34944    34944 
   34944    34944    34944    34944    34944    34944    34943    34943 
   34943    34942    34943    34943    34944    34945    34942    34939 
   34941    34943    34942    34941    34942    34943    34941    34942 
   34945    34943    34942    34942    34941    34941    34942    34939 
   34941    34945    34943    34942    34943    34944    34942    34941 
   34942    34943    34941    34940    34943    34943    34942    34943 
   34945    34945    34944    34942    34942    34943    34944    34942 
   34942    34944    34943    34940    34941    34943    34941    34942 
   34945    34944    34943    34943    34941    34941    34940    34940 
   34941    34940    34938    34936    34936    34936    34936    34935 
   34932    34931    34932    34932    34928    34925    34926    34925 
   34923    34920    34919    34918    34914    34908    34906    34904 
   34898    34892    34887    34880    34874    34870    34864    34856 
   34847    34840    34834    34829    34823    34818    34815    34813 
   34813    34813    34811    34810    34813    34814    34814    34814 
   34818    34822    34827    34833    34838    34842    34846    34843 
   34835    34822    34804    34780    34756    34734    34709    34685 
   34669    34659    34653    34656    34670    34691    34720    34758 
   34798    34843    34902    34973    35049    35130    35213    35295 
   35380    35465    35545    35616    35670    35705    35719    35712 
   35686    35639    35577    35504    35427    35347    35258    35165 
   35071    34976    34879    34783    34682    34576    34475    34371 
   34267    34177    34107    34063    34053    34074    34119    34188 
   34280    34382    34483    34580    34675    34764    34838    34889 
   34928    34965    35003    35047    35102    35161    35217    35276 
   35345    35435    35554    35684    35790    35859    35914    35974 
   36049    36141    36251    36372    36503    36646    36792    36915 
   36998    37040    37044    37018    36964    36877    36760    36627 
   36486    36336    36162    35944    35675    35375    35082    34812 
   34547    34266    33967    33660    33366    33099    32862    32656 
   32489    32378    32323    32311    32326    32361    32412    32478 
   32575    32720    32909    33123    33336    33546    33767    34001 
   34236    34465    34690    34897    35071    35213    35322    35392 
   35423    35440    35478    35558    35663    35770    35859    35907 
   35899    35847    35762    35650    35520    35377    35225    35079 
   34956    34868    34824    34817    34820    34819    34811    34796 
   34787    34808    34868    34957    35054    35122    35134    35105 
   35065    35023    34999    35032    35135    35264    35344    35328 
   35224    35084    34948    34833    34736    34646    34559    34491 
   34443    34397    34349    34308    34287    34301    34350    34403 
   34442    34469    34495    34537    34616    34726    34853    34987 
   35123    35242    35310    35307    35257    35202    35163    35135 
   35112    35093    35057    34998    34931    34877    34848    34838 
   34849    34895    34965    35017    35042    35064    35108    35175 
   35252    35320    35363    35379    35382    35386    35398    35423 
   35454    35465    35443    35392    35319    35236    35177    35183 
   35254    35346    35426    35493    35540    35564    35566    35553 
   35533    35503    35463    35433    35426    35423    35402    35345 
   35247    35126    35024    34953    34889    34840    34821    34807 
   34775    34734    34678    34602    34522    34448    34400    34396 
   34419    34445    34477    34528    34594    34654    34707    34761 
   34806    34828    34839    34837    34804    34753    34726    34734 
   34743    34714    34637    34542    34459    34377    34287    34205 
   34142    34105    34106    34165    34272    34403    34560    34748 
   34934    35071    35133    35141    35152    35215    35331    35467 
   35590    35694    35771    35795    35758    35696    35635    35564 
   35494    35463    35474    35491    35484    35439    35351    35221 
   35064    34900    34734    34591    34507    34483    34494    34527 
   34582    34637    34642    34580    34489    34410    34352    34331 
   34357    34430    34546    34697    34846    34933    34934    34896 
   34867    34858    34858    34847    34817    34798    34812    34860 
   34927    35014    35144    35327    35521    35673    35764    35791 
   35769    35712    35625    35512    35391    35298    35260    35259 
   35276    35297    35303    35289    35282    35294    35316    35341 
   35374    35427    35484    35506    35466    35372    35241    35113 
   35018    34941    34856    34756    34636    34505    34370    34226 
   34079    33938    33822    33752    33716    33689    33661    33648 
   33689    33795    33944    34102    34243    34361    34471    34575 
   34663    34733    34815    34928    35055    35162    35208    35164 
   35066    34977    34931    34929    34964    35018    35084    35155 
   35223    35277    35311    35326    35336    35346    35342    35318 
   35301    35306    35320    35321    35303    35272    35238    35214 
   35204    35184    35131    35064    35012    34965    34907    34849 
   34819    34818    34829    34843    34848    34823    34776    34742 
   34748    34787    34835    34873    34897    34908    34920    34956 
   35008    35033    35014    34965    34915    34888    34881    34866 
   34831    34789    34764    34765    34778    34810    34868    34927 
   34973    35024    35075    35096    35094    35092    35097    35099 
   35085    35045    34981    34895    34813    34769    34771    34796 
   34823    34852    34880    34899    34906    34911    34935    34977 
   35020    35063    35114    35158    35180    35193    35216    35241 
   35258    35278    35304    35323    35333    35326    35290    35230 
   35160    35085    35017    34962    34932    34942    34977    35009 
   35038    35072    35098    35109    35110    35095    35065    35034 
   35019    35028    35053    35069    35070    35059    35045    35064 
   35127    35196    35242    35266    35269    35235    35162    35068 
   34962    34853    34758    34665    34565    34469    34368    34250 
   34131    34052    34025    34026    34022    34002    33994    34024 
   34089    34163    34227    34277    34323    34388    34482    34596 
   34737    34906    35078    35253    35438    35602    35716    35785 
   35820    35820    35791    35757    35728    35683    35613    35548 
   35512    35494    35466    35419    35361    35306    35271    35264 
   35265    35244    35200    35154    35112    35063    35013    34959 
   34885    34790    34685    34587    34505    34433    34365    34305 
   34263    34250    34277    34346    34443    34552    34660    34747 
   34801    34824    34828    34819    34805    34807    34837    34890 
   34958    35026    35070    35086    35103    35123    35114    35062 
   34990    34922    34870    34841    34833    34834    34841    34849 
   34863    34894    34935    34970    35004    35044    35081    35098 
   35093    35071    35044    35029    35039    35076    35131    35199 
   35281    35366    35438    35493    35523    35515    35469    35390 
   35279    35144    34997    34855    34736    34653    34611    34616 
   34661    34728    34806    34890    34969    35026    35040    35010 
   34965    34925    34886    34842    34794    34735    34658    34585 
   34541    34512    34468    34407    34345    34287    34241    34226 
   34243    34273    34303    34329    34360    34399    34437    34462 
   34482    34507    34531    34544    34566    34623    34717    34839 
   34974    35104    35206    35272    35322    35372    35411    35435 
   35473    35542    35619    35667    35676    35663    35640    35626 
   35626    35624    35601    35556    35515    35495    35480    35455 
   35414    35361    35303    35235    35166    35111    35057    34982 
