Origin Time       2024/04/02 04:24:00
Lat.              40.133
Long.             141.712
Depth. (km)       71
Mag.              6.0
Station Code      HYMH02
Station Lat.      41.9856
Station Long.     140.3087
Station Height(m) -16
Record Time       2024/04/02 04:25:12
Sampling Freq(Hz) 100Hz
Duration Time(s)  120
Dir.              3
Scale Factor      2940(gal)/6170270
Max. Acc. (gal)   0.502
Last Correction   2024/04/02 04:24:57
Memo.             
[...]
   51912    51808    51758    51717    51675    51669    51724    51807 
   51844    51823    51807    51814    51804    51767    51731    51727 
   51777    51879    51994    52062    52045    51978    51959    52031 
   52141    52207    52187    52107    52043    52014    51969    51902 
   51855    51825    51794    51793    51823    51859    51893    51892 
   51854    51848    51877    51876    51848    51829    51833    51880 
   51964    52028    52020    51960    51898    51852    51832    51820 
   51778    51719    51671    51640    51641    51653    51624    51567 
   51557    51611    51699    51816    51939    52037    52103    52134 
   52137    52113    52076    52077    52137    52234    52337    52375 
   52325    52243    52154    52080    52053    52054    52053    52015 
   51933    51885    51935    52028    52116    52184    52208    52187 
   52157    52124    52100    52100    52107    52100    52089    52103 
   52150    52178    52150    52092    52033    51989    51985    52026 
   52084    52112    52091    52058    52021    51950    51857    51791 
   51777    51792    51818    51860    51905    51937    51946    51938 
   51932    51928    51922    51932    51966    51988    51990    52003 
   52014    51995    51977    52004    52054    52084    52106    52133 
   52130    52097    52074    52087    52103    52065    51990    51937 
   51911    51879    51842    51844    51910    52007    52072    52099 
   52129    52160    52169    52151    52109    52075    52109    52199 
   52249    52194    52066    51932    51865    51892    51955    51995 
   51996    51954    51869    51762    51663    51608    51609    51641 
   51701    51796    51878    51901    51866    51793    51733    51753 
   51849    51947    51995    51981    51915    51863    51877    51929 
   51967    51974    51951    51925    51923    51923    51911    51921 
   51964    51994    51977    51935    51911    51926    51942    51941 
   51975    52080    52229    52372    52455    52465    52418    52296 
   52098    51925    51862    51879    51954    52065    52132    52123 
   52068    51981    51903    51882    51892    51906    51928    51923 
   51864    51787    51736    51733    51804    51934    52058    52136 
   52175    52195    52191    52155    52104    52068    52062    52096 
   52137    52126    52062    51995    51945    51890    51832    51802 
   51798    51804    51821    51858    51900    51917    51920    51957 
   52030    52113    52187    52214    52190    52164    52148    52126 
   52111    52117    52138    52152    52130    52080    52036    52005 
   51965    51900    51822    51761    51746    51779    51824    51861 
   51897    51910    51886    51840    51771    51673    51586    51549 
   51570    51632    51697    51739    51766    51788    51817    51863 
   51895    51890    51870    51827    51738    51645    51608    51645 
   51722    51782    51795    51797    51826    51855    51865    51900 
   51990    52097    52169    52201    52216    52232    52258    52294 
   52359    52461    52550    52591    52612    52617    52592    52543 
   52453    52337    52243    52168    52104    52065    52020    51945 
   51886    51861    51836    51798    51771    51772    51806    51853 
   51865    51846    51859    51910    51942    51942    51932    51919 
   51895    51866    51859    51876    51892    51909    51943    51969 
   51965    51938    51894    51856    51865    51941    52057    52177 
   52277    52323    52324    52341    52381    52381    52317    52240 
   52208    52212    52205    52167    52106    52048    52000    51938 
   51870    51825    51794    51762    51730    51685    51628    51573 
   51509    51468    51517    51646    51800    51932    51997    51988 
   51949    51922    51929    51972    52039    52105    52128    52096 
   52043    51996    51958    51928    51914    51930    51963    51973 
   51945    51922    51945    51998    52061    52131    52191    52210 
   52169    52098    52049    52021    52000    52014    52085    52174 
   52212    52200    52190    52202    52232    52276    52320    52356 
   52400    52439    52438    52395    52338    52274    52216    52198 
   52204    52176    52091    51958    51809    51677    51533    51356 
   51203    51136    51149    51185    51178    51128    51097    51129 
   51243    51441    51677    51880    52022    52094    52118    52140 
   52170    52192    52201    52210    52247    52312    52370    52402 
   52409    52392    52343    52255    52125    51983    51882    51842 
   51844    51875    51938    52004    52013    51956    51888    51871 
   51918    51964    51941    51865    51803    51782    51789    51829 
   51898    51958    51990    51998    51974    51933    51910    51925 
   52003    52111    52170    52175    52175    52187    52206    52222 
   52228    52234    52244    52218    52140    52056    51993    51934 
   51869    51806    51748    51683    51584    51465    51390    51407 
   51503    51628    51744    51832    51901    51957    51985    52006 
   52060    52112    52129    52143    52167    52194    52252    52370 
   52512    52604    52587    52472    52309    52112    51914    51794 
   51780    51832    51914    52001    52051    52036    51973    51919 
   51925    51985    52038    52073    52136    52222    52282    52285 
   52235    52160    52068    51955    51865    51858    51933    52029 
   52068    52033    51965    51884    51802    51750    51726    51726 
   51749    51749    51683    51589    51540    51580    51700    51836 
   51950    52047    52120    52142    52110    52070    52092    52198 
   52340    52449    52498    52486    52419    52319    52210    52104 
   52024    51986    51961    51920    51869    51798    51686    51552 
   51450    51416    51456    51556    51673    51756    51782    51784 
   51832    51958    52124    52281    52413    52526    52617    52666 
   52658    52611    52565    52548    52545    52511    52407    52254 
   52096    51926    51729    51552    51464    51466    51490    51486 
   51477    51483    51470    51415    51339    51284    51285    51335 
   51404    51500    51650    51842    52034    52218    52418    52645 
   52837    52915    52869    52752    52606    52461    52364    52332 
   52338    52354    52355    52311    52222    52117    52012    51923 
   51862    51799    51719    51652    51590    51492    51383    51332 
   51372    51462    51546    51616    51690    51751    51775    51774 
   51791    51854    51954    52047    52083    52040    51961    51922 
   51970    52080    52192    52276    52329    52334    52315    52327 
   52351    52292    52147    52020    51962    51926    51876    51834 
   51810    51786    51756    51729    51705    51680    51676    51694 
   51699    51673    51638    51619    51626    51657    51742    51927 
   52165    52328    52351    52289    52222    52174    52134    52093 
   52064    52061    52058    52004    51922    51886    51898    51896 
   51849    51777    51720    51688    51649    51583    51522    51515 
   51550    51583    51627    51709    51809    51902    51986    52049 
   52104    52175    52246    52291    52310    52311    52294    52265 
   52241    52230    52223    52229    52263    52317    52353    52335 
   52286    52270    52282    52271    52230    52179    52127    52100 
   52109    52133    52123    52045    51922    51822    51773    51754 
   51762    51812    51894    51952    51936    51869    51833    51844 
   51862    51895    51980    52102    52218    52305    52356    52364 
   52322    52251    52184    52126    52061    51991    51945    51938 
   51946    51939    51922    51912    51904    51898    51884    51851 
   51809    51765    51735    51745    51773    51784    51803    51877 
   52005    52129    52189    52192    52179    52163    52144    52132 
   52136    52163    52191    52188    52143    52060    51959    51853 
   51757    51728    51785    51862    51912    51926    51915    51896 
   51858    51782    51703    51674    51707    51774    51842    51894 
   51921    51911    51861    51796    51747    51735    51771    51826 
   51842    51810    51787    51820    51899    51983    52064    52162 
   52259    52303    52285    52252    52244    52274    52332    52411 
   52490    52523    52491    52407    52304    52238    52267    52363 
   52422    52394    52318    52231    52146    52075    52002    51930 
   51886    51859    51833    51831    51854    51875    51871    51864 
   51896    51960    52006    52023    52049    52107    52165    52184 
   52158    52090    52007    51955    51926    51896    51874    51854 
   51815    51767    51716    51656    51588    51523    51479    51464 
   51465    51466    51465    51452    51418    51392    51414    51471 
   51517    51531    51528    51521    51510    51496    51506    51579 
   51713    51851    51934    51952    51941    51926    51901    51864 
   51853    51911    52035    52175    52278    52342    52391    52413 
   52392    52364    52352    52337    52311    52274    52226    52196 
   52213    52268    52332    52379    52389    52385    52405    52436 
   52452    52455    52430    52378    52333    52320    52338    52376 
   52424    52447    52422    52376    52329    52261    52172    52097 
   52058    52043    52022    51991    51957    51897    51821    51778 
   51762    51727    51684    51656    51635    51634    51683    51766 
   51834    51881    51939    52012    52074    52105    52105    52075 
   52026    52013    52086    52204    52285    52306    52291    52275 
   52270    52255    52229    52217    52206    52172    52127    52113 
   52152    52222    52273    52283    52258    52210    52158    52119 
   52090    52072    52086    52115    52116    52055    51944    51814 
   51688    51601    51566    51559    51581    51644    51709    51742 
   51753    51749    51730    51716    51738    51791    51846    51886 
   51905    51914    51941    52008    52089    52135    52134    52115 
   52098    52077    52026    51923    51791    51691    51661    51697 
   51771    51855    51926    51975    52014    52059    52112    52150 
   52172    52209    52273    52330    52348    52335    52318    52305 
   52276    52223    52151    52072    52003    51956    51937    51942 
   51956    51974    52003    52034    52044    52028    52013    52028 
   52060    52072    52050    52000    51935    51883    51868    51875 
   51863    51786    51660    51554    51488    51429    51376    51366 
   51438    51573    51701    51780    51805    51777    51723    51684 
   51671    51681    51711    51747    51789    51844    51900    51944 
   51990    52037    52046    51999    51912    51811    51730    51681 
   51637    51604    51601    51601    51563    51507    51473    51458 
   51440    51411    51373    51336    51305    51289    51315    51383 
   51449    51487    51523    51591    51680    51764    51842    51937 
   52065    52211    52339    52422    52464    52471    52427    52344 
   52275    52261    52304    52384    52485    52594    52668    52656 
   52566    52450    52323    52183    52060    51988    51970    52001 
   52063    52118    52128    52085    52023    51980    51943    51883 
   51801    51721    51672    51663    51688    51749    51840    51928 
   51999    52058    52103    52116    52063    51944    51811    51701 
   51607    51547    51568    51668    51796    51899    51947    51957 
   51974    52004    52036    52065    52063    52016    51944    51861 
   51762    51666    51604    51606    51670    51765    51860    51943 
   52012    52053    52053    52013    51956    51922    51934    51959 
   51965    51963    51970    51977    51972    51964    51964    51984 
   52044    52160    52316    52469    52578    52602    52520    52373 
   52212    52088    52052    52097    52167    52231    52256    52212 
   52116    52010    51944    51949    51998    52055    52109    52133 
   52120    52102    52090    52059    52007    51952    51902    51892 
   51945    52025    52114    52226    52328    52371    52360    52301 
   52192    52065    51943    51833    51760    51735    51744    51773 
   51823    51904    51989    52028    52033    52051    52065    52058 
   52058    52064    52045    52000    51952    51927    51925    51903 
   51833    51752    51711    51718    51749    51780    51806    51824 
   51831    51853    51907    51968    52007    52040    52075    52101 
   52121    52142    52151    52148    52148    52141    52112    52060 
   52000    51957    51943    51945    51963    51998    52022    52011 
   51964    51900    51859    51857    51876    51904    51958    52045 
   52126    52165    52168    52148    52089    51974    51845    51767 
   51750    51768    51818    51895    51966    51996    51968    51912 
   51870    51853    51868    51926    51980    51977    51930    51869 
   51800    51736    51699    51690    51707    51747    51786    51817 
   51854    51869    51833    51787    51775    51792    51804    51797 
   51786    51795    51813    51805    51794    51833    51913    52002 
   52084    52134    52129    52076    51998    51919    51843    51757 
   51677    51650    51667    51671    51657    51664    51707    51782 
   51885    51999    52096    52166    52214    52260    52300    52310 
   52333    52431    52570    52697    52790    52855    52927    53002 
   53033    53013    52966    52882    52762    52647    52549    52463 
   52410    52373    52295    52186    52104    52058    52024    51978 
   51930    51923    51952    51974    51985    52006    52027    52040 
   52040    52028    52021    52052    52110    52154    52190    52223 
   52208    52128    52040    51986    51965    51957    51939    51899 
   51839    51773    51720    51702    51727    51770    51799    51797 
   51771    51749    51743    51736    51739    51774    51807    51779 
   51692    51599    51539    51516    51505    51506    51563    51687 
   51808    51874    51903    51947    52039    52176    52311    52408 
   52467    52507    52542    52565    52569    52577    52598    52604 
   52572    52516    52468    52438    52418    52390    52334    52231 
   52088    51929    51793    51727    51726    51739    51748    51774 
   51809    51811    51790    51787    51808    51843    51887    51921 
   51920    51882    51834    51802    51792    51816    51868    51905 
   51905    51886    51878    51885    51897    51910    51921    51918 
   51895    51861    51825    51774    51696    51605    51528    51475 
   51443    51415    51357    51264    51171    51123    51142    51214 
   51311    51413    51502    51576    51640    51699    51774    51879 
   51987    52069    52127    52162    52162    52126    52064    51996 
   51954    51951    51956    51936    51898    51860    51820    51750 
   51652    51587    51590    51635    51707    51811    51948    52095 
   52214    52290    52329    52331    52312    52307    52313    52301 
   52270    52250    52273    52327    52369    52404    52453    52482 
   52455    52399    52358    52339    52321    52279    52207    52123 
   52049    51987    51945    51933    51941    51950    51948    51945 
   51967    52015    52063    52092    52100    52081    52025    51958 
   51935    51965    52013    52053    52062    52037    51996    51933 
   51835    51730    51663    51634    51631    51650    51678    51684 
   51684    51708    51740    51756    51765    51772    51772    51772 
   51775    51789    51802    51808    51837    51875    51889    51898 
   51917    51954    52017    52074    52108    52155    52225    52286 
   52324    52353    52388    52419    52430    52429    52429    52416 
   52374    52328    52300    52272    52231    52197    52178    52150 
   52103    52050    51983    51909    51869    51895    51972    52063 
   52143    52199    52203    52157    52107    52070    52037    51997 
   51944    51898    51873    51843    51791    51744    51731    51767 
   51851    51956    52036    52062    52060    52060    52067    52075 
   52076    52057    52018    51968    51916    51866    51840    51850 
   51875    51883    51866    51806    51704    51603    51552    51581 
   51670    51782    51905    52036    52150    52225    52262    52281 
   52310    52357    52402    52419    52405    52348    52239    52118 
   52006    51897    51823    51809    51828    51853    51873    51872 
   51842    51790    51735    51714    51760    51873    52003    52082 
   52091    52039    51959    51908    51916    51969    52045    52115 
   52148    52125    52039    51915    51812    51759    51731    51719 
   51742    51796    51849    51877    51882    51880    51888    51928 
   52006    52100    52189    52243    52218    52125    52008    51887 
   51778    51702    51652    51613    51600    51627    51681    51733 
   51752    51733    51703    51691    51702    51743    51818    51892 
   51929    51958    52003    52056    52115    52192    52283    52362 
   52399    52404    52404    52378    52301    52198    52099    52002 
   51927    51918    51961    52000    52002    51987    51993    52016 
   52024    52021    52030    52056    52094    52140    52184    52212 
   52230    52249    52284    52342    52391    52394    52359    52302 
   52223    52140    52073    52022    51975    51903    51785    51641 
   51523    51458    51429    51416    51430    51462    51499    51543 
   51573    51575    51595    51672    51771    51829    51837    51847 
   51890    51936    51966    52005    52057    52097    52099    52074 
   52059    52062    52074    52074    52035    51980    51951    51937 
   51919    51913    51932    51950    51919    51832    51741    51697 
   51697    51722    51757    51812    51895    51982    52062    52164 
   52305    52443    52532    52590    52651    52706    52722    52700 
   52678    52670    52639    52563    52483    52426    52362    52284 
   52202    52104    52011    51947    51876    51775    51684    51626 
   51585    51548    51542    51581    51618    51624    51625    51639 
   51677    51746    51830    51918    52008    52086    52144    52189 
   52210    52204    52188    52175    52175    52171    52107    51965 
   51810    51691    51597    51525    51492    51487    51478    51453 
   51442    51476    51540    51592    51622    51656    51704    51751 
   51792    51835    51886    51942    51993    52038    52079    52103 
   52114    52149    52229    52318    52364    52346    52285    52210 
   52129    52044    51967    51905    51866    51849    51845    51861 
   51898    51934    51970    52044    52149    52237    52285    52306 
   52310    52291    52247    52204    52206    52259    52320    52354 
   52352    52322    52273    52213    52142    52057    51963    51878 
   51814    51767    51742    51740    51742    51734    51713    51680 
   51667    51691    51731    51790    51882    51961    51972    51919 
   51854    51818    51814    51822    51822    51809    51791    51768 
   51728    51683    51656    51656    51664    51667    51677    51704 
   51746    51791    51828    51852    51851    51830    51831    51876 
   51936    51975    51973    51926    51868    51846    51873    51934 
