Origin Time       2024/04/02 04:24:00
Lat.              40.133
Long.             141.712
Depth. (km)       71
Mag.              6.0
Station Code      HYMH02
Station Lat.      41.9856
Station Long.     140.3087
Station Height(m) 85
Record Time       2024/04/02 04:25:12
Sampling Freq(Hz) 100Hz
Duration Time(s)  120
Dir.              6
Scale Factor      3920(gal)/6170801
Max. Acc. (gal)   0.804
Last Correction   2024/04/02 04:24:57
Memo.             
[...]
    8975     9246     9231     9083     9005     8802     8390     8126 
    8200     8315     8289     8249     8384     8777     9133     9127 
    8897     8710     8807     9079     9007     8793     8987     9271 
    9363     9466     9510     9395     9222     9079     9093     9247 
    9338     9346     9284     9127     9030     8991     8829     8616 
    8517     8561     8678     8795     8881     8876     8834     8893 
    8999     9100     9250     9412     9556     9631     9533     9324 
    9147     9074     9092     9043     8867     8652     8476     8520 
    8697     8667     8605     8699     8698     8645     8643     8515 
    8387     8566     8904     9007     9047     9360     9487     9102 
    8740     8746     8944     9070     9000     8953     9026     9048 
    9041     9003     8905     8927     8996     8905     8808     8819 
    8852     8853     8797     8776     8870     8951     8885     8679 
    8574     8838     9255     9346     9124     9059     9246     9272 
    9063     8934     8999     9152     9120     8826     8728     8984 
    9172     9138     8936     8709     8795     8982     8845     8641 
    8504     8283     8215     8319     8441     8722     8935     8817 
    8663     8658     8743     8895     9055     9203     9261     9157 
    9090     9177     9256     9366     9561     9555     9375     9234 
    8974     8706     8728     8777     8705     8736     8776     8764 
    8838     8777     8503     8491     8872     9193     9235     9185 
    9194     9234     9242     9274     9387     9509     9603     9590 
    9423     9313     9241     8947     8595     8428     8375     8419 
    8474     8365     8305     8363     8206     8065     8295     8465 
    8381     8424     8563     8641     8811     9041     9235     9443 
    9615     9775     9956     9990     9959    10041     9988     9656 
    9258     8948     8744     8507     8171     8017     8051     7995 
    8046     8295     8388     8443     8710     8843     8722     8668 
    8671     8644     8798     9094     9251     9287     9354     9489 
    9713     9869     9746     9512     9379     9227     8966     8730 
    8535     8288     8115     8118     8102     8061     8210     8410 
    8447     8518     8771     8985     9002     8917     8807     8743 
    8913     9257     9442     9395     9312     9263     9182     9126 
    9145     9101     9001     9019     9078     9032     8952     8880 
    8705     8487     8461     8588     8687     8793     8897     8943 
    9051     9225     9343     9406     9416     9361     9285     9182 
    9076     9081     9057     8805     8586     8596     8614     8623 
    8786     9038     9224     9316     9384     9464     9530     9555 
    9515     9404     9224     9061     9065     9159     9071     8855 
    8782     8765     8630     8545     8518     8283     7985     7953 
    8028     7992     8116     8545     8903     8968     8889     8808 
    8858     9073     9249     9297     9305     9248     9111     9053 
    9108     9087     8958     8934     9060     9172     9190     9108 
    8948     8861     8843     8631     8313     8220     8221     8170 
    8287     8503     8576     8641     8810     8956     9045     9141 
    9258     9364     9459     9569     9632     9617     9648     9758 
    9837     9830     9691     9406     9140     8985     8760     8436 
    8282     8329     8364     8365     8366     8299     8271     8432 
    8618     8689     8805     8965     9025     9134     9330     9293 
    9053     8973     9035     9068     9158     9286     9310     9302 
    9327     9329     9342     9319     9108     8832     8785     8884 
    8830     8689     8621     8502     8368     8430     8546     8526 
    8527     8631     8700     8715     8764     8883     9022     9089 
    9101     9109     9034     8885     8840     8926     8982     8951 
    8925     8963     9046     9140     9166     9029     8793     8645 
    8639     8671     8691     8745     8812     8818     8747     8684 
    8703     8763     8839     8935     8943     8838     8781     8823 
    8868     8885     8927     8981     8994     9019     9084     9122 
    9131     9127     9144     9194     9190     9175     9191     9143 
    9053     8972     8882     8810     8801     8886     9006     9066 
    9090     9091     9064     9077     9114     9087     9015     8961 
    8889     8789     8745     8748     8759     8852     9000     9047 
    9007     8971     8923     8907     9002     9086     9014     8866 
    8763     8712     8698     8706     8687     8704     8828     8933 
    8990     9103     9146     9076     9067     9058     8945     8835 
    8774     8690     8563     8458     8433     8442     8431     8444 
    8541     8671     8760     8836     8889     8908     8983     9047 
    8999     9000     9114     9205     9236     9189     9106     9121 
    9174     9171     9180     9188     9146     9127     9117     9031 
    8954     8993     9039     9026     9075     9170     9198     9144 
    9010     8874     8865     8884     8746     8564     8506     8496 
    8512     8625     8740     8804     8934     9112     9197     9178 
    9081     8965     8970     9068     9123     9153     9200     9203 
    9176     9236     9352     9388     9340     9236     9051     8811 
    8586     8439     8323     8171     8057     8062     8166     8317 
    8520     8770     8938     8996     9054     9054     8931     8805 
    8759     8802     8916     8983     8946     8923     9025     9218 
    9405     9506     9489     9407     9364     9396     9401     9282 
    9114     9020     8983     8958     8945     8889     8791     8768 
    8812     8804     8735     8704     8708     8647     8510     8360 
    8247     8265     8447     8672     8859     9026     9197     9327 
    9355     9333     9362     9433     9502     9526     9449     9277 
    9082     8933     8850     8772     8660     8538     8428     8367 
    8391     8483     8617     8739     8757     8643     8475     8377 
    8406     8457     8430     8405     8482     8631     8786     8936 
    9039     8989     8866     8950     9277     9590     9736     9738 
    9654     9529     9358     9204     9214     9305     9239     9077 
    9022     9033     9015     9014     9044     9007     8902     8876 
    8992     9118     9129     9069     9028     8980     8921     8965 
    9100     9147     9076     9020     8990     8932     8872     8804 
    8725     8682     8629     8508     8427     8483     8630     8811 
    8945     8969     8966     9010     9038     9020     8992     8936 
    8839     8788     8826     8849     8808     8746     8654     8587 
    8645     8770     8843     8828     8723     8579     8462     8339 
    8221     8233     8387     8559     8693     8837     9021     9166 
    9214     9263     9368     9431     9440     9479     9498     9411 
    9269     9158     9104     9082     9049     9012     8995     8928 
    8765     8621     8600     8635     8577     8453     8456     8624 
    8804     8977     9211     9390     9419     9456     9595     9724 
    9776     9753     9639     9488     9372     9278     9174     9079 
    9016     8965     8889     8784     8671     8560     8457     8365 
    8242     8069     7951     8004     8171     8328     8492     8713 
    8931     9109     9271     9379     9422     9450     9477     9495 
    9475     9361     9166     9006     8973     9004     8982     8901 
    8796     8663     8564     8576     8626     8614     8554     8498 
    8499     8592     8731     8873     9003     9054     9036     9058 
    9084     9010     8892     8797     8712     8684     8743     8772 
    8712     8667     8667     8662     8674     8698     8665     8619 
    8652     8748     8821     8806     8712     8643     8694     8838 
    9009     9150     9209     9209     9212     9221     9182     9078 
    8994     9013     9089     9157     9198     9187     9143     9105 
    9071     9058     9081     9056     8928     8780     8695     8688 
    8750     8826     8872     8906     8953     9021     9111     9210 
    9298     9365     9410     9408     9379     9396     9391     9232 
    9000     8855     8786     8745     8757     8789     8753     8648 
    8555     8513     8495     8490     8528     8613     8670     8679 
    8758     8946     9113     9167     9139     9073     8995     8995 
    9125     9240     9168     8975     8862     8835     8780     8751 
    8824     8878     8840     8855     8988     9054     8948     8828 
    8833     8886     8875     8852     8901     8935     8878     8858 
    8960     9068     9128     9197     9240     9227     9240     9316 
    9380     9340     9215     9142     9179     9213     9126     8939 
    8749     8622     8580     8611     8638     8603     8532     8459 
    8383     8319     8333     8445     8574     8667     8744     8803 
    8854     8924     8981     9000     9026     9055     9045     9026 
    8990     8877     8781     8857     9002     9027     8987     8965 
    8914     8882     8890     8837     8749     8762     8848     8884 
    8863     8873     8922     8929     8892     8938     9128     9378 
    9605     9747     9728     9563     9322     9019     8740     8637 
    8653     8609     8593     8716     8787     8715     8662     8636 
    8566     8567     8686     8767     8770     8779     8794     8804 
    8867     9003     9203     9432     9586     9616     9626     9661 
    9611     9426     9202     8987     8777     8631     8550     8444 
    8348     8359     8416     8464     8592     8764     8831     8831 
    8894     8993     9023     9018     9089     9196     9244     9270 
    9278     9187     9055     9005     8996     8952     8911     8905 
    8908     8931     8994     9050     9050     9003     8944     8912 
    8881     8778     8651     8599     8571     8518     8500     8508 
    8492     8475     8450     8389     8358     8441     8595     8693 
    8701     8713     8807     8980     9185     9319     9303     9200 
    9114     9025     8902     8834     8851     8829     8726     8666 
    8725     8844     8940     8993     9044     9122     9193     9219 
    9221     9216     9201     9198     9222     9261     9333     9425 
    9452     9396     9321     9245     9167     9084     8947     8787 
    8687     8621     8559     8524     8500     8508     8622     8765 
    8789     8759     8826     8945     9014     9047     9054     9029 
    9019     9031     9017     8971     8919     8864     8801     8751 
    8717     8675     8678     8772     8853     8853     8849     8861 
    8847     8893     9070     9248     9333     9390     9418     9390 
    9396     9471     9495     9375     9192     9076     9011     8930 
    8834     8710     8554     8460     8454     8453     8464     8534 
    8587     8588     8607     8619     8551     8481     8515     8642 
    8817     9011     9151     9194     9214     9248     9219     9127 
    9087     9118     9137     9126     9112     9095     9085     9053 
    8953     8861     8861     8867     8795     8694     8646     8669 
    8751     8857     8904     8848     8763     8725     8739     8801 
    8899     9015     9149     9313     9454     9481     9459     9537 
    9663     9699     9665     9633     9565     9459     9374     9254 
    9026     8785     8606     8460     8414     8503     8528     8384 
    8231     8173     8162     8155     8132     8105     8110     8175 
    8310     8437     8484     8531     8667     8868     9118     9416 
    9656     9731     9679     9588     9518     9478     9397     9216 
    9013     8897     8862     8860     8888     8953     9023     9035 
    8962     8832     8667     8530     8490     8499     8493     8515 
    8611     8720     8775     8808     8906     9066     9170     9154 
    9064     8956     8900     8950     9067     9137     9116     9094 
    9144     9196     9180     9145     9136     9136     9135     9100 
    8991     8869     8838     8868     8854     8820     8848     8897 
    8863     8728     8597     8528     8459     8389     8385     8423 
    8424     8369     8306     8294     8408     8662     8955     9188 
    9312     9344     9399     9518     9609     9632     9570     9394 
    9192     9071     9013     9017     9145     9327     9381     9248 
    9011     8756     8522     8347     8282     8331     8414     8521 
    8744     9026     9188     9256     9376     9546     9682     9706 
    9577     9390     9278     9197     9058     8926     8851     8732 
    8540     8395     8358     8407     8520     8574     8488     8400 
    8392     8393     8417     8516     8645     8809     9016     9119 
    9063     9057     9220     9408     9508     9556     9569     9530 
    9451     9340     9181     9002     8880     8853     8832     8729 
    8621     8587     8599     8648     8728     8779     8787     8782 
    8753     8717     8721     8735     8697     8669     8750     8916 
    9090     9253     9383     9428     9406     9400     9438     9455 
    9384     9275     9195     9116     9013     8945     8919     8908 
    8964     9121     9266     9259     9124     8979     8816     8539 
    8206     8010     7977     7946     7870     7859     7970     8150 
    8352     8590     8839     9016     9126     9228     9294     9321 
    9387     9486     9556     9651     9883    10141    10186    10011 
    9774     9528     9264     9006     8753     8474     8199     8029 
    7989     7994     8047     8211     8429     8620     8761     8803 
    8773     8788     8832     8809     8797     8905     9052     9112 
    9096     9052     8995     8946     8932     8970     9072     9180 
    9201     9107     8958     8865     8899     9027     9164     9246 
    9273     9303     9348     9357     9361     9400     9306     8954 
    8575     8390     8243     7991     7815     7830     7894     7974 
    8198     8520     8757     8917     9135     9320     9330     9286 
    9292     9236     9079     8981     9040     9167     9269     9339 
    9382     9411     9435     9402     9263     9051     8852     8695 
    8521     8334     8244     8280     8336     8342     8349     8415 
    8506     8576     8601     8569     8525     8526     8565     8623 
    8685     8717     8749     8869     9099     9371     9608     9767 
    9839     9845     9797     9697     9577     9471     9336     9130 
    8936     8835     8824     8881     8950     8970     8977     9022 
    9062     9067     9048     8973     8850     8776     8771     8727 
    8601     8483     8475     8599     8750     8854     9001     9204 
    9337     9355     9299     9235     9217     9191     9126     9118 
    9188     9241     9290     9398     9475     9428     9307     9150 
    8922     8641     8387     8215     8092     7950     7810     7777 
    7894     8128     8473     8858     9125     9252     9343     9413 
    9421     9358     9212     9035     8974     9089     9234     9243 
    9144     9049     8975     8895     8803     8739     8749     8808 
    8871     8922     8946     8980     9048     9075     9049     9028 
    8995     8928     8886     8897     8942     8980     8920     8755 
    8654     8719     8832     8880     8876     8831     8731     8623 
    8553     8502     8484     8553     8658     8683     8635     8628 
    8699     8824     8985     9124     9218     9338     9456     9505 
    9558     9650     9670     9590     9533     9557     9581     9539 
    9420     9236     9061     9003     9062     9083     8963     8789 
    8648     8534     8521     8613     8650     8614     8636     8727 
    8825     8936     9040     9075     9065     9090     9131     9124 
    9072     9037     9079     9136     9101     8994     8875     8743 
    8633     8570     8483     8374     8333     8345     8356     8386 
    8436     8475     8499     8535     8579     8600     8587     8558 
    8535     8543     8602     8715     8841     8923     8977     9049 
    9102     9064     8939     8803     8726     8727     8752     8713 
    8601     8512     8561     8712     8810     8819     8859     8976 
    9093     9163     9205     9235     9235     9205     9197     9228 
    9247     9242     9219     9159     9121     9213     9418     9608 
    9733     9772     9714     9670     9701     9646     9419     9160 
    8970     8812     8687     8667     8738     8830     8937     9029 
    9044     9011     8995     8987     8935     8829     8704     8598 
    8536     8536     8535     8503     8568     8773     8944     9015 
    9068     9051     8937     8914     9052     9140     9106     9120 
    9208     9266     9319     9419     9462     9351     9194     9163 
    9216     9181     9044     8905     8809     8767     8770     8794 
    8826     8848     8841     8847     8931     9065     9158     9188 
    9150     9012     8819     8672     8590     8521     8464     8469 
    8544     8617     8636     8628     8611     8560     8522     8579 
    8694     8810     8973     9138     9171     9130     9176     9257 
    9245     9193     9158     9068     8926     8830     8777     8710 
    8686     8743     8765     8702     8695     8804     8917     8979 
    9026     9035     8999     9011     9108     9199     9214     9188 
    9168     9160     9159     9141     9066     8972     8935     8930 
    8891     8825     8795     8851     8968     9057     9056     9012 
    9030     9110     9161     9149     9103     9045     9014     9035 
    9041     8969     8864     8810     8846     8925     8957     8910 
    8816     8720     8666     8709     8829     8880     8779     8634 
    8582     8607     8599     8519     8435     8437     8541     8685 
    8815     8881     8830     8735     8749     8864     8939     8939 
    8896     8792     8669     8634     8656     8646     8638     8631 
    8548     8441     8398     8416     8485     8556     8549     8536 
    8604     8662     8690     8795     8919     8944     8928     8926 
    8874     8777     8712     8672     8615     8572     8554     8551 
    8591     8631     8590     8527     8571     8740     8953     9157 
    9318     9387     9390     9397     9373     9297     9265     9292 
    9311     9351     9480     9625     9673     9654     9642     9596 
    9447     9259     9119     8993     8859     8769     8700     8590 
    8483     8463     8504     8528     8530     8542     8555     8577 
    8650     8749     8822     8863     8883     8888     8909     8955 
    9004     9010     8918     8773     8686     8677     8708     8783 
    8884     8952     8985     9006     9030     9093     9166     9156 
    9056     8918     8748     8585     8491     8426     8342     8279 
    8285     8405     8652     8901     9024     9047     9031     8984 
    8971     9025     9055     9045     9058     9061     9037     9066 
    9141     9171     9173     9193     9189     9157     9184     9287 
    9366     9370     9301     9153     8986     8888     8867     8917 
    9018     9105     9181     9271     9304     9231     9109     8998 
    8917     8887     8915     8976     9028     9041     9039     9047 
