Origin Time       2024/04/02 04:24:00
Lat.              40.133
Long.             141.712
Depth. (km)       71
Mag.              6.0
Station Code      HYMH03
Station Lat.      42.1344
Station Long.     140.0040
Station Height(m) 70
Record Time       2024/04/02 04:25:15
Sampling Freq(Hz) 100Hz
Duration Time(s)  120
Dir.              5
Scale Factor      7845(gal)/8223790
Max. Acc. (gal)   0.838
Last Correction   2024/04/02 04:25:15
Memo.             
[...]
   -9744    -9737    -9726    -9707    -9675    -9628    -9602    -9620 
   -9678    -9769    -9864    -9919    -9918    -9882    -9841    -9823 
   -9836    -9860    -9864    -9833    -9776    -9717    -9672    -9652 
   -9651    -9660    -9684    -9725    -9771    -9817    -9856    -9875 
   -9871    -9856    -9845    -9848    -9861    -9882    -9902    -9913 
   -9913    -9899    -9873    -9842    -9822    -9819    -9826    -9828 
   -9807    -9757    -9679    -9591    -9522    -9497    -9528    -9605 
   -9706    -9803    -9884    -9946    -9991   -10017   -10014    -9977 
   -9931    -9900    -9888    -9880    -9855    -9805    -9748    -9713 
   -9717    -9740    -9744    -9720    -9684    -9678    -9713    -9760 
   -9780    -9774    -9768    -9790    -9849    -9926    -9976    -9981 
   -9944    -9876    -9807    -9764    -9756    -9772    -9795    -9815 
   -9815    -9787    -9734    -9675    -9643    -9653    -9679    -9695 
   -9695    -9680    -9661    -9661    -9687    -9734    -9776    -9783 
   -9761    -9726    -9695    -9694    -9725    -9772    -9818    -9857 
   -9882    -9890    -9884    -9876    -9872    -9868    -9841    -9779 
   -9691    -9621    -9614    -9687    -9810    -9923    -9980    -9963 
   -9892    -9817    -9765    -9737    -9726    -9732    -9744    -9747 
   -9741    -9740    -9747    -9761    -9779    -9783    -9782    -9791 
   -9823    -9880    -9934    -9967    -9968    -9927    -9853    -9779 
   -9728    -9713    -9730    -9756    -9761    -9749    -9744    -9763 
   -9805    -9861    -9913    -9910    -9841    -9733    -9624    -9549 
   -9540    -9595    -9690    -9782    -9840    -9852    -9803    -9701 
   -9587    -9513    -9509    -9579    -9691    -9794    -9848    -9842 
   -9791    -9722    -9666    -9643    -9657    -9707    -9783    -9848 
   -9863    -9837    -9799    -9778    -9791    -9838    -9903    -9969 
  -10017   -10019    -9969    -9883    -9788    -9713    -9674    -9684 
   -9740    -9811    -9876    -9921    -9934    -9907    -9844    -9761 
   -9686    -9641    -9648    -9703    -9802    -9915    -9994   -10010 
   -9969    -9903    -9857    -9864    -9914    -9969    -9999    -9988 
   -9956    -9936    -9944    -9969    -9981    -9954    -9890    -9796 
   -9695    -9620    -9586    -9594    -9641    -9702    -9747    -9756 
   -9747    -9734    -9726    -9722    -9714    -9703    -9697    -9701 
   -9715    -9730    -9734    -9725    -9710    -9702    -9709    -9724 
   -9742    -9759    -9771    -9784    -9806    -9842    -9900    -9968 
  -10018   -10027    -9979    -9872    -9730    -9607    -9563    -9617 
   -9733    -9844    -9900    -9886    -9801    -9691    -9610    -9578 
   -9603    -9682    -9782    -9876    -9942    -9969    -9969    -9954 
   -9936    -9918    -9892    -9850    -9805    -9772    -9767    -9784 
   -9810    -9837    -9855    -9855    -9834    -9795    -9734    -9666 
   -9622    -9628    -9695    -9811    -9941   -10041   -10079   -10042 
   -9950    -9845    -9772    -9748    -9771    -9828    -9898    -9957 
   -9981    -9950    -9864    -9744    -9622    -9521    -9445    -9394 
   -9358    -9336    -9339    -9375    -9432    -9497    -9562    -9618 
   -9672    -9720    -9749    -9761    -9768    -9782    -9805    -9838 
   -9876    -9898    -9886    -9859    -9842    -9837    -9828    -9798 
   -9737    -9649    -9574    -9567    -9634    -9734    -9822    -9855 
   -9828    -9783    -9761    -9787    -9850    -9915    -9953    -9956 
   -9910    -9833    -9760    -9718    -9707    -9725    -9752    -9767 
   -9771    -9778    -9801    -9846    -9894    -9921    -9929    -9921 
   -9898    -9873    -9856    -9842    -9828    -9823    -9823    -9803 
   -9755    -9690    -9609    -9522    -9460    -9435    -9444    -9487 
   -9543    -9582    -9594    -9574    -9529    -9485    -9475    -9516 
   -9597    -9691    -9763    -9794    -9796    -9791    -9799    -9828 
   -9868    -9906    -9923    -9927    -9931    -9948    -9990   -10044 
  -10087   -10114   -10108   -10057    -9967    -9852    -9736    -9657 
   -9641    -9695    -9798    -9910    -9987   -10008    -9975    -9899 
   -9801    -9705    -9637    -9606    -9612    -9649    -9705    -9745 
   -9759    -9771    -9796    -9837    -9894    -9945    -9965    -9942 
   -9887    -9838    -9815    -9817    -9837    -9869    -9910    -9948 
   -9975    -9987    -9977    -9956    -9940    -9930    -9922    -9911 
   -9902    -9891    -9877    -9856    -9832    -9823    -9829    -9838 
   -9860    -9899    -9936    -9961    -9996   -10046   -10095   -10118 
  -10106   -10064   -10019   -10008   -10042   -10116   -10201   -10260 
  -10277   -10247   -10166   -10050    -9931    -9833    -9784    -9791 
   -9823    -9855    -9868    -9863    -9845    -9822    -9787    -9730 
   -9657    -9580    -9510    -9455    -9420    -9408    -9423    -9464 
   -9543    -9653    -9778    -9886    -9948    -9940    -9853    -9717 
   -9585    -9502    -9485    -9517    -9562    -9594    -9621    -9655 
   -9709    -9787    -9871    -9930    -9940    -9890    -9803    -9718 
   -9651    -9599    -9558    -9510    -9459    -9428    -9436    -9482 
   -9559    -9632    -9670    -9668    -9651    -9644    -9659    -9697 
   -9749    -9790    -9802    -9801    -9815    -9859    -9922    -9983 
  -10030   -10066   -10073   -10029    -9934    -9802    -9652    -9518 
   -9433    -9418    -9478    -9593    -9733    -9859    -9926    -9917 
   -9844    -9734    -9616    -9517    -9467    -9471    -9516    -9594 
   -9699    -9806    -9888    -9942    -9960    -9934    -9867    -9769 
   -9664    -9583    -9541    -9537    -9568    -9639    -9738    -9846 
   -9938    -9983    -9948    -9849    -9740    -9664    -9656    -9709 
   -9791    -9869    -9913    -9909    -9877    -9842    -9823    -9828 
   -9845    -9859    -9848    -9811    -9776    -9756    -9738    -9706 
   -9651    -9580    -9522    -9502    -9562    -9702    -9875   -10034 
  -10139   -10147   -10056    -9914    -9788    -9730    -9749    -9802 
   -9833    -9832    -9830    -9875    -9981   -10108   -10197   -10200 
  -10102    -9936    -9767    -9652    -9614    -9640    -9709    -9796 
   -9882    -9936    -9931    -9871    -9790    -9730    -9741    -9837 
   -9972   -10079   -10114   -10064    -9948    -9806    -9682    -9598 
   -9556    -9549    -9567    -9594    -9636    -9693    -9761    -9832 
   -9887    -9915    -9913    -9877    -9811    -9740    -9693    -9679 
   -9676    -9656    -9607    -9541    -9497    -9520    -9606    -9713 
   -9783    -9779    -9703    -9614    -9585    -9643    -9760    -9877 
   -9931    -9879    -9721    -9510    -9315    -9211    -9247    -9414 
   -9649    -9863    -9973    -9965    -9896    -9844    -9850    -9927 
  -10034   -10111   -10104   -10008    -9857    -9705    -9606    -9595 
   -9660    -9780    -9929   -10075   -10185   -10242   -10228   -10150 
  -10031    -9894    -9752    -9636    -9560    -9536    -9562    -9613 
   -9659    -9678    -9667    -9628    -9591    -9602    -9703    -9895 
  -10118   -10281   -10320   -10208    -9984    -9749    -9607    -9612 
   -9742    -9931   -10093   -10177   -10168   -10091    -9994    -9896 
   -9790    -9675    -9567    -9475    -9409    -9393    -9427    -9490 
   -9570    -9643    -9697    -9728    -9738    -9733    -9726    -9736 
   -9769    -9814    -9837    -9828    -9787    -9736    -9706    -9721 
   -9783    -9886   -10010   -10122   -10191   -10192   -10125   -10011 
   -9896    -9819    -9790    -9798    -9825    -9844    -9830    -9788 
   -9728    -9660    -9613    -9607    -9643    -9705    -9768    -9817 
   -9838    -9842    -9859    -9898    -9940    -9952    -9911    -9806 
   -9659    -9535    -9485    -9522    -9632    -9771    -9872    -9895 
   -9833    -9721    -9618    -9571    -9591    -9653    -9715    -9757 
   -9775    -9776    -9782    -9805    -9838    -9861    -9853    -9817 
   -9768    -9722    -9702    -9721    -9772    -9822    -9852    -9855 
   -9830    -9791    -9767    -9771    -9794    -9814    -9822    -9817 
   -9810    -9821    -9853    -9887    -9904    -9894    -9853    -9805 
   -9788    -9826    -9917   -10017   -10080   -10073    -9995    -9868 
   -9734    -9618    -9532    -9491    -9517    -9612    -9752    -9895 
   -9987   -10002    -9956    -9895    -9864    -9883    -9936    -9983 
   -9984    -9922    -9826    -9732    -9660    -9630    -9652    -9714 
   -9798    -9888    -9968    -9995    -9941    -9826    -9702    -9618 
   -9597    -9628    -9675    -9706    -9709    -9698    -9680    -9659 
   -9649    -9674    -9742    -9834    -9906    -9929    -9888    -9813 
   -9744    -9706    -9706    -9722    -9724    -9699    -9661    -9632 
   -9641    -9705    -9798    -9873    -9886    -9810    -9672    -9535 
   -9479    -9547    -9703    -9880   -10023   -10103   -10126   -10114 
  -10075    -9999    -9892    -9772    -9679    -9644    -9666    -9725 
   -9796    -9860    -9902    -9910    -9877    -9818    -9763    -9738 
   -9752    -9798    -9845    -9852    -9813    -9749    -9678    -9618 
   -9574    -9535    -9493    -9458    -9441    -9460    -9525    -9625 
   -9733    -9814    -9838    -9815    -9792    -9810    -9894   -10019 
  -10122   -10142   -10062    -9902    -9715    -9560    -9464    -9420 
   -9409    -9416    -9433    -9474    -9541    -9624    -9706    -9768 
   -9796    -9782    -9717    -9618    -9525    -9490    -9543    -9684 
   -9883   -10077   -10208   -10255   -10233   -10169   -10099   -10030 
   -9961    -9903    -9869    -9865    -9883    -9906    -9923    -9938 
   -9957    -9964    -9942    -9886    -9807    -9732    -9680    -9676 
   -9714    -9769    -9826    -9867    -9876    -9861    -9829    -9775 
   -9720    -9686    -9684    -9713    -9749    -9765    -9747    -9699 
   -9652    -9636    -9666    -9728    -9786    -9803    -9764    -9680 
   -9593    -9521    -9459    -9414    -9405    -9424    -9471    -9570 
   -9728    -9919   -10125   -10322   -10471   -10539   -10520   -10420 
  -10258   -10068    -9888    -9742    -9639    -9591    -9601    -9655 
   -9748    -9868    -9988   -10076   -10116   -10119   -10092   -10035 
   -9952    -9846    -9726    -9610    -9526    -9512    -9586    -9732 
   -9907   -10066   -10180   -10246   -10270   -10234   -10118    -9933 
   -9713    -9516    -9402    -9396    -9475    -9590    -9691    -9776 
   -9860    -9952   -10039   -10099   -10091   -10007    -9880    -9768 
   -9710    -9691    -9674    -9622    -9524    -9398    -9293    -9248 
   -9286    -9398    -9548    -9688    -9784    -9822    -9817    -9802 
   -9788    -9767    -9738    -9715    -9714    -9741    -9784    -9830 
   -9871    -9883    -9857    -9779    -9637    -9460    -9315    -9250 
   -9300    -9455    -9649    -9818    -9933    -9980    -9968    -9917 
   -9860    -9821    -9813    -9850    -9927   -10019   -10099   -10134 
  -10102   -10002    -9849    -9680    -9540    -9463    -9472    -9560 
   -9698    -9849    -9975   -10038   -10025    -9942    -9815    -9690 
   -9621    -9637    -9733    -9895   -10087   -10269   -10423   -10551 
  -10636   -10638   -10532   -10316   -10033    -9755    -9543    -9427 
   -9424    -9513    -9639    -9744    -9801    -9806    -9788    -9778 
   -9786    -9796    -9771    -9672    -9504    -9315    -9178    -9136 
   -9189    -9320    -9491    -9657    -9790    -9876    -9903    -9872 
   -9798    -9702    -9610    -9535    -9490    -9485    -9512    -9562 
   -9622    -9682    -9740    -9807    -9888    -9968   -10027   -10042 
  -10010    -9953    -9902    -9877    -9892    -9929    -9958    -9964 
   -9937    -9880    -9806    -9728    -9644    -9563    -9498    -9474 
   -9516    -9643    -9825    -9988   -10062   -10023    -9906    -9786 
   -9742    -9821    -9995   -10177   -10277   -10258   -10146   -10002 
   -9873    -9774    -9688    -9587    -9468    -9373    -9356    -9455 
   -9661    -9914   -10127   -10245   -10269   -10235   -10172   -10093 
  -10014    -9930    -9838    -9744    -9655    -9582    -9543    -9537 
   -9558    -9595    -9647    -9699    -9736    -9729    -9661    -9556 
   -9456    -9396    -9397    -9462    -9564    -9667    -9747    -9814 
   -9877    -9946   -10018   -10073   -10080   -10027    -9925    -9796 
   -9687    -9622    -9589    -9574    -9575    -9595    -9634    -9694 
   -9760    -9814    -9837    -9823    -9794    -9778    -9792    -9840 
   -9903    -9953    -9969    -9964    -9956    -9965   -10008   -10088 
  -10181   -10249   -10245   -10139    -9948    -9721    -9528    -9433 
   -9450    -9529    -9612    -9659    -9676    -9684    -9686    -9674 
   -9644    -9610    -9606    -9644    -9702    -9737    -9715    -9647 
   -9574    -9553    -9620    -9736    -9832    -9853    -9788    -9661 
   -9536    -9468    -9478    -9562    -9686    -9798    -9846    -9825 
   -9779    -9776    -9857    -9996   -10102   -10081    -9909    -9643 
   -9406    -9302    -9373    -9590    -9875   -10122   -10272   -10299 
  -10223   -10098    -9965    -9849    -9752    -9656    -9562    -9499 
   -9513    -9625    -9792    -9952   -10058   -10093   -10048    -9944 
   -9818    -9702    -9618    -9575    -9558    -9551    -9549    -9572 
   -9641    -9756    -9887    -9976    -9991    -9956    -9923    -9925 
   -9946    -9926    -9806    -9591    -9352    -9167    -9111    -9204 
   -9404    -9639    -9846    -9995   -10068   -10060    -9973    -9833 
   -9676    -9547    -9493    -9562    -9774   -10093   -10427   -10652 
  -10667   -10455   -10098    -9728    -9466    -9390    -9499    -9724 
   -9968   -10146   -10204   -10138   -10004    -9891    -9850    -9869 
   -9903    -9923    -9949   -10026   -10162   -10312   -10400   -10342 
  -10100    -9728    -9347    -9089    -9038    -9193    -9481    -9802 
  -10077   -10250   -10289   -10222   -10098    -9956    -9821    -9714 
   -9640    -9597    -9576    -9578    -9610    -9659    -9683    -9675 
   -9652    -9647    -9684    -9753    -9815    -9850    -9852    -9822 
   -9768    -9698    -9620    -9559    -9545    -9590    -9687    -9832 
  -10011   -10174   -10261   -10216   -10034    -9778    -9559    -9482 
   -9590    -9826   -10077   -10231   -10235   -10110    -9911    -9714 
   -9572    -9509    -9526    -9599    -9687    -9767    -9828    -9882 
   -9953   -10041   -10116   -10141   -10084    -9964    -9829    -9738 
   -9732    -9775    -9786    -9714    -9556    -9374    -9252    -9248 
   -9370    -9568    -9759    -9868    -9871    -9798    -9720    -9701 
   -9753    -9846    -9929    -9953    -9910    -9813    -9672    -9501 
   -9316    -9136    -8996    -8926    -8937    -9036    -9220    -9456 
   -9698    -9884    -9958    -9899    -9759    -9617    -9552    -9607 
   -9757    -9940   -10081   -10141   -10114   -10010    -9864    -9718 
   -9594    -9509    -9493    -9539    -9612    -9690    -9779    -9891 
  -10017   -10120   -10162   -10134   -10066    -9994    -9925    -9869 
   -9834    -9829    -9850    -9882    -9895    -9873    -9819    -9756 
   -9709    -9706    -9759    -9844    -9910    -9927    -9906    -9864 
   -9830    -9844    -9910    -9987   -10000    -9891    -9679    -9466 
   -9369    -9444    -9652    -9886   -10034   -10048    -9945    -9784 
   -9648    -9609    -9687    -9856   -10034   -10118   -10062    -9904 
   -9742    -9667    -9705    -9802    -9867    -9855    -9790    -9748 
   -9798    -9936   -10076   -10131   -10064    -9907    -9745    -9643 
   -9630    -9714    -9855    -9985   -10054   -10026    -9900    -9722 
   -9568    -9521    -9609    -9790    -9984   -10106   -10110   -10023 
   -9911    -9833    -9818    -9857    -9896    -9877    -9779    -9628 
   -9483    -9401    -9418    -9555    -9798   -10089   -10334   -10442 
  -10370   -10150    -9886    -9688    -9602    -9614    -9694    -9798 
   -9890    -9958   -10010   -10061   -10122   -10181   -10204   -10188 
  -10135   -10044    -9933    -9826    -9726    -9657    -9666    -9757 
   -9882    -9965    -9957    -9859    -9715    -9579    -9487    -9460 
   -9505    -9609    -9734    -9844    -9911    -9930    -9911    -9868 
   -9801    -9711    -9622    -9568    -9558    -9572    -9590    -9591 
   -9570    -9553    -9562    -9589    -9618    -9644    -9655    -9621 
   -9532    -9409    -9313    -9302    -9394    -9543    -9653    -9648 
   -9518    -9337    -9215    -9223    -9358    -9552    -9720    -9795 
   -9767    -9668    -9562    -9502    -9514    -9589    -9693    -9782 
   -9803    -9755    -9687    -9664    -9705    -9783    -9840    -9829 
   -9769    -9717    -9701    -9729    -9786    -9855    -9940   -10045 
  -10150   -10216   -10210   -10134   -10019    -9898    -9810    -9786 
   -9838    -9969   -10141   -10266   -10274   -10154    -9957    -9769 
   -9667    -9678    -9761    -9841    -9861    -9799    -9666    -9514 
   -9414    -9417    -9537    -9741    -9972   -10166   -10285   -10330 
  -10330   -10309   -10268   -10195   -10087    -9946    -9811    -9715 
   -9661    -9639    -9644    -9676    -9722    -9763    -9783    -9765 
   -9695    -9593    -9512    -9491    -9540    -9644    -9771    -9888 
   -9980   -10048   -10087   -10091   -10057    -9984    -9890    -9788 
   -9694    -9617    -9555    -9517    -9535    -9622    -9755    -9884 
   -9958    -9946    -9864    -9747    -9630    -9548    -9521    -9544 
   -9587    -9607    -9572    -9482    -9385    -9336    -9364    -9448 
   -9525    -9555    -9553    -9570    -9637    -9753    -9864    -9900 
   -9838    -9718    -9589    -9499    -9487    -9564    -9715    -9910 
  -10089   -10189   -10179   -10088    -9985    -9922    -9898    -9892 
   -9887    -9880    -9902    -9968   -10060   -10130   -10134   -10056 
   -9931    -9834    -9819    -9875    -9952    -9995    -9968    -9887 
   -9802    -9759    -9783    -9871    -9995   -10133   -10280   -10420 
  -10524   -10562   -10511   -10365   -10147    -9902    -9690    -9566 
   -9540    -9578    -9629    -9668    -9705    -9751    -9806    -9863 
   -9895    -9868    -9771    -9637    -9510    -9423    -9383    -9374 
   -9374    -9391    -9435    -9490    -9555    -9616    -9647    -9643 
   -9614    -9566    -9502    -9448    -9440    -9489    -9578    -9684 
   -9763    -9787    -9791    -9817    -9875    -9952   -10006   -10006 
   -9969    -9933    -9915    -9907    -9888    -9849    -9806    -9790 
   -9818    -9879    -9933    -9956    -9931    -9865    -9775    -9688 
   -9632    -9620    -9640    -9675    -9709    -9721    -9703    -9678 
   -9678    -9730    -9826    -9922    -9979    -9996   -10003   -10023 
  -10052   -10050    -9987    -9861    -9717    -9618    -9597    -9647 
   -9742    -9845    -9919    -9937    -9884    -9780    -9675    -9614 
   -9634    -9730    -9853    -9938    -9946    -9886    -9798    -9742 
   -9757    -9822    -9879    -9884    -9814    -9694    -9582    -9540 
   -9591    -9718    -9861    -9967   -10007    -9988    -9944    -9911 
   -9899    -9880    -9826    -9752    -9691    -9664    -9690    -9759 
   -9828    -9875    -9900    -9914    -9907    -9872    -9814    -9763 
   -9737    -9740    -9765    -9796    -9821    -9846    -9888    -9933 
   -9961    -9946    -9865    -9745    -9641    -9593    -9613    -9687 
   -9767    -9806    -9790    -9741    -9702    -9707    -9753    -9798 
   -9805    -9759    -9672    -9590    -9558    -9576    -9613    -9624 
