Origin Time       2024/04/02 04:24:00
Lat.              40.133
Long.             141.712
Depth. (km)       71
Mag.              6.0
Station Code      HYMH03
Station Lat.      42.1344
Station Long.     140.0040
Station Height(m) 70
Record Time       2024/04/02 04:25:15
Sampling Freq(Hz) 100Hz
Duration Time(s)  120
Dir.              4
Scale Factor      7845(gal)/8223790
Max. Acc. (gal)   0.824
Last Correction   2024/04/02 04:25:15
Memo.             
[...]
   -5690    -5688    -5688    -5686    -5686    -5687    -5688    -5686 
   -5686    -5687    -5686    -5686    -5687    -5687    -5686    -5684 
   -5686    -5687    -5687    -5687    -5688    -5688    -5687    -5687 
   -5686    -5684    -5686    -5687    -5686    -5684    -5684    -5684 
   -5687    -5688    -5688    -5688    -5688    -5686    -5684    -5687 
   -5688    -5687    -5686    -5684    -5684    -5687    -5690    -5687 
   -5684    -5686    -5686    -5687    -5688    -5686    -5687    -5688 
   -5687    -5690    -5690    -5687    -5686    -5686    -5686    -5687 
   -5690    -5690    -5687    -5687    -5687    -5684    -5687    -5688 
   -5688    -5690    -5687    -5683    -5684    -5687    -5687    -5688 
   -5687    -5687    -5688    -5687    -5684    -5683    -5686    -5687 
   -5686    -5688    -5690    -5687    -5686    -5686    -5686    -5687 
   -5687    -5688    -5688    -5686    -5686    -5688    -5687    -5684 
   -5686    -5687    -5686    -5686    -5687    -5684    -5684    -5684 
   -5684    -5686    -5686    -5687    -5688    -5691    -5691    -5686 
   -5683    -5686    -5687    -5687    -5687    -5687    -5687    -5687 
   -5687    -5687    -5687    -5687    -5690    -5688    -5686    -5686 
   -5686    -5687    -5687    -5688    -5690    -5688    -5686    -5686 
   -5687    -5688    -5688    -5688    -5688    -5687    -5687    -5686 
   -5686    -5688    -5688    -5688    -5690    -5691    -5687    -5684 
   -5687    -5687    -5687    -5687    -5687    -5687    -5686    -5684 
   -5686    -5688    -5688    -5687    -5687    -5686    -5684    -5687 
   -5690    -5690    -5690    -5687    -5684    -5687    -5690    -5690 
   -5690    -5687    -5686    -5687    -5687    -5686    -5687    -5688 
   -5687    -5686    -5683    -5686    -5690    -5690    -5687    -5684 
   -5686    -5688    -5690    -5687    -5686    -5688    -5686    -5686 
   -5688    -5686    -5686    -5690    -5690    -5686    -5687    -5691 
   -5687    -5683    -5687    -5688    -5687    -5688    -5690    -5687 
   -5684    -5684    -5688    -5688    -5686    -5688    -5691    -5690 
   -5687    -5687    -5687    -5687    -5687    -5688    -5687    -5687 
   -5688    -5686    -5683    -5686    -5688    -5687    -5686    -5684 
   -5686    -5687    -5688    -5691    -5690    -5687    -5687    -5686 
   -5683    -5684    -5688    -5687    -5687    -5690    -5686    -5682 
   -5687    -5688    -5686    -5687    -5688    -5686    -5686    -5688 
   -5688    -5688    -5687    -5687    -5688    -5688    -5687    -5688 
   -5690    -5688    -5688    -5688    -5686    -5683    -5686    -5688 
   -5687    -5687    -5687    -5683    -5684    -5688    -5688    -5687 
   -5686    -5686    -5687    -5686    -5686    -5687    -5686    -5686 
   -5687    -5687    -5686    -5686    -5687    -5686    -5684    -5684 
   -5686    -5687    -5687    -5687    -5688    -5687    -5686    -5687 
   -5688    -5690    -5690    -5686    -5683    -5686    -5688    -5687 
   -5687    -5690    -5688    -5686    -5686    -5687    -5688    -5690 
   -5690    -5688    -5686    -5684    -5687    -5690    -5688    -5687 
   -5686    -5686    -5687    -5686    -5686    -5688    -5688    -5688 
   -5687    -5686    -5686    -5686    -5687    -5690    -5690    -5688 
   -5688    -5683    -5683    -5690    -5690    -5686    -5687    -5687 
   -5686    -5690    -5694    -5691    -5687    -5687    -5687    -5687 
   -5686    -5688    -5688    -5687    -5687    -5687    -5687    -5688 
   -5687    -5684    -5683    -5686    -5690    -5688    -5684    -5684 
   -5686    -5687    -5687    -5686    -5684    -5684    -5684    -5686 
   -5687    -5688    -5688    -5687    -5686    -5686    -5686    -5687 
   -5688    -5690    -5690    -5688    -5688    -5688    -5688    -5688 
   -5688    -5686    -5687    -5688    -5687    -5687    -5690    -5688 
   -5688    -5688    -5688    -5687    -5684    -5684    -5684    -5686 
   -5688    -5688    -5687    -5687    -5684    -5684    -5688    -5690 
   -5686    -5684    -5688    -5690    -5688    -5687    -5687    -5684 
   -5684    -5687    -5688    -5686    -5686    -5688    -5687    -5684 
   -5683    -5687    -5690    -5688    -5686    -5687    -5688    -5690 
   -5688    -5687    -5687    -5688    -5687    -5687    -5688    -5687 
   -5686    -5687    -5686    -5684    -5688    -5688    -5684    -5687 
   -5688    -5687    -5687    -5690    -5690    -5688    -5686    -5684 
   -5684    -5684    -5687    -5690    -5688    -5688    -5687    -5686 
   -5684    -5686    -5686    -5687    -5688    -5690    -5688    -5686 
   -5686    -5687    -5687    -5687    -5687    -5688    -5687    -5687 
   -5687    -5686    -5686    -5688    -5688    -5688    -5687    -5687 
   -5690    -5690    -5687    -5687    -5690    -5688    -5687    -5687 
   -5686    -5686    -5687    -5688    -5688    -5687    -5687    -5686 
   -5684    -5686    -5688    -5690    -5691    -5687    -5684    -5688 
   -5688    -5687    -5687    -5686    -5688    -5688    -5687    -5690 
   -5690    -5690    -5688    -5687    -5688    -5688    -5687    -5687 
   -5686    -5687    -5688    -5687    -5686    -5686    -5687    -5690 
   -5687    -5686    -5687    -5687    -5687    -5688    -5688    -5688 
   -5688    -5687    -5686    -5688    -5690    -5687    -5686    -5686 
   -5686    -5687    -5688    -5687    -5686    -5687    -5688    -5687 
   -5686    -5687    -5686    -5687    -5688    -5686    -5686    -5690 
   -5688    -5686    -5684    -5686    -5691    -5688    -5686    -5688 
   -5688    -5686    -5687    -5690    -5690    -5687    -5686    -5686 
   -5684    -5686    -5690    -5691    -5688    -5688    -5691    -5690 
   -5687    -5687    -5688    -5690    -5690    -5688    -5690    -5688 
   -5686    -5688    -5691    -5687    -5687    -5687    -5688    -5687 
   -5684    -5686    -5690    -5690    -5688    -5690    -5688    -5684 
   -5687    -5690    -5688    -5688    -5688    -5687    -5688    -5687 
   -5686    -5687    -5688    -5690    -5688    -5686    -5684    -5686 
   -5688    -5691    -5688    -5687    -5686    -5686    -5688    -5690 
   -5688    -5686    -5686    -5688    -5688    -5684    -5686    -5687 
   -5687    -5688    -5687    -5686    -5687    -5687    -5687    -5687 
   -5687    -5687    -5688    -5687    -5686    -5683    -5686    -5687 
   -5688    -5687    -5684    -5684    -5687    -5691    -5691    -5688 
   -5687    -5687    -5686    -5684    -5686    -5688    -5690    -5690 
   -5687    -5684    -5687    -5690    -5691    -5691    -5688    -5686 
   -5686    -5686    -5688    -5690    -5690    -5687    -5686    -5687 
   -5688    -5684    -5688    -5691    -5687    -5686    -5686    -5683 
   -5684    -5688    -5690    -5690    -5688    -5688    -5687    -5686 
   -5687    -5686    -5684    -5686    -5688    -5691    -5687    -5686 
   -5687    -5687    -5688    -5690    -5687    -5686    -5687    -5686 
   -5687    -5688    -5688    -5687    -5686    -5684    -5684    -5686 
   -5687    -5687    -5686    -5686    -5687    -5688    -5688    -5687 
   -5686    -5687    -5690    -5688    -5686    -5684    -5686    -5688 
   -5690    -5688    -5688    -5687    -5684    -5684    -5687    -5690 
   -5688    -5686    -5686    -5686    -5686    -5687    -5687    -5687 
   -5688    -5690    -5688    -5687    -5686    -5687    -5687    -5687 
   -5688    -5688    -5688    -5688    -5688    -5686    -5687    -5690 
   -5690    -5687    -5687    -5690    -5687    -5686    -5687    -5687 
   -5687    -5686    -5684    -5686    -5688    -5686    -5686    -5688 
   -5687    -5686    -5684    -5687    -5691    -5688    -5687    -5687 
   -5684    -5684    -5691    -5691    -5686    -5688    -5690    -5687 
   -5687    -5687    -5686    -5686    -5687    -5687    -5687    -5687 
   -5686    -5687    -5686    -5684    -5686    -5688    -5688    -5688 
   -5683    -5682    -5687    -5690    -5687    -5686    -5684    -5687 
   -5688    -5688    -5687    -5686    -5686    -5688    -5690    -5687 
   -5686    -5684    -5684    -5688    -5688    -5687    -5688    -5686 
   -5686    -5688    -5690    -5688    -5686    -5684    -5687    -5688 
   -5690    -5688    -5687    -5687    -5687    -5686    -5688    -5690 
   -5687    -5684    -5686    -5686    -5687    -5687    -5687    -5688 
   -5688    -5686    -5686    -5687    -5688    -5688    -5688    -5686 
   -5686    -5687    -5687    -5687    -5686    -5690    -5690    -5686 
   -5687    -5688    -5687    -5687    -5687    -5684    -5684    -5688 
   -5691    -5687    -5684    -5687    -5688    -5688    -5688    -5686 
   -5684    -5688    -5690    -5684    -5682    -5684    -5688    -5690 
   -5687    -5686    -5687    -5687    -5687    -5688    -5690    -5688 
   -5687    -5684    -5684    -5687    -5688    -5688    -5688    -5686 
   -5686    -5691    -5692    -5690    -5688    -5688    -5687    -5686 
   -5690    -5690    -5687    -5687    -5687    -5686    -5684    -5684 
   -5687    -5688    -5690    -5690    -5687    -5686    -5686    -5686 
   -5687    -5687    -5687    -5688    -5686    -5687    -5690    -5688 
   -5688    -5687    -5687    -5687    -5687    -5687    -5688    -5687 
   -5686    -5687    -5687    -5687    -5687    -5688    -5688    -5687 
   -5686    -5683    -5686    -5690    -5687    -5686    -5688    -5688 
   -5687    -5688    -5684    -5683    -5687    -5686    -5684    -5688 
   -5687    -5684    -5687    -5687    -5687    -5688    -5687    -5687 
   -5688    -5687    -5687    -5686    -5686    -5687    -5686    -5686 
   -5688    -5687    -5684    -5687    -5687    -5683    -5686    -5690 
   -5687    -5688    -5687    -5683    -5684    -5687    -5688    -5687 
   -5687    -5684    -5684    -5687    -5686    -5684    -5688    -5688 
   -5687    -5687    -5684    -5686    -5690    -5687    -5686    -5687 
   -5687    -5687    -5687    -5686    -5686    -5686    -5687    -5688 
   -5686    -5688    -5690    -5687    -5687    -5688    -5686    -5683 
   -5686    -5687    -5684    -5686    -5687    -5688    -5690    -5688 
   -5686    -5686    -5687    -5688    -5687    -5687    -5690    -5690 
   -5686    -5684    -5684    -5688    -5690    -5688    -5687    -5686 
   -5683    -5686    -5690    -5688    -5686    -5683    -5684    -5686 
   -5687    -5687    -5687    -5686    -5688    -5688    -5687    -5688 
   -5686    -5684    -5687    -5686    -5686    -5690    -5690    -5687 
   -5687    -5688    -5686    -5684    -5687    -5688    -5688    -5688 
   -5688    -5688    -5687    -5686    -5687    -5690    -5690    -5688 
   -5687    -5687    -5687    -5687    -5684    -5684    -5690    -5690 
   -5686    -5686    -5687    -5687    -5687    -5687    -5686    -5686 
   -5687    -5687    -5688    -5690    -5687    -5686    -5687    -5687 
   -5687    -5687    -5688    -5688    -5688    -5687    -5688    -5690 
   -5687    -5686    -5686    -5688    -5688    -5686    -5686    -5687 
   -5690    -5688    -5687    -5687    -5688    -5688    -5688    -5686 
   -5687    -5688    -5686    -5686    -5688    -5687    -5684    -5687 
   -5687    -5686    -5687    -5691    -5690    -5686    -5684    -5686 
   -5690    -5688    -5684    -5686    -5688    -5688    -5688    -5690 
   -5690    -5687    -5686    -5687    -5686    -5688    -5688    -5686 
   -5686    -5686    -5684    -5687    -5686    -5684    -5688    -5690 
   -5688    -5686    -5686    -5686    -5683    -5684    -5687    -5688 
   -5687    -5686    -5684    -5684    -5684    -5688    -5692    -5690 
   -5687    -5687    -5686    -5686    -5688    -5687    -5687    -5688 
   -5688    -5687    -5687    -5686    -5690    -5695    -5692    -5691 
   -5692    -5691    -5691    -5694    -5697    -5699    -5699    -5699 
   -5701    -5699    -5701    -5703    -5705    -5705    -5705    -5707 
   -5707    -5707    -5709    -5703    -5698    -5698    -5694    -5688 
   -5684    -5680    -5675    -5674    -5678    -5683    -5690    -5701 
   -5709    -5718    -5729    -5736    -5742    -5752    -5760    -5773 
   -5788    -5803    -5817    -5827    -5837    -5842    -5833    -5817 
   -5792    -5756    -5717    -5675    -5630    -5597    -5571    -5559 
   -5559    -5557    -5549    -5530    -5501    -5478    -5468    -5475 
   -5503    -5549    -5609    -5675    -5742    -5810    -5868    -5902 
   -5907    -5891    -5863    -5829    -5802    -5780    -5767    -5768 
   -5780    -5790    -5788    -5773    -5749    -5724    -5701    -5678 
   -5656    -5636    -5624    -5636    -5674    -5729    -5792    -5849 
   -5881    -5877    -5845    -5807    -5780    -5769    -5772    -5787 
   -5798    -5796    -5778    -5733    -5657    -5553    -5432    -5313 
   -5205    -5104    -5001    -4909    -4860    -4869    -4942    -5076 
   -5252    -5433    -5586    -5683    -5715    -5695    -5644    -5587 
   -5553    -5541    -5547    -5575    -5626    -5706    -5815    -5940 
   -6069    -6176    -6232    -6243    -6220    -6161    -6077    -5965 
   -5813    -5634    -5471    -5370    -5366    -5463    -5637    -5850 
   -6052    -6193    -6239    -6185    -6052    -5887    -5740    -5620 
   -5508    -5401    -5313    -5254    -5224    -5212    -5194    -5175 
   -5182    -5220    -5304    -5437    -5597    -5742    -5836    -5837 
   -5748    -5607    -5468    -5374    -5340    -5352    -5394    -5458 
   -5551    -5678    -5834    -6008    -6184    -6319    -6367    -6318 
   -6181    -6002    -5861    -5800    -5813    -5861    -5895    -5881 
   -5809    -5694    -5601    -5584    -5660    -5826    -6061    -6303 
   -6484    -6551    -6466    -6249    -5979    -5737    -5560    -5454 
   -5425    -5479    -5607    -5778    -5931    -6018    -6018    -5931 
   -5783    -5601    -5417    -5274    -5211    -5233    -5298    -5356 
   -5373    -5336    -5287    -5282    -5317    -5355    -5370    -5368 
   -5370    -5391    -5448    -5532    -5609    -5652    -5653    -5602 
   -5506    -5405    -5354    -5390    -5514    -5691    -5869    -5994 
   -6026    -5979    -5895    -5803    -5728    -5695    -5710    -5737 
   -5746    -5751    -5799    -5907    -6045    -6134    -6092    -5908 
   -5651    -5427    -5329    -5379    -5541    -5752    -5937    -6037 
   -6038    -5962    -5844    -5715    -5616    -5567    -5589    -5678 
   -5768    -5795    -5756    -5692    -5668    -5707    -5772    -5807 
   -5787    -5741    -5728    -5788    -5903    -6000    -6033    -6015 
   -5976    -5907    -5779    -5609    -5463    -5413    -5506    -5713 
   -5902    -5953    -5848    -5659    -5493    -5383    -5313    -5269 
   -5252    -5278    -5336    -5366    -5310    -5186    -5077    -5062 
   -5159    -5335    -5525    -5671    -5763    -5838    -5933    -6046 
   -6151    -6204    -6160    -5996    -5760    -5559    -5482    -5526 
   -5622    -5709    -5775    -5850    -5965    -6110    -6223    -6226 
   -6095    -5881    -5663    -5493    -5389    -5344    -5335    -5360 
   -5439    -5547    -5621    -5613    -5530    -5435    -5398    -5458 
   -5598    -5765    -5896    -5961    -5961    -5904    -5813    -5706 
   -5598    -5528    -5517    -5560    -5648    -5788    -5983    -6192 
   -6336    -6355    -6228    -5999    -5768    -5599    -5495    -5460 
   -5498    -5606    -5760    -5884    -5903    -5818    -5691    -5579 
   -5510    -5474    -5455    -5467    -5524    -5611    -5706    -5768 
   -5763    -5695    -5613    -5555    -5553    -5628    -5742    -5838 
   -5888    -5898    -5879    -5857    -5856    -5856    -5821    -5740 
   -5633    -5541    -5490    -5474    -5476    -5499    -5560    -5664 
   -5768    -5806    -5751    -5614    -5449    -5337    -5328    -5408 
   -5518    -5613    -5682    -5742    -5776    -5756    -5694    -5634 
   -5621    -5656    -5679    -5640    -5575    -5559    -5616    -5713 
   -5795    -5830    -5830    -5821    -5818    -5814    -5787    -5729 
   -5668    -5643    -5679    -5761    -5823    -5825    -5788    -5792 
   -5888    -6049    -6234    -6377    -6399    -6281    -6075    -5836 
   -5625    -5475    -5383    -5346    -5370    -5439    -5521    -5584 
   -5593    -5516    -5370    -5220    -5131    -5136    -5231    -5350 
   -5401    -5332    -5175    -5000    -4900    -4950    -5158    -5452 
   -5724    -5902    -5979    -5962    -5860    -5702    -5535    -5420 
   -5424    -5557    -5759    -5934    -6030    -6038    -5988    -5929 
   -5904    -5938    -6030    -6134    -6208    -6265    -6323    -6381 
   -6413    -6376    -6254    -6097    -5961    -5859    -5782    -5746 
   -5756    -5786    -5794    -5732    -5567    -5328    -5112    -5011 
   -5040    -5147    -5252    -5279    -5213    -5092    -4974    -4905 
   -4918    -5040    -5265    -5517    -5697    -5726    -5611    -5476 
   -5449    -5557    -5746    -5930    -6031    -6035    -5979    -5902 
   -5826    -5744    -5652    -5590    -5591    -5653    -5749    -5818 
   -5796    -5703    -5620    -5591    -5591    -5568    -5509    -5455 
   -5483    -5640    -5865    -6056    -6158    -6201    -6238    -6297 
   -6350    -6355    -6309    -6232    -6157    -6095    -6019    -5898 
   -5759    -5660    -5630    -5661    -5719    -5734    -5653    -5497 
   -5351    -5301    -5360    -5483    -5607    -5695    -5751    -5794 
   -5817    -5805    -5757    -5702    -5686    -5726    -5776    -5775 
   -5706    -5591    -5479    -5409    -5383    -5374    -5367    -5363 
   -5386    -5462    -5586    -5715    -5794    -5788    -5711    -5598 
   -5489    -5410    -5373    -5398    -5518    -5733    -5992    -6208 
   -6308    -6276    -6139    -5971    -5845    -5786    -5764    -5744 
   -5687    -5563    -5379    -5201    -5089    -5084    -5196    -5383 
   -5587    -5767    -5883    -5904    -5827    -5682    -5520    -5412 
   -5404    -5502    -5636    -5711    -5706    -5672    -5667    -5710 
   -5786    -5872    -5962    -6058    -6130    -6133    -6066    -5969 
   -5877    -5810    -5778    -5779    -5788    -5780    -5767    -5771 
   -5792    -5829    -5869    -5876    -5826    -5734    -5636    -5563 
   -5532    -5529    -5526    -5505    -5470    -5445    -5435    -5417 
   -5410    -5451    -5520    -5553    -5503    -5391    -5292    -5274 
   -5363    -5533    -5705    -5798    -5802    -5757    -5722    -5740 
   -5813    -5906    -5984    -6033    -6069    -6111    -6126    -6077 
   -5972    -5844    -5744    -5697    -5690    -5688    -5670    -5634 
   -5611    -5587    -5508    -5371    -5254    -5232    -5348    -5590 
   -5863    -6043    -6076    -5972    -5799    -5629    -5499    -5437 
   -5467    -5589    -5764    -5918    -5972    -5904    -5757    -5603 
   -5502    -5467    -5498    -5587    -5722    -5863    -5953    -5953 
   -5859    -5705    -5553    -5455    -5424    -5440    -5485    -5560 
   -5663    -5760    -5822    -5832    -5786    -5702    -5598    -5508 
   -5456    -5452    -5494    -5571    -5660    -5748    -5810    -5829 
   -5790    -5721    -5665    -5656    -5678    -5680    -5629    -5544 
   -5483    -5495    -5582    -5697    -5782    -5806    -5768    -5687 
   -5597    -5540    -5535    -5582    -5667    -5737    -5744    -5684 
   -5593    -5522    -5510    -5553    -5636    -5726    -5786    -5792 
   -5752    -5692    -5638    -5618    -5664    -5775    -5895    -5961 
   -5944    -5859    -5755    -5695    -5715    -5805    -5933    -6060 
   -6135    -6124    -6016    -5830    -5629    -5485    -5421    -5425 
