Origin Time       2024/04/02 04:24:00
Lat.              40.133
Long.             141.712
Depth. (km)       71
Mag.              6.0
Station Code      HYMH01
Station Lat.      42.4851
Station Long.     139.9678
Station Height(m) 167
Record Time       2024/04/02 04:25:19
Sampling Freq(Hz) 100Hz
Duration Time(s)  133
Dir.              6
Scale Factor      3920(gal)/6170801
Max. Acc. (gal)   1.711
Last Correction   2024/04/02 04:25:04
Memo.             
[...]
   15102    15103    15101    15101    15102    15101    15100    15101 
   15103    15102    15101    15101    15100    15102    15103    15101 
   15100    15100    15101    15102    15102    15105    15106    15106 
   15104    15099    15096    15097    15100    15105    15105    15104 
   15102    15101    15103    15104    15103    15101    15097    15092 
   15095    15100    15102    15103    15104    15103    15101    15099 
   15100    15100    15099    15102    15103    15101    15103    15104 
   15101    15101    15104    15103    15101    15102    15101    15098 
   15098    15101    15102    15101    15101    15098    15094    15095 
   15100    15105    15107    15103    15101    15100    15099    15100 
   15101    15100    15099    15099    15100    15101    15102    15105 
   15105    15105    15101    15096    15098    15103    15103    15104 
   15104    15101    15097    15095    15096    15097    15100    15106 
   15107    15100    15097    15099    15098    15099    15105    15108 
   15104    15103    15102    15101    15102    15103    15103    15105 
   15104    15102    15102    15103    15100    15099    15102    15103 
   15102    15101    15100    15102    15107    15105    15100    15100 
   15098    15093    15095    15101    15106    15107    15107    15105 
   15100    15095    15094    15097    15101    15102    15103    15101 
   15100    15101    15101    15099    15101    15106    15105    15102 
   15101    15101    15100    15099    15099    15101    15102    15104 
   15105    15103    15103    15101    15099    15101    15103    15103 
   15099    15097    15098    15101    15101    15100    15102    15103 
   15102    15103    15103    15101    15100    15100    15100    15103 
   15105    15102    15100    15103    15106    15104    15103    15105 
   15103    15098    15098    15100    15100    15101    15103    15103 
   15103    15101    15102    15106    15105    15098    15097    15099 
   15098    15100    15103    15102    15102    15103    15099    15097 
   15098    15099    15100    15104    15104    15102    15100    15097 
   15097    15098    15099    15101    15101    15101    15102    15103 
   15100    15097    15098    15100    15101    15101    15098    15098 
   15101    15102    15102    15101    15098    15096    15098    15100 
   15100    15101    15102    15100    15100    15101    15100    15101 
   15101    15101    15104    15103    15099    15099    15100    15102 
   15102    15099    15100    15103    15103    15100    15099    15099 
   15098    15099    15101    15099    15097    15099    15101    15103 
   15105    15103    15098    15099    15103    15103    15102    15102 
   15097    15093    15095    15098    15099    15102    15106    15108 
   15106    15104    15101    15098    15098    15099    15097    15098 
   15102    15103    15103    15103    15100    15099    15101    15101 
   15101    15101    15098    15098    15102    15103    15099    15098 
   15100    15102    15105    15108    15106    15102    15100    15099 
   15098    15097    15096    15095    15096    15104    15108    15105 
   15105    15105    15102    15100    15099    15098    15099    15103 
   15105    15102    15100    15099    15099    15102    15104    15102 
   15100    15101    15104    15103    15099    15096    15095    15097 
   15101    15101    15101    15106    15107    15102    15098    15096 
   15095    15096    15098    15100    15106    15110    15108    15104 
   15100    15095    15094    15098    15101    15103    15104    15101 
   15099    15100    15098    15097    15098    15099    15099    15100 
   15102    15101    15098    15098    15095    15094    15097    15099 
   15101    15102    15103    15104    15103    15100    15096    15092 
   15095    15098    15100    15104    15103    15102    15099    15094 
   15098    15103    15100    15100    15100    15097    15100    15100 
   15096    15095    15098    15104    15108    15105    15101    15102 
   15101    15095    15093    15093    15096    15100    15103    15104 
   15104    15102    15100    15100    15098    15096    15097    15100 
   15103    15103    15102    15102    15100    15101    15103    15101 
   15102    15103    15099    15099    15104    15101    15095    15095 
   15097    15099    15103    15108    15107    15103    15103    15103 
   15102    15099    15098    15100    15100    15098    15100    15102 
   15101    15102    15108    15109    15105    15104    15099    15092 
   15091    15095    15097    15100    15107    15111    15106    15101 
   15102    15101    15096    15098    15103    15100    15099    15102 
   15100    15097    15101    15105    15102    15102    15103    15100 
   15098    15099    15104    15105    15101    15096    15095    15096 
   15097    15099    15104    15108    15106    15107    15107    15099 
   15091    15091    15093    15098    15106    15107    15104    15102 
   15101    15100    15098    15097    15100    15101    15101    15101 
   15101    15101    15100    15099    15099    15102    15105    15102 
   15099    15103    15105    15102    15095    15093    15094    15096 
   15101    15106    15108    15107    15102    15095    15092    15093 
   15097    15100    15103    15106    15102    15098    15099    15101 
   15101    15099    15094    15096    15101    15100    15102    15106 
   15103    15098    15097    15094    15092    15096    15102    15106 
   15105    15103    15102    15097    15092    15095    15099    15104 
   15111    15108    15099    15098    15096    15091    15095    15099 
   15098    15101    15102    15098    15096    15098    15098    15098 
   15099    15101    15101    15099    15097    15096    15096    15093 
   15094    15100    15103    15101    15101    15104    15102    15098 
   15098    15099    15097    15094    15095    15101    15103    15100 
   15100    15101    15098    15098    15101    15103    15102    15100 
   15097    15098    15100    15099    15098    15099    15101    15105 
   15105    15102    15100    15100    15102    15104    15102    15098 
   15096    15097    15099    15101    15102    15104    15105    15101 
   15099    15101    15102    15102    15100    15099    15100    15100 
   15097    15098    15102    15104    15103    15099    15102    15107 
   15101    15097    15102    15104    15100    15099    15103    15105 
   15101    15098    15101    15104    15106    15103    15097    15099 
   15100    15099    15100    15100    15099    15099    15100    15099 
   15099    15100    15104    15104    15102    15102    15098    15095 
   15100    15102    15103    15106    15104    15100    15101    15101 
   15100    15102    15104    15104    15100    15099    15100    15100 
   15102    15104    15102    15099    15098    15097    15100    15103 
   15103    15106    15108    15100    15092    15094    15098    15100 
   15104    15107    15106    15102    15099    15098    15097    15097 
   15101    15102    15102    15105    15109    15106    15102    15098 
   15097    15099    15100    15100    15104    15109    15107    15100 
   15097    15095    15096    15101    15104    15104    15106    15105 
   15100    15097    15094    15092    15094    15098    15103    15103 
   15102    15102    15102    15098    15096    15094    15093    15096 
   15101    15105    15105    15098    15095    15099    15099    15096 
   15098    15101    15102    15102    15102    15099    15095    15092 
   15092    15099    15106    15109    15108    15101    15095    15096 
   15095    15095    15099    15099    15099    15103    15102    15102 
   15105    15103    15098    15097    15098    15100    15101    15100 
   15098    15100    15103    15105    15103    15102    15100    15100 
   15102    15103    15102    15100    15097    15096    15099    15103 
   15104    15102    15099    15099    15099    15102    15105    15105 
   15103    15101    15097    15093    15095    15100    15101    15101 
   15104    15103    15099    15098    15101    15103    15101    15095 
   15096    15100    15100    15101    15105    15107    15104    15100 
   15100    15099    15099    15101    15102    15099    15099    15103 
   15105    15101    15101    15104    15100    15095    15097    15100 
   15100    15101    15103    15099    15096    15100    15100    15101 
   15104    15106    15105    15101    15095    15094    15097    15099 
   15104    15106    15103    15102    15101    15100    15101    15103 
   15101    15098    15097    15099    15100    15098    15099    15098 
   15097    15102    15105    15103    15105    15105    15097    15093 
   15095    15094    15093    15099    15103    15103    15105    15106 
   15100    15095    15097    15099    15099    15098    15099    15102 
   15104    15101    15097    15095    15096    15096    15098    15103 
   15104    15100    15098    15101    15104    15101    15096    15094 
   15097    15101    15104    15106    15107    15104    15098    15096 
   15098    15096    15095    15099    15101    15099    15099    15102 
   15105    15107    15104    15099    15097    15098    15098    15101 
   15105    15105    15101    15099    15100    15098    15098    15101 
   15104    15104    15101    15098    15101    15103    15103    15104 
   15104    15098    15094    15095    15095    15099    15106    15108 
   15107    15106    15097    15091    15094    15099    15103    15104 
   15102    15102    15101    15101    15104    15109    15106    15098 
   15093    15093    15094    15099    15106    15108    15109    15107 
   15101    15098    15099    15100    15101    15103    15101    15099 
   15101    15104    15104    15104    15105    15103    15098    15096 
   15100    15103    15102    15103    15103    15098    15092    15093 
   15101    15109    15111    15108    15103    15098    15096    15097 
   15096    15099    15103    15102    15102    15104    15103    15103 
   15104    15103    15099    15095    15096    15099    15100    15100 
   15102    15104    15101    15096    15098    15105    15107    15105 
   15104    15099    15095    15097    15101    15101    15100    15102 
   15105    15105    15103    15103    15104    15102    15100    15101 
   15098    15095    15099    15102    15103    15102    15100    15098 
   15098    15100    15100    15100    15102    15100    15096    15097 
   15096    15097    15102    15106    15108    15106    15101    15097 
   15095    15097    15102    15104    15103    15101    15096    15094 
   15099    15104    15105    15106    15107    15105    15099    15097 
   15096    15094    15094    15096    15096    15099    15106    15109 
   15110    15110    15104    15093    15088    15090    15092    15096 
   15101    15108    15111    15105    15096    15093    15095    15099 
   15103    15104    15105    15103    15102    15101    15101    15101 
   15099    15099    15099    15098    15099    15103    15107    15109 
   15105    15097    15091    15090    15092    15100    15107    15106 
   15105    15107    15102    15098    15100    15097    15095    15097 
   15099    15100    15105    15106    15103    15102    15103    15101 
   15098    15097    15100    15102    15101    15099    15095    15093 
   15095    15099    15105    15109    15109    15105    15100    15095 
   15095    15097    15099    15100    15101    15101    15100    15103 
   15106    15105    15105    15105    15099    15095    15099    15101 
   15104    15110    15106    15097    15094    15097    15102    15105 
   15105    15104    15101    15098    15097    15094    15096    15103 
   15105    15102    15102    15104    15103    15101    15105    15106 
   15100    15096    15095    15094    15099    15104    15108    15112 
   15110    15103    15099    15099    15099    15101    15102    15102 
   15101    15100    15098    15100    15104    15104    15101    15100 
   15102    15103    15103    15104    15102    15100    15100    15095 
   15093    15096    15102    15109    15112    15108    15099    15087 
   15083    15088    15093    15095    15096    15098    15093    15084 
   15083    15085    15082    15080    15083    15085    15082    15078 
   15079    15076    15069    15065    15062    15053    15047    15047 
   15046    15040    15032    15019    15003    14989    14980    14978 
   14981    14980    14975    14971    14971    14971    14973    14982 
   14994    15004    15010    15016    15023    15030    15034    15040 
   15048    15052    15056    15059    15055    15040    15021    14996 
   14956    14911    14873    14834    14795    14766    14741    14722 
   14721    14736    14763    14814    14894    14990    15091    15195 
   15316    15450    15582    15701    15808    15910    16005    16086 
   16142    16165    16149    16097    16013    15903    15771    15612 
   15422    15217    15022    14844    14671    14503    14364    14260 
   14191    14157    14149    14163    14203    14250    14280    14310 
   14375    14467    14560    14648    14734    14836    14974    15134 
   15276    15392    15498    15594    15654    15667    15641    15583 
   15508    15440    15386    15330    15272    15243    15280    15395 
   15582    15801    15977    16086    16199    16362    16544    16709 
   16826    16871    16887    16947    17046    17122    17131    17062 
   16939    16813    16710    16600    16426    16165    15836    15469 
   15100    14741    14361    13936    13511    13171    12941    12787 
   12667    12564    12471    12407    12411    12489    12603    12724 
   12839    12940    13064    13255    13497    13751    14017    14317 
   14631    14924    15170    15362    15534    15711    15852    15926 
   15968    16025    16087    16133    16155    16127    16030    15900 
   15781    15669    15553    15437    15324    15198    15058    14929 
   14827    14736    14631    14499    14357    14258    14243    14324 
   14464    14592    14681    14757    14848    14970    15132    15315 
   15487    15630    15735    15798    15836    15872    15876    15791 
   15652    15543    15467    15380    15236    15003    14745    14579 
   14525    14505    14470    14413    14349    14361    14499    14695 
   14892    15101    15312    15509    15723    15921    16024    16027 
   15959    15841    15741    15714    15708    15661    15574    15450 
   15291    15140    15018    14919    14862    14813    14720    14624 
   14578    14550    14497    14435    14394    14381    14414    14526 
   14694    14869    15053    15243    15394    15493    15538    15500 
   15376    15215    15077    15005    15023    15105    15177    15210 
   15239    15278    15299    15290    15261    15239    15245    15282 
   15350    15492    15720    15966    16147    16236    16248    16198 
   16093    15966    15857    15765    15653    15496    15299    15107 
   14957    14826    14679    14546    14496    14535    14593    14615 
   14602    14568    14533    14518    14540    14590    14641    14688 
   14754    14849    14940    14970    14934    14904    14945    15038 
   15120    15134    15072    14984    14924    14913    14932    14932 
   14882    14831    14847    14913    14938    14874    14753    14641 
   14610    14705    14870    15006    15100    15212    15350    15497 
   15642    15747    15798    15864    15982    16094    16148    16150 
   16091    15933    15694    15454    15267    15119    14992    14896 
   14829    14780    14744    14683    14567    14427    14326    14298 
   14327    14376    14425    14459    14465    14480    14562    14702 
   14828    14899    14946    14991    15021    15056    15118    15160 
   15140    15103    15086    15083    15109    15166    15220    15270 
   15348    15450    15542    15621    15685    15702    15654    15573 
   15530    15567    15623    15592    15472    15387    15442    15623 
   15813    15914    15941    15999    16122    16199    16127    15937 
   15675    15356    15048    14826    14687    14603    14551    14495 
   14439    14422    14434    14397    14288    14187    14175    14242 
   14324    14365    14357    14342    14361    14407    14461    14507 
   14515    14494    14470    14443    14436    14483    14580    14703 
   14829    14947    15068    15212    15395    15612    15794    15884 
   15925    15935    15844    15639    15395    15160    14981    14924 
   14955    14982    15009    15075    15148    15215    15307    15411 
   15516    15618    15674    15669    15643    15595    15513    15421 
   15323    15198    15074    15000    14970    14968    14993    15019 
   15012    14984    14980    15019    15081    15139    15147    15085 
   14994    14926    14888    14839    14756    14654    14552    14459 
   14389    14335    14286    14258    14297    14436    14652    14880 
   15060    15183    15295    15441    15595    15684    15680    15634 
   15613    15631    15647    15631    15578    15475    15320    15174 
   15099    15078    15072    15093    15160    15231    15251    15223 
   15179    15110    15023    14969    14965    14998    15061    15121 
   15134    15121    15124    15168    15291    15457    15553    15570 
   15588    15611    15613    15611    15569    15413    15186    15028 
   14989    15020    15070    15082    15044    15036    15103    15179 
   15189    15111    14981    14878    14853    14898    14986    15078 
   15136    15170    15233    15337    15430    15460    15431    15359 
   15259    15149    15063    15014    14994    15035    15166    15316 
   15400    15425    15413    15373    15322    15246    15112    14958 
   14850    14765    14654    14529    14387    14188    13966    13818 
   13766    13753    13734    13698    13673    13718    13862    14070 
   14287    14499    14723    14989    15309    15643    15942    16183 
   16338    16411    16456    16494    16490    16445    16373    16279 
   16187    16120    16061    15970    15836    15690    15574    15512 
   15492    15459    15356    15181    14993    14844    14739    14657 
   14591    14556    14561    14592    14638    14686    14703    14696 
   14706    14727    14731    14737    14739    14708    14668    14660 
   14688    14754    14833    14866    14857    14884    14970    15075 
   15172    15208    15160    15112    15129    15161    15161    15126 
   15050    14980    15010    15146    15290    15355    15328    15239 
   15138    15080    15052    15008    14974    14986    15029    15108 
   15226    15325    15374    15405    15424    15418    15405    15381 
   15307    15188    15069    14976    14895    14814    14742    14684 
   14665    14751    14944    15150    15312    15430    15512    15587 
   15674    15735    15725    15662    15600    15570    15583    15615 
   15605    15527    15405    15278    15156    15031    14911    14794 
   14660    14533    14466    14457    14454    14434    14412    14398 
   14384    14375    14384    14418    14470    14532    14607    14697 
   14781    14826    14826    14822    14852    14901    14953    15009 
   15050    15054    15062    15099    15128    15099    15006    14883 
   14799    14812    14911    15051    15204    15351    15492    15661 
   15841    15964    16020    16058    16097    16133    16170    16193 
   16151    16027    15868    15723    15592    15457    15301    15139 
