Origin Time       2024/04/02 04:24:00
Lat.              40.133
Long.             141.712
Depth. (km)       71
Mag.              6.0
Station Code      HYMH02
Station Lat.      41.9856
Station Long.     140.3087
Station Height(m) 85
Record Time       2024/04/02 04:25:12
Sampling Freq(Hz) 100Hz
Duration Time(s)  120
Dir.              5
Scale Factor      3920(gal)/6170801
Max. Acc. (gal)   1.368
Last Correction   2024/04/02 04:24:57
Memo.             
[...]
   10872    10764    10629    10525    10490    10489    10477    10428 
   10335    10244    10226    10286    10350    10361    10357    10414 
   10550    10717    10864    10965    11031    11080    11088    11036 
   10956    10857    10738    10612    10480    10364    10303    10275 
   10216    10125    10067    10080    10146    10231    10291    10296 
   10260    10187    10068     9943     9878     9911    10006    10098 
   10200    10360    10563    10717    10751    10669    10558    10516 
   10547    10586    10599    10592    10580    10573    10579    10620 
   10684    10715    10692    10638    10580    10534    10478    10381 
   10279    10250    10302    10372    10406    10414    10448    10523 
   10573    10521    10404    10361    10428    10475    10418    10347 
   10398    10585    10779    10859    10865    10908    11007    11079 
   11058    10969    10879    10835    10833    10819    10771    10752 
   10809    10900    10945    10891    10750    10607    10532    10511 
   10495    10477    10477    10491    10525    10623    10789    10938 
   10984    10914    10787    10664    10551    10444    10378    10378 
   10418    10443    10408    10304    10166    10039     9988    10051 
   10149    10157    10062     9919     9775     9684     9644     9612 
    9606     9678     9822     9989    10139    10271    10410    10545 
   10622    10601    10536    10523    10572    10616    10641    10699 
   10805    10898    10880    10725    10535    10446    10468    10511 
   10517    10489    10443    10372    10236    10024     9821     9737 
    9784     9860     9850     9756     9705     9802     9999    10169 
   10287    10441    10685    10939    11053    11005    10929    10928 
   10970    11006    11035    11038    10984    10882    10756    10654 
   10623    10637    10641    10637    10637    10606    10508    10368 
   10255    10192    10152    10128    10167    10289    10448    10589 
   10707    10837    10989    11101    11113    11059    11007    10964 
   10887    10760    10634    10578    10625    10738    10821    10828 
   10794    10754    10702    10625    10527    10434    10342    10202 
   10007     9842     9804     9929    10131    10268    10314    10360 
   10455    10563    10626    10616    10581    10581    10585    10532 
   10438    10364    10366    10450    10536    10568    10583    10620 
   10648    10632    10598    10591    10630    10671    10645    10565 
   10505    10474    10428    10392    10400    10412    10368    10259 
   10148    10151    10289    10439    10502    10497    10480    10467 
   10445    10395    10332    10300    10335    10423    10484    10432 
   10285    10206    10305    10477    10566    10543    10472    10424 
   10434    10470    10487    10497    10523    10545    10536    10475 
   10370    10290    10318    10471    10667    10774    10748    10685 
   10678    10715    10727    10698    10679    10701    10724    10696 
   10659    10685    10790    10938    11093    11230    11322    11323 
   11208    11002    10784    10615    10458    10233     9945     9701 
    9595     9639     9768     9915    10085    10291    10470    10542 
   10500    10417    10396    10464    10546    10564    10529    10496 
   10501    10533    10544    10497    10415    10336    10271    10237 
   10234    10232    10217    10178    10101     9997     9898     9825 
    9814     9897    10058    10250    10443    10623    10776    10886 
   10917    10825    10627    10414    10276    10240    10292    10397 
   10514    10619    10700    10727    10667    10539    10410    10316 
   10256    10221    10191    10148    10094    10036     9986     9961 
    9972    10004    10062    10180    10385    10633    10847    10992 
   11093    11171    11181    11060    10832    10626    10557    10631 
   10746    10780    10726    10686    10719    10764    10721    10566 
   10395    10332    10403    10533    10645    10736    10854    10999 
   11090    11063    10934    10756    10587    10467    10392    10339 
   10307    10273    10205    10121    10054     9999     9953     9938 
    9970    10070    10237    10397    10493    10538    10566    10592 
   10617    10658    10746    10872    10996    11110    11213    11247 
   11156    10964    10743    10556    10413    10258    10067     9910 
    9870     9919     9941     9896     9860     9905    10018    10143 
   10231    10290    10351    10422    10469    10460    10399    10350 
   10385    10526    10767    11093    11424    11645    11706    11616 
   11394    11086    10779    10560    10452    10412    10396    10390 
   10397    10400    10387    10375    10400    10497    10648    10749 
   10716    10580    10446    10390    10420    10521    10701    10947 
   11194    11367    11428    11388    11289    11191    11118    11037 
   10915    10757    10579    10390    10186     9970     9771     9620 
    9523     9472     9476     9553     9693     9853     9989    10073 
   10095    10019     9812     9565     9440     9511     9728     9992 
   10228    10428    10596    10713    10769    10775    10715    10560 
   10327    10096     9971     9979    10042    10093    10157    10308 
   10558    10854    11100    11215    11220    11204    11213    11207 
   11116    10953    10804    10728    10715    10710    10645    10501 
   10353    10313    10384    10447    10386    10184     9957     9861 
    9919    10016    10072    10128    10245    10411    10543    10570 
   10499    10399    10343    10352    10408    10483    10506    10424 
   10301    10255    10330    10457    10530    10518    10487    10504 
   10566    10621    10641    10669    10766    10912    11028    11067 
   11038    10965    10884    10822    10752    10615    10399    10139 
    9888     9686     9523     9373     9271     9279     9393     9559 
    9738     9920    10118    10316    10464    10524    10503    10463 
   10487    10596    10724    10816    10908    11061    11266    11433 
   11485    11430    11336    11267    11220    11128    10964    10777 
   10614    10522    10528    10564    10519    10409    10343    10390 
   10534    10695    10780    10779    10786    10871    10995    11074 
   11071    11010    10939    10883    10823    10740    10621    10503 
   10454    10484    10544    10579    10542    10422    10265    10140 
   10069    10016     9936     9828     9772     9850    10019    10155 
   10208    10244    10353    10547    10726    10779    10702    10569 
   10433    10317    10217    10134    10088    10092    10147    10282 
   10492    10691    10794    10808    10786    10774    10782    10794 
   10792    10780    10790    10831    10866    10857    10810    10773 
   10781    10823    10867    10899    10919    10920    10898    10843 
   10750    10656    10609    10623    10681    10768    10839    10835 
   10774    10746    10796    10863    10861    10782    10689    10607 
   10513    10413    10332    10258    10155    10004     9826     9683 
    9631     9643     9638     9609     9600     9607     9604     9612 
    9666     9791    10002    10267    10500    10654    10732    10760 
   10792    10863    10937    10959    10918    10837    10752    10663 
   10562    10473    10421    10391    10340    10251    10148    10070 
   10026    10013    10052    10173    10360    10548    10701    10841 
   10962    11014    11001    10983    10975    10944    10895    10854 
   10810    10753    10707    10687    10685    10684    10647    10523 
   10336    10179    10096    10052    10027    10053    10137    10237 
   10294    10294    10278    10261    10217    10133    10056    10081 
   10266    10523    10701    10744    10708    10698    10744    10749 
   10589    10267     9947     9806     9867     9978     9987     9905 
    9887    10034    10267    10431    10453    10394    10361    10407 
   10507    10586    10585    10543    10558    10650    10728    10714 
   10609    10461    10321    10213    10127    10064    10047    10078 
   10143    10250    10394    10525    10564    10455    10257    10102 
   10057    10124    10321    10654    11081    11524    11857    11982 
   11922    11795    11676    11534    11318    11054    10826    10684 
   10603    10493    10312    10126     9986     9848     9690     9543 
    9414     9300     9197     9126     9154     9314     9517     9649 
    9716     9815     9983    10143    10215    10234    10331    10586 
   10918    11194    11362    11448    11507    11575    11593    11490 
   11279    11017    10745    10508    10345    10268    10282    10385 
   10538    10666    10699    10606    10387    10106     9904     9875 
    9986    10147    10298    10427    10545    10630    10654    10656 
   10703    10835    11037    11265    11485    11699    11902    12033 
   12036    11907    11673    11385    11096    10822    10573    10387 
   10285    10274    10359    10521    10693    10794    10763    10589 
   10305     9962     9613     9325     9192     9280     9554     9893 
   10206    10461    10643    10732    10708    10587    10443    10355 
   10371    10488    10638    10771    10915    11091    11253    11326 
   11277    11143    11012    10952    10955    10935    10787    10468 
   10040     9624     9314     9131     9031     8953     8906     8992 
    9266     9609     9820     9827     9754     9776     9947    10166 
   10303    10334    10332    10355    10387    10406    10451    10576 
   10752    10881    10907    10877    10876    10941    11054    11179 
   11272    11298    11238    11099    10916    10753    10641    10545 
   10411    10213     9974     9746     9602     9648     9963    10499 
   11074    11495    11647    11531    11255    10983    10825    10793 
   10842    10918    10974    10991    10957    10871    10768    10681 
   10623    10612    10626    10586    10412    10078     9682     9404 
    9352     9507     9780    10091    10441    10825    11150    11300 
   11228    10980    10672    10459    10436    10537    10648    10747 
   10862    10999    11125    11156    11029    10774    10463    10149 
    9872     9678     9603     9631     9671     9638     9550     9494 
    9510     9582     9682     9810     9980    10168    10306    10326 
   10222    10068     9963     9987    10165    10451    10734    10951 
   11136    11318    11443    11443    11337    11239    11240    11317 
   11362    11299    11136    10893    10575    10256    10068    10107 
   10368    10732    11038    11208    11271    11302    11350    11388 
   11355    11248    11130    11038    10922    10723    10472    10226 
   10024     9899     9843     9807     9768     9730     9717     9806 
   10021    10234    10283    10138     9903     9707     9598     9541 
    9500     9519     9670     9976    10353    10643    10746    10721 
   10689    10696    10705    10672    10589    10510    10495    10523 
   10497    10385    10276    10289    10448    10669    10835    10895 
   10882    10852    10818    10768    10696    10600    10487    10389 
   10328    10290    10245    10165    10051     9958     9960    10059 
   10187    10312    10462    10654    10842    10932    10871    10741 
   10690    10776    10936    11087    11189    11238    11220    11101 
   10905    10701    10543    10442    10389    10350    10262    10140 
   10068    10087    10182    10300    10327    10215    10056     9953 
    9920     9928     9960    10015    10092    10185    10272    10331 
   10371    10428    10535    10721    11010    11367    11693    11920 
   12042    12084    12053    11919    11666    11376    11174    11107 
   11084    10948    10662    10326    10026     9766     9535     9329 
    9179     9157     9281     9477     9654     9773     9863     9957 
   10062    10194    10346    10466    10524    10550    10586    10635 
   10673    10693    10716    10752    10785    10781    10686    10507 
   10330    10218    10174    10206    10298    10389    10439    10441 
   10378    10232    10003     9719     9471     9317     9209     9084 
    8955     8924     9096     9462     9902    10298    10636    10966 
   11320    11648    11864    11932    11885    11781    11640    11447 
   11192    10902    10637    10445    10332    10251    10130     9930 
    9709     9562     9504     9486     9481     9497     9561     9673 
    9788     9882     9975    10071    10139    10178    10238    10377 
   10570    10705    10727    10692    10673    10683    10691    10683 
   10710    10852    11099    11357    11533    11595    11538    11382 
   11185    10993    10837    10753    10751    10799    10837    10820 
   10776    10775    10823    10883    10936    10984    11062    11195 
   11306    11267    11051    10739    10458    10311    10278    10256 
   10199    10116    10019     9912     9802     9724     9730     9807 
    9874     9878     9854     9878    10003    10211    10444    10658 
   10841    10999    11121    11185    11204    11211    11244    11350 
   11495    11518    11304    10913    10509    10205     9994     9808 
    9641     9588     9734    10041    10381    10667    10882    11003 
   11021    10981    10929    10902    10930    11009    11105    11198 
   11277    11311    11268    11168    11063    10960    10860    10805 
   10795    10788    10789    10803    10837    10943    11122    11299 
   11445    11544    11564    11512    11397    11194    10910    10595 
   10280     9960     9612     9224     8837     8525     8344     8332 
    8482     8757     9128     9548     9964    10345    10672    10918 
   11085    11158    11084    10873    10615    10376    10184    10065 
   10013    10001    10031    10102    10155    10145    10107    10104 
   10155    10226    10263    10246    10216    10238    10372    10627 
   10957    11290    11532    11610    11522    11310    11007    10638 
   10241     9867     9574     9425     9416     9458     9463     9408 
    9346     9362     9484     9657     9841    10071    10380    10702 
   10917    10953    10846    10699    10567    10416    10241    10125 
   10142    10263    10408    10532    10650    10772    10868    10887 
   10823    10742    10710    10706    10645    10490    10292    10134 
   10048     9998     9951     9916     9905     9891     9839     9731 
    9604     9510     9453     9417     9418     9508     9740    10118 
   10548    10886    11072    11168    11257    11355    11406    11363 
   11260    11164    11091    11030    10964    10896    10860    10882 
   10962    11082    11203    11272    11245    11084    10816    10531 
   10299    10121     9976     9876     9867     9956    10087    10176 
   10160    10048     9921     9850     9852     9899     9949     9994 
   10053    10142    10272    10463    10724    11058    11426    11752 
   11990    12098    12009    11740    11428    11215    11172    11246 
   11280    11174    10963    10725    10517    10373    10286    10211 
   10134    10086    10106    10213    10377    10544    10721    10972 
   11306    11646    11867    11881    11710    11461    11198    10907 
   10563    10195     9861     9604     9438     9367     9366     9377 
    9376     9404     9490     9617     9762     9904    10034    10178 
   10349    10501    10575    10589    10615    10683    10772    10860 
   10950    11068    11216    11340    11411    11471    11550    11584 
   11462    11148    10733    10356    10075     9853     9652     9479 
    9369     9352     9417     9537     9717     9946    10183    10376 
   10487    10539    10608    10738    10921    11134    11338    11492 
   11607    11689    11714    11697    11657    11561    11377    11122 
   10831    10542    10290    10087     9942     9869     9837     9755 
    9567     9323     9112     8982     8956     9042     9239     9524 
    9830    10098    10317    10498    10641    10741    10793    10811 
   10823    10850    10875    10839    10705    10520    10358    10239 
   10117     9948     9762     9654     9675     9768     9817     9797 
    9805     9933    10166    10406    10553    10573    10505    10442 
   10450    10500    10513    10450    10357    10346    10469    10632 
   10696    10634    10552    10575    10716    10869    10918    10842 
   10742    10753    10879    10980    10957    10855    10804    10889 
   11055    11197    11303    11443    11637    11833    11970    12015 
   11964    11831    11618    11312    10922    10493    10077     9696 
    9359     9131     9074     9158     9314     9506     9722     9952 
   10151    10271    10329    10404    10549    10736    10859    10813 
   10639    10500    10478    10522    10550    10491    10333    10161 
   10065    10028     9995     9951     9938    10017    10189    10368 
   10493    10572    10647    10757    10934    11142    11289    11322 
   11240    11080    10949    10935    11016    11084    11047    10919 
   10797    10757    10794    10848    10865    10842    10812    10775 
   10712    10627    10544    10469    10400    10348    10331    10338 
   10320    10242    10138    10100    10187    10369    10548    10616 
   10523    10327    10161    10109    10170    10299    10447    10572 
   10667    10745    10785    10734    10569    10356    10222    10221 
   10282    10299    10215    10069     9986    10053    10216    10325 
   10269    10036     9709     9434     9327     9427     9678     9967 
   10215    10409    10556    10658    10720    10750    10747    10705 
   10595    10406    10206    10108    10152    10268    10368    10460 
   10604    10790    10937    11001    11020    11051    11091    11080 
   10965    10775    10604    10511    10468    10421    10339    10219 
   10084     9980     9945     9980    10047    10094    10101    10110 
   10163    10249    10332    10387    10443    10572    10817    11140 
   11451    11667    11757    11752    11709    11654    11578    11454 
   11281    11111    10970    10817    10608    10369    10164    10017 
    9909     9832     9780     9752     9774     9856     9942     9968 
    9933     9885     9870     9906     9982    10078    10190    10352 
   10574    10808    10967    10975    10817    10577    10386    10292 
   10254    10233    10238    10284    10370    10449    10448    10363 
   10269    10227    10245    10302    10370    10425    10458    10483 
   10531    10587    10606    10601    10630    10716    10830    10899 
   10873    10774    10678    10624    10573    10481    10353    10208 
   10053     9888     9718     9566     9474     9490     9603     9749 
    9892    10048    10219    10393    10587    10825    11109    11378 
   11523    11506    11419    11376    11386    11379    11304    11161 
   10996    10833    10620    10303     9921     9575     9359     9303 
    9353     9422     9464     9506     9631     9898    10273    10633 
   10873    10985    11026    11049    11081    11099    11079    11043 
   11011    10966    10896    10825    10771    10749    10774    10817 
   10830    10797    10717    10618    10584    10688    10908    11150 
   11320    11366    11299    11174    11034    10889    10762    10691 
   10663    10600    10454    10278    10152    10095    10083    10083 
   10076    10088    10153    10245    10297    10297    10297    10338 
