Origin Time       2024/04/02 04:24:00
Lat.              40.133
Long.             141.712
Depth. (km)       71
Mag.              6.0
Station Code      IBRH13
Station Lat.      36.7955
Station Long.     140.5750
Station Height(m) 405
Record Time       2024/04/02 04:25:30
Sampling Freq(Hz) 100Hz
Duration Time(s)  120
Dir.              1
Scale Factor      3923(gal)/8224838
Max. Acc. (gal)   0.594
Last Correction   2024/04/02 04:25:30
Memo.             
[...]
  -13780   -13722   -13809   -13805   -13753   -13829   -13925   -13923 
  -13915   -13922   -13913   -13906   -13872   -13825   -13826   -13826 
  -13743   -13603   -13570   -13682   -13671   -13490   -13500   -13674 
  -13643   -13522   -13609   -13732   -13660   -13540   -13547   -13602 
  -13605   -13595   -13606   -13636   -13679   -13699   -13699   -13693 
  -13670   -13659   -13707   -13792   -13797   -13738   -13784   -13884 
  -13884   -13848   -13867   -13829   -13713   -13751   -13848   -13721 
  -13662   -13895   -13967   -13798   -13784   -13884   -13950   -14021 
  -13949   -13737   -13698   -13817   -13772   -13626   -13701   -13871 
  -13768   -13551   -13601   -13722   -13626   -13558   -13644   -13657 
  -13585   -13570   -13583   -13585   -13649   -13737   -13732   -13695 
  -13736   -13770   -13682   -13578   -13589   -13647   -13632   -13585 
  -13628   -13698   -13629   -13531   -13576   -13640   -13641   -13668 
  -13657   -13613   -13713   -13840   -13784   -13678   -13695   -13784 
  -13822   -13738   -13624   -13664   -13784   -13726   -13625   -13729 
  -13775   -13609   -13599   -13807   -13913   -13887   -13840   -13757 
  -13737   -13770   -13672   -13513   -13514   -13645   -13695   -13639 
  -13616   -13624   -13590   -13558   -13539   -13532   -13591   -13660 
  -13608   -13516   -13536   -13572   -13537   -13513   -13536   -13574 
  -13547   -13435   -13447   -13630   -13707   -13647   -13632   -13664 
  -13725   -13798   -13806   -13830   -13921   -13898   -13817   -13883 
  -13892   -13759   -13791   -13865   -13713   -13682   -13944   -14045 
  -13905   -13851   -13875   -13914   -14008   -14000   -13878   -13875 
  -13932   -13828   -13778   -13949   -13984   -13833   -13845   -13848 
  -13655   -13680   -13903   -13783   -13543   -13686   -13806   -13551 
  -13451   -13684   -13738   -13610   -13648   -13684   -13614   -13706 
  -13840   -13752   -13653   -13707   -13741   -13686   -13662   -13725 
  -13771   -13682   -13574   -13617   -13694   -13649   -13603   -13612 
  -13567   -13586   -13743   -13765   -13593   -13548   -13651   -13602 
  -13501   -13562   -13602   -13529   -13556   -13684   -13728   -13709 
  -13741   -13784   -13786   -13761   -13682   -13649   -13759   -13815 
  -13767   -13798   -13811   -13703   -13682   -13775   -13788   -13724 
  -13713   -13761   -13786   -13741   -13675   -13670   -13663   -13591 
  -13590   -13724   -13819   -13763   -13697   -13743   -13776   -13745 
  -13782   -13837   -13809   -13787   -13788   -13755   -13738   -13779 
  -13836   -13842   -13782   -13749   -13772   -13713   -13622   -13699 
  -13818   -13772   -13730   -13837   -13898   -13834   -13810   -13833 
  -13810   -13756   -13680   -13591   -13566   -13643   -13722   -13707 
  -13640   -13612   -13645   -13668   -13630   -13653   -13779   -13768 
  -13664   -13767   -13856   -13671   -13591   -13744   -13761   -13698 
  -13778   -13830   -13767   -13757   -13788   -13761   -13764   -13801 
  -13752   -13706   -13763   -13726   -13625   -13749   -13918   -13825 
  -13718   -13801   -13864   -13786   -13728   -13821   -13903   -13818 
  -13707   -13690   -13697   -13666   -13633   -13710   -13826   -13740 
  -13545   -13537   -13648   -13660   -13598   -13551   -13527   -13498 
  -13460   -13468   -13456   -13409   -13481   -13558   -13482   -13482 
  -13598   -13603   -13556   -13567   -13558   -13529   -13544   -13541 
  -13497   -13521   -13578   -13539   -13555   -13713   -13725   -13571 
  -13614   -13776   -13725   -13670   -13841   -13883   -13697   -13695 
  -13824   -13760   -13691   -13792   -13844   -13779   -13807   -13882 
  -13791   -13702   -13797   -13848   -13749   -13728   -13829   -13910 
  -13957   -13960   -13879   -13830   -13833   -13761   -13694   -13722 
  -13732   -13718   -13730   -13698   -13694   -13778   -13774   -13687 
  -13670   -13652   -13652   -13783   -13868   -13795   -13772   -13846 
  -13774   -13583   -13558   -13621   -13599   -13648   -13744   -13679 
  -13576   -13625   -13699   -13697   -13740   -13794   -13752   -13790 
  -13923   -13880   -13751   -13790   -13792   -13618   -13566   -13684 
  -13717   -13649   -13616   -13675   -13745   -13684   -13587   -13589 
  -13601   -13622   -13710   -13771   -13794   -13832   -13795   -13707 
  -13761   -13880   -13852   -13807   -13844   -13791   -13749   -13833 
  -13828   -13726   -13757   -13788   -13662   -13608   -13707   -13737 
  -13721   -13771   -13752   -13707   -13765   -13741   -13595   -13576 
  -13656   -13645   -13629   -13682   -13644   -13568   -13629   -13680 
  -13636   -13624   -13595   -13521   -13512   -13545   -13581   -13625 
  -13651   -13670   -13659   -13591   -13574   -13606   -13540   -13459 
  -13528   -13655   -13728   -13734   -13698   -13726   -13799   -13757 
  -13682   -13774   -13886   -13844   -13825   -13883   -13846   -13814 
  -13886   -13898   -13876   -13905   -13817   -13672   -13706   -13738 
  -13637   -13660   -13767   -13734   -13725   -13810   -13775   -13686 
  -13733   -13813   -13775   -13689   -13671   -13684   -13664   -13664 
  -13671   -13639   -13656   -13674   -13579   -13543   -13629   -13663 
  -13653   -13640   -13618   -13694   -13783   -13707   -13632   -13734 
  -13790   -13624   -13487   -13572   -13672   -13645   -13674   -13782 
  -13743   -13625   -13687   -13818   -13815   -13782   -13826   -13882 
  -13886   -13876   -13884   -13880   -13834   -13761   -13695   -13744 
  -13894   -13864   -13666   -13683   -13786   -13635   -13544   -13706 
  -13745   -13641   -13656   -13698   -13684   -13738   -13779   -13647 
  -13545   -13713   -13848   -13664   -13510   -13633   -13728   -13680 
  -13695   -13709   -13647   -13666   -13714   -13668   -13645   -13683 
  -13690   -13695   -13747   -13805   -13829   -13821   -13787   -13743 
  -13679   -13633   -13710   -13770   -13641   -13597   -13774   -13828 
  -13666   -13581   -13662   -13734   -13716   -13666   -13632   -13625 
  -13667   -13738   -13698   -13566   -13594   -13711   -13680   -13667 
  -13786   -13786   -13693   -13736   -13771   -13656   -13621   -13711 
  -13716   -13682   -13725   -13756   -13786   -13857   -13803   -13706 
  -13791   -13815   -13625   -13598   -13794   -13821   -13684   -13652 
  -13626   -13555   -13662   -13799   -13683   -13578   -13674   -13675 
  -13552   -13545   -13590   -13585   -13612   -13633   -13581   -13541 
  -13608   -13716   -13703   -13593   -13599   -13682   -13653   -13639 
  -13757   -13825   -13797   -13817   -13846   -13855   -13900   -13838 
  -13714   -13801   -13914   -13819   -13795   -13963   -14035   -13990 
  -13987   -13934   -13834   -13896   -13965   -13811   -13740   -13922 
  -13938   -13764   -13833   -13960   -13752   -13560   -13691   -13728 
  -13571   -13666   -13830   -13659   -13552   -13751   -13767   -13586 
  -13597   -13703   -13709   -13657   -13613   -13618   -13656   -13605 
  -13509   -13556   -13659   -13599   -13529   -13614   -13636   -13486 
  -13435   -13610   -13706   -13571   -13563   -13786   -13806   -13606 
  -13586   -13656   -13597   -13589   -13680   -13722   -13725   -13656 
  -13566   -13653   -13730   -13570   -13486   -13616   -13637   -13556 
  -13591   -13632   -13581   -13564   -13597   -13610   -13564   -13498 
  -13562   -13710   -13705   -13653   -13809   -13934   -13805   -13717 
  -13790   -13776   -13745   -13822   -13770   -13636   -13730   -13857 
  -13802   -13842   -13996   -13965   -13871   -13938   -14008   -14008 
  -14098   -14185   -14104   -14085   -14238   -14203   -13961   -13921 
  -13956   -13779   -13655   -13683   -13697   -13790   -13890   -13822 
  -13841   -13981   -13933   -13819   -13869   -13884   -13749   -13705 
  -13792   -13770   -13679   -13751   -13865   -13801   -13684   -13705 
  -13751   -13698   -13699   -13786   -13675   -13463   -13543   -13686 
  -13535   -13402   -13498   -13479   -13325   -13378   -13490   -13419 
  -13414   -13539   -13518   -13432   -13508   -13637   -13645   -13574 
  -13575   -13698   -13733   -13564   -13512   -13702   -13741   -13574 
  -13527   -13539   -13483   -13531   -13636   -13659   -13716   -13768 
  -13718   -13725   -13830   -13855   -13755   -13693   -13805   -13937 
  -13809   -13610   -13716   -13855   -13714   -13649   -13819   -13855 
  -13725   -13724   -13794   -13768   -13763   -13836   -13787   -13613 
  -13575   -13644   -13594   -13535   -13567   -13541   -13514   -13554 
  -13505   -13513   -13725   -13811   -13705   -13765   -13909   -13872 
  -13860   -13976   -13986   -13906   -13983   -14160   -14220   -14202 
  -14149   -14057   -14056   -14102   -14038   -13998   -14004   -13845 
  -13689   -13819   -13988   -13917   -13848   -13949   -13946   -13770 
  -13768   -13891   -13726   -13413   -13321   -13346   -13224   -13027 
  -12968   -12968   -12880   -12862   -12954   -12941   -12884   -12984 
  -13076   -13031   -13069   -13159   -13147   -13240   -13414   -13410 
  -13369   -13336   -13177   -13197   -13424   -13439   -13467   -13770 
  -13790   -13497   -13589   -13911   -13933   -13953   -14157   -14187 
  -14179   -14324   -14239   -13992   -14044   -14135   -14003   -14037 
  -14215   -14139   -14062   -14214   -14154   -13941   -14099   -14303 
  -14152   -14143   -14400   -14372   -14148   -14112   -14030   -13809 
  -13814   -13936   -13830   -13716   -13721   -13608   -13459   -13486 
  -13576   -13597   -13598   -13701   -13801   -13655   -13433   -13413 
  -13400   -13352   -13502   -13644   -13645   -13764   -13879   -13710 
  -13529   -13564   -13528   -13383   -13429   -13510   -13487   -13657 
  -13857   -13653   -13408   -13540   -13632   -13440   -13408   -13641 
  -13775   -13818   -14004   -14118   -13946   -13853   -14022   -14006 
  -13651   -13348   -13254   -13217   -13192   -13193   -13223   -13323 
  -13478   -13544   -13462   -13362   -13327   -13297   -13231   -13154 
  -13144   -13324   -13586   -13630   -13587   -13778   -13961   -13896 
  -13880   -13988   -13891   -13640   -13518   -13462   -13439   -13527 
  -13535   -13481   -13701   -14087   -14208   -14154   -14318   -14516 
  -14334   -14040   -14080   -14204   -14073   -13987   -14185   -14303 
  -14153   -14098   -14177   -14042   -13856   -14002   -14229   -14199 
  -14150   -14202   -14126   -14077   -14272   -14434   -14409   -14349 
  -14219   -14003   -13902   -13991   -14170   -14337   -14384   -14283 
  -14158   -14108   -14038   -13938   -13975   -14000   -13767   -13562 
  -13649   -13659   -13500   -13676   -13994   -13775   -13462   -13667 
  -13706   -13219   -13028   -13331   -13491   -13385   -13297   -13274 
  -13305   -13423   -13479   -13394   -13375   -13377   -13198   -13188 
  -13452   -13356   -12995   -13134   -13463   -13385   -13390   -13670 
  -13599   -13290   -13266   -13262   -13081   -13157   -13437   -13360 
  -13028   -12980   -13146   -13134   -13015   -12976   -12927   -12874 
  -12914   -12926   -12873   -12916   -13027   -13117   -13308   -13518 
  -13468   -13284   -13316   -13432   -13347   -13323   -13549   -13635 
  -13562   -13810   -14208   -14295   -14323   -14476   -14339   -14027 
  -14108   -14343   -14231   -14122   -14328   -14346   -14061   -14083 
  -14338   -14293   -14100   -14033   -13981   -13994   -14142   -14293 
  -14395   -14446   -14415   -14405   -14488   -14424   -14150   -14022 
  -14079   -14054   -14023   -13956   -13621   -13382   -13612   -13788 
  -13586   -13532   -13682   -13587   -13533   -13714   -13591   -13317 
  -13462   -13583   -13316   -13284   -13554   -13479   -13212   -13285 
  -13527   -13544   -13424   -13473   -13578   -13448   -13429   -13848 
  -14111   -13938   -13933   -14114   -14004   -13851   -13990   -14060 
  -13833   -13747   -13968   -13919   -13579   -13701   -14085   -13975 
  -13774   -13999   -14116   -13857   -13718   -13794   -13676   -13451 
  -13562   -13745   -13562   -13459   -13717   -13736   -13482   -13599 
  -13861   -13670   -13409   -13668   -14091   -14204   -14273   -14303 
  -13902   -13498   -13571   -13672   -13680   -13911   -14017   -13784 
  -13756   -13919   -13799   -13734   -13933   -13733   -13288   -13386 
  -13632   -13459   -13435   -13774   -13846   -13641   -13563   -13535 
  -13595   -13819   -13778   -13598   -13752   -13743   -13363   -13425 
  -13890   -13948   -13741   -13795   -13875   -13690   -13481   -13441 
  -13504   -13509   -13385   -13440   -13801   -13876   -13558   -13591 
  -13911   -13865   -13891   -14380   -14459   -13940   -13711   -13721 
  -13471   -13401   -13666   -13682   -13551   -13676   -13722   -13620 
  -13888   -14185   -13898   -13691   -14048   -14141   -13797   -13780 
  -14003   -13996   -13972   -13942   -13699   -13595   -13664   -13440 
  -13171   -13262   -13335   -13176   -13163   -13392   -13464   -13215 
  -13070   -13265   -13366   -13300   -13397   -13486   -13446   -13483 
  -13455   -13356   -13559   -13745   -13467   -13273   -13477   -13512 
  -13398   -13636   -13903   -13721   -13416   -13317   -13320   -13486 
  -13761   -13675   -13428   -13779   -14241   -13922   -13684   -14146 
  -14084   -13478   -13659   -14072   -13755   -13664   -14089   -13927 
  -13517   -13814   -14062   -13748   -13751   -14072   -14053   -14115 
  -14459   -14380   -14107   -14359   -14628   -14409   -14245   -14339 
  -14273   -14057   -13981   -14069   -14138   -13942   -13664   -13879 
  -14288   -14106   -13834   -14146   -14203   -13612   -13410   -13671 
  -13528   -13312   -13493   -13479   -13261   -13529   -13853   -13474 
  -13093   -13342   -13308   -12665   -12464   -12812   -12918   -12904 
  -13167   -13306   -13023   -12874   -13266   -13497   -13105   -12980 
  -13470   -13626   -13298   -13163   -13138   -13015   -13147   -13498 
  -13574   -13382   -13474   -13954   -14130   -13765   -13670   -13949 
  -13830   -13593   -13886   -14203   -14210   -14300   -14358   -14184 
  -14176   -14315   -14188   -14123   -14466   -14598   -14223   -13963 
  -13932   -13751   -13721   -14077   -14235   -14025   -13963   -13953 
  -13640   -13532   -13865   -13864   -13510   -13518   -13636   -13454 
  -13398   -13591   -13628   -13489   -13404   -13439   -13555   -13477 
  -13197   -13182   -13379   -13346   -13225   -13320   -13439   -13427 
  -13516   -13726   -13749   -13589   -13608   -13953   -14212   -14030 
  -13786   -13798   -13761   -13659   -13675   -13516   -13305   -13506 
  -13693   -13575   -13703   -13936   -13771   -13695   -14111   -14297 
  -13855   -13625   -13984   -14208   -14165   -14335   -14496   -14295 
  -14112   -14233   -14327   -14265   -14195   -13959   -13616   -13649 
  -13890   -13749   -13533   -13795   -14089   -14010   -14067   -14189 
  -13790   -13431   -13659   -13752   -13419   -13288   -13432   -13490 
  -13559   -13645   -13509   -13446   -13666   -13689   -13460   -13482 
  -13716   -13748   -13629   -13662   -13770   -13707   -13602   -13560 
  -13456   -13481   -13690   -13597   -13298   -13332   -13389   -13151 
  -13142   -13359   -13343   -13421   -13670   -13441   -13036   -13178 
  -13458   -13478   -13662   -13944   -13855   -13674   -13694   -13657 
  -13656   -13794   -13687   -13497   -13606   -13574   -13243   -13251 
  -13467   -13262   -13180   -13784   -14211   -13960   -13802   -13996 
  -14062   -14031   -14143   -14153   -13968   -14019   -14296   -14284 
  -14057   -14046   -14193   -14216   -14050   -13819   -13713   -13784 
  -13884   -13929   -13919   -13763   -13660   -13954   -14300   -14233 
  -14154   -14422   -14588   -14466   -14396   -14342   -14220   -14173 
  -14025   -13830   -13929   -13923   -13554   -13524   -13921   -14003 
  -13848   -13848   -13776   -13644   -13716   -13821   -13737   -13525 
  -13355   -13270   -13174   -13223   -13428   -13348   -13077   -13112 
  -13300   -13302   -13184   -13096   -13089   -13227   -13501   -13647 
  -13537   -13490   -13574   -13518   -13470   -13612   -13656   -13524 
  -13498   -13563   -13493   -13359   -13454   -13698   -13717   -13564 
  -13595   -13752   -13726   -13529   -13410   -13381   -13292   -13315 
  -13544   -13563   -13246   -13147   -13447   -13647   -13622   -13757 
  -13984   -13992   -13878   -13770   -13671   -13625   -13502   -13331 
  -13441   -13699   -13786   -13876   -14015   -14008   -13971   -13965 
  -13907   -13896   -13829   -13621   -13687   -13994   -13954   -13797 
  -14049   -14366   -14331   -14211   -14272   -14330   -14301   -14380 
  -14519   -14427   -14062   -13744   -13744   -13871   -13788   -13639 
  -13689   -13740   -13629   -13612   -13672   -13524   -13428   -13609 
  -13603   -13370   -13433   -13640   -13513   -13266   -13289   -13441 
  -13425   -13239   -13095   -13088   -13181   -13389   -13612   -13558 
  -13404   -13608   -13848   -13632   -13366   -13508   -13743   -13743 
  -13778   -14081   -14261   -14071   -13953   -14069   -14053   -13911 
  -13844   -13772   -13761   -13952   -14165   -14122   -13890   -13879 
  -14116   -14133   -13998   -14054   -13983   -13645   -13513   -13568 
  -13539   -13612   -13782   -13724   -13475   -13263   -13173   -13227 
  -13271   -13235   -13316   -13382   -13236   -13194   -13294   -13263 
  -13208   -13165   -13127   -13323   -13529   -13383   -13240   -13419 
  -13559   -13450   -13425   -13644   -13832   -13761   -13545   -13556 
  -13830   -13883   -13593   -13535   -13940   -14200   -14044   -14000 
  -14153   -14068   -13977   -14246   -14430   -14305   -14345   -14451 
  -14165   -13919   -14049   -13979   -13764   -13942   -14056   -13786 
  -13726   -13878   -13794   -13740   -13922   -13959   -13761   -13716 
  -13950   -14148   -14069   -13911   -13902   -13882   -13664   -13413 
  -13383   -13572   -13755   -13848   -13886   -13728   -13462   -13517 
  -13810   -13848   -13737   -13841   -13868   -13579   -13474   -13726 
  -13803   -13563   -13425   -13536   -13664   -13787   -13956   -13859 
  -13493   -13452   -13714   -13703   -13574   -13694   -13775   -13657 
  -13641   -13815   -13944   -13745   -13401   -13554   -13990   -13784 
  -13317   -13493   -13689   -13346   -13246   -13518   -13504   -13436 
  -13707   -13767   -13444   -13455   -13765   -13724   -13541   -13606 
  -13671   -13682   -13787   -13852   -13825   -13787   -13656   -13560 
  -13755   -13959   -13848   -13683   -13594   -13379   -13257   -13460 
  -13589   -13455   -13414   -13572   -13767   -13863   -13783   -13710 
  -13837   -13969   -13876   -13764   -13856   -13905   -13763   -13616 
  -13545   -13614   -13770   -13697   -13497   -13475   -13474   -13516 
  -13729   -13648   -13305   -13471   -13957   -14044   -13960   -14071 
  -14091   -13969   -13979   -13964   -13752   -13678   -13886   -13933 
  -13617   -13448   -13586   -13482   -13250   -13463   -13732   -13555 
  -13460   -13813   -14045   -13865   -13709   -13741   -13748   -13643 
  -13431   -13292   -13455   -13725   -13709   -13435   -13335   -13529 
  -13640   -13606   -13751   -14010   -14053   -13959   -14002   -14094 
  -14035   -13880   -13721   -13616   -13679   -13807   -13776   -13676 
  -13655   -13583   -13482   -13656   -13986   -14017   -13963   -14193 
  -14223   -13864   -13797   -13933   -13718   -13639   -13964   -13933 
  -13608   -13674   -13761   -13556   -13633   -13864   -13679   -13512 
  -13678   -13621   -13443   -13605   -13674   -13517   -13672   -13875 
  -13744   -13740   -13844   -13612   -13420   -13572   -13644   -13614 
