Origin Time       2024/04/02 04:24:00
Lat.              40.133
Long.             141.712
Depth. (km)       71
Mag.              6.0
Station Code      IBRH16
Station Lat.      36.6405
Station Long.     140.3976
Station Height(m) 90
Record Time       2024/04/02 04:25:31
Sampling Freq(Hz) 100Hz
Duration Time(s)  122
Dir.              4
Scale Factor      7845(gal)/8223790
Max. Acc. (gal)   3.243
Last Correction   2024/04/02 04:25:31
Memo.             
[...]
   10798    10588    10642    10663    10578    10617    10843    11149 
   11375    11375    11288    11292    11180    10840    10563    10443 
   10319    10266    10536    11088    11504    11628    11718    11774 
   11591    11207    10818    10542    10432    10528    10777    10922 
   10793    10639    10729    10914    11048    11194    11284    11196 
   11017    10837    10578    10304    10327    10647    10952    11114 
   11195    11190    11059    10918    10917    10910    10751    10725 
   10932    10966    10801    10827    10968    10952    10984    11318 
   11632    11554    11340    11226    11068    11057    11291    11209 
   10774    10679    10909    10889    10658    10636    10947    11349 
   11537    11476    11275    11078    11152    11302    11097    10805 
   10791    10889    10932    10959    11051    11195    11367    11484 
   11349    11013    10767    10836    11213    11515    11484    11348 
   11276    11092    10766    10635    10768    10868    10944    11072 
   11124    11199    11446    11622    11433    10967    10561    10447 
   10552    10723    10997    11190    11010    10863    11043    11025 
   10771    10848    11097    10948    10566    10423    10438    10430 
   10548    10762    10949    11209    11476    11654    11773    11723 
   11510    11227    10809    10376    10278    10557    10835    10964 
   11103    11192    11115    11032    11199    11512    11516    11287 
   11221    11067    10584    10257    10396    10652    10820    11084 
   11398    11499    11485    11504    11331    10967    10797    10909 
   11051    11149    11302    11368    11226    11165    11303    11264 
   10921    10673    10775    10940    10821    10660    10805    10966 
   10932    11040    11300    11406    11406    11307    10924    10525 
   10531    10817    11020    11041    11002    10953    10833    10783 
   11029    11392    11485    11250    10933    10693    10575    10579 
   10640    10774    10948    11114    11356    11511    11269    10886 
   10839    10912    10674    10428    10605    11034    11388    11477 
   11298    11142    11195    11227    11082    10882    10733    10655 
   10681    10800    10939    11037    11122    11257    11477    11623 
   11423    11071    10949    10845    10571    10567    10949    11192 
   11161    11256    11439    11367    11128    10909    10693    10621 
   10847    11061    10962    10843    10951    10956    10741    10685 
   10920    11125    11087    10990    11036    11148    11160    11105 
   11153    11151    10866    10683    10930    11130    10967    10797 
   10821    10831    10782    10924    11198    11287    11260    11217 
   10930    10608    10797    11252    11369    11291    11223    10971 
   10723    10779    10960    11080    11198    11333    11358    11222 
   11140    11142    11052    11011    11034    10901    10791    10908 
   11006    11022    11240    11466    11290    10980    11014    11199 
   11044    10639    10501    10617    10633    10727    11169    11659 
   11857    11747    11335    10741    10451    10602    10669    10652 
   11025    11369    11161    10906    11064    11291    11260    11167 
   11068    10758    10516    10733    11145    11315    11254    11229 
   11230    11059    10814    10770    10837    10732    10542    10539 
   10702    10943    11349    11831    12004    11672    11121    10759 
   10683    10720    10822    11011    11011    10771    10679    10816 
   11037    11335    11568    11553    11276    10951    10916    11094 
   11045    10737    10517    10588    10844    10917    10731    10781 
   11142    11263    11055    10903    11018    11333    11538    11314 
   10702    10199    10158    10378    10615    10882    11240    11672 
   11939    11776    11342    10976    10783    10675    10497    10327 
   10381    10561    10775    11141    11542    11718    11666    11553 
   11507    11439    11070    10521    10287    10397    10579    10833 
   11195    11523    11734    11769    11535    11196    11038    11068 
   11029    10752    10439    10318    10327    10467    10840    11238 
   11395    11454    11514    11441    11334    11194    10886    10597 
   10439    10350    10396    10571    10839    11209    11418    11245 
   11117    11354    11522    11414    11358    11318    11033    10705 
   10623    10675    10754    10910    11020    11059    11250    11529 
   11574    11421    11310    11078    10635    10431    10631    11024 
   11460    11569    11252    10987    10966    10993    11115    11458 
   11765    11716    11273    10594    10181    10454    11038    11319 
   11314    11290    11136    10899    10989    11200    11016    10654 
   10489    10415    10350    10573    11151    11518    11317    11041 
   11102    11327    11450    11387    11221    10957    10523    10107 
   10027    10272    10592    11017    11527    11635    11318    11134 
   11160    11115    10936    10729    10588    10620    10960    11176 
   10875    10751    11146    11296    11099    11211    11522    11426 
   11041    10929    11014    10836    10609    10729    11026    11338 
   11503    11294    11010    10925    10785    10633    10918    11435 
   11449    11038    10816    10693    10584    10908    11427    11493 
   11210    11115    11199    11090    10862    10725    10678    10808 
   10980    10812    10527    10571    10629    10505    10609    11010 
   11593    12195    12290    11732    10906    10143     9784     9933 
   10262    10611    11075    11506    11645    11615    11651    11655 
   11507    11410    11373    11040    10523    10276    10238    10093 
    9983    10311    10858    11226    11711    12220    12031    11367 
   10982    10829    10562    10211     9925     9794     9973    10411 
   10800    11213    11874    12397    12294    11790    11248    10565 
    9910     9733     9886    10095    10432    10867    11245    11487 
   11755    12174    12420    12465    12436    11892    10913    10141 
    9514     8965     9082    10091    11391    12353    12847    12920 
   12530    11778    11030    10493    10153    10114    10343    10538 
   10648    10891    11304    11745    12139    12438    12418    11947 
   11298    10527     9583     9116     9402     9934    10721    11769 
   12447    12561    12469    12440    12322    11956    11740    11651 
   11097    10334     9904     9715     9794    10318    11149    11979 
   12398    12171    11627    11148    10720    10503    10760    11025 
   10793    10474    10399    10401    10638    11292    12015    12421 
   12609    12550    11770    10611    10072    10106    10111    10146 
   10439    10739    10739    10625    10611    10656    10812    11034 
   11102    10863    10384     9884     9504     9482     9952    10392 
   10507    10822    11493    11892    11839    11870    12028    11824 
   11311    10832    10378     9845     9379     9236     9458    10021 
   10827    11507    11896    12105    12060    11500    10642    10235 
   10273    10188    10142    10538    11207    11803    12398    13130 
   13632    13652    13355    12636    11425    10374     9841     9387 
    9138     9726    10930    11946    12424    12474    12150    11503 
   10816    10158     9413     9080     9495     9876     9876    10089 
   10570    11141    11927    12718    13131    12955    12233    11178 
    9953     9126     9243     9848    10368    10747    10825    10732 
   10970    11399    11404    11036    10941    11052    10800    10347 
   10181    10389    10673    10652    10492    10596    10995    11448 
   11538    11221    10967    10887    10760    10918    11850    13047 
   13635    13597    13004    11581    10038     9595     9876     9863 
   10072    11002    11684    11692    11753    12019    12052    11967 
   12027    11882    11269    10561    10052     9655     9566    10281 
   11604    12646    13158    13416    13059    11572     9462     7986 
    7796     8310     8935     9852    10822    11348    11689    11927 
   11757    11488    11543    11739    11639    11010    10174     9616 
    9271     9243    10006    11389    12800    13680    13448    12094 
   10322     8850     8009     7824     8569    10436    12301    12928 
   12853    12843    12575    11801    10951    10485    10147     9441 
    8699     8442     8661     9346    10486    11773    12901    13699 
   13940    13404    12116    10565     9405     8784     8846     9875 
   11101    11603    11700    11700    11350    10808    10577    10976 
   11747    12109    11701    10935    10346    10125    10147    10474 
   11241    12078    12668    13093    12947    11869    10683    10211 
   10269    10693    11608    12627    13066    12980    12791    12220 
   11142    10280    10130    10380    10582    10773    10982    11055 
   11323    12002    12592    12779    12696    12510    12318    11900 
   11125    10566    10503    10331     9915     9940    10476    10844 
   10899    11013    11313    11669    11889    11824    11385    10754 
   10444    10557    10629    10558    10612    10708    10407     9574 
    8854     8892     9317     9844    10991    12610    13632    13392 
   12159    10740     9683     9097     8918     9088     9917    11299 
   12077    11716    10862     9957     9505    10041    10960    11466 
   11624    11542    11092    10570    10500    10804    11136    11465 
   11684    11561    11103    10692    10639    10705    10399     9517 
    8510     8087     8367     9047    10004    11126    11958    12094 
   11711    11229    11024    11188    11271    11025    10921    10978 
   10473     9867    10504    11739    12186    12496    13209    13200 
   12035    10708     9931     9571     9593    10145    10879    11341 
   11483    11381    11196    11101    11025    10917    10903    11105 
   11426    11612    11727    11828    11641    11340    11318    11371 
   11281    11242    11408    11817    12376    12532    11900    11090 
   10727    10408     9747     9319     9738    10434    10525    10416 
   10809    11531    12209    12610    12876    13244    13144    12181 
   11183    10629     9780     8676     8537     9526    10673    11364 
   11485    11448    11661    11894    12140    12525    12528    11668 
   10115     8685     8235     8541     9009    10042    11800    13166 
   13279    12510    11599    10660     9761     9524    10030    10782 
   11313    11233    10970    11044    11196    11227    11292    11767 
   12690    13312    12997    11819    10345     9094     8343     8232 
    8714     9911    11692    13090    13396    12676    11172     9456 
    8595     8966     9834    10575    11373    12494    13077    12306 
   11097    10284    10011    10781    11948    12118    11716    12035 
   12669    12027    10400     9936    10854    11639    12321    13375 
   13562    12337    11295    11020    10619    10519    11375    12023 
   11550    10906    10638    10111     9744    10454    11541    11959 
   11967    12116    12087    11472    10692    10246    10168    10546 
   11295    11749    11584    11245    10908    10093     8959     8896 
   10345    11848    12563    12803    12359    10944     9375     8677 
    8761     9038     9632    10775    11893    12062    11144    10257 
   10288    10546    10311    10154    10496    10687    10096     9108 
    8598     8830     9888    11642    12910    13120    13038    12603 
   11126     9470     9371    10606    11368    11353    11245    10763 
    9948     9711    10066    10120     9898    10183    10744    10428 
    9031     8073     8950    11043    12888    13902    14202    13805 
   12676    11114     9497     8527     8920    10120    10910    11061 
   11379    12160    12618    12245    11608    11403    11462    11102 
   10264     9674     9807    10357    10933    11502    12070    12573 
   13028    13389    13027    11452     9832     9516     9807     9859 
   10578    12409    13791    13505    12316    11416    11115    11061 
   10725    10395    10891    11709    11685    11005    10557    10636 
   11169    11919    12421    12708    13005    12668    11415    10172 
    9593     9664    10351    11551    12744    13162    12900    12619 
   12002    10674     9710     9910    10327    10211    10291    11005 
   11635    11890    12005    11654    10774    10120    10038    10203 
   10223     9772     9178     9309    10092    10601    10654    10777 
   11061    11261    11476    11901    12129    11500    10319     9602 
    9385     8741     7893     8275     9755    10791    11271    11902 
   12290    11859    11098    10719    10643    10511    10397    10409 
   10323    10123    10255    10898    11437    11473    11705    12602 
   13497    13676    13055    11826    10354     9286     8769     8533 
    9200    10974    12322    12258    11647    11554    11943    12291 
   12448    12600    12788    12406    11107     9682     8725     8232 
    8517     9576    10644    11276    11661    11927    12019    11932 
   11854    12073    12353    12163    11429    10346     9397     9097 
    9396    10061    11051    12345    13514    13927    13625    12973 
   12212    11381    10224     9001     8328     8348     9151    10551 
   11759    12388    12672    12745    12407    11491    10392     9668 
    9215     8746     8587     9205    10183    10656    10791    11331 
   12069    12330    12321    12386    12124    11438    10650     9969 
    9545     9204     9235    10412    12363    13909    14416    13855 
   12433    10836     9840     9432     9396     9574     9666     9865 
   10265    10284     9933    10170    11242    12123    12425    12776 
   12927    12252    11210    10308     9594     9478    10258    11488 
   12329    12324    11994    12012    12035    11599    11117    10883 
   10674    10432    10035     9464     9391    10322    11711    12584 
   12815    12690    11704     9990     8991     9107     9539    10199 
   11323    12465    12989    12719    11772    10477     9504     9009 
    8895     9817    11564    12526    12040    10966    10305     9976 
    9491     9501    10408    11302    11840    12231    12183    12062 
   12546    12926    12455    11612    10787     9981     9216     8617 
    8884    10234    11637    12513    13097    13180    12582    11796 
   11221    11113    11592    11954    11434    10436     9725     9009 
    8001     7978     9668    11673    12831    13304    13285    12460 
   11102    10444    10714    10833    10617    10678    10697    10323 
   10361    10982    11371    11488    11584    11763    12347    12681 
   11723    10191     9595     9910    10119    10150    10639    11526 
   12256    12452    12043    11445    11218    11368    11098    10010 
    8939     8397     8344     8961     9896    10821    11847    12614 
   12712    12112    11153    10629    10647    10524    10226    10161 
   10295    10428    10740    11381    12016    12434    12509    11947 
   11119    10578    10139     9607     9298     9574    10505    11830 
   12814    12926    12623    12386    11770    10467     9339     9363 
   10180    10943    11557    11938    11630    11013    11129    11773 
   11765    11113    10755    10728    10480    10226    10504    11001 
   11171    11259    11801    12591    12807    12244    11308    10350 
    9815     9702     9764    10470    11890    12908    12845    12384 
   12209    12024    11523    11020    10605    10255    10336    10679 
   10793    10951    11361    11470    10951    10405    10285    10129 
   10061    10581    11016    11090    11418    11631    11200    10686 
   10517    10424    10401    10643    10867    10800    10497    10120 
    9837     9625     9614    10044    10611    10991    11263    11425 
   11299    10820    10341    10336    10712    11028    11291    11534 
   11446    11211    11210    11099    10605    10227    10176    10052 
   10050    10585    11156    11368    11666    12209    12478    12356 
   12287    12160    11553    10856    10723    10787    10316     9772 
   10029    10728    11230    11718    12228    12191    11584    11090 
   10852    10493    10034     9829    10108    10658    11107    11475 
   11684    11576    11508    11681    11670    11279    10833    10669 
   10935    11445    11685    11580    11503    11577    11600    11230 
   10739    10667    10613    10296    10357    11119    11809    11425 
   10474    10326    10886    11105    10935    11065    11564    11935 
   11944    11836    11898    11827    11229    10636    10729    11178 
   11410    11519    11747    11938    11843    11396    10606     9909 
    9845    10003     9771     9536     9837    10508    11161    11824 
   12467    12575    12177    11875    11612    11020    10197     9648 
    9772    10320    10935    11477    11518    11009    10597    10422 
   10083     9765    10053    10737    10878    10281     9783     9729 
    9852    10304    11137    12097    13028    13270    12411    11307 
   10558     9794     8899     8621     9578    10959    11611    11823 
   12463    13181    13020    12471    12430    12193    11103     9737 
    8826     8996    10247    11553    12156    12170    11940    11724 
   11365    10615    10104    10575    11380    11502    11202    10913 
   10408    10135    10678    11547    12074    12243    12383    12266 
   11352    10261     9965    10210    10423    10659    11156    11884 
   12375    12042    10867     9861     9956    10509    10629    10692 
   10916    10764    10400    10431    10547    10368    10470    11169 
   11785    11719    11038    10084     9286     8981     9274    10177 
   11425    12448    12781    12474    11935    11187    10073     9027 
    8629     8865     9545    10501    11246    11654    12069    12378 
   12464    12505    12194    11516    10964    10193     8965     8256 
    8625     9697    11195    12779    13815    14061    13608    12325 
   10671     9626     9105     8638     8668     9547    10887    12145 
   12976    13379    13675    13747    13086    12244    12019    11620 
   10288     8914     8669     9459    10309    10980    11850    12776 
   13321    13279    12853    12212    11168    10025     9267     8738 
    8571     9209    10211    11132    12272    13321    13552    13016 
   12089    11132    10508    10131     9640     9310     9647    10237 
   10750    11425    11923    12031    12058    11794    11097    10461 
   10099     9726     9323     9354    10079    11106    11916    12337 
   12598    12985    13203    12793    12000    11273    10670    10153 
    9734     9466     9540     9944    10507    11273    12077    12368 
   11952    11296    10795    10282     9738     9490     9586     9944 
   10669    11487    11772    11649    11537    11184    10747    10582 
   10347    10096    10108    10123    10089    10138    10288    10620 
   11032    11294    11279    11113    11011    10883    10569    10230 
   10115    10343    10966    11747    12286    12552    12637    12514 
   12220    11750    11165    10589    10143    10131    10585    10993 
   11048    10940    10871    10987    11314    11465    11281    11159 
   11087    10773    10393    10187    10257    10692    11133    11132 
   10912    10899    10951    10708    10422    10798    11720    12239 
