Origin Time       2024/04/02 04:24:00
Lat.              40.133
Long.             141.712
Depth. (km)       71
Mag.              6.0
Station Code      IBRH13
Station Lat.      36.7955
Station Long.     140.5750
Station Height(m) 405
Record Time       2024/04/02 04:25:30
Sampling Freq(Hz) 100Hz
Duration Time(s)  120
Dir.              2
Scale Factor      3923(gal)/8224838
Max. Acc. (gal)   0.532
Last Correction   2024/04/02 04:25:30
Memo.             
[...]
  -18322   -18358   -18331   -18415   -18314   -18158   -18308   -18422 
  -18292   -18238   -18345   -18431   -18403   -18378   -18419   -18377 
  -18326   -18397   -18422   -18400   -18451   -18447   -18411   -18445 
  -18445   -18400   -18409   -18446   -18431   -18387   -18393   -18427 
  -18405   -18365   -18355   -18303   -18252   -18343   -18435   -18347 
  -18284   -18365   -18366   -18346   -18480   -18505   -18315   -18262 
  -18373   -18382   -18343   -18389   -18416   -18334   -18291   -18415 
  -18513   -18449   -18377   -18366   -18428   -18531   -18465   -18341 
  -18361   -18311   -18247   -18373   -18382   -18279   -18346   -18362 
  -18256   -18281   -18334   -18301   -18284   -18341   -18424   -18307 
  -18092   -18208   -18400   -18289   -18239   -18331   -18262   -18222 
  -18337   -18364   -18324   -18373   -18442   -18427   -18403   -18473 
  -18527   -18490   -18516   -18534   -18419   -18405   -18534   -18577 
  -18588   -18600   -18511   -18449   -18441   -18389   -18416   -18438 
  -18343   -18385   -18442   -18269   -18206   -18265   -18225   -18314 
  -18404   -18283   -18326   -18457   -18360   -18357   -18500   -18457 
  -18372   -18408   -18438   -18457   -18473   -18415   -18381   -18445 
  -18488   -18455   -18388   -18330   -18376   -18470   -18436   -18381 
  -18424   -18347   -18219   -18289   -18346   -18319   -18400   -18385 
  -18261   -18326   -18404   -18366   -18395   -18397   -18319   -18308 
  -18310   -18247   -18192   -18272   -18426   -18378   -18269   -18353 
  -18288   -18037   -18098   -18296   -18272   -18265   -18300   -18220 
  -18222   -18316   -18274   -18179   -18233   -18350   -18400   -18449 
  -18462   -18349   -18304   -18430   -18481   -18439   -18530   -18609 
  -18488   -18400   -18453   -18482   -18495   -18477   -18423   -18476 
  -18551   -18489   -18408   -18382   -18361   -18376   -18414   -18441 
  -18505   -18553   -18504   -18466   -18474   -18423   -18443   -18580 
  -18566   -18450   -18441   -18416   -18373   -18439   -18482   -18434 
  -18349   -18279   -18351   -18442   -18351   -18280   -18287   -18219 
  -18229   -18316   -18274   -18277   -18373   -18291   -18166   -18238 
  -18310   -18265   -18268   -18342   -18364   -18341   -18364   -18358 
  -18316   -18415   -18508   -18403   -18374   -18462   -18424   -18364 
  -18320   -18258   -18295   -18287   -18181   -18216   -18318   -18357 
  -18365   -18268   -18245   -18357   -18312   -18345   -18528   -18403 
  -18260   -18333   -18216   -18202   -18360   -18218   -18204   -18423 
  -18301   -18239   -18450   -18415   -18337   -18447   -18485   -18503 
  -18517   -18469   -18486   -18477   -18428   -18481   -18462   -18395 
  -18457   -18454   -18399   -18455   -18409   -18353   -18509   -18546 
  -18428   -18480   -18520   -18431   -18466   -18538   -18462   -18416 
  -18458   -18412   -18299   -18274   -18349   -18411   -18365   -18301 
  -18334   -18330   -18272   -18346   -18422   -18377   -18400   -18428 
  -18365   -18388   -18418   -18345   -18354   -18376   -18343   -18428 
  -18434   -18280   -18300   -18351   -18300   -18472   -18631   -18457 
  -18357   -18445   -18426   -18381   -18369   -18327   -18380   -18368 
  -18156   -18138   -18270   -18148   -18094   -18285   -18297   -18222 
  -18270   -18253   -18280   -18385   -18280   -18212   -18404   -18430 
  -18295   -18384   -18465   -18324   -18306   -18473   -18520   -18446 
  -18373   -18283   -18299   -18468   -18503   -18358   -18358   -18463 
  -18426   -18395   -18490   -18519   -18459   -18441   -18411   -18330 
  -18310   -18411   -18503   -18445   -18389   -18395   -18229   -18104 
  -18322   -18474   -18374   -18364   -18412   -18370   -18358   -18393 
  -18427   -18411   -18307   -18249   -18279   -18276   -18254   -18296 
  -18387   -18422   -18380   -18411   -18455   -18364   -18319   -18380 
  -18361   -18324   -18335   -18370   -18478   -18544   -18489   -18434 
  -18407   -18424   -18485   -18481   -18459   -18447   -18395   -18426 
  -18484   -18419   -18353   -18337   -18373   -18451   -18377   -18261 
  -18281   -18277   -18327   -18439   -18382   -18370   -18463   -18427 
  -18419   -18455   -18395   -18357   -18299   -18265   -18373   -18327 
  -18202   -18307   -18320   -18214   -18319   -18372   -18299   -18397 
  -18455   -18395   -18419   -18355   -18268   -18355   -18362   -18347 
  -18457   -18339   -18160   -18301   -18385   -18291   -18355   -18414 
  -18322   -18316   -18358   -18345   -18376   -18422   -18435   -18445 
  -18404   -18314   -18276   -18382   -18527   -18492   -18451   -18573 
  -18505   -18327   -18415   -18462   -18378   -18481   -18519   -18381 
  -18364   -18438   -18504   -18442   -18252   -18296   -18416   -18316 
  -18382   -18489   -18303   -18291   -18439   -18339   -18293   -18426 
  -18469   -18420   -18345   -18337   -18370   -18291   -18274   -18408 
  -18419   -18327   -18346   -18432   -18424   -18361   -18346   -18289 
  -18254   -18408   -18441   -18260   -18274   -18331   -18214   -18233 
  -18288   -18257   -18377   -18423   -18312   -18360   -18354   -18264 
  -18391   -18401   -18249   -18343   -18376   -18261   -18380   -18414 
  -18269   -18316   -18358   -18330   -18389   -18369   -18319   -18284 
  -18223   -18326   -18409   -18350   -18438   -18459   -18284   -18319 
  -18422   -18320   -18304   -18446   -18480   -18351   -18265   -18372 
  -18470   -18424   -18426   -18431   -18327   -18327   -18396   -18327 
  -18296   -18362   -18335   -18320   -18382   -18361   -18347   -18449 
  -18497   -18457   -18454   -18465   -18445   -18446   -18457   -18446 
  -18450   -18431   -18372   -18431   -18546   -18492   -18434   -18468 
  -18350   -18268   -18474   -18578   -18468   -18497   -18553   -18465 
  -18416   -18365   -18337   -18445   -18470   -18415   -18409   -18312 
  -18269   -18353   -18252   -18177   -18291   -18258   -18273   -18438 
  -18327   -18219   -18354   -18269   -18176   -18378   -18378   -18222 
  -18308   -18380   -18319   -18330   -18339   -18310   -18327   -18354 
  -18345   -18333   -18337   -18330   -18314   -18327   -18362   -18401 
  -18382   -18283   -18276   -18392   -18422   -18369   -18331   -18314 
  -18369   -18468   -18507   -18478   -18454   -18453   -18378   -18304 
  -18408   -18499   -18400   -18346   -18382   -18369   -18426   -18570 
  -18566   -18427   -18334   -18324   -18378   -18384   -18349   -18411 
  -18358   -18230   -18395   -18446   -18192   -18257   -18423   -18296 
  -18310   -18416   -18365   -18399   -18405   -18303   -18362   -18453 
  -18419   -18374   -18350   -18399   -18465   -18420   -18385   -18396 
  -18389   -18443   -18482   -18403   -18345   -18341   -18370   -18484 
  -18493   -18441   -18550   -18513   -18288   -18297   -18362   -18303 
  -18355   -18392   -18343   -18342   -18272   -18227   -18342   -18393 
  -18330   -18277   -18295   -18380   -18365   -18311   -18407   -18422 
  -18349   -18418   -18423   -18384   -18449   -18337   -18222   -18330 
  -18308   -18283   -18419   -18362   -18303   -18416   -18391   -18373 
  -18430   -18315   -18242   -18280   -18256   -18307   -18376   -18314 
  -18285   -18281   -18261   -18324   -18337   -18300   -18395   -18455 
  -18470   -18547   -18424   -18287   -18477   -18519   -18319   -18369 
  -18436   -18350   -18404   -18438   -18362   -18373   -18341   -18320 
  -18439   -18405   -18283   -18353   -18404   -18334   -18330   -18377 
  -18449   -18554   -18547   -18418   -18339   -18355   -18393   -18420 
  -18451   -18442   -18349   -18277   -18316   -18350   -18277   -18212 
  -18314   -18474   -18453   -18324   -18300   -18370   -18442   -18461 
  -18395   -18324   -18361   -18480   -18505   -18414   -18428   -18501 
  -18399   -18307   -18408   -18468   -18391   -18389   -18458   -18389 
  -18283   -18360   -18445   -18388   -18382   -18403   -18310   -18293 
  -18387   -18385   -18405   -18469   -18334   -18243   -18399   -18432 
  -18388   -18457   -18368   -18253   -18354   -18415   -18404   -18431 
  -18374   -18279   -18276   -18376   -18419   -18306   -18279   -18319 
  -18229   -18288   -18459   -18393   -18343   -18416   -18368   -18358 
  -18431   -18400   -18368   -18330   -18270   -18353   -18365   -18218 
  -18273   -18362   -18206   -18169   -18288   -18258   -18303   -18441 
  -18381   -18350   -18409   -18304   -18285   -18447   -18416   -18281 
  -18303   -18331   -18306   -18385   -18466   -18420   -18372   -18360 
  -18378   -18481   -18490   -18385   -18391   -18372   -18310   -18409 
  -18388   -18242   -18387   -18505   -18335   -18314   -18364   -18262 
  -18355   -18532   -18438   -18365   -18455   -18461   -18391   -18277 
  -18202   -18368   -18520   -18418   -18370   -18436   -18377   -18328 
  -18396   -18362   -18280   -18357   -18418   -18384   -18447   -18432 
  -18308   -18418   -18499   -18288   -18277   -18431   -18318   -18230 
  -18338   -18318   -18208   -18215   -18304   -18334   -18258   -18257 
  -18320   -18300   -18339   -18396   -18301   -18285   -18327   -18238 
  -18252   -18366   -18303   -18246   -18360   -18346   -18189   -18237 
  -18411   -18373   -18284   -18415   -18472   -18324   -18382   -18538 
  -18423   -18384   -18523   -18422   -18314   -18438   -18434   -18389 
  -18490   -18415   -18261   -18299   -18343   -18364   -18392   -18366 
  -18439   -18528   -18465   -18455   -18517   -18517   -18563   -18574 
  -18499   -18486   -18459   -18436   -18553   -18631   -18624   -18632 
  -18611   -18646   -18698   -18597   -18550   -18571   -18401   -18283 
  -18415   -18497   -18455   -18509   -18569   -18451   -18426   -18613 
  -18624   -18500   -18589   -18667   -18598   -18593   -18597   -18512 
  -18396   -18361   -18454   -18407   -18173   -18084   -18114   -18100 
  -18087   -18031   -17964   -18023   -18164   -18254   -18239   -18165 
  -18117   -18134   -18165   -18114   -18095   -18185   -18164   -18000 
  -17923   -17910   -17864   -17883   -17980   -17998   -17918   -17940 
  -18072   -18084   -18091   -18210   -18153   -18058   -18203   -18187 
  -17967   -18026   -18202   -18187   -18133   -18138   -18211   -18273 
  -18233   -18233   -18231   -18135   -18250   -18489   -18419   -18318 
  -18463   -18488   -18427   -18559   -18566   -18399   -18451   -18570 
  -18569   -18643   -18698   -18620   -18607   -18679   -18650   -18557 
  -18646   -18732   -18555   -18515   -18698   -18674   -18646   -18835 
  -18952   -19035   -19155   -19140   -19043   -18922   -18800   -18711 
  -18601   -18546   -18519   -18465   -18576   -18638   -18451   -18468 
  -18613   -18504   -18397   -18330   -18160   -18114   -18087   -18010 
  -18141   -18145   -17902   -17956   -18064   -17849   -17847   -18068 
  -17965   -17799   -17902   -17988   -18036   -18153   -18180   -18193 
  -18288   -18307   -18351   -18459   -18380   -18262   -18334   -18330 
  -18249   -18388   -18557   -18519   -18511   -18581   -18538   -18539 
  -18662   -18634   -18566   -18642   -18592   -18478   -18607   -18728 
  -18696   -18794   -18978   -19048   -19133   -19230   -19125   -18955 
  -18981   -18970   -18781   -18765   -18875   -18779   -18729   -18774 
  -18516   -18220   -18256   -18323   -18296   -18301   -18304   -18409 
  -18553   -18463   -18320   -18323   -18297   -18230   -18222   -18258 
  -18296   -18212   -18069   -18115   -18306   -18403   -18331   -18216 
  -18220   -18233   -18156   -18138   -18154   -18150   -18256   -18368 
  -18334   -18179   -18015   -18038   -18095   -17961   -17969   -18138 
  -18106   -18126   -18327   -18314   -18207   -18262   -18291   -18246 
  -18204   -18195   -18283   -18324   -18261   -18214   -18141   -18158 
  -18385   -18584   -18665   -18677   -18638   -18678   -18642   -18438 
  -18431   -18496   -18335   -18277   -18396   -18391   -18500   -18909 
  -19122   -18933   -18825   -18902   -18750   -18447   -18365   -18368 
  -18218   -18103   -18257   -18509   -18662   -18817   -18866   -18697 
  -18648   -18720   -18689   -18727   -18773   -18719   -18792   -18797 
  -18590   -18636   -18839   -18736   -18585   -18565   -18424   -18252 
  -18188   -18202   -18330   -18458   -18559   -18666   -18550   -18349 
  -18245   -17938   -17613   -17655   -17767   -17890   -18158   -18156 
  -17940   -17960   -17879   -17628   -17748   -17822   -17471   -17435 
  -17624   -17386   -17315   -17590   -17493   -17342   -17505   -17487 
  -17356   -17352   -17294   -17348   -17514   -17501   -17489   -17599 
  -17736   -17907   -17990   -18053   -18234   -18253   -18115   -18153 
  -18173   -17945   -17802   -17936   -18077   -18084   -18176   -18432 
  -18558   -18549   -18729   -18825   -18571   -18505   -18596   -18303 
  -18112   -18333   -18412   -18472   -18662   -18586   -18458   -18482 
  -18519   -18731   -18902   -18859   -18952   -18983   -18910   -19141 
  -19236   -19089   -19299   -19341   -18944   -19008   -19201   -18820 
  -18693   -18987   -18825   -18544   -18669   -18671   -18523   -18701 
  -18933   -18947   -19033   -19179   -19160   -19067   -18925   -18746 
  -18733   -18729   -18504   -18370   -18426   -18443   -18586   -18863 
  -18971   -19025   -19144   -19082   -18921   -18983   -19128   -19036 
  -18801   -18697   -18692   -18578   -18447   -18470   -18461   -18382 
  -18422   -18412   -18320   -18397   -18503   -18499   -18445   -18258 
  -18188   -18381   -18412   -18404   -18679   -18675   -18310   -18320 
  -18520   -18392   -18299   -18315   -18188   -18269   -18478   -18404 
  -18400   -18442   -18235   -18227   -18373   -18306   -18297   -18222 
  -17917   -17697   -17429   -17257   -17443   -17481   -17501   -17857 
  -17967   -17961   -18181   -17959   -17562   -17697   -17797   -17703 
  -17882   -17992   -17833   -17736   -17720   -17698   -17631   -17620 
  -17849   -18026   -17946   -17948   -18139   -18343   -18459   -18447 
  -18346   -18250   -18276   -18326   -18141   -17921   -17894   -17917 
  -18107   -18323   -18146   -18053   -18219   -17918   -17552   -17820 
  -18007   -17772   -17713   -17861   -17953   -17934   -17876   -17992 
  -18048   -17876   -17940   -18104   -17983   -17955   -18114   -18257 
  -18445   -18469   -18388   -18524   -18609   -18580   -18642   -18586 
  -18499   -18576   -18716   -18993   -19141   -18879   -18747   -18800 
  -18567   -18468   -18719   -18806   -18805   -18846   -18706   -18716 
  -18935   -18870   -18797   -19021   -19014   -18816   -19008   -19292 
  -19144   -18893   -18974   -19144   -19105   -19062   -19060   -18828 
  -18688   -18941   -18966   -18711   -18763   -18742   -18492   -18567 
  -18631   -18463   -18430   -18243   -18083   -18361   -18310   -18002 
  -18312   -18628   -18569   -18708   -18639   -18303   -18389   -18414 
  -18192   -18434   -18596   -18330   -18516   -18802   -18615   -18774 
  -19102   -18858   -18635   -18544   -18265   -18296   -18465   -18341 
  -18261   -18106   -17886   -18117   -18318   -18098   -18100   -18210 
  -17833   -17521   -17768   -17950   -17803   -17793   -17867   -17824 
  -17884   -17914   -17724   -17751   -18050   -18087   -17936   -17983 
  -18107   -18161   -18261   -18481   -18775   -18952   -18885   -18787 
  -18797   -18698   -18519   -18469   -18389   -18295   -18482   -18704 
  -18677   -18723   -18839   -18781   -18777   -18867   -18967   -19151 
  -19089   -18777   -18702   -18723   -18700   -18786   -18736   -18634 
  -18711   -18740   -18759   -18678   -18322   -18142   -18058   -17875 
  -18152   -18441   -18158   -18141   -18435   -18451   -18573   -18690 
  -18508   -18507   -18457   -18173   -18227   -18216   -17930   -18048 
  -18061   -17660   -17779   -18117   -17950   -17845   -17977   -17918 
  -17814   -17797   -17759   -17709   -17637   -17716   -17930   -17868 
  -17778   -18119   -18380   -18250   -18214   -18192   -17936   -17876 
  -17976   -17772   -17575   -17737   -18031   -18312   -18428   -18397 
  -18559   -18647   -18339   -18204   -18393   -18423   -18358   -18299 
  -18129   -18160   -18434   -18594   -18701   -18767   -18621   -18519 
  -18598   -18559   -18451   -18547   -18643   -18600   -18689   -18800 
  -18716   -18783   -19022   -18986   -18963   -19283   -19395   -19257 
  -19294   -19207   -18981   -18970   -18832   -18542   -18563   -18720 
  -18700   -18497   -18250   -18306   -18611   -18817   -18929   -18856 
  -18678   -18817   -18994   -18820   -18648   -18644   -18779   -19056 
  -19106   -18956   -18948   -18906   -18777   -18738   -18650   -18392 
  -18099   -17973   -17938   -17836   -17952   -18254   -18218   -18077 
  -18250   -18314   -18104   -17982   -17925   -17864   -17936   -17969 
  -17867   -17992   -18300   -18326   -18196   -18127   -17909   -17784 
  -17930   -17852   -17772   -18129   -18234   -17964   -17957   -17894 
  -17701   -17826   -17736   -17431   -17645   -17766   -17448   -17544 
  -17787   -17624   -17631   -17896   -18053   -18273   -18493   -18522 
  -18453   -18341   -18349   -18509   -18530   -18489   -18590   -18638 
  -18592   -18644   -18647   -18476   -18520   -18751   -18535   -18122 
  -18134   -18199   -18195   -18384   -18256   -17891   -18071   -18384 
  -18316   -18361   -18512   -18405   -18297   -18331   -18414   -18569 
  -18639   -18619   -18646   -18581   -18524   -18712   -18944   -19035 
  -18985   -18797   -18550   -18284   -18115   -18146   -18208   -18335 
  -18567   -18627   -18706   -18921   -18874   -18779   -18802   -18520 
  -18279   -18333   -18061   -17690   -17791   -17961   -18019   -18107 
  -18069   -18204   -18647   -18770   -18644   -18701   -18524   -18212 
  -18357   -18538   -18376   -18237   -18204   -18253   -18331   -18249 
  -18245   -18372   -18423   -18544   -18504   -18227   -18299   -18470 
  -18257   -18087   -18188   -18291   -18273   -18237   -18355   -18446 
  -18358   -18415   -18497   -18246   -18107   -18364   -18561   -18619 
  -18689   -18625   -18496   -18416   -18368   -18507   -18611   -18407 
  -18211   -18077   -17953   -18069   -18134   -17996   -18050   -18152 
  -18158   -18292   -18346   -18279   -18291   -18216   -18102   -18037 
  -17925   -17990   -18092   -17965   -18161   -18619   -18549   -18318 
  -18420   -18439   -18445   -18632   -18603   -18480   -18472   -18331 
  -18405   -18817   -18790   -18544   -18779   -18844   -18508   -18539 
  -18523   -17979   -17815   -18185   -18314   -18322   -18465   -18551 
  -18607   -18607   -18603   -18716   -18708   -18670   -18775   -18643 
  -18401   -18500   -18721   -18837   -18870   -18855   -18913   -18889 
  -18613   -18322   -18184   -18104   -18013   -17949   -17892   -17793 
  -17911   -18343   -18553   -18350   -18247   -18369   -18341   -18296 
  -18509   -18581   -18411   -18501   -18715   -18717   -18729   -18771 
  -18751   -18812   -18817   -18624   -18462   -18449   -18508   -18590 
  -18681   -18725   -18644   -18720   -19049   -18944   -18473   -18527 
  -18642   -18222   -18076   -18266   -18193   -18219   -18281   -18038 
  -18058   -18234   -18096   -18198   -18439   -18343   -18539   -18863 
  -18474   -18052   -18081   -17933   -17915   -18235   -18077   -17755 
  -17941   -18050   -17938   -18068   -18180   -18090   -18041   -18077 
  -18114   -18052   -17998   -18058   -17942   -17791   -17980   -18077 
  -17883   -17892   -18127   -18280   -18242   -18115   -18216   -18468 
  -18549   -18570   -18549   -18432   -18387   -18284   -18119   -18122 
  -18252   -18535   -18727   -18403   -18123   -18335   -18451   -18400 
