Origin Time       2024/04/02 04:24:00
Lat.              40.133
Long.             141.712
Depth. (km)       71
Mag.              6.0
Station Code      IBRH06
Station Lat.      36.8809
Station Long.     140.6545
Station Height(m) 395
Record Time       2024/04/02 04:25:28
Sampling Freq(Hz) 100Hz
Duration Time(s)  120
Dir.              6
Scale Factor      7845(gal)/8223790
Max. Acc. (gal)   2.396
Last Correction   2024/04/02 04:25:28
Memo.             
[...]
   -9813    -9814    -9814    -9814    -9817    -9815    -9814    -9815 
   -9815    -9811    -9810    -9813    -9815    -9814    -9814    -9815 
   -9815    -9814    -9814    -9813    -9813    -9813    -9813    -9813 
   -9814    -9814    -9814    -9815    -9817    -9814    -9813    -9815 
   -9815    -9813    -9814    -9815    -9813    -9814    -9814    -9811 
   -9811    -9814    -9814    -9813    -9814    -9815    -9813    -9811 
   -9814    -9815    -9813    -9813    -9813    -9815    -9814    -9811 
   -9815    -9815    -9811    -9813    -9811    -9810    -9813    -9813 
   -9813    -9814    -9814    -9814    -9815    -9815    -9815    -9814 
   -9814    -9813    -9811    -9813    -9813    -9814    -9814    -9814 
   -9815    -9814    -9813    -9813    -9811    -9814    -9817    -9813 
   -9814    -9817    -9813    -9809    -9813    -9814    -9813    -9813 
   -9815    -9815    -9814    -9814    -9814    -9813    -9814    -9813 
   -9813    -9814    -9813    -9814    -9814    -9814    -9815    -9814 
   -9813    -9814    -9811    -9813    -9818    -9817    -9815    -9815 
   -9813    -9813    -9815    -9815    -9814    -9813    -9811    -9813 
   -9814    -9814    -9813    -9814    -9815    -9814    -9813    -9814 
   -9815    -9814    -9813    -9817    -9817    -9814    -9813    -9813 
   -9814    -9815    -9814    -9815    -9815    -9811    -9811    -9815 
   -9817    -9815    -9814    -9813    -9813    -9814    -9814    -9814 
   -9813    -9814    -9817    -9815    -9811    -9811    -9813    -9811 
   -9813    -9817    -9817    -9814    -9814    -9814    -9813    -9814 
   -9814    -9814    -9814    -9814    -9813    -9814    -9814    -9813 
   -9811    -9811    -9810    -9811    -9814    -9815    -9814    -9813 
   -9813    -9815    -9815    -9813    -9814    -9817    -9815    -9814 
   -9815    -9813    -9813    -9817    -9817    -9814    -9815    -9815 
   -9814    -9815    -9815    -9813    -9813    -9811    -9814    -9815 
   -9814    -9817    -9817    -9813    -9813    -9813    -9811    -9813 
   -9814    -9814    -9814    -9813    -9814    -9815    -9814    -9813 
   -9815    -9815    -9811    -9811    -9814    -9813    -9811    -9813 
   -9815    -9814    -9811    -9813    -9814    -9813    -9811    -9813 
   -9813    -9811    -9811    -9813    -9815    -9815    -9814    -9815 
   -9817    -9814    -9815    -9815    -9811    -9811    -9814    -9814 
   -9814    -9814    -9813    -9815    -9817    -9814    -9811    -9811 
   -9811    -9813    -9813    -9814    -9815    -9817    -9813    -9813 
   -9815    -9815    -9811    -9814    -9817    -9814    -9813    -9814 
   -9815    -9815    -9813    -9813    -9814    -9814    -9813    -9814 
   -9814    -9813    -9813    -9813    -9813    -9814    -9815    -9814 
   -9813    -9813    -9813    -9814    -9813    -9813    -9815    -9815 
   -9815    -9813    -9810    -9813    -9814    -9813    -9813    -9813 
   -9813    -9814    -9817    -9817    -9815    -9814    -9814    -9814 
   -9813    -9813    -9814    -9815    -9814    -9813    -9814    -9815 
   -9814    -9811    -9813    -9814    -9813    -9813    -9813    -9813 
   -9814    -9813    -9811    -9813    -9814    -9815    -9817    -9814 
   -9814    -9815    -9814    -9813    -9814    -9814    -9813    -9814 
   -9814    -9815    -9815    -9814    -9814    -9814    -9813    -9811 
   -9813    -9815    -9815    -9815    -9815    -9811    -9810    -9811 
   -9814    -9814    -9813    -9811    -9813    -9814    -9814    -9814 
   -9814    -9813    -9813    -9811    -9813    -9814    -9811    -9809 
   -9813    -9817    -9814    -9811    -9813    -9814    -9813    -9813 
   -9815    -9815    -9813    -9811    -9813    -9814    -9813    -9811 
   -9813    -9814    -9815    -9814    -9813    -9814    -9817    -9817 
   -9815    -9814    -9814    -9815    -9815    -9814    -9814    -9814 
   -9814    -9814    -9814    -9813    -9811    -9813    -9814    -9815 
   -9813    -9811    -9813    -9813    -9813    -9814    -9814    -9814 
   -9814    -9814    -9813    -9811    -9811    -9813    -9814    -9811 
   -9813    -9813    -9813    -9814    -9811    -9813    -9817    -9814 
   -9813    -9814    -9814    -9814    -9814    -9814    -9813    -9813 
   -9814    -9815    -9813    -9811    -9813    -9815    -9813    -9813 
   -9813    -9811    -9813    -9813    -9811    -9814    -9815    -9815 
   -9814    -9811    -9810    -9813    -9814    -9813    -9814    -9814 
   -9813    -9814    -9814    -9813    -9814    -9815    -9813    -9811 
   -9817    -9817    -9811    -9813    -9815    -9814    -9814    -9814 
   -9813    -9813    -9813    -9813    -9814    -9814    -9813    -9811 
   -9813    -9813    -9813    -9813    -9813    -9814    -9814    -9815 
   -9813    -9811    -9814    -9814    -9813    -9814    -9814    -9815 
   -9817    -9815    -9813    -9813    -9813    -9813    -9813    -9814 
   -9815    -9815    -9813    -9814    -9815    -9814    -9813    -9813 
   -9814    -9815    -9815    -9815    -9814    -9813    -9811    -9811 
   -9813    -9815    -9815    -9811    -9811    -9815    -9815    -9813 
   -9815    -9817    -9814    -9814    -9815    -9815    -9813    -9814 
   -9813    -9813    -9814    -9815    -9815    -9814    -9814    -9813 
   -9813    -9811    -9813    -9813    -9813    -9813    -9813    -9814 
   -9815    -9815    -9813    -9811    -9813    -9813    -9813    -9813 
   -9813    -9814    -9814    -9815    -9815    -9814    -9813    -9813 
   -9815    -9815    -9814    -9813    -9813    -9814    -9817    -9817 
   -9815    -9814    -9814    -9814    -9814    -9815    -9814    -9811 
   -9814    -9814    -9814    -9814    -9813    -9814    -9817    -9814 
   -9811    -9814    -9818    -9815    -9814    -9813    -9814    -9815 
   -9815    -9815    -9814    -9813    -9814    -9815    -9815    -9815 
   -9813    -9813    -9814    -9814    -9814    -9817    -9817    -9813 
   -9811    -9813    -9813    -9813    -9814    -9814    -9815    -9815 
   -9814    -9813    -9815    -9817    -9814    -9813    -9813    -9813 
   -9811    -9813    -9814    -9813    -9813    -9814    -9811    -9813 
   -9815    -9814    -9814    -9814    -9813    -9811    -9813    -9815 
   -9815    -9813    -9813    -9814    -9813    -9813    -9814    -9814 
   -9813    -9813    -9811    -9813    -9813    -9815    -9814    -9813 
   -9815    -9814    -9814    -9817    -9814    -9811    -9814    -9814 
   -9814    -9817    -9814    -9811    -9814    -9814    -9813    -9813 
   -9814    -9814    -9815    -9815    -9814    -9813    -9814    -9813 
   -9811    -9815    -9818    -9813    -9811    -9815    -9817    -9814 
   -9815    -9818    -9814    -9811    -9815    -9817    -9814    -9814 
   -9815    -9813    -9813    -9814    -9813    -9811    -9814    -9814 
   -9813    -9814    -9813    -9813    -9814    -9815    -9814    -9814 
   -9814    -9817    -9817    -9814    -9814    -9814    -9813    -9814 
   -9811    -9811    -9813    -9813    -9815    -9815    -9813    -9813 
   -9814    -9814    -9814    -9814    -9813    -9813    -9813    -9814 
   -9817    -9815    -9813    -9814    -9814    -9813    -9815    -9815 
   -9814    -9814    -9814    -9814    -9815    -9817    -9815    -9815 
   -9814    -9815    -9815    -9815    -9814    -9815    -9815    -9814 
   -9813    -9811    -9814    -9815    -9814    -9813    -9814    -9815 
   -9815    -9814    -9814    -9813    -9813    -9815    -9813    -9811 
   -9814    -9813    -9813    -9815    -9815    -9814    -9814    -9813 
   -9814    -9813    -9813    -9815    -9817    -9813    -9814    -9815 
   -9813    -9813    -9813    -9813    -9817    -9815    -9813    -9815 
   -9814    -9813    -9817    -9817    -9814    -9813    -9814    -9813 
   -9811    -9814    -9814    -9814    -9814    -9814    -9814    -9813 
   -9813    -9814    -9815    -9815    -9814    -9814    -9814    -9814 
   -9814    -9814    -9813    -9814    -9815    -9814    -9814    -9814 
   -9813    -9815    -9815    -9813    -9813    -9815    -9814    -9811 
   -9811    -9814    -9813    -9813    -9814    -9814    -9814    -9815 
   -9815    -9815    -9815    -9814    -9811    -9813    -9814    -9813 
   -9814    -9815    -9815    -9811    -9811    -9814    -9814    -9811 
   -9811    -9811    -9811    -9814    -9813    -9813    -9815    -9814 
   -9811    -9814    -9815    -9811    -9809    -9813    -9815    -9815 
   -9814    -9814    -9814    -9814    -9814    -9811    -9813    -9814 
   -9813    -9814    -9815    -9814    -9814    -9815    -9815    -9815 
   -9815    -9815    -9815    -9815    -9814    -9813    -9813    -9815 
   -9815    -9813    -9814    -9813    -9811    -9814    -9815    -9814 
   -9813    -9811    -9813    -9814    -9815    -9815    -9814    -9814 
   -9814    -9815    -9817    -9814    -9813    -9814    -9814    -9814 
   -9815    -9815    -9815    -9811    -9810    -9814    -9815    -9815 
   -9814    -9814    -9814    -9814    -9814    -9814    -9814    -9814 
   -9817    -9814    -9811    -9813    -9814    -9813    -9813    -9814 
   -9815    -9814    -9815    -9815    -9814    -9814    -9815    -9817 
   -9815    -9814    -9814    -9817    -9817    -9814    -9813    -9814 
   -9814    -9811    -9813    -9814    -9815    -9817    -9817    -9815 
   -9814    -9813    -9813    -9813    -9813    -9814    -9815    -9814 
   -9814    -9814    -9814    -9815    -9814    -9814    -9814    -9814 
   -9814    -9814    -9814    -9813    -9814    -9815    -9815    -9813 
   -9813    -9814    -9814    -9814    -9814    -9814    -9813    -9811 
   -9814    -9815    -9813    -9811    -9814    -9813    -9810    -9813 
   -9814    -9813    -9811    -9813    -9815    -9817    -9813    -9811 
   -9815    -9813    -9811    -9815    -9817    -9815    -9814    -9813 
   -9813    -9814    -9814    -9813    -9814    -9817    -9814    -9811 
   -9814    -9817    -9813    -9813    -9815    -9815    -9814    -9813 
   -9811    -9813    -9814    -9813    -9813    -9815    -9815    -9814 
   -9814    -9815    -9814    -9814    -9815    -9815    -9813    -9814 
   -9817    -9817    -9814    -9811    -9814    -9817    -9815    -9814 
   -9814    -9815    -9814    -9814    -9813    -9814    -9815    -9814 
   -9813    -9814    -9815    -9813    -9813    -9813    -9813    -9813 
   -9814    -9814    -9813    -9813    -9813    -9813    -9813    -9813 
   -9813    -9814    -9815    -9817    -9814    -9813    -9814    -9814 
   -9814    -9813    -9811    -9813    -9813    -9814    -9819    -9817 
   -9813    -9813    -9814    -9814    -9815    -9814    -9811    -9814 
   -9815    -9813    -9813    -9815    -9815    -9814    -9815    -9815 
   -9813    -9814    -9814    -9814    -9814    -9814    -9813    -9815 
   -9814    -9813    -9813    -9813    -9814    -9813    -9811    -9814 
   -9815    -9811    -9813    -9815    -9814    -9814    -9814    -9813 
   -9813    -9814    -9814    -9814    -9814    -9814    -9814    -9815 
   -9817    -9817    -9815    -9815    -9815    -9813    -9813    -9815 
   -9817    -9814    -9811    -9813    -9814    -9815    -9817    -9815 
   -9815    -9814    -9813    -9814    -9815    -9813    -9814    -9814 
   -9814    -9813    -9813    -9815    -9814    -9813    -9813    -9810 
   -9811    -9815    -9815    -9813    -9814    -9814    -9813    -9811 
   -9813    -9814    -9814    -9811    -9811    -9815    -9815    -9814 
   -9814    -9814    -9814    -9815    -9817    -9815    -9814    -9814 
   -9813    -9813    -9811    -9814    -9814    -9811    -9813    -9814 
   -9813    -9814    -9814    -9813    -9813    -9813    -9814    -9814 
   -9815    -9814    -9813    -9814    -9815    -9811    -9811    -9813 
   -9814    -9814    -9814    -9813    -9811    -9811    -9814    -9814 
   -9814    -9817    -9819    -9819    -9821    -9825    -9829    -9830 
   -9829    -9828    -9828    -9828    -9826    -9825    -9823    -9819 
   -9817    -9818    -9822    -9822    -9821    -9817    -9814    -9817 
   -9822    -9822    -9807    -9780    -9760    -9765    -9794    -9832 
   -9856    -9846    -9810    -9779    -9783    -9823    -9873    -9895 
   -9880    -9845    -9806    -9783    -9790    -9811    -9817    -9786 
   -9734    -9706    -9732    -9790    -9838    -9841    -9795    -9757 
   -9767    -9794    -9803    -9802    -9806    -9792    -9749    -9721 
   -9737    -9765    -9782    -9795    -9821    -9886    -9984   -10039 
  -10010    -9953    -9917    -9891    -9865    -9821    -9734    -9653 
   -9649    -9721    -9802    -9846    -9844    -9809    -9772    -9795 
   -9896    -9980    -9952    -9823    -9674    -9613    -9674    -9775 
   -9850    -9868    -9821    -9784    -9826    -9884    -9904    -9909 
   -9877    -9798    -9705    -9663    -9734    -9903   -10054   -10046 
   -9909    -9801    -9730    -9684    -9721    -9753    -9730    -9796 
   -9910    -9864    -9732    -9744    -9846    -9846    -9753    -9706 
   -9745    -9772    -9738    -9751    -9894   -10110   -10246   -10103 
   -9695    -9369    -9373    -9666   -10064   -10270   -10108    -9733 
   -9394    -9255    -9441    -9938   -10382   -10417   -10145    -9724 
   -9250    -9127    -9485    -9894   -10111   -10108    -9761    -9278 
   -9240    -9811   -10390   -10420   -10083    -9714    -9475    -9775 
  -10470   -10716   -10453   -10076    -9576    -9282    -9499    -9639 
   -9336    -9266    -9587    -9610    -9714   -10505   -11055   -10631 
   -9852    -9370    -9479   -10181   -10440    -9292    -7959    -8024 
   -9081   -10272   -11190   -11240   -10282    -9136    -8650    -8862 
   -9622   -10859   -11595   -10751    -8797    -7303    -7734    -9980 
  -11917   -11830   -10162    -8803    -9236   -10750   -11396   -10735 
   -9869    -9115    -8214    -7842    -8403    -9772   -11572   -12051 
  -10309    -8263    -7722    -8680   -10404   -11747   -11619   -10215 
   -9046    -8919    -8856    -8652    -9398   -10477   -10729   -10644 
  -10403    -9593    -9009    -9504   -10237   -10276   -10131   -10201 
   -9972    -9593    -9828   -10173    -9823    -9593    -9814    -9378 
   -8613    -8911    -9994   -10737   -10939   -10643    -9722    -8937 
   -9066    -9633   -10366   -10827    -9813    -8387    -8309    -8878 
   -9926   -11538   -11888   -10598    -9269    -8522    -8614    -9734 
  -10687   -10628   -10273    -9834    -9258    -9398   -10034    -9938 
   -9416    -9320    -9456    -9919   -10700   -10663    -9799    -9278 
   -8992    -8959    -9832   -10520   -10157   -10174   -10808   -10208 
   -8698    -8359    -9225   -10174   -10659   -10484    -9990    -9763 
   -9779    -9737    -9769    -9825    -9710    -9790    -9877    -9491 
   -9425   -10260   -10694    -9963    -9310    -9444   -10053   -10798 
  -10644    -9470    -8876    -9215    -9590    -9877    -9794    -9312 
   -9626   -10399   -10210    -9724    -9783   -10108   -10613   -10669 
   -9832    -9022    -8989    -9409    -9607    -9737   -10081   -10107 
  -10018   -10165    -9979    -9651    -9667    -9967   -10331    -9895 
   -8907    -9099   -10207   -10585   -10181    -9612    -9067    -9004 
   -9799   -10625   -10291    -9369    -9232    -9710   -10091   -10260 
  -10060    -9753    -9670    -9455    -9223    -9435   -10003   -10485 
  -10334    -9652    -9308    -9872   -10632   -10385    -9558    -9205 
   -9225    -9624   -10293   -10457   -10079    -9510    -9059    -9258 
   -9979   -10651   -10786   -10102    -9159    -9022    -9755   -10227 
  -10183   -10216    -9927    -9136    -8765    -9092    -9570   -10069 
  -10413   -10170    -9759    -9606    -9693   -10157   -10453   -10065 
   -9514    -9182    -9092    -9402    -9995   -10396   -10446   -10241 
   -9734    -9332    -9467    -9707    -9805    -9960    -9956    -9606 
   -9371    -9645   -10054   -10246   -10238    -9879    -9525    -9699 
   -9852    -9684    -9725    -9884    -9922   -10037    -9994    -9477 
   -9061    -9350   -10012   -10449   -10269    -9709    -9582    -9898 
  -10058    -9911    -9753    -9799    -9726    -9593    -9724    -9778 
   -9814   -10165   -10396    -9980    -9099    -8704    -9302   -10069 
  -10358   -10413   -10280    -9648    -8856    -8838    -9606   -10504 
  -11034   -10575    -9528    -8950    -8970    -9513   -10284   -10554 
  -10226    -9742    -9632    -9838    -9702    -9599   -10071   -10339 
   -9891    -9279    -9325    -9838    -9998   -10079   -10138    -9734 
   -9660   -10211   -10397   -10103    -9819    -9498    -9504   -10119 
  -10142    -9339    -9347    -9976    -9937   -10050   -10706   -10480 
   -9540    -9229    -9256    -9379   -10170   -10798   -10326    -9564 
   -9238    -9165    -9486   -10152   -10261    -9776    -9694    -9890 
   -9653    -9441    -9707   -10085   -10303   -10069    -9462    -9069 
   -9061    -9603   -10416   -10447    -9900    -9691    -9491    -9283 
   -9795   -10405   -10332    -9995    -9559    -9185    -9429   -10130 
  -10606   -10494    -9987    -9456    -9054    -9154    -9868   -10331 
  -10191   -10106    -9944    -9356    -9140    -9551    -9795    -9742 
   -9817    -9931    -9845    -9875   -10079    -9837    -9375    -9568 
  -10293   -10632   -10108    -9204    -8760    -9051    -9671   -10272 
  -10708   -10534    -9856    -9406    -9379    -9740   -10085    -9886 
   -9606    -9595    -9715    -9969   -10039    -9826    -9783   -10125 
  -10503   -10158    -9047    -8642    -9613   -10544   -10628   -10180 
   -9417    -9057    -9452    -9918   -10201   -10363    -9985    -9329 
   -9358    -9790    -9850   -10014   -10493   -10331    -9373    -8754 
   -8972    -9707   -10620   -10797   -10039    -9494    -9428    -9505 
   -9751    -9848    -9825   -10176   -10669   -10496    -9539    -8897 
   -9254    -9883   -10176   -10277   -10131    -9547    -9022    -9215 
   -9801    -9984    -9830    -9779    -9614    -9494    -9883   -10237 
  -10251   -10143    -9701    -9242    -9340    -9730    -9902    -9867 
   -9941    -9888    -9579    -9605    -9895   -10039   -10246   -10341 
  -10000    -9443    -9067    -9391   -10361   -11032   -10898   -10253 
   -9421    -8943    -9223    -9733   -10065   -10181    -9709    -9139 
   -9406   -10029   -10311   -10395   -10122    -9275    -8704    -9321 
  -10419   -10763   -10368    -9840    -9445    -9418    -9757    -9977 
   -9983    -9958    -9767    -9674    -9957   -10106    -9779    -9504 
   -9564    -9418    -9319    -9876   -10185    -9721    -9451    -9722 
  -10052   -10127    -9873    -9540    -9618    -9950    -9860    -9602 
   -9760    -9888    -9805   -10057   -10162    -9555    -9128    -9381 
   -9823   -10197   -10211    -9755    -9450    -9539    -9684   -10064 
  -10411    -9900    -9240    -9548   -10357   -10817   -10565    -9553 
   -8623    -8784    -9545   -10075   -10562   -10775   -10215    -9648 
   -9568    -9416    -9467    -9903    -9898    -9752   -10104   -10403 
  -10305   -10096    -9801    -9359    -9278    -9823   -10338   -10292 
   -9784    -9244    -9185    -9752   -10407   -10454    -9983    -9423 
   -9086    -9351    -9891   -10114   -10085    -9934    -9633    -9325 
   -9262    -9624   -10172   -10346   -10091    -9684    -9242    -9232 
   -9819   -10320   -10508   -10530   -10123    -9413    -9158    -9595 
  -10114   -10212    -9883    -9312    -8977    -9270    -9871   -10359 
  -10586   -10255    -9562    -9296    -9458    -9549    -9725    -9984 
   -9833    -9463    -9580   -10046   -10250   -10116    -9666    -9242 
