Origin Time       2024/04/02 04:24:00
Lat.              40.133
Long.             141.712
Depth. (km)       71
Mag.              6.0
Station Code      IBRH06
Station Lat.      36.8809
Station Long.     140.6545
Station Height(m) 295
Record Time       2024/04/02 04:25:28
Sampling Freq(Hz) 100Hz
Duration Time(s)  120
Dir.              3
Scale Factor      3923(gal)/8224838
Max. Acc. (gal)   0.464
Last Correction   2024/04/02 04:25:28
Memo.             
[...]
   32036    32023    32088    32155    32044    31888    31876    32032 
   32154    32103    32082    32157    32204    32217    32216    32247 
   32309    32313    32270    32240    32228    32212    32184    32188 
   32211    32152    32043    32044    32125    32076    31918    31870 
   31972    32034    32015    32065    32104    32112    32215    32201 
   32019    31931    31885    31827    31862    31900    31905    31880 
   31773    31722    31733    31649    31565    31573    31584    31585 
   31649    31757    31855    31927    31992    32082    32158    32198 
   32243    32254    32198    32181    32297    32452    32467    32335 
   32219    32271    32381    32297    32166    32155    32026    31858 
   31926    32066    32108    32093    32113    32209    32232    32167 
   32221    32298    32205    32132    32169    32143    32107    32082 
   32003    32050    32150    32058    31951    31977    31990    31963 
   31928    31830    31773    31905    32016    31928    31845    31877 
   31899    31869    31853    31869    31869    31807    31774    31864 
   32026    32101    32023    31930    31872    31845    31920    31945 
   31823    31770    31808    31833    31860    31887    31907    31972 
   32070    32100    32084    32200    32337    32287    32206    32244 
   32258    32179    32158    32174    32136    32138    32144    32100 
   32116    32178    32181    32081    32000    32078    32127    32080 
   32125    32154    32104    32094    32063    32058    32093    32036 
   31968    31936    31923    31954    31927    31839    31865    31976 
   32007    31972    31930    31864    31843    31931    32026    32062 
   32090    32103    32104    32139    32146    32020    31901    31980 
   32101    32038    31926    31997    32125    32090    31997    31984 
   31945    31888    31912    31982    32016    31988    32023    32108 
   32031    31934    32040    32142    32081    32004    32028    32116 
   32120    32055    32044    32022    32000    32049    32005    31892 
   31984    32175    32132    31999    32092    32240    32201    32070 
   32055    32140    32109    32007    31986    31954    31853    31799 
   31881    31949    31854    31784    31935    32197    32265    32111 
   32085    32192    32170    32113    32117    32047    31909    31851 
   31918    31989    31955    31923    31969    31957    31868    31842 
   31897    31930    31868    31766    31718    31729    31769    31777 
   31707    31699    31818    31855    31822    31986    32170    32026 
   31839    31943    32049    31909    31727    31707    31828    31878 
   31765    31741    31903    31972    31822    31688    31816    32009 
   31958    31868    31989    32154    32221    32287    32364    32337 
   32287    32350    32298    32046    31908    31927    31911    31887 
   31908    31988    32128    32223    32275    32366    32394    32306 
   32263    32293    32192    32000    32001    32070    31951    31819 
   31795    31831    31930    31909    31834    31946    32026    31932 
   31918    31996    32017    32035    32140    32239    32239    32197 
   32174    32215    32247    32140    32040    32085    32115    31995 
   31797    31779    31988    32090    31954    31847    31985    32189 
   32162    32054    32139    32308    32343    32251    32298    32485 
   32421    32225    32302    32464    32346    32113    32125    32269 
   32211    32046    32057    32119    32009    31911    31980    32054 
   32030    31915    31851    31950    32019    31969    31939    31969 
   32022    32046    32008    31904    31787    31803    31842    31653 
   31461    31604    31785    31680    31568    31626    31735    31828 
   31793    31770    31877    31895    31897    31996    32013    32011 
   32093    32134    32139    32189    32181    32136    32197    32283 
   32289    32224    32109    32030    32078    32186    32206    32144 
   32123    32140    32150    32196    32236    32161    32042    32043 
   32120    32071    31970    32020    32063    31977    31943    31936 
   31862    31845    31885    31831    31675    31600    31765    31959 
   31896    31753    31808    31953    31995    31942    31899    31996 
   32142    32117    32050    32065    32028    31953    31911    31927 
   32000    32011    31992    32039    32024    31953    31961    31976 
   31966    31982    31911    31807    31876    31965    31969    32013 
   32038    32036    32086    32152    32231    32217    32148    32227 
   32296    32204    32139    32194    32256    32225    32171    32235 
   32285    32146    32047    32067    32003    31969    32003    31977 
   32009    32069    32038    31973    31927    31972    32034    32000 
   31989    32061    32085    32032    32015    32055    32027    31943 
   32005    32165    32200    32139    32088    32088    32246    32374 
   32205    32065    32175    32229    32135    32028    31973    31945 
   31849    31768    31784    31811    31831    31846    31900    32019 
   32032    31974    31996    31982    31953    31959    31877    31801 
   31780    31743    31841    31980    31922    31838    31922    31984 
   31899    31892    31996    32013    31954    31897    31918    32008 
   32047    32015    31951    31962    32034    31976    31834    31757 
   31789    31927    32001    31931    31845    31901    32088    32190 
   32161    32090    31997    32012    32165    32220    32157    32166 
   32266    32395    32456    32344    32225    32266    32352    32367 
   32296    32179    32150    32223    32242    32182    32166    32147 
   32061    32005    31938    31823    31801    31789    31704    31629 
   31604    31673    31730    31676    31704    31862    31891    31784 
   31854    32024    32001    31935    31986    32063    32124    32120 
   32116    32175    32167    32089    32027    31990    32012    32011 
   31978    31999    32017    32017    32020    32028    32088    32085 
   32024    32080    32175    32179    32136    32159    32271    32266 
   32111    32046    32084    32036    31939    31924    31924    31878 
   31884    31969    32054    32063    32026    32050    32119    32150 
   32189    32231    32225    32197    32177    32178    32142    32150 
   32269    32254    32148    32147    32130    32127    32158    32027 
   31837    31804    31822    31762    31739    31818    31872    31861 
   31884    31972    31999    31882    31807    31912    31978    31908 
   31841    31797    31845    31972    32000    31923    31847    31870 
   31903    31810    31792    31941    32020    31966    31915    31957 
   32065    32161    32170    32063    31965    31984    32047    32036 
   31922    31899    32071    32157    32065    32039    32111    32186 
   32202    32089    32008    32127    32204    32061    31959    32003 
   32015    32008    31988    31915    31954    32085    32059    31963 
   31985    32019    31988    31934    31912    31951    32001    31996 
   31945    32031    32217    32173    32001    32013    32150    32211 
   32119    32040    32092    32151    32147    32120    32130    32154 
   32050    31939    32081    32227    32123    31977    31958    32044 
   32049    31900    31897    32026    31946    31814    31862    31887 
   31830    31791    31761    31816    31911    31861    31774    31808 
   31860    31911    31995    32009    31935    31887    31915    31945 
   31966    32044    32120    32100    32062    32104    32171    32200 
   32139    32030    32073    32206    32223    32235    32281    32254 
   32285    32354    32255    32170    32239    32275    32301    32297 
   32190    32182    32155    31993    31997    32031    31865    31795 
   31876    31899    31865    31799    31766    31796    31769    31750 
   31835    31858    31795    31833    31990    32116    32097    32008 
   32016    32111    32169    32173    32162    32119    32030    31963 
   31970    31990    31972    31905    31835    31830    31903    32007 
   32071    32057    32035    32058    32017    31988    32121    32198 
   32073    32007    32120    32198    32050    31869    31896    31936 
   31865    31803    31789    31900    32065    32092    32057    32101 
   32184    32161    31963    31826    31968    32163    32165    32113 
   32116    32115    32215    32377    32316    32108    32077    32188 
   32166    32028    31927    31889    31931    31947    31843    31769 
   31788    31816    31780    31708    31700    31737    31760    31776 
   31833    31884    31873    31931    32030    32036    32051    32107 
   32138    32173    32205    32162    32089    32108    32092    32009 
   32076    32130    32032    31995    32034    32058    32100    32125 
   32112    32135    32213    32246    32185    32158    32169    32127 
   32151    32224    32135    32026    32104    32173    32096    32016 
   32007    32046    32131    32140    32032    32026    32107    32012 
   31846    31861    31955    31927    31834    31876    32036    32113 
   32036    31934    31926    31966    31941    31868    31831    31874 
   31974    31974    31815    31780    31943    31961    31834    31800 
   31833    31968    32119    32089    32132    32260    32213    32217 
   32296    32196    32104    32128    32096    32050    32070    32047 
   31945    31916    32003    31981    31819    31777    31896    31968 
   31909    31846    31909    31992    31990    32019    32115    32179 
   32192    32151    32092    32139    32217    32143    32058    32119 
   32227    32255    32148    32059    32105    32138    32097    32044 
   31963    31923    31995    32069    32044    32016    32101    32138 
   31981    31905    32022    32024    31878    31830    31916    31988 
   31969    31939    32004    32134    32150    32040    31969    31978 
   32008    32042    32066    32049    32020    32047    32061    32005 
   31974    32035    32096    31982    31846    31939    31996    31819 
   31702    31687    31665    31716    31735    31665    31685    31835 
   31935    31880    31888    31988    31942    31955    32173    32306 
   32248    32127    32148    32294    32274    32146    32147    32217 
   32223    32182    32152    32140    32136    32135    32150    32200 
   32201    32121    32113    32120    31968    31843    31918    32051 
   32101    32007    31918    32053    32216    32166    32077    32112 
   32193    32228    32197    32192    32246    32239    32152    32077 
   32034    32042    32089    32092    32076    31997    31853    31904 
   32043    31920    31765    31838    31911    31888    31938    32024 
   32013    31930    31860    31846    31847    31800    31819    32003 
   32050    31822    31752    31947    31977    31799    31749    31818 
   31756    31631    31653    31756    31787    31797    31862    31891 
   31839    31850    31995    32077    31955    31855    31959    32047 
   31968    31922    32020    32124    32063    31895    31847    31938 
   31923    31704    31591    31743    31752    31564    31623    31797 
   31718    31611    31704    31737    31598    31525    31564    31614 
   31664    31666    31576    31569    31804    32024    32007    31969 
   32042    32119    32124    32066    32028    31962    31854    31891 
   31981    32005    32086    32089    32034    32140    32138    31981 
   32061    32225    32190    32162    32270    32346    32359    32390 
   32386    32320    32229    32148    32205    32320    32298    32331 
   32521    32620    32591    32584    32586    32487    32377    32410 
   32451    32351    32221    32179    32204    32198    32113    32042 
   32096    32139    32097    32219    32413    32397    32344    32383 
   32383    32239    31988    31861    31851    31761    31691    31718 
   31727    31761    31884    31985    32088    32333    32545    32549 
   32468    32336    32177    32113    32092    32012    31857    31675 
   31584    31603    31681    31733    31754    31847    31946    32038 
   32136    32081    32051    32188    32178    32130    32290    32341 
   32202    32150    32125    32017    31860    31668    31561    31590 
   31594    31599    31675    31742    31877    32011    31989    31970 
   32049    32197    32355    32452    32547    32536    32395    32375 
   32397    32316    32266    32239    32173    32136    32142    32157 
   32196    32227    32146    32013    31999    32061    32084    32000 
   31866    31891    31989    31924    31949    32179    32192    31976 
   31970    32224    32321    32107    31974    31999    31880    31664 
   31527    31510    31563    31585    31568    31564    31633    31793 
   31959    32071    32125    32185    32289    32296    32239    32312 
   32366    32248    32104    31982    31926    32043    32181    32162 
   32086    32022    32015    32044    31865    31583    31544    31671 
   31791    31941    32092    32159    32206    32329    32321    32096 
   31990    32020    31899    31752    31739    31820    31996    32097 
   31989    31915    32057    32274    32305    32139    32094    32155 
   32013    31793    31725    31711    31758    31930    32049    32105 
   32232    32269    32204    32265    32336    32337    32440    32549 
   32614    32752    32718    32464    32416    32458    32213    31892 
   31772    31719    31621    31673    31916    32113    32143    32093 
   32134    32146    31939    31718    31626    31633    31745    31950 
   32179    32271    32251    32175    31978    31841    31854    31722 
   31436    31317    31386    31402    31255    31077    31045    31117 
   31171    31199    31293    31460    31417    31160    31145    31274 
   31170    31149    31450    31689    31753    31811    31783    31727 
   31727    31625    31530    31553    31576    31635    31679    31671 
   31727    31780    31831    31947    32019    32082    32240    32328 
   32309    32370    32466    32541    32611    32575    32518    32549 
   32537    32482    32590    32822    32779    32514    32540    32791 
   32811    32607    32578    32784    32817    32707    32832    32973 
   32917    32798    32579    32327    32208    32202    32233    32240 
   32293    32459    32613    32649    32593    32481    32428    32454 
   32405    32356    32378    32313    32239    32242    32211    32220 
   32297    32270    32185    32239    32467    32680    32597    32327 
   32265    32373    32410    32313    32157    32097    32086    32090 
   32201    32225    32078    32000    31961    31884    31895    31892 
   31847    31919    31930    31793    31741    31776    31688    31526 
   31565    31729    31711    31654    31796    31941    31947    31920 
   31845    31831    31808    31510    31272    31394    31549    31433 
   31276    31511    31820    31729    31583    31711    31954    32030 
   31785    31542    31638    31801    31723    31610    31639    31702 
   31777    31858    31876    31858    31834    31851    31876    31797 
   31846    32057    32058    32030    32151    32061    31847    31846 
   31931    31865    31691    31596    31541    31486    31530    31603 
   31665    31712    31766    31969    32247    32378    32351    32313 
   32252    32030    31752    31668    31793    31919    31965    32038 
   32081    32005    31965    32009    32024    32001    31968    31928 
   31914    31820    31600    31394    31303    31459    31792    31961 
   31862    31731    31760    31737    31521    31449    31625    31849 
   32001    31970    31891    32039    32265    32212    31980    31966 
   32167    32140    31776    31482    31507    31649    31626    31511 
   31576    31811    31953    31934    32058    32377    32443    32321 
   32501    32760    32670    32451    32445    32567    32497    32238 
   32165    32382    32601    32606    32545    32594    32589    32483 
   32462    32433    32312    32232    32188    32146    32202    32332 
   32408    32409    32368    32317    32301    32273    32220    32192 
   32042    31789    31769    31939    31989    31986    31993    31959 
   32069    32221    32155    32017    31949    32065    32377    32487 
   32362    32346    32463    32601    32621    32490    32489    32570 
   32393    32139    32070    32098    32123    32055    32004    32077 
   32082    32061    32185    32289    32182    32046    32206    32445 
   32265    31924    31945    32097    32044    31949    31862    31800 
   31920    31969    31746    31561    31557    31677    31881    31951 
   31815    31671    31572    31556    31752    32049    32125    31847 
   31627    31788    31827    31561    31598    31808    31633    31361 
   31371    31421    31379    31409    31510    31577    31592    31590 
   31685    31853    31854    31766    31842    31932    31846    31704 
   31725    31912    31984    31877    31760    31712    31843    32013 
   32036    32044    32047    31982    31947    31974    32063    32239 
   32359    32251    32182    32390    32499    32359    32289    32243 
   32115    32046    31963    31804    31683    31819    32225    32443 
   32340    32240    32193    32135    32016    31785    31644    31760 
   31970    32054    32081    32166    32108    31949    31919    31769 
   31600    31857    32161    32067    31990    32267    32614    32757 
   32640    32414    32467    32617    32343    32077    32281    32535 
   32578    32551    32591    32625    32404    32248    32472    32590 
   32471    32400    32235    32032    32067    32256    32319    32131 
   31924    31935    31982    31876    31702    31561    31573    31839 
   32161    32266    32273    32413    32629    32660    32483    32367 
   32304    32232    32308    32290    31958    31704    31703    31610 
   31334    31272    31563    31738    31614    31611    31839    32008 
   32057    32057    32071    32140    32131    31942    31757    31773 
   31930    32081    32152    32053    31927    32082    32301    32196 
   32038    32119    32136    32036    32058    31951    31665    31498 
   31361    31261    31244    31139    31160    31518    31876    31899 
   31815    32026    32379    32449    32251    32086    32097    32173 
   32039    31785    31746    31734    31638    31761    31876    31738 
   31741    31870    31797    31692    31699    31806    31972    31949 
   31833    31889    31946    31923    31995    32115    32078    31961 
   32032    32204    32265    32208    32130    32159    32152    31941 
   31797    31839    31914    32085    32337    32414    32282    32139 
   32088    32065    32078    32121    31999    31796    31814    31962 
   32097    32231    32262    32204    32173    32186    32201    32117 
   31982    31946    31931    31901    31958    32012    32049    32256 
   32386    31993    31560    31715    31954    31780    31656    31980 
   32356    32256    31924    31828    31941    32069    32078    32049 
   32135    32248    32317    32346    32219    31892    31552    31496 
   31715    31830    31814    31862    31876    31858    31862    31847 
   31884    31891    31855    31858    31926    32101    32097    31858 
   31907    32287    32497    32402    32367    32439    32258    32020 
   32023    31997    31877    31816    31781    31828    31915    31903 
   31932    32031    31999    31970    32134    32229    32109    32082 
   32239    32275    32124    32112    32281    32305    32231    32271 
