Origin Time       2024/04/02 04:24:00
Lat.              40.133
Long.             141.712
Depth. (km)       71
Mag.              6.0
Station Code      IBRH11
Station Lat.      36.3701
Station Long.     140.1401
Station Height(m) 67
Record Time       2024/04/02 04:26:20
Sampling Freq(Hz) 100Hz
Duration Time(s)  120
Dir.              6
Scale Factor      7845(gal)/8223790
Max. Acc. (gal)   2.220
Last Correction   2024/04/02 04:26:20
Memo.             
[...]
   -6736    -6544    -6581    -6770    -6766    -6650    -6724    -6848 
   -6619    -6346    -6605    -6972    -6806    -6492    -6505    -6597 
   -6681    -6934    -7107    -6974    -6693    -6411    -6245    -6313 
   -6600    -6945    -7118    -7036    -6894    -6867    -6813    -6637 
   -6716    -7029    -6976    -6797    -6959    -6866    -6403    -6408 
   -6714    -6632    -6528    -6690    -6723    -6691    -6767    -6812 
   -6836    -6700    -6448    -6478    -6605    -6490    -6473    -6723 
   -6828    -6697    -6748    -7010    -6993    -6678    -6515    -6561 
   -6527    -6363    -6330    -6448    -6538    -6732    -6993    -6984 
   -6847    -6844    -6841    -6706    -6563    -6606    -6691    -6593 
   -6679    -7028    -7034    -6764    -6683    -6729    -6674    -6484 
   -6536    -6890    -6906    -6801    -7047    -6980    -6613    -6656 
   -6687    -6501    -6633    -6822    -6772    -6774    -6744    -6648 
   -6716    -6737    -6691    -6840    -6824    -6485    -6450    -6652 
   -6492    -6359    -6698    -6901    -6666    -6508    -6671    -6810 
   -6601    -6428    -6723    -6947    -6826    -6848    -6920    -6739 
   -6559    -6544    -6621    -6759    -6984    -7223    -7134    -6714 
   -6432    -6309    -6254    -6535    -6947    -6995    -6870    -6901 
   -6835    -6562    -6473    -6669    -6764    -6610    -6635    -6959 
   -7071    -6885    -6782    -6760    -6656    -6555    -6655    -6905 
   -6874    -6644    -6729    -6801    -6448    -6273    -6642    -6918 
   -6818    -6828    -6906    -6670    -6423    -6508    -6679    -6612 
   -6466    -6602    -6752    -6625    -6643    -6879    -6851    -6663 
   -6797    -7032    -6851    -6562    -6636    -6686    -6500    -6496 
   -6682    -6783    -6745    -6731    -6870    -6770    -6388    -6405 
   -6662    -6677    -6762    -6920    -6867    -6789    -6752    -6690 
   -6681    -6606    -6426    -6357    -6451    -6669    -6941    -7018 
   -6860    -6733    -6718    -6640    -6534    -6775    -7272    -7346 
   -7153    -7227    -6997    -6226    -5846    -6129    -6399    -6377 
   -6451    -6814    -6956    -6664    -6585    -6856    -6836    -6600 
   -6724    -6918    -6706    -6463    -6516    -6550    -6621    -6976 
   -7155    -6951    -6820    -6841    -6837    -6812    -6787    -6822 
   -6885    -6933    -7010    -6920    -6552    -6234    -6177    -6266 
   -6401    -6682    -7059    -7155    -6925    -6812    -6864    -6642 
   -6147    -5995    -6332    -6577    -6640    -6901    -7021    -6679 
   -6500    -6802    -6937    -6818    -7101    -7431    -7117    -6741 
   -6801    -6795    -6556    -6520    -6759    -6822    -6620    -6566 
   -6652    -6555    -6409    -6485    -6652    -6583    -6435    -6747 
   -7126    -6933    -6782    -6967    -6801    -6546    -6772    -6909 
   -6689    -6652    -6832    -6974    -6984    -6817    -6704    -6639 
   -6327    -6106    -6323    -6486    -6411    -6569    -6871    -6939 
   -6917    -6909    -6848    -6785    -6677    -6571    -6565    -6521 
   -6532    -6706    -6752    -6660    -6771    -6990    -6960    -6799 
   -6740    -6538    -6269    -6527    -7059    -7074    -6829    -6817 
   -6586    -6138    -6224    -6627    -6740    -6716    -6724    -6818 
   -6799    -6485    -6477    -6902    -7047    -6930    -6972    -6920 
   -6558    -6372    -6605    -6744    -6660    -6751    -6897    -6825 
   -6712    -6755    -6853    -6750    -6511    -6552    -6816    -6903 
   -6882    -6939    -6867    -6559    -6417    -6554    -6532    -6384 
   -6558    -6874    -6778    -6516    -6666    -6887    -6787    -6789 
   -6963    -6883    -6683    -6681    -6739    -6709    -6664    -6642 
   -6585    -6578    -6828    -7115    -7033    -6783    -6747    -6696 
   -6455    -6457    -6832    -7029    -6756    -6507    -6632    -6683 
   -6502    -6712    -7221    -7227    -6988    -7072    -6909    -6301 
   -6077    -6291    -6355    -6396    -6706    -7125    -7356    -7128 
   -6629    -6403    -6415    -6345    -6411    -6822    -7063    -6824 
   -6666    -6674    -6421    -6316    -6693    -6907    -6781    -6852 
   -6959    -6802    -6783    -6993    -7036    -6756    -6412    -6315 
   -6280    -6143    -6230    -6561    -6831    -6963    -7063    -7171 
   -7015    -6604    -6474    -6519    -6347    -6448    -6916    -7064 
   -7015    -7076    -6902    -6620    -6567    -6616    -6666    -6589 
   -6455    -6615    -6802    -6724    -6777    -6875    -6546    -6181 
   -6272    -6512    -6659    -6913    -7214    -7195    -6979    -6986 
   -6941    -6602    -6504    -6636    -6520    -6512    -6804    -6863 
   -6762    -6863    -6959    -6843    -6551    -6313    -6420    -6597 
   -6493    -6498    -6878    -7055    -6736    -6444    -6370    -6342 
   -6500    -6814    -7092    -7222    -7163    -7107    -6922    -6405 
   -6123    -6400    -6679    -6718    -6886    -7190    -7172    -6754 
   -6482    -6565    -6577    -6562    -6797    -6899    -6602    -6494 
   -6793    -6849    -6771    -6993    -6920    -6559    -6636    -6740 
   -6556    -6608    -6739    -6712    -6793    -6737    -6548    -6697 
   -6702    -6397    -6585    -6926    -6755    -6644    -6810    -6813 
   -6701    -6697    -6843    -6940    -6743    -6527    -6581    -6569 
   -6431    -6679    -7080    -6988    -6743    -6754    -6642    -6366 
   -6539    -7030    -7049    -6764    -6712    -6542    -6173    -6139 
   -6340    -6411    -6543    -6872    -7122    -7144    -7126    -7123 
   -6849    -6386    -6195    -6430    -6889    -7182    -7227    -7231 
   -6933    -6404    -6266    -6305    -6185    -6297    -6628    -6795 
   -6748    -6613    -6735    -7096    -7117    -6924    -6986    -7020 
   -6789    -6600    -6581    -6486    -6366    -6575    -6879    -6845 
   -6794    -6951    -6940    -6597    -6331    -6465    -6558    -6475 
   -6822    -7200    -6971    -6770    -6828    -6617    -6359    -6524 
   -6944    -7121    -6929    -6787    -6844    -6648    -6227    -6187 
   -6328    -6266    -6502    -6970    -7053    -6976    -6995    -6879 
   -6650    -6559    -6673    -6701    -6519    -6552    -6789    -6698 
   -6497    -6613    -6696    -6412    -6280    -6717    -7064    -6955 
   -7041    -7314    -7206    -6887    -6710    -6687    -6617    -6413 
   -6451    -6679    -6562    -6463    -6813    -7033    -6867    -6724 
   -6782    -6813    -6581    -6431    -6720    -6841    -6466    -6389 
   -6712    -6678    -6527    -6737    -6848    -6671    -6648    -6805 
   -6872    -6844    -6844    -6858    -6748    -6583    -6709    -6910 
   -6647    -6466    -6839    -6963    -6717    -6759    -6887    -6751 
   -6490    -6316    -6318    -6382    -6516    -6878    -7238    -7106 
   -6666    -6594    -6648    -6296    -6254    -6821    -6890    -6635 
   -6959    -7051    -6624    -6617    -6764    -6554    -6439    -6763 
   -7190    -7168    -6905    -6925    -6810    -6334    -6289    -6639 
   -6550    -6392    -6663    -6740    -6547    -6637    -6947    -7184 
   -7161    -6893    -6710    -6558    -6151    -5935    -6304    -6713 
   -6862    -7082    -7236    -6902    -6403    -6384    -6602    -6488 
   -6474    -7051    -7464    -7072    -6728    -7003    -6933    -6359 
   -6388    -6704    -6458    -6417    -6983    -7230    -6898    -6498 
   -6247    -6116    -6149    -6478    -6998    -7276    -7159    -6968 
   -6851    -6646    -6608    -6928    -6952    -6631    -6728    -6951 
   -6723    -6592    -6809    -6790    -6478    -6326    -6432    -6652 
   -6844    -7022    -7123    -6864    -6465    -6408    -6628    -6812 
   -6856    -6933    -6918    -6382    -5971    -6550    -7221    -7136 
   -7001    -7084    -6897    -6581    -6511    -6535    -6384    -6386 
   -6843    -7061    -6772    -6685    -6740    -6507    -6303    -6431 
   -6736    -6960    -7032    -7022    -6883    -6642    -6457    -6386 
   -6420    -6606    -6990    -7317    -7211    -6809    -6574    -6527 
   -6335    -6149    -6396    -6802    -6970    -7101    -7134    -6879 
   -6691    -6828    -7130    -7159    -6795    -6642    -6616    -6208 
   -6035    -6431    -6640    -6497    -6513    -6709    -6712    -6629 
   -6826    -7022    -6917    -6903    -7195    -7310    -6982    -6671 
   -6559    -6299    -6038    -6112    -6307    -6513    -6758    -6770 
   -6567    -6516    -6720    -7003    -7141    -7037    -6891    -6999 
   -7141    -6945    -6817    -6933    -6693    -6277    -6286    -6446 
   -6485    -6654    -6894    -6862    -6610    -6465    -6455    -6458 
   -6581    -6831    -6986    -7087    -7136    -7029    -7040    -7056 
   -6791    -6637    -6535    -6227    -6297    -6723    -6740    -6458 
   -6392    -6440    -6384    -6450    -6878    -7319    -7213    -6853 
   -6874    -6891    -6648    -6797    -7044    -6706    -6362    -6311 
   -6151    -6191    -6717    -7292    -7439    -7048    -6439    -6066 
   -5991    -6138    -6670    -7290    -7384    -7190    -7103    -6893 
   -6528    -6332    -6361    -6390    -6423    -6594    -6681    -6558 
   -6501    -6574    -6567    -6511    -6596    -6839    -6983    -6870 
   -6883    -7111    -7001    -6843    -7203    -7400    -6936    -6381 
   -6061    -5799    -5698    -5985    -6397    -6716    -7165    -7554 
   -7524    -7204    -6673    -6197    -6315    -6818    -7186    -7219 
   -6841    -6385    -6096    -5950    -6373    -7122    -7204    -6883 
   -6929    -7079    -7099    -7125    -7051    -6785    -6289    -5790 
   -5787    -6331    -6995    -7326    -7236    -7021    -6720    -6346 
   -6455    -7026    -7175    -6786    -6461    -6300    -6157    -6254 
   -6816    -7319    -7146    -6650    -6404    -6339    -6366    -6828 
   -7472    -7398    -6848    -6698    -6623    -6193    -5945    -6129 
   -6313    -6397    -6729    -7227    -7387    -7219    -7056    -6816 
   -6475    -6324    -6439    -6669    -6912    -7099    -6987    -6492 
   -6114    -6250    -6678    -7060    -7356    -7483    -7195    -6759 
   -6556    -6326    -6045    -6126    -6515    -6828    -6858    -6620 
   -6374    -6413    -6636    -6812    -6890    -6853    -6729    -6624 
   -6812    -7321    -7599    -7573    -7538    -7206    -6577    -6151 
   -6035    -6048    -6091    -6286    -6563    -6598    -6636    -6926 
   -7096    -7038    -6876    -6434    -5992    -6270    -7063    -7601 
   -7778    -7709    -7337    -6740    -6191    -5938    -5802    -5638 
   -5842    -6439    -6899    -7037    -7069    -7118    -6968    -6536 
   -6278    -6299    -6249    -6336    -6675    -6875    -7044    -7365 
   -7442    -7132    -6766    -6670    -6872    -6802    -6369    -6411 
   -6589    -6060    -5733    -6286    -6835    -6972    -7045    -6899 
   -6401    -6133    -6442    -7060    -7716    -8058    -7838    -7315 
   -6723    -6091    -5729    -5980    -6600    -6937    -6697    -6228 
   -6088    -6339    -6635    -6891    -7200    -7411    -7349    -7118 
   -6853    -6597    -6397    -6214    -6157    -6412    -6590    -6567 
   -6910    -7177    -6624    -6177    -6497    -6768    -6853    -7061 
   -6972    -6606    -6446    -6462    -6644    -7022    -7149    -6956 
   -6797    -6444    -5995    -6158    -6516    -6432    -6466    -6706 
   -6833    -7106    -7303    -7168    -6998    -6893    -7047    -7184 
   -6656    -6104    -6176    -6301    -6376    -6690    -6952    -7048 
   -7028    -6778    -6430    -6238    -6450    -6897    -6914    -6532 
   -6440    -6562    -6538    -6690    -6963    -6916    -6772    -6639 
   -6241    -5864    -6088    -7002    -7865    -7838    -7213    -6814 
   -6670    -6316    -5934    -6172    -6772    -7107    -7376    -7503 
   -7078    -6609    -6534    -6345    -5976    -6134    -6743    -6844 
   -6492    -6691    -7191    -7145    -7105    -7576    -7765    -7217 
   -6547    -6340    -6324    -6010    -5964    -6774    -7441    -7180 
   -6812    -6836    -6720    -6349    -6193    -6316    -6426    -6316 
   -6057    -6123    -6736    -7357    -7492    -7379    -7425    -7159 
   -6092    -5223    -5518    -6153    -6322    -6615    -7294    -7742 
   -7704    -7366    -6972    -6789    -6673    -6268    -5998    -6292 
   -6492    -6407    -6648    -6867    -6624    -6521    -6878    -7275 
   -7165    -6625    -6500    -6717    -6453    -6293    -6901    -7268 
   -7172    -7342    -7037    -6042    -5810    -6313    -6403    -6490 
   -7330    -8040    -7553    -6740    -6755    -6755    -6102    -5883 
   -6415    -6779    -6799    -6999    -7449    -7564    -7115    -6754 
   -6718    -6397    -5761    -5740    -6470    -6968    -7175    -7535 
   -7450    -6817    -6446    -6301    -6126    -6388    -6999    -7041 
   -6500    -6385    -6755    -6712    -6304    -6451    -7051    -7095 
   -6613    -6536    -6994    -7067    -6531    -6362    -6528    -6274 
   -6108    -6416    -6615    -6519    -6409    -6602    -7250    -7851 
   -7911    -7749    -7422    -6575    -5757    -5371    -5139    -5487 
   -6345    -6710    -6941    -7577    -7703    -7211    -7057    -7272 
   -7272    -6802    -6339    -6494    -6755    -6581    -6623    -6983 
   -6758    -6169    -6285    -6976    -7507    -7776    -7686    -6939 
   -5906    -5408    -5483    -5821    -6478    -7128    -7480    -7734 
   -7685    -7265    -6905    -6783    -6802    -6600    -6338    -6843 
   -7545    -7196    -6343    -5900    -5668    -5583    -5919    -6586 
   -7219    -7326    -6856    -6639    -7128    -7557    -7337    -6855 
   -6372    -5618    -4664    -4384    -5402    -6872    -7893    -8554 
   -8641    -8136    -7566    -6640    -5607    -5530    -5945    -5887 
   -5649    -5769    -6239    -6795    -7411    -7992    -7924    -7291 
   -6863    -6519    -6056    -5873    -6064    -6563    -7028    -7132 
   -7450    -7882    -7609    -6955    -6226    -5428    -5135    -5355 
   -5881    -6709    -7284    -7626    -8068    -7982    -7215    -6608 
   -6417    -6346    -6443    -6831    -7210    -7310    -7298    -7082 
   -6313    -5486    -5343    -5682    -6021    -6340    -6849    -7419 
   -7499    -7373    -7582    -7385    -6700    -6617    -6862    -6471 
   -5967    -6305    -7010    -7079    -6783    -6882    -7140    -6940 
   -6486    -6407    -6539    -6513    -6723    -7049    -6786    -6470 
   -6712    -6547    -5699    -5510    -6234    -6705    -6775    -7161 
   -7703    -7925    -7825    -7357    -6740    -6438    -6459    -6423 
   -6131    -6045    -6435    -6589    -6106    -5710    -6085    -6786 
   -6988    -6804    -6843    -6980    -6844    -6826    -7107    -7137 
   -6840    -6575    -6450    -6394    -6525    -7219    -8074    -8047 
   -7303    -6619    -6075    -5859    -6129    -6350    -6339    -6365 
   -6377    -6357    -6169    -6002    -6706    -7546    -7330    -7241 
   -7800    -7821    -7481    -7290    -6993    -6821    -6683    -6169 
   -5711    -5779    -6381    -7159    -7373    -7067    -6831    -6516 
   -5976    -5626    -5848    -6400    -6469    -6288    -6939    -7954 
   -8251    -8136    -7925    -7307    -6500    -6027    -5896    -5771 
   -5825    -6319    -6589    -6297    -6188    -6562    -7060    -7353 
   -7337    -7188    -6694    -6006    -6164    -6794    -6862    -7029 
   -7443    -6987    -5887    -5327    -5528    -5962    -6502    -7411 
   -8270    -8368    -7963    -7500    -6777    -5807    -5202    -5247 
   -5448    -5533    -6021    -6880    -7292    -7399    -7693    -7685 
   -7481    -7589    -7103    -5817    -5468    -6361    -6883    -6709 
   -6701    -6793    -6615    -6609    -6825    -6775    -6623    -6396 
   -5823    -5449    -5771    -6458    -7150    -7696    -8109    -8552 
   -8700    -8175    -7411    -6740    -6168    -6099    -6173    -5628 
   -5233    -5562    -5764    -5717    -6030    -6679    -7329    -7719 
   -7677    -7410    -7218    -6897    -6417    -6301    -6519    -6721 
   -6748    -6416    -6092    -6172    -6389    -6628    -6945    -7280 
   -7684    -7874    -7585    -7372    -7187    -6295    -5583    -5895 
   -6110    -5929    -6158    -6601    -6825    -6847    -6654    -6336 
   -6081    -6010    -6258    -6840    -7352    -7546    -7673    -7682 
   -7542    -7438    -7036    -6635    -7064    -7404    -6677    -6104 
   -6253    -5894    -5262    -5513    -6102    -6489    -6853    -6872 
   -6835    -7300    -7866    -8055    -7916    -7743    -7623    -7306 
   -6598    -5791    -5452    -5528    -5729    -6282    -6980    -7101 
   -6674    -6286    -6149    -6191    -6473    -6961    -7392    -7522 
   -7497    -7696    -7703    -7048    -6508    -6528    -6554    -6552 
   -6756    -6926    -6802    -6401    -6052    -5904    -5833    -6149 
   -6747    -6879    -6806    -6893    -6654    -6411    -6691    -7074 
   -7410    -7608    -7249    -6598    -6162    -6037    -6201    -6570 
   -6941    -7113    -7175    -7304    -7207    -6767    -6372    -5934 
   -5309    -5115    -5826    -7029    -7776    -7765    -7614    -7273 
   -6523    -6187    -6446    -6516    -6327    -6173    -6016    -5988 
   -6389    -7025    -7233    -6986    -6895    -6845    -6431    -6246 
   -6717    -6999    -6837    -6972    -7128    -6853    -6741    -6791 
   -6573    -6313    -6124    -5961    -6027    -6403    -6987    -7569 
   -7808    -7510    -6914    -6502    -6326    -6104    -6061    -6363 
   -6440    -6296    -6525    -6824    -6835    -7003    -7322    -7296 
   -7051    -7022    -7233    -7352    -7113    -6762    -6608    -6444 
   -6334    -6478    -6345    -6000    -6265    -6790    -6933    -6986 
   -7128    -7194    -7049    -6721    -6621    -6922    -7045    -6683 
   -6357    -6359    -6373    -6393    -6731    -6995    -6763    -6544 
   -6624    -6748    -6801    -6713    -6731    -6975    -6991    -6990 
   -7400    -7549    -7327    -7400    -7092    -6115    -5730    -6003 
   -6212    -6569    -7049    -7149    -6748    -6250    -6080    -6146 
   -6473    -7034    -7265    -7095    -6767    -6470    -6625    -6940 
   -6916    -6909    -7036    -7030    -7060    -7218    -7225    -7052 
   -6956    -6916    -6628    -6122    -5852    -5880    -5773    -5771 
   -6273    -6686    -6662    -6713    -6887    -6774    -6492    -6461 
   -6597    -6664    -6774    -6859    -6779    -6836    -7207    -7603 
   -7591    -7030    -6513    -6504    -6531    -6438    -6669    -6849 
   -6585    -6423    -6347    -6084    -6280    -6810    -6798    -6581 
   -6598    -6377    -5776    -5192    -5202    -6153    -7222    -7681 
   -8048    -8272    -7893    -7514    -7330    -6870    -6462    -6466 
   -6662    -6812    -6612    -6138    -5958    -6178    -6509    -6895 
   -7268    -7264    -6764    -6259    -6211    -6462    -6608    -6608 
   -6671    -6831    -6949    -6903    -6728    -6615    -6681    -6871 
   -6924    -6867    -7138    -7410    -7036    -6575    -6363    -5790 
   -5351    -5977    -7051    -7642    -7809    -7790    -7474    -6903 
   -6516    -6480    -6443    -6288    -6218    -6150    -5987    -6097 
   -6602    -7002    -7092    -7103    -6990    -6567    -6066    -5857 
   -5953    -6230    -6583    -6791    -6721    -6478    -6417    -6903 
   -7668    -8081    -7982    -7636    -7088    -6330    -6015    -6451 
   -6793    -6660    -6467    -6230    -5898    -5790    -6037    -6363 
   -6651    -7240    -7869    -7690    -7032    -6863    -7018    -6840 
