Origin Time       2024/04/02 04:24:00
Lat.              40.133
Long.             141.712
Depth. (km)       71
Mag.              6.0
Station Code      IBRH11
Station Lat.      36.3701
Station Long.     140.1401
Station Height(m) -36
Record Time       2024/04/02 04:26:20
Sampling Freq(Hz) 100Hz
Duration Time(s)  120
Dir.              1
Scale Factor      2942(gal)/8224139
Max. Acc. (gal)   0.496
Last Correction   2024/04/02 04:26:20
Memo.             
[...]
 -121668  -121703  -121756  -121730  -121652  -121613  -121635  -121728 
 -121774  -121686  -121601  -121657  -121759  -121736  -121682  -121749 
 -121856  -121838  -121707  -121622  -121644  -121701  -121713  -121699 
 -121747  -121780  -121751  -121737  -121674  -121643  -121738  -121756 
 -121680  -121679  -121691  -121655  -121660  -121653  -121551  -121517 
 -121551  -121439  -121325  -121381  -121446  -121432  -121398  -121401 
 -121435  -121381  -121259  -121270  -121404  -121477  -121509  -121554 
 -121559  -121593  -121649  -121633  -121672  -121718  -121659  -121761 
 -121933  -121859  -121787  -121791  -121686  -121620  -121635  -121655 
 -121733  -121779  -121740  -121680  -121624  -121606  -121656  -121765 
 -121833  -121809  -121732  -121636  -121680  -121803  -121709  -121616 
 -121747  -121774  -121671  -121667  -121694  -121690  -121628  -121567 
 -121574  -121529  -121554  -121684  -121667  -121585  -121635  -121668 
 -121586  -121547  -121593  -121637  -121659  -121639  -121617  -121593 
 -121448  -121355  -121459  -121487  -121433  -121497  -121559  -121605 
 -121655  -121595  -121549  -121586  -121581  -121564  -121572  -121599 
 -121686  -121725  -121663  -121594  -121527  -121513  -121541  -121493 
 -121497  -121525  -121433  -121463  -121575  -121448  -121257  -121315 
 -121452  -121424  -121423  -121593  -121598  -121354  -121331  -121589 
 -121656  -121540  -121591  -121749  -121751  -121626  -121590  -121663 
 -121701  -121671  -121663  -121695  -121722  -121736  -121710  -121667 
 -121713  -121716  -121516  -121459  -121675  -121764  -121724  -121761 
 -121768  -121686  -121603  -121563  -121583  -121686  -121722  -121591 
 -121493  -121567  -121655  -121609  -121576  -121667  -121678  -121578 
 -121572  -121586  -121528  -121532  -121552  -121562  -121601  -121547 
 -121518  -121633  -121651  -121521  -121509  -121603  -121529  -121416 
 -121543  -121713  -121734  -121687  -121618  -121644  -121711  -121609 
 -121544  -121617  -121612  -121616  -121678  -121684  -121703  -121697 
 -121617  -121622  -121647  -121562  -121517  -121595  -121656  -121583 
 -121517  -121574  -121595  -121593  -121667  -121689  -121610  -121599 
 -121683  -121647  -121574  -121676  -121689  -121563  -121576  -121595 
 -121551  -121572  -121602  -121606  -121593  -121571  -121535  -121405 
 -121288  -121321  -121387  -121441  -121500  -121486  -121459  -121467 
 -121493  -121528  -121495  -121528  -121687  -121690  -121605  -121645 
 -121698  -121698  -121649  -121599  -121663  -121757  -121710  -121635 
 -121707  -121767  -121714  -121721  -121714  -121566  -121551  -121753 
 -121798  -121672  -121676  -121699  -121676  -121702  -121652  -121625 
 -121676  -121643  -121678  -121788  -121732  -121593  -121620  -121752 
 -121670  -121491  -121570  -121668  -121620  -121641  -121690  -121679 
 -121593  -121429  -121413  -121525  -121459  -121347  -121401  -121450 
 -121441  -121456  -121494  -121549  -121491  -121360  -121413  -121524 
 -121487  -121529  -121676  -121653  -121567  -121636  -121745  -121698 
 -121574  -121543  -121547  -121498  -121470  -121504  -121517  -121517 
 -121562  -121522  -121477  -121618  -121640  -121501  -121582  -121697 
 -121657  -121703  -121818  -121829  -121749  -121717  -121763  -121744 
 -121628  -121587  -121699  -121810  -121821  -121714  -121549  -121567 
 -121644  -121478  -121342  -121497  -121710  -121741  -121647  -121586 
 -121593  -121593  -121576  -121663  -121825  -121879  -121810  -121693 
 -121614  -121671  -121690  -121544  -121466  -121497  -121487  -121454 
 -121475  -121547  -121571  -121579  -121621  -121545  -121432  -121547 
 -121691  -121648  -121644  -121647  -121568  -121608  -121659  -121610 
 -121581  -121571  -121602  -121586  -121539  -121666  -121682  -121521 
 -121598  -121679  -121560  -121539  -121552  -121543  -121564  -121478 
 -121440  -121587  -121689  -121663  -121616  -121528  -121435  -121498 
 -121664  -121743  -121717  -121713  -121725  -121575  -121402  -121482 
 -121625  -121655  -121660  -121647  -121636  -121617  -121571  -121556 
 -121506  -121521  -121674  -121684  -121598  -121533  -121405  -121468 
 -121747  -121776  -121595  -121541  -121528  -121512  -121633  -121720 
 -121624  -121543  -121529  -121494  -121498  -121574  -121562  -121493 
 -121616  -121768  -121725  -121714  -121763  -121679  -121633  -121757 
 -121794  -121675  -121667  -121744  -121728  -121703  -121682  -121606 
 -121595  -121630  -121671  -121780  -121829  -121729  -121610  -121586 
 -121671  -121710  -121662  -121707  -121788  -121783  -121778  -121771 
 -121699  -121527  -121400  -121435  -121473  -121548  -121703  -121693 
 -121487  -121339  -121393  -121498  -121473  -121389  -121410  -121578 
 -121713  -121656  -121590  -121625  -121572  -121509  -121606  -121570 
 -121355  -121389  -121593  -121616  -121477  -121377  -121486  -121574 
 -121447  -121425  -121477  -121459  -121529  -121531  -121482  -121529 
 -121485  -121393  -121369  -121385  -121525  -121632  -121585  -121567 
 -121540  -121514  -121624  -121645  -121521  -121551  -121699  -121736 
 -121637  -121548  -121618  -121740  -121743  -121707  -121718  -121770 
 -121792  -121767  -121813  -121891  -121813  -121671  -121671  -121664 
 -121585  -121587  -121601  -121616  -121630  -121548  -121583  -121741 
 -121729  -121667  -121687  -121651  -121589  -121528  -121482  -121547 
 -121636  -121678  -121651  -121504  -121437  -121543  -121578  -121529 
 -121566  -121655  -121687  -121662  -121682  -121653  -121487  -121413 
 -121443  -121477  -121613  -121691  -121617  -121554  -121481  -121416 
 -121458  -121570  -121689  -121648  -121508  -121560  -121626  -121567 
 -121655  -121757  -121684  -121705  -121792  -121695  -121567  -121548 
 -121527  -121527  -121566  -121505  -121462  -121621  -121738  -121672 
 -121647  -121651  -121644  -121801  -121983  -121957  -121913  -121941 
 -121914  -121844  -121721  -121613  -121655  -121752  -121760  -121671 
 -121594  -121594  -121603  -121564  -121536  -121599  -121678  -121682 
 -121671  -121617  -121582  -121721  -121830  -121695  -121593  -121674 
 -121655  -121562  -121572  -121547  -121540  -121624  -121554  -121409 
 -121446  -121467  -121394  -121466  -121552  -121424  -121363  -121547 
 -121613  -121513  -121586  -121706  -121629  -121482  -121454  -121601 
 -121736  -121741  -121745  -121734  -121694  -121711  -121701  -121664 
 -121622  -121459  -121427  -121640  -121676  -121564  -121664  -121779 
 -121701  -121718  -121771  -121640  -121617  -121721  -121737  -121743 
 -121682  -121556  -121487  -121432  -121451  -121544  -121583  -121601 
 -121630  -121687  -121790  -121795  -121680  -121686  -121821  -121860 
 -121821  -121819  -121788  -121678  -121566  -121478  -121401  -121335 
 -121300  -121365  -121428  -121377  -121405  -121518  -121510  -121460 
 -121516  -121674  -121757  -121648  -121670  -121918  -121992  -121841 
 -121776  -121797  -121738  -121686  -121610  -121419  -121348  -121512 
 -121610  -121486  -121369  -121402  -121477  -121549  -121590  -121601 
 -121721  -121842  -121698  -121464  -121458  -121545  -121535  -121567 
 -121679  -121618  -121402  -121297  -121293  -121257  -121248  -121327 
 -121367  -121329  -121375  -121524  -121533  -121414  -121462  -121576 
 -121541  -121513  -121585  -121653  -121660  -121674  -121752  -121720 
 -121586  -121509  -121374  -121296  -121477  -121639  -121602  -121652 
 -121829  -121784  -121595  -121612  -121724  -121775  -121768  -121609 
 -121446  -121428  -121338  -121186  -121184  -121278  -121355  -121413 
 -121436  -121410  -121437  -121556  -121691  -121814  -121829  -121687 
 -121572  -121679  -121856  -121819  -121703  -121644  -121424  -121274 
 -121601  -121956  -121888  -121674  -121505  -121412  -121475  -121595 
 -121594  -121444  -121340  -121414  -121563  -121702  -121689  -121502 
 -121440  -121630  -121856  -121895  -121720  -121474  -121455  -121699 
 -121818  -121690  -121562  -121477  -121385  -121394  -121567  -121706 
 -121672  -121552  -121387  -121356  -121590  -121730  -121601  -121486 
 -121508  -121624  -121743  -121770  -121853  -122000  -121938  -121747 
 -121582  -121402  -121413  -121647  -121770  -121667  -121498  -121460 
 -121491  -121486  -121671  -121905  -121825  -121647  -121593  -121597 
 -121614  -121705  -121949  -122064  -121774  -121435  -121365  -121527 
 -121926  -122172  -121930  -121674  -121548  -121379  -121498  -121788 
 -121792  -121743  -121774  -121504  -121165  -121216  -121304  -121379 
 -121733  -121899  -121763  -121744  -121676  -121548  -121591  -121568 
 -121562  -121711  -121659  -121635  -121791  -121668  -121558  -121751 
 -121873  -121848  -121699  -121502  -121518  -121598  -121531  -121518 
 -121558  -121477  -121478  -121695  -121802  -121591  -121491  -121729 
 -121882  -121945  -122072  -121975  -121805  -121884  -121869  -121540 
 -121365  -121563  -121686  -121620  -121508  -121321  -121304  -121482 
 -121724  -122073  -122247  -122079  -121662  -121238  -121215  -121502 
 -121782  -121977  -122002  -121863  -121616  -121362  -121228  -121151 
 -121297  -121679  -121695  -121408  -121421  -121414  -121103  -121204 
 -121833  -122129  -121865  -121633  -121668  -121606  -121471  -121635 
 -121743  -121486  -121402  -121699  -121971  -121876  -121443  -121072 
 -121011  -121267  -121568  -121560  -121558  -121744  -121629  -121347 
 -121459  -121703  -121668  -121531  -121460  -121603  -121960  -122035 
 -121636  -121161  -120988  -121161  -121437  -121629  -121625  -121327 
 -120958  -120831  -121116  -121675  -121996  -121936  -121791  -121730 
 -121593  -121355  -121458  -121803  -121851  -121752  -121578  -121273 
 -121281  -121464  -121387  -121338  -121462  -121521  -121570  -121629 
 -121593  -121648  -121894  -121973  -121705  -121500  -121564  -121591 
 -121621  -121695  -121491  -121468  -121837  -121764  -121387  -121377 
 -121441  -121417  -121559  -121618  -121494  -121662  -121956  -121887 
 -121608  -121400  -121450  -121632  -121477  -121298  -121648  -121987 
 -121860  -121609  -121428  -121219  -120903  -120877  -121270  -121440 
 -121350  -121211  -121041  -121201  -121474  -121560  -121832  -122079 
 -121821  -121333  -121095  -121425  -122095  -122250  -121938  -121886 
 -121886  -121676  -121601  -121788  -122083  -122112  -121837  -121579 
 -121351  -121427  -121859  -121946  -121679  -121579  -121533  -121529 
 -121873  -122021  -121635  -121614  -122003  -122018  -121944  -122168 
 -122297  -122161  -121780  -121123  -120926  -121539  -121896  -121824 
 -122100  -122295  -121826  -121351  -121687  -122237  -121815  -121262 
 -121659  -121707  -121143  -121425  -122056  -121973  -121743  -121798 
 -121756  -121576  -121629  -121860  -121953  -121733  -121342  -121248 
 -121419  -121598  -121864  -121954  -121907  -122052  -121996  -121599 
 -121448  -121636  -121643  -121289  -121089  -121470  -121822  -121554 
 -121269  -121327  -121365  -121420  -121568  -121603  -121518  -121578 
 -121590  -121252  -121244  -121574  -121339  -121007  -121336  -121780 
 -121825  -121801  -121959  -122089  -121921  -121385  -120904  -121045 
 -121493  -121490  -121404  -121662  -121568  -121227  -121392  -121703 
 -121656  -121487  -121536  -121900  -122256  -122164  -121925  -121957 
 -121849  -121452  -121506  -122080  -122162  -121536  -121153  -121406 
 -121753  -121759  -121558  -121487  -121581  -121728  -121849  -121699 
 -121375  -121289  -121321  -121459  -122003  -122341  -121876  -121486 
 -121922  -122374  -122027  -121400  -121244  -121471  -121594  -121639 
 -121954  -122003  -121290  -120899  -121387  -121699  -121493  -121346 
 -121358  -121423  -121471  -121392  -121440  -121590  -121495  -121487 
 -121636  -121722  -121863  -121691  -121247  -121080  -121073  -121225 
 -121423  -121284  -121351  -121761  -121728  -121667  -121963  -121579 
 -120938  -121212  -121485  -121296  -121506  -121942  -122100  -121689 
 -120799  -120621  -121386  -121791  -121591  -121500  -121425  -121115 
 -121105  -121486  -121628  -121752  -122004  -121878  -121846  -122303 
 -122473  -121914  -121320  -121410  -121763  -121944  -122283  -122561 
 -122397  -122013  -121487  -121061  -121234  -121680  -121810  -121859 
 -121991  -121805  -121335  -121041  -121319  -121896  -121856  -121598 
 -121633  -120960  -120401  -121275  -121992  -121826  -121983  -122254 
 -121895  -121428  -121448  -121491  -121304  -121313  -121298  -121001 
 -120860  -120903  -120918  -121080  -121254  -121200  -121213  -121363 
 -121417  -121374  -121270  -121486  -122031  -122172  -122110  -122229 
 -122029  -121520  -121112  -121139  -121585  -121892  -122069  -122041 
 -121510  -121042  -120899  -121092  -121598  -121513  -120837  -120760 
 -121343  -121865  -122038  -121859  -121892  -122310  -122103  -121397 
 -121455  -121956  -121853  -121632  -122057  -122419  -122011  -121289 
 -120950  -121248  -121548  -121599  -122091  -122365  -121701  -121078 
 -120704  -120355  -120518  -120981  -121549  -122184  -122230  -121818 
 -121701  -121721  -121609  -121923  -122512  -122611  -122754  -122870 
 -121929  -120934  -121043  -121398  -121278  -121189  -121744  -122395 
 -122384  -122065  -121548  -120974  -121266  -122042  -122238  -122137 
 -122023  -121678  -121309  -121012  -120934  -121537  -122285  -122308 
 -121917  -121566  -121316  -121355  -121477  -121489  -121890  -122343 
 -121979  -121348  -121076  -120953  -121136  -121655  -122046  -122081 
 -122081  -122354  -122389  -121857  -121340  -121406  -121941  -122212 
 -121790  -120865  -120218  -120681  -121589  -121770  -121470  -121497 
 -121682  -121655  -121910  -122123  -121502  -121073  -121594  -122018 
 -121864  -121675  -121761  -121913  -121724  -121369  -121247  -121095 
 -120830  -120930  -121162  -120977  -120927  -121174  -121200  -121483 
 -121900  -121774  -121617  -121383  -120719  -120722  -121610  -122084 
 -122018  -122084  -122204  -121756  -120892  -120784  -121146  -121046 
 -121136  -121456  -121524  -121842  -122138  -121852  -121728  -121776 
 -121209  -120758  -121142  -121765  -122081  -121984  -121922  -122111 
 -122150  -122130  -121945  -121558  -121586  -121805  -121774  -121653 
 -121575  -121446  -121034  -120930  -121443  -121672  -121734  -122125 
 -122310  -122149  -121774  -121541  -122084  -122528  -122153  -121960 
 -121968  -121617  -121554  -121682  -121527  -121883  -122486  -122165 
 -121609  -121566  -121423  -121192  -121296  -121446  -121559  -121861 
 -121910  -121531  -121366  -121494  -121780  -122224  -122173  -121772 
 -121887  -121968  -121521  -121366  -121753  -122010  -121910  -121763 
 -121636  -121689  -121996  -121996  -121790  -121942  -121991  -121579 
 -121290  -121275  -121301  -121527  -121749  -121659  -121475  -121290 
 -121097  -121068  -121238  -121382  -121419  -121581  -121772  -121682 
 -121473  -121463  -121482  -121333  -121155  -121004  -121090  -121510 
 -121753  -121628  -121358  -121140  -121473  -122080  -121801  -120954 
 -120660  -120669  -120731  -121281  -121977  -122223  -122002  -121474 
 -121146  -121352  -121454  -121142  -121215  -121932  -122291  -121834 
 -121424  -121495  -121491  -121427  -121718  -121845  -121668  -121657 
 -121358  -121072  -121655  -122027  -121491  -121266  -121701  -121725 
 -121146  -120908  -121149  -121254  -121201  -121277  -121471  -121533 
 -121427  -121252  -120907  -120788  -121174  -121410  -121402  -121567 
 -121764  -121986  -122300  -122234  -121752  -121564  -121672  -121571 
 -121451  -121614  -121806  -121591  -121275  -121556  -121981  -121977 
 -121937  -121873  -121811  -122122  -122353  -122222  -122130  -121898 
 -121470  -121489  -121909  -122239  -122409  -122162  -121489  -121182 
 -121652  -122138  -122080  -121991  -122041  -121620  -120881  -120862 
 -121366  -121409  -121313  -121369  -121413  -121626  -121761  -121721 
 -121628  -121498  -121512  -121406  -121227  -121428  -121772  -121983 
 -122083  -121946  -121636  -121401  -121151  -121014  -121378  -121593 
 -121203  -121157  -121599  -121675  -121517  -121722  -122300  -122670 
 -122242  -121714  -121879  -122064  -121950  -121952  -121915  -121724 
 -121575  -121452  -121248  -121055  -121128  -121405  -121354  -121100 
 -121460  -122031  -121972  -121903  -122119  -121946  -121702  -121864 
 -121868  -121487  -121297  -121552  -121768  -121612  -121504  -121695 
 -121868  -121917  -121772  -121495  -121489  -121374  -120951  -121105 
 -121552  -121252  -120802  -121124  -121628  -121624  -121603  -121644 
 -121189  -120904  -121252  -121483  -121679  -122017  -121938  -121652 
 -121506  -121363  -121359  -121527  -121599  -121772  -122231  -122315 
 -121957  -121987  -122130  -121805  -121562  -121725  -121797  -121645 
 -121649  -121765  -121702  -121589  -121497  -121473  -121652  -121755 
 -121775  -121961  -121964  -121757  -121865  -122121  -122096  -121873 
 -121668  -121711  -121811  -121502  -121074  -121221  -121848  -122288 
 -122297  -121923  -121498  -121409  -121333  -121127  -121239  -121632 
 -121768  -121427  -121062  -120974  -120980  -121323  -121936  -121992 
 -121582  -121552  -121861  -121771  -121259  -121036  -121244  -121373 
 -121348  -121528  -121774  -121776  -121690  -121560  -121406  -121463 
 -121504  -121482  -121698  -121659  -121171  -120985  -121258  -121490 
 -121521  -121585  -121724  -121643  -121501  -121776  -122060  -121888 
 -121869  -121957  -121574  -121413  -121829  -121942  -121566  -121336 
 -121278  -121085  -121147  -121649  -122067  -122207  -122143  -121933 
 -121790  -121668  -121517  -121506  -121540  -121583  -121914  -122257 
 -122050  -121628  -121435  -121455  -121814  -122108  -121853  -121628 
 -121779  -121853  -121725  -121660  -121614  -121471  -121518  -121624 
 -121450  -121427  -121645  -121535  -121250  -121209  -121107  -120877 
 -121039  -121423  -121555  -121393  -120943  -120623  -120804  -121149 
 -121440  -121641  -121549  -121344  -121290  -121184  -121182  -121441 
 -121394  -121259  -121637  -121888  -121609  -121458  -121622  -121606 
 -121458  -121632  -121813  -121545  -121317  -121574  -121822  -121752 
 -121834  -122014  -121722  -121304  -121509  -122058  -122169  -121946 
 -122057  -122400  -122300  -121838  -121748  -121980  -121926  -121760 
 -121810  -121771  -121639  -121707  -121791  -121779  -121813  -121689 
 -121359  -121329  -121848  -122223  -121896  -121539  -121525  -121367 
 -121189  -121257  -121408  -121556  -121591  -121520  -121514  -121532 
 -121416  -121351  -121467  -121377  -121157  -121417  -121834  -121672 
 -121396  -121539  -121582  -121490  -121716  -121902  -121861  -121853 
 -121647  -121338  -121481  -121807  -121645  -121184  -121000  -120989 
 -120977  -121284  -121697  -121637  -121416  -121482  -121535  -121375 
 -121323  -121616  -121921  -121957  -121942  -121852  -121701  -121725 
 -121755  -121748  -121929  -122007  -121751  -121609  -121635  -121428 
 -121346  -121520  -121444  -121383  -121464  -121389  -121463  -121595 
 -121562  -121608  -121725  -121967  -122254  -122264  -121967  -121508 
 -121379  -121857  -122141  -121833  -121751  -121914  -121609  -121242 
 -121290  -121477  -121744  -121842  -121520  -121274  -121339  -121320 
 -121107  -121236  -121744  -121981  -122062  -122083  -121782  -121676 
 -121878  -121890  -121703  -121494  -121497  -121626  -121566  -121410 
 -121194  -121104  -121340  -121397  -121188  -121178  -121227  -121366 
