Origin Time       2024/04/02 04:24:00
Lat.              40.133
Long.             141.712
Depth. (km)       71
Mag.              6.0
Station Code      IBRH15
Station Lat.      36.5566
Station Long.     140.3013
Station Height(m) -62
Record Time       2024/04/02 04:25:58
Sampling Freq(Hz) 100Hz
Duration Time(s)  120
Dir.              1
Scale Factor      2942(gal)/8224139
Max. Acc. (gal)   0.442
Last Correction   2024/04/02 04:25:59
Memo.             
[...]
    4490     4441     4415     4407     4351     4332     4395     4394 
    4341     4357     4376     4334     4294     4290     4322     4396 
    4441     4382     4342     4395     4379     4274     4243     4317 
    4405     4414     4361     4357     4398     4418     4426     4410 
    4356     4332     4357     4388     4419     4405     4294     4195 
    4203     4244     4248     4259     4320     4386     4375     4298 
    4233     4205     4261     4394     4426     4351     4338     4403 
    4452     4429     4376     4367     4409     4469     4488     4445 
    4422     4476     4550     4575     4563     4557     4600     4708 
    4774     4723     4660     4680     4707     4629     4548     4590 
    4658     4692     4741     4769     4749     4708     4654     4596 
    4558     4567     4602     4648     4672     4634     4554     4472 
    4441     4523     4637     4660     4614     4554     4513     4490 
    4423     4355     4372     4401     4368     4355     4364     4325 
    4279     4267     4245     4256     4317     4355     4379     4383 
    4360     4336     4257     4183     4191     4225     4272     4294 
    4252     4206     4166     4143     4141     4148     4236     4356 
    4391     4379     4375     4388     4406     4419     4476     4522 
    4517     4548     4580     4558     4564     4598     4596     4572 
    4587     4662     4679     4606     4603     4669     4684     4681 
    4684     4621     4526     4500     4519     4488     4441     4442 
    4437     4403     4386     4394     4399     4367     4321     4332 
    4378     4402     4441     4504     4521     4473     4406     4379 
    4423     4496     4544     4595     4680     4689     4588     4526 
    4537     4552     4556     4550     4580     4621     4591     4518 
    4426     4380     4446     4468     4376     4338     4415     4461 
    4383     4344     4423     4455     4403     4367     4321     4264 
    4239     4248     4303     4337     4307     4338     4419     4410 
    4338     4317     4318     4290     4276     4315     4360     4382 
    4418     4456     4432     4418     4472     4460     4315     4199 
    4247     4318     4276     4263     4318     4295     4240     4248 
    4280     4305     4317     4345     4417     4444     4374     4305 
    4276     4268     4317     4347     4310     4344     4434     4461 
    4496     4592     4641     4580     4503     4487     4483     4482 
    4545     4608     4584     4515     4472     4500     4565     4587 
    4607     4648     4644     4619     4594     4518     4449     4450 
    4487     4530     4530     4499     4486     4428     4372     4463 
    4591     4600     4572     4607     4641     4603     4571     4587 
    4581     4606     4649     4565     4428     4367     4382     4467 
    4565     4591     4550     4486     4426     4396     4399     4407 
    4410     4455     4536     4523     4411     4361     4353     4291 
    4249     4286     4326     4318     4333     4394     4399     4357 
    4374     4405     4353     4243     4206     4256     4279     4302 
    4375     4438     4473     4459     4391     4371     4413     4488 
    4577     4588     4531     4500     4522     4577     4575     4495 
    4475     4511     4509     4482     4475     4514     4580     4611 
    4623     4661     4692     4711     4747     4779     4777     4735 
    4712     4737     4653     4510     4514     4553     4533     4536 
    4519     4473     4446     4444     4499     4526     4471     4465 
    4499     4476     4429     4356     4301     4336     4379     4361 
    4306     4259     4224     4153     4131     4187     4225     4259 
    4303     4336     4359     4324     4276     4294     4338     4390 
    4379     4272     4224     4251     4239     4217     4214     4234 
    4283     4305     4309     4367     4445     4395     4287     4338 
    4449     4486     4511     4530     4526     4479     4419     4444 
    4486     4507     4538     4568     4629     4662     4575     4467 
    4456     4486     4483     4507     4557     4560     4573     4611 
    4592     4545     4541     4534     4500     4504     4548     4591 
    4608     4527     4398     4349     4333     4266     4237     4326 
    4391     4351     4341     4394     4434     4465     4488     4513 
    4506     4450     4441     4510     4560     4533     4484     4450 
    4392     4320     4290     4334     4437     4502     4529     4591 
    4587     4484     4449     4500     4575     4660     4737     4787 
    4769     4714     4638     4523     4480     4510     4502     4500 
    4525     4472     4382     4402     4476     4467     4459     4491 
    4473     4453     4465     4455     4428     4395     4391     4446 
    4486     4487     4502     4464     4375     4371     4421     4445 
    4484     4502     4441     4417     4465     4460     4396     4345 
    4284     4237     4267     4340     4396     4407     4371     4329 
    4320     4288     4225     4233     4279     4244     4187     4197 
    4270     4387     4509     4591     4600     4526     4428     4321 
    4210     4180     4220     4251     4303     4368     4374     4364 
    4371     4368     4425     4542     4596     4556     4549     4595 
    4571     4530     4580     4600     4514     4403     4326     4317 
    4342     4372     4422     4426     4394     4413     4450     4494 
    4538     4554     4621     4726     4741     4675     4612     4553 
    4464     4367     4311     4315     4344     4363     4356     4356 
    4441     4561     4630     4652     4646     4662     4650     4549 
    4515     4577     4585     4569     4590     4583     4537     4511 
    4517     4457     4338     4301     4329     4360     4418     4434 
    4402     4417     4434     4437     4506     4554     4513     4465 
    4406     4334     4360     4418     4347     4217     4170     4141 
    4083     4087     4171     4236     4249     4259     4274     4293 
    4325     4386     4422     4363     4305     4332     4361     4379 
    4406     4367     4266     4199     4214     4283     4299     4270 
    4313     4384     4402     4390     4365     4357     4356     4365 
    4482     4619     4654     4638     4590     4534     4552     4577 
    4510     4406     4391     4407     4384     4438     4568     4634 
    4683     4746     4720     4631     4595     4580     4544     4575 
    4637     4637     4637     4568     4429     4395     4386     4387 
    4542     4652     4602     4523     4396     4264     4236     4325 
    4514     4695     4768     4745     4679     4561     4367     4236 
    4299     4452     4533     4486     4330     4183     4140     4135 
    4195     4388     4564     4720     4935     5000     4897     4824 
    4718     4503     4305     4212     4187     4220     4333     4425 
    4456     4549     4657     4634     4546     4534     4602     4688 
    4746     4747     4762     4837     4850     4783     4776     4749 
    4590     4417     4324     4321     4317     4291     4402     4483 
    4326     4189     4221     4307     4417     4510     4575     4645 
    4658     4581     4463     4363     4295     4234     4210     4284 
    4380     4329     4166     4032     4012     4121     4284     4472 
    4654     4707     4596     4387     4199     4190     4338     4477 
    4564     4633     4688     4685     4561     4432     4403     4392 
    4378     4398     4464     4571     4642     4629     4591     4536 
    4403     4288     4367     4549     4660     4768     4877     4853 
    4764     4657     4413     4175     4207     4375     4405     4361 
    4280     4136     4108     4186     4280     4410     4413     4365 
    4461     4545     4569     4579     4564     4629     4639     4509 
    4448     4415     4260     4068     3939     3854     3746     3701 
    3829     4005     4104     4201     4353     4411     4286     4151 
    4113     4144     4280     4433     4428     4293     4122     3940 
    3856     3894     3924     4068     4365     4495     4423     4391 
    4473     4629     4733     4746     4818     4942     5015     5032 
    5001     4984     5007     4972     4877     4792     4695     4581 
    4549     4652     4850     5027     5074     5062     4942     4629 
    4483     4652     4777     4785     4769     4652     4413     4121 
    3888     3754     3738     3867     4044     4151     4164     4126 
    4070     3986     3917     3904     3943     3977     3994     4066 
    4101     4002     3950     4074     4248     4349     4386     4432 
    4472     4407     4353     4430     4459     4418     4506     4688 
    4797     4815     4819     4891     4962     4880     4737     4747 
    4799     4725     4584     4491     4527     4533     4330     4195 
    4360     4653     4951     5188     5223     5136     5032     4839 
    4679     4703     4820     4927     4972     4954     4888     4707 
    4494     4415     4513     4746     4918     4958     5005     4941 
    4703     4523     4496     4569     4692     4812     4803     4591 
    4348     4176     4089     4209     4455     4665     4738     4536 
    4205     4043     4048     4027     3950     4017     4234     4348 
    4240     4108     4155     4252     4237     4143     4020     3983 
    4020     3996     4039     4117     4068     4097     4283     4503 
    4723     4750     4592     4523     4396     4078     3936     4016 
    3993     3954     4031     4071     4090     4102     4020     3960 
    4058     4387     4810     4903     4602     4207     3919     3890 
    4085     4268     4384     4429     4357     4261     4294     4455 
    4617     4702     4733     4746     4765     4770     4676     4529 
    4494     4556     4750     5125     5317     5175     5013     4911 
    4842     4916     5050     4980     4752     4741     4896     4849 
    4673     4509     4336     4252     4283     4455     4766     4988 
    4980     4800     4513     4226     4063     4117     4275     4247 
    4117     4210     4329     4148     3994     4197     4437     4413 
    4256     4116     3994     3929     3943     3960     3985     4058 
    4121     4120     4044     3921     3804     3708     3663     3703 
    3747     3771     3840     3904     3900     3981     4197     4369 
    4565     4866     5111     5266     5252     5012     4841     4870 
    4814     4499     4167     4058     3990     3854     3956     4355 
    4683     4746     4693     4773     4880     4750     4587     4545 
    4499     4603     4855     4939     4874     4810     4662     4468 
    4365     4384     4591     4866     4819     4488     4302     4294 
    4297     4333     4411     4436     4372     4295     4322     4440 
    4461     4372     4364     4448     4472     4369     4253     4299 
    4456     4537     4542     4576     4702     4884     4959     4880 
    4807     4745     4606     4477     4423     4356     4307     4383 
    4383     4202     4133     4297     4514     4526     4278     4141 
    4328     4581     4711     4754     4615     4198     3890     4004 
    4241     4407     4687     4978     4936     4648     4522     4437 
    4037     3726     3989     4527     4909     5034     4846     4390 
    3946     3750     3765     3915     4171     4457     4658     4720 
    4707     4627     4460     4314     4322     4483     4675     4792 
    4843     4862     4796     4611     4488     4556     4687     4880 
    5161     5287     5211     5162     5105     4815     4445     4413 
    4646     4734     4698     4677     4661     4738     4801     4673 
    4530     4584     4806     4961     4903     4800     4766     4733 
    4765     4799     4618     4363     4162     3881     3711     3817 
    3948     4045     4257     4583     4885     4938     4758     4617 
    4558     4538     4646     4881     5016     4770     4318     4031 
    3848     3820     4153     4568     4812     4966     4931     4727 
    4572     4414     4311     4359     4288     4113     4102     4179 
    4240     4326     4310     4118     4094     4336     4376     4122 
    3969     4018     4116     4189     4189     4079     4028     4159 
    4272     4260     4182     3989     3774     3735     3813     3800 
    3649     3585     3797     4041     3994     3829     3808     3848 
    3931     4098     4213     4255     4290     4189     3925     3735 
    3667     3566     3522     3624     3735     3921     4224     4429 
    4571     4633     4490     4475     4720     4868     4950     5117 
    5096     4796     4513     4392     4392     4422     4344     4365 
    4688     4843     4621     4498     4553     4580     4722     4986 
    5140     5086     4780     4383     4249     4336     4345     4340 
    4463     4626     4823     4990     4881     4619     4480     4386 
    4347     4653     5235     5579     5436     4992     4518     4201 
    4136     4313     4629     4957     5213     5285     5107     4951 
    4976     4896     4764     4841     4966     5000     5032     5134 
    5179     5023     4847     4781     4719     4780     5057     5260 
    5201     5086     5135     5235     5250     5244     5100     4623 
    4108     4004     4275     4592     4773     4757     4488     4144 
    3954     3892     3952     4114     4207     4244     4284     4290 
    4314     4332     4272     4261     4303     4213     4070     4035 
    4004     3874     3636     3358     3210     3335     3682     3883 
    3817     3777     3848     4141     4618     4807     4773     4722 
    4360     3874     3689     3659     3605     3669     3904     4041 
    4017     4095     4160     4064     3987     3936     3919     4012 
    4072     3915     3715     3851     4158     4352     4545     4617 
    4521     4560     4614     4425     4171     4068     4085     4176 
    4348     4479     4575     4757     4950     5094     5251     5445 
    5647     5679     5410     4949     4591     4499     4337     3993 
    3950     4221     4446     4635     4702     4450     4229     4425 
    4683     4711     4830     4973     4903     4904     5028     5047 
    4908     4699     4630     4707     4776     4812     4757     4630 
    4595     4688     4880     5143     5343     5233     4712     4243 
    4224     4275     4081     3866     3724     3638     3835     4213 
    4270     4041     4051     4379     4676     4878     5078     4982 
    4500     4132     4039     3825     3483     3469     3746     3808 
    3703     3796     3967     4033     4118     4303     4579     4970 
    5327     5336     5003     4672     4500     4413     4387     4457 
    4646     4885     5096     5196     4968     4509     4313     4375 
    4441     4638     4851     4757     4448     4236     4257     4252 
    4014     3933     4199     4338     4179     4064     4045     4017 
    4164     4446     4542     4392     4124     3862     3805     3974 
    4167     4293     4359     4365     4342     4310     4307     4321 
    4183     3904     3753     3746     3736     3784     3948     4187 
    4340     4143     3770     3708     3905     4016     4082     4356 
    4796     5038     4941     4826     4845     4806     4784     5008 
    5379     5590     5435     5063     4941     5140     5270     5316 
    5463     5464     5260     5155     5098     4904     4761     4861 
    5103     5332     5491     5478     5285     5167     5131     5038 
    5080     5223     5196     4939     4631     4568     4583     4419 
    4371     4504     4664     4891     4927     4691     4598     4584 
    4401     4342     4503     4542     4320     3956     3682     3607 
    3697     3935     4174     4338     4523     4658     4687     4680 
    4521     4132     3716     3423     3315     3469     3819     4147 
    4345     4499     4585     4507     4421     4480     4511     4414 
    4333     4288     4153     3905     3773     3974     4252     4334 
    4360     4399     4494     4672     4654     4491     4486     4432 
    4288     4298     4297     4218     4189     4064     3979     4255 
    4533     4423     4291     4399     4475     4430     4395     4239 
    3970     3904     4021     4185     4368     4322     4132     4137 
    4120     4014     4160     4425     4456     4255     4066     4158 
    4469     4603     4495     4456     4498     4423     4225     3996 
    3921     4051     4124     4097     4260     4619     4818     4741 
    4631     4573     4571     4668     4685     4596     4606     4681 
    4727     4776     4803     4722     4517     4349     4360     4487 
    4618     4656     4619     4598     4572     4519     4410     4288 
    4228     4048     3812     3928     4276     4446     4457     4409 
    4264     4112     4024     3875     3694     3651     3705     3788 
    3850     3844     3866     3908     3935     4040     4291     4646 
    4860     4768     4644     4639     4595     4569     4579     4436 
    4322     4432     4434     4247     4179     4190     4185     4363 
    4648     4839     5000     5066     4951     4818     4731     4635 
    4498     4341     4321     4553     4970     5254     5166     5024 
    5004     4868     4818     5034     5123     5007     4938     4819 
    4671     4731     4864     4919     5004     5171     5367     5417 
    5331     5286     5159     4857     4603     4483     4321     4041 
    3778     3708     3956     4309     4332     4194     4387     4760 
    4950     4966     4849     4584     4347     4326     4363     4284 
    4284     4311     4122     3960     4024     4179     4357     4521 
    4627     4646     4633     4758     4874     4799     4677     4523 
    4423     4557     4581     4318     4216     4330     4332     4352 
    4526     4513     4325     4325     4421     4502     4641     4623 
    4395     4203     4087     3998     3893     3807     3915     4186 
    4449     4549     4409     4282     4386     4519     4491     4386 
    4279     4129     4008     4025     4025     3859     3719     3856 
    4201     4428     4345     4099     3967     4047     4202     4334 
    4596     4980     5178     5136     4941     4602     4301     4068 
    3802     3747     3939     3946     3778     3859     4091     4228 
    4391     4461     4256     4155     4428     4708     4691     4653 
    4733     4560     4257     4245     4257     4145     4168     4187 
    4133     4187     4326     4577     4845     4914     4947     5053 
    5032     4892     4795     4838     4904     4847     4796     4801 
    4766     4687     4500     4321     4359     4446     4402     4325 
    4313     4337     4291     4228     4348     4569     4687     4769 
    4835     4804     4757     4742     4731     4677     4546     4463 
    4403     4275     4314     4503     4510     4410     4407     4432 
    4518     4742     4904     4797     4556     4504     4618     4568 
    4407     4409     4499     4518     4409     4232     4152     4117 
    3993     3925     3956     3946     3993     4163     4334     4446 
    4465     4464     4517     4556     4525     4374     4186     4170 
    4282     4403     4509     4541     4546     4572     4560     4572 
    4606     4587     4631     4712     4702     4648     4540     4403 
