Origin Time       2024/04/02 04:24:00
Lat.              40.133
Long.             141.712
Depth. (km)       71
Mag.              6.0
Station Code      IBRH06
Station Lat.      36.8809
Station Long.     140.6545
Station Height(m) 295
Record Time       2024/04/02 04:25:28
Sampling Freq(Hz) 100Hz
Duration Time(s)  120
Dir.              2
Scale Factor      3923(gal)/8224838
Max. Acc. (gal)   0.700
Last Correction   2024/04/02 04:25:28
Memo.             
[...]
   -4220    -4303    -4334    -4225    -4190    -4249    -4230    -4222 
   -4284    -4259    -4198    -4240    -4313    -4341    -4320    -4290 
   -4321    -4299    -4197    -4206    -4263    -4241    -4299    -4361 
   -4214    -4112    -4225    -4283    -4244    -4256    -4205    -4112 
   -4156    -4199    -4144    -4128    -4124    -4124    -4228    -4291 
   -4253    -4314    -4403    -4322    -4198    -4168    -4209    -4311 
   -4407    -4432    -4418    -4371    -4293    -4249    -4247    -4286 
   -4371    -4402    -4344    -4271    -4206    -4217    -4317    -4333 
   -4241    -4207    -4259    -4315    -4351    -4342    -4302    -4274 
   -4255    -4284    -4353    -4256    -4085    -4160    -4243    -4143 
   -4237    -4382    -4176    -4066    -4284    -4318    -4218    -4297 
   -4247    -4110    -4256    -4333    -4167    -4237    -4411    -4330 
   -4295    -4365    -4261    -4207    -4344    -4349    -4248    -4220 
   -4151    -4121    -4229    -4272    -4249    -4244    -4152    -4101 
   -4239    -4329    -4264    -4212    -4186    -4112    -4050    -4082 
   -4210    -4309    -4309    -4328    -4321    -4179    -4117    -4228 
   -4287    -4260    -4212    -4137    -4136    -4210    -4234    -4190 
   -4090    -4044    -4174    -4284    -4203    -4126    -4183    -4237 
   -4244    -4294    -4321    -4234    -4230    -4398    -4449    -4338 
   -4306    -4307    -4214    -4191    -4317    -4361    -4272    -4243 
   -4233    -4132    -4101    -4190    -4240    -4280    -4347    -4282 
   -4168    -4259    -4396    -4326    -4237    -4288    -4328    -4328 
   -4332    -4297    -4295    -4356    -4310    -4185    -4193    -4272 
   -4247    -4185    -4159    -4106    -4063    -4079    -4131    -4206 
   -4226    -4178    -4167    -4151    -4114    -4198    -4309    -4322 
   -4392    -4460    -4342    -4230    -4247    -4256    -4317    -4446 
   -4459    -4392    -4336    -4291    -4324    -4322    -4224    -4259 
   -4297    -4131    -4126    -4357    -4364    -4225    -4249    -4245 
   -4179    -4257    -4345    -4329    -4336    -4361    -4288    -4166 
   -4222    -4428    -4434    -4314    -4375    -4371    -4166    -4155 
   -4298    -4241    -4128    -4148    -4203    -4259    -4279    -4239 
   -4244    -4255    -4166    -4121    -4191    -4256    -4329    -4390 
   -4336    -4245    -4166    -4093    -4162    -4261    -4205    -4234 
   -4421    -4405    -4230    -4222    -4282    -4264    -4270    -4288 
   -4301    -4333    -4288    -4234    -4294    -4282    -4176    -4182 
   -4197    -4137    -4121    -4128    -4163    -4243    -4220    -4139 
   -4172    -4291    -4423    -4434    -4217    -4070    -4193    -4275 
   -4216    -4214    -4217    -4143    -4125    -4193    -4279    -4360 
   -4344    -4217    -4124    -4156    -4244    -4275    -4252    -4252 
   -4260    -4268    -4333    -4384    -4382    -4392    -4356    -4286 
   -4334    -4390    -4332    -4338    -4410    -4368    -4328    -4356 
   -4270    -4185    -4272    -4326    -4299    -4361    -4387    -4287 
   -4210    -4160    -4114    -4125    -4180    -4274    -4303    -4179 
   -4097    -4163    -4178    -4106    -4120    -4179    -4183    -4201 
   -4244    -4203    -4114    -4075    -4048    -4012    -4077    -4229 
   -4259    -4124    -4085    -4225    -4230    -4074    -4145    -4307 
   -4149    -4045    -4249    -4267    -4176    -4392    -4503    -4309 
   -4293    -4386    -4245    -4155    -4293    -4309    -4194    -4259 
   -4338    -4233    -4199    -4270    -4212    -4176    -4309    -4349 
   -4278    -4365    -4483    -4371    -4247    -4324    -4409    -4384 
   -4367    -4363    -4317    -4313    -4394    -4438    -4394    -4328 
   -4286    -4294    -4325    -4364    -4440    -4426    -4260    -4147 
   -4170    -4237    -4336    -4371    -4239    -4135    -4193    -4201 
   -4132    -4153    -4170    -4091    -4045    -4104    -4212    -4256 
   -4224    -4207    -4171    -4108    -4147    -4256    -4324    -4341 
   -4336    -4337    -4302    -4206    -4183    -4185    -4091    -4090 
   -4179    -4101    -3989    -4023    -4008    -3919    -3935    -4035 
   -4110    -4117    -4067    -4024    -3982    -3929    -3948    -4082 
   -4297    -4423    -4341    -4267    -4301    -4267    -4274    -4418 
   -4434    -4353    -4399    -4376    -4225    -4217    -4282    -4295 
   -4347    -4325    -4241    -4307    -4392    -4410    -4496    -4542 
   -4476    -4411    -4315    -4283    -4457    -4590    -4519    -4430 
   -4378    -4321    -4326    -4391    -4444    -4452    -4367    -4203 
   -4125    -4232    -4351    -4360    -4367    -4380    -4333    -4299 
   -4342    -4386    -4398    -4449    -4509    -4511    -4560    -4637 
   -4590    -4608    -4793    -4803    -4641    -4645    -4684    -4554 
   -4456    -4380    -4124    -3906    -3924    -3901    -3774    -3796 
   -3820    -3685    -3677    -3811    -3775    -3712    -3848    -3942 
   -3821    -3726    -3770    -3748    -3609    -3565    -3555    -3415 
   -3373    -3545    -3654    -3678    -3742    -3703    -3589    -3635 
   -3753    -3736    -3713    -3871    -4074    -4145    -4114    -4024 
   -3931    -3956    -4079    -4179    -4256    -4332    -4337    -4348 
   -4540    -4754    -4757    -4722    -4779    -4716    -4567    -4583 
   -4668    -4622    -4577    -4649    -4675    -4611    -4579    -4614 
   -4757    -4980    -5127    -5235    -5354    -5267    -5051    -5047 
   -5089    -4955    -4926    -5004    -4853    -4625    -4577    -4556 
   -4569    -4704    -4685    -4500    -4425    -4375    -4253    -4205 
   -4175    -4156    -4287    -4428    -4469    -4486    -4411    -4260 
   -4171    -4095    -4027    -4062    -4095    -4063    -4098    -4094 
   -3888    -3717    -3816    -4047    -4203    -4260    -4217    -4031 
   -3867    -3996    -4220    -4164    -4052    -4109    -3951    -3595 
   -3549    -3642    -3550    -3651    -4040    -4189    -4064    -4079 
   -4132    -3985    -3909    -4023    -3987    -3796    -3808    -3966 
   -3948    -3929    -4132    -4252    -4228    -4398    -4585    -4442 
   -4152    -4002    -3996    -4037    -4126    -4353    -4588    -4585 
   -4594    -4878    -5125    -5252    -5463    -5455    -5238    -5325 
   -5443    -5117    -4804    -4741    -4563    -4433    -4618    -4730 
   -4642    -4599    -4433    -4101    -3998    -4091    -4106    -4167 
   -4225    -4067    -3946    -4016    -4055    -4234    -4706    -4939 
   -4708    -4484    -4401    -4253    -4106    -4000    -3885    -3858 
   -3886    -3904    -3924    -3835    -3703    -3727    -3738    -3681 
   -3928    -4388    -4581    -4575    -4561    -4386    -4198    -4259 
   -4314    -4222    -4255    -4418    -4499    -4477    -4351    -4201 
   -4205    -4255    -4187    -4051    -3865    -3670    -3541    -3445 
   -3418    -3492    -3524    -3547    -3757    -4056    -4229    -4279 
   -4284    -4297    -4325    -4321    -4338    -4410    -4459    -4580 
   -4746    -4658    -4523    -4661    -4677    -4428    -4379    -4421 
   -4203    -4087    -4239    -4234    -4058    -3989    -4005    -4095 
   -4322    -4526    -4641    -4746    -4764    -4668    -4568    -4484 
   -4455    -4490    -4440    -4274    -4068    -3906    -3959    -4135 
   -4121    -4044    -4089    -4089    -4037    -3974    -3801    -3667 
   -3742    -3893    -4021    -3981    -3665    -3422    -3461    -3457 
   -3433    -3646    -3781    -3630    -3505    -3385    -3061    -2835 
   -2934    -3026    -3029    -3311    -3699    -3773    -3846    -4151 
   -4257    -4128    -4182    -4297    -4260    -4330    -4507    -4479 
   -4326    -4259    -4280    -4422    -4594    -4608    -4615    -4719 
   -4669    -4483    -4387    -4257    -4074    -4105    -4257    -4342 
   -4545    -4835    -4866    -4641    -4523    -4693    -4861    -4692 
   -4410    -4328    -4244    -4093    -4212    -4500    -4612    -4604 
   -4561    -4504    -4587    -4704    -4641    -4569    -4645    -4639 
   -4502    -4496    -4585    -4510    -4371    -4402    -4463    -4440 
   -4604    -4905    -4984    -4951    -4947    -4784    -4554    -4507 
   -4592    -4687    -4772    -4872    -4938    -4939    -5015    -5086 
   -4878    -4702    -4887    -4941    -4590    -4338    -4407    -4521 
   -4548    -4500    -4352    -4226    -4243    -4252    -4263    -4523 
   -4784    -4653    -4432    -4344    -4167    -4017    -3990    -3821 
   -3821    -4379    -4837    -4762    -4660    -4500    -4047    -3905 
   -4083    -3829    -3559    -3932    -4159    -3894    -4025    -4425 
   -4322    -4132    -4228    -4213    -4152    -4174    -4031    -3909 
   -3959    -3871    -3688    -3672    -3789    -3878    -3850    -3836 
   -3910    -3800    -3593    -3770    -4120    -4220    -4251    -4267 
   -4082    -3879    -3838    -3840    -3782    -3731    -3805    -3936 
   -3981    -3889    -3673    -3568    -3709    -3769    -3736    -4032 
   -4382    -4251    -4002    -3993    -3832    -3572    -3640    -3746 
   -3685    -3831    -3935    -3700    -3699    -3946    -3811    -3565 
   -3727    -4036    -4151    -4012    -3777    -3798    -3955    -3869 
   -3893    -4268    -4468    -4496    -4723    -4783    -4548    -4492 
   -4403    -4001    -3846    -4141    -4465    -4639    -4641    -4538 
   -4510    -4455    -4299    -4217    -4288    -4426    -4437    -4352 
   -4456    -4627    -4658    -4710    -4741    -4758    -4954    -5019 
   -4814    -4735    -4653    -4372    -4342    -4546    -4533    -4475 
   -4560    -4606    -4725    -4868    -4646    -4396    -4625    -4803 
   -4517    -4322    -4375    -4282    -4253    -4529    -4745    -4795 
   -4773    -4519    -4266    -4348    -4413    -4240    -4158    -4139 
   -3987    -3937    -4087    -4162    -4189    -4422    -4634    -4411 
   -4064    -4121    -4259    -4118    -4099    -4252    -4216    -4248 
   -4509    -4569    -4457    -4513    -4590    -4472    -4226    -3956 
   -3761    -3712    -3821    -4124    -4495    -4612    -4433    -4328 
   -4452    -4509    -4398    -4374    -4411    -4189    -3769    -3573 
   -3670    -3755    -3748    -3765    -3738    -3646    -3630    -3678 
   -3761    -3933    -4016    -3838    -3674    -3816    -4167    -4398 
   -4357    -4361    -4509    -4473    -4463    -4766    -4900    -4716 
   -4718    -4772    -4545    -4441    -4684    -4888    -4986    -5154 
   -5116    -4792    -4707    -4958    -5103    -5173    -5339    -5282 
   -4980    -4784    -4627    -4519    -4723    -4900    -4706    -4517 
   -4461    -4286    -4102    -3982    -3840    -3886    -4040    -3909 
   -3719    -3790    -3824    -3703    -3684    -3717    -3646    -3570 
   -3627    -3808    -3902    -3789    -3646    -3578    -3565    -3561 
   -3484    -3532    -3871    -4081    -3964    -3970    -4136    -3975 
   -3497    -3294    -3535    -3676    -3534    -3728    -4284    -4330 
   -3890    -3820    -4013    -4068    -4360    -4725    -4585    -4465 
   -4822    -5004    -4918    -5103    -5194    -4806    -4494    -4540 
   -4642    -4733    -4773    -4692    -4683    -4743    -4658    -4583 
   -4676    -4677    -4527    -4515    -4571    -4534    -4623    -4727 
   -4509    -4271    -4326    -4375    -4268    -4359    -4590    -4410 
   -3985    -3862    -3785    -3566    -3609    -3738    -3561    -3491 
   -3703    -3678    -3532    -3747    -4023    -4056    -4044    -3998 
   -3989    -4170    -4224    -4070    -4162    -4355    -4232    -4185 
   -4425    -4357    -3994    -4014    -4342    -4523    -4665    -4789 
   -4684    -4546    -4534    -4475    -4467    -4580    -4519    -4413 
   -4607    -4793    -4656    -4411    -4189    -4077    -4283    -4537 
   -4494    -4531    -4833    -4928    -4762    -4557    -4266    -4063 
   -4083    -4043    -3990    -4147    -4261    -4278    -4378    -4268 
   -3856    -3607    -3519    -3358    -3315    -3429    -3646    -3928 
   -3823    -3449    -3578    -3925    -3843    -3807    -4047    -3962 
   -3762    -3983    -4072    -3825    -3963    -4290    -4189    -4037 
   -4163    -4360    -4689    -5090    -5182    -4931    -4608    -4419 
   -4372    -4247    -3993    -3920    -4070    -4077    -3952    -4021 
   -4171    -4221    -4345    -4480    -4309    -3920    -3658    -3667 
   -3935    -4283    -4461    -4422    -4261    -4086    -3975    -3948 
   -4001    -4063    -4153    -4375    -4523    -4407    -4315    -4342 
   -4191    -4087    -4384    -4625    -4469    -4388    -4576    -4706 
   -4692    -4590    -4396    -4248    -4176    -4116    -4163    -4271 
   -4279    -4274    -4253    -4167    -4237    -4430    -4437    -4364 
   -4356    -4282    -4255    -4391    -4468    -4396    -4228    -4032 
   -4136    -4483    -4504    -4329    -4459    -4550    -4182    -3815 
   -3896    -4124    -4151    -4086    -4137    -4267    -4303    -4367 
   -4664    -4884    -4756    -4615    -4683    -4784    -4903    -5062 
   -5100    -4966    -4792    -4679    -4631    -4585    -4496    -4384 
   -4267    -4163    -4048    -3924    -3977    -4128    -3955    -3662 
   -3828    -4125    -4028    -3929    -4048    -3940    -3678    -3585 
   -3472    -3345    -3468    -3681    -3877    -4132    -4172    -3935 
   -3834    -3904    -3863    -3775    -3792    -3717    -3465    -3315 
   -3366    -3361    -3304    -3515    -4018    -4494    -4795    -4927 
   -4764    -4374    -4214    -4433    -4612    -4633    -4765    -4939 
   -5120    -5429    -5512    -5300    -5340    -5549    -5540    -5571 
   -5719    -5520    -4980    -4638    -4785    -5173    -5355    -5287 
   -5150    -4912    -4715    -4765    -4808    -4634    -4460    -4407 
   -4401    -4392    -4297    -4106    -3981    -3902    -3865    -4085 
   -4342    -4099    -3607    -3555    -3751    -3607    -3284    -3160 
   -3169    -3156    -3175    -3426    -3840    -4029    -3894    -3748 
   -3711    -3689    -3796    -4025    -4116    -4089    -4132    -4149 
   -4147    -4333    -4558    -4571    -4499    -4417    -4226    -4183 
   -4475    -4665    -4530    -4356    -4162    -3916    -3894    -4039 
   -4099    -4230    -4379    -4206    -3942    -3900    -3890    -3915 
   -4083    -4155    -4156    -4320    -4433    -4401    -4361    -4139 
   -3815    -3744    -3798    -3854    -4032    -4114    -3990    -3974 
   -4017    -3889    -3915    -4279    -4553    -4541    -4418    -4207 
   -3877    -3624    -3736    -4135    -4315    -4209    -4291    -4440 
   -4260    -4187    -4417    -4314    -3956    -3993    -4255    -4298 
   -4153    -3978    -3948    -4159    -4422    -4538    -4550    -4618 
   -4754    -4712    -4514    -4553    -4741    -4708    -4797    -5258 
   -5512    -5367    -5308    -5332    -5092    -4769    -4707    -4738 
   -4617    -4405    -4116    -3836    -3817    -4008    -4151    -4120 
   -3969    -3866    -3801    -3730    -3928    -4251    -4059    -3620 
   -3697    -3942    -3843    -3905    -4241    -4172    -3921    -4062 
   -4098    -3770    -3701    -3943    -4009    -3931    -4032    -4186 
   -4054    -3842    -3894    -3890    -3547    -3299    -3431    -3631 
   -3785    -4060    -4365    -4540    -4614    -4669    -4693    -4664 
   -4700    -4870    -5054    -5148    -5050    -4800    -4769    -5020 
   -5113    -5067    -5194    -5174    -4819    -4673    -4803    -4625 
   -4162    -3939    -4089    -4347    -4395    -4190    -4120    -4337 
   -4438    -4305    -4216    -4266    -4356    -4317    -4141    -4039 
   -3878    -3541    -3446    -3667    -3740    -3694    -3757    -3838 
   -4039    -4261    -4051    -3721    -3762    -3728    -3538    -3866 
   -4440    -4430    -4094    -4023    -4047    -3998    -4078    -4221 
   -4191    -4098    -4074    -4045    -4060    -4166    -4274    -4449 
   -4689    -4816    -4822    -4696    -4446    -4394    -4503    -4394 
   -4357    -4604    -4603    -4411    -4475    -4477    -4261    -4252 
   -4414    -4475    -4567    -4702    -4668    -4500    -4351    -4253 
   -4225    -4253    -4253    -4145    -4055    -4218    -4438    -4349 
   -4193    -4194    -4052    -3866    -4009    -4182    -4158    -4218 
   -4306    -4313    -4421    -4465    -4382    -4529    -4815    -4869 
   -4710    -4546    -4480    -4367    -4224    -4388    -4541    -4217 
   -3927    -3909    -3802    -3813    -3940    -3790    -3689    -3712 
   -3443    -3385    -3815    -3890    -3626    -3701    -3839    -3816 
   -4031    -4320    -4291    -4101    -3879    -3753    -4016    -4410 
   -4504    -4527    -4635    -4521    -4213    -4075    -4151    -4228 
   -4279    -4391    -4457    -4330    -4104    -4012    -4104    -4156 
   -4120    -4241    -4480    -4625    -4750    -4855    -4815    -4745 
   -4681    -4518    -4472    -4671    -4777    -4804    -5020    -5058 
   -4722    -4553    -4579    -4403    -4314    -4499    -4546    -4453 
   -4423    -4267    -4121    -4222    -4271    -4233    -4332    -4334 
   -4212    -4252    -4310    -4252    -4178    -3925    -3611    -3640 
   -3792    -3769    -3811    -3829    -3705    -3897    -4293    -4303 
   -4194    -4284    -4221    -4028    -4083    -4280    -4374    -4379 
   -4382    -4406    -4355    -4213    -4197    -4311    -4313    -4239 
   -4224    -4110    -3946    -4000    -4017    -3723    -3592    -3856 
   -3978    -3836    -3847    -3950    -3939    -4055    -4275    -4228 
   -4089    -4159    -4160    -4067    -4221    -4396    -4371    -4428 
   -4486    -4369    -4380    -4499    -4437    -4345    -4333    -4326 
   -4409    -4506    -4461    -4396    -4361    -4287    -4282    -4405 
   -4588    -4793    -4934    -4941    -4897    -4849    -4756    -4714 
   -4847    -5001    -4855    -4433    -4099    -3977    -3979    -4159 
   -4380    -4415    -4394    -4433    -4359    -4136    -3940    -3817 
   -3673    -3537    -3630    -3971    -4109    -3898    -3931    -4329 
   -4429    -4286    -4531    -4814    -4580    -4298    -4338    -4369 
   -4226    -4020    -3821    -3761    -3843    -3909    -3908    -3882 
   -3839    -3784    -3728    -3719    -3746    -3659    -3462    -3358 
   -3368    -3457    -3658    -3809    -3927    -4189    -4322    -4226 
   -4272    -4345    -4195    -4159    -4321    -4391    -4504    -4781 
   -4861    -4710    -4684    -4720    -4595    -4459    -4402    -4307 
   -4288    -4457    -4572    -4490    -4309    -4051    -3851    -3939 
   -4135    -4218    -4302    -4307    -4160    -4171    -4320    -4260 
   -4117    -4163    -4239    -4294    -4584    -4923    -4935    -4764 
   -4548    -4247    -4155    -4283    -4212    -4129    -4376    -4515 
   -4261    -4110    -4267    -4266    -4009    -3966    -4141    -4132 
   -4050    -4182    -4306    -4252    -4260    -4313    -4135    -3962 
   -4189    -4554    -4673    -4675    -4662    -4511    -4372    -4460 
   -4611    -4629    -4554    -4456    -4369    -4347    -4344    -4264 
   -4221    -4349    -4475    -4405    -4283    -4260    -4225    -4118 
   -4077    -4153    -4217    -4244    -4351    -4442    -4372    -4306 
   -4336    -4291    -4221    -4291    -4365    -4334    -4338    -4332 
   -4237    -4295    -4518    -4580    -4457    -4332    -4259    -4252 
   -4264    -4237    -4135    -3932    -3808    -3886    -3954    -3987 
   -4261    -4606    -4641    -4475    -4378    -4375    -4332    -4197 
   -4116    -4116    -4060    -4040    -4082    -4004    -3948    -4094 
