Origin Time       2024/04/02 04:24:00
Lat.              40.133
Long.             141.712
Depth. (km)       71
Mag.              6.0
Station Code      IBRH07
Station Lat.      35.9521
Station Long.     140.3301
Station Height(m) 3
Record Time       2024/04/02 04:26:25
Sampling Freq(Hz) 100Hz
Duration Time(s)  120
Dir.              5
Scale Factor      7845(gal)/8223790
Max. Acc. (gal)   3.308
Last Correction   2024/04/02 04:26:25
Memo.             
[...]
    1294     1345     1393     1443     1482     1487     1435     1379 
    1379     1425     1499     1574     1614     1625     1615     1556 
    1462     1399     1393     1410     1462     1541     1609     1661 
    1694     1688     1671     1661     1655     1660     1671     1675 
    1690     1713     1730     1741     1750     1764     1802     1863 
    1971     2147     2344     2497     2586     2637     2698     2781 
    2855     2901     2957     3078     3245     3410     3570     3728 
    3878     4025     4158     4256     4328     4396     4483     4579 
    4653     4720     4810     4907     4976     5004     5028     5063 
    5084     5071     5042     5040     5094     5161     5193     5197 
    5196     5166     5084     4961     4818     4662     4488     4306 
    4132     3954     3775     3608     3457     3334     3250     3210 
    3191     3156     3125     3118     3084     3015     2948     2851 
    2691     2531     2392     2236     2085     1968     1884     1830 
    1804     1809     1830     1834     1809     1779     1786     1836 
    1903     1971     2020     2037     2007     1926     1818     1730 
    1684     1667     1642     1568     1422     1228     1040      899 
     799      737      697      652      576      461      336      237 
     178      160      175      194      191      184      198      207 
     189      174      183      213      248      260      222      167 
     164      244      386      550      691      780      824      814 
     766      764      838      942     1034     1093     1134     1178 
    1206     1198     1193     1240     1328     1440     1580     1740 
    1888     2026     2180     2347     2531     2731     2909     3048 
    3163     3248     3304     3326     3325     3376     3493     3609 
    3701     3774     3828     3881     3946     4017     4102     4201 
    4307     4421     4523     4604     4648     4631     4584     4575 
    4627     4706     4791     4897     5012     5121     5212     5239 
    5198     5138     5063     4982     4916     4855     4803     4788 
    4815     4837     4808     4729     4627     4503     4351     4205 
    4082     3955     3825     3676     3512     3388     3294     3195 
    3099     2984     2833     2667     2500     2331     2174     2030 
    1888     1740     1587     1440     1296     1163     1048      957 
     915      912      905      868      803      737      685      637 
     600      607      634      643      637      616      575      523 
     471      422      390      353      286      209      155      147 
     191      282      414      575      726      846      915      915 
     928     1019     1127     1205     1255     1256     1206     1159 
    1169     1221     1275     1332     1402     1467     1524     1597 
    1702     1838     2002     2178     2362     2546     2724     2907 
    3082     3183     3207     3223     3235     3215     3171     3102 
    3019     2963     2947     2960     3002     3059     3103     3109 
    3071     2997     2909     2857     2875     2934     2986     3006 
    2986     2920     2830     2745     2667     2620     2627     2662 
    2700     2736     2752     2744     2741     2760     2810     2876 
    2944     3010     3060     3102     3144     3175     3195     3206 
    3195     3179     3177     3180     3196     3253     3345     3435 
    3503     3553     3601     3639     3649     3651     3670     3686 
    3690     3689     3669     3620     3558     3501     3430     3318 
    3195     3092     2999     2920     2864     2820     2767     2702 
    2631     2585     2581     2604     2641     2685     2693     2640 
    2559     2502     2478     2458     2448     2452     2451     2455 
    2469     2474     2444     2376     2299     2239     2204     2192 
    2204     2230     2239     2203     2134     2062     2000     1921 
    1814     1711     1620     1514     1410     1347     1337     1331 
    1291     1267     1264     1247     1219     1204     1212     1227 
    1236     1251     1287     1331     1343     1335     1350     1368 
    1360     1366     1406     1418     1387     1359     1321     1260 
    1217     1221     1252     1279     1306     1368     1437     1478 
    1539     1647     1744     1792     1811     1834     1868     1891 
    1895     1898     1925     1989     2062     2108     2147     2215 
    2301     2398     2492     2539     2560     2614     2681     2724 
    2758     2797     2833     2866     2883     2901     2945     2987 
    3002     3010     3018     3028     3046     3061     3060     3052 
    3053     3075     3118     3188     3285     3387     3489     3607 
    3739     3893     4044     4148     4249     4383     4492     4572 
    4650     4707     4729     4712     4665     4619     4563     4471 
    4365     4263     4158     4050     3936     3850     3815     3796 
    3761     3734     3715     3665     3568     3435     3291     3161 
    3055     2941     2797     2639     2462     2253     2037     1860 
    1738     1669     1620     1539     1420     1313     1242     1197 
    1169     1151     1143     1140     1135     1150     1202     1269 
    1321     1359     1393     1431     1460     1463     1456     1470 
    1514     1599     1696     1755     1753     1703     1622     1548 
    1503     1505     1556     1609     1649     1694     1695     1651 
    1632     1651     1668     1679     1675     1640     1575     1501 
    1421     1328     1225     1143     1096     1084     1105     1139 
    1139     1125     1146     1193     1247     1318     1389     1443 
    1503     1576     1642     1718     1810     1865     1885     1910 
    1912     1877     1848     1845     1858     1910     2010     2114 
    2203     2284     2355     2435     2543     2678     2836     2999 
    3152     3310     3460     3558     3603     3623     3622     3622 
    3672     3762     3834     3869     3882     3866     3823     3765 
    3685     3595     3528     3487     3434     3358     3280     3210 
    3138     3057     2980     2928     2893     2859     2829     2817 
    2824     2852     2901     2953     3011     3079     3152     3217 
    3261     3288     3326     3381     3438     3474     3464     3433 
    3418     3418     3404     3372     3357     3380     3414     3430 
    3412     3350     3246     3118     2987     2887     2849     2835 
    2787     2702     2602     2513     2455     2435     2440     2457 
    2466     2452     2415     2349     2257     2174     2119     2062 
    1981     1892     1806     1714     1615     1509     1410     1314 
    1225     1165     1116     1050      970      897      828      762 
     719      715      770      868      961     1059     1174     1263 
    1328     1405     1491     1575     1640     1661     1645     1624 
    1620     1629     1613     1572     1548     1556     1590     1621 
    1617     1588     1556     1525     1522     1572     1653     1748 
    1858     1948     2000     2056     2122     2187     2280     2378 
    2440     2497     2562     2585     2563     2551     2558     2552 
    2556     2610     2695     2767     2813     2843     2859     2868 
    2878     2907     2953     2986     2997     3009     3017     2995 
    2974     2975     2975     2956     2925     2887     2839     2766 
    2695     2674     2695     2725     2741     2748     2749     2728 
    2677     2640     2644     2681     2739     2789     2820     2839 
    2821     2781     2743     2701     2670     2664     2687     2745 
    2824     2905     3011     3157     3329     3505     3669     3809 
    3931     4041     4148     4228     4279     4311     4313     4287 
    4252     4207     4166     4132     4083     4010     3944     3892 
    3836     3788     3735     3651     3558     3477     3393     3311 
    3233     3148     3073     3021     2963     2893     2820     2748 
    2686     2629     2558     2482     2421     2363     2277     2138 
    1956     1752     1532     1321     1158     1001      808      604 
     406      186      -54     -286     -479     -616     -696     -743 
    -795     -855     -909     -950     -973     -970     -966     -977 
    -961     -888     -801     -727     -638     -522     -382     -228 
     -52      151      353      533      711      895     1073     1248 
    1440     1656     1848     1991     2118     2235     2339     2470 
    2636     2813     2984     3144     3287     3420     3562     3715 
    3856     3979     4113     4266     4422     4573     4725     4878 
    5030     5169     5296     5405     5505     5601     5674     5698 
    5671     5610     5532     5443     5341     5235     5130     5047 
    4988     4922     4835     4747     4660     4556     4453     4374 
    4309     4237     4144     4045     3944     3842     3754     3682 
    3605     3514     3392     3233     3053     2875     2718     2596 
    2493     2398     2309     2211     2088     1945     1786     1626 
    1490     1385     1312     1264     1232     1209     1183     1116 
     993      850      743      676      618      554      488      441 
     418      414      422      456      521      579      629      714 
     812      884      972     1080     1161     1232     1325     1402 
    1440     1460     1480     1505     1514     1512     1528     1566 
    1605     1638     1674     1744     1860     1973     2046     2103 
    2173     2246     2297     2332     2377     2447     2528     2592 
    2608     2590     2585     2594     2602     2605     2602     2624 
    2655     2663     2662     2664     2666     2654     2628     2602 
    2587     2578     2546     2479     2394     2312     2250     2197 
    2134     2058     1993     1962     1954     1938     1900     1849 
    1786     1721     1679     1661     1644     1625     1605     1583 
    1583     1614     1648     1684     1741     1826     1935     2041 
    2131     2231     2338     2432     2517     2606     2713     2829 
    2940     3045     3141     3231     3339     3456     3546     3623 
    3700     3777     3862     3947     4031     4139     4239     4295 
    4332     4357     4369     4376     4384     4409     4475     4561 
    4611     4615     4587     4531     4467     4402     4341     4310 
    4303     4266     4175     4051     3912     3762     3605     3462 
    3358     3304     3269     3226     3173     3102     3029     2970 
    2910     2844     2771     2689     2598     2485     2354     2214 
    2084     1980     1884     1782     1676     1568     1452     1328 
    1197     1071      965      861      761      695      638      541 
     425      318      218      124       45      -20      -89     -178 
    -286     -384     -465     -514     -510     -472     -440     -425 
    -422     -422     -430     -448     -430     -355     -257     -153 
     -29      105      228      337      441      552      688      855 
    1027     1169     1287     1402     1503     1601     1717     1845 
    1984     2131     2282     2432     2575     2716     2866     3011 
    3156     3312     3480     3646     3807     3950     4064     4168 
    4287     4426     4580     4718     4812     4876     4918     4947 
    4977     5009     5038     5057     5063     5051     5032     5008 
    4972     4918     4869     4854     4858     4833     4777     4716 
    4652     4581     4517     4464     4441     4446     4452     4428 
    4363     4283     4191     4058     3906     3767     3626     3495 
    3393     3302     3194     3088     2997     2916     2839     2759 
    2668     2565     2454     2346     2235     2127     2050     1985 
    1899     1799     1696     1560     1379     1194     1050      949 
     882      838      800      764      731      697      656      608 
     610      673      734      783      842      911     1003     1093 
    1150     1201     1275     1375     1501     1615     1703     1786 
    1858     1912     1965     2027     2087     2145     2205     2261 
    2307     2349     2378     2405     2455     2505     2538     2567 
    2567     2515     2443     2389     2350     2297     2239     2191 
    2131     2052     1983     1934     1910     1903     1899     1885 
    1856     1831     1819     1768     1669     1572     1506     1463 
    1429     1405     1395     1372     1323     1250     1167     1121 
    1140     1194     1251     1304     1343     1374     1397     1405 
    1429     1486     1557     1633     1719     1817     1907     1981 
    2046     2104     2155     2212     2274     2335     2407     2496 
    2573     2631     2698     2772     2859     2983     3096     3177 
    3276     3366     3423     3496     3592     3686     3792     3898 
    3997     4089     4160     4217     4274     4342     4434     4540 
    4629     4703     4773     4822     4842     4849     4861     4896 
    4949     4995     5024     5024     4993     4951     4903     4855 
    4822     4784     4722     4634     4523     4409     4297     4182 
    4066     3955     3855     3763     3662     3537     3408     3299 
    3204     3096     2970     2855     2744     2600     2430     2268 
    2116     1964     1810     1657     1490     1283     1057      835 
     618      406      214       44     -102     -238     -379     -507 
    -619     -726     -820     -897     -954     -993    -1015    -1034 
   -1050    -1032     -999     -980     -949     -891     -846     -804 
    -738     -662     -585     -510     -423     -321     -209      -87 
      54      221      407      595      773      966     1175     1385 
    1595     1810     2019     2208     2373     2528     2687     2847 
    2999     3129     3231     3335     3468     3616     3770     3917 
    4047     4178     4311     4414     4500     4595     4676     4719 
    4739     4746     4750     4756     4761     4750     4710     4646 
    4584     4517     4441     4368     4294     4216     4133     4051 
    3979     3927     3888     3838     3750     3643     3550     3469 
    3392     3331     3299     3279     3241     3191     3130     3059 
    2998     2959     2928     2875     2808     2770     2774     2783 
    2785     2783     2781     2768     2748     2727     2694     2646 
    2604     2573     2535     2501     2490     2482     2467     2471 
    2485     2482     2475     2475     2484     2501     2529     2567 
    2600     2604     2592     2565     2516     2457     2407     2358 
    2303     2253     2208     2153     2084     2022     1998     2007 
    2014     1996     1944     1865     1786     1719     1682     1678 
    1688     1701     1686     1647     1609     1567     1528     1512 
    1514     1526     1539     1544     1537     1507     1458     1413 
    1378     1355     1351     1347     1325     1300     1269     1228 
    1194     1169     1140     1125     1121     1105     1061     1005 
     965      935      915      888      849      839      854      850 
     831      841      891      942      966      994     1066     1159 
    1244     1309     1370     1439     1510     1580     1661     1748 
    1836     1939     2065     2203     2347     2509     2700     2894 
    3072     3248     3418     3549     3654     3758     3871     3985 
    4078     4153     4230     4309     4388     4468     4542     4611 
    4671     4722     4774     4833     4884     4918     4923     4909 
    4895     4877     4849     4807     4757     4723     4700     4649 
    4563     4475     4401     4333     4259     4178     4106     4041 
    3967     3885     3805     3719     3624     3520     3400     3254 
    3073     2874     2702     2566     2438     2305     2170     2038 
    1911     1775     1625     1478     1356     1277     1236     1198 
    1139     1061      965      870      820      815      826      834 
     820      799      787      765      726      695      680      677 
     679      680      691      707      716      738      783      818 
     819      803      800      822      845      850      857      891 
     949      999     1027     1061     1101     1140     1198     1271 
    1329     1398     1507     1626     1726     1815     1902     2004 
    2124     2236     2332     2415     2497     2602     2714     2812 
    2907     3001     3082     3171     3257     3315     3365     3424 
    3478     3523     3549     3564     3593     3631     3645     3639 
    3636     3650     3685     3734     3774     3812     3835     3835 
    3828     3816     3775     3711     3649     3613     3586     3531 
    3454     3373     3285     3192     3103     3021     2947     2886 
    2845     2821     2797     2762     2713     2658     2612     2589 
    2570     2538     2509     2481     2442     2398     2363     2353 
    2365     2386     2408     2415     2401     2404     2424     2434 
    2424     2407     2408     2421     2419     2389     2353     2344 
    2367     2392     2411     2435     2465     2492     2517     2538 
    2543     2546     2546     2539     2543     2555     2547     2528 
    2521     2505     2474     2436     2401     2369     2334     2292 
    2247     2201     2157     2122     2091     2060     2038     2015 
    1971     1910     1860     1838     1823     1787     1761     1764 
    1752     1728     1734     1763     1779     1788     1803     1821 
    1831     1827     1815     1798     1772     1740     1710     1679 
    1651     1632     1618     1610     1605     1587     1559     1536 
    1516     1503     1516     1540     1561     1590     1622     1642 
    1652     1669     1711     1777     1857     1931     2000     2088 
    2196     2293     2378     2479     2593     2689     2771     2853 
    2943     3042     3148     3260     3391     3524     3632     3716 
    3781     3834     3882     3928     3973     4021     4064     4095 
    4109     4093     4048     3996     3944     3905     3854     3778 
    3716     3673     3609     3516     3422     3346     3277     3208 
    3152     3087     2980     2847     2727     2647     2606     2587 
    2573     2556     2542     2536     2539     2529     2494     2458 
    2444     2438     2424     2409     2377     2324     2269     2207 
    2135     2066     2002     1931     1857     1794     1753     1729 
    1706     1675     1629     1563     1487     1413     1320     1213 
    1124     1053      994      958      939      930      912      876 
     838      814      818      845      868      884      903      916 
     920      928      954      997     1048     1094     1136     1181 
    1210     1225     1258     1316     1382     1451     1529     1621 
    1706     1768     1818     1871     1944     2034     2118     2193 
    2273     2346     2409     2486     2579     2685     2799     2914 
    3014     3094     3165     3240     3318     3396     3474     3550 
    3618     3673     3727     3777     3821     3870     3920     3958 
    3985     4013     4035     4037     4033     4017     3990     3973 
    3947     3893     3846     3827     3823     3820     3812     3790 
    3757     3721     3681     3624     3565     3516     3474     3419 
    3348     3284     3240     3199     3161     3142     3144     3136 
