Origin Time       2024/04/02 04:24:00
Lat.              40.133
Long.             141.712
Depth. (km)       71
Mag.              6.0
Station Code      IBRH15
Station Lat.      36.5566
Station Long.     140.3013
Station Height(m) -62
Record Time       2024/04/02 04:25:58
Sampling Freq(Hz) 100Hz
Duration Time(s)  120
Dir.              3
Scale Factor      2942(gal)/8224139
Max. Acc. (gal)   0.309
Last Correction   2024/04/02 04:25:59
Memo.             
[...]
 -193388  -193429  -193525  -193608  -193715  -193784  -193712  -193587 
 -193576  -193638  -193685  -193765  -193822  -193795  -193738  -193671 
 -193664  -193766  -193907  -193992  -193869  -193644  -193641  -193754 
 -193758  -193828  -193932  -193816  -193733  -193853  -193887  -193855 
 -193909  -193972  -193995  -193930  -193861  -193947  -194082  -194125 
 -194071  -193970  -193932  -193939  -193949  -194046  -194108  -194044 
 -194082  -194181  -194077  -193928  -193939  -193968  -194013  -194139 
 -194157  -194094  -194055  -193878  -193691  -193750  -193882  -193951 
 -194061  -194077  -193845  -193671  -193741  -193779  -193779  -193889 
 -193914  -193765  -193726  -193891  -193928  -193807  -193783  -193754 
 -193688  -193808  -193970  -193949  -193903  -193905  -193892  -193939 
 -193968  -193876  -193851  -193935  -193946  -193980  -194044  -193861 
 -193626  -193703  -193891  -193950  -193951  -193843  -193595  -193436 
 -193526  -193780  -194013  -194062  -193942  -193842  -193796  -193737 
 -193726  -193797  -193891  -193927  -193899  -193873  -193831  -193797 
 -193789  -193769  -193828  -193968  -194039  -194005  -193914  -193864 
 -193847  -193780  -193750  -193814  -193923  -193992  -193969  -193955 
 -193920  -193797  -193761  -193860  -193972  -194009  -193990  -194001 
 -193950  -193788  -193707  -193774  -193860  -193818  -193773  -193923 
 -194000  -193841  -193725  -193695  -193675  -193725  -193857  -194047 
 -194143  -194080  -193969  -193882  -193873  -193949  -194051  -194046 
 -193908  -193869  -193922  -193845  -193801  -193951  -194019  -193924 
 -193876  -193846  -193743  -193666  -193681  -193757  -193828  -193884 
 -193945  -193887  -193706  -193669  -193849  -193943  -193846  -193779 
 -193795  -193791  -193776  -193849  -193941  -193847  -193712  -193723 
 -193779  -193831  -193918  -194042  -194015  -193846  -193860  -193961 
 -193963  -193982  -194049  -194111  -194161  -194104  -193916  -193860 
 -193963  -193988  -194022  -193974  -193623  -193450  -193641  -193608 
 -193477  -193646  -193708  -193541  -193588  -193851  -193961  -193936 
 -193973  -193804  -193521  -193644  -193912  -193896  -193774  -193688 
 -193499  -193344  -193523  -193757  -193760  -193800  -193880  -193810 
 -193710  -193677  -193677  -193661  -193654  -193752  -193931  -194028 
 -194007  -193923  -193757  -193618  -193710  -193909  -193932  -193882 
 -193865  -193656  -193375  -193330  -193529  -193873  -194113  -194046 
 -193831  -193680  -193677  -193841  -194024  -194094  -194031  -193789 
 -193502  -193433  -193602  -193853  -194019  -194001  -193891  -193749 
 -193573  -193630  -193896  -193874  -193687  -193637  -193461  -193330 
 -193637  -193935  -193823  -193707  -193723  -193541  -193407  -193623 
 -193806  -193801  -193864  -193945  -193819  -193650  -193874  -194313 
 -194331  -194140  -194200  -194127  -193882  -194020  -194233  -194042 
 -193972  -194197  -194135  -193941  -193926  -193781  -193606  -193704 
 -193861  -193982  -194157  -194112  -193812  -193779  -194028  -194089 
 -194082  -194252  -194238  -194039  -194074  -194120  -193961  -193966 
 -194121  -194107  -194113  -194240  -194174  -194000  -193920  -193838 
 -193853  -193986  -193935  -193761  -193777  -193843  -193722  -193654 
 -193793  -193847  -193811  -193854  -193854  -193865  -193954  -193899 
 -193806  -193880  -193868  -193715  -193703  -193743  -193612  -193513 
 -193675  -193884  -193922  -193816  -193672  -193660  -193695  -193664 
 -193753  -193842  -193791  -193814  -194015  -194220  -194220  -194135 
 -194074  -193881  -193679  -193688  -193776  -193762  -193758  -193860 
 -193854  -193634  -193483  -193598  -193703  -193594  -193621  -193801 
 -193679  -193568  -193857  -194024  -194019  -194174  -194121  -193865 
 -193880  -193989  -193970  -194004  -194040  -193965  -193943  -193997 
 -193905  -193762  -193710  -193619  -193588  -193707  -193761  -193718 
 -193779  -193984  -194050  -193833  -193644  -193669  -193646  -193599 
 -193858  -194016  -193684  -193457  -193567  -193664  -193801  -193962 
 -193864  -193687  -193739  -193777  -193656  -193617  -193675  -193757 
 -193878  -193901  -193811  -193749  -193683  -193622  -193683  -193738 
 -193669  -193656  -193795  -193876  -193877  -193904  -193776  -193600 
 -193653  -193761  -193769  -193726  -193668  -193596  -193500  -193514 
 -193608  -193576  -193546  -193591  -193483  -193328  -193403  -193596 
 -193656  -193637  -193723  -193834  -193862  -193891  -193950  -194070 
 -194128  -193988  -193882  -193961  -194080  -194157  -194135  -193947 
 -193742  -193696  -193712  -193897  -194301  -194486  -194391  -194273 
 -194107  -194020  -194117  -194198  -194297  -194424  -194444  -194490 
 -194533  -194451  -194363  -194247  -194124  -194127  -194093  -193986 
 -194026  -194046  -193905  -193905  -194057  -194119  -194078  -193999 
 -193970  -193939  -193792  -193722  -193800  -193853  -193830  -193699 
 -193553  -193590  -193627  -193477  -193430  -193503  -193371  -193241 
 -193359  -193463  -193552  -193699  -193675  -193571  -193530  -193415 
 -193347  -193471  -193592  -193623  -193658  -193715  -193779  -193788 
 -193761  -193837  -193986  -194081  -194132  -194155  -194088  -194042 
 -194050  -193928  -193926  -194194  -194236  -193970  -193865  -193941 
 -193955  -193934  -193914  -193922  -193970  -193946  -193946  -194069 
 -194097  -193997  -193891  -193757  -193783  -194157  -194418  -194271 
 -194206  -194144  -193733  -193556  -193712  -193733  -193887  -194142 
 -193954  -193648  -193727  -193849  -193828  -193914  -193963  -193887 
 -193816  -193692  -193622  -193739  -193822  -193792  -193851  -193986 
 -194027  -194069  -194298  -194493  -194401  -194267  -194275  -194216 
 -194038  -193916  -193935  -194026  -194061  -193976  -193846  -193850 
 -193896  -193801  -193779  -193860  -193706  -193473  -193506  -193502 
 -193450  -193746  -193942  -193733  -193702  -193930  -193922  -193857 
 -194073  -194039  -193644  -193544  -193685  -193665  -193594  -193608 
 -193604  -193488  -193344  -193334  -193396  -193376  -193432  -193637 
 -193753  -193747  -193641  -193504  -193607  -193789  -193804  -193799 
 -193824  -193861  -193972  -194100  -194067  -193927  -193843  -193861 
 -194098  -194316  -194242  -194247  -194339  -194148  -193953  -194012 
 -193953  -193698  -193602  -193615  -193672  -193923  -194101  -193989 
 -193905  -193923  -193872  -193954  -194212  -194371  -194413  -194377 
 -194335  -194398  -194429  -194412  -194470  -194437  -194282  -194159 
 -193954  -193676  -193625  -193727  -193644  -193553  -193704  -193754 
 -193712  -193834  -193765  -193491  -193407  -193442  -193523  -193743 
 -193953  -193985  -193866  -193718  -193699  -193807  -193855  -193772 
 -193661  -193545  -193371  -193266  -193252  -193216  -193282  -193359 
 -193387  -193590  -193750  -193747  -193846  -193986  -194042  -193982 
 -193857  -193851  -193977  -194104  -194192  -194277  -194154  -193760 
 -193611  -193687  -193614  -193604  -193693  -193673  -193530  -193392 
 -193463  -193637  -193704  -193715  -193733  -193746  -193743  -193758 
 -193785  -193812  -193855  -193839  -193808  -193869  -193962  -193999 
 -193989  -193951  -193768  -193606  -193756  -193911  -193888  -193978 
 -194043  -193891  -193841  -193968  -193986  -194007  -194119  -194097 
 -194054  -194071  -193908  -193708  -193808  -194077  -194178  -194109 
 -193959  -193725  -193653  -193970  -194328  -194325  -194229  -194352 
 -194422  -194289  -194212  -194244  -194196  -194019  -193884  -193907 
 -193943  -193826  -193656  -193673  -193847  -193891  -193652  -193426 
 -193402  -193375  -193522  -193880  -193889  -193575  -193425  -193475 
 -193455  -193376  -193499  -193708  -193769  -193689  -193494  -193314 
 -193245  -193266  -193383  -193464  -193449  -193502  -193668  -193796 
 -193816  -193814  -193733  -193603  -193630  -193698  -193729  -193943 
 -194206  -194256  -194166  -194028  -193981  -194076  -194080  -193986 
 -194028  -194201  -194260  -194174  -194166  -194086  -193780  -193795 
 -194169  -194170  -193962  -194128  -194286  -194042  -193950  -194263 
 -194346  -194170  -194124  -193947  -193645  -193630  -193769  -193785 
 -193826  -193939  -193872  -193742  -193761  -193681  -193494  -193428 
 -193407  -193418  -193585  -193749  -193712  -193630  -193583  -193436 
 -193349  -193517  -193722  -193905  -194020  -193826  -193665  -193756 
 -193702  -193617  -193773  -193888  -193850  -193930  -194058  -193981 
 -193882  -193834  -193611  -193517  -193737  -193800  -193739  -193788 
 -193716  -193633  -193749  -193810  -193730  -193841  -194131  -194240 
 -194150  -194062  -194062  -194094  -194076  -194066  -193939  -193658 
 -193660  -193795  -193662  -193692  -193972  -193969  -193861  -193990 
 -194112  -194171  -194244  -194111  -193887  -193853  -193887  -193905 
 -194016  -194116  -194046  -193973  -194123  -194367  -194437  -194289 
 -194103  -193968  -193858  -193826  -193873  -193989  -194080  -193999 
 -193959  -194040  -193984  -193860  -193860  -193860  -193834  -193970 
 -194000  -193627  -193302  -193266  -193303  -193473  -193834  -194092 
 -194049  -193976  -194020  -193919  -193653  -193575  -193610  -193491 
 -193575  -193927  -193976  -193773  -193750  -193811  -193781  -193891 
 -194242  -194463  -194335  -194061  -193909  -193873  -193800  -193776 
 -193753  -193622  -193676  -193853  -193834  -193799  -193822  -193772 
 -193716  -193672  -193649  -193693  -193801  -193930  -194003  -194017 
 -194062  -194159  -194190  -194096  -194023  -194086  -194121  -193949 
 -193824  -193942  -193972  -193762  -193612  -193602  -193637  -193851 
 -194058  -193915  -193716  -193708  -193679  -193685  -193811  -193796 
 -193743  -193923  -194080  -194073  -194073  -193996  -193876  -193946 
 -194112  -194247  -194316  -194216  -194008  -193672  -193282  -193213 
 -193340  -193463  -193779  -193945  -193685  -193567  -193731  -193772 
 -193756  -193873  -193953  -193864  -193780  -193831  -193854  -193810 
 -193870  -193924  -193753  -193569  -193615  -193649  -193645  -193870 
 -194057  -193961  -193824  -193718  -193614  -193573  -193654  -193842 
 -193868  -193688  -193638  -193770  -193872  -193888  -193864  -193862 
 -193904  -193968  -194065  -194128  -194138  -194100  -193922  -193672 
 -193540  -193594  -193750  -193834  -193810  -193781  -193653  -193291 
 -193028  -193214  -193449  -193359  -193357  -193525  -193486  -193484 
 -193638  -193621  -193631  -193783  -193769  -193757  -193982  -194108 
 -193959  -193909  -194032  -194000  -193928  -194016  -193950  -193752 
 -193843  -194051  -194117  -194215  -194174  -193876  -193739  -193787 
 -193687  -193625  -193811  -193985  -193989  -193972  -194024  -193947 
 -193729  -193726  -193866  -193938  -194039  -194050  -193943  -193939 
 -193990  -193951  -193926  -194015  -194074  -194022  -193981  -194007 
 -193997  -193930  -193912  -193935  -193941  -193981  -193939  -193769 
 -193733  -193858  -193889  -193806  -193814  -193931  -193992  -193953 
 -193959  -194105  -194216  -194263  -194319  -194166  -193888  -193893 
 -194036  -194049  -194108  -194139  -193938  -193737  -193711  -193750 
 -193725  -193712  -193838  -193934  -193989  -194151  -194247  -194096 
 -193880  -193888  -194012  -194015  -194001  -193962  -193792  -193723 
 -193803  -193731  -193577  -193587  -193649  -193604  -193460  -193310 
 -193284  -193357  -193465  -193649  -193834  -193812  -193657  -193635 
 -193693  -193714  -193827  -194039  -194154  -194098  -194011  -193958 
 -193837  -193672  -193666  -193781  -193834  -193901  -193980  -193907 
 -193806  -193843  -193911  -193808  -193590  -193486  -193483  -193487 
 -193575  -193661  -193618  -193693  -194030  -194175  -194005  -193900 
 -193761  -193511  -193486  -193625  -193646  -193598  -193681  -193880 
 -193984  -193973  -193966  -193870  -193738  -193858  -194080  -194146 
 -194143  -194062  -193931  -193978  -194174  -194332  -194406  -194389 
 -194232  -194031  -194059  -194209  -194094  -193947  -194142  -194233 
 -193931  -193807  -193993  -194022  -193965  -194085  -194208  -194157 
 -194120  -194173  -194143  -194128  -194169  -194086  -193935  -193819 
 -193828  -193873  -193689  -193465  -193482  -193557  -193583  -193737 
 -193926  -193907  -193865  -194005  -194098  -193938  -193764  -193823 
 -193931  -193934  -193865  -193733  -193584  -193500  -193534  -193638 
 -193735  -193695  -193549  -193587  -193702  -193650  -193665  -193772 
 -193688  -193464  -193291  -193261  -193440  -193662  -193680  -193656 
 -193714  -193676  -193730  -193949  -194009  -193965  -193915  -193853 
 -193887  -193904  -193895  -193970  -194040  -193993  -193908  -193936 
 -193892  -193753  -193827  -193812  -193546  -193567  -193783  -193801 
 -193801  -193784  -193607  -193554  -193739  -193788  -193668  -193831 
 -194067  -193945  -193877  -193985  -193887  -193774  -193864  -193966 
 -194051  -194140  -194069  -193861  -193803  -193982  -194127  -194107 
 -194185  -194314  -194174  -193976  -194027  -194138  -194057  -193932 
 -193942  -193908  -193889  -194086  -194212  -194076  -193880  -193734 
 -193627  -193703  -193984  -194112  -193970  -193831  -193816  -193882 
 -193882  -193806  -193838  -193896  -193916  -194008  -194089  -194061 
 -193970  -193907  -193834  -193722  -193749  -193888  -193899  -193881 
 -194055  -194251  -194175  -194020  -194007  -193892  -193679  -193712 
 -193839  -193685  -193525  -193633  -193638  -193403  -193345  -193455 
 -193275  -192986  -193093  -193287  -193264  -193369  -193541  -193467 
 -193374  -193469  -193554  -193592  -193793  -194051  -194054  -193877 
 -193804  -193841  -193908  -193918  -193811  -193719  -193683  -193653 
 -193671  -193783  -193963  -194023  -193982  -194015  -193977  -193928 
 -194078  -194193  -194111  -194004  -194016  -194131  -194171  -194093 
 -194015  -193904  -193827  -193907  -193939  -193880  -193953  -194036 
 -193946  -193833  -193774  -193726  -193706  -193650  -193540  -193495 
 -193513  -193596  -193791  -193928  -193887  -193707  -193526  -193500 
 -193510  -193465  -193579  -193734  -193716  -193747  -193838  -193785 
 -193683  -193615  -193653  -193811  -193855  -193819  -193853  -193824 
 -193804  -193869  -193814  -193685  -193637  -193571  -193499  -193556 
 -193687  -193758  -193735  -193641  -193634  -193766  -193823  -193806 
 -193797  -193737  -193747  -193785  -193702  -193781  -193972  -193912 
 -193846  -193963  -193970  -193897  -194004  -194086  -193939  -193888 
 -193943  -193842  -193839  -194022  -194123  -194163  -194200  -194177 
 -194101  -194019  -193997  -193982  -193943  -194003  -194143  -194197 
 -194182  -194227  -194240  -194154  -194111  -194150  -194181  -194108 
 -194004  -194023  -194059  -194003  -193972  -194015  -194023  -193916 
 -193725  -193556  -193585  -193772  -193823  -193770  -193849  -193954 
 -193882  -193747  -193729  -193779  -193845  -193942  -193977  -193957 
 -193999  -194080  -194151  -194189  -194131  -194039  -194011  -193977 
 -193982  -194159  -194194  -193843  -193607  -193729  -193770  -193673 
 -193712  -193768  -193687  -193599  -193553  -193553  -193652  -193734 
 -193770  -193882  -193984  -194036  -194107  -194117  -194159  -194320 
 -194350  -194224  -194173  -194159  -194119  -194142  -194171  -194054 
 -193853  -193783  -193797  -193772  -193787  -193793  -193727  -193695 
 -193644  -193550  -193556  -193621  -193646  -193707  -193777  -193806 
 -193907  -194034  -194071  -194086  -194105  -194107  -194061  -193962 
 -193893  -193878  -193861  -193841  -193877  -193949  -193900  -193769 
 -193765  -193818  -193779  -193692  -193588  -193492  -193413  -193396 
 -193526  -193642  -193668  -193758  -193864  -193892  -193919  -193941 
 -193826  -193676  -193750  -193953  -194005  -193988  -194080  -194166 
 -194074  -193912  -193891  -193920  -193903  -193919  -193988  -194097 
 -194120  -194012  -193941  -193915  -193833  -193725  -193733  -193787 
 -193688  -193604  -193630  -193554  -193440  -193440  -193529  -193691 
 -193838  -193870  -193899  -193931  -193843  -193841  -194088  -194252 
 -194227  -194260  -194247  -194038  -193912  -194035  -194132  -194085 
 -194047  -193935  -193729  -193677  -193689  -193569  -193526  -193599 
 -193541  -193415  -193390  -193422  -193507  -193521  -193390  -193441 
 -193634  -193612  -193575  -193623  -193521  -193406  -193488  -193572 
 -193482  -193471  -193621  -193608  -193483  -193486  -193560  -193561 
 -193476  -193403  -193356  -193324  -193371  -193448  -193411  -193282 
 -193230  -193236  -193206  -193243  -193401  -193556  -193575  -193558 
 -193642  -193671  -193633  -193672  -193761  -193870  -193990  -194097 
 -194150  -194165  -194209  -194216  -194139  -194128  -194192  -194231 
 -194328  -194431  -194343  -194209  -194266  -194414  -194517  -194560 
 -194529  -194517  -194533  -194510  -194528  -194522  -194373  -194266 
 -194305  -194297  -194212  -194252  -194309  -194243  -194306  -194431 
 -194293  -194134  -194192  -194194  -194104  -194148  -194200  -194107 
 -194032  -194038  -194054  -194089  -194059  -193951  -193893  -193869 
 -193823  -193754  -193683  -193702  -193749  -193662  -193536  -193517 
 -193552  -193533  -193456  -193360  -193243  -193153  -193194  -193301 
 -193315  -193256  -193253  -193291  -193252  -193270  -193429  -193503 
 -193507  -193549  -193560  -193615  -193734  -193812  -193880  -193954 
 -194003  -194105  -194194  -194097  -194016  -194167  -194296  -194231 
 -194127  -194098  -194158  -194194  -194215  -194340  -194378  -194194 
 -194101  -194179  -194162  -194175  -194319  -194304  -194178  -194125 
 -194050  -193969  -194003  -194026  -193868  -193706  -193734  -193881 
 -194055  -194205  -194196  -193954  -193765  -193849  -193905  -193846 
 -193931  -193996  -193843  -193785  -193934  -194003  -193974  -193978 
 -193974  -193954  -193970  -194005  -194103  -194254  -194235  -194062 
 -194009  -194005  -193900  -193873  -193946  -193904  -193826  -193907 
 -193907  -193648  -193568  -193764  -193780  -193708  -193791  -193720 
 -193530  -193544  -193619  -193644  -193711  -193648  -193461  -193438 
 -193459  -193422  -193509  -193537  -193394  -193349  -193392  -193311 
 -193191  -193189  -193236  -193268  -193310  -193332  -193299  -193283 
 -193418  -193602  -193642  -193684  -193683  -193487  -193414  -193553 
 -193587  -193588  -193738  -193785  -193634  -193617  -193714  -193665 
 -193610  -193683  -193791  -193874  -193874  -193757  -193631  -193638 
 -193781  -193914  -193936  -193947  -193981  -193959  -194011  -194185 
 -194209  -194071  -194081  -194161  -194104  -194157  -194320  -194290 
 -194209  -194216  -194155  -194051  -194036  -194067  -194042  -194020 
 -194011  -193882  -193785  -193850  -193842  -193754  -193793  -193857 
 -193834  -193841  -193887  -193926  -193986  -194027  -194047  -194131 
 -194196  -194139  -194049  -194073  -194142  -194115  -194069  -193990 
 -193826  -193750  -193816  -193885  -193928  -193936  -193853  -193730 
 -193691  -193758  -193839  -193889  -193953  -194022  -194043  -194009 
 -193912  -193838  -193866  -193881  -193877  -193920  -193889  -193811 
 -193833  -193842  -193784  -193834  -193931  -193887  -193797  -193777 
 -193756  -193704  -193707  -193814  -193939  -193969  -193904  -193801 
 -193684  -193575  -193513  -193517  -193565  -193567  -193545  -193544 
