Origin Time       2024/04/02 04:24:00
Lat.              40.133
Long.             141.712
Depth. (km)       71
Mag.              6.0
Station Code      IBRH13
Station Lat.      36.7955
Station Long.     140.5750
Station Height(m) 505
Record Time       2024/04/02 04:25:30
Sampling Freq(Hz) 100Hz
Duration Time(s)  120
Dir.              5
Scale Factor      7845(gal)/8223790
Max. Acc. (gal)   3.693
Last Correction   2024/04/02 04:25:30
Memo.             
[...]
    -845     -953     -638     -133      260      207     -116     -202 
     -51       67      172      355      437      328      288      372 
     402      479      517      317      130       -4     -274     -475 
    -487     -473     -472     -334      -86     -129     -560     -837 
    -684     -314       75      166     -149     -338      -21      550 
     888      641      156       43      140       52     -148     -328 
    -426     -336     -105      -29     -287     -610     -700     -627 
    -595     -607     -426      -95       12      -97     -193     -333 
    -479     -310      153      567      638      201     -284     -122 
     251      113     -129     -121     -207     -256      -58     -228 
    -936    -1404    -1175     -395      434      708      544      267 
    -234     -627     -511     -288     -164      180      571      610 
     429      128     -224     -157      275      414      294      375 
     484      230     -221     -588     -912    -1062     -665        4 
     140     -371     -935    -1134     -919     -577     -468     -364 
      40      313      213      214      410      513      661      935 
     954      684      434      129     -190     -176     -139     -518 
    -881     -842     -637     -372     -151     -133     -113     -121 
    -292     -380     -305     -170     -120     -186     -103     -130 
    -585     -776     -305      241      499      436      195      133 
      66     -372     -743     -521      -17      222       64     -384 
    -758     -743     -615     -491      -36      561      692      284 
    -151     -301     -295     -182       93      257      180      159 
     129     -132     -282     -156      -93      -93      -31      -87 
    -307     -577     -780     -626     -207      -67      -79      136 
     189      -36      -59       40       45       40     -187     -604 
    -689     -433     -271     -264     -120      252      464      238 
     -52        4      243      295      240      252      120      -59 
     -85     -163     -120       56     -209     -523     -209      130 
     -83     -467     -523     -324     -224     -186      -22       93 
     -82     -498     -741     -534     -213     -112     -126     -147 
    -193     -280     -305     -108      193      349      390      232 
    -183     -298        6       67     -120     -171     -159      -56 
     207      310      -66     -572     -562     -189      -31      -59 
      90      322      206     -135     -190     -155     -394     -518 
    -303     -143      -78      143      279      -51     -612     -918 
    -855     -449      153      419      159      -87      -18       27 
    -163     -456     -621     -352      106      106      -93       39 
     178      139      108      -63     -263     -118      103       -1 
    -253     -399     -402     -267      -99      -37       12      144 
     112     -189     -384     -328     -164       56      106      -41 
     -44        6     -243     -665     -780     -376      151      376 
     432      400       83     -290     -411     -461     -460     -130 
     357      430       72      -83       44      -24     -167      -52 
      44     -121     -386     -638     -812     -716     -336       44 
     144      -33     -203     -125       41       -8     -118       20 
     183      157      103      -16     -256     -423     -461     -476 
    -459     -325     -205     -157       31      164     -135     -398 
    -179      128      345      504      330       58      152      140 
    -444     -953     -827     -369      112      441      256     -325 
    -746     -828     -591      -66      360      441      388      271 
      -9     -452     -770     -465      193      450      279       10 
     -71      121      206       35     -148     -244     -244     -261 
    -418     -549     -538     -457     -197      265      591      537 
     226        0        4        9      -89     -230     -363     -409 
    -529     -584     -314      -66       79      233       37     -367 
    -433     -267     -151       18      197       94      -76       44 
      60     -330     -568     -357     -108      -17       14      -89 
    -272     -247      -33      112      102       40      112      294 
     283        8     -240     -434     -533     -309     -152     -380 
    -610     -758     -799     -380      145      241      197      162 
    -151     -548     -677     -546     -189      186      206      -91 
    -355     -363     -135      117      264      376      504      595 
     518      236      -67     -271     -436     -508     -402     -334 
    -417     -292      -55     -241     -526     -375     -172     -218 
    -195       75      468      787      826      437     -225     -675 
    -670     -438     -278     -237      -90      159      148     -186 
    -513     -535     -162      421      673      244     -295     -305 
    -195     -392     -496     -336     -249     -303     -340     -278 
    -145     -213     -419     -357     -206     -151      132      479 
     423      103     -182     -430     -602     -531     -228      190 
     556      707      660      382      -36     -263     -449     -747 
    -739     -351       70      294      182     -141     -445     -660 
    -629     -345     -106        5       22      -87     -137      -40 
      -2     -155     -399     -473     -255       62      194      113 
      56      112      106     -155     -550     -672     -552     -371 
      31      356      236      -18     -164     -128      144      376 
     298       17     -117      -31     -116     -442     -517     -197 
      94      182      174       -6     -197     -144     -189     -446 
    -403      -91      -20     -279     -627     -724     -426      -36 
      71     -144     -417     -425      -89      329      514      479 
     360      241      288      400      291       33     -206     -445 
    -652     -653     -372      -58       17     -137     -386     -511 
    -407     -249     -186     -105      118      291      151     -128 
    -280     -464     -762     -866     -695     -303      314      639 
     337      -52     -283     -392      -90      299      211       32 
     198      392      232     -199     -400     -120      203      179 
     -83     -294     -341     -330     -241      -33       43     -172 
    -349     -270     -378     -765     -769     -315       16      -12 
    -360     -706     -480       86      149     -226     -340     -141 
      37      101      132      275      403      398      567      758 
     423      -14       37       76     -252     -473     -453     -414 
    -299     -243     -491     -715     -611     -480     -515     -510 
    -456     -538     -557     -243      102      193      139      -16 
     -83      190      569      760      807      673      342      106 
      31      -72      -78     -129     -538     -753     -525     -518 
    -681     -561     -392     -222      179      390       87     -220 
    -151      128      290       37     -261     -112       24     -157 
    -282     -386     -414       27      479      228     -409     -743 
    -683     -448     -160       71      126      -36     -205     -294 
    -460     -336      243      514      294      226      380      299 
    -110     -436     -325        0      113       33      -85     -313 
    -567     -612     -545     -530     -307      117      203      -86 
    -329     -399     -322     -179      -13      135       79       -2 
     145      189     -132     -514     -649     -564     -363      -18 
     298      355      382      548      444      -85     -506     -360 
     149      457      342      141      129      172       66     -270 
    -616     -664     -535     -445     -340     -295     -452     -545 
    -301      -94     -220     -240      -70     -112     -125      117 
     194      159      257       83     -425     -621     -203      365 
     538      426      330      105     -290     -583     -602     -329 
      14      132      -54     -421     -661     -654     -604     -494 
    -272      -44      139       36     -329     -444     -313     -268 
    -194       -2      118      -33     -454     -791     -858     -774 
    -557     -359     -294       63      731      945      491       -2 
     -83      275      762      699      -86     -747     -842     -857 
    -911     -772     -633     -610     -469     -156      156      305 
     133     -175      -55      503      885      908      804      703 
     531      180      -82        9      198      253      112     -286 
    -558     -283      174      168     -140     -135       70       17 
    -148     -216     -280     -344     -340     -191       35      -25 
    -197       25      282      257      359      633      699      313 
    -288     -534     -330      -78     -126     -496     -718     -406 
     -95     -348     -672     -654     -608     -499     -155       99 
     148      257      357      102     -410     -708     -757     -822 
    -762     -498     -351     -301     -148     -118     -267     -152 
     256      483      460      264     -145     -529     -974    -1686 
   -1979    -1351     -490      -81       91      298      272        1 
    -159     -224     -301      -90      549      943      453     -133 
     125      621      761     1008     1389     1487     1324      966 
     430       20     -130     -282     -564     -797     -882     -862 
    -843     -999    -1132     -824     -359     -233     -359     -656 
   -1039    -1031     -521      108      687     1067      869       59 
    -850    -1422    -1497    -1019     -334       67      330      652 
     635      217      -63      -48      114      448      541      -35 
    -915    -1742    -2272    -1883     -750       -8      101      195 
     253       18     -398     -942    -1264     -789      224      997 
    1294     1178      660      -28     -615     -977     -873     -183 
     681     1208     1205      754      274      101       83      206 
     480      463       74     -189     -240     -634    -1409    -1606 
    -966     -469     -483     -506     -363     -102      345      830 
     942      542       52      -43      130       97     -184     -328 
    -144      213      394      257      132      168      190      133 
    -175     -598     -479       71      288       60     -340     -847 
   -1328    -1637    -1822    -1786    -1212     -224      720     1578 
    2200     2043     1232      302     -812    -2061    -2817    -2741 
   -2166    -1549     -823      201     1152     1649     1629     1128 
     473      -85     -446     -340     -184     -515     -608      -56 
     305      252      414      684      490       91     -270     -965 
   -1560    -1389    -1233    -1636    -1536     -531      357      583 
     157     -788    -1455    -1004      468     2085     2980     2943 
    2411     1942     1482      716      225      445      546      297 
     265      -93     -926     -980     -417     -419     -565      -85 
     589     1050     1236      750     -234     -777     -803     -734 
    -295      391      726      970     1204      700     -183     -518 
    -700    -1012     -801     -477     -904    -1196     -434      364 
     398      248      268      226      -14     -522    -1206    -1669 
   -1620    -1132     -448      371     1399     2182     2099     1224 
      24     -810     -859     -706     -950    -1271    -1144     -868 
   -1001    -1092     -760     -750    -1177    -1217     -880     -679 
    -602     -675    -1005    -1179     -676      318     1129     1359 
    1082      689      542      468       72     -581    -1107    -1097 
    -472      182      318      245      256      -17     -554     -939 
   -1100     -839     -201       40     -324     -795    -1171    -1282 
    -978     -556     -325     -207       -9      207      157     -259 
    -691     -715     -338      318     1088     1371      796     -299 
   -1298    -1547     -958     -105      757     1526     1819     1641 
    1086      -90    -1228    -1162     -333       43      148      535 
     567     -222    -1094    -1502    -1701    -1767    -1360     -468 
     407      716      325     -179     -149      245      900     2038 
    2941     2829     2010      819     -398     -940     -923     -928 
    -423      893     1676     1449     1135      702      178      136 
      -2     -611     -962     -764     -309     -180     -895    -1934 
   -2342    -1973    -1399    -1039     -635      137      816      803 
     368       17     -139      141      982     1455      737     -205 
    -191      334      643      849     1096     1235     1364     1694 
    2003     1956     1672     1351      683     -510    -1536    -1814 
   -1628    -1429    -1390    -1333    -1256    -1611    -2127    -2053 
   -1603    -1441    -1599    -1576    -1274    -1073     -918     -791 
    -962     -778      252      982      885     1094     1903     2381 
    2174     1702     1279      756       78     -334     -314     -118 
      98      159     -183    -1067    -2363    -3330    -3379    -2805 
   -2031    -1395    -1348    -1418     -697       98     -101     -575 
    -488      -59      527      930      922      957      912      660 
    1115     2037     2041     1520     1715     1968     1097     -326 
   -1345    -1871    -1798    -1120     -210      684     1182      673 
    -707    -1948    -2693    -3466    -3987    -3493    -2235     -735 
     635     1193      855      159     -518     -502      564     1925 
    2814     3113     3017     2478     1312      291      209      608 
    1166     1656     1483     1042      793      211     -606     -939 
    -896    -1012    -1236    -1248    -1229    -1549    -1964    -2011 
   -1858    -2020    -2515    -2652    -2097    -1449     -920     -112 
     549      452      226      467      538      117       12      625 
    1240     1366     1084      346     -396     -357      364     1308 
    2170     2519     2100      988     -145     -679    -1344    -2532 
   -3119    -2552    -1401     -278      441      510      -86     -855 
   -1348    -1501    -1177     -627     -278       39      319      468 
     774      977      927     1224     1483      949      278       -9 
    -380     -568      110      989      924      406      627     1264 
    1532     1782     2284     2592     2149      573    -1416    -2728 
   -3289    -2909    -1578     -576     -608     -986    -1142    -1208 
   -1429    -1583    -1432    -1177     -742      -95      -25     -615 
    -630      333     1467     2181     2425     2569     2610     1953 
     842       -5     -456     -413     -207     -504    -1036    -1286 
   -1263    -1074     -804     -571     -746    -1243    -1244     -994 
   -1495    -2587    -3437    -3392    -2425    -1391     -629      275 
     953      961      974     1290     1216      743      764     1343 
    1428      749       51     -375     -317      265      652      681 
     684      550      526      604      -32    -1327    -2467    -3080 
   -2891    -2061    -1258     -693     -406     -305       55      675 
    1155     1236      980      818      691      202     -234     -267 
     -72      615     1593     1938     1674     1298      735       93 
    -237     -508     -967     -758      214      541      267      211 
    -236     -858     -710     -303      189     1175     1530      492 
    -453     -575     -932    -1239     -623      -16       68      287 
     371     -226    -1194    -1942    -2006    -1393     -625      -37 
     429      803     1258     2172     2697     1555     -194     -710 
    -373     -422     -916    -1175     -850     -379     -265     -519 
   -1097    -1526     -936      387     1186     1107      675      125 
    -380     -421       -4      291      349      760     1325      999 
    -237    -1422    -2033    -2259    -2254    -1764    -1147     -970 
    -612      274      850      784      467       79     -294     -623 
    -939     -920     -341      523     1476     2216     2245     1827 
    1524     1116      311     -503     -691     -310     -101     -329 
    -877    -1614    -1975    -1710    -1212     -711     -311       63 
     596      947      629     -164     -893    -1435    -1636    -1354 
   -1196    -1201     -677      171     1086     1962     2160     1745 
    1124      402      261      858     1313     1138      538     -133 
    -826    -1360    -1406    -1381    -1568    -1513    -1215     -985 
    -949    -1032     -675       94      540      839     1314     1426 
     969      295     -209     -206     -118     -662    -1247     -859 
      83      731     1040     1085     1054     1274     1350     1055 
     784      326     -552    -1285    -1530    -1524    -1429    -1394 
   -1414    -1119     -561     -109      294      284     -565    -1246 
   -1132    -1263    -1745    -1578     -758      270     1455     2525 
    2818     2012      634     -508     -872     -395      398      668 
      89     -409     -271     -396     -839     -774     -398     -199 
    -376     -951    -1584    -2064    -2320    -1993     -920      288 
    1131     1791     2096     1883     1672     1455      769     -170 
    -706     -646     -442     -376     -436     -641     -616      -62 
     495      498     -176    -1247    -1767    -1433    -1298    -1663 
   -1634    -1158     -773     -407      -62      -28       40      526 
     831      577      357      475      707      919     1197     1548 
    1479      873      245     -378     -835     -811     -815     -850 
    -472     -338     -702    -1004    -1364    -1529     -662      884 
    2033     2353     1745      541      -78      164      126     -264 
    -109      290      315      157     -318    -1165    -1532    -1039 
    -309      166      438      653      703      386     -156     -561 
    -774     -773     -268      422      544       40     -569     -765 
    -623     -471       24      785     1152     1134      691     -438 
   -1595    -1872    -1371     -858     -552      -95      255       58 
    -454    -1003    -1058     -198      815     1246     1013      375 
     179      452      225     -583    -1316    -1401     -737       28 
     413      426      -74     -982    -1528    -1209     -298      648 
    1062      839      333     -465    -1575    -2392    -2390    -1680 
    -627      541     1514     1854     1495      473     -963    -1682 
   -1059      -39      508      810     1192     1254      658     -110 
    -510     -287      508     1283     1503      958     -141    -1020 
   -1408    -1441     -930     -253      -40      -39      210      598 
     768      553       22     -488     -629     -687     -992    -1093 
    -896     -982    -1090     -695     -452     -766     -764      176 
    1593     2521     2365     1588      920      292     -245     -355 
    -383     -348      195      699      726      608      191     -544 
   -1009    -1097    -1017     -765     -565     -730    -1070    -1316 
   -1529    -1672    -1514    -1078     -608     -124      290      403 
     494      795      885      598      279       55     -110      -75 
    -128     -634     -832      -78      913     1321      922      135 
