Origin Time       2024/04/02 04:24:00
Lat.              40.133
Long.             141.712
Depth. (km)       71
Mag.              6.0
Station Code      IBRH11
Station Lat.      36.3701
Station Long.     140.1401
Station Height(m) -36
Record Time       2024/04/02 04:26:20
Sampling Freq(Hz) 100Hz
Duration Time(s)  120
Dir.              3
Scale Factor      2942(gal)/8224139
Max. Acc. (gal)   0.276
Last Correction   2024/04/02 04:26:20
Memo.             
[...]
    8966     9088     9055     9073     9165     8996     8789     8804 
    8787     8658     8668     8731     8584     8546     8842     8976 
    8908     9009     9103     8991     8860     8923     9123     9192 
    9050     8881     8826     8799     8711     8613     8622     8785 
    8928     8926     8772     8590     8730     8934     8818     8785 
    8912     8992     9117     9197     9234     9227     9042     8861 
    8822     8735     8641     8773     8812     8490     8310     8534 
    8683     8611     8745     9020     9050     9082     9350     9390 
    9170     9227     9408     9352     9312     9452     9504     9344 
    9296     9363     9304     9262     9139     8881     8834     8857 
    8802     8842     8868     8735     8715     8984     9049     8734 
    8590     8802     9042     9055     9078     9294     9459     9509 
    9535     9589     9516     9300     9300     9427     9335     9086 
    8881     8846     8976     9036     8874     8837     9077     9134 
    8992     8934     8780     8700     8862     8772     8621     8881 
    9012     8793     8768     8977     9090     9049     8985     8920 
    8846     8962     9142     8958     8665     8761     8949     8874 
    8824     8849     8838     9042     9055     8580     8569     9074 
    9146     8966     8965     8957     8910     8816     8769     8919 
    8976     8904     8932     8934     9004     9190     9212     9173 
    9124     8845     8716     9036     9221     9043     8955     9121 
    9283     9180     9049     9138     9113     8984     9099     9279 
    9240     9153     9320     9421     9019     8691     8959     9212 
    9069     8892     8908     9101     9247     9135     8955     8922 
    8914     8785     8698     8712     8553     8380     8548     8745 
    8710     8719     8827     8777     8661     8661     8754     8916 
    8953     8937     9108     9154     8966     8850     8843     8851 
    8725     8540     8532     8648     8789     8722     8496     8607 
    8738     8522     8534     8816     8891     8949     9107     9212 
    9374     9391     9115     8918     8928     9011     9070     9013 
    8937     8950     8889     8815     8961     8984     8910     9153 
    9236     9019     9004     8984     8795     8811     8973     8943 
    8830     8876     9005     8968     8756     8748     9018     9180 
    9170     9126     9124     9324     9494     9360     9275     9354 
    9271     9175     9215     9151     9038     8970     8954     9008 
    8884     8742     8891     9009     9028     9077     9069     9120 
    9142     8914     8668     8679     8721     8610     8615     8702 
    8642     8696     8846     8764     8733     8866     8762     8653 
    8896     9139     9132     9170     9400     9482     9277     9094 
    9115     9266     9328     9216     9154     9240     9355     9310 
    9100     9034     9072     8953     8914     8989     8907     8811 
    8797     8777     8797     8830     8883     8937     8862     8816 
    8907     8868     8768     8911     9094     9134     9139     9000 
    8826     8961     9140     9140     9193     9166     9028     8958 
    8803     8681     8729     8781     8889     9008     9035     9058 
    9012     8911     8923     9004     8953     8849     8922     8958 
    8866     8954     8986     8752     8742     8973     8982     8883 
    8992     9255     9351     9273     9325     9379     9193     9034 
    9092     9170     9086     9005     9185     9340     9157     9039 
    9270     9378     9054     8849     9073     9131     8932     8857 
    8872     9018     9212     9254     9293     9421     9490     9386 
    9185     9039     9008     8986     8797     8613     8671     8757 
    8700     8607     8623     8850     9001     8873     8889     9059 
    9058     9053     8999     8837     8827     8905     8919     8831 
    8776     8878     8896     8785     8711     8706     8729     8606 
    8490     8583     8575     8523     8669     8715     8691     8865 
    9015     9051     9138     9167     9086     9009     8957     8985 
    9063     8986     8847     8835     8872     8808     8627     8583 
    8779     8957     9012     9012     8955     8926     9004     9022 
    8891     8822     8870     8862     8775     8704     8685     8695 
    8718     8843     9023     9100     9090     9082     9088     8958 
    8812     9000     9207     9088     8935     8959     9022     8938 
    8943     9154     9067     8772     8796     8988     9039     9003 
    9062     9204     9247     9309     9441     9329     9170     9262 
    9223     8999     8970     9031     8989     8972     9013     9004 
    8915     8788     8789     8883     8797     8652     8706     8850 
    8878     8847     8969     9016     8775     8775     9054     8985 
    8823     8941     9019     9047     9054     8901     8837     8908 
    8899     8857     8800     8760     8903     9031     9013     9065 
    9119     9190     9324     9283     9221     9310     9387     9490 
    9609     9612     9607     9572     9389     9387     9529     9278 
    8928     9038     9201     9030     8915     9093     9247     9213 
    9100     9020     9070     9045     8864     8824     8865     8900 
    9022     9003     8837     8799     8877     8923     8889     8764 
    8579     8527     8618     8633     8654     8681     8590     8583 
    8648     8618     8549     8465     8513     8652     8542     8325 
    8318     8425     8463     8383     8410     8654     8826     8892 
    8988     9061     9124     9078     9012     9159     9175     8986 
    9047     9188     9140     9086     9111     9271     9396     9267 
    9139     9097     8957     8792     8803     8891     8796     8711 
    8841     8931     8951     8941     8864     9013     9244     9115 
    8962     9085     9144     9034     8969     8964     8897     8873 
    8970     8916     8671     8545     8607     8708     8711     8631 
    8668     8827     8880     8885     9003     9050     8880     8700 
    8756     8927     8947     8910     9007     9063     8996     9065 
    9202     9138     9009     9038     9062     8924     8864     8976 
    8939     8783     8822     8982     9085     9103     9103     9194 
    9192     9034     9043     9189     9262     9270     9208     9175 
    9254     9343     9387     9408     9396     9327     9244     9250 
    9344     9402     9359     9348     9378     9267     9161     9232 
    9273     9194     9088     9042     9059     9019     8964     8953 
    8934     8961     9069     9163     9130     9022     8959     8885 
    8777     8769     8827     8776     8746     8856     8780     8518 
    8498     8675     8734     8719     8711     8734     8831     8881 
    8831     8837     8942     8999     9024     9100     8991     8829 
    8930     8999     8928     8969     9053     9077     9066     8972 
    8884     8950     8976     8916     8999     9065     8999     8953 
    8862     8808     9004     9104     8946     8974     9094     9046 
    9054     9059     9036     9169     9250     9244     9344     9402 
    9290     9154     9085     9043     9063     9105     9019     8856 
    8712     8692     8806     8808     8699     8669     8692     8746 
    8810     8742     8576     8553     8657     8719     8741     8704 
    8704     8780     8681     8560     8707     8822     8734     8800 
    9038     9101     9026     9001     9011     9084     9162     9116 
    9065     9099     9090     9001     8908     8810     8766     8839 
    8829     8633     8486     8472     8511     8626     8692     8623 
    8662     8868     8923     8849     8951     9032     8861     8804 
    8914     8931     8992     9042     8976     9003     9013     8896 
    8842     8843     8838     8877     8954     9003     8876     8757 
    8874     8966     9069     9286     9296     9227     9344     9431 
    9371     9294     9337     9483     9520     9483     9541     9518 
    9387     9381     9359     9212     9177     9220     9221     9277 
    9302     9229     9121     9047     9157     9235     9096     9053 
    9096     9076     9045     8955     8922     8964     8953     8978 
    9066     9104     9076     9065     9030     8901     8856     8883 
    8901     8920     8841     8800     8834     8768     8754     8750 
    8552     8473     8635     8675     8571     8559     8658     8730 
    8657     8629     8788     8872     8815     8877     9032     9015 
    8851     8908     9189     9244     9119     9159     9153     8954 
    8928     9112     9107     8942     9003     9144     9113     9120 
    9209     9252     9252     9171     9093     9081     9008     8916 
    8892     8822     8748     8760     8749     8752     8827     8878 
    8892     8870     8768     8765     8951     9000     8857     8857 
    9018     9097     9024     8996     9104     9134     9067     9088 
    9062     8908     8819     8806     8779     8714     8590     8575 
    8703     8708     8660     8762     8833     8791     8834     8903 
    8914     8932     8883     8822     8915     9038     9096     9140 
    9107     8988     8962     9123     9246     9101     8953     9023 
    9005     8887     8919     8924     8841     8824     8842     8945 
    9096     9163     9189     9182     9188     9243     9302     9382 
    9413     9342     9289     9269     9162     9049     9050     8980 
    8830     8826     8764     8613     8676     8725     8630     8650 
    8743     8856     8984     8973     8900     8984     9143     9090 
    8873     8829     8843     8730     8718     8802     8803     8781 
    8833     8920     9020     9100     9031     8939     8981     8996 
    8973     8988     9032     9094     9036     8959     9050     9043 
    8916     9000     9108     9024     9023     9072     9009     9009 
    8995     8927     9038     9126     9073     9135     9180     9073 
    9054     9161     9224     9213     9240     9317     9244     9073 
    9094     9173     9092     9119     9267     9162     8997     9093 
    9177     9085     8995     9005     9081     9072     8937     8858 
    8838     8787     8789     8781     8700     8696     8685     8594 
    8619     8661     8607     8681     8887     9022     9018     9012 
    9144     9243     9162     9054     9049     9117     9132     8968 
    8764     8741     8743     8672     8702     8708     8567     8571 
    8761     8793     8739     8834     8915     8942     9069     9198 
    9252     9252     9247     9337     9410     9371     9359     9344 
    9259     9189     9162     9150     9097     8985     8910     8949 
    9004     8958     8876     8900     8957     8941     8928     8958 
    9013     8946     8737     8649     8664     8687     8715     8696 
    8706     8726     8725     8799     8866     8834     8787     8829 
    8910     8903     8856     8847     8827     8779     8765     8781 
    8785     8861     9000     9039     9018     8999     9009     9159 
    9240     9103     9011     9088     9144     8977     8716     8644 
    8721     8754     8741     8819     8927     8927     8972     9045 
    8935     8903     9086     9159     9030     8943     9077     9246 
    9213     9146     9200     9297     9358     9297     9251     9374 
    9385     9173     9086     9151     9158     9151     9121     9026 
    8997     9076     9171     9258     9292     9247     9185     9128 
    9126     9167     9143     9050     8957     8937     8978     8993 
    9020     9093     9074     8947     8901     8912     8846     8737 
    8594     8510     8515     8436     8368     8417     8479     8484 
    8392     8367     8491     8560     8553     8619     8812     8977 
    8910     8784     8826     8954     9105     9221     9231     9207 
    9202     9239     9309     9262     9089     9059     9154     9076 
    8942     8999     9073     8969     8815     8833     8910     8769 
    8641     8792     8877     8772     8776     8884     8957     8932 
    8846     8870     8966     9018     9013     8918     8854     8927 
    8986     8957     8932     8927     8873     8826     8878     9015 
    9054     8901     8831     8931     8939     8878     8920     8942 
    8849     8870     9007     9016     9018     9108     9132     9142 
    9232     9315     9296     9270     9346     9377     9256     9148 
    9126     9112     9121     9130     9084     9073     9105     9082 
    8999     8939     8973     8993     8931     8955     9027     8942 
    8877     8955     8965     8945     9013     8997     8885     8866 
    8927     8915     8838     8811     8793     8711     8700     8765 
    8754     8708     8707     8730     8733     8719     8727     8725 
    8712     8737     8787     8846     8849     8775     8760     8888 
    8980     8919     8881     8945     9043     9140     9136     9138 
    9269     9271     9103     9070     9194     9252     9175     9139 
    9217     9221     9155     9221     9342     9281     9124     9112 
    9212     9282     9254     9190     9258     9329     9275     9327 
    9441     9436     9398     9363     9381     9413     9305     9188 
    9171     9134     9063     9046     9046     8997     8965     8951 
    8887     8827     8816     8792     8780     8773     8692     8646 
    8729     8723     8592     8590     8652     8561     8432     8384 
    8353     8341     8343     8284     8235     8243     8206     8194 
    8293     8302     8232     8299     8424     8533     8711     8815 
    8768     8792     8918     8969     8970     8922     8815     8865 
    8999     8937     8812     8835     8868     8824     8834     8829 
    8734     8743     8816     8785     8826     8953     8962     8958 
    8991     8970     9043     9147     9100     9040     9081     9151 
    9211     9321     9429     9375     9312     9352     9339     9293 
    9275     9246     9192     9115     9104     9173     9185     9132 
    9132     9212     9283     9278     9242     9262     9344     9383 
    9358     9324     9263     9227     9270     9275     9161     9117 
    9248     9238     9054     9049     9100     9007     8973     9022 
    9051     9099     9159     9225     9308     9328     9252     9192 
    9221     9213     9101     9049     9082     9130     9154     9062 
    8982     9018     8964     8880     8878     8870     8885     8924 
    8950     8977     9022     9080     9023     8932     9018     9130 
    9094     9016     8982     8959     8964     9030     9082     9076 
    9062     9093     9193     9235     9088     8942     9009     9067 
    8914     8808     8895     8949     8856     8783     8808     8772 
    8727     8797     8830     8812     8845     8885     8934     8970 
    8965     8926     8791     8640     8658     8711     8590     8484 
    8572     8629     8523     8459     8517     8527     8426     8415 
    8530     8594     8621     8629     8599     8642     8710     8726 
    8746     8776     8851     8919     8927     8974     8992     8932 
    8888     8835     8795     8796     8815     8841     8862     8903 
    8926     8918     8976     9011     8942     8938     9011     8992 
    8926     8931     8999     9019     9008     9086     9157     9130 
    9120     9146     9197     9267     9236     9157     9177     9225 
    9277     9344     9308     9258     9343     9405     9346     9271 
    9197     9166     9228     9277     9269     9255     9234     9243 
    9274     9223     9167     9221     9232     9166     9142     9158 
    9192     9181     9150     9209     9219     9132     9148     9205 
    9175     9146     9108     8993     8953     8985     8899     8833 
    8928     8950     8861     8853     8865     8866     8934     8958 
    8923     8951     9038     9109     9146     9148     9132     9116 
    9084     9047     8996     8915     8876     8850     8762     8660 
    8640     8683     8679     8608     8510     8482     8587     8662 
    8631     8634     8741     8851     8866     8860     8910     8984 
    9020     8957     8903     8972     8982     8878     8823     8791 
    8719     8648     8635     8672     8630     8565     8602     8598 
    8534     8573     8633     8603     8564     8575     8631     8710 
    8791     8854     8893     8973     9120     9223     9240     9252 
    9259     9254     9262     9243     9220     9193     9124     9105 
    9080     9001     9073     9177     9109     9084     9109     9072 
    9117     9189     9128     9049     9042     9028     8989     8961 
    8908     8865     8885     8914     8881     8803     8789     8808 
    8764     8737     8742     8700     8691     8770     8815     8818 
    8839     8835     8818     8806     8808     8853     8874     8869 
    8887     8911     8912     8885     8860     8843     8808     8799 
    8850     8868     8858     8866     8880     8954     9024     9038 
    9059     9057     9062     9128     9163     9180     9200     9166 
    9111     9090     9076     9038     9047     9097     9057     8999 
    9028     9073     9115     9124     9111     9154     9175     9166 
    9188     9178     9171     9209     9194     9128     9112     9159 
    9162     9080     9053     9144     9200     9131     9076     9117 
    9157     9150     9115     9135     9247     9259     9171     9209 
    9281     9251     9269     9306     9252     9219     9201     9130 
    9096     9113     9121     9013     8826     8831     8915     8833 
    8789     8833     8810     8820     8822     8716     8656     8661 
    8657     8680     8702     8679     8642     8671     8738     8712 
    8653     8635     8648     8733     8756     8668     8715     8830 
    8807     8764     8791     8820     8839     8887     8931     8946 
    8993     9073     9116     9101     9088     9158     9254     9215 
    9142     9171     9159     9139     9194     9157     9107     9175 
    9184     9139     9159     9170     9143     9132     9140     9135 
    9121     9151     9170     9072     8996     9039     9053     9046 
    9030     8958     8938     8961     8937     8885     8837     8823 
    8851     8833     8765     8768     8810     8791     8773     8768 
    8758     8812     8872     8874     8901     8923     8878     8901 
    9008     9015     8959     8988     9027     9013     8972     8910 
    8901     8958     8954     8883     8874     8911     8900     8873 
    8838     8811     8857     8888     8901     8969     9016     9070 
    9153     9147     9096     9143     9219     9186     9126     9151 
    9190     9170     9132     9113     9086     9042     9067     9117 
    9018     8919     9007     9065     9034     9032     8985     8924 
    8912     8893     8884     8845     8803     8842     8860     8824 
    8793     8748     8710     8691     8654     8623     8688     8812 
    8841     8761     8726     8796     8854     8834     8808     8829 
    8854     8831     8780     8734     8683     8640     8567     8530 
    8665     8779     8721     8691     8746     8769     8731     8704 
    8779     8846     8845     8914     9015     9047     9026     8992 
    9007     8985     8957     9034     9050     8970     8982     9049 
