Origin Time       2024/04/02 04:24:00
Lat.              40.133
Long.             141.712
Depth. (km)       71
Mag.              6.0
Station Code      IBRH15
Station Lat.      36.5566
Station Long.     140.3013
Station Height(m) 45
Record Time       2024/04/02 04:25:58
Sampling Freq(Hz) 100Hz
Duration Time(s)  120
Dir.              5
Scale Factor      7845(gal)/8223790
Max. Acc. (gal)   3.626
Last Correction   2024/04/02 04:25:59
Memo.             
[...]
  -10110   -10173   -10354   -10589   -10627   -10419   -10125    -9921 
   -9899    -9987   -10066   -10112   -10129   -10104   -10033    -9949 
   -9946    -9995    -9999   -10038   -10179   -10345   -10489   -10586 
  -10621   -10562   -10389   -10197   -10035    -9898    -9910   -10114 
  -10320   -10381   -10312   -10200   -10104   -10052   -10080   -10208 
  -10320   -10284   -10185   -10158   -10108    -9957    -9877   -10011 
  -10247   -10416   -10471   -10469   -10453   -10434   -10409   -10345 
  -10228   -10112   -10011    -9911    -9871    -9965   -10164   -10350 
  -10451   -10430   -10282   -10114    -9980    -9845    -9803    -9972 
  -10307   -10638   -10741   -10552   -10247   -10011    -9917    -9929 
   -9990   -10099   -10188   -10166   -10089   -10045   -10077   -10174 
  -10230   -10218   -10245   -10311   -10303   -10241   -10266   -10368 
  -10399   -10332   -10218   -10030    -9792    -9710    -9931   -10262 
  -10457   -10511   -10455   -10304   -10129    -9934    -9779    -9836 
  -10088   -10350   -10534   -10598   -10488   -10261   -10048    -9899 
   -9811    -9823    -9975   -10212   -10444   -10590   -10573   -10385 
  -10110    -9856    -9721    -9759    -9968   -10246   -10432   -10512 
  -10569   -10565   -10443   -10258   -10112   -10048   -10027   -10081 
  -10235   -10372   -10403   -10373   -10295   -10157   -10017    -9938 
   -9941   -10030   -10146   -10208   -10243   -10285   -10254   -10134 
  -10039   -10096   -10305   -10478   -10473   -10403   -10305   -10077 
   -9829    -9759    -9896   -10127   -10296   -10354   -10385   -10435 
  -10438   -10284   -10031    -9936   -10038   -10095   -10006    -9973 
  -10150   -10389   -10470   -10426   -10385   -10299   -10072    -9817 
   -9736    -9895   -10180   -10362   -10403   -10446   -10439   -10277 
  -10092    -9971    -9873    -9879   -10053   -10255   -10341   -10370 
  -10423   -10409   -10287   -10174   -10179   -10254   -10301   -10292 
  -10281   -10274   -10215   -10089    -9968    -9934   -10004   -10164 
  -10351   -10482   -10538   -10481   -10289   -10077    -9922    -9802 
   -9788    -9948   -10197   -10409   -10500   -10476   -10380   -10254 
  -10150   -10076   -10017   -10046   -10208   -10327   -10265   -10114 
   -9981    -9863    -9765    -9786    -9983   -10293   -10562   -10656 
  -10552   -10330   -10083    -9861    -9765    -9922   -10215   -10408 
  -10477   -10431   -10253   -10064    -9946    -9879    -9891   -10030 
  -10304   -10585   -10654   -10523   -10335   -10100    -9855    -9742 
   -9844   -10135   -10453   -10615   -10636   -10542   -10288    -9949 
   -9656    -9539    -9693    -9988   -10193   -10266   -10312   -10341 
  -10246   -10068   -10035   -10214   -10376   -10320   -10099    -9946 
   -9983   -10099   -10216   -10376   -10527   -10596   -10578   -10451 
  -10231   -10052    -9946    -9837    -9810    -9980   -10233   -10412 
  -10489   -10454   -10353   -10266   -10157    -9940    -9676    -9609 
   -9888   -10292   -10566   -10733   -10813   -10694   -10311    -9782 
   -9445    -9510    -9822   -10156   -10431   -10677   -10804   -10623 
  -10233    -9950    -9894    -9969   -10088   -10211   -10249   -10146 
  -10044   -10030   -10037   -10095   -10245   -10405   -10515   -10523 
  -10420   -10296   -10180   -10065   -10025   -10104   -10222   -10216 
  -10052    -9915    -9936   -10072   -10245   -10386   -10516   -10666 
  -10716   -10569   -10304   -10061    -9922    -9877    -9960   -10210 
  -10455   -10528   -10512   -10480   -10399   -10305   -10264   -10249 
  -10210   -10143   -10071   -10012   -10030   -10203   -10484   -10665 
  -10632   -10474   -10204    -9769    -9321    -9165    -9447    -9985 
  -10478   -10787   -10890   -10713   -10243    -9737    -9606    -9919 
  -10326   -10534   -10544   -10493   -10384   -10122    -9879    -9954 
  -10239   -10466   -10596   -10579   -10328    -9968    -9728    -9756 
  -10039   -10355   -10486   -10415   -10207    -9944    -9799    -9927 
  -10270   -10604   -10740   -10602   -10260    -9880    -9618    -9525 
   -9617    -9922   -10386   -10704   -10566   -10168    -9950    -9990 
  -10125   -10243   -10258   -10184   -10107    -9994    -9790    -9663 
   -9811   -10129   -10378   -10513   -10574   -10481   -10112    -9575 
   -9238    -9369    -9844   -10314   -10566   -10629   -10548   -10239 
   -9752    -9418    -9516    -9990   -10575   -11028   -11246   -11188 
  -10687    -9751    -8918    -8753    -9197    -9849   -10477   -11022 
  -11367   -11319   -10864   -10255    -9775    -9579    -9680    -9988 
  -10446   -10881   -11018   -10862   -10563   -10184    -9879    -9803 
   -9886   -10007   -10103   -10100    -9995    -9844    -9713    -9684 
   -9792   -10033   -10380   -10714   -10990   -11233   -11283   -10949 
  -10311    -9679    -9382    -9460    -9738   -10127   -10581   -10999 
  -11134   -10756   -10087    -9612    -9504    -9645    -9961   -10427 
  -10868   -10989   -10640    -9990    -9394    -9138    -9270    -9637 
  -10025   -10338   -10635   -10890   -10821   -10215    -9369    -8808 
   -8760    -9205   -10025   -10917   -11610   -11983   -11884   -11248 
  -10324    -9445    -8878    -8850    -9369   -10084   -10492   -10405 
  -10088    -9853    -9819    -9996   -10301   -10566   -10625   -10454 
  -10165    -9921    -9806    -9813   -10050   -10717   -11622   -12210 
  -12073   -11188    -9973    -8989    -8514    -8625    -9293   -10281 
  -11242   -11916   -12087   -11557   -10443    -9332    -8714    -8565 
   -8735    -9282   -10183   -11106   -11726   -11939   -11699   -11030 
  -10150    -9321    -8792    -8768    -9292   -10253   -11284   -11873 
  -11828   -11350   -10679    -9940    -9244    -8851    -8997    -9587 
  -10274   -10767   -10925   -10673   -10062    -9436    -9256    -9629 
  -10143   -10463   -10665   -10683   -10278    -9671    -9347    -9398 
   -9657   -10107   -10729   -11168   -11018   -10393    -9736    -9381 
   -9445    -9761   -10031   -10192   -10299   -10233    -9887    -9464 
   -9319    -9551   -10041   -10767   -11611   -12081   -11769   -10910 
   -9952    -9016    -8291    -8209    -8912   -10053   -11105   -11693 
  -11747   -11263   -10246    -9070    -8405    -8523    -9058    -9590 
  -10119   -10624   -10764   -10467   -10170   -10295   -10820   -11304 
  -11315   -10829   -10004    -8949    -7962    -7607    -8233    -9598 
  -11113   -12309   -12874   -12534   -11249    -9423    -7823    -7307 
   -8095    -9535   -10962   -12052   -12503   -12170   -11184    -9849 
   -8675    -8101    -8244    -8941    -9828   -10585   -11114   -11329 
  -11133   -10593    -9981    -9558    -9265    -8978    -8905    -9313 
  -10073   -10775   -11227   -11526   -11483   -10717    -9540    -8714 
   -8507    -8901    -9917   -11284   -12432   -12729   -11966   -10762 
   -9876    -9472    -9424    -9709   -10336   -11017   -11184   -10739 
  -10192    -9832    -9551    -9391    -9606   -10191   -10763   -10998 
  -10964   -10827   -10574   -10289   -10122   -10046   -10233   -10852 
  -11437   -11448   -10967   -10355    -9779    -9255    -9119    -9802 
  -10956   -11816   -11947   -11202    -9907    -8806    -8275    -8356 
   -9238   -10887   -12642   -13598   -13244   -11780    -9890    -8224 
   -7130    -7014    -8239   -10295   -11977   -12502   -11994   -11107 
  -10185    -9161    -8317    -8129    -8581    -9310    -9941   -10297 
  -10459   -10525   -10520   -10497   -10498   -10450   -10220    -9904 
   -9628    -9265    -8891    -8943    -9491   -10138   -10735   -11457 
  -12077   -11897   -10763    -9410    -8457    -7982    -8037    -8665 
   -9682   -10713   -11246   -11160   -10878   -10606   -10222    -9756 
   -9412    -9356    -9490    -9587    -9753   -10216   -10890   -11446 
  -11570   -11160   -10342    -9304    -8302    -7840    -8360    -9593 
  -10760   -11438   -11740   -11738   -11172    -9953    -8622    -7993 
   -8440    -9491   -10473   -11443   -12465   -12791   -11901   -10362 
   -9209    -8961    -9310    -9842   -10530   -11194   -11338   -10793 
  -10023    -9570    -9510    -9748   -10219   -10638   -10652   -10191 
   -9594    -9323    -9459    -9873   -10513   -11188   -11558   -11480 
  -11079   -10532    -9888    -9308    -9217    -9879   -11028   -12118 
  -12615   -12244   -11222   -10019    -8870    -7878    -7349    -7680 
   -8974   -10763   -12187   -12737   -12544   -11812   -10557    -8974 
   -7632    -7156    -7676    -8706    -9817   -10899   -11713   -11894 
  -11433   -10791   -10374   -10120    -9852    -9686    -9817   -10139 
  -10436   -10713   -10906   -10860   -10728   -10605   -10315    -9892 
   -9574    -9529    -9668    -9655    -9416    -9283    -9641   -10605 
  -11681   -12204   -12152   -11735   -10785    -9286    -7909    -7542 
   -8476   -10152   -11782   -12991   -13452   -12610   -10492    -8091 
   -6623    -6768    -8406   -10710   -12699   -13703   -13392   -11777 
   -9498    -7662    -7057    -7740    -9348   -11307   -12922   -13566 
  -12849   -11063    -9128    -7786    -7369    -7769    -8505    -9493 
  -10889   -12147   -12476   -11653   -10091    -8658    -7993    -8066 
   -8706    -9815   -11018   -11685   -11415   -10505    -9672    -9216 
   -9117    -9595   -10558   -11191   -10924    -9981    -8941    -8391 
   -8648    -9585   -10881   -12114   -12758   -12393   -11080    -9347 
   -7707    -6658    -6690    -7815    -9626   -11572   -12962   -13356 
  -12943   -12209   -11237    -9845    -8351    -7442    -7461    -8149 
   -9153   -10490   -11978   -12951   -12985   -12005   -10289    -8768 
   -8136    -8190    -8695    -9610   -10544   -11064   -11121   -10887 
  -10659   -10723   -11090   -11452   -11416   -10885   -10102    -9247 
   -8424    -8037    -8646   -10179   -11747   -12595   -12640   -12031 
  -10957    -9734    -8818    -8781    -9710   -10905   -11739   -12204 
  -12172   -11018    -8808    -6914    -6444    -7331    -9040   -11010 
  -12779   -13738   -13055   -10851    -8509    -7140    -6930    -7689 
   -9166   -11103   -12868   -13481   -12676   -11049    -9255    -7997 
   -7889    -8776    -9915   -10762   -11214   -11298   -10930   -10192 
   -9552    -9493   -10004   -10596   -10959   -11249   -11333   -10763 
   -9757    -9080    -9074    -9427    -9811   -10324   -10870   -10959 
  -10561    -9949    -9180    -8552    -8577    -9335   -10403   -11317 
  -11981   -12352   -12113   -11232   -10034    -8878    -8251    -8434 
   -9391   -10975   -12457   -12822   -11938   -10489    -9020    -7630 
   -6606    -6758    -8301   -10350   -12094   -13284   -13614   -12784 
  -11095    -9493    -8726    -8750    -9281   -10033   -10517   -10558 
  -10404   -10146    -9842    -9691    -9721    -9910   -10258   -10403 
   -9973    -9369    -9445   -10249   -10851   -10924   -11182   -11664 
  -11442   -10431    -9564    -9331    -9328    -8999    -8545    -8829 
   -9930   -10957   -11381   -11345   -11122   -10748   -10085    -9452 
   -9435    -9923   -10338   -10513   -10646   -10690   -10231    -9190 
   -8398    -8654    -9578   -10311   -10629   -10748   -10709   -10327 
   -9809    -9815   -10459   -11145   -11321   -10783   -10014    -9718 
   -9697    -9474    -9462   -10277   -11566   -12310   -12016   -10945 
   -9582    -8429    -7774    -7719    -8557   -10195   -11718   -12464 
  -12533   -12147   -11400   -10243    -8815    -7898    -8176    -9356 
  -10527   -11033   -11061   -11095   -10971   -10287    -9184    -8240 
   -7982    -8424    -9197   -10084   -10948   -11481   -11421   -10827 
  -10116    -9883   -10284   -10700   -10731   -10681   -10551   -10014 
   -9219    -8607    -8596    -9396   -10598   -11496   -11777   -11462 
  -10700    -9921    -9466    -9221    -9124    -9231    -9481    -9922 
  -10566   -11250   -11789   -11880   -11421   -10858   -10579   -10403 
  -10064    -9680    -9381    -9099    -8951    -9180    -9757   -10528 
  -11307   -11689   -11520   -11279   -11187   -10768    -9923    -9344 
   -9289    -9123    -8685    -8675    -9355   -10285   -11140   -11803 
  -12066   -11727   -10763    -9455    -8401    -8058    -8298    -8824 
   -9724   -10948   -11874   -12129   -12132   -12158   -11778   -10677 
   -9216    -8040    -7503    -7574    -8236    -9549   -11218   -12559 
  -13022   -12515   -11408   -10143    -8824    -7709    -7578    -8689 
  -10115   -10862   -11055   -11317   -11426   -10746    -9737    -9427 
   -9756    -9946    -9853    -9999   -10629   -11230   -11245   -10986 
  -11061   -11207   -10593    -9273    -8226    -7861    -7906    -8499 
   -9802   -11275   -12216   -12438   -12233   -11686   -10557    -9043 
   -7824    -7422    -7947    -9045   -10438   -12128   -13390   -13203 
  -11870   -10382    -9045    -7904    -7410    -8179   -10061   -11877 
  -12881   -13220   -12722   -11249    -9553    -8434    -8032    -8036 
   -8220    -8912   -10237   -11527   -12291   -12577   -12452   -11913 
  -10858    -9293    -7734    -6764    -6662    -7619    -9558   -11774 
  -13356   -13806   -13020   -11257    -9265    -7830    -7360    -7920 
   -9153   -10652   -12155   -12984   -12638   -11572   -10417    -9589 
   -9327    -9288    -9158    -9113    -9162    -9327    -9811   -10470 
  -11087   -11537   -11522   -10889    -9791    -8676    -8148    -8372 
   -9107   -10239   -11507   -12237   -11986   -11026    -9844    -8618 
   -7587    -7287    -8089    -9687   -11287   -12343   -12852   -12744 
  -11641    -9660    -7742    -6747    -6847    -7896    -9783   -12085 
  -13764   -13990   -12957   -11399    -9942    -8847    -8120    -8050 
   -8866   -10162   -11346   -11950   -11830   -11263   -10332    -9066 
   -8121    -8113    -8810    -9667   -10530   -11416   -12040   -12025 
  -11416   -10617   -10014    -9676    -9394    -9228    -9506   -10177 
  -10936   -11574   -11794   -11496   -10929   -10147    -9186    -8418 
   -8163    -8438    -9022    -9709   -10640   -11820   -12746   -12996 
  -12555   -11678   -10600    -9258    -7789    -6948    -7403    -8851 
  -10336   -11387   -12136   -12384   -11736   -10543    -9578    -9082 
   -8841    -8837    -9190    -9660    -9937   -10079   -10189   -10361 
  -10795   -11326   -11388   -10913   -10569   -10721   -10820   -10320 
   -9609    -9416    -9714    -9914    -9968   -10301   -10818   -10933 
  -10449    -9768    -9281    -9082    -9186    -9505   -10057   -10898 
  -11507   -11326   -10592    -9832    -9294    -9018    -9051    -9625 
  -10638   -11292   -11132   -10667   -10319    -9836    -9028    -8214 
   -7919    -8330    -9285   -10557   -11754   -12604   -13109   -12850 
  -11442    -9544    -8074    -7310    -7329    -8255   -10000   -12042 
  -13397   -13317   -12123   -10725    -9661    -8984    -8661    -8851 
   -9706   -10847   -11534   -11464   -10894   -10196    -9597    -9320 
   -9606   -10304   -10872   -10844   -10196    -9482    -9059    -8665 
   -8409    -8839    -9857   -10800   -11195   -11060   -10710   -10354 
  -10069   -10010   -10277   -10752   -11022   -10620    -9717    -9082 
   -9005    -9059    -9077    -9489   -10554   -11820   -12511   -12290 
  -11415   -10203    -8912    -8063    -8122    -8945    -9971   -10894 
  -11646   -11955   -11592   -10791    -9965    -9265    -8765    -8760 
   -9352   -10165   -10821   -11186   -11267   -11229   -11075   -10594 
   -9876    -9390    -9481    -9999   -10542   -10825   -10725   -10246 
   -9586    -9180    -9458   -10381   -11404   -12037   -12148   -11777 
  -10966    -9776    -8480    -7611    -7658    -8764   -10544   -12218 
  -13211   -13273   -12152   -10106    -8185    -7271    -7450    -8402 
   -9903   -11641   -12838   -12800   -11678   -10254    -9211    -8700 
   -8631    -9080    -9995   -10775   -10851   -10524   -10407   -10474 
  -10368   -10139   -10207   -10551   -10558   -10034    -9413    -8980 
   -8768    -8770    -8991    -9520   -10330   -11145   -11620   -11441 
  -10655    -9865    -9478    -9324    -9381    -9921   -10733   -11187 
  -11129   -10881   -10570   -10147    -9763    -9602    -9591    -9657 
   -9895   -10119    -9983    -9657    -9455    -9325    -9405    -9879 
  -10365   -10501   -10399   -10176    -9884    -9786   -10087   -10538 
  -10862   -11194   -11560   -11578   -10983    -9999    -9166    -8891 
   -9147    -9680   -10345   -11041   -11484   -11375   -10741    -9882 
   -9162    -8862    -9011    -9514   -10231   -10785   -10891   -10652 
  -10200    -9628    -9143    -8965    -9219    -9749   -10299   -10763 
  -10920   -10681   -10405   -10386   -10578   -10786   -10920   -11115 
  -11294   -11121   -10538    -9784    -9128    -8681    -8464    -8660 
   -9363   -10258   -10874   -10975   -10652   -10156    -9686    -9389 
   -9421    -9890   -10555   -11017   -11168   -11038   -10561    -9794 
   -9094    -9007    -9651   -10509   -11118   -11295   -10983   -10274 
   -9370    -8676    -8630    -9136    -9732   -10206   -10594   -10883 
  -11041   -11014   -10686   -10199    -9906    -9917   -10122   -10353 
  -10532   -10750   -10895   -10755   -10435   -10106    -9838    -9833 
  -10143   -10519   -10797   -10928   -10856   -10652   -10447   -10274 
  -10068    -9818    -9643    -9574    -9614    -9990   -10766   -11651 
  -12337   -12437   -11685   -10584    -9915    -9795    -9926   -10206 
  -10683   -11230   -11456   -11141   -10476    -9819    -9466    -9448 
   -9640   -10031   -10449   -10465    -9996    -9472    -9394    -9778 
  -10100   -10228   -10605   -11146   -11210   -10640    -9844    -9205 
   -8926    -9130    -9796   -10613   -11092   -10962   -10362    -9661 
   -9143    -8968    -9273   -10095   -11030   -11391   -11117   -10744 
  -10305    -9452    -8527    -8252    -8649    -9171    -9566    -9998 
  -10508   -10756   -10512   -10077    -9795    -9649    -9522    -9445 
   -9720   -10473   -11092   -11091   -10879   -10783   -10532   -10037 
   -9571    -9369    -9474    -9661    -9698    -9710    -9867   -10031 
  -10061   -10021   -10069   -10211   -10184    -9859    -9544    -9525 
   -9715    -9981   -10278   -10554   -10781   -10882   -10762   -10443 
   -9967    -9440    -9130    -9252    -9769   -10447   -11036   -11357 
  -11302   -10878   -10238    -9657    -9309    -9151    -9263    -9706 
  -10177   -10431   -10571   -10650   -10543   -10324   -10260   -10341 
  -10319   -10183   -10115   -10195   -10327   -10377   -10339   -10338 
  -10397   -10374   -10304   -10458   -10918   -11408   -11587   -11437 
  -11234   -11053   -10829   -10725   -10893   -11184   -11310   -11115 
  -10706   -10220    -9788    -9628    -9734    -9940   -10301   -10721 
  -10789   -10442    -9984    -9547    -9186    -9134    -9432    -9861 
  -10389   -10990   -11306   -11125   -10677   -10222    -9810    -9522 
   -9629   -10176   -10766   -11079   -11132   -10975   -10673   -10415 
  -10200    -9833    -9477    -9417    -9458    -9371    -9271    -9193 
   -9136    -9169    -9104    -8829    -8699    -8869    -9073    -9294 
   -9706   -10185   -10378   -10134    -9767    -9679    -9876   -10139 
  -10347   -10454   -10423   -10319   -10241   -10153   -10096   -10254 
  -10581   -10824   -10863   -10793   -10746   -10696   -10530   -10281 
  -10114   -10130   -10228   -10261   -10288   -10432   -10617   -10671 
  -10600   -10519   -10351   -10002    -9755    -9922   -10373   -10778 
  -10993   -11173   -11456   -11631   -11496   -11113   -10586   -10080 
