Origin Time       2024/04/02 04:24:00
Lat.              40.133
Long.             141.712
Depth. (km)       71
Mag.              6.0
Station Code      IBRH13
Station Lat.      36.7955
Station Long.     140.5750
Station Height(m) 505
Record Time       2024/04/02 04:25:30
Sampling Freq(Hz) 100Hz
Duration Time(s)  120
Dir.              6
Scale Factor      7845(gal)/8223790
Max. Acc. (gal)   2.200
Last Correction   2024/04/02 04:25:30
Memo.             
[...]
  -14625   -14627   -14624   -14623   -14625   -14627   -14623   -14621 
  -14621   -14621   -14620   -14616   -14615   -14616   -14615   -14609 
  -14609   -14616   -14617   -14617   -14623   -14623   -14623   -14627 
  -14628   -14627   -14629   -14632   -14628   -14628   -14632   -14634 
  -14632   -14632   -14634   -14635   -14635   -14636   -14640   -14638 
  -14634   -14638   -14636   -14634   -14635   -14636   -14635   -14635 
  -14634   -14632   -14634   -14632   -14629   -14629   -14629   -14629 
  -14629   -14628   -14628   -14629   -14627   -14625   -14624   -14624 
  -14625   -14624   -14621   -14621   -14624   -14624   -14621   -14623 
  -14625   -14621   -14619   -14623   -14627   -14625   -14624   -14624 
  -14625   -14627   -14624   -14623   -14627   -14628   -14623   -14623 
  -14624   -14620   -14616   -14616   -14616   -14617   -14615   -14611 
  -14611   -14616   -14617   -14616   -14619   -14623   -14625   -14628 
  -14628   -14628   -14628   -14627   -14632   -14634   -14634   -14634 
  -14635   -14636   -14636   -14635   -14635   -14635   -14634   -14634 
  -14635   -14636   -14639   -14636   -14635   -14636   -14638   -14638 
  -14638   -14634   -14632   -14634   -14634   -14631   -14631   -14628 
  -14628   -14631   -14632   -14629   -14629   -14631   -14628   -14624 
  -14624   -14624   -14625   -14624   -14620   -14619   -14621   -14624 
  -14623   -14620   -14621   -14621   -14621   -14624   -14627   -14624 
  -14625   -14629   -14629   -14625   -14624   -14624   -14624   -14627 
  -14627   -14623   -14620   -14619   -14619   -14616   -14616   -14615 
  -14611   -14611   -14612   -14612   -14615   -14617   -14619   -14623 
  -14628   -14628   -14625   -14628   -14629   -14628   -14628   -14632 
  -14634   -14632   -14634   -14635   -14634   -14634   -14635   -14634 
  -14634   -14636   -14635   -14635   -14636   -14635   -14634   -14634 
  -14634   -14634   -14631   -14629   -14629   -14629   -14628   -14628 
  -14628   -14629   -14629   -14627   -14623   -14624   -14625   -14623 
  -14621   -14624   -14623   -14621   -14624   -14625   -14624   -14623 
  -14623   -14624   -14624   -14623   -14623   -14627   -14625   -14624 
  -14624   -14624   -14625   -14627   -14623   -14621   -14623   -14619 
  -14617   -14616   -14613   -14615   -14615   -14612   -14609   -14612 
  -14616   -14619   -14619   -14621   -14623   -14625   -14628   -14631 
  -14631   -14629   -14628   -14628   -14632   -14635   -14635   -14635 
  -14634   -14634   -14635   -14634   -14634   -14636   -14636   -14635 
  -14635   -14635   -14632   -14632   -14636   -14636   -14635   -14635 
  -14631   -14628   -14628   -14629   -14631   -14629   -14627   -14627 
  -14628   -14627   -14624   -14623   -14624   -14621   -14623   -14625 
  -14621   -14619   -14620   -14620   -14623   -14625   -14624   -14624 
  -14623   -14624   -14625   -14625   -14625   -14628   -14627   -14624 
  -14624   -14625   -14624   -14621   -14621   -14620   -14616   -14615 
  -14615   -14613   -14613   -14609   -14608   -14615   -14619   -14616 
  -14620   -14624   -14625   -14625   -14627   -14631   -14632   -14629 
  -14631   -14634   -14634   -14632   -14631   -14632   -14634   -14634 
  -14635   -14636   -14635   -14635   -14635   -14634   -14635   -14638 
  -14638   -14636   -14635   -14634   -14632   -14634   -14634   -14631 
  -14629   -14632   -14631   -14628   -14628   -14631   -14631   -14625 
  -14624   -14628   -14625   -14620   -14623   -14624   -14620   -14621 
  -14623   -14620   -14619   -14621   -14624   -14627   -14627   -14627 
  -14624   -14623   -14625   -14624   -14623   -14625   -14625   -14624 
  -14623   -14623   -14623   -14621   -14617   -14615   -14615   -14615 
  -14615   -14611   -14609   -14615   -14617   -14617   -14620   -14624 
  -14624   -14624   -14627   -14628   -14629   -14631   -14629   -14631 
  -14632   -14632   -14634   -14635   -14632   -14634   -14634   -14634 
  -14636   -14638   -14635   -14634   -14636   -14638   -14635   -14636 
  -14638   -14635   -14636   -14638   -14635   -14635   -14635   -14634 
  -14632   -14629   -14628   -14628   -14629   -14631   -14629   -14628 
  -14628   -14625   -14625   -14629   -14625   -14623   -14624   -14621 
  -14619   -14620   -14620   -14623   -14623   -14621   -14620   -14623 
  -14624   -14624   -14624   -14623   -14624   -14627   -14625   -14623 
  -14624   -14625   -14624   -14623   -14623   -14620   -14616   -14617 
  -14619   -14615   -14612   -14611   -14612   -14613   -14616   -14619 
  -14621   -14623   -14623   -14625   -14628   -14629   -14631   -14629 
  -14629   -14631   -14631   -14631   -14634   -14634   -14634   -14635 
  -14635   -14635   -14635   -14636   -14636   -14634   -14635   -14638 
  -14634   -14635   -14638   -14636   -14635   -14636   -14635   -14634 
  -14632   -14629   -14629   -14631   -14631   -14631   -14631   -14631 
  -14628   -14625   -14628   -14628   -14627   -14627   -14625   -14625 
  -14628   -14624   -14620   -14621   -14623   -14623   -14623   -14621 
  -14623   -14624   -14623   -14623   -14627   -14628   -14625   -14625 
  -14628   -14625   -14627   -14627   -14624   -14625   -14621   -14617 
  -14621   -14620   -14615   -14616   -14617   -14615   -14611   -14611 
  -14615   -14615   -14617   -14624   -14624   -14621   -14624   -14628 
  -14629   -14629   -14629   -14632   -14632   -14631   -14632   -14634 
  -14632   -14634   -14636   -14635   -14634   -14635   -14635   -14635 
  -14638   -14636   -14634   -14636   -14636   -14632   -14634   -14636 
  -14634   -14631   -14629   -14631   -14632   -14631   -14631   -14631 
  -14629   -14628   -14627   -14625   -14625   -14625   -14623   -14623 
  -14621   -14621   -14621   -14620   -14619   -14621   -14623   -14620 
  -14623   -14627   -14624   -14623   -14625   -14625   -14627   -14627 
  -14625   -14625   -14625   -14624   -14624   -14621   -14621   -14621 
  -14616   -14613   -14616   -14613   -14611   -14611   -14611   -14613 
  -14620   -14621   -14621   -14624   -14627   -14627   -14625   -14628 
  -14632   -14631   -14629   -14632   -14634   -14634   -14635   -14635 
  -14634   -14636   -14636   -14634   -14635   -14638   -14634   -14634 
  -14638   -14639   -14636   -14636   -14638   -14638   -14638   -14636 
  -14635   -14635   -14634   -14634   -14632   -14629   -14628   -14631 
  -14632   -14631   -14632   -14632   -14629   -14627   -14629   -14629 
  -14628   -14627   -14625   -14624   -14624   -14621   -14621   -14623 
  -14621   -14623   -14621   -14619   -14624   -14629   -14625   -14621 
  -14624   -14623   -14624   -14625   -14625   -14627   -14625   -14624 
  -14625   -14625   -14623   -14621   -14620   -14617   -14617   -14617 
  -14616   -14613   -14611   -14609   -14612   -14619   -14619   -14619 
  -14621   -14624   -14627   -14628   -14631   -14629   -14628   -14631 
  -14632   -14632   -14634   -14634   -14634   -14634   -14634   -14634 
  -14635   -14636   -14636   -14632   -14632   -14636   -14636   -14635 
  -14638   -14638   -14636   -14638   -14636   -14634   -14632   -14632 
  -14632   -14628   -14628   -14634   -14635   -14631   -14628   -14628 
  -14628   -14627   -14625   -14624   -14624   -14623   -14625   -14628 
  -14623   -14617   -14620   -14623   -14620   -14621   -14624   -14624 
  -14623   -14624   -14625   -14624   -14625   -14627   -14624   -14621 
  -14623   -14625   -14625   -14621   -14621   -14623   -14620   -14616 
  -14612   -14615   -14616   -14613   -14612   -14615   -14617   -14620 
  -14619   -14619   -14623   -14628   -14628   -14627   -14627   -14629 
  -14631   -14631   -14634   -14634   -14632   -14632   -14634   -14635 
  -14634   -14635   -14635   -14634   -14635   -14635   -14634   -14635 
  -14636   -14636   -14638   -14636   -14635   -14635   -14632   -14632 
  -14632   -14629   -14628   -14632   -14632   -14631   -14629   -14629 
  -14628   -14627   -14627   -14624   -14623   -14624   -14623   -14620 
  -14621   -14621   -14621   -14620   -14621   -14623   -14620   -14620 
  -14624   -14624   -14625   -14627   -14624   -14625   -14627   -14627 
  -14625   -14624   -14623   -14623   -14623   -14620   -14619   -14619 
  -14617   -14615   -14611   -14608   -14612   -14615   -14613   -14616 
  -14620   -14623   -14625   -14625   -14625   -14628   -14631   -14629 
  -14632   -14632   -14631   -14631   -14634   -14636   -14636   -14636 
  -14635   -14634   -14634   -14636   -14635   -14634   -14635   -14636 
  -14638   -14636   -14634   -14632   -14634   -14634   -14629   -14629 
  -14629   -14628   -14631   -14634   -14631   -14628   -14627   -14627 
  -14627   -14625   -14624   -14624   -14625   -14624   -14621   -14623 
  -14624   -14621   -14621   -14625   -14624   -14621   -14624   -14624 
  -14620   -14621   -14625   -14625   -14625   -14625   -14625   -14627 
  -14624   -14621   -14621   -14621   -14620   -14617   -14615   -14615 
  -14616   -14613   -14609   -14611   -14616   -14617   -14617   -14620 
  -14623   -14625   -14627   -14627   -14629   -14632   -14631   -14631 
  -14634   -14632   -14631   -14632   -14635   -14635   -14632   -14631 
  -14636   -14640   -14638   -14634   -14634   -14635   -14634   -14632 
  -14635   -14638   -14636   -14632   -14632   -14634   -14629   -14629 
  -14632   -14631   -14631   -14631   -14631   -14629   -14629   -14627 
  -14625   -14625   -14624   -14623   -14621   -14620   -14623   -14624 
  -14621   -14623   -14625   -14621   -14620   -14625   -14624   -14623 
  -14625   -14624   -14624   -14627   -14628   -14627   -14625   -14625 
  -14623   -14620   -14624   -14623   -14620   -14619   -14617   -14616 
  -14616   -14613   -14611   -14611   -14615   -14617   -14616   -14620 
  -14621   -14624   -14628   -14627   -14625   -14631   -14629   -14631 
  -14635   -14632   -14632   -14638   -14634   -14632   -14635   -14634 
  -14632   -14635   -14635   -14636   -14639   -14636   -14634   -14634 
  -14635   -14635   -14635   -14635   -14635   -14634   -14631   -14629 
  -14629   -14629   -14631   -14632   -14631   -14628   -14627   -14624 
  -14624   -14624   -14623   -14620   -14621   -14623   -14619   -14619 
  -14621   -14620   -14620   -14624   -14625   -14624   -14623   -14625 
  -14625   -14625   -14628   -14627   -14624   -14625   -14627   -14624 
  -14624   -14624   -14621   -14617   -14616   -14616   -14615   -14613 
  -14613   -14612   -14613   -14615   -14617   -14619   -14620   -14623 
  -14624   -14625   -14627   -14628   -14628   -14632   -14634   -14629 
  -14631   -14635   -14631   -14631   -14634   -14634   -14632   -14634 
  -14638   -14639   -14636   -14635   -14636   -14636   -14636   -14638 
  -14636   -14635   -14632   -14629   -14631   -14629   -14627   -14627 
  -14628   -14629   -14631   -14628   -14627   -14625   -14621   -14619 
  -14620   -14621   -14621   -14620   -14620   -14621   -14623   -14624 
  -14624   -14623   -14623   -14624   -14624   -14623   -14625   -14627 
  -14623   -14621   -14623   -14621   -14620   -14621   -14621   -14620 
  -14616   -14613   -14617   -14619   -14613   -14609   -14612   -14616 
  -14616   -14617   -14624   -14625   -14624   -14625   -14629   -14631 
  -14632   -14632   -14631   -14632   -14632   -14629   -14634   -14635 
  -14632   -14636   -14638   -14635   -14636   -14636   -14636   -14636 
  -14636   -14636   -14636   -14635   -14635   -14638   -14636   -14632 
  -14632   -14635   -14635   -14631   -14631   -14631   -14628   -14628 
  -14631   -14629   -14629   -14629   -14624   -14621   -14623   -14623 
  -14624   -14624   -14623   -14623   -14623   -14624   -14625   -14623 
  -14624   -14632   -14634   -14631   -14631   -14632   -14629   -14628 
  -14631   -14636   -14642   -14639   -14634   -14634   -14636   -14636 
  -14636   -14634   -14625   -14617   -14612   -14608   -14611   -14623 
  -14628   -14627   -14629   -14634   -14636   -14635   -14621   -14604 
  -14597   -14604   -14615   -14624   -14627   -14619   -14617   -14628 
  -14625   -14613   -14620   -14631   -14619   -14604   -14605   -14616 
  -14636   -14643   -14608   -14567   -14574   -14613   -14619   -14571 
  -14517   -14499   -14520   -14575   -14648   -14696   -14710   -14709 
  -14690   -14669   -14667   -14662   -14629   -14561   -14485   -14478 
  -14567   -14654   -14683   -14708   -14731   -14713   -14704   -14716 
  -14677   -14588   -14540   -14548   -14559   -14581   -14636   -14669 
  -14654   -14627   -14619   -14646   -14678   -14662   -14616   -14621 
  -14646   -14624   -14634   -14705   -14735   -14673   -14571   -14465 
  -14364   -14362   -14497   -14605   -14609   -14584   -14567   -14627 
  -14746   -14766   -14679   -14578   -14504   -14482   -14539   -14659 
  -14747   -14713   -14557   -14404   -14443   -14673   -14939   -15082 
  -14931   -14600   -14507   -14666   -14669   -14449   -14327   -14373 
  -14447   -14644   -14895   -14787   -14396   -14139   -14065   -14235 
  -14794   -15427   -15529   -15006   -14584   -14677   -14832   -14692 
  -14287   -13868   -13872   -14388   -15075   -15464   -15352   -15087 
  -15030   -14995   -14719   -14378   -14304   -14669   -15257   -15296 
  -14682   -14370   -14578   -14743   -14594   -14072   -13474   -13274 
  -13706   -14535   -14952   -14647   -14187   -13971   -14026   -14442 
  -15187   -15606   -15240   -14686   -14331   -14023   -14095   -14605 
  -14735   -14247   -14076   -14620   -15323   -15920   -16012   -15101 
  -13868   -13505   -14341   -15415   -15535   -14940   -14507   -14424 
  -14501   -14758   -15404   -15761   -14895   -13639   -13198   -13522 
  -14438   -15681   -16204   -15156   -13140   -12318   -13838   -15745 
  -16092   -15199   -13963   -13209   -13706   -15462   -16657   -15373 
  -13286   -12815   -13464   -14559   -16052   -16896   -15786   -13392 
  -12483   -13755   -15098   -15407   -14863   -14054   -13761   -14184 
  -15221   -16141   -16033   -15255   -14272   -13397   -13486   -14540 
  -15624   -15774   -14773   -13706   -13431   -13938   -14949   -15735 
  -15678   -14580   -13225   -13244   -14534   -15581   -15738   -14904 
  -13751   -13760   -15061   -16151   -16059   -15192   -14258   -13572 
  -13248   -13532   -14580   -15510   -15342   -14725   -14484   -14412 
  -14481   -14870   -15209   -14902   -14054   -13662   -14461   -15599 
  -15516   -14557   -14179   -14316   -14242   -14145   -14567   -15149 
  -15002   -14374   -13980   -14007   -14408   -14746   -15026   -15275 
  -14831   -14245   -14504   -14968   -14891   -14696   -14650   -14451 
  -14304   -14397   -14496   -14616   -14771   -14889   -14713   -14272 
  -14427   -15209   -15566   -15199   -14737   -14496   -14154   -13973 
  -14567   -15194   -14837   -14168   -14030   -14187   -14550   -14997 
  -14851   -14239   -14301   -15211   -15701   -15315   -14743   -14388 
  -14546   -14899   -14598   -14017   -13905   -14154   -14629   -15106 
  -14928   -14100   -13745   -14548   -15500   -15315   -14439   -14169 
  -14833   -15537   -15060   -13894   -13632   -14067   -14374   -14710 
  -14820   -14666   -14852   -15056   -14731   -14386   -14507   -14709 
  -14643   -14588   -14781   -14912   -14810   -14702   -14651   -14715 
  -14829   -14644   -14291   -14307   -14735   -15055   -14970   -14666 
  -14544   -14810   -14877   -14373   -13945   -13940   -14231   -14663 
  -14883   -14791   -14689   -14731   -14682   -14544   -14629   -14725 
  -14548   -14257   -14052   -14243   -14810   -15045   -14632   -14177 
  -14193   -14474   -14679   -14674   -14453   -14299   -14607   -15163 
  -15213   -14789   -14607   -14878   -15408   -15530   -14783   -13973 
  -13861   -14195   -14494   -14513   -14318   -14207   -14347   -14708 
  -15094   -15219   -14995   -14570   -14277   -14426   -14802   -14871 
  -14511   -14166   -14273   -14685   -14929   -14690   -14316   -14499 
  -14890   -14802   -14393   -14061   -14208   -14715   -15028   -15165 
  -15206   -14983   -14631   -14428   -14436   -14486   -14418   -14296 
  -14277   -14540   -15080   -15346   -14968   -14446   -14307   -14400 
  -14503   -14613   -14523   -14253   -14212   -14445   -14705   -14879 
  -14940   -14852   -14758   -14806   -14740   -14507   -14449   -14609 
  -14836   -14985   -14818   -14343   -14129   -14602   -15175   -15261 
  -15051   -14602   -14157   -14291   -14733   -15040   -15191   -14769 
  -14031   -14054   -14701   -15110   -15055   -14786   -14553   -14419 
  -14542   -14839   -14958   -14766   -14335   -14130   -14467   -14962 
  -15118   -14747   -14153   -13886   -14073   -14550   -15033   -15048 
  -14554   -14237   -14396   -14627   -14773   -14847   -14783   -14642 
  -14492   -14443   -14428   -14409   -14476   -14512   -14571   -14602 
  -14478   -14497   -14762   -15034   -15102   -14809   -14246   -14013 
  -14654   -15522   -15415   -14322   -13432   -13568   -14370   -15039 
  -15137   -14882   -14751   -14767   -14692   -14535   -14501   -14526 
  -14370   -14361   -14760   -15053   -14820   -14428   -14446   -14693 
  -14670   -14543   -14600   -14519   -14292   -14497   -14920   -14941 
  -14688   -14403   -14338   -14694   -15025   -14931   -14623   -14539 
  -14920   -15236   -14705   -13825   -13686   -14289   -14871   -14955 
  -14833   -14893   -15047   -15066   -14658   -14191   -14264   -14516 
  -14696   -14933   -14982   -14747   -14418   -14231   -14350   -14580 
  -14690   -14675   -14654   -14723   -14747   -14877   -15218   -15028 
  -14357   -14208   -14492   -14793   -15039   -14743   -14068   -13895 
  -14365   -14906   -15099   -14976   -14679   -14523   -14800   -14970 
  -14484   -13952   -14088   -14553   -14818   -14836   -14650   -14473 
  -14354   -14191   -14300   -14607   -14617   -14508   -14654   -14854 
  -14663   -14395   -14656   -14917   -14743   -14602   -14418   -14216 
  -14501   -14931   -14929   -14550   -14292   -14555   -14882   -14852 
  -14933   -15138   -14885   -14436   -14397   -14481   -14334   -14327 
  -14689   -15014   -14920   -14612   -14534   -14623   -14634   -14683 
  -14769   -14833   -15032   -15213   -15117   -14639   -13984   -13859 
  -14191   -14223   -14064   -14234   -14732   -15037   -14887   -14739 
  -14855   -14916   -14710   -14526   -14588   -14688   -14801   -14804 
  -14503   -14351   -14520   -14752   -14878   -14557   -14044   -13959 
  -14245   -14647   -15006   -15113   -14991   -14867   -14793   -14617 
  -14409   -14480   -14624   -14328   -13911   -13952   -14408   -14924 
  -15157   -15155   -14952   -14449   -14154   -14493   -15029   -15056 
  -14588   -14382   -14526   -14592   -14663   -14683   -14562   -14602 
  -14760   -14773   -14646   -14555   -14767   -15161   -15142   -14561 
  -13969   -13927   -14516   -15165   -15147   -14570   -14210   -14428 
  -14952   -15215   -14941   -14497   -14297   -14446   -14755   -14683 
  -14296   -14119   -13968   -13860   -14320   -15149   -15556   -15336 
  -14878   -14521   -14530   -14775   -14760   -14459   -14258   -14307 
  -14451   -14624   -14833   -14993   -14909   -14443   -14069   -14200 
  -14449   -14609   -14790   -14912   -14875   -14694   -14594   -14642 
  -14729   -14891   -14832   -14517   -14447   -14582   -14715   -14787 
  -14675   -14601   -14605   -14472   -14384   -14401   -14308   -14239 
  -14447   -14774   -14971   -15001   -15020   -15160   -15095   -14620 
  -14250   -14303   -14508   -14708   -14831   -14594   -14184   -14269 
  -14735   -14813   -14391   -14115   -14435   -14972   -15240   -15196 
