Origin Time       2024/04/02 04:24:00
Lat.              40.133
Long.             141.712
Depth. (km)       71
Mag.              6.0
Station Code      IBRH06
Station Lat.      36.8809
Station Long.     140.6545
Station Height(m) 395
Record Time       2024/04/02 04:25:28
Sampling Freq(Hz) 100Hz
Duration Time(s)  120
Dir.              4
Scale Factor      7845(gal)/8223790
Max. Acc. (gal)   6.546
Last Correction   2024/04/02 04:25:28
Memo.             
[...]
    5159     5526     5697     5398     4665     4268     4561     4494 
    3973     4117     4614     4843     4938     4833     4654     4359 
    3973     3952     4059     4233     4788     5188     5111     4780 
    4228     3747     3719     4129     4731     5174     5166     4699 
    4120     3862     4005     4318     4768     5308     5607     5663 
    5440     4680     3893     3604     3613     3917     4488     4924 
    5197     5463     5499     5055     4459     4257     4363     4414 
    4375     4279     4364     4762     4857     4455     4191     4071 
    3943     4191     4804     5374     5306     4490     3902     3950 
    4347     5143     5661     5301     4654     4002     3495     3823 
    4699     4914     4463     4460     5069     5652     5788     5108 
    4101     3843     4203     4484     4573     4569     4459     4336 
    4483     4746     4830     4734     4267     3811     4099     4837 
    5335     5256     4804     4518     4407     4203     4099     4467 
    5016     5073     4654     4170     3985     4276     4550     4584 
    4695     4764     4750     4818     4932     5067     4918     4467 
    4256     4398     4816     5300     5306     4908     4546     4369 
    4333     4167     3956     4139     4606     5051     5412     5460 
    4895     3948     3373     3580     4206     4729     5127     5598 
    5705     5015     4055     3438     3419     4010     4619     4793 
    4742     4704     4708     4752     4752     4718     4931     5120 
    4854     4711     4810     4549     4288     4307     4261     4279 
    4338     4253     4299     4541     4772     4834     4549     4108 
    3904     4120     4602     5032     5549     6030     5649     4625 
    4064     4089     4222     4352     4450     4602     4745     4639 
    4642     4891     4901     4626     4143     3704     3775     4162 
    4635     5194     5582     5528     5031     4646     4715     4820 
    4680     4298     3824     3697     4102     4698     5097     5181 
    5103     5089     5077     4982     4892     4677     4264     3920 
    4035     4634     5136     5259     5080     4464     3771     3500 
    3537     3920     4793     5563     5671     5609     5729     5287 
    4267     3836     4179     4372     4032     3685     4005     4769 
    5159     5007     4664     4448     4390     4222     4176     4590 
    5046     5143     4770     4152     4091     4618     4887     4707 
    4502     4536     4602     4382     4226     4363     4465     4623 
    4854     4693     4171     3875     4125     4639     5070     5262 
    5047     4715     4747     4938     5023     5115     5182     5069 
    4653     4085     3834     4156     4650     4658     4376     4345 
    4374     4583     5177     5445     5219     4942     4588     4229 
    4124     4220     4407     4666     4675     4315     4328     4571 
    4074     3500     3667     4137     4634     4807     4575     4683 
    5147     5246     4992     4850     4525     3894     3923     4660 
    5117     5225     5204     5024     4819     4391     3649     3262 
    3569     4071     4581     5142     5518     5694     5512     4945 
    4684     4804     4522     3815     3634     4321     5090     5509 
    5562     5039     4382     3990     3622     3605     4245     4868 
    5059     5136     5142     4900     4426     3963     3990     4391 
    4583     4550     4556     4868     5201     4812     4197     4079 
    4050     4005     4151     4352     4738     5194     5077     4581 
    4571     4963     5239     5202     4726     4378     4650     4833 
    4556     4243     4012     3996     4352     4714     4828     4916 
    4833     4541     4684     5082     5012     4823     4819     4579 
    4229     4257     4534     4703     4745     4734     4746     4824 
    4779     4580     4502     4722     5150     5201     4467     3763 
    3905     4363     4509     4476     4394     4290     4356     4665 
    5027     5117     4725     4067     3800     4275     4950     5161 
    5020     4903     4808     4757     4653     4267     4068     4359 
    4648     4747     4714     4712     4747     4326     3873     4124 
    4565     4691     4644     4549     4561     4745     4850     4812 
    4738     4506     4399     4668     4866     4942     4857     4329 
    3923     3970     4121     4294     4585     5030     5277     5116 
    4976     4846     4513     4212     4006     4090     4594     4873 
    4687     4457     4168     4021     4364     4649     4756     5190 
    5543     5436     5258     5115     4833     4483     4318     4341 
    4369     4372     4126     3788     4074     4548     4496     4548 
    4812     4866     5071     5103     4557     4239     4305     4261 
    4268     4469     4676     4845     5047     5157     5097     4838 
    4349     4160     4679     5355     5502     5116     4552     4109 
    4237     4568     4137     3636     3840     4131     4499     5013 
    5062     4722     4584     4780     4934     4850     4521     4054 
    4085     4675     5007     4803     4321     3943     4098     4672 
    5009     4968     5012     4880     4236     3782     3863     4149 
    4540     4945     5200     5262     5229     5143     4849     4530 
    4557     4610     4175     3774     4159     4915     5235     4997 
    4536     4083     3781     4001     4692     5142     5147     4980 
    4766     4716     4874     4905     4673     4536     4648     4642 
    4317     3821     3586     3962     4452     4583     4634     4660 
    4668     4939     5256     5146     4548     3974     3998     4521 
    5109     5356     5069     4699     4712     4882     4764     4293 
    3863     3819     4013     4166     4356     4669     4900     4958 
    4868     4684     4691     4849     4857     4797     4739     4712 
    4741     4533     4197     4091     4179     4442     4727     4834 
    4927     5130     5367     5289     4743     4186     3896     3921 
    4271     4700     4981     4911     4519     4291     4303     4140 
    3940     4126     4415     4602     5085     5521     5440     5366 
    5158     4426     3882     3831     4048     4386     4496     4538 
    4772     4878     4703     4469     4395     4558     4884     4915 
    4522     4494     4754     4426     3901     3950     4326     4514 
    4483     4519     4750     5161     5497     5286     4711     4338 
    4306     4536     4827     5076     5225     4753     3708     3215 
    3785     4650     4954     4579     4018     3931     4571     5310 
    5395     5105     4739     4205     4191     4864     5286     5046 
    4203     3500     3840     4541     4753     4746     4785     4873 
    4797     4467     4256     4263     4379     4537     4621     4864 
    5119     4980     4934     5144     4949     4432     4187     4380 
    4810     4955     4677     4592     4772     4677     4503     4540 
    4449     4267     4361     4598     4673     4776     4880     4479 
    4021     4222     4633     4943     5165     4869     4341     4318 
    4598     4868     5161     4981     4336     4079     4149     4151 
    4305     4473     4398     4320     4457     4668     4787     4735 
    4498     4355     4434     4654     5067     5297     5070     4795 
    4648     4482     4212     4009     4176     4699     5293     5339 
    4708     4248     4043     3801     4183     5000     5246     5200 
    5165     4707     4422     4687     4598     4125     3881     3971 
    4684     5726     6027     5332     4357     3856     3943     4077 
    4018     4087     4441     4986     5339     5105     4581     4175 
    3981     4114     4526     5028     5189     4766     4606     5117 
    5286     4549     3761     3819     4317     4587     4699     4693 
    4796     5109     4862     4104     3847     4104     4341     4653 
    5140     5413     5290     4953     4494     4104     4018     4067 
    3967     3959     4418     4992     5266     5412     5339     4839 
    4228     3983     4236     4584     4739     4796     4799     4845 
    4965     4796     4210     3852     4160     4471     4244     3974 
    4104     4496     5034     5439     5325     4911     4526     4305 
    4467     4762     4847     4827     4735     4676     4833     4999 
    4820     4302     3734     3319     3446     4249     4939     5162 
    5343     5395     5140     4973     5001     4949     4851     4637 
    4202     4045     4144     3958     3784     3956     4332     4942 
    5522     5582     5182     4617     4086     3991     4568     5146 
    5017     4637     4648     4830     4819     4538     4036     3817 
    4175     4448     4432     4804     5248     4816     3973     3740 
    4135     4733     5043     4904     4877     4972     4777     4484 
    4221     4074     4257     4703     5192     5447     5464     5140 
    4261     3634     3829     4131     4243     4515     4984     5445 
    5575     5259     4951     4889     4592     3894     3447     3615 
    4110     4723     5213     5400     5406     5057     4395     4139 
    4415     4569     4274     3971     4213     4826     5198     5065 
    4719     4425     4093     3870     3969     4367     4934     5233 
    5269     5373     5135     4432     3823     3582     3871     4426 
    4592     4342     4147     4356     4761     4926     4880     4792 
    4791     4878     4814     4569     4260     4013     3906     3870 
    4031     4417     4703     4719     4622     4719     4951     4896 
    4657     4827     5413     5575     4970     4260     3838     3782 
    4149     4575     4936     5127     4835     4521     4495     4522 
    4546     4390     4540     5412     5890     5441     4792     4266 
    3869     3684     3774     4067     4452     4826     4914     4896 
    5167     5274     4889     4517     4442     4390     4352     4596 
    4818     4693     4557     4612     4756     4838     4820     4963 
    5008     4469     4009     4283     4753     5039     5260     5259 
    5200     5159     4428     3385     3207     3457     3669     4446 
    5368     5678     5490     4882     4228     4001     3800     3558 
    3821     4504     5255     5636     5266     4633     4151     3747 
    3491     3514     4239     5310     5524     5125     4914     4629 
    4271     4283     4506     4661     4911     5193     5277     5325 
    5271     4770     3966     3337     3491     4626     5757     5833 
    5134     4368     3771     3569     3848     4426     5027     5105 
    4567     4163     4488     5236     5391     4617     3790     3670 
    4206     4727     4896     5084     5131     4708     4279     4228 
    4220     3937     3678     3719     3973     4279     4405     4515 
    5215     6334     6666     5765     4654     3869     3381     3740 
    4692     5262     5227     4887     4764     4869     4657     4135 
    3640     3559     3970     4253     4267     4475     4982     5568 
    5881     5854     5574     4803     4047     3959     3819     3503 
    4009     5124     6246     7256     7364     6210     4735     3680 
    3198     3245     3393     3493     3908     4530     4870     4571 
    3574     2458     2037     2679     3937     5228     6457     7241 
    7404     7138     6231     5267     4826     4276     3632     3445 
    3483     3308     3114     3171     3073     3091     3840     4665 
    5238     5814     6153     6211     5776     4707     3840     3612 
    3500     3439     3767     4099     4279     4753     4988     4581 
    4251     4014     3905     4464     5117     5335     5422     5377 
    5125     4814     4758     5197     5792     6091     5792     4923 
    3909     3015     2677     3352     4687     6021     6704     6203 
    4976     3874     2925     2419     3163     4683     6129     7406 
    8050     7908     7226     5582     3248     1239      275      973 
    2841     4441     5229     5424     5051     4392     4302     4853 
    5356     6045     6894     6832     5873     4618     3024     1744 
    1744     2864     4356     5630     6327     6223     5497     4604 
    3532     2593     2482     2937     3816     5414     7007     7750 
    7291     5699     4294     4131     4407     4342     4309     4333 
    4041     3759     3744     3507     2830     2324     2498     3302 
    4704     6358     7555     8220     8235     7292     5853     4511 
    3692     3669     3792     3238     2407     2268     2741     3063 
    2925     2516     2641     3812     5490     7321     9016     9679 
    8957     7425     5663     3882     2353     1544     1819     3032 
    4202     4606     4688     4538     3628     2411     1769     2029 
    3261     4725     5408     5796     6475     6640     6054     5590 
    5697     6137     6204     5544     4873     4625     4212     3372 
    2581     2000     1749     2528     4063     5130     5865     6968 
    8132     8522     7230     4584     2223      885      699     1938 
    3569     4448     5154     5917     6257     6357     5798     4167 
    2616     2257     3210     4901     6232     6454     5659     4488 
    3323     2396     2358     2933     3295     4171     5814     6519 
    5703     4383     3207     2816     3669     4961     5676     5823 
    5821     5697     5259     4696     4348     4040     3804     4271 
    5401     6597     7250     6727     5363     3650     1668      545 
     970     2408     4866     8167    10893    11456     9760     7176 
    4862     3333     2446     1692     1255     1714     3327     5589 
    6899     6235     4796     4164     4293     4785     5485     5830 
    5767     5520     5104     5027     5329     5267     4527     3323 
    2235     1883     2204     2895     4159     5938     7223     7276 
    6448     5363     4279     3168     2396     2612     3719     5016 
    5768     5441     4145     2694     2073     2562     3676     4806 
    5394     5508     5505     4931     3816     3110     2812     2830 
    3859     5732     7400     7705     6273     4567     3785     3240 
    2273     1507     1976     3535     4928     5710     6103     6006 
    5529     4835     4213     4342     5050     5578     5810     5807 
    5787     6039     5948     5117     4094     2830     1247      101 
     373     2791     6169     8037     7631     6069     5085     5063 
    4719     4098     4248     4904     5591     6216     6069     4868 
    3684     3118     3040     3677     4313     4137     4310     5489 
    6540     6434     5162     3778     3204     3623     4978     6531 
    7194     5992     3230     1205      843     1267     2304     3514 
    4633     6189     7588     7693     6353     4626     3929     4351 
    4656     4126     3727     4191     4737     4954     5143     5752 
    6809     7096     6153     4783     3210     1903     1717     2512 
    3789     5178     6160     6443     6157     5603     4884     3948 
    3014     2440     2578     3523     4606     4907     4406     4013 
    4297     4976     5732     6475     7030     7060     6601     6004 
    5030     3424     1737      949     1941     4153     5814     6288 
    6037     5293     4109     2902     2612     3442     4450     5356 
    6477     7275     6836     5398     4494     4811     5054     4128 
    2907     2955     4197     5205     5393     5094     4581     4013 
    3699     3928     4468     4816     4671     4001     3420     3618 
    4203     4288     4176     4843     5834     6065     5800     5742 
    5802     5406     4225     2953     2524     2801     3406     4160 
    4666     5089     5637     5697     5445     5571     5350     4261 
    3315     3199     3836     4730     5092     5300     5778     5544 
    4426     3049     1927     2212     3600     4533     5410     6681 
    7222     6674     5713     5144     5092     4850     4585     4824 
    5131     5346     5571     5057     3414     1811     1431     2165 
    3600     5238     6316     6679     6529     5775     4345     2546 
    1186     1071     2290     4230     6120     7245     6751     5012 
    4141     4599     4722     4437     4367     4031     3958     4797 
    5579     5798     5741     5367     4816     4523     4780     5341 
    5263     4105     2783     2246     2605     3551     4476     5312 
    6304     6540     5705     4982     4739     4941     5363     4753 
    3649     3732     4320     4584     4982     5425     5506     5063 
    4326     3898     4125     4645     4688     4376     4457     4847 
    4869     4106     3418     4236     5576     5445     4680     4818 
    5379     5564     5243     4891     5001     4981     4388     3773 
    3601     3717     3501     2949     2524     2369     2806     3707 
    4503     5179     5549     5486     5506     5875     6311     6257 
    5566     4995     4954     4791     4391     4436     4369     3628 
    3481     4197     4615     4693     4711     4687     4885     5097 
    4888     4583     5219     6696     7111     5698     3746     2533 
    2552     3330     4001     4369     4563     4556     4334     4230 
    4704     5148     4706     4149     4588     5764     6814     7091 
    6170     4513     3624     3807     3894     3832     3901     3542 
    2964     2647     2200     1725     2070     3222     4627     6208 
    7438     7456     6419     5216     4660     5117     5976     6027 
    5043     3858     2938     2289     1888     1798     2450     3928 
    5680     7260     7969     7156     5641     4761     4492     4074 
    3464     3014     2652     2644     3288     3632     3026     2533 
    3333     5409     7771     9121     8982     8139     7570     7420 
    6794     4945     2547      854      633     1456     2027     2471 
    3543     4681     5678     6851     7654     7596     6945     6076 
    5100     4077     3323     3210     3626     4136     4313     4175 
    4468     4854     4087     2903     2793     3878     5489     6617 
    6949     6924     6569     5859     5096     4477     4036     3871 
    3755     3192     2651     2924     3708     4291     4291     4016 
    4291     5108     5873     6336     6245     5737     5152     4410 
    3773     3449     3200     3149     3262     3446     3921     4326 
    4402     4434     4432     4496     4495     3977     3572     4355 
    5930     6799     6667     6687     6859     5833     3693     2134 
    1811     2224     3319     4626     5278     5427     5186     4415 
    3649     3186     3059     3670     4990     6303     6924     6443 
    4754     2625     1780     2906     4776     6551     8171     9034 
    8595     6988     4730     2496     1464     2365     3792     4390 
    4573     4503     4291     4657     5333     5115     3808     3082 
    4228     6187     7148     6403     4745     3701     3809     4610 
    5514     5647     4583     3164     2219     2038     2817     4337 
    6384     8079     7865     6214     4309     2230      799      511 
    1232     3393     6053     7457     7203     5711     3879     2292 
     889      546     2330     5788     9167    10068     7861     4884 
    3271     3191     3707     3870     3892     4224     4469     4230 
    3379     2304     1934     2473     3549     5058     6521     7388 
