Origin Time       2024/04/02 04:24:00
Lat.              40.133
Long.             141.712
Depth. (km)       71
Mag.              6.0
Station Code      IBRH07
Station Lat.      35.9521
Station Long.     140.3301
Station Height(m) 3
Record Time       2024/04/02 04:26:25
Sampling Freq(Hz) 100Hz
Duration Time(s)  120
Dir.              6
Scale Factor      7845(gal)/8223790
Max. Acc. (gal)   1.645
Last Correction   2024/04/02 04:26:25
Memo.             
[...]
   16321    16416    16345    16279    16224    16113    16070    16189 
   16370    16429    16405    16379    16272    16102    16031    16082 
   16143    16171    16232    16325    16433    16553    16579    16530 
   16513    16406    16235    16179    16187    16205    16256    16279 
   16241    16231    16266    16281    16248    16177    16119    16150 
   16290    16414    16417    16436    16488    16414    16355    16374 
   16322    16335    16413    16353    16235    16154    16116    16139 
   16158    16214    16339    16294    16093    16036    16017    15946 
   16110    16366    16420    16456    16506    16418    16341    16348 
   16370    16490    16634    16673    16706    16653    16447    16314 
   16291    16276    16330    16451    16480    16320    16106    15994 
   15917    15886    15986    16108    16105    16005    16028    16214 
   16329    16328    16247    16136    16236    16465    16568    16605 
   16557    16295    16028    16012    16148    16298    16460    16544 
   16491    16459    16556    16650    16638    16563    16380    16147 
   16092    16154    16220    16326    16343    16271    16313    16436 
   16499    16498    16474    16391    16278    16272    16305    16264 
   16217    16160    16125    16201    16294    16348    16378    16352 
   16326    16243    16043    15982    16156    16340    16401    16366 
   16324    16318    16294    16245    16279    16364    16397    16484 
   16592    16572    16568    16619    16502    16303    16322    16479 
   16549    16545    16437    16247    16137    16092    16077    16131 
   16156    16125    16154    16283    16433    16490    16451    16348 
   16166    16052    16151    16375    16626    16803    16668    16287 
   16089    16113    16087    16132    16276    16290    16313    16411 
   16341    16156    16038    16019    16104    16239    16363    16467 
   16501    16411    16320    16348    16425    16471    16507    16595 
   16648    16519    16328    16151    15952    15939    16101    16195 
   16278    16326    16194    16024    15989    16146    16434    16572 
   16540    16470    16330    16274    16325    16314    16243    16197 
   16244    16335    16441    16552    16522    16418    16326    16170 
   16190    16467    16553    16366    16224    16201    16227    16317 
   16434    16411    16194    16029    16069    16154    16233    16353 
   16285    16001    15897    16047    16276    16569    16758    16707 
   16598    16497    16371    16353    16395    16357    16305    16302 
   16316    16259    16200    16183    16074    15981    16040    16133 
   16270    16383    16306    16177    16124    16101    16163    16272 
   16329    16417    16510    16519    16492    16424    16325    16295 
   16314    16335    16414    16529    16540    16389    16077    15780 
   15800    16062    16249    16343    16426    16371    16154    16028 
   16104    16208    16270    16340    16325    16229    16212    16262 
   16278    16285    16303    16337    16390    16490    16615    16646 
   16621    16606    16536    16483    16453    16393    16386    16359 
   16210    16067    16078    16181    16241    16301    16360    16375 
   16310    16183    16133    16106    16152    16414    16622    16677 
   16632    16383    16101    15997    16036    16224    16561    16794 
   16713    16494    16324    16156    16067    16164    16341    16509 
   16583    16514    16378    16198    16116    16210    16282    16289 
   16309    16345    16380    16371    16345    16306    16210    16198 
   16309    16398    16460    16479    16391    16326    16336    16333 
   16395    16491    16499    16536    16571    16470    16367    16294 
   16128    16008    16112    16231    16210    16190    16168    16154 
   16268    16434    16522    16541    16565    16610    16599    16555 
   16529    16468    16394    16329    16252    16259    16276    16214 
   16231    16262    16205    16200    16256    16289    16308    16303 
   16205    16119    16189    16283    16337    16370    16378    16399 
   16308    16144    16096    16027    15892    15935    16182    16355 
   16395    16461    16448    16266    16108    16067    16085    16210 
   16417    16429    16276    16210    16104    15954    16006    16174 
   16302    16413    16434    16324    16202    16092    16035    16200 
   16447    16484    16387    16328    16295    16309    16349    16312 
   16301    16376    16325    16204    16233    16335    16464    16533 
   16425    16368    16393    16336    16384    16515    16511    16414 
   16228    15984    15915    16097    16366    16506    16397    16121 
   15927    15978    16113    16167    16255    16349    16313    16301 
   16411    16499    16582    16691    16609    16390    16332    16344 
   16267    16268    16324    16293    16309    16349    16363    16407 
   16378    16418    16529    16399    16167    16090    16190    16441 
   16659    16742    16753    16576    16316    16218    16148    16166 
   16394    16499    16452    16476    16464    16410    16437    16357 
   16160    16102    16137    16163    16252    16368    16414    16329 
   16139    16024    16043    16059    16038    16031    16086    16216 
   16324    16353    16363    16362    16286    16094    15965    16055 
   16168    16197    16167    16077    16121    16298    16316    16227 
   16218    16200    16144    16204    16326    16339    16268    16275 
   16332    16286    16243    16291    16310    16337    16460    16626 
   16804    16872    16659    16237    15923    15911    16129    16414 
   16613    16661    16559    16360    16231    16198    16201    16233 
   16155    16013    16073    16248    16372    16452    16413    16313 
   16249    16174    16162    16200    16212    16290    16410    16495 
   16630    16795    16800    16657    16563    16511    16526    16634 
   16609    16441    16351    16312    16200    16125    16240    16448 
   16538    16329    16016    15981    16052    16078    16262    16444 
   16449    16410    16389    16383    16328    16202    16129    16096 
   16075    16171    16339    16409    16416    16420    16321    16232 
   16237    16294    16490    16626    16569    16534    16453    16274 
   16152    16110    16164    16267    16276    16259    16282    16232 
   16132    16069    16066    16194    16337    16303    16267    16343 
   16353    16407    16541    16461    16243    16163    16193    16283 
   16403    16425    16303    16119    16031    16158    16417    16648 
   16607    16247    15950    15861    15853    16035    16402    16722 
   16768    16536    16330    16258    16210    16275    16401    16413 
   16359    16345    16360    16333    16322    16386    16445    16479 
   16468    16464    16484    16425    16382    16345    16159    15962 
   15870    15858    16052    16487    16826    16749    16421    16062 
   15677    15510    15716    16086    16476    16737    16695    16437 
   16160    15996    16054    16348    16602    16529    16241    15816 
   15346    15261    15577    15961    16387    16710    16704    16572 
   16517    16416    16229    16066    15996    16140    16455    16735 
   16866    16854    16804    16740    16625    16401    16129    16070 
   16328    16731    16934    16657    16048    15514    15325    15515 
   16013    16660    17212    17375    17076    16773    16803    16881 
   16812    16691    16413    16079    16106    16438    16614    16486 
   16322    16283    16310    16309    16222    16189    16239    16303 
   16452    16623    16669    16468    16092    15797    15680    15874 
   16425    16903    16962    16711    16401    16228    16249    16356 
   16402    16291    16048    15826    15699    15626    15745    16132 
   16353    16209    16120    16206    16299    16360    16314    16191 
   16143    16254    16443    16578    16580    16362    16070    15974 
   16108    16401    16565    16395    16212    16114    15998    16137 
   16418    16541    16657    16668    16429    16213    16071    15897 
   15894    16054    16031    16131    16637    16825    16533    16329 
   16074    15812    15969    16232    16360    16510    16514    16440 
   16576    16752    16787    16721    16465    16119    15990    15981 
   15973    16150    16295    16174    15993    15813    15678    15751 
   16029    16456    16679    16521    16393    16241    15989    16154 
   16556    16691    16757    16875    16839    16578    16197    15878 
   15712    15774    16139    16665    16974    16887    16731    16630 
   16386    16177    16143    16166    16306    16568    16769    16750 
   16394    15880    15672    15904    16317    16830    17313    17486 
   17329    16834    16043    15399    15271    15631    16293    16915 
   17196    17096    16629    16027    15742    15861    16123    16251 
   16127    15849    15664    15774    16109    16451    16656    16654 
   16475    16321    16488    16860    16862    16498    16204    16016 
   15979    16112    16291    16480    16418    16171    16240    16474 
   16464    16276    16150    16286    16613    16796    16679    16376 
   16035    15628    15321    15388    15699    16028    16309    16375 
   16229    16232    16430    16494    16568    16937    17155    16826 
   16266    15751    15396    15469    15967    16479    16652    16676 
   16811    16722    16282    15907    15790    15943    16235    16295 
   16121    15959    15742    15523    15539    15822    16362    17034 
   17556    17753    17482    16881    16383    16019    15627    15523 
   15867    16272    16542    16692    16548    15977    15323    15148 
   15433    15858    16372    16787    16713    16237    15959    16004 
   16056    16314    16827    17243    17513    17471    17073    16744 
   16568    16502    16618    16609    16341    16227    16374    16403 
   16241    16167    16146    15997    15923    16083    16320    16499 
   16430    15946    15448    15473    15901    16417    16860    16945 
   16799    16704    16580    16673    17024    16999    16537    16035 
   15558    15263    15398    15735    15823    15619    15411    15439 
   15708    16086    16399    16409    16205    16089    16133    16426 
   16980    17382    17208    16661    16204    15952    16082    16510 
   16794    16958    17023    16740    16306    16052    15931    15955 
   16252    16538    16564    16378    16012    15696    15457    15194 
   15314    15962    16718    17281    17424    17081    16534    16146 
   16097    16351    16920    17473    17352    16834    16409    15846 
   15384    15422    15672    15854    15905    15873    15796    15654 
   15736    16119    16363    16425    16470    16379    16418    16768 
   17037    16970    16587    16162    15975    16075    16615    17327 
   17521    17064    16297    15601    15331    15681    16399    16885 
   16904    16602    15963    15334    15433    16052    16441    16605 
   16711    16625    16428    16187    15916    15831    15854    15757 
   15847    16357    16908    17307    17640    17625    17163    16688 
   16285    15884    15692    15584    15449    15542    15909    16341 
   16514    16343    16048    15755    15712    16150    16768    17043 
   16895    16571    16204    16077    16332    16659    16893    17004 
   16956    16885    16794    16579    16306    16163    16247    16410 
   16460    16411    16359    16089    15475    15052    15097    15357 
   15720    16060    16262    16281    16181    16137    16085    15993 
   15984    16212    16749    17258    17435    17235    16677    16140 
   15979    16083    16287    16540    16735    16768    16621    16341 
   15985    15554    15213    15325    15759    16195    16649    16788 
   16430    16044    15878    16032    16534    16943    17027    17088 
   17103    16849    16634    16659    16640    16502    16357    16245 
   16347    16549    16501    16371    16279    16058    15947    16023 
   15998    15939    15893    15745    15657    15661    15638    15781 
   16092    16340    16632    16881    16818    16773    16926    16872 
   16718    16671    16383    15912    15642    15611    15739    15863 
   15853    15850    15979    16193    16360    16470    16664    16880 
   16912    16779    16681    16638    16372    15950    15711    15670 
   15878    16276    16572    16812    16937    16738    16468    16285 
   16201    16374    16563    16456    16170    15898    15751    15897 
   16318    16692    16838    16659    16125    15628    15484    15630 
   15971    16380    16649    16661    16538    16478    16573    16821 
   17066    17231    17338    17184    16811    16578    16370    16013 
   15723    15566    15556    15834    16220    16456    16619    16675 
   16463    16125    16008    16228    16502    16625    16659    16546 
   16221    15950    16019    16370    16861    17348    17463    17100 
   16653    16333    16120    16106    16236    16287    16286    16344 
   16368    16255    15963    15696    15658    15622    15584    15770 
   15981    16087    16187    16282    16491    16753    16714    16491 
   16438    16386    16200    16132    16156    16051    15952    16060 
   16320    16603    16660    16321    15786    15309    15180    15511 
   15930    16245    16340    16121    16098    16347    16386    16340 
   16317    16158    16051    16241    16694    17089    17228    17263 
   17157    16858    16609    16497    16511    16622    16698    16769 
   16785    16607    16344    15886    15134    14585    14643    15030 
   15383    15687    15903    16047    16362    16657    16784    17084 
   17294    17061    16753    16591    16495    16395    16274    16278 
   16380    16343    16066    15616    15228    15174    15552    16114 
   16405    16434    16479    16467    16368    16309    16313    16297 
   16159    16031    16179    16517    16799    17043    17049    16702 
   16548    16800    17088    17334    17516    17278    16629    16081 
   15857    15998    16475    16788    16717    16464    15957    15418 
   15340    15670    16216    16771    16852    16456    16114    15901 
   15785    15992    16326    16569    16822    16997    17055    17145 
   17086    16715    16314    16016    15797    15754    15676    15414 
   15303    15438    15610    15831    16073    16243    16499    16839 
   17015    17039    17047    17074    17124    17028    16669    16299 
   16228    16444    16625    16569    16449    16453    16499    16391 
   16179    15977    15799    15688    15603    15589    15785    15970 
   15943    15907    15920    15947    16189    16510    16573    16482 
   16362    16252    16339    16525    16548    16494    16355    15923 
   15446    15307    15426    15658    15920    16090    16198    16163 
   15936    15867    16043    16202    16347    16507    16614    16659 
   16679    16721    16725    16714    16852    16938    16737    16499 
   16372    16174    15946    15944    16104    16127    15984    15812 
   15741    15900    16309    16879    17436    17722    17609    17162 
   16594    16201    16033    15908    15871    15989    15911    15481 
   15152    15236    15561    15938    16231    16260    16173    16241 
   16378    16586    16956    17216    17155    16825    16421    16191 
   16175    16272    16324    16182    16021    16137    16433    16546 
   16366    16094    15876    15649    15502    15623    15900    16205 
   16542    16745    16726    16610    16534    16555    16622    16795 
   17053    17149    17113    17096    16870    16498    16303    16127 
   15911    15826    15770    15772    15896    16035    16241    16548 
   16768    16753    16551    16266    15977    15797    15811    15997 
   16263    16551    16806    16880    16816    16721    16579    16591 
   16692    16583    16424    16353    16317    16266    16098    15979 
   15984    15916    15799    15730    15765    15996    16291    16301 
   16082    16042    16155    16376    16783    17046    17023    16883 
   16679    16545    16605    16799    16880    16695    16391    16110 
   15944    15977    16089    16104    16055    16023    16004    16119 
   16337    16321    16150    16150    16092    15871    15854    16137 
   16599    17096    17415    17479    17307    16891    16430    16241 
   16217    16193    16382    16625    16588    16457    16316    16105 
   15966    15862    15797    15925    16098    16163    16193    16116 
   15909    15765    15741    15687    15535    15468    15606    15862 
   16225    16675    17005    17054    16931    16794    16614    16451 
   16359    16260    16178    16106    15954    15782    15780    15934 
   16052    16173    16336    16425    16575    16837    16908    16708 
   16384    16129    16154    16328    16448    16557    16522    16297 
   16116    16098    16380    16870    17163    17255    17173    16749 
   16282    16015    15828    15757    15789    15897    16110    16235 
   16106    15824    15557    15435    15473    15579    15746    15943 
   16097    16328    16619    16706    16648    16656    16607    16488 
   16480    16492    16492    16621    16713    16546    16289    16137 
   16021    16002    16218    16455    16580    16680    16649    16470 
   16245    15990    15927    16139    16349    16447    16456    16344 
   16206    16202    16337    16471    16596    16681    16602    16515 
   16546    16528    16503    16603    16773    16996    17059    16822 
   16525    16241    16009    15936    15874    15797    15761    15703 
   15714    15795    15917    16160    16293    16163    16067    16167 
   16347    16503    16565    16518    16461    16468    16529    16698 
   16938    17034    16877    16528    16218    16166    16170    16015 
   15790    15600    15604    15898    16336    16776    16997    16806 
   16390    16058    15930    16056    16333    16470    16389    16182 
   15898    15750    15909    16286    16710    16974    16956    16734 
   16456    16233    16121    16051    15973    16020    16195    16294 
   16322    16378    16383    16310    16267    16298    16302    16324 
   16465    16511    16432    16480    16541    16494    16465    16339 
   16156    16123    16065    15955    15903    15816    15817    15924 
   15935    15915    16004    16217    16426    16518    16586    16669 
   16617    16313    15942    15751    15763    15958    16237    16452 
   16652    16812    16808    16757    16784    16822    16798    16718 
   16650    16532    16306    16096    15842    15597    15658    15886 
   16043    16166    16209    16127    15966    15835    15858    16005 
   16312    16768    17073    17088    16943    16695    16429    16348 
   16487    16779    17139    17301    17162    16896    16490    15994 
   15687    15668    15876    16240    16617    16731    16507    16131 
   15736    15533    15665    16005    16345    16497    16499    16471 
   16417    16438    16514    16474    16366    16255    16163    16225 
   16421    16568    16661    16652    16429    16186    16047    15886 
   15746    15592    15353    15273    15454    15757    16071    16193 
   16036    15776    15650    15804    16182    16587    16760    16600 
   16244    15977    16129    16592    16923    17007    16800    16340 
   16120    16218    16293    16464    16652    16529    16344    16326 
