Origin Time       2024/04/02 04:24:00
Lat.              40.133
Long.             141.712
Depth. (km)       71
Mag.              6.0
Station Code      IBRH06
Station Lat.      36.8809
Station Long.     140.6545
Station Height(m) 395
Record Time       2024/04/02 04:25:28
Sampling Freq(Hz) 100Hz
Duration Time(s)  120
Dir.              5
Scale Factor      7845(gal)/8223790
Max. Acc. (gal)   6.432
Last Correction   2024/04/02 04:25:28
Memo.             
[...]
   -6806    -6110    -5431    -5235    -5283    -5545    -6174    -6880 
   -7180    -6920    -6335    -5863    -5853    -6242    -6682    -6922 
   -6906    -6735    -6434    -6010    -5645    -5545    -5809    -6258 
   -6660    -7047    -7206    -6852    -6253    -5752    -5483    -5584 
   -6026    -6593    -6899    -6674    -6303    -6178    -6097    -6042 
   -6160    -6207    -6331    -6781    -6945    -6606    -6424    -6394 
   -6158    -6010    -6046    -5956    -5944    -6245    -6436    -6349 
   -6357    -6532    -6720    -6914    -7036    -6843    -6300    -5892 
   -5814    -5656    -5544    -5873    -6401    -6833    -6978    -6574 
   -5887    -5485    -5443    -5584    -6007    -6687    -7145    -7142 
   -6960    -6760    -6525    -6351    -6299    -6215    -6060    -5976 
   -5876    -5742    -5814    -5981    -6029    -6080    -6228    -6407 
   -6608    -6855    -6980    -6820    -6543    -6286    -5918    -5571 
   -5607    -5956    -6266    -6531    -6812    -7030    -7136    -6849 
   -6131    -5572    -5512    -5711    -5964    -6308    -6687    -6878 
   -6906    -6930    -6817    -6517    -6239    -6025    -5790    -5756 
   -6180    -6706    -6860    -6714    -6450    -6176    -5976    -5868 
   -5960    -6084    -5958    -5817    -5942    -6218    -6428    -6426 
   -6336    -6500    -6943    -7271    -7092    -6442    -5779    -5420 
   -5443    -5805    -6146    -6265    -6399    -6536    -6459    -6388 
   -6494    -6512    -6381    -6201    -6026    -6065    -6270    -6328 
   -6257    -6234    -6335    -6552    -6660    -6417    -6107    -6150 
   -6346    -6361    -6323    -6389    -6471    -6442    -6377    -6346 
   -6160    -5960    -6127    -6332    -6200    -6072    -6169    -6203 
   -5948    -5780    -6138    -6567    -6596    -6631    -6841    -6759 
   -6320    -5991    -5896    -5809    -5834    -6196    -6617    -6664 
   -6470    -6343    -6150    -5868    -5859    -6273    -6783    -7020 
   -7060    -6964    -6531    -6038    -5929    -6010    -6058    -6204 
   -6423    -6546    -6490    -6237    -5971    -5880    -5788    -5692 
   -5914    -6226    -6293    -6485    -6876    -6949    -6859    -7063 
   -7071    -6454    -5899    -5894    -5995    -5989    -6219    -6586 
   -6524    -6057    -5709    -5556    -5489    -5614    -5795    -5950 
   -6400    -7076    -7530    -7605    -7215    -6455    -5919    -5875 
   -5892    -5736    -5733    -6065    -6336    -6409    -6624    -6754 
   -6426    -6131    -6197    -6133    -5775    -5578    -5768    -6149 
   -6485    -6848    -7330    -7603    -7393    -6951    -6446    -5722 
   -5069    -5077    -5532    -5827    -6056    -6492    -6893    -7032 
   -6940    -6710    -6592    -6608    -6421    -6060    -5968    -6201 
   -6390    -6363    -6172    -5911    -5800    -5868    -6081    -6523 
   -6729    -6467    -6488    -6795    -6662    -6315    -6146    -5931 
   -5710    -5838    -6297    -6771    -7103    -7009    -6353    -5864 
   -5891    -5827    -5667    -5998    -6658    -6913    -6766    -6812 
   -6770    -6100    -5443    -5555    -6160    -6654    -6933    -7074 
   -6831    -6255    -5910    -5900    -5863    -5822    -5995    -6253 
   -6496    -6745    -6736    -6394    -6011    -5722    -5733    -6110 
   -6303    -6089    -6118    -6690    -7184    -7194    -6864    -6332 
   -5819    -5583    -5698    -6048    -6366    -6551    -6548    -6380 
   -6284    -6196    -5854    -5468    -5460    -5902    -6629    -7322 
   -7491    -7022    -6284    -5653    -5300    -5161    -5383    -6151 
   -6957    -7449    -7746    -7415    -6408    -5680    -5541    -5587 
   -5822    -6234    -6454    -6438    -6454    -6513    -6478    -6442 
   -6551    -6551    -6261    -6096    -5998    -5509    -5157    -5653 
   -6571    -7144    -7279    -7200    -6878    -6372    -6027    -5906 
   -5837    -5960    -6349    -6577    -6523    -6601    -6654    -6242 
   -5844    -6039    -6430    -6534    -6559    -6643    -6563    -6300 
   -6057    -6012    -6151    -6269    -6419    -6678    -6610    -6195 
   -6034    -6088    -5988    -5964    -6261    -6733    -7061    -6994 
   -6712    -6493    -6197    -5761    -5574    -5684    -5676    -5621 
   -5960    -6513    -6592    -6320    -6304    -6097    -5587    -5791 
   -6511    -6751    -6755    -6960    -6997    -6632    -6304    -6295 
   -6268    -6123    -6201    -6392    -6246    -5902    -5818    -5823 
   -5647    -5760    -6392    -6778    -6532    -6386    -6567    -6513 
   -6492    -6812    -6906    -6755    -6713    -6501    -5999    -5670 
   -5675    -5711    -5814    -6203    -6636    -6698    -6447    -6258 
   -6264    -6334    -6357    -6382    -6408    -6239    -6097    -6349 
   -6623    -6586    -6544    -6532    -6366    -6226    -6131    -5968 
   -5850    -5729    -5663    -6011    -6640    -7121    -7350    -7281 
   -6926    -6515    -6053    -5435    -5080    -5290    -5630    -5949 
   -6552    -7145    -7225    -7010    -6802    -6478    -6227    -6245 
   -6135    -5863    -5751    -5783    -5961    -6218    -6380    -6450 
   -6397    -6199    -5975    -6027    -6419    -6656    -6663    -6764 
   -6735    -6512    -6494    -6478    -6030    -5617    -5884    -6426 
   -6573    -6497    -6494    -6262    -5748    -5621    -6081    -6430 
   -6369    -6488    -6944    -7024    -6670    -6535    -6397    -5891 
   -5629    -5967    -6467    -6790    -6785    -6505    -6235    -5952 
   -5656    -5679    -5952    -6216    -6546    -6768    -6554    -6147 
   -5991    -6029    -6019    -6106    -6365    -6444    -6361    -6447 
   -6427    -6120    -6119    -6509    -6642    -6585    -6759    -6714 
   -6153    -5734    -5894    -6318    -6489    -6231    -5935    -5867 
   -5904    -6018    -6178    -6384    -6733    -7088    -7169    -6843 
   -6280    -5911    -5856    -5898    -5969    -6096    -6241    -6295 
   -6307    -6419    -6442    -6399    -6643    -6937    -6840    -6535 
   -6259    -5863    -5501    -5618    -5950    -6069    -6255    -6632 
   -6745    -6505    -6342    -6312    -6158    -6100    -6377    -6667 
   -6801    -6901    -6860    -6605    -6166    -5655    -5394    -5445 
   -5656    -6043    -6421    -6505    -6588    -6841    -6777    -6486 
   -6450    -6400    -6139    -5953    -5927    -5894    -5865    -6174 
   -6632    -6700    -6724    -6999    -6878    -6307    -5921    -5751 
   -5667    -5898    -6451    -6912    -7028    -6956    -6724    -6192 
   -5586    -5394    -5629    -5856    -6126    -6691    -7149    -7087 
   -6752    -6490    -6326    -6220    -6223    -6269    -6211    -6157 
   -6289    -6318    -5987    -5699    -5644    -5640    -5979    -6663 
   -6961    -6790    -6717    -6751    -6651    -6431    -6134    -5907 
   -5937    -6151    -6386    -6654    -6839    -6571    -5977    -5746 
   -6014    -6246    -6176    -6000    -6124    -6547    -6696    -6613 
   -6650    -6285    -5540    -5551    -6176    -6255    -6176    -6714 
   -7082    -6771    -6497    -6361    -5962    -5668    -5834    -6092 
   -6100    -6108    -6416    -6822    -6979    -6814    -6492    -6188 
   -5965    -5861    -5829    -5787    -5853    -6104    -6442    -6727 
   -6863    -6779    -6335    -5617    -5319    -5884    -6592    -6783 
   -6774    -6786    -6728    -6633    -6454    -6178    -5988    -6016 
   -6246    -6507    -6633    -6474    -5918    -5385    -5394    -5637 
   -5887    -6551    -7221    -7121    -6766    -6736    -6615    -6265 
   -6021    -6033    -6378    -6941    -7272    -6999    -6257    -5524 
   -5013    -4762    -5040    -5725    -6319    -6914    -7481    -7515 
   -7210    -6967    -6474    -5691    -5255    -5374    -5586    -5805 
   -6307    -6679    -6505    -6434    -6733    -6592    -6079    -6058 
   -6268    -6257    -6569    -7260    -7531    -7118    -6439    -5865 
   -5613    -5684    -5795    -5852    -6054    -6399    -6610    -6443 
   -6061    -5911    -6022    -6166    -6407    -6737    -6906    -6913 
   -6898    -6581    -5915    -5702    -6138    -6486    -6585    -6559 
   -6268    -6102    -6331    -6255    -5606    -5281    -5713    -6334 
   -6779    -7067    -7119    -6957    -6689    -6281    -5863    -5670 
   -5749    -6031    -6193    -6052    -6042    -6342    -6534    -6453 
   -6377    -6550    -6824    -6748    -6249    -5883    -5931    -6054 
   -6172    -6516    -6890    -6929    -6663    -6270    -5899    -5740 
   -5726    -5767    -6185    -6849    -7034    -6756    -6351    -5711 
   -5204    -5417    -6073    -6620    -6940    -6975    -6825    -6760 
   -6517    -5890    -5548    -5841    -6276    -6602    -6841    -6798 
   -6480    -6196    -5948    -5621    -5606    -5981    -6139    -6076 
   -6328    -6786    -6916    -6628    -6313    -6324    -6555    -6625 
   -6486    -6335    -6145    -5996    -6178    -6531    -6682    -6755 
   -6794    -6455    -5833    -5501    -5645    -5867    -5999    -6380 
   -6891    -7042    -6852    -6629    -6494    -6318    -6066    -5946 
   -5863    -5665    -5692    -6111    -6486    -6413    -6180    -6346 
   -6758    -6916    -6835    -6538    -5953    -5541    -5624    -5753 
   -5779    -6203    -6812    -6868    -6610    -6519    -6262    -5703 
   -5391    -5678    -6265    -6708    -6995    -7191    -6975    -6392 
   -6023    -5826    -5422    -5331    -5965    -6570    -6806    -7155 
   -7326    -6982    -6648    -6450    -5969    -5432    -5421    -5772 
   -6019    -6226    -6378    -6438    -6577    -6602    -6411    -6258 
   -6245    -6463    -6876    -7095    -6920    -6629    -6451    -6180 
   -5721    -5424    -5536    -5962    -6392    -6627    -6818    -6870 
   -6505    -5969    -5606    -5675    -6292    -6897    -7144    -7365 
   -7283    -6458    -5659    -5518    -5479    -5323    -5548    -6141 
   -6646    -6852    -6812    -6540    -5999    -5503    -5427    -5730 
   -6342    -7084    -7445    -7257    -6933    -6689    -6257    -5661 
   -5497    -5857    -6180    -6420    -6820    -6933    -6346    -5659 
   -5470    -5429    -5283    -5341    -5699    -6102    -6355    -6482 
   -6559    -6629    -6818    -7051    -7020    -6741    -6370    -5863 
   -5555    -5809    -6280    -6713    -7192    -7337    -6858    -6138 
   -5578    -5340    -5269    -5370    -6138    -7092    -7187    -6910 
   -7024    -6856    -6099    -5698    -5922    -6072    -6012    -6257 
   -6843    -7165    -7083    -6831    -6205    -5576    -5864    -6646 
   -6832    -6600    -6525    -6465    -6169    -5718    -5529    -5852 
   -6142    -6130    -6442    -7028    -7128    -6763    -6311    -5958 
   -6072    -6486    -6451    -6197    -6523    -6964    -6721    -6412 
   -6798    -7213    -7007    -6826    -6849    -6357    -5722    -5751 
   -6002    -5859    -5670    -5772    -5745    -5400    -5202    -5173 
   -4961    -4889    -5420    -6170    -6721    -7234    -7526    -7233 
   -6841    -6786    -6723    -6601    -6654    -6548    -5945    -5139 
   -4456    -3955    -3811    -4060    -4626    -5603    -6679    -7184 
   -7074    -6979    -7215    -7366    -7277    -7435    -7825    -7804 
   -7252    -6635    -5891    -4691    -3832    -4143    -4812    -5184 
   -5782    -6577    -7155    -7686    -8086    -8041    -7912    -8071 
   -8218    -8121    -7780    -6875    -5553    -4602    -4172    -3971 
   -4182    -5011    -6180    -7480    -8776    -9289    -8629    -7716 
   -7179    -6781    -6592    -6767    -7005    -7038    -6870    -6463 
   -5697    -4650    -3788    -3609    -4013    -4668    -5643    -6664 
   -7287    -7646    -7631    -7182    -7095    -7659    -8278    -8614 
   -8469    -7558    -6049    -4488    -3280    -2633    -2695    -3547 
   -4981    -6326    -7064    -7327    -7362    -7322    -7361    -7369 
   -7125    -6735    -6606    -6841    -6895    -6494    -5975    -5516 
   -5174    -5088    -5134    -4842    -4056    -3450    -3659    -4684 
   -6498    -8638    -9872    -9803    -9263    -8465    -6982    -5352 
   -4442    -4264    -4773    -6011    -7435    -8259    -7996    -6791 
   -5273    -3979    -3327    -3507    -4136    -4815    -5883    -7588 
   -9181    -9969   -10319   -10625   -10446    -9594    -8590    -7400 
   -5811    -4546    -3947    -3376    -2897    -2937    -3167    -3762 
   -5377    -7387    -8552    -8553    -7676    -6397    -5429    -5193 
   -5628    -6579    -7875    -9158    -9945    -9778    -8488    -6554 
   -4599    -3095    -2767    -3777    -4976    -5374    -5324    -5242 
   -4895    -4482    -4557    -5367    -6893    -8654    -9945   -10150 
   -9020    -7317    -6115    -5522    -5220    -5348    -6046    -6886 
   -7287    -7003    -6142    -5131    -4351    -4044    -4565    -5717 
   -6633    -7020    -7057    -6478    -5514    -5270    -5736    -5968 
   -6077    -6426    -6704    -6872    -6951    -6655    -6153    -6014 
   -6502    -7360    -8029    -7935    -6936    -5676    -4716    -4067 
   -4272    -5913    -7859    -8611    -8626    -8676    -7858    -5729 
   -3747    -2944    -2940    -3715    -5478    -7275    -8083    -8013 
   -7682    -7550    -7666    -7852    -7844    -7362    -6646    -6203 
   -5891    -5340    -4711    -4259    -4113    -4426    -5105    -5859 
   -6498    -7026    -7461    -7492    -6999    -6590    -6581    -6442 
   -6004    -5807    -6054    -6362    -6354    -6015    -5621    -5368 
   -5209    -4899    -4341    -4116    -4820    -5942    -6390    -5810 
   -4868    -4305    -4328    -5007    -6420    -8406   -10369   -11696 
  -12224   -11557    -9115    -5398    -1992        9      442    -1146 
   -4571    -7711    -8888    -8757    -8490    -7817    -6370    -5490 
   -6207    -7419    -8278    -9008    -8873    -7034    -4519    -2856 
   -2336    -2944    -5008    -7915   -10007   -10291    -9120    -7245 
   -5242    -3942    -3910    -4622    -5310    -6026    -7061    -8091 
   -8652    -8546    -7836    -7020    -6403    -5854    -5387    -4986 
   -4641    -4698    -5359    -6415    -7591    -8451    -8446    -7512 
   -6224    -5439    -5674    -6556    -7222    -7317    -7148    -6847 
   -6212    -5397    -4866    -5065    -6282    -8000    -9096    -9201 
   -8522    -7026    -4982    -3389    -3114    -4021    -5544    -7209 
   -8306    -8500    -8164    -7338    -5968    -4945    -4729    -4716 
   -5188    -6592    -7912    -8209    -7690    -6876    -5980    -5121 
   -4552    -4279    -4499    -5733    -7565    -9028    -9995   -10138 
   -8492    -5626    -3175    -1483     -608    -1367    -3817    -7072 
  -10249   -12253   -12016    -9526    -6072    -3424    -2497    -2911 
   -4182    -6295    -8347    -8707    -7353    -5563    -4198    -3738 
   -4203    -5189    -6316    -7156    -7242    -6475    -5688    -5763 
   -6590    -7855    -9042    -9467    -9084    -7794    -5275    -2122 
    -137     -793    -3343    -5915    -7518    -7881    -7404    -6975 
   -6910    -7099    -7647    -8340    -8444    -7817    -6934    -5683 
   -3835    -2343    -2323    -3469    -4953    -6574    -8023    -8537 
   -7931    -6709    -5547    -5205    -5717    -6424    -7155    -7805 
   -7942    -7395    -6415    -5394    -4706    -4810    -5825    -7123 
   -8117    -8675    -8388    -6727    -4243    -2629    -2987    -4533 
   -5998    -7479    -8991    -9235    -7846    -6327    -5880    -6439 
   -7149    -7122    -6791    -6866    -6813    -6378    -5881    -5274 
   -5011    -5811    -7082    -7356    -6521    -5867    -5772    -5742 
   -6019    -6983    -7993    -8212    -7927    -7568    -6635    -5341 
   -4939    -5347    -5444    -5327    -5575    -6031    -6660    -7472 
   -7879    -7507    -6758    -6274    -6173    -5921    -5140    -4275 
   -4089    -4745    -5817    -7091    -8445    -9177    -8908    -8398 
   -7877    -6354    -4028    -2744    -3046    -3882    -4961    -6550 
   -8043    -8845    -9316    -9362    -8244    -6535    -5395    -4685 
   -3952    -3404    -3339    -3902    -4963    -6176    -7576    -9040 
   -9796    -9632    -9158    -8552    -7334    -5436    -3782    -3061 
   -2724    -2511    -3203    -4865    -6450    -7268    -7352    -6868 
   -6008    -5483    -6015    -6921    -7169    -7236    -7699    -8191 
   -8811    -9636    -9589    -8160    -6389    -5088    -4014    -2926 
   -2277    -2574    -3584    -4946    -6890    -9251   -10732   -10382 
   -9103    -8322    -7885    -7059    -6351    -6281    -6327    -6295 
   -6357    -6266    -6231    -6459    -6116    -4927    -3994    -4052 
   -4465    -4437    -4336    -4999    -6277    -7318    -7770    -7859 
   -7884    -7834    -7470    -7024    -6768    -6247    -5082    -4006 
   -4091    -5004    -5674    -6035    -6185    -5846    -5495    -5630 
   -5562    -4681    -3933    -4799    -7146    -9242    -9883    -9356 
   -8433    -7231    -5478    -3823    -3379    -3906    -4476    -5193 
   -6451    -7534    -7607    -7005    -6270    -5738    -6281    -7609 
   -7966    -7584    -7989    -8557    -8212    -7487    -6860    -6232 
   -5745    -5340    -4885    -4912    -5460    -5540    -4945    -4557 
   -4931    -5987    -7334    -8301    -8453    -8487    -8999    -9011 
   -7878    -6463    -5220    -4079    -3699    -4348    -5161    -5613 
   -5930    -5950    -5341    -4649    -4565    -4899    -5204    -5429 
   -6052    -7526    -9232   -10025    -9556    -8302    -6934    -5917 
   -4953    -3596    -2895    -4090    -6146    -7173    -6912    -6448 
   -6475    -6682    -6700    -6504    -5950    -5271    -5456    -6778 
   -8033    -8402    -8553    -8883    -8563    -7325    -6149    -5292 
   -3871    -2431    -2745    -4522    -6273    -7734    -8110    -6515 
   -4854    -5107    -6312    -7445    -8762    -9714    -9740    -9190 
   -7735    -5336    -3597    -3423    -3935    -4710    -6004    -6957 
   -6467    -4715    -2739    -1976    -3152    -5239    -6997    -8444 
   -9815   -10454    -9729    -8167    -6724    -5751    -5254    -5009 
   -4606    -4198    -4468    -5405    -5956    -5674    -5549    -5998 
   -6332    -6694    -7578    -8610    -9404    -9796    -9423    -8144 
   -6250    -4108    -2334    -1813    -2628    -4126    -5937    -7500 
   -8208    -8140    -7306    -5846    -4896    -5171    -5962    -6524 
   -6851    -7067    -7118    -7024    -6997    -7395    -8085    -8090 
   -6926    -5289    -3877    -2889    -2687    -3762    -5614    -7114 
   -8167    -9107    -9247    -8136    -6833    -6119    -5498    -5320 
   -6835    -8955    -9117    -7645    -6210    -4500    -2592    -2111 
   -3415    -5204    -6646    -7734    -8135    -7327    -5940    -5460 
   -6309    -7385    -7744    -7834    -8316    -8621    -8089    -7121 
   -6006    -4666    -3889    -4268    -4712    -4611    -4818    -4984 
   -4286    -4004    -5391    -7346    -8654    -9672   -10457   -10150 
   -9143    -8669    -8299    -6766    -4569    -3410    -3503    -3828 
   -4288    -5228    -6324    -7037    -7373    -8002    -8622    -7912 
   -6340    -5467    -5117    -4614    -4396    -4725    -5246    -5917 
   -6471    -6193    -5647    -6230    -7686    -8565    -8383    -7508 
   -6014    -4232    -3211    -3258    -3554    -4167    -6096    -8587 
   -9882    -9973    -9202    -6945    -3848    -2039    -2489    -4290 
   -5998    -6813    -6735    -6189    -5837    -6081    -6737    -7638 
   -8841   -10049   -10482    -9525    -7434    -5215    -3732    -3241 
