Origin Time       2024/04/02 04:24:00
Lat.              40.133
Long.             141.712
Depth. (km)       71
Mag.              6.0
Station Code      IBRH16
Station Lat.      36.6405
Station Long.     140.3976
Station Height(m) 90
Record Time       2024/04/02 04:25:31
Sampling Freq(Hz) 100Hz
Duration Time(s)  122
Dir.              5
Scale Factor      7845(gal)/8223790
Max. Acc. (gal)   6.084
Last Correction   2024/04/02 04:25:31
Memo.             
[...]
    7711     8168     8109     7815     7484     7074     6766     6667 
    6609     6612     6724     6820     6933     7136     7344     7565 
    7794     7807     7491     7069     6713     6442     6365     6400 
    6339     6396     6825     7402     7889     8332     8618     8514 
    8085     7560     7134     6944     6909     6864     6812     6801 
    6870     7065     7254     7281     7358     7554     7519     7227 
    6980     6895     6909     6917     6934     7048     7265     7538 
    7771     7875     7777     7439     6998     6701     6700     6867 
    6984     7113     7329     7476     7547     7639     7668     7547 
    7225     6787     6534     6531     6575     6616     6693     6794 
    7017     7369     7657     7813     7877     7807     7601     7283 
    6906     6646     6608     6651     6651     6723     6882     6979 
    7072     7219     7333     7453     7550     7510     7407     7253 
    7060     7057     7169     7146     7133     7244     7311     7348 
    7375     7219     6983     6980     7155     7240     7253     7346 
    7457     7410     7161     6878     6779     6853     7041     7302 
    7406     7258     7079     6995     6987     7109     7334     7415 
    7284     7175     7159     7086     6920     6833     6941     7138 
    7261     7250     7191     7244     7422     7523     7391     7167 
    7149     7326     7354     7233     7210     7165     7048     7096 
    7144     6917     6682     6764     7111     7484     7627     7553 
    7481     7380     7114     6797     6644     6752     7074     7472 
    7758     7809     7685     7468     7277     7177     7067     7052 
    7231     7307     7130     6828     6583     6677     7148     7615 
    7677     7393     7111     6968     6983     7057     6949     6777 
    6836     7020     7161     7387     7689     7852     7821     7614 
    7246     6922     6832     6934     7034     6941     6718     6604 
    6620     6656     6755     7024     7393     7662     7774     7715 
    7460     7296     7399     7480     7312     7028     6883     6918 
    7005     7137     7315     7469     7562     7623     7690     7701 
    7537     7190     6756     6377     6288     6679     7314     7628 
    7501     7381     7506     7717     7835     7781     7518     7092 
    6766     6687     6702     6789     6995     7173     7163     7038 
    7169     7584     7792     7638     7302     6932     6713     6751 
    6924     6953     6767     6686     6956     7427     7807     7981 
    7948     7670     7285     6991     6768     6678     6787     6940 
    7040     7074     7060     7083     7094     7005     6874     6696 
    6469     6462     6852     7345     7572     7422     7020     6772 
    6944     7267     7468     7526     7446     7326     7298     7333 
    7381     7419     7429     7480     7576     7523     7215     6820 
    6578     6512     6524     6694     7122     7616     7848     7813 
    7731     7624     7422     7172     6964     6810     6690     6624 
    6605     6666     6955     7450     7982     8374     8410     8014 
    7333     6639     6183     6081     6312     6670     6974     7141 
    7160     7267     7654     8078     8225     8050     7712     7391 
    7026     6648     6486     6517     6702     7084     7435     7566 
    7577     7593     7593     7429     7145     6905     6739     6690 
    6706     6621     6440     6365     6664     7306     7866     8136 
    8202     8004     7547     7096     6779     6623     6791     7186 
    7339     7161     7047     7183     7414     7550     7488     7284 
    7084     6941     6851     6822     6890     7101     7299     7310 
    7295     7356     7388     7431     7460     7319     7111     7033 
    7053     7060     7059     7118     7168     7105     7057     7155 
    7304     7360     7348     7357     7227     6990     6984     7153 
    7291     7395     7358     7165     6999     6987     7072     7074 
    7087     7234     7268     7096     6959     7021     7209     7311 
    7330     7344     7231     7047     7034     7261     7549     7526 
    7115     6756     6735     6943     7167     7229     7084     6939 
    7056     7348     7547     7674     7696     7488     7213     6972 
    6750     6721     6909     7044     7005     6963     7145     7549 
    7929     7921     7419     6825     6505     6470     6617     6772 
    6940     7242     7493     7499     7447     7560     7724     7797 
    7825     7678     7194     6617     6330     6384     6566     6739 
    6964     7292     7582     7655     7504     7314     7271     7383 
    7453     7326     7153     7165     7275     7273     7190     7088 
    7018     7187     7581     7878     7943     7817     7508     7092 
    6678     6345     6220     6397     6697     6894     7036     7219 
    7453     7792     8068     7936     7557     7290     7094     6940 
    6686     6187     5917     6133     6444     6797     7415     8073 
    8316     8055     7560     7128     6939     6959     7018     7107 
    7281     7403     7383     7348     7373     7408     7447     7530 
    7512     7227     6862     6636     6559     6632     6747     6817 
    7001     7358     7686     7827     7749     7458     7117     6978 
    7029     7113     7261     7404     7310     7003     6745     6731 
    7009     7403     7669     7700     7476     7152     6994     7047 
    7164     7217     7226     7268     7300     7350     7512     7681 
    7717     7541     7180     6899     6797     6801     6910     6897 
    6648     6515     6750     7249     7757     8046     8075     7981 
    7897     7759     7388     6855     6528     6498     6532     6710 
    7113     7406     7466     7492     7560     7572     7497     7406 
    7179     6694     6234     6131     6380     6845     7365     7749 
    7997     8109     8006     7659     7034     6411     6150     6158 
    6300     6521     6764     7099     7400     7578     7798     8073 
    8376     8479     7960     7047     6278     5755     5494     5697 
    6264     6644     6673     6712     6772     6779     7064     7503 
    7709     7871     8016     7917     7774     7619     7241     6840 
    6597     6417     6311     6259     6224     6303     6512     6856 
    7462     8128     8391     8248     7932     7468     6934     6590 
    6605     6905     7438     8031     8307     8364     8414     8272 
    7888     7345     6745     6312     6095     6019     6102     6386 
    7015     8014     9062     9749    10026    10011     9539     8409 
    6833     5370     4442     4132     4459     5229     6031     6763 
    7523     8365     9140     9551     9589     9200     8221     7041 
    6076     5362     5036     5131     5478     6027     6787     7786 
    8827     9360     9062     8226     7325     6504     5807     5432 
    5414     5626     6103     6879     7730     8472     9120     9475 
    9163     8264     7187     6158     5336     4914     4993     5567 
    6448     7426     8407     9078     9186     8932     8414     7484 
    6332     5518     5258     5293     5587     6185     6875     7596 
    8266     8526     8290     7846     7381     6974     6636     6218 
    5751     5514     5643     6131     6824     7580     8595     9709 
   10031     9221     7975     6859     5971     5441     5336     5521 
    5930     6701     7875     9053     9699     9714     9470     9153 
    8538     7650     6804     6199     5887     5713     5678     6064 
    6785     7464     7985     8392     8617     8460     7927     7269 
    6531     5638     4874     4704     5306     6342     7308     8004 
    8291     8106     7804     7601     7279     6940     6867     6798 
    6324     5614     5205     5293     5945     7148     8262     8851 
    9053     8777     8062     7253     6646     6423     6372     6161 
    5853     5641     5695     6196     6976     7574     7894     8275 
    8723     8893     8604     7774     6627     5772     5594     6079 
    6805     7384     7974     8476     8594     8575     8473     8052 
    7439     6863     6498     6447     6577     6768     6970     7080 
    7065     6907     6793     7033     7372     7462     7400     7209 
    7057     7244     7659     7989     7950     7587     7059     6322 
    5656     5552     6039     6771     7472     8039     8202     7966 
    7928     8159     8064     7441     6378     5196     4537     4487 
    4639     5078     6019     7303     8591     9428     9632     9562 
    9387     8851     8021     7175     6328     5707     5543     5497 
    5506     6114     7298     8361     8969     9099     8667     7942 
    7335     6859     6558     6704     7225     7676     7697     7245 
    6849     7186     7992     8519     8869     9327     9302     8507 
    7634     7172     7218     7665     7985     7862     7369     6535 
    5567     4968     5017     5541     6328     7145     7672     8185 
    9016     9589     9474     9028     8293     7163     6269     6052 
    6161     6303     6478     6837     7518     8391     9309    10008 
    9975     9080     7677     6180     4957     4272     4230     4699 
    5424     6388     7619     8838     9551     9494     8923     8171 
    7227     6164     5454     5336     5610     6151     6880     7582 
    7965     7759     7060     6301     5714     5131     4542     4441 
    5108     6145     6971     7242     7152     7292     7843     8415 
    8638     8351     7466     6203     5103     4522     4510     4914 
    5559     6532     7743     8762     9355     9279     8411     7319 
    6552     6004     5617     5660     6079     6532     6987     7469 
    7894     8367     8912     9327     9404     8872     7576     5760 
    4126     3581     4504     6403     8336     9497     9737     9410 
    8789     8263     8077     7726     7009     6377     5887     5520 
    5460     5717     6197     6686     7122     7630     8062     8321 
    8533     8703     8667     8228     7551     7171     7311     7589 
    7456     6848     6358     6257     6184     6183     6619     7402 
    8190     8861     9543    10003     9593     8299     6871     5725 
    4720     4162     4621     5713     6716     7578     8395     9108 
    9695     9998     9767     9175     8561     7659     6353     5228 
    4383     3582     3449     4600     6619     8637     9956    10455 
   10546    10185     8977     7311     6072     5358     4707     4305 
    4560     5321     6394     7722     9115    10138    10388    10007 
    9111     7462     5502     4311     4356     5221     6390     7407 
    7865     8086     8592     8966     8706     8077     7364     6598 
    5960     5796     6216     6887     7470     7959     8419     8743 
    8746     8364     7720     6853     5717     4739     4526     5038 
    6039     7570     9243    10208    10052     9078     8128     7782 
    7435     6579     6022     6180     6419     6509     6663     6909 
    7217     7398     7322     7276     7241     6741     5961     5760 
    6477     7596     8506     8931     8684     7642     6060     4545 
    3796     4060     4969     6049     7006     7819     8606     9171 
    9215     8683     7661     6393     5275     4683     4598     4658 
    4781     5196     6231     7870     9328     9909     9720     9161 
    8163     6440     4483     3289     3252     4044     5256     6651 
    7917     8800     9373     9842    10085     9574     8243     6565 
    4973     4136     4430     5347     6421     7469     8145     8283 
    8351     8945     9579     9217     7974     6687     5782     5609 
    6335     7188     7484     7647     7925     7939     7866     8104 
    8371     8203     7518     6727     6497     6885     7422     8058 
    8676     8606     7947     7654     7812     7997     8239     8311 
    7669     6323     5070     4780     5637     7102     8278     8572 
    8137     7565     7300     7138     6608     5969     5832     6176 
    6756     7688     8883     9613     9362     8457     7395     6687 
    6890     7469     7284     6527     6151     6170     5972     5510 
    5454     6242     7557     8988    10268    10868    10480     9486 
    8557     7847     6889     5849     5466     5475     5265     5081 
    5250     5532     5760     6386     7842     9678    10875    10729 
    9354     7443     5813     5080     5097     5173     5243     5767 
    6579     7233     7966     9055     9958    10085     9467     8310 
    6970     5906     5031     4027     3161     2918     3343     4345 
    5877     7670     9436    10855    11388    10752     9115     7002 
    5188     4179     3924     4199     5039     6417     7916     9289 
   10366    10467     9418     8002     6851     6361     6542     6691 
    6405     5811     5167     5059     5779     6975     8390     9653 
    9834     8621     7057     5952     5209     5086     5796     6723 
    7550     8260     8449     8052     7485     6928     6392     6099 
    6281     7111     8527     9571     9433     8490     7225     6118 
    5794     5899     5597     5063     5055     5656     6604     7850 
    9256    10604    11450    11132     9772     8133     6536     5105 
    4112     3686     3851     4573     5791     7453     9220    10600 
   11371    11605    11268     9859     7403     5151     3944     3430 
    3334     3746     4444     5108     5999     7705    10153    12447 
   13560    13016    11045     8224     5275     2952     1709     1590 
    2513     4476     7129     9663    11344    11691    10881     9656 
    8206     6559     5395     5090     5221     5306     5340     5628 
    5976     6195     7153     9143    10593    10428     9242     7578 
    5667     4187     3771     4352     5402     6613     7753     8222 
    7921     7612     7722     7973     8143     8262     8239     7901 
    7276     6623     6220     6016     5842     5800     6027     6551 
    7508     8972    10291    10467     9566     8530     7835     7381 
    6986     6427     5714     5433     6034     6990     7555     7823 
    8159     8480     8519     8054     7173     6315     5607     4954 
    4584     4700     5157     5890     7057     8615    10116    10932 
   10747     9755     8168     6038     3905     2876     3214     3883 
    4365     5227     6567     7805     8820     9768    10385    10388 
    9786     8599     7064     5613     4526     4183     4903     6401 
    8232     9863    10544    10308     9937     9576     8741     7352 
    5960     5119     4947     5323     5960     6377     6642     7242 
    8048     8669     9001     9034     8704     7842     6612     5347 
    4214     3688     4195     5562     7252     8658     9602    10149 
    9980     8823     7051     5467     4526     4072     4126     4976 
    6238     7237     7898     8236     8218     8172     8208     8222 
    8178     7753     7034     6590     6246     5759     5575     5795 
    6153     6575     7005     7495     7935     7960     7699     7533 
    7429     7295     7314     7443     7314     6913     6478     6050 
    5807     5960     6447     7075     7600     7888     8067     8426 
    8934     9059     8480     7430     6427     6025     6303     6961 
    7857     8654     8910     8860     8931     8866     8386     7758 
    7118     6342     5579     5247     5668     6735     7893     8880 
    9787    10264     9828     8554     6860     5358     4487     4182 
    4436     5227     6134     6829     7207     7345     7520     7771 
    7916     7782     7171     6231     5521     5445     6072     7103 
    7952     8356     8633     8884     8928     9047     9347     9192 
    8298     6995     5437     3974     3264     3342     3939     5157 
    6890     8600     9791    10251    10227     9969     9084     7422 
    5965     5564     5730     5771     5926     6492     7157     7688 
    8070     8152     7974     7913     8110     8171     7662     6774 
    6192     6254     6575     6713     6814     7161     7611     7769 
    7412     6808     6323     6120     6253     6502     6725     7149 
    7846     8596     9239     9437     8723     7375     6269     5742 
    5697     6069     6539     6679     6516     6527     7003     7492 
    7615     7716     7785     7519     7318     7446     7623     7720 
    7558     7129     6760     6493     6300     6205     6038     5868 
    5930     6241     6837     7759     8673     9136     9132     8741 
    7973     7146     6496     6091     6127     6426     6678     7029 
    7449     7769     8104     8444     8733     8874     8476     7464 
    6282     5449     5304     5832     6775     7663     8113     8293 
    8399     8461     8556     8507     8054     7245     6484     6066 
    5879     5925     6199     6315     6172     6014     6010     6133 
    6091     5994     6220     6600     6979     7562     8235     8507 
    8081     7335     6903     6853     6875     6910     6994     6870 
    6435     6297     7102     8472     9427     9397     8542     7562 
    6893     6620     6890     7358     7361     6890     6593     6859 
    7288     7453     7346     7141     7095     7125     7014     6801 
    6377     5832     5620     5802     6254     7084     8148     8876 
    8880     8456     8127     7929     7596     7048     6654     6801 
    7221     7388     7281     7253     7354     7231     6793     6358 
    6251     6562     7119     7715     8048     7704     6853     6210 
    6045     6189     6563     7118     7715     8197     8367     8025 
    7366     6937     6940     7202     7582     7933     8079     7807 
    7129     6660     6767     7002     7126     7412     7823     7962 
    7673     7275     7204     7335     7191     6901     6790     6655 
    6434     6440     6716     7086     7462     7835     8328     8739 
    8428     7388     6307     5528     5113     5177     5616     6166 
    6768     7442     8078     8572     8822     8881     8829     8452 
    7851     7271     6583     6023     6033     6273     6261     6328 
    6864     7450     7537     7215     6817     6388     5799     5232 
    5260     6050     6934     7371     7530     7722     8033     8347 
    8511     8580     8533     8050     7103     6358     6313     6602 
    6921     7438     7882     7869     7627     7431     7312     7314 
    7399     7445     7404     7227     6995     6940     6974     6955 
    7118     7429     7565     7661     8016     8424     8483     8224 
    7913     7553     6970     6130     5350     5067     5152     5239 
    5530     6189     6972     7809     8517     8783     8708     8467 
    7962     7109     6215     5764     5759     5848     6046     6752 
    8000     9254    10158    10655    10535     9625     8164     6625 
    5364     4553     4195     4376     5227     6477     7776     9032 
   10034    10542    10500     9857     8650     7047     5404     4264 
    3906     4252     5267     6956     8896    10307    10832    10674 
    9967     8515     6407     4394     3114     2751     3314     4465 
    5902     7493     8896     9931    10449    10184     9352     8118 
    6299     4405     3294     3130     3765     5161     7121     9093 
   10328    10608    10419     9981     9078     7728     6188     4758 
