Origin Time       2024/04/02 04:24:00
Lat.              40.133
Long.             141.712
Depth. (km)       71
Mag.              6.0
Station Code      IBUH06
Station Lat.      42.4116
Station Long.     141.0017
Station Height(m) 400
Record Time       2024/04/02 04:25:15
Sampling Freq(Hz) 100Hz
Duration Time(s)  120
Dir.              5
Scale Factor      7845(gal)/8223790
Max. Acc. (gal)   8.874
Last Correction   2024/04/02 04:25:15
Memo.             
[...]
    2883     3025     3045     2947     2947     3082     3171     3177 
    3222     3316     3318     3153     2929     2828     2864     2876 
    2806     2663     2436     2336     2570     2992     3379     3662 
    3846     3985     4178     4465     4764     4866     4584     3955 
    3203     2562     2220     2195     2292     2378     2469     2552 
    2578     2488     2273     2084     2049     2134     2359     2766 
    3183     3406     3492     3667     4066     4656     5240     5482 
    5235     4695     4050     3468     3088     2732     2199     1584 
    1038      660      506      576      904     1505     2257     2959 
    3468     3738     3828     3890     3989     4058     4059     3997 
    3896     3893     4114     4421     4591     4596     4448     4122 
    3788     3582     3437     3345     3277     3102     2848     2546 
    2135     1792     1749     1941     2182     2374     2484     2552 
    2631     2739     2898     3140     3443     3672     3674     3485 
    3235     3053     3080     3295     3491     3531     3410     3231 
    3144     3187     3316     3446     3422     3221     3003     2855 
    2783     2830     2957     3037     3079     3217     3364     3288 
    3019     2766     2662     2775     3051     3304     3393     3225 
    2843     2438     2115     1971     2108     2351     2519     2766 
    3223     3769     4245     4531     4558     4333     3960     3677 
    3643     3761     3819     3704     3388     2899     2367     1958 
    1795     1918     2223     2583     3017     3526     3915     4018 
    3866     3491     3006     2729     2840     3157     3370     3333 
    3164     2982     2683     2261     1965     1937     2081     2251 
    2419     2633     2810     2836     2790     2839     3094     3564 
    4114     4504     4525     4195     3777     3493     3412     3497 
    3650     3757     3759     3657     3442     3129     2835     2658 
    2609     2663     2700     2516     2103     1648     1294     1179 
    1421     1919     2484     3009     3460     3935     4453     4770 
    4766     4583     4330     4082     3858     3577     3226     2876 
    2524     2158     1845     1701     1834     2242     2735     3127 
    3406     3642     3858     3977     3923     3717     3465     3330 
    3400     3576     3785     4041     4199     4018     3500     2936 
    2647     2713     2875     2806     2458     2022     1725     1746 
    2074     2505     2818     2852     2593     2187     1826     1707 
    1857     2145     2567     3204     3973     4653     5022     4966 
    4662     4388     4193     4064     4021     3913     3577     3075 
    2573     2191     1925     1856     2193     2860     3558     4179 
    4631     4725     4448     3960     3446     3033     2747     2538 
    2272     1927     1684     1584     1490     1378     1258     1113 
    1140     1574     2365     3275     4012     4291     4117     3828 
    3720     3886     4305     4835     5314     5570     5401     4909 
    4392     3862     3288     2907     2822     2867     2801     2435 
    1821     1182      665      449      622      989     1480     2195 
    2978     3618     4151     4595     4826     4769     4422     3946 
    3619     3496     3439     3322     3068     2756     2525     2469 
    2679     3100     3553     3954     4190     4109     3731     3268 
    2978     2951     3056     3187     3312     3331     3267     3203 
    3013     2641     2255     1903     1590     1520     1775     2081 
    2205     2236     2316     2454     2633     2849     3090     3388 
    3811     4283     4550     4477     4199     3929     3858     4024 
    4220     4301     4253     3990     3530     3091     2871     2871 
    2840     2539     2133     1969     2145     2511     2897     3132 
    3046     2714     2466     2523     2872     3392     3855     4091 
    4087     3850     3532     3337     3187     2995     2836     2713 
    2625     2556     2405     2219     2153     2286     2627     3038 
    3349     3511     3516     3483     3582     3701     3666     3543 
    3414     3335     3337     3281     3130     2975     2778     2555 
    2442     2461     2547     2643     2733     2836     2917     2932 
    2903     2880     2883     2978     3237     3589     3863     3975 
    3931     3762     3576     3468     3439     3478     3497     3288 
    2825     2371     2173     2231     2390     2519     2579     2528 
    2263     1840     1564     1683     2169     2870     3595     4152 
    4500     4750     5001     5335     5756     6022     5877     5269 
    4287     3206     2353     1829     1505     1204      891      695 
     699      850     1092     1406     1768     2069     2172     2170 
    2347     2795     3385     3997     4598     5177     5605     5802 
    5892     5888     5670     5287     4858     4357     3688     2895 
    2238     1930     1910     2072     2350     2536     2442     2124 
    1696     1237      904      792      908     1277     1842     2440 
    2876     3110     3326     3636     3963     4314     4681     4847 
    4688     4338     3982     3717     3581     3545     3487     3385 
    3399     3530     3588     3515     3456     3511     3620     3696 
    3717     3657     3483     3211     2883     2504     2073     1633 
    1219      866      692      764      970     1181     1422     1787 
    2280     2898     3611     4229     4664     5055     5354     5363 
    5182     4997     4847     4722     4571     4322     3897     3258 
    2527     1842     1258      962     1154     1703     2327     2866 
    3207     3352     3426     3426     3238     2883     2579     2586 
    2890     3187     3271     3229     3217     3242     3298     3388 
    3437     3437     3430     3349     3141     2847     2551     2332 
    2204     2224     2513     3060     3692     4218     4477     4422 
    4197     3958     3694     3447     3407     3586     3726     3584 
    3126     2528     2100     2053     2289     2528     2613     2656 
    2776     2853     2791     2727     2740     2741     2700     2641 
    2577     2602     2821     3181     3504     3657     3663     3584 
    3470     3450     3615     3924     4183     4176     3924     3585 
    3180     2681     2212     1892     1717     1678     1761     1953 
    2226     2486     2698     2917     3133     3310     3426     3437 
    3404     3441     3447     3238     2862     2560     2467     2608 
    3019     3588     4121     4573     4943     5161     5144     4880 
    4577     4463     4417     4217     3834     3241     2420     1524 
     831      635     1046     1796     2467     2874     3033     3002 
    2932     3019     3256     3435     3415     3230     3038     3011 
    3175     3416     3690     4010     4328     4513     4428     4031 
    3429     2801     2315     2034     1837     1517     1034      568 
     363      552     1136     1987     2891     3669     4197     4486 
    4654     4718     4627     4405     4039     3518     3071     2936 
    3003     3088     3198     3325     3407     3472     3518     3451 
    3264     3005     2744     2536     2289     2002     1906     2077 
    2384     2775     3227     3597     3709     3516     3192     2957 
    2856     2805     2789     2857     2994     3129     3261     3416 
    3578     3773     4052     4328     4442     4359     4148     3827 
    3365     2856     2478     2308     2308     2423     2639     2921 
    3111     3092     2953     2789     2563     2297     2128     2195 
    2484     2813     3095     3360     3415     3113     2724     2548 
    2659     3059     3631     4166     4499     4506     4202     3851 
    3705     3878     4361     4841     4947     4691     4287     3927 
    3615     3157     2585     2185     1969     1718     1350      896 
     459      164      -52     -313     -417        8     1030     2339 
    3588     4692     5724     6652     7322     7597     7488     7200 
    6941     6667     6246     5653     4924     4117     3299     2586 
    2199     2234     2582     3055     3465     3742     3931     4128 
    4336     4355     4090     3786     3661     3574     3257     2571 
    1566      411     -706    -1622    -2161    -2208    -1771     -978 
    -114      592     1225     2006     3019     4234     5559     6836 
    7870     8496     8588     8039     6943     5692     4708     4147 
    3847     3530     2910     1799      351    -1071    -2253    -3167 
   -3861    -4317    -4417    -4035    -3079    -1580      197     1972 
    3593     4912     5757     6058     5892     5408     4722     3947 
    3256     2868     2971     3568     4414     5216     5829     6191 
    6281     6118     5703     5070     4284     3384     2439     1587 
     934      517      468      962     1914     3052     4205     5282 
    6216     6944     7407     7479     6858     5333     3090      571 
   -1736    -3369    -3866    -2886     -525     2628     5786     8313 
    9972    10824    10949    10366     9112     7315     5170     3018 
    1347      529      675     1513     2405     2770     2362     1236 
    -311    -1917    -3372    -4468    -4769    -4054    -2659     -927 
    1155     3595     6116     8307     9741    10137     9722     9038 
    8252     7256     6034     4642     3265     2145     1316      687 
     263       89       91      163      364      942     2089     3632 
    5101     6099     6297     5412     3694     2010     1108     1186 
    1819     2274     2161     1621     1021      635      438      349 
     446      650      672      499      463      889     2038     3973 
    6262     8283     9721    10623    11118    11122    10539     9597 
    8554     7398     5910     3950     1846      174     -801    -1024 
    -600       71      666     1129     1429     1576     1749     2092 
    2473     2563     2074      859     -999    -2990    -4234    -3966 
   -1906     1578     5584     9117    11438    12210    11560    10021 
    8129     6057     3925     2053      687       10      174      931 
    1688     1972     1748     1277      808      502      386      328 
     190      -32     -222     -270       24      885     2135     3269 
    3892     3878     3488     3171     3161     3516     4139     4580 
    4361     3546     2660     2317     3011     4718     6697     8156 
    8773     8567     7808     6774     5555     4361     3423     2702 
    2138     1772     1732     2251     3194     3852     3781     3208 
    2479     1705      846      -45     -634     -583      145     1341 
    2671     3913     4900     5308     4954     3875     2218      436 
    -908    -1520    -1362     -529      866     2743     4872     6910 
    8637     9755     9787     8656     6891     5119     3770     3100 
    3007     3041     2857     2505     2195     2116     2393     2938 
    3564     4048     3969     2998     1402     -144    -1097    -1281 
    -969     -715     -776     -889     -561      695     3057     6110 
    9000    10894    11349    10439     8611     6473     4529     2988 
    1852     1046      508      237      299      668      880      440 
    -499    -1490    -2227    -2326    -1518      -10     1728     3307 
    4584     5570     6280     6777     7190     7593     7931     7959 
    7407     6278     4833     3407     2285     1513      953      517 
     147     -118      -81      355     1136     2223     3457     4517 
    5182     5601     6057     6567     6978     7119     6763     5792 
    4241     2292      371    -1140    -2068    -2228    -1455      155 
    2106     3751     4837     5624     6327     6816     6858     6243 
    5050     3736     2579     1618     1066      926      859      735 
     583      426      494     1077     2278     3906     5400     6099 
    5699     4464     3113     2297     2303     3164     4571     5867 
    6415     5911     4662     3326     2290     1729     1752     2273 
    3090     3966     4746     5490     6137     6285     5670     4484 
    3150     2011     1120      253     -676    -1462    -1911    -1919 
   -1402     -391     1001     2612     4079     4972     5151     4857 
    4461     4113     3603     2762     1701      619     -301     -903 
   -1127     -974     -387      689     2037     3262     4271     5216 
    6119     6783     7002     6816     6384     5748     5090     4833 
    5279     6390     7811     9016     9571     9238     7950     5852 
    3366     1043     -710    -1761    -2134    -1849    -1077     -229 
     341      526      468      453      618      951     1410     1798 
    1988     2259     2864     3608     4113     4213     4041     3871 
    3894     4191     4841     5794     6775     7534     7959     8068 
    8012     7838     7492     6966     6238     5308     4126     2643 
    1252      463      240      419      938     1503     1854     1958 
    1786     1440     1355     1898     3003     4263     5116     5157 
    4344     2891     1193     -238    -1042    -1271    -1301    -1302 
   -1117     -676       25     1065     2326     3473     4214     4482 
    4518     4777     5543     6615     7477     7708     7105     5670 
    3580     1269     -554    -1444    -1630    -1502    -1127     -379 
     843     2490     4369     6187     7603     8395     8482     7882 
    6875     5914     5297     4959     4680     4463     4411     4355 
    3954     2945     1232     -954    -3090    -4776    -5869    -6201 
   -5590    -4031    -1718      816     2907     4363     5370     5984 
    6304     6467     6390     6134     6064     6289     6509     6461 
    6084     5413     4581     3780     3191     2980     3202     3726 
    4197     4172     3478     2322     1108      237      -83      160 
     865     1750     2562     3213     3557     3407     2756     1803 
     895      409      444      819     1279     1625     1962     2687 
    4006     5597     6754     6963     6261     5026     3688     2612 
    2056     2185     2983     4082     5030     5695     6265     6890 
    7391     7438     6928     5942     4641     3207     1865     1061 
    1117     1807     2717     3485     3807     3681     3269     2743 
    2303     1969     1691     1582     1644     1773     2083     2749 
    3842     5289     6775     7819     8091     7546     6400     5001 
    3677     2590     1564      274    -1209    -2459    -3075    -2775 
   -1544      336     2436     4209     5220     5479     5254     4819 
    4513     4529     4671     4664     4513     4402     4449     4658 
    5039     5611     6311     6918     6988     6137     4391     2029 
    -556    -2763    -4002    -4083    -3257    -1976     -619      556 
    1394     1837     1912     1729     1424     1100      792      556 
     606     1177     2208     3345     4237     4764     5015     5089 
    4955     4608     4251     4087     4194     4608     5278     6034 
    6735     7258     7435     7244     6934     6740     6731     6862 
    6778     5979     4216     1606    -1290    -3704    -5209    -5809 
   -5626    -4760    -3418    -1965     -598      792     2296     3839 
    5254     6309     6772     6558     5836     4945     4190     3665 
    3294     3041     2967     2967     2721     2074     1317      949 
    1256     2249     3823     5753     7724     9441    10569    10829 
   10292     9293     8201     7209     6220     5100     3855     2493 
     980     -565    -1852    -2741    -3353    -3735    -3843    -3721 
   -3331    -2436     -878     1175     3292     5057     6224     6631 
    6415     6143     6242     6588     6875     7020     7065     7009 
    6825     6555     6253     5971     5679     5205     4414     3272 
    1864      499     -500    -1047    -1260    -1382    -1701    -2415 
   -3447    -4422    -4938    -4741    -3820    -2440     -827      986 
    2951     4953     6907     8631     9865    10562    10692    10107 
    9062     8247     8028     8137     8085     7538     6492     5206 
    3927     2716     1584      541     -405    -1198    -1728    -1953 
   -2073    -2339    -2768    -3204    -3370    -2949    -1771       60 
    2123     3959     5487     6824     7933     8667     8989     8976 
    8662     8081     7302     6448     5663     4993     4527     4405 
    4515     4575     4473     4307     4243     4446     4905     5223 
    4916     4004     2884     1906     1208      727      391      191 
     -24     -336     -553     -507     -143      517     1282     1894 
    2154     2041     1803     1722     1818     2011     2343     2882 
    3589     4368     5140     5802     6183     6104     5572     4750 
    3784     2786     1966     1695     2209     3218     4168     4749 
    5009     5167     5263     5103     4419     3113     1547      351 
    -198     -194      136      450      433        9     -576     -803 
    -282      900     2369     3709     4681     5397     6019     6494 
    6698     6573     6149     5595     5017     4326     3574     3141 
    3327     3936     4453     4496     3889     2612     1055     -143 
    -679     -600      -86      557     1084     1436     1709     2131 
    2766     3303     3515     3464     3164     2659     2300     2555 
    3585     5067     6482     7491     7838     7299     6034     4558 
    3312     2533     2232     2196     2228     2199     2041     1941 
    2089     2361     2529     2490     2257     1842     1320      984 
    1120     1746     2728     3719     4182     3890     3231     2786 
    2762     2992     3280     3534     3761     4047     4418     4828 
    5236     5551     5661     5431     4727     3694     2741     2172 
    2020     2188     2485     2687     2771     2860     2938     2987 
    3146     3414     3597     3546     3246     2830     2470     2269 
    2230     2134     1764     1320     1201     1563     2355     3338 
    4121     4529     4614     4446     4197     4017     3834     3634 
    3655     4068     4756     5382     5556     5140     4311     3385 
    2716     2470     2452     2349     1960     1216      319     -301 
    -384       68      919     1869     2677     3341     3974     4673 
    5377     5876     6110     6147     6003     5697     5248     4644 
    3925     3168     2450     1873     1390      839      338      166 
     379      872     1435     1791     1868     1902     2234     3095 
    4453     5961     7122     7615     7407     6671     5638     4529 
    3597     2982     2500     1879     1104      418       32      -63 
      47      294      575      886     1296     1752     2249     2872 
    3526     4009     4321     4519     4518     4340     4207     4253 
    4453     4669     4743     4652     4428     4048     3553     3045 
    2636     2400     2322     2338     2419     2544     2646     2687 
    2727     2799     2864     2883     2879     2889     2849     2598 
    2066     1490     1179     1125     1150     1368     2045     3073 
    4044     4685     5005     5125     5125     5020     4912     4862 
    4680     4216     3569     2841     2124     1613     1306     1009 
     687      471      492      735      959      972      819      641 
     562      718     1206     2030     3221     4905     6991     9081 
