Origin Time       2024/04/02 04:24:00
Lat.              40.133
Long.             141.712
Depth. (km)       71
Mag.              6.0
Station Code      IBUH04
Station Lat.      42.6415
Station Long.     140.6650
Station Height(m) 111.5
Record Time       2024/04/02 04:25:19
Sampling Freq(Hz) 100Hz
Duration Time(s)  120
Dir.              1
Scale Factor      3923(gal)/8224838
Max. Acc. (gal)   0.438
Last Correction   2024/04/02 04:25:20
Memo.             
[...]
   11642    11628    11592    11570    11564    11553    11549    11560 
   11577    11597    11615    11641    11680    11718    11754    11797 
   11832    11846    11844    11839    11824    11800    11766    11732 
   11709    11695    11695    11704    11700    11695    11696    11684 
   11655    11645    11655    11676    11708    11742    11755    11751 
   11751    11769    11789    11805    11813    11804    11782    11763 
   11753    11758    11767    11766    11751    11732    11726    11734 
   11735    11727    11719    11716    11707    11699    11711    11718 
   11701    11682    11676    11676    11674    11672    11664    11647 
   11630    11610    11591    11574    11556    11547    11569    11599 
   11614    11614    11604    11600    11614    11641    11676    11719 
   11753    11765    11772    11788    11784    11751    11718    11696 
   11686    11680    11666    11661    11674    11691    11703    11709 
   11715    11727    11745    11763    11782    11797    11790    11769 
   11767    11781    11796    11823    11861    11900    11931    11948 
   11952    11947    11942    11929    11912    11897    11873    11835 
   11793    11747    11708    11703    11726    11753    11778    11808 
   11828    11824    11804    11780    11746    11709    11680    11655 
   11634    11610    11595    11603    11619    11628    11632    11634 
   11643    11655    11661    11664    11674    11681    11664    11645 
   11646    11657    11678    11726    11781    11813    11823    11831 
   11855    11890    11913    11917    11911    11901    11898    11900 
   11902    11900    11885    11863    11850    11836    11827    11836 
   11846    11847    11844    11838    11827    11808    11788    11778 
   11772    11763    11765    11789    11819    11830    11826    11826 
   11831    11826    11815    11816    11813    11789    11761    11742 
   11723    11712    11713    11723    11720    11704    11692    11689 
   11688    11684    11695    11728    11766    11784    11800    11821 
   11838    11853    11869    11878    11884    11875    11863    11873 
   11867    11834    11804    11785    11763    11728    11680    11647 
   11639    11649    11672    11703    11726    11738    11738    11724 
   11708    11681    11643    11614    11593    11577    11568    11569 
   11572    11570    11573    11568    11553    11526    11485    11456 
   11442    11442    11462    11485    11510    11546    11577    11614 
   11674    11728    11765    11800    11820    11827    11836    11844 
   11846    11840    11819    11793    11769    11735    11705    11695 
   11699    11700    11691    11682    11682    11689    11693    11699 
   11712    11727    11735    11740    11754    11772    11790    11809 
   11815    11804    11796    11807    11820    11816    11788    11745 
   11715    11704    11684    11662    11662    11669    11672    11670 
   11662    11650    11645    11655    11684    11711    11728    11731 
   11728    11727    11713    11681    11649    11628    11619    11607 
   11585    11576    11587    11615    11650    11680    11700    11708 
   11709    11719    11728    11734    11739    11749    11762    11778 
   11788    11780    11769    11770    11778    11786    11797    11801 
   11793    11786    11788    11782    11789    11803    11789    11754 
   11726    11716    11730    11743    11739    11731    11745    11774 
   11805    11831    11844    11839    11826    11801    11759    11719 
   11699    11688    11672    11654    11645    11643    11650    11677 
   11715    11731    11724    11726    11749    11774    11785    11782 
   11772    11746    11720    11712    11718    11731    11746    11753 
   11746    11723    11700    11705    11736    11758    11767    11773 
   11781    11803    11830    11851    11857    11843    11812    11774 
   11746    11743    11766    11799    11827    11851    11869    11885 
   11897    11900    11896    11889    11884    11889    11897    11886 
   11859    11830    11807    11793    11776    11749    11727    11722 
   11720    11722    11736    11765    11786    11792    11788    11780 
   11784    11809    11828    11828    11819    11796    11776    11774 
   11781    11800    11824    11847    11858    11851    11834    11812 
   11790    11778    11754    11715    11691    11685    11685    11695 
   11701    11697    11701    11722    11736    11750    11766    11766 
   11755    11759    11773    11769    11747    11724    11708    11691 
   11655    11612    11588    11578    11564    11543    11533    11545 
   11573    11599    11619    11634    11643    11647    11661    11674 
   11669    11650    11642    11650    11643    11616    11589    11565 
   11543    11542    11572    11619    11661    11697    11732    11761 
   11774    11784    11797    11805    11797    11781    11767    11757 
   11758    11772    11784    11788    11773    11740    11713    11708 
   11713    11718    11715    11712    11707    11697    11693    11695 
   11701    11715    11734    11761    11801    11843    11875    11902 
   11924    11923    11908    11901    11907    11909    11900    11896 
   11912    11920    11908    11896    11892    11890    11893    11890 
   11873    11850    11823    11788    11750    11719    11691    11659 
   11635    11622    11597    11572    11566    11573    11577    11566 
   11551    11565    11596    11622    11642    11662    11686    11726 
   11757    11755    11753    11772    11786    11788    11782    11780 
   11786    11786    11772    11763    11762    11765    11769    11758 
   11738    11723    11708    11688    11665    11643    11624    11620 
   11638    11664    11688    11708    11724    11735    11731    11708 
   11684    11674    11666    11646    11634    11634    11637    11651 
   11676    11701    11720    11732    11746    11762    11763    11750 
   11740    11732    11719    11708    11696    11685    11678    11665 
   11647    11634    11624    11605    11588    11581    11569    11541 
   11518    11495    11472    11461    11465    11472    11477    11480 
   11491    11511    11527    11549    11584    11608    11632    11662 
   11670    11661    11658    11657    11647    11638    11638    11651 
   11661    11657    11645    11632    11619    11610    11603    11591 
   11589    11599    11603    11604    11608    11611    11616    11619 
   11610    11597    11601    11624    11646    11659    11664    11659 
   11650    11651    11672    11686    11689    11700    11727    11763 
   11811    11857    11889    11919    11950    11978    11994    12002 
   12006    12002    12001    12002    11998    11994    11994    11996 
   11993    11986    11977    11959    11947    11948    11946    11935 
   11927    11920    11901    11877    11866    11862    11861    11862 
   11861    11863    11870    11873    11885    11892    11871    11842 
   11815    11784    11757    11745    11747    11762    11797    11846 
   11885    11911    11920    11920    11931    11938    11917    11877 
   11831    11785    11740    11704    11693    11715    11753    11801 
   11859    11921    11975    12015    12039    12046    12023    11982 
   11946    11919    11900    11888    11867    11835    11804    11777 
   11753    11738    11736    11747    11763    11792    11828    11847 
   11844    11842    11840    11820    11780    11747    11734    11735 
   11757    11794    11830    11847    11851    11861    11874    11874 
   11850    11817    11793    11767    11743    11735    11742    11746 
   11742    11749    11773    11800    11813    11803    11780    11761 
   11738    11703    11668    11635    11597    11545    11481    11415 
   11345    11280    11227    11187    11171    11188    11217    11240 
   11273    11329    11388    11434    11476    11522    11565    11597 
   11600    11593    11607    11622    11622    11608    11589    11574 
   11554    11515    11461    11400    11345    11302    11269    11249 
   11264    11317    11380    11450    11519    11578    11641    11682 
   11686    11670    11645    11605    11566    11546    11537    11520 
   11514    11531    11578    11653    11740    11821    11877    11894 
   11896    11900    11893    11877    11874    11881    11881    11890 
   11927    11982    12044    12104    12135    12113    12046    11969 
   11907    11861    11832    11838    11874    11939    12024    12113 
   12181    12213    12222    12209    12171    12117    12043    11935 
   11812    11695    11585    11519    11520    11562    11618    11670 
   11719    11774    11832    11877    11898    11885    11842    11792 
   11755    11767    11823    11861    11862    11844    11817    11788 
   11765    11742    11722    11718    11727    11742    11763    11782 
   11790    11796    11803    11815    11842    11886    11932    11974 
   12029    12108    12186    12235    12243    12217    12189    12168 
   12144    12123    12105    12067    12004    11931    11853    11773 
   11691    11614    11566    11541    11503    11462    11433    11410 
   11395    11392    11403    11414    11429    11452    11466    11491 
   11556    11646    11731    11781    11774    11734    11689    11657 
   11638    11614    11568    11515    11465    11412    11379    11383 
   11416    11446    11446    11426    11410    11415    11438    11441 
   11414    11372    11334    11314    11317    11344    11392    11464 
   11560    11677    11781    11834    11853    11867    11893    11932 
   11969    12001    12029    12042    12063    12112    12162    12172 
   12131    12047    11943    11850    11794    11747    11686    11622 
   11549    11466    11407    11396    11431    11472    11487    11499 
   11541    11610    11689    11765    11809    11805    11776    11759 
   11767    11790    11824    11851    11851    11836    11836    11851 
   11874    11904    11942    11994    12050    12106    12174    12236 
   12272    12287    12289    12278    12247    12198    12152    12104 
   12042    11970    11886    11800    11731    11676    11624    11588 
   11569    11549    11515    11453    11357    11267    11217    11199 
   11210    11275    11381    11483    11560    11614    11649    11673 
   11696    11697    11654    11585    11510    11442    11425    11475 
   11549    11608    11638    11657    11699    11759    11793    11782 
   11743    11677    11588    11489    11421    11404    11408    11404 
   11396    11372    11326    11292    11279    11287    11325    11380 
   11448    11520    11589    11637    11666    11703    11753    11820 
   11916    12002    12050    12093    12150    12202    12244    12272 
   12275    12244    12171    12079    12024    12016    12024    12046 
   12081    12113    12127    12125    12125    12133    12152    12168 
   12160    12128    12078    12013    11969    11944    11894    11842 
   11809    11782    11761    11738    11701    11669    11647    11661 
   11727    11792    11826    11859    11916    11961    11951    11893 
   11835    11799    11766    11713    11639    11556    11491    11469 
   11475    11504    11572    11659    11730    11773    11804    11823 
   11819    11788    11730    11646    11551    11491    11466    11456 
   11477    11520    11547    11574    11612    11645    11684    11723 
   11731    11718    11695    11665    11646    11647    11649    11637 
   11622    11599    11562    11530    11514    11524    11545    11543 
   11535    11522    11504    11496    11483    11476    11500    11534 
   11551    11557    11553    11553    11576    11605    11630    11670 
   11724    11763    11799    11844    11884    11884    11848    11807 
   11770    11732    11705    11715    11755    11790    11805    11827 
   11862    11896    11927    11950    11952    11940    11912    11867 
   11812    11754    11704    11677    11651    11630    11631    11641 
   11653    11697    11780    11847    11858    11831    11800    11789 
   11804    11838    11888    11931    11947    11954    11981    12008 
   12010    12006    12001    11982    11973    11988    12021    12060 
   12062    12009    11920    11819    11747    11728    11747    11763 
   11742    11712    11715    11749    11800    11843    11855    11840 
   11813    11785    11776    11794    11812    11819    11830    11836 
   11812    11761    11723    11726    11740    11738    11720    11688 
   11634    11569    11520    11504    11523    11549    11551    11524 
   11497    11491    11492    11479    11462    11461    11475    11508 
   11550    11581    11608    11641    11684    11747    11809    11843 
   11859    11881    11919    11954    11965    11969    11997    12055 
   12121    12167    12209    12260    12286    12274    12253    12224 
   12178    12133    12083    12024    11979    11925    11848    11788 
   11754    11723    11697    11680    11654    11615    11572    11511 
   11412    11287    11182    11128    11115    11132    11161    11188 
   11219    11252    11267    11272    11279    11284    11283    11276 
   11284    11296    11298    11291    11273    11257    11252    11261 
   11298    11354    11402    11418    11406    11391    11380    11367 
   11344    11308    11294    11315    11356    11426    11520    11604 
   11676    11745    11811    11881    11973    12079    12162    12202 
   12217    12220    12208    12175    12145    12129    12104    12074 
   12085    12143    12217    12316    12442    12555    12625    12652 
   12654    12638    12592    12519    12433    12351    12276    12197 
   12117    12044    11979    11920    11863    11811    11757    11695 
   11641    11601    11597    11616    11608    11570    11560    11587 
   11615    11626    11631    11645    11659    11653    11635    11627 
   11619    11612    11607    11591    11556    11507    11473    11452 
   11416    11377    11352    11349    11388    11464    11535    11587 
   11607    11596    11587    11587    11576    11551    11524    11500 
   11496    11507    11500    11479    11464    11452    11456    11503 
   11596    11726    11873    11992    12062    12098    12104    12078 
   12048    12028    11997    11956    11912    11874    11859    11846 
   11819    11790    11770    11745    11701    11662    11653    11649 
   11615    11549    11485    11445    11416    11410    11446    11519 
   11587    11630    11666    11696    11711    11681    11615    11551 
   11508    11496    11514    11542    11572    11604    11647    11701 
   11746    11773    11812    11878    11936    11948    11902    11804 
   11668    11526    11425    11379    11372    11372    11372    11399 
   11461    11533    11597    11651    11703    11749    11780    11799 
   11836    11907    11979    12016    12005    11983    12000    12054 
   12094    12094    12067    12012    11943    11902    11898    11892 
   11862    11831    11809    11788    11794    11840    11909    11982 
   12028    12036    12033    12025    11990    11921    11848    11794 
   11749    11684    11593    11506    11449    11426    11421    11441 
   11483    11526    11564    11596    11635    11705    11788    11850 
   11894    11929    11955    11979    11994    11985    11959    11934 
   11913    11901    11898    11902    11896    11861    11826    11816 
   11827    11844    11835    11786    11728    11673    11631    11628 
   11650    11658    11654    11665    11699    11728    11758    11796 
   11832    11859    11862    11838    11812    11813    11834    11857 
   11875    11875    11859    11832    11793    11751    11713    11686 
   11677    11676    11686    11711    11734    11750    11757    11739 
   11688    11630    11618    11627    11616    11583    11535    11499 
   11487    11476    11446    11418    11404    11387    11371    11381 
   11406    11412    11389    11350    11306    11261    11232    11211 
   11207    11229    11265    11315    11364    11396    11431    11491 
   11561    11628    11672    11670    11630    11584    11566    11578 
   11599    11626    11673    11723    11767    11813    11862    11904 
   11929    11940    11939    11952    11974    11963    11944    11954 
   11982    12009    12012    12009    12035    12067    12078    12064 
   12035    12019    12009    11988    11967    11970    11996    12013 
   11997    11963    11935    11919    11901    11867    11838    11827 
   11821    11807    11786    11767    11769    11788    11808    11824 
   11838    11834    11816    11804    11790    11753    11700    11657 
   11622    11593    11576    11574    11580    11592    11634    11681 
   11697    11699    11705    11703    11681    11655    11628    11596 
   11569    11557    11572    11612    11670    11735    11799    11838 
   11840    11831    11826    11812    11786    11750    11712    11678 
   11661    11666    11684    11715    11755    11793    11828    11855 
   11866    11875    11886    11881    11863    11865    11900    11950 
   12009    12066    12106    12139    12163    12168    12166    12168 
   12158    12108    12036    11977    11928    11894    11888    11897 
   11904    11904    11898    11901    11909    11904    11885    11866 
   11854    11839    11804    11745    11670    11593    11527    11507 
   11531    11568    11604    11647    11676    11665    11632    11608 
   11578    11541    11533    11550    11554    11556    11572    11584 
   11584    11585    11592    11584    11557    11535    11535    11547 
   11551    11551    11556    11566    11573    11565    11558    11561 
   11560    11560    11573    11592    11614    11628    11630    11610 
   11584    11566    11539    11504    11472    11429    11407    11425 
   11441    11446    11469    11503    11547    11619    11681    11686 
   11669    11662    11654    11653    11674    11700    11722    11742 
   11769    11811    11858    11889    11900    11905    11907    11920 
   11940    11935    11909    11889    11877    11870    11862    11842 
   11812    11784    11770    11781    11804    11807    11796    11782 
   11754    11715    11688    11676    11661    11635    11615    11607 
   11589    11569    11564    11562    11569    11589    11612    11659 
   11728    11776    11785    11781    11774    11766    11767    11765 
   11759    11772    11801    11816    11794    11759    11739    11718 
   11699    11701    11718    11726    11723    11711    11680    11635 
   11591    11557    11564    11618    11672    11691    11693    11704 
   11724    11739    11739    11740    11749    11757    11763    11766 
   11778    11805    11823    11824    11824    11835    11847    11851 
   11865    11880    11882    11893    11921    11942    11936    11916 
   11902    11896    11882    11848    11812    11788    11767    11754 
   11745    11720    11685    11659    11641    11627    11643    11685 
   11736    11803    11881    11939    11963    11977    11997    12008 
   12006    11994    11970    11944    11939    11948    11939    11901 
   11873    11873    11888    11911    11948    11988    12013    12010 
   11986    11958    11925    11882    11840    11799    11749    11701 
   11676    11651    11604    11557    11543    11545    11533    11522 
   11523    11523    11527    11527    11512    11515    11547    11583 
   11612    11641    11674    11705    11726    11745    11754    11728 
