Origin Time       2024/04/02 04:24:00
Lat.              40.133
Long.             141.712
Depth. (km)       71
Mag.              6.0
Station Code      IBUH04
Station Lat.      42.6415
Station Long.     140.6650
Station Height(m) 214
Record Time       2024/04/02 04:25:19
Sampling Freq(Hz) 100Hz
Duration Time(s)  120
Dir.              6
Scale Factor      7845(gal)/8223790
Max. Acc. (gal)   0.976
Last Correction   2024/04/02 04:25:20
Memo.             
[...]
    7287     7299     7318     7330     7319     7287     7267     7295 
    7388     7519     7647     7727     7712     7609     7480     7375 
    7330     7356     7404     7439     7473     7514     7542     7531 
    7469     7360     7227     7140     7153     7253     7391     7504 
    7551     7558     7566     7592     7627     7642     7624     7584 
    7511     7433     7393     7408     7479     7591     7693     7738 
    7699     7591     7470     7395     7395     7456     7524     7576 
    7609     7605     7547     7435     7291     7176     7133     7164 
    7254     7365     7469     7545     7580     7597     7604     7570 
    7477     7341     7214     7160     7209     7338     7470     7555 
    7607     7655     7707     7726     7661     7514     7339     7213 
    7190     7250     7341     7433     7503     7538     7531     7465 
    7345     7210     7115     7118     7214     7335     7449     7542 
    7614     7657     7651     7608     7546     7466     7381     7307 
    7236     7176     7161     7225     7352     7473     7524     7481 
    7377     7299     7311     7414     7570     7722     7811     7809 
    7707     7565     7477     7501     7638     7820     7948     7969 
    7882     7711     7503     7329     7249     7280     7377     7461 
    7458     7352     7200     7091     7084     7173     7296     7393 
    7425     7385     7323     7265     7226     7238     7319     7439 
    7543     7577     7557     7500     7406     7308     7237     7210 
    7272     7412     7581     7731     7830     7859     7807     7654 
    7435     7240     7132     7123     7184     7283     7423     7597 
    7759     7861     7894     7866     7730     7473     7190     7005 
    6994     7157     7414     7658     7817     7855     7789     7661 
    7519     7414     7371     7369     7392     7426     7454     7456 
    7425     7387     7373     7385     7383     7326     7217     7099 
    7024     7042     7200     7470     7757     7936     7921     7719 
    7414     7113     6906     6852     6978     7249     7569     7819 
    7912     7840     7684     7537     7434     7342     7241     7179 
    7207     7326     7508     7681     7780     7807     7784     7730 
    7658     7562     7454     7364     7303     7290     7329     7411 
    7535     7676     7788     7825     7753     7597     7423     7283 
    7210     7203     7238     7323     7465     7631     7773     7834 
    7784     7643     7469     7335     7275     7269     7294     7330 
    7366     7399     7415     7402     7346     7254     7168     7134 
    7183     7306     7452     7576     7642     7618     7515     7373 
    7248     7202     7230     7276     7294     7257     7211     7213 
    7260     7326     7389     7431     7439     7395     7310     7242 
    7246     7323     7429     7518     7600     7695     7780     7798 
    7709     7541     7391     7333     7380     7492     7597     7647 
    7614     7495     7342     7238     7261     7407     7572     7669 
    7677     7615     7535     7457     7377     7337     7346     7375 
    7406     7429     7452     7511     7596     7670     7712     7713 
    7701     7696     7685     7649     7576     7488     7420     7385 
    7400     7443     7470     7461     7423     7391     7379     7354 
    7314     7283     7260     7257     7290     7350     7429     7497 
    7522     7495     7438     7387     7366     7381     7416     7454 
    7473     7466     7433     7388     7349     7314     7292     7299 
    7321     7333     7325     7310     7311     7335     7406     7528 
    7669     7778     7809     7740     7632     7551     7500     7453 
    7389     7325     7299     7319     7368     7427     7489     7554 
    7605     7612     7564     7483     7400     7339     7311     7334 
    7388     7427     7450     7492     7578     7699     7774     7742 
    7614     7443     7306     7242     7245     7306     7416     7545 
    7651     7692     7653     7554     7420     7296     7221     7187 
    7199     7272     7391     7507     7574     7565     7485     7375 
    7302     7306     7366     7441     7485     7481     7457     7443 
    7453     7489     7531     7551     7528     7458     7368     7291 
    7249     7256     7307     7404     7542     7677     7747     7708 
    7562     7357     7161     7047     7064     7200     7412     7642 
    7817     7904     7893     7794     7636     7460     7321     7267 
    7283     7342     7422     7488     7530     7547     7543     7524 
    7483     7418     7358     7310     7284     7304     7357     7404 
    7408     7339     7229     7148     7152     7249     7375     7450 
    7464     7452     7464     7520     7604     7686     7736     7734 
    7690     7624     7557     7493     7420     7349     7315     7335 
    7402     7470     7496     7470     7422     7398     7433     7522 
    7636     7724     7746     7685     7566     7446     7365     7312 
    7275     7264     7308     7429     7570     7649     7622     7503 
    7350     7231     7172     7183     7258     7366     7476     7566 
    7614     7608     7546     7438     7311     7194     7110     7090 
    7145     7258     7392     7497     7547     7546     7531     7542 
    7578     7635     7684     7692     7655     7592     7526     7495 
    7506     7543     7587     7599     7557     7476     7376     7283 
    7217     7196     7227     7280     7327     7372     7411     7439 
    7443     7411     7356     7290     7230     7226     7306     7435 
    7553     7601     7573     7506     7427     7353     7281     7225 
    7219     7261     7318     7381     7442     7488     7514     7512 
    7516     7557     7619     7668     7682     7657     7605     7560 
    7557     7612     7682     7716     7693     7624     7531     7422 
    7323     7260     7233     7238     7256     7276     7333     7435 
    7526     7545     7484     7407     7392     7464     7603     7751 
    7825     7786     7658     7507     7438     7508     7666     7780 
    7758     7643     7526     7437     7376     7337     7304     7285 
    7299     7365     7477     7596     7686     7703     7612     7450 
    7296     7215     7244     7344     7441     7479     7458     7418 
    7387     7356     7322     7287     7271     7314     7406     7488 
    7507     7446     7369     7346     7396     7497     7591     7609 
    7549     7449     7369     7341     7352     7387     7434     7477 
    7511     7527     7507     7441     7335     7221     7134     7094 
    7122     7236     7389     7530     7628     7677     7659     7573 
    7447     7335     7267     7249     7271     7302     7322     7315 
    7294     7292     7325     7372     7411     7439     7472     7506 
    7503     7445     7348     7272     7277     7362     7485     7592 
    7627     7569     7434     7277     7187     7210     7335     7508 
    7674     7808     7884     7859     7738     7572     7407     7299 
    7281     7354     7480     7607     7700     7747     7744     7716 
    7678     7627     7573     7528     7493     7460     7411     7354 
    7308     7291     7304     7311     7272     7211     7179     7203 
    7290     7393     7458     7461     7420     7393     7411     7454 
    7481     7449     7345     7200     7079     7063     7179     7375 
    7585     7749     7824     7803     7689     7504     7333     7258 
    7314     7460     7622     7750     7808     7778     7685     7558 
    7427     7331     7292     7304     7357     7437     7526     7616 
    7693     7723     7676     7574     7464     7346     7241     7192 
    7226     7344     7511     7665     7767     7811     7792     7734 
    7647     7543     7419     7272     7138     7074     7103     7210 
    7333     7407     7423     7407     7384     7365     7346     7346 
    7384     7443     7496     7508     7464     7402     7371     7403 
    7479     7526     7496     7412     7350     7365     7422     7469 
    7484     7469     7460     7485     7541     7627     7723     7785 
    7792     7740     7661     7589     7526     7461     7395     7333 
    7296     7302     7349     7433     7527     7588     7600     7557 
    7468     7348     7221     7132     7118     7186     7312     7447 
    7551     7605     7611     7600     7588     7570     7542     7485 
    7396     7308     7252     7240     7268     7310     7365     7426 
    7454     7435     7371     7261     7146     7065     7038     7079 
    7165     7271     7368     7418     7423     7419     7433     7483 
    7543     7580     7573     7514     7434     7385     7371     7356 
    7335     7335     7399     7527     7680     7804     7859     7839 
    7765     7676     7614     7587     7585     7593     7597     7603 
    7604     7564     7480     7399     7368     7404     7483     7551 
    7577     7543     7484     7457     7466     7487     7495     7462 
    7408     7371     7353     7356     7380     7430     7496     7537 
    7515     7441     7350     7285     7263     7254     7237     7207 
    7191     7217     7280     7361     7430     7450     7419     7373 
    7342     7334     7322     7288     7256     7254     7307     7423 
    7569     7704     7793     7827     7804     7728     7628     7546 
    7500     7492     7512     7554     7609     7653     7670     7672 
    7653     7603     7530     7445     7375     7338     7326     7337 
    7385     7465     7546     7573     7535     7476     7441     7449 
    7480     7493     7479     7447     7427     7434     7452     7469 
    7474     7461     7447     7442     7449     7492     7573     7643 
    7658     7593     7476     7377     7337     7354     7403     7454 
    7488     7489     7438     7352     7269     7230     7253     7342 
    7477     7609     7688     7695     7636     7545     7464     7407 
    7381     7395     7433     7472     7500     7519     7550     7599 
    7641     7650     7626     7584     7533     7460     7377     7311 
    7269     7260     7284     7333     7406     7484     7549     7591 
    7607     7618     7627     7601     7530     7438     7357     7304 
    7273     7258     7265     7294     7345     7414     7480     7522 
    7520     7484     7454     7450     7461     7472     7453     7407 
    7366     7352     7388     7473     7570     7632     7623     7549 
    7458     7399     7404     7468     7550     7612     7627     7585 
    7500     7400     7335     7335     7379     7433     7468     7458 
    7411     7352     7314     7314     7333     7344     7327     7264 
    7183     7128     7107     7133     7211     7319     7427     7524 
    7599     7634     7607     7526     7420     7335     7304     7303 
    7277     7221     7171     7182     7268     7385     7485     7516 
    7466     7373     7279     7233     7275     7400     7558     7685 
    7740     7735     7678     7588     7514     7479     7479     7500 
    7516     7514     7476     7400     7321     7292     7352     7468 
    7549     7541     7466     7366     7271     7196     7164     7222 
    7384     7614     7850     8001     7997     7832     7561     7302 
    7161     7165     7269     7400     7508     7592     7649     7662 
    7619     7504     7344     7187     7078     7056     7134     7280 
    7433     7539     7600     7647     7688     7692     7624     7492 
    7352     7254     7217     7213     7211     7217     7230     7237 
    7242     7246     7245     7248     7253     7263     7288     7334 
    7393     7452     7470     7431     7348     7260     7219     7256 
    7354     7461     7492     7423     7311     7219     7188     7233 
    7329     7438     7541     7630     7701     7758     7805     7825 
    7778     7662     7514     7385     7321     7323     7391     7518 
    7661     7777     7843     7843     7790     7708     7608     7511 
    7434     7369     7303     7236     7195     7214     7302     7439 
    7587     7695     7732     7674     7519     7314     7114     6961 
    6874     6852     6890     6970     7080     7226     7399     7574 
    7701     7746     7720     7659     7597     7565     7545     7526 
    7538     7580     7632     7666     7643     7562     7454     7357 
    7308     7323     7385     7466     7527     7568     7614     7681 
    7767     7815     7761     7614     7426     7269     7213     7257 
    7369     7512     7638     7734     7801     7803     7717     7557 
    7361     7199     7110     7094     7159     7295     7453     7574 
    7623     7614     7582     7546     7516     7495     7484     7489 
    7524     7596     7678     7738     7761     7736     7655     7543 
    7446     7410     7435     7458     7408     7271     7099     7005 
    7065     7263     7496     7661     7726     7728     7707     7688 
    7661     7605     7530     7453     7416     7443     7493     7492 
    7395     7225     7083     7071     7195     7393     7582     7705 
    7753     7722     7603     7400     7136     6895     6778     6831 
    7042     7349     7653     7901     8071     8148     8109     7955 
    7749     7560     7420     7350     7338     7365     7429     7526 
    7615     7632     7558     7435     7311     7215     7145     7055 
    6918     6772     6705     6786     7009     7292     7564     7778 
    7924     7982     7900     7654     7318     7010     6843     6866 
    7057     7381     7770     8135     8394     8473     8326     7970 
    7504     7095     6885     6926     7173     7493     7767     7955 
    8051     8054     7966     7805     7639     7546     7555     7653 
    7759     7778     7661     7410     7110     6918     6936     7150 
    7457     7719     7857     7854     7734     7543     7326     7115 
    6930     6758     6617     6589     6752     7111     7568     7959 
    8168     8160     7970     7677     7362     7107     6968     6945 
    7015     7144     7308     7495     7638     7655     7531     7299 
    7029     6798     6642     6579     6640     6826     7102     7369 
    7578     7757     7940     8108     8185     8109     7893     7619 
    7385     7267     7273     7383     7560     7720     7827     7892 
    7920     7912     7865     7798     7749     7713     7672     7641 
    7657     7728     7798     7780     7635     7399     7134     6909 
    6759     6701     6764     6945     7190     7406     7511     7479 
    7322     7096     6894     6791     6822     6957     7138     7331 
    7510     7634     7658     7535     7287     7034     6905     6972 
    7213     7519     7781     7928     7965     7955     7921     7840 
    7707     7534     7353     7203     7101     7055     7072     7149 
    7284     7453     7622     7778     7894     7927     7846     7647 
    7392     7176     7071     7129     7341     7627     7874     7971 
    7912     7782     7647     7527     7441     7408     7446     7546 
    7654     7719     7708     7614     7447     7238     7076     7078 
    7269     7566     7816     7890     7755     7465     7144     6929 
    6878     6959     7096     7227     7357     7484     7562     7546 
    7427     7253     7098     7028     7088     7261     7443     7508 
    7406     7200     7009     6922     6987     7203     7503     7780 
    7936     7920     7776     7585     7388     7188     7001     6870 
    6839     6920     7094     7308     7497     7612     7634     7582 
    7512     7470     7496     7601     7736     7819     7824     7808 
    7842     7925     7973     7906     7739     7569     7480     7472 
    7510     7542     7533     7493     7453     7435     7462     7530 
    7620     7699     7751     7788     7792     7724     7597     7487 
    7468     7557     7669     7681     7531     7265     7026     6932 
    6999     7173     7380     7554     7659     7669     7574     7392 
    7177     7026     7003     7118     7354     7662     7948     8110 
    8062     7809     7442     7092     6895     6890     7010     7182 
    7354     7499     7615     7715     7758     7695     7535     7354 
    7245     7275     7420     7577     7638     7558     7358     7149 
    7064     7169     7443     7778     8043     8170     8151     8016 
    7804     7539     7303     7203     7283     7497     7736     7881 
    7894     7801     7655     7515     7402     7315     7264     7246 
    7275     7338     7372     7308     7141     6957     6875     6934 
    7102     7295     7427     7461     7420     7346     7271     7209 
    7167     7140     7128     7161     7263     7422     7626     7846 
    8020     8095     8047     7901     7739     7608     7527     7506 
    7511     7496     7435     7335     7241     7198     7227     7302 
    7357     7369     7380     7438     7550     7641     7619     7472 
    7275     7136     7107     7142     7175     7191     7211     7275 
    7362     7418     7411     7360     7326     7346     7395     7433 
    7433     7377     7321     7329     7416     7543     7663     7732 
    7713     7626     7545     7493     7456     7425     7408     7438 
    7531     7638     7705     7722     7682     7569     7361     7096 
    6880     6798     6879     7105     7410     7713     7942     8027 
    7975     7834     7643     7427     7194     6983     6867     6880 
    6998     7164     7330     7491     7653     7786     7873     7898 
    7851     7744     7603     7466     7373     7350     7416     7576 
    7786     7960     7996     7867     7661     7465     7362     7399 
    7537     7712     7857     7906     7838     7672     7457     7265 
    7121     7029     7001     7041     7160     7344     7533     7653 
    7663     7588     7491     7418     7362     7291     7191     7117 
    7144     7273     7430     7530     7520     7420     7303     7273 
    7376     7531     7619     7564     7383     7177     7063     7095 
    7222     7335     7389     7402     7393     7379     7349     7302 
    7263     7273     7380     7581     7792     7929     7973     7931 
    7848     7746     7616     7474     7357     7292     7295     7346 
    7442     7588     7744     7854     7873     7796     7686     7604 
    7561     7522     7454     7388     7380     7434     7537     7653 
    7727     7738     7688     7591     7453     7287     7142     7063 
    7048     7086     7171     7300     7465     7615     7689     7655 
    7543     7441     7410     7427     7456     7477     7518     7615 
    7736     7790     7713     7519     7290     7088     6932     6839 
    6813     6853     6945     7052     7157     7253     7303     7299 
    7280     7311     7441     7642     7823     7896     7798     7555 
    7283     7083     7020     7074     7165     7268     7392     7545 
    7728     7900     7981     7935     7786     7614     7503     7470 
    7477     7452     7358     7249     7217     7308     7500     7699 
    7813     7828     7805     7796     7755     7605     7350     7068 
    6876     6864     7025     7258     7450     7551     7589     7591 
    7569     7527     7435     7302     7199     7177     7233     7306 
    7326     7298     7260     7249     7299     7400     7515     7615 
    7682     7708     7676     7595     7511     7434     7348     7273 
