Origin Time       2024/04/02 04:24:00
Lat.              40.133
Long.             141.712
Depth. (km)       71
Mag.              6.0
Station Code      IBUH02
Station Lat.      42.8714
Station Long.     142.1285
Station Height(m) 73
Record Time       2024/04/02 04:25:21
Sampling Freq(Hz) 100Hz
Duration Time(s)  121
Dir.              1
Scale Factor      3923(gal)/8224838
Max. Acc. (gal)   0.495
Last Correction   2024/04/02 04:25:21
Memo.             
[...]
  -13296   -13270   -13238   -13211   -13208   -13216   -13227   -13244 
  -13259   -13266   -13273   -13266   -13250   -13242   -13252   -13278 
  -13306   -13325   -13332   -13319   -13281   -13235   -13203   -13177 
  -13163   -13165   -13166   -13162   -13161   -13159   -13157   -13159 
  -13163   -13162   -13157   -13139   -13116   -13093   -13081   -13085 
  -13088   -13086   -13092   -13095   -13093   -13107   -13124   -13131 
  -13128   -13122   -13109   -13093   -13089   -13099   -13112   -13128 
  -13143   -13150   -13166   -13197   -13224   -13234   -13231   -13220 
  -13215   -13224   -13236   -13235   -13230   -13243   -13277   -13317 
  -13348   -13360   -13371   -13393   -13396   -13369   -13340   -13327 
  -13328   -13343   -13369   -13393   -13414   -13432   -13429   -13414 
  -13401   -13371   -13329   -13308   -13311   -13317   -13327   -13335 
  -13339   -13355   -13378   -13382   -13375   -13367   -13359   -13352 
  -13340   -13316   -13284   -13257   -13244   -13240   -13240   -13231 
  -13209   -13193   -13181   -13163   -13143   -13131   -13134   -13143 
  -13147   -13138   -13117   -13088   -13059   -13043   -13042   -13058 
  -13092   -13128   -13158   -13180   -13196   -13213   -13231   -13239 
  -13230   -13204   -13181   -13167   -13153   -13142   -13147   -13163 
  -13185   -13212   -13227   -13234   -13238   -13235   -13234   -13230 
  -13215   -13201   -13200   -13203   -13205   -13205   -13197   -13185 
  -13184   -13201   -13231   -13255   -13275   -13292   -13315   -13338 
  -13343   -13339   -13342   -13329   -13293   -13269   -13262   -13265 
  -13296   -13329   -13340   -13342   -13329   -13313   -13311   -13311 
  -13305   -13298   -13274   -13239   -13232   -13244   -13252   -13259 
  -13267   -13267   -13255   -13240   -13234   -13225   -13217   -13212 
  -13205   -13205   -13211   -13208   -13193   -13174   -13159   -13157 
  -13167   -13186   -13209   -13227   -13227   -13207   -13173   -13135 
  -13093   -13059   -13046   -13041   -13041   -13053   -13074   -13100 
  -13131   -13166   -13198   -13227   -13252   -13270   -13285   -13290 
  -13282   -13286   -13300   -13294   -13292   -13309   -13328   -13339 
  -13360   -13378   -13378   -13370   -13352   -13324   -13297   -13266 
  -13232   -13212   -13212   -13234   -13273   -13319   -13363   -13394 
  -13410   -13412   -13412   -13414   -13412   -13416   -13431   -13427 
  -13402   -13387   -13378   -13348   -13308   -13277   -13242   -13197 
  -13159   -13142   -13130   -13126   -13135   -13149   -13170   -13196 
  -13201   -13190   -13182   -13176   -13177   -13186   -13192   -13193 
  -13190   -13185   -13185   -13185   -13177   -13169   -13165   -13159 
  -13158   -13170   -13188   -13209   -13232   -13236   -13220   -13203 
  -13189   -13176   -13169   -13180   -13207   -13234   -13238   -13215 
  -13192   -13173   -13149   -13123   -13109   -13120   -13153   -13186 
  -13212   -13239   -13252   -13244   -13238   -13248   -13278   -13309 
  -13323   -13309   -13288   -13279   -13271   -13263   -13265   -13255 
  -13235   -13239   -13271   -13308   -13325   -13327   -13320   -13308 
  -13305   -13321   -13338   -13338   -13324   -13297   -13271   -13248 
  -13221   -13208   -13219   -13228   -13227   -13230   -13236   -13248 
  -13267   -13288   -13293   -13284   -13279   -13278   -13263   -13242 
  -13225   -13215   -13207   -13211   -13225   -13235   -13227   -13219 
  -13212   -13209   -13213   -13220   -13228   -13246   -13258   -13257 
  -13250   -13248   -13251   -13257   -13250   -13227   -13203   -13198 
  -13205   -13209   -13208   -13209   -13216   -13225   -13239   -13261 
  -13278   -13286   -13293   -13312   -13339   -13350   -13344   -13328 
  -13297   -13263   -13240   -13216   -13208   -13234   -13259   -13265 
  -13255   -13234   -13220   -13225   -13227   -13221   -13223   -13236 
  -13257   -13285   -13306   -13313   -13319   -13323   -13300   -13267 
  -13252   -13236   -13213   -13197   -13176   -13139   -13100   -13070 
  -13063   -13078   -13103   -13134   -13165   -13193   -13217   -13231 
  -13224   -13217   -13223   -13232   -13230   -13209   -13178   -13157 
  -13151   -13159   -13178   -13197   -13212   -13223   -13239   -13263 
  -13279   -13297   -13315   -13304   -13263   -13230   -13212   -13198 
  -13193   -13200   -13209   -13227   -13250   -13262   -13254   -13235 
  -13224   -13230   -13242   -13262   -13281   -13294   -13309   -13328 
  -13340   -13347   -13359   -13374   -13393   -13404   -13382   -13362 
  -13362   -13352   -13324   -13288   -13254   -13240   -13244   -13242 
  -13231   -13225   -13221   -13216   -13205   -13185   -13181   -13192 
  -13203   -13211   -13216   -13220   -13221   -13224   -13224   -13224 
  -13225   -13228   -13231   -13231   -13217   -13180   -13136   -13113 
  -13104   -13103   -13116   -13139   -13167   -13200   -13219   -13220 
  -13223   -13230   -13231   -13228   -13224   -13231   -13255   -13282 
  -13296   -13293   -13292   -13298   -13300   -13282   -13261   -13254 
  -13242   -13225   -13224   -13228   -13216   -13200   -13192   -13194 
  -13207   -13213   -13209   -13198   -13178   -13157   -13155   -13166 
  -13176   -13190   -13213   -13232   -13248   -13267   -13284   -13288 
  -13288   -13294   -13300   -13288   -13267   -13252   -13238   -13216 
  -13198   -13192   -13189   -13184   -13176   -13158   -13146   -13146 
  -13143   -13135   -13126   -13117   -13127   -13155   -13185   -13213 
  -13250   -13282   -13297   -13297   -13288   -13269   -13244   -13239 
  -13244   -13234   -13212   -13192   -13169   -13153   -13158   -13184 
  -13221   -13258   -13293   -13328   -13352   -13365   -13371   -13370 
  -13366   -13351   -13324   -13300   -13278   -13244   -13198   -13161 
  -13143   -13150   -13182   -13231   -13277   -13304   -13308   -13297 
  -13285   -13279   -13284   -13304   -13333   -13354   -13365   -13367 
  -13343   -13293   -13239   -13184   -13136   -13111   -13108   -13132 
  -13169   -13201   -13232   -13262   -13286   -13304   -13319   -13338 
  -13342   -13332   -13325   -13311   -13296   -13286   -13265   -13247 
  -13247   -13240   -13240   -13263   -13286   -13296   -13297   -13301 
  -13313   -13315   -13305   -13305   -13305   -13301   -13308   -13317 
  -13323   -13331   -13324   -13293   -13257   -13224   -13196   -13185 
  -13190   -13188   -13180   -13177   -13173   -13170   -13176   -13181 
  -13193   -13219   -13235   -13231   -13223   -13213   -13201   -13196 
  -13201   -13207   -13219   -13239   -13244   -13224   -13192   -13159 
  -13135   -13124   -13130   -13149   -13180   -13205   -13209   -13197 
  -13180   -13163   -13155   -13161   -13165   -13167   -13173   -13178 
  -13192   -13220   -13247   -13259   -13266   -13277   -13282   -13271 
  -13254   -13250   -13246   -13227   -13204   -13194   -13194   -13193 
  -13189   -13197   -13212   -13228   -13247   -13266   -13286   -13301 
  -13293   -13270   -13257   -13257   -13255   -13250   -13244   -13231 
  -13211   -13197   -13192   -13194   -13200   -13209   -13225   -13242 
  -13251   -13250   -13236   -13227   -13232   -13240   -13236   -13221 
  -13211   -13223   -13246   -13255   -13251   -13246   -13244   -13250 
  -13251   -13238   -13225   -13234   -13252   -13265   -13259   -13242 
  -13235   -13247   -13266   -13277   -13275   -13277   -13285   -13282 
  -13270   -13275   -13305   -13342   -13371   -13398   -13408   -13408 
  -13405   -13377   -13333   -13312   -13306   -13302   -13306   -13312 
  -13319   -13333   -13332   -13305   -13277   -13251   -13228   -13224 
  -13225   -13219   -13211   -13209   -13224   -13244   -13259   -13267 
  -13267   -13263   -13251   -13227   -13193   -13162   -13132   -13105 
  -13081   -13077   -13101   -13142   -13185   -13220   -13230   -13219 
  -13205   -13189   -13180   -13185   -13194   -13196   -13194   -13197 
  -13205   -13217   -13228   -13235   -13240   -13238   -13232   -13228 
  -13219   -13205   -13184   -13150   -13124   -13120   -13130   -13153 
  -13177   -13196   -13217   -13243   -13258   -13254   -13238   -13224 
  -13223   -13232   -13246   -13252   -13254   -13254   -13242   -13223 
  -13223   -13236   -13248   -13259   -13269   -13282   -13297   -13306 
  -13306   -13301   -13297   -13293   -13293   -13306   -13315   -13305 
  -13293   -13285   -13270   -13262   -13266   -13247   -13208   -13181 
  -13163   -13132   -13092   -13066   -13063   -13077   -13099   -13119 
  -13147   -13188   -13231   -13263   -13275   -13288   -13320   -13355 
  -13371   -13367   -13351   -13339   -13336   -13335   -13332   -13332 
  -13332   -13342   -13355   -13362   -13362   -13359   -13363   -13367 
  -13359   -13338   -13309   -13282   -13262   -13252   -13247   -13230 
  -13215   -13215   -13207   -13190   -13186   -13188   -13171   -13143 
  -13124   -13124   -13135   -13144   -13144   -13142   -13144   -13149 
  -13150   -13146   -13144   -13147   -13149   -13144   -13136   -13132 
  -13140   -13163   -13198   -13244   -13284   -13309   -13329   -13338 
  -13329   -13328   -13327   -13311   -13293   -13284   -13286   -13306 
  -13315   -13294   -13284   -13277   -13262   -13258   -13261   -13261 
  -13265   -13271   -13279   -13285   -13284   -13288   -13302   -13311 
  -13306   -13315   -13338   -13356   -13366   -13363   -13335   -13304 
  -13298   -13320   -13340   -13336   -13317   -13297   -13279   -13270 
  -13257   -13234   -13208   -13176   -13151   -13150   -13173   -13194 
  -13193   -13178   -13167   -13162   -13167   -13177   -13176   -13166 
  -13158   -13162   -13180   -13192   -13186   -13167   -13150   -13142 
  -13153   -13192   -13242   -13277   -13300   -13317   -13328   -13332 
  -13332   -13329   -13316   -13296   -13277   -13250   -13234   -13234 
  -13224   -13209   -13205   -13208   -13223   -13243   -13246   -13228 
  -13196   -13159   -13136   -13126   -13136   -13176   -13217   -13240 
  -13246   -13251   -13257   -13248   -13235   -13219   -13196   -13177 
  -13178   -13192   -13197   -13197   -13200   -13200   -13188   -13163 
  -13138   -13123   -13122   -13136   -13146   -13142   -13139   -13150 
  -13158   -13149   -13135   -13138   -13149   -13154   -13151   -13144 
  -13136   -13126   -13127   -13143   -13158   -13162   -13157   -13150 
  -13159   -13184   -13207   -13235   -13269   -13288   -13285   -13271 
  -13259   -13246   -13221   -13209   -13231   -13269   -13305   -13336 
  -13359   -13365   -13344   -13317   -13300   -13274   -13242   -13220 
  -13201   -13189   -13192   -13189   -13181   -13178   -13180   -13184 
  -13196   -13205   -13205   -13208   -13224   -13240   -13267   -13306 
  -13320   -13305   -13308   -13325   -13332   -13331   -13323   -13305 
  -13311   -13344   -13374   -13396   -13405   -13400   -13396   -13389 
  -13375   -13362   -13347   -13329   -13317   -13315   -13329   -13342 
  -13338   -13339   -13352   -13371   -13392   -13404   -13406   -13410 
  -13413   -13400   -13374   -13359   -13344   -13294   -13223   -13159 
  -13127   -13140   -13177   -13209   -13238   -13261   -13269   -13257 
  -13232   -13211   -13193   -13169   -13143   -13117   -13089   -13062 
  -13041   -13030   -13030   -13039   -13051   -13063   -13073   -13077 
  -13073   -13062   -13047   -13036   -13042   -13069   -13116   -13166 
  -13196   -13197   -13190   -13192   -13197   -13205   -13225   -13252 
  -13259   -13246   -13227   -13215   -13207   -13197   -13200   -13225 
  -13251   -13269   -13286   -13293   -13281   -13254   -13219   -13189 
  -13173   -13167   -13171   -13176   -13165   -13142   -13120   -13093 
  -13063   -13054   -13062   -13081   -13108   -13130   -13140   -13151 
  -13169   -13203   -13248   -13289   -13324   -13352   -13348   -13312 
  -13266   -13219   -13196   -13211   -13244   -13294   -13348   -13375 
  -13381   -13383   -13378   -13370   -13355   -13328   -13323   -13340 
  -13360   -13383   -13414   -13447   -13483   -13517   -13531   -13535 
  -13537   -13532   -13516   -13494   -13487   -13510   -13533   -13540 
  -13537   -13510   -13478   -13454   -13433   -13431   -13443   -13478 
  -13537   -13572   -13582   -13579   -13547   -13505   -13474   -13436 
  -13402   -13371   -13329   -13286   -13251   -13217   -13182   -13155 
  -13146   -13153   -13177   -13209   -13242   -13261   -13254   -13224 
  -13193   -13169   -13154   -13149   -13147   -13155   -13176   -13205 
  -13239   -13263   -13269   -13263   -13265   -13286   -13317   -13347 
  -13390   -13447   -13498   -13541   -13582   -13595   -13578   -13541 
  -13482   -13409   -13358   -13324   -13292   -13255   -13224   -13216 
  -13227   -13246   -13262   -13279   -13297   -13308   -13319   -13321 
  -13328   -13348   -13356   -13346   -13324   -13286   -13240   -13194 
  -13142   -13095   -13051   -12997   -12937   -12877   -12833   -12811 
  -12807   -12816   -12830   -12849   -12897   -12961   -12989   -12981 
  -12955   -12916   -12876   -12849   -12841   -12850   -12874   -12911 
  -12953   -12978   -12977   -12947   -12907   -12866   -12837   -12819 
  -12829   -12880   -12953   -13027   -13113   -13209   -13302   -13397 
  -13490   -13574   -13640   -13674   -13660   -13612   -13563   -13529 
  -13513   -13518   -13540   -13551   -13539   -13514   -13486   -13468 
  -13459   -13448   -13446   -13440   -13413   -13381   -13346   -13293 
  -13248   -13228   -13215   -13185   -13150   -13120   -13096   -13080 
  -13073   -13078   -13100   -13136   -13178   -13205   -13194   -13139 
  -13039   -12910   -12762   -12609   -12461   -12345   -12270   -12220 
  -12202   -12225   -12283   -12363   -12452   -12540   -12631   -12735 
  -12853   -12988   -13128   -13258   -13387   -13514   -13620   -13691 
  -13730   -13745   -13745   -13733   -13705   -13645   -13558   -13475 
  -13427   -13410   -13417   -13437   -13462   -13497   -13533   -13563 
  -13586   -13602   -13602   -13601   -13595   -13566   -13510   -13441 
  -13382   -13351   -13346   -13360   -13400   -13468   -13554   -13624 
  -13657   -13657   -13630   -13570   -13478   -13373   -13269   -13178 
  -13112   -13061   -13007   -12947   -12874   -12788   -12711   -12669 
  -12676   -12719   -12795   -12884   -12958   -13008   -13035   -13031 
  -13008   -12982   -12969   -12968   -12984   -13047   -13142   -13234 
  -13313   -13386   -13441   -13486   -13522   -13537   -13524   -13485 
  -13435   -13393   -13370   -13379   -13409   -13421   -13427   -13444 
  -13467   -13510   -13589   -13676   -13738   -13763   -13743   -13666 
  -13549   -13431   -13329   -13262   -13231   -13231   -13270   -13317 
  -13347   -13374   -13393   -13397   -13405   -13420   -13413   -13371 
  -13319   -13252   -13149   -12999   -12830   -12681   -12580   -12528 
  -12513   -12529   -12571   -12627   -12699   -12783   -12869   -12941 
  -13001   -13055   -13103   -13155   -13211   -13255   -13284   -13289 
  -13274   -13257   -13240   -13215   -13185   -13167   -13159   -13165 
  -13188   -13224   -13261   -13279   -13265   -13220   -13169   -13131 
  -13105   -13086   -13076   -13085   -13112   -13147   -13186   -13220 
  -13235   -13232   -13236   -13257   -13281   -13305   -13328   -13352 
  -13366   -13354   -13332   -13309   -13275   -13235   -13196   -13161 
  -13139   -13117   -13082   -13030   -12946   -12830   -12715   -12627 
  -12569   -12537   -12540   -12591   -12681   -12798   -12937   -13089 
  -13240   -13366   -13458   -13536   -13595   -13612   -13597   -13554 
  -13468   -13367   -13278   -13207   -13163   -13154   -13174   -13219 
  -13278   -13354   -13424   -13458   -13470   -13474   -13458   -13447 
  -13455   -13456   -13441   -13432   -13423   -13404   -13392   -13392 
  -13406   -13463   -13567   -13683   -13779   -13849   -13883   -13869 
  -13826   -13771   -13697   -13610   -13518   -13413   -13305   -13207 
  -13120   -13053   -13005   -12972   -12957   -12977   -13031   -13101 
  -13177   -13259   -13342   -13393   -13420   -13433   -13414   -13365 
  -13321   -13297   -13284   -13273   -13263   -13250   -13248   -13270 
  -13292   -13290   -13270   -13228   -13158   -13076   -13015   -12991 
  -13001   -13039   -13081   -13115   -13157   -13192   -13207   -13213 
  -13209   -13190   -13169   -13154   -13170   -13232   -13321   -13419 
  -13506   -13563   -13594   -13602   -13581   -13541   -13491   -13435 
  -13392   -13374   -13393   -13437   -13468   -13491   -13520   -13549 
  -13589   -13632   -13651   -13645   -13630   -13608   -13579   -13551 
  -13531   -13518   -13509   -13508   -13522   -13545   -13566   -13578 
  -13568   -13535   -13479   -13405   -13315   -13223   -13155   -13128 
  -13130   -13154   -13177   -13173   -13157   -13140   -13126   -13113 
  -13104   -13100   -13101   -13093   -13069   -13020   -12954   -12884 
  -12816   -12761   -12723   -12700   -12696   -12717   -12738   -12756 
  -12781   -12818   -12865   -12919   -12988   -13077   -13165   -13255 
  -13348   -13406   -13424   -13429   -13409   -13355   -13289   -13232 
  -13192   -13181   -13203   -13239   -13271   -13289   -13290   -13300 
  -13335   -13379   -13432   -13516   -13622   -13713   -13774   -13806 
  -13814   -13803   -13774   -13730   -13676   -13608   -13547   -13505 
  -13454   -13382   -13304   -13235   -13185   -13169   -13184   -13205 
  -13221   -13235   -13244   -13240   -13223   -13197   -13169   -13131 
  -13078   -13018   -12976   -12951   -12935   -12914   -12869   -12808 
  -12761   -12725   -12688   -12661   -12638   -12614   -12599   -12591 
  -12583   -12575   -12567   -12569   -12594   -12640   -12702   -12765 
  -12819   -12866   -12914   -12961   -12982   -12969   -12950   -12924 
  -12874   -12830   -12819   -12845   -12903   -12965   -13020   -13095 
  -13185   -13279   -13382   -13485   -13552   -13576   -13586   -13582 
  -13558   -13537   -13531   -13527   -13517   -13493   -13456   -13427 
  -13398   -13379   -13366   -13348   -13348   -13374   -13398   -13425 
  -13458   -13481   -13478   -13447   -13421   -13420   -13419   -13421 
  -13429   -13425   -13417   -13424   -13432   -13429   -13425   -13416 
  -13390   -13365   -13358   -13365   -13378   -13393   -13404   -13405 
  -13401   -13397   -13404   -13431   -13454   -13468   -13490   -13505 
  -13487   -13444   -13397   -13348   -13315   -13311   -13317   -13324 
  -13336   -13348   -13354   -13333   -13290   -13258   -13254   -13285 
  -13344   -13396   -13419   -13414   -13390   -13366   -13340   -13308 
  -13313   -13375   -13467   -13558   -13635   -13675   -13656   -13589 
  -13501   -13410   -13324   -13246   -13186   -13147   -13119   -13107 
  -13104   -13095   -13095   -13113   -13135   -13158   -13171   -13162 
  -13138   -13107   -13069   -13026   -12984   -12949   -12916   -12896 
  -12897   -12930   -13001   -13103   -13220   -13342   -13444   -13521 
  -13564   -13551   -13481   -13370   -13243   -13115   -12988   -12881 
  -12806   -12749   -12702   -12667   -12646   -12656   -12696   -12760 
  -12846   -12950   -13051   -13153   -13259   -13355   -13406   -13410 
  -13379   -13325   -13271   -13236   -13220   -13228   -13265   -13306 
  -13344   -13381   -13406   -13401   -13354   -13290   -13236   -13190 
  -13153   -13138   -13147   -13158   -13159   -13157   -13154   -13151 
  -13142   -13143   -13169   -13217   -13278   -13336   -13377   -13394 
  -13394   -13382   -13354   -13316   -13288   -13263   -13243   -13247 
  -13277   -13296   -13289   -13281   -13281   -13282   -13293   -13313 
