Origin Time       2024/04/02 04:24:00
Lat.              40.133
Long.             141.712
Depth. (km)       71
Mag.              6.0
Station Code      IBUH06
Station Lat.      42.4116
Station Long.     141.0017
Station Height(m) 400
Record Time       2024/04/02 04:25:15
Sampling Freq(Hz) 100Hz
Duration Time(s)  120
Dir.              6
Scale Factor      7845(gal)/8223790
Max. Acc. (gal)   5.297
Last Correction   2024/04/02 04:25:15
Memo.             
[...]
   -2377    -2419    -2166    -1780    -1533    -1552    -1629    -1614 
   -1740    -2207    -2708    -2740    -2272    -1780    -1671    -1902 
   -2158    -2257    -2295    -2334    -2255    -1971    -1555    -1259 
   -1314    -1622    -1884    -2027    -2134    -2150    -1972    -1707 
   -1568    -1541    -1539    -1678    -1988    -2185    -2112    -2018 
   -2115    -2270    -2280    -2095    -1757    -1439    -1368    -1583 
   -1923    -2223    -2435    -2585    -2586    -2309    -1942    -1899 
   -2212    -2447    -2245    -1678    -1134     -919    -1081    -1516 
   -2019    -2434    -2713    -2708    -2249    -1611    -1358    -1584 
   -1831    -1745    -1385    -1051    -1008    -1221    -1449    -1618 
   -1864    -2268    -2666    -2755    -2477    -2176    -2119    -2166 
   -2157    -2131    -2019    -1699    -1375    -1274    -1287    -1348 
   -1557    -1814    -1919    -1863    -1682    -1440    -1320    -1418 
   -1655    -1999    -2421    -2706    -2731    -2619    -2413    -2089 
   -1906    -2092    -2316    -2197    -1902    -1729    -1744    -1885 
   -1993    -1891    -1609    -1324    -1171    -1107    -1032    -1144 
   -1659    -2305    -2610    -2473    -2189    -2041    -2010    -1968 
   -1899    -1831    -1807    -1881    -1988    -2010    -1989    -1985 
   -1890    -1686    -1570    -1620    -1679    -1594    -1462    -1637 
   -2230    -2758    -2744    -2296    -1819    -1613    -1786    -2201 
   -2574    -2731    -2652    -2288    -1671    -1142    -1040    -1302 
   -1614    -1795    -1822    -1687    -1507    -1470    -1598    -1823 
   -2060    -2111    -1888    -1660    -1695    -1865    -1980    -2124 
   -2347    -2567    -2778    -2883    -2644    -2110    -1649    -1409 
   -1321    -1426    -1628    -1748    -1910    -2193    -2316    -2061 
   -1578    -1086     -749     -719     -893    -1081    -1340    -1683 
   -1941    -2065    -2047    -1917    -1919    -2196    -2521    -2718 
   -2809    -2722    -2450    -2261    -2316    -2466    -2540    -2473 
   -2249    -1919    -1601    -1404    -1389    -1583    -1904    -2133 
   -2108    -1881    -1618    -1359    -1074     -940    -1155    -1547 
   -1831    -2008    -2119    -2058    -1885    -1825    -1917    -2041 
   -2084    -2029    -1948    -1946    -2106    -2303    -2249    -1925 
   -1636    -1551    -1660    -2070    -2712    -3117    -2959    -2384 
   -1732    -1308    -1246    -1397    -1618    -1892    -2077    -1973 
   -1668    -1503    -1615    -1780    -1773    -1624    -1526    -1683 
   -2037    -2273    -2218    -2030    -1975    -2091    -2177    -2153 
   -2222    -2474    -2650    -2470    -1987    -1498    -1188    -1012 
    -907     -935    -1171    -1547    -1844    -1856    -1583    -1271 
   -1183    -1337    -1648    -2116    -2593    -2718    -2407    -1999 
   -1813    -1871    -2074    -2339    -2529    -2512    -2245    -1842 
   -1599    -1680    -1892    -2047    -2134    -2139    -1952    -1505 
   -1090    -1136    -1568    -1903    -1854    -1560    -1356    -1437 
   -1687    -1964    -2265    -2521    -2635    -2635    -2578    -2586 
   -2745    -2818    -2552    -2114    -1776    -1584    -1405    -1107 
    -831     -919    -1354    -1678    -1669    -1614    -1733    -1903 
   -2020    -2069    -2085    -2392    -3126    -3646    -3330    -2478 
   -1729    -1318    -1219    -1333    -1516    -1648    -1588    -1244 
    -777     -584     -940    -1601    -2061    -2241    -2397    -2602 
   -2705    -2613    -2419    -2301    -2332    -2492    -2691    -2759 
   -2596    -2311    -2041    -1773    -1534    -1462    -1517    -1572 
   -1606    -1503    -1166     -810     -735     -916    -1058    -1152 
   -1505    -2064    -2551    -2998    -3396    -3430    -3040    -2616 
   -2319    -1939    -1552    -1386    -1256    -1028     -939     -993 
    -893     -700     -683     -827    -1123    -1629    -2045    -2104 
   -2033    -1975    -1821    -1717    -1912    -2266    -2461    -2463 
   -2501    -2628    -2528    -2119    -1840    -1876    -1925    -1919 
   -1973    -1983    -1921    -1903    -1838    -1584    -1389    -1591 
   -1941    -1922    -1611    -1499    -1696    -1961    -2120    -2095 
   -1933    -1865    -1979    -2091    -2169    -2370    -2663    -2816 
   -2697    -2327    -1860    -1560    -1540    -1637    -1733    -1902 
   -2195    -2463    -2548    -2486    -2343    -2072    -1671    -1242 
    -943     -977    -1356    -1794    -1988    -1918    -1800    -1790 
   -1788    -1761    -1958    -2416    -2749    -2700    -2289    -1723 
   -1404    -1578    -2043    -2407    -2494    -2369    -2033    -1534 
   -1100     -864     -886    -1206    -1571    -1647    -1561    -1717 
   -2173    -2648    -2906    -2837    -2439    -1849    -1329    -1183 
   -1475    -1879    -2079    -2015    -1786    -1625    -1661    -1725 
   -1721    -1804    -1941    -1899    -1717    -1698    -2004    -2409 
   -2496    -2223    -1958    -1900    -1879    -1721    -1544    -1543 
   -1606    -1541    -1367    -1216    -1275    -1557    -1765    -1757 
   -1675    -1560    -1385    -1277    -1422    -1935    -2697    -3283 
   -3368    -3098    -2736    -2353    -2034    -1921    -1937    -1923 
   -1840    -1680    -1498    -1425    -1470    -1529    -1630    -1856 
   -2106    -2119    -1756    -1278    -1115    -1344    -1732    -2047 
   -2116    -2018    -2042    -2161    -2110    -1930    -1864    -1962 
   -2091    -2116    -2041    -1989    -2107    -2370    -2623    -2778 
   -2816    -2714    -2459    -2100    -1819    -1772    -1806    -1680 
   -1458    -1325    -1367    -1584    -1867    -2060    -2074    -1910 
   -1732    -1642    -1506    -1367    -1528    -1962    -2215    -1976 
   -1518    -1378    -1671    -2039    -2272    -2462    -2623    -2628 
   -2421    -2047    -1702    -1676    -1987    -2285    -2354    -2358 
   -2339    -2034    -1452    -1040    -1053    -1210    -1201    -1125 
   -1167    -1260    -1302    -1336    -1456    -1765    -2292    -2852 
   -3106    -2868    -2315    -1833    -1621    -1638    -1880    -2263 
   -2494    -2416    -2151    -1810    -1472    -1301    -1294    -1312 
   -1482    -1885    -2076    -1827    -1655    -1912    -2309    -2505 
   -2444    -2227    -1975    -1756    -1543    -1291    -1128    -1216 
   -1424    -1537    -1613    -1683    -1602    -1424    -1394    -1663 
   -2120    -2394    -2299    -2127    -2138    -2320    -2587    -2772 
   -2824    -2862    -2810    -2498    -2042    -1655    -1332    -1098 
   -1185    -1594    -1880    -1740    -1412    -1205    -1186    -1343 
   -1534    -1602    -1683    -1944    -2223    -2344    -2416    -2558 
   -2656    -2573    -2386    -2344    -2520    -2620    -2373    -1904 
   -1494    -1270    -1247    -1324    -1314    -1318    -1618    -2077 
   -2280    -2108    -1764    -1499    -1485    -1687    -1888    -1952 
   -1999    -2236    -2544    -2484    -2006    -1583    -1517    -1715 
   -1968    -2138    -2285    -2484    -2558    -2251    -1618    -1086 
   -1027    -1201    -1179    -1155    -1553    -2226    -2700    -2767 
   -2485    -1989    -1541    -1389    -1497    -1683    -1921    -2214 
   -2361    -2242    -2056    -1956    -1903    -1864    -1880    -2020 
   -2158    -2050    -1807    -1788    -2022    -2191    -2096    -1775 
   -1401    -1258    -1421    -1557    -1479    -1480    -1756    -2011 
   -2006    -1985    -2158    -2274    -2099    -1831    -1761    -1864 
   -1935    -1858    -1651    -1575    -1891    -2339    -2447    -2157 
   -1718    -1335    -1070     -943    -1082    -1561    -2085    -2245 
   -2006    -1609    -1290    -1198    -1366    -1721    -2118    -2319 
   -2106    -1586    -1246    -1509    -2266    -3032    -3465    -3492 
   -3119    -2440    -1669    -1148    -1232    -1831    -2396    -2554 
   -2349    -1929    -1417    -1000     -916    -1287    -1883    -2250 
   -2209    -1971    -1723    -1524    -1548    -1915    -2388    -2605 
   -2369    -1809    -1347    -1294    -1547    -1802    -1953    -2126 
   -2335    -2359    -2195    -2166    -2315    -2371    -2207    -1822 
   -1317     -984    -1001    -1264    -1656    -2074    -2281    -2095 
   -1642    -1254    -1217    -1541    -1898    -2088    -2250    -2394 
   -2331    -2054    -1788    -1745    -1884    -1957    -1890    -1827 
   -1819    -1791    -1786    -1848    -1825    -1620    -1402    -1401 
   -1687    -2180    -2652    -2814    -2608    -2272    -2038    -1918 
   -1768    -1580    -1571    -1823    -2060    -1976    -1748    -1738 
   -1907    -2004    -1968    -1885    -1841    -1779    -1634    -1521 
   -1458    -1347    -1281    -1360    -1532    -1817    -2177    -2295 
   -1991    -1574    -1483    -1755    -2002    -2074    -2334    -2889 
   -3258    -3041    -2280    -1398     -935     -911     -990    -1260 
   -1827    -2292    -2309    -1891    -1282    -1027    -1435    -2045 
   -2290    -2195    -2124    -2196    -2219    -2123    -2116    -2381 
   -2770    -2886    -2539    -2041    -1895    -2169    -2466    -2492 
   -2289    -2054    -1896    -1696    -1348    -1067    -1174    -1668 
   -2270    -2737    -2901    -2725    -2408    -2074    -1756    -1668 
   -1918    -2263    -2423    -2250    -1768    -1185     -785     -692 
    -803    -1011    -1358    -1884    -2357    -2488    -2398    -2359 
   -2380    -2462    -2705    -2979    -3006    -2789    -2605    -2585 
   -2674    -2810    -2841    -2498    -1717     -893     -390      -91 
      56     -148     -652    -1219    -1791    -2282    -2484    -2378 
   -2164    -1977    -1786    -1505    -1318    -1701    -2770    -3883 
   -4305    -3925    -3148    -2436    -2026    -1749    -1344     -859 
    -372      202      764     1008      715      -87    -1063    -1831 
   -2303    -2551    -2544    -2350    -2293    -2560    -2963    -3267 
   -3319    -3010    -2450    -2108    -2274    -2613    -2802    -2905 
   -2818    -2174     -988      183      827      819      310     -311 
    -576     -400     -121      -68     -359    -1073    -2295    -3829 
   -5192    -5957    -6037    -5520    -4503    -3258    -2080    -1148 
    -708     -795    -1081    -1314    -1545    -1836    -1856    -1197 
    -140      599      812      719      297     -583    -1768    -3021 
   -4075    -4596    -4638    -4729    -5067    -5186    -4737    -3906 
   -2905    -1864    -1063     -670     -498     -284       44      444 
     706      449     -432    -1402    -1813    -1611    -1174     -862 
   -1074    -1908    -2759    -3121    -3244    -3368    -3249    -2839 
   -2559    -2678    -2994    -3036    -2515    -1726    -1170    -1092 
   -1491    -1952    -1910    -1348     -650      -28      371      110 
    -972    -2340    -3481    -4194    -4329    -4047    -3655    -3191 
   -2764    -2646    -2739    -2625    -2139    -1399     -585       29 
     294      224     -252    -1161    -2247    -3038    -3183    -2776 
   -2114    -1397     -847     -666     -803     -873     -594     -210 
    -162     -541    -1306    -2381    -3303    -3688    -3842    -4081 
   -4156    -3831    -3133    -2093     -850      189      564       66 
   -1189    -2729    -3920    -4297    -3775    -2801    -1977    -1564 
   -1584    -1869    -1999    -1701    -1129     -683     -746    -1416 
   -2272    -2614    -2128    -1102     -135      252       43     -396 
   -1020    -1914    -2785    -3339    -3554    -3532    -3545    -3767 
   -4001    -3985    -3704    -3215    -2508    -1692     -864        9 
     679      800      599      469      247     -386    -1301    -2154 
   -2772    -3115    -3199    -3009    -2508    -1898    -1580    -1799 
   -2382    -2841    -2853    -2462    -1857    -1244     -753     -453 
    -490     -950    -1626    -2118    -2207    -2127    -2188    -2313 
   -2421    -2637    -2782    -2474    -1695     -814     -253     -346 
   -1219    -2543    -3632    -4095    -4001    -3449    -2646    -2135 
   -2286    -2760    -2902    -2556    -1962    -1129     -122      527 
     386     -468    -1642    -2554    -2741    -2373    -2030    -2030 
   -2285    -2620    -2862    -2758    -2265    -1834    -1842    -2030 
   -1958    -1544     -954     -415     -120      -90     -205     -438 
    -897    -1555    -2215    -2812    -3424    -4001    -4417    -4685 
   -4741    -4359    -3532    -2548    -1719    -1239    -1009     -675 
     -17      787     1246     1032      282     -710    -1717    -2486 
   -2821    -2771    -2583    -2450    -2450    -2606    -2872    -3051 
   -2911    -2489    -2034    -1663    -1344    -1046     -722     -502 
    -535     -546     -267       52       47     -361    -1155    -2326 
   -3569    -4426    -4765    -4629    -4104    -3499    -3172    -3277 
   -3676    -3990    -3896    -3304    -2420    -1594     -923     -332 
       6      -83     -396     -483     -170      176       91     -441 
   -1070    -1491    -1773    -2254    -2945    -3507    -3794    -3847 
   -3672    -3364    -2921    -2184    -1368     -935     -776     -371 
     329      846      795      203     -689    -1713    -2771    -3805 
   -4783    -5514    -5632    -5121    -4425    -3689    -2708    -1644 
    -930     -703     -872    -1120     -912     -140      684     1197 
    1420     1312      807      -14    -1058    -2169    -3163    -3971 
   -4526    -4784    -4957    -5256    -5499    -5404    -5020    -4526 
   -3973    -3262    -2169     -666      866     2095     3026     3627 
    3661     3138     2276     1156      -20     -977    -1868    -2929 
   -3863    -4299    -4429    -4638    -4928    -5150    -5323    -5390 
   -5043    -4121    -2891    -1809    -1125     -695     -222      379 
    1000     1445     1452      820     -392    -1776    -2774    -3149 
   -3090    -2840    -2542    -2415    -2575    -2768    -2824    -2814 
   -2628    -2157    -1599    -1123     -783     -679     -791     -915 
    -899     -785     -734     -893    -1297    -1815    -2342    -2816 
   -3029    -2917    -2704    -2560    -2606    -2968    -3528    -4014 
   -4303    -4279    -3686    -2604    -1613    -1188    -1347    -1761 
   -1931    -1644    -1104     -556     -233     -465    -1323    -2396 
   -3117    -3115    -2419    -1485     -873     -807    -1119    -1483 
   -1640    -1595    -1630    -1958    -2439    -2785    -2853    -2713 
   -2587    -2579    -2660    -2852    -3051    -2889    -2154    -1125 
    -238      234      174     -286     -818    -1324    -1844    -2231 
   -2394    -2452    -2430    -2262    -2049    -1984    -2165    -2589 
   -3132    -3561    -3716    -3473    -2704    -1665     -919     -715 
    -966    -1406    -1629    -1455    -1027     -515     -156     -238 
    -689    -1150    -1467    -1728    -2069    -2513    -2816    -2793 
   -2650    -2529    -2191    -1490     -699     -175     -129     -448 
    -499      135      812      656     -292    -1474    -2617    -3715 
   -4621    -5071    -4887    -4206    -3539    -3194    -2925    -2475 
   -1985    -1761    -1858    -1980    -1786    -1198     -445       86 
     148     -207     -842    -1679    -2609    -3437    -3947    -4055 
   -3847    -3454    -2972    -2443    -1744     -811      -21      133 
    -314     -970    -1624    -2243    -2785    -3171    -3253    -3017 
   -2743    -2721    -2940    -3146    -3134    -2848    -2251    -1483 
   -1024    -1286    -2104    -2983    -3669    -3948    -3337    -1856 
    -511     -160     -577    -1038    -1171    -1020     -797     -702 
    -697     -598     -540     -928    -1706    -2282    -2263    -1748 
   -1142     -934    -1251    -1883    -2705    -3507    -3870    -3564 
   -2671    -1559     -799     -666     -946    -1355    -1791    -2157 
   -2251    -1910    -1205     -534     -405     -922    -1714    -2446 
   -3030    -3381    -3383    -2959    -2150    -1333     -997    -1251 
   -1794    -2203    -2266    -2100    -1857    -1651    -1679    -1900 
   -1988    -1804    -1421     -834      -64      658     1001      676 
    -402    -1960    -3489    -4548    -5023    -5120    -4953    -4530 
   -4064    -3793    -3654    -3360    -2679    -1669     -488      770 
    1809     2205     1962     1439      757     -163    -1219    -2257 
   -3240    -4029    -4471    -4634    -4637    -4538    -4492    -4513 
   -4368    -3910    -3206    -2439    -1810    -1447    -1273     -985 
    -494      -31      355      746      940      573     -379    -1428 
   -1968    -1818    -1300     -845     -637     -699    -1089    -1821 
   -2717    -3456    -3763    -3570    -3083    -2619    -2288    -1962 
   -1579    -1325    -1510    -2114    -2764    -3226    -3396    -3204 
   -2859    -2525    -2054    -1382     -703     -292     -340     -746 
   -1193    -1482    -1711    -2066    -2600    -3163    -3377    -2982 
   -2224    -1539    -1043     -679     -619    -1093    -1937    -2722 
   -3103    -2965    -2533    -2137    -1921    -1925    -2107    -2286 
   -2249    -1868    -1266     -853     -961    -1431    -1807    -1895 
   -1848    -1749    -1540    -1417    -1694    -2338    -3060    -3539 
   -3607    -3493    -3495    -3372    -2704    -1593     -475      398 
     931     1050      788      224     -545    -1359    -2031    -2475 
   -2779    -3061    -3284    -3339    -3316    -3493    -3955    -4391 
   -4378    -3726    -2586    -1335     -329      264      365     -132 
   -1031    -1750    -1845    -1252     -270      457      438     -184 
    -994    -1734    -2270    -2488    -2407    -2303    -2551    -3283 
   -4139    -4575    -4333    -3554    -2614    -1867    -1551    -1819 
   -2508    -3036    -2898    -2195    -1387     -692     -183     -163 
    -703    -1354    -1665    -1580    -1332    -1131     -994     -900 
    -880    -1017    -1386    -1849    -2135    -2214    -2261    -2400 
   -2627    -2802    -2867    -2902    -2880    -2739    -2520    -2296 
   -2187    -2290    -2448    -2457    -2308    -2003    -1561    -1140 
    -812     -575     -573     -861    -1150    -1209    -1212    -1472 
   -2038    -2682    -3200    -3559    -3724    -3550    -2963    -2139 
   -1474    -1354    -1898    -2754    -3241    -2905    -1841     -546 
     460      973     1027      621     -180    -1127    -1954    -2490 
   -2664    -2632    -2758    -3250    -3835    -4040    -3735    -3025 
   -2087    -1374    -1337    -1911    -2601    -2878    -2504    -1636 
    -618      182      568      599      352     -102     -599    -1004 
   -1356    -1796    -2336    -2860    -3219    -3192    -2697    -2093 
   -1807    -1899    -2312    -2972    -3541    -3661    -3268    -2542 
   -1826    -1424    -1324    -1285    -1080     -746     -598     -805 
   -1314    -2043    -2799    -3291    -3373    -3094    -2639    -2251 
   -2157    -2452    -2940    -3213    -3032    -2498    -1863    -1345 
   -1075    -1057    -1173    -1285    -1337    -1347    -1345    -1399 
   -1494    -1509    -1475    -1601    -1995    -2592    -3211    -3564 
   -3495    -3099    -2502    -1931    -1690    -1723    -1761    -1728 
   -1544    -1161     -855     -841     -945    -1001     -947     -743 
    -598     -765    -1135    -1498    -1838    -2223    -2571    -2652 
   -2463    -2272    -2151    -2046    -1989    -1877    -1599    -1306 
   -1147    -1131    -1316    -1755    -2320    -2651    -2446    -1934 
