Origin Time       2024/04/02 04:24:00
Lat.              40.133
Long.             141.712
Depth. (km)       71
Mag.              6.0
Station Code      IBUH01
Station Lat.      42.8739
Station Long.     141.8191
Station Height(m) 60
Record Time       2024/04/02 04:25:23
Sampling Freq(Hz) 100Hz
Duration Time(s)  148
Dir.              4
Scale Factor      3920(gal)/6170801
Max. Acc. (gal)   4.407
Last Correction   2024/04/02 04:25:08
Memo.             
[...]
  -14649   -14460   -14023   -13525   -13179   -13067   -13182   -13487 
  -13908   -14337   -14665   -14840   -14890   -14903   -14947   -14989 
  -14993   -14996   -15013   -14970   -14806   -14587   -14447   -14412 
  -14380   -14277   -14162   -14164   -14300   -14425   -14406   -14237 
  -13976   -13693   -13506   -13533   -13811   -14289   -14851   -15366 
  -15701   -15772   -15577   -15158   -14609   -14131   -13927   -14033 
  -14293   -14518   -14639   -14655   -14544   -14324   -14149   -14196 
  -14473   -14850   -15177   -15334   -15258   -14957   -14547   -14204 
  -14028   -13998   -14045   -14107   -14150   -14165   -14159   -14173 
  -14266   -14456   -14696   -14896   -14989   -14926   -14670   -14248 
  -13777   -13403   -13282   -13528   -14148   -15052   -16045   -16792 
  -16977   -16503   -15511   -14349   -13461   -13125   -13289   -13701 
  -14073   -14176   -13965   -13554   -13083   -12736   -12733   -13133 
  -13764   -14389   -14866   -15164   -15296   -15283   -15154   -15005 
  -14928   -14902   -14872   -14871   -14930   -14977   -14896   -14632 
  -14236   -13849   -13646   -13754   -14147   -14634   -15020   -15220 
  -15228   -15110   -14956   -14799   -14631   -14454   -14252   -14022 
  -13834   -13806   -14014   -14388   -14735   -14878   -14795   -14603 
  -14443   -14395   -14473   -14629   -14780   -14837   -14746   -14551 
  -14383   -14332   -14374   -14436   -14466   -14471   -14548   -14765 
  -15026   -15158   -15068   -14763   -14290   -13703   -13100   -12651 
  -12563   -12958   -13742   -14609   -15242   -15474   -15311   -14899 
  -14473   -14225   -14272   -14636   -15155   -15587   -15830   -15920 
  -15895   -15732   -15404   -14964   -14514   -14148   -13930   -13877 
  -13956   -14100   -14215   -14203   -14047   -13813   -13587   -13508 
  -13699   -14116   -14559   -14822   -14860   -14780   -14663   -14523 
  -14400   -14330   -14332   -14455   -14724   -15048   -15278   -15324 
  -15179   -14883   -14461   -13997   -13651   -13541   -13688   -14005 
  -14312   -14469   -14487   -14510   -14660   -14915   -15179   -15396 
  -15480   -15297   -14823   -14238   -13827   -13760   -13943   -14162 
  -14313   -14381   -14353   -14202   -13906   -13531   -13228   -13140 
  -13312   -13697   -14214   -14725   -15047   -15090   -14944   -14782 
  -14723   -14767   -14854   -14949   -15008   -14937   -14727   -14549 
  -14572   -14736   -14833   -14734   -14430   -13956   -13374   -12825 
  -12512   -12592   -13020   -13600   -14219   -14831   -15338   -15698 
  -15954   -16131   -16232   -16287   -16324   -16323   -16178   -15774 
  -15121   -14359   -13683   -13254   -13145   -13305   -13558   -13666 
  -13511   -13210   -13014   -13107   -13506   -14115   -14791   -15320 
  -15521   -15425   -15211   -15025   -14945   -15003   -15171   -15359 
  -15449   -15387   -15239   -15067   -14835   -14523   -14197   -13931 
  -13766   -13721   -13785   -13845   -13757   -13547   -13376   -13343 
  -13484   -13848   -14411   -14955   -15196   -15043   -14662   -14296 
  -14093   -14083   -14247   -14523   -14780   -14871   -14753   -14572 
  -14497   -14511   -14505   -14466   -14428   -14399   -14415   -14550 
  -14833   -15207   -15526   -15658   -15616   -15482   -15296   -15088 
  -14869   -14601   -14246   -13871   -13579   -13435   -13498   -13799 
  -14250   -14698   -15017   -15132   -15010   -14708   -14375   -14166 
  -14126   -14194   -14331   -14558   -14819   -14993   -15032   -14939 
  -14724   -14411   -14094   -13949   -14110   -14515   -14910   -15077 
  -14953   -14593   -14175   -13934   -14006   -14343   -14697   -14814 
  -14671   -14375   -13967   -13491   -13097   -12979   -13209   -13633 
  -14005   -14235   -14389   -14466   -14405   -14267   -14187   -14260 
  -14548   -15032   -15557   -15937   -16047   -15823   -15314   -14688 
  -14112   -13754   -13770   -14074   -14317   -14233   -13898   -13575 
  -13430   -13462   -13628   -13945   -14410   -14881   -15143   -15118 
  -14906   -14602   -14251   -13941   -13787   -13833   -14056   -14402 
  -14794   -15123   -15296   -15275   -15096   -14888   -14772   -14767 
  -14872   -15103   -15391   -15587   -15597   -15428   -15130   -14801 
  -14562   -14400   -14175   -13828   -13468   -13250   -13273   -13566 
  -14065   -14614   -15005   -15032   -14633   -14011   -13497   -13327 
  -13566   -14096   -14667   -15027   -15077   -14911   -14693   -14540 
  -14515   -14646   -14863   -15026   -15071   -15087   -15174   -15265 
  -15214   -15000   -14714   -14402   -14053   -13695   -13414   -13268 
  -13229   -13285   -13459   -13754   -14177   -14699   -15179   -15422 
  -15317   -14913   -14393   -14014   -13950   -14161   -14497   -14832 
  -15029   -14949   -14602   -14219   -14019   -14014   -14122   -14346 
  -14673   -14964   -15044   -14822   -14384   -13961   -13705   -13635 
  -13741   -13986   -14331   -14777   -15244   -15495   -15306   -14722 
  -14039   -13565   -13503   -13903   -14606   -15324   -15808   -15877 
  -15448   -14665   -13866   -13385   -13391   -13820   -14426   -14942 
  -15207   -15188   -14933   -14548   -14219   -14113   -14234   -14468 
  -14742   -15064   -15405   -15626   -15574   -15189   -14596   -14067 
  -13848   -13995   -14398   -14884   -15254   -15304   -14928   -14250 
  -13574   -13216   -13348   -13873   -14490   -14937   -15101   -14969 
  -14658   -14399   -14349   -14471   -14663   -14914   -15181   -15278 
  -15073   -14652   -14200   -13823   -13545   -13392   -13422   -13671 
  -14052   -14408   -14671   -14837   -14864   -14735   -14510   -14268 
  -14110   -14157   -14458   -14923   -15387   -15706   -15811   -15688 
  -15381   -15012   -14716   -14549   -14520   -14610   -14755   -14863 
  -14830   -14592   -14178   -13712   -13338   -13127   -13104   -13310 
  -13728   -14244   -14723   -15045   -15103   -14922   -14704   -14653 
  -14841   -15234   -15711   -16093   -16210   -15978   -15456   -14826 
  -14302   -14025   -14036   -14273   -14563   -14727   -14681   -14427 
  -14080   -13844   -13858   -14104   -14481   -14876   -15198   -15424 
  -15571   -15607   -15464   -15115   -14609   -14052   -13588   -13346 
  -13339   -13482   -13657   -13763   -13799   -13863   -14040   -14330 
  -14597   -14667   -14542   -14354   -14184   -14050   -14037   -14248 
  -14629   -14998   -15183   -15095   -14762   -14334   -13983   -13803 
  -13793   -13893   -14048   -14231   -14356   -14320   -14128   -13875 
  -13644   -13460   -13331   -13300   -13435   -13768   -14231   -14677 
  -14987   -15149   -15190   -15088   -14887   -14743   -14759   -14886 
  -14941   -14734   -14234   -13637   -13223   -13186   -13536   -14084 
  -14500   -14547   -14295   -14026   -13952   -14155   -14666   -15444 
  -16278   -16849   -16953   -16620   -16000   -15260   -14527   -13894 
  -13458   -13318   -13533   -14037   -14597   -14955   -14975   -14653 
  -14074   -13443   -13095   -13252   -13777   -14293   -14541   -14473 
  -14088   -13422   -12690   -12216   -12221   -12744   -13644   -14655 
  -15478   -15868   -15747   -15303   -14851   -14555   -14355   -14171 
  -14041   -14010   -14039   -14074   -14070   -13977   -13810   -13638 
  -13524   -13556   -13781   -14121   -14456   -14710   -14843   -14869 
  -14886   -14976   -15135   -15337   -15631   -16060   -16469   -16566 
  -16146   -15231   -14060   -12937   -12124   -11869   -12342   -13463 
  -14877   -16109   -16803   -16859   -16359   -15454   -14391   -13530 
  -13163   -13379   -14082   -15030   -15933   -16553   -16768   -16588 
  -16132   -15597   -15145   -14806   -14518   -14273   -14117   -14052 
  -13982   -13821   -13605   -13508   -13719   -14290   -15100   -15895 
  -16387   -16393   -15881   -14943   -13832   -12915   -12468   -12528 
  -12951   -13523   -13998   -14190   -14073   -13785   -13475   -13171 
  -12855   -12608   -12584   -12872   -13471   -14332   -15298   -16093 
  -16456   -16267   -15608   -14774   -14139   -13961   -14301   -15023 
  -15859   -16517   -16813   -16739   -16452   -16208   -16179   -16337 
  -16451   -16222   -15534   -14518   -13434   -12548   -12003   -11847 
  -12087   -12638   -13309   -13922   -14356   -14552   -14518   -14294 
  -13898   -13404   -13041   -13072   -13576   -14389   -15192   -15607 
  -15366   -14548   -13615   -13080   -13159   -13772   -14735   -15802 
  -16619   -16859   -16476   -15723   -14846   -13906   -12955   -12201 
  -11864   -12002   -12495   -13144   -13783   -14322   -14723   -14995 
  -15236   -15536   -15876   -16199   -16416   -16330   -15718   -14567 
  -13230   -12257   -12085   -12751   -13818   -14716   -15108   -14831 
  -13805   -12241   -10728    -9922   -10233   -11700   -13986   -16506 
  -18544   -19394   -18750   -16965   -14824   -13128   -12359   -12565 
  -13464   -14621   -15580   -15975   -15664   -14764   -13597   -12608 
  -12237   -12713   -13908   -15422   -16829   -17791   -18106   -17825 
  -17225   -16613   -16227   -16217   -16520   -16816   -16690   -15852 
  -14342   -12559   -10994   -10031    -9916   -10622   -11822   -13120 
  -14265   -15218   -16042   -16746   -17229   -17348   -17086   -16627 
  -16239   -16120   -16307   -16694   -17130   -17404   -17215   -16387 
  -15027   -13390   -11786   -10575    -9986   -10007   -10491   -11238 
  -12057   -12783   -13292   -13564   -13736   -14053   -14735   -15842 
  -17223   -18590   -19545   -19611   -18536   -16565   -14304   -12384 
  -11242   -11037   -11557   -12280   -12649   -12314   -11240    -9740 
   -8390    -7811    -8453   -10404   -13300   -16410   -18941   -20348 
  -20466   -19445   -17638   -15620   -14096   -13548   -14056   -15325 
  -16745   -17621   -17438   -16075   -13863   -11423    -9556    -9073 
  -10304   -12865   -15930   -18537   -19915   -19833   -18567   -16660 
  -14817   -13682   -13483   -13915   -14368   -14407   -14004   -13325 
  -12600   -12110   -12009   -12231   -12567   -12784   -12793   -12727 
  -12787   -13076   -13700   -14815   -16425   -18239   -19759   -20512 
  -20286   -19171   -17484   -15700   -14234   -13309   -12980   -13135 
  -13477   -13661   -13503   -13049   -12501   -12142   -12259   -12948 
  -13955   -14836   -15261   -15186   -14809   -14423   -14328   -14718 
  -15541   -16487   -17111   -17062   -16313   -15127   -13804   -12596 
  -11738   -11358   -11437   -11895   -12596   -13404   -14303   -15289 
  -16250   -17000   -17368   -17343   -17045   -16547   -15884   -15111 
  -14247   -13337   -12546   -12081   -12013   -12258   -12692   -13258 
  -13958   -14760   -15521   -16058   -16280   -16218   -15979   -15717 
  -15574   -15601   -15704   -15684   -15344   -14577   -13420   -12099 
  -10953   -10310   -10457   -11513   -13256   -15128   -16444   -16734 
  -15979   -14598   -13189   -12223   -11908   -12202   -12906   -13830 
  -14872   -15995   -17081   -17898   -18269   -18166   -17646   -16759 
  -15526   -14021   -12463   -11150   -10316   -10047   -10359   -11284 
  -12728   -14390   -15880   -16821   -16930   -16161   -14759   -13120 
  -11741   -11195   -11836   -13492   -15573   -17421   -18558   -18779 
  -18176   -17006   -15569   -14215   -13248   -12759   -12697   -12981 
  -13464   -13982   -14492   -15026   -15507   -15751   -15616   -15092 
  -14277   -13305   -12336   -11546   -11071   -11049   -11633   -12859 
  -14536   -16286   -17642   -18181   -17681   -16269   -14478   -13024 
  -12485   -13136   -14817   -16904   -18626   -19423   -18995   -17376 
  -14992   -12468   -10419    -9279    -9116    -9643   -10536   -11611 
  -12728   -13805   -14836   -15812   -16719   -17507   -18014   -18102 
  -17782   -17139   -16335   -15680   -15451   -15646   -16026   -16278 
  -16102   -15306   -13931   -12302   -10925   -10215   -10288   -11007 
  -12164   -13535   -14882   -16041   -16990   -17739   -18248   -18481 
  -18386   -17869   -16969   -15923   -14918   -14025   -13299   -12740 
  -12262   -11842   -11569   -11537   -11798   -12286   -12747   -12923 
  -12742   -12253   -11569   -10918   -10621   -10970   -12087   -13840 
  -15851   -17602   -18664   -18913   -18539   -17863   -17169   -16644 
  -16321   -16058   -15687   -15219   -14808   -14493   -14149   -13688 
  -13118   -12502   -11946   -11635   -11809   -12592   -13849   -15229 
  -16345   -16950   -16973   -16462   -15627   -14873   -14590   -14842 
  -15333   -15675   -15626   -15127   -14284   -13379   -12773   -12712 
  -13196   -14012   -14870   -15533   -15860   -15814   -15487   -15069 
  -14724   -14460   -14163   -13747   -13211   -12680   -12437   -12746 
  -13611   -14738   -15701   -16133   -15876   -15093   -14158   -13406 
  -13028   -13081   -13468   -13981   -14447   -14772   -14910   -14919 
  -14985   -15280   -15796   -16307   -16485   -16119   -15306   -14353 
  -13530   -12980   -12714   -12659   -12748   -12918   -13097   -13269 
  -13481   -13793   -14187   -14570   -14913   -15300   -15750   -16122 
  -16252   -16086   -15673   -15106   -14493   -13997   -13821   -14043 
  -14520   -15012   -15310   -15304   -15005   -14565   -14166   -13883 
  -13680   -13471   -13161   -12695   -12092   -11498   -11149   -11276 
  -12021   -13335   -14958   -16496   -17507   -17688   -17033   -15817 
  -14532   -13760   -13905   -14928   -16372   -17597   -18031   -17407 
  -15879   -13908   -12076   -10901   -10686   -11405   -12711   -14089 
  -15038   -15296   -14987   -14463   -14081   -14156   -14845   -15914 
  -16807   -17004   -16220   -14526   -12423   -10647    -9865   -10522 
  -12672   -15788   -18880   -20946   -21415   -20262   -17918   -15131 
  -12744   -11355   -11116   -11781   -12789   -13532   -13753   -13538 
  -13078   -12630   -12495   -12858   -13685   -14753   -15684   -16154 
  -16143   -15865   -15603   -15612   -15956   -16500   -17038   -17352 
  -17254   -16640   -15469   -13803   -11930   -10289    -9230    -8969 
   -9607   -11003   -12737   -14339   -15560   -16398   -16970   -17444 
  -17883   -18126   -17937   -17227   -16092   -14734   -13403   -12410 
  -12026   -12332   -13179   -14238   -15163   -15700   -15654   -15010 
  -14063   -13202   -12673   -12650   -13237   -14386   -15862   -17245 
  -18074   -18072   -17178   -15546   -13603   -11892   -10798   -10442 
  -10699   -11313   -12042   -12677   -13050   -13171   -13241   -13479 
  -14051   -15025   -16222   -17246   -17749   -17623   -16979   -16093 
  -15311   -14851   -14750   -14934   -15205   -15257   -14862   -14032 
  -13014   -12191   -11907   -12212   -12833   -13452   -13900   -14124 
  -14213   -14387   -14752   -15166   -15406   -15360   -15056   -14598 
  -14070   -13556   -13228   -13224   -13535   -14117   -14934   -15860 
  -16659   -17099   -17045   -16533   -15838   -15336   -15253   -15625 
  -16345   -17083   -17332   -16713   -15205   -13145   -11149    -9855 
   -9533    -9996   -10870   -11800   -12546   -13064   -13419   -13680 
  -13976   -14430   -14973   -15421   -15711   -15937   -16246   -16747 
  -17419   -18053   -18358   -18114   -17221   -15733   -13931   -12261 
  -11104   -10618   -10828   -11701   -13083   -14644   -15935   -16587 
  -16484   -15794   -14877   -14150   -13954   -14394   -15314   -16390 
  -17215   -17427   -16897   -15758   -14305   -12874   -11712   -10944 
  -10594   -10517   -10509   -10508   -10640   -11107   -12050   -13439 
  -15042   -16540   -17660   -18259   -18406   -18259   -17921   -17498 
  -17091   -16700   -16219   -15538   -14646   -13676   -12879   -12502 
  -12615   -13062   -13596   -13972   -13963   -13544   -13001   -12700 
  -12868   -13596   -14824   -16258   -17488   -18153   -17960   -16830 
  -15073   -13200   -11652   -10763   -10706   -11412   -12645   -14060 
  -15275   -16037   -16310   -16187   -15807   -15343   -14967   -14780 
  -14782   -14920   -15176   -15522   -15860   -16089   -16175   -16122 
  -15917   -15524   -14930   -14171   -13318   -12463   -11736   -11359 
  -11591   -12519   -13978   -15634   -17086   -17981   -18088   -17361 
  -15995   -14384   -13000   -12231   -12214   -12791   -13650   -14458 
  -14910   -14840   -14250   -13269   -12187   -11354   -10963   -10997 
  -11330   -11825   -12401   -13083   -13948   -15014   -16192   -17331 
  -18255   -18729   -18542   -17677   -16297   -14649   -13063   -11928 
  -11546   -11953   -12927   -14099   -15119   -15815   -16168   -16211 
  -16052   -15879   -15801   -15809   -15859   -15895   -15847   -15661 
  -15301   -14764   -14177   -13739   -13502   -13387   -13323   -13272 
  -13173   -12963   -12660   -12381   -12276   -12431   -12815   -13353 
  -13987   -14614   -15095   -15325   -15311   -15212   -15302   -15777 
  -16585   -17480   -18196   -18547   -18428   -17804   -16709   -15306 
  -13854   -12607   -11764   -11393   -11401   -11641   -12009   -12425 
  -12830   -13249   -13718   -14193   -14610   -14922   -15159   -15418 
  -15729   -16005   -16095   -15884   -15366   -14662   -13974   -13513 
  -13429   -13711   -14177   -14615   -14887   -14954   -14815   -14455 
  -13909   -13328   -12914   -12802   -13067   -13726   -14664   -15683 
  -16624   -17339   -17692   -17668   -17358   -16844   -16145   -15253 
  -14213   -13138   -12160   -11387   -10926   -10927   -11452   -12345 
  -13334   -14185   -14799   -15217   -15511   -15666   -15641   -15482 
  -15261   -15020   -14863   -14987   -15488   -16173   -16703   -16819 
  -16400   -15541   -14530   -13653   -13063   -12776   -12692   -12720 
  -12939   -13483   -14289   -15118   -15675   -15639   -14817   -13364 
  -11746   -10549   -10325   -11359   -13442   -15919   -18006   -19102 
  -19002   -17965   -16458   -14887   -13505   -12418   -11637   -11116 
  -10789   -10618   -10630   -10901   -11474   -12326   -13393   -14583 
  -15785   -16825   -17480   -17628   -17355   -16918   -16587   -16554 
  -16866   -17400   -17915   -18112   -17688   -16462   -14538   -12315 
  -10289    -8887    -8394    -8869   -10123   -11835   -13616   -15035 
  -15793   -15844   -15364   -14663   -14090   -13929   -14293   -15095 
  -16087   -16924   -17324   -17181   -16565   -15689   -14827   -14140 
  -13629   -13292   -13177   -13282   -13482   -13583   -13492   -13267 
  -13055   -13024   -13306   -13943   -14829   -15767   -16572   -17048 
  -17043   -16566   -15799   -15025   -14519   -14458   -14812   -15341 
  -15755   -15878   -15670   -15194   -14569   -13906   -13334   -13022 
  -13050   -13364   -13847   -14301   -14501   -14364   -13973   -13497 
  -13189   -13286   -13823   -14597   -15322   -15780   -15889   -15775 
  -15669   -15716   -15927   -16169   -16213   -15920   -15331   -14587 
  -13850   -13292   -13016   -12986   -13129   -13394   -13751   -14199 
  -14674   -14997   -14975   -14556   -13880   -13226   -12882   -12973 
  -13435   -14101   -14772   -15287   -15541   -15475   -15130   -14686 
  -14384   -14331   -14421   -14495   -14506   -14476   -14401   -14271 
  -14123   -13997   -13885   -13787   -13752   -13819   -13961   -14096 
  -14131   -14022   -13839   -13770   -14028   -14749   -15879   -17158 
  -18244   -18818   -18641   -17635   -15946   -13893   -11842   -10150 
   -9102    -8811    -9288   -10489   -12170   -13900   -15267   -15999 
  -16044   -15595   -14950   -14387   -14141   -14299   -14724   -15202 
  -15639   -16084   -16566   -16962   -17068   -16733   -15953   -14907 
  -13872   -13101   -12732   -12736   -12937   -13108   -13134   -13116 
