Origin Time       2024/04/02 04:24:00
Lat.              40.133
Long.             141.712
Depth. (km)       71
Mag.              6.0
Station Code      IBUH02
Station Lat.      42.8714
Station Long.     142.1285
Station Height(m) 73
Record Time       2024/04/02 04:25:21
Sampling Freq(Hz) 100Hz
Duration Time(s)  121
Dir.              3
Scale Factor      3923(gal)/8224838
Max. Acc. (gal)   0.405
Last Correction   2024/04/02 04:25:21
Memo.             
[...]
    -198     -221     -275     -353     -413     -414     -349     -243 
    -130      -33       29       39       13      -28      -93     -167 
    -221     -232     -225     -243     -298     -368     -448     -526 
    -579     -603     -607     -596     -561     -488     -394     -310 
    -261     -248     -245     -245     -264     -294     -303     -290 
    -278     -280     -298     -330     -379     -448     -534     -610 
    -657     -650     -588     -518     -473     -441     -414     -395 
    -384     -367     -346     -333     -310     -278     -249     -232 
    -199     -139      -60       13       56       48      -12     -101 
    -179     -224     -220     -178     -129      -83      -49      -59 
    -118     -195     -265     -310     -333     -355     -371     -368 
    -360     -361     -363     -334     -271     -210     -184     -187 
    -191     -168     -122      -72      -17       52      117      162 
     182      189      190      171      135      109       99      113 
     143      157      140       87       -9     -132     -241     -321 
    -378     -419     -460     -511     -553     -571     -558     -521 
    -464     -394     -324     -275     -257     -265     -261     -229 
    -183     -144     -117      -91      -70      -75     -110     -145 
    -167     -195     -256     -337     -405     -446     -464     -452 
    -418     -388     -380     -379     -372     -352     -313     -260 
    -209     -171     -147     -135     -122      -99      -71      -41 
     -13       -4      -25      -74     -147     -230     -297     -333 
    -349     -356     -359     -359     -355     -361     -361     -334 
    -302     -279     -256     -221     -170     -120      -93      -82 
     -62      -33      -18      -16       -8       16       45       47 
      14      -33      -93     -156     -221     -283     -334     -379 
    -415     -440     -463     -479     -475     -459     -444     -436 
    -440     -463     -491     -506     -494     -434     -333     -233 
    -160     -103      -67      -60      -78      -97      -98      -97 
    -103     -105      -95      -86      -75      -68      -85     -132 
    -205     -271     -287     -256     -205     -149     -105      -79 
     -62      -41      -21      -17      -33      -58      -75      -91 
    -113     -132     -130     -120     -124     -148     -175     -189 
    -186     -189     -226     -301     -379     -422     -432     -419 
    -399     -394     -414     -438     -449     -449     -426     -369 
    -301     -256     -248     -253     -241     -197     -139      -81 
     -21       31       68       82       66       21      -39     -109 
    -187     -255     -294     -314     -311     -298     -292     -297 
    -303     -314     -334     -360     -387     -411     -425     -425 
    -409     -399     -423     -467     -487     -486     -488     -500 
    -511     -510     -503     -513     -540     -553     -537     -510 
    -484     -450     -392     -325     -270     -238     -236     -245 
    -240     -205     -160     -129     -120     -125     -126     -110 
     -89      -87     -124     -194     -259     -295     -314     -332 
    -340     -325     -319     -353     -391     -383     -318     -232 
    -168     -136     -102      -59      -27      -14      -20      -44 
     -79     -117     -143     -137      -99      -51      -40      -81 
    -139     -186     -206     -187     -144     -103      -91     -114 
    -166     -216     -233     -220     -190     -152     -109      -91 
    -122     -189     -255     -291     -287     -260     -237     -247 
    -294     -349     -394     -423     -433     -425     -421     -430 
    -441     -433     -403     -361     -318     -290     -274     -259 
    -238     -222     -210     -191     -149      -94      -54      -35 
     -27      -28      -48      -93     -151     -198     -221     -225 
    -214     -198     -182     -171     -170     -182     -197     -195 
    -183     -167     -147     -116      -81      -63      -76     -125 
    -195     -275     -346     -398     -423     -434     -444     -457 
    -473     -498     -529     -568     -598     -596     -573     -556 
    -542     -525     -507     -502     -506     -479     -403     -303 
    -213     -155     -136     -155     -203     -260     -288     -279 
    -263     -253     -256     -280     -317     -363     -405     -423 
    -419     -386     -324     -255     -205     -178     -171     -176 
    -175     -160     -137     -113      -89      -74      -79      -94 
    -117     -144     -160     -167     -189     -229     -278     -322 
    -356     -390     -423     -436     -419     -400     -402     -422 
    -441     -453     -468     -480     -467     -429     -386     -360 
    -369     -388     -402     -405     -379     -322     -276     -279 
    -322     -361     -367     -344     -303     -252     -224     -237 
    -271     -292     -278     -229     -166     -108      -62      -21 
      10       25       36       41       29        6       -4       21 
      70      102       97       74       48       20       -4      -12 
       0       17       20        5       -4        6       31       48 
      45       17      -21      -54      -75      -79      -67      -51 
     -47      -83     -159     -236     -287     -311     -310     -298 
    -297     -318     -356     -411     -469     -518     -548     -554 
    -544     -527     -518     -514     -508     -483     -423     -349 
    -283     -240     -210     -195     -214     -249     -259     -238 
    -209     -184     -171     -166     -178     -218     -268     -309 
    -333     -341     -345     -346     -341     -333     -328     -321 
    -307     -298     -301     -309     -306     -278     -222     -147 
     -56       18       67       93       83       43       -1      -36 
     -63      -75      -83      -90      -83      -63      -37       -8 
       9        5      -21      -60      -90      -87      -56      -27 
     -13       -5        5       10        9        2      -20      -70 
    -139     -216     -297     -390     -494     -585     -641     -650 
    -635     -611     -589     -573     -558     -550     -548     -523 
    -467     -386     -294     -216     -159     -117      -95     -109 
    -144     -168     -170     -164     -168     -191     -238     -301 
    -368     -433     -477     -498     -517     -535     -534     -504 
    -461     -422     -391     -359     -328     -315     -310     -305 
    -302     -303     -318     -344     -364     -383     -410     -446 
    -479     -494     -496     -496     -487     -472     -456     -423 
    -382     -348     -326     -311     -279     -233     -198     -178 
    -162     -139     -112      -97      -85      -63      -28        6 
      27       18      -14      -58      -97     -128     -152     -178 
    -213     -248     -270     -280     -287     -282     -260     -236 
    -203     -162     -122      -99      -91      -90      -75      -40 
       8       55       83       98      109      110      105       95 
      74       33      -25     -101     -179     -253     -321     -376 
    -418     -450     -481     -521     -557     -575     -572     -556 
    -545     -538     -513     -457     -398     -356     -324     -291 
    -256     -232     -226     -218     -193     -170     -153     -137 
    -128     -128     -122     -109      -98      -98     -109     -117 
    -118     -113     -114     -117     -109      -97      -93      -85 
     -68      -48      -31      -18      -20      -40      -72     -105 
    -128     -144     -152     -141     -120     -114     -141     -187 
    -222     -241     -261     -282     -290     -280     -268     -267 
    -268     -263     -251     -247     -252     -255     -241     -224 
    -222     -237     -255     -278     -303     -321     -321     -306 
    -282     -264     -271     -291     -305     -306     -294     -260 
    -202     -141      -94      -55       -2       60      108      136 
     145      125       78       14      -54      -98     -112     -118 
    -124     -139     -180     -252     -338     -426     -502     -549 
    -562     -544     -508     -481     -472     -469     -456     -430 
    -398     -364     -332     -301     -267     -237     -211     -189 
    -163     -137     -117     -108     -112     -125     -139     -148 
    -164     -198     -247     -305     -361     -407     -436     -448 
    -456     -471     -492     -508     -515     -521     -518     -500 
    -476     -444     -413     -394     -380     -368     -365     -365 
    -363     -357     -356     -360     -365     -367     -359     -348 
    -349     -356     -369     -382     -382     -364     -330     -284 
    -247     -236     -244     -247     -233     -209     -182     -145 
    -108      -97     -124     -156     -162     -140     -105      -63 
     -18       14       24        5      -24      -37      -35      -29 
     -20       -5       12       24       20       -2      -39      -95 
    -159     -202     -225     -240     -253     -263     -274     -291 
    -318     -342     -353     -353     -355     -369     -410     -464 
    -506     -535     -564     -584     -600     -625     -662     -697 
    -707     -685     -642     -588     -535     -496     -465     -433 
    -400     -355     -280     -201     -136      -85      -41        1 
      51       91      121      144      152      145      130       95 
      48        9      -29      -81     -133     -176     -195     -183 
    -162     -147     -144     -143     -136     -125     -129     -151 
    -180     -211     -244     -270     -274     -255     -232     -224 
    -233     -251     -264     -274     -284     -297     -317     -346 
    -357     -341     -307     -268     -240     -229     -232     -236 
    -243     -251     -259     -271     -301     -345     -388     -421 
    -445     -463     -480     -511     -550     -577     -580     -569 
    -553     -538     -519     -488     -452     -433     -425     -403 
    -364     -329     -311     -303     -298     -287     -268     -253 
    -248     -244     -245     -259     -278     -287     -279     -256 
    -218     -172     -136     -106      -76      -51      -37      -39 
     -49      -63      -75      -97     -126     -147     -166     -193 
    -217     -233     -240     -243     -259     -283     -299     -297 
    -286     -279     -267     -238     -205     -178     -159     -144 
    -130     -122     -118     -118     -113     -101      -97     -105 
    -108     -101      -93      -86      -81      -89     -112     -137 
    -164     -182     -182     -182     -182     -175     -162     -141 
    -118      -98      -83      -76      -82      -97     -116     -124 
    -122     -114      -87      -51      -27      -28      -49      -74 
     -86      -78      -68      -81     -118     -175     -244     -306 
    -356     -395     -426     -459     -491     -514     -531     -550 
    -568     -579     -585     -598     -604     -587     -544     -490 
    -426     -367     -325     -294     -276     -279     -295     -321 
    -340     -345     -344     -336     -326     -332     -353     -378 
    -387     -373     -333     -279     -224     -179     -151     -140 
    -133     -112      -81      -44        2       56      112      160 
     194      206      202      186      163      143      137      140 
     143      139      125      117      116      118      125      133 
     135      124      103       75       31      -18      -55      -75 
     -89     -108     -136     -171     -209     -256     -318     -380 
    -430     -471     -506     -531     -549     -549     -530     -504 
    -483     -467     -452     -438     -421     -399     -384     -373 
    -355     -324     -284     -244     -213     -195     -195     -218 
    -251     -278     -291     -290     -283     -270     -253     -251 
    -261     -286     -322     -369     -417     -453     -475     -473 
    -453     -432     -415     -407     -411     -425     -441     -453 
    -452     -432     -411     -391     -359     -319     -292     -280 
    -278     -272     -267     -264     -260     -251     -232     -199 
    -172     -163     -167     -182     -207     -228     -233     -234 
    -240     -248     -257     -267     -276     -292     -302     -299 
    -299     -311     -329     -348     -364     -376     -394     -406 
    -405     -402     -402     -405     -394     -367     -338     -325 
    -330     -360     -413     -469     -513     -531     -530     -521 
    -508     -503     -519     -544     -557     -554     -530     -494 
    -464     -442     -427     -422     -409     -372     -317     -264 
    -230     -206     -183     -160     -140     -129     -132     -132 
    -135     -145     -147     -124      -91      -71      -64      -63 
     -63      -60      -49      -28       12       64      102      117 
     129      139      140      132      109       68       14      -52 
    -125     -184     -232     -282     -338     -398     -453     -496 
    -527     -550     -564     -577     -596     -611     -623     -619 
    -585     -537     -498     -468     -442     -411     -372     -334 
    -305     -278     -245     -220     -207     -207     -211     -206 
    -187     -170     -151     -116      -68      -20       27       75 
     130      186      240      298      356      411      461      507 
     548      576      594      604      610      598      561      506 
     444      373      286      190      105       29      -41     -105 
    -166     -225     -284     -349     -415     -465     -486     -484 
    -481     -492     -507     -513     -503     -492     -477     -448 
    -421     -413     -418     -434     -456     -476     -503     -544 
    -584     -619     -649     -665     -670     -687     -707     -718 
    -729     -737     -731     -714     -685     -645     -602     -556 
    -511     -483     -473     -456     -423     -394     -367     -341 
    -325     -315     -315     -330     -349     -360     -357     -349 
    -340     -325     -305     -283     -271     -268     -256     -226 
    -178     -113      -45       12       60       91      110      117 
     116      113      118      140      166      182      186      179 
     148      105       63       16      -39      -90     -129     -149 
    -164     -179     -189     -189     -183     -179     -175     -172 
    -174     -176     -183     -186     -175     -156     -135     -106 
     -78      -70      -75      -89     -110     -133     -156     -186 
    -230     -287     -349     -405     -444     -468     -479     -477 
    -473     -469     -468     -477     -488     -480     -454     -419 
    -380     -344     -306     -267     -241     -233     -236     -249 
    -278     -314     -349     -382     -406     -425     -448     -475 
    -498     -513     -526     -529     -510     -484     -465     -446 
    -427     -405     -373     -328     -267     -203     -153     -121 
     -97      -76      -56      -39      -21       -5       -2      -12 
     -22      -29      -22       -1       32       71      103      117 
     109       90       66       40       21       12        0      -20 
     -36      -48      -60      -68      -70      -85     -121     -170 
    -222     -270     -301     -324     -345     -360     -380     -413 
    -450     -490     -517     -530     -556     -591     -614     -618 
    -615     -614     -619     -631     -642     -638     -623     -608 
    -583     -542     -499     -461     -437     -421     -402     -384 
    -371     -352     -324     -287     -247     -216     -190     -162 
    -143     -132     -116      -93      -68      -47      -31      -20 
     -12       -6        0        2       -4      -17      -33      -49 
     -71      -94     -114     -132     -148     -170     -201     -232 
    -255     -268     -271     -267     -261     -255     -248     -240 
    -226     -199     -151      -91      -39        1       28       47 
      56       71       98      120      125      109       78       37 
      -4      -36      -60      -75      -90     -122     -166     -214 
    -267     -322     -375     -422     -461     -488     -502     -518 
    -540     -553     -564     -575     -561     -529     -495     -459 
    -426     -405     -391     -383     -379     -367     -348     -333 
    -317     -309     -314     -317     -310     -301     -290     -276 
    -263     -251     -248     -251     -253     -251     -241     -224 
    -199     -175     -163     -172     -193     -211     -229     -245 
    -249     -244     -241     -253     -267     -280     -298     -319 
    -341     -352     -356     -357     -355     -351     -351     -357 
    -363     -360     -351     -326     -292     -267     -248     -221 
    -197     -179     -160     -140     -122     -108      -93      -76 
     -58      -41      -32      -32      -44      -62      -71      -71 
     -68      -56      -43      -49      -74     -103     -128     -147 
    -160     -172     -178     -180     -191     -210     -230     -241 
    -240     -238     -238     -237     -243     -252     -259     -264 
    -268     -263     -255     -243     -221     -197     -180     -168 
    -145     -125     -114      -97      -72      -45      -20       -8 
     -13      -28      -43      -52      -64      -79     -101     -130 
    -163     -187     -202     -224     -261     -307     -356     -396 
    -425     -448     -467     -477     -483     -477     -459     -434 
    -410     -387     -369     -353     -329     -301     -270     -243 
    -224     -207     -193     -180     -178     -189     -206     -230 
    -253     -267     -274     -275     -272     -271     -265     -261 
    -261     -261     -256     -249     -243     -228     -205     -182 
    -175     -180     -186     -189     -186     -176     -171     -171 
    -170     -175     -198     -222     -225     -214     -198     -180 
    -168     -166     -168     -182     -205     -233     -261     -283 
    -307     -336     -357     -373     -394     -419     -453     -495 
    -529     -550     -571     -581     -573     -558     -549     -548 
    -548     -545     -537     -519     -494     -461     -429     -410 
    -399     -387     -372     -357     -351     -352     -346     -330 
    -315     -294     -268     -247     -228     -206     -183     -157 
    -128      -99      -72      -43      -22      -14       -2       13 
      27       31       29       27       25       16        0      -12 
     -16      -13       -6       -4       -4      -10      -32      -60 
     -83      -93      -87      -75      -78      -99     -125     -151 
    -175     -187     -193     -201     -206     -216     -233     -243 
    -244     -244     -236     -225     -220     -224     -233     -245 
    -256     -268     -278     -276     -275     -284     -301     -318 
    -336     -355     -383     -409     -414     -406     -399     -395 
    -390     -386     -386     -386     -382     -384     -390     -394 
    -399     -407     -410     -402     -387     -380     -384     -392 
    -398     -394     -382     -373     -359     -336     -314     -298 
    -280     -264     -252     -237     -224     -225     -234     -240 
