Origin Time       2024/04/02 04:24:00
Lat.              40.133
Long.             141.712
Depth. (km)       71
Mag.              6.0
Station Code      IBUH05
Station Lat.      42.5629
Station Long.     141.3497
Station Height(m) 20
Record Time       2024/04/02 04:25:22
Sampling Freq(Hz) 100Hz
Duration Time(s)  150
Dir.              4
Scale Factor      7845(gal)/8223790
Max. Acc. (gal)   1.673
Last Correction   2024/04/02 04:25:22
Memo.             
[...]
    1167     1020     1070     1120     1120     1104      974      680 
     467      577      892     1143     1210     1101      949      924 
    1055     1219     1278     1197     1027      889      880      922 
     922      938      974      955      980     1127     1259     1274 
    1204     1073      934      886      984     1127     1148     1048 
     928      799      668      658      845     1001      954      876 
     880      891      885      962     1144     1173      926      677 
     602      683      943     1243     1375     1341     1200     1063 
    1074     1143     1121     1034      966      922      805      657 
     672      789      737      527      438      567      761      957 
    1193     1317     1146      857      797      966     1116     1174 
    1102      859      691      768      891     1030     1264     1297 
     999      764      797      943     1075     1097      931      714 
     656      731      781      820      884      881      853      954 
    1121     1085      851      757      818      831      923     1121 
    1089      822      626      531      492      673     1003     1107 
     936      774      737      743      747      823     1015     1178 
    1189     1102     1020     1000      993      955      978     1065 
    1039      912      904     1082     1278     1300     1162      985 
     797      680      695      706      654      656      715      788 
     930     1088     1140     1152     1196     1209     1224     1269 
    1163      922      850      965      989      919      930     1044 
    1143     1094      973      940      936      884      858      855 
     831      830      866      936     1027     1003      826      753 
     940     1194     1333     1351     1227      976      816      907 
    1039     1038     1011      951      776      669      800     1016 
    1058      870      679      742      977     1100     1132     1223 
    1198      974      787      739      739      727      749      876 
     970      934      947     1051     1144     1224     1225     1113 
     970      846      851      999     1107     1100     1024      947 
     962     1026     1067     1136     1155     1043      976     1038 
    1058      988      932      908      895      935     1000     1003 
     969      954      935      886      869      920      938      865 
     810      799      811      892      970      976     1012     1044 
     985     1007     1242     1424     1252      928      800      849 
    1005     1243     1345     1318     1279     1038      704      711 
     912      985      997      876      567      433      638      854 
     870      772      645      514      502      769     1154     1266 
    1088      919      897      985     1032      982     1020     1132 
    1061      880      869     1009     1078      990      869      754 
     612      616      828     1030     1146     1165      980      710 
     585      565      548      572      661      796      940     1053 
    1135     1242     1351     1329     1185     1117     1120     1021 
     842      776      905     1090     1181     1139      950      680 
     527      572      716      892     1030     1015      919      912 
    1015     1210     1413     1412     1198      976      868      873 
     939      999      963      828      724      765      949     1171 
    1244     1092      918      909      953      951     1030     1152 
    1093      832      589      503      546      697      916     1048 
    1009      943      984     1069     1127     1147     1062      874 
     716      658      692      766      766      720      793      895 
     823      700      723      859      958      926      834      733 
     634      611      653      758      976     1177     1313     1483 
    1570     1475     1324     1178     1058     1023     1003      930 
     878      912      994     1005      899      807      827      838 
     750      691      751      869     1047     1221     1161      864 
     689      881     1209     1314     1215     1144     1151     1174 
    1221     1359     1518     1435     1074      812      839      874 
     714      585      692      810      727      626      685      818 
     911      958      990     1012     1031     1065     1027      916 
     897      949      963     1017     1190     1390     1460     1443 
    1432     1306     1050      876      838      876     1009     1181 
    1227     1090      895      761      695      704      783      756 
     518      309      368      639      976     1256     1320     1100 
     783      677      885     1188     1277     1032      722      733 
     982     1139     1219     1254     1066      788      700      746 
     801      805      735      754      876      851      654      522 
     622      854      920      783      650      549      473      596 
     926     1167     1140      989      916      985     1121     1213 
    1224     1108      832      560      535      769      949      857 
     622      390      213      282      642      947      973      892 
     850      843      955     1196     1305     1125      911      918 
    1055     1127     1096      988      792      534      325      238 
     238      288      332      336      479      838     1097     1078 
     997      858      561      496      913     1377     1486     1328 
    1107      928      893     1017     1131     1048      776      461 
     276      287      453      719      930      924      792      688 
     677      893     1285     1533     1548     1401     1174     1123 
    1294     1387     1301     1159     1039     1003     1084     1213 
    1333     1452     1564     1657     1648     1482     1332     1360 
    1475     1506     1318      900      527      469      572      684 
     954     1266     1362     1433     1564     1468     1240     1171 
    1128      986      915      928      920     1023     1331     1601 
    1594     1420     1305     1200      962      710      625      637 
     604      591      665      711      677      672      688      642 
     546      488      560      796     1147     1437     1489     1409 
    1445     1598     1674     1556     1200      577     -106     -507 
    -565     -411     -132      198      533      778      891     1105 
    1545     1899     1966     1873     1701     1487     1402     1466 
    1453     1283     1090      905      707      704      907      911 
     641      418      324      344      548      865     1178     1422 
    1540     1614     1799     1977     1867     1456     1059      957 
    1089     1156     1048      872      648      394      224      180 
     234      355      479      604      789      938      912      846 
    1008     1377     1680     1718     1482     1177     1080     1193 
    1323     1418     1452     1269      888      530      344      367 
     491      544      510      553      837     1258     1552     1703 
    1748     1575     1402     1611     1929     1831     1451     1134 
     943      953     1104     1107      918      704      550      568 
     830     1135     1151      800      398      168      -13      -81 
     116      274      160      -40     -122      -33      117      209 
     238      238      322      568      884     1159     1206      889 
     530      479      631      895     1296     1618     1672     1583 
    1534     1471     1242      899      657      585      614      662 
     650      612      618      585      500      517      672      888 
    1166     1516     1817     1981     2066     1976     1544     1044 
     858      909      969      962      882      750      633      641 
     857     1229     1526     1498     1242     1085     1088     1108 
    1200     1466     1703     1628     1345     1227     1332     1437 
    1493     1453     1140      692      384      143      -71      -99 
      24      182      306      338      457      769      926      835 
     865      989      900      758      891     1147     1198     1040 
     861      722      646      729      946     1051      882      572 
     325      216      222      317      495      684      737      654 
     625      814     1259     1838     2281     2403     2215     1857 
    1622     1707     1890     1852     1532     1093      787      652 
     527      413      400      421      457      653      947     1121 
    1127      981      695      419      433      804     1170     1204 
    1001      751      645      905     1385     1659     1649     1548 
    1374     1111      896      769      660      669      953     1337 
    1455     1198      792      504      440      496      622      851 
    1031      966      807      799      872      807      623      452 
     337      392      735     1251     1652     1730     1482     1027 
     652      664      831      723      537      568      689      896 
    1206     1246      831      396      346      561      795      901 
     733      422      340      545      841     1178     1490     1603 
    1517     1410     1428     1559     1702     1864     1993     1891 
    1597     1269      916      653      633      754      943     1227 
    1362     1075      587      314      427      827     1197     1194 
     808      388      276      552     1021     1372     1440     1206 
     757      399      321      297      159      164      549     1101 
    1449     1452     1127      635      298      346      761     1310 
    1701     1721     1347      874      768     1102     1502     1633 
    1453     1206     1120     1046      810      550      353      140 
     -43      -83       55      287      479      626      877     1270 
    1582     1651     1582     1466     1408     1552     1652     1472 
    1264     1148      973      826      899     1108     1178     1074 
     986      900      756      681      731      839      947      996 
    1008     1117     1386     1614     1613     1545     1578     1564 
    1449     1332     1074      606      275      357      710      977 
     924      676      457      229       -5      -79       12      160 
     340      567      918     1362     1651     1695     1557     1193 
     648      182       99      422      824     1039     1109     1159 
    1169     1065      886      711      476      189      152      599 
    1255     1611     1513     1210      932      793      938     1259 
    1371     1151      861      780      945     1156     1297     1435 
    1437     1109      757      751      892      935     1054     1250 
    1235     1121     1278     1609     1834     1927     1872     1705 
    1563     1305      803      396      345      446      565      795 
     981      795      400      243      307      425      649      924 
    1044      928      738      675      718      838     1092     1324 
    1348     1246     1096      903      803      889     1028     1077 
    1070     1044      999     1043     1212     1310     1236     1101 
    1017     1032     1017      776      469      414      510      521 
     549      739      907      815      585      550      793     1090 
    1323     1552     1607     1264      789      673      961     1260 
    1386     1536     1683     1505     1135     1055     1254     1350 
    1302     1224     1073      884      746      715      816      892 
     730      452      364      502      689      912     1193     1350 
    1232     1044     1034     1127     1206     1252     1150      789 
     272      -47      145      675     1113     1277     1154      795 
     444      326      364      423      542      784     1143     1420 
    1367     1086      801      631      772     1258     1791     2106 
    2170     2014     1665     1250      934      743      549      236 
    -183     -503     -432       51      621     1026     1227     1212 
    1112     1142     1260     1283     1215     1107      912      649 
     448      391      468      580      585      464      360      398 
     591      866      943      652      388      525      938     1408 
    1710     1668     1379     1001      726      827     1169     1260 
    1035      893     1119     1580     1899     1890     1618     1127 
     604      423      699     1117     1297     1267     1302     1409 
    1586     1950     2293     2253     1811     1250      982     1243 
    1721     1904     1657     1177      778      672      716      650 
     537      534      549      508      529      627      680      633 
     656     1000     1487     1688     1618     1489     1266     1055 
     994      935      757      473      103     -144       -4      490 
     980     1092      815      473      329      464      810     1092 
    1009      654      405      333      245      141       12     -229 
    -284      167      823     1271     1489     1480     1267     1009 
     712      314      -60     -214       91      816     1479     1840 
    2025     1892     1309      692      476      562      697      769 
     629      228     -141     -157      152      588      946      997 
     868     1034     1480     1814     2061     2328     2358     2087 
    1853     1834     1867     1842     1796     1678     1441     1119 
     676      189     -103     -159     -172     -257     -287     -101 
     216      445      618      974     1489     1840     1929     2061 
    2423     2701     2563     2154     1744     1336      967      880 
    1062     1132      884      423      -60     -284     -139      108 
     243      290      297      388      677      963     1066     1104 
    1136     1074      959      919      924      801      529      333 
     425      795     1171     1264     1105      893      731      658 
     689      812      966      980      876      889     1007     1179 
    1536     1834     1661     1071      399       -5       64      449 
     891     1196     1159      881      719      769      888      942 
     850      634      364      162      218      469      656      769 
     876      886      908     1181     1603     1910     2060     2111 
    2103     2133     2122     1860     1385      913      573      467 
     631      935     1171     1215     1127     1035      976      957 
     957      901      823      812      800      689      625      715 
     788      785      866     1008     1119     1240     1358     1383 
    1260     1046      928      934      882      766      691      681 
     787      965     1055     1059     1136     1385     1813     2216 
    2276     1975     1594     1355     1366     1530     1576     1435 
    1297     1197      963      608      345      263      328      515 
     742      756      402      -78     -315     -171      187      452 
     500      371       63     -267     -286      141      716     1054 
    1154     1115      853      510      365      403      475      529 
     522      523      668      896     1008      899      658      531 
     642      862      999     1011      958      841      724      796 
     992      963      580      175      133      386      633      826 
    1071     1343     1499     1487     1464     1586     1728     1684 
    1521     1387     1285     1192     1175     1298     1452     1439 
    1254     1040      788      492      353      452      642      907 
    1240     1448     1464     1367     1135      859      679      537 
     446      595      904     1001      793      681      980     1489 
    1885     2022     1864     1526     1159      872      750      706 
     618      542      569      738      969     1144     1325     1532 
    1586     1498     1436     1422     1433     1471     1528     1618 
    1705     1686     1443      985      556      348      391      711 
    1044     1011      697      441      392      619     1038     1362 
    1348     1007      612      438      627     1175     1669     1655 
    1313     1032      931     1036     1289     1529     1528     1117 
     595      345      303      376      525      571      572      681 
     745      738      858      981      845      575      438      477 
     650      955     1332     1633     1664     1394     1054      811 
     749      972     1190     1019      689      535      507      631 
     912     1113     1143     1105     1144     1377     1703     1966 
    2137     2122     1858     1547     1377     1242     1020      896 
    1012     1102      940      692      556      565      661      700 
     629      476      232      -52     -253     -306     -232      -86 
     153      475      727      866     1028     1309     1687     2018 
    2106     1942     1674     1404     1260     1398     1711     1867 
    1668     1193      673      283       68       39      147      272 
     341      402      526      716      901      950      823      680 
     677      780      880      907      799      596      436      409 
     577      851      931      785      737      837      889      951 
    1107     1204     1181     1127     1084     1111     1220     1340 
    1456     1521     1516     1521     1436     1138      851      753 
     762      865     1053     1120      955      642      292       91 
     168      437      737      924      966      876      634      382 
     275      270      287      325      434      666      958     1190 
    1290     1289     1318     1490     1706     1678     1318      923 
     780      830      923     1031     1065      962      800      611 
     434      330      247      206      368      675      851      799 
     670      580      522      537      714     1003     1213     1178 
    1020     1086     1416     1745     2016     2141     1858     1336 
    1038     1098     1293     1387     1333     1171      949      847 
    1031     1377     1663     1836     1937     2019     2101     2145 
    2112     1999     1809     1567     1328     1173     1182     1286 
    1297     1200     1102      961      822      984     1429     1705 
    1583     1248      877      560      430      527      749      945 
     905      596      373      487      689      727      677      595 
     432      363      610     1012     1239     1181      931      715 
     706      824      932      958      884      823      793      703 
     650      625      442      274      340      518      733      984 
    1107     1017      832      714      756      858      899      958 
    1077     1173     1242     1331     1414     1425     1332     1169 
     972      814      787      841      814      649      415      233 
     295      641     1019     1225     1329     1393     1294     1085 
    1012     1057      973      745      538      326       20     -226 
    -195       70      337      411      368      454      672      839 
     982     1231     1514     1636     1555     1389     1208     1096 
    1146     1279     1370     1393     1294     1080      938      982 
    1093     1061      877      737      691      604      415      221 
     148      253      558     1017     1399     1494     1395     1297 
    1248     1254     1293     1313     1328     1290     1131      978 
     953      950      891      818      799      904     1058     1055 
