Origin Time       2024/04/02 04:24:00
Lat.              40.133
Long.             141.712
Depth. (km)       71
Mag.              6.0
Station Code      IBUH01
Station Lat.      42.8739
Station Long.     141.8191
Station Height(m) 60
Record Time       2024/04/02 04:25:23
Sampling Freq(Hz) 100Hz
Duration Time(s)  148
Dir.              6
Scale Factor      3920(gal)/6170801
Max. Acc. (gal)   1.509
Last Correction   2024/04/02 04:25:08
Memo.             
[...]
   18529    18364    18502    18805    19076    19275    19474    19623 
   19495    19014    18509    18415    18776    19204    19303    19027 
   18648    18483    18637    19007    19434    19702    19604    19192 
   18792    18653    18759    18934    19019    19005    18967    18938 
   18960    19051    19052    18801    18411    18186    18309    18679 
   19062    19304    19356    19256    19091    18975    18988    19064 
   19049    18926    18793    18719    18781    18965    19052    18972 
   18935    19030    19186    19386    19525    19380    18939    18471 
   18222    18239    18441    18742    19112    19473    19655    19567 
   19280    18934    18687    18708    18977    19207    19186    18989 
   18839    18958    19307    19498    19258    18759    18392    18387 
   18667    19012    19265    19331    19231    19157    19219    19300 
   19261    19067    18785    18605    18674    18919    19166    19315 
   19377    19392    19336    19170    18943    18792    18764    18736 
   18670    18716    18904    19035    18945    18696    18468    18416 
   18569    18806    18944    18847    18556    18324    18384    18744 
   19190    19424    19378    19317    19389    19400    19232    19058 
   19049    19218    19505    19770    19810    19488    18888    18374 
   18317    18679    19090    19240    19089    18857    18815    18965 
   19070    19008    18914    18972    19120    19118    18895    18615 
   18429    18388    18508    18771    19051    19212    19322    19480 
   19516    19240    18825    18601    18708    19071    19428    19498 
   19287    19050    18946    18944    18945    18909    18912    19050 
   19241    19271    19085    18867    18803    18908    19014    18923 
   18649    18386    18353    18695    19226    19544    19525    19337 
   19141    19050    19038    18906    18646    18552    18821    19286 
   19622    19591    19154    18583    18287    18403    18764    19145 
   19351    19313    19169    19101    19166    19257    19238    19109 
   18958    18880    18971    19151    19162    18902    18545    18314 
   18314    18532    18847    19100    19211    19225    19265    19333 
   19201    18765    18351    18358    18766    19209    19366    19180 
   18883    18815    19051    19289    19235    18950    18766    18911 
   19264    19459    19203    18522    17898    17931    18638    19394 
   19608    19203    18622    18390    18600    18941    19113    19070 
   18966    18909    18893    18903    18965    19149    19457    19724 
   19768    19538    19095    18675    18544    18690    18918    19068 
   18998    18706    18430    18436    18705    18971    19145    19301 
   19358    19240    19025    18787    18658    18779    19068    19338 
   19521    19570    19453    19284    19160    18980    18682    18413 
   18346    18548    18941    19259    19230    18950    18761    18775 
   18865    18989    19100    19038    18826    18758    18991    19324 
   19478    19375    19182    19136    19245    19242    18953    18550 
   18350    18517    18914    19185    19144    18930    18713    18602 
   18711    18963    19093    18987    18836    18918    19254    19575 
   19587    19233    18773    18535    18618    18958    19414    19682 
   19560    19197    18885    18831    18980    18992    18726    18511 
   18657    19032    19280    19246    19055    18909    18934    19054 
   19073    18988    18981    19102    19213    19169    18996    18849 
   18837    18974    19165    19211    19027    18807    18779    18916 
   19055    19131    19167    19182    19131    18951    18684    18483 
   18534    18905    19358    19496    19265    18969    18805    18775 
   18831    18837    18688    18511    18560    18875    19165    19146 
   18887    18687    18686    18810    19019    19233    19226    18971 
   18755    18766    18929    19104    19199    19168    19070    18990 
   18867    18642    18490    18587    18881    19212    19422    19403 
   19189    18948    18795    18697    18663    18826    19155    19389 
   19346    19065    18733    18614    18804    19098    19268    19270 
   19179    19088    19034    19032    19112    19231    19312    19385 
   19527    19659    19549    19096    18539    18264    18463    18987 
   19457    19547    19218    18686    18225    18030    18215    18751 
   19289    19426    19240    19078    18996    18853    18659    18566 
   18694    18937    19027    18848    18513    18245    18259    18595 
   19042    19329    19358    19179    18888    18615    18518    18656 
   18874    18996    19074    19213    19325    19284    19149    19065 
   19080    19187    19395    19635    19742    19627    19394    19200 
   19053    18883    18727    18690    18810    19050    19277    19304 
   19065    18704    18508    18651    18964    19137    19104    18974 
   18783    18594    18565    18742    19035    19386    19646    19524 
   18975    18410    18304    18684    19182    19515    19584    19320 
   18827    18463    18491    18743    18858    18718    18439    18262 
   18449    18945    19338    19333    19006    18678    18669    18935 
   19102    18999    18775    18606    18654    18917    19150    19217 
   19173    19057    18941    18943    19074    19252    19393    19437 
   19359    19171    18911    18630    18469    18702    19394    20097 
   20291    19953    19411    19012    18966    19144    19182    18979 
   18851    19033    19350    19477    19272    18830    18440    18461 
   18915    19331    19248    18731    18221    18074    18330    18809 
   19258    19441    19334    19142    19035    18968    18747    18357 
   18115    18255    18674    19170    19535    19556    19296    19026 
   18807    18565    18420    18522    18801    19099    19308    19330 
   19100    18749    18530    18548    18743    19060    19382    19512 
   19389    19110    18828    18729    18855    19030    19120    19114 
   19020    18873    18773    18854    19151    19447    19484    19251 
   18958    18825    18875    18919    18821    18666    18640    18845 
   19165    19387    19429    19293    18992    18689    18660    19004 
   19468    19649    19409    18974    18653    18586    18719    18954 
   19219    19410    19432    19246    18916    18663    18691    18956 
   19277    19478    19402    19029    18585    18374    18504    18791 
   18957    18919    18774    18657    18683    18828    18909    18836 
   18719    18735    18947    19223    19357    19248    18994    18802 
   18764    18860    19057    19249    19342    19316    19098    18718 
   18464    18568    18937    19302    19402    19138    18684    18344 
   18282    18419    18609    18822    19113    19455    19631    19395 
   18859    18480    18559    19000    19454    19550    19186    18674 
   18458    18701    19194    19501    19340    18918    18621    18556 
   18637    18759    18850    18929    19034    19086    19015    18952 
   19052    19237    19346    19342    19251    19084    18894    18807 
   18921    19146    19250    19096    18798    18609    18691    18984 
   19315    19578    19719    19665    19400    19085    18976    19090 
   19129    18882    18508    18364    18629    19120    19471    19442 
   19050    18568    18345    18467    18685    18772    18742    18726 
   18818    18934    18889    18737    18780    19148    19610    19828 
   19677    19301    18935    18776    18902    19205    19445    19459 
   19311    19129    18906    18621    18431    18538    18911    19277 
   19387    19255    19101    19037    18970    18825    18704    18800 
   19082    19258    19236    19244    19327    19258    18971    18663 
   18557    18747    19108    19394    19452    19309    19132    19080 
   19141    19193    19140    18985    18810    18684    18623    18633 
   18748    18950    19096    19078    18978    18918    18905    18856 
   18727    18647    18777    19024    19139    19052    18905    18835 
   18880    19000    19123    19194    19197    19113    18944    18787 
   18734    18711    18610    18509    18561    18794    19105    19352 
   19441    19362    19118    18734    18373    18266    18509    19021 
   19624    20040    19991    19470    18801    18399    18474    18917 
   19447    19790    19724    19197    18514    18134    18226    18601 
   18966    19125    19082    19009    19020    19005    18790    18429 
   18250    18520    19092    19618    19886    19764    19279    18773 
   18561    18609    18733    18837    18918    18994    19028    18931 
   18694    18440    18353    18556    18951    19214    19151    18897 
   18715    18785    19059    19290    19317    19179    18944    18675 
   18511    18549    18738    18968    19174    19285    19238    19050 
   18748    18409    18312    18747    19624    20411    20516    19835 
   18885    18334    18471    19027    19447    19394    19015    18675 
   18543    18530    18561    18685    18934    19187    19213    18897 
   18420    18129    18241    18712    19254    19509    19386    19086 
   18841    18786    18901    19000    18934    18818    18863    19010 
   19036    18933    18857    18856    18943    19098    19121    18838 
   18451    18395    18822    19379    19608    19451    19140    18860 
   18730    18798    18966    19117    19190    19135    18950    18749 
   18622    18540    18585    18953    19545    19938    19836    19344 
   18850    18688    18917    19343    19671    19746    19629    19428 
   19215    19080    19029    18941    18777    18724    18949    19281 
   19382    19202    18959    18802    18753    18802    18950    19163 
   19343    19476    19581    19512    19158    18691    18401    18419 
   18641    18882    19028    19061    19039    19015    18944    18764 
   18592    18644    18937    19281    19530    19624    19500    19189 
   18925    18884    18958    18989    18990    19018    19034    18992 
   18911    18851    18856    18893    18799    18445    18014    17873 
   18136    18575    18902    18957    18767    18614    18797    19193 
   19381    19251    19047    18920    18871    18872    18884    18961 
   19194    19516    19721    19667    19401    19086    18771    18432 
   18228    18408    18927    19419    19628    19560    19264    18850 
   18543    18478    18623    18841    18949    18943    19036    19294 
   19493    19337    18739    18021    17717    18021    18634    19081 
   19074    18753    18565    18803    19284    19608    19633    19467 
   19196    18934    18858    19029    19351    19677    19836    19690 
   19244    18689    18348    18422    18789    19110    19156    19026 
   18999    19145    19205    18972    18633    18626    19112    19715 
   19896    19512    18923    18553    18516    18659    18798    18902 
   19077    19319    19442    19343    19061    18636    18216    18093 
   18356    18757    19063    19245    19361    19419    19320    18970 
   18439    18002    17954    18328    18849    19204    19257    19070 
   18811    18661    18738    19034    19318    19320    19140    19091 
   19201    19248    19082    18776    18594    18761    19228    19675 
   19756    19391    18785    18216    17926    18078    18654    19392 
   19844    19756    19411    19221    19185    19092    18901    18687 
   18535    18553    18761    19048    19308    19498    19541    19341 
   18961    18588    18307    18116    18136    18532    19216    19797 
   19945    19750    19542    19375    19029    18447    17892    17723 
   18095    18762    19275    19453    19485    19526    19471    19171 
   18723    18432    18464    18719    18985    19047    18862    18654 
   18651    18867    19148    19296    19256    19205    19366    19699 
   19877    19638    19071    18520    18320    18542    18955    19350 
   19725    20033    20073    19657    18809    17951    17682    18162 
   18975    19602    19761    19494    19143    19103    19428    19726 
   19595    19053    18407    17965    17976    18481    19219    19788 
   19908    19606    19154    18843    18813    19034    19389    19763 
   19992    19923    19553    18948    18237    17753    17799    18301 
   18916    19301    19299    19117    19049    18976    18631    18203 
   18129    18490    18985    19290    19246    18917    18546    18283 
   18166    18321    18753    19123    19131    18878    18665    18621 
   18674    18779    19006    19372    19706    19809    19692    19499 
   19311    19159    19091    19108    19048    18715    18246    18121 
   18583    19219    19404    19033    18532    18289    18342    18550 
   18806    19051    19258    19495    19799    20030    20052    19817 
   19261    18571    18227    18424    18855    19129    19143    19048 
   18923    18698    18435    18293    18295    18415    18663    18969 
   19160    19160    19121    19219    19442    19683    19885    19998 
   19995    19924    19810    19621    19347    18993    18609    18426 
   18612    18935    19024    18787    18394    18082    18013    18228 
   18629    19046    19348    19504    19542    19435    19138    18815 
   18741    18940    19281    19658    19824    19541    18937    18383 
   18106    18135    18392    18651    18711    18659    18686    18766 
   18732    18535    18373    18503    18937    19430    19758    19815 
   19531    18996    18542    18414    18564    18835    19076    19129 
   18903    18480    18051    17693    17457    17553    18163    19219 
   20414    21278    21358    20506    19082    17855    17455    17837 
   18567    19389    20122    20460    20203    19424    18413    17519 
   17030    17070    17527    18170    18909    19806    20753    21300 
   21105    20361    19539    19020    18868    18798    18651    18638 
   18905    19244    19407    19444    19532    19640    19575    19245 
   18762    18282    17916    17780    17921    18274    18738    19177 
   19499    19730    19840    19640    19018    18115    17305    17026 
   17344    17903    18475    19067    19594    19957    20237    20453 
   20339    19661    18600    17665    17316    17604    18201    18811 
   19331    19750    20054    20104    19734    19078    18564    18469 
   18632    18738    18679    18621    18810    19280    19738    19860 
   19616    19289    19217    19475    19752    19642    19060    18345 
   17993    18185    18610    18902    18996    19025    19105    19205 
   19244    19222    19189    19221    19345    19411    19217    18734 
   18186    17978    18388    19213    19911    20123    19879    19428 
   19073    19043    19371    19860    20155    19941    19221    18451 
   18215    18644    19258    19403    18877    18109    17650    17639 
   17875    18163    18485    18932    19505    20053    20362    20240 
   19661    18862    18209    18022    18352    18877    19256    19449 
   19572    19705    19770    19539    18980    18442    18288    18476 
   18612    18402    17965    17625    17594    17929    18492    19027 
   19447    19717    19643    19183    18623    18291    18389    18912 
   19623    20272    20736    20880    20566    19881    19169    18743 
   18678    18822    18895    18700    18266    17742    17387    17471 
   17977    18630    19199    19598    19805    19811    19685    19586 
   19488    19246    19027    19057    19204    19371    19692    20084 
   20257    20099    19689    19137    18565    18108    17887    17901 
   18019    18228    18584    18946    19120    19036    18693    18244 
   17930    17879    18144    18709    19372    19883    20125    20080 
   19859    19665    19562    19461    19298    19067    18783    18493 
   18242    18068    18055    18239    18424    18392    18208    18087 
   18157    18374    18560    18690    18889    19120    19266    19320 
   19239    18990    18749    18769    19123    19667    20113    20241 
   20051    19669    19252    18961    18841    18825    18850    18842 
   18667    18304    17990    18026    18493    19153    19581    19502 
   19023    18520    18299    18471    19048    19825    20335    20337 
   20042    19677    19212    18568    17892    17524    17733    18443 
   19194    19524    19332    18869    18484    18358    18502    18884 
   19378    19735    19789    19666    19599    19595    19522    19402 
   19338    19315    19255    19200    19248    19352    19308    18973 
   18453    17994    17767    17741    17774    17821    17952    18203 
   18592    19118    19631    19905    19812    19387    18836    18461 
   18441    18763    19367    20117    20682    20697    20072    19074 
   18184    17832    18099    18664    19036    18930    18590    18569 
   19076    19747    20030    19664    18920    18320    18103    18160 
   18332    18511    18631    18749    18966    19269    19498    19414 
   18954    18493    18500    18949    19391    19476    19249    19074 
   19233    19564    19669    19511    19401    19464    19531    19388 
   18968    18473    18246    18406    18816    19274    19543    19435 
   19029    18593    18303    18181    18182    18217    18262    18467 
   18974    19678    20284    20503    20259    19767    19347    19199 
   19321    19497    19453    19101    18588    18169    18041    18169 
   18341    18489    18724    19019    19174    19060    18754    18485 
   18418    18509    18584    18594    18739    19184    19759    20118 
   20068    19676    19219    19020    19183    19519    19762    19777 
   19589    19367    19193    18896    18359    17790    17598    18070 
   18956    19513    19228    18293    17324    16799    16803    17217 
   17964    18912    19822    20464    20638    20308    19734    19237 
   18946    18848    18938    19192    19485    19683    19670    19380 
   18939    18528    18225    18117    18234    18494    18810    19067 
   19071    18764    18314    18005    18181    18936    19817    20308 
   20263    19782    19252    19108    19357    19683    19789    19580 
   19261    19046    18890    18665    18324    17987    17968    18375 
   18897    19267    19507    19639    19634    19520    19261    18818 
   18437    18467    18840    19154    19159    18866    18487    18258 
   18253    18471    18853    19184    19343    19381    19225    18819 
   18425    18342    18613    19125    19624    19766    19380    18663 
   18098    18048    18362    18601    18540    18284    18156    18419 
   18945    19359    19449    19313    19211    19291    19455    19511 
   19334    18963    18689    18756    19015    19188    19213    19108 
   18883    18680    18599    18498    18254    18015    18051    18466 
   19126    19804    20294    20449    20281    19957    19717    19695 
   19689    19407    18910    18505    18430    18705    19080    19244 
   19193    19145    19141    19030    18740    18359    18106    18191 
   18603    19117    19492    19605    19494    19299    19159    19165 
   19365    19650    19680    19211    18491    18003    17900    18018 
   18212    18438    18682    18938    19182    19324    19241    18970 
   18776    18864    19132    19324    19311    19165    18990    18862 
   18921    19177    19380    19317    19018    18651    18450    18550 
   18794    19008    19222    19475    19732    19894    19774    19351 
   18911    18699    18701    18824    18991    19146    19335    19609 
