Origin Time       2024/04/02 04:24:00
Lat.              40.133
Long.             141.712
Depth. (km)       71
Mag.              6.0
Station Code      IBUH07
Station Lat.      42.6476
Station Long.     141.0643
Station Height(m) 350
Record Time       2024/04/02 04:25:51
Sampling Freq(Hz) 100Hz
Duration Time(s)  120
Dir.              4
Scale Factor      3920(gal)/6170801
Max. Acc. (gal)   1.572
Last Correction   2024/04/02 04:25:36
Memo.             
[...]
    5507     5426     5311     5178     5103     5084     5078     5059 
    4987     4864     4764     4746     4807     4949     5141     5264 
    5247     5130     4966     4844     4849     4907     4912     4892 
    4878     4887     5003     5188     5307     5347     5321     5235 
    5190     5240     5306     5351     5402     5433     5448     5520 
    5677     5823     5843     5748     5609     5492     5474     5527 
    5550     5514     5458     5413     5399     5456     5612     5803 
    5934     5977     5926     5825     5750     5684     5591     5514 
    5495     5489     5420     5307     5207     5111     5021     5006 
    5085     5163     5183     5194     5182     5081     4980     4977 
    5001     5030     5094     5118     5107     5174     5275     5309 
    5301     5318     5370     5466     5619     5759     5800     5777 
    5758     5741     5731     5782     5893     5996     6066     6065 
    5969     5893     5873     5837     5771     5650     5475     5317 
    5217     5160     5136     5144     5136     5097     5075     5075 
    5085     5110     5160     5231     5281     5290     5258     5191 
    5164     5171     5105     4985     4882     4819     4866     5021 
    5149     5213     5309     5444     5572     5739     5945     6107 
    6225     6322     6374     6358     6288     6240     6262     6314 
    6328     6254     6113     5991     5934     5901     5831     5723 
    5583     5406     5241     5165     5181     5216     5228     5216 
    5160     5073     5045     5136     5272     5329     5278     5167 
    5048     4972     4961     4962     4906     4780     4648     4601 
    4654     4782     4923     4997     5038     5124     5240     5353 
    5458     5533     5561     5547     5510     5512     5580     5656 
    5668     5613     5562     5543     5536     5509     5419     5273 
    5121     5026     5056     5210     5379     5455     5442     5408 
    5432     5568     5764     5947     6105     6198     6220     6241 
    6245     6218     6169     6053     5916     5819     5719     5636 
    5573     5435     5233     5078     5010     5028     5085     5084 
    4995     4872     4777     4742     4729     4691     4649     4616 
    4605     4687     4837     4921     4909     4846     4743     4655 
    4703     4937     5173     5213     5131     5067     5095     5252 
    5452     5583     5635     5649     5663     5686     5712     5752 
    5775     5763     5776     5811     5809     5813     5847     5867 
    5885     5905     5901     5888     5868     5863     5902     5926 
    5907     5890     5897     5968     6104     6159     6036     5815 
    5598     5465     5448     5460     5468     5512     5552     5581 
    5636     5654     5574     5454     5400     5460     5606     5735 
    5781     5775     5704     5569     5439     5351     5355     5482 
    5625     5679     5687     5709     5732     5702     5584     5457 
    5400     5313     5142     5001     4929     4883     4820     4710 
    4623     4642     4742     4865     4996     5123     5226     5317 
    5410     5501     5605     5701     5722     5717     5745     5708 
    5611     5605     5642     5565     5353     5061     4794     4663 
    4642     4635     4636     4671     4717     4777     4860     4943 
    5018     5075     5117     5184     5285     5374     5434     5481 
    5469     5411     5405     5460     5517     5560     5616     5659 
    5654     5667     5764     5973     6217     6320     6265     6163 
    6072     5994     5904     5819     5778     5761     5739     5720 
    5698     5646     5571     5463     5280     5061     4848     4666 
    4603     4643     4674     4671     4674     4730     4830     4836 
    4670     4478     4432     4543     4769     5037     5215     5296 
    5385     5496     5609     5751     5896     5986     6041     6093 
    6127     6137     6144     6176     6226     6252     6257     6256 
    6226     6201     6219     6246     6257     6249     6225     6183 
    6102     5970     5801     5611     5411     5221     5080     4990 
    4962     4984     4973     4932     4932     4973     5042     5124 
    5168     5134     5031     4938     4936     4999     5049     5078 
    5130     5170     5170     5198     5296     5438     5557     5584 
    5569     5620     5732     5815     5815     5758     5723     5719 
    5687     5624     5571     5543     5501     5386     5227     5119 
    5078     5128     5288     5427     5433     5325     5158     5059 
    5141     5286     5319     5214     5058     4946     4930     5006 
    5102     5130     5102     5088     5117     5186     5268     5285 
    5181     5050     5044     5099     5081     5090     5204     5307 
    5327     5273     5208     5250     5389     5527     5630     5648 
    5594     5592     5657     5765     5934     6075     6123     6146 
    6157     6148     6171     6204     6149     5998     5816     5654 
    5549     5521     5558     5604     5621     5589     5488     5392 
    5396     5455     5500     5531     5506     5423     5356     5305 
    5228     5150     5069     4967     4902     4880     4871     4915 
    5000     5074     5155     5242     5313     5393     5478     5525 
    5527     5484     5414     5359     5328     5344     5395     5422 
    5453     5495     5486     5470     5483     5465     5424     5399 
    5364     5337     5353     5355     5341     5371     5402     5399 
    5380     5344     5305     5263     5237     5296     5428     5574 
    5709     5796     5857     5920     5916     5848     5802     5794 
    5800     5794     5777     5799     5830     5797     5709     5629 
    5635     5731     5838     5872     5750     5469     5148     4926 
    4861     4898     4955     5022     5081     5129     5194     5216 
    5184     5193     5243     5290     5336     5387     5471     5594 
    5708     5793     5846     5841     5770     5662     5517     5380 
    5271     5146     5107     5205     5269     5269     5299     5367 
    5516     5731     5874     5864     5734     5596     5578     5673 
    5759     5795     5831     5885     5901     5838     5766     5740 
    5666     5517     5419     5400     5406     5456     5525     5510 
    5422     5326     5220     5135     5095     5007     4823     4649 
    4581     4609     4708     4795     4735     4519     4303     4197 
    4153     4133     4183     4247     4252     4292     4427     4607 
    4787     4889     4891     4908     5053     5323     5630     5877 
    6036     6159     6316     6497     6664     6763     6695     6469 
    6222     6049     5950     5827     5621     5384     5154     4994 
    5010     5137     5235     5284     5322     5396     5507     5593 
    5621     5609     5536     5391     5242     5164     5192     5328 
    5508     5685     5828     5892     5899     5898     5924     6049 
    6260     6480     6687     6859     6971     7053     7106     7090 
    7005     6896     6804     6661     6338     5845     5320     4875 
    4528     4249     4070     4032     4078     4154     4226     4275 
    4365     4510     4607     4679     4790     4853     4858     4852 
    4777     4647     4557     4545     4616     4726     4829     4947 
    5089     5249     5412     5511     5524     5527     5543     5587 
    5749     5974     6061     5955     5706     5396     5174     5073 
    4996     4910     4783     4576     4415     4427     4535     4623 
    4639     4587     4545     4600     4778     5028     5278     5484 
    5648     5836     6070     6275     6416     6507     6533     6484 
    6424     6387     6355     6316     6221     6072     5950     5848 
    5767     5747     5735     5660     5520     5334     5122     4907 
    4744     4699     4746     4806     4884     5022     5193     5292 
    5258     5188     5196     5315     5488     5566     5493     5376 
    5332     5392     5464     5454     5384     5299     5232     5277 
    5482     5756     6051     6342     6485     6493     6527     6536 
    6413     6209     5986     5787     5655     5534     5325     5038 
    4777     4663     4730     4815     4740     4527     4285     4170 
    4334     4699     5117     5523     5832     6027     6183     6286 
    6277     6168     5970     5686     5422     5291     5278     5306 
    5258     5133     5079     5141     5251     5354     5423     5463 
    5525     5681     5906     6101     6252     6430     6653     6884 
    7079     7146     7023     6733     6274     5730     5307     5078 
    4994     5008     5029     4977     4909     4906     4992     5163 
    5354     5528     5699     5830     5978     6204     6381     6393 
    6214     5859     5481     5221     5054     4909     4705     4393 
    4075     3912     3908     4012     4266     4625     4935     5135 
    5243     5326     5451     5607     5784     5957     6068     6113 
    6098     5976     5734     5414     5075     4819     4741     4816 
    4999     5248     5456     5553     5531     5395     5188     5002 
    4993     5241     5619     5959     6226     6405     6445     6410 
    6474     6703     6978     7100     6986     6749     6515     6281 
    6007     5697     5398     5188     5141     5265     5500     5692 
    5659     5372     4933     4472     4164     4098     4160     4217 
    4277     4435     4658     4804     4790     4641     4495     4513 
    4689     4908     5100     5244     5347     5376     5237     4968 
    4729     4588     4579     4719     4880     4922     4848     4701 
    4542     4449     4434     4544     4812     5121     5407     5712 
    6015     6239     6240     5954     5558     5248     5094     5105 
    5223     5349     5478     5624     5706     5763     5976     6284 
    6465     6504     6532     6649     6895     7158     7217     6990 
    6584     6184     5980     6027     6161     6066     5609     4970 
    4346     3877     3701     3801     4060     4410     4765     5012 
    5127     5155     5139     5080     4930     4735     4619     4574 
    4553     4583     4655     4774     4970     5217     5465     5644 
    5733     5836     6037     6269     6431     6525     6602     6660 
    6656     6562     6410     6290     6260     6252     6166     6016 
    5863     5723     5618     5585     5653     5815     5927     5848 
    5629     5418     5295     5240     5203     5212     5328     5491 
    5567     5410     4943     4316     3800     3600     3843     4487 
    5203     5604     5650     5572     5482     5381     5302     5253 
    5215     5201     5208     5280     5491     5745     5870     5790 
    5515     5238     5161     5258     5475     5746     5848     5701 
    5496     5379     5398     5628     6032     6405     6532     6294 
    5777     5281     5077     5163     5268     5187     5004     4904 
    4995     5230     5395     5298     4900     4369     4020     4075 
    4537     5140     5464     5359     5107     5018     5146     5396 
    5573     5514     5304     5183     5304     5564     5631     5365 
    5043     4970     5224     5699     6153     6352     6322     6288 
    6328     6325     6153     5793     5354     4997     4831     4852 
    4935     4967     4993     5115     5271     5345     5368     5411 
    5461     5449     5310     5143     5170     5386     5593     5699 
    5715     5654     5597     5677     5860     5966     5899     5659 
    5355     5198     5295     5529     5707     5706     5575     5481 
    5474     5474     5484     5531     5474     5227     4974     4949 
    5201     5598     5925     6036     5969     5906     6009     6271 
    6548     6691     6548     6166     5918     6001     6206     6321 
    6228     5911     5553     5284     5086     4908     4660     4324 
    4028     3929     4099     4445     4734     4773     4596     4436 
    4497     4819     5285     5679     5822     5689     5394     5140 
    5116     5322     5594     5735     5602     5301     5120     5181 
    5409     5678     5807     5727     5601     5657     5989     6494 
    6923     7087     6995     6771     6528     6346     6217     5985 
    5536     4974     4458     4072     3885     3890     3941     3883 
    3652     3365     3207     3202     3366     3755     4221     4594 
    4922     5282     5591     5734     5721     5641     5631     5820 
    6213     6650     6902     6876     6692     6433     6120     5966 
    6136     6417     6558     6580     6558     6447     6209     5962 
    5824     5773     5770     5727     5533     5300     5185     5172 
    5181     5053     4694     4313     4169     4257     4419     4521 
    4522     4427     4252     4076     4003     4034     4056     4013 
    3959     3983     4192     4591     5017     5326     5507     5567 
    5544     5678     6101     6541     6755     6761     6610     6410 
    6344     6468     6623     6593     6333     6021     5812     5674 
    5582     5621     5789     5984     6157     6287     6365     6417 
    6442     6427     6378     6304     6242     6172     6039     5929 
    5942     6032     6112     6080     5869     5634     5579     5626 
    5552     5308     5037     4896     4937     5147     5444     5683 
    5807     5832     5802     5834     5926     5917     5765     5580 
    5422     5202     4841     4476     4304     4295     4278     4133 
    3818     3435     3140     2980     2951     3037     3232     3512 
    3820     4128     4335     4359     4330     4393     4573     4841 
    5127     5421     5795     6206     6520     6697     6745     6698 
    6742     7020     7384     7619     7713     7751     7727     7565 
    7285     6972     6652     6394     6309     6448     6710     6854 
    6743     6463     6195     6062     5993     5799     5401     4826 
    4176     3717     3646     3826     4000     4073     4082     4077 
    4082     4136     4200     4155     4089     4215     4430     4507 
    4475     4460     4541     4730     4934     5101     5278     5522 
    5855     6184     6304     6096     5656     5225     4983     4945 
    5055     5264     5534     5769     5895     5947     5961     5972 
    6012     5978     5768     5377     4931     4669     4667     4781 
    4906     4992     4975     4979     5225     5605     5811     5766 
    5607     5562     5725     5853     5711     5392     5097     4975 
    5095     5401     5812     6195     6361     6370     6457     6626 
    6676     6477     6113     5797     5675     5783     6075     6433 
    6665     6611     6322     5984     5724     5578     5488     5391 
    5303     5179     4940     4609     4286     4078     4003     4027 
    4174     4471     4859     5234     5512     5654     5735     5902 
    6133     6234     6069     5727     5411     5222     5160     5130 
    5040     4982     5029     5077     5043     4982     4970     4956 
    4856     4729     4681     4686     4680     4697     4780     4926 
    5212     5757     6491     7107     7312     7077     6687     6496 
    6582     6725     6727     6621     6476     6347     6406     6662 
    6873     6893     6697     6320     5986     5940     6127     6266 
    6174     5859     5416     4941     4507     4169     3941     3858 
    3969     4178     4295     4252     4164     4144     4154     4153 
    4133     4013     3872     3944     4212     4521     4841     5112 
    5249     5256     5263     5465     5845     6136     6180     6037 
    5872     5882     6090     6324     6390     6151     5622     5017 
    4628     4612     4831     4984     4890     4599     4255     3983 
    3908     4096     4453     4828     5177     5505     5748     5929 
    6119     6249     6244     6102     5774     5261     4767     4571 
    4716     5000     5212     5275     5234     5208     5241     5260 
    5261     5284     5281     5235     5213     5313     5541     5776 
    5920     5871     5576     5292     5330     5680     6186     6620 
    6683     6356     5912     5572     5421     5376     5290     5152 
    4993     4901     5022     5275     5450     5512     5505     5489 
    5559     5711     5855     5942     5984     6040     6174     6347 
    6391     6243     6072     6038     6107     6219     6371     6445 
    6290     5966     5655     5451     5379     5467     5659     5811 
    5852     5829     5818     5900     6072     6182     6119     5888 
    5521     5125     4829     4630     4498     4533     4760     5011 
    5147     5160     5080     4866     4552     4397     4542     4797 
    4914     4831     4730     4770     4879     4970     5064     5192 
    5349     5504     5637     5776     5982     6256     6450     6502 
    6531     6574     6604     6657     6742     6866     7029     7155 
    7173     7040     6702     6149     5497     5001     4819     4815 
    4742     4526     4308     4292     4539     4913     5263     5552 
    5720     5725     5737     5884     6019     6018     5908     5757 
    5666     5648     5533     5260     5007     4907     4919     4904 
    4772     4649     4678     4732     4655     4498     4350     4271 
    4279     4316     4371     4471     4586     4664     4672     4604 
    4483     4387     4436     4592     4670     4570     4355     4181 
    4130     4145     4159     4146     4140     4309     4707     5062 
    5096     4861     4631     4628     4885     5259     5594     5825 
    5920     5971     6135     6390     6607     6715     6731     6693 
    6601     6503     6462     6451     6433     6418     6391     6296 
    6139     5986     5877     5913     6212     6647     6959     7024 
    6831     6475     6219     6292     6622     6964     7174     7190 
    6958     6486     5892     5379     5040     4750     4355     3871 
    3488     3401     3595     3852     4002     4049     4111     4289 
    4543     4721     4693     4506     4367     4387     4502     4604 
    4641     4668     4804     5114     5559     5974     6185     6215 
    6223     6292     6437     6673     6972     7257     7407     7294 
    6934     6489     6140     6030     6205     6519     6679     6489 
    6037     5568     5268     5167     5136     5038     4902     4834 
    4870     4983     5140     5294     5327     5165     4928     4699 
    4414     4121     3964     3986     4170     4426     4649     4883 
    5198     5534     5795     5956     6024     5997     5910     5831 
    5769     5712     5709     5802     5935     6001     5947     5786 
    5584     5455     5396     5271     5049     4886     4967     5330 
    5756     5897     5662     5244     4795     4463     4397     4522 
    4674     4783     4784     4738     4861     5182     5468     5545 
    5426     5232     5126     5179     5338     5519     5572     5395 
    5059     4734     4687     5058     5591     5922     5929     5755 
    5644     5761     6061     6328     6425     6397     6349     6399 
    6595     6767     6709     6453     6148     5865     5637     5503 
    5371     5095     4702     4350     4159     4109     4064     3923 
    3663     3404     3374     3626     3986     4258     4351     4334 
    4321     4383     4583     4870     5088     5243     5432     5691 
