Origin Time       2024/04/02 04:24:00
Lat.              40.133
Long.             141.712
Depth. (km)       71
Mag.              6.0
Station Code      IBUH07
Station Lat.      42.6476
Station Long.     141.0643
Station Height(m) 150
Record Time       2024/04/02 04:25:51
Sampling Freq(Hz) 100Hz
Duration Time(s)  120
Dir.              1
Scale Factor      2940(gal)/6170270
Max. Acc. (gal)   0.315
Last Correction   2024/04/02 04:25:36
Memo.             
[...]
 -237685  -237647  -237618  -237629  -237629  -237634  -237634  -237595 
 -237583  -237605  -237604  -237594  -237574  -237550  -237562  -237563 
 -237546  -237595  -237660  -237638  -237595  -237588  -237536  -237440 
 -237403  -237415  -237425  -237442  -237472  -237505  -237505  -237465 
 -237469  -237532  -237552  -237502  -237459  -237458  -237451  -237410 
 -237405  -237480  -237546  -237536  -237498  -237475  -237487  -237550 
 -237598  -237567  -237519  -237486  -237469  -237492  -237487  -237421 
 -237420  -237494  -237535  -237554  -237586  -237605  -237611  -237622 
 -237652  -237698  -237728  -237704  -237637  -237594  -237604  -237642 
 -237677  -237701  -237745  -237788  -237777  -237746  -237756  -237778 
 -237781  -237776  -237758  -237724  -237688  -237673  -237712  -237766 
 -237755  -237727  -237775  -237849  -237850  -237817  -237839  -237890 
 -237910  -237879  -237816  -237788  -237789  -237739  -237685  -237708 
 -237745  -237751  -237788  -237830  -237804  -237748  -237694  -237658 
 -237651  -237603  -237535  -237534  -237546  -237532  -237560  -237620 
 -237668  -237695  -237673  -237618  -237623  -237710  -237774  -237723 
 -237635  -237659  -237752  -237765  -237713  -237696  -237699  -237654 
 -237596  -237585  -237601  -237613  -237586  -237492  -237424  -237457 
 -237510  -237497  -237450  -237448  -237479  -237500  -237536  -237586 
 -237594  -237562  -237553  -237573  -237573  -237527  -237465  -237434 
 -237462  -237527  -237560  -237528  -237482  -237462  -237432  -237392 
 -237392  -237418  -237443  -237470  -237459  -237439  -237466  -237462 
 -237407  -237418  -237516  -237587  -237571  -237537  -237547  -237576 
 -237570  -237540  -237575  -237637  -237624  -237605  -237621  -237600 
 -237579  -237588  -237571  -237538  -237514  -237505  -237544  -237605 
 -237614  -237593  -237620  -237672  -237691  -237676  -237642  -237644 
 -237694  -237710  -237702  -237735  -237765  -237759  -237753  -237724 
 -237657  -237601  -237566  -237552  -237593  -237637  -237609  -237558 
 -237540  -237531  -237540  -237570  -237566  -237553  -237602  -237653 
 -237641  -237608  -237598  -237617  -237638  -237640  -237667  -237723 
 -237762  -237772  -237755  -237727  -237743  -237824  -237892  -237869 
 -237806  -237794  -237806  -237773  -237731  -237724  -237698  -237662 
 -237671  -237667  -237609  -237570  -237551  -237499  -237480  -237527 
 -237547  -237501  -237447  -237463  -237538  -237588  -237595  -237618 
 -237676  -237734  -237764  -237758  -237736  -237745  -237771  -237770 
 -237778  -237802  -237797  -237795  -237828  -237851  -237839  -237789 
 -237736  -237692  -237610  -237551  -237565  -237553  -237514  -237506 
 -237478  -237422  -237409  -237441  -237457  -237445  -237426  -237431 
 -237460  -237496  -237540  -237567  -237576  -237640  -237700  -237667 
 -237644  -237705  -237765  -237762  -237690  -237621  -237655  -237711 
 -237676  -237641  -237666  -237663  -237627  -237638  -237648  -237589 
 -237549  -237569  -237578  -237583  -237611  -237604  -237573  -237585 
 -237606  -237593  -237578  -237549  -237480  -237434  -237458  -237505 
 -237525  -237539  -237565  -237565  -237552  -237572  -237595  -237620 
 -237670  -237675  -237623  -237614  -237637  -237620  -237591  -237569 
 -237571  -237603  -237588  -237536  -237547  -237575  -237549  -237510 
 -237489  -237492  -237524  -237571  -237605  -237622  -237660  -237726 
 -237765  -237741  -237674  -237630  -237638  -237635  -237610  -237604 
 -237610  -237643  -237680  -237663  -237649  -237664  -237640  -237610 
 -237604  -237590  -237590  -237608  -237635  -237672  -237678  -237635 
 -237603  -237631  -237662  -237647  -237631  -237634  -237659  -237713 
 -237738  -237707  -237680  -237682  -237678  -237665  -237691  -237745 
 -237774  -237773  -237747  -237701  -237677  -237665  -237623  -237598 
 -237617  -237616  -237612  -237665  -237722  -237752  -237821  -237886 
 -237855  -237791  -237765  -237752  -237750  -237740  -237717  -237745 
 -237795  -237817  -237827  -237795  -237736  -237698  -237646  -237588 
 -237586  -237597  -237566  -237551  -237536  -237487  -237488  -237521 
 -237528  -237581  -237636  -237601  -237565  -237602  -237629  -237606 
 -237599  -237603  -237570  -237559  -237563  -237516  -237487  -237502 
 -237494  -237491  -237527  -237550  -237551  -237531  -237450  -237383 
 -237417  -237479  -237515  -237541  -237552  -237556  -237555  -237518 
 -237460  -237431  -237406  -237370  -237405  -237491  -237511  -237474 
 -237469  -237482  -237472  -237512  -237624  -237685  -237658  -237637 
 -237636  -237604  -237563  -237556  -237554  -237537  -237539  -237525 
 -237486  -237515  -237581  -237575  -237546  -237573  -237625  -237647 
 -237607  -237545  -237551  -237626  -237704  -237737  -237726  -237700 
 -237652  -237593  -237586  -237623  -237661  -237685  -237660  -237607 
 -237604  -237632  -237617  -237580  -237597  -237668  -237707  -237685 
 -237657  -237623  -237568  -237558  -237591  -237598  -237624  -237696 
 -237730  -237723  -237734  -237750  -237745  -237735  -237752  -237785 
 -237804  -237817  -237842  -237848  -237838  -237874  -237904  -237852 
 -237828  -237871  -237872  -237841  -237845  -237848  -237830  -237814 
 -237788  -237735  -237694  -237707  -237736  -237743  -237737  -237693 
 -237626  -237615  -237619  -237556  -237502  -237524  -237552  -237537 
 -237524  -237533  -237528  -237525  -237577  -237642  -237639  -237603 
 -237588  -237565  -237532  -237526  -237522  -237504  -237509  -237522 
 -237513  -237499  -237481  -237484  -237510  -237495  -237471  -237508 
 -237548  -237545  -237536  -237561  -237608  -237640  -237659  -237677 
 -237678  -237650  -237611  -237589  -237567  -237502  -237429  -237406 
 -237415  -237408  -237390  -237409  -237456  -237470  -237474  -237535 
 -237608  -237619  -237623  -237658  -237667  -237657  -237665  -237668 
 -237668  -237685  -237691  -237664  -237629  -237598  -237581  -237589 
 -237601  -237601  -237601  -237623  -237650  -237658  -237673  -237725 
 -237738  -237659  -237599  -237621  -237664  -237693  -237717  -237744 
 -237729  -237672  -237665  -237676  -237622  -237576  -237579  -237577 
 -237570  -237549  -237499  -237462  -237478  -237530  -237575  -237622 
 -237678  -237698  -237694  -237711  -237754  -237823  -237878  -237867 
 -237854  -237894  -237917  -237902  -237905  -237912  -237879  -237825 
 -237779  -237722  -237659  -237638  -237632  -237587  -237562  -237580 
 -237549  -237476  -237435  -237419  -237413  -237458  -237565  -237653 
 -237665  -237645  -237629  -237616  -237618  -237638  -237674  -237727 
 -237784  -237815  -237801  -237776  -237761  -237731  -237717  -237737 
 -237743  -237721  -237663  -237580  -237530  -237485  -237432  -237448 
 -237517  -237552  -237549  -237538  -237519  -237510  -237542  -237557 
 -237527  -237547  -237623  -237633  -237566  -237522  -237545  -237602 
 -237653  -237656  -237606  -237570  -237571  -237566  -237547  -237547 
 -237562  -237557  -237536  -237536  -237555  -237588  -237638  -237665 
 -237644  -237609  -237583  -237588  -237643  -237654  -237558  -237481 
 -237463  -237425  -237442  -237513  -237524  -237517  -237536  -237561 
 -237594  -237578  -237519  -237508  -237533  -237566  -237615  -237647 
 -237653  -237651  -237654  -237672  -237675  -237675  -237700  -237689 
 -237634  -237608  -237595  -237568  -237556  -237547  -237535  -237538 
 -237530  -237514  -237516  -237517  -237507  -237529  -237599  -237655 
 -237660  -237680  -237731  -237738  -237727  -237743  -237748  -237742 
 -237742  -237713  -237662  -237636  -237643  -237656  -237642  -237629 
 -237639  -237601  -237519  -237495  -237525  -237509  -237413  -237341 
 -237364  -237389  -237382  -237424  -237494  -237539  -237557  -237557 
 -237544  -237521  -237501  -237495  -237506  -237538  -237564  -237562 
 -237554  -237565  -237593  -237620  -237638  -237636  -237618  -237622 
 -237649  -237673  -237714  -237774  -237820  -237874  -237958  -237995 
 -237957  -237934  -237951  -237953  -237922  -237864  -237803  -237768 
 -237721  -237673  -237706  -237746  -237692  -237645  -237637  -237574 
 -237485  -237435  -237429  -237476  -237567  -237663  -237738  -237810 
 -237870  -237886  -237889  -237894  -237886  -237922  -237993  -237982 
 -237904  -237882  -237909  -237905  -237859  -237821  -237822  -237832 
 -237846  -237884  -237909  -237864  -237770  -237722  -237718  -237665 
 -237591  -237561  -237516  -237462  -237470  -237489  -237453  -237394 
 -237357  -237320  -237257  -237223  -237264  -237342  -237427  -237489 
 -237524  -237581  -237647  -237690  -237739  -237822  -237903  -237918 
 -237885  -237871  -237847  -237765  -237659  -237588  -237556  -237540 
 -237521  -237494  -237476  -237416  -237292  -237222  -237234  -237242 
 -237269  -237333  -237369  -237372  -237369  -237412  -237500  -237519 
 -237442  -237383  -237391  -237441  -237524  -237606  -237628  -237619 
 -237633  -237636  -237613  -237634  -237708  -237748  -237708  -237680 
 -237756  -237843  -237846  -237833  -237836  -237816  -237773  -237753 
 -237784  -237813  -237783  -237742  -237744  -237767  -237775  -237740 
 -237675  -237617  -237588  -237637  -237764  -237868  -237919  -237937 
 -237897  -237846  -237844  -237863  -237887  -237922  -237947  -237947 
 -237914  -237861  -237838  -237860  -237897  -237931  -237958  -237975 
 -237993  -237979  -237898  -237816  -237782  -237728  -237596  -237453 
 -237394  -237391  -237351  -237322  -237364  -237350  -237258  -237231 
 -237263  -237275  -237314  -237421  -237522  -237507  -237420  -237383 
 -237387  -237401  -237442  -237475  -237516  -237587  -237580  -237487 
 -237444  -237455  -237452  -237460  -237468  -237457  -237505  -237630 
 -237729  -237730  -237656  -237564  -237507  -237514  -237551  -237546 
 -237507  -237498  -237522  -237551  -237580  -237583  -237590  -237645 
 -237693  -237694  -237720  -237797  -237865  -237923  -237997  -238040 
 -238019  -237976  -237952  -237978  -238021  -237964  -237787  -237634 
 -237545  -237430  -237304  -237236  -237219  -237214  -237185  -237136 
 -237126  -237201  -237299  -237359  -237433  -237515  -237520  -237512 
 -237537  -237494  -237414  -237391  -237373  -237308  -237231  -237208 
 -237304  -237449  -237524  -237532  -237521  -237502  -237490  -237515 
 -237591  -237696  -237779  -237801  -237805  -237842  -237864  -237806 
 -237683  -237604  -237624  -237637  -237556  -237440  -237383  -237393 
 -237411  -237439  -237510  -237585  -237638  -237671  -237708  -237796 
 -237895  -237927  -237901  -237840  -237756  -237722  -237775  -237812 
 -237744  -237663  -237640  -237598  -237525  -237482  -237441  -237434 
 -237532  -237603  -237548  -237508  -237536  -237525  -237505  -237518 
 -237479  -237418  -237434  -237489  -237501  -237462  -237412  -237364 
 -237294  -237229  -237206  -237188  -237132  -237072  -237102  -237217 
 -237293  -237308  -237337  -237404  -237496  -237573  -237591  -237611 
 -237692  -237761  -237779  -237772  -237710  -237649  -237688  -237751 
 -237751  -237749  -237739  -237648  -237545  -237533  -237550  -237537 
 -237568  -237656  -237736  -237819  -237894  -237913  -237927  -237966 
 -237916  -237787  -237749  -237786  -237802  -237834  -237857  -237800 
 -237695  -237611  -237562  -237540  -237590  -237697  -237787  -237914 
 -238064  -238067  -237977  -237961  -237961  -237908  -237873  -237872 
 -237885  -237941  -237980  -237887  -237734  -237669  -237654  -237660 
 -237805  -238013  -238055  -237973  -237932  -237908  -237803  -237618 
 -237453  -237407  -237462  -237519  -237521  -237472  -237444  -237508 
 -237610  -237691  -237781  -237822  -237753  -237691  -237717  -237759 
 -237778  -237766  -237705  -237661  -237683  -237706  -237684  -237677 
 -237719  -237762  -237790  -237826  -237809  -237719  -237689  -237763 
 -237823  -237831  -237836  -237820  -237739  -237576  -237392  -237298 
 -237275  -237270  -237297  -237268  -237156  -237106  -237122  -237149 
 -237240  -237341  -237345  -237278  -237239  -237280  -237309  -237321 
 -237456  -237612  -237626  -237599  -237604  -237580  -237527  -237500 
 -237540  -237629  -237695  -237687  -237614  -237585  -237654  -237707 
 -237706  -237690  -237671  -237648  -237590  -237536  -237585  -237658 
 -237653  -237649  -237688  -237703  -237682  -237668  -237691  -237744 
 -237783  -237743  -237648  -237615  -237597  -237486  -237389  -237360 
 -237303  -237266  -237290  -237295  -237324  -237415  -237420  -237300 
 -237242  -237346  -237492  -237546  -237520  -237504  -237526  -237576 
 -237656  -237753  -237827  -237850  -237826  -237766  -237747  -237805 
 -237835  -237804  -237760  -237660  -237547  -237570  -237732  -237846 
 -237832  -237842  -237934  -237951  -237870  -237799  -237748  -237719 
 -237756  -237844  -237915  -237904  -237874  -237857  -237717  -237489 
 -237414  -237545  -237684  -237678  -237635  -237655  -237661  -237643 
 -237623  -237575  -237513  -237451  -237413  -237376  -237279  -237256 
 -237402  -237563  -237611  -237588  -237596  -237600  -237570  -237620 
 -237732  -237785  -237755  -237673  -237625  -237670  -237721  -237675 
 -237533  -237405  -237476  -237734  -237893  -237879  -237846  -237777 
 -237659  -237641  -237721  -237764  -237805  -237883  -237848  -237714 
 -237713  -237828  -237831  -237720  -237694  -237786  -237838  -237824 
 -237823  -237782  -237655  -237509  -237424  -237486  -237642  -237713 
 -237689  -237645  -237581  -237509  -237455  -237448  -237444  -237353 
 -237214  -237076  -236959  -236997  -237179  -237254  -237184  -237163 
 -237206  -237220  -237250  -237290  -237263  -237269  -237402  -237537 
 -237591  -237636  -237682  -237687  -237702  -237770  -237857  -237904 
 -237822  -237617  -237489  -237548  -237664  -237679  -237587  -237533 
 -237550  -237512  -237462  -237479  -237463  -237477  -237658  -237808 
 -237737  -237621  -237637  -237669  -237628  -237645  -237727  -237785 
 -237880  -238012  -238058  -238015  -237989  -237999  -237944  -237809 
 -237737  -237770  -237765  -237673  -237653  -237718  -237681  -237509 
 -237324  -237283  -237455  -237627  -237675  -237734  -237770  -237746 
 -237805  -237862  -237796  -237738  -237753  -237824  -237920  -237929 
 -237911  -237955  -237969  -237932  -237858  -237694  -237531  -237475 
 -237432  -237357  -237369  -237463  -237535  -237595  -237642  -237633 
 -237675  -237826  -237895  -237801  -237767  -237869  -237927  -237901 
 -237922  -238003  -238087  -238124  -238062  -237994  -238021  -238012 
 -237917  -237900  -237906  -237804  -237774  -237818  -237694  -237555 
 -237645  -237793  -237813  -237798  -237827  -237814  -237752  -237728 
 -237650  -237448  -237288  -237276  -237345  -237420  -237456  -237427 
 -237333  -237185  -237064  -237077  -237169  -237209  -237216  -237225 
 -237198  -237215  -237341  -237431  -237444  -237494  -237505  -237358 
 -237192  -237220  -237365  -237391  -237335  -237403  -237552  -237584 
 -237499  -237464  -237508  -237553  -237616  -237718  -237808  -237838 
 -237766  -237670  -237640  -237569  -237433  -237400  -237437  -237362 
 -237246  -237283  -237412  -237456  -237468  -237556  -237630  -237651 
 -237673  -237677  -237711  -237766  -237707  -237641  -237720  -237765 
 -237658  -237553  -237532  -237566  -237650  -237698  -237630  -237599 
 -237726  -237838  -237823  -237835  -237890  -237824  -237703  -237632 
 -237542  -237487  -237531  -237578  -237576  -237548  -237598  -237760 
 -237833  -237761  -237670  -237561  -237472  -237476  -237522  -237591 
 -237663  -237685  -237717  -237779  -237793  -237791  -237844  -237923 
 -237942  -237875  -237830  -237843  -237797  -237749  -237824  -237872 
 -237752  -237566  -237449  -237411  -237392  -237446  -237642  -237799 
 -237718  -237494  -237328  -237307  -237379  -237442  -237452  -237402 
 -237340  -237352  -237426  -237477  -237529  -237670  -237808  -237820 
 -237780  -237712  -237567  -237485  -237496  -237461  -237457  -237555 
 -237594  -237522  -237495  -237531  -237501  -237436  -237400  -237328 
 -237313  -237444  -237552  -237570  -237603  -237670  -237722  -237705 
 -237650  -237694  -237840  -237932  -237913  -237857  -237818  -237828 
 -237857  -237862  -237865  -237863  -237900  -238029  -238088  -238004 
 -237958  -237982  -237966  -237937  -237951  -237919  -237809  -237801 
 -237919  -237931  -237844  -237828  -237803  -237691  -237597  -237551 
 -237490  -237413  -237374  -237357  -237289  -237261  -237342  -237375 
 -237319  -237271  -237260  -237355  -237478  -237461  -237364  -237261 
 -237216  -237297  -237386  -237473  -237656  -237754  -237627  -237450 
 -237407  -237457  -237468  -237478  -237513  -237491  -237509  -237623 
 -237673  -237666  -237688  -237671  -237582  -237480  -237461  -237580 
 -237725  -237761  -237689  -237545  -237440  -237471  -237510  -237452 
 -237425  -237516  -237674  -237802  -237783  -237672  -237616  -237548 
 -237415  -237348  -237360  -237381  -237480  -237647  -237748  -237791 
 -237828  -237824  -237764  -237684  -237646  -237662  -237683  -237667 
 -237583  -237467  -237409  -237407  -237401  -237413  -237466  -237523 
 -237546  -237545  -237494  -237343  -237192  -237160  -237267  -237447 
 -237520  -237485  -237548  -237665  -237656  -237606  -237665  -237747 
 -237724  -237681  -237715  -237770  -237821  -237837  -237804  -237807 
 -237836  -237844  -237908  -238038  -238145  -238211  -238238  -238203 
 -238113  -238033  -238058  -238138  -238152  -238160  -238223  -238237 
 -238190  -238154  -238119  -238103  -238083  -238002  -237933  -237894 
 -237827  -237790  -237803  -237743  -237595  -237510  -237546  -237647 
 -237789  -237900  -237889  -237845  -237939  -238103  -238124  -238002 
 -237871  -237767  -237706  -237718  -237760  -237737  -237627  -237524 
 -237445  -237357  -237346  -237388  -237322  -237204  -237185  -237226 
 -237262  -237335  -237443  -237458  -237341  -237260  -237282  -237321 
 -237372  -237423  -237420  -237389  -237339  -237260  -237233  -237294 
 -237348  -237299  -237207  -237264  -237420  -237476  -237510  -237576 
 -237500  -237331  -237310  -237465  -237647  -237711  -237597  -237443 
 -237439  -237502  -237479  -237462  -237499  -237494  -237459  -237439 
 -237429  -237426  -237436  -237460  -237478  -237507  -237540  -237496 
 -237373  -237299  -237353  -237459  -237560  -237670  -237671  -237579 
 -237592  -237655  -237675  -237741  -237801  -237726  -237609  -237575 
 -237586  -237565  -237513  -237538  -237655  -237687  -237591  -237547 
 -237569  -237499  -237361  -237262  -237193  -237169  -237209  -237219 
 -237176  -237195  -237260  -237269  -237265  -237274  -237276  -237348 
 -237472  -237546  -237597  -237638  -237635  -237653  -237673  -237621 
 -237561  -237505  -237421  -237406  -237441  -237360  -237244  -237300 
 -237413  -237463  -237530  -237608  -237707  -237844  -237946  -238008 
 -237988  -237890  -237904  -238024  -238041  -237946  -237867  -237811 
 -237717  -237631  -237614  -237696  -237852  -237948  -237946  -237914 
 -237872  -237888  -237915  -237847  -237831  -237943  -238019  -238038 
 -238067  -238064  -238032  -238044  -238087  -238095  -238103  -238128 
 -238052  -237928  -237923  -237937  -237895  -237928  -237992  -237959 
 -237902  -237906  -237915  -237882  -237843  -237792  -237708  -237687 
 -237709  -237632  -237542  -237546  -237531  -237494  -237561  -237710 
