Origin Time       2024/04/02 04:24:00
Lat.              40.133
Long.             141.712
Depth. (km)       71
Mag.              6.0
Station Code      IBUH07
Station Lat.      42.6476
Station Long.     141.0643
Station Height(m) 350
Record Time       2024/04/02 04:25:51
Sampling Freq(Hz) 100Hz
Duration Time(s)  120
Dir.              5
Scale Factor      3920(gal)/6170801
Max. Acc. (gal)   2.071
Last Correction   2024/04/02 04:25:36
Memo.             
[...]
    8703     8497     8317     8204     8171     8141     8093     8065 
    8080     8153     8277     8423     8557     8674     8799     8911 
    9002     9124     9295     9487     9638     9706     9755     9788 
    9728     9638     9599     9566     9493     9402     9318     9234 
    9170     9143     9120     9100     9101     9116     9173     9278 
    9344     9322     9265     9218     9187     9184     9221     9246 
    9175     9030     8899     8813     8726     8577     8399     8272 
    8247     8376     8633     8848     8924     8938     8990     9099 
    9223     9325     9388     9403     9400     9422     9444     9410 
    9314     9198     9129     9162     9274     9394     9472     9493 
    9470     9430     9428     9462     9432     9309     9163     9030 
    8913     8807     8708     8627     8571     8522     8462     8399 
    8390     8482     8661     8886     9087     9171     9102     8967 
    8921     9031     9206     9339     9394     9379     9327     9258 
    9145     9006     8870     8699     8551     8535     8590     8608 
    8613     8654     8720     8834     8998     9104     9090     9009 
    8942     8960     9035     9092     9109     9061     8961     8882 
    8857     8887     8940     8970     8957     8894     8835     8882 
    9035     9188     9261     9269     9268     9273     9293     9303 
    9244     9162     9137     9119     9069     9026     8955     8878 
    8922     9051     9139     9199     9255     9273     9256     9209 
    9108     8979     8887     8844     8811     8765     8704     8616 
    8549     8546     8548     8550     8582     8584     8554     8563 
    8620     8686     8760     8868     8997     9085     9093     9074 
    9138     9267     9324     9281     9208     9135     9087     9093 
    9121     9108     9036     8977     8995     9063     9116     9114 
    9071     9023     8960     8845     8709     8631     8634     8718 
    8831     8859     8834     8864     8945     9060     9201     9297 
    9315     9314     9331     9377     9454     9491     9471     9475 
    9481     9413     9333     9325     9359     9370     9351     9332 
    9293     9237     9271     9394     9486     9548     9596     9577 
    9538     9534     9483     9362     9287     9279     9248     9150 
    9008     8860     8726     8619     8558     8528     8524     8552 
    8580     8605     8614     8548     8478     8500     8545     8586 
    8689     8841     9004     9133     9158     9073     8935     8799 
    8736     8756     8783     8769     8699     8602     8551     8544 
    8542     8526     8454     8343     8308     8446     8716     8963 
    9093     9107     9043     9056     9250     9451     9521     9503 
    9384     9222     9157     9170     9193     9245     9320     9385 
    9406     9376     9356     9375     9440     9542     9578     9510 
    9431     9385     9335     9244     9126     9021     8934     8894 
    8913     8893     8804     8723     8696     8727     8801     8876 
    8904     8869     8848     8924     9072     9202     9265     9289 
    9348     9476     9593     9595     9462     9273     9149     9137 
    9150     9108     9018     8942     8928     8930     8896     8855 
    8853     8906     8996     9083     9148     9143     9049     8954 
    8908     8887     8901     8921     8903     8875     8876     8923 
    8994     9026     8981     8855     8695     8581     8544     8546 
    8507     8398     8306     8295     8341     8393     8415     8442 
    8515     8572     8598     8673     8797     8883     8935     9007 
    9079     9130     9191     9304     9467     9634     9814     9995 
   10064     9982     9805     9600     9451     9379     9327     9207 
    9005     8814     8681     8628     8668     8710     8721     8762 
    8823     8855     8842     8801     8811     8921     9066     9180 
    9257     9295     9325     9343     9325     9338     9408     9465 
    9482     9465     9379     9248     9212     9296     9392     9428 
    9311     9054     8877     8852     8862     8865     8861     8806 
    8741     8754     8809     8810     8787     8810     8886     9011 
    9182     9337     9388     9364     9361     9373     9339     9233 
    9129     9094     9048     8934     8813     8716     8649     8630 
    8655     8691     8685     8651     8675     8759     8840     8908 
    8962     8985     8982     8967     8972     8992     8985     8955 
    8877     8754     8704     8768     8856     8906     8887     8779 
    8665     8675     8802     8962     9113     9205     9243     9313 
    9442     9610     9775     9820     9687     9468     9301     9231 
    9164     9050     8908     8724     8584     8575     8653     8782 
    8901     8933     8931     8958     8969     8947     8942     8966 
    8976     8939     8834     8670     8564     8600     8714     8812 
    8850     8828     8784     8750     8772     8906     9089     9259 
    9417     9478     9384     9234     9117     9048     9011     8977 
    8930     8879     8876     8974     9103     9159     9142     9089 
    9062     9107     9135     9083     9042     9070     9099     9084 
    9083     9085     9009     8949     8999     9060     9049     8946 
    8782     8670     8652     8691     8721     8668     8569     8517 
    8558     8700     8854     8982     9130     9274     9408     9518 
    9527     9484     9460     9433     9459     9551     9620     9666 
    9723     9766     9808     9836     9778     9636     9465     9269 
    9090     9007     8991     8998     9051     9119     9163     9206 
    9248     9270     9260     9194     9080     8948     8801     8665 
    8594     8577     8554     8535     8532     8507     8490     8542 
    8639     8704     8703     8660     8599     8534     8546     8688 
    8865     8991     9061     9073     9059     9050     9022     8980 
    8952     8900     8804     8749     8768     8741     8634     8572 
    8615     8708     8849     9042     9209     9325     9444     9578 
    9696     9747     9701     9628     9616     9665     9699     9632 
    9433     9172     8988     8947     8994     9053     9102     9107 
    9052     8978     8922     8897     8865     8806     8804     8868 
    8931     9023     9134     9180     9174     9145     9072     8972 
    8847     8680     8506     8409     8466     8656     8862     8965 
    8918     8803     8759     8816     8903     8975     9031     9079 
    9152     9242     9263     9219     9190     9217     9299     9368 
    9354     9274     9154     9049     8992     8916     8807     8723 
    8673     8676     8716     8725     8716     8772     8896     9026 
    9135     9192     9160     9104     9122     9206     9296     9338 
    9281     9160     9062     8998     8974     9006     9018     8902 
    8677     8425     8199     8032     7969     8042     8181     8314 
    8478     8655     8764     8806     8797     8744     8725     8778 
    8877     9012     9169     9357     9580     9769     9881     9932 
    9903     9773     9591     9424     9326     9336     9406     9460 
    9436     9236     8913     8716     8742     8896     9099     9250 
    9255     9170     9090     9079     9162     9246     9203     9049 
    8898     8813     8803     8893     9041     9123     9044     8814 
    8535     8363     8399     8614     8932     9237     9395     9444 
    9509     9574     9593     9582     9538     9472     9405     9330 
    9254     9197     9141     9046     8891     8701     8516     8335 
    8191     8153     8187     8193     8152     8139     8246     8520 
    8928     9355     9637     9711     9669     9653     9734     9823 
    9747     9481     9150     8883     8784     8852     8930     8890 
    8741     8548     8431     8489     8636     8766     8916     9088 
    9244     9422     9592     9644     9595     9543     9537     9577 
    9639     9642     9444     9031     8579     8234     8041     8002 
    8047     8147     8368     8709     9114     9531     9816     9844 
    9660     9408     9262     9317     9446     9446     9252     8918 
    8584     8459     8584     8751     8781     8720     8721     8859 
    9102     9326     9401     9362     9346     9468     9765    10060 
   10100     9889     9603     9352     9236     9251     9192     8984 
    8807     8825     9044     9356     9608     9708     9646     9564 
    9637     9837    10027    10135    10063     9767     9402     9131 
    8937     8687     8318     7911     7607     7490     7530     7591 
    7568     7499     7513     7720     8131     8623     9048     9351 
    9526     9543     9456     9423     9461     9407     9168     8809 
    8496     8384     8478     8642     8724     8639     8428     8244 
    8176     8141     8072     8016     7993     8027     8181     8391 
    8580     8771     8934     9013     9061     9140     9250     9395 
    9542     9615     9596     9514     9376     9229     9148     9112 
    9126     9270     9475     9601     9664     9677     9608     9490 
    9326     9061     8712     8340     7976     7648     7422     7414 
    7669     8072     8476     8745     8768     8674     8739     9022 
    9386     9670     9736     9541     9206     8984     9043     9287 
    9486     9505     9391     9302     9350     9479     9565     9567 
    9484     9325     9229     9242     9211     9120     9051     8908 
    8615     8280     8019     7928     8124     8568     9048     9378 
    9456     9327     9203     9253     9520     9967    10438    10725 
   10756    10617    10413    10214    10073     9963     9787     9593 
    9561     9691     9783     9725     9597     9484     9394     9399 
    9553     9712     9740     9674     9572     9437     9272     9103 
    8928     8702     8447     8229     8051     7896     7783     7701 
    7591     7445     7332     7323     7496     7883     8368     8750 
    8953     9073     9196     9269     9215     9085     9029     9131 
    9349     9572     9710     9698     9498     9203     8945     8698 
    8426     8241     8231     8360     8546     8679     8614     8334 
    7960     7618     7478     7624     7852     7929     7873     7831 
    7966     8382     8939     9400     9742    10016    10183    10362 
   10686    10948    10893    10543    10004     9449     9195     9338 
    9548     9524     9305     9040     8911     9111     9529     9793 
    9708     9357     8935     8631     8544     8643     8732     8636 
    8371     8008     7665     7543     7714     8040     8389     8671 
    8783     8793     8907     9120     9306     9481     9639     9705 
    9762     9908    10012     9971     9868     9740     9605     9548 
    9482     9275     9002     8694     8378     8293     8485     8674 
    8752     8760     8647     8539     8622     8815     9024     9269 
    9503     9655     9652     9423     9047     8714     8493     8363 
    8344     8408     8489     8635     8861     9105     9370     9563 
    9541     9414     9367     9443     9646     9921    10173    10351 
   10376    10223    10019     9804     9510     9242     9164     9301 
    9602     9866     9822     9476     9128     9095     9410     9822 
   10126    10240    10078     9723     9477     9482     9552     9546 
    9526     9470     9286     9079     8972     8876     8719     8553 
    8436     8398     8388     8312     8159     7985     7911     8030 
    8189     8144     7880     7574     7457     7677     8096     8412 
    8469     8303     8054     7894     7947     8209     8524     8704 
    8676     8479     8188     7917     7836     7988     8193     8359 
    8647     9181     9865    10451    10674    10497    10174     9943 
    9865     9863     9725     9307     8737     8280     8107     8211 
    8401     8503     8550     8597     8523     8286     8125     8274 
    8685     9164     9512     9547     9337     9181     9170     9145 
    9012     8752     8451     8393     8731     9186     9353     9104 
    8652     8384     8564     9101     9660    10011    10176    10240 
   10261    10302    10285    10124     9953     9901     9997    10233 
   10415    10299     9869     9308     8862     8705     8769     8832 
    8755     8541     8262     8045     8029     8250     8580     8778 
    8662     8309     8030     8090     8579     9377    10048    10153 
    9784     9373     9185     9238     9432     9623     9658     9505 
    9296     9111     8948     8888     8982     9184     9450     9633 
    9552     9315     9164     9145     9244     9396     9357     9031 
    8679     8569     8672     8821     8918     8929     8891     8867 
    8844     8822     8879     9068     9373     9653     9672     9421 
    9122     8909     8852     8966     9073     9011     8819     8606 
    8498     8585     8795     8959     9033     9100     9238     9440 
    9575     9519     9306     9052     8866     8792     8766     8701 
    8566     8344     8120     7976     7757     7389     7093     6990 
    7050     7250     7458     7528     7476     7436     7553     7835 
    8172     8493     8733     8816     8785     8828     9027     9212 
    9236     9098     8795     8471     8428     8673     8918     9080 
    9254     9401     9430     9354     9265     9242     9264     9329 
    9512     9758     9908     9986    10163    10500    10953    11502 
   12032    12280    12122    11704    11202    10654    10076     9552 
    9156     8951     9014     9301     9586     9696     9671     9630 
    9604     9541     9421     9298     9215     9193     9236     9287 
    9250     9025     8612     8187     7909     7763     7618     7344 
    7029     6910     7070     7439     7881     8240     8413     8350 
    8129     7923     7748     7604     7577     7605     7533     7272 
    6884     6667     6893     7469     8042     8320     8287     8192 
    8330     8739     9141     9314     9339     9414     9630     9890 
   10009     9947     9825     9764     9812     9922     9953     9830 
    9659     9561     9596     9806    10124    10420    10660    10877 
   11092    11298    11454    11463    11203    10704    10218     9991 
   10110    10481    10822    10900    10768    10603    10518    10494 
   10364    10020     9503     8865     8256     7954     8036     8300 
    8526     8583     8449     8207     7954     7753     7621     7530 
    7487     7518     7568     7516     7334     7155     7151     7371 
    7704     7963     8046     8056     8247     8760     9413     9808 
    9710     9330     9145     9429    10009    10402    10295     9831 
    9401     9317     9601     9938     9965     9674     9369     9235 
    9204     9204     9203     9163     9090     9039     9035     8962 
    8699     8397     8271     8344     8545     8749     8864     8983 
    9186     9313     9208     8895     8453     8041     7833     7811 
    7905     8092     8307     8524     8757     8935     8973     8909 
    8847     8855     9003     9279     9542     9691     9672     9459 
    9252     9286     9485     9618     9533     9170     8670     8328 
    8251     8265     8184     7996     7815     7806     8035     8322 
    8489     8551     8534     8479     8542     8791     9079     9271 
    9361     9386     9350     9263     9154     8975     8730     8656 
    8856     9122     9330     9544     9791    10053    10271    10318 
   10175    10002     9944    10039    10244    10410    10356    10056 
    9662     9273     8908     8625     8461     8402     8419     8366 
    8142     7983     8190     8754     9422     9824     9769     9482 
    9273     9264     9441     9614     9585     9364     9073     8819 
    8673     8658     8780     9003     9219     9314     9263     9157 
    9043     8892     8764     8758     8830     8866     8815     8692 
    8572     8503     8399     8180     7937     7892     8217     8763 
    9135     9097     8725     8364     8426     8943     9558     9946 
    9927     9496     8964     8707     8741     8862     8977     8989 
    8745     8327     7997     7875     7951     8165     8340     8341 
    8274     8296     8422     8620     8911     9296     9689    10006 
   10183    10119     9843     9587     9509     9587     9737     9786 
    9580     9238     8996     8942     9033     9164     9218     9177 
    9171     9358     9760    10298    10859    11265    11413    11369 
   11233    11009    10670    10263     9814     9268     8657     8143 
    7762     7414     7100     6899     6861     7077     7550     8045 
    8289     8214     7974     7809     7838     8017     8284     8582 
    8805     8879     8810     8618     8310     7927     7636     7638 
    7894     8205     8459     8591     8589     8586     8691     8884 
    9148     9435     9690     9936    10059     9891     9579     9360 
    9198     9116     9273     9544     9674     9604     9362     9117 
    9133     9407     9738    10030    10222    10239    10164    10232 
   10553    10965    11179    11014    10494     9838     9296     8944 
    8716     8564     8402     8156     7916     7769     7674     7642 
    7728     7924     8272     8751     9089     9107     8981     8965 
    9155     9481     9753     9771     9492     9091     8795     8696 
    8714     8662     8452     8238     8228     8474     8861     9178 
    9335     9464     9641     9748     9686     9564     9545     9618 
    9680     9663     9511     9273     9076     8932     8788     8612 
    8327     7939     7605     7477     7587     7836     8127     8471 
    8810     8968     8913     8813     8859     9130     9516     9766 
    9687     9333     9017     8965     9041     9000     8847     8722 
    8696     8872     9273     9589     9577     9455     9476     9604 
    9748     9845     9858     9853     9860     9751     9439     9071 
    8844     8794     8818     8747     8508     8202     7967     7886 
    7942     8073     8275     8489     8591     8587     8602     8739 
    8993     9229     9268     9019     8626     8380     8439     8793 
    9293     9673     9787     9680     9453     9288     9347     9561 
    9731     9709     9455     9117     8930     9017     9325     9684 
    9973    10173    10268    10169     9792     9298     9033     9156 
    9550     9967    10130     9956     9665     9476     9400     9369 
    9316     9230     9182     9145     9019     8829     8690     8715 
    8932     9137     9043     8618     8058     7608     7503     7751 
    8091     8295     8352     8342     8312     8263     8184     8149 
    8228     8301     8226     7960     7510     7049     6840     6915 
    7113     7314     7449     7545     7775     8248     8838     9296 
    9471     9477     9570     9852    10226    10570    10766    10760 
   10636    10454    10197     9942     9841     9960    10259    10533 
   10446     9919     9335     9098     9245     9565     9743     9620 
    9412     9384     9527     9727     9849     9701     9226     8614 
    8100     7790     7708     7800     7933     7997     7968     7928 
    8052     8411     8851     9207     9396     9369     9255     9323 
    9645    10058    10426    10682    10738    10629    10530    10494 
