Origin Time       2024/04/02 04:24:00
Lat.              40.133
Long.             141.712
Depth. (km)       71
Mag.              6.0
Station Code      IBUH02
Station Lat.      42.8714
Station Long.     142.1285
Station Height(m) 73
Record Time       2024/04/02 04:25:21
Sampling Freq(Hz) 100Hz
Duration Time(s)  121
Dir.              2
Scale Factor      3923(gal)/8224838
Max. Acc. (gal)   0.393
Last Correction   2024/04/02 04:25:21
Memo.             
[...]
   34045    34041    34041    34053    34064    34060    34042    34022 
   34013    34025    34047    34060    34068    34078    34101    34125 
   34130    34117    34095    34068    34036    34011    34005    34010 
   34018    34026    34033    34028    34015    34003    33982    33955 
   33939    33930    33922    33917    33916    33925    33940    33947 
   33941    33934    33932    33926    33917    33903    33883    33852 
   33814    33789    33785    33805    33837    33863    33887    33926 
   33974    34006    34014    34009    34011    34026    34042    34060 
   34083    34103    34117    34125    34133    34141    34144    34132 
   34105    34072    34047    34028    34002    33970    33943    33929 
   33940    33975    34018    34059    34094    34114    34122    34136 
   34156    34168    34160    34129    34084    34047    34022    34006 
   33997    33986    33972    33959    33949    33955    33968    33978 
   33986    33998    34017    34047    34068    34059    34028    34011 
   34020    34040    34060    34071    34065    34049    34020    33964 
   33889    33814    33758    33723    33709    33717    33740    33781 
   33836    33894    33939    33963    33971    33975    33971    33949 
   33921    33889    33858    33841    33839    33849    33876    33917 
   33966    34018    34051    34060    34055    34038    34026    34036 
   34053    34071    34091    34107    34117    34130    34138    34138 
   34133    34121    34110    34109    34106    34101    34098    34086 
   34048    33990    33917    33835    33750    33678    33631    33600 
   33594    33621    33675    33748    33816    33866    33910    33944 
   33937    33891    33832    33771    33720    33690    33685    33701 
   33727    33747    33756    33762    33770    33786    33804    33821 
   33833    33841    33863    33890    33910    33924    33925    33906 
   33872    33822    33777    33752    33759    33805    33885    33972 
   34051    34111    34150    34161    34153    34142    34122    34084 
   34040    33997    33951    33901    33851    33804    33777    33785 
   33820    33874    33941    34014    34072    34099    34106    34103 
   34075    34022    33968    33918    33874    33844    33829    33810 
   33785    33770    33778    33804    33840    33899    33980    34065 
   34138    34198    34242    34256    34226    34144    34014    33875 
   33767    33713    33723    33782    33856    33916    33948    33941 
   33913    33895    33897    33916    33944    33960    33968    33983 
   34006    34040    34075    34094    34082    34049    34007    33956 
   33897    33855    33847    33863    33898    33936    33960    33967 
   33956    33940    33929    33940    33971    34010    34064    34122 
   34157    34156    34126    34094    34088    34115    34155    34191 
   34229    34280    34342    34399    34423    34415    34385    34345 
   34300    34260    34225    34206    34210    34230    34250    34268 
   34287    34303    34308    34295    34268    34238    34218    34199 
   34176    34148    34109    34069    34037    34007    33995    34010 
   34048    34110    34192    34291    34398    34487    34527    34504 
   34402    34229    34014    33804    33627    33500    33424    33399 
   33424    33501    33606    33717    33821    33903    33952    33987 
   34015    34033    34051    34069    34076    34056    34013    33960 
   33903    33844    33798    33790    33822    33883    33949    34002 
   34030    34028    33995    33941    33871    33806    33759    33725 
   33704    33691    33687    33697    33723    33759    33809    33870 
   33936    33995    34042    34067    34063    34040    34005    33964 
   33932    33903    33871    33828    33779    33732    33696    33662 
   33624    33588    33562    33550    33552    33579    33629    33686 
   33732    33751    33736    33701    33656    33602    33548    33520 
   33528    33551    33577    33612    33659    33720    33798    33883 
   33963    34041    34126    34203    34258    34300    34338    34369 
   34384    34376    34354    34323    34281    34245    34217    34188 
   34173    34171    34156    34129    34109    34102    34122    34167 
   34229    34303    34364    34389    34381    34350    34307    34260 
   34219    34182    34141    34107    34082    34049    34014    33983 
   33957    33947    33956    33983    34028    34083    34125    34141 
   34141    34123    34069    33988    33901    33818    33756    33740 
   33783    33864    33951    34026    34079    34106    34117    34123 
   34122    34106    34069    34011    33928    33836    33767    33741 
   33752    33787    33832    33867    33894    33912    33909    33879 
   33826    33770    33725    33693    33666    33646    33646    33666 
   33693    33727    33762    33794    33829    33880    33966    34071 
   34175    34268    34344    34398    34431    34449    34449    34434 
   34411    34389    34376    34361    34334    34287    34207    34095 
   33986    33913    33901    33936    33993    34053    34106    34153 
   34184    34187    34177    34176    34186    34195    34191    34177 
   34157    34118    34060    33997    33925    33853    33801    33781 
   33790    33824    33872    33925    33983    34042    34084    34105 
   34115    34132    34149    34161    34160    34134    34083    34017 
   33944    33870    33812    33785    33777    33779    33805    33859 
   33928    33991    34029    34029    33995    33951    33913    33906 
   33934    33957    33951    33907    33829    33728    33633    33566 
   33536    33559    33639    33764    33912    34041    34121    34150 
   34138    34101    34051    33986    33928    33901    33899    33916 
   33947    33990    34041    34086    34106    34105    34083    34053 
   34037    34037    34026    33997    33964    33943    33933    33951 
   34003    34086    34187    34287    34357    34398    34416    34410 
   34372    34310    34238    34180    34138    34099    34052    33995 
   33940    33905    33895    33895    33891    33898    33922    33952 
   33986    34017    34038    34045    34030    34005    33986    33976 
   33980    34009    34047    34065    34056    34014    33932    33826 
   33727    33647    33598    33581    33577    33567    33554    33550 
   33567    33613    33675    33728    33762    33778    33785    33787 
   33787    33779    33763    33745    33733    33727    33728    33741 
   33762    33787    33824    33870    33913    33948    33974    33999 
   34024    34033    34025    34011    33997    33976    33960    33939 
   33921    33930    33975    34051    34153    34261    34353    34420 
   34458    34465    34457    34443    34438    34437    34426    34395 
   34346    34281    34206    34122    34028    33933    33856    33802 
   33768    33748    33733    33723    33716    33706    33694    33689 
   33691    33685    33658    33627    33596    33578    33596    33642 
   33694    33754    33817    33863    33880    33868    33836    33799 
   33768    33745    33731    33728    33745    33779    33818    33855 
   33878    33889    33890    33887    33889    33901    33928    33972 
   34025    34072    34119    34165    34192    34191    34171    34133 
   34076    34017    33976    33944    33917    33901    33902    33921 
   33956    34005    34055    34096    34130    34160    34188    34209 
   34207    34186    34152    34117    34083    34048    34022    34011 
   34014    34038    34083    34140    34195    34241    34277    34314 
   34354    34400    34449    34496    34531    34557    34580    34588 
   34570    34535    34479    34393    34291    34188    34101    34048 
   34022    34014    34024    34049    34086    34123    34148    34148 
   34132    34114    34096    34074    34040    33984    33903    33808 
   33709    33624    33574    33567    33586    33617    33660    33710 
   33759    33804    33840    33862    33868    33876    33894    33918 
   33932    33917    33879    33826    33767    33710    33659    33608 
   33548    33485    33435    33411    33412    33440    33497    33570 
   33655    33755    33864    33975    34074    34152    34204    34234 
   34244    34237    34218    34187    34136    34065    33994    33930 
   33880    33845    33809    33775    33760    33771    33809    33875 
   33963    34052    34126    34161    34167    34156    34141    34148 
   34191    34246    34290    34311    34306    34275    34236    34204 
   34187    34171    34146    34115    34084    34059    34030    33997 
   33960    33913    33856    33805    33777    33763    33750    33725 
   33694    33670    33675    33720    33789    33855    33894    33906 
   33899    33874    33841    33818    33799    33777    33760    33752 
   33754    33772    33812    33860    33909    33956    33999    34041 
   34071    34084    34079    34059    34037    34017    34005    34017 
   34053    34103    34155    34199    34221    34223    34222    34219 
   34223    34231    34238    34234    34206    34146    34074    34007 
   33957    33925    33899    33883    33894    33947    34033    34128 
   34210    34275    34312    34315    34288    34241    34184    34128 
   34079    34036    33997    33971    33970    33997    34048    34118 
   34188    34242    34284    34326    34364    34383    34376    34348 
   34308    34248    34160    34057    33947    33829    33724    33648 
   33598    33565    33550    33556    33569    33583    33606    33639 
   33678    33727    33785    33849    33912    33953    33960    33933 
   33880    33814    33744    33693    33681    33706    33759    33813 
   33853    33883    33894    33882    33866    33853    33852    33875 
   33913    33949    33975    33987    33984    33972    33966    33979 
   34014    34063    34114    34150    34160    34140    34096    34045 
   34003    33968    33929    33894    33860    33831    33826    33855 
   33905    33961    34032    34118    34209    34284    34348    34395 
   34422    34427    34403    34350    34281    34199    34117    34055 
   34010    33975    33952    33941    33939    33951    33982    34024 
   34074    34130    34188    34237    34260    34257    34238    34209 
   34177    34159    34153    34145    34122    34087    34045    34003 
   33961    33922    33883    33847    33831    33836    33844    33841 
   33826    33802    33771    33731    33677    33615    33571    33555 
   33550    33550    33554    33565    33577    33586    33585    33585 
   33590    33602    33628    33666    33710    33758    33805    33859 
   33934    34024    34106    34169    34204    34215    34204    34177 
   34148    34119    34087    34055    34038    34041    34060    34102 
   34163    34227    34287    34330    34361    34384    34396    34387 
   34350    34294    34222    34144    34068    33999    33940    33889 
   33851    33837    33839    33848    33856    33853    33852    33856 
   33859    33871    33897    33928    33957    33972    33976    33980 
   33979    33970    33961    33964    33979    33993    33995    33990 
   33980    33970    33960    33951    33934    33918    33907    33901 
   33893    33887    33887    33890    33898    33912    33928    33947 
   33956    33945    33912    33866    33826    33806    33804    33820 
   33855    33910    33982    34051    34102    34128    34121    34080 
   34028    33994    33990    34011    34052    34103    34153    34192 
   34221    34237    34238    34242    34254    34267    34273    34277 
   34273    34253    34211    34142    34061    33984    33921    33872 
   33829    33790    33766    33762    33775    33813    33875    33945 
   34014    34086    34152    34202    34223    34218    34198    34163 
   34119    34075    34029    33980    33939    33909    33890    33887 
   33913    33959    34005    34038    34048    34037    34021    34001 
   33975    33951    33933    33921    33921    33943    33988    34038 
   34074    34090    34084    34056    34022    33987    33944    33891 
   33841    33797    33766    33745    33727    33702    33679    33663 
   33655    33660    33689    33741    33799    33859    33916    33956 
   33966    33947    33910    33867    33822    33778    33739    33718 
   33721    33735    33755    33774    33794    33817    33851    33903 
   33971    34048    34123    34188    34231    34249    34241    34215 
   34187    34160    34129    34088    34034    33972    33910    33849 
   33797    33760    33731    33713    33720    33760    33833    33934 
   34044    34149    34245    34325    34381    34411    34406    34369 
   34311    34231    34140    34044    33953    33885    33849    33852 
   33890    33949    34010    34057    34094    34117    34129    34142 
   34160    34177    34198    34215    34221    34213    34187    34146 
   34090    34025    33964    33916    33878    33845    33813    33778 
   33744    33717    33710    33724    33747    33781    33816    33848 
   33876    33899    33921    33939    33941    33920    33863    33782 
   33700    33635    33601    33594    33610    33639    33662    33664 
   33648    33612    33565    33519    33486    33475    33492    33523 
   33563    33613    33670    33736    33802    33853    33893    33926 
   33953    33975    33991    33994    33979    33953    33929    33912 
   33914    33947    33999    34063    34122    34164    34195    34221 
   34256    34317    34391    34466    34537    34592    34639    34684 
   34717    34750    34784    34805    34805    34781    34734    34668 
   34585    34496    34414    34348    34298    34264    34242    34218 
   34192    34173    34171    34186    34209    34231    34246    34240 
   34209    34160    34111    34069    34034    34006    33979    33953 
   33926    33899    33876    33858    33844    33829    33806    33777 
   33732    33678    33632    33598    33575    33569    33571    33571 
   33570    33573    33582    33600    33635    33686    33740    33789 
   33836    33879    33913    33945    33979    34005    34022    34032 
   34041    34049    34051    34038    34013    33970    33920    33871 
   33817    33764    33720    33681    33646    33619    33610    33627 
   33677    33763    33875    33997    34118    34226    34307    34358 
   34384    34387    34377    34360    34322    34267    34204    34142 
   34092    34053    34021    34001    33993    33995    34013    34036 
   34053    34061    34061    34052    34038    34020    33993    33966 
   33939    33906    33862    33813    33774    33748    33733    33732 
   33740    33750    33751    33744    33721    33678    33623    33556 
   33488    33432    33407    33417    33463    33525    33592    33644 
   33675    33691    33701    33710    33716    33720    33735    33758 
   33785    33820    33855    33886    33912    33937    33963    33998 
   34044    34096    34150    34200    34241    34267    34275    34277 
   34279    34276    34279    34298    34330    34375    34419    34452 
   34469    34480    34488    34497    34504    34508    34507    34497 
   34485    34473    34461    34439    34403    34349    34283    34209 
   34142    34082    34029    33988    33952    33916    33880    33851 
   33832    33828    33836    33864    33922    34003    34086    34149 
   34190    34203    34187    34150    34101    34040    33982    33939 
   33903    33872    33844    33818    33791    33778    33783    33802 
   33825    33852    33890    33933    33972    34007    34028    34026 
   34015    34010    34014    34030    34067    34113    34155    34184 
   34199    34191    34161    34121    34083    34045    34010    33978 
   33936    33882    33835    33801    33786    33786    33801    33826 
   33852    33870    33882    33893    33897    33883    33851    33805 
   33751    33698    33658    33624    33597    33579    33570    33562 
   33550    33539    33536    33539    33546    33556    33581    33613 
   33640    33663    33681    33687    33690    33697    33704    33706 
   33702    33705    33721    33743    33767    33795    33829    33859 
   33887    33921    33964    34020    34086    34157    34223    34273 
   34294    34291    34271    34229    34172    34114    34067    34041 
   34030    34020    34009    33999    33995    34006    34030    34064 
   34101    34137    34173    34211    34244    34265    34272    34256 
   34222    34182    34142    34111    34084    34061    34047    34047 
   34063    34091    34121    34137    34129    34106    34075    34047 
   34025    34005    33987    33978    33972    33968    33970    33968 
   33966    33966    33964    33957    33955    33963    33979    34001 
   34028    34064    34113    34168    34225    34269    34292    34298 
   34292    34271    34244    34211    34164    34105    34034    33970 
   33926    33902    33893    33890    33890    33899    33921    33947 
   33972    33994    34010    34025    34036    34044    34059    34078 
   34091    34096    34087    34053    34001    33936    33868    33802 
   33741    33691    33667    33675    33708    33756    33816    33874 
   33917    33951    33978    33991    33991    33984    33963    33928 
   33895    33871    33860    33867    33885    33903    33920    33934 
   33944    33952    33956    33956    33957    33961    33971    33986 
   34006    34024    34026    34024    34021    34017    34021    34034 
   34053    34079    34110    34137    34155    34155    34149    34144 
   34134    34126    34118    34105    34090    34072    34042    34007 
   33970    33940    33926    33933    33955    33982    34007    34024 
   34030    34025    34007    33988    33974    33959    33955    33960 
   33964    33959    33941    33920    33899    33885    33880    33878 
   33875    33872    33866    33856    33848    33835    33814    33801 
   33794    33798    33812    33829    33851    33882    33917    33957 
   34003    34052    34094    34128    34157    34176    34190    34206 
   34221    34227    34231    34234    34236    34230    34222    34218 
   34218    34213    34200    34187    34168    34149    34141    34133 
   34122    34109    34083    34041    34001    33970    33948    33933 
   33914    33897    33885    33875    33868    33859    33837    33806 
   33774    33751    33739    33741    33762    33789    33809    33816 
   33810    33805    33805    33812    33824    33835    33849    33870 
   33897    33925    33951    33968    33978    33980    33976    33961 
   33944    33928    33907    33876    33848    33825    33802    33789 
   33793    33806    33822    33844    33866    33885    33898    33902 
   33906    33914    33925    33932    33936    33933    33917    33891 
   33852    33808    33772    33744    33727    33729    33739    33750 
   33763    33779    33801    33825    33848    33879    33920    33968 
   34018    34056    34078    34088    34090    34087    34088    34099 
   34121    34145    34172    34190    34188    34177    34163    34134 
   34106    34079    34048    34018    33994    33972    33952    33936 
   33925    33910    33891    33875    33868    33868    33878    33902 
   33933    33959    33975    33984    33979    33953    33918    33879 
   33840    33808    33790    33791    33808    33832    33864    33901 
   33934    33975    34021    34065    34106    34152    34206    34261 
