Origin Time       2024/04/02 04:24:00
Lat.              40.133
Long.             141.712
Depth. (km)       71
Mag.              6.0
Station Code      IBUH04
Station Lat.      42.6415
Station Long.     140.6650
Station Height(m) 111.5
Record Time       2024/04/02 04:25:19
Sampling Freq(Hz) 100Hz
Duration Time(s)  120
Dir.              2
Scale Factor      3923(gal)/8224838
Max. Acc. (gal)   0.561
Last Correction   2024/04/02 04:25:20
Memo.             
[...]
   14796    14789    14778    14770    14747    14712    14681    14665 
   14652    14634    14629    14654    14688    14712    14717    14708 
   14683    14658    14642    14631    14620    14617    14636    14667 
   14689    14704    14727    14755    14781    14790    14789    14777 
   14746    14712    14690    14677    14670    14675    14686    14693 
   14698    14700    14702    14708    14710    14716    14731    14743 
   14748    14760    14786    14814    14831    14837    14847    14852 
   14841    14818    14805    14813    14825    14835    14848    14866 
   14867    14848    14843    14855    14841    14800    14763    14740 
   14732    14755    14771    14758    14750    14746    14737    14733 
   14732    14743    14773    14791    14781    14758    14736    14719 
   14713    14710    14704    14704    14708    14700    14678    14658 
   14659    14681    14702    14709    14713    14704    14671    14646 
   14628    14596    14555    14521    14501    14501    14521    14559 
   14612    14666    14704    14717    14717    14704    14669    14631 
   14609    14594    14585    14592    14623    14662    14688    14701 
   14723    14746    14758    14770    14787    14793    14781    14774 
   14779    14787    14794    14800    14806    14801    14769    14727 
   14708    14706    14702    14694    14689    14679    14669    14650 
   14621    14596    14577    14561    14565    14592    14615    14620 
   14613    14620    14644    14659    14648    14638    14652    14677 
   14690    14702    14708    14702    14700    14702    14702    14702 
   14705    14713    14723    14728    14744    14774    14787    14779 
   14766    14758    14752    14762    14781    14802    14824    14841 
   14856    14864    14875    14885    14887    14893    14898    14894 
   14887    14887    14902    14921    14933    14940    14922    14877 
   14828    14770    14708    14677    14670    14673    14683    14698 
   14710    14706    14686    14665    14654    14643    14619    14585 
   14553    14528    14517    14513    14521    14553    14582    14604 
   14629    14656    14673    14677    14669    14646    14613    14602 
   14624    14658    14690    14716    14733    14744    14725    14693 
   14682    14692    14694    14683    14665    14647    14648    14671 
   14694    14715    14735    14755    14771    14775    14770    14760 
   14746    14733    14729    14724    14709    14685    14658    14644 
   14655    14675    14692    14706    14723    14729    14727    14720 
   14709    14698    14686    14683    14696    14702    14700    14700 
   14688    14665    14659    14674    14697    14724    14759    14793 
   14813    14818    14827    14833    14824    14812    14798    14775 
   14760    14759    14759    14762    14773    14790    14801    14796 
   14775    14752    14735    14723    14721    14736    14754    14756 
   14754    14751    14742    14727    14709    14686    14666    14659 
   14677    14712    14735    14736    14736    14743    14739    14712 
   14662    14619    14604    14594    14577    14563    14573    14611 
   14670    14728    14758    14754    14727    14690    14640    14605 
   14612    14640    14665    14692    14720    14743    14747    14723 
   14671    14623    14597    14590    14605    14631    14652    14682 
   14728    14770    14794    14812    14824    14817    14796    14782 
   14774    14755    14733    14727    14739    14760    14779    14782 
   14759    14733    14733    14751    14766    14775    14782    14787 
   14787    14793    14798    14797    14791    14770    14735    14716 
   14720    14728    14732    14748    14769    14774    14769    14754 
   14725    14700    14681    14652    14643    14671    14702    14715 
   14716    14710    14700    14683    14667    14659    14658    14656 
   14666    14681    14677    14661    14646    14627    14596    14569 
   14570    14594    14625    14654    14674    14685    14682    14681 
   14700    14731    14759    14786    14810    14835    14855    14858 
   14852    14845    14828    14798    14766    14729    14690    14656 
   14615    14559    14521    14516    14519    14539    14596    14662 
   14712    14743    14750    14742    14733    14715    14678    14638 
   14615    14623    14646    14655    14652    14661    14681    14694 
   14679    14648    14625    14615    14613    14617    14620    14636 
   14673    14719    14763    14797    14817    14833    14841    14827 
   14791    14752    14733    14740    14748    14751    14760    14773 
   14775    14766    14748    14732    14732    14747    14764    14782 
   14786    14790    14810    14835    14839    14829    14808    14775 
   14746    14737    14744    14756    14770    14783    14791    14777 
   14737    14690    14654    14631    14619    14619    14628    14643 
   14670    14705    14747    14782    14808    14827    14831    14818 
   14814    14809    14785    14764    14758    14762    14774    14786 
   14789    14787    14785    14779    14770    14763    14758    14756 
   14754    14746    14755    14764    14743    14721    14717    14702 
   14669    14621    14570    14531    14513    14515    14534    14571 
   14615    14624    14590    14565    14557    14542    14521    14507 
   14501    14517    14555    14596    14636    14678    14704    14717 
   14733    14737    14728    14725    14732    14750    14771    14790 
   14810    14828    14824    14806    14794    14775    14747    14723 
   14705    14706    14723    14746    14782    14820    14848    14867 
   14877    14877    14858    14823    14791    14763    14727    14694 
   14678    14679    14697    14727    14756    14774    14789    14810 
   14829    14837    14824    14785    14729    14679    14652    14635 
   14612    14601    14612    14647    14697    14743    14770    14767 
   14743    14717    14698    14690    14698    14702    14694    14693 
   14689    14673    14658    14647    14650    14674    14698    14713 
   14725    14729    14727    14732    14724    14702    14688    14685 
   14689    14690    14683    14679    14692    14713    14732    14744 
   14751    14750    14737    14705    14658    14620    14609    14615 
   14616    14608    14594    14577    14561    14548    14530    14504 
   14485    14481    14492    14511    14543    14588    14629    14665 
   14693    14715    14728    14732    14727    14717    14708    14694 
   14677    14670    14669    14662    14677    14716    14747    14779 
   14825    14855    14856    14845    14823    14794    14779    14778 
   14781    14791    14805    14814    14829    14844    14852    14858 
   14852    14843    14839    14827    14809    14801    14813    14836 
   14858    14866    14856    14848    14850    14850    14837    14825 
   14816    14796    14759    14732    14715    14700    14700    14716 
   14732    14736    14721    14705    14710    14733    14755    14767 
   14759    14739    14725    14727    14731    14731    14731    14743 
   14762    14769    14766    14769    14785    14805    14802    14785 
   14773    14758    14732    14702    14679    14652    14624    14601 
   14589    14589    14602    14625    14650    14667    14671    14661 
   14650    14646    14646    14640    14623    14616    14628    14628 
   14621    14611    14588    14563    14548    14542    14543    14562 
   14588    14601    14613    14639    14669    14679    14681    14690 
   14712    14739    14763    14785    14806    14829    14860    14891 
   14901    14890    14874    14859    14850    14839    14812    14777 
   14747    14725    14717    14717    14710    14700    14692    14681 
   14673    14671    14656    14628    14604    14597    14597    14596 
   14594    14589    14571    14567    14586    14615    14656    14694 
   14704    14698    14697    14702    14712    14709    14693    14682 
   14677    14669    14659    14655    14656    14659    14673    14713 
   14754    14775    14797    14818    14827    14827    14827    14823 
   14818    14816    14820    14825    14823    14812    14793    14762 
   14724    14693    14671    14658    14654    14658    14666    14663 
   14648    14646    14667    14704    14744    14783    14833    14890 
   14918    14909    14887    14870    14847    14816    14783    14748 
   14706    14671    14666    14683    14696    14698    14706    14700 
   14673    14639    14605    14574    14540    14512    14511    14530 
   14551    14584    14629    14670    14701    14723    14721    14706 
   14697    14689    14674    14651    14634    14644    14686    14742 
   14793    14836    14859    14845    14800    14747    14701    14661 
   14644    14656    14665    14674    14704    14735    14750    14751 
   14735    14700    14658    14620    14605    14612    14627    14644 
   14656    14667    14682    14700    14704    14696    14689    14694 
   14709    14717    14704    14681    14667    14658    14648    14655 
   14674    14694    14710    14720    14727    14723    14709    14701 
   14702    14704    14700    14698    14705    14719    14744    14775 
   14804    14818    14808    14782    14769    14767    14760    14746 
   14727    14716    14721    14742    14771    14806    14839    14866 
   14875    14860    14841    14829    14823    14814    14794    14766 
   14746    14724    14694    14679    14694    14709    14706    14704 
   14700    14690    14682    14670    14662    14659    14655    14648 
   14639    14636    14662    14694    14702    14706    14715    14715 
   14715    14723    14731    14728    14719    14713    14710    14697 
   14674    14659    14654    14652    14662    14679    14696    14717 
   14736    14736    14729    14716    14692    14669    14663    14679 
   14697    14686    14669    14675    14683    14679    14681    14690 
   14698    14700    14696    14696    14706    14732    14758    14779 
   14800    14812    14823    14844    14863    14863    14843    14821 
   14809    14786    14758    14747    14747    14751    14769    14785 
   14778    14760    14750    14736    14715    14694    14681    14675 
   14685    14702    14723    14744    14759    14751    14732    14729 
   14742    14746    14737    14736    14744    14746    14739    14727 
   14712    14712    14732    14756    14774    14787    14791    14778 
   14756    14743    14737    14735    14731    14728    14728    14733 
   14742    14751    14763    14764    14752    14747    14752    14756 
   14750    14725    14698    14683    14669    14644    14627    14624 
   14628    14624    14609    14604    14609    14619    14631    14629 
   14608    14588    14584    14596    14612    14616    14602    14586 
   14586    14594    14602    14621    14648    14677    14701    14716 
   14712    14698    14697    14709    14736    14771    14791    14801 
   14812    14824    14833    14833    14827    14816    14808    14801 
   14801    14816    14841    14854    14852    14855    14862    14874 
   14893    14916    14940    14960    14968    14960    14939    14916 
   14895    14874    14863    14870    14886    14908    14940    14989 
   15028    15044    15051    15047    15021    14976    14933    14908 
   14890    14866    14845    14836    14829    14825    14823    14818 
   14817    14806    14775    14742    14705    14659    14623    14594 
   14566    14548    14551    14571    14578    14559    14540    14531 
   14509    14470    14438    14430    14430    14427    14434    14443 
   14453    14470    14488    14496    14505    14520    14530    14544 
   14563    14577    14585    14592    14592    14582    14575    14582 
   14589    14586    14597    14621    14642    14656    14661    14658 
   14659    14659    14658    14656    14659    14671    14677    14667 
   14673    14694    14715    14725    14727    14728    14723    14701 
   14674    14654    14639    14634    14635    14638    14644    14656 
   14673    14696    14715    14724    14736    14739    14719    14677 
   14619    14563    14531    14517    14524    14550    14575    14589 
   14594    14588    14569    14553    14540    14543    14574    14616 
   14648    14686    14725    14754    14778    14808    14836    14862 
   14871    14867    14872    14893    14912    14921    14912    14872 
   14824    14782    14747    14727    14721    14720    14720    14725 
   14740    14764    14798    14833    14850    14844    14824    14785 
   14727    14666    14620    14588    14557    14535    14546    14574 
   14601    14621    14636    14656    14671    14659    14640    14627 
   14615    14608    14609    14617    14631    14647    14674    14716 
   14778    14845    14889    14905    14894    14859    14821    14801 
   14797    14802    14820    14859    14928    14999    15053    15093 
   15125    15141    15133    15090    15024    14955    14894    14844 
   14802    14773    14746    14719    14694    14671    14648    14621 
   14573    14516    14463    14409    14368    14346    14327    14310 
   14308    14316    14315    14308    14301    14284    14237    14176 
   14127    14099    14073    14029    13980    13964    13983    14003 
   14010    14008    14010    14011    14018    14037    14068    14125 
   14208    14297    14388    14496    14611    14705    14774    14825 
   14868    14925    14994    15060    15122    15184    15230    15253 
   15272    15306    15353    15383    15395    15415    15444    15487 
   15556    15639    15723    15795    15840    15867    15886    15890 
   15863    15815    15754    15669    15573    15485    15399    15327 
   15292    15283    15283    15276    15261    15236    15186    15115 
   15033    14951    14883    14825    14779    14747    14710    14665 
   14609    14551    14508    14469    14422    14377    14332    14280 
   14218    14162    14121    14089    14085    14110    14152    14199 
   14239    14261    14257    14227    14189    14141    14076    14025 
   14015    14040    14073    14112    14158    14208    14260    14299 
   14305    14278    14242    14223    14234    14278    14362    14473 
   14593    14719    14837    14932    15005    15055    15059    15010 
   14921    14812    14701    14611    14558    14553    14593    14689 
   14839    15003    15149    15256    15296    15263    15175    15061 
   14940    14810    14692    14623    14625    14678    14762    14858 
   14939    14989    14998    14963    14889    14786    14669    14534 
   14405    14327    14320    14381    14489    14623    14767    14910 
   15044    15148    15182    15138    15034    14872    14671    14467 
   14292    14176    14129    14138    14204    14316    14447    14573 
   14665    14704    14681    14605    14507    14418    14359    14332 
   14326    14354    14438    14536    14604    14629    14634    14639 
   14656    14667    14677    14702    14735    14763    14801    14840 
   14852    14836    14801    14755    14701    14650    14627    14652 
   14719    14810    14908    14989    15034    15045    15032    15005 
   14987    14978    14960    14944    14948    14979    15033    15098 
   15165    15217    15232    15213    15165    15111    15071    15039 
   14991    14920    14841    14777    14729    14705    14693    14685 
   14689    14706    14747    14797    14825    14827    14800    14724 
   14602    14457    14307    14176    14087    14034    14006    14000 
   14029    14081    14146    14211    14281    14361    14419    14432 
   14413    14376    14326    14291    14303    14370    14466    14557 
   14636    14717    14806    14881    14912    14908    14891    14860 
   14813    14769    14758    14802    14898    15006    15097    15163 
   15213    15263    15314    15349    15364    15377    15368    15307 
   15217    15132    15056    14982    14925    14921    14964    15017 
   15068    15113    15138    15149    15138    15098    15041    14993 
   14976    14985    14975    14952    14940    14912    14850    14786 
   14735    14677    14601    14511    14426    14364    14326    14299 
   14281    14289    14328    14377    14419    14449    14454    14442 
   14428    14404    14349    14274    14216    14179    14166    14207 
   14305    14443    14584    14698    14774    14801    14802    14827 
   14863    14864    14832    14800    14794    14812    14823    14802 
   14746    14661    14573    14501    14449    14428    14439    14461 
   14485    14515    14530    14508    14476    14459    14462    14486 
   14528    14565    14584    14598    14619    14639    14677    14731 
   14783    14836    14879    14909    14929    14926    14890    14836 
   14779    14733    14713    14709    14719    14762    14831    14897 
   14955    15020    15101    15176    15229    15248    15222    15167 
   15097    15005    14890    14785    14737    14760    14824    14893 
   14928    14939    14949    14968    14990    14987    14951    14908 
   14860    14806    14764    14750    14748    14758    14797    14872 
   14955    15018    15044    15013    14926    14805    14674    14554 
   14443    14346    14285    14266    14272    14278    14287    14304 
   14328    14342    14337    14331    14314    14264    14216    14206 
   14208    14202    14207    14262    14343    14397    14440    14504 
   14567    14600    14615    14639    14686    14739    14771    14774 
   14759    14758    14779    14806    14840    14902    15003    15107 
   15165    15171    15125    15037    14935    14818    14690    14570 
   14482    14439    14432    14462    14513    14554    14584    14616 
   14654    14697    14740    14773    14779    14746    14688    14632 
   14590    14563    14566    14602    14647    14679    14690    14674 
   14654    14638    14609    14580    14566    14562    14577    14624 
   14694    14771    14832    14855    14874    14924    14999    15047 
   15026    14952    14862    14781    14727    14698    14696    14708 
   14723    14756    14817    14859    14850    14812    14767    14733 
   14739    14769    14800    14835    14868    14890    14912    14937 
   14953    14959    14935    14852    14758    14719    14736    14778 
   14801    14779    14739    14706    14689    14692    14724    14766 
   14816    14901    15007    15107    15174    15176    15122    15043 
   14945    14850    14782    14747    14729    14731    14721    14675 
   14621    14597    14609    14658    14716    14742    14700    14601 
   14501    14423    14349    14274    14230    14245    14314    14396 
   14461    14499    14511    14496    14477    14472    14469    14461 
   14461    14486    14534    14581    14628    14674    14716    14760 
   14817    14881    14935    14983    15028    15045    15025    14983 
   14937    14883    14843    14848    14874    14868    14845    14812 
   14769    14739    14729    14717    14709    14731    14760    14769 
   14771    14783    14786    14770    14763    14796    14841    14856 
   14859    14886    14922    14941    14921    14848    14763    14725 
   14748    14778    14762    14719    14688    14658    14623    14586 
   14532    14450    14345    14219    14106    14042    14033    14054 
   14087    14123    14183    14258    14330    14395    14458    14507 
   14523    14524    14515    14477    14428    14404    14431    14507 
