Origin Time       2024/04/02 04:24:00
Lat.              40.133
Long.             141.712
Depth. (km)       71
Mag.              6.0
Station Code      IBUH07
Station Lat.      42.6476
Station Long.     141.0643
Station Height(m) 150
Record Time       2024/04/02 04:25:51
Sampling Freq(Hz) 100Hz
Duration Time(s)  120
Dir.              2
Scale Factor      2940(gal)/6170270
Max. Acc. (gal)   0.328
Last Correction   2024/04/02 04:25:36
Memo.             
[...]
 -209126  -209142  -209180  -209235  -209261  -209214  -209130  -209102 
 -209149  -209186  -209172  -209156  -209157  -209158  -209181  -209243 
 -209284  -209250  -209186  -209157  -209153  -209142  -209135  -209147 
 -209152  -209156  -209205  -209274  -209288  -209268  -209282  -209292 
 -209239  -209181  -209178  -209200  -209199  -209208  -209281  -209361 
 -209391  -209406  -209407  -209376  -209368  -209398  -209402  -209373 
 -209353  -209315  -209277  -209299  -209329  -209343  -209407  -209483 
 -209491  -209485  -209506  -209510  -209500  -209487  -209429  -209381 
 -209406  -209422  -209397  -209423  -209489  -209506  -209478  -209459 
 -209463  -209464  -209450  -209449  -209476  -209476  -209409  -209364 
 -209390  -209375  -209308  -209312  -209358  -209347  -209314  -209319 
 -209377  -209458  -209472  -209410  -209349  -209312  -209301  -209331 
 -209377  -209394  -209383  -209390  -209420  -209426  -209405  -209367 
 -209318  -209246  -209145  -209106  -209156  -209188  -209199  -209241 
 -209304  -209366  -209395  -209367  -209319  -209302  -209296  -209275 
 -209285  -209336  -209367  -209356  -209331  -209328  -209353  -209361 
 -209353  -209359  -209355  -209370  -209434  -209454  -209403  -209371 
 -209375  -209377  -209398  -209436  -209435  -209411  -209433  -209473 
 -209457  -209424  -209431  -209425  -209401  -209424  -209456  -209436 
 -209396  -209386  -209400  -209419  -209427  -209396  -209344  -209345 
 -209402  -209403  -209338  -209308  -209297  -209241  -209221  -209289 
 -209351  -209365  -209373  -209354  -209301  -209301  -209364  -209409 
 -209411  -209383  -209370  -209394  -209375  -209307  -209250  -209198 
 -209159  -209145  -209121  -209110  -209144  -209202  -209259  -209310 
 -209309  -209258  -209264  -209321  -209341  -209336  -209321  -209315 
 -209359  -209381  -209352  -209364  -209400  -209368  -209311  -209311 
 -209306  -209238  -209202  -209225  -209244  -209248  -209237  -209199 
 -209159  -209143  -209143  -209165  -209244  -209354  -209429  -209433 
 -209379  -209353  -209379  -209376  -209380  -209449  -209485  -209454 
 -209439  -209427  -209398  -209429  -209492  -209509  -209525  -209534 
 -209466  -209407  -209423  -209434  -209427  -209439  -209459  -209472 
 -209460  -209443  -209448  -209458  -209465  -209484  -209503  -209498 
 -209489  -209497  -209465  -209377  -209336  -209399  -209495  -209538 
 -209520  -209482  -209446  -209421  -209414  -209407  -209417  -209429 
 -209377  -209311  -209310  -209344  -209387  -209407  -209376  -209339 
 -209319  -209306  -209305  -209287  -209270  -209300  -209324  -209304 
 -209308  -209335  -209326  -209337  -209400  -209419  -209399  -209420 
 -209444  -209417  -209360  -209323  -209323  -209311  -209289  -209288 
 -209271  -209222  -209169  -209113  -209069  -209049  -209067  -209153 
 -209249  -209261  -209215  -209180  -209173  -209184  -209198  -209215 
 -209263  -209325  -209325  -209266  -209242  -209279  -209298  -209282 
 -209295  -209298  -209231  -209180  -209187  -209220  -209273  -209252 
 -209142  -209065  -209068  -209115  -209143  -209121  -209123  -209193 
 -209253  -209265  -209252  -209233  -209227  -209195  -209141  -209132 
 -209123  -209089  -209106  -209150  -209187  -209220  -209215  -209195 
 -209195  -209209  -209222  -209229  -209281  -209385  -209441  -209418 
 -209417  -209493  -209558  -209551  -209531  -209544  -209569  -209567 
 -209555  -209565  -209579  -209601  -209629  -209605  -209552  -209538 
 -209515  -209432  -209379  -209378  -209346  -209318  -209328  -209315 
 -209310  -209345  -209375  -209404  -209426  -209413  -209411  -209433 
 -209433  -209417  -209416  -209431  -209459  -209472  -209430  -209366 
 -209310  -209255  -209262  -209317  -209310  -209274  -209296  -209342 
 -209375  -209408  -209424  -209403  -209380  -209408  -209464  -209513 
 -209573  -209615  -209564  -209460  -209411  -209415  -209427  -209450 
 -209447  -209416  -209409  -209389  -209374  -209415  -209413  -209344 
 -209324  -209358  -209405  -209477  -209537  -209520  -209445  -209367 
 -209320  -209322  -209338  -209342  -209373  -209413  -209413  -209422 
 -209463  -209481  -209448  -209393  -209387  -209442  -209497  -209527 
 -209519  -209469  -209414  -209369  -209324  -209290  -209274  -209286 
 -209321  -209349  -209334  -209277  -209239  -209270  -209323  -209337 
 -209311  -209266  -209214  -209181  -209158  -209132  -209120  -209127 
 -209132  -209115  -209096  -209115  -209152  -209165  -209193  -209269 
 -209322  -209343  -209392  -209416  -209348  -209268  -209257  -209278 
 -209273  -209237  -209218  -209213  -209182  -209170  -209212  -209245 
 -209247  -209261  -209283  -209293  -209318  -209336  -209306  -209300 
 -209330  -209315  -209290  -209300  -209297  -209273  -209283  -209320 
 -209325  -209309  -209314  -209337  -209335  -209266  -209186  -209183 
 -209215  -209198  -209167  -209186  -209222  -209245  -209282  -209341 
 -209384  -209375  -209315  -209261  -209278  -209360  -209453  -209496 
 -209482  -209491  -209508  -209465  -209443  -209481  -209474  -209452 
 -209482  -209479  -209439  -209439  -209442  -209430  -209435  -209401 
 -209331  -209314  -209336  -209332  -209308  -209300  -209300  -209281 
 -209279  -209310  -209354  -209402  -209401  -209341  -209325  -209381 
 -209427  -209436  -209427  -209384  -209338  -209368  -209445  -209482 
 -209475  -209448  -209404  -209369  -209376  -209392  -209392  -209415 
 -209438  -209394  -209298  -209239  -209249  -209276  -209294  -209320 
 -209356  -209399  -209443  -209482  -209513  -209541  -209547  -209511 
 -209475  -209493  -209514  -209475  -209426  -209444  -209510  -209544 
 -209529  -209507  -209486  -209471  -209453  -209421  -209397  -209378 
 -209351  -209338  -209308  -209242  -209195  -209181  -209194  -209216 
 -209207  -209216  -209282  -209330  -209332  -209321  -209317  -209354 
 -209394  -209383  -209406  -209479  -209467  -209386  -209355  -209383 
 -209425  -209412  -209364  -209389  -209442  -209418  -209340  -209232 
 -209150  -209164  -209209  -209230  -209220  -209159  -209114  -209136 
 -209163  -209133  -209075  -209102  -209198  -209233  -209246  -209305 
 -209302  -209214  -209183  -209215  -209222  -209220  -209233  -209233 
 -209223  -209252  -209319  -209328  -209264  -209239  -209253  -209249 
 -209266  -209320  -209373  -209372  -209308  -209264  -209248  -209209 
 -209205  -209259  -209307  -209343  -209386  -209411  -209391  -209360 
 -209376  -209430  -209484  -209540  -209575  -209560  -209513  -209479 
 -209480  -209467  -209430  -209421  -209400  -209347  -209318  -209292 
 -209235  -209194  -209208  -209245  -209264  -209262  -209242  -209222 
 -209240  -209284  -209301  -209271  -209263  -209329  -209412  -209487 
 -209521  -209480  -209431  -209395  -209362  -209393  -209454  -209451 
 -209355  -209218  -209140  -209139  -209173  -209241  -209302  -209318 
 -209330  -209356  -209344  -209266  -209198  -209213  -209269  -209341 
 -209436  -209481  -209460  -209410  -209330  -209296  -209352  -209389 
 -209390  -209422  -209447  -209440  -209431  -209409  -209359  -209309 
 -209284  -209259  -209245  -209282  -209316  -209320  -209340  -209368 
 -209389  -209427  -209467  -209480  -209482  -209521  -209601  -209664 
 -209664  -209617  -209549  -209490  -209465  -209457  -209432  -209383 
 -209346  -209368  -209404  -209383  -209322  -209259  -209226  -209253 
 -209300  -209321  -209343  -209391  -209448  -209485  -209455  -209397 
 -209415  -209442  -209378  -209315  -209301  -209278  -209279  -209336 
 -209373  -209329  -209244  -209190  -209198  -209233  -209279  -209318 
 -209324  -209337  -209369  -209365  -209330  -209298  -209277  -209269 
 -209239  -209180  -209146  -209137  -209154  -209216  -209246  -209200 
 -209177  -209226  -209287  -209328  -209374  -209416  -209410  -209394 
 -209426  -209465  -209460  -209443  -209437  -209400  -209345  -209309 
 -209237  -209133  -209116  -209152  -209147  -209121  -209123  -209181 
 -209228  -209186  -209145  -209170  -209168  -209133  -209151  -209207 
 -209230  -209204  -209190  -209272  -209390  -209428  -209401  -209346 
 -209294  -209309  -209349  -209357  -209385  -209418  -209391  -209362 
 -209373  -209339  -209289  -209358  -209464  -209447  -209402  -209433 
 -209423  -209334  -209292  -209343  -209432  -209482  -209483  -209473 
 -209449  -209440  -209474  -209491  -209475  -209482  -209482  -209420 
 -209346  -209300  -209285  -209295  -209321  -209376  -209414  -209380 
 -209331  -209330  -209357  -209389  -209419  -209448  -209491  -209550 
 -209568  -209509  -209456  -209472  -209477  -209430  -209408  -209428 
 -209434  -209445  -209480  -209498  -209489  -209444  -209363  -209293 
 -209268  -209264  -209241  -209220  -209247  -209270  -209249  -209261 
 -209328  -209407  -209439  -209402  -209393  -209432  -209454  -209498 
 -209553  -209573  -209608  -209612  -209515  -209430  -209422  -209423 
 -209402  -209373  -209346  -209285  -209167  -209078  -209073  -209088 
 -209105  -209146  -209166  -209172  -209210  -209236  -209227  -209232 
 -209227  -209194  -209220  -209304  -209337  -209308  -209312  -209336 
 -209296  -209232  -209232  -209271  -209297  -209301  -209316  -209367 
 -209384  -209365  -209412  -209483  -209526  -209564  -209520  -209406 
 -209348  -209322  -209266  -209222  -209190  -209156  -209129  -209075 
 -209049  -209108  -209160  -209185  -209236  -209264  -209252  -209283 
 -209345  -209355  -209323  -209321  -209337  -209336  -209355  -209370 
 -209343  -209322  -209311  -209294  -209298  -209274  -209211  -209192 
 -209200  -209212  -209292  -209360  -209299  -209202  -209199  -209245 
 -209262  -209312  -209379  -209329  -209254  -209272  -209281  -209273 
 -209317  -209353  -209351  -209357  -209370  -209365  -209333  -209293 
 -209286  -209307  -209344  -209442  -209526  -209485  -209434  -209434 
 -209420  -209464  -209544  -209542  -209532  -209536  -209466  -209398 
 -209394  -209399  -209420  -209449  -209434  -209415  -209437  -209442 
 -209406  -209382  -209376  -209368  -209336  -209271  -209259  -209343 
 -209417  -209429  -209402  -209357  -209376  -209447  -209425  -209356 
 -209372  -209383  -209335  -209346  -209395  -209364  -209293  -209271 
 -209279  -209283  -209307  -209359  -209382  -209356  -209316  -209300 
 -209320  -209345  -209349  -209352  -209340  -209297  -209281  -209303 
 -209330  -209369  -209390  -209380  -209383  -209383  -209371  -209377 
 -209367  -209322  -209333  -209420  -209463  -209448  -209467  -209479 
 -209418  -209375  -209411  -209430  -209403  -209413  -209455  -209443 
 -209394  -209382  -209368  -209306  -209271  -209296  -209318  -209324 
 -209326  -209311  -209279  -209253  -209257  -209263  -209238  -209236 
 -209290  -209313  -209292  -209303  -209322  -209310  -209313  -209327 
 -209333  -209357  -209360  -209293  -209220  -209195  -209219  -209275 
 -209315  -209353  -209401  -209374  -209290  -209290  -209354  -209377 
 -209376  -209354  -209288  -209246  -209218  -209149  -209143  -209240 
 -209338  -209393  -209432  -209482  -209504  -209473  -209483  -209564 
 -209629  -209628  -209556  -209475  -209443  -209391  -209283  -209200 
 -209182  -209226  -209308  -209366  -209400  -209434  -209410  -209339 
 -209320  -209347  -209339  -209347  -209446  -209537  -209542  -209537 
 -209551  -209520  -209442  -209417  -209460  -209472  -209418  -209341 
 -209289  -209254  -209181  -209086  -209017  -208988  -209027  -209118 
 -209211  -209315  -209417  -209442  -209377  -209287  -209224  -209179 
 -209129  -209097  -209092  -209079  -209029  -208987  -209022  -209115 
 -209194  -209248  -209296  -209347  -209381  -209365  -209359  -209423 
 -209477  -209456  -209414  -209369  -209342  -209370  -209398  -209414 
 -209453  -209463  -209427  -209399  -209351  -209288  -209271  -209278 
 -209289  -209318  -209343  -209368  -209402  -209427  -209459  -209493 
 -209473  -209413  -209371  -209351  -209323  -209253  -209141  -209057 
 -209025  -209023  -209031  -209011  -208985  -208982  -208988  -209062 
 -209189  -209254  -209283  -209336  -209364  -209355  -209360  -209385 
 -209385  -209341  -209293  -209265  -209209  -209124  -209034  -208926 
 -208848  -208849  -208895  -208954  -209006  -209030  -209028  -209019 
 -209036  -209088  -209133  -209176  -209237  -209270  -209303  -209385 
 -209475  -209552  -209584  -209523  -209441  -209395  -209354  -209286 
 -209171  -209086  -209118  -209208  -209324  -209495  -209640  -209708 
 -209731  -209700  -209645  -209639  -209664  -209660  -209639  -209619 
 -209575  -209548  -209587  -209630  -209604  -209538  -209526  -209538 
 -209479  -209415  -209405  -209378  -209352  -209400  -209479  -209555 
 -209664  -209737  -209707  -209697  -209779  -209836  -209779  -209703 
 -209745  -209817  -209812  -209793  -209766  -209709  -209656  -209559 
 -209417  -209351  -209369  -209367  -209327  -209321  -209366  -209419 
 -209452  -209485  -209554  -209633  -209656  -209643  -209630  -209574 
 -209500  -209497  -209556  -209611  -209648  -209723  -209833  -209844 
 -209693  -209522  -209434  -209367  -209296  -209287  -209370  -209487 
 -209523  -209485  -209488  -209519  -209537  -209578  -209590  -209570 
 -209611  -209665  -209701  -209776  -209777  -209667  -209573  -209473 
 -209342  -209309  -209372  -209362  -209245  -209133  -209051  -208970 
 -208941  -209004  -209096  -209153  -209191  -209232  -209254  -209252 
 -209243  -209183  -209046  -208932  -208919  -208993  -209142  -209289 
 -209298  -209141  -208957  -208892  -208882  -208805  -208709  -208653 
 -208655  -208769  -208929  -209002  -209017  -209044  -209065  -209109 
 -209207  -209303  -209355  -209379  -209419  -209449  -209406  -209340 
 -209298  -209226  -209121  -209064  -209108  -209177  -209159  -209056 
 -208950  -208931  -208985  -209022  -209047  -209129  -209246  -209328 
 -209399  -209473  -209455  -209382  -209382  -209400  -209362  -209338 
 -209338  -209285  -209233  -209235  -209236  -209284  -209407  -209509 
 -209561  -209567  -209528  -209512  -209568  -209648  -209664  -209601 
 -209559  -209567  -209550  -209536  -209589  -209626  -209627  -209675 
 -209694  -209576  -209400  -209309  -209310  -209331  -209365  -209426 
 -209469  -209444  -209361  -209310  -209314  -209299  -209216  -209106 
 -209042  -209029  -209012  -208973  -208974  -209108  -209310  -209410 
 -209394  -209407  -209505  -209582  -209628  -209705  -209751  -209769 
 -209783  -209687  -209575  -209579  -209571  -209550  -209595  -209588 
 -209526  -209477  -209390  -209328  -209402  -209507  -209476  -209334 
 -209262  -209333  -209405  -209377  -209285  -209221  -209292  -209416 
 -209415  -209309  -209198  -209114  -209033  -208938  -208941  -209058 
 -209175  -209305  -209432  -209467  -209449  -209444  -209487  -209595 
 -209630  -209529  -209429  -209358  -209263  -209206  -209235  -209275 
 -209252  -209214  -209161  -209044  -208958  -208949  -208963  -209006 
 -209013  -208946  -208930  -209041  -209216  -209324  -209261  -209079 
 -208928  -208916  -209039  -209160  -209122  -208966  -208915  -209049 
 -209198  -209233  -209238  -209258  -209174  -208959  -208779  -208771 
 -208868  -208921  -208902  -208869  -208849  -208859  -208916  -209049 
 -209246  -209351  -209316  -209324  -209403  -209414  -209371  -209365 
 -209400  -209436  -209428  -209412  -209406  -209381  -209444  -209598 
 -209684  -209674  -209587  -209512  -209593  -209679  -209559  -209347 
 -209278  -209388  -209491  -209523  -209565  -209562  -209487  -209474 
 -209560  -209640  -209605  -209461  -209386  -209494  -209606  -209578 
 -209543  -209560  -209558  -209575  -209635  -209651  -209608  -209553 
 -209476  -209387  -209338  -209369  -209452  -209445  -209365  -209400 
 -209483  -209504  -209563  -209610  -209526  -209395  -209318  -209311 
 -209325  -209300  -209285  -209295  -209260  -209178  -209127  -209180 
 -209358  -209541  -209575  -209560  -209669  -209809  -209857  -209858 
 -209786  -209622  -209539  -209576  -209535  -209443  -209430  -209425 
 -209429  -209531  -209670  -209740  -209720  -209608  -209436  -209309 
 -209265  -209210  -209071  -208931  -208921  -209004  -209075  -209114 
 -209138  -209161  -209154  -209080  -209039  -209080  -209100  -209112 
 -209156  -209133  -209038  -208948  -208907  -208922  -208883  -208797 
 -208855  -209021  -209089  -209049  -208997  -209058  -209307  -209514 
 -209429  -209229  -209171  -209170  -209111  -209136  -209350  -209581 
 -209647  -209570  -209430  -209234  -209062  -209052  -209196  -209338 
 -209371  -209329  -209250  -209136  -209078  -209093  -209110  -209170 
 -209245  -209253  -209277  -209368  -209401  -209268  -209119  -209210 
 -209405  -209399  -209295  -209324  -209399  -209379  -209329  -209283 
 -209238  -209320  -209504  -209542  -209454  -209476  -209620  -209762 
 -209774  -209616  -209432  -209354  -209391  -209472  -209495  -209484 
 -209545  -209630  -209605  -209532  -209544  -209523  -209383  -209305 
 -209360  -209380  -209332  -209361  -209406  -209330  -209328  -209504 
 -209595  -209539  -209546  -209623  -209626  -209572  -209614  -209742 
 -209751  -209633  -209623  -209715  -209674  -209539  -209515  -209537 
 -209415  -209226  -209197  -209294  -209332  -209310  -209295  -209296 
 -209377  -209515  -209566  -209528  -209497  -209410  -209260  -209226 
 -209349  -209484  -209535  -209448  -209272  -209203  -209332  -209520 
 -209559  -209431  -209333  -209314  -209293  -209294  -209309  -209310 
 -209294  -209212  -209148  -209192  -209224  -209209  -209241  -209348 
 -209477  -209458  -209299  -209267  -209388  -209453  -209451  -209483 
 -209509  -209413  -209225  -209110  -209116  -209183  -209320  -209477 
 -209555  -209594  -209626  -209612  -209544  -209427  -209336  -209360 
 -209492  -209623  -209656  -209612  -209527  -209439  -209497  -209706 
 -209813  -209736  -209659  -209584  -209356  -209095  -209050  -209157 
 -209146  -208999  -208962  -209069  -209068  -208930  -208839  -208760 
 -208657  -208691  -208882  -209081  -209208  -209256  -209226  -209207 
 -209308  -209494  -209617  -209622  -209616  -209592  -209442  -209282 
 -209216  -209160  -209101  -209067  -209024  -208994  -209003  -208946 
 -208796  -208748  -208881  -209020  -209045  -209013  -209004  -209053 
 -209198  -209420  -209546  -209516  -209488  -209449  -209246  -208995 
 -208888  -208878  -208854  -208824  -208876  -209003  -209096  -209195 
 -209352  -209423  -209365  -209280  -209193  -209173  -209255  -209281 
 -209205  -209148  -209132  -209140  -209198  -209259  -209263  -209231 
 -209251  -209414  -209592  -209505  -209229  -209083  -209059  -209056 
 -209129  -209215  -209253  -209347  -209478  -209544  -209644  -209799 
 -209785  -209634  -209556  -209513  -209477  -209518  -209601  -209651 
 -209566  -209413  -209429  -209560  -209575  -209474  -209393  -209378 
 -209430  -209538  -209613  -209594  -209581  -209651  -209712  -209683 
 -209665  -209742  -209789  -209725  -209619  -209503  -209455  -209555 
 -209637  -209537  -209362  -209259  -209259  -209365  -209477  -209440 
 -209310  -209227  -209192  -209217  -209311  -209347  -209281  -209223 
 -209208  -209232  -209310  -209345  -209286  -209248  -209236  -209183 
 -209139  -209152  -209277  -209497  -209606  -209605  -209705  -209842 
 -209867  -209848  -209829  -209734  -209616  -209615  -209716  -209789 
