Origin Time       2024/04/02 04:24:00
Lat.              40.133
Long.             141.712
Depth. (km)       71
Mag.              6.0
Station Code      IKRH03
Station Lat.      42.8880
Station Long.     141.6399
Station Height(m) -242.5
Record Time       2024/04/02 04:25:21
Sampling Freq(Hz) 100Hz
Duration Time(s)  179
Dir.              2
Scale Factor      2942(gal)/8224139
Max. Acc. (gal)   1.316
Last Correction   2024/04/02 04:25:22
Memo.             
[...]
   54737    54743    54730    54729    54727    54720    54751    54787 
   54792    54845    54986    55163    55328    55420    55383    55271 
   55210    55220    55213    55159    55116    55115    55109    55047 
   54938    54834    54760    54722    54738    54776    54785    54784 
   54800    54801    54745    54650    54558    54506    54508    54552 
   54631    54745    54853    54920    54969    55032    55117    55173 
   55177    55217    55335    55447    55489    55456    55371    55262 
   55111    54927    54787    54715    54714    54789    54873    54900 
   54905    54934    54980    55015    54990    54908    54799    54665 
   54537    54487    54521    54584    54672    54805    54953    55036 
   55026    55003    55044    55123    55177    55173    55102    55012 
   54946    54900    54884    54876    54845    54846    54909    54963 
   54972    54951    54909    54853    54797    54758    54683    54535 
   54438    54490    54623    54761    54862    54904    54919    54916 
   54899    54915    55001    55123    55233    55325    55399    55445 
   55435    55372    55324    55296    55228    55089    54931    54838 
   54807    54797    54820    54868    54901    54908    54896    54903 
   54966    55081    55189    55239    55213    55108    55023    55078 
   55217    55286    55240    55139    55048    54989    54932    54864 
   54796    54739    54697    54688    54729    54835    54945    54950 
   54872    54810    54795    54835    54934    55032    55094    55131 
   55136    55123    55107    55048    54931    54797    54670    54585 
   54572    54594    54583    54544    54511    54488    54498    54592 
   54760    54909    55007    55108    55185    55178    55117    55053 
   55021    55054    55081    55028    54955    54922    54904    54930 
   55039    55140    55124    55046    54970    54865    54758    54731 
   54735    54704    54712    54796    54889    54976    55082    55197 
   55298    55363    55374    55368    55375    55360    55296    55197 
   55086    54977    54886    54858    54888    54878    54757    54622 
   54596    54683    54811    54900    54922    54920    54911    54886 
   54855    54810    54753    54720    54737    54808    54888    54904 
   54896    54965    55065    55088    55054    55035    55044    55067 
   55082    55077    55074    55102    55144    55161    55138    55073 
   55008    55007    55059    55075    55020    54949    54923    54969 
   55069    55162    55173    55081    54969    54915    54903    54877 
   54804    54706    54645    54619    54607    54649    54750    54877 
   55004    55097    55163    55278    55448    55541    55468    55356 
   55350    55395    55383    55289    55121    54930    54800    54761 
   54785    54826    54842    54805    54697    54583    54538    54552 
   54596    54648    54684    54715    54784    54922    55112    55287 
   55370    55339    55259    55182    55084    54955    54859    54850 
   54876    54873    54851    54812    54778    54796    54827    54830 
   54827    54826    54772    54680    54669    54761    54870    54984 
   55112    55196    55227    55231    55197    55151    55146    55166 
   55186    55236    55310    55331    55262    55134    54966    54814 
   54762    54816    54853    54760    54562    54373    54297    54344 
   54434    54496    54541    54612    54742    54901    54992    54994 
   54969    54932    54918    54973    55084    55204    55278    55262 
   55182    55104    55071    55097    55152    55183    55167    55112 
   55058    55043    55009    54897    54772    54719    54746    54795 
   54801    54792    54823    54878    54901    54880    54846    54807 
   54766    54800    54935    55067    55150    55221    55269    55239 
   55128    54985    54891    54866    54864    54832    54797    54828 
   54924    55016    55067    55073    55043    55013    54997    54943 
   54874    54874    54911    54913    54885    54831    54796    54846 
   54912    54892    54854    54901    54959    54936    54913    54976 
   55094    55200    55231    55179    55109    55105    55208    55381 
   55524    55575    55557    55503    55422    55289    55093    54911 
   54815    54758    54676    54602    54592    54652    54727    54754 
   54720    54683    54716    54845    54986    55057    55090    55189 
   55366    55506    55489    55313    55092    54923    54807    54718 
   54685    54739    54827    54893    54928    54930    54905    54881 
   54850    54814    54793    54793    54788    54768    54776    54818 
   54822    54799    54783    54756    54751    54805    54874    54923 
   54947    54954    54962    54973    54970    54927    54868    54876 
   54974    55101    55227    55314    55297    55196    55075    54961 
   54886    54880    54877    54839    54815    54826    54820    54801 
   54814    54841    54857    54851    54824    54788    54766    54787 
   54861    54932    54939    54915    54920    54943    54963    55003 
   55042    55016    54939    54893    54915    54967    55004    55043 
   55117    55186    55177    55084    54986    54957    54980    55011 
   55058    55127    55134    55015    54827    54680    54668    54781 
   54893    54927    54918    54885    54861    54892    54951    55007 
   55078    55127    55108    55066    55057    55080    55139    55228 
   55262    55189    55090    55066    55104    55155    55171    55148 
   55113    55080    55023    54934    54858    54826    54774    54687 
   54654    54679    54702    54751    54854    54982    55119    55225 
   55277    55281    55242    55174    55116    55084    55069    55053 
   55044    55065    55070    55054    55062    55070    55009    54868 
   54703    54594    54581    54662    54820    55005    55150    55190 
   55132    55069    55061    55065    55062    55096    55129    55097 
   55034    54974    54900    54815    54718    54598    54518    54496 
   54473    54464    54540    54675    54773    54820    54859    54886 
   54884    54855    54810    54766    54747    54749    54789    54877 
   54972    55048    55116    55159    55148    55080    54976    54893 
   54903    55040    55250    55418    55486    55447    55352    55275 
   55235    55182    55104    55030    54972    54905    54815    54720 
   54662    54615    54531    54453    54419    54413    54442    54540 
   54685    54824    54912    54938    54922    54904    54905    54904 
   54915    54985    55096    55183    55235    55275    55317    55355 
   55381    55356    55235    55043    54873    54788    54793    54842 
   54888    54922    54915    54847    54780    54777    54803    54816 
   54832    54858    54877    54912    54986    55048    55054    55015 
   54904    54731    54641    54720    54868    54989    55088    55155 
   55209    55263    55246    55142    55074    55094    55123    55078 
   54981    54896    54864    54903    54982    54986    54866    54710 
   54612    54573    54571    54600    54666    54774    54889    54945 
   54918    54864    54885    55030    55200    55264    55192    55086 
   55075    55135    55152    55111    55067    55034    55008    55051 
   55146    55185    55144    55081    55030    55008    54997    54945 
   54874    54845    54824    54761    54737    54851    55040    55200 
   55358    55517    55579    55526    55424    55274    55102    54984 
   54922    54884    54864    54850    54841    54855    54868    54831 
   54787    54810    54872    54896    54888    54847    54747    54643 
   54592    54575    54594    54660    54746    54849    54990    55116 
   55147    55113    55080    55030    54951    54900    54884    54868 
   54865    54889    54926    54981    55040    55082    55107    55107 
   55070    54996    54919    54899    54915    54912    54878    54834 
   54815    54810    54757    54685    54695    54781    54834    54826 
   54792    54714    54648    54722    54927    55112    55190    55188 
   55151    55111    55088    55094    55115    55125    55146    55221 
   55337    55422    55394    55239    55024    54835    54749    54776 
   54838    54872    54869    54838    54776    54684    54599    54560 
   54562    54591    54629    54683    54769    54855    54896    54886 
   54832    54766    54780    54896    55050    55196    55296    55324 
   55279    55177    55038    54916    54869    54905    55000    55097 
   55146    55146    55131    55146    55198    55188    55074    54939 
   54810    54666    54552    54506    54525    54598    54700    54789 
   54841    54855    54878    54958    55055    55108    55119    55089 
   55036    55024    55077    55147    55220    55314    55426    55540 
   55611    55553    55372    55181    55048    54967    54916    54864 
   54795    54719    54652    54629    54654    54656    54596    54554 
   54589    54657    54716    54787    54876    54918    54878    54858 
   54932    55046    55131    55175    55150    55038    54916    54857 
   54858    54891    54897    54874    54882    54868    54757    54649 
   54629    54637    54643    54673    54702    54702    54654    54581 
   54541    54552    54594    54666    54783    54934    55093    55228 
   55305    55314    55285    55251    55235    55212    55146    55077 
   55051    55034    55001    54974    54932    54862    54820    54818 
   54814    54811    54857    54959    55058    55088    55058    55031 
   55048    55112    55174    55181    55163    55188    55215    55181 
   55116    55069    55066    55093    55123    55163    55190    55162 
   55134    55136    55108    55043    54996    55024    55148    55277 
   55297    55252    55262    55316    55293    55132    54926    54831 
   54896    55058    55225    55320    55308    55197    55030    54882 
   54803    54793    54847    54943    55051    55151    55232    55289 
   55333    55355    55320    55228    55139    55100    55081    55036 
   54986    54955    54892    54777    54653    54575    54581    54638 
   54681    54738    54841    54939    54988    54976    54936    54953 
   55019    55046    55034    55048    55105    55147    55154    55178 
   55213    55198    55132    55024    54880    54758    54696    54692 
   54734    54760    54731    54706    54727    54769    54847    54993 
   55152    55236    55208    55115    55008    54920    54886    54907 
   54935    54939    54895    54837    54812    54800    54778    54778 
   54800    54826    54849    54891    54973    55059    55120    55178 
   55240    55296    55323    55263    55092    54858    54633    54427 
   54233    54125    54199    54415    54637    54781    54837    54832 
   54827    54849    54888    54953    55055    55202    55374    55472 
   55428    55316    55224    55163    55128    55059    54900    54739 
   54687    54706    54737    54792    54909    55094    55285    55397 
   55405    55348    55287    55266    55306    55404    55514    55586 
   55617    55603    55494    55286    55061    54888    54772    54677 
   54600    54561    54571    54652    54776    54872    54922    54936 
   54889    54793    54714    54669    54654    54673    54706    54726 
   54760    54838    54936    55023    55075    55071    55004    54895 
   54773    54615    54419    54275    54249    54330    54488    54657 
   54787    54889    54922    54812    54603    54425    54376    54491 
   54735    55001    55171    55250    55320    55377    55345    55209 
   55021    54877    54845    54876    54900    54942    55036    55134 
   55148    55034    54826    54585    54398    54357    54452    54602 
   54811    55098    55377    55529    55530    55487    55532    55641 
   55715    55715    55630    55474    55328    55196    54974    54681 
   54456    54352    54303    54233    54182    54245    54429    54664 
   54903    55150    55359    55422    55286    55027    54803    54716 
   54796    55053    55449    55863    56110    56035    55629    54996 
   54303    53734    53399    53329    53469    53712    53944    54081 
   54106    54067    54022    54045    54174    54371    54569    54734 
   54912    55166    55472    55725    55863    55919    55914    55798 
   55506    55093    54750    54589    54575    54722    55054    55381 
   55491    55426    55331    55260    55228    55235    55274    55386 
   55583    55830    56100    56295    56322    56249    56212    56216 
   56093    55680    55092    54619    54400    54392    54507    54683 
   54900    55098    55197    55210    55205    55228    55366    55638 
   55881    55904    55702    55444    55317    55317    55277    55105 
   54847    54553    54264    54024    53816    53572    53335    53252 
   53316    53308    53102    52929    53080    53503    53919    54198 
   54429    54684    54881    54868    54633    54334    54085    53901 
   53784    53701    53631    53649    53811    54044    54214    54276 
   54364    54615    54932    55148    55269    55409    55566    55632 
   55655    55773    55937    55987    55939    55944    56062    56257 
   56473    56658    56781    56798    56667    56492    56442    56556 
   56747    56916    56967    56883    56690    56376    56002    55711 
   55572    55543    55551    55537    55512    55499    55389    55034 
   54480    53917    53509    53401    53696    54275    54832    55177 
   55289    55166    54837    54415    54037    53784    53727    53941 
   54357    54770    54976    54815    54228    53399    52647    52111 
   51761    51541    51366    51274    51495    52120    52928    53603 
   54004    54210    54330    54373    54375    54456    54684    55031 
   55428    55810    56083    56130    55979    55764    55517    55235 
   55034    55048    55345    55880    56496    57075    57568    57856 
   57771    57341    56779    56228    55707    55301    55113    55086 
   55078    54967    54716    54399    54081    53782    53558    53418 
   53298    53211    53287    53572    53897    53993    53815    53624 
   53649    53831    54029    54257    54580    54947    55285    55549 
   55676    55618    55418    55150    54876    54639    54437    54248 
   54094    54027    54113    54445    55038    55745    56358    56728 
   56855    56883    56925    56951    56930    56924    56984    57100 
   57191    57117    56794    56303    55800    55414    55264    55382 
   55613    55817    56008    56246    56494    56679    56763    56675 
   56357    55946    55772    55996    56440    56809    56918    56760 
   56532    56404    56285    56049    55769    55521    55250    54909 
   54517    54121    53815    53638    53566    53581    53666    53752 
   53743    53596    53397    53287    53296    53318    53226    52999 
   52724    52458    52192    51935    51752    51725    51908    52272 
   52722    53200    53636    53966    54202    54378    54491    54607 
   54795    55007    55181    55300    55325    55239    55043    54629 
   53977    53428    53441    54105    55066    55853    56238    56307 
   56259    56158    55915    55443    54758    54052    53666    53770 
   54126    54411    54534    54518    54367    54078    53728    53554 
   53744    54232    54818    55300    55499    55409    55289    55416 
   55798    56257    56619    56778    56768    56767    56828    56763 
   56467    56091    55817    55711    55744    55769    55672    55516 
   55367    55166    54903    54733    54865    55379    56083    56664 
   56951    56960    56820    56659    56512    56394    56398    56560 
   56758    56785    56497    55918    55264    54733    54359    54117 
   54000    54018    54221    54675    55377    56168    56803    57106 
   57026    56648    56118    55541    54974    54502    54256    54290 
   54502    54707    54799    54837    54893    54839    54529    54052 
   53607    53287    53172    53345    53748    54178    54440    54461 
   54298    54056    53883    53958    54321    54778    55124    55301 
   55329    55163    54673    53886    53123    52732    52756    52976 
   53207    53419    53636    53844    54028    54182    54230    54116 
   53933    53846    53960    54325    54819    55204    55331    55179 
   54818    54434    54221    54245    54538    55061    55579    55860 
   55900    55841    55829    55925    56066    56130    56045    55863 
   55628    55309    54900    54472    54087    53792    53667    53758 
   54009    54345    54733    55155    55507    55610    55431    55127 
   54816    54623    54729    55170    55744    56158    56207    55856 
   55275    54749    54413    54224    54182    54311    54525    54685 
   54737    54707    54665    54637    54544    54332    54114    54056 
   54202    54449    54668    54838    55067    55455    55915    56201 
   56195    56031    55871    55732    55605    55475    55321    55151 
   55036    55034    55155    55378    55641    55900    56093    56015 
   55556    54976    54623    54537    54576    54714    54985    55309 
   55556    55740    55911    55992    55911    55723    55518    55329 
   55156    55070    55221    55620    55991    56042    55756    55337 
   55001    54896    55112    55598    56123    56492    56685    56683 
   56371    55733    54976    54325    53844    53507    53329    53334 
   53484    53653    53678    53507    53262    53111    53148    53387 
   53770    54218    54691    55183    55664    56026    56166    56047 
   55748    55431    55144    54826    54525    54405    54535    54824 
   55156    55530    55952    56305    56423    56196    55668    55061 
   54660    54573    54654    54689    54573    54341    54114    53939 
   53757    53588    53493    53435    53414    53534    53840    54243 
   54603    54839    54901    54735    54371    54017    53866    53914 
   54075    54367    54853    55439    55895    56064    56000    55896 
   55863    55861    55861    55884    55884    55800    55678    55586 
   55530    55499    55443    55247    54854    54376    54027    53971 
   54189    54479    54679    54822    55021    55273    55468    55544 
   55514    55431    55331    55206    55039    54885    54857    54966 
   55098    55167    55175    55119    54989    54845    54803    54967 
   55343    55822    56242    56477    56485    56292    56011    55811 
   55683    55441    55074    54761    54534    54274    53983    53750 
   53590    53531    53685    54122    54719    55217    55439    55452 
   55467    55586    55749    55887    55971    55956    55779    55478 
   55175    54911    54691    54611    54710    54831    54850    54850 
   54919    54994    55009    54963    54851    54668    54448    54291 
   54268    54324    54345    54344    54445    54666    54849    54912 
   54931    54932    54855    54689    54534    54467    54445    54405 
   54325    54211    54106    54064    54126    54295    54473    54506 
   54376    54276    54413    54787    55232    55576    55694    55513 
   55129    54754    54480    54317    54307    54483    54768    55019 
   55155    55185    55121    54920    54561    54153    53879    53852 
   54055    54368    54653    54895    55182    55514    55769    55879 
   55864    55768    55611    55405    55232    55197    55269    55329 
   55309    55169    54888    54545    54326    54384    54689    55044 
   55259    55308    55302    55340    55462    55656    55842    55938 
