Origin Time       2024/04/02 04:24:00
Lat.              40.133
Long.             141.712
Depth. (km)       71
Mag.              6.0
Station Code      IKRH01
Station Lat.      43.4087
Station Long.     141.5836
Station Height(m) 80
Record Time       2024/04/02 04:26:03
Sampling Freq(Hz) 100Hz
Duration Time(s)  120
Dir.              6
Scale Factor      7845(gal)/8223790
Max. Acc. (gal)   0.409
Last Correction   2024/04/02 04:26:03
Memo.             
[...]
   44313    44367    44420    44451    44444    44416    44397    44363 
   44319    44288    44254    44235    44262    44288    44271    44248 
   44240    44228    44232    44262    44286    44300    44317    44325 
   44317    44305    44292    44292    44327    44382    44397    44355 
   44296    44271    44298    44355    44416    44455    44454    44410 
   44355    44334    44335    44307    44250    44223    44219    44197 
   44173    44162    44147    44130    44123    44139    44197    44271 
   44321    44342    44347    44343    44343    44356    44378    44398 
   44417    44416    44386    44356    44338    44320    44302    44293 
   44309    44348    44362    44343    44332    44332    44329    44335 
   44346    44340    44315    44302    44325    44354    44382    44410 
   44404    44371    44354    44346    44320    44290    44270    44238 
   44205    44196    44197    44199    44203    44185    44149    44136 
   44150    44170    44205    44248    44277    44284    44274    44259 
   44257    44286    44327    44331    44304    44305    44327    44336 
   44350    44352    44339    44352    44374    44370    44365    44352 
   44321    44297    44284    44269    44259    44275    44311    44323 
   44327    44356    44367    44347    44352    44369    44358    44342 
   44332    44316    44307    44308    44296    44286    44304    44316 
   44293    44262    44258    44273    44294    44323    44335    44321 
   44320    44336    44350    44352    44346    44343    44340    44302 
   44244    44213    44219    44250    44277    44288    44292    44301 
   44320    44346    44352    44323    44296    44304    44342    44394 
   44437    44429    44386    44351    44331    44332    44370    44405 
   44392    44354    44327    44308    44301    44315    44328    44327 
   44309    44275    44248    44250    44251    44219    44185    44189 
   44216    44248    44278    44289    44301    44338    44369    44381 
   44397    44402    44359    44297    44271    44262    44253    44273 
   44319    44347    44338    44305    44265    44217    44204    44247 
   44292    44294    44269    44231    44217    44247    44273    44284 
   44315    44358    44389    44397    44365    44323    44301    44297 
   44316    44336    44323    44289    44257    44243    44258    44273 
   44266    44250    44236    44238    44267    44311    44339    44343 
   44334    44312    44284    44263    44254    44242    44230    44223 
   44226    44266    44327    44371    44401    44425    44439    44442 
   44455    44486    44498    44471    44439    44397    44327    44273 
   44250    44228    44215    44203    44173    44147    44154    44180 
   44211    44236    44246    44235    44219    44219    44230    44216 
   44186    44178    44194    44236    44302    44351    44361    44369 
   44386    44378    44371    44382    44374    44352    44346    44342 
   44350    44373    44397    44412    44396    44358    44336    44328 
   44334    44348    44350    44340    44329    44327    44355    44389 
   44379    44342    44309    44290    44288    44308    44342    44358 
   44336    44316    44331    44361    44390    44415    44423    44402 
   44347    44293    44275    44275    44274    44273    44257    44223 
   44203    44211    44231    44255    44271    44269    44257    44234 
   44194    44155    44138    44140    44163    44205    44236    44238 
   44238    44246    44248    44258    44284    44296    44296    44315 
   44362    44413    44437    44428    44405    44378    44350    44332 
   44320    44300    44270    44240    44228    44239    44265    44300 
   44339    44358    44339    44315    44313    44319    44331    44352 
   44343    44300    44284    44321    44386    44456    44498    44490 
   44459    44417    44369    44348    44355    44358    44356    44369 
   44378    44362    44344    44356    44373    44371    44371    44382 
   44392    44378    44331    44278    44246    44228    44204    44173 
   44180    44223    44257    44294    44335    44327    44301    44297 
   44297    44311    44327    44309    44277    44246    44204    44158 
   44146    44186    44254    44311    44344    44339    44301    44261 
   44232    44212    44209    44247    44309    44356    44383    44398 
   44406    44393    44338    44274    44232    44200    44185    44208 
   44251    44309    44347    44352    44363    44365    44323    44274 
   44253    44231    44216    44230    44250    44267    44294    44313 
   44312    44320    44332    44321    44307    44304    44304    44324 
   44365    44374    44336    44292    44281    44301    44327    44346 
   44347    44332    44325    44342    44362    44369    44379    44408 
   44433    44442    44420    44367    44298    44250    44248    44277 
   44285    44274    44282    44317    44359    44392    44398    44370 
   44320    44270    44236    44223    44213    44194    44170    44157 
   44172    44216    44266    44293    44294    44296    44311    44334 
   44365    44381    44367    44365    44379    44385    44374    44351 
   44319    44300    44301    44320    44335    44323    44311    44316 
   44308    44296    44296    44290    44282    44273    44244    44203 
   44161    44134    44146    44189    44238    44266    44263    44255 
   44281    44320    44339    44346    44363    44400    44436    44454 
   44452    44423    44373    44331    44308    44311    44343    44373 
   44359    44298    44234    44196    44178    44172    44190    44226 
   44240    44217    44196    44211    44248    44294    44335    44344 
   44329    44323    44332    44361    44379    44361    44328    44317 
   44321    44321    44316    44316    44319    44316    44304    44286 
   44281    44292    44309    44324    44320    44294    44269    44259 
   44270    44297    44315    44301    44277    44261    44253    44262 
   44308    44350    44348    44331    44336    44356    44378    44392 
   44398    44390    44371    44359    44363    44385    44402    44398 
   44382    44354    44307    44285    44298    44293    44274    44281 
   44297    44309    44327    44336    44323    44289    44231    44181 
   44176    44201    44230    44261    44311    44361    44381    44389 
   44402    44402    44394    44379    44340    44297    44280    44289 
   44325    44367    44383    44374    44347    44313    44282    44253 
   44231    44223    44213    44217    44226    44209    44190    44205 
   44235    44247    44228    44186    44151    44135    44122    44127 
   44177    44244    44284    44307    44343    44375    44381    44369 
   44366    44382    44401    44405    44405    44425    44432    44389 
   44340    44328    44327    44325    44340    44363    44369    44355 
   44338    44312    44297    44316    44342    44343    44325    44307 
   44293    44294    44316    44344    44358    44351    44332    44304 
   44290    44298    44298    44292    44302    44316    44321    44327 
   44320    44309    44311    44315    44312    44300    44266    44226 
   44204    44216    44254    44289    44324    44355    44358    44335 
   44312    44304    44317    44329    44308    44259    44228    44239 
   44274    44319    44363    44378    44346    44297    44265    44258 
   44266    44286    44324    44367    44378    44346    44305    44285 
   44280    44271    44253    44247    44274    44316    44336    44335 
   44321    44298    44290    44307    44316    44300    44255    44192 
   44149    44139    44150    44184    44234    44269    44274    44265 
   44262    44274    44292    44297    44298    44315    44352    44394 
   44425    44433    44404    44362    44354    44358    44332    44285 
   44221    44151    44127    44166    44246    44338    44397    44394 
   44374    44370    44365    44370    44416    44469    44474    44442 
   44416    44409    44396    44383    44396    44408    44406    44405 
   44382    44336    44308    44288    44255    44227    44208    44199 
   44211    44236    44255    44267    44275    44290    44320    44350 
   44371    44404    44451    44498    44518    44489    44432    44386 
   44350    44317    44282    44251    44238    44231    44223    44219 
   44208    44207    44235    44258    44273    44297    44304    44290 
   44274    44239    44192    44163    44165    44185    44207    44223 
   44217    44194    44200    44235    44270    44323    44386    44405 
   44381    44351    44319    44288    44262    44227    44181    44153 
   44151    44173    44224    44294    44362    44413    44446    44447 
   44417    44381    44355    44344    44348    44352    44348    44344 
   44336    44328    44328    44329    44340    44371    44423    44469 
   44474    44431    44382    44356    44332    44301    44277    44266 
   44258    44251    44258    44273    44275    44267    44258    44265 
   44288    44289    44269    44257    44244    44224    44212    44215 
   44216    44212    44227    44248    44255    44278    44331    44371 
   44383    44382    44361    44327    44301    44282    44292    44342 
   44404    44439    44431    44398    44362    44344    44352    44352 
   44329    44304    44278    44262    44267    44273    44270    44270 
   44278    44290    44286    44271    44266    44261    44258    44273 
   44298    44317    44339    44365    44381    44378    44373    44377 
   44389    44386    44363    44336    44324    44331    44347    44351 
   44340    44325    44307    44281    44267    44274    44284    44278 
   44261    44248    44250    44270    44296    44308    44321    44338 
   44339    44332    44325    44324    44336    44344    44324    44294 
   44281    44278    44274    44282    44294    44293    44281    44261 
   44231    44207    44190    44200    44231    44246    44240    44257 
   44297    44340    44379    44401    44381    44319    44259    44243 
   44266    44302    44327    44327    44323    44331    44334    44327 
   44317    44307    44297    44289    44270    44258    44271    44307 
   44350    44388    44397    44375    44355    44373    44413    44435 
   44427    44406    44392    44381    44369    44355    44323    44267 
   44217    44174    44147    44169    44215    44251    44269    44255 
   44242    44259    44282    44301    44325    44347    44346    44334 
   44342    44365    44366    44340    44302    44266    44255    44265 
   44269    44271    44271    44250    44221    44208    44213    44235 
   44257    44274    44293    44308    44300    44277    44255    44250 
   44271    44315    44379    44460    44520    44533    44508    44447 
   44374    44316    44269    44215    44157    44105    44086    44119 
   44177    44232    44289    44340    44366    44358    44329    44325 
   44366    44408    44424    44432    44435    44425    44413    44390 
   44348    44317    44302    44271    44224    44170    44113    44068 
   44038    44055    44131    44231    44319    44365    44361    44335 
   44297    44242    44196    44176    44157    44149    44205    44319 
   44417    44464    44454    44390    44301    44226    44176    44150 
   44163    44212    44266    44297    44294    44253    44208    44196 
   44213    44242    44275    44323    44371    44392    44389    44390 
   44397    44401    44402    44421    44455    44455    44420    44388 
   44358    44334    44329    44305    44257    44242    44278    44343 
   44423    44485    44502    44467    44405    44352    44323    44312 
   44313    44316    44312    44301    44296    44302    44313    44327 
   44347    44348    44319    44269    44219    44169    44131    44136 
   44182    44227    44251    44267    44284    44305    44327    44325 
   44300    44267    44228    44192    44170    44172    44212    44294 
   44388    44459    44497    44500    44478    44437    44373    44300 
   44243    44203    44173    44154    44153    44196    44253    44275 
   44277    44288    44316    44351    44377    44390    44394    44397 
   44410    44437    44479    44518    44521    44489    44454    44421 
   44388    44371    44379    44398    44408    44385    44339    44308 
   44300    44304    44312    44317    44325    44365    44428    44478 
   44490    44463    44404    44348    44332    44361    44401    44417 
   44402    44367    44312    44243    44177    44126    44077    44030 
   43999    43997    44012    44024    44045    44089    44139    44188 
   44259    44346    44406    44428    44420    44408    44415    44427 
   44436    44439    44424    44396    44373    44362    44346    44315 
   44275    44217    44146    44101    44103    44132    44190    44285 
   44381    44446    44469    44436    44354    44263    44203    44181 
   44190    44212    44220    44213    44207    44196    44185    44212 
   44257    44269    44258    44248    44231    44230    44262    44315 
   44393    44459    44460    44412    44358    44313    44282    44267 
   44270    44265    44234    44201    44197    44213    44248    44294 
   44329    44325    44284    44235    44192    44155    44140    44149 
   44176    44230    44290    44325    44340    44355    44361    44324 
   44248    44176    44136    44127    44146    44185    44235    44282 
   44334    44394    44447    44494    44540    44562    44556    44539 
   44498    44458    44454    44469    44466    44424    44339    44246 
   44197    44197    44212    44235    44277    44320    44343    44362 
   44398    44463    44555    44631    44655    44662    44664    44622 
   44540    44433    44298    44154    44031    43930    43877    43891 
   43939    43999    44058    44089    44082    44074    44093    44150 
   44251    44373    44459    44497    44496    44458    44397    44361 
   44350    44317    44258    44207    44180    44186    44234    44298 
   44356    44385    44379    44361    44347    44350    44383    44436 
   44486    44554    44636    44686    44697    44683    44639    44556 
   44471    44428    44417    44409    44405    44398    44374    44344 
   44328    44343    44398    44464    44501    44501    44467    44401 
   44321    44261    44235    44228    44224    44228    44224    44200 
   44169    44139    44104    44064    44014    43965    43935    43939 
   43980    44062    44157    44242    44302    44338    44358    44363 
   44362    44365    44342    44274    44203    44145    44107    44109 
   44142    44167    44176    44173    44180    44216    44257    44280 
   44298    44311    44311    44317    44346    44404    44489    44563 
   44606    44613    44563    44458    44351    44289    44274    44294 
   44327    44352    44371    44367    44336    44329    44362    44393 
   44408    44417    44410    44392    44388    44417    44487    44548 
   44532    44429    44305    44227    44200    44186    44172    44154 
   44124    44091    44072    44068    44073    44095    44126    44147 
   44167    44192    44196    44181    44162    44155    44178    44232 
   44301    44383    44452    44475    44477    44460    44412    44359 
   44339    44342    44346    44328    44288    44255    44240    44221 
   44203    44192    44184    44186    44203    44226    44257    44294 
   44340    44402    44454    44467    44439    44406    44405    44421 
   44412    44351    44240    44108    44020    44015    44070    44147 
   44216    44262    44300    44331    44350    44363    44367    44367 
   44369    44365    44358    44350    44328    44302    44285    44271 
   44278    44307    44323    44311    44282    44274    44296    44329 
   44358    44400    44448    44471    44448    44385    44292    44192 
   44119    44088    44103    44149    44199    44238    44257    44247 
   44220    44201    44208    44240    44289    44344    44406    44481 
   44555    44609    44639    44643    44608    44541    44486    44446 
   44413    44394    44363    44311    44259    44227    44227    44265 
   44309    44334    44340    44351    44371    44383    44383    44386 
   44397    44416    44443    44471    44473    44427    44356    44284 
   44230    44211    44203    44184    44169    44157    44140    44131 
   44128    44130    44149    44193    44234    44246    44240    44244 
   44257    44280    44323    44362    44378    44378    44374    44379 
   44397    44417    44433    44431    44389    44334    44294    44275 
   44284    44313    44347    44371    44369    44321    44258    44215 
   44212    44248    44312    44378    44427    44481    44554    44606 
   44620    44616    44590    44539    44485    44427    44359    44302 
   44253    44184    44101    44031    43977    43950    43965    44018 
   44078    44116    44126    44126    44145    44184    44226    44273 
   44332    44377    44406    44450    44502    44541    44563    44554 
   44508    44450    44397    44352    44327    44325    44342    44352 
   44324    44248    44150    44058    44007    44018    44053    44065 
   44072    44086    44096    44109    44124    44128    44147    44194 
   44258    44331    44410    44491    44579    44664    44717    44710 
   44647    44548    44424    44289    44169    44089    44057    44049 
   44035    44026    44035    44045    44053    44054    44041    44034 
   44055    44096    44147    44224    44344    44479    44583    44645 
   44664    44639    44599    44562    44498    44416    44327    44226 
   44128    44054    44004    43991    44012    44051    44089    44112 
   44122    44134    44143    44143    44154    44192    44255    44347 
   44459    44566    44639    44658    44640    44610    44568    44518 
   44471    44424    44386    44362    44334    44301    44274    44251 
   44220    44193    44176    44161    44159    44189    44239    44311 
   44406    44490    44537    44547    44525    44486    44440    44379 
   44311    44257    44224    44215    44234    44259    44261    44239 
   44227    44234    44242    44247    44247    44231    44207    44193 
   44200    44234    44298    44367    44424    44474    44514    44529 
   44536    44545    44539    44504    44439    44358    44298    44282 
   44292    44309    44334    44355    44365    44369    44374    44373 
   44358    44343    44332    44315    44293    44275    44251    44228 
   44219    44221    44224    44219    44205    44184    44172    44189 
   44217    44235    44243    44243    44235    44240    44265    44293 
   44320    44336    44331    44316    44315    44332    44359    44382 
   44386    44386    44390    44386    44370    44359    44354    44329 
   44288    44238    44181    44131    44096    44065    44024    43973 
   43927    43908    43934    44024    44147    44243    44313    44379 
   44442    44505    44574    44625    44644    44632    44602    44559 
   44505    44450    44401    44362    44339    44327    44312    44298 
   44286    44278    44277    44277    44274    44270    44259    44244 
   44240    44262    44307    44356    44405    44452    44485    44497 
   44505    44510    44497    44459    44409    44363    44325    44286 
   44242    44211    44199    44196    44196    44201    44216    44235 
   44240    44243    44259    44282    44300    44313    44313    44312 
   44323    44327    44319    44327    44356    44389    44415    44432 
   44436    44436    44429    44401    44359    44309    44251    44199 
   44172    44165    44178    44201    44220    44244    44286    44346 
