Origin Time       2024/04/02 04:24:00
Lat.              40.133
Long.             141.712
Depth. (km)       71
Mag.              6.0
Station Code      IKRH02
Station Lat.      43.2204
Station Long.     141.6523
Station Height(m) 10
Record Time       2024/04/02 04:26:01
Sampling Freq(Hz) 100Hz
Duration Time(s)  120
Dir.              4
Scale Factor      3920(gal)/6170801
Max. Acc. (gal)   3.324
Last Correction   2024/04/02 04:25:46
Memo.             
[...]
  -31196   -31187   -31225   -31278   -31326   -31378   -31437   -31506 
  -31580   -31636   -31668   -31690   -31718   -31759   -31806   -31848 
  -31879   -31896   -31901   -31890   -31868   -31840   -31800   -31755 
  -31715   -31678   -31647   -31631   -31629   -31638   -31655   -31677 
  -31707   -31749   -31796   -31835   -31865   -31887   -31895   -31896 
  -31905   -31934   -31982   -32029   -32057   -32065   -32062   -32046 
  -32018   -31990   -31969   -31950   -31921   -31879   -31826   -31765 
  -31711   -31681   -31676   -31698   -31741   -31772   -31777   -31756 
  -31705   -31634   -31579   -31565   -31582   -31606   -31622   -31625 
  -31616   -31597   -31574   -31566   -31587   -31628   -31664   -31682 
  -31684   -31680   -31673   -31665   -31659   -31652   -31647   -31641 
  -31620   -31593   -31574   -31576   -31611   -31685   -31789   -31908 
  -32022   -32110   -32164   -32179   -32165   -32136   -32099   -32053 
  -31989   -31904   -31807   -31706   -31601   -31498   -31410   -31349 
  -31326   -31333   -31350   -31363   -31373   -31400   -31449   -31505 
  -31560   -31608   -31640   -31650   -31634   -31592   -31542   -31508 
  -31492   -31486   -31487   -31496   -31505   -31525   -31568   -31621 
  -31658   -31677   -31694   -31723   -31767   -31823   -31876   -31903 
  -31899   -31887   -31896   -31926   -31959   -31990   -32025   -32059 
  -32084   -32102   -32114   -32113   -32105   -32103   -32102   -32076 
  -32024   -31959   -31881   -31792   -31712   -31655   -31621   -31602 
  -31583   -31570   -31576   -31585   -31579   -31574   -31594   -31645 
  -31712   -31769   -31794   -31782   -31748   -31700   -31646   -31602 
  -31578   -31572   -31588   -31625   -31666   -31701   -31740   -31786 
  -31843   -31910   -31974   -32033   -32084   -32121   -32136   -32128 
  -32100   -32044   -31968   -31888   -31807   -31715   -31616   -31521 
  -31445   -31391   -31363   -31379   -31440   -31524   -31615   -31704 
  -31786   -31853   -31892   -31904   -31909   -31920   -31928   -31924 
  -31917   -31908   -31884   -31849   -31809   -31761   -31696   -31604 
  -31497   -31389   -31296   -31221   -31156   -31098   -31047   -31012 
  -31023   -31080   -31151   -31219   -31296   -31394   -31511   -31641 
  -31779   -31919   -32039   -32118   -32161   -32189   -32203   -32188 
  -32150   -32107   -32073   -32058   -32054   -32041   -32012   -31976 
  -31932   -31875   -31829   -31804   -31775   -31735   -31701   -31678 
  -31668   -31665   -31662   -31664   -31683   -31713   -31742   -31763 
  -31768   -31760   -31745   -31723   -31698   -31679   -31669   -31667 
  -31671   -31679   -31694   -31717   -31747   -31784   -31825   -31867 
  -31906   -31937   -31961   -31968   -31952   -31926   -31905   -31891 
  -31871   -31833   -31786   -31752   -31738   -31728   -31702   -31661 
  -31611   -31554   -31497   -31459   -31445   -31456   -31485   -31521 
  -31568   -31631   -31697   -31757   -31809   -31848   -31880   -31915 
  -31942   -31951   -31953   -31959   -31957   -31945   -31928   -31903 
  -31866   -31830   -31799   -31772   -31754   -31742   -31729   -31726 
  -31738   -31749   -31748   -31739   -31730   -31726   -31726   -31729 
  -31733   -31736   -31736   -31739   -31748   -31761   -31773   -31782 
  -31788   -31792   -31789   -31774   -31750   -31727   -31719   -31728 
  -31751   -31793   -31835   -31854   -31858   -31849   -31818   -31767 
  -31709   -31663   -31642   -31640   -31645   -31647   -31636   -31620 
  -31609   -31608   -31628   -31662   -31688   -31694   -31687   -31679 
  -31671   -31654   -31634   -31626   -31625   -31615   -31595   -31559 
  -31508   -31467   -31458   -31473   -31489   -31504   -31521   -31537 
  -31547   -31543   -31512   -31466   -31427   -31402   -31392   -31386 
  -31381   -31391   -31425   -31476   -31537   -31617   -31717   -31818 
  -31907   -31977   -32013   -32009   -31982   -31955   -31937   -31923 
  -31904   -31880   -31844   -31785   -31703   -31627   -31574   -31541 
  -31527   -31534   -31552   -31580   -31630   -31693   -31746   -31797 
  -31853   -31914   -31981   -32040   -32071   -32083   -32098   -32117 
  -32139   -32161   -32176   -32180   -32168   -32149   -32125   -32089 
  -32044   -32003   -31980   -31978   -31990   -31995   -31976   -31931 
  -31878   -31828   -31772   -31695   -31597   -31493   -31408   -31356 
  -31342   -31373   -31446   -31541   -31633   -31717   -31805   -31889 
  -31951   -31985   -31998   -31999   -31986   -31950   -31879   -31777 
  -31673   -31601   -31571   -31565   -31554   -31537   -31538   -31567 
  -31604   -31625   -31630   -31636   -31646   -31663   -31683   -31693 
  -31684   -31654   -31610   -31573   -31554   -31543   -31528   -31519 
  -31530   -31560   -31601   -31645   -31691   -31735   -31783   -31843 
  -31909   -31965   -32009   -32052   -32088   -32102   -32090   -32062 
  -32026   -31976   -31908   -31835   -31767   -31694   -31613   -31547 
  -31507   -31490   -31496   -31525   -31577   -31642   -31701   -31747 
  -31786   -31820   -31843   -31864   -31887   -31905   -31919   -31931 
  -31938   -31954   -31971   -31951   -31878   -31770   -31648   -31531 
  -31433   -31370   -31341   -31330   -31331   -31345   -31373   -31411 
  -31447   -31481   -31536   -31615   -31702   -31775   -31821   -31841 
  -31847   -31855   -31868   -31866   -31841   -31793   -31734   -31679 
  -31637   -31611   -31592   -31570   -31550   -31552   -31582   -31621 
  -31650   -31657   -31645   -31631   -31626   -31630   -31626   -31597 
  -31552   -31516   -31495   -31478   -31464   -31457   -31453   -31451 
  -31464   -31503   -31568   -31648   -31737   -31838   -31949   -32052 
  -32126   -32156   -32155   -32152   -32160   -32168   -32160   -32121 
  -32047   -31947   -31840   -31735   -31625   -31504   -31383   -31297 
  -31261   -31258   -31274   -31308   -31356   -31418   -31501   -31609 
  -31734   -31860   -31973   -32073   -32160   -32222   -32244   -32221 
  -32162   -32078   -31978   -31876   -31778   -31682   -31593   -31525 
  -31491   -31478   -31469   -31453   -31432   -31418   -31427   -31469 
  -31542   -31624   -31690   -31735   -31770   -31800   -31819   -31830 
  -31848   -31878   -31910   -31931   -31941   -31939   -31921   -31880 
  -31820   -31755   -31690   -31621   -31556   -31505   -31471   -31457 
  -31463   -31486   -31517   -31544   -31554   -31544   -31527   -31524 
  -31549   -31601   -31662   -31723   -31790   -31859   -31920   -31972 
  -32010   -32028   -32046   -32074   -32108   -32134   -32138   -32126 
  -32120   -32121   -32116   -32098   -32077   -32054   -32024   -31992 
  -31968   -31941   -31902   -31858   -31818   -31784   -31746   -31694 
  -31629   -31569   -31534   -31541   -31597   -31699   -31819   -31925 
  -32016   -32104   -32179   -32221   -32230   -32223   -32204   -32176 
  -32144   -32105   -32054   -31983   -31886   -31762   -31622   -31479 
  -31346   -31229   -31135   -31065   -31017   -30971   -30919   -30876 
  -30859   -30872   -30916   -30994   -31101   -31234   -31385   -31547 
  -31713   -31876   -32024   -32153   -32254   -32307   -32315   -32301 
  -32279   -32241   -32183   -32112   -32023   -31913   -31801   -31699 
  -31616   -31555   -31502   -31464   -31468   -31517   -31589   -31668 
  -31745   -31815   -31875   -31937   -31998   -32038   -32040   -32016 
  -31988   -31968   -31950   -31924   -31890   -31852   -31822   -31803 
  -31788   -31769   -31745   -31713   -31684   -31678   -31697   -31728 
  -31764   -31793   -31808   -31818   -31830   -31839   -31840   -31839 
  -31840   -31846   -31866   -31888   -31894   -31877   -31840   -31789 
  -31732   -31679   -31638   -31609   -31585   -31563   -31546   -31533 
  -31527   -31516   -31494   -31482   -31492   -31511   -31530   -31555 
  -31597   -31655   -31709   -31746   -31773   -31794   -31798   -31776 
  -31734   -31686   -31649   -31628   -31617   -31620   -31648   -31690 
  -31718   -31713   -31690   -31683   -31713   -31770   -31833   -31884 
  -31915   -31928   -31925   -31911   -31895   -31875   -31836   -31783 
  -31730   -31684   -31638   -31594   -31552   -31497   -31419   -31332 
  -31251   -31184   -31135   -31111   -31128   -31196   -31306   -31441 
  -31584   -31718   -31824   -31900   -31967   -32035   -32090   -32127 
  -32148   -32151   -32146   -32141   -32125   -32081   -32008   -31923 
  -31849   -31803   -31788   -31798   -31825   -31863   -31902   -31934 
  -31948   -31936   -31904   -31857   -31793   -31720   -31654   -31600 
  -31551   -31501   -31455   -31415   -31387   -31370   -31358   -31344 
  -31335   -31341   -31358   -31371   -31386   -31419   -31474   -31541 
  -31613   -31680   -31738   -31787   -31829   -31859   -31882   -31903 
  -31918   -31923   -31920   -31912   -31903   -31888   -31866   -31844 
  -31824   -31807   -31805   -31814   -31815   -31804   -31783   -31753 
  -31719   -31688   -31659   -31633   -31612   -31600   -31605   -31623 
  -31646   -31672   -31702   -31731   -31764   -31809   -31857   -31889 
  -31895   -31882   -31863   -31846   -31823   -31784   -31728   -31666 
  -31605   -31550   -31508   -31476   -31449   -31428   -31418   -31413 
  -31410   -31408   -31404   -31403   -31418   -31450   -31500   -31568 
  -31639   -31710   -31794   -31899   -32012   -32115   -32199   -32255 
  -32278   -32269   -32240   -32194   -32133   -32061   -31997   -31960 
  -31942   -31916   -31877   -31837   -31803   -31771   -31731   -31679 
  -31619   -31554   -31489   -31430   -31383   -31350   -31337   -31340 
  -31350   -31358   -31362   -31371   -31395   -31437   -31501   -31590 
  -31704   -31836   -31963   -32068   -32150   -32205   -32225   -32214 
  -32184   -32133   -32062   -31977   -31889   -31812   -31745   -31676 
  -31591   -31484   -31363   -31227   -31090   -30988   -30941   -30944 
  -30996   -31092   -31219   -31367   -31517   -31654   -31775   -31876 
  -31945   -31989   -32030   -32078   -32129   -32182   -32231   -32249 
  -32214   -32126   -32006   -31884   -31770   -31662   -31565   -31480 
  -31404   -31341   -31296   -31273   -31278   -31324   -31422   -31563 
  -31725   -31900   -32080   -32242   -32360   -32433   -32470   -32483 
  -32481   -32470   -32450   -32423   -32387   -32349   -32322   -32310 
  -32286   -32234   -32158   -32068   -31978   -31899   -31836   -31796 
  -31782   -31782   -31786   -31788   -31784   -31765   -31743   -31741 
  -31755   -31777   -31818   -31878   -31953   -32058   -32206   -32386 
  -32577   -32751   -32877   -32941   -32956   -32937   -32885   -32806 
  -32725   -32664   -32610   -32550   -32477   -32390   -32297   -32200 
  -32094   -31983   -31872   -31771   -31698   -31667   -31679   -31718 
  -31770   -31819   -31840   -31810   -31737   -31634   -31495   -31311 
  -31099   -30879   -30663   -30460   -30268   -30094   -29955   -29854 
  -29783   -29747   -29750   -29792   -29863   -29960   -30081   -30238 
  -30437   -30668   -30916   -31170   -31423   -31667   -31892   -32084 
  -32214   -32269   -32255   -32185   -32068   -31932   -31797   -31666 
  -31533   -31409   -31317   -31265   -31258   -31292   -31356   -31452 
  -31591   -31770   -31983   -32218   -32460   -32696   -32918   -33108 
  -33232   -33265   -33191   -33003   -32711   -32354   -31986   -31644 
  -31335   -31068   -30868   -30739   -30663   -30644   -30694   -30809 
  -30980   -31202   -31455   -31711   -31953   -32166   -32342   -32485 
  -32599   -32680   -32726   -32752   -32763   -32749   -32705   -32625 
  -32493   -32305   -32068   -31809   -31559   -31331   -31117   -30909 
  -30736   -30628   -30578   -30558   -30555   -30558   -30563   -30584 
  -30622   -30661   -30703   -30754   -30795   -30820   -30846   -30875 
  -30887   -30876   -30867   -30892   -30965   -31083   -31236   -31407 
  -31590   -31774   -31923   -32018   -32061   -32049   -31994   -31931 
  -31875   -31812   -31721   -31589   -31421   -31243   -31094   -31001 
  -30960   -30965   -31009   -31095   -31224   -31393   -31606   -31863 
  -32152   -32452   -32736   -32969   -33128   -33203   -33194   -33122 
  -33020   -32911   -32801   -32698   -32600   -32514   -32459   -32450 
  -32478   -32530   -32593   -32662   -32731   -32811   -32914   -33032 
  -33154   -33270   -33370   -33445   -33481   -33454   -33344   -33162 
  -32937   -32685   -32417   -32143   -31870   -31613   -31394   -31218 
  -31088   -31011   -30980   -30970   -30972   -30984   -31007   -31043 
  -31072   -31084   -31101   -31134   -31173   -31199   -31185   -31115 
  -30989   -30807   -30590   -30383   -30212   -30081   -29997   -29977 
  -30020   -30102   -30196   -30286   -30360   -30416   -30463   -30504 
  -30537   -30587   -30679   -30821   -31013   -31239   -31468   -31676 
  -31855   -32007   -32138   -32258   -32371   -32483   -32620   -32800 
  -33016   -33256   -33517   -33780   -34017   -34203   -34316   -34334 
  -34257   -34098   -33884   -33644   -33397   -33155   -32925   -32709 
  -32513   -32338   -32184   -32060   -31987   -31987   -32074   -32243 
  -32476   -32755   -33055   -33339   -33579   -33771   -33906   -33955 
  -33899   -33730   -33424   -32947   -32305   -31548   -30735   -29917 
  -29126   -28382   -27722   -27194   -26816   -26589   -26515   -26580 
  -26759   -27042   -27434   -27929   -28512   -29165   -29871   -30593 
  -31284   -31912   -32449   -32847   -33061   -33087   -32943   -32665 
  -32296   -31861   -31386   -30910   -30484   -30156   -29944   -29848 
  -29869   -30018   -30296   -30697   -31216   -31835   -32519   -33249 
  -34007   -34759   -35473   -36110   -36608   -36908   -36968   -36769 
  -36315   -35638   -34791   -33840   -32860   -31929   -31108   -30438 
  -29943   -29631   -29484   -29501   -29703   -30084   -30617   -31270 
  -32009   -32793   -33564   -34256   -34806   -35161   -35289   -35190 
  -34884   -34400   -33750   -32950   -32049   -31114   -30195   -29331 
  -28554   -27893   -27388   -27078   -26985   -27107   -27423   -27892 
  -28456   -29066   -29688   -30295   -30870   -31414   -31912   -32353 
  -32742   -33073   -33322   -33465   -33481   -33354   -33090   -32716 
  -32275   -31817   -31398   -31060   -30811   -30644   -30546   -30492 
  -30470   -30486   -30534   -30604   -30700   -30831   -30989   -31174 
  -31401   -31673   -31987   -32339   -32719   -33119   -33530   -33928 
  -34282   -34573   -34791   -34915   -34928   -34829   -34616   -34300 
  -33914   -33484   -33026   -32553   -32084   -31640   -31238   -30892 
  -30614   -30421   -30345   -30395   -30545   -30765   -31034   -31322 
  -31597   -31827   -31979   -32047   -32052   -32005   -31910   -31780 
  -31631   -31480   -31329   -31187   -31084   -31035   -31028   -31063 
  -31157   -31320   -31555   -31847   -32171   -32503   -32816   -33096 
  -33336   -33521   -33628   -33630   -33508   -33248   -32845   -32316 
  -31696   -31019   -30329   -29686   -29154   -28774   -28576   -28575 
  -28757   -29099   -29594   -30217   -30929   -31692   -32456   -33167 
  -33776   -34243   -34536   -34629   -34509   -34179   -33662   -32982 
  -32174   -31283   -30374   -29514   -28755   -28145   -27726   -27524 
  -27543   -27769   -28189   -28776   -29488   -30265   -31045   -31785 
  -32448   -33005   -33423   -33685   -33784   -33715   -33491   -33140 
  -32689   -32180   -31666   -31183   -30753   -30402   -30143   -29991 
  -29977   -30107   -30355   -30695   -31095   -31511   -31899   -32214 
  -32431   -32540   -32555   -32501   -32400   -32260   -32102   -31958 
  -31866   -31846   -31902   -32028   -32217   -32456   -32728   -33005 
  -33263   -33484   -33644   -33727   -33731   -33660   -33538   -33373 
  -33150   -32884   -32621   -32373   -32119   -31842   -31555   -31296 
  -31097   -30957   -30868   -30827   -30826   -30852   -30916   -31029 
  -31181   -31347   -31502   -31624   -31697   -31732   -31743   -31732 
  -31705   -31672   -31639   -31614   -31598   -31586   -31556   -31503 
  -31446   -31402   -31387   -31420   -31506   -31625   -31729   -31770 
  -31717   -31555   -31305   -30999   -30670   -30356   -30096   -29924 
  -29861   -29921   -30104   -30382   -30718   -31092   -31502   -31939 
  -32385   -32825   -33249   -33635   -33960   -34204   -34352   -34388 
  -34303   -34107   -33830   -33506   -33163   -32824   -32503   -32205 
  -31933   -31691   -31486   -31330   -31240   -31217   -31260   -31367 
  -31526   -31721   -31936   -32154   -32348   -32493   -32586   -32637 
  -32659   -32658   -32617   -32508   -32322   -32070   -31773   -31443 
  -31096   -30754   -30431   -30154   -29968   -29904   -29954   -30091 
  -30279   -30491   -30715   -30937   -31143   -31325   -31471   -31576 
  -31648   -31683   -31665   -31588   -31472   -31325   -31140   -30922 
  -30690   -30469   -30281   -30149   -30097   -30139   -30265   -30450 
  -30662   -30876   -31089   -31301   -31492   -31653   -31795   -31932 
  -32086   -32276   -32499   -32737   -32970   -33187   -33383   -33538 
  -33635   -33679   -33687   -33678   -33674   -33684   -33700   -33710 
  -33705   -33686   -33652   -33593   -33489   -33320   -33085   -32796 
  -32481   -32167   -31865   -31577   -31308   -31068   -30866   -30717 
  -30630   -30590   -30581   -30611   -30677   -30763   -30867   -31007 
  -31194   -31417   -31656   -31886   -32082   -32231   -32333   -32401 
  -32450   -32477   -32470   -32427   -32356   -32263   -32149   -32018 
  -31871   -31716   -31562   -31407   -31253   -31104   -30965   -30852 
  -30790   -30784   -30815   -30864   -30928   -31005   -31085   -31155 
  -31208   -31240   -31253   -31258   -31280   -31338   -31424   -31519 
  -31614   -31702   -31780   -31859   -31940   -32015   -32092   -32183 
  -32288   -32393   -32487   -32553   -32574   -32546   -32461   -32306 
  -32080   -31792   -31477   -31185   -30946   -30771   -30662   -30599 
  -30566   -30566   -30601   -30670   -30753   -30823   -30871   -30909 
  -30949   -30992   -31026   -31030   -31006   -30977   -30969   -31005 
  -31096   -31244   -31461   -31746   -32063   -32377   -32660   -32883 
  -33031   -33112   -33129   -33068   -32919   -32683   -32380   -32029 
  -31657   -31282   -30923   -30619   -30404   -30288   -30274   -30345 
  -30452   -30555   -30643   -30731   -30843   -30995   -31172   -31360 
  -31562   -31779   -32002   -32227   -32451   -32652   -32812   -32928 
  -33017   -33093   -33161   -33218   -33251   -33243   -33189   -33076 
  -32889   -32630   -32324   -32011   -31737   -31530   -31397   -31323 
  -31296   -31315   -31379   -31492   -31657   -31855   -32060   -32254 
  -32418   -32543   -32632   -32686   -32697   -32650   -32533   -32354 
  -32129   -31873   -31596   -31319   -31061   -30828   -30616   -30429 
  -30279   -30177   -30131   -30142   -30205   -30313   -30454   -30609 
  -30776   -30966   -31196   -31475   -31796   -32142   -32497   -32835 
  -33126   -33348   -33482   -33528   -33496   -33399   -33247   -33034 
  -32741   -32355   -31905   -31435   -30974   -30545   -30182   -29910 
  -29731   -29658   -29705   -29872   -30141   -30481   -30864   -31282 
  -31725   -32168   -32584   -32950   -33250   -33480   -33645   -33740 
  -33759   -33697   -33553   -33337   -33067   -32761   -32429   -32087 
  -31774   -31525   -31355   -31266   -31252   -31284   -31326   -31361 
  -31390   -31412   -31429   -31447   -31468   -31496   -31543   -31611 
  -31684   -31744   -31768   -31733   -31635   -31485   -31300   -31110 
