Origin Time       2024/04/02 04:24:00
Lat.              40.133
Long.             141.712
Depth. (km)       71
Mag.              6.0
Station Code      IKRH02
Station Lat.      43.2204
Station Long.     141.6523
Station Height(m) -117
Record Time       2024/04/02 04:26:01
Sampling Freq(Hz) 100Hz
Duration Time(s)  120
Dir.              3
Scale Factor      2940(gal)/6170270
Max. Acc. (gal)   0.317
Last Correction   2024/04/02 04:25:46
Memo.             
[...]
  157480   157521   157557   157600   157654   157709   157764   157812 
  157830   157813   157798   157788   157728   157636   157560   157493 
  157466   157502   157540   157536   157509   157509   157554   157606 
  157659   157708   157724   157746   157815   157868   157832   157751 
  157737   157799   157802   157710   157660   157668   157637   157608 
  157644   157692   157681   157635   157616   157617   157607   157622 
  157685   157747   157776   157795   157794   157776   157796   157864 
  157896   157836   157740   157692   157686   157684   157672   157620 
  157507   157406   157395   157423   157449   157518   157589   157584 
  157555   157583   157636   157641   157603   157577   157577   157585 
  157589   157585   157549   157472   157424   157418   157385   157340 
  157336   157344   157356   157402   157477   157540   157595   157684 
  157768   157786   157770   157757   157722   157651   157592   157591 
  157608   157586   157565   157578   157597   157612   157636   157630 
  157571   157528   157543   157582   157628   157683   157733   157758 
  157758   157742   157735   157748   157757   157747   157720   157675 
  157627   157597   157587   157575   157551   157542   157569   157611 
  157655   157700   157746   157798   157838   157833   157806   157787 
  157736   157656   157623   157635   157621   157577   157564   157599 
  157644   157665   157650   157608   157579   157596   157647   157686 
  157683   157645   157612   157606   157608   157605   157601   157587 
  157576   157602   157648   157666   157649   157620   157589   157544 
  157497   157494   157531   157563   157576   157584   157584   157568 
  157577   157644   157702   157679   157615   157601   157642   157674 
  157690   157722   157756   157761   157740   157715   157690   157652 
  157604   157548   157487   157435   157410   157413   157444   157500 
  157561   157599   157607   157628   157685   157750   157811   157870 
  157890   157856   157790   157707   157642   157634   157621   157518 
  157391   157352   157392   157437   157472   157511   157518   157477 
  157472   157559   157671   157728   157740   157764   157803   157803 
  157762   157711   157651   157601   157587   157595   157586   157561 
  157561   157584   157585   157531   157440   157389   157415   157460 
  157501   157581   157673   157722   157739   157740   157723   157698 
  157660   157596   157518   157440   157375   157365   157411   157462 
  157508   157576   157647   157674   157634   157584   157596   157661 
  157716   157741   157729   157681   157632   157611   157610   157612 
  157615   157599   157547   157520   157583   157678   157724   157726 
  157724   157729   157745   157799   157877   157889   157833   157810 
  157838   157834   157770   157700   157637   157553   157513   157587 
  157711   157768   157735   157698   157704   157723   157761   157827 
  157850   157794   157753   157782   157811   157769   157663   157556 
  157498   157486   157519   157586   157639   157661   157688   157709 
  157704   157681   157627   157561   157564   157593   157538   157467 
  157482   157551   157591   157553   157481   157453   157474   157517 
  157588   157651   157639   157577   157541   157538   157532   157505 
  157482   157518   157599   157640   157635   157628   157613   157607 
  157629   157631   157599   157550   157489   157477   157556   157674 
  157757   157766   157722   157671   157629   157603   157610   157618 
  157600   157587   157612   157667   157713   157731   157746   157756 
  157742   157732   157773   157834   157847   157839   157873   157901 
  157847   157741   157647   157579   157542   157551   157597   157631 
  157624   157622   157685   157761   157770   157738   157710   157680 
  157645   157629   157661   157713   157724   157698   157681   157666 
  157638   157634   157657   157647   157577   157506   157492   157510 
  157537   157573   157598   157619   157646   157651   157637   157639 
  157665   157683   157681   157670   157639   157599   157579   157568 
  157543   157501   157453   157443   157482   157500   157488   157514 
  157547   157524   157490   157506   157573   157650   157688   157698 
  157712   157702   157648   157572   157492   157443   157466   157547 
  157632   157693   157729   157738   157738   157742   157703   157620 
  157552   157505   157449   157395   157377   157418   157492   157526 
  157504   157494   157504   157514   157560   157618   157643   157669 
  157717   157777   157820   157790   157707   157635   157614   157638 
  157646   157601   157539   157498   157481   157490   157517   157535 
  157522   157490   157466   157462   157486   157564   157674   157739 
  157737   157718   157738   157794   157837   157828   157745   157614 
  157529   157527   157555   157584   157606   157614   157621   157633 
  157657   157681   157667   157652   157704   157758   157755   157743 
  157756   157816   157893   157896   157848   157809   157740   157648 
  157616   157653   157679   157643   157585   157574   157601   157604 
  157586   157610   157643   157598   157519   157510   157569   157656 
  157735   157775   157781   157747   157662   157577   157535   157523 
  157532   157534   157505   157498   157560   157616   157610   157596 
  157610   157621   157600   157593   157657   157741   157780   157801 
  157829   157828   157756   157663   157633   157635   157615   157595 
  157587   157564   157531   157524   157547   157548   157506   157476 
  157485   157505   157554   157647   157721   157748   157761   157778 
  157806   157836   157824   157746   157632   157532   157502   157554 
  157613   157635   157633   157610   157596   157625   157671   157696 
  157695   157675   157649   157632   157641   157664   157653   157598 
  157551   157521   157497   157521   157595   157647   157659   157663 
  157674   157696   157709   157669   157596   157548   157543   157578 
  157626   157670   157716   157748   157748   157730   157710   157686 
  157640   157567   157515   157526   157603   157709   157773   157771 
  157743   157720   157708   157723   157768   157814   157816   157769 
  157723   157711   157706   157699   157693   157658   157609   157588 
  157568   157533   157539   157582   157599   157572   157528   157531 
  157616   157724   157792   157833   157860   157866   157857   157838 
  157837   157840   157763   157624   157537   157523   157497   157427 
  157388   157416   157479   157555   157646   157745   157819   157840 
  157816   157766   157720   157700   157671   157631   157630   157658 
  157654   157631   157628   157624   157600   157574   157557   157547 
  157542   157545   157548   157531   157531   157599   157683   157709 
  157708   157719   157707   157675   157664   157650   157605   157582 
  157600   157611   157603   157606   157630   157656   157659   157654 
  157652   157622   157609   157677   157770   157824   157854   157866 
  157836   157770   157719   157694   157649   157581   157533   157512 
  157500   157532   157613   157676   157718   157779   157829   157837 
  157812   157764   157711   157668   157604   157494   157385   157340 
  157332   157313   157316   157375   157443   157469   157485   157540 
  157600   157588   157531   157513   157509   157452   157379   157335 
  157317   157329   157373   157424   157455   157476   157515   157551 
  157567   157573   157567   157559   157563   157555   157535   157519 
  157494   157460   157457   157518   157600   157638   157652   157669 
  157660   157638   157641   157662   157672   157685   157725   157754 
  157729   157665   157600   157556   157545   157571   157622   157675 
  157714   157734   157730   157718   157718   157711   157666   157596 
  157550   157555   157572   157574   157603   157664   157693   157681 
  157672   157686   157733   157781   157777   157748   157722   157675 
  157606   157528   157439   157359   157322   157357   157424   157445 
  157413   157384   157409   157483   157557   157629   157704   157741 
  157742   157727   157722   157743   157756   157738   157712   157670 
  157591   157520   157529   157575   157569   157516   157484   157477 
  157455   157448   157491   157550   157579   157572   157569   157606 
  157654   157685   157722   157774   157803   157784   157764   157783 
  157788   157749   157696   157645   157600   157577   157583   157618 
  157655   157655   157628   157618   157630   157660   157717   157760 
  157759   157766   157812   157862   157876   157861   157852   157859 
  157848   157809   157757   157690   157628   157622   157673   157732 
  157774   157776   157718   157640   157606   157636   157672   157665 
  157654   157651   157615   157585   157636   157734   157772   157725 
  157658   157613   157560   157507   157522   157575   157568   157522 
  157518   157556   157589   157616   157647   157662   157673   157697 
  157696   157652   157622   157633   157626   157580   157563   157592 
  157596   157542   157508   157549   157606   157629   157665   157721 
  157749   157736   157714   157696   157653   157591   157565   157573 
  157563   157535   157517   157490   157457   157459   157479   157492 
  157533   157602   157641   157627   157601   157601   157604   157573 
  157539   157527   157500   157432   157371   157369   157401   157435 
  157470   157501   157506   157465   157406   157399   157461   157548 
  157604   157587   157529   157499   157485   157455   157439   157426 
  157358   157268   157242   157294   157357   157375   157394   157462 
  157532   157570   157607   157660   157699   157693   157669   157676 
  157693   157671   157641   157664   157715   157738   157752   157777 
  157762   157701   157673   157704   157733   157709   157660   157653 
  157690   157722   157741   157773   157810   157827   157840   157892 
  157978   158018   157995   157959   157908   157850   157863   157948 
  157981   157925   157874   157856   157810   157752   157757   157796 
  157757   157631   157536   157534   157562   157575   157618   157696 
  157743   157726   157671   157633   157655   157707   157739   157768 
  157806   157817   157812   157824   157823   157784   157726   157661 
  157613   157611   157624   157594   157526   157460   157410   157399 
  157456   157553   157618   157639   157668   157745   157858   157941 
  157962   157936   157859   157751   157679   157655   157642   157598 
  157522   157460   157420   157385   157382   157443   157545   157644 
  157722   157771   157785   157785   157789   157790   157777   157778 
  157819   157860   157879   157911   157950   157949   157902   157830 
  157754   157692   157664   157661   157631   157568   157537   157539 
  157532   157532   157575   157663   157773   157865   157909   157918 
  157919   157904   157876   157840   157757   157652   157603   157600 
  157611   157642   157666   157655   157615   157557   157518   157510 
  157521   157574   157665   157718   157696   157651   157623   157593 
  157553   157520   157489   157432   157385   157419   157521   157631 
  157719   157744   157677   157567   157468   157398   157370   157378 
  157390   157391   157404   157436   157484   157557   157649   157691 
  157626   157529   157506   157524   157535   157557   157565   157548 
  157560   157613   157667   157681   157657   157635   157624   157601 
  157583   157577   157539   157486   157485   157514   157506   157463 
  157426   157417   157443   157481   157465   157372   157272   157247 
  157298   157354   157387   157433   157491   157555   157642   157747 
  157842   157899   157882   157782   157655   157577   157565   157569 
  157558   157542   157515   157471   157448   157478   157534   157577 
  157604   157635   157650   157642   157653   157698   157751   157801 
  157835   157844   157844   157861   157927   158017   158057   158046 
  158027   157989   157920   157836   157752   157701   157686   157671 
  157638   157613   157603   157581   157551   157541   157552   157576 
  157622   157682   157724   157750   157780   157816   157855   157874 
  157849   157813   157799   157817   157859   157905   157923   157892 
  157837   157797   157801   157848   157872   157862   157881   157899 
  157843   157758   157710   157682   157635   157574   157514   157466 
  157468   157538   157621   157677   157722   157755   157772   157780 
  157779   157786   157811   157832   157840   157828   157808   157800 
  157772   157693   157582   157480   157423   157423   157456   157469 
  157435   157407   157453   157544   157595   157602   157631   157684 
  157730   157793   157869   157872   157773   157643   157532   157440 
  157387   157400   157455   157516   157561   157572   157570   157602 
  157649   157645   157587   157532   157513   157506   157495   157490 
  157492   157469   157429   157432   157484   157541   157587   157627 
  157674   157728   157773   157790   157774   157765   157780   157798 
  157825   157859   157882   157906   157934   157971   158010   158012 
  157962   157875   157768   157672   157605   157565   157560   157586 
  157614   157644   157683   157717   157769   157851   157901   157911 
  157928   157930   157888   157813   157723   157623   157512   157420 
  157364   157314   157250   157186   157138   157119   157119   157099 
  157056   157049   157111   157215   157333   157440   157513   157555 
  157581   157601   157623   157637   157623   157568   157489   157416 
  157342   157270   157222   157179   157121   157052   156989   156975 
  157024   157087   157134   157180   157240   157342   157486   157630 
  157750   157849   157934   157991   158012   158015   158013   158008 
  157994   157971   157953   157924   157839   157713   157619   157594 
  157602   157616   157623   157584   157504   157445   157426   157399 
  157345   157325   157390   157485   157551   157606   157669   157723 
  157764   157776   157730   157651   157607   157630   157696   157766 
  157797   157767   157709   157690   157720   157744   157731   157701 
  157694   157721   157742   157732   157707   157685   157669   157672 
  157695   157730   157758   157752   157737   157769   157806   157782 
  157755   157784   157828   157841   157814   157779   157785   157809 
  157796   157781   157786   157766   157719   157686   157667   157653 
  157657   157693   157754   157812   157848   157864   157870   157882 
  157911   157941   157933   157878   157798   157715   157657   157628 
  157612   157595   157544   157486   157487   157532   157591   157676 
  157773   157875   157958   157978   157952   157921   157872   157799 
  157743   157727   157729   157727   157736   157757   157769   157766 
  157708   157587   157484   157460   157495   157540   157548   157518 
  157489   157505   157571   157626   157626   157605   157605   157635 
  157679   157718   157760   157785   157761   157743   157766   157761 
  157719   157686   157643   157591   157587   157633   157634   157529 
  157391   157337   157370   157420   157464   157509   157531   157507 
  157489   157543   157628   157679   157694   157685   157662   157657 
  157685   157710   157697   157656   157611   157562   157527   157547 
  157610   157662   157697   157728   157737   157735   157764   157836 
  157911   157937   157914   157857   157777   157703   157648   157615 
  157624   157651   157653   157652   157672   157691   157710   157768 
  157852   157912   157923   157890   157842   157780   157676   157552 
  157464   157405   157338   157308   157378   157502   157596   157662 
  157711   157708   157661   157623   157598   157560   157499   157450 
  157445   157437   157401   157398   157449   157515   157570   157599 
  157608   157612   157598   157582   157591   157584   157532   157473 
  157437   157407   157371   157348   157341   157347   157385   157446 
  157498   157526   157527   157511   157506   157536   157587   157629 
  157646   157647   157639   157608   157558   157531   157528   157518 
  157521   157569   157633   157661   157646   157613   157587   157581 
  157597   157630   157671   157690   157686   157694   157726   157754 
  157739   157689   157642   157584   157509   157476   157487   157480 
  157451   157423   157400   157420   157485   157559   157635   157698 
  157747   157805   157849   157863   157871   157867   157831   157765 
  157686   157603   157541   157543   157575   157561   157526   157536 
  157591   157672   157768   157849   157888   157899   157923   157983 
  158067   158131   158158   158162   158130   158048   157950   157874 
  157824   157796   157805   157836   157836   157797   157762   157732 
  157689   157657   157676   157741   157812   157846   157866   157922 
  158004   158082   158146   158172   158166   158184   158219   158207 
  158140   158051   157957   157865   157799   157774   157749   157695 
  157643   157594   157527   157454   157402   157391   157411   157427 
  157433   157433   157434   157462   157511   157548   157577   157613 
  157650   157676   157677   157665   157654   157624   157569   157530 
  157509   157484   157464   157450   157446   157461   157469   157461 
  157457   157466   157486   157501   157496   157482   157469   157469 
  157497   157530   157553   157582   157606   157617   157630   157641 
  157632   157585   157528   157509   157525   157568   157610   157612 
  157587   157554   157515   157493   157498   157508   157519   157557 
  157628   157708   157755   157757   157744   157729   157713   157699 
  157678   157648   157616   157585   157573   157587   157614   157638 
  157659   157678   157658   157602   157576   157586   157611   157651 
  157662   157614   157546   157495   157469   157451   157426   157424 
  157475   157544   157599   157651   157680   157658   157607   157560 
  157516   157480   157455   157428   157402   157383   157366   157349 
  157353   157405   157497   157599   157696   157784   157864   157940 
  158011   158063   158065   158030   157986   157932   157864   157800 
  157741   157658   157552   157473   157426   157392   157385   157438 
  157538   157634   157704   157769   157841   157903   157938   157957 
  157971   157961   157928   157906   157921   157950   157974   157990 
  157985   157947   157897   157849   157796   157725   157636   157540 
  157466   157422   157405   157417   157450   157483   157514   157552 
  157582   157588   157577   157565   157569   157584   157603   157630 
  157666   157701   157738   157788   157834   157840   157806   157757 
  157698   157634   157587   157562   157545   157552   157592   157622 
  157627   157624   157628   157636   157644   157652   157660   157668 
  157669   157662   157644   157601   157541   157489   157441   157401 
  157388   157387   157376   157365   157358   157353   157372   157426 
  157485   157528   157579   157656   157728   157774   157804   157819 
  157809   157781   157756   157751   157758   157750   157729   157738 
  157782   157827   157874   157929   157957   157918   157823   157739 
  157695   157654   157612   157591   157584   157586   157595   157612 
  157637   157655   157672   157688   157694   157699   157700   157700 
  157708   157710   157686   157628   157547   157478   157447   157444 
  157442   157425   157406   157403   157414   157439   157486   157535 
