Origin Time       2024/04/02 04:24:00
Lat.              40.133
Long.             141.712
Depth. (km)       71
Mag.              6.0
Station Code      IKRH01
Station Lat.      43.4087
Station Long.     141.5836
Station Height(m) -120
Record Time       2024/04/02 04:26:03
Sampling Freq(Hz) 100Hz
Duration Time(s)  120
Dir.              1
Scale Factor      3923(gal)/8224838
Max. Acc. (gal)   0.301
Last Correction   2024/04/02 04:26:03
Memo.             
[...]
   -8648    -8671    -8695    -8730    -8760    -8758    -8746    -8742 
   -8731    -8714    -8703    -8692    -8684    -8685    -8692    -8700 
   -8708    -8710    -8716    -8722    -8704    -8679    -8676    -8696 
   -8723    -8746    -8760    -8773    -8792    -8815    -8835    -8851 
   -8851    -8837    -8815    -8789    -8769    -8758    -8749    -8735 
   -8731    -8730    -8726    -8723    -8716    -8700    -8681    -8668 
   -8669    -8684    -8706    -8739    -8783    -8826    -8851    -8841 
   -8802    -8756    -8716    -8685    -8664    -8662    -8677    -8687 
   -8683    -8677    -8676    -8679    -8679    -8672    -8661    -8648 
   -8644    -8661    -8689    -8712    -8731    -8738    -8729    -8716 
   -8721    -8741    -8756    -8752    -8745    -8745    -8738    -8718 
   -8691    -8664    -8644    -8637    -8646    -8668    -8696    -8721 
   -8729    -8722    -8706    -8691    -8694    -8715    -8733    -8735 
   -8729    -8723    -8729    -8743    -8779    -8815    -8826    -8815 
   -8800    -8776    -8746    -8711    -8679    -8660    -8661    -8676 
   -8696    -8707    -8706    -8714    -8739    -8757    -8754    -8749 
   -8754    -8761    -8776    -8804    -8823    -8816    -8806    -8814 
   -8841    -8861    -8860    -8842    -8812    -8770    -8735    -8718 
   -8702    -8680    -8673    -8672    -8671    -8671    -8669    -8669 
   -8675    -8672    -8672    -8691    -8712    -8731    -8757    -8769 
   -8753    -8726    -8702    -8673    -8649    -8644    -8652    -8669 
   -8689    -8702    -8704    -8700    -8688    -8668    -8653    -8652 
   -8661    -8675    -8688    -8700    -8712    -8723    -8731    -8730 
   -8722    -8722    -8727    -8721    -8703    -8694    -8689    -8680 
   -8664    -8660    -8671    -8679    -8689    -8708    -8725    -8733 
   -8734    -8737    -8748    -8757    -8758    -8757    -8750    -8754 
   -8781    -8808    -8804    -8775    -8739    -8710    -8680    -8661 
   -8660    -8654    -8649    -8661    -8672    -8664    -8656    -8654 
   -8658    -8688    -8738    -8779    -8815    -8853    -8870    -8857 
   -8827    -8799    -8772    -8748    -8734    -8738    -8757    -8775 
   -8772    -8754    -8742    -8737    -8741    -8745    -8729    -8700 
   -8677    -8658    -8654    -8667    -8676    -8665    -8641    -8634 
   -8637    -8640    -8654    -8679    -8687    -8677    -8672    -8677 
   -8685    -8691    -8694    -8707    -8734    -8753    -8750    -8738 
   -8721    -8708    -8703    -8694    -8685    -8688    -8699    -8707 
   -8706    -8700    -8694    -8692    -8702    -8729    -8761    -8780 
   -8780    -8757    -8723    -8696    -8675    -8650    -8641    -8645 
   -8653    -8667    -8676    -8668    -8648    -8634    -8644    -8672 
   -8706    -8726    -8730    -8737    -8753    -8770    -8781    -8777 
   -8761    -8734    -8702    -8667    -8648    -8648    -8658    -8664 
   -8664    -8672    -8696    -8725    -8743    -8750    -8760    -8785 
   -8815    -8826    -8816    -8797    -8776    -8749    -8722    -8716 
   -8739    -8768    -8776    -8761    -8745    -8731    -8719    -8704 
   -8689    -8687    -8688    -8675    -8661    -8664    -8672    -8672 
   -8662    -8642    -8617    -8607    -8626    -8665    -8699    -8712 
   -8707    -8696    -8698    -8722    -8756    -8785    -8811    -8822 
   -8820    -8818    -8811    -8787    -8754    -8727    -8698    -8669 
   -8667    -8685    -8698    -8704    -8716    -8734    -8750    -8758 
   -8761    -8768    -8785    -8799    -8799    -8780    -8750    -8729 
   -8723    -8715    -8696    -8676    -8662    -8657    -8662    -8679 
   -8688    -8672    -8642    -8625    -8629    -8653    -8688    -8730 
   -8770    -8795    -8791    -8758    -8719    -8687    -8668    -8669 
   -8685    -8708    -8742    -8765    -8758    -8729    -8695    -8671 
   -8675    -8699    -8731    -8769    -8796    -8800    -8792    -8780 
   -8762    -8743    -8734    -8733    -8733    -8735    -8741    -8750 
   -8760    -8764    -8765    -8770    -8773    -8754    -8723    -8703 
   -8688    -8672    -8667    -8669    -8671    -8676    -8676    -8668 
   -8669    -8700    -8742    -8775    -8793    -8792    -8780    -8777 
   -8785    -8799    -8829    -8854    -8858    -8853    -8834    -8796 
   -8768    -8758    -8753    -8749    -8749    -8748    -8743    -8749 
   -8764    -8768    -8758    -8749    -8737    -8719    -8706    -8698 
   -8680    -8660    -8658    -8673    -8691    -8710    -8725    -8722 
   -8707    -8704    -8719    -8737    -8750    -8756    -8754    -8749 
   -8735    -8715    -8703    -8707    -8721    -8738    -8746    -8735 
   -8723    -8716    -8704    -8691    -8694    -8700    -8692    -8668 
   -8637    -8619    -8617    -8619    -8631    -8660    -8700    -8731 
   -8741    -8733    -8721    -8719    -8731    -8734    -8729    -8734 
   -8750    -8766    -8779    -8780    -8772    -8762    -8753    -8739 
   -8729    -8721    -8706    -8695    -8695    -8712    -8746    -8770 
   -8773    -8765    -8752    -8731    -8710    -8681    -8669    -8688 
   -8715    -8725    -8714    -8680    -8642    -8626    -8634    -8654 
   -8667    -8658    -8638    -8627    -8637    -8657    -8669    -8667 
   -8656    -8653    -8661    -8672    -8684    -8707    -8738    -8762 
   -8773    -8772    -8766    -8752    -8729    -8715    -8714    -8712 
   -8700    -8679    -8654    -8633    -8615    -8603    -8614    -8641 
   -8665    -8680    -8692    -8706    -8727    -8757    -8791    -8815 
   -8819    -8803    -8779    -8765    -8765    -8772    -8791    -8810 
   -8811    -8797    -8787    -8777    -8768    -8766    -8773    -8772 
   -8761    -8748    -8738    -8739    -8738    -8722    -8695    -8679 
   -8673    -8664    -8664    -8684    -8706    -8711    -8702    -8685 
   -8672    -8671    -8673    -8677    -8691    -8708    -8719    -8726 
   -8722    -8714    -8716    -8719    -8712    -8703    -8689    -8664 
   -8638    -8644    -8689    -8750    -8791    -8803    -8797    -8791 
   -8796    -8803    -8796    -8776    -8746    -8725    -8727    -8739 
   -8742    -8738    -8734    -8737    -8741    -8738    -8729    -8718 
   -8700    -8679    -8664    -8640    -8617    -8613    -8613    -8608 
   -8608    -8610    -8617    -8637    -8654    -8661    -8677    -8704 
   -8719    -8716    -8715    -8699    -8661    -8622    -8587    -8565 
   -8571    -8588    -8592    -8594    -8614    -8642    -8658    -8668 
   -8671    -8671    -8684    -8710    -8738    -8766    -8792    -8804 
   -8803    -8803    -8796    -8788    -8791    -8785    -8772    -8754 
   -8735    -8733    -8743    -8745    -8741    -8749    -8753    -8731 
   -8704    -8694    -8683    -8667    -8661    -8648    -8629    -8637 
   -8683    -8748    -8808    -8846    -8854    -8849    -8842    -8837 
   -8823    -8791    -8752    -8722    -8692    -8661    -8635    -8621 
   -8626    -8640    -8646    -8649    -8654    -8660    -8664    -8661 
   -8650    -8642    -8653    -8683    -8712    -8745    -8783    -8810 
   -8818    -8810    -8797    -8793    -8791    -8779    -8773    -8775 
   -8776    -8784    -8785    -8769    -8731    -8671    -8603    -8561 
   -8550    -8552    -8552    -8563    -8607    -8672    -8735    -8784 
   -8811    -8824    -8830    -8824    -8814    -8804    -8785    -8768 
   -8760    -8743    -8715    -8685    -8665    -8657    -8652    -8631 
   -8595    -8553    -8534    -8556    -8603    -8649    -8687    -8714 
   -8731    -8765    -8822    -8868    -8880    -8857    -8818    -8784 
   -8764    -8758    -8780    -8824    -8868    -8884    -8861    -8806 
   -8739    -8689    -8671    -8676    -8691    -8699    -8694    -8685 
   -8694    -8721    -8756    -8783    -8797    -8806    -8815    -8837 
   -8869    -8891    -8897    -8900    -8877    -8815    -8739    -8688 
   -8675    -8681    -8691    -8696    -8700    -8711    -8731    -8749 
   -8748    -8741    -8739    -8743    -8762    -8799    -8834    -8847 
   -8831    -8796    -8756    -8734    -8733    -8737    -8739    -8760 
   -8799    -8827    -8823    -8806    -8797    -8815    -8854    -8893 
   -8912    -8911    -8893    -8861    -8822    -8783    -8756    -8745 
   -8743    -8760    -8803    -8868    -8945    -9019    -9069    -9078 
   -9050    -8984    -8883    -8769    -8664    -8564    -8453    -8351 
   -8297    -8287    -8303    -8348    -8419    -8505    -8586    -8653 
   -8707    -8753    -8797    -8837    -8849    -8822    -8773    -8716 
   -8642    -8553    -8475    -8425    -8392    -8355    -8316    -8314 
   -8360    -8441    -8546    -8662    -8766    -8849    -8900    -8922 
   -8938    -8953    -8946    -8922    -8896    -8881    -8872    -8850 
   -8816    -8792    -8781    -8762    -8726    -8695    -8699    -8735 
   -8779    -8793    -8756    -8664    -8542    -8428    -8370    -8390 
   -8442    -8503    -8573    -8631    -8664    -8692    -8730    -8768 
   -8797    -8814    -8814    -8793    -8764    -8737    -8726    -8718 
   -8692    -8661    -8640    -8621    -8604    -8602    -8610    -8622 
   -8644    -8684    -8741    -8803    -8851    -8870    -8847    -8793 
   -8731    -8656    -8572    -8511    -8480    -8478    -8513    -8581 
   -8681    -8800    -8904    -8962    -8977    -8951    -8893    -8823 
   -8737    -8644    -8569    -8511    -8449    -8391    -8367    -8394 
   -8444    -8499    -8584    -8715    -8872    -9028    -9154    -9221 
   -9239    -9212    -9135    -9007    -8851    -8708    -8599    -8529 
   -8488    -8468    -8468    -8495    -8545    -8606    -8673    -8735 
   -8789    -8854    -8922    -8964    -8965    -8932    -8889    -8846 
   -8807    -8762    -8700    -8621    -8546    -8494    -8460    -8446 
   -8457    -8491    -8541    -8595    -8650    -8708    -8758    -8788 
   -8795    -8783    -8752    -8685    -8581    -8473    -8399    -8384 
   -8429    -8514    -8604    -8675    -8711    -8707    -8685    -8687 
   -8722    -8777    -8841    -8893    -8920    -8924    -8896    -8819 
   -8718    -8637    -8587    -8554    -8506    -8426    -8353    -8326 
   -8343    -8407    -8502    -8588    -8656    -8727    -8814    -8911 
   -9023    -9139    -9224    -9261    -9247    -9185    -9090    -8988 
   -8891    -8795    -8703    -8613    -8518    -8425    -8360    -8349 
   -8383    -8448    -8532    -8630    -8745    -8856    -8918    -8907 
   -8849    -8799    -8791    -8834    -8926    -9028    -9094    -9101 
   -9042    -8919    -8753    -8581    -8459    -8411    -8426    -8486 
   -8556    -8613    -8650    -8668    -8672    -8679    -8692    -8694 
   -8684    -8680    -8704    -8769    -8864    -8950    -8986    -8938 
   -8796    -8613    -8476    -8437    -8483    -8571    -8656    -8719 
   -8752    -8754    -8742    -8727    -8712    -8685    -8646    -8629 
   -8658    -8731    -8824    -8903    -8938    -8928    -8899    -8880 
   -8878    -8878    -8866    -8838    -8788    -8730    -8683    -8667 
   -8715    -8835    -8981    -9096    -9161    -9161    -9092    -8989 
   -8887    -8789    -8694    -8602    -8525    -8469    -8437    -8428 
   -8426    -8429    -8440    -8465    -8513    -8587    -8684    -8783 
   -8874    -8955    -9000    -8977    -8877    -8721    -8552    -8426 
   -8378    -8399    -8448    -8490    -8522    -8536    -8523    -8494 
   -8449    -8391    -8368    -8428    -8560    -8727    -8876    -8953 
   -8957    -8920    -8880    -8856    -8837    -8806    -8756    -8683 
   -8610    -8565    -8548    -8554    -8571    -8581    -8602    -8622 
   -8627    -8641    -8680    -8729    -8764    -8788    -8814    -8858 
   -8945    -9059    -9154    -9194    -9178    -9111    -9000    -8877 
   -8793    -8761    -8772    -8811    -8846    -8851    -8847    -8834 
   -8791    -8723    -8649    -8572    -8523    -8532    -8594    -8691 
   -8789    -8853    -8877    -8877    -8856    -8823    -8802    -8818 
   -8889    -8977    -9015    -8976    -8878    -8757    -8641    -8534 
   -8441    -8370    -8321    -8290    -8303    -8368    -8451    -8523 
   -8580    -8626    -8677    -8752    -8843    -8924    -8964    -8950 
   -8905    -8854    -8815    -8808    -8837    -8884    -8937    -8959 
   -8915    -8802    -8653    -8526    -8463    -8472    -8533    -8615 
   -8687    -8742    -8796    -8843    -8854    -8803    -8714    -8633 
   -8584    -8556    -8545    -8550    -8571    -8602    -8629    -8637 
   -8638    -8658    -8702    -8745    -8775    -8793    -8793    -8772 
   -8735    -8684    -8623    -8571    -8530    -8488    -8449    -8452 
   -8532    -8660    -8787    -8881    -8939    -8964    -8965    -8950 
   -8932    -8920    -8911    -8910    -8915    -8897    -8851    -8789 
   -8719    -8637    -8545    -8449    -8353    -8260    -8183    -8154 
   -8190    -8274    -8368    -8449    -8502    -8542    -8614    -8712 
   -8815    -8899    -8941    -8947    -8946    -8942    -8928    -8910 
   -8881    -8841    -8796    -8768    -8749    -8725    -8680    -8611 
   -8545    -8509    -8492    -8476    -8465    -8465    -8486    -8533 
   -8596    -8662    -8741    -8845    -8965    -9072    -9139    -9151 
   -9105    -9023    -8919    -8808    -8702    -8622    -8596    -8608 
   -8623    -8633    -8637    -8619    -8576    -8522    -8476    -8445 
   -8434    -8463    -8550    -8688    -8843    -8976    -9065    -9113 
   -9139    -9157    -9165    -9159    -9131    -9072    -8995    -8928 
   -8887    -8865    -8846    -8833    -8819    -8789    -8718    -8587 
   -8419    -8262    -8145    -8087    -8093    -8147    -8235    -8364 
   -8530    -8712    -8878    -8992    -9043    -9063    -9066    -9047 
   -9008    -8961    -8916    -8877    -8838    -8780    -8691    -8602 
   -8542    -8519    -8532    -8550    -8533    -8463    -8380    -8328 
   -8320    -8348    -8397    -8449    -8490    -8532    -8608    -8726 
   -8865    -8996    -9084    -9123    -9132    -9121    -9100    -9074 
   -9055    -9053    -9051    -9022    -8946    -8835    -8715    -8607 
   -8517    -8453    -8417    -8399    -8401    -8413    -8422    -8440 
   -8486    -8560    -8644    -8734    -8811    -8843    -8829    -8783 
   -8726    -8679    -8652    -8661    -8714    -8808    -8919    -8997 
   -9023    -9004    -8961    -8914    -8876    -8853    -8834    -8791 
   -8712    -8596    -8464    -8364    -8322    -8336    -8401    -8500 
   -8608    -8699    -8773    -8854    -8942    -9011    -9045    -9032 
   -8976    -8895    -8830    -8803    -8799    -8800    -8789    -8750 
   -8687    -8608    -8533    -8467    -8418    -8410    -8445    -8479 
   -8490    -8487    -8479    -8490    -8548    -8641    -8748    -8849 
   -8930    -8984    -9023    -9049    -9045    -9020    -8995    -8986 
   -9000    -9019    -9011    -8959    -8868    -8746    -8614    -8496 
   -8430    -8436    -8479    -8517    -8549    -8577    -8598    -8627 
   -8683    -8753    -8814    -8843    -8831    -8799    -8776    -8772 
   -8770    -8750    -8721    -8698    -8675    -8654    -8648    -8646 
   -8654    -8680    -8702    -8695    -8664    -8630    -8615    -8614 
   -8615    -8617    -8610    -8592    -8579    -8586    -8629    -8711 
   -8819    -8928    -9026    -9096    -9134    -9146    -9134    -9094 
   -9032    -8951    -8872    -8815    -8779    -8766    -8764    -8743 
   -8708    -8684    -8691    -8733    -8787    -8822    -8833    -8829 
   -8826    -8827    -8838    -8862    -8897    -8928    -8937    -8910 
   -8865    -8820    -8776    -8738    -8706    -8665    -8637    -8634 
   -8646    -8665    -8695    -8726    -8741    -8725    -8679    -8606 
   -8521    -8464    -8460    -8503    -8581    -8676    -8764    -8811 
   -8800    -8749    -8698    -8676    -8692    -8712    -8707    -8662 
   -8579    -8479    -8395    -8348    -8343    -8376    -8438    -8521 
   -8614    -8704    -8792    -8893    -9007    -9121    -9208    -9251 
   -9255    -9217    -9124    -8988    -8838    -8700    -8600    -8534 
   -8482    -8445    -8441    -8463    -8484    -8483    -8460    -8444 
   -8452    -8480    -8525    -8595    -8683    -8757    -8793    -8780 
   -8718    -8626    -8523    -8432    -8370    -8334    -8324    -8349 
   -8411    -8488    -8565    -8629    -8671    -8687    -8691    -8689 
   -8685    -8683    -8680    -8680    -8704    -8746    -8785    -8819 
   -8846    -8866    -8891    -8919    -8942    -8958    -8966    -8961 
   -8931    -8877    -8819    -8773    -8743    -8726    -8714    -8702 
   -8692    -8691    -8703    -8729    -8760    -8781    -8785    -8769 
   -8754    -8745    -8727    -8712    -8714    -8716    -8708    -8685 
   -8654    -8630    -8619    -8608    -8591    -8565    -8519    -8449 
   -8378    -8341    -8352    -8405    -8509    -8642    -8758    -8837 
   -8881    -8901    -8914    -8918    -8904    -8874    -8850    -8849 
   -8865    -8878    -8881    -8881    -8884    -8883    -8873    -8862 
   -8853    -8820    -8757    -8681    -8600    -8532    -8502    -8517 
   -8556    -8604    -8662    -8726    -8779    -8812    -8837    -8856 
   -8847    -8804    -8750    -8695    -8638    -8603    -8599    -8617 
   -8650    -8687    -8695    -8675    -8635    -8595    -8571    -8552 
   -8527    -8505    -8498    -8505    -8527    -8567    -8602    -8629 
   -8684    -8769    -8845    -8870    -8831    -8749    -8662    -8596 
   -8549    -8522    -8530    -8586    -8665    -8721    -8734    -8714 
   -8681    -8667    -8667    -8650    -8608    -8554    -8510    -8480 
   -8460    -8452    -8457    -8491    -8569    -8687    -8824    -8974 
   -9127    -9258    -9336    -9337    -9266    -9139    -9000    -8891 
   -8820    -8777    -8742    -8694    -8631    -8561    -8498    -8468 
   -8494    -8556    -8619    -8673    -8716    -8749    -8784    -8833 
   -8881    -8918    -8949    -8978    -8989    -8978    -8951    -8900 
   -8827    -8750    -8683    -8652    -8660    -8691    -8730    -8753 
   -8748    -8719    -8687    -8662    -8662    -8696    -8753    -8819 
   -8889    -8945    -8972    -8973    -8968    -8969    -8977    -8976 
   -8958    -8934    -8919    -8928    -8958    -8964    -8916    -8834 
   -8742    -8673    -8653    -8675    -8719    -8773    -8816    -8845 
   -8860    -8861    -8850    -8843    -8849    -8870    -8893    -8887 
   -8845    -8785    -8726    -8683    -8665    -8668    -8687    -8712 
   -8731    -8738    -8729    -8700    -8667    -8650    -8652    -8652 
   -8652    -8662    -8673    -8673    -8672    -8671    -8673    -8675 
   -8677    -8692    -8715    -8729    -8715    -8672    -8615    -8556 
   -8500    -8453    -8426    -8418    -8433    -8468    -8507    -8541 
   -8575    -8614    -8660    -8704    -8742    -8780    -8816    -8839 
   -8843    -8835    -8822    -8797    -8768    -8739    -8711    -8685 
   -8662    -8637    -8602    -8549    -8491    -8455    -8433    -8417 
   -8414    -8433    -8472    -8521    -8573    -8627    -8667    -8681 
   -8683    -8687    -8695    -8703    -8699    -8683    -8654    -8621 
   -8602    -8611    -8652    -8722    -8803    -8860    -8876    -8857 
   -8810    -8752    -8703    -8668    -8638    -8614    -8599    -8600 
   -8615    -8644    -8671    -8691    -8716    -8752    -8791    -8822 
   -8834    -8822    -8797    -8766    -8722    -8665    -8614    -8572 
   -8545    -8541    -8553    -8573    -8598    -8604    -8595    -8588 
