Origin Time       2024/04/02 04:24:00
Lat.              40.133
Long.             141.712
Depth. (km)       71
Mag.              6.0
Station Code      IKRH01
Station Lat.      43.4087
Station Long.     141.5836
Station Height(m) -120
Record Time       2024/04/02 04:26:03
Sampling Freq(Hz) 100Hz
Duration Time(s)  120
Dir.              2
Scale Factor      3923(gal)/8224838
Max. Acc. (gal)   0.284
Last Correction   2024/04/02 04:26:03
Memo.             
[...]
   12271    12276    12280    12290    12298    12303    12310    12317 
   12330    12343    12337    12325    12317    12307    12291    12267 
   12252    12258    12276    12301    12332    12360    12370    12372 
   12383    12388    12376    12360    12345    12332    12313    12280 
   12239    12217    12222    12232    12240    12239    12224    12218 
   12235    12260    12279    12286    12294    12320    12355    12384 
   12403    12413    12406    12382    12353    12330    12299    12270 
   12255    12249    12235    12209    12193    12198    12221    12243 
   12253    12263    12275    12287    12294    12307    12328    12332 
   12320    12309    12303    12299    12306    12318    12316    12298 
   12282    12276    12278    12285    12295    12302    12305    12310 
   12322    12343    12356    12355    12360    12364    12351    12341 
   12353    12383    12414    12429    12418    12382    12344    12336 
   12345    12341    12325    12301    12274    12264    12272    12285 
   12295    12303    12313    12320    12316    12302    12289    12279 
   12280    12287    12293    12283    12266    12256    12255    12267 
   12294    12317    12320    12310    12294    12275    12263    12266 
   12276    12287    12299    12303    12303    12306    12303    12286 
   12272    12278    12289    12303    12339    12383    12418    12436 
   12442    12452    12468    12482    12487    12494    12502    12496 
   12472    12444    12422    12401    12386    12374    12353    12330 
   12330    12343    12348    12351    12355    12360    12367    12366 
   12367    12380    12386    12376    12357    12343    12339    12326 
   12302    12286    12283    12282    12274    12263    12251    12243 
   12255    12280    12301    12316    12332    12344    12352    12357 
   12366    12372    12383    12395    12397    12387    12372    12352 
   12345    12360    12367    12348    12325    12314    12313    12312 
   12299    12282    12272    12270    12275    12287    12285    12266 
   12255    12252    12258    12279    12299    12302    12297    12291 
   12285    12285    12298    12313    12316    12310    12306    12295 
   12286    12286    12286    12290    12307    12325    12322    12306 
   12297    12283    12253    12229    12226    12245    12283    12322 
   12344    12343    12329    12328    12333    12336    12341    12344 
   12337    12329    12328    12330    12332    12332    12337    12348 
   12364    12388    12413    12426    12429    12422    12401    12375 
   12353    12332    12307    12274    12247    12247    12248    12236 
   12229    12229    12232    12243    12245    12236    12231    12239 
   12253    12262    12253    12236    12228    12235    12264    12306 
   12345    12372    12386    12399    12424    12436    12424    12397 
   12368    12341    12310    12283    12272    12274    12290    12316 
   12340    12345    12326    12303    12295    12303    12332    12368 
   12395    12411    12414    12398    12374    12359    12359    12367 
   12367    12343    12309    12286    12263    12244    12248    12263 
   12266    12260    12260    12271    12285    12306    12344    12380 
   12391    12394    12402    12395    12371    12344    12325    12307 
   12302    12325    12348    12345    12324    12291    12274    12278 
   12283    12282    12274    12263    12249    12228    12199    12172 
   12163    12187    12244    12306    12359    12384    12375    12359 
   12347    12322    12287    12256    12225    12202    12204    12213 
   12213    12212    12221    12236    12263    12303    12329    12326 
   12317    12313    12309    12303    12291    12289    12303    12334 
   12375    12410    12420    12413    12403    12388    12375    12357 
   12328    12297    12278    12285    12310    12333    12353    12364 
   12361    12352    12343    12334    12326    12321    12320    12317 
   12306    12290    12280    12280    12295    12326    12364    12394 
   12399    12378    12355    12352    12364    12374    12368    12345 
   12318    12294    12270    12256    12260    12275    12294    12321 
   12348    12368    12382    12380    12364    12343    12317    12291 
   12283    12297    12325    12360    12384    12382    12375    12376 
   12366    12333    12298    12260    12232    12224    12232    12245 
   12262    12280    12299    12307    12309    12306    12305    12307 
   12306    12293    12280    12287    12316    12340    12343    12337 
   12333    12336    12363    12395    12402    12378    12334    12291 
   12266    12276    12312    12349    12382    12410    12415    12397 
   12370    12341    12320    12320    12328    12330    12339    12344 
   12339    12333    12329    12322    12314    12305    12295    12286 
   12283    12289    12294    12295    12294    12294    12303    12317 
   12313    12286    12255    12248    12266    12303    12356    12395 
   12407    12413    12418    12409    12402    12402    12394    12379 
   12374    12383    12393    12394    12391    12394    12403    12410 
   12415    12403    12367    12328    12301    12282    12274    12276 
   12286    12303    12322    12328    12314    12291    12275    12264 
   12255    12262    12282    12301    12307    12291    12255    12225 
   12221    12226    12236    12256    12286    12317    12345    12361 
   12367    12357    12328    12299    12282    12272    12267    12268 
   12282    12305    12325    12337    12340    12325    12306    12297 
   12294    12291    12291    12297    12303    12307    12310    12312 
   12310    12310    12316    12332    12360    12393    12420    12430 
   12425    12409    12379    12344    12310    12291    12297    12317 
   12334    12361    12391    12402    12388    12360    12326    12291 
   12262    12225    12182    12145    12116    12105    12120    12147 
   12195    12259    12301    12314    12325    12332    12329    12321 
   12317    12316    12313    12309    12312    12324    12337    12349 
   12355    12336    12301    12260    12228    12222    12243    12274 
   12303    12326    12337    12337    12341    12347    12355    12366 
   12367    12367    12376    12384    12379    12359    12333    12310 
   12298    12294    12294    12309    12325    12328    12325    12321 
   12317    12321    12332    12329    12313    12298    12279    12255 
   12244    12256    12279    12307    12332    12353    12380    12413 
   12438    12440    12415    12394    12386    12393    12411    12422 
   12413    12402    12403    12399    12383    12367    12345    12324 
   12312    12294    12263    12231    12216    12224    12241    12248 
   12240    12228    12214    12224    12268    12322    12356    12374 
   12378    12374    12364    12334    12280    12229    12214    12237 
   12262    12266    12268    12276    12272    12263    12253    12243 
   12239    12253    12267    12262    12260    12272    12297    12343 
   12398    12442    12463    12455    12437    12428    12417    12405 
   12399    12410    12433    12444    12438    12428    12413    12401 
   12387    12361    12330    12303    12279    12262    12240    12210 
   12185    12168    12166    12179    12210    12243    12272    12303 
   12325    12328    12325    12325    12322    12303    12279    12259 
   12249    12255    12271    12283    12294    12294    12286    12289 
   12294    12289    12297    12324    12353    12380    12391    12379 
   12364    12357    12352    12351    12344    12328    12309    12294 
   12285    12286    12312    12359    12409    12441    12457    12474 
   12479    12472    12463    12449    12425    12405    12397    12393 
   12386    12370    12347    12326    12314    12309    12301    12294 
   12294    12305    12322    12344    12345    12316    12270    12233 
   12221    12229    12247    12278    12305    12307    12290    12264 
   12235    12213    12205    12221    12262    12298    12321    12343 
   12353    12349    12341    12333    12314    12298    12290    12289 
   12294    12297    12290    12282    12278    12276    12276    12275 
   12264    12253    12255    12255    12251    12255    12268    12294 
   12328    12343    12337    12330    12328    12333    12347    12360 
   12370    12378    12386    12378    12348    12324    12321    12325 
   12320    12293    12271    12272    12279    12289    12303    12314 
   12322    12348    12390    12418    12426    12442    12459    12455 
   12442    12429    12413    12398    12372    12339    12310    12299 
   12291    12285    12295    12316    12318    12309    12307    12307 
   12301    12283    12259    12248    12259    12276    12285    12279 
   12274    12275    12289    12305    12318    12334    12351    12356 
   12345    12309    12260    12216    12179    12164    12175    12183 
   12175    12170    12181    12205    12232    12264    12297    12330 
   12376    12422    12448    12460    12464    12459    12459    12471 
   12476    12472    12460    12437    12407    12379    12352    12318 
   12287    12272    12267    12264    12267    12279    12294    12310 
   12318    12309    12290    12279    12285    12301    12330    12379 
   12428    12463    12480    12472    12444    12402    12345    12282 
   12231    12195    12168    12143    12129    12133    12151    12179 
   12205    12225    12243    12263    12278    12291    12305    12322 
   12341    12361    12380    12388    12395    12403    12403    12399 
   12391    12375    12356    12336    12321    12317    12325    12341 
   12361    12380    12394    12409    12430    12447    12451    12440 
   12417    12401    12393    12378    12356    12324    12279    12237 
   12217    12222    12225    12212    12199    12199    12210    12237 
   12267    12286    12293    12301    12313    12302    12276    12268 
   12286    12321    12363    12405    12432    12434    12426    12407 
   12364    12305    12253    12226    12231    12268    12313    12340 
   12345    12324    12290    12274    12276    12291    12307    12313 
   12321    12343    12368    12390    12398    12398    12401    12394 
   12374    12349    12326    12309    12293    12282    12278    12285 
   12303    12322    12326    12309    12264    12195    12117    12044 
   12002    12012    12089    12232    12418    12603    12734    12789 
   12784    12727    12631    12526    12433    12379    12366    12370 
   12375    12376    12363    12320    12256    12187    12123    12075 
   12063    12082    12120    12159    12187    12210    12235    12272 
   12333    12407    12471    12505    12507    12486    12441    12367 
   12275    12193    12148    12151    12181    12239    12298    12309 
   12278    12220    12154    12106    12075    12064    12097    12167 
   12256    12343    12387    12388    12370    12367    12395    12449 
   12529    12638    12752    12822    12810    12718    12577    12422 
   12280    12181    12121    12086    12060    12023    11992    11994 
   12024    12074    12145    12237    12351    12475    12588    12653 
   12633    12534    12407    12306    12258    12252    12274    12309 
   12351    12398    12432    12424    12370    12276    12159    12050 
   11970    11935    11956    12001    12017    12010    12023    12070 
   12147    12233    12317    12415    12526    12614    12664    12669 
   12617    12525    12445    12393    12364    12359    12371    12382 
   12367    12313    12218    12106    11998    11912    11869    11890 
   11969    12086    12218    12337    12438    12528    12588    12609 
   12592    12550    12490    12418    12341    12256    12172    12110 
   12081    12083    12118    12179    12245    12299    12339    12356 
   12347    12314    12266    12206    12139    12078    12051    12079 
   12168    12291    12425    12565    12700    12804    12868    12895 
   12892    12861    12803    12718    12609    12487    12371    12279 
   12226    12214    12217    12198    12145    12081    12015    11943 
   11888    11862    11878    11951    12075    12241    12445    12660 
   12823    12891    12852    12726    12548    12372    12244    12167 
   12140    12158    12197    12235    12258    12241    12179    12105 
   12067    12093    12167    12247    12306    12333    12320    12267 
   12210    12185    12199    12264    12382    12521    12650    12756 
   12812    12798    12717    12598    12472    12352    12243    12164 
   12127    12124    12152    12181    12185    12166    12133    12101 
   12090    12098    12114    12141    12199    12282    12372    12457 
   12525    12579    12615    12618    12579    12503    12397    12283 
   12195    12156    12158    12171    12172    12163    12160    12175 
   12186    12177    12160    12158    12175    12225    12290    12340 
   12382    12428    12472    12511    12548    12582    12613    12641 
   12665    12671    12642    12590    12530    12456    12351    12210 
   12056    11923    11840    11815    11834    11880    11943    12013 
   12087    12152    12195    12229    12291    12395    12523    12641 
   12717    12760    12781    12776    12735    12648    12509    12343 
   12183    12039    11907    11816    11796    11843    11934    12036 
   12133    12231    12324    12403    12472    12538    12606    12677 
   12749    12800    12800    12748    12669    12586    12507    12459 
   12444    12445    12448    12436    12401    12337    12239    12100 
   11935    11793    11723    11723    11773    11863    11971    12055 
   12114    12163    12201    12217    12213    12198    12181    12156 
   12150    12181    12229    12274    12313    12345    12363    12360 
   12341    12316    12287    12270    12276    12290    12303    12337 
   12398    12482    12586    12696    12792    12849    12843    12781 
   12696    12619    12553    12499    12459    12421    12384    12345 
   12290    12236    12210    12216    12236    12258    12268    12260 
   12247    12233    12208    12163    12097    12009    11920    11880 
   11916    12027    12175    12310    12387    12411    12407    12379 
   12340    12305    12262    12206    12156    12129    12148    12224 
   12333    12432    12487    12494    12456    12376    12295    12264 
   12298    12378    12464    12506    12506    12483    12433    12391 
   12407    12468    12513    12509    12474    12424    12359    12310 
   12297    12321    12386    12483    12572    12629    12671    12704 
   12711    12685    12633    12561    12479    12402    12348    12320 
   12309    12297    12267    12236    12240    12282    12328    12349 
   12340    12303    12260    12217    12164    12120    12108    12135 
   12220    12370    12537    12653    12684    12636    12546    12444 
   12321    12175    12037    11947    11923    11946    11986    12033 
   12067    12063    12031    12009    12035    12112    12216    12324 
   12413    12472    12511    12540    12545    12509    12426    12324 
   12245    12217    12226    12233    12208    12156    12112    12082 
   12055    12029    12010    12015    12063    12150    12249    12356 
   12463    12563    12637    12677    12695    12691    12665    12627 
   12586    12550    12525    12498    12461    12429    12401    12359 
   12287    12194    12097    12015    11971    11967    11985    12016 
   12055    12112    12205    12321    12442    12546    12604    12614 
   12600    12590    12598    12603    12561    12465    12355    12260 
   12195    12174    12171    12158    12136    12121    12110    12097 
   12085    12093    12135    12183    12204    12208    12225    12276 
   12357    12445    12519    12572    12599    12606    12604    12584 
   12549    12510    12464    12421    12393    12366    12333    12293 
   12241    12191    12160    12154    12168    12206    12259    12317 
   12371    12413    12436    12442    12441    12445    12460    12474 
   12480    12491    12506    12506    12480    12424    12336    12243 
   12160    12096    12059    12046    12033    12013    11992    11988 
   12016    12079    12171    12285    12405    12509    12577    12607 
   12594    12541    12467    12376    12275    12179    12123    12114 
   12131    12144    12141    12131    12132    12158    12217    12294 
   12347    12366    12360    12329    12278    12239    12243    12286 
   12348    12410    12449    12442    12388    12316    12253    12202 
   12150    12108    12098    12129    12190    12266    12360    12482 
   12607    12706    12754    12746    12700    12637    12572    12515 
   12471    12421    12341    12221    12093    12002    11970    11985 
   12024    12085    12163    12235    12283    12297    12278    12247 
   12231    12239    12275    12349    12460    12576    12669    12727 
   12748    12738    12712    12664    12575    12459    12345    12240 
   12148    12077    12017    11982    11994    12052    12113    12139 
   12118    12082    12059    12062    12082    12105    12140    12210 
   12312    12409    12490    12542    12555    12525    12457    12356 
   12248    12152    12078    12040    12048    12090    12133    12143 
   12117    12086    12069    12089    12155    12247    12336    12399 
   12432    12438    12429    12415    12417    12434    12465    12494 
   12515    12537    12563    12583    12582    12542    12456    12330 
   12195    12090    12029    12006    12023    12069    12132    12197 
   12262    12324    12384    12453    12515    12540    12515    12482 
   12465    12456    12440    12402    12360    12332    12303    12263 
   12208    12139    12078    12043    12033    12040    12050    12040 
   12020    12016    12037    12082    12158    12264    12387    12513 
   12625    12715    12773    12795    12780    12737    12677    12622 
   12586    12568    12556    12532    12502    12464    12415    12371 
   12344    12339    12348    12351    12312    12226    12121    12035 
   11992    11993    12029    12097    12194    12298    12384    12440 
   12453    12429    12393    12363    12336    12299    12260    12235 
   12233    12247    12258    12239    12179    12104    12056    12063 
   12129    12218    12280    12286    12247    12204    12194    12228 
   12294    12374    12463    12567    12679    12776    12831    12827 
   12760    12645    12502    12360    12247    12158    12085    12019 
   11951    11900    11890    11924    11992    12073    12141    12198 
   12237    12251    12243    12222    12199    12190    12209    12249 
   12313    12391    12449    12469    12463    12432    12380    12318 
   12247    12172    12098    12033    11997    12012    12064    12125 
   12194    12266    12329    12380    12422    12460    12502    12545 
   12571    12564    12542    12537    12549    12571    12594    12609 
   12613    12611    12595    12553    12488    12421    12376    12352 
   12330    12297    12256    12224    12209    12210    12232    12285 
   12368    12461    12540    12586    12591    12567    12522    12468 
   12417    12378    12361    12360    12353    12348    12367    12406 
   12442    12461    12449    12399    12326    12262    12214    12177 
   12137    12097    12062    12043    12039    12055    12102    12167 
   12228    12280    12318    12344    12382    12453    12548    12637 
