Origin Time       2024/04/02 04:24:00
Lat.              40.133
Long.             141.712
Depth. (km)       71
Mag.              6.0
Station Code      IKRH02
Station Lat.      43.2204
Station Long.     141.6523
Station Height(m) 10
Record Time       2024/04/02 04:26:01
Sampling Freq(Hz) 100Hz
Duration Time(s)  120
Dir.              6
Scale Factor      3920(gal)/6170801
Max. Acc. (gal)   0.951
Last Correction   2024/04/02 04:25:46
Memo.             
[...]
  -27024   -27203   -27266   -27189   -27046   -26929   -26882   -26893 
  -26896   -26799   -26592   -26381   -26295   -26364   -26494   -26569 
  -26568   -26587   -26734   -26994   -27236   -27334   -27280   -27154 
  -27029   -26965   -26990   -27047   -27026   -26901   -26768   -26744 
  -26832   -26918   -26894   -26776   -26685   -26715   -26842   -26972 
  -27049   -27089   -27123   -27153   -27166   -27141   -27063   -26951 
  -26839   -26727   -26584   -26426   -26320   -26309   -26383   -26524 
  -26700   -26847   -26903   -26867   -26805   -26762   -26725   -26689 
  -26658   -26660   -26752   -26941   -27133   -27226   -27197   -27094 
  -26972   -26867   -26799   -26774   -26776   -26766   -26700   -26573 
  -26435   -26357   -26361   -26414   -26484   -26561   -26649   -26742 
  -26803   -26796   -26737   -26673   -26646   -26655   -26643   -26600 
  -26593   -26666   -26808   -26983   -27141   -27238   -27269   -27262 
  -27229   -27146   -26999   -26825   -26694   -26658   -26729   -26837 
  -26862   -26763   -26627   -26572   -26641   -26771   -26866   -26889 
  -26854   -26794   -26736   -26655   -26520   -26360   -26264   -26301 
  -26461   -26682   -26917   -27140   -27310   -27383   -27359   -27298 
  -27271   -27293   -27304   -27214   -26983   -26691   -26499   -26480 
  -26538   -26541   -26458   -26349   -26290   -26303   -26351   -26410 
  -26486   -26576   -26666   -26768   -26915   -27090   -27209   -27213 
  -27116   -26972   -26844   -26798   -26837   -26907   -26955   -26935 
  -26808   -26598   -26391   -26282   -26303   -26425   -26591   -26735 
  -26789   -26781   -26845   -27041   -27261   -27363   -27305   -27152 
  -27018   -26989   -27047   -27069   -26959   -26757   -26585   -26526 
  -26533   -26526   -26515   -26560   -26677   -26828   -26937   -26951 
  -26887   -26798   -26717   -26657   -26643   -26699   -26847   -27065 
  -27254   -27307   -27212   -27018   -26777   -26549   -26408   -26399 
  -26514   -26672   -26770   -26789   -26797   -26851   -26950   -27053 
  -27087   -27000   -26832   -26669   -26545   -26457   -26440   -26543 
  -26740   -26912   -26946   -26844   -26704   -26633   -26674   -26776 
  -26864   -26919   -26953   -26964   -26981   -27036   -27060   -26948 
  -26703   -26455   -26351   -26418   -26541   -26570   -26459   -26315 
  -26285   -26402   -26568   -26672   -26700   -26738   -26852   -27031 
  -27216   -27297   -27178   -26901   -26646   -26589   -26741   -26938 
  -27004   -26878   -26657   -26526   -26582   -26724   -26798   -26787 
  -26813   -26971   -27200   -27327   -27244   -26996   -26703   -26448 
  -26264   -26189   -26244   -26383   -26549   -26713   -26845   -26911 
  -26944   -27020   -27133   -27179   -27086   -26921   -26844   -26918 
  -27042   -27077   -26960   -26751   -26596   -26605   -26765   -26976 
  -27138   -27209   -27207   -27162   -27060   -26881   -26682   -26556 
  -26545   -26604   -26645   -26607   -26522   -26477   -26551   -26733 
  -26905   -26929   -26774   -26559   -26459   -26543   -26744   -26942 
  -27032   -26994   -26908   -26870   -26889   -26888   -26802   -26662 
  -26578   -26620   -26752   -26882   -26917   -26797   -26551   -26301 
  -26134   -26056   -26070   -26198   -26446   -26778   -27110   -27339 
  -27391   -27280   -27106   -26970   -26888   -26800   -26670   -26564 
  -26576   -26723   -26941   -27133   -27211   -27138   -26951   -26749 
  -26629   -26622   -26679   -26725   -26727   -26718   -26751   -26846 
  -26974   -27066   -27080   -27041   -26999   -26986   -26984   -26955 
  -26893   -26822   -26751   -26671   -26594   -26538   -26514   -26526 
  -26563   -26607   -26648   -26706   -26807   -26936   -27030   -27034 
  -26965   -26895   -26875   -26915   -27008   -27114   -27152   -27064 
  -26883   -26702   -26590   -26567   -26610   -26706   -26873   -27098 
  -27275   -27283   -27084   -26762   -26457   -26273   -26227   -26270 
  -26355   -26490   -26689   -26914   -27110   -27257   -27363   -27393 
  -27285   -27063   -26849   -26758   -26804   -26898   -26940   -26914 
  -26872   -26846   -26807   -26699   -26520   -26368   -26362   -26532 
  -26774   -26935   -26942   -26868   -26832   -26882   -26987   -27079 
  -27107   -27075   -27018   -26975   -26976   -27031   -27097   -27092 
  -26955   -26725   -26513   -26409   -26387   -26334   -26187   -26012 
  -25958   -26129   -26468   -26799   -26980   -26984   -26883   -26772 
  -26702   -26687   -26725   -26794   -26877   -26976   -27066   -27097 
  -27063   -27018   -26995   -26962   -26851   -26652   -26453   -26344 
  -26343   -26423   -26547   -26677   -26773   -26815   -26854   -26948 
  -27068   -27142   -27146   -27092   -27005   -26941   -26969   -27091 
  -27204   -27175   -26966   -26669   -26431   -26337   -26384   -26537 
  -26756   -26946   -27009   -26924   -26773   -26665   -26623   -26587 
  -26544   -26560   -26675   -26839   -26948   -26952   -26866   -26730 
  -26607   -26542   -26539   -26574   -26635   -26734   -26864   -26962 
  -26968   -26899   -26817   -26774   -26772   -26773   -26744   -26704 
  -26697   -26739   -26818   -26911   -26951   -26866   -26671   -26467 
  -26347   -26348   -26429   -26506   -26545   -26618   -26811   -27107 
  -27392   -27512   -27379   -27067   -26773   -26651   -26692   -26780 
  -26815   -26791   -26770   -26813   -26911   -27005   -27031   -26971 
  -26874   -26826   -26880   -27004   -27113   -27142   -27070   -26934 
  -26815   -26756   -26724   -26667   -26565   -26476   -26504   -26670 
  -26872   -26978   -26931   -26773   -26588   -26435   -26350   -26361 
  -26451   -26568   -26686   -26820   -26982   -27129   -27165   -27016 
  -26753   -26553   -26529   -26654   -26822   -26920   -26894   -26764 
  -26589   -26450   -26411   -26467   -26547   -26584   -26568   -26563 
  -26639   -26784   -26924   -27017   -27058   -27048   -26998   -26950 
  -26956   -27021   -27079   -27039   -26887   -26711   -26597   -26552 
  -26517   -26450   -26352   -26255   -26198   -26245   -26416   -26645 
  -26836   -26959   -27055   -27149   -27188   -27116   -26953   -26775 
  -26642   -26580   -26614   -26744   -26913   -27037   -27077   -27070 
  -27058   -27029   -26950   -26839   -26750   -26713   -26723   -26753 
  -26775   -26776   -26748   -26688   -26629   -26642   -26744   -26839 
  -26823   -26729   -26665   -26684   -26764   -26849   -26889   -26879 
  -26857   -26841   -26802   -26740   -26689   -26658   -26644   -26660 
  -26711   -26771   -26816   -26841   -26832   -26767   -26635   -26453 
  -26269   -26155   -26172   -26320   -26533   -26737   -26899   -27027 
  -27152   -27286   -27388   -27392   -27263   -27036   -26796   -26605 
  -26465   -26363   -26313   -26354   -26502   -26702   -26879   -27028 
  -27196   -27382   -27505   -27512   -27432   -27320   -27181   -27000 
  -26813   -26671   -26588   -26560   -26587   -26656   -26758   -26901 
  -27082   -27285   -27463   -27543   -27486   -27311   -27074   -26837 
  -26643   -26489   -26351   -26248   -26232   -26326   -26483   -26636 
  -26764   -26901   -27077   -27270   -27410   -27429   -27301   -27070 
  -26832   -26665   -26579   -26556   -26567   -26575   -26556   -26513 
  -26461   -26417   -26416   -26495   -26661   -26858   -26994   -26996 
  -26853   -26624   -26398   -26242   -26211   -26332   -26555   -26780 
  -26957   -27112   -27258   -27350   -27348   -27265   -27158   -27074 
  -27006   -26939   -26873   -26803   -26686   -26490   -26264   -26131 
  -26154   -26290   -26457   -26621   -26812   -27058   -27307   -27453 
  -27431   -27295   -27184   -27179   -27242   -27257   -27149   -26961 
  -26770   -26618   -26552   -26615   -26769   -26900   -26908   -26785 
  -26613   -26498   -26489   -26557   -26629   -26649   -26611   -26564 
  -26570   -26627   -26693   -26750   -26801   -26845   -26890   -26959 
  -27065   -27178   -27238   -27206   -27098   -26954   -26778   -26568 
  -26365   -26212   -26113   -26073   -26123   -26274   -26493   -26709 
  -26837   -26844   -26769   -26692   -26687   -26782   -26926   -27045 
  -27087   -27060   -27012   -26973   -26933   -26852   -26718   -26597 
  -26566   -26608   -26638   -26621   -26598   -26625   -26710   -26803 
  -26818   -26721   -26553   -26398   -26366   -26536   -26863   -27198 
  -27377   -27357   -27230   -27112   -27041   -26988   -26896   -26726 
  -26501   -26329   -26317   -26462   -26676   -26880   -27029   -27094 
  -27081   -27029   -26974   -26904   -26785   -26626   -26488   -26410 
  -26391   -26416   -26470   -26568   -26726   -26889   -26989   -27032 
  -27062   -27079   -27062   -27029   -27021   -27020   -26959   -26809 
  -26602   -26403   -26279   -26267   -26367   -26544   -26758   -26995 
  -27225   -27386   -27428   -27364   -27267   -27199   -27163   -27117 
  -27018   -26872   -26711   -26541   -26377   -26282   -26300   -26399 
  -26510   -26609   -26726   -26890   -27083   -27253   -27379   -27460 
  -27474   -27406   -27286   -27168   -27091   -27069   -27117   -27223 
  -27305   -27255   -27032   -26727   -26510   -26471   -26546   -26626 
  -26660   -26668   -26718   -26850   -27007   -27073   -26981   -26788 
  -26621   -26560   -26591   -26645   -26669   -26665   -26663   -26703 
  -26798   -26898   -26947   -26951   -26957   -26991   -27007   -26922 
  -26725   -26505   -26365   -26357   -26459   -26575   -26628   -26633 
  -26670   -26784   -26915   -26947   -26851   -26703   -26591   -26547 
  -26528   -26467   -26327   -26137   -26002   -26030   -26236   -26538 
  -26799   -26897   -26822   -26723   -26757   -26922   -27102   -27224 
  -27271   -27244   -27180   -27150   -27193   -27273   -27285   -27143 
  -26869   -26548   -26239   -26002   -25913   -26018   -26268   -26508 
  -26600   -26544   -26445   -26403   -26444   -26528   -26622   -26740 
  -26908   -27115   -27314   -27429   -27412   -27299   -27199   -27222 
  -27371   -27531   -27555   -27374   -27054   -26748   -26557   -26453 
  -26338   -26159   -25972   -25883   -25944   -26120   -26318   -26453 
  -26518   -26568   -26677   -26870   -27088   -27240   -27269   -27174 
  -26992   -26769   -26542   -26367   -26310   -26399   -26577   -26758 
  -26870   -26891   -26828   -26697   -26530   -26382   -26282   -26230 
  -26247   -26367   -26594   -26890   -27177   -27372   -27456   -27495 
  -27546   -27616   -27681   -27706   -27638   -27404   -26969   -26421 
  -25941   -25668   -25600   -25636   -25710   -25829   -26009   -26239 
  -26473   -26642   -26708   -26685   -26611   -26552   -26594   -26780 
  -27055   -27316   -27490   -27550   -27485   -27342   -27223   -27189 
  -27217   -27226   -27162   -27050   -26953   -26895   -26837   -26713 
  -26504   -26247   -26001   -25836   -25830   -26013   -26350   -26746 
  -27099   -27345   -27471   -27513   -27534   -27581   -27628   -27594 
  -27423   -27157   -26922   -26844   -26918   -27017   -27020   -26916 
  -26794   -26748   -26794   -26853   -26828   -26707   -26588   -26564 
  -26620   -26663   -26635   -26572   -26561   -26661   -26840   -27018 
  -27149   -27245   -27338   -27419   -27432   -27336   -27157   -27003 
  -27005   -27162   -27318   -27330   -27192   -27001   -26844   -26734 
  -26651   -26574   -26499   -26435   -26406   -26456   -26627   -26866 
  -27019   -26979   -26785   -26563   -26415   -26361   -26359   -26370 
  -26380   -26385   -26385   -26378   -26373   -26395   -26440   -26454 
  -26385   -26238   -26079   -25995   -26063   -26280   -26547   -26755 
  -26870   -26920   -26950   -26996   -27068   -27164   -27296   -27465 
  -27624   -27717   -27739   -27727   -27701   -27655   -27579   -27467 
  -27296   -27043   -26714   -26368   -26102   -25979   -25979   -26048 
  -26135   -26206   -26276   -26383   -26512   -26623   -26691   -26721 
  -26766   -26873   -27034   -27205   -27311   -27281   -27114   -26878 
  -26647   -26452   -26299   -26207   -26189   -26232   -26303   -26359 
  -26368   -26332   -26255   -26121   -25937   -25773   -25730   -25865 
  -26162   -26557   -26966   -27314   -27561   -27704   -27758   -27752 
  -27699   -27566   -27339   -27085   -26907   -26856   -26872   -26846 
  -26720   -26537   -26408   -26420   -26519   -26567   -26509   -26426 
  -26416   -26493   -26607   -26706   -26777   -26846   -26970   -27185 
  -27459   -27712   -27862   -27851   -27681   -27399   -27069   -26776 
  -26604   -26559   -26566   -26575   -26622   -26758   -26964   -27158 
  -27264   -27250   -27137   -26987   -26858   -26751   -26607   -26369 
  -26058   -25785   -25644   -25637   -25724   -25891   -26149   -26485 
  -26838   -27133   -27322   -27397   -27364   -27247   -27091   -26934 
  -26776   -26604   -26448   -26367   -26389   -26488   -26601   -26678 
  -26702   -26674   -26597   -26496   -26402   -26334   -26311   -26340 
  -26401   -26476   -26549   -26631   -26756   -26942   -27183   -27443 
  -27660   -27794   -27845   -27817   -27717   -27581   -27461   -27366 
  -27275   -27200   -27179   -27212   -27236   -27179   -27039   -26902 
  -26859   -26936   -27091   -27257   -27375   -27417   -27377   -27270 
  -27139   -27015   -26889   -26738   -26559   -26376   -26236   -26182 
  -26224   -26333   -26450   -26534   -26594   -26650   -26701   -26729 
  -26708   -26644   -26592   -26596   -26663   -26785   -26938   -27069 
  -27141   -27162   -27148   -27112   -27053   -26953   -26860   -26879 
  -27034   -27223   -27312   -27265   -27164   -27131   -27233   -27422 
  -27591   -27680   -27708   -27699   -27611   -27380   -27021   -26628 
  -26282   -25985   -25696   -25437   -25296   -25314   -25460   -25664 
  -25843   -25961   -26050   -26169   -26359   -26596   -26782   -26841 
  -26817   -26822   -26904   -26989   -26970   -26844   -26735   -26760 
  -26910   -27087   -27203   -27216   -27122   -26960   -26788   -26643 
  -26530   -26448   -26392   -26347   -26296   -26233   -26197   -26254 
  -26386   -26500   -26539   -26524   -26514   -26548   -26632   -26753 
  -26896   -27043   -27176   -27277   -27329   -27314   -27239   -27140 
  -27048   -26975   -26911   -26837   -26752   -26700   -26731   -26840 
  -26967   -27052   -27072   -27042   -27003   -26978   -26939   -26833 
  -26647   -26428   -26241   -26115   -26046   -26031   -26105   -26306 
  -26629   -27015   -27392   -27692   -27862   -27875   -27743   -27497 
  -27161   -26763   -26369   -26076   -25940   -25918   -25925   -25925 
  -25979   -26169   -26506   -26877   -27116   -27138   -27008   -26855 
  -26756   -26702   -26642   -26559   -26498   -26502   -26581   -26717 
  -26863   -26979   -27072   -27169   -27289   -27415   -27490   -27454 
  -27325   -27222   -27285   -27511   -27724   -27744   -27554   -27287 
  -27079   -26970   -26898   -26782   -26564   -26231   -25851   -25553 
  -25421   -25436   -25530   -25648   -25788   -25985   -26259   -26584 
  -26913   -27194   -27381   -27448   -27398   -27275   -27153   -27068 
  -26996   -26895   -26753   -26624   -26601   -26726   -26935   -27121 
  -27223   -27227   -27123   -26912   -26624   -26346   -26159   -26075 
  -26063   -26091   -26130   -26169   -26232   -26362   -26594   -26913 
  -27255   -27543   -27728   -27815   -27849   -27856   -27813   -27673 
  -27444   -27210   -27063   -27037   -27093   -27164   -27205   -27214 
  -27216   -27241   -27288   -27322   -27305   -27222   -27077   -26873 
  -26620   -26357   -26144   -26001   -25910   -25851   -25814   -25810 
  -25877   -26044   -26288   -26537   -26721   -26822   -26869   -26893 
  -26901   -26881   -26841   -26822   -26871   -27020   -27250   -27481 
  -27627   -27656   -27603   -27533   -27473   -27403   -27325   -27260 
  -27221   -27194   -27146   -27051   -26901   -26709   -26539   -26472 
  -26515   -26586   -26595   -26510   -26380   -26296   -26312   -26397 
  -26473   -26486   -26458   -26469   -26574   -26730   -26847   -26873 
  -26828   -26795   -26850   -26997   -27188   -27351   -27422   -27385 
  -27281   -27160   -27041   -26907   -26745   -26568   -26402   -26261 
  -26158   -26116   -26166   -26325   -26535   -26675   -26672   -26568 
  -26494   -26543   -26681   -26805   -26851   -26845   -26872   -26964 
  -27067   -27097   -27018   -26856   -26674   -26532   -26445   -26407 
  -26422   -26471   -26516   -26536   -26521   -26458   -26347   -26227 
  -26143   -26121   -26165   -26268   -26398   -26501   -26545   -26554 
  -26562   -26560   -26519   -26434   -26347   -26338   -26463   -26688 
  -26909   -27083   -27242   -27410   -27570   -27669   -27659   -27536 
  -27334   -27111   -26944   -26868   -26845   -26802   -26692   -26496 
  -26228   -25951   -25749   -25679   -25741   -25860   -25958   -26027 
  -26108   -26237   -26427   -26659   -26908   -27168   -27423   -27634 
  -27774   -27833   -27808   -27715   -27588   -27463   -27355   -27259 
  -27179   -27133   -27132   -27174   -27228   -27255   -27253   -27270 
  -27348   -27463   -27539   -27513   -27378   -27178   -26962   -26757 
  -26579   -26444   -26376   -26405   -26539   -26740   -26933   -27041 
  -27035   -26961   -26898   -26877   -26879   -26865   -26809   -26725 
  -26639   -26565   -26494   -26406   -26309   -26261   -26314   -26449 
  -26581   -26640   -26614   -26544   -26489   -26472   -26468   -26429 
  -26333   -26208   -26118   -26124   -26251   -26475   -26742   -26991 
  -27176   -27286   -27338   -27372   -27428   -27510   -27578   -27593 
  -27529   -27381   -27155   -26861   -26534   -26221   -25972   -25845 
  -25861   -25995   -26211   -26460   -26695   -26910   -27120   -27317 
  -27486   -27630   -27752   -27834   -27852   -27810   -27727   -27607 
  -27455   -27272   -27064   -26855   -26682   -26554   -26460   -26391 
  -26349   -26343   -26372   -26417   -26456   -26470   -26433   -26337 
  -26211   -26104   -26037   -25990   -25978   -26045   -26191   -26355 
  -26480   -26553   -26619   -26730   -26902   -27111   -27308   -27419 
  -27397   -27253   -27045   -26843   -26686   -26569   -26467   -26377 
  -26339   -26381   -26493   -26649   -26815   -26955   -27043   -27060 
  -27004   -26891   -26761   -26655   -26605   -26629   -26718   -26822 
  -26887   -26897   -26856   -26786   -26717   -26668   -26637   -26629 
  -26655   -26712   -26775   -26811   -26791   -26720   -26641   -26582 
  -26542   -26520   -26548   -26652   -26814   -26992   -27130   -27199 
  -27227   -27253   -27276   -27270   -27234   -27213   -27251   -27336 
  -27437   -27515   -27515   -27399   -27181   -26924   -26684   -26482 
  -26302   -26117   -25932   -25810   -25817   -25939   -26101   -26246 
  -26366   -26469   -26550   -26603   -26646   -26703   -26780   -26889 
  -27048   -27233   -27373   -27403   -27315   -27166   -27023   -26929 
  -26907   -26942   -26972   -26960   -26909   -26844   -26794   -26773 
  -26772   -26773   -26771   -26765   -26738   -26695   -26675   -26686 
  -26712   -26733   -26731   -26708   -26682   -26684   -26748   -26848 
  -26913   -26916   -26880   -26836   -26828   -26873   -26921   -26924 
  -26890   -26853   -26838   -26857   -26900   -26941   -26955   -26926 
  -26857   -26771   -26691   -26632   -26616   -26666   -26766   -26864 
  -26919   -26922   -26895   -26878   -26886   -26895   -26882   -26853 
  -26827   -26799   -26738   -26635   -26522   -26444   -26428   -26474 
  -26571   -26714   -26884   -27025   -27088   -27058   -26952   -26802 
  -26639   -26485   -26373   -26346   -26417   -26570   -26760   -26931 
