Origin Time       2024/04/02 04:24:00
Lat.              40.133
Long.             141.712
Depth. (km)       71
Mag.              6.0
Station Code      IKRH01
Station Lat.      43.4087
Station Long.     141.5836
Station Height(m) 80
Record Time       2024/04/02 04:26:03
Sampling Freq(Hz) 100Hz
Duration Time(s)  120
Dir.              4
Scale Factor      7845(gal)/8223790
Max. Acc. (gal)   0.952
Last Correction   2024/04/02 04:26:03
Memo.             
[...]
     774      799      815      824      822      797      749      689 
     646      641      673      712      733      727      700      676 
     666      669      692      733      769      797      822      823 
     787      714      618      526      473      481      549      633 
     696      734      746      743      745      758      780      811 
     849      864      849      830      835      864      905      931 
     905      834      762      741      770      811      818      768 
     687      623      616      664      722      754      746      710 
     685      688      692      687      673      649      612      583 
     585      615      650      673      681      673      654      646 
     665      702      734      754      754      749      756      781 
     815      841      854      857      843      812      773      734 
     714      733      785      839      872      868      818      747 
     707      697      689      677      673      680      683      681 
     695      716      720      699      675      676      706      742 
     756      727      681      654      638      610      589      607 
     648      688      718      731      738      730      689      631 
     595      599      637      681      712      735      749      746 
     733      707      660      603      571      584      650      757 
     854      896      878      823      757      716      723      765 
     818      846      834      792      745      720      727      739 
     742      742      745      743      737      741      753      760 
     761      768      769      764      764      766      773      784 
     777      758      753      756      742      702      652      616 
     621      665      720      756      754      720      688      706 
     776      853      893      884      826      747      687      653 
     642      629      602      576      564      564      571      571 
     557      549      556      581      631      699      766      812 
     804      747      696      684      702      738      769      774 
     758      743      742      746      750      739      719      714 
     726      739      739      735      738      741      731      719 
     719      734      742      714      656      612      603      598 
     580      564      572      612      679      754      816      851 
     864      858      854      866      874      858      827      789 
     757      738      715      687      681      692      689      666 
     641      630      629      633      642      657      679      706 
     726      729      724      716      711      720      737      726 
     685      631      568      510      476      491      558      654 
     739      791      801      803      830      873      897      899 
     908      932      946      934      901      858      819      791 
     770      753      743      730      696      641      577      530 
     517      522      534      557      592      638      685      727 
     760      793      835      870      899      919      918      907 
     905      913      919      905      853      772      702      653 
     610      575      556      560      589      627      653      666 
     683      711      742      764      765      734      691      668 
     669      685      710      733      753      781      823      855 
     864      859      846      808      769      753      751      761 
     781      805      810      769      681      580      519      525 
     587      660      702      695      650      594      557      565 
     611      669      702      696      664      630      622      648 
     700      756      783      765      723      677      654      666 
     695      712      715      702      681      676      684      683 
     679      703      758      824      870      868      824      774 
     741      719      700      684      685      710      741      770 
     799      823      842      855      861      859      854      854 
     865      877      874      850      822      804      797      784 
     746      689      642      630      653      692      727      754 
     773      783      792      800      789      753      692      638 
     619      621      614      598      577      564      572      606 
     648      685      702      687      653      626      611      611 
     639      684      716      746      781      799      791      788 
     810      835      850      858      858      851      834      796 
     751      727      712      684      648      633      654      693 
     730      739      720      683      643      625      641      680 
     708      708      700      714      747      787      820      830 
     822      835      873      891      874      845      814      789 
     780      769      749      733      719      703      683      646 
     599      558      534      546      583      606      619      646 
     693      738      778      820      854      869      861      824 
     777      730      681      650      653      688      735      768 
     765      737      695      630      544      460      414      440 
     535      654      747      804      832      846      838      803 
     743      693      684      722      784      834      847      842 
     847      859      841      795      754      735      726      722 
     731      757      792      826      839      827      796      760 
     734      723      711      684      665      683      746      839 
     908      916      862      773      683      608      549      498 
     440      382      357      380      449      557      670      747 
     757      681      557      454      421      463      567      700 
     797      812      761      691      645      623      594      533 
     464      426      441      499      572      634      676      697 
     715      743      785      820      837      842      841      842 
     864      907      958      990      984      936      869      803 
     743      675      606      548      510      506      565      703 
     888     1053     1140     1139     1074      977      864      753 
     661      599      553      494      434      430      488      560 
     606      595      527      454      421      425      476      579 
     703      797      831      807      749      688      652      661 
     706      747      784      850      966     1108     1209     1209 
    1115      986      876      803      751      685      591      500 
     445      433      477      584      724      864      980     1069 
    1124     1136     1100     1023      918      793      654      522 
     454      483      564      622      637      627      614      602 
     603      627      662      697      741      781      811      842 
     874      889      896      915      935      920      850      756 
     696      723      834      977     1066     1034      885      681 
     492      373      348      387      444      499      558      627 
     722      870     1047     1192     1251     1206     1063      841 
     592      373      210      112       83      140      290      504 
     720      881      950      940      908      899      908      918 
     919      900      837      731      633      562      498      423 
     357      329      351      411      495      599      722      853 
     985     1121     1252     1331     1320     1221     1081      954 
     864      787      681      544      425      355      313      284 
     302      409      596      787      886      872      804      758 
     766      828      936     1063     1165     1204     1152     1001 
     789      596      472      400      336      263      202      179 
     194      253      356      500      699      945     1178     1347 
    1432     1437     1389     1312     1216     1109      997      864 
     704      564      496      499      514      460      315      149 
      51       94      306      615      907     1097     1165     1136 
    1059      970      891      849      850      846      784      672 
     558      494      513      619      757      843      826      726 
     607      540      567      684      841      962      976      838 
     585      326      186      229      395      560      657      703 
     733      768      815      870      913      904      847      796 
     795      830      847      793      693      657      742      915 
    1111     1246     1217      992      639      290       63       25 
     148      333      499      600      642      650      661      703 
     781      882      999     1097     1128     1077      969      826 
     650      442      226       55       -8       70      275      552 
     807      934      892      739      596      565      680      874 
    1028     1075     1040     1024     1081     1148     1117      945 
     680      432      321      386      544      673      714      661 
     558      471      446      502      619      762      870      916 
     911      893      891      892      877      847      820      824 
     888      996     1101     1162     1169     1134     1067      988 
     924      901      918      950      946      874      749      610 
     500      452      467      550      685      811      866      826 
     708      562      436      367      383      481      639      803 
     895      843      631      309        0     -140      -35      264 
     638      954     1115     1131     1085     1038      999      950 
     859      746      669      661      692      724      733      710 
     657      587      527      506      492      432      291       99 
     -48      -45      149      510      916     1209     1306     1224 
    1035      853      746      714      719      703      625      504 
     399      356      409      545      706      843      930      946 
     907      872      884      955     1058     1159     1235     1279 
    1298     1287     1221     1092      930      770      616      495 
     452      508      633      761      835      846      831      812 
     774      685      526      322      155      101      174      317 
     463      581      658      676      635      571      519      517 
     561      616      668      745      861      990     1102     1188 
    1213     1139      980      818      727      699      697      708 
     726      751      774      776      760      754      764      757 
     714      625      504      413      421      557      791     1038 
    1223     1324     1359     1362     1327     1189      895      503 
     149      -62     -102       -5      163      337      473      562 
     612      650      711      812      950     1112     1289     1470 
    1607     1652     1605     1495     1354     1185      972      727 
     498      329      240      214      198      153      116      143 
     251      399      527      589      587      552      538      584 
     662      718      720      700      733      846      982     1051 
    1016      909      785      688      639      614      583      530 
     449      355      287      298      403      569      745      904 
    1042     1136     1151     1094     1007      932      892      870 
     826      766      729      739      792      850      861      804 
     685      525      351      199      105       81       98      130 
     189      292      452      661      877     1032     1088     1043 
     953      895      907      973     1071     1185     1294     1374 
    1404     1355     1198      951      672      411      197       59 
      31      135      364      666      947     1148     1283     1379 
    1425     1391     1269     1089      912      768      639      529 
     454      444      506      604      704      778      787      711 
     600      514      499      571      684      769      776      695 
     567      467      433      438      432      392      328      276 
     288      407      635      919     1156     1242     1135      888 
     595      351      217      203      286      427      571      668 
     723      768      838      945     1050     1089     1021      858 
     656      503      450      492      589      707      843     1012 
    1179     1285     1293     1201     1034      841      683      596 
     577      608      666      724      766      774      727      637 
     549      514      548      622      706      785      869      965 
    1047     1078     1055     1004      949      908      878      846 
     818      824      876      940      976      972      940      874 
     772      648      507      353      191       28     -121     -229 
    -272     -243     -147       -2      157      302      411      472 
     483      484      522      621      772      931     1054     1108 
    1086     1005      904      816      757      722      691      654 
     646      722      907     1151     1352     1426     1362     1212 
    1070     1000     1016     1084     1132     1108     1027      957 
     939      966      996      966      847      665      481      345 
     274      261      291      340      386      421      464      540 
     646      753      824      841      811      756      704      679 
     684      722      783      843      889      907      870      749 
     535      268       12     -178     -276     -264     -137       64 
     264      405      469      477      464      468      495      534 
     575      622      702      827      965     1059     1101     1124 
    1162     1212     1256     1282     1277     1244     1209     1181 
    1146     1093     1015      899      764      665      645      711 
     831      950     1024     1057     1084     1144     1254     1389 
    1505     1561     1540     1452     1323     1171     1017      886 
     787      683      550      407      309      294      345      425 
     484      483      422      326      230      186      229      315 
     365      353      336      388      525      677      776      803 
     788      742      668      603      588      614      635      633 
     618      618      623      607      564      515      480      469 
     488      538      616      706      778      811      805      770 
     726      687      653      625      618      650      722      797 
     849      872      881      885      873      842      831      861 
     908      934      905      842      783      758      793      869 
     927      922      866      814      816      885      974     1030 
    1023      957      842      716      653      693      811      924 
     951      872      731      584      479      437      445      472 
     503      502      446      364      319      353      460      588 
     680      708      693      683      689      685      660      638 
     656      739      877     1016     1096     1080      990      900 
     851      861      924     1004     1061     1067     1012      899 
     757      633      556      522      514      508      481      436 
     395      369      364      395      477      594      700      780 
     855      943     1027     1071     1065     1031     1001      976 
     932      861      773      696      656      648      652      657 
     684      754      857      955     1023     1047     1032      982 
     891      769      664      619      658      758      857      908 
     913      882      815      730      635      533      448      417 
     453      529      596      630      616      545      438      328 
     245      236      329      483      606      630      545      396 
     280      282      411      619      832      978     1011      942 
     819      702      646      672      720      741      724      681 
     638      619      616      616      618      621      619      618 
     634      669      715      760      792      816      843      880 
     907      901      847      753      650      556      463      365 
     288      280      351      450      525      560      585      635 
     710      791      868      939     1021     1123     1206     1237 
    1215     1165     1109     1054     1005      970      934      877 
     812      766      737      696      633      560      504      480 
     481      486      477      468      457      450      453      468 
     492      540      607      679      738      781      792      765 
     731      724      747      784      830      882      951     1046 
    1150     1240     1298     1298     1223     1094      958      843 
     738      643      564      510      488      496      519      525 
     507      490      499      540      600      675      754      820 
     868      904      931      957      986     1003      992      976 
     988     1032     1077     1074     1007      888      764      680 
     653      652      631      571      490      438      444      491 
     544      577      580      554      526      525      552      571 
     546      472      390      345      367      450      569      681 
     749      766      773      803      850      884      884      868 
     868      900      939      949      916      865      808      760 
     738      751      793      832      838      801      747      708 
     687      668      658      675      706      724      714      668 
     622      622      676      754      831      899      953      992 
    1023     1059     1100     1134     1159     1174     1167     1115 
    1019      897      772      656      565      507      481      483 
     502      529      565      608      623      591      537      510 
     535      603      677      729      750      741      689      610 
     541      515      518      503      432      306      168       74 
      40       72      172      333      519      711      895     1048 
    1152     1206     1229     1251     1283     1293     1235     1113 
     967      837      735      653      573      491      414      371 
     387      467      584      700      792      864      931     1005 
    1089     1170     1215     1200     1119      992      861      765 
     714      677      627      565      515      475      422      346 
     252      145       55        8       25      122      284      471 
     649      783      830      797      734      687      687      734 
     793      830      838      832      814      780      729      660 
     589      530      481      476      556      702      835      895 
     888      857      830      810      795      787      792      816 
     846      862      877      912      963      999     1005      980 
     920      837      750      687      662      685      751      838 
     911      931      882      778      673      607      592      629 
     718      834      935      988      993      966      918      859 
     805      776      789      830      866      880      872      845 
     805      751      689      633      602      611      653      697 
     724      734      741      765      810      845      834      789 
     737      673      573      427      261      135       98      176 
