Origin Time       2024/04/02 04:24:00
Lat.              40.133
Long.             141.712
Depth. (km)       71
Mag.              6.0
Station Code      IWTH08
Station Lat.      40.2686
Station Long.     141.7831
Station Height(m) 75
Record Time       2024/04/02 04:24:48
Sampling Freq(Hz) 100Hz
Duration Time(s)  135
Dir.              2
Scale Factor      2942(gal)/8224139
Max. Acc. (gal)   37.213
Last Correction   2024/04/02 04:24:48
Memo.             
[...]
  143536   143533   143530   143533   143534   143533   143534   143536 
  143533   143533   143534   143532   143530   143533   143536   143536 
  143534   143532   143533   143534   143533   143532   143532   143533 
  143534   143534   143534   143532   143533   143533   143533   143533 
  143534   143536   143534   143534   143537   143536   143532   143533 
  143534   143534   143533   143533   143536   143536   143533   143533 
  143533   143533   143533   143534   143536   143534   143530   143532 
  143536   143534   143532   143534   143533   143533   143533   143532 
  143534   143537   143533   143533   143534   143533   143534   143536 
  143532   143532   143534   143534   143532   143532   143533   143533 
  143534   143536   143534   143533   143532   143533   143534   143534 
  143534   143534   143533   143532   143533   143534   143533   143533 
  143534   143533   143533   143534   143534   143533   143533   143532 
  143532   143534   143536   143534   143533   143534   143534   143534 
  143536   143536   143534   143536   143536   143533   143534   143534 
  143533   143533   143533   143532   143532   143532   143533   143536 
  143533   143532   143533   143534   143534   143534   143532   143532 
  143533   143534   143533   143534   143536   143534   143533   143533 
  143534   143537   143534   143533   143536   143534   143533   143536 
  143536   143536   143538   143537   143533   143532   143534   143536 
  143534   143534   143534   143536   143536   143534   143534   143537 
  143534   143532   143533   143534   143533   143532   143533   143536 
  143536   143533   143533   143536   143533   143532   143534   143536 
  143536   143534   143534   143536   143536   143536   143536   143536 
  143536   143536   143534   143534   143536   143536   143534   143536 
  143536   143533   143532   143534   143533   143530   143534   143534 
  143533   143536   143536   143534   143536   143534   143533   143533 
  143533   143533   143533   143533   143534   143533   143533   143536 
  143536   143534   143532   143533   143534   143532   143533   143536 
  143534   143533   143533   143534   143533   143533   143534   143534 
  143534   143534   143536   143536   143534   143534   143536   143534 
  143534   143534   143533   143533   143536   143534   143533   143534 
  143536   143534   143534   143536   143534   143533   143536   143536 
  143534   143534   143533   143533   143534   143534   143537   143536 
  143534   143534   143534   143534   143536   143533   143532   143534 
  143536   143537   143537   143534   143536   143536   143533   143534 
  143534   143533   143532   143533   143536   143536   143532   143533 
  143537   143533   143533   143537   143537   143533   143534   143534 
  143533   143532   143533   143532   143533   143534   143534   143533 
  143533   143534   143532   143532   143537   143536   143533   143534 
  143532   143532   143534   143532   143530   143532   143532   143533 
  143534   143534   143533   143532   143533   143534   143532   143530 
  143533   143534   143533   143533   143532   143533   143534   143536 
  143536   143534   143533   143534   143536   143533   143534   143536 
  143536   143537   143537   143532   143532   143534   143534   143533 
  143532   143532   143533   143533   143534   143536   143532   143530 
  143533   143534   143533   143533   143534   143534   143534   143533 
  143533   143534   143533   143534   143536   143533   143533   143534 
  143534   143536   143534   143532   143534   143537   143534   143532 
  143533   143534   143536   143536   143533   143533   143534   143534 
  143533   143533   143533   143533   143534   143534   143534   143534 
  143534   143536   143536   143533   143530   143532   143534   143533 
  143532   143534   143536   143534   143533   143532   143533   143534 
  143534   143536   143534   143534   143534   143533   143533   143533 
  143534   143534   143534   143534   143534   143532   143532   143534 
  143534   143534   143536   143534   143534   143536   143534   143532 
  143534   143534   143533   143534   143536   143532   143533   143534 
  143533   143533   143534   143533   143533   143536   143536   143533 
  143534   143536   143534   143534   143533   143533   143534   143534 
  143536   143534   143534   143534   143534   143533   143533   143534 
  143537   143536   143533   143533   143534   143533   143530   143534 
  143537   143536   143534   143533   143533   143536   143536   143533 
  143536   143536   143534   143536   143536   143534   143536   143534 
  143533   143533   143534   143536   143534   143534   143534   143533 
  143534   143536   143534   143536   143537   143534   143534   143536 
  143534   143534   143534   143533   143534   143536   143536   143534 
  143534   143534   143534   143536   143533   143532   143532   143532 
  143534   143534   143533   143533   143533   143536   143536   143534 
  143534   143536   143536   143536   143536   143536   143533   143533 
  143534   143536   143536   143533   143536   143537   143533   143527 
  143510   143456   143378   143357   143464   143586   143533   143388 
  143426   143587   143506   143276   143425   143870   143916   143518 
  143359   143625   143860   143851   143800   143695   143301   143122 
  143761   144354   144113   143621   143133   142828   143656   144968 
  144907   144174   144034   143411   142480   142628   143453   144408 
  144576   142997   141550   142773   144977   143572   140849   142350 
  144333   143756   143495   143741   144408   143660   141000   141883 
  143881   142584   145689   151779   148169   140175   140530   145103 
  145179   141269   140414   144876   146889   144798   142364   139760 
  142477   148601   148227   144116   141534   140305   140547   142520 
  144274   141821   139519   140598   141006   146464   151722   145693 
  141369   143328   145301   146573   142384   141898   150082   146296 
  133594   140675   154651   144248   135727   154836   159927   134909 
  127896   149499   156154   136659   129664   144354   148327   141415 
  144189   150927   148683   143383   145250   145613   141223   140678 
  137776   134751   142577   146599   138809   137952   145654   146140 
  141174   141273   146164   146624   139050   140339   151945   147552 
  133998   136478   145620   145066   140713   142072   147769   153172 
  148965   137247   141207   152274   142092   136047   152165   150770 
  134578   136775   146072   149025   143141   136540   144772   148875 
  135271   131869   147789   152297   140375   140385   144099   138049 
  142867   148905   146041   149485   142785   130809   138550   142898 
  136771   139711   146441   155104   158831   146074   138057   144188 
  146603   142647   140190   145891   150687   141033   136266   143398 
  144154   145937   150913   149721   147349   142996   142962   149944 
  143411   132705   137469   139722   139378   142476   141041   149824 
  152869   136993   136942   145538   143951   143372   141690   142107 
  143893   142384   147618   148753   143552   144468   138349   134302 
  147704   151692   142380   143835   146306   140811   141268   141183 
  137246   143891   151066   144323   138738   145893   144460   131089 
  135877   149185   150682   149762   141443   136822   147070   145662 
  141496   151556   149847   137174   136146   140887   142727   143020 
  142338   145115   149967   147344   141089   142483   142842   135348 
  140869   155389   151429   144333   148734   144873   133401   134775 
  147139   148837   145071   151706   147472   129963   132699   149384 
  147883   139641   147104   147568   135881   140836   148329   145438 
  150931   149137   132694   133224   147910   151592   145123   141266 
  145821   146699   140406   140725   142354   142319   145925   146308 
  145049   141100   137826   147279   147708   134677   140556   151929 
  146381   141575   143789   145355   142717   139197   143077   143305 
  137695   144076   150299   142925   140981   145706   142639   141390 
  148703   150784   141852   135927   141648   142260   136206   142711 
  148701   141318   137764   142677   148903   150103   144000   139604 
  140262   143359   146045   145770   146723   147109   142477   142975 
  147037   139276   136192   146583   145970   140448   139649   139263 
  148196   151653   144860   144628   141343   138272   143459   143707 
  144351   147217   141513   139086   144840   144937   142825   146533 
  146614   140620   140343   145189   147289   147669   145598   140832 
  139982   142821   141627   140082   146557   149743   141652   137492 
  141841   143851   143661   145509   144818   143307   144520   140521 
  137830   145636   149455   147164   146421   139981   134072   139702 
  146437   146292   144189   143461   142296   140711   144863   150500 
  146546   142241   144593   142956   138739   139595   143962   146176 
  141303   138090   143943   144657   140468   146488   150202   144189 
  141413   140221   143926   152725   147727   140332   147803   149013 
  140225   140622   144277   142488   142510   143630   138692   136804 
  146168   150148   144076   140463   139212   142269   145912   143626 
  145339   147935   142757   138219   140324   144427   141961   137934 
  143734   149636   147552   145270   143997   142138   142294   145432 
  146722   143020   143255   145447   141728   142257   145165   144171 
  146187   144535   139882   142929   145743   143425   141002   139658 
  140760   145008   147834   143930   140819   146010   147251   142794 
  142857   139567   135217   140170   143236   143031   148491   150981 
  145350   141971   144077   144435   142142   140501   140556   143340 
  145584   144046   142117   141848   142496   145636   148387   145338 
  141569   142252   143255   142929   141490   140047   142389   144026 
  142673   144139   145480   144790   144416   143268   144983   146658 
  141535   138407   143775   147186   144786   146766   148587   141548 
  140719   148424   144803   136971   143858   151470   144281   137317 
  141933   148576   147707   142967   144161   147467   146793   145546 
  141995   139283   142461   145694   144998   141079   139133   140849 
  141519   142492   144288   145084   143521   139271   137475   138719 
  141566   144674   144771   145536   144386   137511   140323   152679 
  149297   139387   145017   144481   134279   141204   151100   145681 
  139849   142041   148317   151051   147798   145874   141708   136817 
  141844   143988   139617   142354   143806   142982   148153   148848 
  142069   137987   140185   141586   141570   146510   146488   142090 
  146993   146709   135279   135538   145710   148045   147023   147833 
  144204   140707   143248   142612   139530   144139   147652   145345 
  145868   147854   148251   143503   137498   142110   148099   146800 
  144699   140881   138088   141227   146605   149469   144834   141160 
  144508   141197   136568   139742   139141   138974   145180   147896 
  149161   150394   142923   134196   135739   140239   138940   140815 
  151663   152903   142923   142248   142422   135364   138084   148898 
  151040   145863   144412   142831   137420   139699   147920   150434 
  149358   147469   145562   146794   142504   133020   137659   147244 
  143981   143465   148585   144950   141214   142596   139209   137733 
  143904   147163   145314   143672   144779   145648   141913   140648 
  145423   144374   140412   146314   149262   143334   143703   145613 
  142396   143035   145131   142029   139773   141466   141558   141583 
  144806   145806   141829   140459   144381   144593   144736   149233 
  145304   138300   139746   142763   145956   146767   142450   139256 
  137776   141428   147175   145238   143367   143711   141844   143275 
  142295   137785   140845   145000   145359   146043   141432   139905 
  148069   144861   136016   142564   145944   142030   146554   146125 
  140227   142414   145582   147029   146889   144475   145288   142055 
  136202   140788   147838   151255   153262   148054   140911   141374 
  144121   145400   146865   145569   145964   148734   143305   138751 
  143602   144163   142105   145629   146307   142736   141523   143556 
  141218   133782   139043   148842   140877   134684   139585   135697 
  131269   136661   139236   136524   136020   138069   138042   138597 
  146014   150703   144643   140787   142400   142564   146133   146870 
  139055   137091   137776   130574   128179   134842   139117   139934 
  140844   139639   133199   126597   130847   137798   133536   129872 
  131288   131199   139545   147769   141659   139063   144817   146099 
  147538   152100   153598   151491   151268   157728   164704   162137 
  150047   137193   132196   136541   147089   155283   148039   127302 
  114844   120070   127045   129012   136728   148535   151478   143644 
  134904   130712   130152   139893   158583   161331   144369   136251 
  136007   130998   146087   182773   195091   165636   128162   113031 
  117242   131672   149609   154184   137810   109370    87987    92362 
  105456   105845   118600   152713   175686   178803   167602   145327 
  132471   129128   126243   143703   177715   199296   195099   171956 
  171043   192276   176941   142786   140147   151704   160266   165883 
  156699   135696   123233   118660   107789   112696   150117   182879 
  180743   155606   141852   158896   168751   144639   131064   141610 
  154946   197827   247560   237343   206516   201715   186540   165194 
  177021   200248   185302   148225   147726   164274   147641   134202 
  154035   166922   163212   161632   151200   127889   110393   108650 
  115007   123728   129424   120291   112899   125332   134214   131251 
  135614   142897   136618   125972   137409   165427   174941   160573 
  138353   118346   115038   123862   122173   106837    92425    99308 
  127685   144782   142940   133782    97974    59382    73275   109047 
  119403   111784    99540   101058   123751   146789   153765   148485 
  156064   182495   194340   176779   150674   145913   168561   180729 
  162958   142425   137181   143872   151630   145674   129729   129813 
  147436   156520   152520   145469   140922   136170   124900   124780 
  148045   168100   168261   163628   159692   152213   149435   150726 
  147275   145350   147646   143729   133114   129134   136622   143036 
  145633   153920   162591   160830   146651   132005   136328   152388 
  156695   151683   145733   135241   135202   146723   139248   123340 
  128488   143083   148057   136219   118276   118810   131507   133384 
  131407   135337   136023   137340   147299   153511   148381   147260 
  159696   162261   142169   132048   141339   145872   149127   152973 
  151212   152868   150677   146142   148729   142449   134520   140371 
  146623   151191   150988   136248   127191   138500   148216   137724 
  121018   122802   141814   159394   163972   150086   133795   134438 
  135974   135785   151402   160957   147349   133606   131313   133533 
  134196   136560   147771   147838   129251   128160   145108   149054 
  141313   133903   133848   139984   145026   150357   151978   150055 
  150569   147950   143781   141512   138869   140756   146457   151071 
  153253   148863   141092   140062   144379   150781   160219   160010 
  147879   138102   128920   126152   138588   144391   138577   143001 
  150340   145381   143194   150342   151355   149133   150543   144223 
  136269   133861   125532   124444   137872   138979   131194   139426 
  147656   136331   126212   132958   145139   148487   140001   132048 
  132557   139479   149544   153242   150984   151518   151950   150179 
  147592   143959   145201   151303   153422   150793   145303   138001 
  134184   134682   140772   151033   153231   149580   149791   149454 
  150110   153848   152188   148155   150020   151474   149266   151291 
  152894   147804   146677   150641   148007   139907   136475   142342 
  151950   154746   150599   146245   142514   141700   144888   147787 
  148034   141334   134705   138649   139845   133920   133416   136726 
  140609   142500   136414   129443   132621   142404   145476   139974 
  137303   140493   142966   140732   138136   140964   143338   144529 
  151417   152494   143253   141751   146828   144132   139375   140994 
  144035   145710   150372   156236   154691   145007   137043   136375 
  138211   140823   144769   142777   137598   142738   153360   154809 
  148698   144841   144821   146369   148582   149249   148765   149359 
  150896   150379   145446   141531   140414   138412   142321   150805 
  148867   139666   135399   135907   141650   152510   158342   152145 
  141264   136321   136975   140740   147490   148007   141956   143230 
  146111   140841   139627   145038   144836   141631   141400   137822 
  134103   138878   146287   149224   145719   140517   143226   147557 
  143727   139158   139171   139770   140134   141870   144132   141386 
  135178   138747   150117   152238   144643   137486   133756   136082 
  141316   139901   135965   138137   141797   143185   143364   140173 
  137397   140678   145274   147059   148632   148705   147220   148689 
  146168   135248   132019   139897   140236   133947   138348   147433 
  146890   144139   143862   139739   138061   140333   137369   134800 
  138233   142203   146662   149350   145925   140548   134636   130000 
  134057   143185   145833   141087   136385   135452   136854   138177 
  138694   139878   143781   148713   150622   151699   154036   154156 
  150799   144535   140886   144189   146276   144909   146979   148574 
  145890   145065   145208   143005   143797   148969   153482   152496 
  147009   146068   150831   153524   153040   149143   142091   140711 
  144620   145073   145908   147953   144490   140670   140433   138929 
  138431   141227   144047   149256   155636   155038   148478   143356 
  142708   142642   139702   138312   140073   141860   142161   141153 
  142697   145242   143630   141902   143336   145646   148370   149786 
  148155   146098   145548   145158   144215   145081   147762   146735 
  142404   139776   138001   138132   140227   139699   139348   141917 
  144674   146423   145277   143428   143403   141652   140640   142804 
  143869   144531   146759   148836   150380   152126   152321   149296 
  147036   147231   145739   144142   145048   143355   139086   138935 
  140736   139608   138919   140277   140927   141867   143306   141474 
  137755   137694   141174   143927   142275   136429   133640   139152 
  147090   147096   139209   135868   139428   141064   142391   143973 
  142415   144194   147397   144290   141262   143391   146719   148942 
  149207   148155   148941   151436   151984   148736   142767   138753 
  141652   147989   148436   143827   143850   146331   144640   144444 
  147316   146839   145705   147414   146785   143218   142210   143066 
  141412   139043   141181   147194   151059   149854   146263   143888 
  142381   139768   138979   141008   140506   138134   137320   136575 
  138052   142518   144597   144178   144327   144599   145088   144940 
  142137   139446   138811   138569   139776   141636   141849   142346 
  141856   138257   137042   139729   141502   143973   148036   147393 
