Origin Time       2024/04/02 04:24:00
Lat.              40.133
Long.             141.712
Depth. (km)       71
Mag.              6.0
Station Code      IWTH23
Station Lat.      39.2741
Station Long.     141.8233
Station Height(m) -59
Record Time       2024/04/02 04:24:55
Sampling Freq(Hz) 100Hz
Duration Time(s)  126
Dir.              3
Scale Factor      2942(gal)/8224139
Max. Acc. (gal)   14.920
Last Correction   2024/04/02 04:24:55
Memo.             
[...]
   84118    84121    84119    84118    84119    84121    84121    84121 
   84119    84115    84117    84121    84122    84121    84121    84122 
   84121    84118    84119    84119    84118    84119    84121    84119 
   84118    84119    84119    84119    84118    84118    84118    84115 
   84115    84118    84118    84118    84121    84122    84119    84119 
   84119    84119    84118    84119    84122    84121    84119    84122 
   84123    84125    84125    84125    84125    84126    84123    84115 
   84099    84067    84015    83941    83826    83660    83469    83293 
   83127    82938    82787    82790    82915    83035    83201    83516 
   83806    83918    84007    84102    84052    83837    83343    82391 
   81183    80104    79120    78059    77431    77677    78308    79038 
   80088    81429    82935    84341    85669    87193    87891    87142 
   86474    86247    85029    83297    82952    83789    83736    83146 
   84823    87779    88774    88614    88811    88329    86397    83666 
   80457    76122    72083    70059    68779    69692    75685    83627 
   88882    91467    95177   102786   111067   114057   110107   102795 
   97474    95431    91975    87153    85797    83841    79494    79936 
   83116    84153    85996    88668    89189    86694    82983    83494 
   88744    91766    89907    86285    84153    85579    88281    85885 
   77125    71047    74996    82891    85374    82968    81841    83802 
   82632    76350    75212    79744    79618    76983    78759    83003 
   84335    83528    85307    85461    79018    71408    68674    74561 
   84214    83438    77175    81816    90350    89324    80511    70951 
   71667    84076    85638    68823    61277    76223    93487    96006 
   87982    86063    95096    99377    95339    91866    85484    79875 
   84010    90082    90871    86196    78852    79670    87698    85972 
   75473    73102    81133    90283    93347    90845    90352    93708 
   93272    83251    73399    77703    86402    82120    71643    72349 
   85668    97047    95951    88163    85558    90439    95369    93831 
   84775    75926    75581    75263    67061    60959    64678    74872 
   83242    84056    80523    78952    86583    98739    97638    86147 
   80910    81507    82773    84495    82341    75379    71911    76947 
   84694    87494    87967    91380    91346    88254    93484    98226 
   90490    84103    87486    90015    91569    96137    91720    81175 
   85256    91584    83652    82197    86817    81387    83623    93403 
   89322    83631    85646    82313    77656    78640    76994    71474 
   71269    77876    83034    84099    85415    87254    87994    89341 
   91173    90882    90147    90477    89492    87713    85473    80854 
   78405    81992    82310    76106    76227    83205    84693    79407 
   76156    81807    88227    83829    79226    84461    86688    81446 
   81930    85749    82090    80982    87274    87223    82620    83609 
   88129    92404    91849    87880    90313    94363    89866    84532 
   86347    87934    81217    74515    79273    84681    80987    79775 
   82590    78649    73345    76677    80269    79004    82634    87862 
   87502    87566    88368    87397    85897    84303    84720    82139 
   77098    82127    89131    85692    83960    88425    88572    83852 
   78501    75157    77260    80036    75000    70627    76612    82044 
   82593    85387    88474    89797    90425    88904    82811    77130 
   81225    86634    83740    85051    94522    96755    89982    88237 
   92477    90643    84034    82910    83817    82262    84072    87569 
   86240    84223    86614    88304    85727    85561    87085    82863 
   80252    83791    85669    86495    88215    88137    85232    81832 
   83234    85461    82931    81206    83106    84206    83218    82837 
   82539    81851    82791    81857    79475    83034    87112    84272 
   80771    80786    83619    86233    85326    83637    80771    78372 
   81321    84626    84465    82120    79701    80948    82198    79293 
   77738    80137    80869    79211    82057    87945    87424    83439 
   84213    85091    84102    86653    87620    85330    89873    95358 
   90744    87340    90481    89530    87123    88375    86314    79504 
   76342    79672    80774    78098    81845    85784    79794    78648 
   86051    85684    81436    82213    82736    82435    83585    83197 
   82142    85437    89295    87278    85131    87083    88431    88182 
   86590    84588    86232    88439    85939    83366    84624    84419 
   81793    81918    81808    78663    80310    86441    85947    81010 
   80839    82059    82264    85214    85777    80584    77558    79828 
   81681    81125    82611    85207    84666    86013    89536    87736 
   85209    85510    83332    81976    83983    84546    83222    83357 
   86186    88053    87160    86435    85934    84985    84057    83235 
   84597    88030    88047    84408    84527    86459    83632    82495 
   86503    86208    81729    81843    84431    84900    84901    84817 
   84303    84908    87500    87813    82597    78231    78628    81122 
   84503    85768    83366    82271    85098    87980    88133    86880 
   85644    83486    80087    79342    83041    84781    80767    78746 
   82123    82451    80460    83058    85305    85187    86864    86348 
   83741    86902    93069    90992    81490    78646    83573    84298 
   81801    80256    77773    78869    83988    86690    86017    84990 
   86181    86802    84997    85423    86968    85044    82343    83948 
   87674    87547    85498    85214    84157    81544    80748    83057 
   86161    86701    83200    81094    84153    86643    86710    84963 
   80507    79632    85213    89856    87639    82714    82892    85885 
   85390    82433    81634    84333    86358    85598    84960    85602 
   85908    83866    80852    80859    82876    82899    80622    78761 
   79620    83104    86613    86454    83639    83218    85669    87612 
   86873    85098    85032    85704    85723    86213    87362    86185 
   82738    82196    84136    83479    81398    81083    80653    80589 
   84437    87542    86182    84997    83169    80088    80397    81538 
   80207    79936    80850    79427    80824    86984    86150    81395 
   85772    91015    87629    83272    85406    89066    86323    81718 
   82004    85981    89766    87000    81091    82868    87431    86440 
   84403    83500    82379    84063    86317    85066    84407    84939 
   82651    81299    83706    85122    84474    84049    84129    85429 
   85108    81634    81175    83182    83127    83586    83097    80762 
   82894    86586    85544    83614    83361    83982    85006    84250 
   83103    83308    83242    83351    84331    84477    83446    84469 
   88021    87990    83025    81094    85133    87542    84545    81753 
   81758    81939    81418    80825    82911    86629    84685    80327 
   82306    86432    87106    85984    85406    86458    86640    84699 
   83052    82872    84118    83625    81360    82134    84360    84705 
   83515    82250    83274    85737    86660    86699    88366    89222 
   86574    84835    84742    83597    83594    83716    83652    85950 
   86582    83762    82553    84744    86100    84014    82170    82167 
   81849    81909    82790    83614    84800    85826    85469    83875 
   82890    84272    85838    84546    82372    82375    82760    81923 
   82705    84771    86281    87583    86570    85700    87300    85654 
   82412    82831    84229    84663    84526    85018    86247    84748 
   82335    84017    87268    86506    82035    80315    83511    85089 
   82695    81391    83236    85129    86088    87011    85001    81967 
   83597    86387    85768    83316    82027    83207    84248    84480 
   85788    85450    82827    82541    84188    85306    85734    82863 
   79474    81568    85621    85548    81677    80813    84807    86120 
   84341    83092    82062    83262    84739    82331    79355    78484 
   77962    78737    81631    84422    86117    86883    87539    88939 
   89097    86873    85405    84927    82962    81789    80805    78359 
   81191    87922    87739    83101    83581    87569    87975    84557 
   81776    81033    81884    82406    79963    79763    84458    85199 
   82652    84975    88380    88064    87643    88929    86994    82067 
   83370    89013    89712    87664    86625    86506    87836    88007 
   84044    77402    73847    76071    78968    79162    78625    80512 
   85734    89225    87457    86319    89282    89074    84103    82143 
   82588    82540    84942    84982    80981    83427    88823    88006 
   86701    86271    84446    83739    82694    81255    81957    84813 
   85689    83300    84194    88086    89267    87095    84912    86744 
   88161    85101    82005    81274    84667    87488    81776    77256 
   79812    79907    79537    80536    78791    78730    79099    79583 
   83934    85396    83755    83878    85490    91033    94146    88339 
   84284    88011    91295    88248    82395    80688    83423    84909 
   81629    76041    77039    85124    86875    82013    83702    90941 
   93614    91335    88627    84099    80032    82593    86254    85645 
   83763    80582    77944    79365    81760    81986    79709    76307 
   78154    85293    87681    85540    86151    86616    85162    85974 
   87451    88146    87806    83718    81788    85600    86277    82479 
   81378    84304    85423    80982    79124    81970    80987    80341 
   81556    78225    77989    84079    87177    86583    88507    93712 
   93800    86782    85757    91165    91200    86371    80555    78151 
   81243    83099    84038    83486    78494    79247    85394    85374 
   83231    83074    82431    85523    89031    86422    83883    85206 
   87100    87853    88306    87751    83853    82602    86135    84979 
   80356    79162    79837    81126    83509    85558    84569    81599 
   83126    87918    86860    82340    82695    83686    81708    82198 
   83427    83126    86765    89097    83270    80153    84581    86956 
   85097    83323    82549    81708    81901    84125    85703    85098 
   84036    84979    87153    86050    83080    83376    84661    83398 
   80358    79132    83837    87223    81747    79072    84585    86036 
   83886    85970    87627    86327    85193    85347    87324    86987 
   82402    79220    79909    83474    87520    85980    80630    81263 
   84773    83745    83668    85580    84634    83254    83756    85957 
   86742    83097    81409    85903    89842    88501    84049    80257 
   81564    85812    84851    79810    77834    81607    87080    86807 
   82119    80542    83072    85476    85336    83211    81938    84971 
   88501    86271    83164    84856    86876    86616    85980    84223 
   82795    83783    84626    83604    82908    84191    83542    81583 
   84678    87297    85152    85270    86445    85159    84484    83952 
   81468    79131    81105    85938    87824    86570    84055    81803 
   84126    87845    84326    78507    78854    81380    80622    77545 
   78552    84685    86782    83808    84555    90078    92280    89376 
   88560    90779    89937    85040    83046    85560    83749    79498 
   82016    85024    83783    84237    83187    79841    82088    85510 
   82655    80148    84122    87273    86541    87833    86918    82672 
   83883    86790    84331    79972    77976    79571    83538    85669 
   83640    82344    84690    85122    83851    85259    86076    85185 
   85610    84923    82837    85278    89872    88924    84094    81253 
   83290    86238    84407    83096    85585    86000    84541    83920 
   83307    83335    84966    85791    82503    79049    82050    86493 
   84591    82343    82858    79818    80082    86865    85649    78817 
   80470    85132    85722    85348    83273    81986    84446    84345 
   81183    79419    78408    78933    80981    81994    81535    78567 
   76585    81845    86697    82912    78688    78476    79176    80033 
   76893    74088    79146    83010    83289    85549    84562    82466 
   83430    82439    80659    79570    78966    81445    83610    83176 
   83754    84079    80655    79181    84198    86848    83107    80904 
   82823    85033    86433    87671    89901    92832    90269    84605 
   86433    91941    95265    97627    96244    93816    93748    89414 
   84960    91863   100396    97017    90300    90022    92256    94898 
   96882    93236    87158    86741    93051    99484   100148    97560 
   94941    91188    87363    87536    90431    89095    84909    83277 
   82767    81753    77919    71986    71309    77494    86125    90193 
   82431    69919    69691    79247    80113    75188    78432    82823 
   81224    78605    76019    76392    81934    84407    78264    71277 
   72534    78811    82151    80068    77700    81761    87210    85602 
   83107    85907    85245    80237    79790    82983    85321    82015 
   75203    73936    75859    78021    85421    95862    98263    90358 
   81604    73263    67163    69487    72655    76069    84030    85936 
   84168    90582    98691    96940    88585    87114    88408    77318 
   65568    68092    77984    88481    87157    69861    64237    79851 
   91494    90994    91453    99601   112963   119410   108490    95287 
   98832   103732    93330    85943    93796   103059   102060    90794 
   77890    70147    71207    80553    77819    55247    42430    54660 
   74730    89468    97189    98263    95943    89625    77442    71053 
   76840    82015    81626    82344    85450    88731    90358    87593 
   79955    71207    62264    54793    57591    70085    80141    82090 
   79698    80473    86529    93263   101741   111115   112449   108001 
   99418    82011    71101    75227    81834    84904    80593    77263 
   84195    85214    81153    87084    93029    94991   101162   105760 
  103638   101027   102714   103225    96843    89189    85615    82966 
   75575    65168    63162    68588    68647    62656    58072    63900 
   76727    80361    79003    83079    87552    85645    75659    68374 
   67780    66881    74918    88469    86489    77889    79857    80428 
   71413    69383    76850    77215    75802    85137    92942    91627 
   94243   101906   104434   105730   112486   116858   110053   103081 
  105545   102660    93557    94267    96039    87000    76221    72895 
   76925    80137    75516    72164    77311    78394    73981    78204 
   87783    92296    91335    88218    87143    88553    90336    93272 
   97137    96018    87616    80090    76513    74806    79718    89236 
   91585    81055    66324    66293    80450    87805    87435    86764 
   79407    70355    68397    69591    72885    75961    77450    79624 
   73579    64615    68944    70939    61593    63485    74372    75915 
   74588    77711    82629    84403    81724    87220    96232    92449 
   87412    87824    86489    90410    98579   101545   102566   101459 
   94501    86877    83299    86530    95107    99112    96209    91095 
   86017    86393    88226    84572    84739    90398    93000    93729 
   91771    83883    79596    84253    85259    80979    81405    84454 
   89860    93145    84775    79083    80673    76165    78183    87307 
   83755    81126    90778    93407    84924    81179    83971    83478 
   81652    82931    82914    79845    75301    72392    71942    73423 
   80418    85079    82414    80299    75282    72125    79455    85008 
   85951    87189    85298    86514    92867    95457    99226   104650 
   99474    93895    97931    94585    82649    78414    77599    72273 
   69569    69765    67373    66800    67814    69001    76431    81585 
   77549    74764    75556    80271    90161    97806   100877    98833 
   94882    99426   106674   103616    92952    83203    79899    82360 
   84179    84249    85205    85938    85968    88549    92434    91481 
   88195    88192    89876    92715    93078    86984    82092    80372 
   78719    81862    82910    75428    75394    83691    80445    70811 
   70073    72577    73688    73780    70802    71728    77411    78090 
   75747    75690    76368    76071    74407    79020    91199    93366 
   84358    81575    84067    85239    88535    92026    92900    93363 
   90539    84474    84724    90015    89982    87142    86861    84825 
   80859    80284    81996    82815    80608    77002    80897    87986 
   85403    80919    82903    84964    88420    94282    95771    95629 
   95887    91266    86116    85602    85938    86679    89189    91174 
   89519    84364    81051    80048    80943    86991    88808    81575 
   78236    80720    82236    81226    76877    76592    84666    86668 
   77658    74379    81369    87003    87974    87766    85791    83290 
   87318    91735    86715    84956    88831    85982    84412    83849 
   77240    79721    85772    79215    75807    82297    83997    79849 
   79344    83115    85252    85260    83100    77978    76967    82046 
   83496    81292    83482    84095    78035    77086    84331    88951 
   89000    87543    85047    85773    90529    90787    86121    85830 
   87597    87307    87727    84133    80045    85590    88990    82181 
   80134    83786    82351    81479    82971    79868    79462    85968 
   86660    82884    88288    92155    82763    77778    86751    93158 
   89283    85236    83816    83261    88361    93221    87058    78371 
   80235    86976    89270    88539    87381    87538    87462    84499 
   84481    87696    85950    82534    82582    82486    82740    81927 
   78228    79575    84122    83970    84094    85463    83285    81859 
   82429    81841    84007    86518    84310    85094    87643    83760 
   80623    81483    81928    81722    80235    82852    86779    80784 
   75382    80099    84836    86547    89010    88452    84875    85379 
   86526    85179    87088    88277    84576    82204    84011    84223 
   79366    76580    78680    77915    74619    77259    82250    81627 
   81386    83693    83019    83174    86350    88851    89614    88535 
   86787    87129    89267    88450    85931    85976    83787    80827 
   83242    85718    86028    87111    88946    89857    88487    89699 
   90879    87602    86255    81550    74173    76334    78713    76558 
   79384    81587    78799    77441    77683    78645    80744    81060 
   80565    81136    81599    82544    83363    82379    83131    87494 
   90051    89333    88870    88387    86444    86526    90541    92412 
   91134    90042    88206    88210    87772    84063    85931    90513 
   88784    85959    83351    80709    84777    89413    84700    81121 
   85965    86636    81176    79230    80003    80646    82242    82354 
   79606    79965    84450    85261    84163    86217    85086    82081 
   85585    88200    84029    81132    80590    80392    83142    84672 
   81810    80453    83739    86643    85517    83847    83778    82837 
   81202    82246    85151    85932    85172    84358    83602    82540 
   79783    80050    84829    86522    85764    86393    87554    90660 
   91281    85261    82186    86462    87922    84223    85155    89220 
   87863    85303    85530    84844    82815    83515    87729    86549 
