Origin Time       2024/04/02 04:24:00
Lat.              40.133
Long.             141.712
Depth. (km)       71
Mag.              6.0
Station Code      IWTH16
Station Lat.      39.6436
Station Long.     140.9465
Station Height(m) 62
Record Time       2024/04/02 04:24:53
Sampling Freq(Hz) 100Hz
Duration Time(s)  187
Dir.              3
Scale Factor      2942(gal)/8224139
Max. Acc. (gal)   10.029
Last Correction   2024/04/02 04:24:53
Memo.             
[...]
  145724   145137   144127   143318   143054   143749   145404   146993 
  147835   148757   150120   150408   149018   147897   148435   149227 
  148541   146604   144335   142724   143280   145974   147928   146939 
  145100   145709   147997   148478   145932   142526   140485   139685 
  139730   140788   141863   142666   144405   146551   147360   146990 
  147426   149489   150931   149125   144792   140729   137863   136227 
  137087   139576   141729   145066   150292   153970   153141   149269 
  147098   147195   144170   137123   131527   130080   131826   136325 
  142215   145643   145378   146504   152609   159227   160583   156477 
  150589   145741   141590   137829   135622   135220   137076   140124 
  140657   138555   136684   137309   141667   147160   151576   154942 
  154030   148369   143586   142105   141501   140908   142731   147545 
  152153   154422   154422   153370   153152   153485   152555   148540 
  141520   136599   136876   137849   136015   133915   135931   143467 
  153148   159853   160512   156365   152516   151673   150234   144055 
  135688   133062   139072   146173   147568   146839   148473   149368 
  149531   153747   157135   154330   150958   147077   138765   133003 
  134326   137967   144023   153342   157616   153738   149985   149300 
  148701   146674   141157   136844   139517   141446   137552   136158 
  141983   150790   157638   159480   155819   150545   148595   149787 
  148968   143229   137716   137961   140437   141006   140652   139428 
  139743   145693   152436   152614   148556   147151   149494   150215 
  145467   139253   140757   150506   155702   151926   147258   142815 
  139202   142384   148414   149605   148880   148763   144173   136151 
  132844   137070   146423   155025   155626   150022   144911   141808 
  141926   144551   144514   142684   143424   145069   145565   146360 
  148814   152788   153959   147641   138971   136472   137552   137637 
  140958   145612   144424   142183   143985   145800   147569   150464 
  150665   149357   150210   149764   146797   147357   150265   147876 
  141743   137805   137088   139750   143969   144186   140969   141822 
  145643   145146   142700   143171   145238   148801   151699   148151 
  142950   144490   148030   148585   148900   147560   143891   142592 
  142250   140092   140629   143442   142493   140996   144892   150221 
  152361   152988   152913   152228   151160   146878   141038   139032 
  139912   141087   141723   140919   140830   142681   143885   143843 
  143874   144020   144998   147421   149067   148987   149330   150233 
  149790   146615   142134   142038   147108   150295   148764   145524 
  143552   144838   148439   151069   150692   148207   146545   146179 
  144518   141696   141682   145397   147675   145808   143125   141805 
  141281   140229   139739   144028   151035   153538   151309   148602 
  145643   141818   140564   143509   146325   147779   150977   153342 
  150830   146380   144336   145065   147083   147646   144520   142246 
  145729   148979   147226   146209   148572   150765   150647   147452 
  142858   140161   139449   139772   140985   141748   141853   142966 
  144953   145206   143775   144012   145274   145903   147823   150296 
  151129   150630   148867   145909   143448   143147   143950   143577 
  142828   143779   145949   146751   144418   142329   144224   147220 
  148852   148674   144771   140312   139233   139671   141114   143974 
  146769   148902   149273   147842   147577   149787   152142   152383 
  150784   149037   147760   145890   143853   142642   140888   139172 
  139330   139530   139843   143090   146959   147843   146391   144591 
  144999   145999   142624   138550   138959   140279   141439   144801 
  147332   147070   146508   146799   148423   149547   146878   145150 
  148490   149527   145562   144312   147549   150874   151727   149775 
  148629   149220   146014   140212   139754   143480   143949   141712 
  141139   141905   142662   143089   144825   149052   150948   149206 
  149041   148987   146028   143880   144039   145234   147073   147711 
  146936   146834   147657   148193   148400   148977   149783   150874 
  150858   147869   145449   145293   143397   142126   144605   145999 
  145285   145154   144431   142558   140402   139498   142357   147129 
  148852   147097   145280   144772   144482   144147   144508   145353 
  145766   145480   145712   147465   148990   149316   150006   149910 
  146647   142514   141404   142665   143364   143914   145944   147306 
  145530   142696   142029   143818   144950   142855   141045   143027 
  144850   143448   143383   146932   148994   148655   149380   148625 
  145196   143388   143633   145388   148200   147077   143037   144281 
  148980   148718   145683   144995   144293   143050   142619   141373 
  140686   141990   143144   144576   145908   144313   142287   142893 
  143950   144977   147526   149875   150600   149904   147136   144791 
  145812   147737   148586   148323   146530   144938   144390   144508 
  145516   146186   146878   147690   146367   144340   143490   143135 
  143750   144420   144036   144637   146017   145250   143617   143984 
  144861   144895   144532   143387   143233   144801   145629   146793 
  149037   148867   146746   146156   146295   145482   145370   146620 
  147039   145994   144560   143733   144792   145860   144552   144331 
  146277   145889   143950   144510   146323   147073   147877   148263 
  145573   142302   142770   143977   142292   140829   141161   140880 
  140786   143175   147074   149774   149922   148875   148238   147425 
  146834   148479   150813   150001   146962   146529   149227   150469 
  148657   146754   146790   147827   147623   145389   142690   142217 
  144936   147414   146807   145052   144185   144952   146622   146615 
  145687   146461   148188   149681   151278   151789   149355   145519 
  143972   145984   148440   147407   144705   144764   146175   145284 
  143904   144841   145257   142958   141282   141381   140549   139419 
  140950   144909   148236   148644   147159   146519   147503   148578 
  147781   145574   144657   144940   144165   143008   143113   144059 
  144478   142859   140967   142425   144420   144132   145590   147696 
  146367   145773   146882   144871   142357   142221   142001   143290 
  145346   142371   137685   137565   138879   139401   141517   144892 
  148770   151402   149663   146738   147136   148217   147584   147440 
  148394   148571   147221   145211   144532   145214   144097   142361 
  144169   146975   146778   144614   142794   142989   143839   143441 
  144460   146858   147027   147349   150695   152836   150681   147490 
  146194   145647   144126   142416   143155   145916   146192   143633 
  142312   142510   143938   148632   152683   150395   145771   144828 
  145878   145997   145621   145349   145488   145818   145145   144636 
  145168   144167   143316   146325   149064   147968   146330   144684 
  142161   142551   145386   145538   144705   146254   148169   148991 
  148387   146554   146438   149207   151032   148996   145723   144073 
  144219   145918   147303   146496   143752   140567   139247   139565 
  140605   143738   147289   148942   148784   145627   141851   141829 
  144209   146842   149392   150755   150552   148304   144012   140864 
  141397   143996   145835   146146   147150   149342   149206   147623 
  148559   149914   149358   148645   146429   140734   136320   138497 
  144612   148578   149087   147958   146680   147741   149715   147351 
  143510   144171   145932   144009   140246   137849   138144   141594 
  146707   149648   149571   149106   147974   146514   148524   151891 
  151098   147989   146383   145867   145798   145848   145309   144757 
  145018   145876   146543   145945   144197   143691   145054   145180 
  143900   144811   147183   147688   146491   144477   142327   142434 
  145581   148111   146880   144767   144779   144757   142550   139121 
  137612   139584   142643   145072   146294   145962   146330   148270 
  149744   150144   149647   147935   145384   142897   142231   143811 
  144097   142315   143036   145986   146722   145975   145794   145143 
  144094   144325   145685   145790   143486   140570   140475   144786 
  148500   147175   145455   146911   148568   148944   148651   146435 
  141671   138677   140324   142114   142163   143710   146676   149046 
  148695   145404   144409   147703   150419   150503   149871   148988 
  147280   145188   143834   144158   145434   146514   147573   147074 
  144352   142580   142449   143311   146592   149955   150055   149426 
  149158   146161   143225   144286   145854   146191   146368   145110 
  144058   144016   141961   140611   144861   151081   152917   150464 
  146551   143170   142951   144671   143857   141470   141737   143953 
  144371   143402   144089   146121   147370   147352   146896   145739 
  142303   139224   140829   143511   142047   139671   141201   144714 
  145598   144695   145899   147820   148084   148378   148007   146416 
  147518   150630   151692   150978   148518   144462   142317   143095 
  144418   144378   142358   140590   141736   143779   145017   148107 
  151765   151698   149300   147240   145206   143247   142362   143664 
  146956   149943   150449   148382   146466   147198   148263   147991 
  149038   149403   145704   142765   143827   146654   150574   152301 
  149562   147175   146075   143950   143914   145764   145006   143534 
  143776   142331   139187   138566   140848   143958   146472   146892 
  146028   146291   147514   148606   149376   149575   148590   145350 
  140892   138254   139301   143249   146110   146489   146989   146468 
  144135   143576   144790   146106   148192   149393   147729   144147 
  140310   138465   140563   144649   146889   146870   145227   141682 
  139688   142658   146897   148261   148547   149488   149293   147118 
  145030   145235   147475   148792   146411   142384   141720   144132 
  146097   148122   150051   148815   145057   142786   143995   146534 
  147757   148711   149446   146534   141316   140630   145721   150095 
  149613   147190   146500   146574   145138   142901   142037   142669 
  143021   143760   146472   148363   147839   148122   148972   147316 
  144504   143703   145822   149166   150460   148641   145621   143775 
  144285   146327   148362   148369   146759   147613   148578   144756 
  141663   143631   145971   146608   146800   146944   147606   147830 
  146530   144738   143714   144140   146115   147839   146979   144622 
  143440   143573   144333   144946   144683   145027   146766   147071 
  144467   142526   143081   142793   141081   140313   140547   141026 
  140256   137976   136745   137070   138418   141207   143641   144342 
  144913   146449   148648   150511   150346   148506   147885   148770 
  147702   144350   141951   140304   139102   141519   146218   148521 
  148586   148225   147950   148915   150304   149567   146897   143768 
  140278   137056   135157   133926   133069   133712   135486   137637 
  139927   140837   140922   142808   145593   147495   149431   150952 
  150994   150168   147831   145147   146051   149172   149493   147055 
  145416   146145   148212   149057   148501   149774   151980   151443 
  149774   149724   149820   148005   145189   143977   145608   148656 
  151270   153936   156478   155614   151403   148699   148950   149536 
  148917   147571   148096   152012   155745   156524   156753   156215 
  152019   147058   143928   139251   133170   130416   131535   133369 
  133617   133308   135714   139369   140335   140892   143588   145060 
  143883   143386   146361   152844   158211   158035   155314   153231 
  151933   153239   155245   153256   149362   149920   155386   159422 
  158356   154819   152022   150333   147629   141048   131774   124991 
  122381   122153   123311   124411   125149   126646   128063   129556 
  132661   136216   139486   143073   145449   146225   147010   147517 
  148117   151907   159209   164544   163622   160513   160722   163289 
  165642   165547   160566   153175   148128   145905   145423   145829 
  143918   138924   135652   136298   137556   137242   136270   135858 
  137079   139729   141235   140745   140067   140310   142177   144373 
  143461   140312   139363   142375   147426   150873   151478   151799 
  153751   156664   159746   162017   160741   155605   149786   145262 
  144121   146313   147305   147020   148019   148262   147985   151090 
  156547   158608   154634   147279   140463   137116   137968   141517 
  146777   151305   150797   147104   145065   142142   136617   135618 
  142032   148567   151838   155310   157624   155001   149570   144343 
  140356   138319   135460   131576   131662   134370   136198   138638 
  140000   137778   134730   133628   134277   135155   134462   132096 
  130530   130137   128071   124406   122077   122659   125683   129736 
  133964   138545   145535   155322   162978   165647   165917   166293 
  167448   167370   164307   161782   162220   163337   164304   164749 
  164173   164686   166324   165508   160290   152308   145363   143472 
  145516   143734   135994   130720   132792   137531   138119   131930 
  124501   123635   126995   126986   124430   124788   129189   135996 
  142812   146886   147800   148047   149508   150919   150982   152030 
  157023   164745   171089   173573   172440   169570   166784   163763 
  160022   156288   153291   150938   145806   136593   128328   123169 
  120205   120109   121355   121853   121527   121414   124302   130593 
  135846   137810   139216   141096   141201   139153   137563   138376 
  141137   145039   149073   151317   151506   151942   153983   155903 
  156304   156550   157713   158210   154090   143818   134842   135461 
  141534   143430   139729   136231   136587   139442   143482   146959 
  147367   148127   152832   156911   157777   160201   165831   169200 
  166774   163823   165105   166071   163668   161060   158193   154431 
  152113   149920   146664   145075   143370   139313   136279   133764 
  130875   132351   136663   138460   138982   139411   139708   142960 
  148535   150834   148933   147934   150277   153526   156432   159896 
  163247   165744   168567   171207   172211   172497   171370   168631 
  168914   171400   169909   165329   159729   152852   148950   148394 
  145770   141482   139268   139600   140325   138662   135869   135630 
  136645   134877   129838   124201   120737   120887   124619   129168 
  129416   124209   119762   121857   127168   129722   131028   132027 
  129290   126292   127819   131209   134014   135568   136123   138171 
  141016   142065   141060   139550   141469   146242   147644   145092 
  140971   136494   136408   141953   148257   151808   149706   142615 
  136576   133363   131969   133519   135174   133434   131391   131487 
  130106   126052   123761   125320   128676   131383   132630   134584 
  138697   142414   143553   143245   142788   142632   144266   148014 
  151638   154192   156963   159301   158106   154835   154993   157914 
  159358   159302   158114   156070   155591   156739   159097   162926 
  163659   160097   158292   158620   158839   160686   161843   160119 
  158936   159175   159753   160257   158349   155066   153986   153347 
  152054   153227   154896   153175   150587   149432   147702   145204 
  144351   145386   146310   146125   144768   143127   142861   143077 
  143550   146908   150566   149505   145557   142142   140157   141199 
  145129   149243   151497   151198   150063   150075   150279   150007 
  150427   152415   155553   156666   153497   149609   148477   148099 
  145874   142422   139144   136684   135926   136597   136350   134343 
  132529   131134   127919   123911   122436   123959   127750   131889 
  134528   138265   142884   143155   140409   139642   140557   142515 
  145677   148014   149771   152624   154857   154888   154404   155205 
  156139   154781   151368   147447   143411   140508   139627   139294 
  138510   138330   140138   142792   143738   143924   144892   144602 
  142045   138360   134578   133137   134624   135467   134731   135271 
  137863   141378   145080   148527   151027   152316   154361   156957 
  155912   152608   152184   152741   152145   153663   156277   156490 
  156073   156717   157499   158244   158629   159186   161190   162608 
  161530   159611   156988   152950   150048   149590   149709   149231 
  147610   144948   143014   141767   139310   136232   133982   134175 
  138951   143846   142936   140583   140495   139243   136968   135608 
  135351   136876   138763   140354   142318   142133   140795   143806 
  148447   147089   141066   136840   136813   138991   139811   139074 
  138700   137710   136367   136794   137494   136741   136443   139324 
  145431   150565   150908   148177   145671   144648   146105   148591 
  148462   145658   142743   141389   142237   144925   148127   148915 
  146119   143232   142774   143365   143550   144559   147216   148936 
  149632   151476   151785   149251   148651   151416   153620   154468 
  155854   157308   158643   160012   160307   160613   160920   158706 
  156018   155201   153981   152259   151771   151960   152004   150801 
  147891   145909   146198   146387   145773   145153   143457   141297 
  140632   140683   140599   139618   136048   132117   131044   132486 
  136466   141068   141453   138294   136189   136525   138904   142383 
  145084   146299   146391   145882   146299   148779   151407   151016 
  148170   146111   144884   143287   143006   144456   145893   146826 
  146400   144236   142597   142815   143993   145231   145561   144570 
  143391   142446   140987   139087   136879   135349   137058   140903 
  143033   143495   143380   141678   139453   139001   140290   142115 
  142692   141696   141839   143226   142608   140169   139675   142213 
  145002   146616   147266   146508   145968   147123   148544   150812 
  154631   156423   154926   154213   155332   154319   151303   151128 
  153875   155402   154273   151233   147534   144633   142138   139156 
  136518   135421   135765   136617   139020   143733   147059   146832 
  145860   145999   146052   144661   143608   144806   144895   141943 
  139622   139203   139575   140946   141832   141894   143490   144626 
  143001   142700   145081   146225   145359   144339   144518   145655 
  145741   145423   146735   148053   148321   149805   152821   154457 
  152496   149150   148370   148863   147802   147499   149571   150719 
  149544   148572   148209   147159   145702   144369   145085   148394 
  149439   146870   145500   146022   145368   144494   146669   150804 
  153222   153600   153202   152344   151252   149497   147812   147804 
  148621   149358   150568   151170   149335   146639   146682   148849 
  149075   146677   143968   141808   140570   140374   139129   135839 
  133598   134921   137489   138125   137367   137515   139563   141621 
  140613   137952   137705   139374   140333   141473   144585   147758 
  148491   149112   152609   156871   158715   158426   157736   156455 
  153455   150502   150893   154195   156132   154689   153338   154926 
