Origin Time       2024/04/02 04:24:00
Lat.              40.133
Long.             141.712
Depth. (km)       71
Mag.              6.0
Station Code      IWTH28
Station Lat.      39.0094
Station Long.     140.8640
Station Height(m) 380
Record Time       2024/04/02 04:25:00
Sampling Freq(Hz) 100Hz
Duration Time(s)  120
Dir.              4
Scale Factor      7845(gal)/8223790
Max. Acc. (gal)   9.928
Last Correction   2024/04/02 04:25:01
Memo.             
[...]
   -2119    -1971    -1652    -1102     -761    -1420    -2527    -2687 
   -2116    -1757    -1398     -996     -911     -592     -145     -681 
   -1540    -1201     -122      589      756      253     -643    -1027 
   -1071    -1571    -1958    -1539     -897     -623     -411       40 
     247     -159     -680    -1047    -1498    -1695    -1210     -831 
   -1277    -1717    -1618    -1528    -1522    -1316     -869     -349 
     -81      -87     -252     -561     -680     -530     -589     -974 
   -1367    -1348     -784     -498     -903    -1040     -616     -398 
    -558     -540      -71      114     -591    -1398    -1599    -1606 
   -1736    -1641    -1047     -621    -1073    -1607    -1541    -1624 
   -1699     -928     -472    -1159    -1367     -760     -873    -1464 
   -1537    -1609    -1902    -1678     -981     -486     -376     -510 
    -720     -916    -1131    -1163     -710      -99       62     -238 
    -623     -915    -1310    -1829    -2012    -1961    -2188    -2316 
   -1836    -1073     -515     -207       40      -29     -611    -1086 
   -1308    -1742    -1906    -1204     -556     -760     -838     -162 
     257     -110     -783    -1539    -2088    -1860    -1084     -510 
    -194       22     -241     -986    -1688    -2145    -1989    -1240 
    -913     -959     -552     -337     -657     -453        4     -342 
    -963    -1264    -1533    -1590    -1154     -646     -683    -1202 
   -1547    -1548    -1290     -712     -417     -757    -1007     -988 
   -1251    -1335     -496      288     -120     -932    -1331    -1752 
   -2189    -1868     -704      113     -434    -1576    -1962    -1632 
   -1250     -966    -1001    -1505    -1645     -957     -467     -756 
   -1055     -993    -1021    -1093     -743     -268      -83      -59 
    -292     -561     -279      125      156      145       -4     -561 
   -1237    -1763    -1858    -1455    -1151    -1383    -2026    -2598 
   -2574    -2452    -2880    -2895    -1912     -880      -98      351 
      54     -288     -228     -444     -819     -770     -657     -912 
   -1138     -912     -579     -888    -1958    -2771    -2547    -1983 
   -1765    -1444     -862     -865    -1733    -2393    -2058    -1354 
    -845     -163      449      121     -685    -1107    -1428    -1571 
   -1174     -891     -826     -398       58       82     -270     -795 
   -1028     -927     -908     -945     -982    -1285    -1638    -1691 
   -1647    -1532    -1132     -864     -984     -854     -298     -130 
    -581     -819     -560     -518     -896    -1193    -1367    -1568 
   -1561    -1304    -1085    -1004    -1058    -1134     -729      116 
     604      676      456     -402    -1161     -874     -305     -437 
    -993    -1266    -1223    -1467    -1964    -1728     -429      765 
     708     -244    -1078    -1409    -1148     -568     -573    -1244 
   -1552    -1132     -531     -213     -290     -814    -1621    -2003 
   -1772    -1586    -1286     -452      -24     -718    -1641    -1917 
   -1942    -2079    -1556     -306      399      390      232     -631 
   -2087    -2677    -2259    -1810    -1459    -1219    -1275    -1413 
   -1609    -1773    -1726    -1759    -1734    -1223     -815    -1069 
   -1312    -1215    -1332    -1463    -1069     -657     -861    -1406 
   -1896    -2278    -2107    -1190     -562     -683     -762     -757 
    -965     -781     -244     -244     -645     -950    -1300    -1408 
   -1042     -842    -1117    -1421    -1232     -522       58       94 
    -210     -708    -1287    -1633    -1451     -832     -267      -36 
    -197     -872    -1871    -2508    -2003     -596      260      151 
    -151     -881    -1950    -1961     -870       40      363      228 
    -325     -839     -577      149       67     -730    -1036     -803 
    -508     -157      -44     -450     -827     -805     -967    -1563 
   -2049    -2079    -1737    -1282     -961     -865     -965    -1169 
   -1475    -1899    -2119    -1725     -980     -638     -727     -696 
    -839    -1521    -1960    -1741    -1389    -1159     -959     -688 
    -591    -1062    -1733    -1983    -1678    -1061     -784    -1044 
   -1405    -1733    -1764    -1258     -765     -814    -1320    -1737 
   -1620    -1256    -1112    -1297    -1494    -1285     -943     -977 
   -1377    -1809    -1888    -1507     -943     -506     -319     -318 
    -349     -477     -868    -1247    -1030     -218      432      531 
     275     -429    -1248    -1142     -406     -186     -286     -510 
   -1256    -1757    -1408     -830     -342     -272     -931    -1597 
   -1852    -2061    -1996    -1302     -521     -287     -430     -594 
    -750     -776     -588     -325      -22       82     -225     -615 
    -816     -827     -672     -595     -654     -749    -1174    -1845 
   -2035    -1634    -1298    -1406    -1663    -1528     -888     -414 
    -784    -1470    -1516    -1321    -1733    -1961     -999      149 
     403      218     -103     -630    -1104    -1204     -569      238 
      -8     -931    -1300    -1247    -1313    -1413    -1669    -1983 
   -1710    -1266    -1517    -1964    -2108    -2340    -2548    -2438 
   -2339    -2191    -1449     -367      248      268       58     -306 
    -889    -1269     -942     -499     -658     -660     -149     -259 
   -1078    -1575    -1561    -1345    -1224    -1537    -2012    -2092 
   -1788    -1333     -784     -376     -621    -1455    -1809    -1147 
    -573     -934    -1505    -1486     -953     -278       36     -311 
    -757     -781     -838    -1081     -959     -425      162      612 
     702      137    -1003    -1996    -2203    -1769    -1081     -367 
      81       56     -511    -1479    -1989    -1448     -708     -572 
    -818    -1155    -1105     -453     -120     -514     -841     -936 
   -1109     -895     -187      199      -45     -598    -1156    -1489 
   -1590    -1557    -1344    -1156    -1335    -1788    -2211    -2447 
   -2513    -2273    -1634    -1119     -961     -746     -722    -1092 
   -1124     -743     -534     -382     -184     -220     -247     -112 
    -394    -1247    -2000    -2157    -1740    -1108     -828    -1142 
   -1719    -2074    -2010    -1890    -2168    -2637    -2803    -2351 
   -1165      128      564      247     -162     -596    -1020    -1242 
   -1339    -1304     -993     -337      333       44    -1182    -1756 
   -1255     -972    -1051     -525      236      317      -27     -467 
   -1208    -2012    -2131    -1441     -838     -653     -306     -132 
    -820    -1761    -2039    -1652    -1260    -1244    -1062     -427 
    -129     -611    -1297    -1506    -1078     -305      351      341 
    -303     -606     -410     -626    -1047     -972     -702     -719 
   -1219    -1748    -1516     -961     -610     -113     -109    -1127 
   -1892    -1783    -1768    -2057    -1741     -700      203      490 
      87    -1062    -2365    -2805    -2316    -1617     -939     -373 
    -421    -1005    -1422    -1593    -1764    -1579     -954     -627 
    -595     -160      282       64     -345     -523     -603     -450 
    -157     -152     -344     -693    -1483    -2334    -2485    -1946 
   -1432    -1348    -1613    -2008    -2085    -1802    -1678    -1533 
    -989     -666     -994    -1382    -1393    -1030     -291      529 
     931      562     -423    -1193    -1244     -992     -862     -773 
    -715    -1093    -1845    -2263    -2301    -2266    -1701     -739 
    -440     -615     -388     -140     -515    -1306    -1872    -1586 
    -953    -1120    -1526    -1171     -738     -797     -967     -927 
    -480      -13     -313    -1102    -1576    -1588    -1101     -328 
    -203     -904    -1517    -1699    -1564    -1128     -919    -1143 
   -1038     -596     -670    -1123    -1220    -1075     -955     -577 
    -279     -760    -1385    -1236     -733     -483     -373     -373 
    -720    -1213    -1360    -1285    -1624    -2342    -2677    -2376 
   -1742     -911     -236     -156     -311     -390     -911    -1935 
   -2512    -1922     -692       70       98     -187     -550     -849 
   -1113    -1321    -1073     -403       63      -55     -571     -907 
    -989    -1242    -1385    -1132     -876     -564     -174     -233 
    -738    -1358    -1939    -2043    -1617    -1466    -1602    -1186 
    -506     -382     -756    -1235    -1393    -1059     -897    -1394 
   -1841    -1485     -746     -519     -885    -1181    -1104     -885 
    -803    -1013    -1306    -1524    -1811    -1950    -1813    -1539 
    -822      -74     -414    -1259    -1393    -1260    -1294    -1158 
   -1112    -1132     -492      641     1298      919      -28     -556 
    -715    -1036    -1084     -785     -747     -815     -812     -993 
   -1198    -1304    -1452    -1516    -1389    -1189     -936     -769 
    -877    -1063    -1175    -1215     -908     -230      476      973 
     870      148     -399     -433     -278     -155     -508    -1485 
   -2378    -2793    -2747    -2107    -1328    -1067    -1250    -1514 
   -1413     -853     -507     -619     -945    -1640    -2353    -2326 
   -1829    -1503    -1356    -1258    -1165     -949     -641     -653 
    -992     -754       36       62     -702    -1139    -1146    -1267 
   -1610    -1988    -2138    -1876    -1323     -974    -1281    -1657 
   -1235     -368      353      791      783      472     -249    -1445 
   -2074    -1679    -1152     -927     -938    -1398    -2178    -2764 
   -2740    -1845     -626      -47       33      -54     -546     -788 
    -328     -218     -715    -1007    -1156    -1150     -313      545 
      68     -804     -866     -990    -1614    -1871    -1830    -2008 
   -1877     -970       95      324     -469    -1321    -1598    -1668 
   -1462     -739     -345     -861    -1489    -1539    -1264     -885 
    -514     -650    -1445    -2443    -3083    -2826    -1683     -445 
      67     -409    -1370    -1879    -1553     -707      272      796 
     476      -49     -282     -545     -804    -1046    -1676    -2382 
   -2776    -3087    -3006    -2281    -1587    -1314    -1474    -2056 
   -2450    -2053    -1254     -777     -569     -233      162      488 
     398     -654    -1710    -1275     -283      -90       22      307 
     199      -16     -658    -1939    -2207     -853      364      310 
    -604    -1337     -974      -55      535     1267     1833      903 
    -911    -1884    -1837    -1414     -796      -99      193     -380 
   -1348    -1597    -1221    -1044     -951     -780     -751     -858 
   -1296    -1971    -2161    -1895    -1772    -1873    -2172    -2416 
   -1921     -773      108      342      220      -81     -442     -534 
    -313     -282     -627     -618      243     1177     1367      868 
    -103    -1129    -1605    -1514    -1074     -553     -691    -1502 
   -1977    -2062    -2357    -2511    -2366    -2467    -2682    -2525 
   -1934    -1089     -376     -137     -411     -764     -257     1108 
    1810     1204      355     -120     -469     -832    -1408    -2301 
   -3242    -3774    -3230    -1972    -1638    -2408    -2937    -2662 
   -1813    -1044     -770     -432      213      761     1174     1324 
     899       39    -1282    -3218    -4945    -5589    -5471    -4989 
   -3994    -2681    -1710    -1794    -3121    -4823    -5929    -6133 
   -5090    -2895     -745      473      742      307     -194     -357 
    -477     -722     -846     -511      256      764      519     -276 
   -1417    -2596    -2988    -2311    -1421    -1096    -1345    -1595 
   -1100       -8      911     1647     2797     4293     5101     4733 
    3766     2698     1868     1183      152     -808    -1501    -2806 
   -4600    -5829    -5927    -4425    -1337     2126     4627     5551 
    5027     3701     2088      687       49      168      661      892 
     179    -1453    -3685    -6384    -9040   -10702   -10854    -9544 
   -6818    -3296     -237     1659     2465     2577     2160     1080 
     -12      190     1863     3689     4297     3165      567    -2154 
   -3314    -3018    -2520    -1675     -141      533     -967    -3524 
   -5225    -5278    -4012    -2382     -920      781     2837     4641 
    5842     6234     5082     2546      633      136     -913    -3481 
   -5721    -6195    -5483    -4315    -2909    -1825    -1656    -2521 
   -4468    -7369   -10083   -11094   -10563    -9856    -8770    -5832 
   -1236     3096     5957     6821     5472     3469     2569     2413 
    2442     2774     3034     3169     3514     3110      843    -2143 
   -3867    -4126    -3682    -2554     -658     1448     3145     3843 
    2736     -352    -3848    -5811    -6432    -6775    -6558    -5512 
   -3879    -1425     1057     1984     1509      561     -517    -1096 
    -938     -831    -1281    -2141    -3473    -5374    -7055    -7010 
   -4467     -540     2648     3861     3366     2573     2849     3964 
    4718     4826     4333     2776      936      157     -561    -2182 
   -2781    -1061     1377     2413      992    -2216    -5219    -6986 
   -7711    -7510    -6513    -4761    -2490     -822     -267      -70 
     199      337      446      834     1283     1671     2562     4133 
    5494     5304     3099       41    -2840    -5557    -7257    -6478 
   -3748    -1520    -1543    -3507    -5935    -7454    -7403    -5953 
   -3603     -249     4411     8623     9414     6957     3784      907 
   -1125    -1660    -2016    -3796    -6331    -7489    -5934    -2533 
    1244     4758     6652     5405     1875    -1773    -4286    -4896 
   -3172     -164     1865     1354    -1229    -4213    -6558    -7852 
   -7762    -6615    -4603    -1308     2501     5124     5744     4108 
     591    -2388    -1811     1848     4502     3423     -102    -3173 
   -3794    -1972     -264    -1047    -3122    -4302    -4997    -6311 
   -7732    -8117    -6837    -4212    -1539      437     2143     3628 
    4764     5528     4263     -182    -5170    -7537    -6407    -1852 
    4035     7393     6880     4066      766    -1270    -1111       -4 
     341     -135     -909    -1917    -3069    -4278    -4949    -4164 
   -2535    -1270     -187     1242     3177     5375     6632     5945 
    3890     2043     1402     1525     1352      321    -1637    -4314 
   -6758    -7955    -8564    -9805   -10979   -10432    -7805    -4017 
    -454     1514     1737     1556     1795     1968     1537      426 
    -499      309     2371     3017     1263    -1410    -3905    -6203 
   -8388    -9552    -7792    -3277      785     2438     3015     4033 
    4843     4459     3662     3252     2201     -199    -2556    -3230 
   -2339     -985      228     1044     1004      -56    -1254    -1151 
     346     1588     1539      967      544     -221    -1512    -2535 
   -3127    -4290    -5944    -6361    -4787    -2004     1274     4191 
    5467     4472     1903     -565    -1925    -2636    -3395    -4353 
   -5121    -4985    -4032    -3238    -3029    -3472    -5001    -6902 
   -7094    -4687    -1237      845      791     -418    -1939    -3130 
   -3546    -3902    -4205    -2675      619     2924     2704      743 
   -1552    -3118    -3925    -4002    -2377      291     1220       58 
    -920     -869     -237      700     1085      194     -945     -720 
     390      324     -931    -1502    -1375    -1625    -1663    -1279 
   -1719    -3037    -4005    -3483    -1192      885      835      128 
      67     -812    -2700    -3356    -1412     2222     4928     4625 
    2242       47    -1004     -718      216      695     1830     4529 
    6408     5571     2795     -804    -3946    -5031    -3848    -1638 
     -54     -468    -2582    -4477    -5155    -5335    -5675    -5833 
   -5232    -3946    -2389     -926      -14      113     -603    -1976 
   -2982    -2569     -602     2300     4963     6388     6053     3450 
    -913    -4676    -5904    -5324    -4793    -4714    -4001    -1904 
     885     2685     2330      645     -893    -2671    -5101    -6214 
   -4355     -615     2502     2835      125    -3636    -6228    -6389 
   -3790      608     4743     6608     5825     3670     1062    -1648 
   -3157    -2500     -723      804     1440     1024      537      907 
    1302      797      251      726     1605     1934     1976     1964 
    1156     -529    -1709    -1552    -1077    -1413    -2357    -3275 
   -4139    -5464    -7430    -8761    -7890    -5146    -1880      869 
    1922      884    -1169    -2978    -3258    -1493      704     2070 
    3550     5517     6420     5007     1888    -1285    -3418    -4113 
   -3384    -2091    -1385    -1325     -864       78     -191    -2393 
   -4950    -6049    -5154    -3510    -3160    -3935    -3480    -1571 
    -606    -1100     -966     1233     4614     6363     4351     -303 
   -4506    -6130    -5267    -3322    -1588     -857    -1015    -1480 
   -2438    -3886    -4446    -2991     -342     1821     3015     3510 
    2813      514    -2230    -3526    -2785    -1570    -1884    -3381 
   -3661    -1590     1649     4330     4885     2619     -822    -3007 
   -3797    -4495    -4876    -3828    -1563     1140     3580     4406 
    3199     1482       44    -2004    -4594    -5917    -4687    -1910 
     201      897      820      140    -1170    -2957    -4951    -5964 
   -5097    -3061     -535     2002     3331     2911     1235     -990 
   -2297    -1775     -338     1383     3334     4453     3898     1652 
   -1989    -5285    -6199    -4965    -3161    -2353    -3319    -4394 
   -3449    -1547     -940    -1560    -2446    -3559    -4266    -3608 
   -2558    -2120    -1251      199      820      710      514     -375 
   -1780    -2454    -1674      711     3337     3707     1834      333 
     318      772     1298     2126     2389     1005    -1451    -3234 
   -3577    -3107    -2419    -1543     -278      958      935     -170 
    -517      371     1308     1414      271    -1888    -3811    -4500 
   -4051    -3473    -3825    -4453    -3719    -1979    -1090    -1410 
   -2033    -2295    -1506      367     2239     3588     4531     4472 
    2866      348    -1784    -2404    -1522     -271      465      540 
      16    -1445    -4191    -6743    -6860    -4807    -2427     -868 
    -762    -1528    -1829    -1559     -855      390     1075      303 
    -587        2     1108      946     -118     -880    -1000     -592 
    -137     -253    -1385    -3335    -4654    -4271    -2779    -1318 
    -841    -1239    -1441    -1549    -2463    -3852    -4540    -3801 
   -1948      -20      965      533     -658    -1555    -2045    -2115 
   -1587    -1240    -1456    -1270     -608     -353      -93      940 
    2026     1989      676     -957    -1794    -1860    -2070    -2560 
   -2463    -1614     -595      625     1568     1089       16      -17 
     309     -103     -646     -695     -145     1054     1912     1387 
      72     -885    -1077     -676        1      514      194    -1406 
   -3662    -4972    -4828    -4283    -3408    -1710     -438     -735 
   -1617    -2077    -2606    -3469    -3933    -3781    -3424    -3025 
   -2484    -1636     -827     -858    -1736    -2311    -1202     1503 
