Origin Time       2024/04/02 04:24:00
Lat.              40.133
Long.             141.712
Depth. (km)       71
Mag.              6.0
Station Code      IWTH01
Station Lat.      40.2383
Station Long.     141.3423
Station Height(m) 29.8
Record Time       2024/04/02 04:24:49
Sampling Freq(Hz) 100Hz
Duration Time(s)  161
Dir.              2
Scale Factor      2942(gal)/8224139
Max. Acc. (gal)   13.669
Last Correction   2024/04/02 04:24:49
Memo.             
[...]
  186179   186178   186175   186177   186175   186177   186179   186178 
  186178   186178   186177   186177   186178   186178   186178   186178 
  186179   186178   186178   186179   186179   186177   186177   186178 
  186178   186175   186177   186178   186177   186177   186177   186175 
  186177   186178   186178   186177   186178   186179   186179   186178 
  186177   186177   186177   186177   186178   186179   186182   186181 
  186178   186181   186182   186178   186179   186181   186178   186177 
  186177   186178   186181   186179   186177   186177   186179   186181 
  186181   186179   186179   186179   186179   186182   186182   186178 
  186179   186181   186179   186181   186179   186178   186181   186182 
  186181   186181   186179   186179   186181   186178   186177   186179 
  186181   186181   186181   186182   186181   186179   186178   186177 
  186175   186179   186181   186178   186179   186182   186178   186179 
  186182   186179   186177   186179   186181   186182   186179   186178 
  186181   186181   186179   186179   186178   186177   186179   186181 
  186177   186179   186181   186178   186179   186178   186177   186178 
  186178   186177   186177   186178   186179   186182   186182   186179 
  186178   186178   186177   186178   186181   186181   186177   186175 
  186178   186181   186178   186177   186179   186181   186179   186178 
  186178   186179   186178   186177   186178   186179   186181   186178 
  186174   186177   186179   186178   186179   186181   186178   186177 
  186179   186182   186181   186178   186177   186178   186181   186181 
  186178   186178   186179   186178   186178   186177   186177   186178 
  186179   186178   186178   186178   186178   186177   186175   186178 
  186178   186178   186178   186177   186175   186178   186178   186175 
  186177   186179   186175   186174   186177   186178   186178   186179 
  186178   186178   186181   186179   186178   186177   186177   186177 
  186178   186182   186181   186177   186179   186181   186177   186175 
  186177   186177   186177   186177   186177   186179   186179   186177 
  186178   186181   186179   186177   186177   186178   186179   186178 
  186179   186179   186177   186177   186178   186178   186179   186178 
  186175   186178   186178   186175   186174   186175   186178   186179 
  186179   186177   186175   186178   186179   186177   186177   186179 
  186178   186177   186178   186175   186174   186179   186182   186179 
  186179   186179   186177   186179   186181   186179   186178   186175 
  186178   186179   186178   186178   186178   186178   186178   186178 
  186181   186182   186179   186178   186181   186181   186178   186178 
  186178   186175   186178   186181   186178   186177   186177   186175 
  186177   186178   186177   186177   186179   186179   186177   186177 
  186175   186177   186179   186177   186175   186177   186175   186178 
  186179   186179   186179   186178   186179   186181   186178   186181 
  186181   186178   186179   186178   186177   186178   186178   186177 
  186178   186178   186178   186179   186179   186178   186178   186179 
  186178   186177   186177   186178   186178   186179   186179   186178 
  186178   186179   186178   186178   186178   186177   186177   186179 
  186179   186179   186179   186178   186178   186179   186181   186177 
  186175   186181   186181   186178   186174   186177   186182   186183 
  186179   186177   186179   186177   186175   186179   186179   186175 
  186175   186179   186181   186179   186177   186177   186177   186178 
  186178   186177   186179   186179   186174   186173   186178   186178 
  186177   186179   186179   186178   186178   186178   186179   186178 
  186178   186178   186178   186178   186179   186179   186179   186179 
  186178   186178   186177   186179   186179   186177   186177   186181 
  186181   186178   186178   186178   186179   186179   186177   186178 
  186181   186181   186178   186178   186181   186181   186181   186181 
  186178   186178   186181   186179   186179   186179   186181   186182 
  186179   186178   186179   186179   186179   186179   186178   186179 
  186181   186179   186178   186178   186179   186179   186177   186177 
  186178   186178   186179   186182   186182   186182   186179   186179 
  186182   186182   186179   186178   186179   186179   186181   186178 
  186178   186181   186179   186178   186179   186178   186177   186175 
  186177   186181   186179   186175   186177   186179   186178   186177 
  186178   186179   186177   186177   186178   186181   186181   186179 
  186179   186179   186179   186178   186181   186181   186178   186178 
  186178   186178   186179   186179   186177   186178   186181   186181 
  186177   186173   186162   186133   186078   185986   185853   185670 
  185446   185190   184916   184651   184438   184319   184330   184486 
  184815   185382   186175   186984   187645   188229   188769   189292 
  189753   189884   189761   189531   188946   188028   186773   185251 
  184198   183428   182190   181026   180454   180419   180484   179749 
  179698   181712   182992   182869   184054   186853   190317   192449 
  192138   192572   194400   194497   192971   192049   192063   191772 
  190794   188865   186104   185507   186568   184103   179469   177541 
  176538   175914   178038   179806   180990   183757   183984   181261 
  179533   179802   182915   186526   187535   190813   197671   197066 
  188036   185329   189615   188704   184149   185182   190664   192316 
  187947   183605   182239   181565   183519   188601   188173   182726 
  183857   188049   184663   178457   179049   185727   190406   191057 
  192778   194462   191523   184794   178623   180895   191596   196011 
  192577   193351   195467   193569   190794   187848   187046   190040 
  191579   187145   181477   182283   186007   184523   178376   175194 
  178551   181356   180688   178735   174204   173535   179452   182798 
  183146   184657   188011   195552   200639   194093   186205   189783 
  197469   199389   198140   197968   197760   196114   192048   183321 
  175439   174549   175317   177192   181849   182147   181905   186706 
  184153   175830   179496   189716   192766   190800   188474   189089 
  194574   198289   194668   188890   184869   181241   180891   185645 
  189313   188692   187814   187450   186170   185074   183751   182278 
  181908   183216   188484   193537   190498   185395   187640   190993 
  188007   186403   189630   189804   188488   189178   188549   187177 
  184769   181855   184086   188401   187836   184569   181487   178691 
  176544   174954   176083   179740   184117   191344   197233   196138 
  191320   186321   184291   183447   178920   177169   180673   180323 
  176254   176532   181915   187101   189371   188801   186179   184607 
  186831   191475   193456   191583   190966   191328   189318   187945 
  186938   181890   177834   180374   182615   181275   183924   188631 
  185831   180978   184740   190863   189396   184536   183415   185471 
  187056   186227   185608   186571   186783   188252   192117   195597 
  197294   194521   188412   186109   188190   189160   189122   190509 
  189977   185853   184090   186013   185184   183910   188617   192055 
  187964   185244   188411   189584   188077   189549   190472   189114 
  189260   187834   184951   185018   183716   180615   181557   181500 
  177129   175751   176087   175279   179847   186316   186113   184774 
  187442   189503   189711   189935   188423   186298   187760   189897 
  188408   186116   184612   183309   184419   185556   183211   182191 
  183149   180821   178542   180160   181434   180697   181557   184878 
  187219   186335   183938   183438   185764   186871   184374   182972 
  184771   184445   181511   182903   188380   191417   191469   190661 
  189380   187728   185950   185615   187276   189206   189855   188434 
  185496   183701   183990   183957   182922   183065   186648   190686 
  188554   184173   185863   188218   184643   182472   186534   190004 
  189514   187926   186964   186644   186209   186493   187699   188609 
  188365   184850   181240   182561   184932   186205   189545   191663 
  189179   187504   189693   190576   188373   186698   185741   185195 
  186097   186513   186159   187286   188900   188693   188396   190283 
  192412   193349   193735   192916   190730   189168   188188   185889 
  185070   186896   186611   184229   181994   179910   180277   182128 
  182866   184869   185754   181917   180651   185703   189233   187470 
  184403   183095   183868   184815   183667   183687   188759   194154 
  193866   189826   186846   185687   185710   187492   189491   190548 
  191261   190223   187886   187462   188956   188778   184049   178671 
  179454   183590   185164   185180   184974   185755   187110   185835 
  185114   186803   186858   186312   187018   188877   191020   188627 
  183103   182236   185734   187357   185549   183744   183413   183303 
  183170   182765   182198   182498   183100   182628   181132   179864 
  180744   183465   184335   183828   185564   187065   186085   185701 
  186135   186437   188381   190780   190628   188833   187158   184863 
  184376   189272   193776   193075   193348   195412   192963   187816 
  185583   186389   186705   184783   184181   186753   187852   186059 
  185350   186192   186063   185406   186372   188279   188973   189453 
  189835   186954   182362   181425   184466   186830   186498   185288 
  183261   182420   185625   187519   185244   185120   188462   190869 
  191050   189288   186640   185078   183922   181641   179119   177415 
  177145   178973   180922   180631   180080   181562   183712   184736 
  183771   181688   182012   184878   185944   184420   183506   184048 
  184723   186258   189160   191463   192588   193337   193698   193347 
  191660   190578   193008   195818   195123   191700   187307   185660 
  188161   189368   186888   184443   183365   182557   182437   182478 
  180729   177877   177371   180377   183745   185399   185426   183386 
  182877   187515   192132   192005   190331   189909   190260   190973 
  190575   188743   188634   189729   187591   184621   186277   189893 
  189891   186210   183942   185631   186165   183705   183645   186187 
  186757   185315   184276   183489   182868   184420   188034   189483 
  187177   185758   187220   188684   188227   185437   182297   181603 
  183701   187394   190213   189205   185392   184079   186079   187694 
  188300   187606   185676   184917   185060   184443   183089   181062 
  178887   178798   181426   183061   181489   179203   178794   180503 
  181670   181267   182139   183910   185094   186725   187423   187339 
  189112   189993   188096   188119   190814   191528   189251   187157 
  187265   187982   187469   185915   185264   186382   186088   184503 
  183955   183165   183836   186204   186737   186524   187843   190354 
  191404   190175   189955   190850   190651   189004   188295   190470 
  189958   186077   187033   190093   188831   186734   185417   183903 
  184557   186659   187215   186834   186748   186574   186979   187267 
  185356   184503   187401   189108   187903   187578   188052   187871 
  187736   188549   190459   191173   188948   186499   187267   189352 
  187501   183024   182659   186316   188500   188586   188416   186260 
  183033   183324   184851   184492   185403   186598   186078   186479 
  187039   185827   185411   187236   187840   185670   183636   183465 
  184870   185110   182162   180416   181859   182418   182466   184203 
  185630   186009   185778   184396   183284   183435   184630   187081 
  189496   191124   191358   189234   187994   189519   189649   186360 
  183471   184052   185467   185762   187774   189889   186633   180345 
  178919   182251   182360   179813   181132   183663   183413   183069 
  184206   184041   182510   183787   186906   188789   190668   191845 
  190698   188229   185311   181890   179167   180009   182266   181113 
  178684   179101   182204   184968   184446   182480   183159   185720 
  186833   186711   187281   188312   188759   188762   190158   193239 
  195088   195057   193749   189990   187208   189531   192620   192329 
  190048   186939   186135   189095   189950   187317   187010   189179 
  189206   187081   185546   185060   185592   187103   188335   188740 
  187925   185328   182938   182171   180463   177543   176955   177952 
  177863   178664   180387   179377   177905   180310   183270   183925 
  185565   188248   188416   186929   186861   186173   181928   178775 
  179851   179347   177219   180466   185276   183338   179234   180816 
  184999   185175   182792   183026   183922   181002   178799   182946 
  186734   184300   183254   188422   194755   198255   198748   198054 
  196828   194506   192750   193426   196184   197453   195743   195739 
  198468   199439   196086   188835   182051   178962   177136   174591 
  170406   165892   165445   166417   166067   171429   182224   189117 
  190672   189588   185187   177477   170590   171269   180338   188867 
  190129   187845   187868   190408   193158   195141   193097   183614 
  173946   172234   171234   164290   157933   157511   165052   182526 
  200634   205633   200799   199237   202116   200844   194917   193182 
  193558   184342   172104   173900   186962   196252   196354   193783 
  198539   211369   219823   215352   206039   200842   197208   195930 
  203898   216985   224387   224220   220973   215954   205266   188015 
  172527   167235   170348   173300   171845   169677   172017   179995 
  190645   201854   210776   209779   198958   189683   187285   188314 
  186915   177144   164335   161211   170379   187926   205683   210984 
  203594   194886   190289   189877   193494   197860   198892   196449 
  193905   193087   192561   193683   197222   198470   195916   191741 
  186343   180928   179286   183609   187859   184119   176445   174870 
  179379   182101   182233   185789   190399   184985   168373   155248 
  155225   160193   161374   161261   163225   164012   163958   170830 
  184122   194765   196758   188989   179493   178056   184264   193108 
  199579   202254   204620   207077   207728   206221   200788   190132 
  178621   173376   173770   173009   170756   169902   169893   171080 
  174033   178864   184662   187540   188569   192445   197375   199335 
  196920   190989   186244   185317   183763   180230   181603   187706 
  188029   180752   173692   170064   168774   167229   164201   166309 
  175890   181566   178838   175699   174070   172056   171516   171185 
  169437   171277   180721   191853   194907   188474   180709   177059 
  175296   175413   179147   184419   189677   191982   189568   189504 
  194900   197638   194907   194193   199211   205444   208804   208152 
  204901   203021   202251   200578   200268   200315   197055   192704 
  190979   190628   187741   181881   177719   178578   182618   186493 
  188346   188532   187764   186933   189251   193947   196709   197725 
  196003   191292   189734   191141   189800   188654   193822   202306 
  205694   202170   196140   190613   186950   183591   178195   173353 
  170284   167737   168376   171987   173564   172204   170355   169348 
  168813   166344   163182   166048   174280   179852   181492   180389 
  176246   173921   176076   179849   183870   187450   190675   195089 
  200915   205255   202724   194864   191928   196022   199255   199644 
  199138   195882   191018   187392   184925   185311   187783   188010 
  185815   184045   185323   188457   188200   183267   178271   176925 
  177114   176068   175370   175606   177048   181673   186283   186447 
  183914   181819   181110   181865   184060   186039   184746   181496 
  181658   186804   192581   194460   193824   194799   196086   194633 
  192395   191027   189684   189187   190297   191218   189610   187069 
  186973   186705   183324   182398   186881   189072   185353   181226 
  179977   182331   186588   187508   185404   184378   184995   187444 
  189924   188716   186082   186486   188705   189869   189827   189768 
  189843   189495   190622   193892   195436   193445   189606   186061 
  184993   185903   186638   186872   187448   188573   188133   184559 
  180941   180673   182609   184169   184754   184542   183845   184385 
  186760   188519   189336   190663   191579   191903   190698   187088 
  186466   191529   196322   196639   194076   191940   190987   189261 
  187513   187608   188217   188541   188970   188272   184964   179853 
  176914   178533   182082   184322   183836   181677   180496   179713 
  177564   175167   174166   175805   179336   181565   182669   184562 
  185637   184775   182707   179996   178294   178484   180584   184574 
  187809   189112   189715   187621   183381   182028   182576   181533 
  182001   185549   186860   183180   178648   177515   178413   178895 
  179975   181101   180837   180874   181657   183072   187041   192160 
  194725   195751   198721   202768   204618   204692   204925   204639 
  203783   203257   200778   195709   192619   192909   192906   191689 
  191188   190907   188431   183319   178175   175613   175297   175258 
  174779   174951   176303   178402   181912   185731   186690   185380 
  184480   184292   184530   185309   185444   183725   182254   182753 
  182452   180234   178478   177565   176825   176663   176808   176910 
  177269   176864   175281   175343   178487   183092   187398   189113 
  188457   188582   189391   189587   189946   190274   190397   190952 
  191795   193421   195431   196311   197880   201205   202887   202215 
  201031   198317   194794   194289   196453   197780   197278   195046 
  191502   188127   185981   186132   187932   188200   186629   185411 
  184539   183458   181931   178603   173989   170946   169672   168797 
  169277   170783   171846   173832   176590   178114   179911   183142 
  185198   185349   185384   184985   183440   182622   184816   189287 
  192111   190566   186723   184428   184169   184034   183139   182552 
  184086   186606   186977   185981   186511   188281   189272   188477 
  186610   185404   185213   184747   183772   183330   183220   183420 
  184909   186127   186007   186935   188901   189751   190017   189980 
  188379   186598   187110   188932   188977   186281   184515   187348 
  191411   192304   191675   192117   193734   195018   194745   194119 
  194182   193645   191760   190113   189410   188892   189361   191332 
  192874   192784   192180   191169   189263   188069   187550   186614 
  186726   187420   187155   187320   188037   188164   187876   186416 
  183820   182177   181503   180084   177925   176400   176355   177298 
  178826   180844   181726   180694   179193   178006   177475   178262 
  180621   184144   187230   188419   187370   184774   183239   184233 
  185831   186779   187127   186274   185102   185650   187344   187546 
  185989   185307   186602   188607   190726   192376   192793   193260 
  194817   196299   196311   194976   194242   194466   194235   195208 
  197874   198170   196071   194616   192634   189826   187763   185172 
  182956   183933   185503   184273   181781   179902   178862   178869 
  179505   180658   181954   180952   177514   175023   173948   172993 
