Origin Time       2024/04/02 04:24:00
Lat.              40.133
Long.             141.712
Depth. (km)       71
Mag.              6.0
Station Code      IWTH17
Station Lat.      39.6442
Station Long.     141.5977
Station Height(m) 202
Record Time       2024/04/02 04:24:51
Sampling Freq(Hz) 100Hz
Duration Time(s)  138
Dir.              3
Scale Factor      2942(gal)/8224139
Max. Acc. (gal)   12.130
Last Correction   2024/04/02 04:24:51
Memo.             
[...]
  -83617   -83617   -83617   -83617   -83614   -83616   -83619   -83619 
  -83616   -83614   -83614   -83616   -83614   -83614   -83616   -83616 
  -83617   -83617   -83616   -83617   -83616   -83614   -83616   -83616 
  -83613   -83616   -83619   -83616   -83616   -83620   -83620   -83616 
  -83613   -83614   -83614   -83613   -83617   -83619   -83616   -83616 
  -83617   -83616   -83617   -83619   -83616   -83614   -83617   -83617 
  -83616   -83614   -83614   -83616   -83617   -83617   -83614   -83616 
  -83614   -83613   -83616   -83616   -83614   -83617   -83617   -83616 
  -83617   -83617   -83617   -83617   -83614   -83613   -83616   -83616 
  -83614   -83614   -83614   -83614   -83617   -83617   -83616   -83613 
  -83616   -83619   -83616   -83613   -83616   -83614   -83614   -83616 
  -83613   -83613   -83616   -83614   -83614   -83617   -83617   -83617 
  -83616   -83616   -83620   -83620   -83613   -83613   -83617   -83616 
  -83616   -83617   -83619   -83619   -83617   -83614   -83614   -83614 
  -83612   -83613   -83617   -83616   -83616   -83617   -83613   -83614 
  -83617   -83616   -83616   -83616   -83612   -83613   -83619   -83617 
  -83614   -83614   -83613   -83612   -83614   -83616   -83614   -83614 
  -83614   -83616   -83617   -83614   -83616   -83616   -83614   -83614 
  -83616   -83614   -83614   -83614   -83614   -83616   -83616   -83616 
  -83617   -83616   -83614   -83614   -83614   -83616   -83616   -83614 
  -83614   -83617   -83614   -83612   -83613   -83614   -83614   -83616 
  -83616   -83614   -83613   -83614   -83616   -83617   -83614   -83613 
  -83614   -83616   -83616   -83613   -83614   -83616   -83617   -83617 
  -83614   -83616   -83617   -83614   -83613   -83614   -83614   -83614 
  -83616   -83614   -83616   -83619   -83619   -83616   -83616   -83614 
  -83613   -83612   -83616   -83617   -83614   -83616   -83614   -83614 
  -83617   -83616   -83614   -83616   -83614   -83613   -83616   -83616 
  -83613   -83613   -83616   -83616   -83616   -83616   -83616   -83617 
  -83617   -83614   -83613   -83612   -83612   -83616   -83617   -83614 
  -83616   -83619   -83617   -83613   -83616   -83620   -83617   -83616 
  -83614   -83614   -83616   -83620   -83620   -83614   -83613   -83614 
  -83617   -83617   -83614   -83613   -83617   -83617   -83614   -83614 
  -83619   -83617   -83614   -83616   -83619   -83617   -83614   -83617 
  -83620   -83617   -83616   -83617   -83621   -83621   -83617   -83614 
  -83619   -83619   -83617   -83617   -83617   -83614   -83613   -83616 
  -83619   -83619   -83616   -83616   -83616   -83617   -83617   -83616 
  -83614   -83617   -83619   -83616   -83613   -83616   -83617   -83613 
  -83613   -83617   -83617   -83614   -83616   -83617   -83616   -83617 
  -83616   -83614   -83616   -83616   -83617   -83619   -83617   -83613 
  -83614   -83619   -83619   -83616   -83616   -83617   -83617   -83616 
  -83616   -83619   -83619   -83613   -83613   -83616   -83617   -83616 
  -83614   -83614   -83616   -83616   -83616   -83617   -83619   -83616 
  -83614   -83619   -83619   -83616   -83614   -83614   -83613   -83613 
  -83616   -83614   -83614   -83614   -83612   -83613   -83617   -83616 
  -83614   -83616   -83614   -83617   -83620   -83614   -83613   -83614 
  -83614   -83616   -83616   -83613   -83613   -83610   -83606   -83602 
  -83594   -83581   -83563   -83539   -83523   -83533   -83563   -83585 
  -83582   -83559   -83533   -83523   -83525   -83531   -83509   -83494 
  -83521   -83536   -83504   -83435   -83386   -83489   -83814   -84285 
  -84651   -84717   -84700   -84788   -85023   -85534   -85757   -85020 
  -84281   -84551   -84805   -84061   -82961   -82587   -83621   -84974 
  -84555   -83307   -83925   -85706   -85982   -85217   -85311   -85158 
  -84437   -85384   -85827   -82525   -79085   -79771   -82831   -83795 
  -81618   -79853   -81541   -84879   -85104   -82385   -81743   -83605 
  -85288   -86150   -84534   -80617   -79658   -82782   -83488   -81225 
  -82561   -85459   -86796   -89152   -86846   -79894   -80887   -87993 
  -89706   -85263   -81062   -81326   -81760   -80867   -83540   -85756 
  -83937   -81558   -81550   -83691   -81665   -76536   -75065   -76667 
  -82217   -85591   -80033   -79548   -86833   -84458   -76837   -80366 
  -88615   -86827   -79166   -77762   -81217   -84061   -83944   -81980 
  -86332   -94078   -93428   -83971   -74283   -74472   -83890   -88522 
  -84653   -82823   -84315   -85552   -86772   -84129   -79258   -77596 
  -79475   -81095   -75820   -69931   -74892   -85770   -91272   -90830 
  -94053   -98879   -95806   -91235   -89775   -83442   -75825   -77900 
  -83771   -86192   -87463   -86417   -85725   -85980   -83231   -84716 
  -89812   -86840   -83339   -88794   -90782   -86055   -85730   -85136 
  -81851   -86628   -90749   -83292   -77922   -81113   -82247   -80365 
  -82460   -84990   -84492   -82088   -73461   -68160   -77232   -84909 
  -83162   -85098   -90220   -89532   -87731   -88785   -87220   -84443 
  -86733   -87154   -78198   -74453   -82389   -81901   -74875   -81704 
  -89608   -84088   -81675   -87135   -89904   -90113   -88493   -85351 
  -84234   -86967   -89660   -82945   -72503   -74065   -81988   -82343 
  -78078   -75625   -76225   -80887   -85764   -86643   -83444   -81615 
  -85977   -85812   -78933   -80514   -85666   -81334   -77591   -83867 
  -90732   -91963   -89267   -82428   -78208   -81985   -83791   -78089 
  -72547   -71308   -74811   -84835   -91481   -85448   -81816   -89229 
  -92902   -88909   -85361   -83077   -83280   -86408   -82588   -73483 
  -76289   -87612   -91014   -85355   -75217   -71925   -85602   -96689 
  -86721   -75343   -81423   -89230   -83598   -82005   -94490   -94427 
  -75882   -70330   -82391   -90016   -89301   -85631   -80466   -79226 
  -83376   -85749   -82871   -80064   -80312   -77718   -76177   -85371 
  -93908   -89567   -82701   -86225   -93186   -89735   -80971   -77106 
  -78246   -81753   -84017   -86177   -88133   -85176   -81876   -82431 
  -84160   -86614   -85654   -79262   -77720   -85457   -88915   -81684 
  -79216   -88165   -94250   -90321   -85650   -84786   -80056   -73394 
  -74144   -79672   -86071   -88146   -80951   -78814   -87129   -87947 
  -80986   -83262   -92622   -90659   -80300   -82190   -91486   -91085 
  -86692   -83392   -76238   -74317   -80561   -83439   -82850   -78644 
  -71428   -75153   -87477   -91353   -88033   -87826   -90470   -89275 
  -82350   -77472   -81583   -88285   -86989   -80489   -79496   -83326 
  -84360   -82302   -80403   -83266   -87606   -82937   -78115   -84177 
  -89729   -87129   -82227   -80804   -82379   -81209   -81973   -90158 
  -92952   -84828   -78813   -82790   -90173   -89583   -82224   -78231 
  -77303   -78575   -85403   -88134   -80017   -71689   -73499   -84694 
  -91852   -87681   -83698   -83330   -80754   -81897   -86119   -83173 
  -80403   -84524   -84207   -79022   -78075   -80921   -85830   -89491 
  -88269   -87064   -88333   -87428   -85315   -86999   -88223   -84605 
  -82186   -81936   -80989   -81083   -81324   -84013   -87583   -83162 
  -78475   -83496   -86950   -80412   -75043   -79897   -87104   -86799 
  -82305   -83924   -90138   -90432   -86058   -84589   -85986   -88344 
  -89667   -84411   -76179   -78066   -88855   -93052   -86308   -79725 
  -79505   -83539   -87264   -83326   -76754   -78480   -83014   -83398 
  -81548   -79212   -79509   -80099   -76207   -75907   -80846   -78849 
  -74277   -80762   -90050   -88396   -84670   -87998   -89154   -85480 
  -83636   -84107   -84823   -84307   -82705   -82301   -83664   -83119 
  -81033   -83992   -88339   -85700   -80171   -79045   -81622   -84932 
  -88392   -87080   -81610   -85140   -91845   -86104   -78140   -77502 
  -79662   -83748   -87693   -88882   -85849   -83253   -89941   -94740 
  -85221   -77974   -85642   -94425   -92920   -83967   -76535   -77268 
  -81484   -84303   -86074   -84859   -82092   -80399   -78868   -79947 
  -82848   -82800   -83309   -84966   -82030   -78749   -80358   -82019 
  -82621   -85324   -85341   -82089   -84318   -89021   -88092   -85770 
  -86474   -89409   -92928   -93071   -87118   -80188   -81666   -86086 
  -80654   -74634   -78426   -80244   -77642   -79763   -82760   -80883 
  -74440   -72247   -82120   -88975   -82656   -79401   -86170   -88312 
  -82545   -82634   -86401   -81091   -75114   -79527   -84852   -84187 
  -83864   -86529   -88977   -88952   -87894   -89257   -90859   -88736 
  -84904   -81098   -78922   -79999   -79586   -77859   -80609   -83527 
  -80739   -76788   -78023   -83084   -88591   -92676   -89067   -81642 
  -81943   -84015   -83137   -84824   -85268   -84173   -85496   -85556 
  -83938   -80064   -75041   -79980   -93158   -96124   -85538   -78622 
  -81390   -82981   -83771   -86950   -84164   -81442   -86502   -84662 
  -77799   -81610   -84858   -81970   -85064   -86756   -82690   -81533 
  -79689   -80326   -87104   -89375   -88254   -87909   -83841   -81124 
  -86005   -89681   -84030   -79128   -82539   -82273   -77796   -80846 
  -81970   -76018   -80142   -91860   -90620   -81141   -79231   -81417 
  -84824   -90782   -90436   -84763   -85043   -86250   -79980   -75670 
  -80273   -86007   -85668   -79570   -77735   -87326   -93275   -84798 
  -81118   -91169   -91434   -77565   -74910   -83122   -83169   -79093 
  -81432   -86254   -84808   -79178   -80037   -84727   -83365   -79231 
  -80843   -84784   -82472   -81237   -88034   -89768   -80640   -76995 
  -86285   -92107   -87407   -82374   -81405   -85102   -88780   -86066 
  -80037   -75960   -79176   -84730   -83015   -81980   -86678   -89006 
  -86964   -83965   -82345   -82480   -84747   -89542   -90073   -83362 
  -79540   -80388   -80734   -82833   -84655   -82422   -80808   -84316 
  -87060   -83004   -81155   -86170   -88508   -85957   -83039   -82826 
  -85070   -83660   -81218   -84427   -85656   -84204   -87358   -88312 
  -86271   -86238   -81314   -76108   -83489   -92183   -85749   -75587 
  -76887   -80509   -79153   -79554   -81375   -83412   -84619   -79961 
  -78387   -84257   -86482   -85922   -86522   -87797   -90190   -86686 
  -78781   -79053   -83845   -81318   -79124   -84190   -84985   -83095 
  -87062   -87818   -83749   -83882   -84569   -81685   -82359   -87114 
  -85587   -77167   -72997   -77488   -85417   -89263   -86100   -82657 
  -84535   -85671   -82124   -80605   -82759   -84931   -87624   -86954 
  -80411   -76869   -81465   -87141   -85885   -82235   -84045   -85305 
  -82772   -81943   -81768   -82466   -86170   -87785   -83532   -81468 
  -88510   -93598   -87953   -81268   -81982   -84893   -86217   -90244 
  -90802   -82746   -78939   -83452   -86724   -84125   -79137   -78495 
  -79571   -76581   -75425   -82098   -88956   -86676   -81375   -83014 
  -87434   -87372   -86526   -85939   -81292   -79829   -84342   -85104 
  -82834   -83987   -86440   -83878   -80507   -87215   -92734   -83832 
  -77005   -81183   -83570   -82655   -84246   -84553   -80709   -79303 
  -82247   -81669   -79922   -85077   -89239   -85769   -82818   -85159 
  -88960   -87921   -81060   -78081   -82989   -84438   -80150   -79141 
  -80342   -82777   -84677   -82437   -82582   -82189   -80033   -84123 
  -81990   -72283   -76970   -86992   -82115   -76819   -81409   -83338 
  -82830   -86182   -88187   -85444   -81814   -81557   -83925   -85761 
  -87169   -88503   -86886   -84468   -86274   -85955   -82057   -83520 
  -86088   -85293   -84834   -81622   -78109   -82709   -87906   -83654 
  -80411   -83594   -80316   -73897   -79735   -90537   -88325   -79370 
  -82350   -89472   -87762   -87282   -89475   -86265   -83126   -84709 
  -86452   -86231   -87667   -88866   -85596   -84959   -89232   -88742 
  -83447   -79461   -75259   -69461   -71541   -85510   -91011   -79677 
  -72503   -75801   -80511   -87874   -92353   -85502   -80657   -85772 
  -87543   -82931   -81770   -84821   -86317   -86086   -85931   -84402 
  -78705   -74371   -81337   -89378   -84647   -77765   -77549   -79276 
  -82368   -83177   -79764   -80865   -86332   -86283   -81922   -84879 
  -89905   -83712   -78413   -81785   -81557   -81459   -87100   -87251 
  -81892   -81201   -82318   -81091   -83020   -88144   -92325   -92943 
  -86711   -79367   -76038   -73510   -74008   -79941   -85884   -86845 
  -83182   -76724   -71047   -70804   -77592   -87959   -90562   -79304 
  -68447   -71874   -81140   -86726   -90047   -88123   -80353   -75801 
  -78391   -80951   -81720   -86788   -91181   -85662   -74186   -69175 
  -74293   -76782   -70201   -68704   -78888   -85244   -80312   -78621 
  -91118  -106906  -106508   -98397  -104765  -109304   -97718   -92337 
  -97433   -99054   -97314   -93843   -86390   -82767   -93197  -102595 
  -97140   -97876  -108684  -103065   -84483   -80311   -93368  -104569 
 -103675   -94807   -84369   -76388   -73103   -76188   -82548   -85950 
  -86103   -87782   -93914   -97236   -88739   -73471   -66298   -75253 
  -86891   -88096   -86773   -87031   -81877   -72462   -68142   -70475 
  -71761   -71626   -76941   -84886   -87129   -85419   -84271   -80298 
  -76717   -84148   -94620   -93290   -84260   -77261   -73396   -69466 
  -64224   -58213   -57759   -68697   -80774   -83722   -79026   -74116 
  -76962   -79390   -74772   -77818   -88669   -88663   -83208   -86454 
  -85907   -74046   -66467   -74237   -90148   -96730   -93938   -94131 
  -94324   -89561   -82545   -77881   -76050   -74186   -77660   -83066 
  -81727   -80481   -81758   -82424   -85282   -96608  -114289  -117526 
 -102852   -90938   -87540   -85253   -81445   -83038   -90535   -85756 
  -68073   -60632   -62226   -59725   -60160   -64713   -65871   -64540 
  -67510   -81238   -97406  -101860   -96803   -96030  -100180   -96907 
  -90135   -86903   -82121   -78349   -79500   -86362   -96666   -93603 
  -75573   -66534   -68747   -67498   -67759   -76009   -81483   -78638 
  -74564   -71520   -73307   -84723   -96284   -99948   -94887   -84595 
  -85075   -99095  -106614  -103042  -101529  -101251   -94271   -86892 
  -85452   -87396   -88982   -85622   -81078   -80499   -78973   -74688 
  -70842   -71694   -77959   -81310   -81450   -84451   -83462   -79321 
  -86282  -100278  -100693   -86425   -84256   -95796   -93268   -83632 
  -83170   -80277   -74065   -71693   -69916   -69593   -72801   -78497 
  -85955   -90462   -85698   -74434   -70734   -77947   -81650   -77889 
  -76627   -81097   -89584  -101745  -108928  -104770  -100510  -100187 
  -97659   -96684   -94086   -85892   -80106   -70368   -55305   -55750 
  -68354   -72522   -74602   -88276  -103878  -105555   -99854  -101421 
 -104245   -99260   -94425   -94081   -92082   -92959   -99087   -93943 
  -78135   -72684   -77367   -79663   -77325   -73118   -73098   -75591 
  -73899   -74831   -77827   -73116   -72268   -79895   -77828   -68222 
  -65533   -66922   -66244   -65539   -68330   -70672   -68971   -66812 
  -65745   -65923   -67981   -72878   -79166   -82890   -86996   -91193 
  -91605   -92038   -90207   -85332   -83558   -80653   -79307   -86211 
  -88815   -82521   -81469   -89370   -95538   -93776   -89368   -87980 
  -89572   -92333   -92115   -87867   -86819   -91989   -97189   -97096 
  -92311   -90794   -95933   -96790   -89236   -83292   -79783   -73361 
  -73253   -83511   -90405   -91023   -90485   -90151   -92221   -90755 
  -84547   -82969   -84812   -85261   -85486   -84211   -83361   -86605 
  -88210   -86039   -86919   -90834   -90946   -84612   -77804   -75883 
  -75922   -77302   -80793   -84208   -88616   -89677   -83308   -78761 
  -81892   -88352   -91527   -88048   -84169   -84673   -85720   -82391 
  -74309   -70561   -72300   -68906   -66442   -70357   -69881   -69708 
  -79772   -90545   -89958   -80257   -76431   -85274   -93081   -90317 
  -85681   -87154   -90363   -89486   -87444   -86120   -81004   -75609 
  -77437   -78308   -70842   -69647   -78849   -79802   -75228   -81294 
  -89652   -89403   -85048   -82767   -84940   -86676   -82611   -77554 
  -78474   -85820   -94158   -98328  -100444   -97862   -85519   -78675 
  -85332   -88080   -83635   -82507   -84558   -85291   -83351   -80246 
  -77406   -78934   -84411   -82661   -78059   -83511   -86846   -79212 
  -76582   -83803   -89444   -90579   -90591   -88971   -86516   -86219 
  -83173   -75699   -78082   -91417   -94113   -82926   -76306   -78783 
  -82443   -86437   -90289   -90120   -90609   -93710   -91935   -88281 
  -88327   -87034   -85824   -90813   -95029   -92396   -89321   -87056 
  -84879   -86491   -86821   -81629   -74957   -70128   -70233   -73985 
  -74949   -73156   -75493   -82880   -88516   -88472   -84539   -80450 
  -76654   -73260   -75196   -79826   -78372   -75575   -78525   -80873 
  -82169   -86517   -86127   -81178   -78510   -76275   -78309   -84145 
  -84211   -81803   -80492   -76195   -72445   -74008   -79239   -85734 
  -89569   -85391   -79407   -82247   -88527   -90838   -91447   -90263 
  -87748   -87403   -87154   -85747   -85255   -85212   -87173   -90425 
  -91277   -92055   -94986   -96539   -94852   -92295   -90370   -90984 
  -92306   -88030   -81270   -79301   -81099   -81967   -79840   -78115 
  -81457   -85865   -84767   -82289   -83134   -85294   -87050   -85087 
  -83031   -86620   -86505   -81739   -82728   -84322   -80769   -78254 
  -80272   -83562   -81230   -74808   -76203   -81473   -76253   -66996 
  -65821   -68608   -70833   -74158   -75921   -76260   -81004   -85544 
  -84222   -83913   -87355   -90208   -90443   -87471   -84785   -86697 
  -89303   -87623   -84501   -82312   -80200   -80673   -83494   -82475 
  -78858   -79274   -80457   -78989   -81230   -86147   -85407   -84204 
  -88607   -89683   -85729   -85268   -87940   -89522   -86934   -81037 
  -80005   -83875   -87756   -91651   -90829   -87363   -90400   -94655 
  -93714   -92929   -93960   -92225   -89702   -90116   -88072   -83290 
  -82703   -81797   -75952   -73153   -77657   -84454   -85909   -81101 
  -80890   -84414   -81475   -81001   -87316   -87659   -82775   -80373 
  -79717   -82004   -86961   -87729   -83177   -79786   -79366   -79243 
  -79213   -79165   -79701   -81475   -82370   -82475   -81297   -80292 
  -83893   -85494   -81070   -79772   -82675   -82398   -77994   -75602 
  -78588   -82252   -82655   -82236   -85938   -91613   -91146   -86953 
  -87571   -91652   -90956   -84646   -82001   -84591   -85064   -85590 
  -88751   -86651   -81990   -84319   -86448   -82140   -79222   -80252 
  -80406   -78240   -76955   -79563   -81878   -79729   -77807   -77652 
  -76125   -76690   -81376   -84774   -84397   -82290   -81785   -86304 
  -91334   -89750   -84149   -80674   -81182   -82687   -82935   -83601 
  -85033   -85498   -84017   -83160   -84489   -86582   -88530   -87750 
  -86116   -87220   -86098   -81228   -80703   -84159   -81946   -77746 
  -80832   -83812   -78528   -74061   -78233   -81823   -77841   -74806 
  -78750   -82976   -81990   -82618   -88032   -88750   -85118   -85747 
  -87979   -86491   -82651   -81288   -85006   -89522   -91335   -91014 
  -90136   -90703   -89078   -84763   -83875   -83641   -80855   -80239 
  -82780   -85155   -85487   -84883   -84724   -85862   -89723   -92264 
  -88588   -83903   -84009   -85152   -84728   -85891   -89037   -92080 
  -92209   -90105   -92020   -95706   -93812   -89904   -89251   -89502 
