Origin Time       2024/04/02 04:24:00
Lat.              40.133
Long.             141.712
Depth. (km)       71
Mag.              6.0
Station Code      IWTH21
Station Lat.      39.4734
Station Long.     141.9336
Station Height(m) -87
Record Time       2024/04/02 04:24:53
Sampling Freq(Hz) 100Hz
Duration Time(s)  130
Dir.              2
Scale Factor      2942(gal)/8224139
Max. Acc. (gal)   12.728
Last Correction   2024/04/02 04:24:53
Memo.             
[...]
   38067    38065    38063    38063    38064    38064    38067    38065 
   38064    38065    38067    38065    38064    38063    38063    38065 
   38063    38059    38063    38068    38065    38064    38068    38068 
   38067    38074    38075    38071    38070    38070    38068    38068 
   38072    38071    38065    38067    38071    38067    38063    38065 
   38071    38070    38070    38071    38068    38065    38068    38072 
   38072    38068    38065    38067    38065    38065    38068    38070 
   38065    38065    38070    38071    38070    38067    38070    38071 
   38070    38070    38068    38063    38063    38067    38071    38067 
   38064    38064    38064    38067    38065    38067    38070    38067 
   38063    38063    38064    38068    38067    38063    38065    38065 
   38065    38068    38064    38065    38068    38064    38064    38067 
   38064    38061    38064    38071    38070    38061    38060    38068 
   38071    38067    38068    38068    38064    38063    38064    38063 
   38064    38067    38064    38063    38065    38067    38067    38068 
   38068    38065    38064    38063    38063    38064    38067    38067 
   38064    38061    38061    38064    38068    38067    38064    38063 
   38064    38065    38063    38063    38065    38065    38065    38067 
   38067    38065    38067    38070    38068    38064    38060    38065 
   38070    38064    38064    38068    38070    38076    38082    38083 
   38075    38071    38082    38083    38078    38080    38079    38075 
   38076    38078    38075    38075    38075    38074    38078    38079 
   38075    38078    38080    38075    38074    38079    38078    38075 
   38075    38075    38075    38078    38078    38074    38078    38080 
   38076    38076    38078    38078    38076    38078    38076    38076 
   38075    38076    38079    38078    38075    38075    38076    38072 
   38061    38055    38060    38068    38063    38061    38065    38061 
   38063    38068    38064    38064    38068    38068    38065    38065 
   38064    38059    38057    38063    38065    38063    38064    38060 
   38059    38065    38068    38064    38064    38067    38068    38068 
   38067    38071    38075    38075    38078    38084    38086    38083 
   38080    38083    38088    38092    38098    38090    38072    38067 
   38064    38079    38117    38103    38068    38080    38084    38101 
   38125    38063    38040    38140    38146    38001    37895    37926 
   38020    38044    37941    37836    37899    38051    38124    38110 
   38022    38059    38354    38334    37824    37662    37974    38102 
   37916    37658    37554    37660    37632    37482    37974    38728 
   38523    38014    38014    38044    38313    38681    38452    38098 
   37531    36707    36918    37697    38068    38466    38870    38674 
   37739    37638    38412    38530    39033    39244    37870    36543 
   35810    36032    36934    37389    38065    38786    38759    37968 
   37273    38379    40123    39831    37851    36988    38053    38489 
   37962    37527    36489    36408    38379    40068    40756    40543 
   38978    38362    39267    39069    38299    37744    37162    37902 
   38195    36567    36788    39136    39853    39422    39274    38693 
   37917    37068    36950    38354    38330    36954    36903    37412 
   39042    40338    40649    41886    39445    35371    36730    38954 
   37458    35359    36624    36826    32526    34885    41373    39140 
   35833    38790    40865    35905    33245    39853    40971    35573 
   36490    39253    39577    40435    40455    39429    38892    39688 
   41679    40971    38801    39036    38049    36775    36154    33990 
   35424    38801    38611    35706    33114    36282    39509    36391 
   36625    40587    40609    40954    43745    44101    40911    37369 
   36738    36949    36011    37046    40495    42075    37357    33143 
   37813    39518    33531    33218    37507    37615    36220    38982 
   41486    36698    32949    36350    39271    40005    39420    38519 
   40441    40302    37299    38381    39313    34780    34084    39679 
   41156    36506    31588    32991    39415    40198    35760    34676 
   38136    42426    40527    34242    36378    42130    38784    33774 
   37547    45165    44043    37034    37245    41135    42522    41904 
   37577    34044    34641    33991    33496    38306    43205    42512 
   39780    37957    35451    35251    39112    40018    38141    38365 
   38006    38460    39838    37214    34947    36931    39596    39587 
   36614    36774    41276    40170    34549    36841    42921    40161 
   33899    34159    37134    36798    36732    40583    41332    36567 
   35303    38491    39931    39289    38975    39479    39204    36674 
   34466    35256    36733    38624    42206    41361    34546    32948 
   37567    37746    35808    38524    41262    38149    33111    34681 
   39995    41141    39989    37883    34688    37008    42248    40822 
   38538    39324    38086    38462    39262    37050    37471    39953 
   40035    38596    38542    39243    39128    39930    39479    37739 
   37480    35341    33821    37789    39991    35734    33714    36783 
   38330    39010    40246    38017    34140    35075    38827    38682 
   37039    37629    39247    39517    36155    35210    38572    37929 
   36024    37114    36298    34268    35472    38765    39105    37567 
   38740    37933    35934    39302    40865    38996    39036    36937 
   35544    37678    38236    39278    40296    39718    40992    40572 
   39185    40231    39730    39154    39131    38688    39918    39293 
   37642    37480    36050    36613    41435    44307    40506    36192 
   39251    43097    40689    38203    39586    40296    38526    38059 
   39382    39629    38913    38218    37747    36915    36238    37482 
   39005    38993    38635    39031    38033    34749    35540    40428 
   40358    35224    31828    34419    39425    38601    36209    37674 
   36153    33465    35869    38493    38681    37710    36360    36625 
   37122    37242    36917    35580    37493    40394    37828    35005 
   37543    40454    38715    35945    36757    38191    37451    37681 
   39860    39663    36374    36593    41118    41187    37721    38557 
   40567    39002    36730    37928    39712    37446    36921    40023 
   40706    40525    40099    36455    34285    37594    40702    39198 
   36917    37054    37732    37312    36174    35969    38281    40015 
   39865    40950    41347    40347    39422    37494    37442    39243 
   39164    37941    35784    34993    38404    40151    37644    37114 
   39937    41855    39671    35392    35437    38817    39175    37604 
   36936    35838    34813    35283    35862    36626    38840    40190 
   37698    33741    33130    34217    36292    40900    41783    38141 
   35395    34701    37482    39708    38515    40243    42311    38804 
   35127    36077    39792    40163    36069    35380    37322    36101 
   36207    39784    41277    39001    36101    36468    38277    37818 
   39451    42322    40614    38055    37542    37862    38362    38541 
   39622    38743    36863    39145    39564    35941    34045    33685 
   35348    37972    38306    38767    39494    37910    37546    40595 
   41446    37417    34535    38580    42924    37748    33444    40050 
   43548    38881    36879    37590    38970    40589    38871    38840 
   42068    39999    36054    38306    39884    35500    33454    36791 
   39683    41899    42414    37890    34406    35029    36216    38524 
   39614    39604    40298    36298    33655    38454    39910    36651 
   36250    38753    39985    37219    36040    40379    43299    40247 
   36425    37180    39056    37941    36335    37690    40238    38261 
   34545    36088    39646    41442    41575    38753    36502    37459 
   37165    36585    39974    42718    40135    36865    37315    38797 
   38854    37957    37413    38863    38206    34110    35284    38419 
   36234    35905    37038    37750    40957    38767    34719    36821 
   36548    35465    39035    39525    36607    35637    36359    37725 
   38200    37505    37486    38016    38551    39911    40977    41848 
   41926    38271    36077    37982    37948    37388    39206    39252 
   35457    33339    37818    42507    40410    36073    35368    38433 
   40738    37521    35202    39306    40128    35803    34493    35391 
   37974    40664    38863    37782    39501    39972    40849    40837 
   38977    39363    39760    38006    36742    35826    36026    38476 
   40396    39050    36212    37540    40466    37482    35332    38834 
   38946    35777    35796    37723    38778    39000    39733    39725 
   37852    37206    37721    37411    38974    41029    38449    35314 
   35306    35957    38925    42075    39460    33671    32721    37621 
   39992    38718    38029    37170    37597    37092    35133    38227 
   41175    38456    37615    39688    38861    37638    38572    37362 
   35181    36883    39700    39245    36902    35391    35518    38194 
   40628    39314    37674    37855    38615    39244    38959    37596 
   35722    37751    41127    38190    36049    38317    38412    38098 
   37642    37428    40236    40370    38510    39235    37948    36895 
   40512    40797    36558    37141    40880    41235    39517    38441 
   38276    37368    36533    37843    37997    37338    39546    40478 
   38655    37935    35775    33975    38001    39692    36154    37912 
   42520    40965    36817    35764    35299    34086    36701    41189 
   40703    36113    34578    38317    39722    37615    37222    35731 
   34943    37832    37912    36346    37617    38412    37065    35638 
   36510    38416    39328    40217    40527    40167    38354    35896 
   37539    39178    36074    34030    35540    37489    37500    36255 
   37324    39217    37957    36235    36772    37584    39032    40471 
   39150    37957    38583    38851    39307    39006    36545    36200 
   39259    40666    40132    39530    37972    36393    36850    38437 
   37872    37887    40555    41193    39826    37424    35947    38569 
   39251    36520    37384    39718    38919    37561    36755    36629 
   37840    36640    34161    37284    42126    40699    37018    36841 
   38763    39622    38105    37926    40660    41234    39005    38184 
   39457    39472    36969    34500    35487    40541    42619    39704 
   38699    38924    37690    37010    37054    37864    39239    38817 
   36813    35904    35920    36481    39532    42518    39598    34743 
   36254    39802    39753    39204    38535    38612    38340    33207 
   32626    39918    41548    38406    37451    36726    36529    35977 
   35510    37508    38279    38377    40667    40593    37208    37399 
   42255    42589    38508    38230    37752    36921    40242    40585 
   37457    35322    33577    37054    43903    43395    37314    34717 
   36502    38824    40309    40308    37062    34624    37261    39598 
   39172    38350    36891    36813    37825    38551    39962    39773 
   38237    38441    39568    37326    33214    35505    42075    43752 
   39834    35253    32914    33030    36867    41149    39572    35473 
   35040    37957    39719    38446    38144    38907    38155    37976 
   37712    35677    35870    37579    35904    34834    37390    38850 
   38051    36622    37643    41885    41862    37685    37651    39344 
   37577    37351    40063    39233    36520    35469    34535    35544 
   37875    38699    38832    37131    34439    36775    41386    40351 
   38583    39461    37685    36771    39020    40012    39849    39681 
   40140    40120    36922    34091    38117    42363    37208    34740 
   40333    38793    33022    35324    41057    42353    38927    35634 
   37428    40748    40042    38553    38079    36969    36992    37530 
   38040    39317    38357    35727    35041    35789    37766    39523 
   37638    34990    33876    33123    35429    37411    35586    36833 
   39846    38010    34757    34736    36443    37230    37505    37273 
   36617    37172    36980    34304    32428    33556    36231    37856 
   36732    35336    36580    38450    39426    38716    34200    30881 
   34958    41493    42840    40826    41377    41851    40633    42013 
   43306    42688    41307    37617    34078    36178    43028    43290 
   35885    33332    34520    35245    38977    40992    38986    35735 
   30508    27868    28556    28902    31355    32166    27585    26797 
   31631    31051    26917    28027    30037    30084    31326    34473 
   39807    43382    42660    40780    39109    40300    45289    48590 
   48369    47663    44768    35996    28385    29220    31124    32192 
   37405    40051    39409    43294    48259    50458    51655    52074 
   53804    55559    54791    56126    57889    52834    47476    51687 
   58961    58731    52103    42708    30600    17844    11628    17394 
   26906    34117    41688    39113    25440    21716    29978    35661 
   39968    48942    52787    49121    52265    58171    56727    50977 
   34746    15928    21953    43317    52505    53808    50456    34268 
   16339    11206    22441    41589    47854    34668    18112    17728 
   38102    60610    64509    51875    40078    37415    37663    38354 
   41330    39480    36884    48506    60185    50498    30051    13446 
    5979    17123    42927    64817    73642    69557    56265    46209 
   49285    53613    43831    26495    14563    11952    12209    12291 
   22578    33099    28154    26034    33214    33980    31180    32232 
   36841    40693    38097    32386    26603    26414    40062    53408 
   53589    53821    58153    49311    25866    15155    31950    55746 
   62928    51884    33916    19732    21624    44682    67911    65130 
   41361    24452    26203    35178    43850    46920    37447    27043 
   24302    24498    35067    55921    64196    40528     9868    18027 
   40815    42668    50130    55791    39985    32948    34199    28408 
   30898    39164    44112    45183    33230    22600    33866    43046 
   27541    12606    21579    41351    53688    50144    35297    27710 
   33177    40791    40599    35980    38300    37045    23340    23403 
   44340    54112    43443    31747    27190    27249    29026    33293 
   43715    50245    43290    34491    32047    33629    37989    33312 
   20267    26547    50984    62095    55351    44227    25992     5395 
   13255    45546    56774    46944    42196    39586    41860    49401 
   48613    45060    41357    32629    30026    36348    44334    50182 
   48382    45261    47051    42651    31774    27722    32803    39679 
   45854    50364    42179    29678    38719    51192    41663    29763 
   25656    24522    28210    27741    28193    38720    42607    37636 
   35422    31946    32755    41149    39490    32790    34651    31180 
   25880    35301    43600    37638    29039    26819    29421    33966 
   39779    42222    42377    42368    38165    37856    39501    35734 
   39839    45296    41238    46645    58530    57539    50525    43316 
   40208    49581    58024    51591    36462    32730    44516    41728 
   25724    26655    35696    43108    51070    44320    28563    24788 
   29992    34072    34588    32287    32065    36799    42183    44362 
   44447    42928    36902    31280    38562    50787    47852    37324 
   38969    47241    44837    36472    35149    37496    41497    42807 
   34666    31125    35368    34882    34754    39916    43108    39511 
   35019    33866    29575    29312    38808    38429    28834    29770 
   32215    26705    23958    25658    30616    38053    36984    35386 
   50340    57998    37412    20178    29046    41966    40621    35118 
   32917    26092    19056    25204    36096    32576    24381    34263 
   51852    60543    60012    47123    36108    38499    38067    35854 
   36018    29837    28300    36193    39937    38487    41746    46808 
   44439    43756    47171    41261    35267    37878    34700    28192 
   27344    28593    36462    45574    45381    43957    41218    38411 
   49967    62112    53782    42041    43556    45512    42271    41119 
   39549    35788    35938    39883    40290    39384    43341    44437 
   40389    39835    38786    32994    31698    36250    36895    31891 
   27535    27936    29020    25207    22307    26538    33932    38641 
   39893    41852    43860    38618    29307    30581    38292    36154 
   31780    34924    34569    26784    26929    38908    45250    43463 
   42201    44452    53423    54129    40320    32834    33851    37794 
   46684    49431    44755    44578    46379    43216    38091    37723 
   41316    44521    47741    47223    40875    35375    33619    32328 
   27976    25709    33328    40809    40197    39819    34803    23530 
   27153    40671    41789    42005    45436    38654    36319    43372 
   41995    36778    37345    36568    32251    29891    31581    39806 
   49630    48340    39927    37968    41215    43363    43672    41114 
   38967    40304    40452    38593    35915    32583    32161    36011 
   42484    44446    41223    41617    38971    36491    50897    60983 
   46215    32902    39221    45293    37832    32907    38709    40197 
   34638    33775    34253    26914    19692    23814    32701    33682 
   30600    33404    36903    35792    32354    24848    18685    19043 
   20734    28263    42714    49059    44928    39467    35334    39357 
   50476    50477    43862    46936    48254    40258    36192    40447 
   43538    42564    43109    41742    37039    39409    46485    42202 
   30840    31363    39627    42935    41193    33706    25470    24927 
   27896    30287    33868    37871    40207    39344    34796    26962 
   24829    34254    42673    45083    44281    38645    36636    42201 
   44470    38830    33693    35209    36699    34271    36061    40697 
   38461    36140    41253    43268    38211    35645    38789    42076 
   40375    35698    32923    33162    33779    30032    26500    34466 
   45661    42624    33586    33367    36036    38589    46143    49264 
   42141    39695    46025    48239    44664    41199    39368    39617 
   41160    45855    54797    56894    46422    38927    42693    46233 
   45306    43974    39880    33872    32938    37978    41490    39132 
   37245    38284    33629    28281    38117    49199    42822    36374 
   37723    34595    32406    37426    43711    44209    37014    29636 
   28814    33068    35649    35596    36043    33596    32032    36823 
   41106    39976    36711    38294    42623    40473    37250    41168 
   45465    41515    34376    32634    33488    34959    35856    32902 
   32622    36639    37265    33597    30524    32570    38642    43854 
   44601    39775    33411    28944    26644    27854    31918    37532 
   40571    35451    28710    27804    31787    37602    39407    40581 
   44610    41377    33953    35758    40423    37640    34018    35908 
   39556    38556    35646    42097    49724    44613    38132    38199 
   38425    38407    40810    46025    47470    41405    37881    40346 
   42719    43193    40556    37898    42461    48759    47127    41723 
