Origin Time       2024/04/02 04:24:00
Lat.              40.133
Long.             141.712
Depth. (km)       71
Mag.              6.0
Station Code      IWTH04
Station Lat.      39.1809
Station Long.     141.3909
Station Height(m) 514
Record Time       2024/04/02 04:24:56
Sampling Freq(Hz) 100Hz
Duration Time(s)  135
Dir.              3
Scale Factor      2942(gal)/8224139
Max. Acc. (gal)   7.023
Last Correction   2024/04/02 04:24:56
Memo.             
[...]
    9008    11526    14544    16672    17524    16713    14736    14045 
   14137    13890    14967    15592    14341    13482     9790     3410 
    3206     7398     8895     8903     7746     6656     7365     7581 
    9759    13915    15277    15735    16649    16452    14266    10856 
   11159    13637    13026    10550     8833     9406     9445     6403 
    3873     4445     8433    12714    11961     8004     6048     6270 
    7740    10914    13948    13443    10825    11364    14076    14465 
   12892    11577    11780    12162    11360    11209    10341     7176 
    5143     6443     9436     9649     7966    10666    13805    10484 
    6026     7578    11877    11859     8446     8347    13150    16121 
   13324     9119     5900     5171     8969    13015    12907     9614 
    7959     9354     9359     8417     8475     8488     9933    12474 
   13288    10810     6363     5464     9652    13765    13892    10319 
    7952    10995    14224    11403     8692    11392    12618    11836 
   14557    14968    10534    10050    11466     9398    10778    13136 
   10069     8066     8399     9154    10185     7670     5259     5958 
    5933     7415    10045     9171     8143    10349    13589    14476 
   12517    11387    11299    10061     9247    10844    13015    11871 
    9227    10196    12920    13005    12800    15276    14917     9702 
    8804    11556     9248     7015    10119    12989    13636    14557 
   14760    11854     8251     8071    10409    11564    10493     9315 
    9204     8409     6976     6917     7296     8298    10697    12425 
   12555    10685     9602    11813    12901    11531    10764    11381 
   13247    14943    14241    11429     8851     8324     9840    10700 
   10420    10523     9219     8496     8510     5517     5327     8730 
   10274    13300    16306    14104     9759     8070    10008    12268 
   12954    14131    14809    12429    10444    10682     8565     7327 
   11524    13694    10103     6650     6968     9394    11117    10940 
    8442     6924     9805    12808    12916    11704     9373     9096 
   11593    11738    10538    10536    10484    11319    11462     9679 
    9995    11353     9485     7041     8014    10613    11983    12271 
   11680    10061     8463     8459    10314    10831     9444    10588 
   12563    10624     7084     6246     8977    11574    11279    11086 
   11974    11736    10193     9481    10840    10393     7233     6867 
    9277    11025    11929    11284    10088    11504    13944    12631 
    9072     9061    11178    11777    12129    11901    10243     7878 
    6030     7607    11493    12712    11371    11731    14076    14269 
   10789     6739     4976     6102     9139    11562    12834    13960 
   13305    10735     8434     7924    10027    12270    12548    11951 
   11080    10025     8779     8576     9826     9632     9229    11695 
   12426    10484    12023    14395    12962    10773    10312    11726 
   12420    10740    10007    10376     9648     7369     5026     5921 
    8325    10207    12436    12186    10193    10660    11533    10453 
   10440    11823    11520    11523    12599    10770     8692     9497 
    9826     9829    10739    11448    12765    13616    11842     9585 
    9946    11298    10380     8500     8631    11025    13063    12101 
   10462     9929     8733     8669     9194     7557     8245    11812 
   11346     8372     8866     9891     8895     9765    11456    11268 
   11022    10762    11040    12463    12472    11763    11318     9228 
    8290    11121    13228    12402    11811    11983    10315     7825 
    8453    11125    12186    11514    11124    11848    11547    10234 
   10520    11259    10882    10332    10544    10864     9053     7145 
    8926    11003    10336    10120    11034    10758    10087    10004 
    9171     8136     8928    10644    11402    11819    11821     9975 
    8039     8472     9620     9918    10301    10821    11308    11217 
    9710     8607     9170    10269    11124    11358    11173    10937 
   11056    11813    12046    11871    11265     8534     6616     8291 
   10689    12135    11982    10477    10230    10245     9985    11002 
   11029    11530    13470    12028    10278    10741     9502     9193 
   10015     9128     9850    11489    11438    10897     9409     9329 
   11897    11605     9296     9806    11403    12054    12310    12660 
   11641     9290     9323    10760    11034    12055    13105    11967 
   10428     9267     8147     8600     9007     8149     9219    11610 
   12127    11497    10829     9717     8608     8688     9347     8984 
    9971    12356    11092     9001    10354    10588     9244    10870 
   13779    13575    11265    10683    10779     9281     8182     7820 
    7515     9328    11792    11869    11406    10967     9872    11072 
   12869    10871     9004    10447    10983    10723    11577    10073 
    7913     8916    10085    10288    11074    11734    11507    10860 
   11091    11577    11171    11117    10809     9452     9108     9688 
    9490     9093    10141    11387    10717    10689    11800    10728 
    9566    10854    11947    10814     9150     9556    10052     8878 
    9028     8839     6874     8738    12854    12409     9996    10234 
   10679     9166     8756    11029    12403    11064    10156    11570 
   12762    11481     9059     7561     8553    11373    12595    12568 
   12722    12117    12307    13211    12212    10245     9745    10029 
    9896    11172    13090    12074     9256     8606    10343    10297 
    8658    10928    14156    12406    10751    12182    10989     7873 
    8120    10396    10993    11063    12704    13593    12447    10944 
   10052    10519    10304     8156     7846     9343     9741     9775 
    9667     9165     9059     9148     9416     9632     9850    11300 
   12955    12692    10435     8428     8600     8503     7866     9936 
   12077    10909     8942     9111    10075     9871    10516    11334 
    9647     9355    11418    11765    11992    12339    10989    10099 
    9104     8044     9304    10967    11155    10783    10929    10817 
    8583     6849     8808    11619    12502    12024    11416    11931 
   12810    13181    13716    12945    10481     9713    10789    10704 
    9378     8417     8495     8887     9111     9886    10285     9630 
    9775    10731    10490     9902    10490    10354     9151     9603 
   10662    10702    11794    12548    10789     9412     9242     9379 
   10922    12101    11746    11095     8858     6504     7303     9243 
    9574     9759    11612    12316    11431    12291    12086     9926 
   10386    12201    13207    13975    13459    11684     9005     6918 
    7522     8625     9958    12658    12379     8534     6897     8275 
    9794    11196    12144    12667    12818    11403     9811     9018 
    8685     9128     9641    11549    15546    17412    14146     9747 
    8761     7909     5668     6589     9748    11921    13578    13995 
   12387    10432    10165    11429    12131    12590    13474    12235 
    9413     7813     7619     9397    10619     8860     8418    10118 
   10750    10208     9163     8869     9742     9477     7951     8829 
   11326    10917     9884    11475    12825    12505    11890    12040 
   13147    12830     9644     6810     7597    10505    11379     9350 
    8108     9315     9826     8850     9418    11252    11975    11423 
    9699     8014     8700    10885    12156    12393    12422    12721 
   13316    13024    11007     8932     8814     9987    10805    11821 
   12800    11223     8498     7885     8773     9613     9574     9587 
   10319     9261     8283    10504    11018     8922    10358    12978 
   11612    10093    11053    11593    11816    13265    13679    10660 
    8274     9634     9828     9351    11360    10870     8468     8733 
    8901     8607     9008     7034     6088     9837    11708    10131 
   10405    11569    11423    12164    13671    13289    12619    12572 
   11237    10600    11589    12006    10936     9772    10520    10579 
    8797     7921     7092     7156     8900     8626     7770     9752 
   12028    11786    10917    11655    11610    10172    11210    13057 
   12252    12077    12960    11682    10403    10075     9074     9413 
   10979    10959     9757     9155     9757    10451    10273    10088 
    9618     9699    11653    12685    11947    10439     8653     9274 
   10854    11257    12619    12561     9609     8627    10268    11693 
   12420    11896    10546     9984     9721     9251    10139    11888 
   11433    10665    11593     9950     7392     7758     8278     9197 
   10667    11178    12116    11574     9132     8764     9606     9421 
    9873    11244    12391    12723    11758    10733    10169     9938 
   11421    13085    12106    10233     9463     8958     9109    10296 
   11264    11782    11846    11286    10820     9805     8348     8934 
   10131    10805    13198    13524    10428    10177    11766    10854 
   10349    12302    12839    10582     9589    11076    11439     9190 
    8571    11105    11049     9080     9069     7892     7138     8765 
    9046     9455    10922    10482     9381     9427    10137    11433 
   11794    10708     9987     9556     9891    10604     9964    10334 
   11996    11653    10368     9520     7720     7257    10631    14160 
   13998    11477     9761     9409     9127     9933    12603    13302 
   11130    10195    10345    10359     9772     7357     7537    10758 
   10180     7483     7811     9078     9221    10380    12911    14122 
   13898    12222     8556     7921    10557    10287     9926    12274 
   12661    11087     9788     9202    10038    10512    10370    10777 
   10681    11003    11412    10381     9844    10349    11310    11938 
   11387    11561    12291    11527     9333     7723     9082    10677 
   10251    10878    11056     9668     9796     9417     8748    10647 
   11573    10893    11936    12521    10956    10995    12421    11338 
   10359    11649    11327     9971    10458    10787    10029    10174 
   11048    11249    11554    12451    11399     8500     8793    11469 
   10948     9749    11078    11395    10714    11695    12243    10740 
    9927    10299     9279     8706    10053    10004     9472    10847 
   11746    11167    10557     9921     8652     8086     9026    10170 
   11477    12482    11893    10640     9794     9093     9549    11171 
   10376     8499    10409    13047    12181    10162    10010    11032 
   11380    11908    11915     9755     9229    11859    13173    10771 
    7161     5458     4461     3549     5348     8814    10859    11955 
   12197     9832     8043    10010    12366    13660    14273    12806 
   11095    11030    10975     9950     9830    12090    13737    12235 
   10234     9261     7353     4955     5409     8968    11530    10743 
    9748    11450    13440    13864    13675    12977    11988    10544 
    9142    10018    13026    14688    12380     9113     8448     8399 
    8430    10914    13208    11360     9362    10604    10498     8432 
    8757    11218    13115    13582    12934    11506    10376    10701 
   11026    10787    11021     9713     7672     8193     9582    11032 
   12758    12333    10023     7947     7400     8604    10224    11267 
   10894     9598     9626    11022    12448    13009    11534     9250 
    9351    11442    11979     9775     7372     7588     9691     9860 
    7314     7009    10088    11668    12191    13817    12884    10064 
   10890    13382    12839    11384    11546    11125    10565    13096 
   14558    11399     9047     8912     8370     7749     7524     9514 
   12590    11527     7763     7430    10044    10920    10211    10598 
   11739    11990    11272    10006     7565     5686     6941     8675 
    9375    11232    12151    10361     8635     7777     6994     7582 
   10411    12762    11755     8607     6984     8853    10673     9423 
    9157    10836    10716    10546    12421    13309    12402    12094 
   11669    10493    11148    13005    13864    14740    15381    14835 
   14808    14482    11988    10710    12664    13988    12629    11306 
   11647    12302    12702    12718    12442    12302    11007     9038 
    8573     9957    12313    12602     9784     6451     3214     1337 
    2307     4279     6798    10183    12695    13105    12685    13933 
   14812    12822    12371    14273    12860     8259     5084     3987 
    2894     2810     5582     6982     4305     2128     1000     -923 
    -618     1686     3890     6575     6677     4425     7159    12533 
   12445    11601    15217    17324    16001    15545    15797    14245 
   11272    10245    12096    11272     6153     3412     4425     6010 
    9261    14985    21783    26065    25123    23753    25456    26141 
   23714    21641    21532    20983    19488    17685    16333    16380 
   15503    13560    10886     5201     1318     1556      245     -619 
     642     1329     4580     7786     7323     9468    13235    13404 
   14426    18446    20574    20002    18951    16001    12123    11695 
   11097     3892    -4070    -3707     1857     5513     7545     9279 
    8071     4958     3852     3654     3511     4411     4060     3407 
    4830     5796     7496    11331    11740     9601    12081    15611 
   13738    10962     9967     9190    11334    13266    10822     8930 
    8943     8830     9243     9489    11573    17253    24270    30107 
   28486    19799    13837    10169     8120    12229    14280    10473 
    8835     8332     7547    10565    14959    16225    14499    12656 
   12415    12067     9520     5656     2195    -1510    -4977    -6278 
   -7192    -7828    -4272      607     2023     3962     7572     8834 
    8631     8664     9995    13401    18594    25582    28930    25178 
   22040    22856    21465    17991    18500    22011    22064    17001 
    9871     2251    -4041    -5055      625     8054     9551     7240 
    9788    14415    16970    22068    26300    24244    19966    15546 
   11383     7959     5250     7020     7939     -243    -5297      272 
    3218     3422     6619     4225     -592     2254     6760     8071 
    8874     8147     4770     2533     6781    15118    19936    20729 
   21952    24376    23425    18636    16355    16062    13320     8725 
    3256      141     1907     4442     5764     7742     9859    10392 
    9711     9829    10423    12174    16626    19039    18331    19103 
   19704    17990    16299    16899    17192    11944     5460     4043 
    3194     -592    -2833    -2096    -2255    -1062     3859     6301 
    6268     7624     8351    10142    13464    13973    12862    13089 
   14260    14431    13215    13790    16619    18468    18411    17108 
   15572    15207    14265    11079     9940    12410    13030    10359 
    8050     7385     7762     9925    13404    13760     9799     6781 
    4677     -120    -1455     3902     7655     8849    12393    16382 
   17655    15924    14204    14542    13616    11784    11666    10901 
   10628    12474    11060     5319     1202     1679     4066     4618 
    3692     4047     6037     7329     7647     8575     7333     4955 
    8341    14206    16137    17845    20537    19624    17463    17517 
   17226    17199    18669    20163    22472    23044    19967    17505 
   15230    10260     5657     3719     2543     2409     4785     7129 
    8487    10465    11218    10214     8554     5697     4660     7199 
    8170     5942     5927     9540    12930    14091    12623    11438 
   13132    12324     7454     5482     6912     6925     6833     9147 
   10642     9293     7769     7817     8082     7605     8499    10847 
   11375    10357    10532    11935    13238    13899    13679    12228 
   11963    14428    13479     8754     7032     5625     3500     5170 
    8322     9297     8113     8239    10208    10057     8915     8171 
    7238     8861    13108    16494    17105    15036    13171    13963 
   15214    15449    16023    16287    15111    13446    12162     9886 
    5282     1046     -160     -252     -220     2189     5216     5375 
    4411     5390    10179    15115    14058    13153    16927    17365 
   16006    17730    17813    17805    19512    17883    14534    13433 
   13128    11747    10744    10921    10212     8835     7724     6947 
    7263     7358     6293     6384     8968    11639    12463    11801 
    9749     8649    10728    12525    12792    14801    15399    11599 
    8972     9250    10246    12133    12233    10860    11961    12000 
    8652     6890     6664     6143     7407     8490     7681     7650 
    7924     7021     6278     6994     9127    11410    12914    13069 
   12442    11677     9977     9352    10345    10786    11628    13151 
   14679    14489    11507    10153    11882    13576    14284    13959 
   12424     9632     6868     5800     6390     8584    10894    10971 
   10029     9948    10354    11469    13012    12937    11897    12750 
   14266    13861    12831    11923    10089     8375     8352     9174 
    9898     9882     7554     6594    10006    11483     9863     9332 
    7615     5350     5850     6377     6342     7577     8087     8199 
   10056    11526    11271    11380    12063    12054    12229    14031 
   15438    14106    13500    14601    12258     8910    10604    13423 
   12873    11942    11394     9092     7781     9175     8556     5458 
    5004     6677     7954     8978     8779     8872    10756    11692 
   11686    12700    13259    10720     7480     8677    10763     9474 
    9566    12178    13328    12879    12379    11511    10650    11237 
   12136    12721    13223    11959    10804    12324    14301    14347 
   13217    13705    14496    12295     9757     8931     9016    10339 
   11065    10848    10898     8573     4495     3005     3966     4918 
    4295     3854     6724     9571     8957     8564    10427    11125 
    8680     6700     8446    10876    12183    14181    15454    14839 
   13952    13298    13062    13676    14601    14856    13703    11961 
   11178    10987    10593    10007     9130     8625     8799     9312 
   10500    11365    11025     9983     8530     8491     9795     9535 
    8344     7975     9134    12222    13946    13151    13146    12611 
   10789    12021    14364    13810    14877    18673    19423    17419 
   14949    11554     9400     8873     7492     5705     4935     5131 
    5768     5953     6178     7974    10075    10189     9597    10520 
   10953     9529    10199    12783    11641     8021     7334     8694 
    9645    10779    11068     9321     7831     7493     5983     4315 
    5069     6014     5676     5952     6794     8056     9992    11007 
   11704    12588    11805    11350    12850    14261    15286    15978 
   16235    16509    16189    15178    14299    13756    13165    11708 
    9185     7042     5243     4194     7410    11600     9803     7206 
    9717    11543    10714    10755    10311     9126     8911     8546 
    8089     8594     8814     8773     9782    10116     9323     9981 
   11535    11884    10721     8959     9080    10409    10459    11403 
   13513    13543    11759    10562    10400     9585     8706     9799 
