Origin Time       2024/04/02 04:24:00
Lat.              40.133
Long.             141.712
Depth. (km)       71
Mag.              6.0
Station Code      IWTH19
Station Lat.      39.4559
Station Long.     141.0001
Station Height(m) 220
Record Time       2024/04/02 04:24:55
Sampling Freq(Hz) 100Hz
Duration Time(s)  120
Dir.              5
Scale Factor      7845(gal)/8223790
Max. Acc. (gal)   29.565
Last Correction   2024/04/02 04:24:55
Memo.             
[...]
    3192     3647     3639     3292     3169     3501     3904     4033 
    3874     3669     3527     3230     2816     2439     1896     1520 
    1860     2394     2759     3345     3843     3780     3651     4284 
    5593     6396     6089     5112     3877     2889     2281     1583 
    1155     1474     1729     1479     1637     2857     4747     6259 
    6334     5258     4383     4068     3881     3657     2967     1752 
     746      375     1030     2668     3705     3221     2814     4079 
    6151     6982     6130     5088     4618     4101     3487     3099 
    2450      959     -670     -533     1641     3321     3304     3176 
    3744     4637     5331     4885     3726     3335     3697     4106 
    4333     4237     4083     4386     4850     4391     2616     1020 
    1356     2444     1730       83      336     2458     4564     6160 
    7627     8098     5989     2374      454      803     1633     2200 
    2748     3415     3716     3060     2180     1946     2173     2774 
    3230     3276     4465     6763     7761     7003     5655     4129 
    2808     2003     1148      -37     -503      446     1682     2450 
    3730     5637     7132     7449     5487     2251     1328     2732 
    2779      758     -577      409     2986     5143     5358     4702 
    4664     4604     4131     3929     3852     3300     2709     3245 
    4769     5279     3418      373    -1112      139     2062     2860 
    3273     3746     4170     4907     5007     3491     1795     1412 
    1854     2631     3871     5184     6035     5521     3306     1746 
    2155     2458     2092     2439     3249     4291     6165     7160 
    5383     2987     2219     1417     -282     -854     -336      180 
    2339     5805     6795     5505     5652     7041     7075     5557 
    3310     1320      527      -12     -487      716     2347     2016 
    1422     2782     4247     3454     1860     2482     5463     8542 
    9810     8750     6667     4595     2126      706     2018     3250 
    1333    -1594    -2043     -313     1595     3912     6809     7951 
    6899     6380     6203     3863     1143      847     1556     1871 
    1998     1389      634      957     1402     1561     3381     6426 
    7479     6744     6820     6836     5096     3456     3445     2895 
     573     -892      -98     1285     3059     5537     6316     4618 
    3585     4477     4820     3577     2743     3399     4098     3424 
    2049     1957     3429     3622      807    -1412      607     3597 
    3748     3699     5296     6192     6247     6756     7090     6725 
    5431     2574     -656    -1021     1991     3874     2054      -45 
     276     2142     4563     6265     5837     4257     3608     4272 
    5400     6065     5501     3655     1059     -716      571     3311 
    3507     2115     2451     4271     5435     5105     4611     4610 
    3126       13    -1503      -12     2500     3993     4147     3951 
    4549     5529     5198     3703     3194     3784     3820     3696 
    3975     3474     2837     3346     3366     2363     2632     4097 
    4506     3943     3361     2134     1042     2072     3732     3194 
    1613     1813     3373     3547     1960     1247     2511     4226 
    5617     6650     6096     3381      411     -660      457     2211 
    3130     3870     4639     4585     4758     5753     6195     5503 
    3933     2084      973     1086     2050     2926     3601     4569 
    4695     3892     4364     5347     4785     3370     1229    -1178 
   -1642     -692      -49     1075     3523     6011     6431     4924 
    3728     3407     3496     4198     5123     6041     6386     4488 
    1571     1331     3866     6004     6023     4225     1883      661 
    1143     2594     3824     4255     4124     2863      710      260 
    2277     4714     6075     5602     3300      947      538     1705 
    2478     2930     4311     5147     3928     2654     2889     3873 
    5082     6007     6062     5008     3129     2304     3377     4182 
    3561     2856     2778     2759     2532     2172     1487      897 
    1907     4653     7006     7551     6756     5227     3187     1394 
     714      897      919      529      629     1402     2362     3789 
    4961     4756     4585     5645     6516     6249     5134     3526 
    2643     3148     3743     3186     1437      -86      588     2997 
    4461     3912     3096     3334     3713     3462     2987     2581 
    2288     2918     4949     6644     6831     6331     4799     2482 
    1352      679     -334      255     1348      695      855     3458 
    5594     6034     5849     4739     3064     2614     3083     2655 
    2328     4428     6577     4936     1912     1439     2482     3416 
    4795     5881     5036     3515     3613     4220     2791      386 
     334     2096     2668     2646     3253     3399     3485     3994 
    3717     3196     3194     2718     2293     3192     3919     2551 
     766     1522     3893     4799     4533     4437     3549     2454 
    2721     3586     4791     6266     6011     3825     1810     1084 
    2097     4054     4827     4264     3578     3268     3349     3053 
    2625     3694     5591     5895     4024     1314     -513     -294 
    1763     3825     4201     3415     2786     2475     2515     3326 
    4741     5809     5875     5367     4483     2781     1183     1098 
    1699     1682     1929     3441     4681     3875     2459     2581 
    3396     3805     4428     4612     3187     1467     1255     2178 
    2960     3433     4037     4305     3663     2714     2558     3912 
    5923     6768     6417     5486     3350      757     -147      341 
     378      271     1200     2513     3253     4139     5401     5629 
    5013     4881     4712     4079     4062     5020     5726     5548 
    4997     3411      873     -445     -359       16     1393     4279 
    7103     7827     6633     5460     4977     4737     3827      866 
   -2488    -2543      278     3114     5047     5529     4629     3936 
    3727     3514     3592     3379     2758     2758     2681     1679 
    1323     3060     5387     5571     4097     3611     3993     4437 
    5618     5899     3738     1854     1723     1108      328     1922 
    4097     3515     2118     2717     3550     3493     4394     6011 
    6592     6322     5373     3121      791      355     1286     2004 
    2357     2170     1413     1921     4568     6887     5864     1923 
   -1065     -718     1512     3666     5059     5406     5422     6197 
    6759     5771     4201     3195     2289      907     -245      562 
    3622     5964     5451     4402     4595     4209     2795     2047 
    2100     2428     3195     3848     3515     2712     2794     3846 
    4575     4202     2893     1270      737     2015     3464     3635 
    3227     2828     2389     2775     4430     5929     6006     5043 
    4324     4556     4719     3873     2639     1509      583      549 
    1838     3477     4047     3580     3361     3715     3473     2735 
    3256     4563     4089     1615     -499     -477     1703     4606 
    5938     4450     2324     2523     3929     4741     5490     5140 
    2972     1668     2667     4175     4453     3491     2014      877 
    1448     3708     5135     4684     4548     5606     5549     3190 
    1044     1417     2697     2851     3001     3827     3781     2859 
    2110     1634     2242     4205     6274     7539     6660     3520 
    1561     2444     3059     1551      149      797     2559     4091 
    5809     7221     6068     3040     1458     1274       41    -1198 
      52     2614     3959     4225     5143     6319     5799     3955 
    2361     2263     4415     6409     5549     3079     1278     1190 
    2681     4673     6754     7987     6004     1552     -697      267 
     324     -685     1231     4734     5410     3751     2659     2835 
    3348     2882     1472     1275     2778     3788     4112     5073 
    5549     4787     5216     7051     6944     4831     2679      205 
   -1236      155     2057     2478     3022     4955     6802     7026 
    6508     5736     3423      572     -248      649     1745     2752 
    3148     2891     3503     5227     6709     7437     7057     5367 
    3504     2101      236    -2061    -2353      457     2955     2749 
    3011     5613     7281     6538     5607     5562     5499     4149 
    2034     1579     2398     2397     2751     4052     3933     2432 
    2006     2798     2812     1549      294     -252     1101     5321 
    8870     8124     5418     3681     2396     1325     1196     1618 
    1972     2427     2848     2346     1151     1431     3812     5637 
    5346     4428     4149     3889     2883     1887     1591     1698 
    2485     3888     4889     4984     4013     2447     1773     2589 
    3754     3736     2234     1069     2363     5606     7933     7101 
    3854     1112      962     2845     4430     4139     2461     1632 
    3067     4689     4356     2998     1999     1961     2866     4006 
    4660     3912     2336     2227     3238     3582     4033     4957 
    4930     3666     1957      886     1057     1514     1649     2304 
    3666     4818     5058     4754     5617     7855     8899     7719 
    5146     1066    -2525    -1699     1887     2218     -477     -572 
    2069     3262     3483     5391     7346     6814     4826     3291 
    2872     3348     3091     1895     2563     4780     4596     2479 
    2315     3564     3164     1752     1733     3681     6223     6697 
    4773     3343     3140     2172      396      376     3037     4990 
    3840     2425     2547     2236     1536     2261     4074     5834 
    6685     5738     4229     3708     2793     1637     2776     4677 
    3784     1416     1148     2363     2914     4338     7059     7398 
    5402     4684     4064     1980     1482     2143      164    -2791 
   -2629      -95     1696     2713     4625     6613     6826     5915 
    5583     5672     5273     4742     4286     3152     2099     2435 
    2961     2492     2193     2971     3950     4021     3159     2170 
    1961     2749     3638     3919     4521     5900     6207     5023 
    4457     4514     3659     2498     2505     3014     1661    -1098 
   -1486      849     2284     2596     4361     6525     6192     3842 
    2170     2080     2458     3122     4365     4522     2903     2004 
    3280     5163     5722     4419     2587     2034     2569     2992 
    2513      830     -264      934     2767     3609     4419     5707 
    6465     6367     5638     4117     2358     1204      733     1283 
    3253     4761     3362      772     -168     -286      149     2424 
    4461     3987     3022     3218     2828     1642     2471     4777 
    4442     1860     1026     1856     2627     3940     4584     2764 
     877     1242     2037     1834     2254     2928     1624      892 
    3325     5225     4796     4452     3439      865     -152     1421 
    2245     1331     1966     4758     6292     5146     2673      445 
    -329      729     2910     4399     3947     2748     2517     3381 
    4490     5352     5949     5973     5840     6327     6215     4322 
    2195     1652     2544     3850     4237     2727     1150     2385 
    5476     7654     8864     9362     8004     5894     5267     5142 
    4099     3408     3069     1212    -1206    -1803     -646      676 
    1410     2821     5937     8941    10080     9632     7769     5100 
    3712     4224     4637     3896     3033     3007     4789     8406 
   10708     9402     7213     6581     5620     3577     2662     3273 
    3762     3281     2986     4078     4888     4171     3804     4240 
    4118     3655     2832     1252      464     1405     2585     2366 
     452    -2274    -4278    -4055    -1780      413     1328     1530 
    1390      648     -392      112     3179     6905     9907    12771 
   14531    12997     9198     6943     7215     7398     6879     7975 
    9861     9190     6640     4465     2315      839     1362     1775 
   -1170    -8068   -15425   -17350   -12248    -3925     3615     7069 
    5911     3834     3308     3581     3225     2299     2824     4810 
    5119     2471    -1150    -3572    -3396      268     6072     9960 
    9402     6340     3326      893      294     2690     5464     4336 
    -669    -4239    -1058     8637    17923    20699    19039    16410 
   11530     5358     1944      392    -2338    -3854    -1264     1907 
     862    -2601    -2897       28     2188     3100     2702     -395 
   -4081    -5298    -3898     -471     3523     5564     5975     6759 
    6750     5186     5759     9123    10323     9093     9846    11867 
   12800    14619    16384    12189     1548    -8694   -14507   -17574 
  -18021   -12924    -3576     2916     2515     -556      -21     3820 
    4847     1472     -155     3481     7878     9308    10112    11462 
   10311     5805     1301      122     3805    12036    20636    24025 
   21193    13609     1838    -9853   -15403   -15010   -11520    -5169 
    1961     6245     7790     7246     4052     2196     5412     8276 
    3338    -7848   -16119   -14829    -6192     3167     8676     9055 
    4182    -4476    -9622    -4685     4985     9917     8422     4368 
    1642     1374     2945     6188    10002    12895    14902    16649 
   19124    23896    30601    34307    29047    15553     1823    -5589 
   -7677    -8379    -8066    -4750     1281     5568     4274     -311 
   -4453    -7817    -8853    -4720     1159     2281     -351    -1637 
   -1993    -2585      679     6822     7041     1275     -966     2249 
    5576     8935    14122    15952    10494     2184    -4341    -7160 
   -5179    -1104      897      371     -885    -2955    -6319    -7717 
   -4310     1048     4502     6292     9371    16116    24205    26327 
   19577    10457     5277     2567    -2037    -7581    -9024    -6867 
   -6531    -7994    -7261    -4828    -3419    -3080    -2165     2070 
    9891    14526    10220     2166      186     6127    12748    13832 
   10131     4560     -796    -2795     -271     3497     4058    -2270 
  -14296   -22781   -20205    -9394     3136    14728    24047    28664 
   28065    23245    15049     6627      660    -5680   -14235   -18705 
  -14249    -6633    -1063     5435    12544    13983     9992     7472 
    8201     8390     6535     4959     5200     4496      270    -4864 
   -7109    -5320      369     7770    11888    11427    11564    13537 
   12054     7142     4033     2929     1876     2158     3511     3804 
    3003     2142     3196     7404    11747    12163     7785     1506 
   -1582      855     5308     7281     6899     5686     3430     1721 
    1588    -1077    -8056   -13173   -10925    -2120    10099    20530 
   22491    15574     6893     1331    -2891    -6312    -4729     1532 
    5502     3892       59    -1632     1472     8290    14133    17068 
   18638    17956    13601     7983     3647       25    -3670    -6987 
  -10080   -13036   -13441    -8149     2567    14314    20314    15963 
    4780    -4156    -4711     2367    10916    14362    10130     1723 
   -2857     -464     2878     2166     -495    -2315    -2710     -646 
    3607     6259     3811    -2263    -6192    -3535     3468     8449 
    8777     6635     3923     1296      808     3854     7005     5892 
    1715    -1794    -3786    -4368    -3352    -2154    -2085    -2677 
   -2411      475     5471     9637    11307    10577     7955     4853 
    2820     2344     2532     1702     -824    -4357    -6615    -4928 
     504     7447    12546    12424     8521     4333        6    -3285 
   -2783     -429     -110    -1224    -1476     -789      448     1640 
    1485      743     2168     5698     7693     7568     8837    11223 
   11800    11735    11831     8965     3223      128     2604     6295 
    5672     1075    -4063    -7724    -8268    -4684     1193     5560 
    6956     7744     8991     8749     7470     8506    11790    13197 
   10319     4087    -1884    -2705     1961     7402     9842     7996 
    3149     -634    -1092      179     1598     3640     7198    10319 
    9344     4780      322    -1960    -2571    -3094    -2569     1096 
    6764    11986    14546    12854     8830     6023     4486     1364 
   -3863    -7701    -8031    -6494    -2450     6170    15782    20937 
   21192    18970    15426    11084     7414     4887     2511     -283 
   -3932    -7793    -9140    -5861      553     5591     7547     8313 
    6763     1401    -4052    -5938    -4136       29     2776      913 
   -2277    -1844     1837     5508     7515     7708     4993    -1323 
   -7869   -10098    -6658     1723    11801    17489    17177    16136 
   15819    11938     4853    -1223    -5189    -7699    -8505    -7285 
   -4341      430     6160     9470     8631     5015     -166    -5031 
   -6718    -4450       45     3970     5969     7083     6885     4590 
    3311     5873    10542    13328    12233     8819     4399     -141 
   -1337     1732     4064     2290     -105     1634     6380     9208 
    8583     6218     3100       99    -2168    -4644    -7715    -9558 
   -7526    -1278     5729     9894    11448    12521    13312    12945 
   11466     8641     3766    -1950    -5464    -5790    -4822    -3213 
     209     5593    11692    16171    16434    12776     8511     4804 
      17    -4989    -7307    -6563    -5063    -4606    -4527    -3699 
   -2268     -584     1196     3415     6889    11137    13560    11524 
    6023     2011     2552     5599     8449     9691     8802     7645 
    6369     2304    -3195    -5818    -4627    -1853      747     2704 
    4299     7244    11148    11688     8573     7132     8675     8610 
    4329    -1406    -5119    -5907    -3738      202     3150     4862 
    7113     9232     9425     7025     2952       22     -449      697 
    2019      895    -1944    -2168      808     4125     5759     5359 
    4020     3154     2836     1391    -1580    -3987    -4662    -3144 
    1290     6129     8004     8834    11199    12344    10233     7913 
    7677     7553     5282     1723    -1131    -2185    -1127      710 
    1495      945     -210     -445     1271     3472     4633     5767 
    7302     7059     4326     1772     2176     5805     9701    10432 
    7836     3765      409        6     2555     5364     5772     3484 
     114    -2852    -3993    -2234      892     2502     2041     1410 
    2438     5046     7542     8899     9686    10354    10260     8195 
    3716     -978    -2609    -1271      571     2119     3415     3909 
    3539     3339     3703     3191     2107     2817     4873     5957 
    5657     4725     3923     3805     3557     1486    -2296    -4234 
    -810     5022     7213     6153     5900     6933     8988    13475 
   18704    18835    11317      923    -6471    -9490   -10278   -10871 
  -10293    -6534       20     6910    10616     9400     6972     7736 
    9373     7750     4347     1113    -2759    -5402    -4051      210 
    5570    11195    14365    12202     6504     2732     2903     3154 
    1640      340    -1617    -4608    -5560    -3982    -1165     3658 
