Origin Time       2024/04/02 04:24:00
Lat.              40.133
Long.             141.712
Depth. (km)       71
Mag.              6.0
Station Code      IWTH24
Station Lat.      39.1979
Station Long.     141.0118
Station Height(m) 200
Record Time       2024/04/02 04:24:58
Sampling Freq(Hz) 100Hz
Duration Time(s)  124
Dir.              5
Scale Factor      7845(gal)/8223790
Max. Acc. (gal)   12.114
Last Correction   2024/04/02 04:24:58
Memo.             
[...]
    5475     6889     8446     8124     6289     5111     5171     6165 
    7095     6945     6790     7261     7169     6654     6991     7674 
    6951     5286     4862     5364     5146     4411     3987     4676 
    6319     7030     6828     7138     7133     6736     7071     7095 
    6334     5817     5718     5976     6550     7465     7905     6434 
    4641     4889     5923     5914     5316     5134     5193     4995 
    5460     6566     6570     6153     6419     6106     5277     5077 
    5385     5622     5647     6262     7086     6777     6489     6858 
    6389     5796     6224     6590     6733     7099     6751     5857 
    5787     6234     6153     5842     5973     6262     6178     5632 
    4831     4801     6296     7955     8274     7484     6196     5379 
    5971     6658     5875     4857     5555     7543     8627     7982 
    6690     5622     5131     5386     6124     6652     6355     5848 
    5971     6178     6169     6478     7011     7871     9256     9670 
    8020     6120     5648     5377     4490     4243     4619     4681 
    5092     6428     7765     7915     6862     6014     6370     7365 
    8101     7998     6789     5323     4743     4553     4266     4811 
    6004     6806     7353     7603     7196     6880     6925     6288 
    5354     5278     5416     5647     6340     6307     5536     5269 
    5830     6747     6812     6401     6740     6519     5688     6000 
    6057     5024     5159     6293     6592     6609     6825     6531 
    6466     7249     7508     6554     5806     6469     7338     6856 
    5601     4372     3829     5130     6909     6741     5753     5925 
    6430     6249     6196     6577     6421     6004     6257     6550 
    6540     6933     6917     5757     5314     6003     5678     4833 
    5772     8120     9618     9084     7422     6068     5580     5761 
    5825     5510     4936     3901     3666     5405     7218     7510 
    7285     7087     6721     6569     6686     6725     6254     5514 
    5418     5324     4430     4037     4770     5850     7065     7817 
    7377     6849     7442     8193     7592     5977     4741     4179 
    4236     5429     6909     7373     7184     6427     5274     5198 
    6309     7335     7474     6451     5185     4826     4959     5134 
    5433     5628     6156     7165     7562     7188     6504     5769 
    6266     7998     8590     7391     5999     5166     4923     5370 
    5869     5655     5136     5292     6324     7526     7717     6324 
    4698     4649     5590     5906     6102     7041     7537     6982 
    6694     7155     7422     7029     6596     6666     6751     6775 
    7357     7651     6816     5644     4625     4164     4669     5755 
    7196     7916     7317     7204     7600     6652     4842     3609 
    3717     5305     7078     7726     7183     6211     5942     6166 
    5906     5706     6173     6878     7461     7377     6249     4783 
    4078     4592     5688     6528     6870     6415     5440     5181 
    5840     6531     6960     7217     7237     7284     7568     7381 
    6440     5667     4901     3615     3501     5683     8159     8941 
    8376     7204     5938     6103     7794     8653     7595     5574 
    3913     3774     5108     6324     5894     4352     3982     5710 
    8019     9292     9011     7493     5811     5022     5481     6277 
    6203     5944     6062     5921     6185     6971     6932     6501 
    7160     8587     9038     7990     6731     6016     5784     5432 
    3943     2758     4002     5829     6126     6029     6158     6112 
    6525     7545     7919     6459     4195     3574     4909     6712 
    7555     6629     5239     5178     6169     7327     7812     6849 
    5756     5892     6118     6122     6435     6424     6442     6760 
    6678     6496     6412     6303     6224     6180     6760     7248 
    6367     5535     5548     5117     4698     5321     6134     6173 
    5852     6133     7094     7900     7905     6874     5289     4595 
    5493     6716     6937     6322     5470     5101     5729     6409 
    6463     6822     7480     7497     7312     7186     6154     4731 
    4700     6015     6970     6358     4773     4315     5674     6980 
    6785     5436     4172     4675     7288     9805     9996     8037 
    5938     5285     5501     5463     5313     4954     4426     5093 
    7048     8278     7616     6180     5378     5081     5158     5487 
    5016     4939     7091     8756     7233     4935     4433     5057 
    6065     7557     8306     7099     5424     5196     5985     6913 
    7465     6936     6197     6826     8391     9406     9011     7447 
    5917     5009     4621     5054     5848     5937     5622     5718 
    6212     6627     6693     6755     6957     6841     6138     5343 
    5310     5833     6131     6277     6373     6427     6701     6747 
    6197     5602     5111     4662     4815     5699     6751     7489 
    7682     7277     6774     7155     8110     7970     6573     5240 
    4359     3987     4669     6087     7025     6679     5827     5826 
    6174     6311     6686     6331     5147     4835     4997     4725 
    5385     7245     7789     6276     5364     5927     6312     6561 
    7092     6972     6153     5618     6062     6786     6413     5717 
    5688     5790     6783     8488     8456     7044     6409     6282 
    5742     5260     5113     5004     5697     7657     9100     8498 
    6870     6243     6601     6083     5300     5724     5817     5536 
    6284     6239     4666     3767     3986     4139     4267     5752 
    8028     8349     7454     7750     7284     5246     4961     6045 
    5919     6293     7978     8212     6762     5717     5371     5556 
    6847     8473     8725     7875     7519     7209     5514     3777 
    3422     2717     2155     4563     7727     8563     8946     9485 
    8010     5805     6000     7276     6755     6247     7145     6675 
    5188     5427     6041     5250     4579     5088     5412     5058 
    5042     5254     5846     7427     8611     8352     7419     6146 
    5161     5829     7249     7053     5379     4657     6093     7819 
    7990     7140     5776     4765     5718     7518     7550     6039 
    5205     5745     6679     6983     5722     3597     3476     5688 
    7329     7589     7198     5772     4403     4700     5602     5722 
    5246     4818     5441     7265     8359     7560     6274     5930 
    6407     6859     6697     6029     5417     5448     6018     6127 
    5186     4101     4344     5815     7109     7792     8037     7917 
    7924     7830     7032     6205     6049     6019     5220     4245 
    4824     6273     6324     4989     3889     4361     5975     7021 
    7489     7580     6674     6080     6879     7646     7375     6648 
    6589     7420     7591     6767     6288     5590     4769     5780 
    7210     6363     4567     4652     6685     8209     7896     6558 
    4978     4248     5913     8831     9779     8523     7015     5613 
    4909     5784     7068     7501     6882     5973     6168     6582 
    5634     4488     3947     3508     4461     7069     8213     6639 
    5324     6316     7254     6195     5510     6212     6673     7553 
    8626     8089     6897     5836     5016     5363     5876     5724 
    5182     4149     4688     7537     9367     9209     8488     7449 
    7029     7376     6963     6154     6002     5989     5625     5178 
    5020     4629     3754     3913     5408     6513     6546     6023 
    5859     6972     8743     9169     7646     6056     5819     6158 
    5927     4764     3499     3774     5379     6428     6615     6778 
    6631     6153     6893     8793     8989     6440     3923     3993 
    6354     8893     8959     5999     3542     4406     6343     6837 
    6635     6192     4823     3604     4220     5468     5255     4561 
    5398     7257     7989     7186     6588     6797     7195     7696 
    7898     7352     6058     4765     4986     6019     5995     5665 
    5782     5935     6482     7080     7200     7412     7770     7862 
    7256     5678     4298     4279     5134     6223     6629     5343 
    3538     2874     3634     5449     6440     5337     4251     5105 
    6974     7946     7263     5872     4795     4395     5046     6205 
    6635     6312     6215     6648     6821     6365     6419     7036 
    6755     6308     6632     6546     6493     7307     7678     7352 
    7061     6948     7352     8068     8534     8187     6729     5877 
    6547     6539     5009     3839     4307     6023     7622     7844 
    6654     5381     5516     6670     7041     6689     6786     6619 
    6054     5903     5147     4252     4895     5726     5757     6157 
    7040     7649     7704     7620     7565     6839     6331     7763 
    9351     8460     6582     5852     5863     6428     7350     7204 
    5995     5328     5865     7087     8039     7807     6621     5495 
    4737     4780     6099     7110     6635     6426     7087     6617 
    4953     4338     5043     5265     5077     5283     4374     2593 
    2544     3484     3800     4487     5644     6096     5514     4814 
    4993     5459     5668     5556     4394     3030     3249     4742 
    5814     5404     4176     3628     3933     4631     5944     7368 
    8158     8272     7165     5472     4866     4835     4437     3939 
    3666     4158     5385     6470     6964     6721     6058     5683 
    5057     3978     4286     6261     7921     8364     7981     7618 
    7881     8388     8457     7717     6744     6509     6671     6416 
    5610     4436     3879     5003     6882     7724     7697     8012 
    8660     9433    10536    11146     9725     6650     4918     5826 
    6885     6427     5636     5800     6959     8017     7774     6550 
    5530     5238     5931     6993     6397     3997     2587     3712 
    5751     6690     6160     5244     5629     7427     9285    10926 
   11900    10763     7539     3393     -229    -1445      -85     2290 
    4762     6608     7541     8847    11153    13213    13475    10766 
    6215     3921     5682     8737    10166     8972     5683     2574 
    2280     5086     8748    11391    12374    11403     9131     6797 
    6041     8885    14355    18152    17413    12626     7090     4164 
    3805     5023     6739     6713     5954     7141     9613    12141 
   13435    11082     5456      650      623     4646     7842     8209 
    7211     4750     1919     3238     9024    12668    10119     4954 
    2262     3338     6241     8071     6835     2795    -1150    -1661 
    1069     3915     5694     6089     3979     2447     5794    11330 
   13832    12299     7892     2265    -1132      224     3515     4700 
    4357     4050     4340     6540     9501     9751     6895     4033 
    3300     3740     3674     3030     2640     3345     6018     9575 
   10068     6156     1669     -403      171     3974    10099    15087 
   16089    12217     5163    -1264    -4225    -3464     -442     3643 
    7851    10377    11518    13551    15364    14230    10674     7010 
    5506     7005     8764     7531     4185     2076     3169     6791 
    9965    10415     8640     5710     3271     3092     3424     1899 
      68      473     3348     6871     8268     6158     2995     2535 
    4676     6416     6301     4823     2781     1355     1803     3919 
    6891     9938    11392    10755     8455     4291      340     -498 
    1381     3642     4344     4182     6143    10424    13778    13694 
   10284     6458     5610     7042     7291     5908     4756     3883 
    3360     5340     9302    10223     6394     1981     -205      198 
    3757     8733    11716    11680     9963     8357     7878     8356 
    9188     9829     9880     8973     6959     5238     5910     8010 
    8023     5881     5053     6519     8436     8209     3527    -3215 
   -5703    -1833     4499     9112    10480     8696     5741     4900 
    6620     7256     4185      329      476     4738     9622    12132 
   10976     8210     7875    10276    11755    10466     7539     4104 
    1321     1146     4045     7136     7396     5706     4207     3233 
    3663     6809    11078    13941    15205    14108     8968     2685 
     326     1138     1421     1768     4236     7592     9634     9763 
    8441     6529     5310     5769     6751     6532     5985     6512 
    7693     8823     9285     7584     3419      152      704     2816 
    3572     3586     3121     2041     2570     4924     6243     6246 
    7006     7959     6100     1906      180     2477     5503     7416 
    7982     6008     2698     2509     7163    13109    16158    15469 
   12984    10512     8760     7813     5590      733    -2504     -531 
    3985     8594    13213    15799    14544    11404     9242     8635 
    8803     8988     8310     6771     5827     6037     6994     9497 
   13208    14883    12457     7200     1954     -442     1135     5273 
    8741     8259     3538    -1676    -3284     -695     3202     4460 
    2235      -98     -136     1452     3377     4104     3017     1984 
    2150     1926      486     -687       58     3196     7558    10530 
    9552     5352     2775     4942     9532    12603    11583     6913 
    3087     2971     4078     4517     5506     7539     9936    12137 
   14080    15711    16163    16210    17745    18945    16708    11654 
    6597     3858     3622     3781     2822     1331     1205     3786 
    7380     9347    10002    10770    11252    10631     8615     4679 
     -78    -2363     -784     2748     5922     7184     5833     3631 
    4221     8151    11384    11038     8020     3890      379      -94 
    2565     5432     6273     5709     5996     8386    12108    15426 
   16155    13355     8584     3910     1216     1598     3311     3655 
    2196      383       29     1817     4409     6012     6485     6828 
    7477     8552     9852    10223     9166     7284     5607     5683 
    7365     8641     8290     5440      545    -3049    -3541    -2650 
   -1634     -429      650     1398     2490     4382     6076     6650 
    6511     6185     6161     6832     7989     9271     9838     9169 
    7827     6015     4152     3746     5930    10027    13001    12479 
    9964     7966     7068     6999     7834     9931    12032    11364 
    8518     7265     8496    10115    10598     9414     7263     5744 
    5544     6075     6386     5945     4652     3173     3597     7076 
   11057    11900     9521     6544     4310     2934     2809     3404 
    2916      442    -2327    -2936     -835     2816     5729     5675 
    2814        0      827     5304     9439    11060    10481     8309 
    6566     6858     8191     8622     7025     4579     3996     5729 
    7944     9594    10127     8934     6760     5198     4892     5462 
    6527     7646     8240     8453     8961     9987    10382     8627 
    5782     3724     2122     1395     3194     6586     9134     9867 
    9134     7572     5945     5613     6814     7022     4970     2820 
    1444      170      402     3172     6847     9591    10667    10528 
   10026     8660     6218     4968     6917    10534    12738    12596 
   10605     7080     3769     3334     5649     7558     7072     5368 
    4131     4267     6389     8626     7983     5873     5717     6835 
    6681     5147     4112     4918     6114     5358     2906      291 
    -735     1520     4905     5417     3738     2663     2791     4949 
    8901    10598     8596     7257     8486     9242     7929     6026 
    5363     6066     6782     6891     6488     5765     5570     6130 
    6550     6114     4907     4191     5356     7994    10166    10072 
    8352     8044     9517     9350     6308     2745      915     1804 
    5031     7998     7738     4804     2578     2988     5609     8515 
    9470     8577     7867     8217     8637     8117     7535     8163 
    9532    10665    10743     9491     8237     7759     7354     6983 
    6693     6354     6728     7850     8907     9698     9994     9308 
    8178     8217     9622    10135     8370     5853     4889     6045 
    7893     8509     6940     4135     2388     2731     3838     4175 
    3825     3627     4158     5701     7288     7110     4864     2392 
    1980     3546     5044     5593     4878     2758     1248     2354 
    5317     8279     9882     9283     6937     5057     5636     7800 
    8459     6324     3493     2633     4988     9598    13024    12799 
   10083     7215     5394     4752     4695     4633     4590     4737 
    5065     5481     6106     7477     9470    10440     9089     6288 
    3778     3055     4673     6555     5965     2717    -1055    -2241 
    -160     2162     2944     2979     3172     4363     6161     7226 
    7078     5868     5240     6405     7144     5759     3079      238 
    -831     1193     5150     8826    10100     9013     8279     9008 
    9832    10046     9171     6593     4113     4407     7055     9451 
    9825     7801     4590     3487     6678    11344    13053    11032 
    7296     4256     3493     4707     6266     6366     4430     2115 
    1391     2578     4761     6374     6145     4905     5308     8225 
   10940    10943     8896     6115     2963      587      319     1587 
    2887     3500     3609     3591     3650     4810     7735    10242 
    9791     7175     4723     3095     2682     4838     8283     9458 
    8287     7557     8185     9439    10558    10856    10068     8726 
    8305     9332    10012     9428     8583     8168     8839    10326 
   10341     7811     4459     2527     2612     3288     3069     1745 
      48     -442     1198     3730     5401     5791     5364     4857 
    5491     7354     7561     4164      287     -391     1760     5035 
    8201     9587     8698     7366     7680     9387    10315     9599 
    7879     5802     4841     5819     7511     8748     8756     7096 
    5113     4418     4718     5287     6192     7177     8008     9409 
   11437    12244    10643     7854     5115     3044     2947     4611 
    5695     5420     5123     5394     5610     5695     6320     7140 
    6955     6435     7449     9559    11203    12398    12962    11704 
    9275     7943     8054     7982     7376     7029     6570     5841 
    5803     6266     6394     6253     6210     6902     8252     8424 
    6662     4606     3672     4425     6507     7847     7303     6477 
    6546     6579     6133     6143     6906     7604     7848     7869 
    7728     7685     7858     7897     7778     6882     4023      217 
   -1501       97     2749     3788     3588     4024     5455     7426 
    9128     8772     6095     3366     2563     3681     5293     6026 
    4922     2647     2515     5336     7738     8442     8591     8290 
    8109     8950     9593     8455     6350     5009     4966     5867 
    6670     6000     4218     3784     5749     8114     9170     9058 
    8005     6466     5616     5737     5722     4746     2957      864 
    -264     1063     4141     6409     6577     5706     5232     5158 
    4807     3831     2531     2371     4004     5580     5553     4195 
