Origin Time       2024/04/02 04:24:00
Lat.              40.133
Long.             141.712
Depth. (km)       71
Mag.              6.0
Station Code      IWTH22
Station Lat.      39.3340
Station Long.     141.3015
Station Height(m) 260
Record Time       2024/04/02 04:24:55
Sampling Freq(Hz) 100Hz
Duration Time(s)  126
Dir.              5
Scale Factor      7845(gal)/8223790
Max. Acc. (gal)   50.692
Last Correction   2024/04/02 04:24:55
Memo.             
[...]
    4372     5208     4653     3172     3372     5555     6444     4517 
    2340     2123     3661     5659     6012     4453     3978     5697 
    6380     3927     1050     1669     5837     9154     7850     3728 
    1456     2484     4206     4050     2673     2212     3235     5691 
    9049     9790     5961     2037     1267     1968     2693     2419 
    2994     7777    11254     6517     -683    -1736     3219     8758 
    9350     5977     5076     6615     5346      962    -1283     1410 
    5208     7036     5545      526     -962     3446     6934     9343 
   11738     9757     4359     -345    -3129    -1818     3935     7584 
    6617     8259    11962     9409     2809     -868      388     4695 
    5254     1435     1989     6079     4966     -271    -1154     5833 
   14196    14045     4807    -2473      610     7195     6720     2150 
    2346     7717    10297     2047    -8893    -3815    10444    12827 
    7971     7321     7425     5242     2184     1699     5717     8421 
    5575     1298     -101      438      781     2273     6080     9868 
   10075     4773    -2084    -2181     6111    12614    10428     6432 
    5709     4976     2355    -1213    -2982    -2006     -332     4360 
   12166    14118     7897     2974     3580     4645     4456     4465 
    2797     1147     2150     2984     5173     9629     8631     2070 
    -949      816     2886     4631     5285     3681     3261     4823 
    5964     7645     7389     3622     2029     4334     6563     6937 
    8849    11358     6153    -4423    -8874    -3423     7009    10882 
    3589      314     8916    14287     8151     -768    -2624     3789 
    8390     4511     1147     5381     7356     3186     4180     7804 
    5414     3154     3643     2988     4680    10943    11665     2628 
   -2799     -827     3145    10307    10264     -398    -2214     2956 
    1522     2297     6810     8205    10195     8841     1950      342 
    4531     5829     4131     2339     -319     -333     5190    10980 
   12725     7716    -1410    -2224     4776     5633     1796     3325 
    8336    11288     9482     3100     -645     1537     4068     4109 
    2910     3670     7970    10235     6516      306    -4059    -3248 
    1582     4361     5555     9410    14168    16606    13220     2898 
   -6008    -5823    -2234    -3168    -1405     8522    14517    13366 
   10902     3445    -2513     1198     3129     1035     4129     6968 
    5265     5449     6693     5466     3855     2153     1368     3123 
    3940     3273     5679    11078    12113     5826     1312     2609 
    4855     6940     5097    -1131    -2300     2353     4230     2110 
    4271    11406    12560     5417    -2523    -3708     4684    13356 
   12301     4271     -877      585     1647      405     2778     6971 
    8341     7002     3835     1304     1641     4229     9197    15577 
   15911     5265    -6632    -7858      152     7236     5447      315 
    3635    11310    10457     3037     1001     4496     4244      885 
     256     1078     4777    12491    13574     5337     -261     1298 
    5395     6358     3238     2690     6181     7453     3723     -886 
    -537     5008     9740     7472     2693     4600     8478     6922 
    3557     2793     3484     1371    -2667    -2533     2779     9892 
   12937     8174     3528     5474     7276     5495     5206     5138 
     957    -1981       -1     1996     4471     7551     6821     7168 
   10597     7288     -766     -166     6404     5408    -1502    -2118 
    4621     9396     9340     8824     8452     5713     1950      631 
     -59     -530     2872     5701     5485     5518     2826     2322 
    8912     8649     1930     5609    11755     6995     1201     1848 
    3940     5375     4124    -1499    -3568     2700     8606     7719 
    4062     4888     9778     8993     1588    -2277     2378    11410 
   13593     3950    -5074    -3199     4332     8733     7380     4749 
    3847     3192     4133     6944     8351     6440     2184      623 
    3996     7564     7749     5324     1961    -1289    -2890    -1667 
    3391    11164    14094    10195     6305     2150    -1512     3180 
    9879     6157     -899    -1279     2538     8688    10725     2343 
   -3551     1838     8275    10052     8035     3051     2037     5433 
    3578     -556     1908     7763    10640     6577    -1286    -2578 
    3908     9980    10389     5413     -141    -1074      303      315 
    3782     9657    10301     8892     8644     6636     3365      672 
    1107     4284     5665     4234     2479     3572     6528     6334 
    3923     4546     6948     5427     1848     2650     5377     5602 
    6347     7047     3574     -496     -410     1713     2818     3978 
    6511     9549    11313     9508     5076     1247    -1251     -957 
    3181     6448     6123     6712     9440    10012     7304     3221 
      94      184     1917     2146     2176     4472     6706     5624 
    3655     4854     7943     6475     -486       93    10991    12852 
    2261    -4163    -2263     3140     6835     4185     2640     9424 
   12881     3960    -4070       86     8451    10316     4731     -961 
    -468     2948     4815     6848     8307     6037     3484     3229 
    2659     3244     5205     5119     5503     7298     5104     1200 
    3026     7056     7416     5854     1927    -1372     2670     6278 
    3015     3855     9216     7506     2948     2597     3095     4503 
    6430     5395     4700     7758     9362     6037     2749     1425 
      83       75     2409     6305     8387     5221     -130    -2575 
    -459     4695    10042    13806    15520    14515     8847       -2 
   -5336    -2754     4521     7487     2640    -1757     -864     -517 
     396     7577    11734     7214     5240     7292     5919     2243 
    -228     1756     9059    13416     9100     4519     5005     2493 
   -3504    -4830    -1368     4733     9726     7631     4604     7145 
    6754     2162     3726     9475    10675     6423     -445    -3339 
    2247     6605     1344    -3612     1124     9347    11484     7314 
    3418     2968     4773     5548     4369     5702     7383     4353 
    1471     2052     2281     1706     3645     7222     8415     7130 
    5076     2380     1962     5709     7153     4172     5050     9875 
   10503     5678    -1115    -5258    -2617     4607    10161     9929 
    4534    -1090    -1728     2637     6335     7597    10026    10455 
    6065     3465     2394      -40     2074     5001     1563     -442 
    4156     8571     7645     4700     6224    11047    10752     2941 
   -4993    -7123    -3261     4141     9790    12850    14203     7701 
   -2774    -3500     4068     9693    10459     6724     1435      988 
    3426     1116    -1417     2204     6894     9227     9024     4928 
    1769     3755     5482     4274     5697     9639     8136      -35 
   -6255    -4097     3865    10301    10620     7458     6524     6936 
    5128     4226     5421     4399     1399      240     2574     5402 
    4776     3396     4922     7225     8067     8545     7738     2574 
   -2967    -2874     1876     9063    12974     8738     2785     -866 
   -2623      432     4198     4733     6870     8737     6085     4525 
    4563     1894     2799     9354    12148     8361     2679     -981 
    -986     1603     4715     6312     4727     1603     1448     3804 
    5382     7128     9657    10575     6338     -400    -1428     1776 
    3615     3997     4644     7740     8837     3964      749     4089 
    7700     5917     1769      187     2628     6234     5026     1767 
    4357     8924     8283     4722      861    -1914     2214     9733 
   10407     7101     5489     4756     4195     1768     -791     1564 
    7661    12563    11082     4029     -554     -638       98      594 
    1752     5516    10791    10646     2336    -4908    -2794     4619 
    9494     9582     8395     8149     7592     6813     3168    -3640 
   -3196     5505     8276     2960      168     2586     5225     5663 
    6438     8293     7992     4996      599    -2574      903     9130 
   12322     8761     4375     -982    -6258    -3103     5086     7541 
    8324    12306    13227    10875     8220     1626    -5076    -4996 
   -1991     2223     8824    12467    10415     5389      -81    -3616 
   -2446     2178     5811     9076    11115     7847     5244     9354 
   12556     7492    -1333    -6413    -4144     4394    10308     7790 
    3919     4036     5522     5915     3554      -40        2     4214 
    8310     9551     9175     8920     7981     4899     -457    -5375 
   -3636     4521     8010     4563     4703     9478    11541    10125 
    6708     1696    -1186     -357      641     1787     4648     5374 
    5235     9629    12136     7574     1102    -6000    -8525     -723 
    6062     5661     7165    11989    14820    12460     5533     1792 
    3932     3613    -3504    -8874    -3186     7858    14898    16278 
    9305    -2582    -6786    -1259     5058     8658    10222     8878 
    7068     5201     -157    -3400     1125     6951     7784     4059 
    1849     6662    11075     7803     4004     3277     1466     -819 
   -3373    -3937     2239     8332     9792    11365     9551     5260 
    5725     6462     5597     5486     1733    -2500      306     4031 
    1297      835     7546    10462     8051     7408     8004     8113 
    5383     2342     4473     2799    -5242    -5688      884     6062 
   10872    13211    10440     6366     2859     -608    -1039     2813 
    4656     2771     3865     8163    10332     9121     6262     3778 
    1625     -831    -1355     1838     6763     9749     7997     2485 
      51     4635     9300     8145     5028     4047     5250     7103 
    5941      807    -2203     1271     5962     6185     5042     6328 
    7510     6276     3828     1776     2417     4259     1921     -319 
    5456    12417     9660     1455     -707     3843     6768     3689 
     768     5244     8838     3368    -2346    -1657     4747    13838 
   16206     9499     2124    -2336    -3931     -820     4392     7616 
    9481     8959     4557      985     1806     3649     4672     7627 
    9413     4818     -962    -2309    -1210     2367     8135     9967 
    6434     2924     2972     6727     8706     4949     2544     3042 
      79    -2164     1302     7755    12534     9175     1193    -1243 
    1915     6569     8608     6898     7219     8509     4615     -873 
   -1992     1737     5791     4140     1836     5864     8826     5476 
    2694     4973     7689     6735     5341     4159     1981     1528 
     329    -1787      884     6318    10434    12060     8676     1567 
    -831     5593     9698     4070    -1040      731     3588     3214 
    1516     2000     4818     6288     3138     -684      864     3092 
    1301     1255     2956     1246       13     1575     2265     3299 
    4472     2731     3403     8853    11749    11838    11794     8230 
    1791    -4402    -9387   -11475   -10810    -7780    -1854     4644 
    9790    12800    12093     9605     9674    13007    14629     9865 
    2722    -2689    -7611    -7425      927    11072    19919    24633 
   20150     9948    -1736   -12332   -15830   -12164    -1991    14474 
   25208    24637    22385    18566     8048    -1661    -4942    -6110 
   -5340       58     7327    12845    12653     5491     1910     9320 
   18118    20108    17830    13767     9720     6739     1275    -5663 
   -7654    -6571    -7024    -6480    -4504    -1593     8129    20200 
   20383    13848    12906    12761     9883     5925    -1397    -5541 
    1915    13598    18855    16672     7900    -3477    -9250   -12673 
  -19904   -22405   -12619     6548    28529    41859    39336    28829 
   17833     2531   -13969   -21479   -22955   -23248   -17776    -6193 
    7373    19188    23693    19807    14516    14274    15365     6181 
  -11997   -18801    -5944    11272    18777    17772    19278    25806 
   27170    17891      492   -18369   -30651   -34063   -30272   -20325 
   -8706    -4382    -3192    12124    36954    50221    48357    36239 
   18216     2701   -11246   -27525   -36524   -28723    -8677     9686 
   18455    21802    19494     8649    -3360    -8757    -2654    11989 
   18199     9471    -2389    -9282   -11240   -10596    -8648    -2388 
   10648    25512    33997    30774    10895   -18767   -34229   -25775 
   -2856    25554    41991    37390    32001    35104    28638     6335 
  -14071   -19704   -18009   -15070    -9486   -10527   -19584   -18054 
   -5169     2255     9217    26087    40157    41218    34749    22361 
    3094   -15479   -23947   -19700    -4148    16502    28675    24291 
    7589   -10358   -16012    -9251    -1674     7790    20515    22950 
   10520    -7446   -21973   -21358    -1580    18135    20996    14021 
    4455    -8090   -15510    -9721     2255     6619     4197     7484 
   11219     2351    -9829   -13694    -9096     7757    29128    34616 
   21537      953   -16568   -22543   -17917    -3871    18243    32510 
   30468    24187    19170     9439    -1394    -4445    -4927    -4855 
    7755    19789     5551   -16943   -21798   -16579     1987    33193 
   37840    14208     8221    17982     7716   -20052   -37108   -23143 
   16726    48215    45983    19980    -7076   -21753   -21334    -9104 
   10554    32393    47298    44737    23384    -6010   -32706   -48703 
  -42715   -13597    16382    29737    36950    40734    25213    -1580 
  -18192   -25377   -23845    -5233    18747    29016    24599    11257 
    -251     5070    19624    19294     4468    -5004    -8028   -12021 
  -10183    -6984   -14952   -16781     2170    20659    25915    24082 
   13383    -1622   -10030   -14810   -19018   -12116     7595    18643 
   12757     7373     3181    -7414    -9193     3244    10331    10597 
   22308    33755    22986     7614      182   -12858   -21019   -10058 
    4464    10293    15715    23402    17887     -747    -8941    -5859 
   -8063   -12187   -10170    -3146     8017    18754    20915    15317 
   11844    12216     5881    -9649   -17535    -2937    17838    18484 
    7335     6797    15128    18863     7037   -16119   -23260    -2997 
   21189    26167    13915     6050    10652     8221    -8460   -22107 
  -22140    -8112    14740    28791    22681     6705    -2866      186 
    6269     4159     2670    11087    18528    19005    16530     7704 
   -4172    -8247    -6755    -3511     5336    14264    13788     7121 
   -1035   -10095   -10311     3141    13522     8738      371     3658 
   15113    18640    10295     -406    -4980    -2133    -3200   -11738 
   -9711     3769    10925    14534    20029    18104    10999     7200 
      87   -15313   -25246   -17986      205    20451    33682    30302 
   18935    10773      576    -8541    -7225     -344     6478    11163 
    9049     2870     1956     7542    12993    15537    14898     9369 
    2120    -2239    -6318   -13556   -20549   -20868   -12478    -3299 
   -1614      504    11227    21174    27336    35966    36286    21388 
    6929    -1912   -11156   -16278   -16013   -12583    -5732    -2231 
   -4965    -8507    -4895    11719    25552    22808    20868    21857 
   10692     1185     3869     7172     6663     4615     8476    14264 
    3624   -12073   -13752   -11800    -6205     6867     8598     2956 
   10484    19516    14222     4371     1386     6747    15477    15045 
    4745     1337     6134     5883      259    -6914   -13201    -8067 
    7001    12974     9572    10827    12154    11331    15682    12939 
   -3173   -12476    -5632     5890    10809     6887     1655     2127 
    3235    -2720    -9170    -3886     7969    11934     8012     3022 
   -1093    -1113     2983     6605     8295     6831     2085      936 
    9906    19175    14103     4048     2575     2481     -518    -1883 
    -133     6448    11504     7229     2856     6566    11097    10443 
    8039     6570     2762    -2014    -3262    -5582    -9486    -7068 
    -519     3717     6621     9952    12268    13570    17826    20699 
   13670     5756     3732    -2158    -8287    -3442     3518     1576 
   -1725     1507     6492    10579    14459    13826    10786    10820 
   10295     7709     5682     6936    13840    14864     1024   -12842 
  -15051    -9574      893    11732    14042    11389    15492    20964 
   13420    -2840   -12941   -11734    -3796     3489     6891     6520 
    3966     4563     3798    -8351   -16592    -4164    10629    14139 
   14985    10341      837       79     6053     9202     7398     2893 
    2859     7792     8109     -170    -9323    -9454    -2799     2128 
    5192     5921     3268     5386    12125    11780     5564     4673 
   11371    17772    14027     -926   -14497   -13807    -3632     3555 
    8581    16937    24285    22019    11049     3059     -259    -7596 
  -15957   -15485    -4307     9771    15981    12429     6613     6990 
   13616    16402    11449     6354     4722     2528    -3651   -11053 
  -11091    -1710     8105    11040     8575     8082    11446    11985 
    7381     1059      494     8355     9670     -985    -8129    -6616 
    -280     9254    15298    14278    10593     8370     8237     8411 
    9212    10162     6674     1215      567     2034     2119     2223 
    -207    -3708       87     7144     7479     6936    10489    10262 
    6671     4325      774    -1405     -999    -1393     1227     4816 
    3929     5485     6286    -2891    -8726    -3485       91     -390 
     453     4255    12322    17362    12272     4290     1360     3516 
    7323     7740     6075     6860     6138     3530     4564     5127 
    2416     1622     4097     7739     8228     4010      865      -81 
    -742     3100     8652     7960     7248    10095     5628     -345 
    4669     5949    -2299     1278    15826    19989    11221      822 
   -2690     1414     6438     6621     2739      841     3638     6386 
    7558     9728     7875     -851    -3538     6292    14828    12457 
    4954     1229     3354     5243     2273    -2351    -2821     1498 
    5505     8014    10407     7674     2070     5387    13147    12617 
    7584     6346     7782     6419    -1192   -10004    -9132     1456 
    8860     9116     9088     8303     3283    -3306    -7591    -7223 
   -2497     2068     2339      805     1139     2913     5583     7878 
   10860    14258    10716     3098     -696    -3993    -5009      870 
    6964     9385    11219     9211     1555    -1938     -248     -631 
    3994    15180    19444    14119     5054    -3693    -7619    -5867 
   -2029     1560     5152     6327     4803     5030     4182      720 
     868     3778     6396     8835    10366    13022    15673    13635 
    7620     1944     -758    -1925    -3180    -2251     2830     8954 
   12503    14832    14764    10844     9350     9028     2466    -3098 
    -561     2749     3874     3982    -1601    -9397    -7595     3802 
   11624     9952     6065     4315     4198     6019     7321     6790 
    7078     8916     7971     2600      409     3595     5266     5472 
    5470     3497     4029     8063    10658    11499    11176     9367 
