Origin Time       2024/04/02 04:24:00
Lat.              40.133
Long.             141.712
Depth. (km)       71
Mag.              6.0
Station Code      IWTH10
Station Lat.      40.1391
Station Long.     140.9529
Station Height(m) 308
Record Time       2024/04/02 04:24:51
Sampling Freq(Hz) 100Hz
Duration Time(s)  139
Dir.              6
Scale Factor      7845(gal)/8223790
Max. Acc. (gal)   22.720
Last Correction   2024/04/02 04:24:51
Memo.             
[...]
   -7616    -7614    -7623    -7623    -7612    -7611    -7620    -7618 
   -7612    -7622    -7622    -7615    -7615    -7615    -7618    -7618 
   -7619    -7619    -7614    -7616    -7618    -7619    -7620    -7614 
   -7618    -7623    -7618    -7612    -7618    -7622    -7616    -7619 
   -7620    -7614    -7615    -7619    -7619    -7616    -7612    -7618 
   -7616    -7615    -7624    -7622    -7618    -7622    -7616    -7612 
   -7618    -7616    -7611    -7616    -7618    -7612    -7619    -7622 
   -7616    -7619    -7623    -7618    -7612    -7616    -7619    -7612 
   -7616    -7620    -7616    -7618    -7615    -7614    -7623    -7622 
   -7612    -7619    -7622    -7611    -7616    -7623    -7616    -7614 
   -7619    -7619    -7612    -7614    -7622    -7619    -7614    -7622 
   -7618    -7609    -7622    -7616    -7609    -7622    -7618    -7616 
   -7619    -7615    -7622    -7619    -7618    -7627    -7615    -7608 
   -7619    -7619    -7615    -7612    -7614    -7622    -7619    -7614 
   -7620    -7619    -7614    -7620    -7618    -7611    -7622    -7619 
   -7612    -7622    -7619    -7616    -7619    -7612    -7618    -7620 
   -7614    -7619    -7620    -7615    -7623    -7616    -7609    -7619 
   -7618    -7614    -7622    -7620    -7614    -7616    -7620    -7618 
   -7618    -7619    -7616    -7614    -7618    -7618    -7614    -7616 
   -7626    -7622    -7611    -7618    -7619    -7614    -7618    -7622 
   -7619    -7616    -7615    -7612    -7616    -7620    -7618    -7620 
   -7619    -7611    -7616    -7623    -7612    -7616    -7624    -7612 
   -7614    -7627    -7618    -7612    -7622    -7620    -7616    -7619 
   -7618    -7614    -7616    -7622    -7618    -7611    -7622    -7622 
   -7608    -7616    -7624    -7612    -7614    -7620    -7611    -7618 
   -7628    -7614    -7616    -7626    -7614    -7609    -7618    -7616 
   -7614    -7619    -7619    -7615    -7615    -7618    -7615    -7618 
   -7624    -7619    -7614    -7616    -7616    -7614    -7616    -7619 
   -7616    -7618    -7619    -7615    -7615    -7620    -7618    -7618 
   -7620    -7615    -7615    -7620    -7615    -7615    -7620    -7618 
   -7615    -7615    -7619    -7618    -7616    -7622    -7620    -7615 
   -7616    -7618    -7615    -7616    -7619    -7616    -7615    -7620 
   -7623    -7618    -7620    -7620    -7615    -7618    -7619    -7614 
   -7615    -7618    -7612    -7614    -7624    -7620    -7619    -7619 
   -7618    -7619    -7615    -7619    -7618    -7614    -7624    -7623 
   -7614    -7620    -7620    -7618    -7620    -7618    -7616    -7619 
   -7618    -7612    -7614    -7619    -7615    -7615    -7620    -7614 
   -7616    -7622    -7620    -7619    -7620    -7618    -7615    -7616 
   -7618    -7616    -7619    -7618    -7615    -7616    -7615    -7620 
   -7622    -7612    -7618    -7623    -7614    -7616    -7623    -7618 
   -7615    -7623    -7620    -7615    -7622    -7624    -7618    -7619 
   -7620    -7616    -7616    -7618    -7620    -7618    -7615    -7620 
   -7619    -7614    -7619    -7622    -7618    -7615    -7616    -7616 
   -7612    -7618    -7618    -7615    -7619    -7618    -7618    -7622 
   -7618    -7616    -7620    -7616    -7612    -7620    -7616    -7612 
   -7619    -7616    -7615    -7620    -7619    -7618    -7618    -7618 
   -7615    -7618    -7620    -7615    -7614    -7616    -7616    -7618 
   -7619    -7620    -7619    -7618    -7615    -7616    -7622    -7619 
   -7612    -7619    -7622    -7611    -7616    -7624    -7615    -7615 
   -7626    -7619    -7614    -7622    -7619    -7614    -7623    -7619 
   -7608    -7616    -7620    -7614    -7616    -7623    -7618    -7616 
   -7619    -7616    -7614    -7618    -7618    -7614    -7614    -7616 
   -7616    -7618    -7622    -7619    -7618    -7622    -7618    -7616 
   -7620    -7619    -7616    -7618    -7618    -7616    -7616    -7620 
   -7622    -7615    -7615    -7619    -7615    -7615    -7620    -7616 
   -7614    -7622    -7620    -7615    -7616    -7620    -7616    -7614 
   -7619    -7624    -7616    -7615    -7623    -7616    -7616    -7624 
   -7614    -7611    -7622    -7619    -7612    -7616    -7622    -7618 
   -7614    -7620    -7619    -7612    -7618    -7620    -7616    -7616 
   -7618    -7615    -7614    -7619    -7622    -7615    -7615    -7623 
   -7618    -7609    -7619    -7623    -7616    -7619    -7618    -7615 
   -7618    -7618    -7615    -7618    -7620    -7618    -7614    -7616 
   -7618    -7618    -7622    -7616    -7614    -7623    -7620    -7611 
   -7616    -7622    -7616    -7615    -7618    -7615    -7612    -7616 
   -7619    -7616    -7620    -7620    -7614    -7618    -7622    -7612 
   -7611    -7620    -7619    -7614    -7622    -7620    -7614    -7618 
   -7619    -7614    -7616    -7618    -7616    -7616    -7616    -7616 
   -7616    -7616    -7616    -7616    -7618    -7615    -7615    -7618 
   -7615    -7616    -7616    -7618    -7620    -7616    -7615    -7615 
   -7616    -7623    -7624    -7618    -7615    -7615    -7618    -7620 
   -7616    -7614    -7619    -7619    -7616    -7618    -7620    -7619 
   -7616    -7619    -7616    -7614    -7619    -7618    -7612    -7616 
   -7620    -7618    -7615    -7616    -7620    -7616    -7615    -7620 
   -7615    -7614    -7620    -7618    -7612    -7618    -7626    -7618 
   -7614    -7622    -7618    -7612    -7616    -7615    -7612    -7616 
   -7620    -7618    -7616    -7620    -7616    -7614    -7615    -7616 
   -7618    -7618    -7616    -7618    -7616    -7618    -7618    -7612 
   -7612    -7618    -7618    -7619    -7619    -7616    -7622    -7619 
   -7614    -7622    -7616    -7614    -7620    -7616    -7615    -7620 
   -7619    -7620    -7619    -7615    -7616    -7612    -7615    -7622 
   -7620    -7618    -7618    -7620    -7618    -7615    -7620    -7616 
   -7616    -7619    -7615    -7618    -7620    -7619    -7615    -7616 
   -7622    -7618    -7615    -7622    -7616    -7612    -7619    -7619 
   -7615    -7619    -7618    -7611    -7618    -7620    -7615    -7615 
   -7616    -7618    -7618    -7618    -7618    -7618    -7620    -7618 
   -7612    -7620    -7622    -7608    -7616    -7624    -7611    -7614 
   -7620    -7612    -7619    -7620    -7614    -7618    -7615    -7615 
   -7616    -7615    -7619    -7619    -7615    -7618    -7616    -7616 
   -7622    -7620    -7616    -7622    -7616    -7612    -7618    -7614 
   -7614    -7620    -7615    -7614    -7623    -7618    -7614    -7620 
   -7615    -7612    -7623    -7623    -7612    -7618    -7623    -7618 
   -7618    -7618    -7618    -7615    -7612    -7618    -7619    -7614 
   -7614    -7622    -7619    -7609    -7618    -7623    -7611    -7615 
   -7624    -7614    -7611    -7627    -7620    -7608    -7622    -7623 
   -7608    -7615    -7624    -7614    -7612    -7619    -7619    -7618 
   -7619    -7620    -7615    -7615    -7616    -7616    -7618    -7615 
   -7616    -7620    -7618    -7614    -7619    -7622    -7615    -7615 
   -7616    -7616    -7618    -7616    -7616    -7616    -7616    -7618 
   -7616    -7616    -7619    -7615    -7616    -7618    -7614    -7616 
   -7619    -7619    -7620    -7615    -7618    -7619    -7615    -7615 
   -7615    -7618    -7616    -7616    -7622    -7616    -7615    -7619 
   -7616    -7616    -7618    -7616    -7618    -7618    -7618    -7616 
   -7616    -7618    -7618    -7618    -7619    -7622    -7618    -7618 
   -7623    -7618    -7612    -7616    -7618    -7616    -7619    -7619 
   -7614    -7616    -7620    -7615    -7618    -7619    -7614    -7614 
   -7618    -7620    -7616    -7615    -7618    -7616    -7616    -7616 
   -7619    -7619    -7615    -7615    -7618    -7619    -7615    -7615 
   -7619    -7618    -7616    -7618    -7616    -7612    -7616    -7622 
   -7618    -7615    -7619    -7616    -7614    -7620    -7620    -7612 
   -7614    -7619    -7619    -7615    -7623    -7622    -7609    -7615 
   -7620    -7614    -7615    -7620    -7618    -7615    -7619    -7616 
   -7614    -7616    -7616    -7618    -7616    -7612    -7618    -7616 
   -7608    -7619    -7623    -7612    -7616    -7619    -7614    -7619 
   -7623    -7615    -7616    -7620    -7616    -7614    -7620    -7616 
   -7608    -7618    -7622    -7611    -7618    -7622    -7615    -7619 
   -7619    -7611    -7615    -7619    -7612    -7618    -7622    -7612 
   -7614    -7622    -7616    -7615    -7619    -7616    -7615    -7618 
   -7615    -7611    -7618    -7620    -7614    -7616    -7620    -7615 
   -7616    -7616    -7615    -7616    -7618    -7619    -7618    -7615 
   -7616    -7619    -7616    -7612    -7619    -7619    -7615    -7619 
   -7615    -7612    -7620    -7619    -7616    -7618    -7615    -7616 
   -7620    -7618    -7612    -7619    -7623    -7614    -7614    -7623 
   -7618    -7611    -7616    -7618    -7612    -7616    -7620    -7615 
   -7614    -7618    -7618    -7616    -7618    -7618    -7616    -7614 
   -7616    -7619    -7616    -7614    -7619    -7619    -7615    -7618 
   -7618    -7614    -7619    -7620    -7612    -7616    -7623    -7612 
   -7614    -7623    -7616    -7609    -7619    -7620    -7615    -7616 
   -7614    -7618    -7620    -7614    -7615    -7620    -7614    -7612 
   -7622    -7620    -7612    -7618    -7619    -7611    -7619    -7622 
   -7611    -7615    -7622    -7612    -7614    -7622    -7614    -7609 
   -7622    -7623    -7612    -7614    -7620    -7619    -7615    -7618 
   -7619    -7612    -7611    -7618    -7619    -7616    -7622    -7622 
   -7614    -7619    -7620    -7614    -7618    -7618    -7614    -7618 
   -7616    -7619    -7622    -7614    -7615    -7622    -7618    -7612 
   -7618    -7622    -7614    -7611    -7624    -7622    -7609    -7620 
   -7622    -7611    -7615    -7619    -7612    -7615    -7618    -7615 
   -7620    -7623    -7615    -7616    -7619    -7614    -7619    -7619 
   -7612    -7616    -7620    -7615    -7614    -7619    -7620    -7619 
   -7619    -7616    -7616    -7620    -7615    -7616    -7624    -7619 
   -7615    -7619    -7616    -7615    -7620    -7615    -7611    -7618 
   -7620    -7616    -7616    -7618    -7618    -7619    -7618    -7616 
   -7620    -7616    -7616    -7622    -7618    -7615    -7622    -7619 
   -7612    -7618    -7616    -7611    -7619    -7620    -7612    -7614 
   -7619    -7619    -7618    -7616    -7615    -7619    -7619    -7615 
   -7620    -7622    -7614    -7615    -7619    -7614    -7618    -7619 
   -7615    -7618    -7622    -7619    -7614    -7616    -7619    -7616 
   -7616    -7622    -7619    -7615    -7616    -7620    -7620    -7618 
   -7616    -7618    -7615    -7615    -7619    -7616    -7614    -7616 
   -7620    -7618    -7614    -7618    -7618    -7615    -7618    -7619 
   -7616    -7618    -7619    -7616    -7615    -7616    -7618    -7614 
   -7614    -7619    -7618    -7616    -7619    -7618    -7616    -7618 
   -7619    -7616    -7614    -7616    -7619    -7612    -7616    -7623 
   -7615    -7618    -7623    -7615    -7611    -7616    -7615    -7615 
   -7619    -7618    -7618    -7620    -7619    -7618    -7619    -7616 
   -7614    -7615    -7616    -7616    -7618    -7614    -7615    -7620 
   -7619    -7614    -7618    -7619    -7609    -7615    -7622    -7614 
   -7614    -7618    -7619    -7619    -7615    -7615    -7618    -7615 
   -7615    -7618    -7618    -7614    -7614    -7618    -7619    -7618 
   -7615    -7612    -7616    -7620    -7615    -7614    -7618    -7620 
   -7616    -7616    -7618    -7616    -7616    -7614    -7615    -7616 
   -7616    -7618    -7615    -7615    -7616    -7615    -7615    -7615 
   -7616    -7616    -7614    -7618    -7619    -7615    -7618    -7618 
   -7618    -7618    -7614    -7615    -7620    -7615    -7611    -7620 
   -7623    -7614    -7611    -7616    -7618    -7614    -7614    -7618 
   -7616    -7616    -7618    -7616    -7615    -7618    -7619    -7615 
   -7614    -7623    -7622    -7614    -7618    -7620    -7615    -7616 
   -7619    -7615    -7616    -7619    -7616    -7615    -7618    -7619 
   -7615    -7614    -7619    -7620    -7615    -7616    -7620    -7616 
   -7616    -7619    -7618    -7615    -7616    -7618    -7615    -7614 
   -7616    -7616    -7616    -7616    -7618    -7618    -7616    -7616 
   -7620    -7616    -7614    -7620    -7619    -7614    -7616    -7618 
   -7619    -7618    -7614    -7615    -7618    -7614    -7609    -7609 
   -7609    -7600    -7592    -7587    -7570    -7554    -7543    -7526 
   -7503    -7474    -7441    -7402    -7357    -7310    -7256    -7202 
   -7149    -7086    -7006    -6913    -6794    -6627    -6416    -6188 
   -5985    -5871    -5886    -6041    -6346    -6820    -7446    -8125 
   -8708    -9140    -9493    -9769    -9809    -9427    -8610    -7655 
   -6856    -6037    -5181    -4881    -5427    -6187    -6124    -4985 
   -4005    -4372    -5451    -5961    -5607    -4579    -3379    -3512 
   -6380   -10565   -12891   -12370   -10852   -11070   -13329   -16021 
  -18628   -18781   -14418    -9094    -6421    -6056    -6605    -6712 
   -5547    -4710    -6631    -9614    -9323    -5339    -1941    -1205 
    -581     -338    -2652    -4633    -3245    -1602    -4288    -8270 
   -7533    -5865    -8823   -12220   -11516    -9178    -8829    -9201 
   -7453    -5876    -8259   -12690   -12588    -6234     -999    -2180 
   -6961   -10675   -11146    -9413    -7870    -7761    -7329    -3815 
    -275    -4166   -15917   -27008   -31434   -27157   -13514     -846 
   -1506    -7827    -5117     1837    -2084   -15469   -22713   -17655 
   -9670    -8829   -12108   -12209   -11583   -14106   -17320   -17250 
  -12150    -4197     -198    -4197    -6897    -1925     1001     -118 
    1333     2065     -874    -2473      534     3226       44    -5591 
  -10206   -13018   -11196    -7777    -5859    -2316     1134     -996 
   -7911   -13494   -17316   -20079   -15422    -6968    -5840   -12140 
  -17878   -15128    -6061      924     2037    -1398     -190     7042 
    5166    -7757   -13903    -8737    -6358    -9051    -8068    -8337 
  -14357   -13473    -1782     4494    -2864   -11415    -8843    -4230 
  -11774   -20200   -16271   -12228   -15661   -16129    -8079      666 
     375    -5954    -7585    -2616     -801    -6862   -10195    -5948 
   -2729    -3071    -5351   -10318   -13556   -11870    -7551    -4789 
   -8343   -11950    -8424    -6597    -9996   -11612   -10744    -6751 
   -1570    -3404    -8581    -9266    -8908    -9695   -10575   -10481 
   -7190    -5317    -6963    -5564    -3271    -5937    -7669    -6392 
   -8386    -9077    -6048    -6835    -7881    -6590    -7946    -7474 
   -5687    -9765   -12680    -7871    -4004    -6138    -7973    -6309 
   -4973    -6458    -9080   -10034    -7549    -2933    -1696    -6400 
  -11685   -12141   -10871   -13046   -13076    -7692    -4491    -4352 
   -6095    -8684    -7742    -7693    -8789    -7240    -8118    -9788 
   -7531    -3661    -3055    -7924    -9763    -5610    -3982    -5574 
   -9417   -13333   -11021    -8688   -11916   -12793    -9143    -7817 
  -10924    -9784    -1652     -421    -7275    -9086    -6586    -5323 
   -6836    -9590    -6075    -1653    -6311    -9414    -4853    -1476 
   -2976   -11098   -17852   -11268    -3558    -7094   -12627   -14359 
  -14076    -9911    -2261     2605     -406    -7697    -9046    -4108 
   -5883   -14235   -13794    -5579    -4461   -10446   -11884    -7784 
   -5988    -8064    -9483    -7595    -6174    -9772   -14130   -13413 
  -10763   -11061   -11828    -9516    -5873    -3453    -3446    -5209 
   -5984    -4919    -4542    -6262    -6814    -5435    -6134    -9423 
  -11661    -9923    -6822    -6894    -9429   -10089    -7018    -4854 
   -4936    -3460    -3524    -5705    -4239    -3030    -6084    -8202 
   -8978    -7657    -3370    -3736    -7280    -8063    -8262    -7314 
   -6200    -5972    -4369    -6041   -10723   -10924    -8722    -8838 
  -10146   -10242    -8052    -6885    -9198   -11261   -10515    -9096 
   -9925   -11907   -10881    -8496    -8559    -8063    -6347    -7445 
   -9996   -11033    -9232    -5464    -5238    -7341    -6463    -6975 
  -11140   -12009    -6895    -2424    -4017    -6655    -5625    -5140 
   -5617    -3214    -1678    -4506    -7990    -9786    -8586    -4190 
   -2357    -4993    -7612    -8673    -7807    -6031    -7466   -11159 
  -11437    -8969    -9441   -11986   -10682    -5238    -2562    -5687 
   -7998    -6755    -6844    -9668   -11545    -9342    -6998    -8260 
   -9894   -11199   -11142    -8641    -8191    -8392    -6797    -7747 
   -9196    -6794    -4206    -3565    -3912    -7285   -11496   -10845 
   -7253    -4646    -4140    -7105    -8712    -6114    -6853   -10241 
   -9082    -6621    -5467    -4311    -6011    -8403    -8968   -10077 
   -8957    -7345   -10077   -12853   -13066   -10876    -6848    -5435 
   -6504    -6403    -6408    -8140    -7997    -5864    -7412   -10316 
   -9728    -8402    -7141    -7202   -10544   -10245    -5644    -6330 
  -10215    -8822    -4233    -3231    -6966    -8878    -5679    -4423 
   -6901    -7738    -7344    -6470    -5015    -5441    -6647    -6223 
   -4749    -4592    -6724    -9117    -9171    -6901    -6813    -8606 
   -7685    -7391    -8765    -8074    -7296    -7041    -6878    -8499 
   -9753    -9470    -9724    -9481    -7172    -5404    -5528    -6878 
  -10115   -11020    -7557    -6520    -8905   -11221   -12035    -9833 
   -8842   -10216    -7620    -3724    -4048    -5823    -7408    -9019 
   -8914    -7227    -5516    -4298    -5503    -9366    -9445    -6131 
   -7385    -9759    -8791    -9236   -10660    -9418    -7118    -5860 
   -5521    -5683    -5601    -5389    -7353    -9749    -8205    -6363 
   -8521   -10810    -9919    -6990    -5005    -5988    -7970    -8175 
   -7022    -6625    -5547    -2673    -3229    -7438    -8856    -7975 
   -8482    -9467    -9262    -7468    -5051    -5350    -9209   -10935 
   -8955    -8752   -10103   -10665   -10434    -7871    -5232    -5173 
   -6130    -7173    -8145    -8802    -9175    -9806    -8833    -5463 
   -6732   -12004   -11480    -8770    -9239    -6774    -3126    -3427 
   -4023    -5989    -9308    -8140    -7007    -8522    -6995    -4521 
   -4017    -5876    -8934    -7906    -6258    -7221    -5745    -4094 
   -4164    -4452    -6440    -6327    -4251    -6925   -11772   -12452 
  -10342    -8810    -8217    -9451   -10262    -8156    -8039    -9148 
   -7813    -8712   -10057    -7875    -7094    -8924   -10585   -10268 
   -7214    -6169    -8870    -9798    -7878    -6651    -7850    -9956 
   -9904    -8873    -9599   -10046    -7830    -4722    -4652    -7585 
   -8328    -5822    -4675    -7630   -10137    -6142    -2897    -7379 
   -9950    -6403    -4035    -4563    -5640    -5764    -4480    -4141 
   -5248    -5389    -6574    -9922    -9509    -5618    -6146    -9940 
   -9834    -7578    -7746    -8625    -8808    -8656    -8307    -8797 
   -8856    -8449    -9737    -9841    -7662    -6832    -6646    -6637 
   -7308    -6187    -5838    -7963    -8298    -7751    -8622    -9483 
   -9865    -8999    -8017    -9140    -9471    -7187    -6477    -8941 
  -10449    -9138    -7638    -7067    -6004    -4958    -5466    -6473 
