Origin Time       2024/04/02 04:24:00
Lat.              40.133
Long.             141.712
Depth. (km)       71
Mag.              6.0
Station Code      IWTH12
Station Lat.      40.1533
Station Long.     141.4245
Station Height(m) 265
Record Time       2024/04/02 04:24:48
Sampling Freq(Hz) 100Hz
Duration Time(s)  136
Dir.              1
Scale Factor      2942(gal)/8224139
Max. Acc. (gal)   41.088
Last Correction   2024/04/02 04:24:49
Memo.             
[...]
  -28305   -28305   -28306   -28305   -28305   -28306   -28306   -28305 
  -28305   -28304   -28305   -28305   -28308   -28308   -28305   -28304 
  -28306   -28305   -28305   -28305   -28304   -28304   -28302   -28301 
  -28304   -28306   -28306   -28308   -28306   -28304   -28305   -28306 
  -28305   -28304   -28305   -28304   -28304   -28306   -28306   -28304 
  -28306   -28306   -28302   -28301   -28304   -28305   -28304   -28304 
  -28304   -28304   -28304   -28304   -28305   -28304   -28304   -28304 
  -28304   -28306   -28305   -28304   -28304   -28304   -28304   -28306 
  -28306   -28304   -28305   -28306   -28304   -28301   -28302   -28305 
  -28304   -28302   -28304   -28305   -28305   -28301   -28304   -28306 
  -28305   -28304   -28304   -28305   -28305   -28304   -28305   -28306 
  -28305   -28306   -28306   -28302   -28301   -28302   -28302   -28304 
  -28305   -28305   -28305   -28305   -28304   -28305   -28305   -28304 
  -28302   -28302   -28304   -28305   -28304   -28306   -28308   -28304 
  -28304   -28306   -28306   -28306   -28305   -28306   -28306   -28304 
  -28304   -28304   -28302   -28304   -28305   -28304   -28304   -28304 
  -28304   -28302   -28304   -28304   -28304   -28302   -28300   -28302 
  -28302   -28301   -28305   -28306   -28304   -28302   -28304   -28306 
  -28305   -28304   -28304   -28304   -28304   -28305   -28306   -28308 
  -28305   -28306   -28308   -28304   -28304   -28306   -28305   -28305 
  -28306   -28302   -28302   -28304   -28304   -28304   -28305   -28306 
  -28305   -28304   -28305   -28306   -28305   -28302   -28302   -28305 
  -28305   -28305   -28306   -28306   -28306   -28305   -28304   -28305 
  -28305   -28304   -28305   -28305   -28305   -28305   -28302   -28301 
  -28302   -28304   -28304   -28304   -28305   -28306   -28305   -28305 
  -28306   -28308   -28305   -28304   -28305   -28302   -28301   -28304 
  -28305   -28306   -28305   -28304   -28305   -28304   -28304   -28305 
  -28306   -28305   -28306   -28305   -28305   -28305   -28304   -28304 
  -28304   -28305   -28306   -28305   -28304   -28304   -28304   -28304 
  -28306   -28306   -28308   -28308   -28304   -28304   -28305   -28306 
  -28305   -28305   -28306   -28306   -28305   -28306   -28309   -28308 
  -28306   -28308   -28305   -28304   -28305   -28306   -28306   -28306 
  -28304   -28304   -28302   -28302   -28305   -28306   -28304   -28305 
  -28306   -28304   -28304   -28306   -28305   -28305   -28306   -28305 
  -28304   -28305   -28304   -28305   -28305   -28305   -28305   -28306 
  -28305   -28305   -28306   -28305   -28304   -28304   -28305   -28304 
  -28305   -28305   -28304   -28306   -28305   -28304   -28304   -28306 
  -28305   -28305   -28305   -28304   -28304   -28308   -28305   -28304 
  -28306   -28305   -28304   -28304   -28305   -28306   -28306   -28305 
  -28304   -28304   -28305   -28306   -28305   -28302   -28302   -28305 
  -28305   -28305   -28306   -28305   -28304   -28305   -28304   -28305 
  -28306   -28305   -28304   -28304   -28304   -28305   -28305   -28305 
  -28304   -28304   -28304   -28304   -28304   -28304   -28304   -28305 
  -28306   -28306   -28304   -28304   -28305   -28305   -28304   -28304 
  -28305   -28305   -28305   -28306   -28306   -28305   -28305   -28305 
  -28305   -28305   -28308   -28306   -28305   -28304   -28304   -28304 
  -28305   -28305   -28305   -28304   -28305   -28305   -28305   -28305 
  -28305   -28304   -28306   -28305   -28302   -28305   -28305   -28304 
  -28305   -28305   -28305   -28304   -28305   -28305   -28304   -28305 
  -28306   -28304   -28302   -28304   -28304   -28305   -28306   -28304 
  -28304   -28306   -28305   -28304   -28304   -28302   -28304   -28306 
  -28305   -28304   -28302   -28302   -28302   -28304   -28304   -28305 
  -28304   -28304   -28305   -28305   -28305   -28306   -28306   -28304 
  -28304   -28305   -28306   -28305   -28304   -28304   -28305   -28305 
  -28304   -28302   -28304   -28305   -28304   -28302   -28301   -28302 
  -28304   -28305   -28305   -28304   -28304   -28306   -28305   -28302 
  -28304   -28305   -28302   -28301   -28304   -28305   -28304   -28302 
  -28305   -28305   -28305   -28306   -28305   -28305   -28306   -28306 
  -28302   -28301   -28306   -28305   -28302   -28304   -28306   -28302 
  -28301   -28302   -28304   -28304   -28304   -28304   -28304   -28304 
  -28306   -28308   -28304   -28302   -28304   -28302   -28302   -28305 
  -28308   -28305   -28304   -28305   -28302   -28304   -28306   -28305 
  -28304   -28304   -28305   -28305   -28304   -28302   -28304   -28305 
  -28305   -28305   -28304   -28304   -28305   -28302   -28302   -28304 
  -28304   -28304   -28304   -28304   -28305   -28308   -28308   -28304 
  -28302   -28305   -28305   -28302   -28301   -28305   -28305   -28302 
  -28305   -28305   -28302   -28304   -28306   -28305   -28304   -28305 
  -28304   -28302   -28304   -28302   -28302   -28304   -28304   -28304 
  -28304   -28304   -28304   -28305   -28306   -28306   -28302   -28302 
  -28304   -28305   -28306   -28305   -28305   -28305   -28304   -28306 
  -28306   -28304   -28304   -28305   -28305   -28305   -28305   -28306 
  -28306   -28305   -28302   -28302   -28302   -28305   -28306   -28306 
  -28304   -28302   -28304   -28305   -28305   -28304   -28304   -28302 
  -28304   -28304   -28300   -28290   -28274   -28246   -28196   -28105 
  -27977   -27846   -27780   -27793   -27789   -27724   -27791   -28169 
  -28583   -28591   -28412   -28678   -29286   -29500   -29127   -28629 
  -28354   -28399   -28580   -28359   -27702   -27666   -28869   -29544 
  -28256   -27994   -30834   -32012   -28298   -25436   -27391   -28254 
  -25907   -26064   -27268   -24918   -23064   -25265   -27789   -28371 
  -28691   -28360   -28873   -31696   -30407   -28233   -33766   -35617 
  -29677   -29666   -33088   -31737   -30565   -32572   -32297   -27291 
  -24476   -24767   -21386   -18675   -22481   -26352   -23749   -21331 
  -26885   -29816   -26512   -30462   -36768   -33496   -26600   -25801 
  -29571   -29559   -26921   -26387   -27012   -27893   -26809   -29425 
  -38373   -37805   -30235   -30254   -29627   -26653   -27313   -26504 
  -25516   -29084   -33469   -29502   -21838   -21319   -22358   -26742 
  -33339   -30121   -28247   -30460   -24796   -27394   -43798   -45756 
  -29934   -24949   -34182   -32890   -21628   -20722   -25253   -21775 
  -13151    -9340   -18824   -32962   -35430   -33270   -39317   -41451 
  -27768   -19751   -32572   -40035   -30593   -23996   -23018   -22708 
  -23581   -21381   -20950   -28840   -36148   -34018   -34026   -42408 
  -39820   -28863   -26451   -24205   -25477   -33598   -26958   -14798 
  -20783   -30095   -29393   -27546   -24954   -21234   -25901   -30915 
  -25196   -26157   -33188   -26509   -20526   -28412   -34495   -29864 
  -26418   -32310   -32440   -23847   -24096   -29045   -28228   -30153 
  -35552   -32363   -24274   -24759   -28398   -23133   -17747   -24796 
  -35031   -36023   -30669   -25780   -26649   -33137   -34591   -28961 
  -27087   -28401   -26608   -24039   -22451   -22972   -27843   -32049 
  -29825   -28206   -30885   -31380   -33735   -33772   -23587   -21446 
  -28085   -27319   -26604   -26464   -26705   -35198   -35861   -25122 
  -22731   -25014   -22646   -22192   -23996   -28417   -34672   -28952 
  -21184   -29142   -34169   -28698   -28626   -32719   -35143   -35278 
  -33760   -32813   -29859   -25883   -25602   -27823   -24804   -18858 
  -23134   -29304   -28952   -31438   -32416   -29101   -27908   -26865 
  -27368   -32950   -36821   -32918   -25767   -19683   -18995   -26347 
  -33054   -34246   -30186   -22249   -22218   -30905   -34389   -33720 
  -32028   -23863   -19807   -27841   -34272   -30726   -25146   -29444 
  -36535   -30412   -22505   -25281   -30904   -34817   -30559   -20853 
  -22334   -26422   -24093   -29623   -33864   -27091   -29006   -34388 
  -29731   -30932   -34623   -27437   -22867   -26045   -28825   -31375 
  -31189   -26376   -23672   -25405   -28143   -28510   -24270   -22280 
  -28806   -33675   -30353   -28013   -28613   -26316   -25824   -29646 
  -28678   -25698   -29928   -35032   -34973   -29631   -23584   -26203 
  -31093   -29411   -26052   -24946   -27191   -29924   -28375   -25307 
  -25201   -27553   -28834   -27963   -30308   -34221   -31853   -29636 
  -28759   -21794   -19936   -28337   -32921   -27588   -22229   -25474 
  -27278   -22397   -23225   -32050   -37822   -32270   -22015   -21439 
  -27777   -28985   -28746   -31008   -26368   -19084   -23593   -31630 
  -29763   -27203   -29960   -29421   -27854   -30565   -30662   -29106 
  -32093   -30447   -26447   -31117   -32325   -26886   -24656   -24526 
  -28293   -33023   -31554   -27372   -23411   -23607   -30132   -31372 
  -24837   -24711   -31499   -34294   -31168   -25280   -23220   -28290 
  -31514   -29697   -29644   -29053   -25405   -27554   -35046   -33736 
  -24850   -23337   -27448   -28448   -28733   -30510   -30869   -27746 
  -25992   -27376   -27126   -27623   -27279   -26210   -31911   -32850 
  -23452   -22566   -31004   -34434   -33176   -30491   -27411   -26673 
  -26472   -28294   -31402   -29070   -27298   -29779   -29301   -28421 
  -29802   -29619   -28358   -28069   -28247   -27642   -29173   -31102 
  -25893   -21390   -25976   -28350   -24582   -27271   -35459   -33235 
  -24169   -24300   -29388   -31707   -31818   -28027   -27787   -33940 
  -32949   -26863   -28317   -32341   -29968   -23048   -21559   -29268 
  -34438   -31174   -26076   -23672   -24031   -25141   -26847   -29960 
  -32618   -32022   -28445   -26419   -27904   -30226   -28186   -20434 
  -18806   -28053   -32838   -28354   -25461   -24976   -24058   -27292 
  -31198   -30715   -32242   -34577   -32100   -28220   -25118   -26563 
  -32427   -32625   -27363   -25309   -26107   -26589   -26693   -23612 
  -22046   -28441   -30834   -25108   -25425   -31638   -32625   -28723 
  -25205   -23764   -28117   -34229   -33847   -32790   -30971   -24781 
  -25435   -30272   -29465   -29118   -28159   -25027   -26206   -25107 
  -22049   -28359   -34257   -32013   -31997   -33174   -31780   -30739 
  -28232   -26763   -28387   -28653   -27877   -26555   -25483   -28275 
  -30015   -26187   -22472   -23728   -27959   -29455   -27664   -27290 
  -29054   -31309   -32378   -30292   -27911   -28885   -29934   -28142 
  -27120   -28580   -27778   -24696   -27251   -32529   -29405   -26005 
  -30520   -29265   -23669   -24803   -26707   -29614   -31980   -27508 
  -25203   -26017   -23545   -24599   -31359   -33345   -27156   -23660 
  -27544   -28405   -25402   -29636   -34111   -27241   -22090   -26955 
  -30380   -30699   -31946   -30453   -27804   -28578   -29443   -27507 
  -27078   -28714   -27471   -26354   -28960   -30022   -28787   -30113 
  -32413   -29342   -24279   -26667   -31510   -30612   -30963   -35064 
  -31452   -22206   -20506   -22373   -23841   -30705   -35334   -33247 
  -31472   -27291   -22562   -26401   -32616   -30854   -25394   -24621 
  -26739   -26777   -26950   -30353   -30376   -23101   -20171   -26485 
  -33566   -36093   -31957   -27035   -27969   -30678   -32206   -29602 
  -23853   -24814   -30715   -33613   -35326   -36121   -33350   -29606 
  -28026   -27097   -25493   -27789   -33331   -32709   -27719   -26788 
  -27965   -27429   -25253   -24367   -26877   -29220   -31243   -32838 
  -31016   -30505   -29677   -23627   -22160   -26252   -26748   -27066 
  -27675   -23745   -21047   -21887   -23179   -26631   -28590   -28329 
  -29533   -26585   -22744   -25238   -29251   -31947   -28169   -21196 
  -23950   -29984   -34830   -37621   -29656   -23504   -28899   -33824 
  -34307   -33799   -33053   -31635   -28167   -23757   -24124   -27118 
  -25797   -26374   -29835   -29097   -27804   -27815   -27288   -27027 
  -27599   -29801   -29948   -27540   -28941   -31105   -27884   -24606 
  -26187   -28790   -27301   -23379   -24252   -28421   -27256   -22387 
  -21937   -26508   -30604   -31016   -29096   -25558   -23336   -30920 
  -38857   -32348   -27689   -30600   -24910   -21938   -31164   -35606 
  -29857   -22707   -22873   -29778   -31124   -30478   -35777   -34290 
  -27689   -29299   -32143   -33255   -35480   -30217   -22990   -26817 
  -29708   -23965   -24297   -28449   -25375   -24880   -30632   -30923 
  -27040   -28551   -33312   -35279   -33489   -27858   -24322   -28383 
  -29531   -24922   -24918   -24659   -24289   -31669   -30723   -17405 
  -17496   -28489   -26619   -21367   -25415   -25477   -19560   -17744 
  -19909   -20754   -18763   -21159   -27429   -28202   -28090   -31098 
  -31486   -29473   -29184   -32934   -34287   -25633   -17617   -23735 
  -34773   -33702   -22083   -11319   -10721   -20488   -21351    -6866 
    1794     -793    -4437   -11173   -20348   -21246   -12860   -11614 
  -30437   -55431   -70468   -77679   -72893   -57200   -46272   -36753 
  -25467   -31865   -54870   -61739   -42295   -30738   -46846   -59991 
  -44336   -21456   -17223   -23680   -31587   -46777   -58868   -43530 
  -10561     1389    -5607    -5794    -6146   -11442   -12168   -12271 
  -16028   -19966   -19719   -17201   -16679   -12729    -7631   -18198 
  -40027   -38153    -3512    23106    19831     5958   -17088   -45469 
  -40760    -9327    -1382   -13691   -16317   -22397   -44652   -49675 
  -26422   -22365   -44319   -50402   -52425   -68335   -62550   -35357 
  -24007   -26551   -29786   -42612   -71629   -91909   -72624   -50296 
  -75269  -119500  -143162  -136077  -106654   -95997  -106072   -95330 
  -65612   -37555   -19915   -18211   -22380   -17066     -468    -5918 
  -45990   -44216    20560    48922    31241    42057    58033    49671 
   52833    58861    40236    15627     4159    -2798    -6284    -3507 
  -13159   -29762   -37424   -51858   -66438   -53023   -16519     5841 
  -11218   -36780   -33180   -26950   -45504   -49619   -19369    -4942 
  -26242   -52220   -64434   -59049   -46642   -35695   -26376   -33447 
  -46043   -31864     -664    18023    14937    -2080   -15954   -37417 
  -81417   -95496   -51981   -17485   -24233   -28301    -3863    12280 
  -10470   -36018   -38041   -30040   -21533   -24409   -32077   -27407 
  -23249   -28366   -34173   -40911   -43861   -38747   -39067   -40533 
  -22338    -4745   -19730   -44552   -46541   -35999   -33677   -32433 
  -21699   -20031   -29268   -37156   -49411   -39818    -7496    -7987 
  -32680   -45310   -53273   -52625   -42460   -36359   -27880   -22958 
  -40174   -57989   -36841    10057    22577    -3253    -8293     3770 
   -5917   -10994     6542    16183     4673   -16456   -22156    -7639 
   -5861   -20575   -36856   -59266   -71752   -59570   -45927   -50691 
  -56455   -46981   -45153   -57925   -55688   -35249   -25660   -38622 
  -41521   -21298   -20337   -37936   -39938   -36394   -31085   -21497 
  -28869   -43586   -41644   -30492   -24671   -30685   -34595   -25139 
  -26264   -34763   -21483    -7160   -17814   -29493   -21872   -18692 
  -34314   -36823   -21579   -27761   -49960   -50282   -29847   -14866 
  -12937   -16189   -27939   -38952   -26817   -13131   -23464   -33211 
  -27912   -21853   -10087     4234    -3973   -20931   -21724   -14665 
   -8915   -11314   -16619   -13686   -15460   -21261   -17502   -13875 
  -15535   -16105   -18569   -21196   -22311   -31599   -39483   -38819 
  -47325   -53293   -41391   -35856   -49632   -69460   -73442   -53287 
  -37147   -38647   -39108   -41079   -47856   -45287   -39874   -35769 
  -25123   -21346   -29670   -27081   -10899    -9305   -25107   -35856 
  -38547   -34479   -25276   -25120   -31631   -32568   -28561   -22960 
  -23673   -32871   -37774   -38777   -42469   -37795   -22396   -14548 
  -19006   -15614       67    -5080   -37818   -48558   -24880   -10130 
  -13833   -16324   -16607   -20680   -27997   -33781   -32444   -23511 
  -19345   -28115   -30981   -18895   -16137   -30784   -38430   -29187 
  -18619   -12255    -8789   -15507   -28748   -37655   -37021   -24879 
  -17701   -29474   -40254   -38443   -33700   -27195   -25425   -28722 
  -25859   -27622   -36972   -32636   -19138   -18512   -29315   -37092 
  -36614   -33741   -32228   -30142   -31156   -35931   -36336   -36454 
  -41445   -37212   -28471   -36645   -46936   -39231   -26935   -23118 
  -27396   -32705   -30897   -28613   -27419   -19174   -15792   -24364 
  -29520   -30628   -36016   -35687   -24210   -13537   -10854   -16401 
  -24378   -23475   -19761   -20638   -13761    -6671   -15874   -25470 
  -28698   -31681   -20471    -6687   -14953   -26596   -30345   -33972 
  -23105    -7923   -16652   -35534   -45643   -48070   -45015   -43657 
  -46350   -47617   -43937   -39420   -43139   -44973   -35274   -30223 
  -33430   -32606   -29259   -30742   -34908   -32537   -25114   -22724 
  -25201   -25330   -23325   -27334   -30006   -21236   -17629   -23156 
  -21551   -15286   -15241   -23495   -26917   -19576   -20484   -28405 
  -28092   -25070   -25269   -31344   -38199   -32236   -20825   -20459 
  -28898   -35063   -35845   -35563   -36663   -38360   -39556   -36717 
  -28487   -22516   -23062   -23441   -20761   -19332   -21266   -25972 
  -34032   -40014   -30981   -14451   -13574   -22860   -24768   -24659 
  -28688   -29367   -23733   -21616   -28476   -32701   -28236   -26117 
  -29512   -30562   -30327   -35326   -42091   -42021   -35657   -26347 
  -17797   -20484   -29285   -29180   -28530   -33178   -31789   -27047 
  -27290   -30063   -31945   -33278   -36475   -36967   -31162   -29195 
  -32300   -31105   -29424   -30811   -28212   -24298   -24659   -23637 
  -21860   -22457   -22175   -23344   -26445   -29683   -30599   -24028 
  -20081   -26075   -29106   -28837   -31228   -28352   -25330   -31648 
  -35367   -32240   -34263   -38322   -34938   -30696   -31093   -30574 
  -29794   -32961   -34065   -29340   -25436   -26650   -31029   -33825 
  -34238   -33610   -29153   -27724   -33014   -31410   -23527   -20429 
  -23733   -29664   -28367   -22724   -23994   -28906   -31662   -27356 
  -18486   -17466   -22023   -24954   -28977   -33621   -34769   -27988 
  -18310   -17046   -20366   -23332   -26017   -25768   -27324   -29263 
  -24578   -20499   -21034   -18947   -19535   -29350   -33282   -25760 
  -23980   -27931   -24155   -21531   -30103   -34744   -28177   -26237 
  -32240   -32262   -26562   -24482   -24166   -23175   -23388   -25949 
  -32281   -37054   -32833   -27337   -31941   -39438   -38485   -32938 
  -30809   -31278   -29359   -27120   -29230   -31087   -29137   -26816 
  -23377   -22824   -32108   -38453   -30535   -21088   -21359   -29066 
  -35942   -34322   -28147   -25053   -26847   -32007   -32582   -24048 
  -18104   -25038   -32675   -29074   -23332   -21991   -24688   -31889 
  -34560   -28395   -22310   -21136   -22958   -23828   -24910   -31757 
  -39129   -38164   -31125   -26790   -28579   -31264   -34049   -38431 
  -41978   -43648   -38700   -33536   -40263   -44466   -36518   -32398 
  -35657   -36304   -35174   -36483   -36499   -32711   -27811   -26597 
  -29706   -27409   -19724   -18844   -20945   -17960   -17875   -24880 
  -29612   -24969   -15217   -12267   -18922   -23425   -23103   -26570 
  -30065   -25078   -18419   -20810   -28310   -31928   -33150   -32802 
  -27202   -22578   -25170   -27618   -25575   -27961   -33840   -31434 
