Origin Time       2024/04/02 04:24:00
Lat.              40.133
Long.             141.712
Depth. (km)       71
Mag.              6.0
Station Code      IWTH05
Station Lat.      38.8654
Station Long.     141.3512
Station Height(m) 19.7
Record Time       2024/04/02 04:25:00
Sampling Freq(Hz) 100Hz
Duration Time(s)  123
Dir.              2
Scale Factor      2942(gal)/8224139
Max. Acc. (gal)   5.773
Last Correction   2024/04/02 04:25:00
Memo.             
[...]
   13378    14481    14885    13344    12514    13757    14546    13936 
   13784    14301    14129    14057    14667    14867    14588    13690 
   12926    13609    13886    13809    15499    15741    13433    13095 
   14193    13871    13437    14133    14733    13990    12854    12911 
   13836    13907    13126    13410    14351    14451    14017    13331 
   13213    14388    14994    14045    13425    13886    13988    13664 
   13837    13736    13239    12974    13257    14655    15137    14076 
   14077    14197    13713    14388    15142    14856    14054    13626 
   14567    14814    13644    13986    14509    13560    13375    13682 
   13896    14238    13527    12972    13477    13447    12992    13134 
   13743    13992    13802    13566    13414    14227    15001    14347 
   14045    13824    13169    14110    14175    12376    13236    15288 
   14890    14087    14872    16355    15830    13702    13757    14719 
   13728    13104    14378    15041    14409    14446    14580    13139 
   12228    13258    13494    13520    15103    15005    13298    13531 
   14492    14428    14474    14411    13527    13078    13425    13460 
   13236    13649    14318    14065    13579    13529    13316    13841 
   14836    14862    14759    14879    15122    15535    14894    13671 
   13506    13990    13865    13257    13524    14347    13734    12718 
   13802    15215    14586    13570    13744    14207    13907    13813 
   14567    14373    13736    13942    13732    13336    13207    13243 
   14048    14503    13809    13124    13290    13653    13270    13466 
   14855    14866    13844    14025    13938    13778    15153    15126 
   12471    11881    14601    15179    13333    13987    15161    13732 
   12978    14094    14400    14119    14272    14261    14615    14956 
   14318    13475    13043    13764    14912    14214    12887    13073 
   13710    13424    12853    13153    13652    13572    13186    12904 
   14041    15560    15142    14219    14071    14161    14245    14021 
   14226    14438    13690    13197    12937    13305    14770    14673 
   13640    14233    14586    14122    14774    15025    13644    12748 
   13112    13926    14288    13871    13601    13767    13940    13896 
   13973    14490    14328    13956    15006    15309    13860    13568 
   14068    13768    13657    13832    14123    14397    14183    14046 
   14025    14133    14455    14503    14602    14296    13443    13626 
   14575    14358    12927    12417    13301    13717    13460    13400 
   13747    14305    14358    14303    14462    14018    13618    13752 
   13656    13693    14071    14353    14677    14692    14142    13618 
   13420    13825    14418    13900    13104    13710    14358    13790 
   13694    14230    14019    13828    13821    13953    14717    13913 
   12293    13076    14112    14018    14261    14019    13311    12960 
   13251    14177    14284    14369    15510    15642    14850    14160 
   13243    13439    14748    14783    13828    14203    15223    14685 
   13960    14669    14534    13417    13747    14285    14450    15352 
   15520    14697    13818    13306    13567    13679    13500    12860 
   11977    13285    14783    13351    12982    14269    13120    13286 
   15901    14847    12653    14103    15363    14210    13448    13412 
   13275    13446    13277    13323    13976    13632    13567    14926 
   15059    13952    13848    14230    14234    13948    13289    12884 
   13055    13046    13566    14917    14395    12672    13400    14995 
   14624    13664    13791    14211    13722    13458    14274    14499 
   13801    13549    14019    14570    14624    14450    14926    15430 
   14528    13203    13184    13857    13575    12820    13405    14208 
   14091    14793    15516    14287    13117    13818    14216    13343 
   13632    14860    14920    14411    13941    13937    14854    14727 
   13598    13833    14067    13301    13734    14469    14400    15192 
   15356    14196    14278    14535    13765    13572    13599    13608 
   14507    14648    13155    12556    13351    13640    13567    13702 
   13219    13014    14057    14195    13840    14812    14945    14497 
   15076    14624    12915    12221    13354    14639    14208    13352 
   13765    14424    14376    14130    13639    13070    13579    14281 
   13706    13244    13794    14457    14690    14100    13421    13096 
   12714    13163    13749    13332    13126    13217    13288    13736 
   13948    13819    13571    13616    14499    14531    13278    13009 
   14115    15194    14852    14238    14791    14184    13429    14527 
   13725    12266    14130    15345    14161    14143    14700    13846 
   12823    13231    13821    13194    13572    15084    14941    14085 
   14501    15283    14836    13468    13088    14160    15117    14697 
   13915    14283    14812    14462    14026    14008    14287    14314 
   13774    13455    13635    14139    15155    15855    15988    15916 
   14490    12745    13045    13753    13096    12673    13386    13695 
   13362    13872    14355    13645    13312    14141    14554    13811 
   13369    13554    13770    14207    14185    14212    14621    14245 
   14291    14501    13609    13392    13668    13733    14584    14833 
   13664    13005    13521    13977    14156    14500    13594    12186 
   13265    14492    13612    13444    14192    14438    14335    13664 
   13462    14450    15028    14053    12849    13238    14326    14561 
   14068    13779    14308    14315    13896    15124    15967    14868 
   14389    14239    13772    14377    14536    13790    13763    13608 
   13320    14073    14449    13595    13234    13433    13263    13643 
   14659    15097    14312    12981    12487    12808    13234    13729 
   14310    14152    13491    14056    14879    14497    14299    14160 
   13112    13184    14250    13493    12988    15003    15527    13042 
   12127    14010    14862    13949    14089    14643    13454    12854 
   14281    14685    14023    14450    14384    12895    12541    14476 
   15889    14809    13849    14434    14697    14715    15097    14486 
   13136    13325    14748    14775    13882    13657    13038    12771 
   13825    13906    13104    13131    13454    13923    14245    13984 
   13857    13450    13069    13614    13694    13468    14250    14551 
   13941    14073    13865    12897    13822    15007    13725    13205 
   14458    14415    13788    14084    14260    13701    13144    13653 
   14029    13162    13321    14450    14257    14007    14361    13811 
   13575    14617    14932    13902    13070    13113    13285    13504 
   14299    14540    14214    14901    14659    12503    12162    13890 
   14783    14817    14449    14226    15016    15403    14530    13810 
   14150    15128    15180    14192    14283    14893    14629    14681 
   14449    12883    12162    12812    12958    13802    15623    14827 
   12769    13463    14932    15178    15012    13996    12935    13363 
   14327    14578    13883    13073    13778    15215    15228    14125 
   13324    13679    14816    14845    13738    13620    14116    13574 
   13126    13532    13734    14260    14418    12579    11875    13887 
   15003    14528    14041    13575    13382    13597    13575    13717 
   14677    15095    14212    13304    13393    14404    14993    14670 
   14287    13791    13952    14995    14580    13336    13537    13713 
   13386    13807    13497    12739    14013    14791    13088    12970 
   14099    13058    13027    14793    14081    12646    13470    13946 
   13273    13281    13990    14650    14323    13911    14688    14515 
   13344    13393    13572    13437    13745    13765    14320    15385 
   14868    13805    14075    14651    14079    13219    13551    13894 
   13740    14366    14715    13819    13038    13365    14303    14810 
   14446    13435    13177    14580    15198    13768    13347    14967 
   15464    14007    13803    15084    14899    13814    13819    14609 
   14789    13506    12961    14445    14620    13100    13308    14407 
   14573    14793    14180    13292    14418    15134    14169    14007 
   14449    14195    13506    13289    14432    15480    14589    13491 
   13802    14420    14130    13139    13242    14017    13687    13981 
   14407    12858    12191    13348    13659    13221    13599    14104 
   13504    13497    14762    15136    14592    14636    14802    14027 
   13649    14115    13738    13336    13593    14231    15279    14386 
   12725    13683    14639    13880    13959    14894    14443    13134 
   13537    14492    13882    13570    13883    13185    12650    13437 
   14554    14708    13775    13365    13973    14143    13969    13825 
   13173    12623    12901    14143    14956    14247    14075    14536 
   13540    12896    13976    13994    13594    14871    14840    13230 
   13522    14594    13944    12999    13791    15147    14868    13240 
   12332    13305    14515    14381    14195    14154    13788    14454 
   15082    14238    13518    13115    13331    14985    15595    14844 
   14746    14026    12580    12788    14338    14729    13521    13690 
   15627    15155    13101    13423    13980    13423    13311    12399 
   12198    14303    14868    13765    13425    13410    14260    14285 
   12972    14088    15082    13405    13770    15882    15403    14025 
   14135    13886    13346    13531    13178    13290    14426    14872 
   14550    13620    12868    13243    14503    16028    15562    13914 
   14033    13601    12637    14110    15142    14337    14139    14187 
   14175    14563    14230    13213    12914    13528    14413    14544 
   13556    12907    13122    13564    13929    14060    14465    14573 
   13412    12525    13466    14532    14054    13740    13933    13454 
   13864    14821    14238    13629    14760    15947    14858    13529 
   14472    14918    14129    14229    14046    13560    13764    13479 
   13289    13601    13648    13968    13672    13204    14605    15649 
   14254    12893    13355    14112    14581    15342    14882    13186 
   12982    14008    13837    13242    13851    14382    13693    12827 
   13424    15511    16186    14465    13262    12879    12911    14273 
   14554    13953    14883    14485    12910    13640    14345    13937 
   14477    14303    13579    14320    14854    14829    15240    15030 
   14558    14342    13286    13216    15161    15249    13720    13761 
   13599    13008    13581    13316    12071    11966    12830    13849 
   14503    14303    13971    13919    13914    14573    15039    14359 
   13969    13741    12506    12035    13257    13771    13594    14089 
   14188    14154    14091    13398    13552    14126    14048    14148 
   14114    14044    14528    14490    13707    13447    13493    12942 
   12756    12695    12276    13630    15120    14654    15172    15726 
   14270    13980    14451    13562    13628    14065    13041    12602 
   12991    13527    14883    15639    14690    14233    15381    15537 
   14683    15465    16075    14478    13134    13093    12870    13151 
   14558    14646    13516    14343    15367    14071    13346    13803 
   13521    13398    13899    13851    13205    13518    14619    14416 
   13852    14477    14366    12912    12487    13433    14189    14705 
   14868    14180    13917    14754    15321    14939    14451    13871 
   12784    12870    14112    13710    12506    12858    13972    14563 
   14040    13740    14920    15079    14355    14904    14401    13405 
   14709    14859    13250    14099    14899    13305    13096    13732 
   13070    12829    12680    12704    14220    15159    14524    13736 
   13257    13286    13216    12708    13162    14220    14253    14203 
   14420    13236    12841    14682    14251    12209    13466    15001 
   13699    13194    14547    15580    15203    13741    13643    14423 
   13381    12575    13400    13863    14083    14432    14347    14326 
   14445    13895    13062    13188    14033    14361    13587    12799 
   13817    15570    15221    14041    14455    14509    13630    14175 
   15296    14651    13398    13841    14420    13815    13356    12222 
   11024    12156    13807    13853    13477    13915    13791    12263 
   12159    13163    12549    13178    15414    15178    14411    14586 
   13956    14220    14268    12727    12606    13567    14122    14106 
   13095    12695    12502    10840    10461    12167    12232    11140 
   11326    11425    11300    11739    11823    12006    11929    10681 
   10957    12942    12843    11772    11935    11805    11376    11296 
   12123    13419    12910    12942    15132    15346    14671    16661 
   17466    14936    13810    15091    15330    14752    14831    14397 
   13301    13182    13635    12900    11645    11223    12012    14238 
   15994    16596    18921    22106    22829    22497    22368    20019 
   16148    14207    13849    12757    11596    12414    14482    16389 
   18338    19688    20657    22158    22335    21074    20262    18721 
   16309    14967    14412    14100    13360    11020     9759    11254 
   11337    10150    12100    14623    15064    17213    20092    19055 
   17228    18368    18964    16009    11379     8665     9135     9308 
    7404     9059    15703    17921    13917    13575    16964    17288 
   15963    15523    16258    18208    19851    21130    20336    15303 
   10088     7132     4355     2955     2658        9    -2162      542 
    5363     9147    12484    14843    16047    18171    21733    25659 
   27562    25015    21897    22632    22303    17201    11674     6694 
    1167     -155     4040     7566     9036    13209    18364    18538 
   16821    18644    20812    20221    18121    14779    12611    14519 
   15901    13529    13030    15708    15445    11699    10612    14438 
   18665    18979    16119    14261    13243     9721     8199    12023 
   15817    17882    17594    13352    11109    13464    15187    15952 
   16826    15026    12124    11904    12361    11955    12653    12860 
   11696    12069    13667    15199    16355    15923    15620    15391 
   12233    10982    14948    16606    14646    15476    17378    15519 
   12945    13008    13205    12490    12933    14454    14092    11674 
   10565    10597    11159    12154    10096     7601     9688    13181 
   16001    19041    20443    18058    11446     4996     4247     6966 
    8264     8494     9070     9958    12460    15749    15955    12586 
    9670     9919    10640     9892    10077    11817    13420    13119 
   12303    14054    14856    13593    15789    18432    17832    18345 
   18381    15812    16335    20231    21539    19984    19078    19028 
   19026    18307    15866    14046    14089    13352    12762    15570 
   19295    18615    16256    18527    19348    14068    13342    16660 
   13393     9072    11364    17176    20329    16256    10773    11510 
   14732    16860    18068    16127    12669    12653    14257    14546 
   16019    16291    13909    14681    15588    12509    11807    13710 
   13122    11653    11580    13555    16792    16676    13741    12625 
   10397     7445    11055    15400    13282    12270    13258    11496 
   11543    13142    12082    11423    11388    10154    11067    14852 
   17838    16841    12070     8837    10413    12514    12233    14233 
   18212    15805    11317    13581    14185     9900     9325     9599 
    7183     7373    11461    16081    16505    13166    13158    15742 
   16310    16326    14843    13466    17845    22588    22125    21969 
   22923    20810    17891    16789    16200    15365    12523     7630 
    7173    12650    14647     9832     6531     7497     8267     9246 
   11610    13423    13927    14694    18279    20484    16175    11696 
   10636     8658     8158    11495    13061    10790     8559     8810 
   12557    17597    18311    15394    13678    13510    15017    18341 
   20557    21097    20622    17408    14548    16430    18220    16663 
   15942    16218    16090    15992    14426    13532    14715    13220 
   10974    13131    14528    12758    13566    14746    12009     9452 
   10489    13914    17167    18011    14436     8557     7599    11341 
   12945    12515    14029    16393    16054    14382    14079    13666 
   13675    15182    15419    14216    13304    13159    14724    16956 
   16348    11711     8005     9972    13441    13284    11574    10315 
    9906    12413    15331    15514    16375    18960    19658    17523 
   14372    11107     8390     8877    10812     9154     7595     9722 
   11078    12440    15606    15672    13821    14926    16795    16038 
   13333    13338    17093    17540    15159    16881    19018    18176 
   19283    20241    15931    11543    10841    10038     9374    10909 
   12949    13867    13653    13616    15149    18044    20163    20551 
   20069    17941    16102    17077    15695    10909    10288    13274 
   14450    15265    15828    13166    11218    14480    17845    17316 
   15238    12486    11458    12469    10552     7893     9327    12303 
   13907    13494    11032     9354    10316    11454    11778    12664 
   13143    11695     8877     6814     7418     8905     9811    12140 
   13594    12186    12429    14558    15493    16422    17590    18063 
   18562    17815    14272    10411     9756    12050    14482    15365 
   14386    13741    15255    15863    14836    15607    17864    19222 
   19680    20456    20750    18362    15148    15372    19138    21501 
   20101    20038    21124    18052    15261    14625    12703    14127 
   17005    13798     9593    10866    13516    12685    12630    15789 
   15300    12214    12885    14399    13991    11861     9038     9690 
   11188     9337     9197    12367    15082    16380    16330    16187 
   14760    11310    12193    16259    14719    10273    10103    13332 
   15573    14905    13182    12552    13147    13227    12105    11087 
   10467    11053    11415     9680    10287    13788    15142    15083 
   15615    15206    14133    14902    15692    12221     9745    13456 
   14558    11070    13154    16858    14925    15411    18777    17190 
   13745    11974    10960    10692    10602    11445    11599     9551 
    9371    10678    11350    12711    11700     8895     9169    10774 
   11919    13659    16008    17667    17433    17581    18439    18307 
   18241    15337    10007    11217    16347    15820    15115    20218 
   22852    20119    19137    19534    17822    16997    18767    19583 
   18103    17184    16726    14901    12826    12361    13265    13259 
   13570    15828    15989    14820    16352    17104    15931    15805 
   15060    11925     8884     9460    11778    12035    11722    11948 
   12378    13331    13333    12132    12402    15363    17132    14612 
   11809    11869    12681    13313    13408    11820    10515    11695 
   14149    15435    14096    12378    13805    15367    13771    14254 
   17315    16082    12788    12228    11732    10085     9628    10548 
   10550    10505    12858    14553    13301    12352    12563    12484 
   13298    14212    13282    12687    13780    13914    11730    10658 
   12175    12480    11719    12448    13525    14733    15550    14970 
