Origin Time       2024/04/02 04:24:00
Lat.              40.133
Long.             141.712
Depth. (km)       71
Mag.              6.0
Station Code      IWTH15
Station Lat.      39.6148
Station Long.     141.0929
Station Height(m) 73
Record Time       2024/04/02 04:24:53
Sampling Freq(Hz) 100Hz
Duration Time(s)  185
Dir.              2
Scale Factor      2940(gal)/6170270
Max. Acc. (gal)   11.430
Last Correction   2024/04/02 04:24:38
Memo.             
[...]
  117717   117871   118593   119354   119124   118471   118668   119850 
  121366   122422   122495   122087   121919   122187   122181   121056 
  119627   118166   116087   114793   115223   116837   118572   118834 
  118638   119029   118425   117242   116515   115695   115238   116047 
  118159   120136   119949   118480   118219   119031   119346   118770 
  118810   120867   122706   121918   120034   118933   118178   117594 
  118717   121065   121695   120200   118408   117220   116567   116228 
  115708   114781   114082   113695   114059   116108   119293   122292 
  123877   125176   127050   126998   125029   122480   119029   115633 
  112761   110274   109279   110561   113286   117008   122029   125479 
  125322   124284   123808   122885   120631   118129   117283   116230 
  113670   111372   110824   113838   118401   120520   121491   122086 
  120767   118759   117288   116780   117481   117651   116975   116274 
  114110   111573   112282   116492   122259   126457   126422   124070 
  121372   117888   115246   115094   117107   119877   120340   118332 
  117812   120334   124541   127109   124958   121713   119994   116002 
  111271   110591   112185   112487   111355   111174   112544   113741 
  117163   123218   125005   122902   122870   122453   119367   115770 
  113977   116953   120198   119559   119578   118685   116904   121148 
  126473   126168   124572   124114   123599   122798   119958   116154 
  115024   114367   111321   109083   111038   115299   117442   118288 
  119855   119480   118408   119249   118931   118102   119222   117855 
  114742   115707   117237   117816   121325   123317   122101   122741 
  123575   121812   119326   117354   116110   115664   116833   119745 
  120373   118573   119066   119509   118100   118498   119054   117895 
  116984   116115   114397   113580   115308   116997   117033   116717 
  116267   116604   117250   117952   120160   121920   121837   119866 
  116427   115202   116090   115802   116405   119486   121388   121116 
  122395   125419   125518   122714   122051   123567   122662   118199 
  113722   111275   110468   112937   118176   121716   121742   119694 
  117286   115639   114683   114431   116158   119286   119772   115107 
  109768   109950   114552   119583   122982   122844   120699   120427 
  123009   126261   127362   126446   124460   121164   117986   117240 
  119750   121554   118390   113926   111912   110997   110673   111701 
  114917   119590   123409   124431   121374   117238   115504   114553 
  114616   116763   118023   118436   119515   119220   117644   116451 
  117183   120852   122345   119541   118296   119403   120619   121472 
  120368   119941   122246   122481   119817   117905   116727   115959 
  116399   117406   118080   118306   118382   118226   118727   120728 
  121531   119678   117584   115647   114351   115791   117748   117690 
  117267   118283   120778   122382   121267   119477   118718   119238 
  120845   120267   116768   115965   119006   121238   121699   120866 
  119008   118538   118399   116184   114216   113781   114385   117455 
  120718   120136   117887   117421   119512   122610   122368   119825 
  119086   118578   118330   119796   120493   119026   116245   114706 
  116449   118901   119225   118471   118352   117919   116435   116137 
  117294   116847   115310   116843   120049   119530   116765   116507 
  118186   119637   120780   120649   118411   117149   118877   120628 
  121588   123725   124632   121998   119181   118220   118401   120009 
  120652   118081   114971   113606   114479   117357   120966   123010 
  119605   114678   116321   119680   119082   118988   119435   116477 
  113030   113284   114725   114638   114912   116226   117669   118802 
  119865   122407   124836   124253   121875   119033   117199   118520 
  120373   119497   117922   117907   118066   118127   119711   122003 
  122941   120984   116573   112581   111823   114576   115607   112995 
  113337   116950   118151   117655   118145   119025   119521   119789 
  119771   119282   119528   120443   118709   115037   113881   115011 
  116910   118774   118350   117318   118680   120674   121438   121672 
  122287   123771   124777   124111   123120   121624   119769   119301 
  118320   116033   115129   114934   114094   115256   118413   118628 
  116186   116463   118516   118573   118424   118425   116066   114458 
  115795   116662   117564   119793   121060   122036   123567   123853 
  122663   121007   119994   119802   119037   117742   117389   117259 
  115634   113601   113665   115969   118254   119048   119830   121746 
  121723   118570   117295   119431   120592   119120   116362   115866 
  119981   122274   119404   117990   118916   119132   119189   117647 
  115924   116696   116713   115684   115388   114998   116245   118362 
  117988   116894   117210   118846   121818   123020   121115   120557 
  121932   121946   121189   121262   121042   119149   116486   114626 
  114385   115563   116179   115801   116372   118139   119328   118872 
  118045   117875   117760   118106   119400   120872   121093   119781 
  119710   120497   119291   118767   119271   117754   116674   117149 
  117028   117067   117923   118594   117787   115471   114768   116668 
  118464   119302   119310   118990   119157   118358   117243   118573 
  120750   121629   122020   121530   120370   120016   120242   121237 
  121525   119097   117235   117911   118283   117301   116218   116070 
  116223   115768   116869   119728   121002   121103   121053   119992 
  119842   120648   120144   119025   118110   117043   115621   114564 
  115685   118344   119638   119029   118364   118983   120255   120821 
  121038   121280   121076   120643   120060   120115   120889   120423 
  119133   118255   116380   113850   112980   113213   113777   115984 
  118562   119541   120649   122135   121335   119236   118794   119247 
  119139   118801   118133   116944   115613   114986   115828   117134 
  117126   116658   117119   117195   117669   119456   119713   119674 
  121168   121047   119879   119597   118848   117750   115688   112710 
  112397   114942   117679   119940   121666   122107   120719   119391 
  119824   120516   120912   121643   120834   117455   114363   113634 
  115392   118662   119577   117826   117692   118924   119469   119110 
  117269   116328   117903   118534   117934   118130   116947   115768 
  118066   119161   117295   117598   118917   119389   121065   122220 
  121534   120267   118030   116128   117662   120224   119516   117771 
  116685   115932   117478   119225   118939   118758   119955   121760 
  121464   118613   116423   116073   116300   116026   115530   115604 
  115543   114220   113027   114589   117536   119446   121320   122603 
  122122   121737   121644   120561   120282   121926   122900   122217 
  120366   117874   117626   119221   120029   120608   120327   119212 
  117382   113499   111791   113658   114225   114971   117803   119154 
  119041   119705   120057   119628   120559   122242   122374   121726 
  120861   120039   120667   121127   119787   119152   118845   115826 
  113817   117011   120931   120726   118572   118032   118250   116876 
  115169   116531   120323   122552   121907   119724   118063   117327 
  116314   116931   119763   121195   120317   119375   119717   118654 
  114187   111713   114854   118786   119024   117658   118282   119768 
  119249   117151   115962   117134   119546   120337   118887   117282 
  116681   117090   117994   118520   118875   119529   119492   118395 
  118014   118767   119089   118104   116872   117254   117156   115362 
  115296   116090   116711   118879   120740   122584   123842   120944 
  118660   120865   122219   120566   118338   117839   118793   118089 
  116777   117251   118767   120409   120473   118511   115750   113444 
  114156   117357   119563   121192   122420   121207   120250   120507 
  118610   116555   116600   117220   117902   117785   117537   118564 
  119596   120294   119828   117238   116178   118459   120261   120140 
  120286   120442   119847   119837   119059   116977   117242   118159 
  116161   115594   117927   119187   119951   119718   117637   117716 
  118560   116515   115076   116808   118643   117528   115423   115257 
  115332   115301   116817   119156   121177   120928   118694   117633 
  117827   118536   119874   121098   122095   121781   119129   116364 
  115418   116735   119263   119141   116848   117058   119248   119785 
  117869   116825   118999   120440   118425   116598   117760   119503 
  119543   119562   119834   118344   115976   115197   116719   118732 
  118869   117954   118489   119575   118265   116151   116716   119322 
  121848   122487   121254   120446   120610   121396   122690   122613 
  120382   118193   116928   116205   116645   117558   117923   118082 
  118072   118086   118131   116887   114925   115428   118611   121087 
  121054   119649   119052   119583   119323   118402   118779   119284 
  117290   115097   116674   119686   120540   120077   118353   115003 
  112616   113408   116670   119073   119046   118865   119599   119601 
  117982   116860   117722   119412   121178   121239   119587   119155 
  118293   115601   115022   116553   117155   118721   121279   119797 
  115334   114713   117803   119309   119055   119337   120177   120023 
  117745   115283   114313   114615   115867   115982   114918   115543 
  116077   114758   115108   115870   114204   114500   116969   116841 
  116020   117192   118036   117743   117838   118033   117724   117126 
  115343   114280   117449   120891   119831   117115   115539   115396 
  116967   118581   118766   118506   118094   116143   112697   110631 
  112511   115945   116898   115261   112959   112696   115245   117254 
  118266   120185   120733   118880   117098   116447   117591   120079 
  121003   119866   119321   120681   123098   124450   123802   124531 
  128327   130176   127335   123387   121222   121174   121741   121523 
  121469   121600   121270   120603   119475   119426   122063   126550 
  130439   130893   128546   126044   123033   120601   121030   121657 
  120266   119105   119864   120880   119852   118090   117226   116301 
  116226   117455   118263   119398   119639   116717   114928   115842 
  115031   113512   115152   119401   123280   125392   127824   130844 
  130083   124992   121768   124865   129963   129794   127319   129371 
  132382   131157   127341   122812   119157   118397   117640   115086 
  116008   119881   120499   120016   121186   120130   114239   105357 
  100113   102953   108784   111773   113381   117080   120524   119793 
  117707   117972   119401   119453   117933   116708   116500   117278 
  117333   116272   118446   121204   119225   118393   121415   123769 
  125631   126087   125058   127358   130056   127177   122161   117821 
  111384   105338   104995   107813   107801   105027   102355    99219 
   95826    94720    96628   103296   114750   124232   128694   131372 
  133513   136185   138258   135388   127962   118679   111537   112276 
  118454   123169   124337   123072   121199   117740   113327   112673 
  114263   112863   109140   106126   103716   101262   100066   101057 
  104259   107119   108116   111301   116572   121810   128121   130982 
  128228   124404   121089   120729   124473   126936   126261   123501 
  116401   108991   108970   114024   117922   120377   123690   124350 
  118270   112347   111761   112499   114342   117215   116330   111744 
  108568   108725   110300   113554   119107   123821   124563   120879 
  117311   117867   118312   117658   119940   120613   115959   112015 
  111709   112313   111376   109293   110483   113964   113321   110440 
  110308   112069   115597   120645   125272   131541   137884   137645 
  133178   130684   130293   133363   139151   139834   133528   126410 
  122279   120354   116980   111153   107745   108782   111669   116454 
  123475   130742   135005   132784   127595   125569   124171   121060 
  119957   122758   128001   131305   130111   128443   128679   129110 
  128957   126217   119437   112844   110417   109282   106856   105064 
  103925   103624   105695   107249   107346   111219   120888   130719 
  135305   137520   140231   138073   129002   120342   116564   114728 
  114271   117838   124003   128212   127480   124924   125479   126745 
  126625   128351   130033   127076   121962   118220   113788   107372 
  101263    96936    95001    95084    95945    97742    99232    99592 
  103243   111984   118925   120061   120732   124330   127887   128489 
  127532   126296   122612   120065   121371   121324   120570   121145 
  119699   115972   113319   113724   113322   108179   101839    97987 
   96563    98796   104987   111977   118090   122357   122180   119135 
  118824   121624   122594   120107   115747   111266   109331   110624 
  112268   112133   111863   111221   107469   104711   106019   105967 
  103793   101837    98710    97029   101797   111639   119096   121110 
  123283   128605   134702   139525   140057   135898   132409   130768 
  127110   124181   123674   118992   112364   111383   114209   118515 
  121106   116223   108516   105548   106186   110074   117519   122185 
  121869   121984   124115   125641   125331   125197   126597   126676 
  124471   121432   117927   115006   111866   109387   111473   114379 
  115000   118489   123975   127172   131363   138507   142474   140030 
  135928   132893   130842   130205   129535   129915   130704   125362 
  116785   113765   115461   118142   117958   112607   108638   109245 
  109901   110277   110730   109904   109806   111634   115264   121084 
  126597   130201   133796   135682   132797   127236   121120   117511 
  120020   123053   122407   121775   119691   116420   116533   116899 
  115920   116314   116088   115379   117126   120676   124025   123852 
  119621   117587   119346   119530   118915   122250   125176   120058 
  111938   109720   110905   112927   117232   119076   118211   121868 
  128140   130166   128251   126270   124730   121731   118797   118194 
  120322   125366   129353   128576   125738   123903   123188   121674 
  118098   115217   115143   116496   117341   116232   114053   112625 
  112280   113208   115302   118278   119789   117600   115518   115671 
  114231   111826   113433   118393   120717   118472   117470   120860 
  123556   123479   123508   125192   128503   129196   124839   121174 
  120995   120436   118996   118737   117817   116364   116702   114791 
  109714   107850   107673   105400   104993   107044   109768   113623 
  114956   112925   112791   115096   117637   120793   123444   124147 
  122788   118940   115211   114103   112317   108747   107542   108711 
  109368   110734   114759   119459   120434   115711   109524   107914 
  109134   107042   104254   106689   110803   110999   108518   108083 
  112766   119641   122683   121883   121963   122994   121884   119769 
  117375   113218   110944   111258   109037   107351   110389   113279 
  113214   113425   116523   120878   122334   120678   118977   116542 
  112214   109609   110700   113059   115501   117267   115918   111708 
  107898   106869   108908   113376   119604   124320   125500   126302 
  126311   124765   126162   128311   126555   124425   124730   125792 
  126306   126829   128016   128688   129305   130593   129898   127527 
  126321   125297   124332   124485   123744   122678   123567   124558 
  124072   122400   119779   118248   119605   122966   126825   129589 
  129434   126751   123976   122280   121246   121038   122103   123717 
  125784   127106   124868   121716   121758   123744   125319   126335 
  129168   132376   130961   128015   128053   127722   125072   121710 
  117861   115976   118883   122731   122470   119238   117197   117545 
  117673   117157   117994   118906   118288   117545   118821   121294 
  121026   118101   114654   109810   105235   102922   101564   101365 
  102570   104596   107915   109841   106951   103120   104281   108357 
  110844   112444   114066   115074   115325   114487   113780   113904 
  112954   110663   109597   111473   114543   115866   114773   113091 
  112262   111049   109705   111167   115332   118924   119878   119200 
  118825   118488   117226   115880   115652   116341   115930   113725 
  113803   116854   117532   116231   116097   115197   113622   114827 
  118369   120509   120769   121736   124005   126845   129694   131800 
  132707   130953   126317   122047   120525   121530   123700   125308 
  125527   124455   122888   123042   126393   129756   130093   130193 
  131463   131560   130970   130710   129526   127538   125993   125379 
  126220   128127   129028   128012   126006   123420   121468   121282 
  120537   118325   117011   116905   117142   117015   115064   112491 
  113021   116459   118498   117832   117105   117342   117198   116785 
  116613   115331   113485   113182   112874   110361   108431   110005 
  112318   113575   115195   115467   113792   112653   113158   116000 
  118773   119206   120263   121925   122203   122200   121228   118240 
  114290   111115   110127   110180   110380   111283   111639   110972 
  110820   111641   112822   113780   114309   114746   114416   112687 
  111958   113065   113330   113643   116214   117993   116113   113244 
  112660   113965   115092   115180   115157   115694   115990   114955 
  113770   115631   119073   119872   119538   120221   120481   120691 
  121525   121743   121335   119822   116801   116324   119612   120606 
  119312   121543   124167   122942   121194   120288   120918   123920 
  125143   123990   123436   122063   119921   120302   123108   124804 
  123388   121165   120178   118951   116159   112306   109494   108497 
  107937   109111   112129   114436   116978   119079   118078   116863 
  118496   121482   123658   124482   124557   123582   121654   121397 
  123503   124972   124261   122109   119840   119690   121923   123852 
  124537   125168   125260   123620   121082   119672   120194   121399 
  122223   122592   121793   119792   117736   117390   119355   119434 
  116428   115380   115836   114714   113613   113088   112516   113065 
  114411   115247   116735   119166   120627   121577   122335   121288 
  120544   122342   123748   123669   123942   123829   122799   122023 
  121628   121651   122662   124678   126472   125188   120414   115930 
  114216   115027   116388   116477   117193   119259   118809   114589 
  110839   110938   113746   116607   118105   119407   121649   122179 
  120709   120851   121292   119930   119266   119116   119117   120828 
  121092   119618   120220   120604   119810   121245   123656   124572 
  124726   124734   123655   121428   120243   120983   121711   120814 
  119654   120532   121612   119617   116494   115438   114667   113359 
  114374   116114   114838   111674   109035   108712   110747   112234 
  113374   115346   115837   115011   114722   115052   116399   117094 
  115213   114072   115241   115623   115517   115272   114141   115164 
  116733   114785   113180   114352   115839   118257   120575   119631 
  117414   116129   114568   113281   113638   114714   114770   113014 
