Origin Time       2024/04/02 04:24:00
Lat.              40.133
Long.             141.712
Depth. (km)       71
Mag.              6.0
Station Code      IWTH26
Station Lat.      38.9690
Station Long.     141.0013
Station Height(m) 17.5
Record Time       2024/04/02 04:25:00
Sampling Freq(Hz) 100Hz
Duration Time(s)  188
Dir.              3
Scale Factor      3923(gal)/8224838
Max. Acc. (gal)   3.814
Last Correction   2024/04/02 04:25:00
Memo.             
[...]
    9968    10760    11365    11607    11647    11589    11619    11566 
   11198    10851    10696    10408    10012     9846     9894    10037 
   10374    10733    10809    10735    10725    10696    10471    10168 
   10084    10150    10223    10592    11176    11422    11296    11044 
   10694    10390    10301    10489    10840    10891    10555    10390 
   10566    10887    11248    11229    10696    10403    10779    11303 
   11446    11179    10906    10991    10955    10301     9613     9574 
   10031    10519    10804    10871    10801    10862    11115    11188 
   11071    11168    11396    11260    10686    10049     9742    10103 
   10976    11619    11668    11469    11433    11550    11581    11438 
   11200    10979    10817    10709    10790    10997    10976    10885 
   11103    11342    11369    11421    11400    11281    11402    11449 
   10943    10404    10292    10305    10386    10575    10478    10021 
    9688     9684     9734     9786    10023    10365    10652    10793 
   10696    10501    10451    10489    10515    10575    10523    10324 
   10272    10417    10457    10328    10434    10770    10840    10762 
   10806    10895    11030    11043    10791    10455    10179    10187 
   10547    10848    10870    10760    10716    11005    11475    11472 
   10883    10443    10551    10797    10948    11164    11556    12174 
   12669    12710    12599    12437    12150    12060    12229    12478 
   12726    12710    12324    11732    11119    10732    10619    10721 
   10947    10939    10589    10227    10137    10422    10941    11448 
   11824    11875    11576    11367    11311    10995    10627    10771 
   11354    11902    12127    11894    11261    10665    10385    10081 
    9485     8811     8460     8662     9165     9644    10050    10289 
   10370    10336    10030     9683     9737    10073    10458    10755 
   10629    10247    10239    10623    11013    11114    10741    10328 
   10467    10891    11155    11261    11070    10404     9834    10050 
   10636    10777    10523    10265    10050    10044    10299    10323 
   10112    10253    10675    10991    11161    11109    10737    10253 
   10081    10288    10390    10304    10498    10978    11280    11145 
   10828    10777    10960    11102    11169    11111    10991    10971 
   10764    10153     9582     9514     9985    10760    11414    11735 
   11920    12071    11985    11637    11265    10906    10551    10343 
   10281    10365    10647    10889    10905    10914    11084    11294 
   11431    11662    11996    12035    11707    11402    11199    10998 
   10993    11334    11861    12275    12375    12229    11807    11072 
   10551    10615    10913    11132    11419    11955    12313    11996 
   11496    11283    10975    10731    10962    11161    11063    11024 
   11014    10928    10997    11188    11134    10840    10608    10299 
    9855     9630     9672     9976    10547    10979    11040    10845 
   10558    10342    10191     9976     9686     9594     9992    10581 
   10916    11094    11142    10762    10107     9637     9502     9841 
   10692    11406    11373    10874    10412    10098     9953    10130 
   10563    10903    11157    11661    12159    12145    11693    11153 
   10947    11257    11500    11091    10278     9764     9938    10461 
   10750    10813    10944    11095    11124    10899    10303     9710 
    9502     9385     9270     9586    10260    10706    10790    10948 
   11365    11826    12172    12178    11639    10966    10674    10597 
   10434    10305    10363    10638    11122    11614    11761    11480 
   10971    10442    10152    10116    10087    10122    10349    10592 
   10756    10897    10943    10836    10705    10694    10939    11502 
   12024    12109    11828    11381    10970    10678    10363    10157 
   10312    10671    10980    11026    10775    10690    11040    11415 
   11383    10832    10166     9968    10034     9958    10052    10592 
   11311    11827    11824    11431    11241    11292    11106    10836 
   10955    11391    11839    12077    11974    11669    11407    11268 
   11105    10845    10686    10682    10702    10709    10539    10125 
    9931    10280    10789    11052    11157    11294    11334    11167 
   10998    10790    10395    10189    10395    10539    10197     9679 
    9710    10385    11168    11785    12183    12317    12267    12050 
   11726    11388    10889    10376    10309    10513    10600    10702 
   10828    10779    10658    10504    10253    10091    10102    10066 
    9950     9892     9882     9956    10156    10415    10813    11317 
   11646    11707    11649    11553    11221    10527     9933     9994 
   10531    11067    11423    11539    11465    11437    11522    11522 
   11288    10925    10741    10964    11299    11287    11130    11157 
   11051    10678    10519    10754    10995    10963    10697    10327 
    9984     9701     9477     9423     9553     9742     9929    10326 
   11213    12206    12471    11929    11232    10687    10087     9393 
    9000     9223     9795    10322    10828    11161    10960    10550 
   10440    10508    10596    10775    10832    10625    10584    10998 
   11461    11531    11349    11256    11261    11152    10810    10412 
   10319    10562    10725    10574    10459    10721    11107    11233 
   11105    10947    11071    11651    12251    12218    11715    11433 
   11356    11028    10454     9828     9317     9140     9286     9595 
    9977    10376    10789    11161    11298    11238    11248    11310 
   11229    11094    11024    10953    11001    11308    11649    11730 
   11615    11587    11715    11931    12132    11913    11183    10520 
   10127     9775     9566     9751    10384    11299    12081    12312 
   11942    11179    10382    10054    10382    11113    11934    12576 
   12793    12609    12197    11495    10692    10412    10606    10677 
   10575    10597    10740    10751    10548    10395    10469    10584 
   10486    10245    10050     9946    10091    10382    10324    10098 
   10265    10697    10986    11049    11113    11369    11547    11387 
   11145    11034    10908    10760    10700    10562    10341    10208 
   10108    10003    10017    10188    10467    10698    10756    10733 
   10782    10840    10763    10760    10949    10917    10692    10768 
   11074    11291    11318    10980    10408    10235    10781    11595 
   12105    12208    11902    11083     9977     9169     9171     9914 
   10705    11138    11514    12024    12430    12378    11703    10928 
   10743    10963    11016    10771    10254     9657     9525     9996 
   10470    10646    10945    11566    12096    12117    11578    10659 
    9651     9022     9022     9258     9471     9945    10505    10683 
   10635    10561    10328    10130    10311    10683    10905    10967 
   10974    11064    11114    10732    10220    10099    10080    10096 
   10489    10821    10619    10386    10631    11165    11545    11457 
   11075    10732    10307     9987    10276    10852    11149    11138 
   10913    10555    10096     9582     9404     9818    10377    10613 
   10555    10365    10273    10503    10990    11450    11632    11626 
   11743    11939    11850    11450    11024    10665    10554    10901 
   11369    11765    12256    12606    12653    12721    12818    12549 
   12037    11857    11907    11797    11680    11514    11184    11178 
   11493    11607    11691    11870    11688    11209    10975    11115 
   11308    11182    10700    10280    10265    10540    10760    10559 
    9954     9609     9814    10027     9944     9796     9782    10008 
   10485    10951    11155    11153    11095    10948    10702    10471 
   10322    10426    10905    11454    11511    10951    10343    10006 
    9710     9560     9792    10158    10517    11067    11619    11659 
   11133    10355     9655     9429     9810    10608    11561    12004 
   11654    11250    11001    10461     9852     9544     9455     9644 
   10191    10615    10540    10515    10968    11406    11473    11294 
   10964    10601    10247    10053    10203    10196     9826     9892 
   10488    10885    11007    11064    10878    10372     9713     9062 
    8796     9250    10048    10585    10669    10436    10314    10669 
   11333    11800    11901    11911    11954    11927    11869    11782 
   11560    11407    11715    12251    12460    12506    12680    12630 
   12320    12139    12147    12307    12472    12402    12320    12353 
   12112    11547    11176    11203    11337    11472    11680    11684 
   11418    11246    11132    10872    10598    10326    10031     9957 
   10142    10174     9865     9683     9876     9980     9761     9613 
    9861    10339    10555    10443    10454    10594    10588    10505 
   10434    10342    10346    10725    11377    11712    11616    11476 
   11488    11650    11735    11530    11233    11084    10984    10697 
   10265    10066    10234    10597    11099    11445    11349    11199 
   11344    11504    11394    11161    10932    10631    10525    10816 
   11095    11200    11450    11730    11653    11253    10723    10158 
    9656     9288     9201     9543    10081    10444    10430     9909 
    9123     8704     8854     9111     9101     9113     9559    10266 
   10760    10773    10403    10112    10305    10809    11057    10936 
   10936    11268    11701    12128    12417    12407    12247    12128 
   12127    12217    12208    11970    11639    11350    10903    10241 
    9680     9196     8662     8461     8737     9067     9325     9890 
   10918    11816    11765    10984    10341     9923     9553     9316 
    9181     9306     9803    10280    10449    10385    10181     9972 
   10064    10578    11171    11506    11584    11543    11646    11916 
   11924    11597    11186    10616     9954     9471     9130     8892 
    8799     8827     9143     9580     9640     9378     9055     8835 
    9004     9547    10353    11476    12528    13026    13132    13230 
   13432    13586    13535    13408    13238    12964    12819    12730 
   12536    12687    13329    13898    13914    13459    13034    12949 
   13180    13536    13601    13112    12152    10887     9691     8923 
    8546     8650     9327    10089    10427    10174     9486     8918 
    8939     9537    10168    10173     9551     8807     8284     7884 
    7387     6914     6777     7213     7979     8399     8340     8203 
    8264     8737     9626    10908    12803    14922    16271    16391 
   15584    14519    13905    13950    14164    14049    13674    13038 
   11928    10706     9823     9220     9046     9698    10940    11878 
   12020    11654    11124    10523     9899     9444     9351     9321 
    9065     8641     7817     6833     6736     7500     8224     8914 
    9895    10800    11071    10710    10289    10303    10763    11090 
   10523     9400     8635     8208     8006     8414     9402    10567 
   11623    12766    14385    16082    17182    17767    18040    17763 
   16895    15716    14553    13810    13468    12860    11784    10710 
    9690     8687     8226     8402     8560     8407     8347     8883 
   10251    12294    14296    15277    14908    13771    12680    12171 
   12155    12040    11469    10396     9157     8449     8190     7744 
    7314     7449     8218     9576    11329    12964    14254    15325 
   15992    15828    14355    11416     8081     5769     4800     5202 
    7049     9439    11142    11927    12484    13320    14099    14323 
   13837    12690    11280     9846     7885     5281     3322     3267 
    4561     5972     7134     7947     8424     9142    10457    11919 
   12877    13131    13055    13265    13747    13701    12699    11368 
   10647    10655    10620    10160     9876    10334    11240    11882 
   12001    11786    11357    10808    10278     9913    10104    11006 
   12112    13016    13571    13331    12106    10451     9178     8837 
    9072     9011     8669     8355     7796     7229     7323     8144 
    9189     9659     9124     8232     7870     8075     8382     8549 
    8939    10415    13031    15471    16827    17300    16825    15341 
   13612    11974    10264     9332     9753    10293     9929     9024 
    8155     7642     7578     7952     8873    10092    11144    11919 
   12541    13124    13393    12746    11242     9787     9005     8877 
    9552    11087    12677    13379    13290    13234    13324    13045 
   12652    12665    12711    12270    11244     9644     8094     7641 
    8419     9848    11510    13216    14831    15807    15471    13996 
   12221    11005    10652    10773    11226    12104    12791    12799 
   12538    12116    11186    10207     9937    10274    10798    11635 
   12897    13973    14199    13795    13406    12919    11909    10866 
   10484    10620    10849    11061    11169    11017    10866    10983 
   10912    10201     9070     7886     6851     6111     5791     5917 
    6674     8361    10405    11961    13315    14673    15321    14937 
   13841    12657    11971    11572    10990    10296     9714     9335 
    9207     9362     9686     9741     9324     8915     8942     9387 
    9801     9472     8556     7956     8125     9047    10369    11299 
   11403    11236    11495    11989    12008    11043     9115     7096 
    5791     4841     3829     3090     2870     3025     3176     3006 
    2837     3395     4989     7333     9803    11767    13162    14300 
   15002    15230    15816    16988    17826    18004    17972    17648 
   16677    15134    13455    12141    11155    10173     9576     9810 
   10489    11099    11453    11520    11709    12594    14031    15248 
   15491    14515    12858    11458    10849    10910    11213    11518 
   11982    12519    12544    11800    10498     8789     6808     4901 
    3823     4293     5960     7742     9018     9458     8980     8545 
    9163    10359    11311    12081    12667    12839    12845    12796 
   12283    11236    10292    10099    10501    10872    11142    11669 
   12526    13525    14353    14791    14918    14917    14913    14894 
   14629    13929    13026    12313    11801    11203    10214     8931 
    7948     7646     7885     8376     8959     9532     9823     9799 
    9796     9983    10388    11007    11780    12644    13163    12916 
   12167    11381    10798    10458    10363    10436    10131     9093 
    7881     7117     6853     6841     6999     7618     8726     9952 
   11106    12004    12191    11628    10883    10249     9703     9383 
    9265     9259     9389     9471     9528     9938    11125    13028 
   14573    15090    15263    15552    15889    16287    16291    15427 
   14042    12973    12729    12827    12503    11807    10935     9790 
    8688     7969     7582     7581     8104     9201    10466    11129 
   11163    11214    11751    12904    14134    14588    14311    14064 
   14017    13475    11799     9385     7642     7449     8213     9045 
    9467     9242     8780     8777     9177     9385     9377     9703 
   10363    10966    11619    12415    12920    12887    12619    12372 
   11878    10876     9713     8939     8698     8783     8962     8900 
    8392     7736     7149     6633     6640     7526     8889    10312 
   11812    13375    14548    14705    13797    12483    11421    10619 
    9813     9362     9516     9757     9926    10111     9981     9640 
    9544     9687     9985    10631    11707    12920    13864    14446 
   14783    14847    14598    14116    13332    12181    11082    10642 
   10825    11087    11236    11394    11497    11488    11470    11319 
   10770    10033     9319     8384     7543     7434     7680     7786 
    8117     8864     9597     9973     9995     9726     9177     8511 
    8055     8090     8671     9582    10662    11763    12321    11777 
   10562     9805     9987    10774    11699    12321    12499    12464 
   12310    12078    11809    11288    10678    10677    11368    12040 
   12199    12042    11920    11767    11434    11172    11246    11518 
   11797    12016    11971    11469    10824    10593    10721    10816 
   10763    10671    10910    11512    11838    11682    11308    10875 
   10771    11172    11558    11468    10899    10035     9112     8452 
    8276     8344     8356     8704     9629    10593    11414    12225 
   12681    12802    12960    12883    12509    12487    12761    12545 
   11703    10665     9517     8349     7717     7776     8046     8316 
    8604     8762     8803     8937     9178     9377     9429     9364 
    9337     9396     9468     9661    10184    11063    12000    12488 
   12272    11466    10332     9208     8500     8407     8633     8803 
    8966     9375    10181    11254    12347    13367    14044    14094 
   13879    13984    14458    15002    15406    15560    15365    14827 
   14088    13312    12703    12337    11805    11030    10727    11028 
   11149    10867    10704    10905    11248    11415    11244    10912 
   10806    11070    11445    11570    11319    10866    10434     9938 
    9181     8407     8063     7969     7627     7187     6926     6744 
    6945     7847     8916     9590     9927    10152    10326    10462 
   10632    10767    10835    11117    11665    12087    12210    12248 
   12336    12380    12329    12251    12345    12912    13745    14304 
   14598    14663    14284    13648    13024    12343    11562    10968 
   10894    11234    11815    12460    12393    11079     9173     7685 
    7196     7682     8552     9370    10234    11070    11462    11479 
   11483    11365    11091    11006    11188    11691    12606    13355 
   13174    12183    11057    10114     9385     8988     9112     9675 
   10154    10358    10612    10858    10964    11180    11431    11495 
   11562    11796    11982    11743    10975    10045     9360     9050 
    9057     9188     9251     9121     8750     8336     8145     8237 
    8576     9077     9544     9802     9787     9486     9159     9304 
    9919    10504    10901    11407    12123    12761    13113    13182 
   12841    12046    11142    10551    10439    10671    11010    11202 
   10966    10466    10183    10139    10235    10532    10669    10368 
   10031     9759     9261     8656     7987     7299     7191     7915 
    9023    10104    10899    11226    11009    10396    10014    10374 
   11184    11861    12140    12190    12351    12459    12102    11469 
   11016    10971    11448    12202    12727    12856    12727    12609 
   12858    13497    14094    14380    14449    14257    13672    12942 
   12328    11724    11126    10828    11041    11464    11426    10798 
   10069     9466     8937     8633     8787     9437    10408    11321 
   11765    11784    11782    11769    11391    10825    10597    10714 
   10851    10885    10820    10569     9979     9038     8086     7562 
    7452     7330     7076     6945     6922     6826     6743     6779 
    6851     6987     7271     7616     8182     9216    10528    11745 
   12483    12669    12706    12795    12881    13047    13270    13421 
   13509    13478    13099    12258    11287    10701    10683    11126 
   11653    11870    11975    12276    12565    12703    12772    12526 
