Origin Time       2024/04/02 04:24:00
Lat.              40.133
Long.             141.712
Depth. (km)       71
Mag.              6.0
Station Code      IWTH16
Station Lat.      39.6436
Station Long.     140.9465
Station Height(m) 212
Record Time       2024/04/02 04:24:53
Sampling Freq(Hz) 100Hz
Duration Time(s)  187
Dir.              4
Scale Factor      7845(gal)/8223790
Max. Acc. (gal)   56.938
Last Correction   2024/04/02 04:24:53
Memo.             
[...]
   -2903    -2905    -2905    -2905    -2906    -2902    -2902    -2907 
   -2906    -2902    -2903    -2905    -2905    -2903    -2902    -2902 
   -2902    -2907    -2907    -2902    -2902    -2905    -2905    -2906 
   -2905    -2903    -2906    -2905    -2903    -2903    -2903    -2905 
   -2906    -2905    -2903    -2905    -2907    -2905    -2901    -2903 
   -2905    -2902    -2903    -2903    -2903    -2905    -2903    -2903 
   -2905    -2903    -2905    -2905    -2903    -2905    -2905    -2901 
   -2903    -2906    -2905    -2903    -2906    -2905    -2903    -2905 
   -2905    -2901    -2902    -2905    -2905    -2903    -2905    -2903 
   -2903    -2906    -2905    -2905    -2905    -2905    -2905    -2905 
   -2905    -2906    -2905    -2906    -2906    -2902    -2902    -2903 
   -2903    -2905    -2903    -2902    -2903    -2905    -2905    -2905 
   -2903    -2903    -2905    -2905    -2903    -2903    -2903    -2903 
   -2902    -2902    -2903    -2903    -2906    -2905    -2902    -2906 
   -2906    -2906    -2907    -2903    -2902    -2905    -2906    -2905 
   -2902    -2903    -2906    -2906    -2902    -2902    -2903    -2905 
   -2905    -2903    -2903    -2903    -2902    -2903    -2906    -2907 
   -2909    -2905    -2903    -2906    -2910    -2914    -2914    -2913 
   -2918    -2921    -2918    -2917    -2914    -2910    -2905    -2895 
   -2891    -2891    -2895    -2909    -2920    -2933    -2955    -2970 
   -2972    -2957    -2930    -2909    -2895    -2875    -2863    -2871 
   -2890    -2918    -2951    -2952    -2938    -2982    -3052    -3038 
   -2947    -2875    -2824    -2771    -2781    -2880    -2983    -3006 
   -2980    -3006    -3137    -3307    -3352    -3207    -2983    -2795 
   -2751    -2901    -3072    -3036    -2851    -2697    -2632    -2713 
   -2976    -3240    -3184    -2724    -2338    -2493    -2886    -3013 
   -3079    -3395    -3384    -2798    -2623    -3233    -3793    -3863 
   -3724    -3492    -3086    -2921    -3445    -4054    -3732    -2755 
   -2390    -2659    -2608    -2543    -3026    -3175    -2305    -1258 
    -966    -1350    -2031    -2754    -3045    -2752    -2523    -3125 
   -4510    -5549    -5529    -5066    -4391    -3339    -2685    -2983 
   -3572    -3624    -3466    -4058    -4787    -4052    -2270    -1490 
   -2043    -2242    -1626    -1051      -17     1730     2427     1059 
   -1142    -2512    -2851    -3206    -3979    -4714    -5265    -5508 
   -4957    -3946    -3505    -3955    -5435    -7966    -9678    -8243 
   -5115    -3551    -3092    -2015     -984     -858    -1273     -607 
    1680     3528     3751     2718     1472      838     -359    -1958 
   -2083    -1395    -1463    -2772    -5437    -8349    -9277    -6940 
   -3739    -3387    -4471    -3955    -3630    -4791    -4936    -4133 
   -4931    -5881    -4036     -367     2759     3885     2516      589 
     151      615     1057      940     -564    -2782    -4380    -5479 
   -6779    -7716    -7038    -5734    -4380    -1129     2313     2269 
   -1008    -5682    -9799   -10606    -7280    -3126    -2265    -3750 
   -3589    -1528     -149      -99     -384     -828    -1696    -2926 
   -3847    -3307    -2617    -3640    -3569     -951      369     -109 
     531      903    -1371    -3523    -3523    -4537    -6740    -6768 
   -6453    -8031    -8403    -6286    -4217    -4581    -6235    -4893 
   -1524     -900    -1339     1250     3802     1194    -3535    -4923 
   -4329    -3808    -2299    -1541    -3065    -2660     1004     2092 
   -1151    -3672    -2947    -1765    -3289    -6571    -7765    -6407 
   -5665    -6168    -6767    -6589    -3693      -16       36    -1885 
   -3703    -6072    -5992    -2870    -1379    -2381    -3109    -3451 
   -4909    -5541    -2832      309     1005      621     -575    -2455 
   -2914    -1890     -930    -1129    -3412    -7076    -8846    -6411 
   -1846      645    -1071    -4347    -4590    -2658    -3388    -6682 
   -7746    -6091    -5474    -5821    -4367    -1871     -963    -1659 
   -2627    -2883     -992     1742     1593    -1352    -3867    -4264 
   -3350    -2146     -795     -400    -1821    -4171    -4985    -1516 
    3026     2197    -2385    -4874    -4839    -4962    -6026    -6554 
   -5660    -3716    -1640    -1487    -2064     -346     1485      796 
   -1682    -4718    -6531    -5633    -2686     -962    -2042    -2054 
     642     2565     2369      -54    -4040    -5867    -5351    -5641 
   -5540    -3491    -2089    -1706     -398      427     -372     -639 
     490     -498    -6183   -11125    -9516    -5514    -4842    -5362 
   -4081    -3073    -3110    -1248     1487      872    -1750    -2776 
   -3103    -3723    -3061    -1665    -1752    -2620    -2995    -3152 
   -1848      284     -839    -4156    -5552    -6048    -5994    -4118 
   -3132    -3723    -3743    -3657    -3727    -3404    -2828    -1755 
    -805    -1038    -2818    -6049    -8359    -8021    -6717    -4374 
   -1028       41    -1024    -1147     -511     -843    -1876    -2678 
   -3164    -3923    -5641    -6863    -5992    -4357    -3041    -1942 
    -572     1617     2926     2268     1067     -430    -1871    -2178 
   -3366    -7380   -11375   -12102   -10457    -8379    -6509    -5410 
   -3844      -85     3063     2943     1838     1263      410     -392 
    -561    -1092    -3144    -4955    -4295    -2624    -2164    -3013 
   -3951    -4185    -4536    -5112    -4487    -3034    -2520    -2762 
   -2627    -2245    -2177    -2758    -3713    -3523    -2124    -2447 
   -5150    -6744    -5871    -3877     -741     2519     3430     1987 
     614     1680     2782     -747    -5491    -5359    -2835    -3262 
   -5632    -5682    -4847    -6214    -6500    -3974    -1328      884 
    1560     -220    -1502    -1814    -4001    -7179    -8141    -6849 
   -5807    -5850    -5090    -3040    -1555     -183     1769     1907 
     422     -643    -2211    -3690    -3881    -4660    -5616    -4364 
   -1460      400    -1123    -4496    -6026    -5400    -3909    -2253 
   -1398    -1776    -2841    -3372    -2544     -982     -591    -2770 
   -5671    -6508    -5437    -3920    -3465    -4596    -5181    -4163 
   -3103    -2976    -4113    -5121    -3569    -1652    -2551    -3396 
   -1863     -999    -1964    -2528    -2276    -2474    -2799    -1744 
    -822    -2095    -3384    -3334    -2704    -1532    -1726    -3666 
   -4087    -2891    -2945    -4320    -5050    -5053    -5471    -5466 
   -3805    -2270    -3044    -4128    -2370      486     1004      113 
     280      669     -696    -3160    -5246    -6428    -5629    -3852 
   -4367    -5344    -3626    -2733    -4347    -4810    -3923    -3564 
   -2963    -1545     -986    -1804    -1702     -236      210    -1696 
   -4699    -6151    -5555    -4623    -3798    -2732    -1707     -535 
     522        1    -1620    -2349    -2273    -2398    -2771    -3022 
   -3213    -3388    -2624    -1946    -3350    -4233    -2974    -2889 
   -4248    -5124    -6307    -7959    -8230    -5917    -3014    -2300 
   -2889    -2731    -1568      398     2434     2857     1250    -1246 
   -3524    -4592    -4542    -4197    -3769    -3339    -2608    -1746 
   -1089      440     2594     2656     -795    -5749    -9073    -9243 
   -7049    -5333    -4924    -3356    -1834    -3489    -5584    -4970 
   -3015    -1139     -232    -1170    -2870    -3215    -1822     -595 
    -684     -697      499     1810     1314    -1707    -5015    -5479 
   -4230    -4024    -4013    -4202    -6413    -7587    -4590    -1579 
   -1532    -1039      679      457    -1629    -3338    -4244    -4936 
   -5296    -5212    -5292    -5138    -4766    -4969    -4210    -2435 
   -1877     -935     1506     1609    -1340    -3100    -2006      216 
    1102    -1039    -4272    -5790    -6156    -6107    -5058    -3825 
   -4364    -6336    -6388    -3825    -1741    -1065     -810     -920 
   -1910    -3723    -4770    -4449    -3229    -1227     -953    -3369 
   -4592    -3339    -1532      572     1489     -325    -2046    -1703 
   -1071    -1163    -1860    -3372    -5050    -5320    -3535    -1404 
   -1474    -3329    -5190    -7449    -8407    -6428    -5499    -6311 
   -5360    -4113    -3850    -3136    -3312    -4715    -4926    -3573 
   -1938     -302      934      432    -1233    -2141    -2373    -2421 
   -2010    -1275     -503     -132     -407     -797    -1107    -1849 
   -2415    -2527    -4369    -7879   -10207   -10237    -7915    -5204 
   -4965    -5034    -2948    -1695    -2106    -1561    -1514    -2878 
   -2041      210     -145    -1048       83     1044     1101     1053 
     321    -1152    -2485    -2540    -1823    -2667    -5138    -6782 
   -6023    -3397    -1085     -414     -932    -2438    -4309    -4722 
   -3450    -2637    -3150    -4126    -5341    -5823    -4448    -1956 
    -133     -685    -2612    -3235    -2714    -2971    -3604    -2515 
   -1007    -2122    -4174    -4549    -4428    -4742    -4676    -4378 
   -4854    -4889    -3361    -3241    -4394    -2893     -615     -994 
   -2992    -4773    -5042    -3512    -1576    -1328    -3267    -4695 
   -4082    -2747    -1065      299      198     -171     -230     -851 
    -958     -669    -2440    -4745    -4021    -1613     -565     -637 
   -1080    -2574    -4638    -5634    -4919    -3387    -2986    -3947 
   -4149    -3311    -2506    -1378     -710    -2104    -3645    -2484 
    -793    -2296    -4970    -4684    -2180     -190       -6    -2181 
   -4869    -5792    -5682    -5285    -4939    -5929    -7079    -6535 
   -5481    -4495    -3358    -3183    -3457    -3123    -2293     -552 
    1125     1306     -143    -3435    -5282    -2594      206    -1050 
   -4889    -7973    -7882    -6253    -5297    -3769    -2232    -2872 
   -3998    -3499    -2740    -2623    -3091    -5024    -6783    -5779 
   -3878    -4452    -5972    -4043      696     3766     3595     1424 
    -625     -820     -298    -1595    -4352    -5879    -4569    -1467 
      -2    -1695    -3870    -3581     -683     1224    -1174    -5193 
   -6566    -5780    -4783    -3782    -3477    -4216    -4445    -3642 
   -3438    -4263    -4136    -2454    -1420    -2369    -3738    -3142 
   -1387    -1668    -3132    -2662    -1155     -467     -951    -2415 
   -3372    -3026    -1668      476     1902     1078     -985    -2828 
   -4615    -5405    -4028    -2479    -2594    -3365    -3574    -3620 
   -3825    -3315    -2748    -3132    -3253    -3231    -4526    -5788 
   -4477    -1152     1161     1107     -642    -2830    -3501    -2556 
   -2096    -2579    -2945    -2845    -2952    -4095    -5648    -5327 
   -2744    -1175    -1918    -1979     -692     -874    -2934    -4425 
   -4212    -3024    -1381     -309    -1944    -5229    -5670    -3734 
   -4175    -5898    -5373    -4104    -3693    -3647    -3608    -2555 
    -411      792    -1216    -6297    -9648    -7091    -3025    -2899 
   -3537    -2817    -3418    -3719    -2771    -3021    -3465    -3415 
   -4008    -3582     -263     3334     3150     1125      376    -1283 
   -3388    -3365    -3426    -4537    -4733    -4271    -4094    -4187 
   -3720    -1516     1101     2218     1695     -762    -3257    -3904 
   -5328    -7060    -6589    -6639    -6654    -3751    -2431    -4861 
   -5306    -1551     1632      357    -3352    -6188    -7200    -5301 
   -2466    -2451    -3111    -2381    -2245    -3059    -4617    -5404 
   -3245    -1285    -2853    -5799    -7142    -5846    -2512      805 
    2551     2953     2389      -18    -3362    -3989    -1794     -877 
   -2481    -4780    -6401    -6103    -4087    -2489    -1957    -1742 
   -2413    -4325    -6068    -6521    -5572    -3354     -394     1602 
     947     -764     -519      891     1328     1827     2868     2092 
   -1054    -3831    -3468     -410     1560     -267    -4288    -7649 
   -9965   -10824    -8311    -4372    -3820    -5838    -6471    -6436 
   -6922    -5965    -3736    -2647    -3010    -4101    -5533    -5251 
   -2268      616     1663     1744      958    -1147    -2666     -729 
    2574     2705      423    -1884    -4567    -5466    -2527     -889 
   -3703    -5989    -6153    -7103    -8311    -8318    -6922    -5177 
   -5586    -6791    -5174    -1864      480     1117     -473    -2577 
   -1460     2351     3897     2423     1547     1582     1726     2442 
    2204      475     -880    -1286    -1537    -1459      140     2467 
    3019     1764      893     1216     1659      853    -1240    -2704 
   -2725    -2351    -1166      834     1705     1344     1468     2512 
    2995     1879      533      205      264     -434    -2467    -3792 
   -1362     2678     2519    -1391    -2415       -5      835      409 
    1135     2336     3742     5132     5603     5081     3870     3214 
    2916      175    -4752    -8675   -10126    -9602    -9073   -10206 
  -12760   -15454   -16627   -16731   -17729   -18492   -17359   -15795 
  -15020   -14134   -12475   -10392    -6972    -1451     3473     5530 
    5412     3874     2803     3753     3797     1050    -2039    -4689 
   -7774   -11452   -15537   -19053   -22439   -25536   -26478   -27808 
  -32872   -39916   -45748   -47881   -47164   -48018   -51409   -54564 
  -56106   -55745   -52412   -46435   -40767   -35858   -28809   -20740 
  -16017   -13764    -9244    -1032     9151    19565    29281    38007 
   45585    51294    54195    55447    56783    56056    51309    46847 
   46206    45118    40196    35621    34030    31870    28367    24948 
   18085     7172    -1732    -6712   -10503   -12789   -12901   -14997 
  -21263   -25026   -20560   -12495    -7541    -5444    -3098     -614 
     616     1162     2295     4866     9707    16996    24297    26453 
   22520    19180    20850    24322    24291    16587      810   -16299 
  -26516   -28679   -25594   -19899   -17728   -23645   -32518   -37828 
  -39101   -36528   -31314   -29079   -32671   -37245   -37858   -33593 
  -23260    -9058     1316     5112     7184    11067    14593    14426 
   10990     5931     -202    -5208    -5570     -924     4762     7939 
    8387     7107     5626     4719     3360     1829      244    -4326 
  -13073   -22990   -30152   -30870   -23947   -12845    -1609     7447 
   11848    10768     6567     3119     5254    13352    19468    17140 
    8549     -552    -5143    -1965     8594    21730    30703    32530 
   30823    29685    28591    25868    22212    18343    11634      324 
  -11789   -20520   -23225   -16618    -2918     9304    13412     9005 
    2533     -260    -1352    -2658    -3138    -5607   -13933   -26210 
  -35907   -36771   -27461   -13267    -2110      648    -4213    -9965 
  -10004    -2566     7565    11912     8195     2269    -2547    -9564 
  -18523   -20661   -10743     4746    15665    17288    10049    -2170 
  -12429   -17713   -21011   -22778   -22279   -24244   -31120   -34830 
  -28382   -18091   -12923   -12637   -14400   -18858   -25369   -31374 
  -36012   -38095   -36612   -32132   -23561   -12075    -3330     1179 
    5054     9782    14022    15727    13585     9613     5999     1221 
   -4495    -7368    -6570    -4099    -1699    -3053    -8569    -9823 
   -3322     2722     4765     5220      938    -7716   -11730    -9633 
   -9508   -13682   -17478   -18577   -16457    -9112      822     6077 
    7061    10428    15682    19448    24543    31311    32819    26902 
   22793    27492    33416    32103    26677    19880    10531     3732 
    3662     5011     4591     6073     9756    11673    12202    15735 
   20575    18663     9351      757    -4882   -12949   -25536   -37775 
  -42726   -38650   -29442   -18011    -6222     3067     9131    12534 
   14565    16092    13493     7847     5759     1436   -11346   -18913 
  -13290    -8016   -10509   -14723   -16592   -14767    -9144    -2160 
    1320    -3377   -12565   -18517   -20981   -23207   -24426   -23409 
  -23754   -28273   -33076   -35175   -35673   -33670   -29276   -25795 
  -23926   -22893   -22978   -22388   -18292   -11024    -4104      962 
    6130    10431    11497    10291     7847     6735    10223    14955 
   14990    10201     5706     5142     6836     8430     8752     6566 
    4725     6342     7122     3789      757     -257    -2493    -4106 
   -1584      263    -4357   -10180   -10019    -8575   -12449   -17775 
  -18900   -16599   -12190    -4789     3608    10247    16471    22387 
   24432    23240    22161    18488    10862     6863    10056    14029 
   14570    13450    12768    14046    16379    15736    11119     3951 
   -4644   -10318   -10899   -11232   -14731   -18555   -18526   -15290 
  -12927   -13491   -17559   -22701   -23333   -18991   -13686    -8510 
   -2250     4522     9393    11654    11678     8415     2513    -2735 
   -4467    -2612    -1173    -1957    -1782    -1402    -1888     1308 
    6138     4932    -1236    -6431    -8954   -10012   -10550   -11402 
  -14689   -21099   -26792   -26777   -19911   -10941    -7079    -9508 
  -13601   -16302   -14848    -8780    -4887    -5733    -5493    -3555 
   -2914    -1966       68     2677     6126     7263     3906      -32 
     294     6168    12888    13230     9148     8752    11045     9595 
    4222    -1787    -6010    -7963    -9945   -11762   -10906    -8900 
   -8756   -10982   -14062   -16020   -17988   -21045   -21404   -17716 
  -14399   -14399   -16382   -16872   -12810    -3242     7827    13887 
   14971    13518     9520     6346     5486     4347     4110     5248 
    4870     3867     5532    10682    17872    24264    27332    26465 
   22081    14854     6470     -267    -3805    -5343    -6408    -7237 
   -7504    -6147    -2490     2282     6004     6336     2027    -4305 
   -8147    -9850   -12860   -17250   -20758   -20575   -15732    -9813 
   -6130    -4565    -3346    -1119     -319    -3005    -5672    -6164 
   -6237    -5938    -4585    -3307    -2840    -2227     -550     1642 
    3812     6345     8499     8330     6111     5227     7160     8251 
    5547      966    -3451    -7569   -10060   -10184   -10339   -11789 
  -12968   -13698   -14818   -14702   -12352   -10222    -8904    -7241 
   -7150    -8463    -7335    -4475    -3616    -3762    -2146     -252 
     -25     -361     -858    -1301      -59     1420      125    -1923 
   -1792    -2273    -5254    -7011    -6134    -6203    -9336   -13416 
  -15500   -14809   -11854    -7947    -4858    -3186    -3920    -8399 
  -13968   -16217   -16402   -18922   -21537   -19273   -14924   -12887 
  -11670    -9786    -8260    -7624    -8337   -10939   -14000   -14918 
  -12418    -7092    -2216    -1610    -4202    -6593    -8266    -8236 
   -5100    -2087    -2485    -3507    -1894     -270     -206     2263 
    5914     5508     3767     3981     3333     2214     3952     7492 
    9756    10307    10080     9019     7715     7777     9936    14434 
   19820    22578    21196    17188    12353     8209     6559     6556 
    4584     1113     -128      288      526      841     -741    -5355 
   -9427   -10943   -11317   -10779    -9768   -10982   -14762   -17466 
  -16684   -13495   -10008    -8078    -9285   -12700   -13759   -10442 
   -6396    -3955    -2330    -1471     -594     1688     3719     3030 
