Origin Time       2024/04/02 04:24:00
Lat.              40.133
Long.             141.712
Depth. (km)       71
Mag.              6.0
Station Code      IWTH09
Station Lat.      40.0861
Station Long.     141.7120
Station Height(m) 240
Record Time       2024/04/02 04:24:48
Sampling Freq(Hz) 100Hz
Duration Time(s)  131
Dir.              6
Scale Factor      3920(gal)/6170801
Max. Acc. (gal)   201.582
Last Correction   2024/04/02 04:24:33
Memo.             
[...]
   16700    16701    16704    16704    16704    16703    16700    16700 
   16701    16702    16702    16700    16697    16700    16702    16701 
   16702    16704    16702    16701    16704    16704    16700    16700 
   16704    16704    16700    16700    16702    16701    16702    16703 
   16701    16699    16702    16703    16702    16701    16701    16703 
   16700    16698    16701    16703    16701    16699    16702    16704 
   16702    16701    16703    16701    16698    16701    16702    16703 
   16703    16701    16702    16703    16701    16700    16703    16702 
   16700    16702    16703    16700    16701    16703    16701    16700 
   16701    16703    16705    16703    16700    16700    16701    16702 
   16703    16702    16702    16701    16701    16702    16702    16703 
   16704    16701    16701    16704    16703    16700    16701    16704 
   16704    16702    16704    16702    16699    16700    16703    16705 
   16703    16701    16701    16700    16700    16701    16701    16702 
   16701    16700    16701    16703    16701    16699    16701    16702 
   16701    16701    16702    16702    16701    16703    16703    16700 
   16701    16703    16701    16701    16702    16701    16700    16700 
   16700    16703    16704    16700    16700    16703    16704    16702 
   16701    16703    16702    16702    16704    16703    16703    16703 
   16701    16701    16702    16703    16704    16701    16699    16702 
   16701    16701    16703    16703    16702    16700    16702    16706 
   16705    16701    16701    16704    16704    16701    16701    16704 
   16705    16704    16704    16703    16702    16702    16703    16704 
   16702    16701    16702    16701    16700    16701    16701    16702 
   16703    16703    16703    16701    16701    16705    16704    16702 
   16703    16703    16702    16701    16700    16699    16702    16703 
   16702    16703    16702    16701    16702    16703    16703    16702 
   16702    16704    16703    16704    16703    16702    16703    16703 
   16701    16701    16703    16703    16701    16703    16705    16703 
   16702    16704    16705    16703    16702    16702    16701    16702 
   16704    16702    16701    16703    16705    16703    16701    16703 
   16703    16702    16702    16703    16703    16702    16703    16704 
   16703    16703    16703    16701    16700    16702    16705    16702 
   16699    16701    16703    16702    16702    16702    16701    16702 
   16703    16701    16701    16704    16702    16701    16701    16700 
   16702    16703    16702    16702    16702    16703    16702    16701 
   16702    16702    16702    16703    16703    16703    16703    16702 
   16703    16704    16701    16701    16704    16704    16703    16703 
   16702    16702    16701    16701    16702    16702    16703    16704 
   16701    16700    16703    16704    16702    16702    16701    16700 
   16702    16704    16702    16702    16703    16701    16700    16700 
   16701    16703    16702    16702    16703    16702    16702    16704 
   16705    16705    16701    16699    16703    16704    16703    16703 
   16703    16703    16703    16703    16704    16704    16704    16704 
   16703    16703    16702    16702    16702    16702    16704    16702 
   16702    16705    16703    16702    16704    16702    16703    16706 
   16703    16702    16705    16703    16702    16703    16705    16704 
   16702    16703    16705    16702    16701    16704    16706    16703 
   16700    16703    16706    16701    16700    16705    16706    16703 
   16702    16702    16703    16704    16701    16700    16701    16703 
   16704    16702    16700    16703    16704    16702    16702    16702 
   16704    16703    16703    16702    16701    16702    16703    16702 
   16702    16703    16703    16702    16702    16703    16703    16699 
   16700    16704    16702    16700    16703    16703    16700    16702 
   16704    16703    16703    16701    16701    16703    16702    16702 
   16703    16702    16701    16703    16703    16701    16701    16703 
   16702    16702    16702    16697    16701    16706    16703    16700 
   16702    16703    16702    16701    16703    16703    16702    16701 
   16699    16700    16702    16701    16701    16704    16704    16702 
   16704    16703    16701    16702    16703    16702    16701    16701 
   16701    16703    16703    16701    16702    16703    16703    16703 
   16703    16704    16704    16702    16703    16705    16704    16702 
   16703    16704    16702    16701    16702    16703    16704    16703 
   16702    16704    16702    16700    16706    16706    16702    16703 
   16704    16702    16702    16703    16703    16700    16698    16701 
   16704    16702    16701    16701    16701    16700    16700    16701 
   16702    16703    16702    16702    16704    16705    16701    16701 
   16703    16702    16701    16703    16702    16700    16700    16702 
   16704    16705    16704    16702    16702    16703    16703    16702 
   16705    16706    16701    16702    16705    16703    16702    16704 
   16704    16703    16705    16704    16700    16703    16706    16703 
   16702    16703    16702    16699    16698    16701    16703    16701 
   16701    16705    16703    16697    16700    16705    16702    16699 
   16702    16700    16698    16702    16704    16701    16699    16700 
   16703    16703    16702    16702    16703    16699    16699    16705 
   16703    16698    16703    16737    16907    17531    19128    21944 
   25033    26206    23772    18510    13727    12844    14870    13814 
    8156     5291     7603     7575     4488     4707     9489    19480 
   31973    35559    25295    11576     7710    11817    14284    21216 
   34390    30408    11959    19188    41825    30578     4253     9544 
   29919    31014    14461    -1150    -3311    -1004    -9394   -13634 
    6620    47025    78577    53813    -6427    -9570    27657    13024 
  -19205    -9736    10338    26383    48473    63551    44163    -1461 
  -23097    -8070    33090    68928    49113     5390   -10089   -10030 
    2579    32690    45748    10451   -35909    -9282    66266    67863 
    5000   -23996    -4400    38871    54566    23568     9246     9937 
    -895    11488    32527    23002   -10967   -31954   -14416     3314 
    3799    28487    76131    73917   -18558   -76494      382    60806 
    2547   -42814     4556    65724    68060    47486    58232    51928 
    -466     8679    87021    67347   -25883   -28591    -4229   -31245 
  -32882   -10689    14082    47463    31190    -5854    13381    49063 
   33578   -12880    -4435    35907    24282    37526    79006    12595 
  -38999    39875    30522   -83597   -60217    62881    90437    22294 
   -6223    52177    57753   -35493   -50172    40066    85536    36618 
  -18875    -2420    15199     7872    22220    23153    35679    62941 
   36093     3718     9406     6099    -7938     5970    47426    54335 
   -7101   -36039    20695    35314   -19199   -10215    53887    51452 
  -14322   -29528    43744    77806    12294   -17332    16150    12004 
   -9472     8805    32478    17747     2720    22721    28504    23515 
   52245    69376    34858   -20878   -19899    33864    14230   -33875 
   -8551    24292    49521    58014    28634    16462    -7334   -34628 
    9487    51197    31648     8786     7641    24423    33015    13173 
    3121    10518    19322    31974    26893    13212    37030    54922 
   -2301   -43147    12108    42878     6964    18976    52451    21956 
  -12123     8927    36960    25355    23237    43651    17333    -5694 
   24274    15961   -21871      691    35607    14380   -19538   -21465 
    2951    44144    67906    37982   -11808   -29291    -9669    30365 
   55262    37635    22442    31735    15214    -6873     4692    21838 
   37537    42801    21954     -204     2389    38792    58016    -3474 
  -54217    13935    78403    21015   -32548    14438    62117    25897 
  -41641   -40979    35041    71192    16600   -21951     5390    33979 
   40682    25384    -2516     3416    34262    45384    22180   -25652 
  -19762    57618    67782    -3488   -14661    29396    29961    -3956 
  -16063     9486    55099    65480     6662   -36533    16191    71152 
   32626   -27109   -21177    28530    53869    38467     6801   -20926 
    5163    50163    13878   -21608    27888    49846     3985    -7268 
   31286    36967     6234     3655    19701    26479    33545    24477 
    7240    -1587   -11684    19873    73209    36691   -35788    -9294 
   50126    38437     1655    -3397    18429    38913    31114     1544 
   -7878    27532    47637     -356   -35023    12048    57512    31018 
   -1382    18686    38452     9451   -23181       70    51562    48935 
    2669    -6031     6065    -1772    19165    62869    35218   -24181 
    5399    39818     5012    26218    60600     -195   -38190   -11880 
   15606    49731    40140    -6751    21429    77533    36115   -36492 
  -14696    43285    33409     4947    24117    45585    13102   -34684 
   -3037    72362    51643   -30238   -25512    44194    50898     8659 
   16673    26402   -12302     2918    52982    24397   -18339     9610 
   49667    30239    -7740    13067    41308     3623   -28990     9350 
   51539    34750     7241    24201    44192    14570   -23260      183 
   43185    18482   -17091    11300    41127    38543    20603   -13588 
   -9391    36274    34653     1329     1350    19693    51101    63461 
    3047   -38952     3694    42163    37032     7894    -8542    20896 
   27521    -4569     7288    35963    23596     3604    14703    43073 
   25598   -14282    16356    51898     4134   -38672      -42    47518 
   35756    14787    23149    18105     3886    26613    40741    -8304 
  -30563    41241    84381    18082   -37113    -2698    31283    20830 
   21185    29506    16643     8055    19566    30404    33207    22956 
   -5850    -3051    27052    15487    14316    43415    30164    11716 
    -687   -22904    10814    59468    52742    13798   -28229   -18884 
   38268    48392     7684     6721    39483    15630   -29363     1337 
   63116    67345     9449   -41114   -11459    36778    28139    21431 
   26772    23429    39309    25236   -15221     1776    30741    18833 
   13146    20000    22789    16313   -11218    -5756    47736    53993 
   10009    -1883    13736    16757    12174    21400    45991    35492 
  -19499   -15988    39893    31600    10180    29128     5953   -23787 
    5894    37992    43161    24243   -14088    -4261    63354    50229 
  -44338   -21217    83902    52942   -52510   -25235    68780    34377 
  -43860     8360    71176    24230     6084    49070    18137   -30453 
    4552    25331    12239    42261    57953    11735   -44275   -36378 
   58091   100767     4460   -52691    22498    67596    27307      -71 
    4203    19264    32471    18994     4280     4950     1354    27094 
   59341    18622   -33636    -3395    58953    38746   -22161    24446 
   65170   -20959   -33198    55253    65775    18546    -7589    -2555 
   -1987    -1656    53401    60604   -20054   -19009    45467    19961 
  -32515    11724    66766    25275   -20414     2136    31048    27006 
    3224    10264    52669    35922   -39607   -22722    81274    63357 
  -38550    -4098    74828    30387   -32365    -7785    41361    56876 
   35169   -19205   -35660    26509    60046    18123    -6661    10705 
   23567    22168    13986    16236    29637    10554   -28424     6548 
   87606    57709   -32073   -13159    39240    25139     2328    -9330 
   -9633    17819    35983    23874    16406    28828    35646    24414 
    -785   -18326    10688    51662    39235    15609    31556    26867 
  -24234   -23832    50386    68348    -4551   -31304    22362    35093 
   10874    39509    49288   -13997   -20246    41530    10905   -45019 
   36971    92007     2134   -34084    17098    37351    43220    23519 
  -15201    21109    68518    16403   -29834    11362    33998    22715 
   36662    22563   -20446   -19211    15372    34434    29117    26348 
   26578    11410     6179    12860    11057    19722    38013    34188 
    1128   -18266     8647    42832    39001    -2485   -19883    27642 
   57491    14487   -14687    44423    84182    -8750   -63983    35669 
   63296   -21735     4803    66585     6220   -23824    48921    56638 
  -26422   -47565     8928    44817    57907    42872   -12820   -15081 
   33187    29770    10681    21918    16610     6959    23023    28583 
   16146    11994     -827    -7087    45420    80298    10236   -48779 
    3883    61947    36706    -8645    -2109    27965    16110      568 
   30753    28089   -13965     1582    49163    51546     6724   -36516 
  -12089    52919    61708    21942    12810    36260    30722   -13125 
  -30071     9293    47412    56159    47543   -12517   -70752   -19944 
   46025    27025     9590    29913    46393    51118    36174     4729 
  -14726     5661    38379    46325    48587    30235     5130    21295 
    4088   -72130   -77897    20913    89535    71990    73094    79686 
  -20630  -130668   -98931    24669   110393   109565    79815    46034 
  -22301   -49512   -19368   -37014   -48924    39791   150171   147392 
   -3794  -156385  -104060   141524   256050    23403  -186087   -63102 
   26493    -2087   149713   178941   -54362   -74922    49304   -60145 
 -209032   -92690   183207   279155    88830   -57711   -34895   -89676 
 -118987    32448   107800    80055   182126   241022   -15053  -300626 
 -245332    -3443   157135   220650   155573   -30061   -45757   116108 
   23397  -237539  -136224   187939   149382  -116690   -68618    81464 
  -51597   -97759   107842   109203   -55530    -3719   110783    61513 
   -4866    21738    83662    75417   -36165  -101665   -45049    56569 
  129394    50989   -71210    29976   125143   -48650  -168206   -46992 
   52494    56041   101097    96945   -42450   -86986    41208    97574 
   43251    48891   109408    87362   -56038  -186178  -127047    93600 
  210855    84342   -68060   -65466   -39798   -43786    59960   154745 
   42391   -45648    56043    65887   -48350   -39717    40310    58042 
   31458    -9939   -10645    30454    18819   -20035    -6121    24069 
   77073   123336    24673  -118429   -96852    37945   115558    69830 
    1057     -852   -15202   -48496     5484    84708    57459     7671 
   50504    62919   -28382   -53203    51855   114722    20565   -96854 
  -53144    76279    96468    19375   -15614    13076    28654    30175 
   41597    -2863   -69071   -24315    69131    84507    58528    17915 
  -55745   -85865   -14283    97646   132602    37907   -37137    28742 
   66488   -30752   -77415    21212   106191    78041     9981   -40716 
  -58566   -10189    49521    18795   -25716    35049    82067    16669 
  -12972    27973     9613   -20384    34053    97025    75845     2094 
  -18551    32701    53334     6213   -12211    35545    43925    -1540 
    -855    17640      -17    -9166     5272    39811    71056    35704 
  -29462   -23026    35326    48656     7674   -13358    17678    36057 
  -13103   -52125     5377    62783     7730   -52096   -11390    36083 
   23151    -4784   -13508    -1356     9940    14035    37041    61420 
   29113   -29431   -15469    49520    62273    17950    -9750    25589 
   61197    10913   -42722   -11360    29812    33301    26235    25952 
   39419    35667     1115    -7945    32435    62358    48689    29315 
   18882     8239     6712    11459    12976    16974    27819    20211 
  -10363    -4525    36638    34069     3649    16838    41103    34504 
   22361     7920       42     5064    -5400     2516    45977    45952 
   -7843   -31129    13283    67506    46131   -24034   -24672    41791 
   69636    32537   -23776   -29687    35100    70595    20241   -43010 
  -36376    33774    64851    34940    20682    20989    17509    20524 
   11684     -665    15983    44607    46323    37058    21011   -17012 
   -4922    47693    29984    -5033    20122    37377    20225    19610 
   19503   -11213      860    60290    34599   -36742    -6059    59630 
   52495     4609   -36151   -27799    14871    22213    23379    50104 
   43442     1625   -21187   -16746     8959    47815    49211    14320 
    7929    -3929   -40725    -8313    54869    31425    -9919    21750 
   41224      411    -9924    19437    24692    17558    23930    29831 
   10160   -18509     4444    57049    53055     9146   -14076   -14155 
   19277    56268    37069    16053    32074    21845    -6885    -4289 
    6672    14394    44239    66111    35940    -9963   -20178     6214 
   45337    58048    41197     9776   -36904   -27659    55496    88992 
   33411   -25792   -19155    28767    33468     2096    -5119     9161 
   33510    39903     2013   -19683     6257    23207    31800    54421 
   41596    -2754   -11271    11021    26851    30455    18713     9613 
   23108    28005     5276     -393    28015    40637    25324    14957 
    9492    13227    38523    46320    12461   -16575    -5072    23094 
   32614    27890    30848    20765    -5482     5646    37410    28352 
    -355     2860    35203    45791    15808   -12581    -7898    16460 
   24654    19172    24236    20273    11528    14022    -1238   -14472 
    3760    20079    20121     2190   -20153     4071    45102    27785 
   -8670     4107    31673    19577   -11731   -11440    21883    40382 
   21647     1751    10584    26077    27481    28321    23804     1168 
   -6011    18967    42047    42875    25038     9339    11766    17787 
   18162    16226    24196    40757    21594   -20564    -3601    53640 
   48592    -3313    -3396    27792    21544     2384    -1884     8981 
   32153    32378    10715    12200    35889    40519     8847   -12007 
   18259    46608    23038    -3884    22312    57338    32477   -11284 
   -4810    23205    23865    11931    15664    24565    18239     9056 
   12290    12128    10033    23357    20474    -2309    11126    39478 
   28532     6963    13873    32515    21759    -3288    13045    42780 
   32941    14762    15372    16492    20733    31148    26779    13820 
   17884    24857    14369    12601    26875    25478    15902    13946 
    5532     -552    12964    30061    30729    25916    20412     1913 
   -1235    25613    34163    15558     9208    16220    12885     2911 
    8490    22689    23461    15053     4367     4346    21286    15930 
   -9019     2472    28917    15852       45    19979    22383    -4653 
    4238    31211    16540    -2484    16721    36049    17451   -12840 
   -6165    24120    36801    29233     8321    -3194     7297    15896 
   26621    35158    17974     7802    20471    15068     -891    15752 
   42194    33828    17222    19923    12326    -2646    11529    41066 
   41045     7676    -7555    17247    32225    19009    20239    38660 
   32910     4316    -4356    13763    21372    16445    25253    26547 
    1654   -15702     5202    42586    35333     -319    13022    35961 
    7107   -14297     8691    34293    32666    13755     7840    14813 
   19615    30862    33429    10794     2421    22380    32997    31277 
   22017     7858    19273    32528    16342    13117    26456    18068 
    4670    14246    30826    23102    -2234    -6060    19565    39494 
