Origin Time       2024/04/02 04:24:00
Lat.              40.133
Long.             141.712
Depth. (km)       71
Mag.              6.0
Station Code      IWTH10
Station Lat.      40.1391
Station Long.     140.9529
Station Height(m) 208
Record Time       2024/04/02 04:24:51
Sampling Freq(Hz) 100Hz
Duration Time(s)  139
Dir.              1
Scale Factor      3923(gal)/8224838
Max. Acc. (gal)   11.487
Last Correction   2024/04/02 04:24:51
Memo.             
[...]
    -884     -884     -884     -882     -884     -886     -886     -884 
    -885     -886     -885     -886     -886     -885     -885     -886 
    -886     -888     -888     -885     -882     -884     -886     -885 
    -885     -888     -888     -884     -882     -885     -886     -886 
    -886     -885     -884     -886     -888     -884     -881     -886 
    -889     -886     -885     -886     -885     -884     -884     -885 
    -886     -888     -884     -884     -886     -886     -885     -885 
    -885     -886     -886     -885     -886     -885     -885     -888 
    -886     -882     -884     -886     -885     -884     -884     -885 
    -888     -886     -885     -885     -886     -885     -884     -885 
    -885     -884     -882     -884     -888     -888     -882     -884 
    -886     -884     -884     -884     -884     -885     -886     -886 
    -885     -884     -882     -884     -889     -889     -884     -884 
    -885     -885     -885     -885     -886     -884     -885     -886 
    -882     -882     -885     -885     -884     -884     -884     -882 
    -884     -886     -886     -884     -885     -886     -886     -885 
    -885     -884     -885     -888     -886     -884     -885     -886 
    -886     -886     -884     -885     -886     -885     -884     -884 
    -885     -886     -886     -886     -888     -886     -886     -888 
    -886     -884     -884     -884     -884     -885     -885     -884 
    -884     -885     -884     -884     -888     -886     -885     -885 
    -882     -882     -886     -891     -888     -884     -885     -886 
    -888     -885     -884     -886     -885     -881     -886     -886 
    -882     -886     -889     -886     -885     -885     -885     -885 
    -884     -884     -885     -885     -884     -884     -884     -885 
    -888     -888     -885     -882     -881     -885     -888     -882 
    -882     -888     -888     -886     -885     -884     -885     -885 
    -886     -885     -884     -882     -884     -886     -884     -884 
    -888     -882     -881     -885     -885     -884     -886     -885 
    -884     -888     -886     -884     -886     -886     -881     -884 
    -885     -884     -885     -885     -884     -885     -886     -884 
    -885     -888     -885     -882     -884     -882     -884     -886 
    -886     -888     -886     -884     -882     -885     -886     -885 
    -885     -884     -880     -884     -888     -884     -884     -888 
    -886     -884     -886     -888     -885     -885     -885     -884 
    -885     -886     -885     -885     -888     -886     -884     -884 
    -886     -885     -884     -882     -882     -884     -882     -884 
    -886     -888     -886     -885     -885     -884     -882     -884 
    -885     -885     -885     -882     -884     -886     -885     -886 
    -888     -884     -884     -889     -891     -886     -881     -884 
    -886     -885     -885     -886     -885     -884     -886     -886 
    -884     -884     -886     -885     -882     -884     -885     -884 
    -885     -884     -881     -881     -885     -888     -882     -878 
    -882     -884     -881     -881     -881     -881     -884     -884 
    -878     -866     -851     -830     -799     -773     -760     -750 
    -756     -784     -828     -885     -957    -1028    -1093    -1135 
   -1138    -1074     -918     -689     -473     -344     -318     -360 
    -459     -679    -1032    -1364    -1539    -1588    -1648    -1795 
   -1819    -1362     -538       -4     -180     -766    -1125     -919 
    -352      -45     -330     -855    -1112     -912     -567     -411 
    -332     -496    -1170    -1734    -1684    -1516    -1771    -2488 
   -3434    -3963    -3281    -1586       27     1009     1622     1972 
    1552       -5    -1858    -2336     -753     1467     2282     1428 
     367      179       67    -1480    -3905    -4531    -2320      317 
     459    -1992    -3748    -1784     1912     2905      602    -1645 
    -928     1756     1962    -2301    -6597    -5714     -777     2953 
    2835      853      -74      -54    -1209    -3704    -4843    -2284 
    2232     3531    -1148    -7456    -8482    -4803    -3225    -5798 
   -7620    -3947     3262     6596     2535    -3515    -3981      631 
    2660     -639    -3406     -595     5266     7279     2219    -5302 
   -7938    -4233      328     1105     -535    -1247    -1096    -1609 
   -1709     -153     1557     2397     3978     7396    10791    10552 
    4101    -5833   -10928    -6891      -93      974    -3246    -5281 
   -1098     4363     2546    -6728   -12634    -8113      920     4895 
    1734    -2020     -479     3136     1540    -5722   -10243    -5340 
    3694     6048     -849    -9455   -11299    -6330    -2301    -3558 
   -5549    -2812     2713     3414    -2960    -7703    -3537     4009 
    4845    -1321    -5185     -899     6631     7028    -1842    -7885 
   -1803     8766    10804     2579    -4901    -2705     3971     4293 
   -2461    -5626     1286    10048     8907    -1880    -9914    -5836 
    3458     4499    -3925   -10714    -7600     1316     5521     1344 
   -3334     -333     6312     6558     -623    -6080    -3564     2172 
    2857    -2732    -7561    -4843     1544     1655    -5088    -9721 
   -6660      225     2376    -2785    -7979    -6219     -330     2004 
    -770    -3088     -664     3946     4806      630    -3345    -2168 
    2396     3796      -39    -3454    -2323      117     -924    -5351 
   -7819    -3824     2955     4530      147    -2830      487     5528 
    4172    -3935    -9899    -6282     2636     5715      216    -5220 
   -3659     1147     1208    -3892    -6763    -3331     1826     2158 
   -2083    -4220     -793     3006      834    -4857    -6201    -1239 
    4244     4361     -468    -4286    -2890      527      403    -2452 
   -3419    -1320      862     -464    -3411    -2371     1826     3406 
    1004    -1860    -1776     1001     2673      924    -1067      436 
    3040     2421     -885    -2959    -1050     2756     3438      450 
   -1885    -1223      324     -171    -2839    -5185    -5200    -3657 
   -2477    -2397    -2612    -1625     -121     -379    -1502     -984 
     884     2258     1680     -901    -3512    -4216    -2560     -160 
     465     -315     -500      120      903      961     -633    -2870 
   -3289    -1512     -147     -685    -1521    -1695    -1710    -1433 
   -1094    -1181    -1117     -203      796      -70    -2285    -2924 
   -1580      253     1668     1926     1768     2104     1773      361 
    -928    -1085        4      415    -1424    -3607    -4233    -4218 
   -4595    -5105    -4558    -1410     3121     4741     2057    -1090 
   -1331       49      -40    -2201    -3856    -2501      365     1036 
   -1026    -2905    -2583    -1047     -162     -357     -267     1258 
    1946     -961    -5144    -6727    -5576    -3476    -2177    -2511 
   -2763    -1158     1134     1800      606     -220      460     1174 
     704     -727    -1761    -1023       60    -1383    -4519    -5576 
   -3801    -1807    -1228    -1633    -1471      456     2486     2027 
     -76    -1117     -352      729      315     -972     -614     1414 
    2371     1032     -648     -548      510      499    -1273    -3985 
   -5150    -3558    -1647    -1522    -2516    -2884    -1563       90 
     330       40       48      198     1026     1632      818     -261 
   -1229    -2560    -3141    -2681    -2424    -2805    -3697    -4222 
   -2502      405      961     -631    -1455     -696      614      760 
   -1150    -2828    -1613      846     1159     -675    -1840     -311 
    2714     4071     2542      114     -444     1154     2533     2043 
     487     -270       86     -120    -1256    -1792    -1046      287 
     853     -114    -1082     -175     1382     1368     -140    -2184 
   -3898    -4342    -4105    -4263    -3924    -2517    -1578    -1983 
   -2758    -2768    -2097    -1593    -1626    -2111    -2046     -753 
    -251    -1971    -4152    -4738    -3114     -839     -251     -931 
    -978     -112      437     -542    -2587    -3249    -1197     1321 
    2130     1918     1895     2409     2389      469    -1683    -1505 
     222     1390     1389      661      297      843      926     -764 
   -2548    -1653      931     1692       47    -2057    -2936    -1958 
    -577     -738    -2023    -2620    -2022    -1352    -1540    -2650 
   -3759    -3518    -2544    -2471    -2961    -2894    -2393    -2064 
   -2465    -3746    -3800    -1070     1679     1858      302    -1410 
   -2046    -1170     -113        8      722     2566     2743      828 
    -660     -922     -191      302     -877    -2011    -1603    -1233 
   -1695    -2158    -2262    -2052    -1934    -2289    -1977      -14 
    2000     1819     -426    -2114    -1514     -160      -37    -1004 
   -1624     -797      513      145    -1790    -2997    -1977      373 
    1633     1291     1086     1318     1229      538    -1213    -2855 
   -2570    -1485     -950     -457     -232     -537     -719     -619 
    -155      758     1556     1591      726     -190     -399     -394 
    -780    -1633    -2257    -1568     -346     -352    -1553    -2625 
   -2417    -1474    -1526    -2493    -3153    -2816    -1502     -992 
   -2006    -2486    -1988    -2110    -3511    -5514    -6210    -4290 
   -1425     -517    -2101    -3925    -3782    -1954     -703    -1169 
   -1640     -380     1501     1917      738     -444       18     1906 
    2513      329    -2380    -2749     -504     1975     1861     -322 
   -1179      364     1949     1840      796      413     1416     2569 
    1827     -180     -600     1128     2394     1030    -2069    -3937 
   -2948     -973     -959    -2506    -2569     -324     1854     1674 
    -514    -2367    -2574    -1876    -1633    -2147    -2096     -970 
    -245     -893    -2062    -2396    -2035    -2047    -2650    -3349 
   -2972    -1468    -1151    -2782    -4186    -3943    -2789    -1965 
   -2062    -2721    -2790    -1625     -232     -149    -1282    -1730 
    -731      167      121      -35      363      889      486     -656 
   -1235     -814       24     -152    -1372    -1379       56     1151 
    1227      670      934     2826     4402     3518     1155      307 
    1800     3073     1632    -1649    -3311    -1946        6      195 
    -662     -378     1136     1491     -471    -3063    -3647    -1768 
    -457    -1814    -3555    -3180    -1549     -598    -1036    -2307 
   -2824    -2116    -1891    -2493    -2477    -1809    -1140     -904 
   -1637    -2332    -1717     -696     -287     -459    -1406    -2416 
   -2258    -1470     -912     -751    -1379    -2114    -1464        1 
     693      865     1017      481     -618    -1273    -1089     -214 
     584      -67    -1983    -3082    -2266     -652     -264    -1281 
   -1593     -464      697      703     -661    -2122    -1871     -249 
    1075     1202     -108    -1563    -1575    -1127    -1471    -2127 
   -2749    -3298    -3435    -3439    -3882    -4187    -3599    -2853 
   -2623    -2257    -1522     -999     -685     -685    -1290    -1331 
    -113      881      719     -198    -1296    -1717    -1212     -610 
    -454     -423     -332     -577     -808     -106     1225     2169 
    2016     1117      723      656      147     -211      -40      949 
    2654     2874      811    -1121    -1250     -217      155     -847 
   -1499     -704      -14     -915    -2423    -2478     -787      305 
   -1443    -4421    -4926    -2371       33     -166    -1458    -1086 
     955     2274     1278     -615    -1005     -221     -436    -2066 
   -3361    -2733     -963     -656    -2590    -4109    -2708       83 
    1282      918      666     1090     1437      573    -1355    -2635 
   -2064     -805     -918    -1923    -1721     -606     -152     -461 
   -1399    -2292    -1817     -904    -1148    -1786    -1630     -778 
    -112     -792    -2763    -4360    -4280    -2706    -1088     -908 
   -1950    -3026    -3555    -3192    -2043    -1190    -1119     -904 
     -28      769      643     -670    -2330    -2752    -1732     -473 
     -63     -557     -402      784      615    -1757    -4125    -4059 
   -1102     2349     3554     2539     1536     2228     3396     2475 
    -237    -1634     -359     1327     1181     -263    -1150     -268 
    1329     1104    -1088    -2443    -1012     1830     3073     1614 
    -928    -2285    -1800    -1026    -1493    -2762    -3469    -3183 
   -2524    -2043    -1715     -773      940     1825     1242      606 
    1208     3119     4684     4352     2832     1360      256     -641 
   -1652    -2610    -2790    -1888     -681     -113      226     1036 
    2014     2907     3442     3458     3759     4761     5664     5543 
    4672     4147     3753     2911     2199     1571      955      957 
     912      -64    -1919    -4164    -5676    -5929    -5529    -5074 
   -5171    -6296    -8102    -9891   -11261   -12083   -12046   -10841 
   -9269    -8297    -7730    -7257    -6705    -5915    -5258    -5055 
   -5147    -4880    -3607    -1221     1659     3384     3110     1728 
      90     -739       89     1939     4330     7348    10249    11988 
   12405    11695    10103     8403     6804     5213     4696     5517 
    5860     4610     2717     1345      835      758       66    -1945 
   -4750    -7458   -10235   -13833   -18239   -22408   -24968   -24808 
  -21281   -15438    -9976    -6516    -4661    -3007     -353     2208 
    2199     -353    -3441    -5914    -7715    -9990   -13656   -17091 
  -18145   -16630   -13923   -11947   -10882    -8769    -5502    -3927 
   -5256    -7132    -6729    -3227     1748     5715     8332    11129 
   14341    16113    15408    14065    14438    16389    18014    18092 
   16781    14697    12050     8247     3092    -1464    -3051    -2355 
   -2382    -4083    -5219    -3379     1075     4569     4722     4247 
    6885    12133    16059    15522    11192     6347     3001      -48 
   -4353    -8052    -8654    -7974    -9566   -13732   -18090   -20063 
  -18613   -15989   -14640   -12541    -7103      244     7114    12120 
   14373    14226    12880    12047    13181    14405    11743     4993 
   -1887    -6361   -10019   -14897   -19057   -18716   -13572    -7553 
   -5171    -7114    -8769    -6019    -1316     1336     2956     5773 
    8522     8692     6304     3740     1999     -197    -3304    -5721 
   -4959    -1228      625    -2536    -7110    -7722    -3456     1830 
    4232     3789     2994     3283     3717     2836     1206      380 
     367       59    -1113    -2965    -5034    -6743    -6947    -4228 
     468     3235     1787    -1233    -1185     2851     6259     4071 
   -2533    -7113    -6273    -4031    -5549   -10477   -13981   -11848 
   -5497    -1013    -1649    -4596    -5363    -2685      662     1552 
     558      511     1934     2943     2454     2131     5071    10667 
   13749    11443     6278     1784     -949    -3353    -7303   -11098 
  -10628    -6590    -4442    -6381    -8777    -7024     -951     4704 
    6556     7003     9836    14357    16008    12237     6750     4804 
    5219     2880    -3283    -9697   -12748   -12968   -13625   -14544 
  -11946    -4530     3734     8104     8391     7939     8930     9413 
    6809     3227     1875     1856      810    -1360    -2893    -2380 
    -930    -1536    -4850    -7861    -7828    -5973    -5738    -7407 
   -8460    -7680    -5159    -1899      915     3210     4639     4720 
    4251     4153     4047     2848      756    -1048    -2830    -5242 
   -7013    -6643    -4463    -1771     -120     -831    -2836    -3365 
   -2335    -1775    -1653     -611     1435     2602      777    -2512 
   -4052    -3538    -2384    -2124    -2848    -2639    -1379    -1186 
   -3053    -5142    -4387    -1156     1221     1152     -324     -774 
     395      237    -3063    -7083    -8613    -7573    -6357    -6349 
   -6157    -4020    -1078      591     1048     1652     3650     6247 
    6285     2648    -1001     -776     2095     3469     1489    -1935 
   -3289    -1401     1738     3680     3248     1549      584       81 
    -808    -1513    -2224    -3393    -3919    -2876     -795     1366 
    2686     2735     2227     1952     1142     -954    -2708    -2446 
    -556     1363      583    -3150    -5791    -5096    -2870    -1949 
   -4067    -7311    -8002    -6339    -5171    -5098    -5053    -4113 
   -1972      -81      471     1121     3013     4989     5440     4881 
    5235     5821     4267     1013    -1703    -2893    -2876    -2411 
   -2168    -1663      990     5116     6304     3403      163    -1435 
   -2326    -3141    -4320    -5397    -4121     -783      872      264 
     -37      291     1098     2725     2978      683    -1329    -1557 
   -1337     -907     -170     -334    -1186    -1209    -1058    -2039 
   -3302    -4153    -5024    -5201    -4128    -2817    -1845    -1505 
   -2230    -2898    -1841     1155     4845     7021     6697     5302 
    3875     2010     -425    -3106    -4968    -4838    -3751    -3570 
   -3728    -2258      388     1674     1182      325      321     2587 
    5827     6500     4753     3410     3303     2560    -1016    -6115 
   -8896    -7663    -4125    -1846    -2540    -3742    -3114    -1962 
   -1985    -2652    -2728    -1572      105      191    -2097    -4449 
   -4569    -3480    -3694    -5935    -8488    -8626    -5671    -1791 
     861     1713     1358      932     1174     1773     1854     1432 
    1161      757       66      -87      386      589      -76    -1622 
   -3159    -3119    -1836    -1219    -1404    -2072    -3163    -2899 
    -702      935      118    -1826    -1885      603     2802     2227 
    -162    -1305     -184     1038      542    -1152    -2295    -1807 
    -581     -319    -1231    -1615     -652     -170    -1019    -1088 
     511     2099     1981     -271    -2558    -2783    -2520    -3130 
   -3453    -2951    -1906    -1013    -1215    -2008    -2509    -2810 
   -2944    -2604    -1605     -677     -603     -342     1024     2859 
    3883     2658      129     -616     1158     3288     3430     1578 
    -171    -1001    -1655    -2505    -3523    -3622    -1867     -432 
   -1475    -3126    -3277    -2592    -1863    -1225    -1012     -882 
    -225      189     -480    -1003      -75     1678     2855     1846 
   -1526    -4252    -4070    -2519    -1723    -2512    -4916    -7634 
   -8680    -7659    -5902    -4102    -2413    -1694    -2203    -2940 
   -2878    -2234    -2120    -2759    -3777    -5344    -6804    -6334 
   -4056    -2196    -1518    -1530    -1927    -1699    -1143    -2122 
   -3358    -2295      136     2216     3200     2867     3269     5269 
    5521     2579     -280     -149     2493     4793     4669     3518 
    4095     5877     5818     3522     1563     1952     4128     4892 
    2459     -253       32     1964     1667    -1381    -3222    -1389 
    1240      909    -1930    -3581    -1638     1510     1540    -1281 
   -2691    -1089      873      583    -1541    -2820    -1475      723 
     507    -2208    -4409    -4294    -2922    -2054    -2058    -2108 
