Origin Time       2024/04/02 04:24:00
Lat.              40.133
Long.             141.712
Depth. (km)       71
Mag.              6.0
Station Code      IWTH13
Station Lat.      39.9398
Station Long.     141.5492
Station Height(m) 570
Record Time       2024/04/02 04:24:48
Sampling Freq(Hz) 100Hz
Duration Time(s)  133
Dir.              6
Scale Factor      7845(gal)/8223790
Max. Acc. (gal)   24.485
Last Correction   2024/04/02 04:24:48
Memo.             
[...]
  -14620   -14616   -14608   -14616   -14623   -14615   -14609   -14617 
  -14620   -14608   -14611   -14624   -14619   -14609   -14617   -14624 
  -14615   -14611   -14621   -14623   -14612   -14615   -14621   -14615 
  -14612   -14621   -14621   -14611   -14612   -14623   -14619   -14609 
  -14619   -14625   -14612   -14609   -14624   -14624   -14611   -14612 
  -14621   -14615   -14608   -14619   -14623   -14613   -14613   -14623 
  -14621   -14611   -14613   -14624   -14620   -14611   -14619   -14623 
  -14612   -14613   -14624   -14621   -14611   -14613   -14624   -14615 
  -14609   -14623   -14625   -14611   -14612   -14624   -14617   -14608 
  -14617   -14623   -14611   -14609   -14621   -14620   -14611   -14616 
  -14623   -14617   -14613   -14621   -14623   -14612   -14612   -14623 
  -14620   -14608   -14615   -14623   -14615   -14609   -14620   -14624 
  -14612   -14612   -14624   -14617   -14608   -14620   -14624   -14612 
  -14611   -14623   -14624   -14611   -14613   -14627   -14620   -14609 
  -14616   -14621   -14616   -14613   -14621   -14620   -14608   -14612 
  -14623   -14615   -14609   -14619   -14623   -14616   -14615   -14621 
  -14619   -14611   -14617   -14624   -14612   -14611   -14621   -14621 
  -14613   -14615   -14623   -14619   -14609   -14619   -14624   -14613 
  -14612   -14621   -14621   -14613   -14616   -14621   -14615   -14611 
  -14621   -14623   -14609   -14613   -14627   -14620   -14608   -14615 
  -14625   -14616   -14609   -14621   -14624   -14608   -14611   -14623 
  -14619   -14611   -14619   -14625   -14615   -14609   -14620   -14621 
  -14612   -14617   -14627   -14619   -14611   -14619   -14625   -14613 
  -14612   -14625   -14621   -14611   -14617   -14625   -14617   -14611 
  -14619   -14623   -14613   -14613   -14623   -14620   -14612   -14617 
  -14624   -14616   -14609   -14619   -14620   -14609   -14613   -14625 
  -14617   -14609   -14619   -14623   -14615   -14613   -14620   -14620 
  -14612   -14615   -14624   -14619   -14613   -14619   -14623   -14613 
  -14611   -14621   -14621   -14609   -14616   -14625   -14616   -14612 
  -14620   -14621   -14612   -14612   -14623   -14620   -14609   -14617 
  -14625   -14615   -14613   -14624   -14624   -14612   -14612   -14623 
  -14619   -14607   -14616   -14623   -14612   -14609   -14621   -14621 
  -14611   -14615   -14624   -14615   -14609   -14623   -14623   -14612 
  -14616   -14623   -14616   -14611   -14619   -14625   -14616   -14612 
  -14620   -14620   -14612   -14613   -14620   -14619   -14613   -14619 
  -14625   -14616   -14612   -14624   -14623   -14612   -14613   -14623 
  -14620   -14612   -14617   -14624   -14612   -14611   -14624   -14621 
  -14612   -14615   -14623   -14619   -14609   -14616   -14623   -14613 
  -14615   -14624   -14616   -14607   -14615   -14623   -14616   -14612 
  -14621   -14623   -14613   -14615   -14624   -14617   -14608   -14616 
  -14624   -14615   -14612   -14623   -14623   -14609   -14616   -14627 
  -14615   -14608   -14621   -14625   -14612   -14613   -14624   -14620 
  -14611   -14616   -14623   -14616   -14613   -14621   -14623   -14612 
  -14613   -14625   -14619   -14608   -14619   -14624   -14613   -14611 
  -14620   -14621   -14611   -14613   -14624   -14617   -14608   -14617 
  -14624   -14613   -14611   -14621   -14619   -14608   -14617   -14627 
  -14615   -14612   -14623   -14623   -14615   -14613   -14621   -14620 
  -14609   -14615   -14627   -14615   -14609   -14623   -14620   -14609 
  -14615   -14624   -14619   -14611   -14619   -14624   -14612   -14612 
  -14621   -14617   -14611   -14616   -14621   -14615   -14611   -14621 
  -14624   -14616   -14616   -14623   -14617   -14611   -14619   -14624 
  -14615   -14612   -14624   -14625   -14611   -14613   -14627   -14620 
  -14609   -14617   -14625   -14615   -14609   -14624   -14624   -14611 
  -14615   -14623   -14617   -14612   -14620   -14625   -14613   -14611 
  -14623   -14617   -14607   -14616   -14624   -14616   -14612   -14621 
  -14623   -14611   -14612   -14625   -14621   -14609   -14619   -14625 
  -14613   -14609   -14621   -14623   -14609   -14612   -14625   -14620 
  -14611   -14619   -14624   -14615   -14612   -14623   -14623   -14609 
  -14615   -14627   -14616   -14608   -14621   -14623   -14612   -14613 
  -14624   -14621   -14612   -14617   -14624   -14615   -14611   -14620 
  -14624   -14613   -14611   -14623   -14621   -14611   -14616   -14624 
  -14613   -14608   -14619   -14621   -14613   -14613   -14624   -14619 
  -14609   -14617   -14623   -14612   -14613   -14625   -14621   -14611 
  -14615   -14623   -14615   -14609   -14623   -14624   -14611   -14613 
  -14625   -14619   -14609   -14616   -14624   -14615   -14609   -14621 
  -14623   -14613   -14615   -14623   -14617   -14611   -14619   -14624 
  -14612   -14612   -14624   -14619   -14609   -14617   -14623   -14615 
  -14612   -14623   -14624   -14612   -14613   -14627   -14620   -14609 
  -14616   -14624   -14616   -14611   -14623   -14625   -14613   -14613 
  -14623   -14617   -14611   -14617   -14625   -14619   -14611   -14620 
  -14624   -14612   -14613   -14624   -14616   -14609   -14619   -14623 
  -14613   -14612   -14623   -14621   -14611   -14617   -14625   -14616 
  -14611   -14620   -14621   -14613   -14612   -14621   -14619   -14611 
  -14617   -14625   -14615   -14611   -14620   -14624   -14615   -14612 
  -14621   -14620   -14611   -14617   -14625   -14615   -14611   -14621 
  -14621   -14611   -14613   -14624   -14616   -14611   -14621   -14624 
  -14613   -14613   -14623   -14619   -14609   -14616   -14625   -14619 
  -14612   -14620   -14621   -14613   -14615   -14621   -14617   -14611 
  -14617   -14627   -14616   -14611   -14623   -14621   -14612   -14615 
  -14623   -14616   -14609   -14617   -14624   -14612   -14609   -14621 
  -14621   -14611   -14615   -14624   -14617   -14611   -14619   -14621 
  -14611   -14613   -14623   -14616   -14608   -14617   -14625   -14616 
  -14612   -14623   -14624   -14611   -14613   -14625   -14619   -14611 
  -14620   -14627   -14617   -14612   -14621   -14624   -14613   -14617 
  -14627   -14620   -14609   -14617   -14623   -14612   -14609   -14621 
  -14621   -14611   -14615   -14621   -14613   -14612   -14620   -14621 
  -14612   -14612   -14625   -14621   -14611   -14617   -14623   -14612 
  -14609   -14623   -14624   -14612   -14616   -14624   -14619   -14611 
  -14619   -14625   -14613   -14609   -14620   -14623   -14611   -14613 
  -14623   -14616   -14609   -14620   -14624   -14615   -14612   -14621 
  -14624   -14613   -14613   -14624   -14617   -14609   -14620   -14623 
  -14611   -14615   -14624   -14619   -14611   -14617   -14623   -14613 
  -14609   -14621   -14623   -14611   -14612   -14621   -14617   -14609 
  -14619   -14625   -14615   -14612   -14621   -14619   -14612   -14616 
  -14623   -14616   -14611   -14621   -14625   -14613   -14615   -14623 
  -14617   -14611   -14617   -14623   -14615   -14611   -14621   -14623 
  -14612   -14615   -14624   -14617   -14611   -14620   -14627   -14616 
  -14609   -14623   -14625   -14611   -14613   -14624   -14619   -14612 
  -14619   -14625   -14616   -14612   -14624   -14624   -14611   -14616 
  -14625   -14616   -14609   -14619   -14625   -14615   -14612   -14624 
  -14620   -14608   -14617   -14625   -14616   -14611   -14621   -14624 
  -14615   -14615   -14624   -14619   -14609   -14616   -14623   -14613 
  -14611   -14623   -14623   -14609   -14613   -14625   -14617   -14609 
  -14619   -14623   -14612   -14609   -14621   -14623   -14609   -14615 
  -14624   -14617   -14613   -14619   -14620   -14615   -14615   -14623 
  -14620   -14611   -14617   -14627   -14615   -14609   -14620   -14621 
  -14612   -14613   -14624   -14617   -14609   -14619   -14624   -14613 
  -14611   -14620   -14619   -14609   -14612   -14623   -14616   -14608 
  -14621   -14625   -14612   -14612   -14624   -14620   -14611   -14620 
  -14627   -14613   -14608   -14621   -14623   -14609   -14613   -14624 
  -14619   -14612   -14616   -14621   -14615   -14612   -14621   -14623 
  -14612   -14615   -14624   -14619   -14609   -14617   -14625   -14615 
  -14609   -14621   -14620   -14609   -14616   -14624   -14616   -14609 
  -14619   -14623   -14611   -14612   -14623   -14619   -14609   -14615 
  -14624   -14615   -14609   -14623   -14625   -14609   -14613   -14628 
  -14620   -14609   -14617   -14623   -14615   -14612   -14624   -14623 
  -14608   -14613   -14624   -14616   -14609   -14620   -14624   -14613 
  -14613   -14623   -14619   -14609   -14616   -14623   -14615   -14612 
  -14620   -14623   -14613   -14613   -14623   -14619   -14609   -14617 
  -14624   -14613   -14611   -14620   -14620   -14613   -14616   -14621 
  -14615   -14609   -14620   -14623   -14612   -14612   -14621   -14619 
  -14608   -14615   -14628   -14616   -14607   -14619   -14621   -14611 
  -14615   -14624   -14617   -14612   -14619   -14623   -14615   -14613 
  -14623   -14621   -14611   -14615   -14625   -14619   -14609   -14620 
  -14624   -14611   -14608   -14621   -14621   -14611   -14617   -14624 
  -14616   -14612   -14621   -14623   -14611   -14613   -14623   -14617 
  -14611   -14617   -14624   -14616   -14609   -14619   -14624   -14612 
  -14615   -14625   -14616   -14608   -14619   -14624   -14613   -14611 
  -14623   -14620   -14608   -14616   -14625   -14615   -14608   -14619 
  -14623   -14615   -14613   -14623   -14620   -14611   -14617   -14623 
  -14613   -14611   -14620   -14623   -14613   -14612   -14624   -14619 
  -14609   -14619   -14624   -14615   -14612   -14621   -14621   -14612 
  -14615   -14624   -14615   -14608   -14620   -14623   -14612   -14615 
  -14624   -14619   -14609   -14617   -14625   -14617   -14613   -14620 
  -14620   -14612   -14613   -14621   -14619   -14612   -14617   -14621 
  -14612   -14612   -14623   -14621   -14613   -14616   -14621   -14617 
  -14612   -14617   -14623   -14615   -14612   -14624   -14623   -14612 
  -14616   -14624   -14619   -14611   -14621   -14627   -14612   -14612 
  -14623   -14620   -14612   -14616   -14624   -14619   -14611   -14620 
  -14624   -14613   -14613   -14624   -14620   -14611   -14615   -14621 
  -14615   -14611   -14623   -14623   -14608   -14613   -14625   -14617 
  -14611   -14621   -14625   -14612   -14609   -14623   -14620   -14611 
  -14617   -14624   -14616   -14613   -14620   -14620   -14612   -14612 
  -14621   -14620   -14613   -14620   -14624   -14613   -14609   -14621 
  -14623   -14612   -14616   -14624   -14616   -14612   -14621   -14621 
  -14612   -14612   -14619   -14621   -14612   -14615   -14624   -14616 
  -14609   -14620   -14623   -14616   -14617   -14623   -14617   -14611 
  -14616   -14623   -14613   -14611   -14624   -14623   -14609   -14613 
  -14624   -14617   -14608   -14619   -14624   -14613   -14613   -14624 
  -14619   -14613   -14620   -14625   -14617   -14609   -14620   -14625 
  -14612   -14612   -14624   -14621   -14611   -14615   -14627   -14619 
  -14609   -14620   -14625   -14613   -14613   -14623   -14620   -14613 
  -14617   -14624   -14616   -14611   -14621   -14620   -14609   -14613 
  -14621   -14620   -14612   -14615   -14625   -14617   -14611   -14623 
  -14623   -14609   -14613   -14624   -14619   -14609   -14619   -14625 
  -14613   -14609   -14623   -14621   -14612   -14619   -14624   -14616 
  -14611   -14620   -14623   -14612   -14612   -14625   -14621   -14611 
  -14619   -14624   -14616   -14611   -14621   -14623   -14609   -14611 
  -14624   -14619   -14608   -14616   -14624   -14615   -14611   -14623 
  -14621   -14611   -14616   -14625   -14619   -14612   -14619   -14623 
  -14615   -14612   -14623   -14621   -14609   -14617   -14625   -14616 
  -14611   -14620   -14621   -14613   -14613   -14623   -14619   -14613 
  -14621   -14625   -14615   -14611   -14621   -14624   -14612   -14612 
  -14625   -14621   -14609   -14619   -14627   -14616   -14611   -14619 
  -14621   -14613   -14613   -14623   -14617   -14609   -14619   -14623 
  -14612   -14612   -14621   -14620   -14611   -14615   -14624   -14616 
  -14608   -14621   -14624   -14612   -14612   -14621   -14620   -14611 
  -14616   -14624   -14615   -14611   -14625   -14623   -14609   -14616 
  -14627   -14619   -14611   -14619   -14625   -14612   -14609   -14624 
  -14621   -14611   -14616   -14621   -14616   -14611   -14617   -14623 
  -14611   -14609   -14624   -14620   -14612   -14619   -14625   -14616 
  -14611   -14623   -14624   -14611   -14613   -14625   -14617   -14608 
  -14619   -14625   -14612   -14609   -14625   -14623   -14608   -14615 
  -14625   -14617   -14609   -14619   -14624   -14613   -14609   -14621 
  -14624   -14611   -14615   -14625   -14617   -14609   -14615   -14605 
  -14558   -14481   -14355   -14143   -13868   -13594   -13377   -13300 
  -13514   -14025   -14122   -13104   -12617   -14916   -17712   -17199 
  -14613   -14115   -18218   -22472   -17713    -8009    -8648   -19764 
  -24313   -14380    -4209    -6978   -15213   -18422   -15948   -13547 
  -16511   -16694   -10949   -13520   -18355    -8595    -3541   -19462 
  -25205   -10335    -7480   -14308   -14527   -18804   -20170   -15068 
  -18689   -20949   -13134    -7546    -9477   -13497   -10084    -7296 
  -18260   -24737   -16841   -10706    -9570   -13242   -21510   -22231 
  -14983    -7275    -1036    -9906   -28960   -22527    -2137    -3372 
  -13581   -21612   -25845   -18441    -8812    -5665   -15565   -22194 
  -12245   -15179   -18912    -2586     -213   -14341   -23796   -30649 
  -21085     4321    -3578   -40284   -38449    -5128       28   -19056 
  -19634   -10885   -23058   -27002   -10764    -8083   -11059   -13598 
  -23234   -22659   -13833    -3362    -3886   -22901   -18364    -2478 
  -18488   -19961     3607    -4588   -29600   -27581   -13794   -17228 
  -21709   -15998   -22998   -22300    -3684   -11460   -19687     3044 
   -1259   -27634   -18021    -2227   -14727   -28401   -20592    -6763 
  -12588   -18585   -12892   -20988   -26338   -17743   -15341    -8648 
   -4086   -18013   -20611    -8689   -14058   -19893    -6065     3416 
   -4828   -22831   -24347    -4425    -4402   -13687   -15700   -32479 
  -26372    -8259   -23985   -15515     4496   -16966   -20113   -10629 
  -24957   -15592      683   -10868   -18693   -19550   -23664   -19303 
  -10494   -10659   -14638   -15037   -14712    -8868    -9988   -25663 
  -21986    -1745    -5011   -24884   -26091   -10010    -6650   -12525 
  -11493   -16607   -20763   -12573   -11245   -15758   -13736    -7161 
   -9096   -28661   -29296    -6687   -12685   -22635    -6174   -10588 
  -25485   -11996    -2515   -10444   -14474   -13871   -14408   -25683 
  -25196     2559     1746   -23400   -19114   -13316   -14411    -4534 
  -17721   -31423    -7722      106   -18369   -14789    -7858   -18805 
  -18058   -10384   -21145   -25870    -7803    -3946   -22292   -26643 
  -15067    -9607    -8642    -9605   -18553   -21496   -12934   -14399 
  -18315   -10574   -12437   -18578   -14692   -16029   -17801   -14698 
  -11475   -10431   -20078   -20772    -9383   -10203   -11952   -12556 
  -16060   -10084   -12644   -22559   -11642    -2756   -14736   -17099 
   -9336   -16050   -29034   -29369   -13783    -2070   -12175   -20245 
  -15025   -17550   -16785    -9256   -14139   -19669   -17734   -10673 
   -6693   -18110   -15145      916   -11763   -25095   -16276   -16884 
  -18276    -8768   -11643   -18594   -16762   -21431   -23754   -14100 
  -12638   -17150   -12972    -8145    -8858   -15136   -16591    -8471 
  -17478   -25798    -6189   -10075   -26360    -7950    -9863   -28910 
  -13444    -8105   -25281   -21716    -9032   -12937   -18457   -11885 
  -11373   -14975    -8554    -7334   -13208   -15658   -14565   -14251 
  -17856   -10732    -2911   -18060   -26885   -18007   -19053   -19138 
  -11599   -14280   -16389   -12040   -14219   -15016    -9775   -13126 
  -20498   -15539    -9024   -12062   -12285    -9713   -11685   -15090 
  -17402   -15336   -13686   -14318   -13467   -16636   -17933   -13537 
  -14474   -21778   -18900    -1879    -8459   -29910   -13865     -460 
  -19450   -17979    -8932   -22129   -22123   -11184   -15245   -13277 
   -5046   -15175   -23384   -16125   -14245   -15331   -14110   -14701 
  -13522   -15134   -13594    -8098   -14489   -19654   -10461    -4973 
  -12313   -15337    -9751   -14274   -18007   -11206   -18874   -26496 
  -12506   -10068   -24356   -21203    -9180   -13140   -18142   -14358 
  -17428   -18096    -9470   -11569   -16101   -10453   -12240   -20322 
  -18461   -14316   -16792   -15838   -12305   -16390   -17047   -10779 
  -10952   -13274   -15430   -17674   -13622   -16555   -19278    -5085 
   -4618   -19880   -17027    -9819   -13834   -15699   -15782   -15994 
  -14769   -17435   -18420   -13644   -13707   -16762   -15059   -17932 
  -19808   -11182   -13549   -22353   -15338    -9296   -10282    -9810 
  -17752   -21678    -9431   -10868   -24101   -16069    -7487   -14515 
  -13770   -11163   -18751   -24457   -16814    -6278   -12197   -15705 
   -7389   -12766   -22900   -21001    -7970     -472   -19039   -23660 
   -5389   -13491   -20831    -9830   -16699   -20425    -7438    -8895 
  -19113   -14563    -7574   -14476   -18690   -12355   -12590   -15275 
  -10933   -13088   -19904   -16761   -13879   -21578   -23932   -10174 
   -3397   -16953   -19080    -8110   -15450   -18408    -7884   -17558 
  -22640    -8432   -14372   -22284    -9636   -13251   -26524   -14860 
   -4039   -16236   -19931   -11024   -15630   -18092   -10127   -12155 
  -16087   -16931   -18118   -14139   -13324   -10488    -5961   -14675 
  -17859   -13653   -19813   -18311    -9139    -9792   -11588   -14273 
  -18948   -15304   -11576   -14866   -15145   -12564   -14320   -15318 
  -13815   -17679   -21045   -13714    -3316    -7105   -25184   -25909 
   -9255   -14164   -21822   -11940   -14612   -18063   -11936   -20109 
  -23701    -9188    -4692   -15700   -19611   -12868   -14671   -18362 
  -10999   -13485   -19541   -11325   -13811   -19965    -9474   -10993 
  -18214    -7180    -6270   -19816   -22167   -17400   -11153    -7890 
  -16422   -21691   -18139   -17778   -15337   -12393   -13324   -10547 
  -12258   -20002   -18738   -11063   -12117   -20749   -16725    -6739 
  -13680   -19903   -14072   -12626   -12695   -10994   -14666   -16915 
  -12379   -12303   -18566   -19286   -14990   -11704   -12472   -13871 
  -10984   -17271   -22365    -7797    -6598   -20117   -15352   -12984 
  -19769   -11850    -6845   -17693   -22353   -17267   -16823   -15997 
   -7049    -7272   -19993   -19531    -8444   -10269   -18322   -17167 
  -12777   -14246   -14856   -10119   -14655   -22173   -10346    -1926 
  -16062   -25205   -21132   -16272   -12185   -11950   -12096   -12228 
  -17424   -16448   -12502   -15323   -14446   -16160   -20034   -13842 
  -11724   -11973   -11119   -18719   -15828    -9586   -22002   -23170 
   -8006   -12136   -19769    -8650    -8537   -14643    -4568   -12511 
  -28633   -13639    -6439   -16719   -10612    -9671   -18195   -17045 
  -19514   -20750   -13277   -10042   -10412   -14851   -17556    -8527 
   -9273   -19371    -9165    -6555   -29995   -27727    -7758   -15074 
  -20289   -10976   -13999   -19515   -17956   -15256   -14320   -16596 
  -14289   -12777   -13813    -7318   -10478   -21018   -16310   -12494 
