Origin Time       2024/04/02 04:24:00
Lat.              40.133
Long.             141.712
Depth. (km)       71
Mag.              6.0
Station Code      IWTH20
Station Lat.      39.3434
Station Long.     141.0473
Station Height(m) -50.2
Record Time       2024/04/02 04:24:55
Sampling Freq(Hz) 100Hz
Duration Time(s)  218
Dir.              3
Scale Factor      2942(gal)/8224139
Max. Acc. (gal)   7.617
Last Correction   2024/04/02 04:24:56
Memo.             
[...]
  109024   109767   109823   108784   107368   107401   108548   108747 
  109119   111852   115636   118147   118974   117846   114986   112037 
  109333   107986   109359   108885   105362   106007   110566   111819 
  109610   108085   109449   114068   118939   120368   119041   117120 
  114998   112815   109788   105263   102394   104815   110970   116035 
  116918   115273   115971   118547   116725   111892   112064   115430 
  114831   112444   111661   110083   109035   111272   113105   111585 
  111110   115738   120079   117670   113344   111788   109611   107293 
  107597   110795   116586   120756   120067   115767   110690   109125 
  110600   111523   112908   113497   111200   111658   114988   113085 
  108942   110536   114292   114943   114693   114706   113229   111843 
  112256   113892   115608   114255   110303   108919   110173   110693 
  111072   112490   114542   118277   121373   119163   114497   110542 
  106153   105556   110403   114238   114767   114026   114339   116062 
  114859   112021   113486   116343   114978   110451   107916   110089 
  113088   113904   114820   116251   115994   114201   112795   112644 
  113524   114646   113803   109898   106802   106385   106138   108711 
  114385   116756   115746   114251   113900   115481   114381   111528 
  112739   113279   110270   109802   110313   109159   111461   115553 
  116414   115782   114400   112426   111843   111732   110479   108862 
  109009   110446   109521   107218   107559   108513   108328   111399 
  117396   120174   119348   118548   117891   115036   109239   103439 
  101453   104504   109583   112190   113401   115913   117909   118203 
  117236   115068   112579   110393   110343   113748   115460   111728 
  108396   109240   109829   109551   112267   115303   115141   113892 
  111825   109647   109903   111308   112450   112183   111645   115078 
  119121   118559   115524   112082   110046   111951   114673   113078 
  109451   110000   113340   113537   111118   110695   112923   114654 
  115371   116159   113898   108932   107140   108237   108916   110236 
  113239   115816   114320   109367   106833   108905   112561   115595 
  116694   114766   112849   114917   115809   110211   105937   107842 
  110737   114335   117462   114517   110438   113171   118185   118530 
  115497   113551   113501   111542   107585   106712   107450   105798 
  106131   111663   117144   118234   116654   115792   116208   115920 
  113946   112020   112143   112290   110586   111022   113362   111820 
  109617   112679   117215   118276   117096   116224   114673   111650 
  110340   110533   109294   109829   113583   115415   114037   112733 
  114116   116392   114041   109483   109543   111384   110440   109181 
  109981   111670   113483   115191   114839   112806   113128   116016 
  116860   113552   108568   105441   106776   111801   115890   117386 
  117267   114951   113732   116047   116426   113188   110668   108811 
  108553   112953   116090   112666   108400   107603   108332   108773 
  109221   111628   115083   115744   114103   113810   114810   114304 
  112098   110404   110428   112008   113499   112561   110488   110916 
  113452   114690   113370   111964   112526   112961   112495   112968 
  112662   110612   110679   113621   115746   115700   114794   114130 
  114103   114913   114660   110837   107615   109205   111307   110940 
  109753   109309   111221   113709   113725   113370   114934   116062 
  114675   112719   113001   114316   113046   109422   107404   108727 
  111578   113957   115229   115199   113768   112264   112094   112540 
  112630   112453   111599   109412   108699   111661   113161   110790 
  109279   109023   108549   110384   114735   118434   118039   113418 
  110670   112336   113212   112163   111823   111770   112321   113652 
  113694   113223   113570   112623   111539   114430   118038   116514 
  112271   110242   111343   114093   115075   112455   108843   108106 
  111138   113638   112784   111813   112251   113063   114901   117432 
  118592   116953   114245   113339   112657   110700   109736   109628 
  109863   111435   112398   112367   112587   111636   110700   112135 
  113900   113652   111522   109278   109586   112517   115125   115506 
  114615   113832   112785   111850   111705   110951   110069   110934 
  111777   110868   110455   111118   110571   110230   111792   112969 
  113682   115804   118440   119345   117558   114409   111817   110432 
  110547   111551   111391   110282   110137   109566   107820   108083 
  110748   113128   114728   115168   113475   112179   113204   113098 
  110956   111214   114610   117410   117763   116430   114471   112341 
  111319   113178   115827   116224   114615   111194   108180   108290 
  109366   110434   113005   115742   116444   115203   113381   112029 
  111186   109584   107842   108862   111878   114501   117485   118836 
  115227   111106   110785   111469   112240   112635   110999   110601 
  111955   111542   110821   110847   109591   109848   114511   118076 
  115831   111977   111086   111924   112248   112484   113236   113796 
  113826   113803   113709   112596   110968   110324   110782   111574 
  110806   108990   110319   113976   114801   113223   112820   112741 
  111284   111246   114394   116900   116008   113397   111277   110991 
  112058   112529   112189   112117   111921   110864   110424   110836 
  109578   107994   110401   115264   116704   114447   112833   112544 
  112467   112761   113016   113724   115187   114953   111873   109032 
  109548   111653   111566   110478   111736   113088   111504   110803 
  113825   115591   113501   112423   114504   115917   114301   111670 
  110500   110305   109486   108859   110465   113718   116357   117564 
  116592   113652   112162   113587   114909   114322   113300   112592 
  111690   111219   111458   111199   110708   112017   114428   115303 
  114716   114428   115435   115933   113404   110629   111623   114529 
  114987   113278   112855   112396   109625   108846   112052   113823 
  112641   112251   112801   112295   110587   108930   109406   111595 
  112881   113310   113597   113374   113827   115931   117509   115267 
  110647   108842   109732   108807   106689   107396   110039   111654 
  111757   109876   107798   109537   114674   119884   122535   120541 
  115801   112841   112187   111073   108789   108405   111445   113867 
  113196   112230   112186   111900   111402   110331   108926   108903 
  109165   109471   112915   116695   116390   114739   113273   111677 
  112126   113474   113755   113578   112573   111578   111947   112164 
  111766   113528   118201   121182   119676   116556   112966   109734 
  109765   110903   110529   110762   111719   112275   113521   114296 
  112170   110162   111460   112596   110953   108751   109051   111794 
  112743   111798   113298   115974   116023   113629   111539   112324 
  114905   115491   112869   109598   108256   109085   111882   114812 
  114839   114033   115167   115978   115453   113242   108850   106894 
  109273   111620   112430   111781   109630   109138   111354   113719 
  115388   115871   113980   111271   110606   111690   112546   113368 
  114187   113517   112499   112703   112527   112831   115692   116965 
  112656   106552   104953   108460   112021   113143   113524   113547 
  113000   113161   114328   114752   113933   114548   116961   116792 
  112823   109850   111623   115319   115082   111222   109489   111075 
  111762   109715   107793   108452   111569   115280   116799   116390 
  115819   114644   113938   115285   116379   114689   111748   110504 
  110875   110181   108228   108546   111661   113671   113479   112966 
  112193   111029   111032   112328   113011   112174   111522   113154 
  115254   114558   112766   113718   115677   114997   114210   115503 
  115115   112421   111470   112149   110577   107196   106069   107190 
  108394   110222   113813   118894   122442   120987   115253   110546 
  111619   114300   112121   108319   106802   105833   106373   110157 
  113579   114093   114556   115978   116406   115996   114147   110411 
  109039   110654   110208   109273   111522   112688   110690   109773 
  110276   109861   110060   112085   113514   114212   116685   118261 
  115682   112299   110035   108510   110415   114323   114841   112687 
  112078   113464   115041   115879   115611   113810   111905   112411 
  112957   109609   105842   106346   109672   113566   116910   118137 
  117221   115963   115736   114798   111381   108778   110200   114332 
  117748   117177   113617   111406   112445   114354   112326   106864 
  104831   107997   112159   115672   118076   117043   113563   111419 
  109991   108036   108886   112795   114763   113302   111343   110263 
  110813   113944   115719   113146   111449   113617   115533   115136 
  114586   115083   115433   115211   114619   112020   108402   108432 
  111399   112573   111844   110493   108773   108415   110193   112801 
  113344   111171   111569   115295   115946   114004   113400   112472 
  111233   111150   111051   111811   114127   115021   112966   112014 
  116399   120672   116981   109482   106496   107819   109212   110168 
  111677   113061   114085   114554   113533   111597   110559   110855 
  111709   113017   114092   113358   111462   110798   111541   111834 
  112185   114660   117013   116189   114804   114762   114783   115136 
  113559   108514   106166   109094   111375   111335   112171   113633 
  114435   114853   114345   112926   113228   115177   113786   108795 
  105105   104869   107950   112671   116873   118891   117760   115461 
  113310   111380   110744   110926   112013   113956   114982   115808 
  115974   113194   109404   107441   107732   110126   114327   117425 
  115183   111176   111963   113359   110155   108391   112060   115480 
  115996   115215   112973   110565   110030   111669   113980   114041 
  112020   111065   112006   113475   114261   113350   113259   116914 
  118137   113341   110529   111441   110220   107820   108249   110689 
  112642   114716   116233   113815   110620   111485   112519   111003 
  110374   110346   109113   109236   111630   113722   114012   112781 
  111326   110906   111754   112531   112726   114362   116444   115771 
  113405   112332   112336   111225   110924   113486   114365   112569 
  112903   114268   113956   114056   113886   110683   108041   110457 
  114315   115844   116791   116451   113995   112914   113644   113470 
  112106   110266   108965   109744   112116   113995   113304   111084 
  111931   114562   114390   114401   115522   113753   111758   112014 
  112429   112367   109845   106596   109023   115169   119313   120528 
  118289   114057   111354   110604   110409   109680   109875   113509 
  116896   115121   109864   105695   107181   112885   115155   113348 
  112498   112777   113022   114566   115249   112707   111396   112830 
  113359   112992   111696   108951   108049   110346   112191   111539 
  111391   112271   111225   111195   114601   116337   115377   114535 
  112692   110879   111323   111429   109093   106235   105873   108607 
  112068   114559   114959   113055   111420   111177   112018   113328 
  112307   109869   109696   111423   114385   117981   118386   114016 
  109733   110408   113768   115333   114651   112942   112399   113697 
  113768   113080   114369   115624   115611   116584   118449   118558 
  116079   114004   115438   117597   115388   111635   113024   116935 
  116905   114582   113437   112768   112575   113208   113128   111883 
  110393   108880   107033   105513   106185   108071   107860   107331 
  110504   115036   115619   113173   112618   112630   109605   107029 
  108076   108926   107252   106964   109867   112033   111531   110164 
  108608   107451   108086   109124   107913   106166   107797   111225 
  111905   111701   114490   117229   116788   116083   116604   116012 
  114947   116773   121144   123148   119654   113949   111014   112526 
  115780   115538   112835   113192   115083   114239   110928   105359 
   97935    95688   104391   115462   118327   116016   113637   110493 
  107401   107227   111750   119356   123465   119623   113899   112542 
  111504   109367   109927   112163   115102   118628   120472   121016 
  120494   116334   109849   106658   109606   113935   112279   107607 
  108653   112854   113125   111893   112588   112897   112253   111258 
  109221   109026   113070   118276   120803   118585   112372   105395 
  100815   101736   107311   112592   113740   107900    99490    99832 
  109194   116910   118393   118266   122026   128056   128459   118960 
  104157    93699    95000   106591   118854   122897   118147   112487 
  112475   114426   113416   111034   107925   105081   106111   109702 
  112419   114412   117090   120573   124557   128422   129007   125352 
  119661   112078   103993    97536    94375    97116   103500   108553 
  111430   113698   114193   111369   111775   119938   126963   124690 
  115947   109170   109363   114161   120916   128127   131854   130014 
  125270   122331   121744   118650   111719   105391   103739   107639 
  114450   120051   121081   116183   108688   103913   101483    99314 
  100951   106616   110511   111099   109220   106817   108652   111707 
  109587   106047   104176   101374   100635   104247   107310   108564 
  111288   116054   122769   130565   133853   128883   120486   113143 
  106913   105040   108199   110624   110072   108345   108259   112465 
  120474   129135   131334   123643   115260   113460   114166   113370 
  111396   109239   108764   109888   108345   104340   105532   112079 
  113794   110602   111233   111844   106678   104525   111620   119394 
  118079   108676   100084   100099   108560   118184   123488   125301 
  124694   119753   112394   109497   111357   110764   107249   107006 
  109290   109004   108415   111946   117093   118686   114660   107904 
  103200   101815   103157   104923   102837    99289   102092   110061 
  113614   111592   109453   105560   101236   103427   108292   110142 
  112441   114851   112009   106983   108818   118442   126841   125977 
  119412   116001   114994   112576   110513   109526   109706   110797 
  110596   112183   120239   128545   126311   116352   110698   110257 
  109020   108938   112429   114440   111805   108704   108787   109709 
  107628   102076    96699    97540   105611   112862   113840   112777 
  111541   106713   101827   103192   107599   109972   110398   109008 
  108529   112185   117472   122702   126592   125101   119869   117417 
  118597   118338   116897   119805   124117   122593   117088   115086 
  120185   126636   126481   122445   120228   117791   115099   116802 
  120039   117467   111177   109102   110660   108874   105048   106501 
  112185   115699   115437   113665   112095   110469   109084   106945 
  101571    98730   104994   113401   116068   114092   109887   106162 
  105983   109950   115261   117495   118281   122395   127257   127556 
  122854   116360   112824   114860   119203   120209   117512   114774 
  112548   110940   111861   113138   112213   114359   123623   130902 
  126839   116769   109084   104804   105366   111951   117775   117431 
  115392   114432   111249   107622   108865   112946   113670   109698 
  106149   108467   111950   108805   103528   102270   104865   111981 
  118687   118782   115585   111114   106087   106670   111807   113503 
  111526   109759   109593   109946   106506   100934   100016   101779 
  102019   102250   103087   104934   108352   110133   109502   110899 
  113989   113193   108839   105397   103609   104242   107987   110955 
  111285   111499   113119   116630   118901   116829   115531   117360 
  117182   115416   116171   119011   121656   121805   118881   117181 
  119099   119634   114983   108518   104814   103366   102222   103005 
  105428   106369   107770   110880   110189   106844   108029   110732 
  110374   110917   112804   112546   111481   111225   111188   111489 
  111696   112561   115353   116429   112989   109185   108540   110754 
  114882   118659   119551   116179   110512   109314   115655   123211 
  124988   121494   117163   114184   113503   115654   117005   116025 
  117698   119793   116205   112598   113613   113972   112698   111771 
  107883   101571    99335   101908   104292   105472   108399   112965 
  115433   114852   114548   115003   114983   116796   118906   117163 
  113767   111739   112137   115462   117100   114255   112324   112531 
  110527   108635   110477   112494   110471   106262   106651   113175 
  119178   122399   125335   126792   125594   122064   116899   114508 
  116297   117374   117117   117675   117148   113826   108733   105858 
  107769   110543   111726   111564   108997   108550   113177   116159 
  115096   114420   115460   116541   115007   111192   109518   110192 
  110794   113121   117633   121335   123493   124229   122461   119353 
  116549   113046   109439   107191   105047   105695   112533   118316 
  116028   109710   104741   102664   102978   104117   106104   108295 
  108087   105178   102502   103161   105559   106276   106874   108328 
  109915   113324   116251   115342   113755   113734   113123   113549 
  116668   116245   111285   110162   113694   115520   114081   112958 
  114334   116411   117637   118467   119377   120263   121062   120730 
  117460   112568   107589   102632   101321   104722   106929   105028 
  103015   103346   103894   105098   108263   109593   108166   107424 
  105822   102919   104156   109021   111223   109907   108598   108730 
  109753   111711   113799   113834   112542   112398   113506   115769 
  118212   118370   117394   116883   114631   111439   110860   111578 
  111400   111917   113686   115695   117319   117479   116718   116133 
  115155   114624   115960   117886   118527   118355   118519   118161 
  116595   114273   111283   108774   108064   108652   109260   108842 
  107622   107415   109823   112249   110127   106107   105476   107399 
  110733   115368   118071   117421   116318   117031   118723   118964 
  117000   114766   113918   113815   113121   111150   106678   102101 
  102784   106045   107318   109102   111476   113647   118563   122677 
  120847   117900   116244   111605   108018   110874   116282   121123 
  123545   122013   121080   122439   122301   120841   119681   118914 
  118376   115677   111747   111962   115531   117810   118413   117809 
  116036   114814   114462   113987   114070   114791   114894   114608 
  114639   114913   115771   116723   115037   109543   103786   100781 
   98884    97507    99639   103932   104387   101834   102527   106300 
  109359   111364   113084   114636   115307   114436   113139   111959 
  110650   109374   108176   108680   110666   110716   110770   114731 
  118871   118825   115831   112113   109013   107455   106343   103154 
  100205   102883   107734   108297   107858   110056   111308   109586 
  108322   111330   116707   118515   117217   118335   120600   119496 
  115709   111222   107968   108364   110872   112538   113043   111916 
  108556   105008   104664   107827   110629   110481   109672   111275 
