Origin Time       2024/04/02 04:24:00
Lat.              40.133
Long.             141.712
Depth. (km)       71
Mag.              6.0
Station Code      IWTH08
Station Lat.      40.2686
Station Long.     141.7831
Station Height(m) 175
Record Time       2024/04/02 04:24:48
Sampling Freq(Hz) 100Hz
Duration Time(s)  135
Dir.              4
Scale Factor      7845(gal)/8223790
Max. Acc. (gal)   240.391
Last Correction   2024/04/02 04:24:48
Memo.             
[...]
    -419     -423     -419     -422     -421     -414     -418     -422 
    -419     -417     -418     -421     -419     -417     -419     -422 
    -417     -415     -421     -423     -419     -419     -422     -418 
    -414     -418     -422     -421     -417     -417     -421     -421 
    -418     -421     -422     -418     -417     -421     -425     -421 
    -417     -421     -422     -419     -421     -419     -418     -421 
    -422     -421     -423     -423     -419     -415     -413     -418 
    -422     -421     -421     -418     -415     -418     -421     -421 
    -419     -422     -422     -414     -415     -423     -422     -419 
    -423     -419     -414     -422     -427     -418     -413     -418 
    -422     -421     -419     -421     -419     -415     -418     -422 
    -423     -422     -417     -415     -418     -419     -419     -423 
    -425     -422     -417     -415     -419     -421     -419     -418 
    -418     -421     -421     -418     -421     -422     -418     -418 
    -419     -419     -415     -417     -423     -419     -415     -422 
    -422     -418     -423     -423     -418     -419     -421     -419 
    -417     -419     -421     -417     -415     -421     -422     -421 
    -421     -417     -415     -419     -425     -422     -415     -411 
    -417     -422     -421     -421     -421     -419     -418     -419 
    -422     -419     -415     -419     -421     -419     -422     -419 
    -415     -419     -422     -422     -419     -417     -421     -423 
    -417     -415     -421     -425     -427     -423     -414     -414 
    -418     -421     -422     -421     -418     -417     -418     -419 
    -421     -422     -422     -418     -415     -419     -423     -422 
    -417     -419     -423     -419     -418     -421     -419     -417 
    -417     -418     -421     -422     -422     -422     -421     -419 
    -422     -423     -419     -418     -418     -418     -419     -421 
    -421     -421     -421     -421     -417     -418     -422     -418 
    -415     -421     -421     -418     -421     -423     -421     -414 
    -414     -421     -425     -425     -422     -418     -415     -417 
    -417     -415     -423     -426     -419     -413     -419     -425 
    -421     -418     -417     -414     -418     -422     -422     -422 
    -419     -418     -418     -417     -421     -423     -421     -419 
    -417     -417     -421     -421     -422     -425     -418     -414 
    -418     -415     -415     -422     -422     -419     -417     -415 
    -421     -422     -421     -422     -417     -415     -421     -422 
    -419     -417     -419     -423     -417     -413     -422     -426 
    -419     -417     -415     -417     -418     -422     -425     -423 
    -418     -417     -418     -422     -422     -418     -415     -415 
    -418     -423     -421     -417     -419     -421     -419     -418 
    -421     -422     -419     -417     -419     -421     -419     -418 
    -419     -423     -422     -414     -418     -425     -423     -422 
    -421     -419     -419     -418     -418     -422     -425     -421 
    -418     -421     -422     -419     -417     -419     -425     -425 
    -421     -421     -421     -417     -417     -422     -421     -413 
    -417     -423     -418     -415     -421     -419     -418     -422 
    -425     -421     -415     -415     -418     -419     -423     -423 
    -415     -414     -422     -425     -419     -417     -417     -419 
    -423     -419     -415     -419     -421     -418     -422     -423 
    -419     -415     -414     -418     -419     -419     -419     -419 
    -417     -418     -422     -421     -419     -421     -418     -414 
    -418     -423     -422     -418     -421     -421     -415     -421 
    -425     -418     -418     -422     -419     -421     -421     -414 
    -414     -418     -419     -419     -421     -421     -417     -417 
    -422     -421     -418     -417     -417     -419     -423     -421 
    -422     -423     -415     -417     -425     -421     -417     -419 
    -421     -421     -425     -425     -419     -413     -414     -419 
    -425     -422     -419     -419     -418     -414     -421     -427 
    -422     -417     -415     -417     -419     -421     -422     -422 
    -421     -422     -419     -418     -422     -419     -417     -423 
    -425     -417     -414     -419     -422     -421     -419     -418 
    -418     -417     -418     -422     -423     -418     -415     -421 
    -422     -417     -415     -421     -419     -418     -421     -422 
    -419     -418     -419     -419     -419     -421     -419     -419 
    -421     -421     -419     -417     -421     -427     -427     -419 
    -417     -421     -419     -421     -423     -419     -417     -418 
    -421     -423     -422     -419     -418     -419     -418     -419 
    -418     -418     -421     -419     -415     -418     -426     -427 
    -418     -411     -415     -419     -419     -425     -423     -419 
    -418     -415     -415     -426     -441     -465     -498     -492 
    -398     -348     -540     -703     -198      676      490     -756 
    -785      753      595    -1906    -2207      841     1586    -1691 
   -2978     -400      656     -787     -492      506    -1563    -3827 
   -1814     1387      629    -1937    -2066    -1228     -400     2397 
    4182     2443     2315     3384    -1680    -6932    -1067     6616 
    2000    -6656    -6446    -1421      745     -546    -2531     1368 
    7357     1001    -6590     1069     4800    -6453   -11777    -4409 
   -3300   -12393    -6404    15265    16860      691     2893    14739 
    5976   -10226    -9279     1525     6825     4594    -4141   -16453 
  -17662     2917    25454    24858     7053   -13876   -26850   -20464 
   -7169    -1393     -683    -6497    -7811     6828    12603    -5533 
   -5370    31145    35419   -14615   -38240    -4839    24278     9130 
  -12753    -7638    -6033   -16240     -769    35711    40076    -2652 
  -34096   -13529    12721    -6007   -22654    10318    22156   -20579 
  -36271    -4633    13022     3626     4252    11288     -835   -11885 
   -7037     2143    13054    14589    -3835   -18050    -1244    13278 
   -4471   -14654    -1914    -2277   -19807    -6145    36146    27483 
  -12942    -7650    11443     3892    -6496     -750     8372    -1123 
  -12136     -641     5883    -1549      730    -7157   -21712    -3628 
    8330   -11159     3326    40514    12395   -43607   -23662    24783 
    7593   -22792    -3832    11958   -23549   -54714   -11236    41023 
   25158    11820    33237    24684    -1755     9822    29336    -3279 
  -42765   -33798   -28879   -25313    19620    29740   -13549   -18009 
   13302    24327    12285     9193    26650     6874   -33768   -11138 
    9697   -30441   -38951     9890    24753   -15331   -18682    23787 
   16804   -19989   -28166   -28458     3574    60843    57280    11310 
  -10478   -27789   -48562   -42753   -14728    13581    15519     -288 
   10689    26649    22005    22854    15982     8241    20205     3333 
  -27530   -19503   -17271   -29262    -6650    12973    -5107   -11126 
    7847    11329    -7631   -25061   -21648      625    16363     5817 
   -3674    21415    36018       10   -26916    -4978     3755   -37728 
  -40597    34560    52531   -20356   -35451    24687    48336    26612 
   13941     6705   -19018   -36470   -17853    -2793   -12951    -4437 
   14791      943   -16665    -5638     3883    -7318    -8449    14690 
   26947    15016     1009    -6079   -14022   -22014    -8735     8864 
   -8006   -28332   -22937   -11287     6280    25577    31090    26337 
   14945      340   -11836   -11605     3354     3119   -16272    -9724 
   19037    23819    13142     3886   -16351   -25016    -7187     8209 
    8748    -4861   -23861   -22040    -3029    14548    31553    24767 
  -17294   -43856   -29835   -10292    -8788    -4488    17807    17707 
  -11963    -2060    45501    49867    10520   -16762   -28413   -29119 
   -3022    24892    19471     3983    -2817   -22569   -33932     -913 
   36566    24688    -9165    -8827     8409      693   -10871    -2705 
   -2520   -19957   -20403    -4980    -2376      198     5331    -3844 
   -3673    12993    10971    -9782   -13230     6295    10098   -12170 
   -7489    24031    15650   -13918   -11063     -729    -3666    -5811 
    1449    12901     3797   -10573     4309    18168    14759    18584 
   14296    -8255   -27237   -32189   -16565     3627      907    -5139 
    3616     6646     6068    10384     5027    -4648   -12474   -22836 
  -19827      908    19726    21586    11919     5892    -7203   -29035 
  -21759    13747    25051     3507    -2685    11724     2656   -13942 
     994    15606     4391    -8669   -15907   -19919    -8827     7695 
    4877     -322    14438    15129    -8455    -3996    23789    16644 
  -19506   -41130   -32671   -10848    -5556    -2668    25002    41890 
   15584   -11878     4162    25544      155   -21300    11348    18685 
  -34885   -47675     2871    28382     8710    -3245     7798     5567 
   -4020    13396    21344    -1074   -12020   -21323   -47325   -44809 
    2141    35777    17663    -2767    13803    17188   -12387   -18098 
   11454    18684   -15865   -36348   -11179    19336    23934    18882 
   15024    -2280   -20227   -13347     2245    10578     9953    -2154 
   -9958   -10385    -8796     7439    28802    30084     3784   -33582 
  -40066   -10417     6035    -5942   -15363    -5309     5699     3416 
    9971    20788     8052   -11029   -15348    -7959    -2087    -6766 
   -5117     4808     6542     2880     2535    11271    22761    25720 
   13659   -16351   -30906    -7612    11145     4865     4472     8587 
  -12733   -34079   -12217    12306    -4710   -16596     3160     8662 
  -10022   -15010     1684    13548     4561    -3790     6990     8148 
  -10409    -9050    15761    26125    17721     5778   -16478   -38515 
  -25910    10993    23210     6731     5846    21413    10625   -12499 
   -5260    10685    -4330   -29288   -17244     7477   -15099   -40888 
  -10268    15295     3118    12341    38446    26374    -8479   -18106 
  -12901   -21429   -20101    10731    24293    -6544   -17273    15543 
   16552   -11836     3626    33497    12136   -23539    -8236    27051 
   19048    -7982   -11943   -15352   -24665    -7902    17039     7299 
  -18611   -25208   -14829     4884    18692     9286     -202    12430 
   21038    -2232   -31850   -20537    10064     5028    -6408    14161 
   24052     5185    -9251   -12267    -8721     8203    27997    17474 
  -11951   -13672   -17392   -40666   -10781    44452    31068    -4241 
   -3844   -16285   -43991   -29852    10535    18632     7488    21139 
   25914    -6936   -19265    -1687    -2570    -1440    21502    23376 
   -4191   -20794   -18512   -16426    -7368     8082     7892     5926 
   17909    15147    -7981   -17899   -11450    -2280     8986     3048 
  -20174   -21350    -1609     3785    -1953     7979    21867    11592 
    3141    12545    -3967   -28830    -4222    28768    20146     5792 
   -3034   -29641   -41152   -14310     8271    11522    21606    19542 
  -15774   -30942     1561    19364    -6551   -18249    19217    45165 
   10800   -19009     -658     2158   -31472   -37323     3578    28864 
    7970    -8220    -3024   -10809   -18682    -7393     2285     9624 
   21732    14160    -3466     3932     4557   -24113   -29978    -4814 
    4295    12353    42318    34404   -12777   -18099     -664    -8640 
   -5312     4602   -22104   -38689     5366    39719    10993    -4592 
   21163     5209   -41778   -26165    17587     8230   -10851     7091 
   18724     2150    -5859     8939    11747   -13871   -34107   -21350 
    2535     7847     8267    13693     3468   -18195   -26615    -8691 
   21882    28147     5996   -16974   -25054   -13108    12626    29708 
   17482      679    10974    14496    -8048   -25936   -31637   -28154 
   -5038    34025    51312    33203    19175     1861   -39091   -54476 
  -30478    -6112     6488    10044    11475     7248    -6650    -7454 
    3497    15126    31571    25374    -8667   -32174   -34402   -25273 
  -18017   -13840     4760    19354     8131     6802    28985    27156 
   -3601    -9229    16278    26454     8577    -9086    -7106     2716 
   -6057   -31016   -35715   -14122    -3977    -9603     2577    23738 
   21115     9614    13945    19687    11466     2431     7442    13371 
   -5206   -38130   -50580   -45269   -33291     4915    51468    58391 
   32382     9963    -3319   -11313     3878    35345    26395   -32740 
  -68766   -56142   -45562   -27797    38880    98726    82764    29065 
   -6232   -49223  -104423   -89641    -1674    59983    62151    34524 
   -6498   -36765   -19911    39694    84508    79991    42294   -21479 
 -103133  -150985  -127832   -60610    11599    78702   135043   155823 
  116773    35205   -30904   -49566   -48678   -59737   -89411  -125374 
 -115693   -38391    29104    33247    21477    30927    62856   123819 
  176917   168997    98533   -16784  -141976  -211034  -182097   -77431 
   21867    37173    -1298    13423    80892    97497    32987   -66943 
 -149932  -147226   -41878    65223    71598     2110   -36263    -3549 
   36653    58739    84524    80631    29870   -39100   -98868  -103563 
  -52118   -15153   -30129   -62432   -53715    22870   135372   215050 
  211536   134743    21375  -114940  -236503  -252414  -133957    -6359 
   -5872   -62669   -15780    85707    90567    41759    40267    52574 
   45225    41346    46421    29384   -56791  -177870  -217745  -129624 
   26577   167471   241871   237703   162869    41681   -76462  -136391 
 -116869   -56525   -30264   -70521  -113031   -70772    28656    80221 
   71266    56668    27210   -42718  -106628   -89091    19280   119368 
   91895   -29473   -64284    37336    89938    -6470  -105791   -87485 
   13624   106091    96985    13911    -6621    34372    22366   -27494 
  -31017   -10328    -8796    -9595    -7555    -6191     7354    25652 
   27838     5356   -29810   -53233   -64949   -78678   -73739   -14836 
   84685   145327   112480    53616    48795    43669   -37100  -137367 
 -161420  -107651   -24079    59481   106910    97969    69531    48879 
   25537    -5094   -47548   -80990   -74719   -57923   -53418   -46610 
  -37254   -20301    -9844   -27928   -31267     8001    43322    64936 
  106073   129293    66565   -44359   -80869    -5570    71865    62922 
   14831   -13347   -40786   -74341   -56899    25111    92562    86055 
   22744   -43949   -83209  -110587  -107057   -30292    62608    81245 
   40027    -1456   -33068   -47376   -17057    35104    51494    24723 
   -7607   -20448   -15593    -7657      799    15834    21517    11838 
   12124    27162    39560    39000    11001   -45685   -85153   -65789 
  -18688    -1391   -25863   -52821   -38568       12    15863     7199 
    2034     4936    -7877   -29839   -13328    41439    68420    33709 
  -15099   -24588    -1514    25731    47167    64370    68328    39047 
   -8449   -30299   -17170      562   -10513   -50615   -80928   -71986 
  -34535     2257    19649    14663    -7481   -29795   -23514    19203 
   54603    37949     -681    -6259    13265    26258    36082    52591 
   53025     7873   -48478   -45273     8706    39001    15768   -26269 
  -42126   -23558     5807    30503    42187    28001    -7395   -43353 
  -60804   -48456   -20020   -10156   -29817   -47370   -40967   -21875 
   11812    54328    65001    33293    -8136   -25581    -5270    26514 
   37586    29501    11975    -8672   -26023   -29155    -4746    25928 
   30619    19388     9940     2986     5890    14125     5186    -9505 
   -4237    -5884   -33955   -45262   -19190     4249    -5763   -28339 
  -34067   -29115   -16025    11959    30024    22975    10663     7252 
   17315    42480    60511    35991   -19457   -45825   -19392    22387 
   41540    34790     7626   -39622   -80566   -75313   -19477    47617 
   65259    18486   -28888   -34893   -28115   -20976     -992    10538 
   -7862   -30794   -20954    10496    18939     7511     9408    12395 
     546     -761    19396    29424     8010   -22769   -33204   -18161 
   10490    36991    44647    21789   -16606   -33709   -21632   -10461 
  -13231   -14692    -7087     7033    18727    18805    13991     9749 
    8364    13991    10025   -12977   -33177   -31869    -8494    17185 
   19286     1476   -16750   -24214    -7744    26793    39781    14519 
  -13510   -14847    -8287   -16773   -26381   -24831   -20563    -7792 
   20036    46484    60268    66513    63776    36539   -16059   -61254 
  -71747   -55545   -32769   -17115   -11767    -9599    -6223    -3240 
   -1549    -1417    -1017     3469     9582     7226    -4249   -13401 
  -21470   -26913    -8004    23148    30203    23075    19353     4850 
  -14592    -9499    20768    41629    32732    12444      359    -5293 
  -14072   -28672   -34663   -20069    -2390    -6227   -20243   -11453 
   14192    21312     8579    -6123   -18318   -18978    -7927    -1182 
    -649    -1441    -4652    -8380   -12209   -15877   -11172     8371 
   31499    37914    29745    25940    26005    20690    17537    23051 
   24008     5834   -20664   -32117   -21952    -2836     6818     4675 
   -1304   -12501   -19720   -11222    -1941    -6790   -16020   -13674 
    -761    11750    21204    23851    16185     7599     3372    -5443 
  -25492   -45555   -49742   -39521   -17334    17589    46330    50726 
   36660    17132    -4094   -25984   -30565    -5799    16726     8284 
   -5332     7480    28324    24219     4888      203    10424    20054 
   20779     6774   -16309   -34419   -41242   -36852   -27631   -17928 
   -3503     7037    -5161   -33955   -48760   -32657    -1921    17771 
   22123    20043    13706     5263     4638    13803    19344    16092 
   13008    14015    16382    16738    17412    18760    11060      190 
     621     5795     3685    -9374   -26563   -32624   -20231     3007 
   11576    -7061   -21574   -14203   -11279   -22580   -28744   -21771 
  -11445    -4557     3566    10351     5323    -1393     8028    23130 
   27534    30157    29466     4571   -27338   -27400    -3118    14466 
   20154    18080     6613    -5090    -6110    -2088     3573    13401 
   15024     1850   -12649   -20360   -23836   -28436   -33305   -26797 
  -10496    -3198    -9653   -15535    -8565     4503     4278    -3974 
    3184    15485    10222     2489    15556    33640    26086     6338 
    6963    12334     2362      664    12721     9834   -10138   -21105 
  -13290      943     9709     7169    -6907   -20105   -20000   -11452 
   -2994     3496      124   -14931   -19913    -3798    11651    12918 
    9979     7088      633   -10204   -21847   -21255     3438    37049 
   46299    30100    16946    10318    -3657   -20422   -29571   -31048 
  -28948   -23544   -13460    -5903    -5900    -1306    13304    25598 
   33069    41548    46386    38618    12748   -27179   -61376   -65862 
  -34931     8812    30107    14170   -12885   -14922     6849    27796 
   36348    31580    14929    -6158   -17342   -12513    -8459   -16964 
  -23591   -16019      -83    11854    11811       71   -16638   -25043 
