Origin Time       2024/04/02 04:24:00
Lat.              40.133
Long.             141.712
Depth. (km)       71
Mag.              6.0
Station Code      IWTH16
Station Lat.      39.6436
Station Long.     140.9465
Station Height(m) 62
Record Time       2024/04/02 04:24:53
Sampling Freq(Hz) 100Hz
Duration Time(s)  187
Dir.              1
Scale Factor      2942(gal)/8224139
Max. Acc. (gal)   26.919
Last Correction   2024/04/02 04:24:53
Memo.             
[...]
  250109   250111   250113   250111   250111   250111   250109   250107 
  250113   250115   250110   250109   250113   250114   250113   250111 
  250110   250111   250111   250111   250111   250110   250113   250115 
  250111   250111   250114   250113   250111   250111   250113   250114 
  250111   250113   250118   250113   250110   250113   250113   250111 
  250113   250110   250110   250113   250114   250117   250115   250110 
  250113   250113   250110   250111   250113   250111   250114   250114 
  250109   250111   250114   250111   250111   250114   250115   250111 
  250109   250111   250113   250110   250111   250115   250113   250109 
  250115   250117   250109   250107   250111   250113   250110   250110 
  250113   250113   250111   250111   250115   250113   250109   250111 
  250114   250111   250110   250111   250115   250113   250110   250113 
  250113   250111   250111   250111   250111   250114   250113   250111 
  250114   250114   250113   250111   250110   250113   250113   250111 
  250114   250111   250107   250111   250117   250113   250109   250109 
  250111   250111   250109   250110   250113   250110   250109   250111 
  250110   250105   250102   250099   250092   250088   250084   250075 
  250067   250061   250057   250061   250071   250087   250114   250140 
  250157   250169   250176   250172   250150   250117   250090   250080 
  250080   250096   250126   250155   250173   250169   250117   250028 
  249941   249897   249894   249899   249882   249840   249804   249795 
  249836   249949   250115   250254   250307   250307   250327   250361 
  250338   250219   250057   249983   250088   250331   250518   250439 
  250103   249658   249286   249268   249612   249921   249995   249975 
  249924   249718   249274   248780   248664   249153   249824   250060 
  249930   249920   250056   250071   249997   250072   250493   251280 
  252020   252224   251742   250636   249453   248925   249079   249654 
  250453   250827   250176   248767   247457   246862   246977   247711 
  249077   250574   251368   251019   249569   247779   247099   248093 
  249659   250879   251937   252772   253103   253203   253023   252216 
  251301   250846   250464   250213   250441   249853   247645   245785 
  245878   247063   248310   249497   250160   249886   248999   247623 
  246422   246844   248830   251052   252510   252755   252278   251576 
  250493   249593   249928   251498   253446   254844   254797   253328 
  251487   249891   249008   249264   250056   250987   252175   252285 
  249605   245994   245849   249228   251868   252477   252926   253615 
  252926   249637   245335   243326   245214   249420   252744   254238 
  255313   255780   254770   253258   252011   250906   249999   248975 
  247769   247294   248221   250009   251523   252288   252903   253654 
  253099   251108   250002   249597   248621   248028   248043   249118 
  251221   251515   250366   251100   253107   254047   253594   252247 
  250713   249849   249558   248539   247035   247388   249891   252273 
  252798   252065   251463   250331   249338   250948   253319   253852 
  253463   252026   249021   246059   244443   243772   243475   244503 
  247101   249289   250352   252175   254928   255690   253594   250449 
  247845   247594   249790   251383   250231   248568   249682   251522 
  250549   249705   252054   253764   252086   249805   248555   247908 
  247943   247147   246067   248277   251533   251309   249081   247025 
  245639   246299   248247   249579   251492   254196   254003   250177 
  246415   244544   244794   247284   249493   250246   251899   253123 
  251041   248675   249924   253077   253621   251278   250117   250088 
  248263   246655   247625   248921   248881   248560   249012   250650 
  252782   252570   248179   243067   242330   245787   249660   251495 
  250462   248670   249161   250534   251245   252886   255243   255947 
  253519   250078   249234   249596   247780   244782   244028   247260 
  252220   254765   253894   250997   247639   246292   247083   247486 
  247914   250038   252297   252887   252949   253986   255178   254638 
  252354   250464   249594   248838   248444   248310   248125   248472 
  248690   248327   248524   248807   248413   248931   251002   252747 
  252796   252504   253345   253509   252427   252648   253420   252877 
  252501   252522   251577   249789   247942   247735   249259   249963 
  250061   249917   247803   245884   246555   247954   248989   250277 
  251873   253072   253088   252795   253459   254757   255611   254745 
  252396   251008   250614   249041   247833   248532   248992   249789 
  252078   252964   250938   247332   244912   245555   247328   249543 
  252613   254213   253667   252163   250609   249721   248533   246843 
  246127   246388   247279   249160   251071   251598   250909   249670 
  248217   247824   249347   251160   251460   250457   248899   247067 
  246164   247395   249046   250133   252626   255164   255247   254564 
  253439   250597   247490   245519   245301   246788   247870   247812 
  248173   249295   250483   251302   251280   250688   250549   250811 
  250804   250663   249957   248822   248999   250356   251816   252358 
  250033   246385   244961   245994   247440   246821   245392   247438 
  252019   254747   255667   256721   256228   253241   251197   251525 
  251399   250323   250163   250258   250200   250551   250113   249030 
  247900   246492   247089   249559   249949   248541   248395   250249 
  252976   254728   255056   253982   251517   250015   250542   251109 
  250875   250133   249365   249511   249980   248908   246269   245074 
  247405   250701   252188   252369   252046   251916   252570   251995 
  248911   246844   248890   253085   255487   254664   252767   250944 
  248930   249463   252354   252440   250398   250173   250040   248397 
  247093   246978   247563   247882   248410   250967   254138   254893 
  253050   250365   249197   250145   250614   249286   247878   248015 
  248929   248296   246808   246699   247118   247062   246821   246987 
  248463   250889   253183   254411   254173   253643   253484   252838 
  251850   250842   249322   248516   249141   249396   249523   250630 
  251214   250582   249196   247282   246445   247206   247885   248139 
  248587   249180   249856   250204   249941   250005   250402   249554 
  248391   249500   251133   250582   249895   250140   250298   251154 
  250389   246507   245035   247625   249636   249806   250123   251357 
  252007   251295   250846   251260   252051   252775   252288   251059 
  250411   249893   249885   250373   249494   248022   247592   247752 
  248509   250184   252147   252539   250603   248772   248239   248177 
  249301   251459   252640   252306   251457   251071   251360   251874 
  251919   251167   250607   249637   246662   244796   246582   249087 
  250533   250859   250164   250553   252108   252578   251874   251017 
  250137   248981   248117   248451   249697   250913   251343   250763 
  249243   247777   248472   250531   251172   250758   250480   250585 
  251356   251118   249419   249318   251086   251533   250492   250767 
  252198   252359   251409   250036   248556   248630   249678   249781 
  249563   249457   249546   251459   254259   254483   252325   250771 
  250284   250195   250601   250265   248886   248385   248911   249453 
  250214   251125   251368   250804   250342   250364   250076   249914 
  251064   252373   252294   251132   249211   246928   245546   245320 
  245226   245671   248089   251014   251714   251071   251139   251888 
  253147   254068   253496   252605   252520   252598   252138   251237 
  250589   249844   248609   248243   248568   247854   246631   246345 
  247379   249010   249428   248224   247546   249093   251583   252474 
  251934   252174   253422   254655   255171   253619   250589   249052 
  249675   250661   250831   250314   249057   246501   244487   245759 
  248537   249930   250859   251715   251509   250932   249774   247838 
  247463   249092   250724   251117   249327   246431   245558   247151 
  249161   250110   250358   251739   253868   254226   252671   250947 
  250025   249624   248971   248617   249389   249916   249319   249174 
  250327   252039   252655   250726   247857   246750   247441   248143 
  247996   247835   248036   248061   248786   251170   252814   251788 
  251010   251892   251784   250608   249801   249539   250875   252717 
  251897   249319   248563   250044   251056   250730   250462   249755 
  248460   249031   251482   253295   253446   252460   251442   250308 
  248964   249286   251154   251885   251102   250485   250042   249035 
  248325   248202   247914   247722   248478   250222   251444   250983 
  249270   247217   246573   248332   251172   253120   253088   252076 
  251024   250041   250689   251706   249944   247622   247633   249227 
  251379   252479   251645   250869   251870   252979   251451   249106 
  249326   250593   251336   252342   252728   252482   252290   251302 
  250588   251089   250611   248413   246484   245627   245612   247333 
  250011   250587   249516   249474   249469   248630   248935   250549 
  251667   251519   250875   250717   250483   249781   249663   250403 
  251923   253654   253597   252039   251283   251922   253558   254354 
  252352   249791   249272   250028   250959   250634   248090   245560 
  245477   247280   249050   249751   249351   248269   247313   247580 
  248757   249147   249400   250005   249324   249372   251857   253505 
  252598   250348   248840   249508   250461   251097   252899   253341 
  250389   247251   246634   248024   249361   248914   247166   245104 
  243410   243714   245890   248296   251330   254503   254761   251974 
  249841   249964   250126   248950   248201   249156   250678   251834 
  252088   251398   251032   250518   249195   249413   251733   253015 
  251441   248979   248042   247565   245898   244479   245018   246877 
  248246   248441   248900   250662   252238   252219   251571   252011 
  253542   253578   251109   249355   249450   249054   248417   249385 
  251475   252547   251922   251824   253168   253678   252730   252248 
  252130   250107   246933   246038   247774   249875   251599   252929 
  252784   251310   250156   249825   250152   250636   250555   250155 
  249251   247993   248387   250939   253282   253866   253937   254257 
  253763   252512   250414   248047   248486   250148   249269   248830 
  250654   250813   248818   248152   249520   250807   250830   249832 
  248803   249272   250790   251561   251810   251935   251684   251738 
  250861   248084   246855   248321   249685   250187   250086   250036 
  250987   251785   252005   251727   249747   248225   248983   249189 
  249250   251148   252270   251241   249447   248152   248557   249609 
  249987   250792   251941   252512   252501   250962   248822   249077 
  250932   251722   250859   248915   247531   246788   245585   245974 
  248734   250777   251838   254284   256351   253889   249052   247719 
  248512   247581   246812   247676   249205   251162   252269   251105 
  249000   248906   251496   253567   252629   249768   246763   245839 
  247649   249142   249864   251291   251961   252310   252732   250299 
  246863   247286   250574   252296   250393   247517   247554   250242 
  253199   254443   253304   251629   250580   250582   252085   252682 
  251418   250510   250014   249980   251081   250709   247926   246481 
  247036   246127   244711   245898   247585   248107   249286   250452 
  250663   251372   252171   252381   252784   252769   252823   254333 
  254896   252329   249426   249412   251251   251664   249647   247079 
  245070   243558   244134   247476   250724   251301   249951   248746 
  247872   246819   247183   249914   252510   253091   252892   252320 
  250967   250692   252166   253332   254088   254789   253756   251988 
  252277   254171   255393   254570   252050   249895   250114   251641 
  251739   251128   251311   250763   249369   248701   248552   248617 
  248846   248256   246982   246686   247608   248458   248564   247351 
  245552   246362   250002   252892   254345   255445   254961   253196 
  252185   251694   251972   254323   256722   256643   256001   256895 
  257443   256729   256435   256011   255112   255810   257173   256832 
  255208   253477   252726   253027   253812   255232   256157   255947 
  255436   254284   253262   253986   255194   255064   253354   251230 
  252043   256595   259644   258083   255843   255503   255125   254172 
  253466   253928   256508   259389   260953   262080   262426   261856 
  260860   257862   253547   251199   250414   249041   247422   246204 
  244780   242784   241219   240405   239083   238684   240692   241899 
  241744   244086   248224   250176   251028   254375   258923   261932 
  263902   264602   263301   261954   260748   257509   253349   250310 
  247799   244491   239657   234793   230405   223923   217483   215038 
  213483   209055   202521   196032   191739   189812   188377   186702 
  185569   185561   186267   187564   191540   200348   211594   219420 
  221350   221062   223879   233354   249903   269272   286258   298803 
  307152   312704   315956   316888   316800   315010   311107   308533 
  308010   306902   304510   301530   298732   295019   286737   272351 
  254118   234478   216805   205112   197976   191913   187338   183182 
  177476   174861   179756   187209   191068   192423   194115   195513 
  196649   201575   213162   228596   244154   259114   271591   277686 
  277596   277319   282714   293882   305422   311219   309954   304611 
  298518   296325   301561   310582   315381   311420   300759   288503 
  278569   273144   272170   271653   266134   255830   247307   245263 
  248802   254365   256987   254165   249636   246767   243677   238397 
  232417   227554   222466   216249   212784   216021   225607   237664 
  246514   250335   251927   252228   251586   253191   257697   260032 
  255924   247041   238017   233253   236011   246730   262390   277215 
  286461   289249   284580   272459   259511   252926   252551   253022 
  250226   246098   243992   243039   243228   247024   253258   258172 
  262334   267791   269966   264330   255579   249828   245273   235938 
  222879   214505   214983   224415   241011   256724   265207   267891 
  268978   271593   274060   272816   270247   270059   267629   256927 
  242805   235516   239916   253328   267123   274985   278210   278567 
  277051   276589   275914   271084   264473   261198   260838   257820 
  248543   239044   239394   248933   258705   266184   272093   270055 
  257631   244692   239043   239144   241178   242019   238605   231853 
  227750   227773   228177   230197   235197   237797   234856   229562 
  225495   223364   222390   224286   230823   238470   243398   245848 
  245540   241880   238210   237186   237234   238335   241137   243342 
  245336   248170   248421   247201   249268   249018   239336   226893 
  220995   221749   224878   226233   224145   221678   222411   224433 
  223311   219902   219144   220935   220718   220093   222982   226220 
  230110   240700   255421   267648   275879   279809   279310   274693 
  269107   269293   275113   279458   280663   281009   279948   277222 
  273574   269492   267471   269536   273959   276748   275942   274611 
  275265   274908   270375   262988   255672   248526   239780   230188 
  223580   222416   224526   226457   229788   239419   252946   262113 
  266890   271351   272633   270689   271215   272631   270579   268554 
  270494   273144   270851   264126   260590   264384   270432   273699 
  275116   274953   269601   258299   246291   239033   237729   239488 
  239431   236055   232800   231560   230133   227892   228171   232321 
  236441   236341   231365   224266   219029   216201   214909   218274 
  226801   234747   239695   243515   246115   246632   245270   243075 
  242015   242792   244470   246507   247707   246801   245353   245340 
  247461   251500   253349   251224   251800   256707   259069   258400 
  258218   256639   251154   243091   237053   235519   233771   228279 
  223129   222943   227909   235569   243359   250271   257242   262607 
  261800   258666   261701   267861   270085   269689   270855   274590 
  276112   271395   266630   266765   266660   263206   258495   252813 
  247087   244472   245332   246600   245496   243340   244495   248474 
  250079   248931   247453   244668   241267   240520   242604   246473 
  252228   258395   264080   269932   272755   270471   267352   265160 
  262257   260092   259937   261152   264076   267268   268174   269212 
  273257   276801   275589   270174   263605   257700   252405   248188 
  245072   241447   237427   235101   236709   242179   245839   242769 
  235707   229352   225985   225763   225408   223846   225359   229884 
  232557   232718   233679   237668   242536   244480   243062   240529 
  241134   248290   257840   261937   260514   259353   259002   256489 
  252556   249154   246935   245241   242919   242914   247391   251429 
  252406   252652   251931   249473   245762   241258   238064   237907 
  240071   241623   240139   237793   238258   242842   249507   254307 
  257013   258228   255676   250638   247374   247372   249804   253027 
  256140   259276   262761   267626   273103   276501   278074   278629 
  274868   266055   258986   257492   256930   255154   255556   258032 
  258651   256247   253978   255276   258489   258859   255596   252217 
  251523   252248   251278   247320   242383   241521   245592   249621 
  252544   256018   258129   257008   252779   246291   240173   237678 
  239349   242789   246456   250067   251816   251895   253212   254641 
  254985   257100   259783   261111   264529   269963   273383   273748 
  271327   266758   260880   253714   247116   243999   244246   244556 
  243311   242585   242809   242385   241884   243525   248202   252778 
  253255   250276   247468   246820   246812   245709   244895   245319 
  245606   245569   246291   247510   247927   247190   245602   244147 
  244678   245903   245532   245906   247545   246546   243228   241269 
  240559   238759   237103   239176   244529   249617   252331   251534 
  247846   244094   241465   239414   238526   239035   240444   243148 
  245425   244869   243818   243599   240844   235943   232945   232209 
  232698   235730   241096   244158   241564   236571   234173   234543 
  234989   235303   235935   235731   234993   233919   233388   236695 
  241498   242666   243137   245808   246809   245142   243175   241780 
  242792   245853   248057   249860   251241   249870   247955   250857 
  257947   262838   263761   264026   263281   259900   257195   257658 
  258612   258495   258865   259749   260410   261829   263063   261891 
  259695   257565   254963   253845   254731   255293   254998   254238 
  252890   252471   255028   258826   259443   256053   252636   252448 
  254558   256487   257713   258581   258776   259754   262813   264506 
  261886   257945   256323   256192   255754   256213   257872   258476 
  259140   262356   265291   263808   258302   252215   248051   245296 
  243147   242592   243457   244561   245647   246257   247121   249552 
