Origin Time       2024/04/02 04:24:00
Lat.              40.133
Long.             141.712
Depth. (km)       71
Mag.              6.0
Station Code      IWTH05
Station Lat.      38.8654
Station Long.     141.3512
Station Height(m) 120
Record Time       2024/04/02 04:25:00
Sampling Freq(Hz) 100Hz
Duration Time(s)  123
Dir.              6
Scale Factor      7845(gal)/8223790
Max. Acc. (gal)   15.379
Last Correction   2024/04/02 04:25:00
Memo.             
[...]
    -517    -2103     3022     4455    -2212    -4267      396     2552 
    1209     2008     4864     3789    -2209    -6953    -4240     3693 
    6706     3925     2258    -1098    -6115    -5375    -1609     1537 
    5799     8027     6189     1992    -3947    -7927    -5726      467 
    6035     7237     2274    -3437    -3134      643     1283    -1691 
    -895     6189     7647     -286    -4189    -1691     -969     -576 
    2362     4401     2597    -2308    -5373    -2620     2047     4290 
    5138     4133      918    -1451    -2027    -2201    -1957      221 
    3630     3515      -89     -379      918    -1660    -1674     3179 
    4792     2282    -1375    -3723    -1429     1875     2266     1193 
     707     3616     6384     2820    -3766    -7481    -5220      988 
    4337     3889     2231     1738     3063      878    -2613    -1829 
    -957     1108     4538     2354     -483      476     -652    -2072 
     957     3811     1610    -1863     -495     2342      -79    -1663 
    2116     2064     -942     1354     3441     2057     2828     2832 
   -1864    -5624    -3777     1144     3564     2970     2550     1431 
      60      851     1379     -449    -1776     -696      386      445 
    2216     5094     3148    -3179    -4283     -321     -774    -2201 
    1838     5101     3802      -62    -3281     -541     2627      340 
     950     4341     3356     -141    -2983    -1555     1190    -1498 
   -2515     2070     4098     2610     1563      781     -970    -2922 
   -2876     -368     3593     6227     3877     -468    -1811    -1657 
      -1     2894     1593    -1590     -238     2782     1898    -2288 
   -3663     1154     6269     4907      114    -1572    -1220    -1609 
    -256     2258     1900     -657     -955     3279     4781    -1760 
   -4887      595     3904     3369     2652     -248    -1792     -334 
    -577     -136     1927      924     -310     1047     1683     1768 
    1167    -1684    -3099    -1154     2308     4810     1942    -3623 
   -2802     2571     3284      576      719     2231     1189    -1217 
   -1256      580     1140     1159     1220      198     -309      421 
    2096     3477      614    -2253     1611     4255      288    -3235 
   -3856     -541     5320     4822      445      -47      338      892 
    1418    -1902    -3780      309     4133     3269      -33    -1023 
     967     1085     -487       36     1198     1170      629     -326 
     249     2587     1505    -1108      634     2558     2998     3395 
    -696    -4099    -1270     -255      -91     4330     5017       37 
   -2646    -2200    -1533      183     1575     1066     2324     3298 
    -413    -1868     1911     3099      777     -206      529      621 
    -891    -1648     -448      571     1405     3038     3927     2326 
   -1356    -3064    -1062      945     2974     4649     1830    -2022 
   -2731    -2366     -981      436     1278     4144     5664     2404 
   -2841    -6377    -3369     4320     6617     1838    -1548      992 
    3939      213    -6843    -6027     4297     9544     2829    -1738 
    2133     3867     -155    -3821    -1617     2926     2236      618 
    1250    -1370    -3257       56     2150     1318     1981     3808 
    2521    -3199    -5710    -1023     1251     -191     2412     4669 
    2241     -302    -2276    -3973    -2905     1544     6102     5093 
     240     -673     1480     -237    -4087    -2101     3739     5283 
    2851    -1059    -5121    -4310      734     3784     3518     2350 
    3042     4149      314    -5679    -5260     -109     3333     5972 
    6535     2428    -1867    -4332    -3538     1557     2983       44 
    1274     4255     2610    -2015    -4083      -91     4845     4320 
    1753      870     -263    -1640    -1545     -918      256     3469 
    4791     1345    -1196     -238      256    -1325    -2413      -48 
    3997     5626     2979    -2335    -3748      234     1783     -727 
    -900     1736     2918     3132     3396      853    -2956    -2550 
     467     1001     -238      363     3219     4013      128    -3780 
   -3275      267     3604     4039     1977     -206    -2536    -2943 
     533     2997     1757      922     2490     2844      -79    -2825 
   -3623    -2334     2286     5849     4322      938    -2705    -4696 
    -317     5729     4969      797     -541    -1024    -2236    -1432 
     704      859     1071     4386     5761      769    -5213    -5648 
    -195     4972     3619     -735    -1588      904     3514     3511 
    1001     -538      202      -95    -2334    -1548     3011     4518 
    1611      581     1147    -2150    -5196     -812     5100     3524 
    -195      618       86    -3176    -2216     1656     3761     4337 
    3163     -122    -4050    -5202    -1123     3507     4031     2556 
     729     -394      889     1259     -334      152      436     -785 
     511     1398     -214     -182      604      291     1472     3495 
    3233     1042    -1921    -3294       -9     4214     4001      363 
   -2596    -1501     1372      449    -1961      418     5032     4947 
     645    -3609    -5479    -1977     4392     5139     1651     1271 
    1715     -145    -1375     -907     1345     3203      945     -583 
    1771     1428    -1767    -2533     -963     1594     2764      826 
    -727       58     1057     1270      993      777     1674     2509 
     977     -626      179      712       71      298     1482     2166 
     696     -292     1544     1705     -133       52      760      -68 
     487     3025     2342     -302      361      359    -3127    -2835 
    3277     4538    -1343    -2405     2442     4178     2359     -143 
   -1736     -217     1173    -1566    -3709      191     5981     5977 
    1073    -1915    -1034     1487     2038     -741    -1760      811 
    3407     3300    -1921    -6828    -4564      344     5549     9224 
    2866    -6261    -3685     2798     2633     1111     1945     2427 
    1285       79      872     1420     -733    -1100     1925     1325 
   -2600    -2143      672      854     1669     4706     5227      892 
   -5036    -7155    -2720     4442     8432     5913    -1900    -6127 
   -2855      903     4288     7377     2432    -5449    -4599      396 
    2353      939    -1267     2033     7094     4101    -2470    -5414 
   -3973     1973     5352     1699    -1624    -1165     1012     2864 
    1958      606     1390      349    -3040    -1769     3098     2883 
     -78     1514     4384     3006    -2065    -6450    -4027     2937 
    5513     3952     2019    -1202    -3742    -2274     1248     2308 
     488      607     3464     2417    -2141    -1718     1221      977 
    2052     3252     1323     1620     1811    -2164    -2925      783 
    2262     2516     2945      915     -870     -913    -1638    -1278 
    1012     3234     4017     1435    -2710    -4191    -2131     2716 
    6006     2910    -1433     -696      531    -1051      -68     4297 
    5706     2436    -1165    -2879    -3373    -1858     1647     4090 
    3404      473    -1880    -1479     -556     -918      742     3628 
    2166    -1580    -1429     1487     2373      893     -506    -1337 
    -909     1501     2458      920      191      683     2026     2417 
     353     -869    -1732    -1845     2052     3217     -369     -301 
    1601      720      -87      552     2509     1999    -2729    -2308 
    3019     3026     1027     1755      923    -1702    -2424     -537 
    1458     1367      758     1858     2879     1949      681     -261 
    -405     1074      410    -1989      553     4595     2693    -1798 
   -2365     1050     1954     -637      342     3040     1946       70 
    -351     -591    -1374     -627     3040     2940    -1129     -157 
    2142      -60    -1224     -183      -70      113     1278     2485 
    1634      -31     1620     4025     2305    -1146    -2011      271 
    3046     2768      699     -637    -1934    -1773      116     1749 
    2313      657     -396      820      738      179     -595    -2438 
    -583     2632     1475     1138     3298     2697     1422      770 
   -1599    -2112       25     2239     4872     4565       74    -3604 
   -3753      148     4113     2486     -220      409     -330    -1946 
     233     2593      506    -1339     1395     2786      -63    -1202 
     105      695     1972     3711     1929    -2133    -2585      909 
    3385     2111    -1204    -2500      392     4291     3709     -400 
   -1521      950     1819     -687    -2355      429     3048     1198 
    -568      279      920     1406     1991      207    -2417    -2241 
    -824      803     3454     3923     1919      918     -741    -3619 
   -1907     3269     4464     3279     3169      724    -4183    -5899 
   -1918     2717     3406     3291     3924     1081    -3653    -4012 
    -581     1107      858     3568     7287     4741    -2382    -5244 
   -2104      858     1651     2465     2972     3470     3496     -398 
   -4903    -2346     3843     6065     3855    -1366    -4716    -2628 
    -203      384     1005     1449     2247     1590    -1996    -4491 
   -3298     1741     8051     7528     -519    -5745    -3600      407 
    2400     4596     4749    -1634    -5532     -403     3322     2512 
    3096     2000    -1629     -950     2416     1024    -1911      504 
    4083     2473    -1857    -2921      357     3137     1676     -834 
     388     1884      290     -182      -12     -633      341     -166 
   -1583     1113     3414     2398     2532     1738    -1617    -2628 
    -338     2451     2222     -535      791     4217     1544    -2290 
   -2089    -2909     -645     5545     2879    -2945       54     2296 
     268      889     1701     1524      612    -1294      483     1903 
    -668      349     1458    -2012     -774     3977     2879    -1659 
   -3916    -2259     1196     2315     2691     4229     3618     1336 
    -843    -3080    -2567     -233     1151     3125     4052     3437 
    2686     -904    -3844    -1780       45       95     2108     3834 
    1718    -2566    -4006     1204     5956      992    -4518      260 
    6030     2500    -2907     -992     2317      475    -2118    -1355 
    2128     4899     4047     1082    -1377    -1325      233      460 
    1786     4368     2606    -2043    -3966    -2624      727     3576 
    2539     1196     3025     -179    -6272    -1507     5672     3781 
     477    -1189     -886     2922     3909     2577     2045     -862 
   -1232     1183    -1900    -4052      523     4959     6250     2658 
   -4039    -5344     -317     4947     5000      286    -1795     -205 
      16     -568     -895    -1177     1071     3555     1340    -2411 
   -2095     1656     3613      376    -2585     -422      661     -352 
    2605     4433      190    -3420    -3138    -1706     -585     1487 
    6160     7491     2081    -1383    -1205    -1748     -180     2693 
    3443     2863      861     -105     1707     2309     1383      390 
    -846      -83      714     -459      739     3283     2922     1021 
   -1810    -4102     -168     6496     5158    -1942    -3856      719 
    3404      314    -1541     2708     5910     1398    -3588     -858 
    3051      874    -2154     -143     2771     1189    -1638     -699 
    2579     3051    -1067    -4050    -2147    -1381    -2462     1351 
    5042     1377    -2253       72     3260     3912     2119    -1474 
   -1399     2994     3658     2254     3391     1894    -1062    -1221 
    -754      155      468      612     2354      247    -4318    -2818 
    1379     1216     -873    -1386    -2012    -2416    -1066     -278 
    -445    -1031     -953     3203     5768      614    -3848    -2949 
    -552     2361     1771     -504     3311     5174     -862    -3744 
   -2323    -2184     -459      109    -1321     1618     3915     1375 
    -623    -2097    -2898     -731      781      816     1796     1642 
     700     1335     2425     3739     2979    -1343    -2963      128 
    3115     3642     1962     1686     3790     2851    -1853    -5317 
   -4572      245     5587     6647     4580     2763     -510    -4017 
   -3959    -1246     2272     4082     3711     3078      209    -3084 
    -375     5499     6624     3187     1780     4768     5566     1804 
    1279     4125     3252      322    -1638    -4560    -6917    -5880 
   -1749     1699     -356    -3365     -403     1957     -746      -60 
    4415     6717     7778     5810     1385    -1148    -3831    -3943 
     484     3750     6590     8073     3429    -3211    -8037   -10654 
   -6933     1009     3677     1337     3235     8959     7294    -3369 
  -11041   -10270    -5251     1242     6385     6539     2797     1005 
    2497     3195     3588     3964     2056      360     1073     2594 
    1910      332     2400     1464    -5863    -6114      711      970 
   -3943    -5655    -3380      -17     4452    10542    13633    11002 
    4957     -589     -938     2052     2408      784      120     1213 
    3129      367    -6754    -8757    -7072    -8202    -6085      494 
    3963     4411     2918      387       74    -2911    -9000    -5832 
    5787     7807    -2714    -7816    -3075     -471     2093     9919 
   13030     6925    -1289    -5734    -3580      298    -2355    -6507 
   -2099     5304     4742     -180    -1682    -2215    -3249       97 
    8321    15774    16733    10535     1923    -2394    -1109    -1895 
   -5674    -3892      946     1431      487     -641    -4630    -6970 
   -3996     1341     6473     7202     1339    -3721    -4477    -4880 
   -2189     5112     9590     8164     4544     1865     2053     2482 
   -3028    -7909     -587     7623     2857    -4769    -5080      -25 
    5834     5319    -2270    -7350    -3798     4159     7295     3709 
    1113     2741     3348     -905    -5229    -2920     -629    -3576 
   -1251     4477     4461     4008     1911    -3072    -2313    -2272 
   -8595    -7851     2785    11611    12355     3375    -6930    -5242 
     661    -2243    -4326     2457     8351     6860      465    -4112 
   -2349    -1240    -3919    -2728     2268     5235     4243       70 
   -2467     -984    -1047    -4102    -4079     -947     1259     3389 
    6617     9297     7784     2054    -3237    -7171    -7119       24 
    5287     3488     2187     2948     2840     1364    -1530    -1181 
    2525     1841    -2502    -4357    -4816    -4606     -769     3962 
    4772     2586     2498     4345      762    -5741    -4862     2998 
   10261    10882     6085     3165      920    -5246    -8405    -2878 
    3639     5517     6299     3343    -5881    -9783    -3280     3832 
    5923     4596     2945      854    -3780    -6000    -2366      321 
      78      148    -1202      668     8386     8405    -1567    -6531 
   -3204     1381     3175     -816    -6527    -3539     4139     1034 
   -7086     -857    12213    12522     5491     4222     3786    -2245 
   -6652    -4282     1822     7426     7825     4831     2629     -398 
   -2204     -919    -1810    -4571    -2573     3646     7109     4876 
     -39    -3808    -3881      776     6033     6952     5557     3797 
     760    -1080     -598    -1826    -5690    -6586    -2644      438 
    1001     2658     3461      560     -928     2407     4722     2128 
   -1694    -4498    -5815    -5656    -6783    -5383     2596     7284 
    4685     3886     2550    -3662    -5040     -889       82       -1 
     989     -471     -923     3666     6435      967    -5815    -4556 
     885     1954     -345    -1618     1200     8822    11137      618 
  -10492    -9528    -1123     6168     9231     7915     6332     4957 
     429    -2702    -2118    -2076     -619     4364     7037     4491 
    2448     2914     -426    -7755    -9575    -3029     2496     1780 
    1197     1468     -897      259     2899     -699    -4617    -4275 
    1395     9900     7492    -4703    -9682    -5436    -1233     1593 
    7641    10616     3071    -2679     -392     -761    -3377    -2944 
    -499     3412     3739     -803     -691     3720     3230      801 
    1116      896     1421     3662     3658     2281     2713     3539 
     160    -6844    -8071       79     6027     2323    -1422      446 
     857    -1147     -855      216     -442      556     4828     5854 
    3279     2392    -1071    -5422    -1664     3658     3021     1661 
     785    -1532    -1684     1510     3252      994    -1109      124 
     756    -2492    -5544    -4877    -1549     3091     5803     6326 
    8692     7639    -1200    -6388    -2201     2200     2230      256 
   -1768    -1097     2471     3994     1715      303      422    -1547 
   -3462    -2110     1213     3464     2567     1890     1944    -2987 
   -7348    -3565      -29     -440      492      444      407     4318 
    6353     1732    -3755    -1827     3682     4282     4078     4803 
    1409    -1813    -1517     -560     -383    -1354     -365     2061 
     392    -2641     -268     3836      756    -4441    -1181     3608 
    2425     3246     6083     2029    -5737    -9753    -6497     1804 
    4604      573    -2185    -2758    -1055     4391     8525     6928 
    4101     4132     2652    -1001     -498     1759    -1694    -5776 
   -1879     3136      700    -2628    -1486     1891     5607     6284 
    4499     1151    -4911    -5718     2185     6829     1210    -3981 
     980     7753     6243      -54    -3296    -1568      978      454 
   -1463    -1869    -1247     -317      218      430     -202    -3453 
   -2889     3770     4797      866     1633     3420     2701      957 
   -1989    -1929     2412     3832      423    -1155     1480     3600 
    3150     1128    -1956    -2724      103     2714     3204     1258 
   -1953    -2798    -1062      567     1728     4032     5787     1946 
   -4685    -5418    -1050     2778     6066     8243     5976      581 
   -3187    -4461    -3805      -12     3256     2025      892     2173 
    1135    -1732    -2825    -3368    -1591     2339      577    -2609 
      18     1638     2157     2928    -2500    -5872     -156     3379 
    2948     2956     -348    -2158      627     1073     2632     6772 
    4546    -1201    -3669    -4575    -3393       20     1890     1611 
    2135     4260     2107    -4603    -4002     4252     7038     4112 
    1961    -1479    -3334      950     3427      367     -557     1579 
    2340     1479    -2505    -6241    -1560     4533     3341     3059 
    5981     3555    -2388    -3244       -5    -1441    -4638     1591 
    8251     3148    -2582    -1792     -301      346    -1264    -2682 
     324     1050    -1047     1015     1559     -839     1795     4885 
    2721     -646    -1571     1431     3897     1784      450      988 
      20     -252      756     1768     2196     -128    -2633    -1503 
     812     1934     3179     6021     6170    -1085    -7184    -4405 
   -1316    -4051    -5985    -1576     4704     6091     4071      846 
   -3434    -1942     5173     6729     2479     -534    -1803    -1448 
    -803    -2930    -3443     2154     7406     6241     1895     -850 
    -930     -621     -247     2128     3127     1591     2061     2471 
