Origin Time       2024/04/02 04:24:00
Lat.              40.133
Long.             141.712
Depth. (km)       71
Mag.              6.0
Station Code      IWTH08
Station Lat.      40.2686
Station Long.     141.7831
Station Height(m) 75
Record Time       2024/04/02 04:24:48
Sampling Freq(Hz) 100Hz
Duration Time(s)  135
Dir.              3
Scale Factor      2942(gal)/8224139
Max. Acc. (gal)   16.692
Last Correction   2024/04/02 04:24:48
Memo.             
[...]
   97225    97225    97225    97224    97222    97222    97222    97224 
   97224    97222    97224    97222    97222    97225    97227    97225 
   97227    97227    97224    97221    97224    97225    97224    97222 
   97224    97225    97225    97225    97224    97222    97224    97224 
   97224    97224    97225    97224    97224    97224    97222    97224 
   97225    97222    97225    97227    97224    97224    97224    97221 
   97222    97224    97222    97222    97224    97225    97225    97224 
   97221    97224    97224    97221    97221    97222    97222    97225 
   97224    97221    97222    97224    97224    97224    97222    97224 
   97224    97222    97221    97221    97222    97222    97222    97225 
   97224    97218    97222    97227    97222    97221    97224    97224 
   97221    97222    97225    97227    97222    97221    97224    97224 
   97222    97221    97221    97224    97224    97224    97222    97221 
   97222    97224    97225    97224    97222    97224    97224    97224 
   97225    97222    97220    97224    97227    97224    97222    97224 
   97222    97222    97224    97224    97222    97224    97224    97221 
   97221    97224    97225    97224    97224    97224    97222    97224 
   97225    97224    97224    97224    97222    97221    97225    97227 
   97225    97227    97225    97222    97224    97224    97222    97224 
   97222    97224    97227    97225    97222    97221    97222    97225 
   97227    97225    97225    97225    97222    97224    97225    97225 
   97225    97225    97225    97225    97224    97227    97228    97224 
   97222    97228    97228    97225    97222    97221    97225    97227 
   97224    97222    97225    97224    97224    97227    97228    97227 
   97225    97225    97225    97225    97225    97224    97224    97225 
   97225    97222    97222    97224    97224    97224    97224    97225 
   97225    97225    97225    97227    97225    97222    97222    97222 
   97224    97224    97222    97224    97228    97225    97222    97222 
   97225    97225    97225    97227    97225    97222    97224    97224 
   97221    97224    97227    97224    97222    97224    97225    97227 
   97225    97224    97224    97225    97227    97225    97222    97224 
   97225    97222    97222    97224    97221    97221    97225    97225 
   97222    97224    97224    97222    97221    97220    97220    97222 
   97220    97220    97224    97222    97220    97222    97222    97221 
   97224    97225    97225    97224    97224    97225    97222    97220 
   97218    97221    97221    97222    97221    97221    97224    97225 
   97224    97222    97224    97224    97222    97224    97224    97222 
   97224    97222    97218    97221    97225    97222    97222    97224 
   97224    97221    97221    97220    97220    97222    97222    97221 
   97222    97222    97224    97222    97218    97217    97221    97222 
   97220    97220    97222    97222    97222    97225    97225    97222 
   97222    97221    97221    97222    97225    97225    97225    97222 
   97222    97225    97225    97224    97222    97222    97222    97224 
   97224    97225    97224    97221    97222    97222    97222    97222 
   97224    97225    97222    97221    97221    97221    97222    97222 
   97220    97222    97225    97225    97222    97221    97222    97222 
   97221    97220    97222    97224    97224    97224    97222    97222 
   97224    97225    97224    97221    97221    97222    97225    97224 
   97222    97224    97224    97221    97222    97224    97224    97224 
   97222    97222    97220    97220    97225    97225    97224    97225 
   97225    97224    97224    97222    97222    97222    97221    97221 
   97225    97224    97221    97225    97227    97225    97224    97224 
   97225    97225    97225    97224    97222    97225    97225    97224 
   97222    97224    97225    97224    97222    97225    97227    97225 
   97224    97225    97224    97222    97225    97227    97224    97222 
   97224    97224    97224    97225    97225    97224    97225    97227 
   97227    97224    97222    97224    97222    97220    97224    97225 
   97224    97222    97224    97225    97224    97221    97222    97222 
   97222    97222    97224    97225    97222    97220    97221    97224 
   97224    97224    97224    97222    97221    97222    97225    97224 
   97224    97222    97220    97221    97224    97221    97220    97221 
   97224    97224    97221    97221    97221    97221    97224    97225 
   97221    97220    97221    97222    97222    97224    97224    97222 
   97224    97225    97224    97222    97224    97224    97222    97224 
   97225    97222    97222    97221    97222    97227    97239    97303 
   97503    97872    98200    98140    97834    97972    98527    98389 
   97379    97065    97945    98032    96434    95385    96265    97266 
   96828    95554    94694    95238    96799    97785    97416    95823 
   94880    96628    99029   100083   100998   101414   101140   102138 
  102878   100943    99571   100592    99666    95203    91134    91381 
   94225    93575    89091    86366    91531   100502   100242    97387 
  101337   102894   101476    97603    92318    96171   101672   101868 
  104136   101451    96268   105251   111950   101008    93995    98351 
  103624   104301    94730    85029    86332    93506   101128    96741 
   83235    85382    99939   111427   109343    90863    83312    88901 
   90004    96626   103890   102500    96010    96890   112591   111403 
   98898   104805   109574   107198    97337    81488    84198    94390 
   89293    80858    82505    86861    91007   103029   120885   122370 
   94521    81845   106791   116499    98478    90289    95301    90985 
   83853    90379    88960    84437    94464    92152    87669   100155 
  104633    98143    95095    90921    84037    87141    90711    88103 
   90148    88770    99766   113337    90171    78705   106623   118203 
  108999   107404   103847   104310   118415   111834    87224    82233 
   86664    81554    80545    95762   105429    97267    93900    99496 
  103901   100716    94903   106258   113309    98255    98149   111628 
  101987    72760    61836    80188    93822    99084    98664    91685 
  108263   118976   107256   108356    93700    78314    98982   101112 
   90763   101038    93105    85228   103481   110390   103720    97652 
  104311   122829   114970   102014   109158    99129    86039    93835 
   93579    81344    84009    98475    99561    94479    99021    95588 
   81407    88960   108913   100638    90634   101688   101831   106096 
  110490    82313    74252    95914    96886    95419   101156    99193 
   99031   100310   100984    99274    93699   101839   115173   102042 
   88385   103971   104373    85826    92075    95197    83515    89583 
   95355    93835   106065   109000    88014    85534   108495   110787 
   91353    82055    94355   113671   111798   103288   110330   100846 
   81340    93367   108444    99457    91947    91995    94448   107848 
  117205   106535    93626    87390    89973   108064   112600    91030 
   87816   103550    97818    89662    95380    95145    93649    92850 
   97074   102143    92345    94759   100005    81108    75609    86150 
   90248   100091   107696   103365   104566   110678    99254    80885 
   85642   100134   101443    97934    97278    95785    96492   106567 
  108398    93731    94697   105559   100838   101663   108519   100880 
   94189    91157    82620    87072    96487    91712    91798   102339 
  108060   103173    94267    93729    92885    87184    94008   103755 
   98174    91639    97256   104989   105505   102874    91818    75529 
   85707   110204   107931    91693    92411   103844   104241   101424 
  104118   104373   106861   103306    93079    94157    99792    99574 
   90458    80770    86985    97526    98335    96499    93989    91191 
   96151   104085   104441    98393    92449   101397   110790    94192 
   85737    94938    90805    91018    93749    85509    93486   105070 
  104112   110342   107707    93391    97038   102748    96414    99431 
  105513   100111    92518    87995    91282    98559    96055    90618 
   86796    86953    97992   103126    97860    96913    97915    97514 
   95840    94135   100326   105587    99819    97517    99347    92554 
   89001    98473   100726    89757    92381   105344   103250    96493 
   99021   102543   105093   108275   102906    94678    96552    98959 
   96865    96506    98564    96905    91076    92063    93985    95566 
  102281    97475    90992    97560    96950    92271    98802   107931 
  108309    93170    83945   101498   110290    96997    94559    98397 
   92686    88393    93970   103469   108643   111747   104090    85375 
   88199   104629   102284    95056    89770    85905    94165    94342 
   89930    99824   101598    96716    98292    96194    96684   103771 
  103160    91570    88352    95164    95427    97688    98531    91161 
   93891    98551    96920   100063    99388    95152    94826    92878 
   95971   103879   104395    98250    90162    91295   100336    96187 
   85484    89302   101031   103549   101108   101426    97023    97139 
  101428    94598    96645   106543   103582   102546   103752    98676 
   96465    94819    89125    89737   101495   104561    97094    99789 
  104016   103995   105983    99601    89584    88947    94729   101586 
  102296    93865    89051    93618    96844    93995    88516    89950 
  100647   104078    98821    99150   102721   103140   101768   100576 
  100908    97468    91601    91937    91331    90886    97899    93557 
   83980    97640   109336    97850    92847   100769   106698   106053 
   98016    97167   101445    93771    90825    98185    96813    94510 
  100252   102351    96074    93271    99274   101505    97340    94481 
   99457   106212    96681    89841   100596    98109    89063    95652 
   93523    82472    88693    98570    99085    97884    91106    92669 
  104830    98224    89559    96399    91737    85446    95933   101996 
  101317   100226    94007    98254   112079   111528    96002    86135 
   98593   111203   102699   102157   106284    92240    89009    92040 
   81653    86834   100287    99453    96611   100068   111187   107033 
   85737    92495   105796    89321    87085   102141   100565   105058 
  110674    91706    81662    94876   104730   106158   101166    97615 
  106307   110077   104052   102744    95401    84663    85746    83867 
   85452    98749    95046    86842    96892   101077    93047    88759 
   93048    98814   104851   115285   111161    96261    97592    99041 
   87494    85040    93391    94292    92288   103855   114366   103617 
   95330    99617    92711    92759   104106    92688    90587   115507 
  115163    96712    94068    93945    91413    94942   100909   102937 
  101301    95667    87736    94734   109509    99590    84604    97411 
  108129   100110   101110   103486    91621    86908    85533    77201 
   85299    97124    89145    88092   103918   106216    92622    88642 
   91627    92762    98732   106335   106536    94306    91633   106483 
  100278    84125    89445    91901    92932   107954   106186    93216 
  101852   108807   101764    96585    89961    92273    99404    97568 
  103634   105830    90976    86101    95191    99187    98109   100059 
   97677    94675   101321    99951    96121    98143    86459    84595 
   99454    98035    94258   100035   100229    98802    98748    95450 
   97681   105703   102170    96388    96534    89561    95727   108826 
   96043    86317    93887    97087   100800   102822    98308    96796 
  103692   111562   101163    87172    93835   101911    99901    95833 
   92564    94165    96040    94193    93974    98599   105048   103134 
   91673    88325   100800   108657    97576    84743    87124    95665 
   99015    98712    95323    91380    93340    98980   103265   105039 
  100803    95277    99654   103581    96827    95359    99802    95017 
   91733    98281    99696    97363   100838    98626    91071    93532 
   97943    96456    98452   101151   101218   101684    98014    92507 
   88384    88680   101880   112423   101094    87156    93143   105733 
  104970    96282    93051    92562    92993   105551   112109    91860 
   81175    95899   102805    96961    92530    92788    97860   106691 
  109198    95976    88620    96408    91435    79743    89641   107788 
  110600   105671   103299   102010   105039   104220    88565    80508 
   95739   109729   104403    84843    71671    82848   100179   105977 
  102315    92637    96473   104814    87902    74898    87411    97924 
  101108    95126    82178    90759   106705   101517    89745    90016 
  112348   135336   126085   101413    91727   102385   110728    98257 
   92812   110236   117553   101727    92175   103894   118331   114825 
   97827    87542    81643    76092    84586   100083   106208   103418 
   99091    95997    93287    93042    98473   104488    97129    88570 
   95439   100746    99468    97962    93911    82005    69180    85383 
  112635   110281    96822    88986    86109    91023    84499    76250 
   92543   104179    91712    84655    99347   113360   104260    97298 
  108741   109224    99003    93656    86530    85511    96286   103203 
   98126    90838    95719   106130   112430   118893   115250   109641 
  115137   113927   119577   125352    92923    63139    73364    95864 
  103538    78476    50564    61074    87259    98658    89233    79544 
   94756   114739   119866   117767   113917   107227    98730   104707 
  122314   121263   104269    95716    91748    91003   100673    98895 
   85352    86416    96202   104159   102779    87482    76696    71104 
   66644    78641    93044    94304    98604    97598    89075   104626 
  118311    95071    77751    84033    87088    89104    92192    97425 
  102891    89962    83519   102975   109107   101217   103577   108514 
  117271   121265   109822   103154   101854    91806    85097    92167 
   96444    92271    94246    92912    85525    91940   104013   107674 
  104996    99119   102228   110482   103172    94379   102556   109669 
  104677    95428    93657   106077   111207   100462    97222    92931 
   79258    85317   101537    95998    86186    93206    98172    87683 
   81688    93287   103708    97969    87736    85584    88915    89769 
   89009    96431   102971   100024   106839   120406   121239   112083 
  103311   105568   106828    92808    82386    79378    72779    75284 
   90602    97035    89532    81384    81226    97737   114868   109518 
   97036    91818    90998    92736    94776    96925    94838    94134 
  101806   106450   108348   112645   113300   108807   103739   106681 
  110343   102978    96086    94765    96408   101844    99588    92435 
   97198   102451    90714    80434    91486    99931    88217    85545 
   96662    91809    82791    91366    99044    97873   100639   103951 
  105320   108110   102081    92357    97478   106502   105177   101144 
   97553    94852    94905    93861    95146    96704    91399    90601 
   97906   103951   105030    99455   101112   111831   105494    91161 
   93584    99943   102924   101333    87158    78686    81527    83533 
   90788    94171    88032    91729   103640   107550   102436    98825 
  102031   104554    97653    84836    83929    94894    99717   102223 
  105136   103655   106751   112873   116127   113373   101223    94346 
   96219    93895    89949    86999    83902    85315    94089   103708 
  102203    96988   101293   108726   112473   111863   106469    98361 
   92654    90308    84755    81743    86926    87330    83504    86744 
   94077   101337   104032    98764    92998    92557    96946   100719 
   98047    92816    92639    99072   101707    97204    99096   102500 
   97255    94046    94540    95062    98541    97140    88761    87948 
   97167   103218   103468   101474    97156    98266   103285   101425 
   97256    95972   100221   106228   102744    98967    97779    92456 
   95453   102278   101025   100580   100342    93545    88751    92396 
   93370    92078    98336    97750    91372    97995   105371   103601 
  102199   100101    95801    96348    99982    99146    98359   100815 
   98687    93984    94887    99256    99793    94589    90617    92091 
   96384    98031    92317    90421    97899    99986    97260    97802 
   98892   100423   100153    99543   101966    99222    97046   104544 
  106508   100157    97027    97947   101960   101367    94810    92268 
   94771    98932    97501    94778   100723   105583   108410   108706 
   97536    89973    92846    94872    97177    94713    85675    87065 
   93966    92119    91582    92630    92198    99814   105629   102135 
   99424   101083   105655   104661    97737    97210    99191    97375 
   96774    98541    97276    92115    93253    96738    93654    93880 
   94900    93171    95176    93263    91547    96284    96969    94760 
   92337    89841    93279    99627   103285   105381   106257   102794 
   97650    96928    98334    98346    96606    94593    96283    97264 
   94315    95692    97830    94801    93105    91876    91855    94722 
   94045    94238    96417    92753    90680    95115    95682    91569 
   90748    94559    97568    96479    98108   100218    95854    95466 
   99307    99846   101252    99742    95472    96280    97837    97096 
   96290    94941    93537    92740    94554    98574    99789    98392 
   97213    97163    98311    97097    94933    97054    98028    93718 
   92967    98016   100383   100472   101266   101943   105475   105371 
   99785   102651   106320   100221    98307   100597    95863    90100 
   92238    96593    93654    91066    96025    97436    95339    98849 
  100286    98022   100332   101729    99341    99131   100341   101598 
  102780    99816    94752    95635   100938   102591    98215    94541 
   99403   104510    99928    94778    93988    93224    94238    94012 
   91990    95372    99963   100350    99704    99208   100928   104314 
  103150   100387   100596    99060    98695   102851   102659    96890 
   93241    94508    96246    94139    94983    99245    95137    88358 
   92149    98282    96691    94036    94298    95500    98826    99520 
   95985    96715   100874   100485    95536    92491    93602    95017 
   96712    99292    99963    97996    95759    97046    98277    93795 
   91156    96043   100110    99216    95878    93407    98309   105102 
  102558    96099    95373    98533    98975    96981    95542    96059 
   99496    99304    94127    92060    93097    94652    95571    94400 
   94317    96169    97870   100287   101946    99484    95809    94311 
   96637   103621   105097    99175    97792    98189    96580    97131 
   95747    93351    95577    97255    95343    94097    94255    94051 
   92124    90281    91470    93511    93625    92545    92311    93263 
   93561    94387    96854    98348   101105   103064    98204    96527 
   98995    94840    94320    99158    97193    96595   102213   103281 
   98338    95584    97225    98629    99404    99549    97981    98604 
  101123   101310    99685    98367    96932    94986    96219   100958 
  102347    98744    96055    98128   100882    98242    93452    93185 
