Origin Time       2024/04/02 04:24:00
Lat.              40.133
Long.             141.712
Depth. (km)       71
Mag.              6.0
Station Code      IWTH16
Station Lat.      39.6436
Station Long.     140.9465
Station Height(m) 212
Record Time       2024/04/02 04:24:53
Sampling Freq(Hz) 100Hz
Duration Time(s)  187
Dir.              5
Scale Factor      7845(gal)/8223790
Max. Acc. (gal)   35.735
Last Correction   2024/04/02 04:24:53
Memo.             
[...]
     -76      -74      -75      -75      -74      -72      -74      -75 
     -76      -76      -74      -74      -74      -75      -75      -74 
     -74      -74      -75      -76      -76      -74      -75      -75 
     -71      -71      -75      -76      -72      -72      -75      -75 
     -75      -74      -74      -76      -75      -74      -75      -74 
     -71      -72      -75      -76      -75      -76      -75      -72 
     -74      -74      -72      -74      -76      -75      -74      -75 
     -74      -72      -75      -76      -75      -74      -75      -74 
     -75      -75      -70      -68      -74      -74      -74      -75 
     -74      -71      -72      -75      -75      -74      -74      -75 
     -72      -72      -74      -74      -75      -74      -74      -76 
     -76      -72      -74      -75      -76      -76      -76      -76 
     -76      -74      -75      -76      -75      -75      -75      -75 
     -75      -76      -78      -76      -71      -74      -74      -72 
     -74      -76      -75      -74      -74      -75      -74      -74 
     -74      -72      -72      -76      -78      -74      -74      -76 
     -76      -75      -76      -76      -75      -79      -83      -83 
     -87      -90      -90      -93      -91      -87      -87      -87 
     -87      -86      -85      -90     -103     -120     -130     -133 
    -135     -141     -135     -114      -95      -85      -86      -93 
     -79      -66      -89     -128     -148     -139     -140     -179 
    -186     -108      -18        2       -6       24       74       49 
     -68     -199     -257     -244     -221     -190     -153     -152 
    -109      -36      -98     -139      -21      -59     -283     -438 
    -444     -326     -330     -467     -328       33      126      -75 
     -20      380      469        4     -502     -568     -298      -85 
    -136     -410     -630     -645     -523     -421     -533     -357 
     460      765      -74     -892     -923     -677     -670     -757 
    -656     -445       36      858     1201      918     1059     1653 
    1460      502       82      209       63     -340     -750     -768 
    -550     -916     -972      207     1038      564     -305     -626 
    -270     -409    -1102    -1209    -1657    -2812    -2894    -1539 
     495     2373     2871     1899      549      140      893     1462 
    1740     1811      449    -1647    -2621    -1741      -14      511 
     291      454      294     -178     -384      334     1757     1956 
     877      102      103      367     -634    -2359    -2076     -310 
    1390     3106     3813     3612     3365     2124     -382    -2682 
   -2208      135     -407    -2687    -2380    -1323    -1687    -1672 
    -757      261     1116     1027      211      178     1090     1780 
    1529      405      201     2450     4120     2457     -202     -909 
     108      117     -812     -217      284     -815    -2000    -3516 
   -4538    -2479      930     2323     1822      951      607      448 
    -596    -1815    -1406      365     1080      488      970     2015 
    1892     1038     -108     -135     1406     1861       -4    -3138 
   -4993    -3936    -2654    -2359     -830     1028      464    -1803 
   -3346    -2662      372     2258     1198     1559     3080      874 
   -1687      427     2243     -367    -2061     -186     1313     1332 
     978     -544    -1907     -299     1398     -930    -4753    -6411 
   -4936    -1593    -1404    -4117    -1702     3678     2640    -1119 
   -1161     -369      653     2953     4133     4151     4008     4001 
    4270     3238      706    -1318    -2513    -5749   -10149    -9594 
   -5040    -1873      -24      818     -130    -1655    -2292    -1368 
    -592    -1316     -916      957     1491     1898     3478     2829 
    -297    -1491     -445       85     1221     4873     7458     5022 
    -290    -3852    -2930       31      522     -793    -2486    -3960 
   -3021    -1273     -234     2646     6613     7442     2683    -4114 
   -5470    -1907     -314     -538     1453     4245     4158     1686 
     113      201     1344     2323     -666    -6336    -7171    -2752 
     352      803     1555     2887     4216     4473     2025      117 
    1983     4009     3268      353    -2832    -2085     1460     1782 
    -363    -1367    -1447    -1129    -1790    -3971    -3105     1549 
    3361      415    -3549    -5362    -4383    -3809    -4384    -4066 
   -3666    -1622     3454     6706     6362     5868     6620     7086 
    4860     1128    -1152    -2701    -3724    -3072    -2327    -2428 
   -1243     1368     2695     2172     1354      679    -1254    -4635 
   -6902    -7276    -6259    -3217     -267      606     1426     2258 
    1968     2733     4255     3883     2832     1717     -496    -1467 
    -542       60     1251     2636     2139     1962     2320     -140 
   -3622    -4048    -3011    -3690    -4652    -4349    -4124    -4297 
   -4317    -4133    -3199     -854     2311     3713     3384     6261 
   10735     9590     5783     3755     1210      237     1054      -40 
    -351      252    -1833    -4106    -5008    -6573    -6852    -4845 
   -5124    -7740    -7782    -5856    -4469    -2444      106     1680 
    3515     6594     8945     9339     8074     5981     5352     6435 
    5698     2524     1065     1422       25    -1193      342     1177 
    -530    -2120    -2809    -2862    -2381    -3519    -5647    -5456 
   -3581    -3106    -4008    -2608     1316     2781     1810     2412 
    2567     1445     2843     3796     1491       36     -930    -3067 
   -3685    -3099    -1641     2143     4467     2127     -773     -706 
     378      672      515     -594    -2501    -3906    -3663    -1188 
     440     -263      189      685    -1132    -2231    -1220      675 
    2258     2161      940     -795    -3156    -4137    -3275    -3217 
   -3269     -109     4263     4878     2884     1588        6     -742 
    1563     3271     2403     1584      133    -2513    -3277    -1813 
     444     3473     4996     2933       47    -1074    -1624    -2812 
   -3816    -3717    -3160    -2832    -2107     -824     -265     -598 
      55      989       63     -106     2447     3912     1877     -753 
    -708     1074     1858     1588     1341     1229     1250      760 
    -920    -2623    -3088    -2903    -2323     -996     -587    -2169 
   -3871    -4456    -4409    -5104    -6554    -5336    -1802     -577 
    -252     2026     3670     4013     5130     5780     4360     3429 
    4203     3850     2789     2359      421    -1456    -1013    -1309 
   -2263     -691     1672     2544     1837     -735    -3326    -4217 
   -3276    -1093     -506     -631     1098     1699      854     1707 
    3331     4368     4699     3862     2362      422    -1806    -2911 
   -1876      356     1283      471      444     1725     1709     -818 
   -3165    -3184    -2235     -827      631      211     -831     -642 
   -1158    -2700    -2253      427     2060      931     -708     -718 
    -429     -789     -658     -580    -1948    -2251      606     3322 
    4649     5158     2857      669     1822     1505    -1615    -2655 
   -2029    -2177    -1929    -1244     -803     -168      745     1891 
    3028     3404     2331      475    -1489    -3379    -3296    -1487 
    -743    -1051    -2064    -2857     -666     2392     2889     2350 
    1526      255      545     1347      168     -722      129     -318 
   -2752    -4014    -3237    -2004      -29     1979     1564      282 
     930     1078    -1707    -3183    -1463    -1150    -1988    -1098 
      58      842     1237      600      683     2076     2790     2203 
     791     -749    -1664    -1804     -513     1431     1379     -291 
   -1177    -1063     -753     -966    -2344    -3877    -3638    -1885 
   -1030    -1524    -1069      517      329    -2197    -3260    -1031 
    1414     2471     2803     2074     1277     1406      715     -322 
    1406     3453     1921      812     2165      957    -2042    -2376 
   -1439     -619      457      271    -1086    -2085    -2066     -918 
     -98     -558     -529      716      934     -379     -897        8 
     818      315    -1035    -1100      102     -409    -2142    -2270 
   -1536      -81     2212     2249      845     1154     1598     1017 
     341     -772    -1520    -1252    -1418    -1946    -1888    -1125 
    -652    -1864    -1869     1201     2278       21     -912     -982 
   -2743    -2605      369     1439     1416     2587     2034     -334 
    -784     1653     4483     5038     3303     1281      634     1343 
    1428     -174    -1306     -540      252     -238     -834     -186 
    1485     1937     -284    -2814    -2783     -749      927     1397 
     934      -29     -238      -43      -12     1426     2139     -681 
   -2814    -1809     -869      175     1798     1071     -789      166 
    1938      386    -1449      187     2250     2731     2643     1502 
    -330    -1929    -3705    -4762    -4002    -2452     -853      284 
     203     -421      -35     2893     6385     6345     3662      943 
   -1013    -1574    -1973    -2736    -1663      897     1618      120 
   -1458    -1868     -649      259     -905    -2101    -2089    -2222 
   -3446    -4378    -2891     -727      274     1042      240     -716 
    2519     5983     4878     2945     2176      661    -1467    -3554 
   -3581     -681      734    -1366    -3430    -3088    -1055      715 
     923      396       27     -615    -1680    -2998    -3854    -2943 
   -1518    -1771    -2178    -1356     -589      -44       72     -874 
   -1607    -1189     -160     1362     3076     2986      849       94 
    1615     2724     2943     3624     4058     2855      820    -1235 
   -2872    -2539     -814     -199    -1051    -2074    -2925    -3944 
   -4124    -2749    -1134      332     1431      400    -2026    -2670 
    -278     3122     4145     2485      537     -272      486     1331 
     932      857     1549     1468       93    -1275    -1337     -866 
    -475      166      608      635      -47    -1144     -909       20 
     576     2019     2652      -62    -3603    -4569    -2937     -646 
     -22     -621       49      427     -905    -1057      182      881 
    1545     2700     3757     4270     4514     5067     4561     1386 
   -1107      656     2852     1032    -2276    -3146    -2392    -2050 
   -1571    -1329    -1864     -773     1135      477     -980     -595 
     149      -63     -314     -500     -918      211     2663     3356 
    2916     3721     4305     3393     2785     2673     1140     -769 
    -626     -481    -2238    -2681    -1495    -1945    -3022    -3262 
   -3744    -3865    -3465    -3339    -2315     -248     2316     4449 
    2705    -1383    -2751    -2874    -3042     -824     2231     3338 
    2832     1313     -670    -1263      191     1840     2301     1971 
    1416      365    -1115    -1551     -811     -515     -199      693 
    -313    -3624    -5250    -4072    -3118    -2218      172     2160 
    2452     1242    -1401    -3326    -2917    -2000    -1937    -1628 
    -313     1086     1405      796      776     1750     2528     2986 
    2489       25    -1933    -2344    -3204    -2454     1178     3257 
    1582    -1296    -2393    -1455      -66     1331     1455     -502 
   -2037    -2219    -2189    -1651     -638      665     2020     1475 
    -184     -720    -2501    -5485    -4861    -1668     -557     -742 
     -45      434      403     1354     2659     3365     4649     5205 
    2533     -812    -1605     -486      808      114    -2712    -3632 
   -1186     1166     2158     2695     3186     4274     3585      402 
      -8     3141     5157     3813      -76    -3329    -4409    -4344 
   -2101      993      935     -699     -745    -1031    -2559    -2574 
   -1216    -1223    -1179      -40    -1121    -3194    -2074      727 
    2794     3782     2324      -49      969     3388     2759     1379 
    1456     1263      392     -414     -414     -180    -1062    -2057 
   -2567    -3920    -5674    -5155    -1775      357     -746    -1443 
   -1701    -3879    -4823    -3862    -4189    -3935    -2277    -2269 
   -2443      106     3276     3654     1588      270     1225     2771 
    2866     1528      876     1968     1948     -745    -2655    -1783 
    -147      702      396     -764     -623      988      294    -2074 
    -745     3381     4895     3330     1372      233     -141     -391 
    -756     -864      -24     2250     4050     3519     2421     1746 
    -432    -3998    -6293    -6697    -7069    -8255    -9270    -9383 
   -8656    -6856    -4509    -3283    -2266       59      -17    -4445 
   -7371    -5949    -4027    -2797    -1140     -311     -222     1364 
    3588     4051     2806      658    -1175    -2037    -2940    -3134 
   -2026    -1081      479     3088     5100     7437    10390    12291 
   14793    17884    17342    14775    15068    16494    16676    16945 
   16151    12351     7516     3073    -1213    -3411    -3915    -5278 
   -6068    -6729    -9405   -10432    -8252    -5736    -2215     2529 
    5979     7557     8052     8791    10439    11574    12064    14210 
   18778    23232    25593    26674    26256    23085    18015    12310 
    6841     2053    -3950   -12451   -19669   -20908   -17865   -15674 
  -15610   -16347   -18755   -24406   -30802   -35058   -37535   -36559 
  -31504   -26223   -20896   -14386   -10832   -11367   -10701    -6620 
   -1445     2984     5300     5116     3462     1116    -1354    -3356 
   -2227     6162    18589    25552    24021    16433     5186    -5277 
  -12073   -14224    -9799     -502     8997    15167    15263    10527 
    7906    10832    13331     9926     2187    -7765   -18094   -24308 
  -25454   -25066   -22329   -13851    -1582    10532    18619    17863 
   10405     2722    -4010    -8546    -6988      932     9219    10250 
    4770      229     1260     7624    13390    12019     5715      864 
    -880     -548     2369     7639    10833     8974     5995     5090 
    5343     6590     6374      556    -7807   -10746    -6978    -2496 
     606     5193    10218    11655     9219     6933     8579    13448 
   17400    16784    10389       48   -10671   -18729   -21659   -18524 
  -12873    -9610    -8077    -5458    -3258    -3350    -5377    -8781 
  -10844    -9485    -8453   -11857   -17308   -18133   -12568    -6347 
   -1395     4801     8374     4367    -3940   -10351   -13189   -13824 
  -11956    -7107    -2957    -3026    -4418    -4066    -2679     1522 
    7924     8646     1385    -7206   -12059   -11022    -5707    -2546 
   -2974    -1813     1358     2195     2652     6139     6147      483 
    -749     3015     2353    -1931    -3596    -3684    -5702    -8110 
   -7684    -5494    -4010    -3154    -3692    -6230    -6610    -1814 
    5189    12487    18646    17409    10710    12268    22422    26237 
   22061    19982    20340    18223    13599    10095    12712    20682 
   26477    24919    17027     9977     9335    10172     7507     5499 
    5733     1339    -9532   -18238   -18990   -15515   -11522    -5447 
    1614     4693     3458     -344    -5455    -7975    -7758    -7238 
   -4255     1528     5937     7219     6971     6826     6879     5848 
    4261     4753     5255      417    -6912    -8329    -3141     2224 
    3341      673    -3699    -8403   -10754    -9450    -7427    -6266 
   -4764    -2884    -1876    -1304      990     3900     3825      441 
   -5661   -13618   -18102   -15496    -9505    -4866    -3057    -3388 
   -3631    -3484    -5782    -7816    -2648     5119     5170      827 
     548     2566     2134    -1120    -4442    -5042    -5741    -8718 
   -9736    -7740    -3937     2575     8988    12042    11506     7520 
    2276    -1894    -4923    -7376    -9837   -10655    -9076    -9860 
  -13038   -11198    -5545    -3235    -3659    -4866    -8228   -12910 
  -16056   -16332   -15086   -13126   -11583   -14031   -18711   -17578 
   -8135     2803     9293    13142    16594    18837    21604    24688 
   24266    23534    27584    30674    26280    19786    17674    16275 
   12580    11981    15958    18289    16316    11836     6156     1390 
   -1517    -4770    -7938    -7928    -7140   -11384   -19780   -25875 
  -27403   -26154   -22700   -20619   -23650   -25000   -19359   -15566 
  -17001   -14566    -9004    -6936    -4792      -86     5391    12000 
   16596    16892    15628    13689    11889    11547    11344    11064 
   11340    10621     7102     2168     -368     -652    -1610    -2976 
   -4615    -7406   -10482   -13404   -13630    -7861     -963      101 
   -2358    -3306    -4194    -5994    -3316     4059    10037    14805 
   17923    15334    11551    10886     9852     8136     7942     7659 
    5641     3478     2718     2980     4398     6772     8891    11215 
   13305    12352     8822     5503     2004    -1858    -2806    -1066 
   -1223    -1784      851     2906     2975     5467     9575    11260 
    9958     5930       14    -5818   -11176   -15120   -15704   -14628 
  -15423   -17578   -18463   -17807   -15649   -12540   -10374    -8139 
   -4812    -2606    -2408    -3932    -6926    -7592    -2601     3893 
    6847     6737     5994     6292     6188     4792     4206     3523 
    2559     2393      506    -1822    -1463    -1201    -2656    -3046 
   -1387      692     2872     4720     3979     2165     1017    -3528 
   -9358    -7715     -918     2928     4243     4801     2488    -2439 
   -6922   -10030   -12135   -10783    -7182    -6816    -6463    -1873 
    1356     1287      522    -3138    -8191    -9886    -9468    -7443 
   -2926     -299    -1887    -3619    -2316      808     3416     4781 
    4600     2849      461    -1606    -2227    -1776    -1750    -1328 
    -386     -137     1614     6475    10705    11330    10585    10901 
   10671     7689     4193     3397     4440     5374     4608     1412 
   -1341    -2527    -5259    -8351    -7163    -2326     2506     4941 
    3211      256     2263     7025     7113     4523     5155     6674 
    6593     7501     9389    11615    15406    18048    16173    12194 
    9433     8260     8357     7075     2883      440      411    -1962 
   -4072    -1927      344     -226    -2250    -5930   -10253   -11704 
  -10593    -9995    -9009    -6648    -7111   -11214   -13517   -12852 
  -12210   -11038    -7693    -3483       -6     2149     1676    -2047 
   -6596    -9180    -9126    -6658    -3678    -1741     -187     -797 
   -4546    -6517    -4445    -2795    -2889    -1324      382    -1570 
   -4641    -4961    -2826      642     3940     4714     2612    -2083 
   -8162   -10905    -8969    -6677    -5270    -2895     -199       -8 
   -3862    -8734   -10409    -8409    -3519     2555     6619     8802 
   10650    10840     9528     8946    10393    14202    17297    15936 
   12059     9344     7380     5171     5343     9200    12514    12469 
   11376    10088     6625     1524    -2219    -3959    -5541    -7306 
   -7820    -7766    -9605   -11902   -11716   -11194   -12137   -11404 
   -8005    -5260    -4229    -3086    -1570      -59     1472     1459 
