Origin Time       2024/04/02 04:24:00
Lat.              40.133
Long.             141.712
Depth. (km)       71
Mag.              6.0
Station Code      IWTH13
Station Lat.      39.9398
Station Long.     141.5492
Station Height(m) 453
Record Time       2024/04/02 04:24:48
Sampling Freq(Hz) 100Hz
Duration Time(s)  133
Dir.              3
Scale Factor      3923(gal)/8224838
Max. Acc. (gal)   13.435
Last Correction   2024/04/02 04:24:48
Memo.             
[...]
    7950     7951     7951     7951     7954     7954     7951     7951 
    7951     7951     7951     7952     7952     7954     7954     7955 
    7954     7948     7950     7952     7952     7950     7951     7954 
    7952     7948     7952     7956     7951     7948     7952     7950 
    7950     7952     7950     7950     7952     7954     7950     7950 
    7952     7955     7952     7952     7955     7955     7952     7952 
    7951     7951     7955     7955     7952     7952     7951     7950 
    7952     7952     7951     7954     7954     7951     7951     7954 
    7952     7951     7952     7952     7952     7954     7955     7955 
    7954     7954     7954     7954     7954     7951     7952     7956 
    7954     7951     7954     7955     7951     7952     7955     7954 
    7952     7955     7955     7952     7954     7954     7952     7956 
    7954     7950     7955     7958     7952     7951     7955     7958 
    7954     7954     7955     7952     7950     7951     7950     7954 
    7955     7951     7954     7958     7954     7952     7955     7954 
    7955     7951     7951     7956     7955     7955     7958     7955 
    7954     7954     7952     7958     7959     7954     7954     7958 
    7955     7950     7952     7956     7954     7951     7954     7954 
    7952     7955     7956     7955     7952     7951     7952     7955 
    7956     7954     7954     7956     7955     7955     7954     7954 
    7955     7955     7952     7951     7952     7952     7951     7948 
    7952     7956     7951     7951     7952     7952     7955     7955 
    7954     7955     7955     7954     7954     7955     7954     7955 
    7954     7952     7955     7956     7955     7954     7952     7952 
    7955     7955     7954     7956     7955     7948     7951     7956 
    7952     7950     7954     7952     7950     7952     7954     7952 
    7954     7954     7955     7952     7952     7954     7954     7955 
    7954     7952     7955     7955     7954     7952     7952     7954 
    7955     7955     7956     7955     7955     7955     7952     7954 
    7954     7951     7952     7951     7952     7955     7954     7955 
    7958     7954     7952     7952     7951     7952     7955     7952 
    7951     7954     7955     7954     7954     7956     7956     7952 
    7952     7954     7955     7955     7954     7955     7955     7951 
    7954     7956     7955     7954     7955     7955     7952     7955 
    7959     7955     7955     7955     7954     7955     7955     7954 
    7952     7951     7954     7954     7954     7956     7955     7950 
    7951     7954     7954     7954     7955     7952     7952     7955 
    7952     7952     7958     7955     7954     7955     7954     7956 
    7956     7954     7954     7956     7956     7958     7954     7951 
    7955     7956     7955     7955     7955     7951     7951     7955 
    7955     7954     7955     7956     7955     7955     7954     7955 
    7956     7955     7954     7954     7954     7956     7955     7954 
    7956     7960     7958     7956     7956     7958     7959     7955 
    7951     7955     7958     7955     7954     7956     7959     7956 
    7954     7956     7956     7952     7952     7955     7955     7952 
    7952     7954     7955     7955     7958     7959     7956     7954 
    7954     7954     7954     7954     7956     7956     7954     7952 
    7955     7955     7955     7955     7954     7954     7955     7955 
    7955     7955     7955     7956     7955     7954     7954     7954 
    7958     7958     7954     7955     7960     7958     7955     7958 
    7958     7955     7954     7955     7952     7952     7956     7958 
    7956     7954     7952     7958     7956     7952     7956     7959 
    7956     7952     7955     7959     7958     7954     7956     7956 
    7955     7958     7956     7952     7951     7951     7954     7952 
    7952     7954     7952     7954     7956     7954     7954     7955 
    7958     7958     7955     7955     7958     7956     7954     7955 
    7955     7956     7955     7951     7955     7958     7955     7954 
    7956     7958     7956     7955     7956     7958     7955     7954 
    7952     7954     7954     7955     7955     7954     7952     7952 
    7952     7955     7956     7955     7955     7954     7954     7956 
    7954     7951     7952     7954     7954     7954     7954     7954 
    7955     7955     7955     7955     7955     7952     7952     7956 
    7952     7951     7956     7959     7967     8005     8077     8202 
    8411     8695     9012     9302     9489     9459     9198     9204 
   10019    10631     9336     6970     6156     7677     9132     6652 
    1679     2031     8951    12633     6554    -1718      -76    10679 
   18067    13857     3203      -82     7452    14175    14273    10673 
    5455     5186    13290    17361     9323     2010     4043     9150 
   13826    12652     3433      -86     6108    10187     8843     6909 
    7491     8904     8919    10617    11616     6921     2771     4789 
   10728    15520    13073     5348     1232     5158    16015    23556 
   12680    -6929    -7763     9074    23727    23670     5414    -8457 
     916    18505    24360    12067    -1026    -1995     1081    12295 
   23387    15936     4085       -6    -3468     4455    26037    25092 
   -4148   -19715    -4633    19198    24376     7978   -10152   -14435 
   -1104    13972    14465     7649      679    -3179     -270    10373 
   26302    21941    -2265    -3044     9779     8314    14034    21259 
   10365     2833     5309     5910     7771    10812     4023   -10682 
   -6363    14968    15886     5956    10581     9100     -670     4760 
   15394    14985     8511     5252     8816    15288    20526    13865 
   -4801   -11210    -4067     1328     9566    15199     6176    -1169 
    5468    10970    11164    14812    19839    20175    11978     5259 
   10554    18111    22542    14115    -7030    -5896    10679    12046 
   13105    11276    -1166    -1688     1054      882    10295    13250 
   10254    11584     6223     3751    12276    16573    13394     7115 
     -94      332     8102    10052     3472     -519     8235    19372 
   12559     -294     2027    12479    18769    14520     3615     1356 
    6845    11083    14382    12267     8889    10204     4432     -660 
    6380     8892     7064     6949      731     1819    12398    14750 
   14007    11677     5807     6471     5324     5814    20000    23198 
   10319     2860      456     8198    21759    14472    -2031      102 
   11340    16322    13886     7028     4112     8845    12654     7006 
    1088     7497    14895     8839     -525       33     7298    15356 
   16310     4310    -4051     3708    10530     8556     8143     8090 
    6362     5930     7300     9294     7572     8964    12164     5787 
    2871     7462     8694     9325     7724     6664    12460    12402 
    5657     8023    14254    14540    13107    11055     8235     4633 
       8     2204    10768    12737     7518     -187    -5325     4095 
   16056    12073     3580     1381     5471    10532    10469    13586 
   17111    11041     6037     5325     3288     7296    15040    13656 
    5867     1251      440     2135     5938     8363     6521     1622 
    2504    11909    13154     7990    12260    10844     4353    11588 
   12908     5047     7029     6880     3874     8035     9410     3721 
   -1082     3947     9778     6326     5028     5038     3646    10519 
   18724    17128     9585     6575     8661    10797    16343    18447 
    9070     1229      958     2934     7603     9097     4459     3348 
    5196     6103    10986    13406     6916     2890     7325    11130 
   11372    13456    12965     8233     7503     9578     9406     9023 
   11321     9722     3935     5701     9944     9699     7744     5055 
    7816     9553     4048     5070    10431    11537    12168     6832 
   -1173     2019     8839     9636    11044    12370     6610      967 
    3562     9965    12788     8499     4004     4749     6951    12326 
   16762    11296     4618     7719    14095    12776     8164     8267 
    9046    11361    14933     9288     2708     6841     7593     2430 
    4754     7005     4207     6600     8723     2247    -1273     6459 
   12484     8637     6118     7670     5998     6257     9690     7568 
    5860     9111     6980     3439     7723    12798    12280     6916 
    4410     8700     7662     4617    12028    15444     8652     6434 
    8707    10832    11954     8283     5846     7808     8037     8172 
    8333     5609     5510     7936     3557     -386     6597     8927 
    3308     4756     7524     9189    13953     9159       82     6049 
   13081     8406     6289     7476     8419    11801    10953     6164 
    3177     4855    10435    11529    10416     9356     3607     2641 
    6633     9784    14945    14103     8754     6887     7900    13682 
   12604     2045     3061    13038    13981     9504     8719     9212 
    8793     9910    10879     8301     6787     9969    10309     6810 
    7303     8640     5339     3121     6966    11142    10393     9057 
    7010     2743     6860    13504     6643     1633     6597     5382 
    5539    12029     8772     3142     7722    11182     8085     6230 
    4801     2139     4996    10285    11303     9790     6277     5768 
    7690     7281    11654    13894     8469     8325     7716     4324 
    9209    11959    10160    12696    11971     8837     9570     9707 
    9254     9683     8966     7493     6851     6041     3063     2652 
    9343    17246    16991     5701    -2936     1644     8016    10723 
    8325      315     2300     9011     4769     3033     8889    11524 
   10207     4958      631     3927     9294    11156     9586     7904 
    7940     6751     7419    10350     8357     6717    12054    15168 
    8830      440     2504    13481    17456    11742     5863      421 
      97     8519    11479     7501     5809     3964     5086     8102 
    7758     9637     9198     4738     6193     9894     9942     7673 
    5869     9834    15495    10405      315     3211    12035    10987 
    7457     8908    10534     9841     9283     9379     4945     2497 
   10723    14434     7763     5302     6786     7695    12660    15762 
    8854     1237     1904     5648     9420    13023    11086     4253 
    1722     7352    13845    13250     7052     3298     5587    10027 
   12575     9602     5062     9340    15844    13162     5983      472 
    1624     9988    13545     8955     4221     2628     5853    10199 
   11126     9697     4726     2698     7361    10050    11746    11107 
    4158     3318     8363     7164     6552     8795     5769     6014 
   11493    10532    11524    17340    10033    -1127     3464    12640 
   15986    15884    10814     7258     9516     8588     5969     7649 
    9643     9443     6089     4224    10543    13734     9709    13447 
   14723     1831    -1965     7109     9923     8332     5379      706 
    1150     4725     5805     3064     2282     6335     5217     5788 
   14982    14107     5368     6444    11418    11236     8205     6655 
    7242     6135     3399     2886     7010    13328    13362     7699 
    3774     2513     6966    13405    11007     5911     8243    13447 
   13266     9093     7966     9648    13450    16992    10777      854 
    1098     8438    13678    12949     9680     7229     3531     2621 
    7553     9679     6446     5436     5547     4326     6050     8830 
   10282    10230     7431     4764     4004     6713     9679     6235 
    2565     1275       24     3888     6297     4730     8326     9749 
    6050     6617     8540    10069    11813     9035     7909    11461 
   12129    11171     8571     5503     9927    15217    14975    14080 
   10048     4985     6681     8490     7126     7959     6079     3588 
    5898     5876     6710    10700    11662    12930    10057     1607 
     386     7624    17379    19338     9693     5636     9628    12112 
   12916     6340     2519    12021    14269     4943    -2543    -3657 
    7507    19747    17074     8631     4537     6790    15957    20521 
   13990     8155     4445    -3682    -5967      895     5341     4623 
   -1783    -6659      912     8395    10667    17231    19997    14893 
    6914     4307    16330    24937    20526    21046    20733     9513 
    1152     1019     2700     4051     7551    10088      710   -11385 
   -8706    -3213    -6000    -5902    -1958    -3659    -5744     1048 
    9926    12210    13640    16710    12063    10619    25839    33920 
   24000    14256     7796     5768    12097    17263    15942     8279 
   -6868   -14674    -4581     1930    -5865    -7458     1371     3855 
    -553     -383     3613     4108     3716     4045     1548     1587 
    2216     2354    10758    12290     5686    17043    30427    23202 
   13875    11338    13656    24208    26902    13988     3859     7299 
   21253    31293    24605     6889   -11843   -18342    -6473     7312 
   13913    15257     8795     3377     5309     7029     7954    11075 
   16748    18968    11190      -48    -9252   -11712     -556    19097 
   31579    28352    22881    21527    15221     8060     1723     -176 
    9721    17640    20510    21737    10258    -2717     1761    17709 
   23642    11080    -2347    -7411    -4634     6975    14612    11531 
    1877    -8592   -10396    -6939      419    11404     1814   -20213 
  -16475    -1440     3283    12272    18952    14724    15485    14766 
    2452      714    10521     8919     8856    19873    20428    12748 
   12047    16676    22465    24043    20763    17586     8892    -2862 
   -2465     1876    -2386    -1266     7915     8074     1432    -1243 
     733     9531    17493    13109     1408    -8243    -2367    17432 
   24621    18412    13054    10318    15034    14596     3276     4444 
   14114    14624    12081     9772     8791    12860    12627     6575 
    7419    13320    14629    13386     8679    -1950     -256    14602 
   10288    -6677    -9155    -4631     4108    14411    14300    11979 
    9466     1476    -2543     6694    18133     8469    -6594    -2754 
   -1572    -5744     1375     5632     1930     -585     2095    12181 
   13610      465    -1999    12110    21496    18798    14224    15356 
   20372    24035    25259    26557    25594    19129    13738    15394 
   21296    24748    18303     6431     -545    -4727    -8611    -9498 
   -7098    -5487    -8510    -8317    -5341    -7410    -1441    11661 
   10827     2918     5383    12048    11780     8695    10648    15113 
   17127    18619    16326     6334     4918    17219    21856    19161 
   21983    22906    17212    10755    10547    16071    17274    12960 
    5147    -3609    -4286     -149     3763     8814     5584    -7989 
  -17309   -13483    -4411    -3746    -6978    -1849     2798    -3257 
   -8938    -4345     5746    13780    11889     1305     1070    14928 
   20622    13601    11043    17848    25243    28440    27309    22877 
   21930    22994    17932    13238    11483     8974    12441    18781 
   14285     3030     1745     5884      742    -5192    -1676     3165 
    3141     4396     8048     7862     8020     9875     8703     6426 
    4363     6849    10575     8299    10177    16641    17880    15758 
    9641     4299    11001    18681    12252     5694     8993     6037 
   -2870    -3684    -1495      542     3342      487    -2272    -2363 
   -6281    -4955     2273     3133     4029     8029     5443     2641 
    7439    13725    13973     7398     5163     9173     8762     9477 
   13594    10975     6485     6081     5105     3935     5351     7368 
    8939     9077     7431    10053    13252     8537     6261    11345 
   12818    11232    11499     9846     7137     7539     9420    10318 
    8696     5155     3238     2782     3312     6635     8568     6778 
    6907     9072     9470     7900     7231    10897    12410    10053 
   13797    18657    18129    17149    14794    13320    16241    17733 
   16636    16609    17352    17204    15805    14384    13047    12617 
   14640    14301    10856    11362    10727     2878     -716     2257 
     672    -1942    -2474    -6839    -7624     -324     4298     2369 
   -1048    -1475     2176     3611     -108      -54     6894    12441 
   12239    10133    10875    12029     9236     6836     7620     5846 
    3211     6350    10658    11063     8401     4155     4384     6835 
    1900    -2326     2772     6188     3021     1040     1414     1583 
    2427     4504     6085     5908     6602     7684     6134     6400 
   10399    12896    12564    10088     7948    10983    14265    12110 
   11430    13663    15633    17632    13324     7350    10327    13990 
   12652    12787    15804    17159    14723    11809    11716    11611 
    8352     7213    10640    12588    10970     7832     5879     7711 
   12023    14423    12225     7210     3025     2466     4529     6035 
    6547     6201     6558     7285     6080     7438     9856     6246 
    3522     6181     5849     2717     3034     4972     6613     8923 
    8411     5763     9013    15437    14717     8275     4949     6214 
    6642     7284    10422     9690     7589     9506     9655     9957 
   11831     8649     5130     7292    11677    12121     7013     4495 
    8827    11646     8572     8573    14168    15693    13331    11919 
   10423    10910    13050    12943    12021    12339    12112    10712 
   10015     9792     8162     6080     6039     6127     4245     4557 
    7061     6978     6372     6536     4032      912     1695     5298 
    5471     -606    -4978    -2253     2272     4297     2397      325 
    3566     6300     5267     5061     3009      126     2038     4388 
    3501      481    -2026     1152     6423     7192     5822     4932 
    4718     5516     6558     6556     5721     8391    12785    11781 
   10566    13460    14472    13325    12810    12262    10389     8496 
    8301     7476     6654     8185    11165    14249    14889    12464 
    8406     5759     7479     9741     9208     7372     7202    10206 
   11176     8017     7241    10215    10341     6988     6955    10326 
   12933    13570    11280     9042     9927    10627     9043     7700 
    8922    10442     8716     6536     6133     6079     7457     9394 
    8999     5633     5293    12513    16869    13620    10798    11205 
   15674    19742    15768     9458     9377    14106    16902    15010 
   13428    12820     9240     6165     7541     9169     7021     2793 
    -637       43     3969     4552     3253     3612     3473     5302 
    6705     4172     5410     9489     8371     5124     4673     6000 
    6914     6813     7068     6615     3939     3361     5427     6363 
    7438     9024     9973     8706     5012     4147     4873     3551 
    4232     4954     3028     3662     4973     3111     1799     2226 
    2933     3858     4484     5015     5965     7113     8212     8199 
    8166    10409    11439     8881     5701     4167     6764    11056 
   10257     7030     7623     9655    10210     9856     8954     9234 
   10008    10539    12233    11688     8600     7038     7364    10400 
