Origin Time       2024/04/02 04:24:00
Lat.              40.133
Long.             141.712
Depth. (km)       71
Mag.              6.0
Station Code      IWTH24
Station Lat.      39.1979
Station Long.     141.0118
Station Height(m) 49.9
Record Time       2024/04/02 04:24:58
Sampling Freq(Hz) 100Hz
Duration Time(s)  124
Dir.              2
Scale Factor      2942(gal)/8224139
Max. Acc. (gal)   5.190
Last Correction   2024/04/02 04:24:58
Memo.             
[...]
   46157    48308    49577    49187    48061    47348    47113    47146 
   46890    46024    45713    45924    45214    44837    46137    47139 
   47000    47313    48162    48166    47178    46695    47781    49370 
   49582    48095    46693    46955    47619    47110    46554    47260 
   48296    47937    46207    44744    45142    47803    50109    49752 
   48436    47401    46687    47016    47447    47201    47258    47916 
   48070    46807    46263    47849    48469    47556    46947    46426 
   47208    48932    49110    48832    48649    47530    46606    46105 
   45628    45777    46491    47341    46924    46126    48008    49906 
   48905    47965    48323    48325    47444    46441    46387    46565 
   46326    46971    47852    47772    48185    48617    47791    47692 
   48547    48304    47455    47119    47109    47015    46373    46322 
   47822    48305    46861    46207    46770    47525    48363    47995 
   45944    44369    44309    44793    46298    49146    50333    48703 
   47029    46884    48324    49415    47849    46035    46156    46896 
   47399    47050    46160    46359    47166    46765    45731    46664 
   49419    50051    47706    46075    46390    46967    46830    46001 
   45553    45983    46319    46499    47042    47861    48926    48978 
   47104    45524    45729    46668    46990    46272    46203    47208 
   47370    47117    47453    47869    48231    47934    47248    47545 
   48100    47983    47838    48151    48716    48840    48114    46630 
   45292    45415    46858    48458    49135    48752    48344    48001 
   47056    46155    45928    45793    46175    47437    47985    47617 
   47590    47725    47792    48101    47748    46857    47367    48270 
   47887    47549    47621    47636    47587    47283    47676    48752 
   49249    49052    48039    47112    47877    48512    47136    45231 
   44022    44155    45420    46268    47231    48832    49361    48779 
   48204    47772    47960    48676    48683    47494    45828    44795 
   44918    45859    47139    48120    48177    47382    46288    46118 
   47568    48523    47297    46056    46334    46492    46457    47804 
   48961    48105    47218    47472    47785    48274    48786    48304 
   46989    45611    45330    46411    47208    47425    47576    47113 
   47120    48226    48504    47677    47197    47360    47394    46552 
   45736    46321    47367    47744    47956    47803    47046    47258 
   48321    47560    46033    47028    48431    47464    46228    46419 
   47259    47830    47781    47567    47767    48145    48352    48384 
   47881    47228    47123    47264    47711    47879    47036    46238 
   45908    45912    46323    46568    47316    48944    49630    49011 
   48046    47353    47965    48388    46947    46039    46789    47682 
   47849    47067    46649    47418    47610    46687    45670    45022 
   45839    47413    47594    47494    47920    47482    46560    46037 
   45922    45913    46291    48277    50353    50299    49378    48284 
   46738    46095    46738    47561    47456    46407    46138    46606 
   46349    46541    47245    46751    46161    46294    46484    47335 
   47981    47225    46859    47524    47848    47745    47376    46994 
   47158    47588    47862    47884    47839    47686    47124    46226 
   45153    44753    45739    47166    47962    47638    46549    46188 
   46650    46778    47301    48863    49493    48523    48134    48906 
   49153    48509    48431    49081    48832    47518    46529    46564 
   47335    47968    47885    47402    47013    46803    46788    46607 
   46033    46217    46955    46714    46618    47702    48505    48525 
   48469    48617    48818    48398    47301    46489    46311    46575 
   47490    48959    50166    49878    47839    46225    46515    46938 
   46438    46228    46650    47116    47344    47579    48120    47961 
   46805    46245    46525    47093    47945    48307    48456    49010 
   48933    48585    48521    47881    47088    46317    45393    45565 
   46722    47285    47094    47054    47445    47530    46519    45616 
   46314    46888    46091    45634    45906    46336    47152    47895 
   48388    48872    49068    48863    48436    48720    49505    48825 
   47413    47112    47278    47399    47266    46319    45617    45870 
   45721    44944    45011    45968    46865    47655    47926    47341 
   47104    47669    47927    47533    46881    46213    46278    47071 
   47375    47555    47912    47079    46051    46635    47810    48505 
   48455    47440    46818    47722    48546    47810    46795    46654 
   46951    47250    47345    47474    47437    46615    45704    45300 
   45450    46473    47374    47375    47557    48254    49086    49943 
   50117    49611    48942    47657    45947    44794    44771    46278 
   48004    48209    47655    46724    45269    44901    45939    46926 
   47259    47109    46940    47070    47231    47043    46411    46180 
   46993    47335    47005    48188    49716    48982    47434    47067 
   47278    47340    47695    48838    49586    48181    46012    45708 
   46597    47160    47472    47362    46827    46457    46596    47410 
   48097    48084    48269    48404    47588    46469    45511    45160 
   46113    47250    47656    47954    48015    47641    47490    47725 
   48197    48255    47148    46452    47146    47243    46453    46233 
   46352    46251    46253    46845    48286    49662    49835    49349 
   48305    46905    47331    48728    47914    46001    45651    46452 
   46804    46337    46249    47505    48741    48845    48591    48082 
   47876    48799    48999    47707    46853    46638    46255    46326 
   47123    47912    48555    48983    48261    46403    44940    44910 
   45951    46980    47629    48118    48043    47638    47483    47272 
   47655    48957    49439    48663    47992    47907    48008    47549 
   46656    46788    47772    48257    47991    46533    44730    44717 
   45733    46278    46988    47934    48388    48103    47136    46429 
   47000    48288    48591    47194    45615    45165    45261    46029 
   48116    50136    50346    48870    47120    46332    46723    47785 
   48182    47552    47764    48617    48043    47016    46928    46677 
   45920    45835    46758    47601    47603    47556    48039    48486 
   48196    46899    45702    45711    46132    46769    48200    49194 
   48980    48679    48666    48728    48378    46769    45060    44820 
   45527    46623    48168    49075    47957    45987    45374    46024 
   46885    47337    47055    46792    47316    48250    48720    48131 
   47565    48073    47960    46442    45389    45462    45970    46336 
   46282    46174    45801    45057    45631    47891    49281    48855 
   47931    46792    46132    46940    47617    47171    47105    47572 
   47402    46867    47185    48174    48189    47316    47455    48347 
   48154    47079    46076    45380    45725    46757    47070    46857 
   46650    46583    46769    46890    47872    49758    49963    48540 
   47850    47637    46664    45750    46703    48822    49593    48924 
   47926    47611    49161    50153    48011    46556    48078    48416 
   46866    46190    45827    45589    46483    47640    48247    48208 
   47938    48209    48189    46878    45418    45123    46298    48276 
   49006    48041    47308    47054    46296    45848    46521    47448 
   48412    49391    49091    47915    47383    47588    48365    49072 
   48976    48415    47861    47595    47088    45941    45400    46110 
   47187    47526    46542    45171    44768    45185    45904    46943 
   48023    48806    48928    47773    46576    47266    48109    47212 
   46525    46804    46741    47024    48022    47903    46539    45778 
   45856    45964    46240    47225    48307    48060    46897    46230 
   46468    47825    49044    48425    47885    48949    49165    48423 
   48594    48473    47568    46975    47021    47767    47802    46468 
   45412    45315    46126    47447    47655    45944    43911    44111 
   46014    46965    47425    48254    48369    48211    48388    48493 
   48250    47405    47352    48462    48274    47355    47692    47862 
   47278    47083    46905    46604    46903    47011    46067    45613 
   46650    47609    47833    48330    48884    48519    48276    49334 
   49578    48115    47775    48397    47683    47048    47702    48294 
   48186    47245    45940    44940    44389    44915    45408    45150 
   46317    47916    47679    47486    47952    47553    47221    47818 
   48668    49146    48789    48381    48562    48425    47772    47299 
   47398    47677    47175    45882    45100    45800    47131    47690 
   47457    46931    46558    47154    48389    48674    47827    47046 
   46786    47175    48316    49103    48367    47148    46947    46886 
   46707    47637    48050    46510    45241    45033    44705    45180 
   47065    47880    46256    44703    45485    47358    48112    47881 
   47688    47297    47011    47741    48887    49211    48425    47503 
   47358    47209    46909    47707    48487    47412    45881    45648 
   46198    46735    47347    47618    46404    44598    44520    46178 
   47710    47926    47696    48116    48454    48698    49426    49682 
   49009    48008    47051    46506    46780    47534    47353    46012 
   45604    46630    47337    47556    47676    47418    47410    47690 
   47437    46981    47371    48389    48462    47441    46757    46704 
   46907    47788    49304    49929    48890    47568    46818    46242 
   45758    45408    45389    46080    47548    49098    49343    48163 
   47298    47596    48319    48890    48411    46465    45106    45678 
   46684    47011    46940    47177    47637    46834    46134    47628 
   48440    47771    48639    49983    50029    50121    49966    48082 
   45889    46314    48417    48157    46762    47501    47742    46940 
   48093    49013    47850    46734    45588    44135    43621    44111 
   45496    47012    47903    48978    49781    49542    48884    48031 
   47391    46631    45085    44599    45828    46651    46730    47216 
   47618    47170    47128    48613    50319    50468    49169    47699 
   47228    48639    50139    48483    45301    44478    45446    46103 
   46661    47441    47795    47729    47740    47657    47322    47216 
   47298    46642    45424    45277    46442    47341    46873    45783 
   46109    48108    49646    49578    48671    47632    46604    45936 
   45685    45443    45766    47364    48656    48155    48038    49728 
   49931    47274    45860    47174    48053    47922    48051    47517 
   46002    45176    45513    45364    44477    44788    46084    46728 
   47245    47823    47135    45723    45260    45755    46646    47434 
   47731    47938    47835    46826    45378    45069    46676    47482 
   45941    45106    46583    48735    50037    50593    50701    49315 
   47440    47362    47889    47881    47723    46504    45570    46265 
   46029    45650    47444    48679    48099    47765    47815    47052 
   45482    44741    45434    45901    45463    45418    46768    48413 
   48517    47765    47602    47089    46156    47024    48645    48219 
   47941    49350    49593    49046    49389    49539    49971    50997 
   50733    49449    48930    48782    47509    45774    46102    47991 
   48568    48344    48698    48716    48213    47758    47545    47638 
   47293    46442    46399    46828    46704    46900    47339    47059 
   46948    47250    46654    45408    44914    45245    45794    46143 
   45860    45370    45041    44118    43136    43714    44936    45216 
   44984    44371    44078    45260    46242    46095    46489    47397 
   47555    47495    47727    46944    45765    46114    46738    46392 
   45786    45260    45636    46788    46564    45215    45414    46727 
   46496    45049    44313    44423    44884    45489    45967    46556 
   47586    48325    48055    48022    49234    49869    49203    48814 
   48114    46309    44937    44685    44590    43713    42789    43648 
   45698    46637    46861    48366    49960    49215    47709    47991 
   48539    47922    47927    48504    47680    45868    44671    45403 
   48405    51503    52049    49626    46290    44529    44089    43343 
   42647    42739    43390    44450    45408    45661    45654    46955 
   49426    50580    50566    50831    50387    49310    48721    47968 
   46515    45144    44383    44038    44332    45859    48676    51706 
   52643    50984    49169    48344    46985    44433    42884    44667 
   48888    52834    54729    54715    54723    55132    54280    52581 
   51715    51686    51205    50056    49783    50031    49801    50913 
   53850    56907    58357    56428    52685    50522    49817    48647 
   46886    46186    47074    47672    46893    45985    45459    44439 
   44748    48816    53958    56389    55749    52455    47623    44629 
   45374    47341    47409    46124    46269    48537    51591    54722 
   56230    54141    49921    45603    41019    36482    33562    33812 
   37601    43114    48590    53187    54573    52573    50977    50361 
   49501    50576    52555    51371    49133    49767    51950    53693 
   54546    53599    51305    49219    47035    43827    40312    38221 
   38773    41408    44440    46386    46491    45474    44595    44348 
   44315    43814    44678    49974    57569    61817    60679    54747 
   45747    38912    38979    44567    51314    56722    58122    53941 
   48022    44007    41696    40590    40144    40362    41681    43167 
   42984    40304    38263    40524    45385    49370    51020    49542 
   45904    43617    44890    47389    47925    47502    48516    50805 
   52493    51183    46573    42394    42061    44460    47051    48296 
   46403    41931    38368    37790    39683    42711    46669    50904 
   52351    49910    46224    44275    44740    45775    46245    45516 
   43085    42024    44111    46210    46876    47148    48150    51136 
   54569    55891    54994    51722    46491    41852    39618    40038 
   41777    42620    42376    42244    43627    47437    51592    54176 
   55258    52971    47877    44427    42966    42175    43217    45658 
   48768    52556    54367    52269    48247    44574    43112    45308 
   48550    48961    47893    48085    47259    43575    41227    43468 
   47544    50020    49750    47092    44470    43991    44462    44277 
   44712    46330    46641    44865    43752    45050    47459    49626 
   51378    52442    52623    52087    50691    47580    43363    40568 
   39692    40235    43260    48015    51363    51417    49824    50450 
   53441    55048    54423    53082    51543    50479    49501    47304 
   45636    46889    49586    51401    51711    50214    47784    45729 
   43005    39314    36963    36398    36894    38770    41176    43538 
   46313    48222    47586    45099    43102    42434    42079    42228 
   42700    41921    41482    43814    47389    50560    53364    54369 
   52671    50924    51417    52485    51528    48339    45103    44116 
   44655    45615    48767    52990    54058    52782    52323    51579 
   49059    46789    47019    49231    51052    51687    52347    52465 
   51846    53126    56110    57038    54180    49306    45246    42851 
   40934    39105    38542    40751    45229    48155    47559    46307 
   45983    45030    43393    42572    43567    46228    47704    45720 
   43011    43078    46012    49455    50377    49094    48546    48546 
   48774    50383    50195    46201    42310    40317    38350    36980 
   39966    46782    51624    53509    54580    54702    55684    57338 
   55876    52007    48524    45303    42506    42149    44469    46279 
   46966    49277    52076    52789    52543    53329    55039    55440 
   53434    50912    49349    47605    45063    43823    44709    45864 
   46003    44436    41712    40452    41242    41723    41453    42071 
   42776    42134    41841    42477    42056    40717    39753    39822 
   41910    45395    48145    49499    50229    50781    50657    49499 
   48408    48991    51248    53395    53496    51317    48776    48030 
   48902    50153    52542    55586    56162    54764    53825    52409 
   50697    50863    52299    53527    53905    52685    50745    49357 
   48521    48251    47329    45258    44740    45812    46032    46411 
   47850    48405    47727    47603    47950    47150    46730    49108 
   51460    50425    47393    43476    38913    36517    37477    39064 
   39407    38929    38418    38477    39189    40055    40829    42101 
   43937    45287    45477    44224    43484    46249    49896    50271 
   48799    47389    45947    45172    45125    45721    46707    46001 
   43684    42893    44778    47106    47669    47364    48024    49669 
   51278    51359    49817    48613    48749    49902    51773    53600 
   53680    51098    48147    47592    48497    48404    47136    46552 
   48300    51524    52987    51181    47864    44799    42886    43143 
   45260    47231    47602    47008    46705    45901    43683    41607 
   40437    39344    38904    40571    44238    47302    48651    51008 
   54876    57156    56714    55086    53732    52018    49037    47588 
   49634    51583    51009    49042    46284    44740    46246    48531 
   49550    49424    48120    46469    46460    48420    49896    49349 
   48217    47915    48285    48543    48667    48656    47351    45557 
   45130    44606    43216    42749    42130    39749    37511    37208 
   38865    41411    43151    44338    46210    47313    45824    43301 
   42371    44267    48051    50935    52282    53377    54167    55044 
   56421    56394    53754    50422    48246    47051    46820    47418 
   48103    48940    49825    50301    49975    48784    48300    48930 
   48798    48359    48458    47402    46327    46998    46986    45821 
   45276    45058    44983    45072    45931    48332    50075    49755 
   49121    48617    47731    47444    47586    46535    45118    44478 
   43413    42795    44543    46772    47004    45149    41904    39204 
   38460    37972    37621    39923    44335    48627    52204    54508 
   54411    51279    47532    46623    47104    46869    47437    49208 
   51231    52223    50565    48207    47923    48478    48712    48921 
   48490    47969    48153    48178    47993    47718    46589    45080 
   44934    46942    49466    50410    49669    48505    47648    46857 
   46764    47833    48149    46985    46492    47499    48852    49991 
   51101    52047    52419    52477    52415    52038    52470    53928 
   54357    53523    52517    51086    49418    48343    48668    50642 
   52257    52219    51838    51615    51212    50417    49318    49565 
   50959    50542    48984    49698    51956    52089    49426    46492 
   44118    41737    41006    42364    43416    43282    42360    41215 
   41481    43179    44891    46730    47937    47749    48111    48752 
   47563    45929    46099    47815    48915    47499    44950    44563 
   46591    48300    48344    47583    46890    46422    46057    45632 
   45141    44945    44516    42912    41678    41786    40845    39675 
