Origin Time       2024/04/02 04:24:00
Lat.              40.133
Long.             141.712
Depth. (km)       71
Mag.              6.0
Station Code      IWTH15
Station Lat.      39.6148
Station Long.     141.0929
Station Height(m) 195
Record Time       2024/04/02 04:24:53
Sampling Freq(Hz) 100Hz
Duration Time(s)  185
Dir.              5
Scale Factor      3920(gal)/6170801
Max. Acc. (gal)   42.739
Last Correction   2024/04/02 04:24:38
Memo.             
[...]
   -4626    -4626    -4627    -4629    -4628    -4627    -4627    -4625 
   -4627    -4630    -4629    -4628    -4630    -4631    -4629    -4627 
   -4624    -4624    -4626    -4627    -4628    -4630    -4627    -4624 
   -4625    -4626    -4627    -4629    -4630    -4627    -4626    -4628 
   -4630    -4629    -4628    -4628    -4627    -4626    -4625    -4624 
   -4624    -4625    -4627    -4628    -4629    -4630    -4630    -4627 
   -4627    -4629    -4627    -4626    -4629    -4630    -4628    -4629 
   -4627    -4625    -4625    -4626    -4627    -4628    -4628    -4628 
   -4627    -4627    -4626    -4628    -4631    -4629    -4627    -4627 
   -4625    -4623    -4624    -4627    -4629    -4630    -4632    -4630 
   -4629    -4630    -4627    -4624    -4624    -4624    -4624    -4627 
   -4631    -4632    -4632    -4631    -4629    -4627    -4624    -4622 
   -4625    -4629    -4630    -4631    -4632    -4631    -4630    -4627 
   -4625    -4625    -4626    -4626    -4626    -4626    -4628    -4631 
   -4630    -4629    -4630    -4631    -4630    -4632    -4636    -4641 
   -4647    -4651    -4654    -4657    -4658    -4661    -4671    -4682 
   -4691    -4699    -4705    -4707    -4710    -4716    -4726    -4736 
   -4744    -4743    -4733    -4712    -4679    -4635    -4584    -4530 
   -4478    -4430    -4389    -4364    -4358    -4364    -4387    -4441 
   -4517    -4584    -4613    -4607    -4576    -4516    -4449    -4409 
   -4383    -4366    -4394    -4483    -4633    -4808    -4948    -5071 
   -5227    -5351    -5387    -5415    -5491    -5623    -5790    -5854 
   -5671    -5275    -4842    -4581    -4475    -4247    -3788    -3249 
   -2895    -3029    -3619    -4271    -4650    -4670    -4613    -4833 
   -5243    -5526    -5465    -4997    -4286    -3627    -3376    -3729 
   -4532    -5491    -6098    -5988    -5657    -5808    -6588    -7370 
   -7117    -5754    -3954    -2258    -1504    -1771    -1989    -1797 
   -1426    -1099    -1475    -2740    -4283    -5710    -6691    -6613 
   -5526    -4434    -4038    -3787    -2584     -618      156    -1984 
   -6858   -12468   -16143   -16446   -14412   -12216   -10601    -9026 
   -7103    -4238     -462     2908     4758     4091     1020    -1843 
   -2803    -2784    -2828    -3541    -4675    -4404    -1964      949 
    2486     1330    -2629    -6668    -8540    -9087    -9283    -9371 
   -9672    -9577    -8671    -7936    -7968    -8640    -9610    -9536 
   -7855    -5775    -3599    -1009     1646     4095     4999     2901 
    -805    -3928    -6252    -8181    -8830    -6211      369     8412 
   13174    10853     2229    -7890   -14944   -17062   -15626   -13351 
  -11563   -10696   -10382    -9685    -9109    -9029    -7345    -2815 
    1925     4080     4058     3590     3767     3942     1783    -3323 
   -7635    -6645    -2013        3    -3177    -9579   -15284   -15757 
  -10080    -2005     4190     7376     8478     6157    -1348   -11725 
  -20249   -23728   -22864   -20290   -16778   -12396    -8265    -5091 
   -2901    -1627     -504      694      795       82     -336    -1329 
   -2659    -2202    -1371    -4413   -11044   -15301   -11904    -1305 
   10776    18252    18044    10684       95   -10531   -19552   -24233 
  -24956   -23979   -19104    -9805    -1431     2888     5994    10429 
   12484     7528    -2413   -12307   -19168   -22123   -21459   -17362 
   -9913       62     9161    13395    13730    12491     9331     5729 
    2739    -2536   -10079   -15327   -16627   -16555   -16843   -16575 
  -13933    -7643     1409     9341    13225    14119    12577     7853 
    1042    -8605   -21084   -29986   -31679   -29402   -23907   -13222 
    1062    13901    19440    14924     3143   -11383   -23622   -26894 
  -19057    -5259     8394    16993    17115    10929     2662    -7077 
  -15960   -18325   -13174    -5803    -1886    -1938    -2022    -1424 
   -3089    -6056    -8259   -11571   -15989   -18223   -16687   -12800 
   -9922    -8208    -4459      163     3508     6833     7779     2874 
   -4943   -10846   -11733    -6382     1401     5947     5540     1220 
   -4820    -8902    -7723    -2449      133    -4028   -10743   -14555 
  -13352    -7815     -889     5413     9729     9910     6527     1888 
   -4060   -11337   -17102   -19453   -19905   -17941   -10013     1634 
    8770     7870     2332    -3181    -5639    -6051    -7503    -9526 
  -11157   -13433   -14447   -11513    -6147    -1863     -139      938 
    2403     2181     1350     3258     5339     3431     -432    -3244 
   -5186    -6160    -6776    -9001   -12444   -15661   -17801   -16626 
  -10954    -3539     1997     4480     4037       -2    -7692   -16570 
  -22323   -21775   -16116    -8736    -1627     4531    10216    14801 
   14779     8661      178    -5560    -6979    -6860    -7865    -9655 
  -11057   -10109    -4742     2610     7069     7153     3719    -2363 
   -9882   -16723   -19686   -16910   -10221    -4128    -2259    -3091 
   -2195     1194     4398     5023     2284    -2998    -8498   -10859 
   -9839    -8377    -6335    -3621    -3232    -4442    -4566    -4392 
   -4463    -4219    -4989    -7995   -12763   -17418   -18162   -13318 
   -5695     1481     5557     5605     3788     1202    -1866    -3574 
   -4313    -6420    -9655   -11924   -11653    -7947    -1113     6209 
    9713     7718     3560      345    -2507    -5890   -10355   -16458 
  -22033   -23475   -18646    -7969     3702    10784    11823     6801 
   -2184   -10379   -16447   -19885   -17522   -10565    -4398     -829 
    1445     2734     2992     2670     1817     1286     2133     2740 
    1386     -769    -3473    -7450    -9944    -9324    -8500    -8758 
   -9193    -8796    -6819    -5742    -7040    -7885    -7537    -7603 
   -8095    -8181    -7620    -7471    -7528    -5493    -2007      -74 
    -219    -1733    -4612    -8413   -11858   -13088   -10831    -6094 
   -1401     1886     4658     7181     7917     6831     4447       48 
   -5246    -9726   -13267   -15075   -14465   -11801    -7299    -2171 
    1382     1806    -1059    -5324    -8946   -11661   -12940   -12280 
  -10796    -8883    -6885    -6344    -6004    -3598     -908      161 
     798     1934     3102     3459     2580     1226       15    -1797 
   -5319   -10031   -13226   -12910    -9225    -3495     1325     3429 
    4198     3599        4    -5552   -10449   -12732   -12214   -11357 
  -12032   -12120    -8504    -2473     1314     1230    -1001    -4347 
   -7368    -8460    -8603    -8243    -5948    -2344       64      165 
    -837    -1663    -2880    -4694    -6336    -8217   -10303   -10592 
   -8042    -4857    -3396    -2639    -1693    -1918    -2758    -2670 
   -2305    -2651    -3892    -5376    -5882    -5207    -3732    -1298 
    1732     2959      238    -4698    -9024   -11980   -12923   -11269 
   -7440    -2875       64      313    -1445    -3885    -5482    -6556 
   -7889    -7838    -5867    -4627    -5112    -4677    -2049     -750 
   -3852    -8635   -11119   -10789    -8111    -3812     -282     1058 
    1202       97    -3491    -7341    -8229    -7479    -6893    -5919 
   -5067    -4973    -5795    -7893    -9918   -10684   -10417    -8891 
   -7360    -8008    -9376    -8057    -4073     -364     2083     4626 
    6499     5243     1439    -2303    -4974    -6521    -6891    -6375 
   -5336    -4499    -4404    -4160    -3108    -2424    -2633    -2256 
    -947     -130     -796    -3335    -6535    -8337    -8701    -7414 
   -3765      -20     1046     -842    -4644    -8364    -9691    -7326 
   -1876     3340     4913     2411    -2849    -8652   -11936   -11275 
   -8403    -6266    -5681    -5237    -4153    -2342      130     1897 
    1468    -1440    -5934    -9581   -10692   -10386   -10107    -9520 
   -7472    -4966    -5250    -7630    -7796    -5466    -3155    -2140 
   -3466    -6891   -10364   -11879   -10658    -7905    -4815    -1592 
     496      802     1268     3039     3968     1526    -3636    -8881 
  -12153   -12248    -9546    -5921    -3316    -3005    -3720    -3312 
   -2937    -3726    -4591    -6212    -8983   -10762   -10873   -10407 
  -10116   -10091    -9635    -8257    -5872    -2717      673     4038 
    5785     5079     5198     7180     6760     1864    -5366   -12278 
  -16329   -15926   -12664    -9250    -6102    -2956      153     3213 
    4566     2899     -622    -4586    -7677    -8651    -8261    -7757 
   -7261    -7405    -8496    -9069    -7758    -4752    -2298    -2667 
   -4766    -6931    -8894    -9413    -8535    -7697    -6669    -5878 
   -6280    -6536    -5024    -1626     2275     3930     2535      771 
     123    -1004    -3338    -5671    -7053    -7469    -7985    -9546 
  -10899   -10393    -7860    -4355    -2432    -2840    -3191    -3578 
   -5740    -7343    -5711    -2713     -559      337    -1604    -6387 
  -10329   -11976   -13249   -13498   -10015    -3657     1664     3063 
     409    -2812    -2396     1094     3462     3029     1895      953 
   -1045    -3065    -3400    -2776    -1553      245      905     -859 
   -4412    -8280   -11486   -13948   -15953   -17030   -15231    -9903 
   -3921     -504     -186    -1318    -2627    -4091    -4348    -2081 
     924     2671     2458     -278    -4391    -7764    -9456    -9403 
   -8474    -7099    -4911    -2989    -1598      120      686    -1075 
   -4785   -10229   -15183   -16651   -13942    -8342    -3226    -1119 
    -970    -2222    -4986    -6810    -6140    -3682      189     2983 
     733    -5550   -10643   -11040    -8097    -6348    -6030    -4306 
   -3450    -5641    -8657   -11184   -12292   -11700   -10846    -8838 
   -5668    -4549    -4669    -2511     1243     4153     5083     3905 
    1946      270    -1145    -2722    -5272    -8190    -9953    -9926 
   -7505    -3485     -380      932     1690     3445     5608     5320 
    2480     -438    -3023    -4897    -5277    -5476    -5347    -3852 
   -3392    -5634    -8438    -9583    -9007    -8434    -9318   -11393 
  -13045   -12428   -10200    -8313    -6733    -5100    -3599    -2884 
   -3228    -2256      279      625    -1456    -2922    -3048    -2568 
   -2381    -3243    -4086    -4288    -5940    -9528   -12203   -11908 
   -8482    -3309       35     -717    -3243    -5426    -8548   -11855 
  -12483   -11195   -10441    -9979    -8584    -7296    -7292    -6342 
   -2719     1626     4465     3952     -844    -7519   -12927   -15812 
  -15841   -12635    -6181     1589     8072    11566    10056     4661 
     569    -1011    -2640    -4274    -5257    -5859    -5755    -5258 
   -4624    -3336    -2193    -2810    -5408    -8256    -9379    -8909 
   -7762    -6011    -4438    -4434    -6160    -7980    -7718    -5083 
   -1567     1470     2822     1947     -663    -5120   -10805   -14342 
  -12693    -6813     -912     1459     -141    -4170    -8406   -10679 
   -9652    -5694    -1621     -155    -1286    -3454    -5153    -6368 
   -7400    -6495    -3439     -949      203      764      158    -1706 
   -4160    -6892    -8348    -7029    -5127    -5390    -6769    -6945 
   -5399    -3730    -3865    -5288    -6504    -6939    -5431    -2122 
    -784    -3704    -8183   -11446   -13056   -12687   -10772    -7951 
   -3891     -229      278    -2181    -5337    -7235    -7221    -5411 
   -1870     1744     3221     2347     -407    -3691    -5446    -5163 
   -3367    -2467    -5099    -8291    -7633    -4547    -2687    -4107 
   -8796   -13058   -13613   -11589    -8225    -4205    -1991    -1952 
   -2549    -4157    -6079    -6438    -6195    -7192   -10042   -13841 
  -15955   -15552   -14231   -12765   -11400   -10544    -9804    -8134 
   -5445    -2933     -686     1062     -278    -5140    -9835   -11599 
  -10795    -8370    -4719     -940     1448     1745      389     -635 
     317     1466      930      582     1164      297    -3059    -8903 
  -15993   -20394   -20182   -17074   -12822    -8411    -4787    -2572 
    -224     5008    11739    15341    13810     7889     -342    -7670 
  -12140   -12777    -8848    -3470    -1136     -761     1576     7017 
   14174    19795    20389    15456     7489      100    -4435    -7130 
   -9275   -10200   -10306   -10650   -10734    -9773    -6826    -2619 
     -70     1588     5239     8934     8914     4759    -1345    -6751 
   -9450    -8401    -4689    -1919    -3367    -8469   -13778   -18149 
  -22803   -26777   -28054   -25214   -16775    -5112     3172     3767 
   -2043    -8390    -9651    -6482    -2986      514     4969     7775 
    7540     6831     7252     7785     7895     9191    12191    14365 
   15025    15641    14813    10152     1449    -9819   -19926   -24487 
  -21270    -9866     6844    20740    23748    15130      338   -14887 
  -25955   -29784   -27025   -20240   -10746      437    10661    16465 
   16629    12651     5859    -3485   -14183   -22908   -25887   -22034 
  -14722   -10399   -12941   -19727   -26397   -30666   -29481   -20729 
   -6833     7741    18470    22381    21101    18131    14163     8360 
     247   -11005   -24714   -36851   -43474   -44011   -41048   -39038 
  -40622   -44090   -45552   -40624   -27072    -8080    11206    27102 
   36278    37378    32349    24629    17393    11775     7993     6733 
    5777     1126    -6328   -11136    -8617     1646    14452    22761 
   22409    12505    -4554   -22688   -35275   -41376   -45940   -52838 
  -61917   -70065   -71904   -62665   -41315   -12368    13756    26422 
   23527    12993     5821     8037    18289    32235    45869    53548 
   50094    36148    15383    -8507   -28956   -40768   -45325   -44102 
  -36866   -28755   -25639   -26275   -27703   -27482   -22065   -13964 
   -9028    -6205    -2847      815     5862    12699    20462    28589 
   34528    36088    33249    25196    12950     2355    -2208    -3150 
   -3966    -4022    -3763    -8238   -19359   -28825   -27851   -20597 
  -16286   -16370   -18319   -19693   -16595    -6852     7313    20968 
   28587    27206    20035    14851    16161    21075    25157    26560 
   22447    11177    -1643    -7501    -3671     4760    10668    12711 
   13216    11245     7041     5326     6436     5239    -1405   -13836 
  -29119   -39907   -38758   -22693     2676    23637    29134    17683 
   -4830   -27492   -40983   -43769   -39361   -34760   -36271   -40365 
  -39305   -31643   -18659    -2162    13181    23750    28949    30396 
   31370    31706    27271    15729    -2457   -24967   -46909   -61053 
  -60447   -44427   -20457     2749    19899    27931    27539    24969 
   23897    19564     9578    -1048    -9974   -18132   -22316   -17631 
   -6019     2474    -1381   -17147   -35555   -47721   -50217   -42048 
  -25742    -8961     2942    10215    13346    12136     8755     7101 
    8750    10937     9812     4061    -4719   -12592   -15845   -14853 
  -13325   -14915   -20121   -24769   -26053   -26185   -26661   -26690 
  -24980   -20259   -13603    -7315    -2659      -99      667     -886 
   -5284   -10930   -16665   -22560   -29129   -37848   -48304   -56455 
  -57022   -46625   -27675    -7488     8840    19708    23183    19894 
   14223     8345     3777     4428    10219    16630    21748    27356 
   34702    41382    45060    47003    47426    45380    42111    36743 
   25758     8476   -12596   -33058   -46747   -49105   -41443   -30467 
  -23212   -22673   -27783   -35183   -40357   -40301   -35231   -26694 
  -17310   -10473    -6536    -2531     3771    11553    17214    18460 
   18255    20046    22853    25409    27471    25746    16942     3600 
   -7950   -13451   -13433   -10154    -3750     5321    14471    21428 
   23386    18089     8437     -578    -6393    -8153    -7730    -9634 
  -16199   -23871   -26813   -23597   -15911    -5404     3812     6594 
    2309    -5497   -13799   -21879   -29395   -34281   -33450   -25699 
  -12079     5073    20884    29892    29904    21933    10348     1514 
   -1450      125     2321       22    -8544   -18360   -21221   -13524 
     171    12994    21591    25211    23736    16946     5625    -6461 
  -14863   -19723   -24629   -30297   -35328   -38901   -38515   -32665 
  -23746   -13550    -2241     8659    16944    21258    21310    17375 
    9250    -2331   -13427   -18751   -16262    -9566    -4702    -4557 
   -8170   -12590   -13283    -7717     1457    10083    14966    13452 
    6516     -571    -3279    -1003     3395     5286     1586    -6820 
  -16654   -24104   -24577   -15975    -3764     4385     8157    10046 
    7538     -368    -7682    -9880    -9296    -9216    -9918    -9771 
   -7044    -2668      543     1397       99    -3164    -8157   -14119 
  -19446   -22598   -22274   -17950   -11954    -7501    -5932    -7688 
  -11399   -14229   -15639   -16381   -16004   -14215   -11341    -7157 
    -288     9620    18453    20744    14520     1367   -12311   -18630 
  -16852   -12082    -8959   -10567   -17657   -27716   -36323   -40214 
  -39267   -34785   -28787   -23637   -19105   -13931    -9487    -7333 
   -6756    -7679   -10646   -12770   -10140    -3254     4204     9426 
   12043    12983    12593    11192    10307    11389    13613    13355 
    7734    -1786   -12300   -21802   -28226   -32191   -35200   -34300 
  -27523   -18389   -10529    -5531    -3962    -4983    -7317   -10000 
  -12532   -14529   -14971   -13281    -9069    -1731     6725    13389 
   17679    17938    13189     8166     7356    10859    18260    27598 
   34014    34011    28038    19938    14736    14267    15534    15244 
   13731    12648    11807    10200     8215     7040     6736     6997 
    8499    11520    15245    18484    19852    19001    17295    15873 
   13599     7674    -2147   -11641   -17617   -21202   -23430   -23973 
  -23653   -22701   -21062   -21198   -23752   -25519   -25583   -24642 
  -21192   -15296    -9261    -4163     -370     1141     -904    -5222 
   -7536    -6850    -5521    -4275    -4294    -6721    -9734   -12552 
  -15587   -17715   -18578   -17463   -13046    -8075    -6396    -7437 
   -8875   -10163   -12569   -17541   -23869   -28079   -28383   -25157 
  -19143   -13042   -11141   -14870   -22351   -30904   -37581   -40202 
  -38297   -32323   -24099   -16918   -13092   -12053   -10911    -7469 
   -2699     1657     5529     8006     7160     3831     1205      760 
    1177     1715     4582    11108    18103    21588    21158    18105 
   12943     6788     1575    -2043    -4689    -6818    -8264    -8436 
   -6546    -1988     4415    10069    12438    11089     8153     5728 
    3314     -133    -3559    -5482    -5708    -3673     1148     6881 
   11384    14296    15499    15127    13910    12802    12672    12219 
    8836     2544    -4228    -8774    -9623    -7863    -5337    -2824 
   -1046     -492     -384      -93     -221     -639     -179     1083 
    1940     1875     1728     2282     2645     2104     1867     2699 
    2931      786    -2914    -6474    -9582   -12383   -14680   -16257 
  -17433   -19093   -21740   -24905   -27235   -27515   -25575   -21973 
  -17774   -13771   -10089    -7579    -7343    -8489    -9373   -10363 
  -12086   -13609   -14515   -15136   -15545   -16182   -17180   -17464 
  -15442   -10442    -4427     -669     -190    -2177    -5772    -9212 
