Origin Time       2024/04/02 04:24:00
Lat.              40.133
Long.             141.712
Depth. (km)       71
Mag.              6.0
Station Code      IWTH02
Station Lat.      39.8250
Station Long.     141.3826
Station Height(m) 675
Record Time       2024/04/02 04:24:50
Sampling Freq(Hz) 100Hz
Duration Time(s)  137
Dir.              4
Scale Factor      7845(gal)/8223790
Max. Acc. (gal)   340.450
Last Correction   2024/04/02 04:24:50
Memo.             
[...]
   -3106    -3106    -3105    -3105    -3107    -3106    -3105    -3107 
   -3106    -3103    -3105    -3109    -3110    -3107    -3103    -3105 
   -3106    -3107    -3107    -3105    -3105    -3107    -3107    -3107 
   -3109    -3109    -3107    -3106    -3103    -3103    -3103    -3107 
   -3109    -3105    -3103    -3106    -3107    -3107    -3107    -3109 
   -3111    -3114    -3114    -3111    -3106    -3102    -3105    -3105 
   -3102    -3106    -3107    -3105    -3106    -3109    -3109    -3107 
   -3107    -3110    -3110    -3107    -3106    -3105    -3105    -3106 
   -3107    -3106    -3106    -3105    -3105    -3107    -3110    -3107 
   -3109    -3110    -3107    -3106    -3106    -3105    -3106    -3110 
   -3106    -3103    -3105    -3107    -3107    -3106    -3109    -3114 
   -3113    -3110    -3110    -3111    -3109    -3106    -3107    -3109 
   -3106    -3105    -3107    -3110    -3110    -3110    -3110    -3110 
   -3111    -3111    -3107    -3106    -3109    -3109    -3106    -3106 
   -3110    -3109    -3107    -3109    -3107    -3106    -3110    -3111 
   -3110    -3110    -3109    -3107    -3106    -3107    -3110    -3107 
   -3105    -3106    -3107    -3106    -3107    -3107    -3106    -3109 
   -3110    -3107    -3106    -3105    -3102    -3103    -3107    -3109 
   -3110    -3107    -3105    -3107    -3111    -3111    -3107    -3106 
   -3110    -3110    -3106    -3103    -3106    -3107    -3105    -3103 
   -3107    -3111    -3110    -3107    -3109    -3111    -3107    -3105 
   -3106    -3107    -3106    -3107    -3109    -3109    -3110    -3111 
   -3109    -3107    -3107    -3106    -3105    -3107    -3110    -3109 
   -3106    -3107    -3107    -3106    -3107    -3110    -3110    -3109 
   -3106    -3107    -3106    -3106    -3107    -3109    -3109    -3109 
   -3107    -3109    -3107    -3107    -3109    -3110    -3110    -3110 
   -3107    -3105    -3105    -3105    -3103    -3106    -3110    -3109 
   -3106    -3107    -3109    -3106    -3106    -3109    -3107    -3105 
   -3107    -3111    -3109    -3105    -3107    -3109    -3106    -3106 
   -3109    -3113    -3114    -3111    -3107    -3105    -3106    -3110 
   -3107    -3103    -3107    -3109    -3107    -3107    -3109    -3109 
   -3109    -3109    -3109    -3107    -3106    -3106    -3107    -3107 
   -3110    -3110    -3110    -3107    -3105    -3106    -3109    -3106 
   -3105    -3106    -3110    -3113    -3110    -3109    -3107    -3107 
   -3109    -3110    -3106    -3105    -3106    -3106    -3106    -3105 
   -3105    -3106    -3107    -3110    -3111    -3109    -3106    -3107 
   -3106    -3103    -3107    -3109    -3107    -3107    -3106    -3103 
   -3106    -3107    -3105    -3109    -3111    -3109    -3109    -3110 
   -3107    -3106    -3107    -3109    -3109    -3106    -3105    -3106 
   -3106    -3105    -3103    -3109    -3113    -3110    -3109    -3109 
   -3109    -3106    -3103    -3105    -3107    -3106    -3106    -3105 
   -3106    -3113    -3114    -3107    -3105    -3109    -3107    -3106 
   -3109    -3107    -3106    -3106    -3105    -3106    -3109    -3111 
   -3111    -3109    -3109    -3111    -3107    -3105    -3106    -3109 
   -3106    -3103    -3106    -3107    -3107    -3107    -3110    -3110 
   -3107    -3107    -3107    -3106    -3105    -3105    -3103    -3100 
   -3102    -3109    -3113    -3114    -3113    -3113    -3111    -3109 
   -3106    -3105    -3106    -3107    -3105    -3103    -3105    -3107 
   -3109    -3109    -3107    -3105    -3100    -3100    -3103    -3105 
   -3103    -3107    -3133    -3165    -3196    -3241    -3315    -3404 
   -3469    -3499    -3566    -3730    -3842    -3694    -3415    -3345 
   -3388    -2997    -2131    -1686    -2111    -2377    -1692    -1154 
   -2046    -3597    -3977    -3242    -3504    -5053    -5292    -3673 
   -3133    -3979    -2628      696      679    -3553    -6079    -4345 
   -2843    -4445    -6374    -5998    -4492    -3970    -4545    -4531 
   -2064     1730     2108    -2011    -4193    -1206       27    -4700 
   -7933    -4229    -1162    -5501    -8590     -932     7522     3312 
   -4866    -3064      270    -8004   -17273   -11103     -487    -6465 
  -18808   -12544     4425     6112    -1985     3235    13729     6567 
   -8237    -6176     4257    -1757   -17053   -15527    -1791     -927 
   -8536    -1894    10689     5838    -6535    -2061    10658     5601 
  -13120   -18970    -8634    -2786    -9134   -14840    -8814     5491 
   15637    12777      -99   -10692    -9528    -2234    -2625    -9767 
  -11025    -8523   -12024   -12856     2278    21752    22154     5881 
   -2192     4776     7592    -4171   -17172   -21262   -24624   -30485 
  -25945    -6579    10443    10592     3755     6820    16789    19326 
   13417     7626      511   -14351   -31395   -36458   -24742    -9285 
   -3408    -2731     2103    10893    18158    18851    13470     8255 
    2894    -8282   -16835   -12672   -10004   -20868   -30033   -23969 
   -8839     6224    16032    15052     7024     6272    13483    14185 
    5470    -3732   -12687   -26266   -36641   -28557    -8830    -2779 
  -11809   -12960      741    16011    22653    21658    18096    12106 
    2794    -4725    -8901   -14975   -22925   -26811   -19408     -479 
   10639    -1173   -12557     2188    19141     6729   -14284   -12128 
   -2297   -10642   -21126    -9535     8595     7365    -3574    -1032 
    9996    12077     6600     1181    -8075   -20644   -21730   -10255 
   -7535   -17961   -19090    -1062    18261    23326    19646    13676 
    2581    -9706   -13405   -11311   -15606   -24972   -27622   -22415 
  -12926     1080    13306    16999    17739    20043    17563     8162 
   -2686   -13590   -25045   -34007   -34879   -22580    -4749      -43 
   -6664     1923    29025    41800    26935    11038     8957     4322 
   -9522   -23805   -37272   -43302   -34123   -23457   -19893    -9675 
   11079    24255    17301     9030    21965    35163    19479    -7466 
  -15203    -9144   -13667   -28580   -29122   -14594   -12143   -20151 
  -11330    11369    21331    15241    12831    18472    15674      403 
  -13375   -18473   -19425   -19361   -15622    -9178    -6081    -4997 
     -41     6664     8141     2960    -1852     -163     2424    -3010 
  -10488    -6821     1669    -1962   -11049    -7028     2810    -1491 
  -12945    -9634     3680     5562    -2467    -3250     3403     3780 
   -3723    -6513     -365     3303    -2913   -11539   -15097   -15657 
  -14623    -8959    -1788      710     2840     8271    11059    12050 
   12849     4617    -9072   -12253    -7371    -9724   -19246   -23517 
  -18478    -9618    -1572     4194     8001     9987     8934     5977 
    6334    10557     8028    -7439   -23020   -24081   -15202    -9493 
   -7489    -3774    -1235     -880     2670     7362     4807    -3419 
   -5070     -475    -5274   -17105   -16885    -6382    -2593    -6160 
   -3223     9917    17498    10080     3100     7129     7955    -3788 
  -15651   -18644   -20567   -25212   -23164   -11426     -750     2070 
    4044    13498    22910    18328     7033     6539     7690    -9255 
  -30788   -31576   -19052   -13531   -15345   -13617    -3115    11017 
   20297    22435    18813    10682      191   -11425   -21529   -24602 
  -22473   -22815   -23683   -15867     1715    19095    27294    27594 
   25274    19527     7182    -6620   -15992   -26673   -40277   -42896 
  -28584   -10305      546     4712     8496    15715    21366    19376 
   15028    12595     2864   -18094   -34360   -29614   -13828   -10116 
  -16386   -12437     4023    17782    20058    16754    14863    10751 
     307   -10866   -18457   -24441   -24422   -14762    -6432    -6339 
   -6004     -301     6535    11796    14937    11300      558    -6073 
   -4455    -6644   -18477   -25524   -15022    -1892    -5778   -12148 
    2095    22972    23776    10335     4581     6970     1795   -14791 
  -26995   -24478   -20524   -23773   -21292    -8610     2803    11146 
   21643    27369    20591    10044     6601     4950    -5961   -23398 
  -33662   -32293   -26541   -18916    -8455     -149     4245    11199 
   21874    26555    18797     5355    -4221    -9409   -12199   -10937 
   -9900   -16675   -24676   -19361    -3254     5290     2080     2852 
   10319     7462    -5976    -8626     3229     7634    -5011   -15074 
   -5668     9108     6339    -8403   -12479    -6216    -8371   -18365 
  -18370    -7450    -2990    -8424    -5026    12899    22392    11726 
    2095     7804    11038    -1873   -13501   -10741    -9968   -18654 
  -19213    -7342     2019     2404     -307      892     3628    -1837 
  -12853   -16578   -11643    -4938     -396     -900    -4845    -4540 
    1263     5136     6265    10338    12370     2392   -11377   -12634 
   -5942    -6540   -14118   -17842   -12823    -3634     2317     3717 
    3937     2976     -276    -2107     1306     5830     1174   -12310 
  -17579    -9323    -4506    -8163    -6554     2247     5967      739 
   -2093     5374    10411     1502    -7846    -5157    -2215    -9830 
  -18042   -15612    -7825    -5067    -6843    -6003     -157     6727 
   10392    11696    10870     2856    -9987   -15340   -10816    -6918 
   -8761   -11367    -8600    -1709     1703      680      643     1314 
     -71    -1917     -905     1291    -4140   -16761   -20214   -10215 
   -2177    -1946     -965     4036     8893    10296     6956      -79 
   -6389    -9306   -10690   -12367   -14701   -15769   -11587    -5184 
   -3090     1686    15795    24673    17383     6181      696    -4537 
  -11844   -17193   -20232   -22954   -23843   -18717    -7703      896 
     920     1555    13284    25064    20869     7634     2107     4048 
     637   -12865   -26851   -29201   -20985   -13431   -10222    -6042 
    1107     8680    13194    10188     1707    -2812     -742     2234 
    1212    -3658    -7527    -9024    -9724    -7727    -3037     1688 
    2852    -3442    -9558    -4884      711    -4090    -8553    -4873 
   -2736    -4534     -101     8348     5827    -7402   -15098   -11477 
   -6920    -9656   -13123    -7917      -37      -67    -2397     2849 
    9390     7433     2130     2344     5096     3501    -2721   -10254 
  -14413   -13323   -12249   -13566   -12239    -5719     2934     7331 
    3420     -351     5150     8684    -1907   -11734    -4487     2403 
  -13815   -35067   -27144     3446    19287    12121    10239    21109 
   18976      132    -7191      371    -7541   -32881   -42134   -27221 
  -10974    -6130    -6524     -457    14049    26034    28822    25961 
   17979     1247   -19020   -30150   -29525   -27009   -27384   -25041 
  -15785     -978    14777    24027    24490    22986    21416    11919 
   -4793   -14195   -12945   -17577   -32309   -37488   -24780   -10466 
   -5440      915    19107    37280    34481    13252     -434     1501 
   -2673   -19488   -27051   -21003   -21265   -27228   -17605     5883 
   17340    10189     5691    11238    10204       55    -4679    -5109 
  -12079   -19322   -14489    -3046     1285    -1201      -52     4797 
    3717    -1818    -1926      481    -2849    -6114    -1705     2959 
    -280    -5300    -4303    -2065    -5914   -11016    -8290    -2278 
   -6079   -18022   -22804   -17011   -10959    -7842    -1273    10372 
   17410    10723      301     2007     9373     7786      689    -1549 
    -284    -2983    -8958   -10762    -9130   -11407   -13007    -5466 
    1981    -2331   -10824    -9741       56     3944    -4912   -11789 
   -2887     8619     4455    -5298    -1868     8083     7550      900 
    2998     7399    -2061   -18364   -24320   -20015   -13112    -6860 
   -4131    -1031     9737    20247    20629    19917    23822    19306 
    1910   -12348   -13867   -15944   -30974   -43602   -32795    -9288 
    4136    14305    39683    67562    69948    48616    26055     4509 
  -26734   -56721   -69241   -75477   -86729   -86921   -63927   -29079 
    6755    44128    79290    99655   101939    98582    92988    71903 
   36333     -333   -40869   -84466  -111858  -117232  -114234  -113456 
 -112993   -99932   -69488   -35823    -5422    34431    84717   122359 
  129874   114323    96029    87758    79775    57674    31379    14527 
   -4322   -32833   -51852   -46792   -29725   -21405   -26534   -34754 
  -41011   -49397   -62263   -74721   -81850   -87552   -93661   -94419 
  -90026   -86356   -83303   -72509   -43947     3859    54854    85205 
   96874   118539   155694   177531   160465   112155    56710     9315 
  -30964   -61651   -72187   -64381   -54365   -50016   -46040   -43838 
  -48562   -59005   -78629   -99011   -98847   -82428   -67575   -59792 
  -49603   -21136    19070    57754    95874   129118   153291   163098 
  139698    86243    46445    36271     6936   -57726  -104981  -120706 
 -122959   -99054   -60914   -33847    -9325    16298    40425    60999 
   67833    73812    94271   109161    99345    73592    52076    32675 
   -9807   -67107  -103076  -112735  -121456  -146119  -171332  -171873 
 -148120  -113146   -67443    -7528    56052   106832   141043   166814 
  193556   213530   207027   181693   137340    35239   -99256  -191218 
 -249817  -295319  -292422  -249579  -187721  -103863   -25270    56543 
  184275   311188   328572   271451   306246   334382   159871   -10270 
  -67840  -193379  -293792  -295358  -310786  -309209  -267656  -207755 
 -118547   -23665    64775   140463   174465   201209   292308   353805 
  268693   154321    67320   -61214  -147978  -172388  -217516  -233393 
 -189804  -135666   -75982    -7848    53773    91195    85349    70659 
  102492   124295    80211    44656    41588    15311   -19376   -40167 
  -68617   -92480   -95868   -98744   -97976   -74479   -47536   -33762 
  -10419    29589    65724    90913   105722   105916    92272    70314 
   43633    15095    -9745   -32040   -57813   -81322   -92859   -89546 
  -72823   -46967   -12594    24887    49331    55495    51850    45516 
   38151    22601    -5875   -35241   -55048   -67018   -65560   -41746 
   -1004    41962    72873    87195    87729    73029    49322    28202 
    -117   -49885  -109806  -161956  -195361  -192532  -144828   -73098 
   -9427    36138    82586   137187   176840   187965   174572   141658 
   94798    28224   -54330  -121140  -163460  -192407  -191388  -153760 
 -103461   -55148    -9481    41605   102537   151402   170564   164994 
  137662   100776    59606    -3424   -69749  -104996  -120888  -130080 
 -124213  -111771   -97710   -65867   -14629    38416    78813    99674 
  100984    94595    91336    73372    25438   -27206   -65032   -91723 
 -100238   -89035   -67819   -37700    -6296    22738    60207    90609 
   88446    64292    37207    12037   -14185   -49142   -83789  -101347 
  -99430   -78444   -47621   -22858      492    31949    59390    74220 
   83047    79196    56725    28664     -351   -32976   -59778   -71459 
  -70413   -61939   -47572   -27228    -1009    26094    45179    52840 
   49019    34684    16843     2492    -7618   -16181   -26060   -35380 
  -37998   -30963   -17049    -4880    -2690    -4445      434     7395 
   10057    13464    20171    24305    22414    18577    14121      445 
  -24541   -45972   -53720   -53225   -47684   -33663   -10575    16866 
   39414    51935    58282    60486    55447    39152    10577   -19454 
  -38897   -51287   -61921   -67535   -64073   -47000   -16532    17307 
   45474    62023    59024    37997    15676     1667   -13186   -34854 
  -56188   -66896   -60231   -41760   -21486      228    22545    39062 
   47032    50668    54488    51329    29609    -4521   -34357   -59123 
  -83157   -91505   -73377   -42384   -11576    18036    45808    64106 
   62193    47193    41049    42103    26688    -6646   -33863   -45361 
  -53908   -63270   -62974   -49293   -25309     3809    28804    44903 
   52848    51826    41307    23148     1921   -17192   -31606   -39850 
  -42257   -38565   -26211    -7184    13012    27966    31193    25296 
   20977    23160    23079     8028   -18256   -39618   -52505   -60482 
  -55422   -33374    -6987    10692    19792    29933    41139    43615 
   38097    29898    14682   -10956   -38643   -56176   -59382   -53576 
  -45369   -34318   -15623     9482    33787    52758    62343    57738 
   43920    28615     7292   -22636   -50110   -67084   -74231   -71597 
  -59605   -41499   -21944    -4472    13668    35179    52663    58858 
   56717    50812    40135    20579    -7757   -35579   -52115   -55447 
  -49319   -38029   -28053   -21598   -10087    13122    39055    54506 
   57352    50630    37274    21581     3977   -18283   -43093   -63639 
  -74556   -74433   -65549   -48882   -21736    12727    44037    63382 
   69095    67066    60520    45650    21292    -7446   -34007   -55135 
  -70000   -76597   -71616   -54272   -30168    -5409    19197    41566 
   56219    60030    51749    32807    12185    -2559   -16721   -34998 
  -48280   -49054   -40859   -26997    -9283     6489    14266    13632 
   11140    11836    10319     -336   -16463   -29948   -36387   -32267 
  -18173    -3454     5968    16055    31698    45972    50215    44608 
   31317    10362   -13662   -31966   -40864   -44878   -47629   -46819 
  -38588   -22682    -6841     1188     5645    13863    22928    26300 
   24533    21867    19280    12960      143   -12618   -18334   -20028 
  -22260   -25007   -25215   -20664   -13433    -4349     6289    12966 
   13933    15645    20818    24835    24241    19080    10066    -1216 
  -11651   -18176   -20757   -21770   -22964   -25370   -27461   -25691 
  -20054   -12964    -4442     6659    18135    25909    29582    29606 
   23828    12598     -184   -12295   -23483   -32246   -35903   -32321 
  -22068   -10261    -1624     4764     9111     8550     6596     9938 
   16881    20529    16753     7173    -2506   -11615   -22708   -28161 
  -19984    -8272    -8141   -17452   -21622   -15306    -7921    -6547 
   -5432     2506    13115    17431    15905    16540    20347    19395 
    9568    -3284   -11290   -15052   -20790   -27814   -28921   -21524 
  -12186    -9960   -12614    -8033     6677    20833    25301    22971 
   20704    17226     9054    -1391   -12044   -23715   -34516   -40608 
  -40676   -34470   -22801   -10486      517    13782    25828    28537 
   25344    23816    21124    12861     2150    -6731   -13346   -18663 
  -23593   -29290   -33365   -30688   -21705   -11419    -1609     8033 
   16202    23317    30530    33315    26427    11124    -7695   -24337 
  -35172   -41365   -43704   -39023   -27280   -14229    -2124    12390 
   29034    40671    41719    34812    24219    10137    -6789   -23379 
  -34587   -37210   -36069   -36378   -32907   -18766     1695    17177 
   23680    26959    30600    31893    26516    12417    -4761   -16599 
  -23670   -31090   -37474   -37118   -29185   -18422    -6455     9448 
   26293    33957    29583    22469    17458     9138    -3894   -15681 
  -22164   -24678   -25389   -22832   -15658    -7453    -2440      122 
    3480     8306    12961    16329    17262    13975     6690    -3469 
  -15337   -24648   -28767   -30570   -32337   -32266   -26352   -13934 
    -569    10139    19570    25856    25132    18951    12329     9050 
