Origin Time       2024/04/02 04:24:00
Lat.              40.133
Long.             141.712
Depth. (km)       71
Mag.              6.0
Station Code      IWTH04
Station Lat.      39.1809
Station Long.     141.3909
Station Height(m) 620
Record Time       2024/04/02 04:24:56
Sampling Freq(Hz) 100Hz
Duration Time(s)  135
Dir.              4
Scale Factor      7845(gal)/8223790
Max. Acc. (gal)   67.462
Last Correction   2024/04/02 04:24:56
Memo.             
[...]
  -15477   -13728    -8980    -6399    -5977    -4533    -4263    -7364 
  -10818   -10905    -7360    -4378    -7055   -13329   -17491   -18326 
  -16488   -15299   -18689   -22690   -21806   -17567   -13883   -11688 
   -9612    -8262   -10008   -12610   -11988   -10453   -10035    -6720 
   -1209      170    -3778    -9454   -13293   -14314   -14916   -17030 
  -20244   -22692   -22327   -18779   -14419   -13909   -17294   -18473 
  -16649   -14683   -10687    -7457    -9439   -10984    -9418    -6548 
   -1304      275    -4253    -6502    -7298   -11165   -14598   -16974 
  -18319   -16391   -14297   -14586   -16461   -19163   -19205   -16517 
  -16507   -17072   -12772    -8985    -9386    -6605     -835    -1092 
   -6948   -12746   -19126   -25303   -23961   -15562   -11335   -13408 
  -13867   -11242    -9459    -9795   -10224   -10179   -12255   -16168 
  -18913   -20065   -20036   -17007    -9954    -1737     3237     2093 
   -4372   -10740   -13393   -14296   -14739   -15558   -16370   -13911 
  -11790   -14443   -17011   -16781   -16579   -17176   -17720   -17915 
  -17292   -15634   -13694   -12123   -10771    -9109    -8105    -8344 
   -8820   -10242   -10498    -7322    -5456    -5961    -5795    -6839 
   -9305   -10523   -11111   -12918   -15955   -18153   -17899   -17648 
  -18704   -17729   -15169   -13818   -12884   -13968   -18912   -24129 
  -24788   -18855   -10839    -7096    -6527    -6363    -7550    -8468 
   -6133    -3487    -4544    -6663    -7446    -9652   -12475   -11121 
   -6581    -5425   -10476   -17223   -20470   -20505   -20390   -20934 
  -21116   -20416   -18473   -15861   -14034   -11772    -8552    -8010 
  -10870   -14157   -15410   -12927    -9468    -8021    -6320    -4054 
   -2975    -4113    -8779   -13811   -15520   -15273   -14354   -13562 
  -13873   -14705   -15581   -15557   -14239   -13269   -13460   -14939 
  -16507   -14871   -10647    -9355   -12695   -14812   -12139    -9556 
  -10125   -10732   -10245   -10733   -12348   -12622   -10408    -8658 
  -10111   -12226   -12357   -12567   -14588   -17010   -17595   -15164 
  -11362    -9355    -9747   -10621   -11334   -12603   -14459   -16190 
  -16105   -14621   -14824   -15665   -13846   -10474    -8974   -10698 
  -13077   -14114   -15531   -16349   -14601   -12102    -9232    -6184 
   -4986    -6057    -9636   -13259   -13655   -13609   -14166   -12906 
  -11701   -12406   -13425   -12418    -9946    -9768   -11823   -13540 
  -14644   -14665   -14160   -14712   -15707   -16395   -16812   -16255 
  -14665   -13275   -11601    -7970    -4245    -3807    -8425   -16225 
  -19611   -16888   -14732   -13274   -10539    -9873   -11029   -11396 
  -11410   -10588    -9101    -9833   -11901   -12195   -11894   -13194 
  -16183   -17861   -14447   -10099   -10525   -11654    -9950    -9652 
  -11832   -12526   -12194   -13225   -13679   -12667   -11674   -10878 
  -11465   -14013   -16351   -16722   -14148   -10532   -10438   -13570 
  -15927   -16397   -15770   -14281   -12027   -10127   -10282   -12438 
  -14454   -14611   -12997   -10050    -6578    -4978    -6858   -10812 
  -14208   -15149   -13023    -9180    -6548    -7709   -12329   -16780 
  -18694   -18870   -17578   -15361   -14557   -15325   -15711   -14354 
  -10531    -6019    -4868    -7758   -10570   -10974   -11979   -15322 
  -17428   -16011   -12453    -9120    -9487   -13328   -16314   -17463 
  -17273   -14894   -11620   -10147   -11057   -12773   -13331   -11495 
   -9776   -11105   -11533    -8822    -7877    -9335   -10193   -10705 
  -11024   -11341   -12155   -13196   -16160   -19541   -19556   -19218 
  -19780   -17595   -14184   -11508    -9794   -10862   -12510   -12397 
  -12353   -11844   -10242    -8992    -7331    -5790    -5502    -4806 
   -4947    -7650   -10670   -13259   -15773   -16517   -14982   -13937 
  -15147   -16491   -16725   -16926   -17034   -16479   -15195   -13830 
  -14467   -16182   -14654   -10505    -8085    -7535    -6832    -6432 
   -7514    -9535   -11315   -12515   -12495   -11307   -12028   -15226 
  -16445   -14570   -13225   -13666   -13772   -12989   -13090   -12785 
   -9710    -7809   -10808   -15256   -17459   -16935   -14588   -11919 
   -9891   -10570   -13969   -14651   -11894   -11217   -11662   -10484 
  -11480   -14076   -13205   -11125   -10890   -10381    -9801   -11114 
  -14014   -16842   -17605   -16483   -14103    -9760    -6380    -7261 
  -10197   -12231   -13261   -14557   -16135   -16532   -15034   -12305 
  -10980   -12312   -14446   -16407   -16151   -12110    -8623    -8904 
  -10255   -10656   -10752   -10727   -10413   -10689   -11627   -11546 
  -11080   -12356   -14501   -16575   -18476   -18971   -18073   -15759 
  -11967    -9891   -10504    -9423    -5680    -3951    -6509   -11547 
  -15677   -16402   -15947   -15911   -13740   -10146    -8082    -8171 
   -9953   -11774   -12499   -13578   -15646   -16019   -14419   -14544 
  -15712   -14625   -12607   -12816   -15530   -16540   -13606   -11685 
  -12928   -13512   -12241   -10243    -7904    -5128    -2542    -3223 
   -8000   -13046   -15576   -15444   -14083   -13988   -16054   -18234 
  -17439   -13576    -9448    -6806    -7080   -10791   -14364   -14894 
  -14543   -15776   -17109   -15610   -12513   -12329   -15512   -17709 
  -16389   -13822   -10951    -6242    -3580    -6382    -9861   -10451 
  -10184   -10687   -11666   -13680   -16997   -18081   -15156   -11637 
   -8951    -7974   -10814   -14635   -16320   -16117   -13918   -11577 
  -11109   -11668   -12710   -14019   -15604   -17050   -16113   -13219 
  -11585   -11711   -11805   -10407    -7662    -5514    -5251    -7326 
  -11982   -16548   -17181   -14659   -13184   -14050   -15022   -15182 
  -14137   -10592    -7491    -8542   -11785   -15380   -19503   -21745 
  -19988   -16347   -13514   -10354    -6037    -3512    -4133    -6966 
  -11142   -14392   -15892   -15731   -12314    -7674    -6014    -8236 
  -13146   -16333   -14678   -12826   -13863   -14818   -14926   -15547 
  -15850   -14669   -13898   -15457   -16715   -15323   -12954   -11500 
  -11534   -11854   -11118   -10261    -9582    -9019    -8916    -8147 
   -8122   -11232   -14046   -12536    -8284    -5645    -8100   -14206 
  -18430   -19256   -18557   -16027   -12128    -9899   -10619   -11853 
  -11114   -10000   -11254   -12818   -12205   -12953   -17693   -22623 
  -23668   -20644   -14940    -7813    -2459    -2481    -5859    -7946 
   -9235   -11935   -14030   -14056   -14037   -13420    -9768    -4900 
   -3627    -7727   -13259   -17373   -20974   -21184   -16299   -12366 
  -12980   -16370   -20398   -21188   -17780   -13552    -9217    -5950 
   -6396    -9374   -12618   -13826   -11047    -7627    -7701    -9629 
  -10400    -9309    -8225    -9852   -11616   -10482   -11412   -16359 
  -18616   -16371   -13896   -13549   -15523   -17196   -16684   -16171 
  -15723   -13563   -10615    -7431    -5078    -6781   -10642   -11497 
  -11242   -13977   -17101   -16528   -13628   -12391   -12471   -11335 
  -11286   -14373   -16771   -15495   -12910   -11794   -10084    -6478 
   -6694   -11389   -11812    -8052    -8131   -11302   -13562   -15190 
  -15620   -14378   -12949   -13139   -14802   -14438   -12229   -12603 
  -15277   -17402   -18142   -16985   -14403   -11731   -10218   -10995 
  -11265    -8112    -6284    -8066    -8927    -9302   -10332    -9313 
   -9049   -13284   -17694   -17759   -15417   -12658    -9612    -8878 
  -13308   -20283   -22241   -18663   -16495   -14316    -8866    -5807 
   -7803   -10781   -11107    -9381    -9734   -12185   -12684   -11176 
  -10605   -11198   -10825    -9779    -9980   -10720   -11512   -13618 
  -16343   -18222   -18335   -15897   -12762   -11873   -13374   -14860 
  -13832   -11277   -10409   -10655   -10075   -10061   -10905   -11884 
  -14470   -17544   -17948   -15919   -13697   -12270   -11369   -11242 
  -11728   -11038    -8981    -7780    -8625   -10841   -12950   -13392 
  -12526   -12133   -12063   -11449   -11414   -12378   -13099   -13705 
  -14161   -13424   -12214   -11446   -12025   -14161   -14855   -14239 
  -15061   -14748   -12236   -11472   -12837   -14462   -15381   -14592 
  -12892   -10087    -6967    -6806    -7168    -6268    -8128   -11416 
  -12274   -12291   -13540   -14742   -13959   -13153   -15047   -16443 
  -14995   -14891   -17300   -17608   -15298   -13512   -11430    -9089 
   -9799   -11916   -11317    -9026    -8914   -12056   -15153   -15514 
  -14187   -11793    -8922    -8760   -11441   -13317   -14373   -15113 
  -13497   -11433   -11074   -11232   -12513   -14177   -14088   -13464 
  -12679   -11299   -11310   -12164   -11290    -9714    -9293    -9792 
  -10141   -10200   -11271   -12117   -11534   -12453   -14403   -14743 
  -16110   -18558   -17726   -14670   -12887   -12297   -11736   -10818 
  -10238   -10052    -9019    -8317   -10261   -13293   -14299   -12579 
  -10069   -10203   -12198   -13039   -14735   -17350   -17405   -15010 
  -11130    -7472    -7528   -11476   -15700   -17007   -15947   -14007 
  -11901   -12430   -14874   -15198   -14092   -12213    -9305    -7839 
   -7503    -8078   -11892   -16615   -18978   -19198   -16947   -13182 
  -10972   -11064   -12109   -13332   -13513   -11232    -8325    -7275 
   -8611   -11977   -13513   -11742   -11057   -11608   -12703   -16183 
  -18679   -18605   -17548   -13888   -10284    -9720    -8872    -8135 
   -9364    -9535    -9336   -11850   -13909   -13136   -12656   -13008 
  -12823   -12515   -11466   -10282   -10270   -10813   -12451   -13752 
  -13078   -14631   -17857   -17122   -15550   -16376   -15291   -12297 
  -10336    -8853    -9089   -11535   -12533   -12125   -12657   -12171 
   -9643    -7030    -5287    -5169    -6565    -8689   -11985   -14929 
  -15823   -16605   -17351   -16190   -15433   -17232   -19152   -19137 
  -17718   -15959   -13950   -11790   -12397   -15684   -15523   -10732 
   -5690    -1962     -419    -2419    -7327   -13944   -19687   -20174 
  -14169    -6490    -3836    -8295   -15709   -20079   -18905   -13786 
   -8494    -7678   -11534   -14629   -15411   -16083   -13863    -8718 
   -8093   -12326   -16383   -20702   -22658   -17892   -10724    -5302 
   -1409    -1705    -7786   -15757   -19996   -18277   -15037   -14056 
  -12171    -8684    -8048   -10692   -12739   -11624    -9034    -8475 
   -9737   -11574   -15703   -21898   -25213   -22303   -15595    -8257 
   -3068    -3233    -6292    -7902    -9209   -11129   -12268   -13617 
  -16957   -20850   -20668   -14328    -7446    -6743   -11782   -18222 
  -21459   -18326   -11556    -6092    -3670    -5698   -11566   -16452 
  -17082   -14042   -10260    -8564    -9205   -12258   -16482   -17161 
  -12685    -6974    -4673    -7873   -13448   -16642   -17628   -17570 
  -15029   -11314    -9778   -10922   -13468   -15433   -14894   -12276 
   -9478    -7888    -8590   -12332   -17906   -20557   -16892   -11605 
   -9825    -9747    -9840    -9864    -7966    -5937    -6851    -8565 
   -8500    -7761    -7850    -9207   -13024   -19365   -23533   -22168 
  -17817   -13566   -11774   -12831   -14590   -16830   -18142   -15188 
  -10073    -7867    -9448   -12039   -13212   -14045   -15834   -15238 
  -11292    -9054    -9946   -11622   -14045   -16070   -15639   -13451 
  -11642   -12361   -14504   -14766   -13780   -13857   -14168   -13551 
  -13892   -15191   -13552   -10211    -9853   -11061   -11034   -10527 
   -9941    -8722    -7379    -7105    -8394   -10543   -11817   -10662 
   -8152    -6718    -6663    -7445    -8654    -9738   -10646    -9680 
   -7318    -8348   -11557   -11777   -10382    -9903   -10388   -13828 
  -19458   -22218   -21573   -19638   -15754   -11920   -11572   -14937 
  -20268   -22746   -20802   -18611   -15318    -9383    -5854    -7384 
  -12625   -20792   -28830   -32034   -30256   -27476   -25022   -22122 
  -19612   -17099   -14211   -13521   -15979   -19159   -20313   -17910 
  -12727    -8866   -11349   -18536   -21339   -15475    -7318    -4299 
   -6763    -9675    -7430     -301     4729     5252     3604    -4631 
  -20503   -31359   -27216   -11430     5547    14077    12830     7168 
    1059    -2214     1586    11767    22161    27058    22438     5309 
  -21282   -43996   -49748   -39344   -23026   -12517   -16768   -31872 
  -40730   -30188    -5505    15005    15670    -4834   -27980   -31735 
  -15388     6494    20957    20418     7389    -7578   -12854    -3322 
    7977     3009   -20000   -48751   -65707   -65014   -57331   -46130 
  -27604   -10952    -8170   -16316   -26680   -36018   -37800   -24545 
   -4757     7859    10683     6801     3055     5848    13297    20332 
   24065    21258     7898   -12205   -25751   -26874   -21232   -12472 
   -5150    -8644   -23913   -43545   -60654   -64997   -50147   -28312 
  -18203   -20968   -23194   -18257    -7476     8635    25134    31599 
   20159    -6423   -31313   -36855   -23390    -5811     5138     7939 
    6185     5510     6507     5331      618    -8375   -22577   -37984 
  -46237   -40373   -22423    -4788     2057    -3955   -20052   -37095 
  -44278   -40275   -30396   -15846     2843    15930    11196   -14199 
  -47834   -64590   -53441   -30846   -13275    -2968     4487    14935 
   25828    31657    34947    36285    33077    26152    15337     2250 
   -7422   -13757   -23052   -36350   -45836   -45759   -41327   -38654 
  -35937   -32521   -34458   -47605   -67504   -77517   -64740   -32711 
    5798    38724    58256    57682    34322     4464    -7981      527 
   16023    22608    14376     -799   -15768   -25789   -26069   -24406 
  -28283   -27989   -16202     -896     7600     4660    -9818   -31908 
  -53127   -63223   -58977   -47908   -38707   -32856   -28169   -21251 
   -8164     7045    15072    12949     4455       89     8482    22933 
   33106    36423    30616    16108    -1849   -21479   -40702   -53048 
  -53966   -43968   -30901   -25594   -28374   -29953   -26538   -20765 
  -13243    -7461   -11264   -23544   -31124   -22743    -3006    12325 
   13653     -390   -26684   -51667   -57581   -40838   -14187     8837 
   22473    25459    20279    13512    11697    15515    18841    16021 
    5748   -10520   -27558   -38199   -38500   -30048   -19197   -13992 
  -17683   -24557   -27681   -25914   -20077   -11742    -4941    -4214 
  -10818   -20391   -28463   -34105   -33417   -21401    -2826     9082 
    4897   -12599   -29332   -30638   -16239      -58     8511    11473 
   10177     2274    -8743   -13895   -10478    -6448    -9474   -14408 
  -12571    -8428   -10993   -20004   -30262   -37023   -36720   -30823 
  -23471   -14075    -4853    -6048   -18492   -28939   -28453   -19113 
   -8780    -4491    -4502    -3262      633     7534    12843     6643 
  -10690   -27927   -36718   -34673   -25459   -16741   -11275    -7136 
   -5940    -9404   -10912    -4020     6914    14450    14839     6625 
   -6605   -17505   -21817   -19633   -14022   -11007   -14035   -19097 
  -23495   -28221   -29011   -23984   -18889   -16738   -18720   -24223 
  -26091   -20655   -11935    -4203    -1588    -6971   -16706   -21398 
  -13695     3441    18474    22246    14671     1771   -10809   -20344 
  -24707   -22497   -16372   -11047    -9346   -12447   -19683   -27376 
  -30508   -26960   -17251    -4642      483    -8406   -22952   -32755 
  -34321   -27743   -15530    -1166     9439     8993    -2876   -17594 
  -25068   -21406   -10817    -1008     3327     3384     2740      727 
   -5229   -13689   -22723   -29565   -29419   -23853   -17825   -10627 
   -3996    -5055   -11346   -13389   -13042   -17471   -22998   -23039 
  -19205   -14293    -9300    -8804   -14202   -18755   -17887   -12599 
   -4965     1516     2188    -4564   -13035   -15349   -10893    -3979 
     -48    -5096   -18204   -29272   -30307   -22975   -13637    -7537 
   -6960   -11565   -19452   -24418   -19491    -8216    -1912    -6034 
  -15677   -23053   -25444   -23101   -16962   -10427    -5251    -1652 
   -3329   -11691   -19769   -20727   -16819   -11604    -3084     6783 
   10717     7654     1956    -4347   -10968   -18218   -25778   -28552 
  -21816   -11317    -7766   -13011   -20313   -24354   -24069   -19855 
  -14856   -13518   -14966   -16222   -18423   -21578   -20915   -14281 
   -6879    -2231     3026     9089    11009     6664    -2431   -12328 
  -17552   -16249   -12931   -11875   -11823   -13470   -20885   -30167 
  -32026   -25625   -18786   -17131   -17959   -14864    -7167    -1525 
   -2424    -7110   -12533   -17991   -21046   -18816   -11792    -4151 
    -811    -3354    -8236   -10108    -9491   -11938   -17019   -19797 
  -19878   -17878   -13308    -8384    -5626    -7904   -17571   -27803 
  -28838   -22511   -15122    -8480    -5980    -9992   -14801   -14094 
   -8336     -252     8303    13666    11759     2875    -7944   -15152 
  -17725   -19317   -21131   -19811   -16761   -18058   -22380   -24062 
  -24671   -27288   -27525   -21933   -15882   -14778   -16949   -18647 
  -17806   -13606    -8459    -6740    -8537   -10100    -9382    -7196 
   -4938    -2002     1142      731    -2255    -2245      261     -409 
   -6501   -13805   -16123   -13440   -11283   -11797   -13099   -14566 
  -17375   -22696   -28031   -28783   -26461   -24370   -21054   -17077 
  -14825   -13694   -14332   -17358   -18940   -15385    -7534     -201 
    1718     -992    -4012    -7032   -10444   -10305    -6361    -4526 
   -7094   -11137   -13666   -12723   -10193   -10971   -14477   -16035 
  -15283   -14655   -15325   -17192   -18816   -18817   -17031   -14187 
  -12672   -14972   -20618   -26084   -26350   -19446   -10901    -8326 
  -11615   -14330   -13987   -12673    -9545    -2728     5439    10296 
    8602     1902    -5148   -10809   -14600   -14785   -12820   -12278 
  -13351   -14696   -16857   -20281   -23724   -25205   -23646   -20686 
  -18044   -14465   -10351    -9400   -11269   -12005   -12201   -14141 
  -16224   -17197   -16461   -12906   -10261   -12060   -13127    -8999 
   -4371    -2735      -66     5254     8322     5825    -1113    -9837 
  -17080   -21154   -22997   -23998   -24557   -23074   -18654   -14397 
  -11890    -8077    -3434    -3925   -10316   -16267   -19458   -22708 
  -25469   -25232   -23299   -22477   -22439   -20992   -17193   -10251 
    -596     6289     5051    -2277    -9622   -12866   -12322   -11153 
  -10214    -8808    -8648   -10242   -10535    -8649    -7485    -9521 
  -14260   -18407   -20241   -20961   -20191   -16501   -11306    -8376 
  -10046   -15673   -22269   -25203   -23164   -19855   -17830   -16560 
  -13726    -8603    -5200    -4957    -5464    -8145   -13702   -17420 
  -14751    -5609     4635     9088     5139    -5314   -16476   -20637 
  -16275   -11172   -12059   -15750   -16614   -15261   -13737   -11318 
   -7939    -5780    -7173   -12113   -17749   -20802   -20231   -17668 
  -15441   -14643   -15253   -16541   -17902   -18748   -17261   -13632 
  -11969   -14465   -17857   -16792    -9865    -2897     -611     -178 
    -430    -3229    -5763    -6906   -10805   -17523   -23187   -26026 
  -24040   -16262    -7929    -4752    -7149   -12438   -16653   -18261 
  -17559   -13398    -8700    -9235   -13917   -16659   -15510   -13065 
  -10843   -10092   -12322   -14187   -12399   -11709   -16245   -20977 
