Origin Time       2024/04/02 04:24:00
Lat.              40.133
Long.             141.712
Depth. (km)       71
Mag.              6.0
Station Code      IWTH19
Station Lat.      39.4559
Station Long.     141.0001
Station Height(m) 220
Record Time       2024/04/02 04:24:55
Sampling Freq(Hz) 100Hz
Duration Time(s)  120
Dir.              6
Scale Factor      7845(gal)/8223790
Max. Acc. (gal)   10.129
Last Correction   2024/04/02 04:24:55
Memo.             
[...]
  -12471   -12765   -13279   -13134   -13101   -13300   -12839   -12942 
  -14571   -16375   -17078   -16426   -15036   -13603   -12399   -11755 
  -11678   -12289   -13491   -13711   -12347   -11061   -10571   -10432 
  -10719   -11097   -11588   -13215   -14986   -14917   -13973   -13208 
  -12039   -11790   -12729   -12722   -12075   -11273   -10446   -12279 
  -16069   -17104   -15074   -13173   -12985   -14544   -15468   -13826 
  -12337   -12769   -12989   -12437   -12712   -13709   -13475   -11990 
  -11642   -12224   -11271    -9417    -8707    -9802   -12730   -15063 
  -14935   -14216   -13589   -13217   -14409   -15145   -12918   -10345 
  -11072   -14449   -16912   -15646   -12630   -12163   -12854   -11419 
   -9894   -10648   -12787   -14878   -15645   -15727   -16100   -14786 
  -11919   -10031    -9209    -8854    -9035   -10608   -14162   -16769 
  -15604   -12633   -10696   -10755   -12024   -12330   -12567   -13799 
  -13223   -11642   -12209   -13053   -12413   -12263   -13178   -13343 
  -12391   -12046   -12978   -14137   -15390   -15984   -15272   -15966 
  -17556   -15936   -12225    -9903    -9467    -9934    -9891    -9034 
   -9918   -13903   -16478   -14623   -11570    -8785    -6759    -8434 
  -12268   -13701   -13112   -12746   -12854   -14330   -16700   -16384 
  -13203   -11653   -12695   -14141   -15859   -16357   -14916   -14901 
  -16100   -15093   -12688   -11090   -10490   -11488   -12663   -11067 
   -9832   -11765   -12395   -12236   -14997   -15809   -12916   -11421 
  -10112    -8000   -10507   -15622   -15762   -12914   -12588   -13081 
  -12156   -12087   -12561   -10998   -10098   -12750   -15893   -16687 
  -16104   -15383   -15191   -15230   -13504   -11342   -12510   -14474 
  -13247   -11907   -12739   -12776   -11283   -10099    -9933   -11546 
  -14322   -14871   -12050    -9718   -11121   -13813   -14921   -15673 
  -15697   -13136   -10458   -11034   -13691   -15133   -15001   -14559 
  -13706   -12856   -12669   -12339   -11296   -11097   -13109   -14370 
  -12739   -11581   -11813   -11612   -12121   -12825   -12002   -12058 
  -13996   -14613   -13653   -13582   -14092   -14401   -15087   -15385 
  -14172   -12291   -12087   -13701   -13490   -11529   -11678   -11637 
   -9505   -10237   -13590   -14693   -14150   -13907   -13948   -14049 
  -12928   -11209   -11826   -14107   -13524    -9599    -8714   -13617 
  -16937   -13257    -9374   -11227   -13548   -13533   -13674   -12402 
  -10845   -12252   -13501   -13464   -14867   -15977   -14789   -12171 
  -10353   -12262   -15661   -16244   -15056   -14145   -13554   -13051 
  -12622   -12695   -13111   -12779   -11508   -10986   -11803   -12891 
  -13548   -11225    -7273    -9119   -14563   -14566   -10844   -10615 
  -14462   -16973   -14424   -10673   -11299   -14345   -15179   -14312 
  -13860   -14265   -14177   -12021   -10528   -12930   -15792   -14652 
  -12280   -12116   -11867   -11022   -11369   -11033   -10339   -12262 
  -14170   -13413   -12482   -12258   -12241   -13454   -14713   -13517 
  -10937   -10220   -12110   -14666   -14625   -10885    -8748   -11680 
  -14855   -15371   -15021   -13726   -12086   -12309   -13764   -15223 
  -15518   -12575    -9711   -11094   -12850   -12800   -13101   -12403 
  -11731   -13516   -14527   -13495   -12814   -12552   -12764   -13375 
  -12924   -11866   -11847   -13509   -15003   -14274   -13455   -13529 
  -13301   -14604   -15539   -12360   -10207   -12748   -14924   -13963 
  -11572   -10312   -11700   -13578   -13725   -13008   -12887   -13443 
  -13078   -11782   -12113   -13856   -14270   -13197   -12703   -13246 
  -13250   -12746   -13454   -14254   -12788   -10991   -10926   -10914 
  -11149   -12637   -14079   -15009   -14871   -13431   -12330   -12106 
  -12426   -12933   -12974   -13462   -14115   -13173   -12958   -14670 
  -14246   -12162   -12091   -12611   -12731   -13072   -12850   -13068 
  -13663   -13200   -12422   -11767   -11681   -12880   -13605   -12361 
  -10999   -11299   -12451   -12934   -12101   -11014   -11827   -14304 
  -15299   -14584   -14814   -15219   -14107   -12997   -12883   -12545 
  -12224   -12189   -11283   -11321   -13181   -13435   -12073   -11942 
  -11983   -11510   -12085   -12326   -11925   -12557   -13038   -13522 
  -14715   -14380   -12915   -13103   -14296   -14107   -12992   -12862 
  -13655   -13792   -12685   -12137   -12773   -12471   -11692   -11392 
  -10623   -11772   -14577   -14150   -12630   -12914   -11626   -10629 
  -13015   -14562   -13810   -13267   -13041   -13911   -15589   -14347 
  -11369   -11712   -14474   -15985   -14727   -11917   -11785   -13995 
  -14138   -12737   -12262   -12522   -12723   -12833   -13042   -12645 
  -11546   -12460   -15481   -15033   -11244   -10174   -10646   -10651 
  -13000   -14670   -12947   -12384   -13046   -12703   -13348   -12997 
  -10242   -10667   -14389   -15340   -13813   -13255   -13281   -13050 
  -13113   -13468   -13315   -13062   -13401   -12590   -10783   -11245 
  -12931   -13028   -12920   -12850   -12191   -13074   -14023   -12545 
  -11661   -12712   -14116   -15515   -15115   -12556   -11277   -12668 
  -14443   -14912   -13768   -11762   -11616   -13219   -12939   -11535 
  -12090   -12930   -12606   -12744   -12896   -11958   -10812   -10963 
  -12467   -12954   -11839   -11880   -13883   -15238   -14314   -12847 
  -13015   -13603   -12803   -12988   -15186   -15520   -14107   -14050 
  -13896   -12719   -12370   -12856   -12542   -10781    -9559   -10747 
  -12614   -13135   -13024   -13335   -13641   -12976   -11951   -12571 
  -14628   -15533   -14318   -12980   -12671   -12112   -11562   -12063 
  -12411   -12721   -14345   -14958   -12607   -10723   -11809   -13578 
  -14058   -13991   -13664   -12641   -12452   -13236   -13109   -12582 
  -12280   -12147   -12330   -11769   -11290   -12418   -13363   -13209 
  -13062   -13140   -13633   -13173   -11097   -10662   -12008   -12946 
  -14986   -16636   -14764   -13070   -14000   -14347   -13822   -13367 
  -11587   -10046   -10874   -11884   -11817   -12268   -13193   -13146 
  -12451   -12861   -13725   -13383   -14042   -15858   -14250   -10694 
  -10832   -12407   -11205   -10790   -13637   -15056   -13342   -12715 
  -14092   -14696   -14175   -12448   -10011   -10589   -13976   -15369 
  -13788   -11693   -10490   -10679   -12214   -13058   -12209   -12046 
  -12829   -13549   -15137   -15585   -12965   -10762   -11631   -13806 
  -14887   -13586   -11115   -11101   -13967   -15840   -14762   -12681 
  -11981   -13050   -14046   -13842   -14318   -15029   -12667    -9702 
  -10678   -13338   -14455   -13946   -12183   -11371   -12344   -12604 
  -12568   -13788   -14339   -13674   -13308   -12687   -12042   -12556 
  -12649   -12116   -13339   -14872   -14461   -14041   -13852   -12121 
  -10461   -10964   -13301   -14698   -12449   -10139   -11707   -13775 
  -13417   -11809   -10562   -11126   -13362   -14972   -14119   -11705 
  -10789   -13167   -16104   -15402   -12181   -10902   -11784   -12275 
  -12710   -13520   -13350   -13059   -13930   -14045   -12483   -12171 
  -12999   -12344   -12757   -14631   -14085   -12374   -11497   -10932 
  -11584   -13605   -14713   -13161   -11588   -13216   -15345   -14280 
  -11781   -11030   -11763   -12189   -12017   -12402   -13149   -12572 
  -11745   -13051   -14809   -14898   -14436   -13255   -11021   -10017 
  -11354   -14416   -16974   -15456   -11853   -12222   -15249   -15352 
  -12814   -11265   -11974   -13057   -12974   -12798   -12725   -11878 
  -11294   -12324   -13267   -12202   -11333   -12918   -14882   -13702 
  -10444    -9895   -12521   -14324   -13035   -11017   -11565   -13019 
  -13275   -13639   -13906   -14322   -16194   -16210   -12744   -11119 
  -13092   -13706   -12247   -13184   -15479   -15399   -14647   -14057 
  -12895   -12708   -12086   -10550   -11998   -14686   -13555   -11376 
  -11826   -11947   -10647   -10350   -10831   -10970   -11720   -13290 
  -13940   -14179   -14802   -14146   -13586   -14580   -14661   -13749 
  -13082   -12168   -11990   -12484   -12159   -12310   -13392   -13321 
  -12704   -13367   -14156   -13845   -12777   -10975   -10042   -11445 
  -13117   -14278   -15164   -13864   -11418   -11200   -13198   -14127 
  -12050   -10925   -13194   -13259   -10535   -11236   -13991   -14111 
  -12228   -10606   -11851   -15318   -15992   -14627   -14744   -13791 
  -12116   -12992   -13004   -11137   -11456   -12006   -10962   -12376 
  -15711   -15693   -12722   -11681   -12903   -13711   -14129   -14046 
  -12691   -11399   -11419   -12216   -12827   -12853   -12969   -12992 
  -11315   -10400   -13151   -15338   -14508   -13740   -12951   -11785 
  -12409   -13590   -12810   -11307   -11412   -12440   -13273   -14731 
  -15338   -13331   -11376   -11553   -12939   -14805   -15430   -13327 
  -10692   -10195   -12604   -16406   -17263   -13679    -9952    -9898 
  -12856   -15649   -15218   -11904    -9724   -10324   -12607   -15387 
  -15036   -11682   -11317   -14403   -16576   -15688   -12124    -9968 
  -11967   -14370   -14439   -13412   -11811   -10296    -9949   -10879 
  -12471   -12819   -11307   -10585   -11535   -12147   -12953   -14057 
  -13084   -12071   -13190   -13898   -14632   -16372   -14805   -10431 
  -10820   -15174   -14921   -10720   -10147   -13332   -15209   -13807 
  -11067   -11129   -14027   -15026   -13977   -14193   -14886   -13714 
  -11898   -12052   -13386   -13501   -12496   -11535   -12055   -14017 
  -13231   -10542   -12637   -16011   -13738   -10453   -10386   -11466 
  -12796   -12826   -12016   -13458   -14436   -12668   -11637   -11524 
  -11422   -12815   -12957   -11153   -12680   -15040   -13126   -12434 
  -14507   -13269   -11672   -14337   -16505   -15280   -14096   -14046 
  -13140   -12106   -12922   -13940   -13486   -13664   -14563   -13497 
  -12183   -12935   -13103   -11485   -10714   -12135   -13930   -14003 
  -12579   -11086   -10474   -10816   -11707   -12139   -11545   -12147 
  -14782   -15657   -14156   -14332   -15287   -13451   -11101   -11281 
  -12631   -13620   -14272   -14127   -12753   -11817   -13417   -14720 
  -12421   -10548   -11360   -11589   -11358   -12079   -13232   -14357 
  -14586   -14164   -14085   -13203   -12063   -13274   -14372   -12784 
  -11997   -13177   -13591   -13419   -13890   -14451   -14473   -13608 
  -12695   -12730   -12307   -10708    -9724   -10794   -13556   -15464 
  -14265   -11682   -10793   -12136   -13925   -13285   -10831   -10299 
  -11442   -12474   -13508   -13826   -13134   -12549   -12626   -13154 
  -13737   -13888   -13872   -13012   -10959   -11435   -13859   -13500 
  -12868   -13684   -12428   -11403   -13702   -14906   -12779   -11638 
  -12641   -11997    -9946   -10678   -13474   -14238   -12733   -10883 
   -9753   -10559   -12947   -14265   -13171   -11888   -12997   -14218 
  -13567   -13733   -13656   -12047   -13007   -14958   -14405   -14411 
  -14563   -12695   -12567   -15438   -16914   -14652   -11075    -9576 
  -11225   -14187   -14949   -12862    -9987    -7994   -10180   -15134 
  -15321   -11873   -11210   -12028   -11813   -12220   -14353   -16402 
  -15726   -13946   -14445   -15716   -14994   -13605   -13656   -13878 
  -13421   -13636   -13231   -11368   -10806   -11030   -10484   -11759 
  -13822   -13070   -11880   -12704   -13378   -13190   -13513   -13896 
  -13358   -11025    -8121    -9528   -13737   -13651   -10755   -10351 
  -11896   -13783   -14604   -12939   -11790   -13277   -14380   -14237 
  -14316   -13319   -11969   -13772   -16690   -16191   -13586   -12093 
  -11973   -13383   -15411   -15718   -16141   -17055   -14665   -12117 
  -13379   -13910   -12096   -10908    -9208    -7816    -9738   -11882 
  -12006   -11974   -11530   -11021   -11618   -11600   -10963   -12279 
  -13954   -13186   -12602   -13829   -14260   -14058   -13759   -12444 
  -12842   -15358   -16036   -15998   -17917   -19051   -17898   -16515 
  -15614   -14665   -12775   -11267   -12717   -14126   -12391   -10783 
  -10763    -9663    -7788    -8041   -11380   -14453   -12582    -7983 
   -5413    -4966    -7645   -11793   -11820   -10027   -11788   -15795 
  -19052   -20054   -17452   -13181   -12116   -14072   -14627   -13001 
  -11389   -11638   -13537   -14858   -14324   -12575   -12334   -15078 
  -16576   -14121   -12934   -16077   -18608   -17149   -13132   -10380 
  -11759   -13009   -11048    -9849   -10112   -10208   -11848   -14172 
  -13441   -10507    -8237    -7574    -9518   -12456   -14751   -17776 
  -19761   -18674   -16436   -13849   -11551   -10926   -10303   -10484 
  -14123   -16187   -13279   -10883   -10521    -9520   -10076   -12166 
  -11148    -9737   -13293   -17139   -16567   -16137   -18041   -17949 
  -14523   -10805    -9555   -10606   -12015   -13446   -15639   -18119 
  -17705   -11476    -4654    -7263   -17243   -20721   -14964   -11321 
  -12550   -11699    -8992    -7204    -5333    -5552    -9535   -13879 
  -15714   -15665   -14008    -9563    -6129    -9344   -15653   -18736 
  -19491   -18634   -14710   -10486    -7620    -4607    -4480   -10624 
  -17442   -17980   -14388   -12148   -13281   -16001   -15618   -12583 
  -12679   -14895   -14517   -13305   -14682   -16787   -16613   -15290 
  -15137   -14728   -11229    -6909    -7173   -11673   -13798   -11603 
  -11128   -13108   -12318   -11225   -12972   -12910   -10975   -11963 
  -14824   -16031   -15897   -16947   -18050   -15993   -11356    -5684 
   -2292    -5887   -13116   -16915   -16827   -15411   -13266   -10187 
   -7534    -8028   -11183   -13770   -14766   -13917   -12380   -13547 
  -16055   -15488   -12906   -12324   -13687   -14681   -14607   -12792 
  -10536   -10548   -10894   -11021   -13961   -17050   -17953   -19012 
  -18858   -16590   -15304   -14319   -11034    -7982    -8966   -13051 
  -15411   -13063    -9429    -8822   -10690   -11931   -11743   -12671 
  -13190    -9617    -5867    -6115    -7420    -7758    -9562   -13593 
  -16707   -16627   -14434   -12642   -13612   -16814   -18241   -16482 
  -14392   -13698   -14065   -15088   -16405   -17108   -16015   -13825 
  -12773   -12606   -11909   -11173    -9848    -8772   -11454   -15828 
  -16398   -13888   -11936    -9977    -9053   -12621   -17022   -17517 
  -15831   -13860   -12393   -12295   -12301   -11118    -9944   -10004 
  -11011   -12870   -14779   -14121   -10567    -9116   -11919   -13227 
  -12067   -13861   -16067   -13752   -12244   -16043   -19662   -19488 
  -17042   -13632   -12560   -13905   -13821   -14102   -15149   -12530 
   -8737    -8102    -8414    -8749   -10732   -13062   -15300   -18249 
  -18769   -15809   -13913   -14110   -14202   -14573   -13702    -9508 
   -6817    -9197   -11618   -12275   -15256   -18072   -16183   -13153 
  -11526    -9173    -6979    -7079   -10377   -15221   -15944   -11718 
   -8449    -8199    -9802   -13441   -15506   -12106    -8384    -9074 
  -10265   -11774   -17142   -20911   -18142   -15781   -18054   -18600 
  -14790   -10450    -8163    -9269   -11745   -12187   -12525   -13701 
  -12428   -10995   -13551   -16160   -15371   -13620   -11796    -9783 
   -9067   -10816   -14362   -14883    -9567    -5506    -8610   -13131 
  -13092   -10737    -9499    -9591   -10748   -13590   -15832   -14377 
  -12958   -15426   -17768   -17039   -15157   -14231   -16744   -19892 
  -16984   -11322   -10721   -13983   -15125   -12376    -9643   -10415 
  -12379   -12680   -12792   -13508   -14003   -14334   -13755   -13008 
  -13722   -13662   -11443   -10844   -14223   -17591   -15867   -10338 
   -6525    -5594    -6345    -9941   -13572   -13726   -13073   -12191 
  -11065   -13902   -17552   -15448   -11647   -10625    -9761    -9413 
  -10854   -10682    -9533   -12239   -16101   -15445   -13301   -13859 
  -15175   -16344   -18526   -20151   -18148   -13028   -10114   -11766 
  -13776   -13972   -14866   -15777   -13979   -12160   -13603   -16194 
  -16389   -13466   -11164   -12398   -13126   -10297    -7661    -7878 
  -10503   -14904   -17496   -16272   -15101   -14829   -12893   -10960 
  -11611   -13301   -12691    -9772    -7452    -6683    -6685    -7967 
  -10623   -11573   -10683   -11597   -13205   -13973   -14702   -13910 
  -11256    -8397    -8114   -11202   -13008   -12784   -15117   -18578 
  -18598   -16509   -14881   -12812   -10778   -10948   -12210   -12483 
  -13324   -14623   -13693   -12950   -13984   -13693   -13316   -14940 
  -16796   -16903   -14116   -11886   -13338   -14134   -12098   -10681 
  -11348   -12598   -12675   -12542   -13991   -15240   -15214   -14829 
  -13421   -12297   -12683   -11832   -10401   -12156   -15866   -17693 
  -16923   -15255   -13830   -13925   -15994   -16829   -15372   -14739 
  -14793   -13367   -11715   -12293   -13876   -13683   -12598   -11711 
  -10710   -10989   -12025   -12046   -12100   -12474   -12124   -11661 
  -12064   -13086   -13740   -14359   -14737   -12309    -9185    -9624 
  -10559    -9996   -11107   -12638   -12511   -12503   -12837   -12085 
  -10579   -10640   -11848   -11461   -11076   -11553   -11222   -12625 
  -15161   -14324   -12996   -13999   -13439   -11129    -9857    -9329 
  -10331   -13540   -15728   -14609   -12216   -10743   -10373   -11179 
  -12259   -12332   -12231   -12981   -14025   -15132   -16761   -16784 
  -13294   -10122   -11213   -15344   -18246   -15974   -10642    -9158 
  -12515   -14238   -12089   -10666   -11543   -12788   -13545   -13506 
  -12982   -13093   -14301   -14116   -11105    -8981   -10247   -13394 
  -15743   -15606   -14385   -12579    -9321    -8718   -12650   -14790 
  -14111   -15352   -16274   -14058   -12552   -14196   -15828   -14809 
  -13360   -13173   -12537   -11125   -10089   -10126   -11931   -15233 
  -17108   -14953   -12074   -12471   -13807   -13242   -12229   -12528 
  -13491   -14465   -15723   -16835   -16865   -15273   -13223   -12644 
  -13312   -13621   -11913    -9317    -9699   -11965   -12573   -11855 
   -9872    -7678    -8449   -11075   -12388   -13259   -15311   -16417 
  -15618   -14971   -12815    -8675    -8271   -11666   -12934   -11682 
  -10717   -11367   -13788   -15785   -15647   -14809   -14388   -13533 
  -11804   -10336   -10197   -10083    -9451   -11020   -14260   -15030 
  -13072   -11788   -13232   -15450   -15977   -16092   -16785   -15951 
  -13312   -12268   -13641   -14446   -14473   -15076   -15712   -15955 
  -15099   -13632   -13454   -13633   -13690   -14507   -14102   -13238 
  -14049   -13424   -11369   -11218   -12024   -12711   -13022   -12883 
  -12807   -11416    -9936   -11070   -12201   -10941    -9853   -10341 
  -11137   -12137   -12255   -10692   -10146   -10740   -10782   -11388 
  -11859   -10856   -10295   -11053   -12399   -14787   -16923   -16005 
  -13328   -12708   -13423   -12028   -10153   -10606   -11026   -10162 
  -10628   -13178   -15828   -16067   -13521   -12406   -15070   -16884 
  -15292   -13990   -14019   -12573   -11249   -12317   -11816    -9435 
  -10535   -13876   -15754   -17474   -18144   -15271   -11558   -10166 
  -10351   -10798   -11099   -11943   -13697   -13954   -12935   -14382 
  -16384   -14455   -10640    -9039   -10403   -13328   -14566   -13174 
  -13144   -15488   -16519   -15377   -13753   -12318   -12538   -15136 
  -16904   -16379   -15584   -13628   -10342   -10046   -12417   -11986 
