Origin Time       2024/04/02 04:24:00
Lat.              40.133
Long.             141.712
Depth. (km)       71
Mag.              6.0
Station Code      IWTH28
Station Lat.      39.0094
Station Long.     140.8640
Station Height(m) 117
Record Time       2024/04/02 04:25:00
Sampling Freq(Hz) 100Hz
Duration Time(s)  120
Dir.              3
Scale Factor      2942(gal)/8224139
Max. Acc. (gal)   1.634
Last Correction   2024/04/02 04:25:01
Memo.             
[...]
  196773   196130   195795   195991   196399   196506   196789   197760 
  198269   197892   197689   197434   196711   196399   196650   196693 
  196526   196890   197438   196848   195844   196063   196796   196823 
  196599   196931   197554   198089   198462   198086   197210   196830 
  196716   196376   196107   196200   196403   196333   196165   196030 
  195925   196088   196331   196591   196946   196928   196929   197359 
  197291   196819   197004   197453   197324   196923   196784   196655 
  196014   195408   195562   195527   194740   194152   194271   194965 
  195683   195930   196211   196824   197199   197302   197248   196938 
  197068   197559   197352   196555   195986   196469   197148   196222 
  195319   196017   196381   196105   196233   195953   195381   195625 
  196388   197171   197735   197576   196875   196225   196003   196430 
  196954   196978   196842   196801   196743   196923   197310   197241 
  196877   196920   196755   196006   196065   196981   197054   196493 
  196287   196165   196323   196680   196635   196940   197506   197210 
  196917   197311   197461   197237   196963   196674   196352   195725 
  195237   195512   195957   196175   196483   196543   196300   196493 
  196830   196712   196912   197618   197468   196380   195937   196441 
  196658   196210   196101   196604   196801   196470   196006   195783 
  196172   196620   196542   196645   197193   197351   197387   198035 
  198108   196889   196148   196593   196820   196250   195689   195976 
  196649   196668   196543   197028   197511   197399   196820   196215 
  195943   196126   196597   196731   196547   196809   197221   197060 
  196828   197073   197122   196480   195988   196136   196371   196859 
  197721   197951   197325   196678   196349   196025   195488   195143 
  195675   196527   196515   196196   196233   196111   196407   197274 
  197594   197587   197334   196427   196006   196420   196570   196446 
  196501   196622   196750   196657   196057   195594   196055   196839 
  197120   197019   196722   196534   196581   196326   195933   196061 
  196655   197091   196888   196580   196373   195791   195806   196511 
  196230   195860   196842   197418   196884   196755   196643   195940 
  195718   196082   196248   196045   196024   196650   197149   196785 
  196129   196186   196893   196766   195843   196047   197140   197469 
  196955   196277   196196   196792   196920   196393   195991   195972 
  196565   197081   196595   196249   196948   197451   197151   197122 
  197347   196607   195664   195902   196333   196342   196809   197241 
  197148   197247   197202   196595   196431   196896   197062   197094 
  197230   197028   196757   196528   196225   196277   196457   196296 
  196454   197168   197195   196387   196281   196986   197291   197351 
  197473   197014   196466   196354   196157   196254   196650   196530 
  196365   196842   197461   197222   196315   196115   196545   196796 
  197097   197097   196668   196587   196393   195797   195778   196377 
  196997   197236   196938   196788   196812   196335   196010   196372 
  196623   196588   196828   197122   196724   195782   195474   195933 
  196146   196339   197027   197336   196642   195579   195150   195655 
  196538   196986   196734   196757   197294   196839   195872   195917 
  196365   196917   197407   196875   196161   196261   196326   196048 
  196086   196497   196782   196704   196415   196265   196534   196736 
  196368   196137   196688   197287   196946   196013   195709   196173 
  196777   197236   197284   196956   196739   197013   197434   196996 
  196148   196308   196717   196484   196510   196784   196620   196416 
  196740   197021   196697   196808   197278   196850   196565   196996 
  196920   196642   196565   196138   195670   195691   196267   196866 
  196808   196686   197341   197962   197330   196226   196250   197031 
  197357   196993   196312   196153   196473   196244   195909   196335 
  196537   196033   196109   196695   196335   195446   195763   197295 
  198188   197626   197019   197280   197230   196245   195725   196214 
  196392   195879   195590   195849   196250   196443   196353   196038 
  195878   196180   196362   196241   196580   197112   197081   197010 
  197199   196929   196307   196059   196141   196318   196599   196746 
  196446   196074   196315   196632   196408   196568   197324   197540 
  197106   196754   196811   197101   197183   197120   197361   197559 
  197232   196935   196672   196099   196269   197118   197317   197225 
  197151   196562   196080   196245   196641   197037   197194   196920 
  196578   196871   197814   198053   197426   197144   196801   196176 
  196076   196233   196663   197409   197398   196803   196454   196122 
  195858   195848   196025   196422   196560   196371   196221   195763 
  195110   195015   195759   197048   197986   197843   197067   196323 
  195758   195547   195663   195880   196148   196121   195821   195822 
  195802   195486   195448   195586   195497   195388   195624   196302 
  196971   197010   196315   195659   196099   197390   198011   197424 
  196635   196236   196109   196248   196326   196057   195781   195878 
  196439   196932   196674   196245   196376   196445   196315   196994 
  198085   197972   196913   196425   196692   197078   197387   197800 
  198244   198370   197991   197305   196850   196612   196342   196484 
  197121   197569   197359   196851   196651   196484   196122   196187 
  196832   197452   197681   197927   198356   198147   197444   197110 
  196547   195709   195886   196515   196250   195944   196329   196537 
  196257   195867   195878   196546   196959   196654   196427   196554 
  196869   197106   197004   196900   196722   196398   196480   196553 
  196006   195397   195323   195597   195632   195529   195874   196371 
  196534   196553   196566   196466   196256   196231   196518   196689 
  196596   196469   196198   195991   196356   196743   196589   196310 
  195980   195808   196344   196708   196267   196242   196766   196708 
  196537   196897   196742   195689   195124   196051   197467   197618 
  196831   196435   196226   196052   196485   197240   197532   197112 
  196506   196489   196979   197220   197060   196807   196790   197334 
  197792   197394   196531   195781   195759   196589   197135   197116 
  197337   197440   197051   196851   196942   197112   197298   197279 
  197054   196530   195921   195885   196307   196697   196913   196838 
  196557   196449   196593   196658   196352   195926   195920   196260 
  196562   196792   196673   196090   196026   196574   196530   196437 
  196946   196708   195856   195658   195690   195735   196241   196711 
  196728   196749   196852   196697   196520   196612   196855   196877 
  196361   196168   196969   197478   196994   196534   196619   196790 
  196511   196044   195895   195867   196284   197174   197325   196857 
  196601   196265   196001   196217   196781   197359   197117   196368 
  196407   196780   196740   196993   197818   198331   197710   196631 
  196662   197320   196686   195253   194880   195642   196723   197594 
  197816   197195   196086   195570   196071   196642   197016   197568 
  197668   197031   196514   196474   196520   196487   196457   196237 
  195966   196086   196292   196385   196697   196911   196460   195867 
  196376   197464   197090   195828   195636   195914   196032   196439 
  196746   197062   197392   196769   196006   196608   197325   196746 
  196045   196087   196191   196053   196014   196539   197249   197016 
  196067   195308   194941   195210   196049   196759   196628   196269 
  197079   198058   197414   196292   196335   196766   196470   195822 
  195573   196076   197043   197492   197378   197401   197136   196582 
  196722   196938   196479   196200   196211   196134   196528   197073 
  197024   196925   196870   196438   196211   196276   196186   196393 
  196731   196558   196522   197073   197266   196346   195150   195164 
  196284   197031   196915   196696   196614   196311   195941   195951 
  196441   196908   196896   196790   196847   196804   196415   195708 
  195470   195983   196427   196352   196007   196132   196844   197079 
  196828   197187   197827   197630   197014   197006   197220   196782 
  196126   196415   197174   196928   196121   195592   195216   195781 
  196885   196855   196739   197654   198189   197777   197509   198001 
  198549   198440   198035   197773   197619   197378   197108   197058 
  196753   195991   195507   195219   195147   195932   196701   196757 
  196969   197710   198366   198069   197116   197016   197779   198058 
  197706   197237   196646   196146   195852   195332   194914   195307 
  195956   196069   195879   195847   196103   196288   196371   197097 
  198092   198277   197761   197230   197128   197158   196886   196720 
  196622   196074   195613   195812   195999   195736   195512   195723 
  196469   196987   196558   195882   195519   195377   195204   195214 
  196265   197583   197679   197008   196763   197071   197186   196757 
  196242   196364   196658   195841   194980   195590   196176   195648 
  195269   195743   196450   196528   195988   196025   196538   196088 
  195355   195934   197532   198715   198094   196101   195145   195966 
  196603   196032   195814   196793   197564   197463   197160   196893 
  196762   196765   196647   196709   197052   197279   197437   197468 
  197006   196138   195562   195843   196503   196828   196830   196765 
  196762   196825   196746   196518   196570   196990   197414   197460 
  196967   196553   196696   196225   194624   194293   196061   196881 
  195925   195297   195210   195359   196051   196534   196551   196585 
  196443   196024   195733   195721   195671   195342   195012   195126 
  195243   194763   194535   195046   195539   195982   196550   197127 
  197753   197792   197170   196919   197014   197124   197505   197822 
  197671   196894   196156   196635   197185   196450   196056   197013 
  197845   197856   197770   197661   197425   197414   197303   197078 
  197478   198328   198903   198940   198830   199150   199615   199392 
  198458   197680   197363   197297   197606   198007   198147   198042 
  197820   197864   197766   197170   196866   197041   197051   196402 
  195462   195214   195782   196798   197966   198890   199497   199693 
  199041   197506   196159   195968   196310   196240   195517   194589 
  194339   194520   194517   194610   194880   195654   196663   196268 
  195173   195142   195100   194433   194552   195463   195725   195199 
  194948   195504   196426   196616   196242   196303   196092   195372 
  195282   195771   196169   196377   196430   196422   196180   195534 
  195164   195277   195259   195284   195378   195770   197387   198710 
  197977   197010   197032   196832   196258   195778   195272   194872 
  194478   194049   194417   196051   198059   199110   198867   198293 
  198354   198718   198537   197833   196913   196107   196187   197048 
  197432   197041   196651   196214   195357   194732   195014   195509 
  195149   194535   194575   195007   195910   197424   198863   199746 
  200244   200441   199585   197861   197278   198019   197953   196692 
  195705   195546   195678   195802   195754   195455   195382   195293 
  194838   195181   196344   196939   197303   197546   196310   194325 
  193459   193500   193909   195064   196744   198211   198748   198221 
  197631   197552   197652   197699   197189   196125   195448   195309 
  195242   195120   194890   194989   195802   196460   196510   196790 
  196989   196006   194863   195145   196229   197054   197792   198463 
  198726   198633   198347   198061   197579   196689   196510   197546 
  198294   198007   197457   197155   197082   197245   197480   197488 
  197622   197781   197317   196862   196439   195902   196896   198632 
  198774   198066   197472   196901   196612   196306   196523   197614 
  197920   197348   196981   196600   196414   196445   195879   195315 
  195852   196784   196530   195220   195018   196283   196838   196454 
  196601   197432   198350   198788   198481   197295   195404   194486 
  195349   195849   195092   194667   194428   193797   194443   196290 
  196743   195781   195718   196981   197710   196915   196442   197496 
  198234   197703   196847   196366   196597   196534   195243   194482 
  195181   195538   195347   195748   195860   195122   194678   195039 
  196013   197025   197511   198142   199278   199507   198208   196997 
  196703   196360   195972   196053   196146   196346   196913   197199 
  197433   198166   198398   197868   197596   197776   198531   199471 
  199395   198571   197955   197590   197295   197071   197185   197730 
  198094   197745   196751   195852   196059   196890   196793   195925 
  195415   195166   194892   194618   193980   193247   193251   193847 
  194413   194961   195297   195160   195133   195339   195701   196479 
  196838   196275   195910   196056   195691   195060   195085   194949 
  194212   194062   194532   194671   194537   194682   195079   195315 
  195562   195494   193884   192323   193452   195548   196300   196488 
  196720   196785   196832   196981   197209   197488   197997   198285 
  197876   197748   197864   197139   196315   196277   196668   197228 
  197714   197839   197653   197104   196628   197313   198590   199125 
  199678   200639   201083   201158   200905   200514   200797   200600 
  199087   197962   197785   197546   197163   196960   196736   196236 
  195775   195844   196646   197939   198803   198968   198873   198671 
  198780   198833   198063   197496   197676   197137   195529   194378 
  194373   194670   194583   194244   193900   193905   194830   196076 
  196244   195777   196099   196612   196152   195705   195979   195582 
  194560   194784   196153   196770   196375   196641   197521   197294 
  196599   196615   196095   194741   193966   194028   194814   196150 
  196913   197036   196924   195843   194948   196032   197413   197340 
  196811   196844   196997   196649   196593   197556   198535   198502 
  197532   196705   196819   197279   197791   197911   196846   195581 
  195200   195669   196577   196869   195956   194749   194691   195598 
  196069   195851   195397   195093   195087   195196   195501   195963 
  196442   196804   196659   196234   196379   197147   197831   198258 
  198354   197978   197733   197644   197383   197291   197193   196780 
  196349   196443   196912   196572   195826   196056   196524   196371 
  196678   198154   199204   198572   197340   196541   196456   196985 
  197059   196542   196963   198205   198019   196547   196333   197252 
  197264   196692   196607   196260   195536   195331   195172   194285 
  193329   193556   194787   195897   196819   197375   197297   197317 
  197117   196176   195727   196025   195817   195507   196028   196528 
  196434   196214   196096   195999   195457   194803   194979   195412 
  195744   196645   197371   196954   196481   197212   198090   197559 
  196555   196670   197505   198201   198487   198529   198976   199270 
  198223   196773   196349   196353   196115   196377   197208   197314 
  196423   195835   196256   196823   196315   194872   193801   194076 
  195377   196531   197232   197719   197727   197461   197155   196487 
  196217   197143   198186   198158   197148   196415   196743   196699 
  195733   195339   196084   197523   198296   197336   196167   196372 
  197455   198223   198072   197896   198494   198953   198979   199060 
  198651   197673   196717   195978   195922   196155   195419   194123 
  193878   195100   196277   196115   195320   194980   195525   196361 
  196260   195646   195258   194799   194842   195485   195664   195497 
  195108   194387   194813   196311   196365   195258   195242   195709 
  195608   195759   196331   196848   196746   195756   195084   195126 
  195357   196021   196716   197108   197310   197122   197032   196921 
  196148   195251   194788   195196   196261   196578   196403   196851 
  197133   197286   198599   200079   200287   199870   199390   198791 
  198393   198034   197507   197576   198034   197649   196970   197046 
  197449   197406   196616   196138   196857   197482   197536   197757 
  197716   197355   197495   197970   197923   197440   197321   197336 
  196689   195897   195856   196307   196855   197193   196713   195970 
  196022   196450   196371   195891   195511   195330   195196   195262 
  195795   196200   195821   195488   195890   196248   196412   196684 
  196288   195403   194931   194447   194139   194613   194945   195143 
  195990   196461   196284   196636   196963   196503   196207   196365 
  196257   195739   195353   195832   196977   197703   197600   196905 
  196184   195997   196180   196495   196985   197727   198494   198432 
  197349   196530   196835   197182   196628   196306   196919   197239 
  196835   196808   197201   197002   196626   196963   197538   197878 
  197915   197286   196218   195538   195539   196029   196923   197629 
  197233   196510   196692   196966   196368   195116   193830   193178 
  192807   192789   193936   195049   195218   195401   195417   195027 
  195162   195589   195732   196183   196919   196909   195841   194859 
  194790   195099   195535   195831   195413   195129   195617   195701 
  195199   195253   195596   195635   195799   195936   195567   195338 
  196299   198217   199359   198879   198296   198795   199195   198533 
  197854   197893   197657   196696   196230   196808   197662   198305 
  198612   198475   198212   198363   198558   197941   197345   197721 
  198076   198292   199087   199396   198562   197590   197044   196947 
  196951   196669   196931   197969   198148   197163   196900   197557 
  197560   197568   198834   199910   199488   198263   197275   196981 
  196789   196485   196896   197510   197391   196966   196632   196477 
  196209   195558   195254   195597   196034   196063   195600   195169 
  194852   194358   194232   194817   195374   195673   196106   196358 
  196140   195717   195257   195064   195372   195578   195430   195772 
  196653   197056   196971   197403   198247   198478   198312   198089 
  197309   196380   195804   195660   196334   196901   196642   196873 
  197559   197452   196998   196727   196514   196375   195994   195793 
  196503   197321   197397   197256   197657   198296   198235   197748 
  197704   197591   196892   196304   196284   196535   196582   196219 
  195512   194983   195527   196474   196215   195323   195386   196005 
  196230   196535   196982   196939   196631   196329   195910   195646 
  195633   195278   194539   194270   194606   194815   194366   193519 
  193310   194031   194748   195184   195970   196846   197060   196827 
  196759   197295   197992   197718   197024   197060   197199   196658 
  196175   196418   196534   196183   196173   196639   197046   196547 
  195227   194749   195822   197286   197846   197654   197700   197513 
  196778   196807   197349   197441   197502   197576   197837   198360 
  198124   197390   197036   196647   196207   196245   196265   195669 
  195045   195134   195683   196198   196599   196723   196681   196900 
