Origin Time       2024/04/02 04:24:00
Lat.              40.133
Long.             141.712
Depth. (km)       71
Mag.              6.0
Station Code      IWTH16
Station Lat.      39.6436
Station Long.     140.9465
Station Height(m) 62
Record Time       2024/04/02 04:24:53
Sampling Freq(Hz) 100Hz
Duration Time(s)  187
Dir.              2
Scale Factor      2942(gal)/8224139
Max. Acc. (gal)   17.574
Last Correction   2024/04/02 04:24:53
Memo.             
[...]
  137160   137161   137158   137158   137158   137158   137160   137160 
  137158   137158   137158   137158   137160   137160   137157   137157 
  137160   137161   137160   137158   137158   137160   137161   137160 
  137158   137160   137161   137158   137161   137162   137160   137160 
  137162   137162   137161   137160   137160   137158   137158   137158 
  137157   137158   137160   137157   137155   137160   137161   137161 
  137161   137157   137154   137157   137157   137157   137157   137158 
  137160   137160   137161   137161   137160   137160   137160   137158 
  137160   137161   137160   137157   137157   137158   137158   137157 
  137158   137158   137155   137158   137161   137158   137155   137158 
  137161   137158   137155   137155   137157   137157   137157   137158 
  137160   137158   137157   137158   137158   137157   137158   137158 
  137154   137153   137150   137145   137139   137135   137126   137116 
  137106   137096   137088   137080   137083   137093   137106   137118 
  137137   137154   137166   137170   137155   137131   137123   137134 
  137146   137165   137199   137241   137281   137308   137292   137242 
  137211   137191   137138   137068   136998   136904   136806   136763 
  136804   136899   136960   136929   136891   136973   137107   137074 
  136831   136597   136618   136914   137284   137532   137632   137700 
  137817   137849   137659   137427   137295   137139   136919   136757 
  136742   136718   136420   136055   136023   136077   135804   135456 
  135510   136094   136888   137295   137196   137023   137045   137303 
  137617   137671   137471   137397   137918   138889   139457   139338 
  139045   138781   138327   137682   137068   136544   136053   135757 
  135722   135692   135433   134785   134028   133940   134615   135202 
  135224   135284   136019   136983   137425   137416   137485   137573 
  137257   137097   138122   140088   141592   141474   140320   139814 
  139874   139536   139464   139457   137787   134921   132973   132817 
  133736   134060   133107   132340   133115   134751   135982   136885 
  138114   139425   140246   140440   140247   140163   140302   140319 
  140259   140576   141569   142641   142690   141656   139866   137253 
  134688   133469   133498   133277   131965   131352   133246   135954 
  137066   136945   137015   137396   137477   137328   137250   137322 
  138014   139372   140902   142092   141720   139629   137936   137844 
  138611   139884   141556   142142   140344   137238   134613   133645 
  135020   136991   137489   137602   137925   137335   136108   135249 
  135267   136188   137224   137687   137691   136853   135275   134977 
  136850   139365   140343   139256   138006   137273   137320   139676 
  142203   141691   139270   136800   134643   133524   134522   136942 
  138157   136483   133130   131676   133451   135460   136251   137097 
  138325   139896   140756   139664   138415   138256   138346   138780 
  138827   137297   135137   134059   134964   136630   136849   135349 
  133478   132759   133363   134248   134588   134491   135530   137505 
  138261   138624   139924   141016   140186   137097   134831   135292 
  137043   140169   143222   142109   137529   134646   134223   131827 
  127870   127140   129020   130721   133004   136359   139671   142134 
  143209   142503   140104   137878   138233   139560   138542   135630 
  133235   132507   132370   131575   130982   130875   132351   137551 
  142767   142882   139599   137273   137516   138942   139792   139554 
  138693   138580   139114   138574   136813   136447   139873   143784 
  142608   137651   134010   132327   130663   128839   128117   129400 
  131645   133964   136742   139598   142750   145801   145848   142393 
  138202   135460   134631   134680   135368   137184   139456   141693 
  143183   143155   142942   143044   140914   136194   132687   131888 
  132140   134140   137389   137751   136521   137859   138726   136696 
  135938   138592   141068   139225   134723   131977   131642   133091 
  134639   134314   134875   138485   142769   145582   145736   143974 
  142936   143226   143183   140483   135801   133015   132962   133397 
  132985   133250   136313   139853   141508   142584   143013   141574 
  137945   132819   128356   127257   130565   134451   135461   136092 
  138010   140094   142766   144725   142204   137817   137370   137516 
  135261   135178   136004   134859   135221   136660   137400   139951 
  141934   139530   136810   136629   136053   135342   136100   135970 
  133301   130573   131548   135093   136494   136229   137382   139075 
  140459   142248   143113   142317   141473   140074   136809   133618 
  132158   132656   135128   136543   135317   135240   138006   140742 
  140486   137155   133512   130393   127677   127878   130898   133949 
  136321   137666   138811   141527   144387   145774   145220   142091 
  138796   137158   135402   133969   134374   135731   137554   139152 
  139201   138802   139133   139452   139974   141421   142663   141174 
  136946   133909   133023   132035   131932   133894   136765   138539 
  137363   134900   134141   135658   137783   137805   136247   136030 
  136521   135387   133861   134658   137739   141380   143811   144178 
  143903   143629   142219   140404   138743   136455   134673   134698 
  136439   138647   139276   138852   138839   138011   135712   133620 
  133014   133151   133273   134805   137725   138785   136829   134044 
  132395   132250   133029   134491   136389   137394   136956   136327 
  136108   136351   137440   138549   139014   139320   138827   137162 
  136561   138156   140090   141266   141058   139085   137334   136046 
  133141   130536   130832   131758   131908   133308   136148   138029 
  138330   138998   139477   138114   137388   138947   140449   140028 
  138203   137465   138624   138878   136563   133428   132619   134908 
  137562   139241   140293   139843   138287   137245   136398   134774 
  133168   132775   133286   133783   133492   132894   134495   138138 
  139828   138597   137457   137740   137789   136981   136948   137872 
  138902   139926   140044   139637   140888   142726   141910   139171 
  137243   136285   135878   136039   136493   137724   139018   138123 
  135398   133186   132561   133068   133223   133049   133901   134825 
  135210   136382   137906   138703   138399   137385   137575   138235 
  137320   136698   137488   138453   139783   140931   141408   142653 
  143829   143095   141340   140042   139639   139650   139873   140101 
  138997   137396   137560   137813   135519   132459   131356   131635 
  131828   132487   134603   136946   138231   138404   136769   135082 
  136298   138931   140539   140560   139199   139041   141485   142809 
  140412   137251   136674   137897   138400   138553   139801   140528 
  139279   137955   137860   137293   135540   133983   133390   133550 
  133689   133996   134852   135156   135170   135816   136890   138226 
  138765   137999   136867   135815   135812   136610   136894   138586 
  141866   142499   140115   138488   138781   139198   138450   137033 
  135903   135842   136800   136605   134442   133265   134114   134750 
  135587   138057   139565   138809   138476   138636   138018   137886 
  138346   137675   136065   136113   138095   138639   137443   137317 
  137342   135568   134383   135722   137440   138107   138285   137277 
  135191   134320   134433   133798   133675   134592   134717   134381 
  134967   136005   136476   136541   137188   138442   139583   139471 
  137124   134789   135005   136039   136291   136853   137504   137003 
  136649   138346   140236   139845   138460   137205   136163   136121 
  136093   136132   137751   139108   138862   138732   138724   136717 
  133648   133552   135452   135228   134350   135148   136124   136475 
  136517   136085   135973   137127   138060   137427   137608   139806 
  140733   139101   137448   136830   136383   135928   135626   135176 
  135140   136529   137947   137906   137839   138256   137883   137012 
  136215   135145   134720   135791   136649   136206   136468   138264 
  139050   138246   138252   139086   139507   139650   138855   137093 
  136645   137978   138628   137843   137439   138483   139831   139657 
  138462   137771   137257   136860   136429   134856   133477   133795 
  134531   135514   137111   137170   135668   136219   139009   140599 
  140194   139777   140753   141656   141192   141453   141273   137502 
  134397   136566   139912   139432   137187   137189   138577   138775 
  137687   136061   134882   134644   134104   133297   134202   137060 
  139698   140125   138771   137392   137378   139383   141153   140163 
  138427   137982   138051   138315   138033   136329   134646   134495 
  135936   138009   139379   140405   140605   138333   135625   134779 
  135153   135818   135441   134681   135841   138133   140055   140273 
  137751   135689   136143   136580   136421   136856   137498   137581 
  136345   133952   133007   134958   136937   137022   136779   137174 
  138468   139870   139479   138473   138138   136748   134790   133994 
  134001   134650   135307   135113   134982   135324   135880   136410 
  136286   136507   137617   137536   136343   137145   139212   138010 
  134704   133968   135028   136468   138996   140881   140686   139180 
  137019   135265   135322   136769   137602   136927   135600   134504 
  134086   134011   133227   132244   132498   133964   135961   137423 
  137446   137099   137709   138307   137370   135885   135610   135687 
  135329   135986   137662   138898   139914   140792   139405   136132 
  135873   138821   139583   137899   137076   137002   136852   137297 
  137976   138129   138950   140320   139587   137258   135765   135160 
  135396   136146   136408   136640   137571   139027   139565   137681 
  134744   133407   134015   135425   137207   138075   137428   138095 
  139753   138862   136815   136871   138453   138900   137921   137901 
  139016   139741   139495   137961   136899   138257   140224   140475 
  139113   138072   138987   140186   139756   138709   137911   137353 
  136549   134989   134613   136946   139846   140644   139252   137605 
  136881   137141   137972   138030   137793   138763   138719   136555 
  136328   138572   138920   137608   137978   139369   139376   138626 
  139486   141172   141060   139035   136070   133436   132436   132975 
  135109   138048   139191   138033   136952   137783   138686   136779 
  134345   134703   135880   135884   136506   138696   140387   140406 
  139615   137654   134844   133714   134183   134298   134639   136113 
  137323   137552   137998   138149   136640   135602   137212   138861 
  137754   135218   133905   134686   135855   135711   135337   135869 
  137158   138829   138692   135965   134244   135583   137813   138554 
  138268   138777   139556   139128   137656   135718   133960   133560 
  134655   134716   132587   132320   135263   136287   134773   135426 
  137370   136725   135022   135670   137312   136254   133419   132121 
  132391   134109   137452   139893   139615   137847   136294   135363 
  135758   138028   139741   138927   137515   137768   139008   138848 
  137177   136188   137060   139792   141879   140053   136453   134963 
  136019   138797   141243   141633   140178   136922   133795   133558 
  135093   136356   136675   135969   136215   137767   137636   135845 
  134990   135256   135672   135645   135450   136320   137492   137621 
  137868   138453   139018   140783   142547   142389   141048   139604 
  139280   139878   139743   139257   138839   138055   137592   138001 
  138662   138179   135966   133772   133861   136154   138117   137740 
  136553   137154   138280   136664   132827   130856   132231   134349 
  135625   136152   135888   135954   136622   136275   134835   133319 
  132934   134545   135872   134941   134082   135338   136946   136663 
  135670   136533   138508   139288   138856   138531   138861   138487 
  136917   136487   137722   139187   140352   140103   138402   137274 
  137255   137149   135857   133764   132610   132572   133130   134730 
  136062   134902   132170   130515   130040   129165   127271   124958 
  124032   124988   126647   129429   132212   132476   132788   135049 
  135943   135237   135228   135940   137556   138975   138632   139036 
  141690   143614   143687   143460   142581   140813   139240   137405 
  135526   135047   135973   138701   142145   142781   142040   143394 
  144767   145096   146595   147106   143398   138677   137662   139653 
  141795   143872   145786   145049   140977   136574   133951   132895 
  133029   134064   135529   136593   137139   139364   143838   147264 
  148926   151505   154730   157360   160423   162294   159285   152938 
  149187   150261   152343   152656   153187   154777   154908   152389 
  148336   144054   140248   136547   132383   128722   127800   131741 
  139962   147754   150516   146924   138514   129469   121053   111847 
  106644   109827   116685   123165   130210   135110   133941   131040 
  132248   135568   135903   131217   125494   124420   127361   131226 
  135136   139733   147811   159042   167832   170179   165330   155800 
  146709   140130   135611   133991   136566   143062   150333   154303 
  153044   148050   142111   134341   122305   107805    95594    89029 
   88032    90370    93139    94401    95138    97806   104899   115657 
  124150   126245   122521   117772   119342   127749   139572   153972 
  165549   168347   164320   158785   155582   154049   150755   146704 
  146271   149839   153859   156443   158427   159864   158928   155414 
  150819   146030   142609   140004   133897   125358   123508   130411 
  135864   135148   134626   137297   138322   133990   128227   126801 
  129471   133805   138025   139361   136714   130894   123924   120830 
  125015   133563   142049   147596   148208   146253   145265   142144 
  134487   128112   127249   129250   131028   132329   136256   145242 
  154615   159278   160860   159723   153038   142813   134443   130169 
  128606   128495   128628   126121   121675   119543   121185   127055 
  135903   141921   140999   134358   125230   117474   115319   119967 
  127523   132266   130890   124518   117050   112109   112129   116631 
  122320   127188   131183   132687   129122   123363   122771   128102 
  132406   132483   131423   130215   127379   124366   122377   120977 
  122580   129663   140853   150615   150800   142079   138613   148184 
  158886   158040   150187   144364   139823   133999   130821   136158 
  149993   165360   174822   174793   166806   158429   155513   155066 
  154315   155086   154473   148595   141772   139017   139525   141150 
  143622   147461   150083   147422   141320   135531   129817   126744 
  129672   135349   141416   147047   148039   145847   145559   146379 
  147040   146719   144020   142187   142708   141674   140316   144780 
  154996   163088   161349   150558   139104   134233   137763   145466 
  150897   153925   157860   161152   160743   156930   153125   151729 
  148797   141091   132966   126702   120177   117320   122377   129308 
  132729   135643   138426   134715   124798   121153   127669   132316 
  130873   130343   132318   132657   127086   117348   111451   109640 
  108567   111676   118166   124279   130423   134995   136436   135353 
  132403   130254   130909   134385   139043   140896   140117   140902 
  142461   141515   139584   140914   146161   149064   145116   139625 
  134941   128200   123322   122612   121990   118805   111136   100649 
   94512    97070   105205   113228   119053   122796   125379   128846 
  132865   136204   138901   141980   146900   149642   146006   142042 
  143662   148351   153207   156281   155466   152955   150903   148944 
  149311   151241   150001   146415   144178   143338   140906   135318 
  130210   128148   126994   126397   126779   126115   124117   121795 
  118029   112375   107817   107285   109593   112472   118617   131137 
  144479   152238   156702   159694   159239   156643   153296   149773 
  150230   156146   161227   159776   154514   150394   147769   146797 
  147259   145407   140923   137887   136476   133813   131166   132804 
  137045   137718   134433   128869   120677   114571   116137   123942 
  131961   134936   134800   136548   138684   138485   137488   138149 
  141586   145274   146491   146800   147371   148809   152973   158517 
  161750   160828   157315   153751   149967   146126   143397   141643 
  141420   142202   141721   139680   136740   134137   134970   139164 
  141790   140174   136312   133120   131645   130389   128291   126975 
  127718   128731   128121   127587   129309   132247   134696   136791 
  140232   145557   149557   149952   148239   145713   143349   142078 
  142338   144879   148456   150936   151078   147953   143363   139334 
  135769   133614   132331   129922   127398   126009   125940   127155 
  128668   130960   133826   134998   134485   133617   133265   133304 
  131514   127291   123668   122995   124278   125239   124922   123971 
  123936   126322   129190   129483   129632   130836   129960   128456 
  128559   130572   136134   141347   140497   135820   131386   128796 
  131259   140097   149407   152452   150156   148261   148738   148378 
  145523   141304   136306   131938   130462   131990   133492   133145 
  133401   134724   134300   132891   133143   134134   132977   129722 
  127669   127697   128163   128783   129424   130547   132179   131978 
  130850   132366   135155   135398   132864   130327   130748   135033 
  140846   143874   143048   142950   145827   148107   148726   149262 
  149000   149326   152884   156883   157335   154957   152721   152586 
  153335   152192   149563   147024   143961   140202   137755   137347 
  136669   135450   136082   138306   139743   138758   135774   133174 
  132472   133494   135475   138015   140744   141659   139980   138079 
  137745   138975   140346   140379   140773   143829   147609   148074 
  145400   143745   143761   142700   141268   140725   139039   137145 
  137376   136919   134283   131845   129141   125973   125053   126139 
  127232   128106   128750   129008   129076   129469   130383   130522 
  127237   119812   113225   113040   117302   120888   123896   127985 
  129814   126615   122324   121240   123826   129721   136444   140526 
  142619   145297   148556   150238   149053   147064   147641   150356 
  150907   147509   143766   141964   140096   138703   140013   141389 
  139834   136796   134195   132865   132906   132787   132106   132498 
  133654   134202   135317   137685   139000   137812   135337   132915 
  131514   132486   135434   138122   139638   141007   143087   144537 
  143163   139615   138213   141301   144483   144807   145095   145350 
  144413   144371   145299   146037   146416   145145   142011   138713 
  136800   136749   136964   136637   137816   140370   141119   139509 
  136561   131750   126947   125485   126288   126690   125964   124070 
  122899   125466   131295   136556   139534   140967   139240   134487 
  132530   135981   140578   142554   142175   141417   140584   138807 
