Origin Time       2024/04/02 04:24:00
Lat.              40.133
Long.             141.712
Depth. (km)       71
Mag.              6.0
Station Code      IWTH22
Station Lat.      39.3340
Station Long.     141.3015
Station Height(m) 260
Record Time       2024/04/02 04:24:55
Sampling Freq(Hz) 100Hz
Duration Time(s)  126
Dir.              6
Scale Factor      7845(gal)/8223790
Max. Acc. (gal)   17.685
Last Correction   2024/04/02 04:24:55
Memo.             
[...]
    6678     6681     6679     6677     6679     6682     6682     6685 
    6686     6686     6689     6690     6693     6701     6708     6709 
    6701     6687     6673     6666     6673     6674     6648     6615 
    6616     6667     6698     6644     6574     6592     6654     6652 
    6620     6650     6648     6531     6474     6562     6527     6309 
    6289     6632     6898     6628     6107     6049     6478     6764 
    6720     6585     6385     6204     6322     6660     6862     6882 
    6912     6889     6687     6606     6843     6802     6272     6284 
    7119     7348     6318     5424     5935     7236     7784     7132 
    6234     5992     6415     7030     7407     7371     7118     6804 
    6065     5347     6226     8264     8730     6984     5645     6442 
    7713     7501     6512     6308     7028     7728     7377     6030 
    5385     6747     9034     9647     7591     5630     6134     6905 
    6025     5247     5985     7704     9020     8488     6539     5213 
    5637     7021     7242     5368     3801     5292     8783    10809 
    9377     5601     3175     4768     8021     8799     6930     5274 
    6504     9393     8376     3449     1950     6002    10926    12167 
    7465     1540     1964     6380     8349     7346     5229     5200 
    7935     7920     3284      359     4953    13288    15363     9923 
    4689     3784     5726     6205     4860     6301     8209     6658 
    6177     7794     6299     3707     4617     6436     7163     7707 
    6655     3790     2478     4761     9139    11075     8692     8715 
   10906     5707    -1661     1787    12212    14449     6305     1498 
    5709     9302     5202      761     6111    14650    12887     5059 
    1954      969     2517    10149    12584     6910     5950     8506 
    5479      724     2197     8995    11542     6377     4646     8986 
    7510     1016     2042    10535    14050     9448     5876     6531 
    6770     5811     5699     5698     5914     6812     7431     8849 
    9069     4931     2057     5351    10220    10748     5749     1478 
    4985    11653    12131     7429     4608     3823     3080     5282 
    9293     8986     5247     4858     7654     8916     8719     8407 
    8023     7257     4680     3013     7032    11094     7947     4355 
    7909    12189     7329    -1459      373    11222    14632     5745 
    -919     4230    10095     8073     4487     3422     5753    10952 
    9865     2857     2344     7227     9659     9042     6309     3086 
    2925     7214    11778    12397     9498     4355       72     2377 
    8889    10176     7735     6696     3867     3087     8052     9936 
    7514     6188     4355     4544     8737     9643     8328     8073 
    3927     2705     8617     9139     5868     7560     9028     8475 
    6960     3037     3411     9035    10948     9567     7611     3380 
    2732     7971     8460     4160     5952     9306     6384     4040 
    5903     7325     7449     7916     8519     6867     4082     5197 
    7457     6239     6840     9439     7055     5169     7473     6307 
    4117     5270     6662     8077     8604     8314     8334     5953 
    2728     3434     7707     9475     5557     3333     5649     7096 
   10119    12725     6106    -1390     1950     8286     8904     7943 
    7987     7600     7348     6158     4311     4220     5813     9702 
   13170     9505      994    -1757     5028    12398    11323     4662 
    2286     7816    12171     7425      217     2049    10883    11488 
    2162     -882     6170    11911    11992    11146    10457     5204 
   -1911     -685     8407    14238    10926     4907     6312    10820 
    5891    -2041     2586    12687    12307     5455     2273     3126 
    6493     9852     9653     6841     5128     6588     8500     6705 
    4915     8834    11389     5975     2226     5182     7088     6863 
    8257     8653     6012     4083     5215     7555     7898     6467 
    8006    10588     7527     1653      607     5459    10350    10098 
    6192     3780     5653     8351     6974     5622     8571     9336 
    6292     5501     6683     7179     6763     6650     7303     5732 
    3469     6399    10839     9323     6304     6463     5733     4962 
    5923     6268     7716     8653     5275     2673     5128     9036 
   10031     7589     5259     4698     4436     6693    10578     8711 
    3659     4567     7846     5838     3188     5656     9506    12371 
   11979     6080     3364     6164     6377     6430     8360     6883 
    5845     7569     4645     1389     6288    10951     8727     5692 
    4580     4457     5370     6513     8451     9691     7952     6691 
    7102     5980     6104     9082     8352     3526     1379     3996 
    8930    10457     7179     5726     6222     4498     3527     7497 
   13308    12729     5795     1287     3369     7809     7028     2361 
    3589    10027    11828     8873     6778     5266     5767     8290 
    6621     3204     4225     7145     9000     9259     6397     2569 
    3821     9240    12056    10022     4426     1362     5795     9693 
    7007     5154     7555     8808     7267     4787     3991     7160 
    9707     7877     5819     5678     6783     8060     7368     7315 
    8807     5921      916     2045     6011     8063    10393    10578 
    7990     6671     5823     5516     6627     6693     6131     6235 
    5898     6399     8325     7709     4380     3978     7743    10361 
    8355     4205     3249     7198     9678     6550     4081     5790 
    7238     6907     7167     8252     8419     6612     4838     6542 
    8997     7284     4056     4125     7904    10837     8464     4561 
    4864     7156     6728     4951     5425     6844     5906     4324 
    6027     8652     8002     6567     8359    11087     9074     3245 
    1310     4164     6427     8684    10458     8343     7010     8164 
    5861     2350     3262     7099    10280     8843     3500     3326 
    9020    10477     6966     5238     6362     7437     6794     5861 
    7187     9130     6952     3928     5958     7009     3767     5051 
   10656    10698     5602     1979     2974     8341    10725     6529 
    4054     6345     7851     7470     6831     4788     3140     5773 
    9224     9190     8351     8510     8955     8880     6052     1219 
    -349     3225     8181    11803    11408     6255     3792     7106 
    9964     8824     4625     3060     8240    11770     7333     3666 
    6031     7805     6453     4440     2909     4237     7790    10585 
   11246     7083     1258     3013    10179    11774     7659     4689 
    4815     8199    10825     7128     2211     3287     8079    10624 
    8295     5027     5930     7832     5555     2783     4822     8190 
    8569     8140     8108     8120     8495     6691     4660     7150 
    8262     3370     1046     5476     9486     9706     8305     5692 
    4064     5668     7163     6002     5614     9148    11649     8047 
    4002     4040     4918     5260     5567     7144    10841    11361 
    5084      110     3681     8595     8172     6993     7572     7241 
    5395     2909     2431     6771    11485    11364     8735     4912 
    1084     2781     8467    10440     8514     6640     5594     6247 
    7267     5366     2906     4783     9909    10912     6895     5782 
    6883     5638     4893     5224     6570     9277     8340     5175 
    6072     7917     7719     8071     7356     5807     7277     9024 
    8667     7535     5595     5836     7128     4429     3572     7936 
    9256     6723     6246     7623     8829     8097     3813     1780 
    6613    10443     7960     5178     5406     5163     4656     7285 
   10868    10945     7385     4081     4455     6732     7820     7362 
    5822     4487     4202     4518     5117     5942     8352    11084 
    9026     4642     5093     7589     6334     4386     5771     8226 
    9661     9242     5745     3115     4738     7254     8075     6934 
    5957     7587     7695     5359     5852     7600     7523     7445 
    7091     6485     6929     5373     3225     6061     9201     8333 
    7920     7321     3570     1112     3946     8222     8870     7715 
    8621     9606     7564     5242     5791     6936     7487     8546 
    8016     5432     4498     6535     8089     6412     4739     6933 
    9653     7519     4005     6052     9563     7776     4742     5589 
    7790     7655     6060     4731     4010     5969    10361    11460 
    7306     3969     4645     5902     4881     2220     3092     9443 
   13432    10168     4070     1818     4881     7098     6700     8700 
   11488     9686     5609     5266     7040     6401     6224     7587 
    6805     6300     8023     8122     6664     6459     6481     5067 
    3582     3920     5860     7527     8479    10176    10365     6254 
    2451     3723     7462     9178     7881     7079     8702     7398 
    2222     1051     5127     8217    10150    12025     8241     1699 
    1930     6201     9120    10542     8244     3971     4490     8155 
    8101     5482     3753     3758     6770     9323     7974     6660 
    6554     5027     4799     7472     9116     8334     7361     7483 
    7743     5661     1845     3541    11570    12906     4546      372 
    4611     9378    10895     8627     4351     3159     5826     8353 
    8451     6235     4352     7342    12163     9780     2546      793 
    5641     9833     8738     6195     6912     7944     7153     6947 
    6889     6183     5853     6372     7889     7839     5413     4769 
    6801     8505     7809     5535     4675     6521     9444     9005 
    4039     1636     5066     8101     8083     7522     6852     6804 
    6795     5427     5293     6875     8386     9666     9207     6631 
    3196     1532     5158    10115     9325     5254     4471     7206 
   10326    10147     5752     4267     7434     6462     2265     4302 
   10224    10866     6789     4718     6428     7526     5840     5096 
    5933     6130     7366     9481     9693     8329     6789     6412 
    6953     6014     4093     3072     4830    10038    11750     6876 
    4693     7191     6493     3177     3056     5896     8923    10774 
    9583     5520     2737     3588     7157    10110     7155     1981 
    3624     7700     8066     8743     8804     6880     7272     7307 
    4479     4413     8885    12665    10970     5622     3515     3597 
     922     2320    10567    13872     9977     6401     3566     3582 
    8526    10309     6656     4945     5786     6115     6758     6394 
    4581     5637     8386     8301     7456     7287     5537     4588 
    7202    10407    10538     6504     2369     3501     7300     9022 
    7893     5017     4191     6147     6521     5368     5988     7060 
    6925     7105     6609     5728     8522    11403     9270     6181 
    3527     1108     3748     9049    10420     9217     7666     5196 
    3429     4135     7010     8020     4391     2303     5036     7317 
    8392    10293    10374     8048     7996    10579     8344      922 
    -217     7447    12332     8930     3812     2582     4257     6952 
   10170    11989    10139     7273     6421     4241     2474     6799 
   10417     7871     6035     6651     6050     5386     6897     9190 
    8590     5431     3816     3996     4240     5252     7024     7911 
    6999     6940     9990    10455     5358     1175     3122     9007 
    9261     3709     4228     8618     7965     5022     4418     6987 
    8814     6112     3766     5926    10037    12951    12568     9359 
    6072     4515     4631     4908     5670     9032    12052     9132 
    4195     4301     5510     4244     5124     8703    11119    10933 
    7491     2978     3267     7489    10030    11022    10727     8708 
    7118     5795     4322     3109     1642      835     2706     5628 
    5090     3214     5081     8834    11399    11534     7506     1863 
    -545     -140     1389     5004     8236     7894     7257     7931 
    6774     4295     1521     -526     1471     4743     6264     9625 
   15649    20694    17720     5580     -896     3505     4912     2347 
    4575     7597     9433    14836    18650    15290     9224     4675 
    3227     3852     3221     5524    13996    17061     9212     4311 
    7196     7894     6230     4725      773     -849     2544     5482 
    6750     8421    10069    11488    11194     4558    -3897    -3801 
     -32     1200     6436    13606    13292     7326     2536      826 
    2681     6789     8121     7967    10385    12000    11565     8507 
     724    -4220    -1323     1426     1235     4475     9717    11789 
   13142    13711     9435     2455     -978     3021    10179    13475 
   14700    14570     7794      332     3775    12093    12892     8938 
    7071     6430     4699     3672     5989     9882    13239    14844 
   12394     5800     -762     -866     5950    14229    18513    16417 
   11989     7271     2531     2249     1823    -4398    -4383     6532 
   11655     6651     3441     3631     2876     2366     5908    13711 
   18461    17861    17458    15179     6667    -3796    -8608    -3724 
    5270     8172     5799     8160    16006    15506     1339    -9775 
   -4887     8221    16903    19989    20995    15040     1622    -8907 
  -10260     -730    13082    16318    10824    11092    15520    12063 
    -746   -11859    -9877     2674    14539    21157    18559     3527 
   -9706    -6508     4901    11515    10376     5512     3762     5224 
    5709     3497     1012     3393     8696    10993     8590     4978 
    6407     9207     5846      950      251     2565     5760     7578 
    9294    13104    13038     7280     4630     5262     5557    10505 
   17088    16707    10816     2066    -5267    -2166     7501    11897 
   12000    11415     7477     3439     3846     6135     5879     2797 
    6312    17725    18671     7210     2736     6928     8696     5340 
   -2201    -5838     1810     9184     7411     5151     3871     1260 
    7371    21236    24757    13516       76    -8237    -8432     2835 
   15643    19566    20540    18327     9995     6682     6829      198 
   -4496     1125     9749    14447    15786    12021     2296    -3477 
   -1914    -1830     -745     9556    21583    22682    12685     1648 
   -3420    -3766    -1277     2689     8221    16501    20128    14565 
    8216     4924     2710     2897     3670     3167     5336     9602 
    8141      514    -2052     2790     4522     3986     7812     9833 
    7719     7110     4457      612     4828    10492     9559     9329 
   11391    12102    12334    10747     4992    -3832    -7118     1472 
   11196    12873    12337    11327     6274     1987     2797     5818 
   10994    16011    13369     8132     8648     7830     2269       56 
    2759     5942     7669     8907     8699     3573     -864     2138 
    6871     9329    10332     9732    10862    12856     9952     3638 
     409     1420     3693     6311     6829     5155     6685     8719 
    7842     9911    11673     6396     1005     -287     1042     7776 
   15400    15803    10423     4810     3759     7287     9917     9174 
    7299     7732    10863    12799    11915     8985     4062      562 
    2547     5906     4348     1879     4912    10185    10268     2976 
   -3585      557    10871    14400     9385     3700     1946     4391 
    6327     2589     -976     1869     5508     5810     6910     9181 
    8627     6431     5618     5987     7379    10565    12298     6818 
       9     2185     6367     3951     2158     6571    11307    11333 
   10346    10689     8592     4970     3302     2404     1788     4519 
   13328    22230    18307     4010    -4976    -4962      199     7176 
   11151    12949    13900    10818     3268    -3420     -872     9246 
   13930    10045     6361     7173     9767    10854    10639    11005 
    9436     4241     2789     7785    10255     8703     7933     4692 
     477     3086     8689    10012     7638     4718     5532    10362 
   13271    10696     4259     -310     1490     5300     6650     7246 
    6485     4992     4907     4521     4325     4471     5867    10399 
   11137     5930     3572     5287     8553    12517    10250     3588 
    3499     7051     7507     8114     7830     2394    -1043     2891 
    7391    10006    10983     7206     3449     4213     3920      511 
     638     5454     7881     7103     6745     6419     7298     8637 
    6625     4784     6303     6388     3956     3765     7152    11639 
   15400    15913    10312     3839     4002     6912     7515     7892 
    8808     9714    10201     9460     7330     3882     3163     6633 
    8047     6909     7172     8827    11885    12792     6949     -311 
    -444     5629     9548     7491     3526     3065     7879    12359 
   10451     6691     5780     5605     7759    10872     7904     3707 
    6798    11615     9655     4239     5184     9613     6723     2300 
    4804     8638    11036    11530     6416      521      245     3620 
    8185    11102     9505     6731     5760     3956     1148     1073 
    2328     3747     7036     7600     7333    11865    12596     6659 
    2658     2224     5105     8888     5737    -1922    -3343     2160 
    7846     9961     7202     3947     5954     7728     4974     4766 
    8029     9822    13105    16515    12166     5105     3294     4669 
    7956    10542     9726     8509     7485     7249     7915     6597 
    6991    10400     9294     3748     -302    -1435     1853     8009 
   11348    10964     8264     6502     9363    10917     5998     1714 
    3824     8176     9290     7045     4743     5248     7735     8121 
    4999      803      167     5930    11580    10137     6253     5481 
    5073     3839     5601     9034     9229     6686     4845     5687 
    8854    10581     7769     4753     6450     8938     8482     7283 
    7086     7759     8866     9879     9888     9013     7167     3412 
    1393     2637     3566     6585    10747     9271     6354     6849 
    7122     6284     4884     4367     7512    10384     9705     9398 
    9406     6289     2481     2173     4379     5799     6878     8862 
    8928     6083     5215     7387     5746      -63     -656     5934 
   11975    12495     8559     4415     2043      326     1587     6451 
    9231     8772     7808     5957     5059     5832     4428     3223 
    5655     6902     6380     7797     8634     8025     8198     8603 
    8118     5686     4650     8197     9512     6045     4904     6409 
    6831     5979     4787     7593    14006    14987     9887     6527 
    6376     7426     9336     9574     7435     6706     6874     6261 
    8160     9104     3241    -1952     1377     8241    10697     8008 
    6226     7701     7541     5401     5151     5401     4510     5004 
    7690     9832     9474     6925     3881     3084     5370     8060 
    8271     7612     9918    12766     9676      737    -4116     2602 
   11508    10589     5587     5135     5296     4814     7663     9202 
    5734     2583     2913     5702     8739     8780     7200     7441 
    6748     4153     4584     6258     5211     5360     7978    10073 
