Origin Time       2024/04/02 04:24:00
Lat.              40.133
Long.             141.712
Depth. (km)       71
Mag.              6.0
Station Code      IWTH09
Station Lat.      40.0861
Station Long.     141.7120
Station Height(m) 140
Record Time       2024/04/02 04:24:48
Sampling Freq(Hz) 100Hz
Duration Time(s)  131
Dir.              2
Scale Factor      2940(gal)/6170270
Max. Acc. (gal)   52.128
Last Correction   2024/04/02 04:24:33
Memo.             
[...]
 -189062  -189063  -189061  -189060  -189062  -189062  -189060  -189063 
 -189064  -189063  -189061  -189060  -189061  -189061  -189062  -189063 
 -189063  -189062  -189060  -189059  -189061  -189062  -189060  -189061 
 -189063  -189061  -189058  -189059  -189062  -189061  -189059  -189060 
 -189062  -189063  -189062  -189061  -189062  -189062  -189061  -189062 
 -189063  -189061  -189060  -189061  -189063  -189064  -189062  -189061 
 -189062  -189062  -189063  -189063  -189061  -189062  -189063  -189062 
 -189060  -189061  -189063  -189061  -189060  -189062  -189063  -189060 
 -189060  -189061  -189060  -189060  -189061  -189060  -189060  -189061 
 -189062  -189062  -189062  -189060  -189060  -189060  -189062  -189063 
 -189062  -189060  -189060  -189060  -189060  -189061  -189060  -189060 
 -189061  -189061  -189061  -189061  -189062  -189062  -189061  -189060 
 -189060  -189059  -189061  -189062  -189060  -189059  -189060  -189060 
 -189061  -189062  -189060  -189060  -189062  -189060  -189061  -189062 
 -189060  -189060  -189062  -189062  -189061  -189061  -189059  -189060 
 -189061  -189059  -189059  -189061  -189062  -189060  -189061  -189063 
 -189062  -189061  -189062  -189062  -189060  -189060  -189061  -189061 
 -189060  -189059  -189060  -189062  -189061  -189059  -189061  -189063 
 -189062  -189061  -189061  -189061  -189062  -189061  -189060  -189060 
 -189062  -189061  -189059  -189060  -189061  -189060  -189061  -189061 
 -189060  -189061  -189061  -189061  -189062  -189061  -189060  -189059 
 -189059  -189061  -189060  -189060  -189062  -189060  -189059  -189060 
 -189059  -189061  -189062  -189061  -189061  -189060  -189060  -189062 
 -189062  -189062  -189061  -189061  -189064  -189062  -189059  -189061 
 -189062  -189061  -189061  -189060  -189059  -189060  -189062  -189062 
 -189061  -189061  -189063  -189062  -189060  -189060  -189062  -189062 
 -189061  -189061  -189060  -189058  -189061  -189063  -189061  -189060 
 -189062  -189063  -189061  -189059  -189059  -189061  -189062  -189061 
 -189060  -189061  -189061  -189059  -189062  -189063  -189061  -189060 
 -189062  -189060  -189059  -189060  -189059  -189061  -189063  -189061 
 -189062  -189063  -189061  -189060  -189063  -189063  -189062  -189063 
 -189062  -189062  -189062  -189061  -189061  -189062  -189062  -189060 
 -189060  -189061  -189062  -189062  -189061  -189059  -189060  -189063 
 -189062  -189061  -189063  -189062  -189061  -189061  -189062  -189063 
 -189061  -189061  -189062  -189061  -189060  -189061  -189063  -189063 
 -189061  -189061  -189062  -189062  -189062  -189061  -189061  -189062 
 -189060  -189060  -189063  -189062  -189060  -189060  -189061  -189061 
 -189062  -189062  -189060  -189060  -189063  -189063  -189060  -189060 
 -189061  -189060  -189061  -189062  -189062  -189061  -189062  -189061 
 -189059  -189060  -189062  -189060  -189060  -189061  -189061  -189059 
 -189061  -189063  -189061  -189061  -189063  -189060  -189059  -189061 
 -189060  -189059  -189061  -189061  -189060  -189060  -189061  -189061 
 -189063  -189064  -189061  -189060  -189061  -189061  -189060  -189060 
 -189060  -189061  -189061  -189060  -189060  -189061  -189061  -189061 
 -189060  -189061  -189061  -189060  -189061  -189061  -189062  -189062 
 -189061  -189061  -189062  -189063  -189062  -189061  -189061  -189062 
 -189063  -189061  -189060  -189061  -189061  -189060  -189060  -189060 
 -189062  -189061  -189059  -189061  -189063  -189062  -189062  -189063 
 -189061  -189060  -189062  -189062  -189061  -189062  -189063  -189061 
 -189061  -189061  -189060  -189062  -189063  -189062  -189061  -189061 
 -189061  -189062  -189062  -189061  -189061  -189061  -189060  -189061 
 -189062  -189061  -189060  -189061  -189062  -189063  -189062  -189062 
 -189063  -189063  -189061  -189060  -189062  -189063  -189063  -189061 
 -189063  -189063  -189060  -189059  -189062  -189062  -189061  -189062 
 -189063  -189061  -189061  -189062  -189061  -189061  -189062  -189062 
 -189061  -189061  -189061  -189061  -189061  -189062  -189063  -189062 
 -189061  -189062  -189063  -189061  -189058  -189060  -189062  -189060 
 -189060  -189062  -189061  -189061  -189062  -189061  -189061  -189062 
 -189062  -189062  -189061  -189060  -189060  -189062  -189062  -189060 
 -189060  -189062  -189061  -189061  -189062  -189062  -189062  -189062 
 -189060  -189061  -189062  -189062  -189063  -189062  -189060  -189061 
 -189060  -189059  -189061  -189061  -189060  -189061  -189061  -189062 
 -189063  -189063  -189061  -189059  -189061  -189062  -189060  -189060 
 -189061  -189062  -189062  -189060  -189062  -189063  -189061  -189061 
 -189061  -189061  -189063  -189062  -189060  -189061  -189061  -189060 
 -189060  -189060  -189060  -189062  -189063  -189061  -189061  -189061 
 -189060  -189062  -189062  -189059  -189060  -189062  -189062  -189061 
 -189061  -189061  -189062  -189061  -189061  -189061  -189062  -189061 
 -189061  -189062  -189062  -189059  -189061  -189063  -189061  -189060 
 -189061  -189061  -189061  -189061  -189061  -189061  -189060  -189060 
 -189060  -189061  -189062  -189061  -189060  -189061  -189063  -189063 
 -189062  -189062  -189061  -189058  -189059  -189062  -189061  -189059 
 -189060  -189062  -189061  -189062  -189062  -189061  -189062  -189062 
 -189060  -189060  -189062  -189063  -189062  -189061  -189061  -189061 
 -189061  -189061  -189060  -189061  -189061  -189061  -189061  -189060 
 -189060  -189062  -189063  -189061  -189061  -189061  -189061  -189062 
 -189062  -189062  -189061  -189062  -189061  -189061  -189062  -189061 
 -189061  -189061  -189061  -189062  -189062  -189062  -189062  -189060 
 -189062  -189060  -189060  -189062  -189061  -189060  -189062  -189062 
 -189061  -189061  -189060  -189062  -189063  -189063  -189062  -189061 
 -189061  -189064  -189073  -189090  -189092  -189010  -188771  -188434 
 -188242  -188428  -188826  -188833  -188177  -187660  -188338  -189761 
 -190159  -189159  -188792  -190449  -192272  -191501  -188841  -187938 
 -190136  -192395  -191501  -188648  -187200  -187102  -186847  -187845 
 -189602  -188432  -185354  -184931  -188246  -190931  -188227  -184352 
 -186112  -191094  -193808  -192661  -189626  -188717  -189906  -189443 
 -187893  -189111  -193208  -193685  -187906  -185125  -188739  -190921 
 -188994  -185678  -184666  -186897  -188496  -190060  -191107  -188839 
 -187121  -185339  -185984  -194450  -199118  -195132  -189350  -183807 
 -184047  -187631  -187773  -186894  -185936  -186739  -190633  -194669 
 -196444  -191166  -181035  -179570  -188986  -195984  -192538  -182906 
 -178909  -186231  -194778  -196193  -193215  -190200  -189392  -189797 
 -191862  -195191  -193202  -189320  -189786  -187515  -184530  -186691 
 -187870  -189490  -194190  -194503  -191239  -188638  -184707  -182800 
 -182833  -182498  -185077  -183934  -181786  -190474  -194931  -189930 
 -189579  -186674  -186935  -198349  -199564  -193571  -193122  -192229 
 -195172  -194678  -182955  -178700  -184551  -189407  -190228  -182877 
 -180177  -189149  -189834  -188189  -194817  -194347  -193575  -196743 
 -193724  -191444  -189391  -186739  -186269  -183294  -186366  -196026 
 -194843  -187181  -186351  -185133  -177317  -172534  -183195  -197157 
 -194006  -186419  -185802  -184426  -184585  -186783  -189805  -196619 
 -198576  -195299  -196162  -194349  -188257  -189141  -194498  -192398 
 -183242  -182420  -193214  -195996  -187176  -183635  -183461  -182742 
 -190526  -197876  -195622  -191174  -188501  -189042  -188632  -182367 
 -179558  -185155  -188597  -187933  -190621  -192028  -187918  -187449 
 -191550  -190453  -186132  -186645  -191057  -193998  -191566  -187118 
 -187431  -189470  -188296  -187606  -189896  -191850  -189631  -186515 
 -188543  -189051  -187279  -189478  -189597  -191407  -193978  -188329 
 -186465  -189755  -187468  -182829  -182698  -187994  -191697  -191605 
 -189987  -187969  -188517  -186038  -183055  -188568  -190102  -185418 
 -189188  -195353  -192567  -185775  -185956  -192499  -195746  -195298 
 -190628  -186902  -195366  -200533  -190485  -183636  -186261  -188782 
 -189429  -187162  -184809  -189579  -192153  -187223  -187000  -188129 
 -186310  -187216  -185921  -185015  -190726  -194845  -191743  -185682 
 -182857  -184321  -188066  -192674  -191440  -187597  -190590  -190277 
 -185901  -189622  -193283  -189747  -184749  -185027  -194035  -199711 
 -194780  -189942  -187216  -187983  -195514  -195965  -187165  -185760 
 -191658  -193121  -187651  -182278  -182976  -186264  -189195  -189227 
 -184569  -185296  -192400  -194779  -193649  -190284  -183061  -181116 
 -185928  -188113  -187693  -187880  -187827  -187259  -187533  -191315 
 -193914  -193059  -192403  -187860  -183257  -187981  -196215  -197262 
 -192748  -188982  -184821  -182505  -185250  -189620  -195559  -200587 
 -195255  -183924  -183996  -192293  -193029  -189282  -187043  -184574 
 -187765  -195201  -193570  -188068  -189812  -188644  -179585  -177131 
 -187688  -198222  -194315  -180612  -176500  -187356  -195773  -193645 
 -189773  -185515  -184386  -188873  -191477  -195544  -196390  -186625 
 -183802  -189825  -189586  -188791  -191929  -190736  -187178  -188413 
 -191259  -188964  -185189  -188332  -191648  -185142  -178212  -182698 
 -194462  -197460  -186567  -181946  -189081  -190335  -187620  -186891 
 -185548  -190003  -195081  -193167  -190957  -188516  -187647  -189668 
 -187238  -187465  -194764  -196037  -191628  -191302  -191612  -189014 
 -188506  -189548  -188196  -188619  -192117  -190835  -185658  -186597 
 -189657  -184918  -181970  -189424  -192757  -186474  -185916  -191092 
 -193244  -192658  -185656  -180624  -186974  -192894  -192675  -189058 
 -186882  -190295  -191637  -188844  -187687  -188441  -190042  -189693 
 -186530  -186525  -192285  -195869  -191335  -188113  -189835  -187974 
 -186356  -189706  -191400  -188391  -188187  -194070  -194077  -187145 
 -184992  -186267  -188682  -192372  -189364  -183618  -187308  -194123 
 -191788  -184372  -184692  -190493  -190020  -187054  -188630  -190817 
 -190950  -190174  -187235  -185279  -189381  -192763  -189994  -188324 
 -190812  -190073  -187062  -188319  -187274  -183851  -186594  -190622 
 -192958  -194222  -191499  -188649  -185831  -181739  -184381  -190828 
 -188426  -184673  -189081  -189843  -187615  -191593  -191989  -186432 
 -183476  -184325  -189769  -196151  -195190  -188882  -185885  -186920 
 -187618  -189262  -192213  -192455  -191680  -190690  -187298  -188033 
 -192707  -192195  -191034  -192391  -188011  -182816  -187787  -194515 
 -191962  -187739  -189718  -190979  -187291  -184932  -185373  -186698 
 -187218  -186462  -188772  -189616  -187163  -191290  -196040  -189686 
 -181577  -185885  -194180  -190030  -184496  -190009  -192008  -187057 
 -186124  -187193  -187124  -189917  -195041  -194790  -189021  -187372 
 -190387  -194022  -195794  -189105  -182933  -189618  -194175  -189260 
 -188669  -190983  -189635  -187389  -184966  -185368  -189215  -191004 
 -189139  -187017  -188251  -190914  -190816  -187236  -185612  -190084 
 -190985  -184681  -185656  -194278  -194303  -187972  -184012  -181190 
 -186716  -196129  -194869  -190569  -189776  -188245  -185874  -185321 
 -189924  -193521  -191791  -190831  -188302  -184377  -187803  -193282 
 -191360  -187795  -188323  -189199  -189277  -188928  -189048  -192296 
 -191206  -183732  -182239  -186039  -189449  -192935  -190573  -185620 
 -186971  -188938  -189850  -192394  -190060  -187964  -192368  -192067 
 -186370  -185618  -190963  -193540  -189447  -190944  -194616  -186865 
 -183873  -193326  -193564  -186182  -189543  -196735  -194946  -187688 
 -183705  -187565  -193974  -193128  -186363  -183178  -186307  -192397 
 -194899  -186871  -178834  -185660  -194456  -189632  -182845  -187303 
 -192817  -186252  -179654  -187082  -194404  -187954  -179714  -182505 
 -190829  -193119  -187914  -184780  -189534  -194509  -189739  -181445 
 -184357  -193217  -193901  -189247  -187826  -191608  -193030  -189650 
 -190587  -189555  -183005  -184196  -191542  -197129  -194028  -181326 
 -178933  -190091  -194049  -190301  -190464  -188917  -185465  -191052 
 -194950  -186791  -181809  -189989  -197701  -190376  -180692  -184730 
 -193026  -193352  -188075  -188697  -195670  -194697  -185185  -181829 
 -189441  -196538  -196114  -193178  -188863  -184476  -185333  -189055 
 -192128  -194446  -194994  -193189  -186645  -181243  -184218  -189650 
 -193931  -191503  -181981  -182609  -191137  -189955  -185305  -187869 
 -191794  -194031  -193400  -184463  -177683  -184967  -192143  -188828 
 -185712  -189157  -196115  -198243  -192776  -191723  -195901  -192732 
 -186634  -187718  -190291  -189912  -190958  -192371  -190810  -189787 
 -191843  -192544  -189605  -189134  -191130  -187158  -184764  -189721 
 -186683  -178885  -183092  -191570  -190701  -186720  -190637  -195159 
 -192764  -190125  -188136  -186527  -190598  -195088  -192661  -191919 
 -197279  -198325  -196825  -202819  -209018  -207411  -206816  -208261 
 -203714  -197038  -194649  -195459  -194846  -191942  -190438  -191791 
 -190404  -181000  -175344  -181788  -188907  -192754  -190549  -177950 
 -171696  -183645  -201576  -204920  -192597  -192290  -202772  -199133 
 -194150  -200872  -211755  -224525  -224169  -201415  -181523  -182847 
 -190994  -189862  -177687  -161593  -151454  -148828  -158807  -182809 
 -191563  -170345  -145886  -132250  -133043  -161338  -198837  -214784 
 -205811  -175978  -143780  -139941  -174566  -237260  -293501  -298464 
 -259613  -231892  -224842  -208848  -198275  -213610  -233752  -234620 
 -217089  -207122  -204609  -184914  -168381  -170804  -166748  -163757 
 -187759  -216848  -218929  -203731  -188325  -173129  -164009  -160980 
 -160561  -164356  -162666  -164197  -179912  -186250  -174784  -151024 
 -116909   -96309  -100243  -119615  -155384  -181210  -162721  -130186 
 -111438   -94434  -102738  -135175  -141993  -133805  -142015  -151114 
 -148617  -136182  -122214  -135403  -177574  -214890  -240822  -263309 
 -277051  -276721  -250839  -205442  -179311  -188096  -201920  -205980 
 -220558  -250857  -274030  -265951  -231753  -200635  -187068  -192860 
 -206220  -212226  -230351  -249610  -222099  -183621  -179392  -174470 
 -170191  -186340  -194887  -195540  -196857  -184943  -179357  -197296 
 -201610  -173823  -163998  -184640  -188024  -183606  -198186  -207404 
 -197637  -185234  -180338  -170124  -159719  -178647  -208306  -204993 
 -179127  -174258  -202371  -231870  -230908  -213697  -210052  -202859 
 -181570  -177429  -185127  -183303  -177992  -170384  -172312  -192804 
 -212447  -211706  -187897  -171060  -178537  -182910  -183416  -206527 
 -239807  -241997  -215888  -200448  -195048  -185287  -177166  -175556 
 -183592  -191383  -180499  -156854  -154772  -180407  -195826  -195750 
 -195543  -190698  -188088  -183111  -170659  -173336  -194801  -213799 
 -200475  -165512  -163324  -177499  -172135  -181793  -210617  -221354 
 -202019  -166556  -153503  -173392  -190215  -193565  -194282  -184752 
 -174240  -180128  -188671  -195431  -207346  -206920  -190177  -181998 
 -188088  -188517  -178597  -174542  -179348  -180828  -182622  -192231 
 -197528  -195817  -198113  -202234  -203988  -203648  -200818  -200623 
 -201239  -195519  -192880  -199417  -203957  -205274  -202570  -186296 
 -172321  -181001  -196913  -200375  -191532  -183994  -189679  -191946 
 -182280  -179930  -182901  -187174  -196516  -193434  -178467  -173955 
 -180173  -182782  -179396  -179843  -180826  -180682  -196686  -212440 
 -201665  -185844  -179400  -174860  -175696  -182070  -192789  -201075 
 -196030  -187913  -187962  -189514  -184065  -174828  -171141  -174842 
 -182100  -182912  -176204  -175185  -181883  -194533  -205018  -197213 
 -186148  -192378  -197315  -188918  -185724  -191255  -192987  -191368 
 -188898  -186436  -189838  -191585  -185762  -184739  -187720  -191022 
 -198068  -196684  -191324  -196140  -194885  -185392  -185975  -188610 
 -181891  -180164  -194807  -208681  -203771  -186684  -173959  -179196 
 -196845  -205706  -198338  -188001  -192278  -199553  -191381  -185038 
 -189299  -192567  -194636  -190989  -181499  -183653  -196419  -197797 
 -188329  -189251  -198965  -194650  -177890  -173444  -181297  -181405 
 -173844  -173535  -182744  -189540  -191736  -196583  -195796  -184430 
 -176376  -178011  -189682  -206173  -209906  -200151  -189100  -177935 
 -174033  -183648  -195475  -204133  -203912  -189048  -181713  -191969 
 -197972  -196697  -199217  -201936  -199907  -194820  -192865  -197520 
 -197173  -188134  -185384  -188182  -190354  -194857  -194347  -190295 
 -191498  -190015  -186134  -188466  -191051  -192303  -193498  -188448 
 -182175  -180037  -180083  -184814  -189067  -187587  -186335  -182915 
 -177125  -181549  -190157  -188628  -184944  -182421  -177438  -180439 
 -185272  -178694  -171506  -173567  -182954  -186612  -176381  -170762 
 -179329  -188612  -191970  -193212  -192486  -187249  -184930  -188065 
 -186593  -185675  -191765  -193958  -193789  -196936  -194065  -188483 
 -192794  -198114  -191538  -186442  -193995  -197462  -190543  -187936 
 -191590  -193199  -192349  -193978  -195979  -189424  -181943  -188629 
 -198349  -195402  -185747  -181336  -187581  -194428  -191565  -187688 
 -187178  -187737  -191007  -192523  -191458  -190816  -188391  -187662 
 -192386  -196116  -194664  -190126  -182343  -177279  -181784  -186624 
 -186628  -187040  -188114  -193402  -201136  -198005  -188225  -186703 
 -186391  -180599  -180974  -186850  -188877  -189326  -187561  -180538 
 -177259  -182019  -187131  -190386  -189025  -183665  -185332  -189994 
 -190178  -190808  -189866  -190042  -195192  -195625  -196407  -202607 
 -200550  -195467  -196287  -194156  -193049  -198867  -202774  -199763 
 -192275  -186535  -188873  -196472  -200921  -199042  -193051  -187960 
 -187269  -189148  -193542  -198180  -196390  -191309  -189499  -188559 
 -184258  -180890  -185711  -192680  -191287  -186164  -186735  -189877 
 -187757  -181497  -178729  -182192  -183940  -180217  -179327  -181596 
 -180984  -181417  -183751  -183653  -186560  -190744  -184621  -176999 
 -180539  -185549  -184625  -183086  -184931  -189570  -190733  -187782 
 -186353  -182801  -180826  -188277  -191860  -187581  -188874  -191097 
 -187743  -186839  -189154  -191430  -193341  -192041  -190450  -192076 
 -194454  -198032  -198787  -192019  -186636  -186918  -189151  -193512 
 -195282  -193266  -192962  -193213  -191484  -189615  -189712  -189095 
 -187977  -190523  -190908  -186779  -187077  -191453  -191163  -184030 
 -177698  -180394  -188060  -190833  -189282  -191908  -197179  -193078 
 -182644  -182460  -190696  -192197  -187148  -185597  -187834  -188247 
 -185738  -182878  -183082  -187394  -192923  -194892  -189140  -181781 
 -185203  -193739  -194810  -193168  -194051  -195013  -195629  -195025 
 -193499  -194214  -196422  -194560  -190438  -190771  -191155  -188752 
 -189880  -191576  -189703  -189745  -192402  -193770  -193468  -193867 
 -196460  -198776  -199804  -199618  -197203  -195327  -192428  -186297 
 -186109  -191193  -190104  -185992  -184024  -181529  -180140  -183113 
 -190291  -196041  -194916  -191462  -189804  -187709  -186765  -187609 
 -186089  -184248  -186995  -191904  -192299  -187949  -187519  -190766 
