Origin Time       2024/04/02 04:24:00
Lat.              40.133
Long.             141.712
Depth. (km)       71
Mag.              6.0
Station Code      IWTH17
Station Lat.      39.6442
Station Long.     141.5977
Station Height(m) 305
Record Time       2024/04/02 04:24:51
Sampling Freq(Hz) 100Hz
Duration Time(s)  138
Dir.              6
Scale Factor      7845(gal)/8223790
Max. Acc. (gal)   45.919
Last Correction   2024/04/02 04:24:51
Memo.             
[...]
  -16457   -16459   -16456   -16459   -16459   -16457   -16457   -16457 
  -16460   -16461   -16457   -16457   -16459   -16456   -16457   -16456 
  -16457   -16463   -16460   -16457   -16457   -16457   -16459   -16459 
  -16457   -16459   -16457   -16456   -16459   -16457   -16456   -16456 
  -16455   -16457   -16459   -16457   -16459   -16457   -16459   -16461 
  -16457   -16457   -16459   -16456   -16457   -16457   -16456   -16457 
  -16456   -16457   -16459   -16459   -16457   -16456   -16460   -16463 
  -16457   -16457   -16459   -16457   -16460   -16460   -16456   -16459 
  -16457   -16455   -16456   -16457   -16459   -16457   -16457   -16460 
  -16457   -16457   -16461   -16459   -16457   -16460   -16457   -16459 
  -16459   -16456   -16460   -16460   -16456   -16457   -16459   -16457 
  -16457   -16457   -16459   -16456   -16457   -16459   -16457   -16460 
  -16460   -16457   -16457   -16457   -16457   -16459   -16456   -16459 
  -16461   -16457   -16460   -16460   -16456   -16459   -16457   -16456 
  -16457   -16456   -16459   -16460   -16457   -16459   -16459   -16456 
  -16461   -16461   -16459   -16459   -16457   -16456   -16457   -16456 
  -16457   -16459   -16457   -16456   -16456   -16459   -16460   -16457 
  -16457   -16459   -16457   -16459   -16457   -16456   -16459   -16456 
  -16459   -16460   -16455   -16456   -16457   -16457   -16459   -16457 
  -16457   -16457   -16455   -16457   -16460   -16457   -16457   -16459 
  -16457   -16457   -16457   -16459   -16459   -16457   -16459   -16457 
  -16457   -16460   -16459   -16457   -16459   -16455   -16456   -16457 
  -16456   -16457   -16455   -16457   -16457   -16455   -16459   -16459 
  -16455   -16459   -16459   -16459   -16461   -16457   -16459   -16459 
  -16455   -16457   -16457   -16455   -16460   -16459   -16456   -16457 
  -16456   -16457   -16457   -16456   -16459   -16456   -16457   -16460 
  -16455   -16459   -16461   -16456   -16457   -16460   -16457   -16457 
  -16456   -16457   -16460   -16457   -16457   -16459   -16456   -16459 
  -16459   -16457   -16459   -16455   -16456   -16460   -16456   -16456 
  -16456   -16455   -16459   -16457   -16457   -16460   -16455   -16456 
  -16457   -16456   -16460   -16457   -16456   -16459   -16456   -16456 
  -16459   -16459   -16460   -16459   -16457   -16459   -16457   -16456 
  -16457   -16456   -16457   -16457   -16456   -16459   -16457   -16455 
  -16457   -16456   -16455   -16456   -16457   -16459   -16456   -16457 
  -16459   -16456   -16457   -16459   -16456   -16459   -16457   -16455 
  -16459   -16461   -16460   -16460   -16456   -16457   -16459   -16456 
  -16461   -16461   -16457   -16460   -16459   -16459   -16460   -16457 
  -16457   -16459   -16460   -16459   -16459   -16460   -16459   -16456 
  -16460   -16460   -16455   -16457   -16457   -16456   -16457   -16456 
  -16456   -16456   -16457   -16459   -16457   -16456   -16457   -16456 
  -16456   -16459   -16457   -16459   -16457   -16455   -16459   -16459 
  -16456   -16459   -16457   -16456   -16456   -16453   -16459   -16459 
  -16456   -16460   -16456   -16453   -16455   -16455   -16456   -16455 
  -16448   -16448   -16447   -16437   -16426   -16410   -16397   -16402 
  -16436   -16484   -16503   -16476   -16425   -16382   -16367   -16386 
  -16395   -16375   -16401   -16479   -16488   -16425   -16335   -16278 
  -16470   -16933   -17406   -17517   -17203   -17005   -16912   -16866 
  -17383   -17296   -15998   -15928   -17053   -16775   -15835   -15522 
  -15662   -17348   -18712   -16924   -15815   -17776   -18540   -17076 
  -16434   -16537   -15520   -15893   -19063   -17806   -11700   -11141 
  -15781   -18191   -17845   -15871   -14574   -17756   -20991   -17100 
  -12517   -14092   -15819   -17147   -19845   -16823   -11584   -14690 
  -19300   -15472   -12675   -17996   -20042   -20518   -25944   -17150 
   -2682   -12889   -24048   -17811   -15701   -14898   -12893   -15313 
  -16316   -20637   -19935   -12603   -15920   -17996   -12924   -10987 
   -8895   -10789   -16521   -20208   -21587   -17061   -19701   -26951 
  -12577     -985   -13628   -17751   -13587   -17879   -16175   -14377 
  -23753   -25635   -15809   -14567   -22295   -21433    -9448     -272 
   -5686   -20495   -28264   -24370   -18098   -13304   -14415   -21055 
  -16761    -6606    -6930   -16035   -22389    -6400     4187   -25014 
  -41929   -24283   -18388   -26140   -24336   -15022   -13586   -15661 
   -3581    -1127   -20201   -22701   -16800   -27103   -26296   -16841 
  -16991   -10098   -10006   -22796   -17582   -15009   -27225   -16897 
   -8198   -24031   -18607    -4263   -19079   -23953   -10314   -17285 
  -21963   -10924   -15826   -18164    -7669   -17127   -24532    -2809 
    2728   -22601   -30075   -20264   -23117   -23033   -14382   -14609 
  -16627   -13421   -13429   -16702   -14647    -7700   -13031   -25222 
  -18877   -15174   -28112   -18982    -1682   -16495   -26489   -13806 
  -19253   -27310   -11630    -4720   -16221   -21292   -11561    -5209 
  -16838   -21915   -15647   -20163   -17095    -5572   -16383   -27453 
  -15199    -9402   -17625   -18550   -15242   -13968   -15349   -22431 
  -18706    -8363   -16845   -23268   -16815   -19538   -16891    -5699 
  -12692   -21852   -11769    -7742   -13819   -12592   -23191   -31718 
  -13313   -10953   -27155   -24352   -15465   -10851    -5699    -6241 
  -16198   -23769   -16011   -17165   -32869   -26148    -5780     1825 
   -3281   -24516   -35236   -16236   -10174   -24138   -17177    -3979 
  -20406   -35943   -14473     6647    -7936   -23893   -20687   -25840 
  -30515    -9444     2394   -16536   -24094   -13193   -15769   -22519 
  -12955    -3510   -13887   -30727   -31517   -17599   -11082   -17186 
  -14175    -7279   -10933   -13603   -17095   -20752   -20557   -25667 
  -26029   -18855   -10505    -2938    -9941   -18382   -15415   -17095 
  -22038   -23278   -18173   -12765   -18991   -20991   -14270   -17471 
  -18231    -6273    -7439   -17913   -13921   -17489   -27022   -16464 
  -17014   -25863    -9764    -6891   -25789   -24418   -10736    -8976 
  -17577   -24061   -23735   -22843   -12492     3607    -4689   -21061 
  -17567   -20493   -24876    -9707   -10331   -24551   -17747   -11074 
  -20768   -25798   -20028   -12988    -9277   -12644   -19205   -16113 
   -9960   -14841   -20536   -19769   -21440   -21980   -16698   -12163 
   -8615    -8459   -17292   -24798   -20405   -15442   -18819   -17027 
   -9516   -14524   -25213   -23537   -15070   -10563   -14580   -22304 
  -19716   -14235   -12652    -1395    -3910   -31469   -33187   -12100 
   -9444   -12519   -14413   -19302   -18871   -19955   -18517   -11979 
  -14237   -14327    -9512   -19143   -27112   -17080    -9405   -10779 
  -15579   -25122   -25717   -15801   -16530   -19866   -13297   -14266 
  -20605   -15639   -11545   -18171   -17464    -8949   -11593   -19107 
  -25651   -27781   -11757    -2597   -17325   -20287    -7095    -9344 
  -21544   -22248   -20885   -22700   -18019   -18640   -23900   -13670 
   -4301   -14096   -23878   -23124   -15882    -7773   -11519   -22928 
  -27403   -20421    -8733    -6772   -13068   -17674   -20277   -19489 
  -15272   -13456   -15063   -13454   -11038   -16221   -18277    -8884 
   -7863   -20158   -20564   -13595   -24116   -28884    -9757    -7672 
  -23616   -19125   -12185   -15985   -14233   -16904   -21401   -17802 
  -16902   -17088   -12749   -11457   -17523   -20861   -15369   -10909 
  -13086   -21433   -29029   -22218    -7512    -6748   -18242   -20167 
  -14323   -17307   -20094   -15192   -15518   -19068   -16721   -14347 
  -20089   -27639   -18396    -4035   -13618   -29060   -26897   -18090 
   -8838    -3516    -7141   -16216   -25785   -24354   -16228   -17147 
  -17788    -9269    -7875   -18073   -19650   -14203   -17761   -16764 
  -10347   -16748   -20120   -16332   -22198   -18936    -6887   -17077 
  -28869   -17432   -12999   -21784   -18446   -14474   -20511   -15986 
   -6840   -14914   -21656   -12653   -11862   -19584   -14823   -11101 
  -19359   -19202   -10153    -6621   -10516   -22908   -28775   -16614 
  -12582   -22262   -12428     -260   -21058   -27660    -3437   -10963 
  -30238   -16729   -11897   -24537   -25463   -20957   -13513    -8249 
  -16240   -22773   -18111   -11288    -9848   -14739   -17963   -14220 
  -13124   -20456   -21848   -13238   -12114   -15473   -15253   -23047 
  -26684   -12749    -5880   -14979   -20987   -20495   -17968   -13757 
  -14990   -19329   -18813   -19580   -16232    -4336    -7689   -25582 
  -27399   -17406   -17447   -17648   -11169   -13493   -16557   -11300 
  -19948   -29149   -10832    -4642   -25247   -21941    -6023   -17220 
  -24005   -10301    -9832   -16924   -16989   -20495   -21201   -22925 
  -27012   -13605    -2577   -16058   -22634   -10301   -10422   -19064 
  -12440   -13485   -27402   -17651    -1475   -16436   -33197   -20131 
   -6662   -14052   -20186   -20825   -22164   -13157    -8263   -20047 
  -21231    -9402    -9142   -16077   -20209   -22878   -17815   -11300 
  -20047   -26026   -11591    -9755   -24283   -14593    -3728   -21458 
  -23538    -7662   -14418   -23164   -17759   -15263   -12577   -14516 
  -19880   -12008    -8591   -20731   -24192   -16341   -16762   -20749 
  -12279    -5441   -18254   -31666   -22430    -8357   -12667   -18948 
  -15796   -14002   -13525   -17855   -23386   -14235    -6328   -16681 
  -23228   -17733   -19461   -22284   -13274    -6519   -10798   -22138 
  -31093   -23067    -9235    -8313   -10650   -14034   -20513   -17894 
  -16891   -23133   -19612   -11947    -9246   -11673   -22304   -26221 
  -17072   -13676   -15223   -13251   -16070   -20005   -17347   -14172 
  -16438   -22277   -20506   -13851   -16309   -14253    -6802   -21304 
  -30746    -6470      203   -23436   -26497   -12933    -8795    -8506 
  -14513   -23006   -17606   -14202   -25316   -25227   -12132   -10674 
  -19776   -23776   -12447    -1011   -14995   -25205    -9747   -14381 
  -34338   -25261   -11156   -12830   -13036   -11878   -14042   -15832 
  -14689   -17131   -24576   -19896    -9637   -12769   -14332   -10577 
  -18846   -25301   -18090   -16198   -18706   -15858   -15692   -13162 
  -11325   -19774   -18307    -6752   -12144   -29536   -32536   -15441 
   -4472   -12972   -14827   -10876   -17529   -18535   -19535   -25509 
  -16573    -8587   -18280   -26218   -17772    -7082    -9883   -17849 
  -22767   -24282   -24632   -21189    -9509    -7707   -14953   -11574 
  -13305   -22991   -17799    -7476    -6794   -13170   -29659   -35635 
  -13508    -3707   -17513   -15087   -10478   -25650   -24961    -7219 
  -11564   -23623   -15610   -12155   -26217   -26146    -7005    -4797 
  -22303   -21980    -8401   -18496   -27599    -5884    -2594   -27058 
  -23060    -8897   -19134   -19071    -6619   -14258   -26381   -22059 
  -15036   -15102   -20374   -23502   -12411    -2889   -12964   -20451 
  -14492   -15932   -23264   -15938    -8706   -20062   -23464   -11269 
   -9815   -18524   -20155    -6783     3708   -16382   -36763   -22092 
  -11433   -19055   -14107   -14258   -23728   -15930   -10134   -15912 
  -16399   -16804   -18584   -19795   -22619   -19120   -13549   -13689 
  -10010    -8918   -20324   -24864   -21807   -22148   -12270    -4970 
  -15572   -17747   -12569   -19205   -17157    -5400   -14476   -31646 
  -26369   -10822    -9020   -19009   -20274   -12340   -18432   -26005 
  -18879   -18644   -18292    -8013   -14581   -27357   -17717    -7419 
  -15206   -21618   -17914   -15495   -17593   -10598     6070    -2315 
  -34859   -35626   -11857   -12977   -17455    -9868   -20424   -26732 
   -7954    -7553   -27202   -24760    -9857   -12191   -20900   -16148 
  -11315   -17664   -17172    -9528   -14624   -25184   -19770    -7506 
  -11578   -20046   -12831    -9967   -20598   -20968   -15141   -19758 
  -22412   -14265   -14242   -19712    -9663    -9630   -20873    -9529 
  -12170   -35324   -22728    -4456   -16649   -19755   -16576   -22473 
  -14354   -11003   -22000   -19171   -14095   -10440    -2313    -9485 
  -18208   -18350   -24961   -23915   -10084    -6389   -14281   -17736 
  -18094   -16587    -8667    -8955   -18705   -21671   -22612   -19248 
   -4789    -2388   -17967   -25648   -22077   -22662   -28675   -29413 
  -14500     5724     6914    -4784    -8823    -9714   -14592   -21945 
  -24850   -16168   -17398   -37181   -35835    -9664    -6193   -25397 
  -25878   -20043   -33116   -30283    -8885   -12189   -24336   -19152 
  -20397   -32597   -26337    -7496   -16313   -38206   -28702   -12469 
  -17582   -18553    -8949    -6453   -12426   -21273   -29033   -21917 
   -1790    -3296   -23930   -21211    -7209   -17308   -25636   -15773 
  -27442   -53723   -43344    -2012    24063    14963    -9121   -17483 
  -11132   -13381   -23912   -25905   -18578   -15032   -20023   -18972 
  -12455   -15125   -12680    -6099   -20298   -31706   -14166     5239 
    7473     -924   -15723   -28624   -30462   -23836   -19148   -19587 
  -21131   -22393   -20472   -12150    -2153    -1452    -3538     9289 
   18921     -557   -34123   -52307   -39695    -9265    -1413   -25803 
  -37327   -23569   -22156   -29282   -22029   -15627   -14665      184 
   13628    -8530   -32254   -16136   -14941   -44428   -34236     -895 
   -8086   -29519   -17706     5335    -4978   -34564   -38977   -24899 
  -15990     3249    21481    -3538   -36265   -14952     5664   -31151 
  -42970     6980    23519   -25332   -64594   -42543    -2471    -2189 
  -23214   -30107   -21903   -18029   -15678     8619    17386    -9902 
  -15346   -11530   -32683   -29444   -10844   -20322   -19353     1344 
    3132    -9310   -20514   -32319   -39783   -34832   -19485    -7815 
  -15822   -29697   -17174       56   -13907   -23882   -12295   -19074 
  -33124   -22843   -12522   -16339   -15277   -11789   -16584   -19758 
  -12160    -6894   -17714   -23045    -9807   -14385   -34047   -21285 
    -209   -13269   -29965   -27903   -22631   -14100    -9054   -18706 
  -15002     4548    -6639   -29992   -21934   -14326   -19426    -8783 
     263   -10330   -19508   -21050   -29359   -29336    -2498     6392 
  -26099   -38484   -15939    -8533   -16116   -19425   -25520   -18684 
   -4970   -28561   -56847   -37835    -7560     6442     7528   -10287 
  -13089     4581   -12240   -39189   -20027      -97   -21027   -36653 
  -18382    -9971   -31290   -36212   -27511   -42044   -38275     2818 
   19556     1656    -8527   -10995   -21510   -30696   -31850   -20309 
    -257    -3144   -26782   -28134    -7966     4889     7371    -3704 
  -20337   -19830   -19978   -27561   -14470    -1479    -8453    -7558 
     675    -7040   -22860   -17680     3843     1698   -20322   -31305 
  -35209   -31360   -15522   -11319   -18135   -14106   -13514   -20162 
  -13387   -13225   -20590    -4224     -184   -30620   -43062   -24526 
   -7115   -11651   -28804   -24862   -11651   -19264   -24322   -12627 
   -9759   -25880   -38088   -22596    -2068   -11491   -23145   -10858 
  -12729   -28074   -13221      530   -22627   -38252   -24788   -14555 
  -18272   -17581   -11493   -15255   -16164   -10750   -23166   -32935 
  -13358     1711    -8542   -17393   -19260   -25562   -25793   -16035 
   -7276    -9217   -18439   -16460   -13635   -21834   -15981   -10130 
  -23720   -18978    -6664   -24298   -35147   -19680    -8048    -5586 
  -10319   -19739   -20004    -8749     1827    -4870   -20067   -22075 
  -14442    -7484    -8330   -17714   -25836   -26356   -20700   -19791 
  -22405   -16102    -8338    -9969   -16537   -16278   -13548   -22991 
  -23670    -5462    -4969   -19507   -18816   -15847   -19404   -15133 
   -9764   -14432   -21743   -23059   -14266    -3573   -11507   -28030 
  -26379   -15516   -11330   -14810   -21722   -19568   -13354   -19507 
  -28015   -22642   -11241    -6037    -9971   -22430   -27390   -15772 
   -7476   -10485   -16880   -24864   -27106   -15912      -85    -5508 
  -27054   -22453    -6295   -15851   -26337   -21590   -17038   -15761 
  -16151   -17185   -21081   -19340    -6489   -10416   -29894   -25473 
   -8641   -13536   -19317    -6739    -6507   -21975   -24370   -27155 
  -34506   -18739    -2608   -10947   -16825   -19560   -30573   -23938 
  -10239   -18831   -20055    -9968   -18210   -19140    -4085    -2475 
  -10678   -20781   -25633   -16224   -11072   -15230   -13541   -10845 
  -14332   -19029   -19066   -10687    -4907   -13424   -21168   -20147 
  -21130   -15661    -6297   -16344   -27789   -19097   -12255   -14112 
  -13390    -9124    -3885    -9126   -20255   -23653   -26842   -22052 
   -4827    -2434   -16731   -26905   -22918    -9536   -10085   -22535 
  -25417   -24691   -20633   -10898   -14312   -23399   -18925   -12584 
  -11861   -13467   -21493   -28925   -26422   -21739   -19986   -16627 
  -14401   -17706   -22257   -20883   -12769    -6488   -10359   -21752 
  -25263   -11865    -2218   -15178   -26117   -16622   -12718   -19646 
  -18805   -17335   -16985   -14597   -20321   -22283   -12815   -10395 
  -15982   -15994   -12591   -17577   -20641    -8199    -4368   -14100 
  -11242    -9589   -19615   -13031      565   -12742   -30388   -19218 
   -7126   -18160   -26311   -21550   -15925   -10004   -11190   -21475 
  -25280   -19318   -15398   -19866   -22137   -13517    -7773   -11082 
  -14048   -16379   -14686   -10623   -18009   -23637   -15549   -18781 
  -28464   -17308    -8726   -17577   -19120   -15898   -15201   -11998 
  -18735   -26395   -17061   -11118   -16518   -19485   -22466   -20680 
  -14034   -18758   -26080   -23814   -23310   -21382    -8974    -9269 
  -24366   -18850    -7897   -17744   -17084    -4796   -11811   -23507 
  -21741   -15039   -11890   -15738   -15726   -10357   -17902   -25856 
  -15893    -9352   -16171   -18844   -14968   -14493   -18828   -20367 
  -13374    -5675    -9524   -18909   -19608   -17938   -20497   -17656 
  -10743    -6342   -11025   -27780   -29763   -11769   -10581   -20904 
  -15269    -7658    -8808   -12889   -21683   -22437   -12904   -17894 
  -28656   -22080   -13728   -15427   -16443   -15693   -17440   -17012 
  -12827   -15928   -25743   -21698    -9205   -14584   -23526   -14863 
   -9397   -14797   -15048   -14073   -17127   -17231   -14057   -10719 
  -10006   -14611   -18310   -17053   -17842   -18320   -13524   -16571 
  -25374   -18836    -9512   -14318   -15568   -13062   -21099   -23989 
  -12286    -8769   -20163   -22979   -13679   -12526   -19619   -19240 
  -15724   -18423   -17733   -15727   -20024   -17038   -10083   -15817 
  -20549   -12590    -9868   -17788   -20736   -16328   -13186   -13176 
  -11341    -7851   -12942   -22630   -21088   -16078   -20117   -20594 
  -12953   -12475   -17043   -15237   -15141   -21886   -22999   -18315 
  -17054   -15812   -16492   -23886   -25656   -14702    -7304   -12738 
  -16667   -14721   -16746   -20567   -18949   -13578   -14820   -22869 
  -23853   -20700   -18665   -12152   -11399   -17401   -17925   -20467 
  -24895   -19003   -12977   -18566   -24170   -20823   -16873   -17662 
  -20200   -20387   -15516   -13023   -17217   -20065   -19926   -15381 
  -10658   -18411   -22686   -11519    -8924   -14547   -11211   -11148 
  -18023   -20012   -18868   -13975    -8590   -12098   -16098   -16956 
