Origin Time       2024/04/02 04:24:00
Lat.              40.133
Long.             141.712
Depth. (km)       71
Mag.              6.0
Station Code      IWTH13
Station Lat.      39.9398
Station Long.     141.5492
Station Height(m) 570
Record Time       2024/04/02 04:24:48
Sampling Freq(Hz) 100Hz
Duration Time(s)  133
Dir.              5
Scale Factor      7845(gal)/8223790
Max. Acc. (gal)   81.802
Last Correction   2024/04/02 04:24:48
Memo.             
[...]
    3046     3046     3044     3044     3048     3048     3045     3045 
    3049     3048     3045     3046     3045     3044     3045     3046 
    3046     3046     3046     3045     3045     3046     3046     3045 
    3046     3046     3045     3046     3049     3051     3048     3044 
    3044     3046     3046     3045     3046     3046     3045     3045 
    3045     3045     3045     3046     3048     3049     3046     3042 
    3045     3046     3046     3046     3045     3046     3048     3046 
    3048     3049     3045     3045     3046     3048     3048     3048 
    3048     3046     3045     3046     3049     3048     3045     3045 
    3046     3048     3048     3049     3048     3044     3044     3045 
    3045     3046     3048     3045     3044     3046     3049     3048 
    3046     3045     3045     3046     3045     3044     3045     3048 
    3048     3046     3046     3046     3045     3046     3048     3046 
    3045     3046     3048     3048     3046     3046     3048     3045 
    3045     3046     3046     3046     3048     3048     3048     3046 
    3046     3046     3048     3048     3045     3046     3046     3046 
    3045     3046     3049     3049     3048     3046     3045     3048 
    3051     3046     3048     3051     3044     3042     3046     3045 
    3045     3046     3045     3045     3046     3046     3048     3048 
    3046     3044     3046     3046     3045     3046     3048     3046 
    3048     3048     3049     3049     3046     3044     3045     3045 
    3045     3045     3046     3046     3046     3048     3048     3046 
    3045     3045     3044     3046     3046     3048     3048     3046 
    3045     3048     3049     3046     3046     3048     3046     3046 
    3048     3046     3044     3045     3048     3044     3041     3045 
    3046     3048     3048     3046     3048     3048     3046     3044 
    3044     3046     3044     3044     3049     3049     3046     3046 
    3048     3046     3046     3048     3045     3042     3046     3048 
    3045     3046     3048     3046     3046     3045     3044     3045 
    3045     3045     3045     3045     3046     3045     3045     3048 
    3049     3046     3045     3046     3046     3045     3046     3046 
    3045     3045     3045     3045     3045     3046     3045     3045 
    3046     3048     3046     3045     3046     3046     3046     3048 
    3051     3048     3044     3046     3048     3044     3045     3049 
    3046     3045     3046     3049     3048     3045     3045     3044 
    3045     3046     3044     3044     3046     3049     3049     3046 
    3045     3045     3045     3046     3048     3046     3046     3049 
    3049     3046     3045     3046     3046     3046     3045     3045 
    3046     3046     3046     3048     3046     3046     3048     3048 
    3046     3046     3045     3046     3048     3046     3046     3045 
    3044     3046     3046     3045     3046     3045     3045     3046 
    3048     3046     3045     3048     3048     3045     3044     3044 
    3045     3046     3046     3045     3045     3046     3048     3046 
    3045     3045     3046     3046     3048     3048     3046     3044 
    3044     3046     3045     3045     3046     3048     3046     3046 
    3045     3046     3046     3046     3046     3045     3046     3048 
    3045     3044     3046     3046     3046     3046     3044     3045 
    3046     3046     3046     3045     3045     3046     3045     3045 
    3049     3049     3045     3044     3048     3049     3046     3045 
    3045     3045     3046     3046     3044     3045     3046     3046 
    3045     3046     3046     3045     3046     3046     3046     3048 
    3048     3046     3048     3046     3045     3045     3048     3049 
    3046     3044     3045     3046     3046     3045     3048     3048 
    3048     3046     3045     3046     3045     3046     3048     3046 
    3044     3042     3044     3048     3046     3045     3046     3045 
    3045     3046     3045     3045     3048     3046     3045     3048 
    3049     3045     3045     3048     3048     3045     3046     3049 
    3046     3045     3049     3046     3044     3048     3048     3045 
    3046     3046     3046     3046     3048     3048     3045     3045 
    3048     3046     3046     3046     3045     3045     3048     3049 
    3048     3046     3048     3048     3046     3048     3048     3045 
    3046     3048     3046     3045     3046     3046     3048     3048 
    3046     3046     3048     3046     3046     3048     3048     3048 
    3048     3045     3044     3046     3049     3045     3045     3048 
    3048     3049     3048     3045     3045     3048     3048     3049 
    3048     3046     3049     3048     3045     3045     3046     3046 
    3049     3051     3045     3044     3049     3046     3044     3046 
    3048     3045     3046     3049     3048     3046     3045     3046 
    3048     3044     3044     3044     3034     3010     2974     2913 
    2830     2767     2732     2677     2624     2679     2727     2708 
    3036     3570     3700     3707     3667     3738     4564     4641 
    3078     2358     3553     4293     2448      108      766     3017 
    3954     2971     1520     3690     6502     2359    -2026     2909 
    8615     5243     -392    -1750      211     5796     6602     -178 
    1606     9444     7541     2484     2212     2974     2216      432 
    2681     5247      846    -1093     2928     4819     4102     2155 
    3349     9240     8248     -643    -3661      491     4109     3754 
   -1179     -307     8873     8114     -275     -839     5335    11065 
    5709    -3626    -2336     3006     8851    10539      974    -6231 
   -1555     4391     7854     8121    -1298    -4739     7273    13729 
    7230     -503     1532     6459     2512     1409     3568     1047 
    2604     1248    -3658     4695    16182    15179     1517   -11938 
   -5371     5224     1286     1902     5070    -1097     -554     6955 
    6741     1777     2986     8299     8403     7533     5822     -495 
    1474     7290    -1579    -9913    -2259     4584     5517     7299 
    8750     7993     1609     -411     3087    -1148    -1580     4750 
    5165     8424    12669     3366    -6245    -3631     2656     7919 
    3619    -7948    -4232     8127    11662     9459      827    -5493 
   -4950    -2662    11967    18293     3092     2446     5621    -4403 
     568     6428     1715     6320     4924     -884     4924     4132 
   -1107     1291     1466     2134     6083     4711     4298     7722 
    3146    -2359     3396     8054     1174    -6701    -3551     5548 
   10584    10474     2083    -9117    -3541    11608    11087      361 
   -3928      360     6212     7214    10264    10376     -972    -2016 
    7877     3094    -1802     6092     4082    -1278     4652     6914 
    1350    -6795    -5240    10218    10336     -849      942     1296 
    5179    15743     2366   -15843    -6885     8484    17554    16384 
     133    -5570     1898    -2795    -8638     2176    13219     8842 
    -197      653     6822     8102     7366     3508    -6150    -5067 
    8235    12698     6625    -2824    -7896     4500    18490    12067 
   -3728   -12480    -6177     4325     3586     3186     5524     5759 
    9246     4596    -6066    -4028     4089    10376    14766     7245 
   -3159      -71     4392     1845    -1089    -1617     4368    10534 
    6439     1243      305     1381     8143     5346    -8172    -3611 
   11074    14056     9385     2945     1440     -149    -6899    -3491 
    5454     5479     7461     8862    -1225    -2263     9571    10814 
    2836    -4298    -6030     2151    10324    11153     6143    -3451 
   -4453     5343     7350     6313     7453    -2779    -1958    14706 
    6586    -9589    -4928     -615     2521    10129     7851     1289 
    4839    10320     5587      507     1495     -668    -4514    -1703 
    5306     7771     7242     7889     1336    -7302     -216     9553 
    3460    -2583      633     3840     7331     6629     -753    -1354 
    5991     8965     6079     3289     2440     3724     4511     2338 
    2496     3468     1063      832     1167       87     2349     6527 
    6813     1485    -1093     2293     6659     8692     1113    -5058 
    4676     9223      314    -2725    -1032     2704    13444    14216 
    -893    -7832    -1501     4842     8984     6824     -436    -2149 
     760     5736     8644     3954     2204     6045     6558     5994 
    4036    -1541    -4702    -1318     4683     6979     4928    -1340 
   -5810     3412    15850    11064    -1945    -4198      529     3631 
    6592     6416     1043      184     3940     3638     3615     4768 
     189    -3383     1822     8405     9629     4386    -5703    -5109 
   10180    13857      669    -4602     1958     9036    11074     3933 
   -2041     1497     2995     1621     2594     1975     3811     7379 
    3011    -2980    -1027     3628     5042     3098     1649     5165 
    7789     2926    -2551    -3257      974     9460    10739     3001 
    -623     -205      826     5528     7281    -1111    -4715     5093 
    9877     6426     3202    -1439    -1186     6521    10771     4274 
   -5520    -2451     8837    10473     3827    -2855    -1765     5271 
    5794     6895     5736    -5206    -1927     9732     5408     1738 
    4737      307    -1053     5910     5533    -1890    -3321     2251 
    5987     6656     9144     6124    -1499     1173     8052     6438 
     116    -4483    -4360     2458    12781    12378     1275     1647 
    7603     2089      103     2700    -1641     2404    12428     7199 
   -3383    -4608     -294     6461    10777     5589    -1881     1606 
    7574     3408    -1598     -372     3893     8162    10014     8284 
    -768    -9139    -2853     6660     6808     6416     5606     1273 
     494      233     -780     3973     8602     7153     2682    -1078 
    1856     7641     5287       51      683     3469     4614     2898 
    -653     2151     6474     1327      274     5339     3603     3823 
    3692    -1791     2172     8282     2551    -5140    -4720     3318 
    9439     7742     3532    -2891    -5379     2706     8591    10628 
   11672     3627    -1435      749    -3484    -4756     2095     7555 
   13680    14058     1748    -7506    -4414     5059    13643    10802 
     -49    -4433     -897     6627    10160     3789    -2177     -290 
    5139     6227      535    -2960      203     6280     9899     4253 
   -5341    -3284     7543     9169     2592    -1293    -1764     3024 
   10365    11230     3960    -5977    -4055    10343    13832     4191 
   -4756    -9225     -714    12480     8249    -2108     -392     5263 
    7414     6636     3084    -1418    -3708     1613     9595     8243 
    2886     1726     1521     3109     7403     8345     2435    -2350 
    2469     6912     4394     1999    -2752    -5776     2822    11256 
    9043     1883     -903     5362     6642     -714     -801     2342 
    6073    10566     6076     2837     2072    -3226      611     6654 
    2089     2385     7254     3250     1024     2381    -2793     -855 
    7272     1420    -3666     2731     1825     2006    10989     8066 
     598     3142     4954     4565     2887     -565      -83     -527 
    1417    10238     8873     -591     -938    -1375    -2609     7418 
   10879     1775     1192     5182     6465    11141    11009     2613 
   -4861    -3207     7867    11206     2826    -2056    -2505     1405 
    8318     6562     1479      707      513     4067     6748     1386 
   -2047     4538    11240     5347    -3640    -4047      -51     8649 
   11218    -1331    -6054     2963     7528     5586      629    -2068 
    2767     7549     7114     2019    -5065    -2770     8421    10843 
    1696    -4639     -589     7885     9390     2380    -3260    -2157 
    2338     6289     7917     3900    -2816    -1923     5836    12145 
   10525     -240    -6353      765    10309    12661     3145    -8716 
   -1555    11055     6151    -1200    -3208    -3522     6361    15115 
    7946    -3708    -6293     1327     9170     9073     5211    -1215 
   -4599     4090    11454     7596      672    -6046    -4325     6929 
    6507    -2914      -54     7618    11647    12379     3051    -5595 
   -4865    -2093     1933      954    -3732      959     5637     2263 
     345    -1591    -5860    -6308    -2304     -608    -2744     1698 
    7489     5903    11797    17571     7218     2274     6420    -2511 
  -14014   -10995    -3667      857     1086    -4629    -6353    -6893 
  -12214   -10022    -8013   -14528    -9643     5089    13639    15438 
    9738     9934    22508    23097    11774     6885     6444     7974 
    8008     9174    22950    32791    19903    -1150   -16783   -20582 
   -8592    -1363   -13063   -26611   -29303   -24983   -14931    -2509 
    -923    -6547    -1468     7186     2660    -7060    -8368    -1972 
    9140    22528    34074    29004    -4603   -30360   -16916     8526 
   30680    50213    44670    14098   -11493   -18925   -10385    10162 
   29253    36481    31094    11820   -13656   -29043   -25212    -5155 
   16976    28116    23363     9371     8476    26366    39652    25712 
  -14110   -35255    -8448    24567    38052    48891    46642    25371 
   11785     8876    -1595   -16946   -18110     7003    44404    72890 
   88798    82927    47943    -1984   -51412   -80422   -71298   -36036 
   -4719    -5539   -36787   -57568   -43420    -3140    43856    63447 
   40340     2664   -14420    -5248       16   -20329   -51430   -60072 
  -16492    50184    68439    31596    -8310   -21708   -13336    -3160 
  -11529   -23907     1760    55549    80975    56398      291   -50784 
  -61423   -31811     3769    15727    15834    24058    22721     8190 
    3342     1181    -9229   -19309   -27318   -32663   -31596   -16904 
   10038    15942   -18283   -48035   -23345    37724    82474    83286 
   43683    -4436   -28468   -29359   -20695    -8654     -994     4212 
   20413    37758    30573    -1927   -35077   -40917   -17621     6890 
   13143     5952    -1282     2034     9378     1849    -6872     7213 
   19495    10963     1279     -201     6112     9533    -8807   -32786 
  -31280    -6237    21417    31558    13167   -11896   -10257    15789 
   42238    48061    20787   -19075   -29103    -4055    18855    16411 
   -3059   -21722   -20331     5346    27330    21347     5701    -1375 
   -7499    -7171    -4032   -15329   -21343    -6655    10670    18075 
    9265    -8039   -13659    -6817     2246     7769    12167    23026 
   32664    24372    -1613   -21141   -14458     3642    16999    25928 
   18017    -5624   -14949    -3549     8307    17319    26142    23874 
   10685     -259     -184    10255    15330     7778     2076     5158 
   11109    10574    -1271   -15831   -22400   -10848    10975    13262 
   -3365   -14343    -6990    16092    22850    -3314   -27608   -25274 
   -7145    12235    18885     1008   -21398   -16587     3399     9668 
    1075    -6326     2097    20962    31090    22027    -1950   -18123 
   -8275    14046    23334    10339   -10079   -12465     8239    29992 
   29039     4704   -19300   -20891     -579    25053    36944    23787 
   -1564   -12745    -8833    -4183     -328     -703    -6443    -2116 
   15445    27029    21514     5886    -7175   -12318   -11164    -1028 
   12056    14220     8646    -1568   -20754   -30940   -10474    24105 
   33075     6585   -21308   -22376    -5590     8291     8761    -1516 
   -7302     3304    16741    13369     1231    -7051   -11075    -6538 
    2421     4205     1641     3634     6408     4533     4054     1383 
   -5566     -785    11647    14773     7809    -4986    -8942     8028 
   27342    28555    16097    -2153   -17169   -13603    -1146    -2862 
   -9543    -3946     6601    10956     9256     5914     1070    -4480 
   -3558     4002     9406    13918    24051    26037     7996   -10246 
  -14207   -10258     1856    17514    21471    14833    10913    11518 
    9818     3655    -1800    -3468    -4279     3418    19001    17178 
     499    -8891   -12978    -8445     6220    14065    11589     4611 
    1016     8434    14408     8785     -608    -8862    -8282     5420 
   15179    10804     2419    -2639      828    11634     9393    -6928 
   -9795     1271     4545    -1333    -2338     4704     5899    -1202 
   -5148    -8868   -13374    -6912     3942     2968    -2721    -1321 
    2917     7312    12673    10754    -2533   -13351   -12687    -7132 
    3638    16066    15963     8753     4002    -2320    -3345     5637 
   14621    18480    15408     8305     3048      360     3330     6413 
    -252    -4340     4355    12753    17436    21112    11677    -3638 
   -1035    14156    20621    12459       98    -1036     7060     9277 
    4799     1336     2384     5840     4793     1393     2586     4968 
    1444    -6988   -10978    -8785    -7406    -7487    -9289   -12946 
  -12364    -6254      928     6143     7439     4441     1290     2436 
     719    -9788   -15044    -7746     1259     7258     4237    -9232 
  -13952    -1636    16114    22499     6467   -12352    -6790    14847 
   26392    18902     2686    -7614    -2274    13851    23787    19890 
    9406     2828     5629    12503    11557     1950    -3974     2438 
   17284    25905    21042    12486     6654     1363    -4390    -8575 
   -6070     3045     8857     3335    -4645    -3399    -2772    -8823 
   -9925    -6871    -3531     3033     4951    -1509    -8290   -10725 
   -8241    -1732     5556     8707     7366     6945     9413     8097 
    -637    -4059     2984     7956     8557     5260    -1100      969 
    6573     2922    -3302    -1480     8718    16538    11618     1096 
   -2454      561     7357    13873     7578    -5285    -4807     5983 
   14528    14300     3431    -5630       74    13606    20355    13952 
   -1317    -9765    -3326     6648    11038     6350    -5902   -12502 
  -10725    -7302     -112     7276     8077     6833     7195     5537 
     440    -4482    -6393    -1664    10512    16559     9571     2727 
   -1205    -8237    -8989     -916     4045     7036     9080     3861 
    -629      538      334    -2983    -6743    -3561     9100    19730 
   20673    12071    -1281    -6571      145     8505     9490     2015 
   -6470    -6600       67     4515     7248    10989    11234     9036 
    3673    -4984    -4077     7252    15214    13737     4225    -6651 
  -10295    -4498     3924     7146     7307     8880     7852     3657 
    3451     3732      561      446      109     -410     5798     8779 
    4101     1622     2118     3928     6682     6237     3726     2066 
    2131     6102     9930     7090      940    -3424    -5421    -1155 
    4399     1447      -70     5321     7823     7479     4607    -2084 
   -3627     2894     9593    12533    10335      174   -11070   -10088 
    2810    14295    12916      363    -8873    -7137     1717    12399 
   16002     7998    -4290    -9586    -2822     5317     4710     -970 
   -7384    -6446     3987     7947     2369      735     3549     5579 
    6122     2617      438     5111     9493    10280     8985     5807 
