Origin Time       2024/04/02 04:24:00
Lat.              40.133
Long.             141.712
Depth. (km)       71
Mag.              6.0
Station Code      IWTH18
Station Lat.      39.4630
Station Long.     141.6775
Station Height(m) 552
Record Time       2024/04/02 04:24:53
Sampling Freq(Hz) 100Hz
Duration Time(s)  134
Dir.              6
Scale Factor      3920(gal)/6170801
Max. Acc. (gal)   66.343
Last Correction   2024/04/02 04:24:38
Memo.             
[...]
  -17254   -17255   -17257   -17257   -17255   -17255   -17254   -17255 
  -17258   -17257   -17253   -17254   -17255   -17252   -17253   -17255 
  -17255   -17254   -17254   -17258   -17258   -17253   -17252   -17255 
  -17255   -17256   -17255   -17254   -17256   -17255   -17253   -17256 
  -17256   -17254   -17255   -17256   -17254   -17254   -17255   -17255 
  -17256   -17256   -17256   -17258   -17257   -17255   -17254   -17257 
  -17257   -17254   -17257   -17260   -17255   -17253   -17254   -17255 
  -17255   -17254   -17254   -17256   -17256   -17255   -17258   -17258 
  -17254   -17255   -17256   -17255   -17253   -17254   -17260   -17259 
  -17255   -17257   -17257   -17254   -17255   -17253   -17253   -17259 
  -17259   -17256   -17256   -17255   -17254   -17254   -17254   -17255 
  -17255   -17253   -17259   -17261   -17255   -17254   -17255   -17257 
  -17258   -17254   -17255   -17259   -17259   -17258   -17255   -17254 
  -17257   -17256   -17253   -17256   -17259   -17259   -17257   -17257 
  -17259   -17258   -17253   -17254   -17257   -17257   -17256   -17256 
  -17256   -17256   -17259   -17257   -17252   -17254   -17254   -17252 
  -17255   -17257   -17255   -17255   -17255   -17256   -17257   -17254 
  -17254   -17257   -17258   -17256   -17256   -17257   -17256   -17254 
  -17256   -17257   -17253   -17253   -17258   -17258   -17254   -17254 
  -17256   -17256   -17256   -17253   -17255   -17257   -17254   -17254 
  -17257   -17257   -17255   -17256   -17256   -17256   -17255   -17255 
  -17257   -17257   -17253   -17254   -17258   -17253   -17251   -17259 
  -17261   -17257   -17256   -17255   -17256   -17257   -17254   -17254 
  -17257   -17257   -17254   -17253   -17255   -17253   -17253   -17255 
  -17256   -17256   -17257   -17256   -17256   -17255   -17252   -17252 
  -17255   -17258   -17258   -17255   -17257   -17258   -17255   -17257 
  -17254   -17250   -17256   -17259   -17254   -17253   -17256   -17258 
  -17258   -17253   -17251   -17251   -17247   -17240   -17234   -17228 
  -17220   -17212   -17208   -17211   -17226   -17260   -17293   -17303 
  -17306   -17351   -17423   -17451   -17458   -17523   -17597   -17562 
  -17488   -17555   -17620   -17347   -17102   -17496   -17809   -17357 
  -17211   -17616   -17628   -17731   -17992   -17680   -17858   -18585 
  -18208   -17867   -18789   -18293   -16530   -17398   -18692   -17483 
  -17498   -17975   -16219   -16552   -18063   -16407   -16125   -18909 
  -19599   -18121   -17142   -17212   -17327   -17140   -18306   -17486 
  -14206   -16187   -18735   -16183   -17524   -19853   -16799   -17119 
  -21341   -23006   -20709   -15674   -13868   -15577   -17633   -18331 
  -13071   -10015   -14886   -16276   -16988   -19993   -15954   -13743 
  -14522    -9719   -14724   -24499   -19903   -13714   -13930   -19478 
  -22338   -11476   -10841   -18290   -13869   -25271   -36308   -15003 
   -3963   -12809    -9177    -5882   -17887   -32808   -30560    -8570 
    -897   -10667    -7170    -9878   -29458   -31794   -19925    -6986 
    1822   -16996   -36506   -16709     -201   -21479   -41782   -31204 
   -3406     3922   -24035   -44685   -36529   -15614    14060    16072 
  -24073   -45431   -28069    -6339    -8648   -27441   -23544   -15854 
  -21626    -9249    -8192   -33218   -42001   -28018      905     7306 
  -33404   -45471    -6606     4133   -15907   -24732   -25849   -14776 
   -4898   -14502   -11501   -13860   -40473   -24073    -1201   -37848 
  -38765     6244     1434   -12595    -2707   -28920   -56167   -16385 
   17716   -15148   -31144    -4754    -5309   -19414   -19846   -30772 
  -28796    -7685   -17060   -26492    -1270     -478   -18098   -11536 
  -15861   -31568   -33635   -26106    -5908    -2758   -21042   -23133 
  -21730   -15697    -1221   -14958   -31977   -16991    -2806   -12000 
  -31474   -34355   -11767    -8298   -30978   -20769    -1414   -19684 
  -21342    -8628   -30099   -33076    -6135    -8622   -23809   -22823 
  -13876     1328     -340   -27756   -38711   -23823   -18844   -12381 
    7414    -8046   -38974   -28123   -10557   -11908   -16209   -19714 
  -13148   -12508   -20914   -15710   -21725   -26310     2552     3849 
  -19519   -16208   -31841   -39281    -2204   -11016   -34584    -1154 
   -4529   -46201   -30087    -8097   -23841   -20327    -9321   -12473 
   -3745   -10411   -43322   -45072    -6847    11007   -16855   -30851 
   -4765    -1838   -25559   -30505   -18279     1446    -7152   -41241 
  -32931    -7783    -2945     1684   -22790   -56381   -37880     1094 
    8729   -16974   -35426   -16126     3782    -9871   -34955   -34717 
   -9224    -5516   -23040    -9760     1087   -21455   -20901   -19700 
  -35839   -12581    -5973   -26049    -4105   -12379   -43795   -19663 
   -9136   -15040      225   -15866   -36942   -20417    -5138   -17768 
  -32488    -8603     9027   -21416   -28999   -12764   -24344   -18432 
    4066   -16377   -41265   -28267   -15052    -7996    -1460   -15954 
  -23552   -18513   -24818   -13710    -4311   -22565   -21192   -15081 
  -24686   -16066   -19755   -34359   -12206    -5392   -27213   -15480 
   -6613   -27593   -25276   -10205   -13790   -20381   -24697   -24839 
  -14873    -9778   -17846   -19980   -15094   -22960   -28491   -16759 
   -7004    -8826   -17380   -22056   -17983   -14691   -18647   -24886 
  -14184      -12   -11017   -18818   -21817   -38382   -27999    -4499 
   -8028   -13316   -22175   -28064    -4474    -2641   -29389   -22114 
   -9966   -24703   -21221    -6260   -10278   -16360   -20680   -26224 
  -19844   -10275   -18255   -28878   -19765    -9559   -10975   -15148 
  -17397   -11105   -10359   -18470   -14417   -16447   -29571   -22509 
  -12422   -16943   -14615   -13643   -18683   -13881   -14220   -19564 
  -16717   -21832   -29803   -20552    -7488   -13817   -24300   -16914 
  -16399   -21112   -10090   -14681   -28510   -19613   -10235    -9045 
  -12452   -27247   -25516    -3363      716   -13019   -29632   -38921 
  -22598    -8195   -20064   -24047   -14658   -16452   -20005   -19828 
  -24302   -22983   -17952   -17193    -7540    -1681   -17542   -22610 
   -4597    -7887   -31876   -30438   -16117   -12598   -11957   -23749 
  -25755    -7434   -13580   -19349    -2837   -12214   -28288   -17666 
  -11318   -18738   -19787   -12585   -13692   -23249   -20192   -15411 
  -26232   -25607   -12405   -16571   -24459   -22879   -23499   -19924 
   -8412    -2334   -13159   -26542   -19053   -10595   -16070   -18906 
  -22048   -13131     5578   -12736   -37063   -20421    -7395    -8598 
   -6568   -17379   -20814   -16044   -25338   -24681   -18376   -22773 
  -21396   -18497   -17895   -17298   -22136   -17774    -7326   -12469 
  -20333   -21086   -26016   -28069   -23154   -17129    -8344    -7860 
  -16531   -18674   -18952   -17571   -17554   -25353   -15646    -6888 
  -24261   -17402     -840   -17686   -19283   -12117   -28915   -21122 
   -3351   -22154   -33359   -14762    -5094   -13862   -17884   -12474 
  -18186   -26524   -17774   -16379   -25890   -22172   -20968   -17919 
    1816   -10179   -43210   -24037     2033   -18656   -21881    -5952 
  -20304   -21396     -665   -12490   -27661    -8341     -904   -25278 
  -32277   -13686    -9819   -11494    -8189   -25030   -34405   -15285 
  -10510   -26254   -25845   -11295   -12004   -15173    -9259   -23328 
  -29481    -6904   -19409   -43059   -16699    -2313   -16486    -9067 
  -10986   -28450   -22574   -17634   -21989   -11184    -6703   -13744 
  -16322   -20546   -15358   -15397   -31208   -24156   -14148   -16060 
   -3338   -13671   -36132   -14251     -524   -20192   -15286    -5647 
  -24234   -36007   -26315   -10037    -6754   -20029   -21389   -13904 
  -22181   -24764    -7950    -5558   -19593   -18647   -17380   -30599 
  -27853    -9079    -4604   -13961   -18482   -17053   -23685   -31739 
  -22503    -9036   -11781   -17520    -8993    -4924   -23066   -34707 
  -21503   -13663   -18738   -17280   -17619   -19658   -13017   -13400 
  -18475   -18432   -20395   -16618   -17084   -26983   -16824    -5912 
  -17279   -19152   -15037   -17740   -11904   -15134   -27289   -21855 
  -12991   -10627   -12456   -18972   -18469   -19884   -15260    -1245 
  -20217   -36555   -10340    -3711   -16217   -11806   -20757   -33393 
  -20184     -117     3059   -19610   -37151   -23084   -12470   -14150 
  -15496   -26406   -19277     -453   -13577   -22136   -10850   -22144 
  -35254   -22575   -10760   -14658   -19177   -17138   -12686    -7543 
  -14570   -27793   -20885   -11529   -17393   -21323   -21499   -16212 
   -9802   -20082   -27640   -21038   -20580   -15735    -9277   -18049 
  -16128   -18765   -36628   -12112     8887   -27139   -31585    -2467 
  -10625   -20848   -16516   -29381   -36094   -16481    -6309   -16226 
  -15520   -14020   -19623   -17024   -24306   -24501    -9305   -20718 
  -24122    -1324    -7186   -28363   -28711   -10825    -2239   -21054 
  -20744    -7956   -24007   -16033    -3331   -37873   -33979     5832 
   -9859   -29038   -12683   -15255   -21862    -9464   -14856   -32635 
  -23161    -3272   -13415   -28964   -18522   -14343   -18518    -7224 
  -12530   -32561   -25287    -9515    -7074   -13030   -26762   -21785 
   -1605    -9241   -31315   -31810   -15193    -7614   -18181   -17779 
   -6820   -15652   -20447   -12138   -22614   -31132   -13597    -4055 
  -21115   -31263   -20240    -9960    -7383   -15547   -21629    -7366 
   -3883   -22396   -30959   -22749   -10982   -11390   -19054   -18507 
  -19018   -17310   -12813   -25370   -27982    -6850   -11139   -26136 
   -9225    -5821   -26565   -17809    -4150   -20866   -24528   -10398 
  -19189   -28020   -16258   -19536   -28055   -12250    -7206   -24772 
  -23720   -13589   -21613   -19981   -12874   -25816   -21081    -5945 
  -19409   -21227   -10652   -19082   -14523   -10406   -30728   -30816 
  -14012   -12868   -13098   -11848   -14441   -19334   -30725   -26661 
   -7582   -10371   -16715    -8822   -20665   -27676    -2632    -6325 
  -32109   -16050     -683   -16795   -20802   -21807   -29144   -14835 
    1140   -12572   -28453   -15323    -6701   -19422   -21177   -26327 
  -31048    -5667    -2553   -26166   -17723    -6793   -16807   -23059 
  -27585   -19583    -4963   -14561   -28080   -21521   -12876   -15171 
  -16712   -15501   -21405   -17618   -10945   -25699   -24131    -8649 
  -19553   -16934    -9160   -30663   -21333    -1346   -21354   -23198 
  -11287   -21394   -25325   -22943   -12906      453   -11170   -24248 
  -21638   -19139   -17071   -21095   -23470   -15778   -12164   -12273 
  -20811   -29826   -15400    -6310   -16397   -15135   -13694   -18236 
  -17762   -26124   -20279      904   -10653   -24531   -16572   -27876 
  -32438   -11343    -7309   -11370    -9893   -18032   -24405   -22997 
  -11955      476   -13314   -27795   -18617   -19295   -23158   -13503 
  -19026   -26832   -12395    -7168   -19104   -21269   -20200   -24071 
  -18291    -8984   -12588   -19632   -16067   -13554   -20962   -23014 
  -21648   -23680   -10824     2229   -11759   -27734   -26360   -20401 
  -14520   -12499   -17775   -18335   -13309   -19888   -26447   -17775 
  -18101   -21664    -4456    -1025   -26425   -36960   -22777   -11053 
  -13759   -23076   -15982    -2573   -15980   -26848   -18581   -23973 
  -21201    -6706   -16464   -21996   -16010   -23491   -18876    -8408 
  -21106   -27458   -13436    -8753   -12216    -8625    -9325   -15568 
  -18671   -21888   -24881   -25261   -16978    -7894   -20244   -28812 
  -11499    -4831   -17372   -25528   -23492   -16954   -19251   -22139 
   -8806      994   -11058   -25623   -23560   -15299   -18275   -26145 
  -14843    -1039   -21086   -33992   -12387   -11093   -25141   -20854 
  -16968    -9170    -7824   -29746   -29381    -8362    -8203   -16107 
  -20926   -14774     -214   -18986   -44100   -20104     4215   -10221 
  -26355   -28281   -13776     3419   -11639   -30636   -20867   -14795 
  -25673   -30770   -16188    -7170   -19386    -9516    -1451   -30616 
  -23438    -3621   -36853   -36621     1450   -13922   -35446   -10879 
    3171   -16328   -25725   -11369    -6725   -13306   -11678   -20581 
  -29833   -13761    -8460   -23932   -25660   -15205    -9035   -11127 
  -12432   -10009   -19281   -28919   -22177   -19168   -22558   -16194 
  -18429   -27675   -14082    -6841   -19576    -8949    -5511   -35876 
  -34397    -4927       46    -4712   -17396   -39066   -37831   -23616 
  -16687   -11171    -8842    -9363    -9743   -11739   -14538   -21660 
  -34854   -44309   -38311   -21483   -13365   -11287    -3844    -6090 
  -14472    -8149     4161     6635    -3993   -18878   -31155   -48387 
  -60064   -47255   -18986     3604     4006    -4421     7228     7408 
  -22006   -18977    -5306   -51709   -92740   -65294   -13678    20337 
   14682   -11424   -11701    -5425    -8089    -2339   -17191   -51927 
  -55796   -24897     2233   -10123   -33532   -11020    14358    -9355 
  -30570   -21014   -14997   -12157     1753    11265     1859   -23737 
  -46510   -46426   -34170   -32150   -32647   -17392     1627     3480 
    1159     6801     4313    -8623   -27855   -50764   -53607   -35271 
  -20945    -5056    13556    13271     9144     6780   -18989   -46383 
  -49306   -35220   -18574   -18887    -8136    21185    -7464   -71335 
  -65718   -15559     4860     5588    14327    22792    18310     9775 
  -11650   -64679  -110590  -121692   -97979    -9832    66291    28966 
  -16370    18084    48157    19776   -43840   -65656    -6288     6759 
  -79419   -94858     4036    41819   -20007   -36521    12807     6452 
  -41661   -19304    26253     5039   -13213    18090    -4848   -81694 
  -71955   -16796   -46680   -79318   -12849    62599    51440      827 
  -16963   -19535   -33963   -29969    -8797   -18160   -43088   -36178 
  -19526   -15790   -14010   -24898   -26583     9470    35717    19453 
   -8495   -24208   -30229   -48863   -66321   -27297     7530   -45060 
  -61607    20974    37318   -27709   -38976   -23203   -28544   -15814 
   -4763   -14087   -18241   -21102   -14595     3898   -10372   -54028 
  -65362   -36399    -6182    11957    15180    -2889   -26297   -26773 
  -12677   -19707   -28660   -11168    -7336   -22279   -22549   -30449 
  -44499   -26826     4813    19906     9222   -21757   -26582     2909 
    4482   -31649   -49708   -26653    -8797   -29660   -22314    34732 
   25453   -49287   -45901    13110    10424   -18242   -24439   -41767 
  -44354   -16353   -22664   -43624   -17031     5277   -14006   -17713 
    1916    -3609   -21832   -19805   -23595   -48777   -57963   -33668 
   -9666   -11282   -14861    -2528     3826    -4487   -12190   -21295 
  -38950   -42064   -20942   -10571   -12747     -208    -2302   -34102 
  -42398   -26445   -19409     -768    15532     -807   -16987   -17965 
  -20912   -30679   -48153   -49457   -18857     7061    12259    15125 
    8228   -12119   -35669   -49252   -23011    16892     8319   -24596 
  -30072   -21210   -24060   -34319   -37832   -26620   -10567    -8083 
  -13495   -16894   -21447   -22822   -22048   -17131    -4703    -7312 
  -21950   -20472   -19075   -34255   -36810    -8427    18197    -4389 
  -46516   -30963     9992     4300   -17095   -27667   -44990   -48415 
  -32123   -22814   -12130     4989      358   -20807   -19181     5205 
    5769   -27633   -49206   -40226   -16114     5303     -896   -15926 
   -5236    -4453   -24037    -7888    17670   -11826   -43693   -29791 
  -22968   -30852   -17331    -9083   -21190   -12819     4859   -14833 
  -31876   -10934   -15760   -38996   -15503    -3813   -27592   -15007 
  -10806   -46211   -32060     1767   -20795   -25959     9458      911 
  -31326   -30012   -20755   -19305   -23099   -31958   -21350     -904 
   -4348   -17835   -22871   -21007   -13444   -18440   -26374   -11778 
   -9084   -29385   -33719   -21688    -8713    -9417   -27879   -27167 
   -4807     2403    -1028    -7162   -28339   -49149   -41937    -9543 
   10458    -4515   -21848   -13056    -2561   -14680   -28242   -18604 
   -8539   -16503   -16517    -7675   -16086   -33108   -35271   -21987 
  -12994   -20139   -24183   -10164     3457     3124    -5389   -18428 
  -31039   -35246   -27579   -22447   -30128   -17042    11856      922 
  -18003    -5380   -13982   -43851   -43340   -27623   -22813   -15439 
    -278     4148    -8872   -15628    -6273    -9617   -29735   -32200 
  -21067   -25535   -32793   -23714    -7045     -607   -16209   -30466 
  -23606   -21246   -23275   -10508    -7062   -21258   -24636   -19559 
  -21895   -22083   -21013   -23253    -9261     9291    -2951   -22688 
  -20498   -16405   -16299   -18176   -25881   -23402   -19099   -23004 
  -13663    -8483   -23454   -20315    -1143     2980    -3006   -24143 
  -49599   -40494   -13520    -7231   -15355   -11574     1431   -10244 
  -32710   -27097   -19007   -25767   -20819   -11036   -11379    -7541 
   -5127   -22872   -33639   -16182   -12863   -28537   -20008    -5332 
   -6513    -6517   -14202   -27625   -28355   -30115   -35336   -26326 
   -8455    -1198    -8237    -7180     2714   -11650   -35154   -31866 
  -17456    -4724     2776   -12363   -30783   -28243   -19782   -12828 
   -9969   -18598   -23969   -18987   -14261   -14688   -20402   -17860 
   -8392   -19497   -35319   -19770     4593     3072   -13476   -26777 
  -34374   -26774   -14069   -24484   -33937   -16376    -9273   -23624 
  -24247   -13783   -12421   -17222   -20154   -10322    -2355   -18421 
  -30075   -27633   -31624   -19462     3051    -3528   -14603   -10595 
  -16847   -24531   -21401   -17044   -12925   -20060   -26460    -8042 
   -2768   -31933   -43581   -21004      -71     1492   -12370   -18880 
  -11726   -24415   -41632   -26202   -12117   -16393   -13937   -12964 
  -14038    -9016   -20359   -34907   -18785      529    -3161   -12408 
  -26251   -42769   -37645   -16818    -6798    -6862    -8347    -9566 
   -2880    -1621   -28754   -52149   -31900    -6399   -16698   -25471 
   -6867    -2731   -19655   -12478     3109   -10515   -20097   -11611 
  -24100   -39782   -24149   -11433   -15706   -10370    -8362   -17489 
  -16847   -15520   -23983   -21174    -3305    -3851   -28752   -32043 
  -12206   -16204   -26084   -10511    -4834   -16458   -12794    -7915 
  -21567   -28502   -16771   -10672   -18108   -24411   -26301   -26188 
  -23148   -19439   -12640    -2591    -1656    -9519   -11693   -21906 
  -47465   -45421   -19961   -19907   -21410      686     4533   -21437 
  -29696    -9742   -12436   -32483   -14998     4847   -21470   -38312 
  -20520   -20033   -29424   -17897    -9874   -12311    -9932   -10679 
  -17624   -22231   -22217   -23394   -29565   -30792   -18399    -3513 
   -6246   -17263   -13881   -12936   -20197   -16567   -21711   -33739 
  -16648     5470    -2441   -17461   -21137   -28080   -32670   -16859 
   -5203   -13066    -8916    -3271   -20155   -23141   -14155   -25799 
  -24061     -424    -1582   -23913   -33413   -28016   -21923   -16744 
   -8350    -8573   -13255    -4478    -4181   -19320   -23271   -27679 
  -35648   -25783   -14225   -11477    -9968   -15235   -15516    -8693 
  -14271   -18885   -15260   -18469   -16654   -13718   -22733   -23052 
