Origin Time       2024/04/02 04:24:00
Lat.              40.133
Long.             141.712
Depth. (km)       71
Mag.              6.0
Station Code      IWTH04
Station Lat.      39.1809
Station Long.     141.3909
Station Height(m) 514
Record Time       2024/04/02 04:24:56
Sampling Freq(Hz) 100Hz
Duration Time(s)  135
Dir.              1
Scale Factor      2942(gal)/8224139
Max. Acc. (gal)   12.449
Last Correction   2024/04/02 04:24:56
Memo.             
[...]
  -29666   -29666   -29667   -29670   -29671   -29673   -29677   -29683 
  -29689   -29695   -29704   -29709   -29705   -29693   -29673   -29651 
  -29623   -29577   -29531   -29504   -29481   -29439   -29416   -29448 
  -29479   -29477   -29511   -29567   -29566   -29528   -29512   -29484 
  -29369   -29160   -28884   -28617   -28524   -28541   -28406   -28225 
  -28341   -28599   -28621   -28582   -28829   -29546   -30285   -30149 
  -29737   -29987   -30013   -29511   -29895   -30858   -30568   -29747 
  -29602   -29347   -29393   -30198   -30708   -30793   -30186   -28819 
  -28220   -28613   -28933   -29141   -29054   -27758   -26271   -26824 
  -28645   -30368   -32468   -33907   -33652   -32476   -31421   -31626 
  -32346   -32128   -31841   -31386   -30034   -29916   -30183   -28440 
  -28530   -30793   -30576   -29211   -28570   -28263   -28741   -29404 
  -30916   -32826   -32796   -32243   -32331   -31428   -29575   -29031 
  -30632   -31180   -29423   -27942   -27913   -28858   -29065   -28802 
  -28736   -27996   -28621   -29571   -28410   -28125   -29546   -30414 
  -30458   -30902   -31719   -30380   -27966   -28953   -31180   -31357 
  -31897   -31904   -30277   -29532   -28850   -28426   -28976   -28476 
  -27351   -26763   -26662   -26337   -27255   -31259   -33309   -30441 
  -27831   -28849   -30836   -30433   -29155   -29847   -31792   -32476 
  -31187   -29806   -28472   -27052   -27430   -28528   -27972   -27151 
  -28760   -30495   -29046   -27550   -28262   -29677   -30474   -29297 
  -27901   -27718   -27688   -29131   -31712   -32560   -31912   -31058 
  -29509   -28647   -30041   -29887   -27822   -29246   -31330   -29805 
  -29077   -30800   -31050   -30134   -30510   -30250   -29497   -29683 
  -28490   -27159   -28976   -31677   -31023   -28360   -28046   -29349 
  -29091   -27878   -27203   -26847   -27292   -28026   -28590   -30561 
  -32301   -32139   -31800   -29515   -25114   -24844   -28750   -30751 
  -30258   -30150   -31828   -33421   -32205   -31457   -32576   -30677 
  -28611   -30690   -30978   -28063   -28466   -32067   -33312   -32702 
  -32950   -31448   -29128   -28738   -28062   -27762   -28270   -28794 
  -30981   -31641   -29619   -29226   -29263   -29297   -30564   -29056 
  -26376   -27004   -28788   -30187   -31194   -31272   -30412   -29340 
  -30238   -32441   -31951   -29223   -28752   -29899   -29816   -29967 
  -31341   -32320   -31716   -30036   -27419   -24668   -24992   -27529 
  -29350   -30640   -30813   -29821   -29178   -30088   -31881   -31502 
  -28975   -27965   -29023   -28661   -28377   -31807   -33164   -30775 
  -31163   -31325   -28074   -27133   -28703   -28760   -29007   -29841 
  -29130   -29741   -31896   -31529   -29721   -28182   -27259   -28845 
  -30006   -28760   -29185   -30111   -29972   -31541   -32028   -29845 
  -28759   -28741   -28077   -27409   -27643   -29355   -31942   -32437 
  -30839   -30927   -30778   -28178   -27658   -28595   -28549   -30545 
  -31634   -29359   -28584   -29922   -31209   -31218   -30055   -29342 
  -28246   -26958   -27464   -29889   -31895   -30358   -26948   -26218 
  -27580   -27639   -27959   -30180   -31112   -30582   -30924   -31004 
  -29949   -29475   -30132   -30348   -29245   -28584   -29544   -29320 
  -28637   -30483   -31452   -30341   -29878   -30318   -30867   -30037 
  -28999   -29616   -30136   -30321   -30391   -28837   -28142   -30261 
  -30704   -29038   -29000   -29515   -30056   -30739   -30121   -28821 
  -28277   -29413   -30596   -30946   -31575   -30258   -28144   -29562 
  -31072   -29906   -30512   -32088   -31039   -29605   -28860   -28250 
  -28491   -29388   -30181   -28911   -26956   -27291   -27614   -27602 
  -28838   -30407   -32093   -32455   -31056   -30989   -32503   -31739 
  -28031   -25926   -27348   -29081   -29376   -29282   -30188   -32032 
  -31126   -28088   -27708   -27858   -28352   -30970   -30963   -30117 
  -31677   -30747   -28857   -30060   -31156   -30558   -30038   -30586 
  -30927   -29274   -27561   -27670   -28012   -28102   -29160   -29673 
  -27677   -26142   -27562   -28273   -27437   -29521   -32435   -31284 
  -29336   -29604   -29840   -29867   -30626   -31668   -31815   -30400 
  -29567   -29864   -29570   -29085   -28995   -28949   -28983   -29536 
  -29883   -29743   -30562   -30898   -30114   -30645   -30879   -30015 
  -30399   -30439   -29450   -28942   -28166   -28657   -30823   -30562 
  -28497   -27843   -27649   -28537   -30717   -30006   -27658   -28086 
  -28927   -27764   -27926   -31149   -33392   -32640   -31901   -31045 
  -28690   -28678   -30991   -30484   -29305   -30484   -30874   -30453 
  -31039   -31240   -30252   -29570   -29802   -29161   -28003   -28200 
  -28642   -28984   -30330   -30973   -29806   -28956   -29060   -28900 
  -29019   -30519   -32032   -31750   -30901   -30985   -31020   -30202 
  -29771   -29978   -28638   -26778   -27646   -29343   -29727   -30736 
  -31360   -29884   -28274   -27272   -27328   -28530   -29142   -29826 
  -30771   -30657   -30825   -30846   -29295   -28908   -29849   -29160 
  -27959   -27785   -27858   -28220   -29076   -29894   -29689   -28702 
  -29012   -29836   -29173   -28958   -29878   -29791   -29636   -30331 
  -29282   -28017   -30196   -31600   -29975   -30369   -31372   -29211 
  -28275   -30510   -30809   -28745   -27793   -27615   -27945   -29465 
  -30823   -31093   -30798   -30176   -29407   -29990   -31121   -30785 
  -31297   -31888   -29236   -27724   -29826   -30871   -30823   -31963 
  -32003   -29617   -27413   -27355   -27874   -28048   -28779   -29520 
  -30338   -30846   -30260   -29859   -29700   -29473   -29412   -29355 
  -30049   -31437   -31976   -31202   -29964   -28690   -28279   -29413 
  -30735   -30518   -28819   -27684   -28521   -29826   -29975   -30360 
  -31306   -31174   -30419   -29255   -28282   -29558   -30939   -29691 
  -28830   -29536   -29921   -31317   -32074   -29994   -29255   -30730 
  -30260   -27341   -25578   -27220   -29442   -29022   -28641   -30963 
  -32117   -30445   -30291   -30959   -28420   -26445   -28426   -29394 
  -27789   -28560   -31344   -31974   -31833   -31774   -30335   -29540 
  -28915   -27217   -27149   -28385   -28760   -29848   -32011   -31634 
  -29373   -29015   -29061   -28075   -27614   -28038   -29551   -31294 
  -31276   -30381   -30493   -30647   -30352   -30318   -29542   -28857 
  -29184   -28701   -28618   -29462   -28279   -26856   -28364   -30195 
  -29268   -27278   -27881   -31190   -33195   -31899   -30310   -30118 
  -29080   -28188   -28746   -28290   -28333   -29910   -30322   -31193 
  -32989   -32134   -30059   -29995   -29424   -27394   -28105   -30450 
  -29431   -28131   -30385   -31765   -31282   -31139   -29631   -28316 
  -28813   -29579   -30427   -30107   -28617   -28624   -29627   -28941 
  -27730   -28705   -30159   -29805   -28633   -28116   -29106   -30073 
  -29539   -30503   -33077   -33266   -31429   -29690   -29293   -30006 
  -28505   -27369   -30793   -32062   -28983   -29808   -32738   -30966 
  -28305   -28262   -28829   -29609   -29934   -29300   -29195   -30558 
  -31515   -29517   -27635   -28968   -30526   -30257   -29349   -29407 
  -30190   -30310   -30329   -30098   -28422   -27349   -28524   -29691 
  -30396   -31526   -31330   -29570   -28848   -30581   -32113   -30645 
  -29355   -30955   -31830   -30375   -29450   -29365   -29016   -28810 
  -28405   -27410   -27039   -29007   -31552   -30712   -28271   -28232 
  -29401   -29346   -28059   -27373   -28252   -28937   -29536   -30383 
  -29081   -27437   -28004   -28898   -30804   -33909   -34391   -32900 
  -32086   -30524   -27762   -25803   -25875   -27129   -27580   -27990 
  -29365   -30249   -31521   -32775   -31295   -28827   -27305   -26859 
  -28003   -29355   -30491   -31511   -30238   -27672   -28007   -30753 
  -32208   -31990   -31379   -30735   -30358   -29343   -27608   -28937 
  -32479   -31195   -27708   -29054   -30424   -28879   -29535   -31291 
  -31540   -30260   -27745   -28262   -31068   -30978   -29466   -28698 
  -27623   -26923   -27608   -28486   -29073   -29901   -30759   -31023 
  -29975   -28985   -29463   -29716   -29127   -29304   -30589   -31260 
  -30784   -31734   -32826   -30581   -28792   -29716   -29470   -29439 
  -31935   -31950   -28571   -27564   -29141   -30767   -31205   -28559 
  -25791   -26165   -27423   -28841   -30335   -30541   -31693   -33469 
  -31703   -28327   -27272   -28328   -29421   -29336   -29527   -29956 
  -30059   -30707   -30751   -30867   -31799   -31414   -29913   -28463 
  -27976   -28873   -29490   -29388   -29853   -30586   -29670   -28413 
  -30061   -31341   -28987   -28247   -29764   -28713   -28996   -32425 
  -32672   -30469   -29679   -28792   -27579   -28043   -29215   -29046 
  -28907   -29192   -28227   -28054   -28973   -28904   -29678   -30481 
  -29290   -29425   -31546   -31800   -30038   -29496   -30665   -30731 
  -28316   -27076   -29392   -30450   -29062   -29725   -30952   -30262 
  -29613   -29547   -28875   -27715   -29026   -31569   -30424   -29425 
  -31745   -32167   -30169   -30202   -31433   -29420   -27162   -28888 
  -29774   -29355   -31012   -30565   -27810   -28186   -29660   -29262 
  -30360   -31120   -28486   -28051   -30071   -29481   -28826   -29860 
  -29898   -29739   -28972   -27179   -28688   -31121   -30083   -29349 
  -29701   -29160   -30065   -32594   -32670   -30501   -29806   -29008 
  -27811   -28938   -29151   -27533   -27907   -29488   -30015   -29532 
  -29667   -30777   -30041   -28167   -28305   -29012   -28900   -29512 
  -31245   -32454   -30661   -27363   -28093   -30870   -29905   -28547 
  -29093   -29047   -30771   -32913   -30831   -29195   -31413   -31878 
  -29492   -29087   -30554   -30775   -30460   -31163   -30834   -28135 
  -27360   -30068   -30523   -28352   -27942   -28119   -27859   -29039 
  -29974   -28490   -27708   -28485   -27928   -28726   -31388   -31723 
  -31095   -30314   -28005   -26765   -27672   -28840   -30194   -31434 
  -30649   -28881   -27992   -27047   -27136   -29439   -30645   -29440 
  -29015   -30248   -30937   -30483   -29667   -29416   -30063   -29646 
  -27795   -27503   -29470   -30946   -30531   -30098   -30823   -30550 
  -28777   -28327   -28765   -28464   -29475   -31905   -33162   -33065 
  -32748   -31716   -30078   -29531   -28547   -26522   -27695   -30993 
  -31750   -30790   -30229   -30809   -31842   -31529   -31012   -31297 
  -30624   -29184   -29411   -31060   -30663   -29002   -30033   -31050 
  -29983   -30122   -30211   -29195   -28818   -28921   -30690   -32092 
  -30376   -29398   -29755   -28602   -28150   -29089   -28354   -27244 
  -28547   -29947   -29417   -28640   -28613   -29617   -31013   -30181 
  -28495   -29351   -30225   -28883   -27697   -28173   -29820   -31307 
  -31148   -30164   -31000   -31706   -29582   -28233   -29061   -29895 
  -30110   -29093   -27903   -27675   -28524   -29951   -29864   -29471 
  -29304   -27602   -28005   -30686   -30102   -28771   -30393   -30146 
  -28286   -29886   -31108   -29916   -30588   -31298   -29565   -28148 
  -28464   -29474   -30056   -30303   -31332   -31561   -30262   -30001 
  -29447   -28390   -29876   -31573   -30666   -28930   -28921   -30117 
  -29959   -29155   -29037   -28449   -28100   -29438   -30673   -30298 
  -29863   -29617   -28777   -28618   -28224   -26388   -26316   -28787 
  -30194   -30025   -30519   -31033   -29897   -28377   -28331   -28815 
  -28155   -28003   -30276   -32701   -33157   -32548   -31353   -29829 
  -29664   -30387   -29868   -28775   -27872   -27301   -27500   -27449 
  -28561   -32082   -34036   -32610   -30526   -29918   -29795   -27648 
  -26196   -28119   -29234   -28837   -29195   -29452   -30419   -30311 
  -27291   -26620   -28738   -29697   -30443   -30335   -28690   -29119 
  -31608   -32406   -31449   -31201   -31401   -30511   -29882   -30663 
  -30690   -29378   -28771   -28669   -28135   -27484   -26821   -27386 
  -29466   -30523   -29523   -28532   -29461   -31382   -32240   -31253 
  -29702   -29361   -29020   -28555   -30067   -31515   -30458   -28260 
  -27623   -29539   -30682   -29392   -28644   -29272   -29543   -28709 
  -27805   -27788   -27673   -27939   -29119   -28135   -24972   -24274 
  -27707   -31410   -31081   -29548   -30886   -31079   -28491   -28046 
  -29386   -29494   -29141   -28664   -28521   -28837   -28993   -30751 
  -32386   -31156   -30496   -32370   -33864   -33232   -32076   -31835 
  -32405   -33222   -33026   -32057   -31995   -33115   -34245   -34051 
  -33305   -33415   -32562   -30913   -31194   -32161   -32960   -32848 
  -30677   -30132   -30333   -27884   -27594   -30111   -29944   -28305 
  -27893   -26686   -24625   -24617   -26084   -25999   -25234   -25724 
  -25401   -23834   -23280   -22642   -20564   -18854   -19253   -20629 
  -20259   -19414   -21293   -24395   -26811   -28806   -29128   -27596 
  -26291   -25763   -24992   -24703   -26963   -29637   -29151   -28325 
  -29801   -31433   -33251   -34850   -34639   -35878   -39838   -42492 
  -43606   -46024   -49312   -51200   -49071   -43409   -40959   -44275 
  -46581   -44265   -41192   -37979   -31309   -26473   -31997   -42238 
  -47025   -47914   -47946   -46471   -46552   -47992   -45985   -39521 
  -32080   -30042   -32252   -31911   -33056   -37828   -35689   -23996 
  -13155    -8453    -6347    -5881    -8884   -12182   -10647    -6077 
   -4577    -5806    -5200    -5976   -14211   -24066   -25116   -19066 
  -13891   -13261   -19091   -27287   -27095   -15529     -815     5135 
   -4450   -23538   -36840   -34327   -25679   -25693   -28171   -26184 
  -28695   -31297   -24239   -20726   -29427   -40189   -48843   -54994 
  -55987   -55641   -55316   -50353   -41585   -31378   -19948   -16957 
  -31314   -46926   -45824   -37212   -29694   -21392   -21857   -32892 
  -36039   -25988   -20825   -29369   -36047   -32370   -31244   -35978 
  -37971   -36783   -32467   -25533   -21666   -23693   -30886   -36697 
  -37044   -34996   -27988   -18771   -17759   -23383   -26619   -24869 
  -23485   -24714   -27383   -36094   -46529   -50693   -54818   -56143 
  -46610   -37598   -37494   -40790   -40416   -32094   -24250   -22351 
  -16363    -6968    -4579   -11619   -23310   -27487   -21891   -17477 
  -15569   -19074   -34334   -49690   -53644   -50144   -45504   -41604 
  -34605   -24783   -22331   -31112   -40676   -40146   -29519   -19689 
  -23635   -35557   -34673   -21783   -17069   -21551   -24089   -28664 
  -35406   -31334   -20024   -19758   -31368   -37332   -33709   -34790 
  -37635   -27220   -13783   -12992   -16843   -17663   -20672   -25128 
  -28622   -35382   -40586   -38639   -36190   -29933   -17741   -18685 
  -33685   -42032   -40524   -34325   -26809   -25895   -27865   -23411 
  -19477   -22909   -28310   -32448   -33897   -31515   -25670   -16256 
  -13157   -21197   -27718   -33860   -44319   -44482   -35873   -31673 
  -26725   -21802   -24611   -26566   -20595   -18330   -26730   -30998 
  -26246   -26083   -30603   -33717   -35668   -35789   -35473   -34121 
  -31870   -32337   -34902   -37165   -36814   -32362   -24657   -22127 
  -31380   -35698   -28202   -29050   -34102   -29363   -29014   -38364 
  -43557   -38492   -29058   -24817   -23942   -24614   -33871   -41636 
  -38784   -37362   -35579   -27257   -25934   -31243   -30361   -30465 
  -35299   -32940   -28152   -28890   -25922   -20738   -23166   -29143 
  -27950   -17620   -11437   -16231   -22087   -25398   -26607   -23571 
  -23828   -30632   -32100   -28351   -31587   -36771   -37662   -41126 
  -43541   -37739   -26798   -17838   -19423   -28058   -32494   -31584 
  -26040   -19473   -21172   -28007   -31077   -32355   -33886   -33232 
  -31545   -32454   -36439   -37200   -33397   -33091   -34499   -32807 
  -33066   -34202   -30152   -25976   -28668   -30167   -24476   -23831 
  -33000   -37773   -30778   -24453   -28745   -37027   -41547   -39370 
  -33508   -29814   -25697   -21918   -24773   -29849   -31353   -31006 
  -29026   -27700   -31612   -36066   -35249   -32360   -32042   -33126 
  -30167   -23113   -19190   -22615   -29303   -29988   -23199   -18802 
  -19079   -21200   -27168   -29517   -25316   -27511   -33231   -31563 
  -29371   -30335   -30890   -33320   -33675   -28921   -27603   -29983 
  -29764   -30526   -36601   -42358   -38348   -28364   -25342   -27022 
  -25901   -26194   -29421   -32298   -35818   -37355   -32097   -24958 
  -22914   -23679   -24347   -28738   -36479   -39363   -34832   -27290 
  -20865   -21379   -29089   -33482   -32447   -34963   -37901   -33174 
  -26073   -20721   -17707   -21784   -28351   -30113   -29668   -29952 
  -30530   -29340   -27014   -26862   -25242   -21589   -25558   -33235 
  -31723   -26357   -26323   -28008   -26846   -25613   -27194   -26933 
  -24804   -26974   -31158   -33408   -32867   -27314   -22129   -26337 
  -34954   -38284   -37098   -33793   -29933   -28242   -27769   -29211 
  -32533   -33654   -32904   -29604   -24341   -23577   -25945   -29277 
  -35112   -37170   -33124   -31259   -34805   -37192   -36235   -37578 
  -37667   -30678   -25739   -26946   -27934   -30584   -34366   -34909 
  -35183   -35140   -33933   -32452   -29215   -29721   -35915   -37569 
  -33532   -32817   -32890   -25502   -18465   -20038   -20817   -18414 
  -20544   -25458   -30466   -33817   -30645   -23870   -22027   -27014 
  -33084   -34338   -30792   -27202   -27310   -29330   -28030   -26157 
  -28954   -29898   -28053   -30304   -30871   -27475   -29920   -34485 
  -30811   -26168   -27970   -30038   -30852   -32125   -30917   -28625 
  -26339   -23278   -23548   -26804   -29073   -29539   -28224   -28402 
  -31707   -33839   -31514   -26707   -25274   -29789   -34335   -35073 
  -36169   -36756   -33786   -29571   -26090   -27097   -31158   -33131 
  -34219   -32157   -28328   -29054   -30388   -30373   -31175   -30192 
  -28707   -29332   -32034   -36670   -39349   -37073   -31044   -25841 
  -26595   -28151   -26462   -27336   -27615   -23106   -20703   -21100 
  -19894   -21097   -27638   -31789   -30283   -31149   -34877   -33914 
  -28690   -25216   -24792   -25112   -28398   -34739   -35895   -31739 
  -30971   -32764   -31735   -30815   -32733   -34056   -32586   -29570 
  -30296   -35532   -36217   -32599   -32092   -32466   -31907   -32668 
  -31646   -26098   -21640   -22567   -25421   -28823   -31919   -29369 
  -23603   -24005   -28597   -28599   -26041   -26789   -28931   -29504 
  -29539   -29428   -26927   -23565   -25004   -28672   -29054   -30473 
  -34569   -35432   -32233   -28443   -27099   -29185   -30964   -30739 
  -31484   -33016   -32807   -30897   -30326   -33397   -36720   -35992 
  -32421   -29697   -29469   -28868   -25421   -24251   -28252   -31257 
  -31398   -31477   -28966   -26022   -28502   -30692   -29253   -28900 
  -28317   -28914   -32325   -32440   -30770   -32111   -32645   -31309 
  -32464   -34150   -32657   -29735   -26392   -24757   -27577   -31402 
  -31159   -27329   -24714   -24876   -27337   -30689   -30045   -28548 
  -30874   -30225   -29061   -33891   -34762   -30937   -31580   -31471 
  -28293   -28472   -31590   -33218   -30086   -26134   -27054   -25847 
  -21226   -24587   -31653   -31951   -30690   -32301   -32138   -28360 
  -26230   -29034   -30383   -26338   -24339   -27135   -27184   -24413 
