Origin Time       2024/04/02 04:24:00
Lat.              40.133
Long.             141.712
Depth. (km)       71
Mag.              6.0
Station Code      IWTH19
Station Lat.      39.4559
Station Long.     141.0001
Station Height(m) 119.3
Record Time       2024/04/02 04:24:55
Sampling Freq(Hz) 100Hz
Duration Time(s)  120
Dir.              3
Scale Factor      2942(gal)/8224139
Max. Acc. (gal)   5.137
Last Correction   2024/04/02 04:24:55
Memo.             
[...]
  104452   104454   104454   104454   104456   104454   104452   104454 
  104457   104456   104453   104453   104454   104453   104452   104453 
  104456   104457   104456   104454   104454   104456   104454   104453 
  104454   104452   104450   104456   104458   104456   104454   104456 
  104457   104456   104458   104464   104461   104458   104460   104463 
  104465   104471   104473   104475   104479   104484   104490   104492 
  104498   104507   104512   104517   104522   104522   104521   104517 
  104510   104503   104502   104500   104494   104481   104471   104458 
  104442   104422   104399   104369   104329   104286   104241   104178 
  104105   104058   104032   104001   103977   104001   104075   104144 
  104193   104263   104336   104352   104340   104357   104379   104387 
  104422   104483   104560   104695   104886   105086   105223   105212 
  105079   105025   105197   105486   105672   105590   105186   104610 
  104163   104159   104625   105136   105390   105489   105395   105034 
  104642   104390   104274   104352   104600   104838   104998   105133 
  105097   104912   105028   105479   105853   106033   105964   105383 
  104426   103859   103870   103801   103518   103199   102694   102250 
  102311   103122   104530   105528   105669   105457   104899   104137 
  103605   103468   103999   104770   105097   105120   104849   104352 
  103948   103698   104229   105740   106708   106417   105676   104287 
  102628   102475   103129   102813   101687   100259    99154    99210 
  101071   104209   106215   106336   105304   102942   100974   101464 
  103346   105347   106990   107334   106380   104784   102836   101653 
  102226   103657   105444   107896   109104   107765   105796   104589 
  104827   106361   106439   104330   102492   101740   101317   101426 
  102625   104638   106155   105375   102964   102189   103478   104001 
  102953   102571   103634   103950   103424   104422   106280   106915 
  106686   106303   105742   104824   103947   104685   106138   105700 
  104473   104815   105988   105522   103260   101544   101275   101731 
  102795   105444   109443   110905   107407   102505    99814    98811 
   98308    99291   102736   106335   107821   107802   107298   106883 
  105684   103465   102548   103461   105278   107773   109402   108788 
  106928   104252   101430   101899   105349   107820   108831   108508 
  106482   104361   103696   104903   105660   103902   102255   101406 
   99891    99700   100585   100919   102417   105071   107203   108013 
  107339   106168   104704   102832   101241   101383   103987   106536 
  108498   111325   112135   109528   106803   105850   105678   105499 
  106173   106771   105613   104542   104321   103468   102493   101718 
  100874   100116    99388    99534   100938   103227   105229   105268 
  104369   103902   103804   103781   102944   103034   104801   104560 
  103295   104268   105646   107176   109615   109490   106054   103634 
  103775   104066   104620   107492   109209   106146   103443   104183 
  103829   102336   103027   104010   102743   100913   101129   103423 
  105385   104627   102825   103227   103431   101150   100822   104419 
  107326   107411   106515   104704   102903   103762   105912   106205 
  105221   104751   103640   101610   102135   106051   109232   108762 
  106196   103057    99508    98771   102177   105223   105745   105640 
  105318   103358   100885   101533   104280   105475   105879   106328 
  105644   104750   104500   103936   103550   104469   105490   105903 
  106679   106141   102847   100727   102297   103380   102055   102668 
  104629   103239   102169   105610   107912   105263   102975   104161 
  104656   103223   103696   106096   106938   105148   102478   102065 
  105081   107659   106262   103891   104877   106272   104832   105660 
  108916   107885   104641   103314   102640   102859   103783   103964 
  103091   101923   103746   107327   106485   103549   102753   101081 
   99891   102477   105837   106926   104988   101619    99686   100469 
  103724   106562   106427   104395   103851   105969   106371   105077 
  107011   109212   107041   103054   102601   105881   107152   105781 
  105436   105669   105524   104859   103491   103631   105440   105341 
  102853   100273    99453   100701   101781   103081   105723   106390 
  105433   106047   105927   104498   105563   108189   108589   107011 
  105848   105123   104133   104364   105601   106069   105856   105349 
  105966   107558   106901   105024   104616   103465   101259   101653 
  104082   105121   103925   101746   101694   104041   105155   105189 
  105167   103962   103065   103183   103512   104869   106150   105532 
  104372   104388   104899   105047   105672   106326   104967   103354 
  103968   104344   104094   105104   104384   101740   101414   102201 
  101871   101943   102762   103797   104373   104315   104723   104855 
  104094   103158   102093   102153   104029   105958   106515   105633 
  104687   104487   104282   104924   106308   105966   105310   106335 
  106166   104710   105281   106096   104657   102884   101954   102091 
  103642   104961   104795   103805   103557   104514   104683   104461 
  105825   105906   103215   101853   102721   103630   104757   105467 
  105039   104060   102373   102207   104062   104743   105120   106303 
  106168   104620   103532   103761   104337   104747   105912   107628 
  108245   107206   105598   104288   103177   102338   102593   103810 
  104697   104928   105081   104480   102884   102666   103682   103910 
  104749   105591   104230   103883   106112   106637   104850   103608 
  103534   104373   104889   104782   105644   106949   106971   105368 
  104128   104413   103941   102741   103084   104634   105410   104708 
  104552   104399   102867   103677   105457   103982   103276   104167 
  103863   105372   107649   106477   104055   103158   103607   104240 
  103887   103542   104577   105775   105206   103443   102254   102744 
  104024   103127   101910   103864   105229   103539   101848   101564 
  102147   102971   104155   105899   106201   103935   102988   105032 
  105664   105896   107954   106550   102710   102208   103168   104373 
  106567   107275   106729   106621   105950   104549   103499   103243 
  103461   103697   105035   107169   106629   103794   102153   101704 
  102411   104502   105574   105862   106550   105187   103296   104097 
  104454   104102   105529   105908   105065   104495   103135   103057 
  104187   103979   103985   104974   105096   103840   102863   102919 
  102941   103908   105541   104819   103678   104816   105345   104276 
  104184   105402   106127   105817   105916   106617   106381   104778 
  103222   103350   104315   104446   104661   105757   105341   102600 
  101530   102874   103346   103698   104722   104679   103704   102643 
  102721   104016   104778   105773   107188   106524   104160   102639 
  103254   105372   106096   104626   103721   104259   104838   105150 
  105795   106103   105169   104245   103400   101650   101679   104712 
  106547   105529   104826   105043   103570   101387   102365   104627 
  104411   104664   106790   106936   104695   103574   105232   106618 
  105503   104619   104683   104190   103851   103968   104990   106722 
  106685   105624   105270   103357   100207    99972   102725   104903 
  105305   104872   104086   103773   104329   104334   104180   105279 
  105424   103594   103133   104818   105507   104946   105403   105347 
  103246   102608   104710   105807   105100   105740   106729   104824 
  103196   104795   105314   103050   102242   103658   104959   105815 
  105472   103985   103800   104701   104750   104978   106783   108307 
  107308   104556   102374   102239   103339   103762   103740   104450 
  105470   105702   104766   103666   103422   103871   104355   103905 
  103042   103368   104107   104067   103688   103674   104527   104475 
  102428   101993   104157   105372   104773   103808   103462   103528 
  103457   104653   106613   105999   103508   102564   103207   103918 
  104469   104596   104319   104641   105229   104719   104171   104604 
  104064   102844   103347   104697   105013   104082   103030   103459 
  104631   105198   106112   107495   107512   105691   104499   105194 
  105304   105075   106471   106955   105034   102961   102038   102633 
  104801   106910   107153   105795   104205   103107   102685   103198 
  104431   105386   105306   104897   104971   103839   101551   101713 
  104373   106513   107144   107293   106866   104421   102698   103705 
  103808   102930   103765   105143   105251   104576   104826   105892 
  105792   104477   104191   105402   105152   103526   103875   104263 
  102953   103671   106300   107102   104838   100957    99827   102446 
  103658   103123   105124   107554   105948   102406   101895   103943 
  104002   102757   104360   107237   107235   105430   104904   104573 
  102730   101082   102443   106045   107096   105621   105714   106200 
  104874   103941   105844   108286   107264   104896   103901   101970 
  100816   103530   105634   104431   104484   106057   104066   100506 
  100408   101395   101737   103023   104070   104566   104259   102197 
  101316   103087   104379   104126   104969   106921   106978   106056 
  106501   106802   105742   104892   105339   105709   104755   103554 
  103655   104978   105363   104533   105206   106182   104986   103898 
  103423   102155   102336   104174   104712   104247   103743   103095 
  104024   105304   104373   103999   104866   104048   103071   104592 
  107028   106871   104926   104943   104484   101776   102955   107724 
  108656   105804   103986   104855   105891   104396   103183   104215 
  104009   102212   102303   104255   105363   105198   104518   103295 
  103038   104606   105279   103731   102895   104598   105551   104452 
  105034   106346   105301   104198   104329   104448   104502   104506 
  104716   104676   104079   105422   107420   105138   101644   101671 
  101933   102046   104701   106886   106863   106251   105228   103959 
  103939   105756   106149   104143   103589   104500   104857   104712 
  103896   103079   103157   104139   105320   105403   104274   102359 
  100894   102240   105502   107038   105889   103935   102747   102131 
  102668   105174   106606   105964   105717   104434   101808   100954 
  102107   103989   104660   103424   103720   105507   105079   103960 
  104915   106579   107007   105862   104615   104839   105699   106612 
  108307   108506   105976   104688   105406   106099   107164   106180 
  102155   101444   105235   105937   103129   103609   105926   104191 
  100654   100981   104830   106801   104546   102554   103561   103918 
  102178   101202   102883   106442   108098   106284   104141   103005 
  102546   102598   102339   103781   106744   105804   102852   104157 
  106878   107119   106404   105808   106155   106335   104360   103079 
  104051   104598   104873   105921   106043   105614   105676   104175 
  102519   103586   104179   103630   105862   108114   105730   101802 
  101116   102679   102721   102602   104853   104873   101317   100369 
  101699   101032   101268   104264   105525   104382   104274   104963 
  103985   102023   102290   103862   103821   104650   107160   107111 
  105532   106289   107219   105571   103353   103243   104276   103901 
  103990   106311   107127   105899   105538   104664   102717   102836 
  105304   106267   104575   104047   104965   104804   105028   106016 
  105667   103751   102311   103018   103542   102559   103623   106122 
  104909   102227   103146   103964   102038   102496   105636   105860 
  102856   101302   102752   103698   102725   103169   105073   105614 
  105194   104118   102284   101829   103462   105763   107585   108016 
  107503   106435   104429   104139   106637   108383   107886   106440 
  105833   106034   105223   104236   104039   103958   105081   107100 
  106803   105177   105251   104345   101827   102463   105552   106131 
  104580   104535   104255   101353   101698   107431   110111   107131 
  104253   103628   104091   105455   107966   109756   107873   104058 
  102485   103323   105271   106764   105088   102895   103859   104083 
  103046   104203   105038   104437   104062   103931   103833   102423 
  101671   103608   104431   103789   104355   104916   104190   103632 
  105088   106309   104811   103457   103346   102994   103680   106049 
  107543   104989   100680   100029   101313   101810   103442   104826 
  103900   101657    99886   100630   102001   102105   103276   104838 
  104801   103644   101555   100943   103291   104973   104809   104946 
  105548   105715   105175   104700   106336   110052   110837   107566 
  105591   104745   102590   102150   104692   107222   107711   106355 
  104400   103096   102182   101374   102348   104506   104514   102504 
  100908   100279   100384   101274   102463   103006   102820   101891 
  101409   104033   107412   108137   108550   109443   109225   109549 
  111303   112445   112514   111921   110457   109125   108303   108288 
  109927   110766   108043   103728   101364   100071    97729    97461 
   99877   100094    98338    96585    93981    92773    93171    91737 
   90489    93070    97082    98964   100264   102941   104395   103707 
  104256   107102   109255   109302   110540   114104   115661   113783 
  112136   113449   115979   117437   118813   118118   112865   107470 
  105479   105904   106783   105219   100680    96583    96032    97951 
   99773   101317   101258    97822    93658    93012    97059   102170 
  103817   102230    99631    97613    98733   101850   102462   102212 
  103990   105358   104782   103096   103455   106370   106971   106678 
  109308   111438   110500   108275   106791   107023   108108   108556 
  108198   106164   101861    98984    99489   100372   101410   103609 
  105714   107963   108704   104807   100813   102925   107037   107177 
  105957   105651   103809   102501   105197   107762   106324   105201 
  106251   104253    99882    98513    98733    97995    99195   103503 
  106186   103736    98244    94576    97051   103476   105636   102274 
  100117   100444   101125   105175   112363   115032   110844   106797 
  107592   109378   109417   112419   117082   115418   111172   111554 
  112226   110278   109205   108394   106201   104770   104726   105015 
  106108   106154   101532    96029    96692   100592   101379   100719 
  101262   101409    99505    96634    96449    99115   101275   102470 
  102436   101433   102594   104909   105011   103125   100581   100053 
  102058   103786   106293   109040   109059   108936   108399   104804 
  103032   104876   105354   105426   108962   112004   110322   109406 
  111338   109676   106149   106012   107256   107713   106972   106232 
  106101   103651   100900   102142   104334   104635   104508   104152 
  103809   104225   103559   100745    98961    99754    99967   100172 
  103072   104919   103569   102420   102924   105451   108329   108028 
  105497   102459    99351    98123    98856   101032   104962   108552 
  108697   104556   100018   100789   105486   107499   106521   106600 
  107589   107249   104236   101310   103820   108974   110679   110532 
  111223   110683   107736   105586   105435   105152   106529   109566 
  109173   105390   100865    97140    97934   102367   104992   104172 
  102045   101953   103372   102397   101493   103948   105463   104645 
  103991   102843   102051   101472    98878    97802   101664   106235 
  106849   105383   104179   101888   100728   103724   107090   107229 
  106828   108334   108409   105040   103358   105513   106558   106130 
  106810   105795   103767   104338   103860   101092   100980   103106 
  104404   103993   100720    97730    98383    98574    98452   101918 
  103538   100423    98161    98932   102022   105756   106890   104913 
  102716   102055   101853   102590   104368   104441   103627   103875 
  103693   103185   104137   106339   108677   110646   111121   108383 
  103644   100215    98887    99523   103077   107993   110381   109078 
  106269   104835   106378   108414   108225   108184   109375   109621 
  108957   107219   105214   106535   108328   105625   102708   103181 
  103806   103964   105117   105152   103252   101884   101591   102732 
  105696   106940   104895   103288   103956   104481   103673   103316 
  104002   104985   106496   107983   107234   103856   101298   102956 
  107453   110182   109763   108444   106635   103716   102482   105877 
  110093   110262   108495   106421   102771    99997   100109   101891 
  104369   104322   100461    98755   100928   101405    99301    98388 
   99098    98782    97758    99963   105459   108515   106614   103337 
  101144    99971   100180   102142   105327   108202   108990   106996 
  103985   103027   105025   108051   110309   111094   109159   105935 
  104048   101491   100145   104774   108920   107158   105463   105790 
  106639   109867   113124   113699   113543   112143   107763   102988 
  101032   101245   101884   103154   104392   103233    99891    98207 
  100237   102298   101532   101264   102678   100881    95648    94396 
   98940   102972   103393   101718   100719   101191   101333   102983 
  106767   108346   106840   103824   100805   100811   103225   103987 
  103343   104261   105436   103889   102026   103762   106787   108556 
  111138   114231   114579   111821   109370   108731   108176   108095 
  108834   110106   111352   109622   107740   109219   109115   107281 
  107657   106884   103852   103902   106496   105120   100842   100886 
  104344   105105   103125   101505   101703   103262   103747   102897 
  102736   103118   102909   100441    96865    97664   101375   103083 
  104253   105251   105089   103716   100971   101135   104603   104927 
  102830   102147   100886    99130    99590   101702   103999   105478 
  104998   102730   100114    98390    98115    99783   102093   103075 
  103597   103885   102906   102124   102555   102957   102794   103052 
  103698   102463    99713    99301   101571   104056   105517   104895 
  102624   100546   100670   103680   105613   105027   105637   106586 
  105916   105447   106253   108294   109404   107697   105528   105266 
  107365   110089   110732   109246   106330   104942   107167   107597 
  106116   108481   110762   109656   109561   109593   107599   106701 
  107142   107595   109131   110077   108492   105912   103601   102066 
  101521   102031   103357   103848   103257   103210   104359   105435 
  104841   103341   102605   103141   105150   107397   107026   104291 
  102841   103966   105313   104379   103360   104406   103519   101229 
  101925   103925   105557   106398   105441   103620   102401   103511 
  105410   104533   102593   102246   102587   102763   103601   105800 
  107065   106030   105367   104878   103338   103650   106139   107168 
  105179   103485   104656   104652   103316   105250   107149   105754 
  104039   103653   103829   102705   101363   101615   101417   101785 
  103434   103033   102509   103815   102899   100048    98859    99050 
  101074   104286   104584   102111    99831    99412   101105   102995 
