Origin Time       2024/04/02 04:24:00
Lat.              40.133
Long.             141.712
Depth. (km)       71
Mag.              6.0
Station Code      IWTH26
Station Lat.      38.9690
Station Long.     141.0013
Station Height(m) 125
Record Time       2024/04/02 04:25:00
Sampling Freq(Hz) 100Hz
Duration Time(s)  188
Dir.              6
Scale Factor      7845(gal)/8223790
Max. Acc. (gal)   9.906
Last Correction   2024/04/02 04:25:00
Memo.             
[...]
  -24517   -23855   -25069   -27291   -28829   -28533   -26944   -25482 
  -24873   -25351   -26740   -27900   -27922   -27309   -27048   -27454 
  -27792   -26771   -24096   -21404   -21100   -23809   -27159   -28242 
  -26835   -24876   -23996   -24634   -25979   -26547   -25920   -25141 
  -25324   -26755   -28611   -29475   -28755   -26843   -24659   -23643 
  -24540   -26511   -28497   -29760   -29566   -28375   -27463   -26920 
  -26410   -26096   -25425   -24212   -23947   -25151   -26412   -26993 
  -26847   -25462   -23398   -22482   -23426   -25205   -26550   -27051 
  -27122   -27178   -27216   -26959   -26057   -24969   -25026   -26365 
  -27469   -27525   -26950   -26140   -25702   -26115   -26488   -25992 
  -25450   -25884   -27201   -28494   -28713   -27519   -25641   -24520 
  -25220   -26767   -27257   -26778   -26346   -25990   -25914   -26211 
  -26033   -25574   -25899   -26484   -26289   -25678   -25269   -25061 
  -25276   -26312   -27604   -27718   -26462   -25573   -26075   -27082 
  -27642   -27484   -26759   -26229   -26271   -26153   -25284   -24113 
  -23661   -24486   -25886   -26666   -26562   -26163   -26076   -26460 
  -26676   -25996   -25008   -24865   -25490   -26149   -26620   -27059 
  -27716   -28205   -27635   -26393   -25698   -25660   -25631   -25334 
  -25097   -25419   -26118   -26705   -27056   -26933   -26318   -26064 
  -26620   -27153   -27059   -26898   -27001   -26704   -25616   -24204 
  -23070   -22833   -24020   -26111   -27857   -28729   -28841   -28147 
  -26690   -25045   -24008   -24016   -25020   -26326   -26941   -26943 
  -26923   -26464   -25351   -24360   -23742   -23666   -25007   -27592 
  -29660   -29709   -27722   -25134   -23735   -24032   -24869   -25062 
  -25030   -25743   -26939   -27708   -27450   -26009   -24381   -24138 
  -25245   -26339   -26788   -26611   -25957   -25779   -26820   -28158 
  -28529   -27710   -26271   -25370   -25883   -27253   -28085   -27714 
  -26657   -25714   -25284   -25463   -26006   -26562   -27155   -27498 
  -26859   -25489   -24399   -24098   -24749   -26006   -26835   -27044 
  -27584   -28638   -28941   -27490   -25137   -23769   -24159   -25369 
  -26262   -26612   -26434   -25747   -25251   -25637   -26520   -26870 
  -26244   -25679   -26443   -27641   -27076   -24588   -22835   -24051 
  -26944   -28606   -28441   -27704   -27124   -26829   -26769   -26680 
  -26119   -24842   -23739   -24074   -25390   -26107   -25643   -24648 
  -24220   -25108   -26962   -28657   -29010   -27292   -24622   -23820 
  -25874   -28317   -28206   -25394   -22854   -23569   -26925   -29596 
  -29650   -27996   -26493   -26215   -26991   -27560   -26758   -25282 
  -25139   -26808   -28341   -27774   -25262   -22734   -22215   -23853 
  -25668   -26289   -26607   -27569   -28583   -28802   -27888   -25861 
  -23796   -23404   -24956   -26715   -26941   -26071   -26090   -27517 
  -28771   -28607   -26985   -24582   -23112   -24160   -27157   -29722 
  -29623   -26762   -23807   -23553   -25609   -27606   -28649   -28983 
  -28408   -27418   -26767   -25590   -23402   -21972   -22454   -23674 
  -24340   -24337   -24358   -25204   -26794   -27943   -27488   -25847 
  -24656   -24580   -25186   -25936   -25963   -25227   -25201   -26581 
  -28260   -28736   -27535   -25971   -25662   -26327   -26725   -26646 
  -26283   -25439   -24765   -25600   -27568   -28471   -27128   -25024 
  -24578   -26050   -27315   -26703   -24725   -23367   -24290   -26990 
  -28948   -28385   -26292   -25104   -25814   -27047   -26816   -24925 
  -23240   -23371   -25070   -26856   -27302   -26580   -26565   -28189 
  -29987   -29891   -27567   -24937   -24179   -25452   -27171   -27657 
  -26314   -24356   -23824   -25203   -27095   -28031   -27604   -26478 
  -25830   -26397   -27472   -27027   -24250   -21497   -21762   -24877 
  -27760   -28120   -26731   -25717   -26357   -28433   -29803   -28556 
  -26343   -26137   -27657   -28416   -27217   -24875   -23368   -24093 
  -26265   -28059   -28453   -27810   -27527   -27765   -26894   -24961 
  -23854   -23974   -24717   -26034   -27305   -27436   -26520   -25600 
  -25093   -24714   -24748   -25964   -27804   -28309   -26871   -25224 
  -24848   -25208   -25142   -24603   -24278   -24267   -24607   -25863 
  -27270   -26994   -25354   -24295   -24347   -25031   -26073   -26778 
  -26646   -26383   -26569   -26547   -25618   -24154   -23253   -23809 
  -25663   -27706   -28811   -28432   -26929   -25628   -25425   -25409 
  -24522   -23811   -24791   -27198   -29704   -30873   -29870   -27704 
  -26342   -26347   -26570   -25988   -25297   -25647   -26542   -26786 
  -26316   -25928   -26096   -26487   -26738   -26985   -27082   -26613 
  -25660   -24773   -24397   -24403   -24460   -24618   -24763   -24391 
  -23832   -24291   -25991   -27560   -27858   -26925   -25411   -24727 
  -25903   -27560   -27787   -26850   -26029   -25888   -26169   -26037 
  -25150   -24582   -25465   -27450   -29093   -28907   -26859   -25123 
  -25448   -26653   -26777   -25901   -25401   -26114   -27727   -29097 
  -29230   -27947   -25828   -24201   -24231   -25550   -27087   -28139 
  -28013   -26742   -25705   -25891   -26646   -26842   -26122   -25002 
  -24675   -25860   -27373   -27400   -25929   -24730   -25110   -26320 
  -26971   -26789   -25930   -24907   -24860   -25794   -26401   -26202 
  -25840   -26028   -27004   -27966   -27541   -25891   -25126   -26650 
  -29512   -31653   -31422   -28756   -25789   -24794   -25326   -25199 
  -23927   -23071   -23615   -24923   -25771   -25393   -24502   -24632 
  -25633   -26215   -26480   -27004   -27429   -27700   -28135   -28139 
  -26887   -24937   -23962   -24651   -25936   -26624   -26458   -26022 
  -26384   -27386   -27326   -25911   -24975   -25500   -26728   -27904 
  -28341   -27089   -24760   -23531   -24031   -24737   -24594   -24412 
  -25817   -28776   -30874   -30423   -28228   -25968   -25015   -25550 
  -26434   -26828   -26487   -25434   -24538   -24498   -24822   -24737 
  -23819   -22446   -21980   -23147   -25172   -26802   -26933   -25222 
  -22920   -22110   -23641   -25987   -26960   -26412   -25976   -26829 
  -28611   -29997   -30076   -28926   -27195   -25853   -25456   -25473 
  -25232   -25280   -26831   -29721   -32042   -32144   -30164   -27831 
  -26881   -27560   -28890   -29390   -27996   -25677   -24575   -25047 
  -25625   -25215   -23526   -21204   -20505   -22721   -25699   -26940 
  -26414   -25007   -23665   -23791   -25882   -27891   -27352   -25378 
  -25227   -27317   -29330   -29319   -26698   -23267   -22634   -25893 
  -30029   -31349   -28769   -24960   -23853   -25770   -27868   -28198 
  -26466   -24483   -25180   -27880   -28655   -25938   -21771   -19406 
  -21278   -26316   -29727   -27990   -22580   -17605   -16394   -20061 
  -26015   -29851   -30831   -31741   -33597   -34429   -32487   -28443 
  -24549   -22972   -24686   -28278   -30387   -28606   -23986   -20290 
  -20579   -24597   -28790   -29323   -26095   -22287   -20569   -21695 
  -24622   -26686   -26127   -25151   -27170   -31060   -32215   -28387 
  -21959   -17613   -18324   -22621   -26281   -27148   -26742   -27051 
  -28231   -29543   -30053   -28281   -23835   -20094   -21485   -27202 
  -31812   -31459   -26835   -22241   -21674   -24590   -27534   -28463 
  -27648   -26577   -25693   -23962   -22198   -22592   -25402   -29593 
  -33551   -34557   -30929   -24513   -19449   -18928   -23099   -28609 
  -31137   -29894   -27791   -26962   -26708   -26032   -25629   -26199 
  -27071   -28260   -30711   -33543   -34407   -31896   -26778   -22752 
  -23928   -29124   -32150   -29845   -25189   -21789   -20409   -20439 
  -21374   -22846   -24197   -24850   -24632   -23419   -21969   -22347 
  -25269   -28617   -30349   -30449   -29232   -27022   -25288   -24613 
  -23276   -21242   -22106   -27372   -33116   -35405   -33890   -29431 
  -23658   -19456   -18442   -20012   -23103   -26850   -29883   -31268 
  -32231   -33787   -33689   -29893   -24756   -22133   -22829   -24397 
  -23742   -20615   -18662   -21051   -26260   -29813   -28613   -23592 
  -19311   -19592   -23666   -27631   -28317   -26071   -24514   -26329 
  -30325   -33363   -33384   -30771   -27634   -25802   -25633   -26129 
  -26142   -25828   -26306   -27976   -29934   -30412   -27680   -22354 
  -18256   -19116   -24563   -29965   -30863   -27361   -23522   -22704 
  -24529   -26233   -25920   -24918   -26271   -30003   -32424   -30314 
  -24119   -18481   -18459   -23395   -27746   -27909   -25169   -23232 
  -23872   -25099   -24777   -23731   -23762   -25585   -29018   -32744 
  -34117   -31077   -24837   -19345   -17771   -19943   -22426   -22333 
  -21352   -22933   -26860   -29768   -28975   -24983   -21563   -22180 
  -26296   -30357   -31544   -29949   -28054   -28386   -30759   -31855 
  -29135   -24700   -23016   -25706   -30848   -35391   -36202   -31773 
  -24678   -19390   -17439   -17860   -20401   -24313   -27321   -28551 
  -28294   -26149   -23606   -23642   -25849   -27481   -27796   -27043 
  -24764   -22574   -24202   -29442   -32721   -30335   -24669   -20503 
  -20286   -22716   -25316   -27170   -28294   -29073   -30138   -31263 
  -31927   -31997   -30882   -28539   -26769   -27355   -30005   -32678 
  -32919   -29995   -26260   -24413   -24547   -26119   -28891   -30532 
  -28713   -24915   -22158   -21402   -21644   -20947   -18407   -16937 
  -19955   -25199   -28240   -29153   -30123   -31288   -31619   -29683 
  -24791   -20372   -21142   -26172   -30415   -30564   -26470   -20931 
  -17875   -17851   -18021   -17590   -18558   -21539   -25500   -30060 
  -34364   -36009   -33605   -28509   -24058   -23928   -28543   -33224 
  -33276   -29906   -27477   -27170   -26939   -24688   -20830   -19179 
  -22545   -28952   -34167   -35257   -32857   -30420   -29134   -27090 
  -24185   -22270   -21614   -21617   -22285   -22792   -21724   -19672 
  -18844   -19645   -21143   -24417   -29813   -33417   -32211   -28544 
  -25859   -24706   -24934   -26785   -28252   -27059   -25340   -26242 
  -28487   -29070   -27162   -23580   -20263   -19911   -22994   -26366 
  -27612   -27804   -27692   -25883   -22756   -21671   -24121   -27479 
  -29540   -30785   -31112   -30225   -29768   -29828   -28097   -24988 
  -23087   -22882   -24170   -26994   -29266   -28668   -26249   -25006 
  -26307   -28830   -30411   -30176   -28728   -27319   -26771   -26468 
  -25238   -23494   -23070   -24513   -26134   -26411   -25660   -24919 
  -24879   -25466   -25240   -22987   -19974   -18469   -19556   -23095 
  -27297   -29258   -27970   -25409   -24443   -26275   -29054   -29667 
  -27279   -24035   -23197   -26275   -30465   -31081   -27125   -22258 
  -20993   -24332   -28607   -29130   -24737   -19350   -18747   -24123 
  -30437   -32271   -29386   -26092   -26545   -30519   -33350   -31133 
  -25658   -22216   -23298   -26416   -27255   -23832   -18814   -17479 
  -21972   -28568   -31839   -30349   -27261   -26392   -28443   -30674 
  -29938   -26190   -22929   -23687   -28128   -32679   -34341   -32913 
  -29976   -26403   -22225   -18428   -16497   -17293   -20740   -24965 
  -27491   -28001   -27799   -27391   -26470   -25185   -24320   -24634 
  -26306   -28709   -30743   -31681   -31315   -29717   -27756   -26543 
  -25909   -25365   -25427   -25972   -25911   -25570   -26377   -27905 
  -27845   -25161   -21581   -19823   -20938   -23151   -23742   -22453 
  -21729   -23114   -25393   -27144   -28530   -29760   -30161   -29257 
  -27187   -24300   -21655   -21208   -23673   -27353   -30474   -32331 
  -32373   -31147   -30277   -30114   -29716   -28516   -26978   -26411 
  -27445   -28864   -28975   -27294   -24791   -23488   -24622   -26460 
  -26281   -24171   -22368   -22482   -24475   -26823   -27635   -26183 
  -23687   -22330   -22955   -24507   -25771   -26465   -26844   -27095 
  -27157   -27087   -26997   -26400   -24679   -22489   -21632   -22719 
  -24194   -24736   -25249   -27384   -30414   -31118   -28073   -24050 
  -22800   -25416   -30121   -33520   -32575   -27589   -22532   -21224 
  -23997   -27622   -28479   -26565   -24992   -26026   -29079   -31220 
  -29822   -25888   -23078   -23496   -26215   -28642   -28262   -25166 
  -22732   -23654   -26488   -27869   -26805   -24887   -23747   -24205 
  -25606   -25724   -23696   -21336   -20736   -22702   -26609   -30465 
  -32080   -31081   -29428   -28709   -28314   -27546   -26789   -26509 
  -26986   -27893   -28197   -27332   -25882   -25394   -26763   -28768 
  -29718   -28902   -26199   -22785   -20872   -21367   -23217   -24880 
  -25535   -25355   -25093   -25294   -25803   -25918   -25366   -25400 
  -27434   -30318   -31568   -30360   -27032   -22870   -20703   -21502 
  -22927   -23687   -24675   -25921   -26716   -26666   -25060   -22435 
  -21224   -22032   -23326   -25064   -27562   -29015   -27940   -25431 
  -23400   -22866   -24322   -27356   -30258   -32324   -34080   -34619 
  -32613   -28696   -24586   -22140   -22477   -24486   -26219   -27086 
  -27051   -25964   -24645   -24433   -25213   -25677   -25531   -25627 
  -26457   -28178   -30376   -31426   -30071   -26720   -22879   -20769 
  -21915   -25188   -27996   -29011   -28445   -26492   -23112   -19462 
  -17691   -18970   -22434   -25841   -27654   -28347   -28888   -29101 
  -28489   -27355   -26281   -25722   -26130   -27587   -29203   -29574 
  -28529   -27067   -25763   -25552   -27619   -30423   -30669   -28024 
  -25543   -25797   -28480   -30813   -29660   -24563   -18642   -15790 
  -17479   -22061   -26423   -28368   -27561   -25282   -23816   -24468 
  -26007   -26353   -24953   -22854   -21772   -22894   -25860   -28999 
  -30199   -28287   -24788   -22956   -24260   -27407   -30222   -31239 
  -30591   -29428   -28217   -26897   -25751   -24746   -23577   -22694 
  -23255   -25737   -28840   -30906   -31627   -31137   -29353   -26677 
  -24147   -23087   -24327   -27162   -29805   -31016   -30549   -28463 
  -25409   -22839   -21605   -21312   -21486   -22114   -23205   -24744 
  -26488   -27492   -26982   -25428   -23846   -23211   -24408   -26875 
  -28632   -29173   -29799   -30661   -30616   -29401   -27572   -25893 
  -25542   -26651   -27712   -27967   -27954   -27784   -27206   -26330 
  -25536   -25533   -26482   -27213   -26806   -25600   -24202   -23364 
  -23861   -25093   -25512   -24638   -23568   -23784   -25146   -26001 
  -25878   -25581   -25438   -25542   -25902   -25813   -24669   -22952 
  -21753   -22076   -24073   -26762   -29282   -31263   -32036   -31041 
  -28497   -25513   -23576   -23157   -23869   -25434   -26805   -26715 
  -25790   -25286   -25042   -24497   -23658   -22840   -22709   -23971 
  -26442   -28883   -30504   -31680   -32020   -30381   -27611   -25980 
  -26526   -28972   -32119   -33871   -33019   -30441   -27660   -25581 
  -24503   -23836   -22848   -22528   -24304   -26932   -27783   -26272 
  -23672   -21519   -21051   -22141   -23329   -23791   -23954   -24609 
  -25852   -26469   -25500   -23832   -23176   -24482   -26920   -28332 
  -27837   -26738   -26503   -27072   -27337   -26829   -26283   -26523 
  -27719   -29135   -29385   -28228   -26941   -26207   -26099   -26925 
  -27973   -27820   -26430   -24898   -24142   -24678   -26138   -27301 
  -27552   -27417   -27355   -26932   -25560   -23527   -21914   -21726 
  -23087   -25070   -26345   -26059   -24698   -23827   -24213   -25269 
  -26188   -26442   -26125   -25870   -25806   -25606   -25092   -24301 
  -23854   -24572   -26337   -28080   -28607   -27500   -25847   -25227 
  -25724   -26077   -25222   -23245   -21906   -23325   -27043   -29857 
  -29253   -25974   -23237   -23545   -26307   -28980   -29752   -28929 
  -28397   -29011   -29520   -29141   -28533   -28196   -28301   -28628 
  -28177   -26613   -25266   -25621   -27359   -28444   -27484   -25236 
  -23587   -23963   -25925   -27166   -26347   -24727   -24104   -24737 
  -25508   -25285   -23895   -22118   -21201   -21955   -24132   -26635 
  -27969   -27403   -25836   -24637   -24452   -25159   -26148   -27064 
  -27974   -28852   -29550   -29384   -27488   -24814   -23560   -24516 
  -26958   -29663   -31058   -30450   -28867   -27109   -25161   -24063 
  -24723   -25910   -26635   -27662   -29284   -30631   -30561   -28262 
  -24547   -21821   -21699   -23483   -25269   -25888   -25407   -24613 
  -24356   -24678   -25046   -25405   -25774   -25839   -25899   -26769 
  -28417   -29735   -29582   -27962   -26331   -26028   -26550   -26503 
  -25339   -23843   -23616   -25011   -26157   -25566   -23982   -23122 
  -24055   -26110   -27391   -27121   -26033   -25068   -25088   -25984 
  -26531   -26543   -27016   -28156   -29358   -29806   -28601   -26172 
  -24547   -24852   -26387   -28026   -28802   -28387   -27595   -27170 
  -26852   -26241   -25211   -24047   -23888   -25420   -27648   -29211 
  -29343   -27611   -24853   -23260   -23723   -24644   -24509   -23635 
  -23014   -23325   -24282   -24355   -22778   -20979   -20619   -21802 
  -23481   -24621   -25112   -25485   -26145   -27174   -27916   -27797 
  -27722   -28640   -29905   -30429   -29880   -28740   -27765   -27095 
  -26362   -25652   -25313   -25255   -25439   -26181   -27276   -28281 
  -29466   -30600   -30460   -28987   -27415   -26157   -24821   -23531 
  -22869   -22997   -23629   -24857   -26709   -28134   -28301   -27472 
  -25678   -23411   -22511   -23463   -24552   -24898   -25078   -25600 
  -26948   -29114   -30561   -30036   -28591   -27997   -28502   -29338 
  -29988   -30049   -29243   -28283   -28167   -28575   -28516   -27689 
  -26337   -25105   -24988   -26118   -27302   -27430   -26588   -25469 
  -24471   -23728   -23352   -23299   -23425   -23797   -24517   -25074 
  -25014   -24919   -25166   -25261   -25263   -25482   -25678   -26158 
  -27488   -28665   -28055   -26238   -25151   -24792   -24341   -24402 
  -24748   -24024   -22963   -23242   -24452   -25455   -26122   -26273 
  -25497   -24507   -24443   -24991   -25474   -26358   -27552   -28040 
  -27926   -27747   -27241   -26532   -25956   -25197   -24587   -25074 
  -26661   -28460   -29339   -28883   -27993   -27117   -25999   -25049 
  -24170   -23064   -23032   -24858   -27193   -28543   -28225   -26330 
  -24335   -24025   -25672   -28003   -29309   -28729   -27162   -26557 
  -27565   -28625   -28148   -26350   -24452   -23537   -23938   -24602 
  -24094   -22859   -22685   -23892   -25087   -25182   -24321   -23423 
  -23450   -24734   -26559   -27756   -28174   -28680   -29802   -31264 
  -31990   -30865   -28480   -26839   -26886   -27729   -27981   -27249 
  -26465   -26422   -26412   -25417   -23830   -22854   -23175   -24748 
  -26766   -27939   -27866   -27561   -27695   -27315   -25532   -23215 
  -22003   -23020   -26119   -28902   -28678   -26229   -24632   -25056 
  -26092   -25847   -23839   -21775   -21613   -23056   -24721   -25952 
  -26048   -24753   -23562   -23873   -25255   -26511   -26840   -26207 
  -25192   -24439   -24624   -25866   -27049   -27253   -26836   -26392 
  -26289   -26789   -27376   -27240   -26716   -26596   -26627   -26388 
  -26084   -25609   -25084   -25388   -26376   -26788   -26347   -26137 
  -27178   -28953   -29651   -28614   -27286   -27056   -27765   -28541 
  -28833   -28655   -28456   -28611   -28925   -28553   -26800   -24453 
