Origin Time       2024/04/02 04:24:00
Lat.              40.133
Long.             141.712
Depth. (km)       71
Mag.              6.0
Station Code      IWTH10
Station Lat.      40.1391
Station Long.     140.9529
Station Height(m) 308
Record Time       2024/04/02 04:24:51
Sampling Freq(Hz) 100Hz
Duration Time(s)  139
Dir.              5
Scale Factor      7845(gal)/8223790
Max. Acc. (gal)   23.474
Last Correction   2024/04/02 04:24:51
Memo.             
[...]
     336      337      340      340      334      332      333      337 
     341      341      337      334      336      332      329      336 
     340      338      336      333      333      333      334      336 
     334      336      338      340      340      334      337      337 
     332      338      341      334      336      337      334      338 
     337      332      338      338      333      334      333      332 
     336      338      338      340      341      336      330      332 
     336      337      340      340      337      334      329      336 
     342      338      332      332      332      330      336      338 
     334      336      338      336      330      330      334      338 
     340      338      333      333      336      336      333      334 
     336      334      334      337      336      336      337      336 
     337      336      333      334      334      337      340      338 
     334      333      337      338      332      329      336      341 
     337      333      332      330      334      338      341      336 
     329      333      337      337      342      341      334      336 
     336      334      336      336      334      338      338      334 
     334      334      333      337      336      332      334      337 
     338      341      338      337      336      330      332      336 
     336      337      340      337      329      329      333      336 
     337      332      326      326      321      315      321      315 
     309      307      290      272      263      245      230      221 
     203      178      152      125       98       66       21      -32 
     -99     -170     -226     -267     -284     -257     -168      -33 
     124      292      441      554      657      731      724      612 
     415      168     -102     -383     -631     -731     -634     -508 
    -527     -666     -841     -961     -974    -1042    -1216    -1162 
    -681      -28      477      662      704     1367     2727     3554 
    3279     2417     1525     1367     2160     2691     1810     -222 
   -2187    -2670    -1229      824     1919     1422     -282    -1553 
   -1426    -1327    -2363    -2974    -1738      568     2987     4082 
    1860    -1976    -2821      473     4666     6393     4558      546 
   -2235    -1682        0     -178    -1763    -2336     -399     2829 
    3873     1233    -2566    -4997    -5857    -4718    -1671      676 
    1078     1502     2502     2343     1312      946     1317     3099 
    6365     7684     4116    -2775    -8102    -6589     2385    11168 
   11850     6554     1422    -1067      675     4098     2492    -1422 
    1309     7453     7317     1950    -2427    -3881     -576     6858 
   10014     3832    -3842    -4672    -2170    -2623    -5146    -6910 
   -6713    -3100     2957     7395     8077     6393     3442     -294 
   -2782    -3981    -5197    -3904      796     4521     4309      861 
   -3607    -5759    -3973    -1904    -2598    -2926    -1036     -133 
   -2471    -6373    -9094    -9671    -6633     1575    10663    13416 
    9979     5547     -206    -8305   -11007    -2893     7365    10215 
    7657     4141     2131     4660     6952      912    -7398    -5867 
    3669     9433     5952    -2786    -9680   -10350    -7470    -6183 
   -4885     1111     8448     8908     1572    -8660   -16522   -14744 
   -1101    13981    19079    14570     6168    -2894    -8550    -8176 
   -4452      792     6286     7078     2566     -400      750     1536 
     841     1576     3796     5556     5121      880    -7042   -13069 
  -10195    -2749     1930     6444     9490     6654     3680     2590 
   -1328    -2481     3451     6916     6061     8221     8599     1329 
   -6964   -10790   -10300    -5063     2913     7763     5624    -1792 
   -8943   -11141    -7025     1873     9404     9369     4166     -800 
   -3998    -4938    -3422     -283     1239    -1877    -6870    -8939 
   -7381    -5073    -2972      325     3154     5219     9239    11711 
    8401     3515      714    -1007    -1225      689     3389     5124 
    5012     2849    -1206    -3867    -2319      -22       45      298 
    3368     6997     5656     -125    -4386    -6096    -6752    -5362 
   -2362      220     1625     1559     -101    -1458      604     5873 
    9678     7264    -1102    -9076   -10714    -6181     -172     2227 
    1008      469     1236      513    -1871    -3534    -2857     -762 
     315     -341    -1055     -523     1143     2683     2025     -288 
    -498     2562     5803     6994     6187     3581      -79    -3373 
   -4351    -1861     2092     5579     8274     8675     5768      988 
   -2925    -4399    -3480      -63     4807     8086     7823     5576 
    3137      612       86     2359     3092      153    -3368    -5460 
   -5526    -4156    -5139    -8359    -8761    -5740    -3705    -5063 
   -6934    -6183    -3559     -662     2073     4954     7460     8738 
    9621     9139     5054      290      -39     3450     5277     3520 
    1854     1769     1846     2497     3015     1080    -2106    -3588 
   -3477    -3125    -3327    -4792    -5900    -4530    -1610     1331 
    3060     2330      305      -94     2320     4811     4044     1235 
    -878    -1848    -1200     1104     2643     1887     -155    -3288 
   -6797    -6851    -2168     3345     6399     5733     1759    -1950 
   -3537    -4117    -2979     -379     1256     1472      676     -760 
   -1544     -993      481     1838     1420     -731    -1282      882 
    2088      882     -942    -1925      -32     4471     8020     8658 
    6151      942    -4368    -6529    -3634     2743     6689     5780 
    3991     2785      756    -1799    -5024    -7662    -5903    -1304 
    -309    -2521    -2299      623     3657     5790     5798     2978 
   -2290    -6701    -5911    -1347     3472     7308     8266     5400 
    1791     1239     2620     2315      367    -1043    -1146     -508 
     778     2663     2937     1498     1359      487    -4090    -7635 
   -6729    -4684    -3017     -982     -182     -957     -284     2524 
    3981     2278     -311    -1767    -2168    -1008     1904     4575 
    5690     4972     2092     -560     -754     -438     -325      517 
     484      -43      768     1331     1081      927      164     -333 
     444     1377     2419     3014     1463     -827    -1929    -1999 
    -720      436     -838    -2486    -2039     -390      992     1182 
     310     -696    -1768    -2559    -2080     -827      182      799 
     689      414     1309     2164     1962     2889     3974     2226 
     -33     -689     -853      171     1579      440    -1617    -1451 
    -533     -648    -1158    -1590     -382     2459     3244     1891 
    1215      739      203      811     1777     2274     2741     2138 
    -468    -2462    -2347    -2722    -3360    -1602      851     1536 
    1101       36    -1115    -1156     -959    -1505    -1386       16 
    1653     3177     4295     4526     3680     2066     1254     1264 
     572      191     1628     2519     -395    -4428    -4788    -2245 
    1502     5699     7207     5410     2369    -1682    -4633    -3341 
     190     2230     1567    -1274    -3133    -1104     3372     6853 
    6539     2232    -2799    -5171    -3967    -1425     -406     -211 
     673      962     -283    -1283     -133     2724     5171     4677 
     870    -2749    -3622    -2566     -531     2145     4641     4455 
     712    -2362    -2280    -1368     -963     -993    -1513    -1624 
   -1232    -1325    -1256     -573     -207      449     1836     2563 
    2693     3245     3545     2681     1183      557     1858     3694 
    3985     3150     1701     -132     -422      128     -544    -1093 
   -1039    -1366    -1692    -2026    -2659    -3396    -3180     -789 
    2149     2793     1151     -882    -2305    -2477     -494     2207 
    1833    -2076    -5082    -4500    -2351     -429     1713     3237 
    2442     1005     1174     1231     -149    -1439    -2324    -2839 
   -1386     1455     3071     3049     2848     3523     4282     3542 
    2268     2488     3971     4976     3697      -74    -3538    -3910 
   -1744     1545     4595     4823     2558      923     -437    -2631 
   -3231    -2068    -1964    -2255    -1169      103      854     1557 
    1300     -349    -1493    -1027     -174      287      693      907 
     688      723     1771     2897     2558     1512      896      102 
    -715     -845     -356      913     2407     2500      958     -576 
    -930     -621     -508     -454      157     1549     3364     4645 
    4259     1906     -453     -198     1449     1333     -508    -2106 
   -2174     -862     1102     2470      514    -3415    -3990    -1655 
    -243      558     1377      661     -552       55      992     -332 
   -3122    -4090    -2435    -1688    -2423     -926     1691     1444 
     -39     -265    -1088    -2851    -3227    -1923      -98     1858 
    3457     2992      301    -1590     -560     2416     5571     7723 
    7234     3531      -60     -696     -770    -2527    -3439    -1871 
     481     2997     4278     1571    -3022    -4658    -2787     -402 
     410        6     -224      858     2060      530    -1777     -804 
    1682     3045     4110     4436     3037     1431      430     -357 
     290     1637      988      217     1210      984     -629     -824 
   -1228    -3522    -4307    -2312     -414      630     1038     -280 
   -2336    -2384     -484     1644     3388     3264     1173     -438 
   -1228    -1707     -911     1278     3912     6689     8152     5078 
    -722    -2837    -1495    -1416    -1372      788     3025     4349 
    4270     1929    -1147    -3086    -3330    -2281     -730      847 
    1102     -819    -2394    -1378      789     2937     5017     5109 
    2222     -930    -1728    -1027     -877    -1104     -797     -918 
   -1661     -977      756     1229     1424     1460    -1305    -4394 
   -3553    -1235     -363      253      120     -970     -584      -14 
   -1462    -2262     -368     2037     3095     3527     3106     1236 
    -400     -984     -137     2828     4729     2741     -156    -1077 
    -538      801     1798     1128     -166     -418      384      969 
     688      633     1263     1177     -286    -1512    -1020      986 
    3677     4845     3033      454     -932     -832      946     2101 
     488    -1725    -2754    -3121    -1891      762     1836      892 
     -67     -866    -1543    -1351     -184     2191     4981     5472 
    2435    -2101    -4800    -3927     -664     2809     4604     3662 
    2477     3697     4121     1713      372     1135     1723     1764 
     758     -978    -1709    -1310      210     2031     1339     -540 
     282     1444     -696    -3600    -4915    -4738    -1449     3757 
    5733     2752    -1938    -3889    -2292     -695     -263      562 
     990      487      697     1659     1703      611     -310      -28 
     946     1696     2717     3789     4167     4342     3518     1637 
    1121     1699     1310      639      961     1591     1863     1919 
    1665     1621     1715      747     -164      140     -515    -2990 
   -5366    -7152    -8451    -8419    -7438    -6579    -5917    -5786 
   -6829    -7310    -4814    -1161      319       85      -58      194 
    1833     5493     8330     8068     6697     5764     4197     2057 
     232    -1094    -1124      217     1912     3223     3006     1433 
     230     -935    -3021    -3994    -2411     -915     -907     -380 
     623      625      496     1186     2300     3813     5660     7838 
   10557    12881    13815    12823     9383     4438     -596    -4930 
   -6450    -3071     3233     8112     9817     8733     4865     -831 
   -5671    -7578    -7164    -6733    -7751   -10613   -14183   -15344 
  -13240    -9667    -4461     2941    11030    17456    19561    16059 
    8417     -450    -7376    -9811    -7786    -3489     2123     8395 
   12820    14332    13855    11622     8020     2917    -3867    -9884 
  -13792   -16919   -18828   -18146   -15156   -10450    -4904    -1170 
   -1398    -3817    -5054    -4830    -4544    -3539    -1586        5 
    1614     3445     4666     5790     6313     3969    -1035    -4479 
   -2956     2435     8862    14044    15805    12708     5950     -706 
   -3910    -1881     4688    10844    10605     2234   -10122   -18364 
  -17377    -9841     -406     8669    15007    17659    17690    14670 
    7704    -2029   -10959   -14307   -10261    -3287      513       56 
   -2647    -4637    -2258     1864      808    -4251    -6590    -4422 
     793     7052     8976     3666    -3315    -6837    -8125    -8282 
   -7022    -6440    -6952    -5545    -2280      230     1957     3462 
    3303     1726     3264     9220    12739     8842      853    -5937 
   -7798    -3072     4849    10443    11242     7465     2689     1097 
     834     -529      494     5864    11728    13896    10318      922 
  -10494   -17578   -18087   -15391   -10876    -3261     4702     8318 
    6327     1150    -1528     3978    15657    23847    21767    10212 
   -4561   -14149   -14735    -9163    -3148     -783    -1035    -1223 
    -411     2331     6293     8127     5028    -1980    -7801   -10003 
  -11484   -13915   -15614   -13105    -4895     3578     6162     4039 
    1894     3395    11010    21327    24954    19606    11362     3068 
   -4222    -9094   -12131   -11604    -5649     2524     8386     9521 
    4857    -4266   -11769   -10920    -2216     6565     7349    -1675 
  -12934   -15600    -8314       66     3511     2979     -364    -3727 
   -2552      681     1949     4684    10559    14686    14436    11572 
    7148     2010    -1252    -2513    -4430    -6906    -8001    -7592 
   -4988     1642    10389    15749    13952     6720      -25    -3990 
   -7179    -9028    -7979    -5107    -2739    -1659    -1120    -1988 
   -4010    -4101    -1647      985     2099     2388     3055     3801 
    5139     7906    11403    14527    14843     9161    -2228   -13419 
  -17059   -12298    -4650     1144     3300     2546     1050    -1626 
   -6835   -10598    -7793    -1620      537    -1903    -4702    -5883 
   -4326      554     6072     9478    11145    11412     8403     2332 
   -3024    -5714    -5958    -3840    -1080      530     1401     1647 
    1162      765     -714    -3204    -2794      454     3539     6535 
    8874     8673     5800     1969      190     1435     2870     2411 
    1031     -108    -1058    -2394    -3933    -5054    -6249    -6876 
   -5880    -5476    -6107    -4618    -1030     3811    10828    16540 
   15892    10130     3576    -2146    -6176    -6457    -3102      368 
    1364     1424     2496     3524     3507     2085    -1329    -3801 
   -1429     2889     2596    -3067    -8684    -9551    -5310      762 
    3933     2538      340      869     1775      580      679     3295 
    4152     2007    -1725    -6160    -8353    -5532      465     4877 
    6060     6031     5304     2960      187    -1209    -1814    -2378 
   -2721    -3078    -2370     -969    -2039    -4334    -4050    -1850 
    1306     6666    12102    13109     8845     2587    -1645    -1821 
    1325     5015     6683     6975     7423     5508     -116    -3623 
   -1737      591     -264    -3917    -8334    -9585    -7117    -4720 
   -3561    -1524     1575     3213     3057     3353     3777     2863 
     710    -3466    -7762    -6933    -1584     3662     7387     8127 
    4774      699    -1098    -1251     -924    -1827    -4579    -5590 
   -2249     2430     4361     2668     -911    -4209    -6087    -5636 
   -3527    -3136    -5223    -7063    -8094    -9204    -8911    -4849 
    2432     8996    12226    12325     8788     3279     1028     2263 
    2385     2034     3873     4598     2330      706      765     1305 
    2116     1308    -1101     -724     3256     6084     5722     4178 
    2204     -167    -1541     -612     1979     3612     2610     -525 
   -4380    -6146    -3843      472     3165     2646      290    -2057 
   -4210    -5428    -4326     -874     3022     4328     2096    -1971 
   -5053    -4766    -2008      -67     -843    -2798    -3171    -1227 
    2955     7746     7969      888    -7738    -9451    -3264     4033 
    6724     5535     4082     3782     3805     3661     3844     3974 
    2631     -228    -2430    -1709     1012     2444     2112     3013 
    6489     9504     8079     1987    -4419    -5684    -2045      884 
    1402     1501     1381     1703     2878     2539     -217    -3142 
   -4567    -4274    -2600    -1196    -1705    -3276    -3258     -572 
    2204     2092      -89    -1530    -1630    -2392    -5568    -9717 
  -10444    -5919       54     3692     4522     2498     -492       90 
    4495     7303     5841     3230     1710      395     -560     -515 
     -91      156      604     2147     3495     1957    -1372    -2444 
       9     3208     4521     3834     1856     -444    -2560    -4735 
   -4734     -450     4723     6768     6004     4041     2636     4537 
    8930     9729     4176    -3809    -9513   -10027    -6246    -2566 
    -945      504     3249     5225     4197     2639     3021     3234 
    1861      351     -822    -1575     -791     1185     3392     5846 
    5945     1073    -4610    -5611    -2978     -446      553     -249 
   -1696     -589     3303     5229     2034    -4656   -11723   -14357 
   -9173     -923     4788     8680     9583     4641    -1807    -3495 
    -349     3373     3782     1313     -627       44     2065     1387 
   -2496    -5368    -5055    -1971     2660     6164     6338     3442 
    -214    -2461    -3256    -3638    -3886    -3314    -1414     1200 
    2864     1467    -2265    -4779    -4924    -3327    -1139       44 
    2308     6435     7074     2297    -3755    -7684    -8041    -6228 
   -4918    -2951     1007     3693     2515     -422    -2201    -1771 
    1181     4978     6114     4307     2805     3339     5044     6200 
    5080     1611    -1690    -1463     2837     6782     5768     1412 
   -1652    -2556    -2027      333     2332     2002     1080     -834 
   -4773    -7492    -7084    -4735    -1206     2135     4101     5512 
    7264     7911     5260     1116    -1138    -1756    -2172    -2620 
   -2176     -560      -54    -1381    -2652    -2346      693     5701 
    9050     7400     1858    -3117    -6304    -8549    -7549    -2288 
    3492     7214     9261     9112     6874     4356     2709     2740 
    3514     3229     2257       39    -2916    -2319     1287     2998 
    3072     2857      495    -2370    -1787     1512     3990     3964 
    1588    -2173    -5188    -5918    -4718    -2652    -1586    -2404 
   -3537    -3447    -1591     1175     2138       71    -2667    -3121 
    -592     3142     5293     4395     1413    -1462    -2463    -1360 
    -159    -1250    -4064    -5595    -3825      265     2886     1532 
    -765      140     3827     7258     7364     3316    -1449    -3284 
   -2574    -1289     -276     -635    -2575    -3281     -758     2889 
    4850     4819     2994     -546    -3601    -3967    -2239     -201 
