Origin Time       2024/04/02 04:24:00
Lat.              40.133
Long.             141.712
Depth. (km)       71
Mag.              6.0
Station Code      IWTH04
Station Lat.      39.1809
Station Long.     141.3909
Station Height(m) 620
Record Time       2024/04/02 04:24:56
Sampling Freq(Hz) 100Hz
Duration Time(s)  135
Dir.              5
Scale Factor      7845(gal)/8223790
Max. Acc. (gal)   54.720
Last Correction   2024/04/02 04:24:56
Memo.             
[...]
   -2793    -2798    -2805    -2812    -2818    -2822    -2830    -2833 
   -2822    -2810    -2814    -2824    -2814    -2791    -2797    -2826 
   -2829    -2812    -2840    -2899    -2909    -2890    -2937    -3015 
   -3009    -2903    -2825    -2871    -2949    -2840    -2575    -2552 
   -2932    -3160    -2727    -2234    -2582    -3321    -3350    -2813 
   -2701    -2995    -2797    -2228    -2269    -2705    -2536    -2187 
   -2685    -3009    -1995    -1387    -2386    -3437    -4102    -4862 
   -4558    -2874    -1710    -2292    -3723    -4563    -4077    -2187 
     168     1084     -580    -3584    -5360    -4981    -3580    -2326 
   -1840    -1860    -1921    -2897    -4507    -4475    -2646     -945 
    -553    -1019     -456      353    -2292    -7065    -8229    -4888 
   -1757    -1898    -3507    -5289    -7960    -8478    -3677     2513 
    4641     3677     3348     2497    -1942    -7426    -8617    -5339 
   -2501    -3148    -4703    -4156    -3087    -2801    -1545      228 
    -167    -2101    -2791    -2760    -4382    -7614    -9011    -5121 
     851     2180    -1692    -6336    -8005    -5414    -1028     1031 
    -720    -3605    -2762     2254     4957     1175    -3503    -2097 
    1499     -599    -5309    -5545    -4336    -7136   -10331    -9000 
   -5918    -5165    -5846    -5881    -5699    -5258    -2300     2056 
    2524     -843    -1070     2504     1428    -4630    -6207    -3079 
   -2381    -2544      792     2988     -245    -2631      463     1331 
   -6417   -15452   -15282    -5867     4079     6740     1304    -7221 
  -11534    -7195      255      912    -4676    -6535     -776     4869 
    3388    -2245    -6469    -7380    -4656     -749     -564    -5236 
   -9256    -6258     1680     4835    -1494    -9999   -10725    -3773 
    2000     1027    -2975    -3869     -847     2050     1229     -469 
    1823     4139      704    -4276    -6509    -8883   -10914    -9798 
   -9088    -8969    -3311     3897     3380    -1823    -4548    -5456 
   -6247    -4133      923     3415     2855     4830     7844     5032 
   -3192   -10530   -11885    -6648     -957    -1975    -6844    -6619 
   -1950     -777    -4615    -8657    -8649    -5780    -6083   -10600 
  -12229    -7686    -1656     3032     6220     6810     7137     9139 
    7811      804    -6173    -9505    -8816    -2666     4328     3514 
   -2717    -5043    -2681     -534    -1193    -5097    -9427    -9501 
   -6262    -5964    -9259    -9636    -4422     1618     2957    -1632 
   -8603   -11605    -7813    -2693    -1657    -2046     -118     2917 
    4425     2428    -2951    -6507    -4071      122     1281      820 
    1340     3780     5559     1139    -8503   -13829    -9829    -3578 
   -2677    -4274    -4244    -5026    -6046    -2664     1904       59 
   -6588   -10145    -8791    -6100    -4214    -4425    -6469    -6970 
   -3956     1479     5865     5413     2214      712      184    -1293 
   -3215    -4255    -3133     -268     2184     2724      615    -5296 
  -12730   -13973    -7373    -2390    -4085    -6359    -4607    -1278 
     588    -1058    -6895   -10932    -6462     2232     6922     7237 
    5776     2682     -418    -1300    -2030    -5132    -7792    -5840 
    -305     3052     -162    -7327   -11365    -9819    -7416    -8378 
  -10347    -9061    -4999    -1320      -54    -1437    -3169    -3071 
   -2335    -2693    -2671       94     3600     4437     4190     4837 
    4423     2400      757      369      531    -1119    -6392   -12198 
  -13863   -11454    -7888    -4612    -2200    -1799    -3666    -6083 
   -7287    -6655    -4563    -2988    -3079    -2326      923     3808 
    3851     1485    -2201    -4761    -4055    -1316     1165     1354 
   -1413    -3817    -3076    -2465    -6266   -12132   -13474    -8564 
   -2559      318      129    -2331    -4891    -4186     -445     3368 
    5337     4873     2663      884     1221      819    -4294   -10201 
  -10864    -8429    -6689    -4588    -2222    -2713    -5520    -6720 
   -6967    -9323   -10845    -7550    -2390     1032     3612     4371 
     880    -2668     -731     2991     2224    -1074    -1614      567 
    1657     -268    -3620    -5737    -6311    -6361    -5124    -2691 
   -1922    -3643    -5378    -6183    -6859    -6828    -6035    -5769 
   -4893    -1707     1058      418    -1285    -1270     -992    -1964 
   -2035     1383     5375     3751    -2363    -5379    -4052    -3470 
   -4298    -4027    -3451    -3662    -4650    -7001    -8802    -7603 
   -4514    -1193      942      -29    -3006    -4414    -3123    -1181 
    -186      310     -325    -3341    -5799    -4448    -2241    -2550 
   -2901     -904      864     -186    -2664    -3395    -1298       -8 
   -3574    -9158   -10831    -7681    -3816    -3734    -6178    -6052 
   -3807    -2527    -2087    -2928    -4348    -3372     -942      615 
    2563     5498     6520     3148    -2478    -5246    -3811    -1890 
   -1293     -913    -1742    -4233    -6434    -8147    -8397    -5049 
   -1854    -3385    -6268    -5378    -1570      175    -2362    -6200 
   -8505    -8920    -8445    -8001    -5236      962     5005     3627 
    1290      831      846     1109     1723     1660      579    -1155 
   -2929    -3894    -3469    -1714        1     -297    -2538    -4735 
   -6367    -8352    -9957    -9437    -7480    -6411    -6156    -5418 
   -4761    -3500      -97     1944     -697    -3588    -2830     -976 
     464     2081     1946     -213     -448     1382     -147    -4572 
   -4477      170     1394    -2705    -7179    -9748    -9949    -6625 
   -2843    -2628    -4070    -4070    -2565     -704     -481    -2609 
   -5297    -7061    -6405    -2351     1609     1220    -1823    -2739 
    -583     1155     -595    -5016    -8106    -7252    -4434    -2232 
    -518      313     -920    -2504    -2165    -1497    -2527    -3333 
   -1505     1498     2149     -826    -4725    -6141    -5509    -5645 
   -7175    -7952    -6227    -3468    -2363    -3191    -5286    -7935 
   -7843    -2889     2948     4087     -568    -6369    -7005    -2265 
    1817     1090    -2029    -2336      745     3732     5329     5279 
    1507    -5543   -10698   -10523    -8021    -6705    -5235    -2586 
   -1136    -1009      352     1258    -2331    -7762    -9648    -9269 
   -8685    -5395     -198     2450     1907     -236    -3218    -4972 
   -4071    -2574    -1887    -1039     -621    -1601    -3149    -5086 
   -6434    -4390       91     2497     2037     1355       97    -3257 
   -5406    -3661    -2049    -3115    -4180    -4687    -5221    -3854 
   -1574    -2883    -6924    -7433    -3337     -452    -2408    -6559 
   -8675    -7817    -5676    -3528    -1105     2386     5655     5607 
    1651    -2968    -4241    -1961     -257    -1645    -4383    -5443 
   -3082      544     1175     -653    -1182    -1516    -5121    -9340 
   -8826    -5220    -3964    -5003    -5557    -5773    -5250    -2828 
    -664     -774    -2166    -3365    -2817     -160     2084     2640 
    3055     2897      704    -2263    -4550    -6184    -6620    -4380 
    -348      986    -2211    -6084    -7850    -8311    -7688    -6173 
   -5726    -6740    -6748    -4764    -3082    -3500    -3978     -413 
    6633    10100     5659    -2239    -6864    -6050    -1983     1582 
    2350     -291    -5968   -11307   -12270    -9100    -4661     -800 
    1910     2894      837    -3460    -6524    -6906    -5792    -5244 
   -6428    -5900     -383     4770     2328    -5220    -9355    -6489 
     -52     5537     7838     5202    -1117    -6712    -9848   -11276 
   -9242    -3732      274       71    -2749    -6458    -7812    -4040 
     460      325    -1586     -936     1178     1989     -270    -5702 
  -11250   -13031   -10701    -6269      681     9182    11884     5656 
   -1275    -2006      631     1021    -3195   -10143   -15380   -16911 
  -14756    -8195     -234     3573     3208     2282     1075    -1779 
   -3929    -1857     1852     1296    -3284    -7443    -9622    -9293 
   -5305      677     4603     4565     3196     3669     3913      504 
   -4584    -8095   -10427   -12059   -11561    -8274    -3501       83 
     344    -2315    -5054    -4098     1221     5695     3446    -4293 
   -9509    -7770    -4063    -3169    -3213    -2081       24     2550 
    3462      378    -4602    -5184     -648     1476    -2204    -5979 
   -4828     -664     1732      -93    -5161    -9991   -10987    -8199 
   -5431    -5371    -6226    -4272      310     3052     1156    -4067 
   -9300   -10867    -7082     -535     3740     3445     1101      480 
    2285     3041      302    -1854     -468       35    -3067    -6654 
   -7735    -6138    -4275    -4608    -5919    -5553    -3647    -1938 
   -1730    -3940    -7635    -9558    -7859    -5003    -3703    -1522 
    3457     6513     4703     2047      922     -606    -1995    -1422 
   -1193    -4140    -8332    -9420    -6393    -2710    -2581    -6582 
   -9979    -8428    -3804     -749    -1728    -5584    -7365    -3299 
    2775     4194     1672      673     1301       93    -2297    -3731 
   -4307    -3843    -2639    -2006    -2667    -5094    -6733    -3631 
    1925     3426    -1459    -8152    -9814    -5805    -2068    -1718 
   -2686    -3798    -5135    -4351     -444     2039      322    -2149 
   -2903    -3260    -4436    -5950    -6141    -3977     -469     2492 
    2330    -2879    -9350    -9697    -3408     2637     4676     3375 
    -870    -4868    -3604      896      783    -5634   -10737    -9450 
   -5494    -2540     -441     -445    -4159    -9050    -9589    -4311 
     564     -595    -5034    -6933    -5287    -1553     3268     5584 
    3075     -916    -3792    -5894    -5992    -3354     -371     1158 
    1035    -1042    -2964    -1804     -472    -2764    -5247    -5034 
   -5728    -7711    -6273    -2100     -322    -2712    -7341    -9063 
   -4542       87    -1555    -4700    -4001    -2434    -2331    -2093 
   -1428     -706      827     2947     3522     1390    -1615    -3777 
   -4978    -4882    -4888    -6743    -7789    -5274    -1545     -276 
   -1794    -4446    -6723    -6627    -3555     -260     -469    -4391 
   -6679    -3474      730      414    -2957    -5258    -4599    -1236 
    1956     1487    -1651    -3118    -1988    -1453    -2752    -3553 
   -3046    -2791    -2697    -1879    -1096     -992    -1534    -3923 
   -8692   -12664   -11834    -6176       67     2914     2560      912 
   -1478    -3900    -4992    -4178    -2074     -637    -1514    -3492 
   -4450    -4156    -2409      417     1314     -409    -1451    -1806 
   -3847    -5162    -3245    -1244    -1911    -3732    -4398    -3071 
    -953     -399    -2733    -6893    -9571    -9023    -6642    -3042 
     268      319     -814     -198     -631    -2651    -2365     -810 
   -2041    -4900    -5840    -4780    -2879      513     4737     6609 
    4168    -2164    -9616   -13090   -11041    -8270    -6913    -3429 
    1077      926    -2747    -4276    -2839     -783     -295    -3118 
   -6998    -6785    -1927     2369     1378    -3107    -4765    -1678 
    2328     3808     2528      256    -1640    -2504    -3292    -6913 
  -11577   -10627    -4553     -934    -2232    -6158   -11241   -13892 
  -10547    -3865     1737     5377     6542     4225      257    -2955 
   -5688    -6434    -1958     4588     6119     2725      847     1410 
    -584    -4757    -6478    -5470    -4108    -3750    -4309    -4340 
   -4388    -6863   -10486   -13003   -15847   -17074   -11183    -1856 
    1404     -233     1108     4818     5694     4642     4788     4375 
     622    -3673    -3797    -1108     -751    -2486    -1792      708 
    1071     -144    -1065    -2536    -4648    -7145   -11441   -15616 
  -14519    -9124    -5859    -5711    -4567    -1942     -614    -1109 
   -1798    -1350     1005     4345     5371     2724     -660    -2142 
   -2043     -967     1003     2567     1233    -2893    -5097    -3662 
   -3777    -8372   -13332   -13779    -9957    -5644    -2847    -1922 
   -3967    -7128    -6552    -2454     -135    -1273    -2000      502 
    4391     6427     4228    -2169    -6887    -3978     2317     3904 
    1034    -1707    -2999    -3176    -2641    -2258    -2740    -4401 
   -6018    -5617    -4131    -4074    -5385    -5729    -3673    -1560 
   -2479    -4405    -3685    -1086      610      592      337      680 
    -461    -3454    -5548    -6531    -6590    -3334     1618     2255 
   -1988    -5489    -6793    -9266   -12179   -11979    -9138    -6335 
   -4699    -4723    -6382    -7862    -7445    -5904    -4386    -2038 
     812      400    -5501   -12456   -12923    -5451     3429     7712 
    7591     6485     6232     5736     3762      529    -3886    -8765 
  -11284    -9332    -5022    -2671    -3582    -6300    -8642    -7221 
   -1848     2423     2771     1479     1200     2905     5466     5321 
     907    -4288    -6978    -7452    -7256    -9131   -15045   -20173 
  -16179    -4041     4723     2772    -4274    -5935      -74     5610 
    4552    -2565   -10471   -12947    -9248    -4054     2178    11229 
   17961    14469      658   -13765   -19830   -18643   -14006    -5508 
    1995    -1625   -14882   -24132   -21451   -11863    -2872     3785 
    6384     3114      334     5989    17705    25639    24209    16216 
    5040    -5532    -5266    12171    37655    54562    54164    39556 
   16681    -8066   -24945   -30257   -31251   -32871   -27959    -8888 
   12534    13086   -10196   -35371   -41438   -25932    -2513    10624 
    3056   -18299   -32260   -22682     2656    16884     5305   -20575 
  -41319   -40996   -15095    19566    39002    32614     8032   -14353 
  -20337   -17389   -19955   -27243   -28571   -21189   -12198    -6978 
      58    17856    40836    51246    39704    11890   -16533   -27926 
  -19764    -7884    -3064    -1182     1958     8293    20398    32509 
   33439    20815     3870    -6898    -9099    -9127   -15101   -25373 
  -31140   -28881   -20692   -11942    -7908    -8193    -7277     1054 
   12961    14908     1464   -19144   -33118   -32815   -23746   -13984 
   -6439    -1448     3650     7820     5425      149     2276    11947 
   17159    10098    -1764    -9077   -12266   -14292   -13710    -4638 
   13979    31207    35432    26095    11970     2025    -2452    -4714 
   -7195   -12964   -23240   -32431   -33520   -28082   -25072   -28779 
  -32235   -24829    -4834    15488    20444    10675     3788    13042 
   32449    41137    25016    -7380   -32914   -32703   -10732    10368 
   16548    11605     4801    -1914   -11815   -20258   -18474    -6903 
    3429     1142   -10488   -15807    -8035     2782     4900    -2961 
  -14084   -19340   -15465    -8321    -3326    -1776    -6254   -18053 
  -29853   -29285   -13363     5868    15971    19215    27151    42581 
   52272    42133    15041   -11102   -19909   -12060    -1568      673 
   -7508   -19233   -22927   -14187      791     9514     3538   -10249 
  -17159   -13761   -11507   -18493   -27384   -28746   -22808   -13895 
   -7431   -11168   -25559   -36663   -29002    -2138    27618    43291 
   43517    38010    35838    37851    35001    21492     3468   -10598 
  -18346   -20240   -16788   -13197   -15275   -19724   -19310   -11570 
    1017    12383    15627     8866    -2957   -14808   -24833   -29809 
  -25517   -11191     5903    11462     -117   -17641   -25770   -16949 
    2339    14769    11280      645    -6889   -12264   -16929   -15890 
   -5977     9633    23095    28929    28782    22728     7965    -8355 
  -13653    -9668    -7993    -9499    -6710     2363    12270    15569 
    9154    -4645   -20537   -33026   -38846   -35228   -21347    -3631 
    7084     4425    -8699   -23213   -29916   -23241    -6320     7337 
    6384    -3410    -6328     1822    11719    16515    18131    21466 
   27496    32705    34053    28964    16044      642   -10839   -19635 
  -27614   -32490   -33710   -30757   -21925   -10322    -2550    -2959 
   -9309   -13053    -9944    -6058    -6621    -7813    -5524    -1197 
    2651     5051     7395    12283    20351    28803    29864    16964 
   -2528   -11612    -4922     4869     6280     2012    -1625    -2938 
   -2886    -5741   -14594   -23283   -22563   -13122    -4468    -3096 
   -6704   -10073   -13043   -17035   -17794   -11454    -4297    -5867 
  -13740   -15570    -5653     8484    14227     6516    -6947   -15687 
  -16263   -10010    -2413     -754    -2948     -920     3963     5412 
    5148     5946     4347     -346    -4584    -8124   -11129   -10505 
   -7126    -6940    -9342    -6939      862     7527     9151     5055 
   -2365    -5613     -463     7061     9344     4054    -7568   -18087 
  -17709    -7770      653     1035    -2949    -3739      403     3935 
    2089    -4137    -9413    -7294     2056     9333     9441     7717 
    8673    10465     8444      610    -7298    -8961    -7132    -6751 
   -7287    -7049    -5850    -4221    -3186    -2439    -2150    -4504 
   -8729   -10359    -7227    -2706    -2457    -6814   -11298   -14816 
  -17485   -15986    -8869     1094    10430    16303    16197     8807 
   -2974   -11539   -10287    -1615     3369    -1441    -9479   -11894 
   -7492    -1057     3249     5096     6569     9236     9472      544 
  -14643   -22626   -17825    -8749    -3510    -3422    -7375   -12248 
  -13369    -8479       16     7546     9768     4027    -5848   -10922 
   -7306      391     4949     3663      965     2239     6758    10571 
   12124    11211     6994     -163    -7912   -13209   -14273   -13788 
  -16052   -19257   -17764   -11117    -4757    -2440    -1287     2559 
    6524     6535     3843     1051    -1499    -3754    -5248    -5493 
   -4688    -4552    -6088    -8181    -9288    -7130     -847     5038 
    6447     5181     2938    -2015    -9513   -14133   -11244    -4626 
   -1039     -985    -1134      342     1540     -584    -2694      980 
    6990     6311    -1402    -5833    -1062     5691     5090    -2916 
  -11458   -14821   -12586    -8568    -6224    -5040    -4565    -7460 
  -12680   -13354    -6714      349      434    -3430    -2498     4284 
   10003     9871     4588     -851     -191     6781    13374    12664 
    2828   -10440   -18751   -19195   -15265   -12506   -14474   -20100 
  -23669   -20133   -11537    -4549    -1869       40     3802     7381 
    9891    11130     7611      468    -2344     1458     6258     8968 
   10153     9146     7024     6567     5373     -413    -6569    -6189 
   -1219     1347     -116    -4580   -13786   -25967   -33178   -29469 
  -16244    -2925     -961   -10612   -19372   -17000    -6949     -776 
   -2756    -5082      136    11315    21567    25887    24092    20121 
   17520    15739    12421     6585    -1730   -10146   -13702   -11654 
   -9352   -10350   -13728   -17728   -19442   -15080    -5853        8 
   -3319   -10569   -13594   -13200   -13806   -13587    -8418       33 
    6039     7587     8756    12079    13190     7813     -904    -3862 
    3154     9136     1228   -14377   -21841   -17169    -8537    -4151 
   -4392    -3955    -1053      612    -1093    -4630    -8152    -9451 
