Origin Time       2024/04/02 04:24:00
Lat.              40.133
Long.             141.712
Depth. (km)       71
Mag.              6.0
Station Code      IWTH21
Station Lat.      39.4734
Station Long.     141.9336
Station Height(m) 13
Record Time       2024/04/02 04:24:53
Sampling Freq(Hz) 100Hz
Duration Time(s)  130
Dir.              5
Scale Factor      7845(gal)/8223790
Max. Acc. (gal)   99.193
Last Correction   2024/04/02 04:24:53
Memo.             
[...]
  -13370   -13370   -13370   -13370   -13369   -13367   -13367   -13371 
  -13371   -13367   -13369   -13371   -13369   -13370   -13375   -13371 
  -13367   -13367   -13369   -13370   -13367   -13366   -13370   -13370 
  -13370   -13374   -13374   -13366   -13363   -13370   -13371   -13369 
  -13369   -13367   -13369   -13369   -13370   -13373   -13373   -13369 
  -13369   -13367   -13366   -13369   -13375   -13378   -13367   -13359 
  -13367   -13375   -13371   -13367   -13367   -13369   -13366   -13367 
  -13373   -13370   -13369   -13370   -13366   -13369   -13373   -13369 
  -13367   -13369   -13366   -13369   -13374   -13373   -13367   -13366 
  -13371   -13370   -13366   -13370   -13371   -13369   -13365   -13367 
  -13373   -13369   -13365   -13367   -13371   -13373   -13371   -13367 
  -13367   -13369   -13369   -13371   -13371   -13367   -13365   -13367 
  -13371   -13371   -13371   -13371   -13365   -13363   -13370   -13369 
  -13371   -13375   -13370   -13363   -13366   -13371   -13374   -13370 
  -13365   -13363   -13369   -13373   -13369   -13365   -13370   -13373 
  -13369   -13367   -13370   -13370   -13367   -13367   -13371   -13369 
  -13366   -13370   -13371   -13367   -13371   -13375   -13371   -13367 
  -13366   -13369   -13371   -13371   -13370   -13369   -13365   -13363 
  -13369   -13373   -13371   -13367   -13365   -13367   -13371   -13371 
  -13369   -13369   -13366   -13363   -13370   -13371   -13367   -13366 
  -13367   -13370   -13369   -13366   -13367   -13371   -13371   -13369 
  -13369   -13369   -13367   -13371   -13373   -13367   -13365   -13369 
  -13373   -13371   -13365   -13363   -13370   -13369   -13366   -13367 
  -13366   -13362   -13367   -13374   -13370   -13366   -13369   -13367 
  -13365   -13370   -13375   -13371   -13365   -13363   -13369   -13371 
  -13367   -13369   -13370   -13365   -13367   -13370   -13373   -13375 
  -13370   -13365   -13366   -13366   -13365   -13370   -13375   -13370 
  -13363   -13370   -13375   -13369   -13367   -13370   -13370   -13367 
  -13366   -13370   -13375   -13371   -13369   -13375   -13379   -13382 
  -13386   -13386   -13383   -13382   -13377   -13378   -13389   -13385 
  -13377   -13383   -13360   -13320   -13358   -13402   -13350   -13346 
  -13414   -13354   -13279   -13425   -13589   -13562   -13463   -13400 
  -13387   -13378   -13400   -13552   -13583   -13387   -13458   -13702 
  -13381   -12884   -13204   -13840   -13811   -13390   -13171   -13208 
  -13288   -13232   -13336   -13737   -13709   -13419   -13699   -13697 
  -13170   -13724   -14844   -14548   -13467   -12923   -12289   -11562 
  -11835   -13479   -15603   -15295   -11962   -10100   -11603   -13765 
  -15947   -17400   -15635   -13030   -12533   -11998   -10523    -9794 
  -10979   -14331   -17847   -18030   -14056    -9248    -8083   -11865 
  -16051   -17240   -18038   -18360   -14949    -8564    -4973    -8599 
  -14508   -15616   -12413   -10145   -11392   -13774   -16983   -18959 
  -15125   -10798   -11259   -13275   -14300   -13217   -11364   -11028 
  -10793   -10651   -13193   -16312   -15048   -11939   -11207   -11780 
  -16083   -21420   -18760   -12339    -9234    -9324   -13042   -16295 
  -14893   -12870   -13027   -12133    -9980    -9676   -10474   -11288 
  -13012   -15543   -15313   -11098   -11140   -17193   -21400   -22732 
  -22482   -18216    -9590    -4982   -10579   -16312   -14450   -11452 
  -12650   -11292    -5277    -8113   -17905   -20412   -15661   -10328 
  -10156   -10203    -6119    -5807   -10704   -17213   -19565   -16476 
  -15981   -16594   -13934   -12083   -14432   -16858   -17687   -21645 
  -20011    -9055    -5779   -13379   -18457   -15223   -10214    -7383 
   -2308     1300    -3065   -10762   -14080    -9958    -5645   -13902 
  -28162   -30742   -26073   -25385   -23461   -17805   -16191   -12972 
    -395     3349    -9834   -21037   -20856   -11211    -1543     -411 
   -1522    -4268   -13721   -25170   -27791   -18404   -12719   -17533 
  -18292   -11221    -7927   -14446   -21334   -18825   -13055    -9906 
   -6222    -6207   -14806   -21674   -20201   -16765   -12779    -7580 
   -4537    -5914   -14419   -23978   -19799    -6037    -2489   -11055 
  -14832    -7040    -3399   -16333   -31430   -28475   -13705    -8590 
  -13910   -14905   -10740   -12545   -20545   -18910    -4733     2219 
   -4418   -12912   -18553   -18983   -13069   -10921   -15327   -14982 
   -9940   -10642   -17051   -21058   -19938   -16974   -12525    -6848 
   -4787    -7433   -11772   -15746   -17374   -16491   -15063   -13138 
  -10397   -10890   -14901   -15711   -15741   -19928   -18623    -8584 
   -3801    -8926   -15588   -18091   -14542    -8241    -5836   -11639 
  -20825   -19473   -11037   -11742   -17142   -17064   -14688   -15248 
  -16850   -13675    -9491    -9751   -11659   -13961   -14242   -11757 
  -10544   -10204    -9153   -10224   -18341   -27167   -23417   -12505 
   -6839    -6342    -9097   -13505   -13346    -7777    -7153   -12102 
  -11040    -9205   -15464   -19916   -17518   -17489   -20904   -19032 
  -15175   -16056   -14597    -9346    -7869   -10744   -15579   -17699 
  -11210    -2930    -4341   -11368   -15851   -19527   -22512   -20938 
  -15758   -10435    -6555    -7125   -13016   -16653   -16181   -17768 
  -18812   -16281   -13551   -11222   -10540   -13011   -15812   -15194 
  -10211    -7361   -11753   -15770   -13003    -9814   -12438   -15870 
  -13907    -9649    -7747    -9205   -14224   -17957   -16332   -13635 
  -11016    -9126   -12812   -19257   -23267   -20376    -9559    -3427 
   -6502    -9020   -11583   -16393   -17556   -15911   -14334    -9983 
   -5675    -7508   -13360   -17628   -17523   -14050   -10571    -8725 
   -8997   -12341   -17637   -19190   -16644   -18007   -19006   -12625 
   -9120   -11724   -12437   -12993   -16201   -17405   -13225    -7565 
   -5491    -8008   -15029   -20857   -21011   -19260   -14597    -8667 
   -9937   -15626   -19283   -19615   -15118   -10165    -8368    -6781 
   -7951   -13738   -18968   -20335   -16517   -10002    -8063   -12251 
  -15892   -14245   -10469   -10141   -14179   -17847   -16857   -13278 
  -10017    -8208   -10524   -15441   -18057   -16795   -13238   -10065 
   -7828    -9113   -14287   -14872   -12690   -16387   -19774   -17147 
  -13042    -8698    -5433    -8904   -15962   -18292   -18588   -18650 
  -13548    -8110    -9587   -15165   -17864   -14058    -9370   -10026 
  -10296    -6831    -7528   -12630   -15520   -16841   -17100   -15102 
  -13300   -12961   -15001   -19680   -20931   -15218   -10017   -10174 
   -9632    -6462    -7620   -13107   -16422   -18022   -18543   -14237 
   -8529    -8368   -13284   -19993   -25316   -22252   -10500    -2735 
   -7165   -16484   -19624   -19033   -19992   -14342    -3298     -234 
   -5505   -13632   -20439   -19923   -13784   -10057    -8116    -4607 
   -9402   -22372   -25785   -18948   -14532   -14077   -10536    -8017 
  -15741   -21093   -14801    -9605   -10424   -11167    -9177   -10057 
  -14704   -12555    -6833    -7190    -8810    -8986   -12935   -21043 
  -25042   -21541   -17953   -16899   -15871   -15271   -16876   -19827 
  -18663   -12195    -5772    -2265     -719    -1764    -7599   -14404 
  -16366   -14592   -13146   -14682   -17780   -20923   -25348   -24776 
  -13610    -2033    -2363   -10862   -14490   -12195   -11881   -12729 
  -10935    -8410    -9837   -14881   -15284   -11707   -14431   -21280 
  -22137   -15865    -8322    -6180   -12561   -21536   -23363   -17705 
   -9227      -93      868    -9641   -17205   -16703   -16411   -16349 
  -15103   -16530   -19087   -18127   -15766   -13795    -8856    -3441 
   -2155    -3597    -8010   -17702   -25564   -19552    -6786    -5734 
  -16401   -26007   -24698   -15809   -14341   -19121   -15966    -7558 
   -5050    -7433    -6517    -1151     -486    -8788   -16048   -15114 
  -14188   -20842   -26300   -20933   -14176   -17902   -26064   -27926 
  -21865   -11762    -4368    -5248    -8653    -5555    -2096    -4596 
   -7319   -11990   -19303   -20135   -18751   -19338   -14710   -11272 
  -14945   -17824   -17053   -13238   -10071   -11954    -9707     -843 
    -819    -9987   -16451   -21288   -23180   -18895   -16892   -15583 
   -9387   -11064   -20517   -18686    -8719    -5121    -7028   -11365 
  -14627   -13425   -14484   -17408   -13547    -8820   -11631   -17790 
  -20871   -17690   -11059    -8079   -11140   -14308   -11811    -8248 
   -7892    -9617   -13386   -14909   -13612   -14867   -16545   -15946 
  -14997   -15530   -18013   -18339   -15233   -13933   -14976   -14644 
  -12306   -11354   -12140    -7113       85    -2516    -8996   -12879 
  -17540   -20452   -21998   -24144   -20052   -10106    -8016   -16375 
  -22272   -21428   -15196    -3798      476    -7580   -12546   -12363 
  -16965   -16564    -7264    -8105   -18584   -21390   -19057   -15942 
   -8448    -7056   -13792   -12502    -8812   -13663   -16537   -17998 
  -22864   -20056    -9934    -4236    -5413   -11414   -18243   -19060 
  -14454   -10071    -7663   -10145   -16347   -18604   -15537    -9406 
   -6875   -14389   -20081   -13861    -6529    -8429   -14809   -18485 
  -21265   -19890   -11959    -7600    -6269    -6791   -16116   -23506 
  -18590    -9683    -5857   -10206   -16633   -12872    -2342    -2398 
  -13111   -20355   -22648   -22173   -16089   -11456   -15406   -18374 
  -12496    -8681   -16233   -21366   -12199    -4575    -8803   -11292 
   -7246    -4749    -8347   -16451   -21969   -24634   -25627   -17224 
   -5896    -6772   -14157   -16262   -15952   -17383   -16090   -10633 
   -6411    -8336   -14135   -14405    -9358    -9783   -16150   -20133 
  -19192   -15637   -10706    -5991    -4321    -8322   -17028   -23190 
  -23067   -17559    -8911    -7025   -13892   -18220   -16669   -15530 
  -17550   -15700    -8488    -5647    -8818   -13965   -17412   -15859 
  -11187    -4465     -660    -6740   -15453   -18567   -21053   -24055 
  -19526   -10486    -9822   -15615   -17335   -17176   -16406    -9643 
   -5937   -11179    -9801     -483     -459   -10376   -19695   -24592 
  -25132   -22840   -17097    -8996    -7940   -15159   -18964   -15587 
  -11701   -12812   -16155   -14249    -6975     -892    -2197   -10633 
  -17077   -16384   -15087   -16846   -13177    -4209    -6650   -19311 
  -23124   -20144   -19001   -14953   -10770   -10805   -11624   -11939 
  -11172   -11032   -13356   -15584   -15828   -14017    -9547    -4862 
   -8993   -19086   -20289   -15813   -14397   -10860    -4953    -5603 
  -14755   -23064   -22268   -15515   -11022   -10705   -12166   -14839 
  -15435   -14006   -16837   -19076   -15017   -11092    -8206    -6975 
  -13734   -21334   -17602    -7211    -2226    -3292    -5888   -10534 
  -15562   -16985   -15669   -16448   -20208   -20290   -15504   -12922 
  -13662   -15934   -20796   -22027   -11645      313    -1463    -9598 
  -10423    -9705   -14894   -18193   -14256   -11318   -13714   -15743 
  -16549   -18346   -18916   -17998   -16671   -13666    -9370    -5377 
   -2685    -5355   -13911   -18284   -17161   -18601   -15190    -4240 
   -3615   -15477   -24979   -29112   -26771   -13041     -503    -6018 
  -16519   -13074    -8723   -13969   -12884    -5467    -8579   -16160 
  -15083   -13000   -17396   -21668   -21739   -18458   -11398    -5907 
   -9535   -17143   -17416    -9825    -3057    -4234   -11468   -16600 
  -18219   -17867   -11988    -5888    -9859   -19970   -27481   -28575 
  -20059    -7639    -4225   -10505   -15943   -13788    -6327     -700 
    -171    -4282   -12307   -20912   -25435   -23307   -17624   -13988 
  -12170    -9531    -9113   -16465   -25142   -23183   -16117   -12429 
   -7002     -217    -3246   -15180   -17942    -9389    -6826   -11646 
  -13346   -10089    -8284   -13127   -18573   -20457   -24538   -28096 
  -21227    -7412    -1659    -8822   -18442   -21049   -16652   -10307 
   -6691    -8155   -15406   -21905   -18878   -11218    -6751    -4429 
   -4310    -7411   -12468   -19172   -25610   -27743   -23800   -16445 
  -10828    -9925   -12594   -15981   -18245   -19036   -18011   -13039 
   -5374    -1831    -2826    -6824   -15381   -18848   -15616   -19052 
  -21050   -11281    -5435    -8962   -10585   -10598   -13433   -14480 
   -9517    -2737    -1043    -9104   -24179   -31494   -22742    -9541 
   -5462    -9514   -12916   -16614   -25146   -27899   -17041    -6871 
   -9963   -19503   -26222   -30712   -31999   -24571   -13753    -7793 
   -4757    -6019   -12896   -17058   -15028   -11965   -11707   -11300 
   -6771    -2479     -187     2983      440    -9221   -14341   -12885 
  -11435    -8005    -2334    -9711   -34214   -52632   -54264   -48189 
  -35932   -20804    -8110     6345    21703    28151    23940    20302 
   23711    25720    18827     7643      425    -3473   -15199   -37741 
  -53901   -48533   -31164   -24606   -37708   -56814   -66888   -69728 
  -69022   -52903   -12974    31055    51117    45139    28726    13045 
    6147     8772    16052    25115    23375     7879    -3834   -11168 
  -22905   -39649   -71431  -108252  -103788   -46422    14710    37843 
   23279   -14798   -59387   -81322   -59212    -2249    49854    55826 
   24590      988     3647    19376    30615    26835    11495      409 
   -6797   -25385   -52124   -76759   -88330   -67301   -22133     5081 
   -8357   -38425   -52072   -44795   -16741    29238    63913    72800 
   70742    57445    24921   -19163   -62626   -97090  -117352  -115375 
  -91347   -57747   -14621    29064    41663    27313    19140    11006 
  -14619   -32634   -23884   -10681    -4379     2030     -716    -8311 
    5470    27467    26838    19684    13741   -21201   -76659  -109891 
 -103372   -60254    -1213    29130    13883    -6417     1414    25683 
   42662    37293     7142   -33673   -58414   -56466   -41624   -26276 
  -20605   -23421   -26462   -30248   -16985    19934    36660     5625 
  -38064   -47891   -20875    10702    28788    41056    32927   -22009 
  -83440   -82448   -33061     -324     -373   -10386   -22947   -34815 
  -39768   -52313   -63852   -26519    41539    65342    46176    22505 
   -2099   -11808    -5671    -7894   -13635   -18974   -35473   -63979 
  -83513   -57715      589    37539    36949     1310   -54004   -78478 
  -60259   -37845   -17196    13409    41436    49869    31652     8974 
   -1540   -24524   -45964   -27481    -4083   -14912   -31810   -38604 
  -57106   -71404   -40081    17324    50527    52821    30296   -13335 
  -44720   -37943   -14530    -3242    -2663    -4514   -13412   -26712 
  -27229   -12046    -2101    -7221   -19425   -39051   -49106   -20773 
   19083    27969    12916   -12101   -38776   -39557    -7115    19615 
    9274   -24894   -55930   -69697   -67393   -49698    -7962    37084 
   50010    36736     8899   -29828   -46315   -31174   -18885   -16351 
  -12873   -16495   -23581   -16702     3237     9572   -14615   -39580 
  -34256   -12009     5190     6547    -9532   -24930   -28417   -33964 
  -37670   -13348    21582    29292    25026    27297    21517     6497 
  -12783   -35318   -49437   -43683   -21612   -13815   -32637   -38250 
  -24217   -27997   -38859   -27395    -4297    11036     7681   -10540 
  -22686   -24598   -22009   -10399      989      903     2338    14945 
   21861     6963   -14670   -26464   -41110   -52192   -32346    -6342 
   -8985   -11693     4040     1202   -25899   -35199   -19225    -4612 
     889      -70    -7339   -16056   -25438   -36358   -35992   -15094 
    3140    -2286   -15801   -24972   -25888    -8253    11464    13633 
    7589    -6396   -32765   -55702   -61425   -48172   -22125     2825 
   14373    14683    14659     4433   -26280   -47536   -33428    -3784 
    8733    -2643   -20021   -34298   -43181   -33153   -14520   -11466 
   -9427     8058    23568    23006     6268   -17915   -30739   -29035 
  -25841   -27982   -33430   -27777    -5514     9328     2173    -9740 
  -13599   -16935   -20278   -14084    -5130    -6602   -13841   -21699 
  -29953   -26939   -13570    -3059     5625     6216    -6747   -18978 
  -24305   -17109     6027    17555     1051   -18702   -23602   -20133 
  -14601   -11766   -17826   -25478   -19818    -8052   -10296   -22042 
  -24811   -19206   -17436   -22006   -25772   -23403   -18689   -14465 
   -5898     5440    10465     4201    -9279   -21622   -30840   -31804 
  -19116    -6304    -5135   -12719   -24741   -35170   -38119   -28786 
  -11165     1421    10332    16741     3883   -20876   -28043   -18952 
   -9840    -3481    -1633     1846     6664    -6442   -31140   -39101 
  -25725    -8046     -109     2732     5032    -4264   -23008   -38475 
  -43054   -24395     7960    18166    -2694   -28833   -39241   -37069 
  -33926   -26466    -6848    14700    19318     6868    -4812   -15724 
  -36602   -48061   -34911   -14643     6636    22974    13674   -10384 
  -22894   -21645   -16748   -13126    -9406   -15275   -37501   -53698 
  -41650    -9278    14361    12488      718    -3829     -788     4445 
    -291   -13923   -19056   -15747   -17602   -29539   -39235   -33038 
  -18775    -4965     5838     5699    -1591   -10089   -21064   -17342 
    8941    19658    -3144   -23584   -28794   -37470   -41534   -25058 
   -7276   -11742   -25065   -30998   -39001   -45719   -31544    -5198 
    5796     3067     6872    11280     3627    -5764   -15190   -32012 
  -46660   -48609   -31783     2218    28880    23425    -7115   -28545 
  -17933     7306    15007     2069    -9196   -12368   -21123   -31230 
  -27611   -17383   -13622   -18144   -29154   -35291   -23541    -5956 
   -8831   -26464   -22388     2987    11591     -974   -13990   -19684 
  -15388   -10476   -17849   -26088   -17517    -2219    -6621   -27958 
  -40575   -38944   -26065    -2713    17182    19510     6081    -5725 
   -6696    -9144   -18427   -28771   -34962   -30013   -19626   -13244 
   -8187    -9941   -18746   -17437   -11961   -16561   -16457    -5070 
    2631     1125    -5697   -10962   -14746   -24471   -33590   -34222 
  -26450    -9417     3132    -3092   -18500   -26265   -18971    -2820 
    9983    11169     1749    -4328    -4571   -10457   -15921   -16525 
  -22095   -24316   -10790     8545    14139    -6178   -36976   -45270 
  -28075   -11542    -6675    -7816   -16391   -28749   -26468    -6988 
    7323     4909    -6226   -22284   -36860   -30127    -4302     7080 
   -4656   -14042   -12892   -13448   -15857   -12171    -7850   -13058 
  -27207   -39919   -35148   -18634   -12869   -10349    -4187    -7169 
   -6670     1587    -2768    -9775    -5059    -2740    -7461   -10912 
  -13807   -18353   -23384   -30044   -36170   -32132   -15234     -421 
   -4720   -21258   -25739   -15930   -11218   -13377   -12731   -11800 
   -8456     3072     8078    -4981   -21141   -31432   -40352   -39120 
  -19940     1996     5643    -9228   -24417   -26597   -17250    -6285 
     -32     -799   -10243   -18944   -14802    -5424    -5611   -13660 
  -19986   -20565   -19677   -21527   -13572     6107    10088    -7831 
  -25223   -32009   -27270   -14075    -3457    -1165    -6303   -11307 
  -10484   -10242   -10665    -8942    -8660    -7086    -6158    -9050 
  -10633   -15338   -25589   -33212   -34399   -27083   -15508   -10679 
