Origin Time       2024/04/02 04:24:00
Lat.              40.133
Long.             141.712
Depth. (km)       71
Mag.              6.0
Station Code      IWTH09
Station Lat.      40.0861
Station Long.     141.7120
Station Height(m) 240
Record Time       2024/04/02 04:24:48
Sampling Freq(Hz) 100Hz
Duration Time(s)  131
Dir.              5
Scale Factor      3920(gal)/6170801
Max. Acc. (gal)   321.867
Last Correction   2024/04/02 04:24:33
Memo.             
[...]
   -4093    -4092    -4092    -4093    -4091    -4091    -4094    -4093 
   -4092    -4094    -4093    -4090    -4090    -4094    -4095    -4096 
   -4093    -4090    -4093    -4096    -4093    -4092    -4094    -4093 
   -4094    -4093    -4091    -4093    -4093    -4091    -4093    -4095 
   -4095    -4093    -4091    -4093    -4094    -4094    -4094    -4091 
   -4090    -4093    -4092    -4091    -4090    -4090    -4094    -4096 
   -4093    -4090    -4091    -4093    -4095    -4094    -4092    -4093 
   -4095    -4091    -4089    -4092    -4092    -4092    -4093    -4090 
   -4090    -4092    -4092    -4091    -4090    -4090    -4093    -4094 
   -4092    -4091    -4090    -4093    -4094    -4090    -4088    -4092 
   -4094    -4094    -4092    -4091    -4094    -4094    -4094    -4094 
   -4092    -4090    -4094    -4095    -4090    -4090    -4094    -4094 
   -4092    -4091    -4092    -4093    -4092    -4091    -4093    -4093 
   -4093    -4094    -4092    -4092    -4093    -4093    -4092    -4092 
   -4093    -4094    -4094    -4094    -4090    -4089    -4093    -4093 
   -4091    -4091    -4090    -4090    -4092    -4095    -4094    -4087 
   -4088    -4096    -4096    -4091    -4091    -4092    -4091    -4091 
   -4092    -4092    -4091    -4091    -4094    -4093    -4089    -4090 
   -4091    -4093    -4094    -4091    -4090    -4094    -4094    -4092 
   -4093    -4093    -4092    -4093    -4092    -4090    -4091    -4093 
   -4091    -4091    -4091    -4090    -4089    -4090    -4090    -4091 
   -4093    -4092    -4089    -4091    -4094    -4094    -4092    -4090 
   -4089    -4092    -4094    -4092    -4090    -4090    -4093    -4093 
   -4092    -4093    -4093    -4092    -4093    -4091    -4090    -4092 
   -4093    -4094    -4093    -4090    -4090    -4092    -4094    -4092 
   -4090    -4090    -4091    -4093    -4093    -4089    -4090    -4094 
   -4091    -4091    -4094    -4090    -4088    -4093    -4094    -4089 
   -4089    -4092    -4092    -4092    -4092    -4090    -4090    -4092 
   -4092    -4091    -4091    -4092    -4092    -4092    -4093    -4092 
   -4091    -4093    -4094    -4092    -4091    -4092    -4093    -4092 
   -4091    -4090    -4091    -4094    -4093    -4091    -4091    -4092 
   -4093    -4093    -4092    -4090    -4089    -4091    -4093    -4093 
   -4091    -4089    -4091    -4093    -4092    -4091    -4092    -4091 
   -4091    -4093    -4094    -4092    -4090    -4091    -4093    -4093 
   -4092    -4092    -4091    -4090    -4092    -4093    -4090    -4088 
   -4090    -4092    -4093    -4093    -4091    -4089    -4092    -4095 
   -4094    -4091    -4090    -4092    -4094    -4092    -4091    -4094 
   -4094    -4090    -4091    -4093    -4092    -4093    -4094    -4092 
   -4090    -4090    -4093    -4092    -4089    -4091    -4092    -4089 
   -4091    -4093    -4090    -4091    -4091    -4090    -4093    -4092 
   -4091    -4093    -4092    -4091    -4092    -4090    -4089    -4093 
   -4094    -4091    -4088    -4091    -4093    -4090    -4091    -4092 
   -4088    -4088    -4090    -4089    -4092    -4094    -4091    -4089 
   -4089    -4090    -4092    -4091    -4090    -4090    -4090    -4092 
   -4094    -4091    -4088    -4090    -4092    -4092    -4091    -4092 
   -4093    -4091    -4089    -4091    -4092    -4092    -4090    -4089 
   -4091    -4093    -4093    -4091    -4087    -4087    -4093    -4095 
   -4091    -4089    -4091    -4093    -4092    -4090    -4089    -4091 
   -4095    -4094    -4091    -4092    -4089    -4090    -4097    -4094 
   -4088    -4092    -4094    -4092    -4093    -4093    -4092    -4095 
   -4095    -4092    -4091    -4093    -4095    -4096    -4093    -4091 
   -4092    -4093    -4095    -4094    -4091    -4090    -4094    -4096 
   -4094    -4091    -4089    -4091    -4094    -4094    -4093    -4090 
   -4088    -4091    -4095    -4094    -4091    -4091    -4091    -4092 
   -4093    -4091    -4090    -4092    -4090    -4091    -4093    -4090 
   -4090    -4093    -4091    -4091    -4095    -4094    -4090    -4091 
   -4094    -4093    -4091    -4091    -4093    -4093    -4093    -4094 
   -4091    -4090    -4093    -4093    -4093    -4091    -4091    -4094 
   -4094    -4092    -4091    -4090    -4092    -4095    -4092    -4091 
   -4092    -4091    -4093    -4092    -4088    -4091    -4095    -4093 
   -4089    -4091    -4091    -4091    -4093    -4092    -4088    -4090 
   -4093    -4093    -4092    -4089    -4090    -4094    -4093    -4089 
   -4089    -4091    -4092    -4092    -4091    -4089    -4090    -4091 
   -4093    -4091    -4090    -4094    -4094    -4090    -4092    -4093 
   -4091    -4094    -4093    -4088    -4092    -4095    -4091    -4089 
   -4091    -4090    -4090    -4093    -4093    -4092    -4093    -4093 
   -4094    -4093    -4090    -4090    -4092    -4092    -4094    -4094 
   -4090    -4090    -4094    -4094    -4094    -4092    -4089    -4091 
   -4096    -4094    -4090    -4090    -4094    -4095    -4092    -4092 
   -4091    -4091    -4092    -4091    -4091    -4092    -4091    -4089 
   -4090    -4093    -4094    -4095    -4093    -4089    -4091    -4096 
   -4093    -4089    -4091    -4093    -4090    -4092    -4093    -4087 
   -4089    -4095    -4094    -4091    -4089    -4091    -4096    -4092 
   -4089    -4094    -4090    -4088    -4095    -4091    -4084    -4093 
   -4094    -4085    -4090    -4096    -4101    -4137    -4223    -4354 
   -4381    -3946    -2794    -1283     -561    -1788    -4642    -6754 
   -5930    -3608    -3609    -6095    -7220    -5966    -5572    -7855 
  -10599    -9268    -1657     6489     6756    -1069    -9653   -11994 
   -7394      -42     5047     1932    -6373    -5647     2236    -1311 
  -12742   -12903    -3944     4342    10125     4685   -14365   -26661 
  -17772    -4502    -4545    -6472     3214    13227     8839    -2260 
   -9119   -17083   -19554    -4645     3497    -2757     8936    23028 
    5556   -21877   -31441   -25676   -14293     6020    25302    18799 
    -341   -13719   -24676   -21835    -6844     4253    11572    10189 
    -686   -13048   -22675   -15598    -3655    -3591    12116    26314 
     -42   -23240    -8845     9516     4618   -12747   -26923   -39857 
  -26279    19425    29047    -3296   -16933    -4504    14870    18548 
   -5674   -34716   -44663   -24911    10435    31514    27567     1511 
  -27201   -30229    -4454    25160    33686    19300    -8903   -24759 
   -7559     3962   -14689   -38658   -49808   -21302    28770    35936 
    5862   -28315   -41754    -9562    22237    15879    -1957   -11560 
    7986    31800    11279   -19832   -32084   -35137   -19195    -1550 
   -3914    -5706     3453    15571    17237    -4986   -22608   -14253 
   -3250    13839    21942    -8233   -32738   -33446   -22899     2895 
   22121    34621    29160     3240    -4436   -18291   -42794   -28446 
    8052    22853     9608   -12377   -29286   -41778   -33610     6682 
   36160    14465   -17943   -14893     2917     9794     3859    -7879 
  -16570   -17429     4648    27648      786   -45104   -41326    10947 
   40660     2295   -31266    -6148    21335    31206    30126    -2397 
  -50813   -66980   -21210    20543     1572    -5874     6794    -4125 
   -6022    -8147   -11284     9839     2842   -15364    15981    27415 
  -14617   -29099    -8533    -8635   -19688    -2967    14748    -4436 
  -16104     5411    14986     4606    -9637   -23625   -16800     8711 
   18766     4658   -11558   -20941   -23876    -7035    16209    12735 
  -10490   -14466    16573    25945   -19632   -39533   -13044   -10986 
  -11861     9577    -4591   -30642    -9517    13928     9536    -1555 
  -16573   -11039     8746     1082    -2585    15882     9107   -16054 
  -22881   -23603   -17801    12979    34579     9703   -32433   -30118 
   15668    31384     1570   -26627   -32585   -13185    14462    22315 
    2431   -27400   -26899     1424     7398    -8787   -13828   -10488 
    1177    17116     5928   -19273   -27996   -23438     1662    25194 
    6568   -24053   -29855    -9006    24887    26764      635   -15797 
  -30489   -18857    20799    16616   -10597     2557    13120   -13597 
  -32417   -20809     -930     9135     5853     -857    -1288        1 
     729     4025     3640    -8035   -27354   -33646   -15784     1554 
    9781    14850    -2318   -24846   -17157     7031    18418     3254 
  -12825    -3988      607    -9481   -21307   -33701   -19201    17526 
   30162    18424     -867   -20566   -23910   -11195     2960     1173 
  -14745   -12039     2891    12423    27142    11951   -32379   -37486 
  -11133     6865    18199    10375   -22094   -38098    -9496    27606 
   27042    -7337   -36221   -27954    -1482     7221     7941     9531 
   -2434   -17947   -12662     5725      120    -7419    17088    11945 
  -23159   -18585    -9382   -14619     3732    14842     3396      179 
   -3530   -17834   -21012    -5795     8105     9183     2437   -12883 
  -26488   -15271     5640     3548    -8559    -8264    -6868    -7312 
   -3679    -6360    -8696    -5421    -5812    13577    37607     4115 
  -42187   -31272   -10117    -7061     9966    21362    -2391   -24114 
   -3307    19774     5836    -6133    -7859   -23177   -22557     1073 
   10706     -402   -12635   -13007    -6709     1238    11110     8440 
   -7156   -14136   -10831    -2510     3963    -8086   -19659   -14128 
  -11410     -609    18479     8521   -15401   -13573     7241    11035 
  -17271   -36131   -16368     9120    17994    12745    -5261   -15383 
   -3483     6701    -2212   -16859   -15744     2138     6824    -7296 
  -14069    -5799     7434     6813    -6792   -14731   -19480   -15152 
   11831    29080      286   -36948   -29232     4936    22672    18192 
     651   -23950   -30481    -7399     5655     2017     6116    -2440 
  -16258    -8311      -72     9874    28821    10352   -39319   -47090 
  -17798     7725    32258    18188   -34792   -37566     9680    37500 
   25742   -17640   -51906   -32582    15476    30923     9171   -17616 
  -38722   -30122     3550    17484    18328     9786   -19266   -30861 
  -17330    -3728     8581    13303    16195    11618   -22978   -42988 
  -14005    18279    26128     9706   -22573   -30443    -6379    10683 
   14365     4921   -23459   -30861    -7007     8417     8184      447 
  -10878   -16031    -8422     5141     9448     6365    -4025   -18171 
  -18143   -11937    -3089     9058     4776   -11885   -27541   -23769 
   10619    29144     6954   -14124   -21080   -22582    -1594    23070 
   15085   -11465   -24202   -13417    -2750    -3901     9801    24545 
   -4484   -40568   -17034    15781     -788    -4350    13174    -1076 
  -13580   -13373   -16940    -4420    -1989    -7535    12976     8836 
  -26910   -23263     4360    10530    12266    13220   -10912   -52507 
  -47212    26129    65268    21084   -34182   -61008   -42929    20060 
   52936    27323   -20993   -67844   -36185    53646    47566    -8852 
  -10219   -24527   -39554    -2392    22222      221   -32737   -21160 
   26512    25849   -18628   -32697   -10709     6987    15047    18666 
   -9161   -41427   -25104     7448    17362     7232   -12884   -20690 
   -3337    11230   -15739   -37658    -7899    15058    20325    20643 
  -19237   -44108     2179    43033    12081   -35430   -32511    -9030 
    1775    14977    12625   -10964   -10844     8983     9500    -2859 
  -14204   -24388   -15655     9528    14224     9469    16783    -4930 
  -37681   -27171   -12466    -6440    22221    28642   -11947   -36789 
  -17011     9475    16993        3   -33429   -32000    18103    40729 
   11839   -17876   -35995   -38059    -9645    28183    35982      998 
  -28811   -16834      859      -68    -4939    -9922   -10456     1464 
    2241   -18854   -21599      923    16274    23573    13929   -29914 
  -56378   -22526    13468    18485    26635    11844   -38477   -43251 
    1938    18844    13757     5951   -29442   -49456   -18262    14705 
   17405     1294    -1360    16369    14621    -4955   -23745   -37909 
   -7603    42897    25659   -29707   -39971   -19491     5456    27747 
    5496   -30347    -8218    22514    13929     2831   -23902   -63165 
  -34401    37278    43100   -10967   -46994   -38285    -6022    26230 
   44597    18022   -49209   -69615   -14086    26533    22556    21351 
    2962   -26375    -5656    20654    -2522   -29098   -21004    12489 
   27486    -9776   -42306   -20707    10811    23017    17111   -18267 
  -53701   -39886    15574    42274     2776   -39713   -43187   -26526 
    7849    23828   -14134   -68046   -84578   -32448    41482    52494 
   11906   -32199   -48472    -1372    69245    76762    13453   -50176 
  -49925    -5899     8477   -17308   -24095    12075    43317    33345 
  -19143   -92329   -90436     9681    59261    13263   -22999   -35773 
  -48497   -38605   -33774   -39648    -6716    29903    27148    32739 
   58000    68053    67293    71180    63769     4142   -73711   -51529 
   59545   122175   100613     4804  -173570  -285028  -187026    -4990 
  127453   221423   229493    64946  -232986  -454452  -367173   -18317 
  244352   210694    43417  -104155  -222921  -174868    42974   194864 
  224496   130842   -59006  -122813   -37211    49201    96817    34261 
 -104370  -121013   -28815     -894   -24912   -10098    15707    33208 
   85123   122263    52185   -72297  -131456   -70034   103737   287635 
  382132   350020    94586  -321326  -510796  -272209   125574   380117 
  424404   258621   -75582  -388261  -393138   -64138   231308   363189 
  407112   180964  -188263  -368476  -413265  -307769     7735   183547 
  -15550  -227014  -129030    58830   105465   100120   125228    50164 
 -182240  -296573  -127529    91369   175082   152065    44949  -109085 
 -186382  -133899   -37840    74839   157265    70548   -68129   -86606 
  -90226   -84194    28501   156564   204650   139422   -48907  -219590 
 -215654   -91990    22077   123604   179464    58073  -131240  -118562 
   23216    74476    89288    94969   -30875  -156638   -86640    24619 
   -9674  -115214  -137814   -27178   106903   142842   110100    54828 
  -55122  -138922   -61678    78097   104734    -5561  -180044  -250289 
 -102121   129858   251645   228636   103009  -104115  -282322  -278061 
 -107937   103531   190581    72579   -59308   -83950   -61716    33596 
  147891   185426   158064    14892  -192906  -248706  -118079    24849 
   76487    92906    98543    28179   -97699  -170708  -102422    94248 
  232752   160523    -4096  -110915  -177616  -183556   -66313   106792 
  217145   183866      840  -180540  -191339   -59421    89215   159688 
   99383   -30309  -126905  -157038   -95120    57018   174643   112445 
  -43796   -83464   -19874    32169    61780    27547   -81044  -132604 
  -83563   -21489    39325    70148      535   -81755   -64903     4069 
   48604    46983     9532   -40501   -72086   -35438    53793    88139 
   21826   -71360   -84007     4171    69391    33018   -15536   -18810 
  -17537   -13752     1802     6013     7515    12659    -7115   -34619 
  -14309    33838    36747     6495   -18085   -72137  -109535   -33407 
   70952   102080    95680    40912   -65426  -112047   -51364    41180 
   72960    13169   -54887   -44467     8274    40083    31376     1899 
    3965    15237   -13022   -35026   -32764   -43959   -42702    -2557 
   30430    35603    30796   -13487   -66529   -22978    65467    69633 
    4309   -56260   -67116   -17151    40712    47907     4775   -52183 
  -77601   -54173    -4200    53834    67723    -7197   -67947   -30211 
    6449   -15186   -15278    24148    45932    43132    10299   -72728 
 -133842   -82986    23450    65888    60452    52639   -18134   -91470 
  -37560    50571    55170     9606   -48625   -78471   -35516    29709 
   46075    30022    20554    14623    -1969   -12486     2554     8213 
  -17348   -38792   -27747     6584     6346   -24607     8378    64097 
   37878   -32194   -87544   -87340    -9784    64212    78259    46237 
  -26235   -89616   -88404   -25326    56325    58730   -28903   -75888 
  -51942   -19668    20768    50465    32208   -12730   -50170   -49976 
   -3801    34695    28499    10921     -558   -15263   -20539   -12137 
     569     6337    -5691   -28949   -41491    -9288    43882    45400 
   16427    -2582   -39691   -59001    -8840    51486    64639    31205 
  -39462   -78073   -24399    52963    74507    38857   -29533   -68051 
  -23571    43229    52494    19330   -21382   -42617   -15720    19266 
    8008   -30851   -53410   -32250    18017    43384    21375   -14374 
  -23463   -14143   -11927   -10033   -13509   -20528    -4795     1991 
  -20878   -19211     5112     8245     8696    10220   -17619   -39316 
  -16169    12972    20503    10671   -15100   -31609   -23340    -3674 
   19346    31474    10657   -29120   -34968    -1840    15388     7425 
   -3980   -21965   -26421     -261    21989    17996    -4322   -38909 
  -55742   -26344    25930    63902    53086   -11536   -56370   -31412 
   13465    22769    -5402   -37659   -39651   -10408    28586    54716 
   37670   -27534   -76344   -47295    20181    50671    45033    27889 
  -13690   -53935   -39493    12067    33681     1474   -35971   -44964 
  -40665   -17118    14918    21553     6108   -32842   -58026   -13570 
   30177    20579     9592   -13697   -53228   -42044    15548    56656 
   44985   -20863   -87917   -83559   -16752    44640    71062    47536 
  -25673   -81766   -59606    17453    68072    45544   -10017   -43057 
  -35668    -1910    17691    11469    -4510   -27346   -27807    11328 
   42855    29752    -9961   -23163     5681    19920     4193    -1754 
   -7105   -20434    -9290     6614    -1412     -750     2494   -12732 
   -7015    12772     8042    -4298   -11862    -7892     3398    -6833 
   -3840    15008   -15932   -39346    -6442     6463     6752    19911 
   -3359   -32237   -22725    -7836     2944     9838    -5489   -24493 
  -25828    -9883    24920    39997     1085   -41179   -45828   -27193 
    5171    23481     6782   -14078   -20730   -14051    12144    32192 
   19995    -1918   -15605   -21125    -4217    19718    12060   -13253 
  -26245   -34585   -27776     6851    21817     4219     4081     6422 
  -20939   -31458    -7024     7181     4509     8963    14163     2290 
  -16348   -19305   -14418   -17851   -12557    10743    19568    -4939 
  -32051   -31794    -9300    14122    10833   -15485   -22378   -10295 
   -5409     5417    18489     7409   -10097    -5863     1323   -13053 
  -31354   -35147   -25437    -2973     8842      968     -694    -4161 
  -15387   -11799    -5660    -9971    -5890    10645    15905    -6786 
  -30000   -19670     9746    33958    43469    19895   -33289   -69780 
  -54343    -7051    30597    41404    17663   -27776   -43187   -11005 
   27069    33855     6263   -26430   -37181   -25256     5572    30448 
   19590    -1088    -5505    -8198    -2933    13229    17974     9131 
  -11333   -33123   -28041     3912    30976    23896     -858    -4025 
   -3820   -17591    -6673    12796    -6870   -21719      741     7164 
  -12697   -20090    -9097    15407    36552    18714   -24253   -41397 
  -28868    -6184    19259    18766   -11795   -31022   -34506   -23675 
