Origin Time       2024/04/02 04:24:00
Lat.              40.133
Long.             141.712
Depth. (km)       71
Mag.              6.0
Station Code      IWTH03
Station Lat.      39.8020
Station Long.     141.6520
Station Height(m) 310
Record Time       2024/04/02 04:24:49
Sampling Freq(Hz) 100Hz
Duration Time(s)  131
Dir.              5
Scale Factor      7845(gal)/8223790
Max. Acc. (gal)   206.964
Last Correction   2024/04/02 04:24:49
Memo.             
[...]
     322      329      330      319      326      328      319      329 
     329      321      324      326      324      318      324      333 
     328      317      321      329      326      325      329      328 
     325      318      326      333      317      322      338      326 
     322      325      324      326      322      324      324      329 
     332      319      321      329      322      325      332      324 
     321      328      328      328      328      324      324      321 
     321      332      329      322      326      325      325      325 
     321      328      333      328      324      326      328      318 
     321      336      332      319      321      325      330      332 
     322      324      329      322      324      329      325      325 
     326      326      325      324      322      325      333      329 
     317      325      332      321      324      329      319      319 
     332      329      325      325      326      326      317      319 
     329      325      322      322      325      329      324      321 
     328      326      326      324      318      330      332      318 
     326      328      319      324      325      322      325      326 
     328      328      324      322      326      324      328      332 
     322      321      328      329      322      321      329      330 
     326      322      319      325      328      325      328      326 
     319      326      328      328      328      321      317      325 
     332      325      321      332      329      314      322      333 
     326      322      330      326      317      329      337      324 
     317      324      325      325      326      322      325      328 
     317      317      334      338      322      317      328      321 
     314      328      330      324      326      324      322      326 
     319      322      328      324      326      329      325      324 
     324      325      328      324      321      330      328      322 
     334      322      313      330      328      319      328      326 
     322      326      326      324      329      329      317      326 
     338      322      319      332      325      319      325      329 
     325      321      326      328      322      322      329      326 
     321      326      333      322      317      321      325      332 
     330      318      317      329      334      325      321      328 
     328      321      319      325      328      325      329      328 
     318      321      329      324      321      330      332      321 
     321      322      324      328      325      325      333      328 
     317      321      333      332      326      325      315      314 
     333      336      324      321      319      321      324      322 
     325      328      325      322      322      328      328      319 
     325      330      324      326      325      322      332      325 
     314      332      334      317      318      328      324      322 
     325      325      326      325      322      326      330      322 
     324      334      324      310      325      330      324      330 
     325      321      329      322      321      329      329      328 
     324      318      322      330      330      318      322      329 
     322      321      329      334      318      310      336      338 
     319      325      329      326      324      313      326      337 
     321      321      336      325      314      322      325      324 
     328      326      324      321      317      324      334      324 
     318      324      322      326      325      317      328      333 
     319      322      330      324      325      325      317      322 
     333      325      315      329      333      314      317      333 
     325      315      321      322      322      328      328      325 
     322      314      318      329      329      329      329      324 
     319      324      325      322      329      328      322      332 
     324      311      329      333      321      321      326      325 
     319      324      330      325      318      317      319      324 
     324      329      336      322      314      326      326      314 
     324      337      324      318      325      319      329      342 
     349      384      436      472      476      419      375      411 
     345       14     -421     -450      360      978      117     -438 
     695     1166      639      301     -760      -37     3121     2373 
    -959     -688     -261    -1765    -1482     -259      419     1611 
    3100     2671     -720    -1161     2944     2344    -1557    -1426 
   -1879    -3115     -522     1857     2440     2660     2089     3030 
    2312    -3145    -5221    -1155     4047     5695      -79    -4951 
   -2164     2270     4442    -1100    -6725     3819    12995     1894 
  -10685    -8905    -1078     4959     6957     1698    -2064     4037 
    4463    -5548    -6081     2440     3767     1291     1104    -2401 
   -5803    -3319     -298     2527     9450    15340     8738    -8586 
  -17173    -9625      -20     4259     8071    10076     6729     -171 
  -10528   -14751    -6416      888     9051    18196    10069    -1648 
   -2128    -7511   -16552   -10203    10165    17612     5273    -1547 
   -2371    -8364    -9274    -4824     1989    13691    17393     6416 
   -7483   -13003   -10358    -7512    -2285     7364    15896    21308 
   11323   -13066   -21331   -12671    -8761    -1113    10318     8795 
    5449     7500     4035    -2610    -6559    -4140     3287     4783 
   -1350    -7229    -6450     3403    12457     7315    -4340    -4295 
    4075     2064    -8360    -6708     2569     3936     5749     5490 
   -2840    -2578     1113    -1660     1818     4152    -4064   -10380 
   -9207     -568    11245    15699    12422     6791     -537    -9706 
  -14967   -12501    -7716      518    10598     8541     2195     6589 
    8068     1740    -1934    -7612    -9784    -2323     -697     -417 
    9922    13527     2079    -4492     2689     2405    -8141    -8432 
   -2706      587     4965     6131     -407    -8205    -5266      922 
    -946     3731    17167    19537     6561    -9007   -15148    -9347 
   -1220     -230     2401     8587     3092    -6160    -7055    -6408 
    -279    10565    12263     5328    -1385    -2182    -1742    -7169 
  -10287    -4507     2586     1873     -919     4425     7550     4018 
    5827     6180    -4028   -12158    -8166      -78     2731     5952 
    9394     2471    -3504    -3447    -7020     -976     7032     1094 
    4711    10574    -5208   -14891    -4143     2430     3202     7759 
    5805       51     1104    -3091   -10982    -6454      440     1597 
    4576     3408    -2511      342     5401      225    -4885     -486 
    7404    10955     8386     -693   -11614    -9724    -1233    -3375 
   -4596     5197    16008    16094      884   -12903    -9235    -1937 
   -3892    -4328     1148     3242     3333     5235     4232     1520 
     479     -742     -845     -159      481     1787    -3719    -8164 
    2794     9036     2170     2567     1445    -7156    -2301     5320 
    -214    -1482     2307    -1902    -6758    -5258     1861     9275 
    8823     5799     1200    -8276   -10154    -7504    -7427     3113 
   18831    20507     6011    -9871   -13651    -8706    -1571     5286 
   11013    11387     -274   -11801    -9524    -2930    -1925      549 
   11149    17726    10849      271    -8249   -13520   -10081    -5517 
   -6431       -6    12136    13957     9472     4090    -5221   -10039 
   -7962    -6987    -2147     8417    11038     2050    -8060   -10729 
   -5441     -796     1726    13000    22454    10687    -5823   -13221 
  -21467   -17961     2046    11680    14318    24055    17155    -9088 
  -20853   -15441    -9641      729    12611    13498     8156      436 
  -10125   -11583    -3816      787     7742    14824     9209     1584 
   -6628   -18218   -11018     7090    10578     9078     7917      704 
   -3503    -5513   -11457    -7177     5779     4908    -1007     2384 
    2070     1314     5189     2470     4584    10368    -3303   -18431 
  -12367    -2820     1679     7476     7796     3369     3015     4720 
     290    -8446    -5470     5151     7163     8012     6277    -4324 
   -8116    -5011    -4880     -807     7514    10247     4963    -4449 
  -11522    -8051     -234      542     5070    12143     7402     3727 
     600   -11345   -11975    -2682     1120     6481     9767     5634 
   -1250   -11784   -13551      826     9439     4976     5402     8500 
    -754    -8673    -4357    -4833    -5436     1937     1509      643 
    5256     4355     6251     6043    -1985    -1687    -2458    -9104 
   -3728     4812     7497     8614      483    -8719    -7479    -7902 
   -5594     7793    14052    10620     6744    -2380   -12528   -14701 
   -7423     5487    13929    11381      784    -6166    -5636    -4881 
    -623     7854    10099     4781    -2177    -9979   -15284    -7963 
    4600    10089    16591    16758      758    -9927   -10986   -14935 
   -8345     8174     9462     7150    12768    -2138   -20781    -9294 
    3685     7931    16659     9988    -4035    -3465    -4631    -5842 
    5391     8460     3107     6245      940   -12885   -11454    -6237 
   -4677     7651    19404    17548     9219    -3173   -17614   -21979 
  -11136     2663    10629    16888    15453     -603   -13755   -13490 
  -11703    -9428    -2204     4102    11911    21132    12961    -6924 
  -11611    -5552    -2332    -1814    -2523     1055     3753    -1304 
   -2197     5012    13493    17378     7577    -7805   -13529   -18010 
  -23888   -12483    12056    27999    31491    20363    -2208   -15630 
  -18684   -25038   -22219     -290    19159    24599    20189     5950 
   -6011   -11506   -20298   -21328    -6399    13227    29722    30518 
    9204   -11757   -19279   -25051   -21209      866    20529    27058 
   21018     2898   -13637   -21748   -22106    -9990     7997    19882 
   25321    19234    -4193   -24826   -26018   -16976    -1310    18243 
   28320    23422     5857   -12725   -20264   -22098   -16085     6458 
   26427    26048    15110      322   -15345   -22138   -16869    -3468 
   10385    20887    23807     8923   -12344   -20995   -21915   -14662 
    5344    22087    24926    15678    -2465   -17458   -20024   -12556 
   -1152     9301    16945    15315     3033    -8104   -15330   -18782 
  -10490     5715    16023    16421    12816     6089    -3121   -12167 
  -20063   -11692     8653    12609     9563    10860      711    -9930 
   -9005    -9146    -5344     7828    16052    16011     7735    -7871 
  -15252   -12594    -9346    -1497    10990    16772    11692      815 
  -12198   -18407    -9202     4260    13001    19687    17571     5184 
   -9846   -25205   -27665    -7381    11360    13730    18885    21425 
     645   -21748   -22057   -13869    -3634    15743    26214    13709 
    -226    -6578   -15954   -19195    -6646    12382    23464    17859 
    3021    -8213   -14833   -16389    -8595     2933    10764    19485 
   26592    15650    -7686   -20139   -23228   -21897    -7804     8322 
   20706    33735    24803    -2806   -11973   -12464   -19975   -10268 
    8618    11605    10011     5204   -10233   -21736   -19280    -4614 
   11190    20255    29687    27733      270   -24077   -23734   -18200 
  -10754    12243    29826    19087     1252    -9135   -26171   -32246 
   -8943    12363    19296    28298    24609    -4735   -30288   -30681 
  -21739    -6124    19973    32302    25879    12178   -12777   -30728 
  -21394    -4028     4136    13730    24044    11718   -13826   -20393 
  -14561    -6053    10180    14993     6080     7632     4618   -15653 
  -16590     1941     3728    -1255      419    -3233      -25    13852 
   11430    -3692    -7770    -2529     3314     4723      723    -1252 
    -770    -2594    -3824    -2380     -812     5155    14594    10203 
   -9798   -15703     1406     3140   -12131    -2980    11835     5277 
    6550    11360    -3950   -11252     -882    -1024    -4037     4147 
    5857       82      861     1217    -7299   -14924   -13915    -8681 
    1127     8985    -3979   -21498   -16140   -12070   -20524    -8756 
   14589    21398    25974    34690    27060     7582    -2137    -7821 
  -12337    -2039     3956   -10600   -23816   -29740   -39363   -40159 
  -17705     6953    17189    30944    33532     1881   -13740     5498 
    1383   -14310     7294    32794    30774    23367    17756     3917 
  -17190   -35488   -38827   -24520    -1188    20320    38250    46950 
   27252    -6547   -33014   -72125  -108800  -112922  -105871   -87907 
  -42660    15495    74390   108588    91253    56228    32131     2103 
   -2079    42861    77271    86418   102213    94913    39344   -26385 
  -72083   -83700   -56826   -40630   -47002   -19421    18431    35081 
   73449    87212    39174    13369    -4133   -58761   -76549   -47038 
  -20349    16328    52728    46399    11194    -9450   -18060   -29238 
   -7983    35402    32869    15093    34581    35139     -336   -15414 
   -5071    23402    58382    65588    60115    31263   -60018  -147280 
 -163595  -129490   -59535    33409   109833   147591   144236    82740 
  -19141   -88088  -125356  -165287  -132028     -441   118997   170006 
  157866    80777   -32509  -150145  -216646  -173497   -69318    37825 
  120837   116228    75973    86868    61188   -21952   -63830   -79583 
  -80693   -37218     -113    19430    57692    78772    50953     4303 
  -42048   -83570   -86656   -43174    14391    78745   120556   107516 
   74224    24792   -51067  -101340  -106280   -92071   -64077   -34137 
   -7103    36702    67073    51773    32362    26470     7785   -10099 
   -4428    -5306   -20849     4927    43549    22257     4729    31664 
   21612   -13799   -16707   -27540   -34366     7507    33486    12267 
  -10902   -46288   -86267   -72511   -20866    27306    61699    68562 
   63418    48436     7379   -24250   -34500   -44004   -22107    31041 
   46565    25963    26681    23016   -27230   -71375   -62874   -40207 
  -16383    30141    57717    43835    33147    27838      405   -44253 
  -81650   -75081   -19658    41628    81087    89837    64331    26750 
   -7863   -39453   -50865   -44004   -39626   -16205    32813    53846 
   33382    -2326   -47237   -73809   -56505   -19264    10454    28192 
   27861    -4536   -45333   -43333   -16702    -9871     6949    44849 
   51206    23808     3466   -11794   -43721   -65610   -36130     9036 
   26067    45499    69087    56519    18694    -6994   -13798   -29205 
  -49092   -27616     8028     3312    -2941    22605    30888    11641 
   19923    28274   -17730   -42647    -4008    16565     9988    21139 
   18994   -13107   -25255    -6320     4217     7504    26233    45775 
   43950    10399   -41301   -69800   -59976   -23827    30808    72358 
   65276    28906    -6745   -35777   -40200   -25128   -13181     5201 
   20162    16989    16903    15111    -7020   -32814   -42799   -42435 
  -37947   -14693    19418    34364    38276    34296     7300   -10604 
   -8415   -28769   -52980   -38094    -8398    18416    41982    33394 
   -3838   -30518   -34268   -19927     4230    21332    21093     4110 
  -13698   -13940    -6424     2533    24965    43190    38848    26509 
    2785   -37372   -62352   -53206   -17757    29841    66973    86706 
   84087    39812   -16726   -37538   -41735   -49080   -33184     2465 
   22847    22013    18708    14894    -4095   -21334   -13703    -4741 
    5772    31259    19816   -21652   -18314    -3730   -20074   -16756 
   -3883   -12187     4558    31160    10822   -14752   -16384   -35181 
  -45488   -10801    16380    20776    43544    62368    39456    -1664 
  -27985   -41654   -48883   -27990    16582    37208    39506    48390 
   21906   -35124   -50704   -36290   -37062   -23746    15327    34744 
   30086    26580     7668   -31070   -49856   -39795   -18068    16132 
   44867    48290    40285    17019   -20636   -38300   -40643   -41119 
  -16580    22011    39918    41897    40583    24690    -6181   -28086 
  -29705   -19639     1872    24039    18215    -1580    -3141    -3113 
  -10625    -4548     5724     4229    -3821   -14297   -13995    -3245 
   -7213   -15240    -2782    10381    12388    21539    28043    16108 
    6434     6664    -3044   -19090   -21354   -12756    -5895     3847 
   14022    10462     4411     4297    -4062   -14511   -14445    -9263 
   -1521    10944    24927    30589    20571     2770    -7874    -7913 
   -5961    -7277   -10453   -14164   -13425    -5368     2878    10370 
   16132     4907   -18493   -30200   -31220   -27584    -7534    22176 
   36204    37304    39839    28063    -3689   -30539   -45485   -48396 
  -21735    22010    43074    42007    39259    21107   -16297   -40760 
  -42016   -32551    -8853    21217    38169    46942    44093    16683 
  -14526   -34076   -50380   -51058   -24919     4544    20390    31889 
   40138    36362    21575       52   -23495   -33934   -23125    -7036 
    8552    31617    39267    13370   -11130   -16590   -26006   -24592 
    4973    26172    22484    14662     2874   -17702   -31521   -27661 
  -12634     3740    15943    19349    11083    -5358   -18802   -21496 
  -18941   -15002    -4606    10700    18044    11731     7161     8163 
   -1140   -10600   -10453   -14558    -8523    15730    24335    15699 
    6912   -12650   -25756   -14056     1556    15353    18787     3654 
   -3210    -2593    -7504    -1622     5138    -1409    -1057    11959 
   17914     9504    -1277    -7234    -4387     7565    11149     5528 
     222   -10158   -11547    -2208    -1561     3728    13576     7697 
   -1782    -6158    -7146     3901    15074    12339     7609     4329 
     800     5250     8869     1827    -5055    -8333   -17019   -25008 
  -16279     1073    11071    16564    12775    -2191   -12677   -20626 
  -27178   -17579     3080    19776    25502    17450     2601    -9076 
  -13428   -11808    -7981    -3487     3496    12922    14288     5130 
   -1445    -8212   -16962   -11607      425     2924     6075    14636 
   15569     5670    -6826   -17443   -24950   -21193    -2637    14057 
   20325    21222     9859    -6123   -12172   -19907   -26792   -19075 
   -5022    10183    22129    21558    12780     2282    -5194    -6293 
   -4738    -1240     1185     -819    -2879    -7681   -11140    -4904 
   -1460      873    14233    23469    21415    15304     1490   -14759 
  -20565   -15169    -3315    12775    27311    28237    15126      830 
  -11253   -19400   -13379     1509     7176     3168      965     1526 
    -564    -1317     4939    11958    16067    15475     3758   -10287 
  -16243   -15244    -4499     9171    12698     8791     4612     3281 
    2226    -3196    -8060    -9413    -8062    -2803    -2258    -7742 
   -6814    -1208     4140    12513    16869    10439      893    -2982 
   -3874    -6396    -1166     8395     3376    -2330     3325     -730 
   -7017     3966    14445    13338    11719     7504    -3855   -11788 
  -12221   -11003    -4982     4935     9441     8538     1520    -8834 
