Origin Time       2024/04/02 04:24:00
Lat.              40.133
Long.             141.712
Depth. (km)       71
Mag.              6.0
Station Code      IWTH15
Station Lat.      39.6148
Station Long.     141.0929
Station Height(m) 73
Record Time       2024/04/02 04:24:53
Sampling Freq(Hz) 100Hz
Duration Time(s)  185
Dir.              1
Scale Factor      2940(gal)/6170270
Max. Acc. (gal)   15.086
Last Correction   2024/04/02 04:24:38
Memo.             
[...]
   78809    78808    78807    78806    78805    78806    78808    78810 
   78810    78806    78807    78810    78807    78805    78808    78807 
   78806    78810    78812    78810    78809    78808    78804    78803 
   78807    78809    78808    78807    78806    78807    78808    78805 
   78806    78809    78807    78804    78807    78808    78808    78809 
   78808    78808    78809    78809    78808    78807    78807    78809 
   78808    78807    78806    78808    78810    78809    78808    78808 
   78808    78808    78809    78810    78810    78808    78807    78809 
   78810    78806    78807    78809    78809    78808    78810    78811 
   78809    78807    78807    78809    78811    78812    78813    78813 
   78813    78812    78810    78810    78810    78810    78809    78807 
   78804    78799    78793    78786    78779    78770    78761    78754 
   78747    78737    78723    78703    78680    78655    78625    78599 
   78585    78589    78616    78661    78721    78807    78909    79000 
   79084    79172    79240    79258    79236    79183    79077    78912 
   78749    78657    78635    78615    78587    78600    78626    78581 
   78471    78361    78259    78136    78017    78004    78126    78291 
   78490    78724    78826    78726    78621    78646    78738    78859 
   79135    79602    79948    79838    79394    78993    78764    78630 
   78502    78209    77883    78124    78837    79184    78981    78421 
   77740    77337    76914    76295    76178    76800    77740    78387 
   78544    78910    79632    79869    79476    79206    79267    79327 
   79825    80885    81406    81237    81046    80424    78996    77968 
   78466    79247    78749    77739    77422    77747    78123    77737 
   76416    75373    75601    76456    77094    77641    78363    79279 
   79641    79070    79213    80370    80930    81072    81539    82202 
   82581    82203    81158    79028    76686    76839    78844    79949 
   80001    80022    80829    81359    78594    74152    73518    77151 
   80326    79715    76888    76194    79154    81924    80708    77995 
   78332    80867    81650    80270    79361    79999    81552    82352 
   80789    78937    79895    81643    80185    77313    77131    78025 
   77492    76572    76806    79168    80307    77302    75952    79895 
   83843    83320    79555    76996    78100    80532    80928    78717 
   76891    77707    78850    78940    78948    77531    74959    74224 
   74573    74587    76616    80412    82070    82226    84082    85016 
   82028    78546    77564    77844    78932    81143    81933    79669 
   77550    77957    78688    77993    76809    75538    74577    75609 
   77735    78225    77569    76521    74918    74479    74794    74230 
   74206    75924    78824    82126    84917    85694    83789    81623 
   81225    81096    79887    79250    80477    80874    79157    77655 
   76696    77504    80698    81048    77335    74485    73443    72719 
   73054    74560    75979    76937    77866    78769    79412    80172 
   81176    82507    83675    82147    78810    77711    78165    78793 
   80450    81532    81264    81289    82514    83773    81789    77485 
   75741    77015    78205    77290    76458    78208    79339    77656 
   74703    72239    72286    73839    75454    78458    81393    82320 
   81786    79252    77152    78782    80682    80691    80375    78761 
   77822    79057    77868    75949    78783    83480    86563    88013 
   87013    84695    82461    79253    76132    75161    75308    75830 
   77016    78241    78935    77856    75235    73905    74314    75564 
   77794    78809    77144    75896    76595    78066    80160    80902 
   79033    78241    80755    83691    83902    82162    80804    79572 
   78899    80207    80391    77954    76851    77527    78649    80826 
   82466    82647    81143    77886    75857    75118    73468    72801 
   74375    76055    76854    77980    79380    79556    78966    79299 
   81107    82482    81219    79477    79638    79940    78314    75029 
   73423    75813    78581    79255    80724    82516    82091    82370 
   83567    80985    76960    76678    77803    76906    76030    77063 
   77011    74838    75000    77553    78564    79008    79705    79417 
   79808    80399    79705    80512    83024    84043    83509    82865 
   81244    77982    76211    77676    79325    79143    77879    77083 
   76713    74947    73564    75012    77127    78517    79469    78576 
   76369    75861    76929    78315    80972    82907    82087    81270 
   82073    83882    84693    82313    79316    78565    78974    79094 
   78756    79285    80609    80607    79782    80156    80515    78387 
   75724    75603    76615    77150    78137    79854    79814    76829 
   75452    77168    78261    79196    80137    79743    80064    79876 
   77284    75548    76282    78358    80353    81102    81763    82654 
   81966    80522    80932    81136    78612    78055    80290    78727 
   74978    75562    78545    79017    77823    77808    78596    78543 
   77832    77558    77283    76852    78172    80267    79305    76693 
   76890    78700    78461    76943    77612    80083    79859    77651 
   78301    80526    81287    81458    80641    77890    75453    75183 
   75936    76425    76876    77438    78207    79494    79806    78504 
   78296    78849    77156    75343    76385    78149    78448    78604 
   79586    80612    81904    82801    81305    78543    77233    77713 
   78686    79312    80467    82308    82733    81367    79625    78769 
   79054    77958    75960    76313    76690    75856    76681    77876 
   78423    78984    77638    76441    78125    78567    76203    74445 
   74016    75077    76704    76340    76938    80866    83799    84154 
   83947    83281    82095    80635    79577    80082    81708    83386 
   83642    81893    80498    80391    79837    78081    76215    76191 
   77978    78593    76738    75458    76016    75486    73997    73971 
   74976    76340    77734    78194    77796    77629    78740    80518 
   81967    82754    81892    80858    81188    81382    81998    82678 
   81216    79424    79454    80490    81089    80996    80513    79485 
   79382    80789    81785    82282    81894    79267    76489    74790 
   72566    72024    75059    76607    74508    74031    76318    76646 
   75179    76678    80423    82568    82489    80999    80877    82632 
   82857    82277    81694    80155    80106    80538    79016    77790 
   77051    77092    79726    81460    80126    78766    78126    76991 
   75197    74126    75914    78922    80188    80288    79732    79437 
   80214    78878    76507    77557    79482    79364    77737    75014 
   74485    78057    81601    82002    80595    79337    78479    77489 
   77530    79593    80893    79761    78902    79171    79271    79300 
   79132    79436    81316    82570    81213    79385    78667    77491 
   75142    73817    75599    78496    79069    78212    77955    77474 
   77294    78231    78273    77933    79381    80874    80850    80421 
   80014    80133    80863    79853    77331    76500    76820    77290 
   79208    80754    80127    78863    77251    75649    76472    78517 
   78065    76317    76260    77187    77952    78826    79607    80008 
   80152    80154    79996    79505    79437    79950    79631    79350 
   79884    78543    76051    76287    77694    77180    76708    77895 
   79349    80489    80595    79997    80658    80808    78794    77402 
   78358    80217    80793    80308    80096    80109    81542    83320 
   82335    80881    80486    78987    77947    77938    76704    76112 
   77034    76678    75518    74862    73968    73807    75453    77557 
   78614    78780    79547    80960    81013    80415    81426    81966 
   79921    78580    79487    79385    78817    79826    79848    79201 
   80864    82537    82252    82230    82375    81325    79904    78914 
   78604    78336    78041    78704    78334    75629    74029    75233 
   76969    77600    77763    78014    77642    77572    78407    78049 
   76698    76917    78782    80281    80881    81217    81141    80708 
   79972    79202    79256    79830    79825    78520    77155    77894 
   79924    81022    80359    78662    77325    76613    76369    76878 
   78361    79058    77030    75592    76697    78211    81175    83225 
   80713    78588    79192    79387    78964    77706    76370    76273 
   75912    76244    77755    78314    78993    79760    79601    80215 
   79910    76843    75000    76336    78399    79820    80437    80901 
   80924    79877    80189    82009    82395    81701    80215    77095 
   75518    77091    78104    77422    76993    76682    76002    76197 
   77689    78720    78885    79666    81089    81644    79694    76987 
   76856    78623    80985    82496    81942    81516    81189    79910 
   79655    80116    79311    78041    78119    78729    77948    76575 
   75541    74590    75135    77499    79156    78308    76328    76350 
   78463    80422    81382    81174    80783    80501    78572    76205 
   76450    77819    77586    78125    80061    78785    75454    75830 
   79310    81636    81996    81371    80012    78525    77608    77810 
   78951    79583    79685    79673    78563    76903    76719    78406 
   79426    78341    77924    78815    78327    77016    77125    78337 
   78755    77123    75379    76909    80345    80910    78384    77326 
   79161    80881    80869    79948    79946    82089    84626    84943 
   82940    80484    78595    76973    76045    76157    76540    76542 
   76405    77207    78809    80416    81995    82163    80959    80718 
   80382    77718    74892    75656    78695    79092    77356    77263 
   77749    77133    76913    78257    81224    83854    82835    79533 
   78155    78470    79204    80908    82080    81427    80488    80561 
   80791    79880    78842    78832    78531    77870    77389    75766 
   75431    79147    82002    80414    77781    76736    76551    75764 
   74666    74721    76309    78887    80200    78494    76802    78405 
   80342    79131    78736    81877    83567    82765    82083    80744 
   80619    82692    82867    80279    77042    75028    75839    77431 
   77496    77336    77737    78626    79575    78999    77710    77359 
   77264    78246    80496    80946    79598    78728    78758    79082 
   78271    77198    78223    80259    80831    79416    77269    76095 
   76992    79097    80320    80999    81727    81619    81737    81864 
   80523    79953    80749    80309    79022    78008    77174    76881 
   75995    75335    77545    79854    79713    78562    76875    76376 
   77546    77521    76824    76745    76018    76047    78309    80335 
   80932    81445    81702    81022    79924    79058    79317    80934 
   81941    81356    81937    83742    82686    79810    78088    76762 
   76588    77842    78891    79346    78348    76652    76879    78425 
   79293    79848    79855    78564    78078    78407    77640    78554 
   82043    83744    82731    81602    81498    82229    83062    83871 
   85086    85436    83906    81921    80897    81059    81541    82077 
   84132    86198    84429    80420    78866    79555    80091    80389 
   80596    81250    83329    84816    83132    80867    81255    82160 
   81466    80841    82335    85597    87642    86997    85668    84524 
   82748    81428    81671    82666    83400    82282    78757    76179 
   76743    77637    77146    76322    74797    72660    71403    71866 
   74513    77179    76924    75712    75379    74524    73730    72992 
   71567    71895    73236    72298    70067    67559    66066    68224 
   71419    72482    72632    72779    73031    73331    74338    76534 
   77772    77044    75091    73154    74235    78395    81687    82390 
   81522    79105    74776    71027    70723    72163    72008    69628 
   66195    64015    64051    63589    62416    63671    65434    64178 
   62616    63983    66716    68707    69304    69769    72263    74644 
   74420    74008    74776    75287    75569    76597    77586    76085 
   71246    66312    64467    64543    64961    66141    68076    70463 
   74280    80926    87681    89898    88014    84532    82341    84018 
   86864    88836    91931    96099    99281   100026   100388   103319 
  105884   106113   106150   102483    93001    84568    79689    75844 
   74918    76691    77422    78116    81551    86318    88111    84765 
   80458    79518    78571    74227    71390    73925    76175    73802 
   71541    73418    77375    80003    80062    78997    79498    82761 
   86813    90452    94640    97074    95606    93428    94806   100416 
  104463   101809    96441    92837    90320    88934    90248    93457 
   95354    94257    90662    86300    83027    80290    76628    71124 
   65782    64270    64122    62786    62588    63850    68030    75218 
   79540    80329    79497    75926    75093    79020    78135    72071 
   68602    65039    58917    56143    58992    66175    76204    84229 
   87666    89665    90585    89296    88311    86128    81796    81802 
   87251    90992    87354    76965    67017    62417    61095    61296 
   62308    61153    56841    52843    51874    53384    57686    64274 
   67005    64142    63118    65010    65086    64855    66419    69136 
   74915    84020    89778    88032    84704    84492    86323    92723 
  104333   110474   104610    95978    91709    89601    88944    86988 
   79564    70893    64782    59452    57389    59811    62071    64357 
   68832    70874    67834    67807    77755    90931    97798    98965 
   96539    87908    76098    67500    62986    64234    70036    72545 
   73498    79178    85081    87986    90416    92487    95296    98318 
   98661    98569    98572    94876    89452    85444    80845    76809 
   77731    82021    83169    78727    74415    76240    83790    94350 
  103786   107663   105483    98150    88244    80996    78181    77082 
   75593    75330    78176    80890    80049    77545    79308    88877 
   96344    91834    84466    82504    80946    77803    76619    79666 
   85264    87681    86469    84250    77337    69848    70228    70697 
   66636    66734    70254    70233    66496    62343    61704    64722 
   66575    65829    65625    67834    72383    76343    76905    77219 
   79792    82591    86093    92463    99805   102434    97759    92121 
   90198    86430    77864    68592    61628    59900    63058    63750 
   62158    65601    68747    64926    61162    60646    59560    59045 
   60084    61260    62544    63145    64103    68108    73923    80318 
   87839    93075    92092    87014    82302    79200    76921    76795 
   81218    86060    85565    83959    84781    83381    80219    80924 
   85043    86581    82951    79071    78778    81046    87104    95109 
   98290    96898    93341    88228    85819    84347    79436    76972 
   79245    80082    80515    81618    77309    69370    64862    64116 
   64862    65218    64211    64038    66170    69012    73051    79076 
   82716    82664    83216    84812    87111    90566    91455    89881 
   89763    90699    92595    94894    94480    92219    90467    88302 
   85317    84261    85331    84044    81121    80660    78623    71324 
   64526    62912    63735    63842    64825    67522    68393    67440 
   68895    72673    75618    76911    78047    80743    83218    80947 
   76383    76462    78438    77858    78899    81370    80614    79022 
   79067    78368    75915    74914    80689    91225    96185    93888 
   92822    92941    87438    79795    77056    77001    76771    77867 
   79574    79602    77530    75620    76720    79947    82729    83616 
   82034    80430    79246    75299    73136    76547    77398    74794 
   77371    83567    87304    89591    92592    95714    97278    95012 
   89549    85540    82605    74830    64799    59862    58674    59186 
   62586    66498    70365    74869    77106    76844    76208    74789 
   71823    69035    69276    72412    74934    74721    72929    71286 
   70691    70505    70653    73258    76369    75966    74209    74105 
   74613    74932    75437    76471    77984    77825    75468    76124 
   81111    84397    85479    87587    89148    89656    90272    90274 
   89535    88397    86954    84564    80662    77053    75657    76102 
   75748    73427    71858    71845    70448    66245    63721    66955 
   70169    69841    72061    76764    78806    79371    79762    78708 
   77891    78734    79841    82090    87178    91839    93392    93765 
   93673    93042    93657    95169    94690    92940    92187    90034 
   85993    83533    82615    81574    79144    75495    74377    75995 
   76835    76250    74081    71621    71767    73436    75356    76490 
   73560    69644    69991    71939    72398    71709    71030    71271 
   70832    71074    75223    79417    80011    79852    81054    83421 
   86359    87713    86345    84991    85366    85100    83727    82377 
   80456    78756    77937    78041    79432    80025    79782    80965 
   81818    80813    78638    75326    73643    75761    79227    81114 
   79263    75221    73095    72295    70363    67577    65842    66865 
   70580    76340    81616    82394    80998    81780    81895    79462 
   78047    79297    80671    78548    74958    75299    77483    77223 
   76561    76646    75778    75738    76622    75707    75908    78802 
   79882    78401    77283    76996    75989    74621    74958    76314 
   77487    79079    80299    80336    79295    77051    76298    79409 
   82365    81516    79249    77762    77782    80566    83943    84116 
   81408    79271    80285    83296    85840    87924    89420    89121 
   86796    82750    79191    79159    82029    84963    86176    85463 
   83169    80210    79822    82838    85434    85628    84668    84904 
   87075    87917    85808    84069    83541    81193    77572    74424 
   70590    67813    69059    71797    72044    70929    73351    79028 
   80567    78034    78927    80612    78338    76573    77049    78790 
   81944    83033    81916    81097    78325    75688    78781    83540 
   83737    81703    80107    77821    75157    72640    70640    70696 
   71699    71455    70049    68530    68674    70488    71880    72845 
   73820    73696    73137    74005    75988    78341    80653    81186 
   80324    80318    80820    81315    81869    81861    82201    82878 
   82861    83317    84173    84483    85279    86108    85933    85565 
   85004    84708    85973    87766    88764    87720    84268    82738 
   84541    85151    84148    83360    82024    81207    81989    82011 
   80672    81021    83458    85495    86201    85579    83787    80524 
   76609    75687    77224    76374    74282    75313    77962    79367 
   80465    80937    79153    78259    81300    84367    83309    78732 
   73279    69145    65877    64412    66988    69542    69896    73165 
   78189    79323    78061    76490    72822    69576    70458    72434 
   73147    74022    73874    71680    68635    64771    60916    60799 
   64663    66056    63420    62618    64249    64916    65060    66673 
   70617    75344    78272    79662    80791    80759    79117    79207 
