Origin Time       2024/04/02 04:24:00
Lat.              40.133
Long.             141.712
Depth. (km)       71
Mag.              6.0
Station Code      IWTH02
Station Lat.      39.8250
Station Long.     141.3826
Station Height(m) 675
Record Time       2024/04/02 04:24:50
Sampling Freq(Hz) 100Hz
Duration Time(s)  137
Dir.              5
Scale Factor      7845(gal)/8223790
Max. Acc. (gal)   272.030
Last Correction   2024/04/02 04:24:50
Memo.             
[...]
    -450     -454     -454     -453     -459     -460     -454     -454 
    -457     -454     -452     -452     -452     -453     -456     -456 
    -452     -453     -457     -457     -457     -456     -456     -456 
    -453     -450     -450     -452     -453     -456     -456     -457 
    -457     -456     -454     -457     -457     -454     -454     -453 
    -449     -450     -454     -453     -450     -456     -460     -460 
    -457     -456     -456     -457     -457     -453     -453     -453 
    -452     -452     -454     -454     -454     -452     -454     -459 
    -459     -456     -453     -454     -454     -453     -453     -452 
    -452     -452     -452     -454     -459     -459     -459     -457 
    -454     -453     -456     -457     -456     -452     -450     -450 
    -453     -454     -454     -457     -459     -459     -456     -454 
    -454     -456     -453     -450     -449     -448     -453     -454 
    -453     -456     -459     -456     -457     -457     -453     -450 
    -452     -453     -452     -452     -454     -454     -456     -459 
    -459     -459     -456     -452     -453     -453     -453     -454 
    -453     -452     -456     -456     -454     -454     -456     -457 
    -459     -456     -449     -449     -454     -454     -452     -452 
    -453     -452     -453     -453     -454     -456     -452     -450 
    -452     -456     -456     -453     -449     -452     -450     -448 
    -453     -454     -453     -456     -459     -456     -454     -452 
    -453     -456     -452     -448     -452     -454     -456     -459 
    -459     -454     -454     -454     -452     -450     -453     -456 
    -456     -454     -454     -454     -454     -452     -453     -457 
    -457     -454     -454     -454     -453     -452     -453     -457 
    -454     -452     -457     -460     -456     -453     -454     -456 
    -456     -457     -456     -456     -454     -453     -454     -456 
    -450     -450     -457     -459     -456     -457     -459     -454 
    -452     -452     -453     -453     -453     -454     -456     -454 
    -453     -454     -456     -456     -453     -456     -457     -454 
    -454     -453     -453     -456     -456     -453     -453     -453 
    -454     -454     -456     -457     -454     -454     -456     -453 
    -450     -450     -452     -456     -457     -454     -454     -452 
    -450     -453     -454     -456     -459     -456     -454     -453 
    -452     -452     -452     -450     -452     -454     -456     -456 
    -460     -459     -454     -454     -453     -449     -450     -450 
    -449     -453     -460     -463     -459     -454     -453     -449 
    -449     -453     -457     -459     -459     -459     -457     -454 
    -453     -454     -456     -453     -452     -452     -456     -456 
    -452     -450     -453     -457     -456     -454     -456     -457 
    -454     -453     -453     -450     -450     -450     -449     -452 
    -454     -456     -456     -454     -453     -454     -454     -453 
    -453     -454     -456     -454     -453     -453     -454     -453 
    -450     -452     -453     -452     -452     -453     -454     -457 
    -459     -459     -459     -457     -452     -450     -449     -446 
    -446     -449     -453     -459     -460     -459     -457     -454 
    -456     -454     -452     -453     -454     -454     -454     -452 
    -452     -454     -454     -454     -456     -456     -457     -457 
    -453     -450     -453     -456     -456     -452     -452     -452 
    -452     -453     -454     -454     -453     -456     -459     -456 
    -454     -453     -454     -456     -454     -448     -446     -452 
    -453     -454     -459     -460     -456     -454     -454     -454 
    -456     -453     -449     -450     -453     -452     -450     -453 
    -454     -456     -459     -456     -453     -453     -452     -453 
    -454     -456     -457     -456     -453     -452     -453     -454 
    -454     -454     -456     -456     -454     -453     -452     -452 
    -452     -450     -452     -457     -457     -454     -456     -457 
    -454     -453     -454     -453     -450     -453     -454     -453 
    -454     -457     -456     -454     -456     -453     -453     -457 
    -456     -456     -460     -460     -460     -464     -471     -476 
    -480     -492     -515     -538     -561     -589     -615     -634 
    -646     -653     -669     -689     -653     -581     -564     -546 
    -419     -184       24       13      -47      236      556      326 
    -201     -460     -353     -391    -1310    -2461    -2338    -1451 
   -1112     -811     -133      198      171      426     1232     1822 
     750    -1494    -2583    -1906     -804     -588    -1424    -1362 
     602     1742      626     -265      814     2482     1694    -2187 
   -4580    -2826    -1320    -2667    -3759    -2936    -1613    -1028 
    -418     1983     4625     5071     5084     4349     -522    -5967 
   -5900    -3025    -3514    -6840    -7244    -2702     2181     3889 
    4792     6377     5293     1749     1090     3136     2525    -1300 
   -4877    -7439   -10185   -11592    -8456    -3271    -1960    -1096 
    6296    15569    18551    14720     8761     5906     3825    -3100 
  -12081   -20309   -26192   -21041    -6034     3069     2100     1561 
    8627    20268    24803    17378     8345     2558    -4892   -11515 
  -12847   -12093   -13722   -18634   -21096   -13628     1240    16557 
   27383    26515    14737     5074     3470     1981    -6921   -18809 
  -23375   -20831   -19383   -16281    -1750    17830    26874    26134 
   22767    16445    10679     4842    -9224   -24246   -29440   -30399 
  -28005   -15762    -1188     6882    13254    20314    25928    30298 
   26500     9899    -7555   -17374   -23826   -24954   -21311   -22782 
  -21305    -5486    13540    27545    34943    29007    14760     3384 
   -3840    -7715   -12529   -23534   -32782   -32493   -22775    -3127 
   15658    21614    23183    26172    24286    18538     9844    -3122 
  -14208   -20757   -23512   -21324   -18187   -15423    -7821     3931 
   15010    22815    23693    17091     8442      589    -6750   -12829 
  -17244   -16594    -7962      -74     -764     -607     7781    14138 
   10245     3520     4972    10959     5513   -12137   -23973   -21281 
  -11160    -1813     2409     1659      946     3960     9451    12101 
    6986     -851    -1763     2164     3237     1443    -1822    -7115 
  -11642   -13271   -12699    -9455    -3283     2787     4486     4750 
   11107    18212    14355     2984    -3902    -3289    -3024    -9636 
  -17019   -15885    -7812      751     7569    11072     9828     7720 
    7221     3993    -1116    -2344    -2781    -7979   -15076   -16430 
   -8230       -8    -1657    -2601     5844    12739    13545    14694 
   16332    14199     5560    -6016   -14285   -20979   -25272   -20058 
   -9948    -4023      658     8181    14693    16499    15003    13142 
   10493     3510    -6852   -13815   -15321   -15186   -15377   -15558 
  -13081    -4599     6968    15055    19133    23137    26113    23047 
   13489     1555    -9737   -19839   -26968   -26785   -21104   -17285 
  -14119    -6355     1911     6502    11637    18752    24035    25080 
   19653     8471    -2571   -10284   -15076   -16002   -15229   -16887 
  -15533    -4550     8340    14380    14987    10773     3234     -989 
   -2353    -6539   -12360   -15736   -14069    -5630     5135    10777 
   10407     7141     3445     2543     6627    12217    11746     3315 
   -7114   -13756   -13900    -9718    -8386   -12727   -16206   -12085 
   -2710     5410    11049    17325    23900    23485    12206     -178 
   -5305    -9265   -16829   -23450   -24703   -18585    -6772     4758 
   13077    19326    22719    22219    18085     8210    -6343   -16600 
  -18252   -19137   -23215   -21870   -11947    -2991      835     6046 
   16193    26302    27406    18708    12653    12294     6014    -7422 
  -21578   -33669   -38196   -33659   -25010   -12125     5483    21517 
   31135    34735    34765    32989    24730     5810   -14638   -26531 
  -32606   -36877   -37054   -31197   -18477      533    20137    33782 
   38345    33636    24170    16249    10014      326   -14134   -28810 
  -38731   -39683   -29473   -11622     6156    16347    19080    22095 
   27930    31905    27518    11107    -9722   -25918   -37594   -41578 
  -34214   -22515   -11055     3723    20358    31522    34426    32366 
   28178    20029     4899   -13003   -24960   -31041   -35307   -33415 
  -24205   -14415    -2806    14161    29002    33705    30187    25674 
   22863    14370    -4301   -20656   -25143   -28159   -34229   -31622 
  -18933    -5842     4473    12141    18522    25450    28217    23749 
   16397     7350    -3304    -9676   -12406   -18877   -24495   -20217 
  -10465    -2930     1865     5108     8182    11395    12546    12189 
   11254     6485      -43    -1906    -2177    -5942   -11535   -17460 
  -20429   -15718    -4904     5738     9456     5981     3940     6997 
    9092     6313     1467     -589     1043     1566      379     3160 
    6276      606   -10527   -17355   -15241    -6366      383      392 
     639     5374     9498    10145     7150     -841    -9331   -11495 
   -9732   -10168   -12110   -11354    -7152    -1069     6312    14523 
   22582    27190    23008    12174     2826    -5055   -13216   -15462 
  -12935   -14311   -17730   -18137   -16067    -9009     3165    13301 
   18234    19026    16054    11584     7792     4766     1289    -5468 
  -15392   -21660   -17593    -6696      174    -1356    -5584    -5815 
    -855     4970     8302    11514    15037    14064     9178     5999 
    3555    -2019    -9404   -14756   -14126    -9148    -7388    -7966 
   -4812     -488     1628     2789     3692     5622     7450     5287 
    1732     1208      299    -3261    -4321    -1414       85    -1223 
   -2440    -4337    -6312    -3285     3065     5184     2419       59 
     847     2790     2211     -966    -4178    -6666    -7298    -5211 
   -1915     2608     5660     2577     -851     2573     8087     8991 
    4361    -1501    -1845      796    -3279   -12823   -18484   -18334 
  -14382    -5778     3365     7136    10010    15604    17562    14528 
   11269     6363    -1394    -8152   -13096   -15237   -12017    -6853 
   -3522     -363     3933     9288    14470    14601     7407    -1726 
   -7468   -11133   -15236   -17668   -15581    -9082     -715     4500 
    4515     5154    10327    15398    15552     9456      737    -2994 
   -2509    -3959    -7037    -9809   -10430    -8047    -6821    -6966 
   -3834     2791    11654    19819    19688    10898      996    -8391 
  -17053   -19674   -15935   -11033    -6501    -1946     3511    11709 
   18027    15846     8041      473    -5514    -9074    -9543    -8951 
   -8235    -4239     2810     6561     5795     5132     4907     2304 
   -3370    -9477   -10508    -5424    -1213    -1080      747     6843 
   12047    13294    10899     3327    -5146    -6879    -7705   -14454 
  -18847   -15203    -7562      845     7458    12001    14836    11349 
    3609     2994    10169    12348     3446    -7264   -11179   -12883 
  -16271   -16814   -15838   -16588   -11773     1533    14710    21975 
   23719    23429    22497    15962     3933    -6744   -16582   -28089 
  -35525   -32799   -19737    -3990     4081     7754    17246    29706 
   36805    34734    21733     3744    -9594   -18322   -24991   -26943 
  -24641   -21614   -18913   -14904    -5134    10821    24705    29701 
   27997    25097    19458     5366   -11504   -19001   -17822   -17975 
  -22177   -22738   -14875    -4857     2548    10292    17825    19109 
   13169     7200     5881     5085      843    -5412   -11847   -16787 
  -15843    -6983     2162     3106     1502     7200    14312    11871 
    3712     -205     1533     2419    -3261   -11904   -16598   -17582 
  -16961   -13035    -5594     2628     9707    14675    16505    15507 
   14258    13086     7632    -3215   -13207   -17504   -18426   -19145 
  -16802    -7076     5023    10409    10482    11874    14042    10848 
    1136    -6559    -8055    -9744   -11060    -6311     -665     1709 
    4120     3607    -1108    -3049    -1468      351     2637     4602 
    5474     4432      633    -2740    -6029   -12839   -17429   -14631 
  -10012    -5702     1333     9166    15156    18500    17532    14265 
   11404     5266    -6199   -19282   -30181   -32771   -23510    -9760 
    1960    11954    17775    19326    24256    32008    29528    12856 
   -6575   -19668   -27031   -34385   -43555   -44589   -32745   -19701 
   -9683     3335    13635    14200    12560    13266     9921     2000 
   -6509   -14049   -15157   -10758    -7443    -2081     4938    11696 
   25956    46303    64258    75382    72102    48432     7549   -36123 
  -66564   -85298  -103080  -119418  -125207  -115819   -96850   -74958 
  -43830     7404    67992   110728   130239   142474   152389   154611 
  143742   113701    65195     6018   -54409  -104924  -137810  -151507 
 -144616  -116209   -75297   -37044    -2551    36316    69519    78460 
   66715    50869    35625    15905    -9807   -36038   -55379   -63103 
  -60721   -54606   -46076   -32771   -16244     6561    44425    94786 
  143321   180065   201622   206308   192659   151873    75147   -28680 
 -140119  -233118  -280844  -285627  -268621  -230296  -156706   -44645 
   88657   204338   265111   261711   206356   123264    39075   -39189 
 -104888  -126729  -106672   -88487   -61107     3504    64941    96739 
  109652    96537    63227    24312   -15160   -44844   -60957   -56552 
  -26771     1008    -2589   -27345   -44327   -46121   -45916   -44678 
  -31527   -13024     -976     6211     8461     2340    -2374     8005 
   28212    46114    56431    54575    43729    33037    19633   -10461 
  -58837  -103820  -129799  -145571  -145134   -98710   -11240    76280 
  142435   184631   204894   212041   192377   124050    19317   -92373 
 -189260  -258770  -273943  -245614  -245710  -215354   -54862   107217 
  177317   236540   270800   255425   236200   195196   115504    26380 
  -39190   -75799  -114432  -166719  -200703  -198979  -200453  -185017 
  -88921    10943    53377   108476   152901   142528   135463   126546 
   79219    15461   -42610   -80593   -91841   -82144   -56581   -26221 
  -11048    -2442    20120    24271     1703      -81     9356     4692 
    1200   -11782   -38435   -49972   -41947   -25637      641    32231 
   54079    69977    86976    93073    84824    66985    41169    10071 
  -31961   -84370  -129990  -154959  -149569  -112226   -60777   -11454 
   32979    68010    87558    89584    73290    44631    16497    -5933 
  -28197   -45323   -36351     -184    34472    50735    52698    40945 
   15433   -17455   -45846   -54417   -46749   -43823   -48428   -46018 
  -28795    -2226    20476    35537    43070    33574    14014     3711 
    3165     9764    17705    12344      661    -7965   -22947   -37076 
  -35830   -25552   -14597    -7241    -4409     3246    18463    31698 
   36717    34171    24738     8604    -7858   -13510   -12110   -20358 
  -31448   -30141   -18871     7095    42014    59117    53991    43422 
   36038    25389     6610   -11848   -27513   -46449   -62984   -65462 
  -53831   -37318   -24528   -11365    18401    60461    87559    89063 
   74460    54035    31557     4193   -25598   -51509   -74001   -88603 
  -83084   -58922   -31159    -7850    12657    32827    48255    50391 
   39155    22843    10056     2794    -2986    -5092     1449     8000 
    2608    -5266    -1634      970    -9853   -20291   -20754   -17882 
  -15819   -15577   -14098    -6405      349        4      920     6600 
   10881    12737    15164    17135    13998     5968     1003     2749 
    6550     6582    -2659   -17799   -24143   -19125   -17459   -25818 
  -33683   -29332   -14434     1166    13174    24441    37432    47999 
   49898    44127    35464    25033    10463   -10122   -33559   -53318 
  -66017   -71193   -66609   -51202   -29444    -5432    19053    38765 
   50986    59755    63902    58059    44599    29479    14980    -2465 
  -27345   -50965   -59452   -54936   -48629   -40745   -23684      897 
   27043    50542    60241    51073    33829    18373     5047    -9925 
  -25008   -33799   -37791   -42809   -44913   -34564   -11801    12150 
   29797    41874    46521    40225    26226    11074    -3138   -18040 
  -31171   -36236   -34817   -34323   -30827   -17344    -3647     2683 
    9451    18546    28474    38601    38082    24817    11317      838 
  -10156   -17184   -15854   -11249    -8290    -6860    -5883    -3878 
   -3946    -9240   -14054   -14370   -13157   -10777    -4170     7411 
   19137    22144    13668     4423     7307    20463    30260    28896 
   22304    17031     6293   -15753   -39529   -54287   -57877   -52801 
  -44509   -33374   -12483    17626    46577    66658    74339    69931 
   59440    44845    23564     -419   -22604   -44335   -62646   -69531 
  -62874   -48509   -32440   -15560     4700    29493    50059    54033 
   45835    37206    27830    15871     3183   -11074   -24582   -32640 
  -34674   -30553   -20178    -6845     6910    20497    30662    33458 
   26175     9279    -8719   -20780   -29991   -40555   -51190   -54654 
  -40609    -9513    21057    36856    41053    40954    39152    35425 
   26638    10512   -10188   -30663   -48628   -61461   -64309   -55131 
  -35012    -9378    11881    26014    38901    53370    64708    63394 
   46252    23047     2124   -16858   -32544   -42002   -47258   -50310 
  -48455   -39301   -23715    -3069    19407    36934    44126    40381 
   31027    23506    16428     4475    -8926   -18496   -23746   -23566 
  -18874   -14970   -10422      697    12618    16798    18019    21540 
   23477    21649    16479     7788    -2844   -17127   -36625   -51615 
  -50851   -37052   -19772    -2961    12588    25348    34904    41986 
   45829    42111    26943     5624    -9292   -14810   -20425   -29238 
  -33870   -30497   -23274   -16958   -10129      445    11826    18341 
   18727    16924    16883    17555    14793     5906    -5483   -10967 
   -9842    -9184   -10625   -11731   -12939   -13682   -11237    -5988 
    -720     3670     6845     7339     5022     1815       71      635 
     966    -1728    -5532    -6193    -3060     -542    -2678    -7298 
  -10019   -10609    -9617    -5044     3029    12100    21666    29563 
   29679    20268     7672     -746    -4918   -11978   -24939   -36169 
  -38541   -35110   -29527   -16695     5872    29181    44801    51151 
   48455    38531    23016     3820   -13991   -27550   -36293   -37438 
  -31124   -21543   -10984    -1614     4463     9896    17311    24536 
   28861    30703    31793    29826    19970     4048   -10801   -22335 
  -33292   -43054   -45145   -34457   -16353    -2531     3932     8397 
   12969    16505    17089    13200     8646     6758     4607     1647 
     157    -1208    -2339    -1286    -1271    -5008    -7362    -3839 
    -175    -3804   -11221   -14266   -11971    -9302    -9362    -8730 
   -2276     8820    19530    27085    29783    26566    20106    14257 
