Origin Time       2024/04/02 04:24:00
Lat.              40.133
Long.             141.712
Depth. (km)       71
Mag.              6.0
Station Code      IWTH17
Station Lat.      39.6442
Station Long.     141.5977
Station Height(m) 202
Record Time       2024/04/02 04:24:51
Sampling Freq(Hz) 100Hz
Duration Time(s)  138
Dir.              2
Scale Factor      2942(gal)/8224139
Max. Acc. (gal)   20.280
Last Correction   2024/04/02 04:24:51
Memo.             
[...]
 -140119  -140119  -140119  -140120  -140120  -140119  -140119  -140119 
 -140119  -140120  -140121  -140120  -140119  -140119  -140121  -140120 
 -140120  -140121  -140119  -140119  -140120  -140120  -140117  -140117 
 -140120  -140120  -140119  -140119  -140119  -140117  -140119  -140120 
 -140121  -140119  -140117  -140119  -140119  -140117  -140119  -140120 
 -140119  -140119  -140120  -140120  -140120  -140123  -140121  -140121 
 -140121  -140120  -140121  -140121  -140117  -140117  -140120  -140120 
 -140119  -140120  -140120  -140120  -140121  -140121  -140121  -140120 
 -140120  -140120  -140120  -140121  -140121  -140121  -140120  -140119 
 -140120  -140119  -140120  -140123  -140120  -140121  -140121  -140116 
 -140116  -140120  -140119  -140119  -140123  -140121  -140119  -140117 
 -140119  -140120  -140120  -140119  -140119  -140119  -140119  -140119 
 -140119  -140120  -140120  -140120  -140120  -140119  -140117  -140120 
 -140121  -140120  -140119  -140120  -140121  -140120  -140119  -140119 
 -140120  -140121  -140119  -140119  -140123  -140123  -140120  -140121 
 -140121  -140119  -140119  -140120  -140121  -140120  -140120  -140119 
 -140120  -140120  -140119  -140120  -140123  -140121  -140117  -140119 
 -140120  -140119  -140120  -140121  -140120  -140119  -140117  -140117 
 -140119  -140120  -140121  -140121  -140120  -140119  -140121  -140121 
 -140120  -140119  -140119  -140120  -140119  -140117  -140119  -140121 
 -140120  -140117  -140117  -140120  -140120  -140119  -140119  -140117 
 -140117  -140119  -140117  -140119  -140120  -140120  -140121  -140120 
 -140117  -140120  -140121  -140120  -140120  -140119  -140117  -140117 
 -140119  -140119  -140117  -140117  -140120  -140121  -140120  -140120 
 -140120  -140120  -140117  -140117  -140119  -140121  -140120  -140120 
 -140121  -140120  -140117  -140120  -140120  -140120  -140120  -140120 
 -140119  -140120  -140117  -140117  -140121  -140121  -140119  -140120 
 -140120  -140120  -140121  -140119  -140117  -140123  -140121  -140119 
 -140120  -140121  -140119  -140121  -140123  -140121  -140120  -140119 
 -140119  -140119  -140117  -140120  -140120  -140119  -140119  -140119 
 -140117  -140116  -140117  -140119  -140117  -140119  -140120  -140119 
 -140119  -140120  -140119  -140119  -140121  -140121  -140121  -140121 
 -140121  -140120  -140119  -140123  -140123  -140119  -140119  -140120 
 -140119  -140120  -140119  -140117  -140119  -140119  -140119  -140121 
 -140121  -140117  -140119  -140120  -140121  -140121  -140121  -140121 
 -140119  -140119  -140121  -140119  -140117  -140121  -140121  -140119 
 -140116  -140119  -140123  -140120  -140117  -140120  -140121  -140121 
 -140123  -140123  -140120  -140120  -140121  -140121  -140120  -140121 
 -140121  -140120  -140121  -140121  -140119  -140119  -140121  -140120 
 -140119  -140120  -140120  -140120  -140123  -140121  -140120  -140120 
 -140120  -140120  -140119  -140119  -140121  -140120  -140119  -140120 
 -140120  -140121  -140121  -140121  -140123  -140120  -140119  -140121 
 -140121  -140119  -140120  -140120  -140117  -140119  -140120  -140121 
 -140121  -140121  -140120  -140119  -140119  -140121  -140123  -140121 
 -140119  -140120  -140123  -140119  -140113  -140112  -140111  -140119 
 -140134  -140140  -140140  -140142  -140138  -140128  -140119  -140098 
 -140082  -140096  -140134  -140163  -140163  -140117  -140046  -140019 
 -140103  -140185  -140144  -140111  -140109  -140123  -140250  -140135 
 -139689  -139522  -139792  -140111  -139999  -139529  -139575  -140292 
 -140790  -140645  -140228  -140171  -140706  -140999  -140482  -139954 
 -139692  -139595  -140366  -140926  -139419  -137600  -138037  -139984 
 -141204  -140498  -139382  -140543  -142669  -142719  -141691  -140795 
 -139442  -138950  -139550  -139093  -137550  -137581  -140071  -141430 
 -139992  -138522  -138029  -139361  -142541  -143523  -141610  -140532 
 -141276  -140539  -136593  -134985  -137741  -138109  -138375  -143059 
 -143352  -139857  -141559  -143888  -143644  -141582  -136659  -134426 
 -136551  -139908  -143284  -143379  -142307  -144239  -143762  -139248 
 -138160  -138919  -135622  -132842  -135716  -140752  -144093  -145774 
 -143253  -139206  -141162  -141839  -135072  -133482  -140393  -142766 
 -138424  -135495  -137274  -142862  -147511  -146416  -143041  -140710 
 -137187  -135774  -137034  -135845  -138206  -146038  -149196  -144724 
 -136425  -134208  -142506  -146753  -143066  -141671  -138083  -131182 
 -131733  -134040  -132723  -137805  -144632  -146485  -150550  -151810 
 -146449  -143613  -140058  -132464  -131529  -137019  -138796  -139295 
 -142882  -142304  -137940  -139353  -139556  -134364  -137357  -143892 
 -143414  -142915  -141434  -137879  -140491  -143568  -141440  -141255 
 -141305  -136976  -134111  -137386  -145542  -149631  -144656  -141704 
 -139689  -130503  -127947  -135209  -138361  -140952  -145292  -143226 
 -141848  -145023  -143461  -138956  -137754  -139789  -140069  -137731 
 -139611  -141149  -139688  -141272  -139457  -133236  -131858  -134423 
 -137511  -143422  -150966  -153557  -148849  -141447  -138300  -139444 
 -137717  -135418  -138262  -140609  -140165  -140591  -138811  -136030 
 -138353  -140460  -138515  -139475  -142824  -144293  -144786  -140686 
 -134590  -135523  -138038  -137398  -139004  -141686  -141995  -142492 
 -146700  -149033  -143707  -136711  -131541  -131394  -135311  -132559 
 -132055  -142389  -147486  -144277  -141856  -140422  -139542  -140022 
 -143321  -143827  -139190  -141849  -145137  -136528  -132781  -140348 
 -143912  -141697  -140526  -141581  -141543  -137020  -134006  -139776 
 -146529  -144531  -140805  -141598  -139091  -135465  -140140  -144713 
 -143541  -143537  -139599  -132588  -136845  -143484  -138392  -134431 
 -138118  -138476  -137801  -141126  -142357  -141110  -142761  -145503 
 -143972  -140910  -138838  -137027  -138986  -140526  -137164  -137290 
 -141183  -141474  -142777  -144661  -138785  -135288  -141604  -145102 
 -142975  -137889  -132499  -135982  -140347  -138566  -142318  -149478 
 -149357  -144423  -139318  -134688  -133119  -133847  -133388  -136175 
 -141777  -141245  -138037  -140105  -143658  -143390  -141141  -139630 
 -139313  -142122  -145914  -145879  -143213  -139862  -139158  -141775 
 -140533  -136656  -137515  -141270  -142514  -141420  -140594  -138325 
 -134991  -136995  -142419  -142874  -142796  -146122  -142929  -135769 
 -136339  -139228  -136433  -132466  -134912  -143185  -146842  -143380 
 -140472  -138202  -135248  -134779  -137457  -140975  -141138  -138739 
 -137172  -136949  -141245  -146151  -143291  -137749  -136426  -139652 
 -145169  -144846  -138311  -136753  -140436  -142997  -145659  -145947 
 -141208  -137323  -135776  -134955  -137830  -142206  -143162  -143311 
 -142616  -138380  -136694  -140310  -142723  -141508  -140530  -138608 
 -131701  -129597  -137747  -142264  -140680  -141685  -144221  -145639 
 -144981  -141987  -139839  -139866  -140208  -140001  -139020  -137463 
 -138381  -140520  -140717  -143575  -145362  -140783  -138592  -138223 
 -136586  -139972  -143388  -141014  -138200  -137836  -139401  -139973 
 -137519  -138415  -144516  -147476  -143195  -136599  -135603  -140024 
 -142246  -141565  -141547  -141790  -141110  -138289  -135079  -136201 
 -140292  -142452  -141895  -141241  -142146  -141235  -137047  -135120 
 -137891  -140682  -140244  -139170  -139989  -142226  -142653  -137801 
 -134431  -139876  -145372  -144791  -142827  -137790  -133832  -140425 
 -147318  -146261  -144423  -140709  -135143  -135916  -140409  -139858 
 -135832  -136779  -141925  -143019  -141380  -141393  -141147  -140490 
 -138458  -135110  -135253  -138362  -142555  -145168  -139245  -131576 
 -134681  -141269  -140675  -137863  -139747  -143386  -143675  -141799 
 -139444  -137566  -138615  -139900  -139259  -139818  -141331  -141685 
 -140452  -138531  -139027  -141948  -142681  -140189  -140331  -142801 
 -140778  -139475  -142242  -141107  -139149  -140356  -139364  -139338 
 -142647  -140714  -136236  -139016  -142435  -142045  -142969  -141577 
 -139020  -140683  -142828  -145301  -147074  -143190  -139047  -138777 
 -136370  -132394  -133300  -137598  -139993  -139611  -138991  -139760 
 -140246  -139673  -140633  -142246  -142923  -144946  -145316  -141465 
 -138581  -137258  -134060  -131753  -134596  -139468  -141581  -142654 
 -142840  -141521  -142045  -142396  -141567  -142272  -141421  -137785 
 -135368  -138246  -143075  -141685  -137641  -135402  -133436  -135394 
 -140206  -144174  -147370  -145746  -141755  -142072  -140879  -136553 
 -137701  -141484  -141396  -141362  -142203  -139194  -134904  -135653 
 -140647  -143723  -144070  -146259  -147043  -141235  -137173  -141748 
 -144078  -137277  -134150  -140309  -142215  -136310  -136687  -144705 
 -145837  -141077  -139646  -137543  -134860  -137693  -142377  -143171 
 -142273  -142252  -139720  -137112  -137916  -136622  -137228  -143475 
 -144593  -141764  -140570  -135669  -132673  -139650  -147299  -143592 
 -133205  -132236  -140339  -142256  -139818  -142485  -143845  -140009 
 -135684  -133213  -137970  -143602  -139568  -138528  -143271  -140730 
 -135774  -136000  -139936  -141309  -138879  -143988  -150174  -143881 
 -137123  -138011  -138353  -136999  -138692  -141760  -142902  -142211 
 -138827  -138287  -141993  -139244  -136117  -140494  -140773  -138173 
 -140652  -140940  -138628  -142200  -146121  -142391  -139449  -141412 
 -141011  -138223  -136768  -138734  -141548  -139769  -137047  -136656 
 -137835  -142053  -143526  -140404  -140903  -142299  -140921  -141474 
 -141785  -140502  -140620  -140710  -139374  -136911  -135414  -136660 
 -139240  -142341  -143221  -139650  -137782  -142882  -148845  -148725 
 -145179  -141555  -138565  -138276  -137627  -134551  -135095  -136679 
 -136100  -142092  -147658  -141799  -136324  -137708  -139291  -139199 
 -140308  -143610  -142565  -138217  -141489  -147798  -146797  -140680 
 -133552  -129714  -132059  -135839  -139468  -143854  -143885  -140787 
 -141841  -144679  -143553  -138558  -134374  -136435  -140393  -139815 
 -141014  -146457  -146060  -139777  -138133  -141025  -140248  -136480 
 -138927  -145390  -144248  -138619  -137817  -140803  -141886  -137112 
 -131911  -132713  -136077  -140634  -143854  -141421  -139857  -140104 
 -136345  -133589  -135487  -139591  -142372  -139217  -136104  -141512 
 -147734  -146149  -141297  -137141  -135149  -137396  -140221  -141933 
 -143048  -140821  -137856  -139772  -145004  -146068  -140886  -137138 
 -138419  -139041  -137695  -138449  -141242  -142106  -138049  -135375 
 -140362  -144560  -143178  -140744  -137590  -136792  -140310  -141436 
 -139124  -139190  -142485  -143953  -139488  -134703  -136841  -140134 
 -139259  -139291  -140454  -139383  -138688  -137938  -135942  -138492 
 -143926  -145920  -146175  -143445  -139032  -139378  -140849  -141434 
 -143904  -144093  -141151  -139984  -140568  -139684  -137897  -138821 
 -142966  -146128  -144705  -140624  -139024  -141714  -145019  -144540 
 -141257  -139282  -137220  -134663  -138478  -144354  -143689  -143503 
 -145682  -142099  -135799  -135812  -140390  -141284  -138809  -137624 
 -137405  -139337  -145779  -149277  -143419  -137675  -137292  -136725 
 -138485  -143341  -144772  -143707  -143267  -142623  -143090  -144007 
 -139731  -135553  -141336  -146422  -141555  -137859  -139533  -137809 
 -133180  -133971  -135533  -130842  -129258  -134924  -139523  -142763 
 -143749  -138198  -134568  -137351  -139044  -138478  -138289  -140985 
 -147260  -150884  -149376  -144428  -137363  -135510  -142507  -148629 
 -145169  -141022  -147523  -151502  -141126  -131634  -130935  -133118 
 -137709  -140263  -139679  -141295  -142252  -139452  -136749  -138674 
 -139703  -135176  -137683  -148502  -151756  -144532  -135232  -133641 
 -141729  -146503  -141936  -139216  -143170  -146271  -145378  -143228 
 -142923  -144521  -140373  -133100  -136217  -140093  -133641  -131508 
 -135179  -133543  -134530  -142360  -146006  -144363  -141991  -138650 
 -137224  -139816  -144872  -147978  -145234  -140481  -138468  -140201 
 -143175  -142836  -139287  -135148  -134698  -140852  -145536  -142371 
 -137614  -137967  -145442  -154811  -156423  -148745  -137924  -130519 
 -131689  -141677  -151162  -156604  -162610  -163331  -157378  -152837 
 -152949  -157061  -156973  -152645  -155024  -158542  -155061  -152747 
 -156100  -159526  -158267  -147623  -129312  -117894  -118559  -120415 
 -122789  -129058  -127796  -119884  -121969  -128773  -127816  -126769 
 -129340  -126628  -115762  -104391  -105007  -119728  -138559  -150493 
 -146523  -135889  -136305  -139504  -132672  -126748  -129797  -134122 
 -137830  -141405  -138900  -131630  -128977  -140190  -163494  -181226 
 -182348  -170094  -151021  -136586  -132192  -131723  -133560  -137416 
 -143187  -153355  -159773  -158409  -152934  -136617  -113663  -106358 
 -126353  -156924  -167028  -150022  -123687  -101375   -89490   -85371 
  -84739   -96831  -118987  -136355  -153760  -170866  -168191  -147208 
 -132908  -138977  -153941  -150275  -120735   -98504  -104508  -122589 
 -139793  -149935  -145720  -134731  -131005  -130616  -120071  -113694 
 -137150  -169750  -177137  -173379  -177916  -179477  -169495  -145525 
 -113738   -97133  -100256  -111528  -130662  -146508  -142161  -127573 
 -119182  -116950  -119083  -128645  -143619  -152343  -146784  -137652 
 -132135  -127321  -143993  -184543  -196812  -164170  -128281  -111238 
 -112981  -126387  -130092  -123901  -122494  -121390  -131307  -166486 
 -188366  -174355  -169001  -181512  -178661  -167717  -156033  -137853 
 -134839  -155575  -180940  -188882  -163991  -120318   -93424   -99126 
 -124266  -153569  -181689  -196017  -180145  -145804  -122388  -112695 
 -105213  -106658  -120120  -130308  -136279  -146712  -144853  -123399 
 -110253  -119163  -137423  -152489  -159894  -161704  -151591  -130385 
 -126166  -143359  -153071  -152791  -151858  -142159  -131380  -130092 
 -131271  -137178  -141457  -129907  -117402  -121373  -132268  -131383 
 -129312  -148960  -166167  -158642  -148566  -141386  -132174  -130972 
 -133176  -134385  -140044  -145928  -151344  -155964  -150145  -138920 
 -140219  -155760  -163441  -147591  -133081  -145990  -161643  -152936 
 -138419  -136836  -141952  -148610  -151937  -151530  -153652  -149478 
 -137733  -137766  -143839  -129674  -102651   -89834   -92213  -103054 
 -123896  -145727  -162039  -174914  -176351  -161021  -134939  -105102 
  -89640  -103141  -128772  -143988  -148232  -156408  -174951  -179153 
 -149106  -118817  -124021  -137403  -134365  -145156  -170235  -167140 
 -145471  -141365  -145112  -140694  -133764  -128263  -129610  -135444 
 -128540  -114617  -116382  -129951  -140528  -146291  -148458  -146635 
 -142064  -142755  -148242  -144236  -137619  -144324  -152275  -149820 
 -147820  -152007  -153894  -150562  -146306  -141237  -136240  -135625 
 -141450  -147231  -142998  -137511  -142531  -150391  -153196  -145551 
 -130770  -124637  -125628  -127564  -135765  -144795  -145839  -139815 
 -135333  -138500  -138299  -131895  -131333  -130886  -125834  -123215 
 -117396  -114619  -131028  -149998  -156077  -161514  -159412  -139973 
 -127234  -130292  -130439  -124816  -125107  -134680  -142040  -140273 
 -141556  -145305  -139572  -138115  -149342  -154391  -149002  -144915 
 -146461  -152136  -156034  -153081  -146179  -144238  -148491  -145670 
 -130783  -120847  -130474  -146989  -149439  -141396  -136516  -137369 
 -144421  -154464  -157528  -149978  -142244  -144609  -149408  -147085 
 -139093  -131492  -133370  -133249  -116538  -109782  -124645  -133532 
 -135413  -139588  -138242  -138804  -146785  -151497  -154291  -157323 
 -154456  -147946  -141000  -137774  -139055  -132468  -122860  -126002 
 -131363  -128846  -128002  -131615  -134906  -135712  -133852  -135945 
 -147004  -159314  -163950  -157135  -141123  -127314  -120837  -122866 
 -133645  -136773  -134649  -150138  -166519  -159645  -143870  -136890 
 -139804  -141781  -140448  -145843  -148313  -141571  -138982  -136734 
 -130331  -132727  -142096  -145686  -148140  -154013  -151669  -141137 
 -132011  -122353  -117213  -125238  -137957  -144509  -142800  -136476 
 -135422  -145254  -154259  -151605  -146296  -144022  -141369  -143019 
 -147648  -145835  -140317  -138859  -138541  -137257  -138365  -136638 
 -132970  -136493  -140821  -140661  -142337  -145461  -146789  -148161 
 -147766  -139814  -130505  -131768  -138770  -141874  -141781  -139033 
 -134929  -133056  -133101  -137120  -143471  -142389  -136408  -134952 
 -134191  -133672  -141303  -150361  -150279  -146971  -148629  -153384 
 -155223  -149253  -140760  -141500  -145584  -142696  -140348  -139220 
 -136194  -139241  -143650  -143922  -145046  -141000  -135959  -144134 
 -153666  -154268  -154318  -150400  -139139  -129791  -126708  -130501 
 -140167  -147096  -146454  -144030  -141215  -136869  -135598  -136406 
 -138125  -142690  -145605  -145004  -140971  -135541  -136460  -137852 
 -132447  -131210  -135434  -135507  -135931  -140277  -141000  -137471 
 -136456  -141312  -146677  -143062  -134221  -133022  -138516  -138904 
 -132729  -130036  -135950  -142763  -140906  -136517  -139611  -144570 
 -144034  -138393  -133247  -134979  -136424  -131328  -130099  -135558 
 -144000  -155837  -157698  -144622  -134462  -129521  -123329  -121490 
 -124255  -129713  -135345  -134218  -131421  -132116  -129978  -126015 
 -128031  -134141  -133115  -125736  -125702  -134206  -143295  -145863 
 -140302  -138620  -142825  -143680  -142861  -139880  -135438  -138154 
 -145199  -147037  -143112  -141798  -147154  -151005  -149813  -148090 
 -147514  -149590  -150106  -143436  -138294  -141424  -144834  -144305 
 -143989  -144331  -143419  -141880  -139985  -138882  -141134  -145485 
 -147838  -147625  -148830  -152058  -152767  -149821  -145382  -142248 
 -142827  -145787  -152000  -161262  -161022  -146742  -136404  -139124 
 -142026  -137706  -133691  -135670  -140081  -141384  -139801  -139946 
 -139490  -132883  -126936  -130518  -137201  -138059  -136583  -135318 
 -130914  -128094  -129945  -128302  -123430  -124263  -130422  -135475 
 -135384  -132483  -132606  -135456  -137486  -139689  -142376  -140790 
 -137987  -140227  -139402  -131824  -128679  -132435  -133955  -133461 
 -139770  -147440  -147934  -149102  -152201  -150064  -146584  -144911 
 -144043  -145053  -144319  -139914  -138442  -144019  -150020  -151004 
 -152010  -152687  -147537  -142504  -144120  -148358  -150823  -151850 
 -152018  -151195  -148953  -145741  -143213  -140069  -137299  -137883 
 -138021  -138245  -143016  -147735  -149885  -149532  -142993  -134761 
 -132919  -136566  -137482  -133770  -136674  -145470  -145613  -138936 
 -137026  -142044  -146634  -143932  -139904  -139519  -138219  -139185 
 -143677  -143908  -142452  -142851  -140525  -137463  -137038  -138268 
 -139683  -138334  -135017  -133011  -133481  -135841  -139054  -144059 
 -147380  -143823  -137303  -134248  -133664  -132672  -133413  -134842 
 -135099  -137494  -138365  -134569  -132538  -133373  -134095  -134812 
 -135422  -137200  -140468  -142534  -142491  -142736  -144142  -142341 
 -136989  -134860  -137158  -138634  -136745  -135149  -136919  -138211 
