Origin Time       2024/04/02 04:24:00
Lat.              40.133
Long.             141.712
Depth. (km)       71
Mag.              6.0
Station Code      IWTH27
Station Lat.      39.0307
Station Long.     141.5320
Station Height(m) 80
Record Time       2024/04/02 04:24:58
Sampling Freq(Hz) 100Hz
Duration Time(s)  127
Dir.              4
Scale Factor      7845(gal)/8223790
Max. Acc. (gal)   73.321
Last Correction   2024/04/02 04:24:58
Memo.             
[...]
    3623      957    -5283   -10359   -11755    -9170    -6644    -7204 
  -10521   -15525   -16893    -9197     3360    12633    12405      716 
  -12852   -18412   -18102   -15194   -12599   -14013   -13150    -4706 
    3096     3117    -2756    -9805   -13228    -9983    -1413     4108 
   -2482   -15117   -18102   -10017    -1709     1563     -234    -6617 
  -13514   -14677   -10597    -8097    -6625    -2569    -1405    -4024 
   -5539    -8694   -11614    -9207    -6898    -6465    -3925    -2069 
   -3473    -7057   -10894   -11080    -8689    -7997    -7960    -7488 
   -7075    -5672    -3634    -1863       33      891    -2747   -10582 
  -16723   -18978   -19319   -16206    -9188    -2172     2737     3443 
   -1958    -7761    -8283    -5223     -317     3334     -882   -13024 
  -24106   -25832   -18611    -8328     2027     9259     8403     2330 
   -4158   -12742   -19828   -18430   -13065   -10318    -8056    -5521 
   -3303      639      961    -7234   -14966   -15052    -9537    -1237 
    1445    -6068   -13830   -15631   -13420    -7256     1435     7294 
    4531    -4403   -10435   -12727   -13477    -9853    -5317    -5776 
   -8193    -8587    -8298    -9348   -10968   -11190   -10226    -7244 
    1250    10227     7137    -6157   -15394   -18314   -19912   -15634 
   -3316     6030     4779    -2586    -9757   -12468    -9177    -3958 
   -3325    -8176   -11955   -12123   -12162   -11545   -10314    -9860 
   -6382    -1760    -2143    -3119    -1059    -1929    -8047   -15442 
  -18724   -14439    -6280      496     4440     4002    -1031    -8424 
  -14527   -14492    -9960    -7573    -6010    -1954     -167    -3331 
   -7866   -11445   -13127   -12650   -11581    -9429    -3285     3908 
    3531    -5580   -15855   -21600   -20768   -13166     -757    11469 
   14037     3773    -9004   -15699   -14098    -6080    -3744   -12050 
  -18050   -15160    -9009    -3577    -1269    -2864    -5674    -7585 
   -6458    -1165     2806      172    -4965    -8630   -13444   -18153 
  -17936   -12147    -2431     4961     2560    -5877   -11396   -10423 
   -5219    -2975    -5576    -9316   -14528   -15873    -7870    -1642 
   -6192   -13069   -11056    -1220     5246     4338     -305   -10145 
  -20938   -21365   -14504    -9792    -5934    -1240     1718     1983 
     333    -1987    -6066   -11275   -11955    -8901    -9009   -11103 
  -10571    -9013    -8553    -7483    -3894      164      595    -3026 
   -9790   -18279   -20544   -13234    -5487     -287     4135      912 
   -8974   -12073    -4561     2023    -1958   -11037   -16794   -19511 
  -15574    -2641     4758    -1576    -9337   -10201    -6883    -2239 
    -403    -5170   -12738   -14295    -7400    -1132    -2215    -6349 
  -10112   -13186   -12992    -8519    -3438    -2844    -5440    -7101 
   -9054    -9864    -6299    -2698    -1888    -2307    -5574   -10905 
  -14346   -14121    -9040    -2922    -1829    -2239     -911    -3690 
  -10118   -12614   -12506   -14650   -13458    -4375     2616     -913 
   -8699   -11685    -9302    -6192    -2843      234    -3645   -12109 
  -13296    -8253    -6424    -7510    -8414   -11403   -13478    -7666 
     398     1112     -882     -943    -4810   -10651   -10914    -8286 
   -7096    -6262    -5800    -6413    -7557    -7538    -5875    -6400 
   -8151    -5584    -3408    -5973    -7041    -7492   -12233   -14650 
   -9763    -4045    -2016    -1308    -3015   -10255   -16119   -12221 
   -4306     -413      496    -2524   -10312   -14629   -11751    -8164 
   -6706    -4810    -2304    -2196    -5452    -7123    -5780    -8461 
  -13886   -13286    -9452    -7512    -4017      190      -98    -5108 
  -11375   -14346   -12445    -7896    -2822     -611    -3586    -7462 
   -7245    -4737    -4595    -8257   -13427   -15429   -11114    -3917 
    -711    -3086    -7481   -11133   -11724    -7551    -2134    -2236 
   -8136   -12089    -9639    -3846      441     -143    -5271   -11013 
  -12463    -8270    -5344    -8964   -12266    -9705    -5896    -3755 
   -3115    -5896    -9147    -7947    -5795    -5860    -6288    -7969 
   -7998    -2524     1209    -1606    -6679   -11924   -15132   -14310 
  -13305   -12981    -8671    -1979      843      577      114    -3379 
  -10291   -14720   -13259    -9313    -7254    -6235    -4152    -3607 
   -6359    -7585    -4068    -1169    -3677    -8229    -9952    -8816 
   -8572   -10976   -11209    -6929    -4243    -4118    -1799     -777 
   -5787   -12592   -15622   -13135    -6925    -1143     1125    -2461 
  -10143   -14358   -11835    -6176    -1547    -1503    -7087   -11936 
   -8689    -3508    -6617   -12523   -12685   -10033    -6313     -877 
     238    -6029   -13548   -13949    -4742     3632     1036    -6297 
  -10872   -14056   -13948    -8387    -3709    -3861    -4588    -3977 
   -3902    -4769    -7080    -9574    -9586    -8946    -9077    -8561 
   -8598    -8190    -4187     -731    -2782    -6637    -8286    -8306 
   -6625    -5366    -8074   -12048   -13732   -11982    -4542     2968 
     259    -8478   -12529   -12205    -9687    -2554     4939     3537 
   -6116   -14509   -16735   -13918    -8903    -5814    -5343    -5449 
   -7001    -8411    -4861      477     -765    -7403   -10866    -9294 
   -7731    -7716    -7599    -9501   -13591   -13333    -6601      938 
    4473     2350    -2903    -7153   -12064   -17586   -16290    -8687 
   -4831    -6058    -6670    -6345    -5179    -2439    -2242    -7052 
  -13139   -14615   -10057    -4496     -699       87    -5448   -12132 
  -11630    -7900    -6802    -5298    -2409    -2878    -7074   -10297 
  -11983   -14265   -13165    -6300    -1082    -1020     -480      815 
   -2974   -10316   -12534    -7650    -3777    -5512    -8637   -10763 
  -12834   -13702   -12033    -8563    -5481    -2115     2825     3885 
   -1544    -7709   -12040   -14234   -12687    -9252    -6735    -6961 
   -8791    -7115    -2316     -243    -3372    -8494   -10239   -10212 
  -11691    -9437    -4922    -7431   -11558    -8910    -5004    -1104 
    4445     3222    -6527   -15565   -17637   -12804    -7196    -4517 
   -2169    -2141    -4804    -4394    -5051   -12280   -16930   -12710 
   -5765     -330     2079    -1800    -9594   -12992    -9000    -4727 
   -5458    -6775    -7767   -11780   -12676    -6679    -2640    -4116 
   -5578    -5447    -5225    -5575    -7295    -9559   -10428   -10010 
   -9871    -8591    -4329    -1780    -3485    -4006    -3210    -6177 
  -11265   -13586   -11898    -7450    -2469     -292    -2641    -6907 
  -10293   -11632    -9722    -7113    -8074   -10658   -10015    -5863 
   -2130    -2444    -5293    -7406    -8154    -5711    -2735    -6741 
  -13521   -13806   -10339    -7145    -2434     1100    -1313    -6971 
   -9464    -8414    -8375    -9039    -7022    -5736    -7746    -7950 
   -6361    -6837    -7564    -8249   -10012   -10519    -8469    -4158 
   -1706    -4422    -5545    -3912    -7026    -9571    -6002    -5557 
   -9733   -10419    -8151    -6308    -5202    -4853    -4464    -5292 
   -7339    -8201   -10192   -12564    -9173    -3732    -2685    -2728 
   -3184    -7576   -11989   -10775    -7381    -8453   -10423    -6798 
   -2982    -3956    -4430    -3435    -5503    -7928    -6340    -5111 
   -8652   -12515   -11591    -8411    -6588    -4135    -1386    -2299 
   -4970    -6528    -9053   -12229   -13031   -10845    -6454    -1701 
    1134      110    -5706   -12025   -14004   -12749    -8549     -642 
    4950     1615    -8595   -18261   -21139   -16472    -7427     2864 
    7256      718    -7992   -11821   -15187   -16139    -9894    -4117 
   -4225    -3512      144      495    -4441   -10053   -11823   -10509 
   -7940    -3616    -1316    -5101   -11314   -15465   -15373    -8581 
     413     2096    -2799    -7140   -10157   -11693    -9869    -8861 
  -10831   -10073    -6092    -3618    -2301    -1634    -4433    -9061 
   -9321    -4855    -2477    -4414    -6100    -5783    -5555    -7346 
  -12380   -18341   -18517    -9944      838     6397     4615    -3655 
  -11758   -14038   -12880    -8931    -4355    -4588    -5760    -4401 
   -5699   -10374   -13662   -11803    -4561     1142     -446    -4510 
   -5771    -7407   -11858   -13271    -9926    -9479   -10632    -6633 
   -2783    -3669    -4997    -5476    -6786    -9445   -11692   -10557 
   -8245    -6168    -1730      575    -4428   -11674   -14455   -12052 
   -7441    -3623    -2290    -3970    -6327    -6216    -4668    -4696 
   -7807   -12448   -14330   -11893    -6686    -2268    -3981    -8991 
   -7935    -1799      309    -3140    -6683   -10336   -17240   -20034 
  -10366     2173     3549    -2137    -4380    -5591    -9221   -10832 
  -11581   -14173   -13209    -7523    -1740     3032     3492    -3921 
  -12499   -13813    -9320    -5078    -4522    -7431    -9495    -7234 
   -4136    -4198    -5934    -8050   -10187   -10498    -8556    -4672 
   -1121    -2592    -7501   -10072    -9985    -8405    -5263    -4525 
   -7916    -9599    -7879    -5721    -1452     1251    -5395   -13717 
  -12548    -7453    -5734    -5545    -6353    -8144    -7516    -3381 
    1198     1273    -4082   -11483   -19121   -20185   -10577    -4194 
   -8233   -10693    -6806    -1152     3215     2128    -4939   -12359 
  -14380   -10937    -8035    -8719   -10154    -9397    -5925     -569 
    4120     1780    -8179   -14845   -13045    -7857    -3040    -1935 
   -5652   -10254   -14332   -16850   -13614    -5787     -396    -1104 
   -4467    -4853    -2674    -2092    -3249    -6921   -13857   -16444 
  -10840    -6000    -7237    -9914   -10951    -9776    -4116     4059 
    7515     2313    -8139   -16005   -17340   -15599   -12355    -6289 
   -2396    -3973    -4414    -1298     -278    -2231    -5373   -10841 
  -15099   -13348    -8372    -3342      -10     -945    -3932    -7311 
  -11672   -13558   -12102    -9088    -4494    -2089    -4546    -7952 
   -9578    -9251    -7177    -5935    -6007    -5738    -7322   -10292 
  -10752   -10986   -11969    -8706    -1582     4461     4588    -3744 
  -12441   -13413   -11688    -9586    -4793    -3418    -5626    -4669 
   -5178    -9067    -9417    -8503   -10235   -11060    -8032    -2182 
     147    -4175    -8484    -9443    -9477    -8829    -8444    -7545 
   -4475    -4266    -7226    -6829    -5601    -7699    -8880    -6747 
   -4691    -6390   -11214   -13312    -9223    -2646     1429      463 
   -5050   -11001   -14578   -15408   -11659    -5881    -5659    -8764 
   -5992      739     3483     1645    -3226   -11853   -18382   -14793 
   -7776    -7618    -9690    -8201    -5283     -984     3774     3835 
   -1921   -10692   -17478   -15772    -8922    -5784    -5022    -3794 
   -4820    -7981   -10790   -10466    -6380    -3226    -3699    -6436 
  -10304   -11766    -9402    -7572    -5641    -1510    -2199    -9142 
  -11132    -6378    -6007   -10184    -8954    -3353     -885    -2263 
   -5472   -10014   -14740   -15003    -7163      781     -575    -5967 
   -9760   -13900   -13177    -4545     1105     -552    -2830    -5298 
   -9553   -12280   -12074   -11516   -11944    -8133     1715     6242 
     425    -6488   -12155   -18366   -17886    -8533      195     1242 
   -3495    -8576   -12036   -13740   -11167    -6439    -4410    -1694 
    3204     3927     -631    -6097   -10798   -16312   -21327   -19448 
  -11070    -5147    -2319     3446     7983     4194    -4857   -13262 
  -16393   -11661    -5044    -3958    -7839   -13004   -15057   -10662 
   -3177     2656     5211      729   -10625   -18550   -16831   -12136 
  -10929    -9583    -4081      511      368     -846    -3335    -8129 
   -8873    -6161    -7240    -8877    -7230    -6137    -6043    -6729 
   -9937   -13937   -15140    -8838     1730     3524    -3916   -10277 
  -13100   -11403    -4753     -344    -2851    -9115   -13914   -13876 
   -9378    -2469     1984    -1298    -7708    -9832    -8451    -5694 
   -3554    -5788   -10673   -13436   -13552   -12285   -10084    -7890 
   -7557    -7217    -2431     2251    -1383   -10575   -18378   -21533 
  -16515    -5004     3659     3846    -1726    -6426    -8218   -10447 
  -11352    -8571    -5738    -3734    -2875    -6956   -13744   -17404 
  -17354   -13004    -2435     8850    10779     3543    -3389    -9009 
  -16109   -17964   -12444    -7109    -4787    -5192    -8044    -7784 
   -1279     4760     3628    -3364   -10964   -14580   -13085   -10150 
   -9922   -13668   -18812   -18185    -8155     3323     6814     2814 
   -5756   -16341   -19859   -11619     -656     3092     -141    -4541 
   -6936    -6534    -5660    -9240   -14378   -13165    -4669     6818 
   14399    10150    -4774   -18773   -21824   -13535    -3150     -853 
   -6974   -14887   -18177   -13173    -3055     4679     5826      135 
  -10588   -21057   -21733   -10482     -965     -359      629     3526 
    3851     5637     6538    -1768   -17527   -33912   -41430   -32451 
  -14014     3603    16694    20776    15928     5956    -9454   -23391 
  -23718   -14022    -6018       32     5069     4681     3842     7381 
    4819    -8345   -20974   -28144   -31976   -29319   -18667    -6453 
    -746    -4468   -15221   -26638   -28459   -17672    -6955    -5341 
   -6110    -3858     4226    22364    37494    30277     4453   -28119 
  -58121   -65588   -45935   -22735    -5490    12224    24275    29833 
   36871    36262    21770     3152   -24541   -63620   -83783   -66337 
  -33405    -5130    23638    53339    64899    47898    18335    -3086 
  -13062   -18879   -24120   -30273   -38213   -43367   -38518   -17313 
   16744    40328    32001      862   -27560   -38627   -29258    -4121 
   23373    38271    30576     2243   -26433   -35128   -29162   -27641 
  -33173   -30932   -13568     7040    16991    11269    -9036   -31544 
  -42404   -38236   -16104    19434    41809    27662    -9591   -33149 
  -23402     5632    24564    17832    -6062   -35480   -64165   -70272 
  -39102     4496    30302    31599    17086      967    -3821     4618 
    7003    -5690   -10239    -2296    -6112   -18588   -19180   -12391 
   -8117    -3119     4274    12159    14206     1544   -19236   -29870 
  -25192   -16935   -15101   -15068    -7603     5292    12461     9115 
    2095    -2277    -3472    -4658    -8021    -7581    -1795     1583 
   -2820   -17589   -28942   -17003     1081     1559    -1444      460 
   -6604   -18219   -22323   -23602   -24676   -18987    -5734     7123 
   10289      724   -17890   -34200   -32470   -11912    12059    26615 
   24366     5638   -13232   -18310   -17402   -20429   -22728   -19435 
  -13439    -2521    16452    25845    10953    -9242   -17344   -19583 
  -19013   -11549     -211     4480    -4842   -21643   -33585   -34678 
  -21867     -731    13790    20530    25608    22810    10559    -4423 
  -22291   -39390   -42697   -29779   -11853     3362    15508    26137 
   31355    19980    -5418   -23662   -30472   -39086   -44070   -35031 
  -19020    -3944     5157     6405     7936    13651    16285    10083 
   -6030   -28821   -43673   -36154   -11888    12240    21429     5998 
  -21486   -30655   -15292     3501    12748    14801    14100     9568 
     734    -8151   -18485   -30831   -37926   -38750   -36316   -26326 
   -8716     5074    12540    21536    24372    13200     1764    -5871 
  -15790   -18661   -12810    -7916    -6855   -13845   -23063   -23078 
  -23056   -19491     8553    38700    33458    10301    -1682   -15684 
  -37102   -40375   -25731   -16733   -16240   -16815   -10322    10640 
   32175    37376    28201     4725   -28232   -46147   -40529   -29636 
  -19498    -5390     3713     2143      513     7033    13786     7626 
   -8271   -18760   -17177    -9123    -3645    -3337    -7857   -18472 
  -29243   -28124   -11445     8158    14828     8418    -2590   -14014 
  -18387    -9543     3586    10597    10656     2447   -15664   -34855 
  -38813   -22172     2091    18160    20019     8044    -9456   -17022 
  -12035    -9072   -15965   -23218   -22369   -19114   -17081    -6871 
   11821    21767    14238     -191    -6205    -2454    -2276    -6220 
   -4145    -7630   -28385   -44494   -38527   -23521    -6789    13960 
   29091    28976    13620    -9747   -29053   -37206   -32150   -17905 
   -8652    -5184     5281    11950      309   -12478   -11284    -5358 
   -5103    -9080    -5112     8402    11992       71   -13865   -23074 
  -24252   -19843   -14084     -696    12528     8970    -3037    -9710 
  -11674    -9555    -5030    -5675   -11271   -11658    -7033    -7287 
   -6934     2521     9709     7744     4360       33    -8075   -16881 
  -24356   -26319   -16245    -2760    -3024   -11352    -9082      193 
    2758     2095     1749    -8044   -24324   -29454   -21235   -11454 
   -5769    -2542      859     2313      603     2609     6741      114 
  -15785   -25852   -24979   -19056    -9644     4919    13682     6351 
   -4818   -11087   -19691   -24872   -19398   -14158   -12060    -4845 
    6386    16524    18848     6068   -14928   -29844   -33513   -25759 
   -6336    17307    27602    16480     -913   -11939   -21309   -27724 
  -25235   -17660    -8881    -3501    -3627      527     7767     3096 
   -9062   -13309   -13635   -18110   -18964   -10065     1478     5965 
    2471    -1898    -5740    -9671    -8626    -6828   -10524   -10960 
   -7670   -13205   -18130    -6723     5605     3211    -5211   -14042 
  -20270   -14952    -4207    -1424    -3947    -7086   -13379   -13888 
    -203    12530    10646    -1459   -18520   -33960   -37278   -25014 
   -3187    13936    13740     2740    -3766    -3483     -811     1063 
   -3458   -15994   -28876   -31367   -18997      610    13915    13764 
    2766    -8785   -11160    -6237     -247     4506     2400    -8827 
  -17212   -14303    -8368    -7429    -8773    -7292    -3134    -1287 
   -3534    -7303   -13780   -22268   -23437   -13668    -1992     4099 
    6848     7522     -359   -15909   -24950   -23287   -22665   -21035 
   -5377    14864    21547    15687     4860    -9929   -25930   -34107 
  -26453    -6777    10083    16051    10771    -6713   -22740   -20413 
   -9910    -5927    -2458     3327      306    -9725   -12995   -12606 
  -17223   -19091   -10893      -41     3095    -1906    -6745    -7578 
   -8745    -9864    -7010    -4527    -6245    -7308    -4912    -1559 
    1237       83   -10122   -24632   -30503   -23214    -8471     6172 
   12291     8190     -167    -9886   -14970   -12125   -12090   -15628 
  -13814   -11296    -8151     3411    14300    12402     -265   -16193 
  -24648   -21841   -16960   -12459    -5111     -560    -1818    -3794 
   -2762     1686     2875    -4652   -10708    -7443    -2443    -2380 
   -5660    -6949    -7036   -13198   -19014   -11759       52     3252 
    1485      441      866     1117    -3276   -12124   -19718   -20629 
  -13941    -6659    -4968    -6561    -8494   -10840   -11844    -6318 
    6467    14195     7179    -5876   -15423   -21361   -23614   -24185 
  -23912   -15390      589     7987     2647      -93     4159     2991 
   -6276   -12428   -12009   -15149   -23738   -24891   -14544    -2097 
    5100     5217     1760    -2169   -10407   -21413   -23342   -10625 
