Origin Time       2024/04/02 04:24:00
Lat.              40.133
Long.             141.712
Depth. (km)       71
Mag.              6.0
Station Code      IWTH01
Station Lat.      40.2383
Station Long.     141.3423
Station Height(m) 29.8
Record Time       2024/04/02 04:24:49
Sampling Freq(Hz) 100Hz
Duration Time(s)  161
Dir.              1
Scale Factor      2942(gal)/8224139
Max. Acc. (gal)   13.774
Last Correction   2024/04/02 04:24:49
Memo.             
[...]
   63346    63350    63347    63344    63346    63346    63344    63347 
   63347    63347    63347    63347    63347    63346    63343    63344 
   63347    63346    63344    63348    63348    63347    63347    63347 
   63347    63348    63348    63348    63348    63348    63347    63348 
   63351    63348    63344    63348    63350    63347    63348    63350 
   63348    63348    63348    63348    63348    63348    63347    63346 
   63346    63348    63346    63344    63346    63347    63347    63346 
   63347    63350    63350    63346    63346    63348    63350    63348 
   63350    63351    63348    63348    63350    63347    63347    63350 
   63350    63351    63352    63354    63352    63351    63352    63348 
   63344    63348    63351    63348    63348    63350    63350    63350 
   63347    63347    63351    63350    63346    63351    63352    63346 
   63346    63350    63348    63347    63351    63354    63351    63346 
   63344    63350    63352    63350    63347    63346    63347    63348 
   63347    63348    63348    63346    63347    63351    63351    63346 
   63346    63351    63350    63347    63350    63351    63351    63351 
   63351    63350    63350    63347    63347    63348    63350    63347 
   63347    63348    63350    63350    63348    63347    63350    63351 
   63350    63351    63348    63347    63348    63348    63348    63350 
   63351    63350    63350    63351    63348    63347    63347    63347 
   63346    63347    63348    63351    63351    63350    63351    63350 
   63347    63347    63350    63348    63347    63347    63347    63348 
   63350    63347    63347    63350    63351    63347    63346    63347 
   63348    63348    63350    63347    63347    63350    63347    63346 
   63350    63350    63347    63347    63350    63352    63352    63351 
   63348    63347    63347    63347    63346    63346    63347    63348 
   63347    63347    63350    63351    63350    63347    63347    63351 
   63351    63351    63351    63350    63351    63352    63352    63350 
   63351    63352    63350    63348    63348    63351    63354    63350 
   63346    63350    63354    63352    63352    63352    63348    63347 
   63350    63348    63347    63348    63343    63343    63350    63352 
   63350    63350    63348    63348    63350    63351    63351    63352 
   63351    63350    63348    63348    63348    63348    63350    63351 
   63350    63348    63350    63352    63355    63354    63351    63351 
   63351    63352    63354    63351    63348    63350    63348    63347 
   63350    63350    63347    63347    63347    63346    63348    63351 
   63350    63348    63346    63347    63351    63352    63350    63351 
   63352    63348    63351    63355    63352    63351    63354    63350 
   63346    63348    63352    63351    63351    63351    63350    63348 
   63348    63350    63348    63348    63348    63350    63351    63351 
   63350    63348    63350    63348    63348    63348    63347    63346 
   63348    63351    63351    63351    63352    63350    63347    63348 
   63351    63347    63344    63347    63348    63348    63350    63351 
   63351    63347    63347    63351    63351    63348    63347    63348 
   63350    63348    63347    63348    63350    63348    63350    63350 
   63348    63348    63350    63347    63347    63348    63348    63351 
   63351    63348    63347    63350    63350    63350    63351    63351 
   63352    63350    63347    63348    63348    63346    63344    63344 
   63346    63347    63346    63344    63347    63348    63348    63348 
   63350    63351    63348    63346    63346    63344    63346    63348 
   63347    63346    63346    63346    63350    63351    63346    63347 
   63350    63348    63347    63348    63347    63347    63347    63347 
   63347    63351    63352    63347    63346    63350    63350    63347 
   63348    63347    63347    63348    63347    63348    63350    63348 
   63348    63350    63351    63351    63348    63347    63348    63347 
   63347    63348    63350    63348    63348    63347    63348    63352 
   63352    63348    63348    63351    63351    63348    63348    63347 
   63347    63348    63351    63348    63348    63350    63350    63351 
   63354    63352    63351    63350    63351    63350    63348    63351 
   63352    63348    63348    63346    63343    63350    63350    63344 
   63347    63350    63347    63350    63348    63346    63348    63347 
   63347    63350    63350    63348    63348    63351    63354    63351 
   63348    63348    63351    63352    63352    63348    63347    63348 
   63350    63350    63351    63351    63350    63347    63347    63347 
   63348    63348    63348    63347    63346    63346    63348    63351 
   63351    63350    63347    63347    63350    63350    63348    63348 
   63350    63351    63351    63350    63350    63335    63301    63251 
   63174    63069    62946    62814    62681    62573    62523    62557 
   62677    62893    63258    63825    64490    65065    65497    65758 
   65952    66220    66247    65955    65735    65399    64697    63651 
   62432    61807    61528    60686    60183    60428    60173    59432 
   58931    59321    60899    61865    61923    63004    64482    65680 
   67302    68783    69867    70733    71158    70487    68621    67404 
   66866    65913    64883    63225    61963    61959    60988    58506 
   55904    54634    55314    56010    55561    57125    60845    61082 
   58739    59173    61758    64060    65446    67454    71001    71964 
   67764    64257    66584    69430    68613    67664    66139    62623 
   60832    61133    60320    59618    62819    67859    69390    66024 
   61271    60924    62950    60829    58320    61141    65966    67342 
   65695    65896    67563    66942    65167    62426    60166    63722 
   68373    66961    64065    63120    62546    62873    63633    64400 
   65520    64840    60269    55540    56482    58846    56729    53685 
   54568    59621    61673    59736    60023    56752    51316    52867 
   56053    59391    64250    65516    66363    66930    62642    61825 
   68380    72459    72477    72963    71348    67251    65286    65375 
   64411    63066    63020    62332    60743    59834    58248    56151 
   55998    59270    63244    63846    64908    68207    67941    66850 
   67695    65506    65639    70491    69264    63933    61707    58144 
   55040    57835    61392    63470    67458    70406    69013    66367 
   62984    58226    58973    64343    64089    62519    65983    68141 
   68751    69628    69458    70568    67899    61542    62403    66942 
   66812    64490    63131    62334    59811    56022    54726    55665 
   56047    57302    60085    59698    56197    56652    62905    67990 
   67911    67032    67794    67610    64523    62318    64551    65348 
   63448    63560    62478    59333    58734    60411    61470    61042 
   60579    61450    64061    67713    68608    65951    64187    64311 
   64149    62934    61447    60829    59717    58552    60438    63593 
   65522    66293    65163    63343    63057    63616    62220    59640 
   59451    60039    60489    63008    65311    65925    66191    66514 
   67883    69556    69072    66533    64638    64960    66636    67703 
   66978    66888    67909    66706    63992    61565    61238    64046 
   65569    64708    64222    64444    65627    66874    67778    68621 
   67455    65836    66189    65271    62410    60408    59818    61524 
   63575    62544    62083    63667    63335    63435    63148    58831 
   57981    62047    63188    62356    61896    60258    59683    62189 
   64125    62488    61009    63772    68284    69772    67171    62916 
   59945    58731    58054    57990    58216    56778    55104    58271 
   63563    62613    59954    63150    65967    65146    64003    61727 
   60166    60691    60594    59305    58207    59059    60330    61249 
   63273    63887    63316    64025    65010    66617    68908    70271 
   69333    65676    64308    66988    66907    65281    67167    68081 
   65851    63767    63441    64835    64725    62743    63846    66843 
   66937    64103    59822    58093    59680    59497    59973    62282 
   61028    58885    58708    60010    63042    63234    61774    62640 
   62202    62164    64561    65530    66197    66025    63495    63675 
   65407    63792    62864    64910    65682    64790    64592    65614 
   67054    66583    65032    65268    65855    65902    66000    65178 
   64601    65097    64913    64039    62969    62245    63717    65500 
   64035    61215    60871    61291    59100    56824    56961    57765 
   57194    55269    55497    57384    56249    54294    54936    56666 
   59165    61357    60619    60042    63292    66205    66060    66505 
   67945    68509    68975    69446    70193    72365    75508    77515 
   76252    73292    71648    70775    70106    70430    70621    69492 
   67751    66816    67385    67714    65920    64207    65277    66430 
   64566    62216    61041    59185    57696    57952    57605    55910 
   55379    56004    55456    54438    54847    56339    57202    56802 
   56735    57569    58995    62066    65503    66023    64532    64550 
   66015    66676    65485    62680    60987    62689    65294    66104 
   65156    63537    63443    63860    62834    63971    66577    65280 
   63332    63640    62973    63146    65369    65481    63447    62698 
   64150    66050    66549    65832    64210    61749    59908    59285 
   59310    59935    60415    59076    56941    57928    61086    62403 
   62699    62837    62479    62185    60890    59911    60697    61203 
   61739    62621    62888    64968    68177    68435    67957    68561 
   67203    64912    64515    65038    64277    62664    61569    60605 
   60640    61433    61485    62390    63737    63207    61931    61396 
   61493    62303    63161    63177    63610    64939    65681    65522 
   64731    63703    62911    63589    65966    66509    66141    68642 
   69552    66764    66244    67873    67236    65269    64015    63146 
   62271    61519    61150    61767    63416    64447    64620    65344 
   65159    64066    65400    68041    68153    65561    63803    64860 
   65372    64057    64096    64855    63643    61869    61600    62259 
   62702    62266    61410    61543    61776    60716    60295    60993 
   61446    62617    64481    65460    64914    63836    62939    61210 
   59659    58783    57362    56910    58428    60312    60652    60353 
   61792    63506    64432    65688    65797    64201    63844    65628 
   66357    65045    64476    64786    63941    63109    64521    65601 
   63637    62008    62561    62989    63328    63771    62753    60863 
   60581    62276    63000    61396    60455    61740    62378    61003 
   60014    60717    62316    63868    63896    62356    62159    63544 
   64557    65793    66289    65503    64963    64157    64304    66081 
   67279    67085    65936    65547    65273    63678    62757    63051 
   64781    66582    65456    64146    64282    63207    61269    61118 
   62672    62079    60411    61776    62904    62089    62029    61263 
   59651    60158    62195    63366    63906    64469    63660    62159 
   61423    60138    59355    60551    61859    62842    63944    64415 
   63698    61497    59803    60482    61096    60353    59884    60799 
   63926    66650    65880    64218    63666    63863    65361    67065 
   68260    68665    67830    68121    69303    69379    69765    69801 
   68243    67285    66803    65811    66102    66614    65593    65148 
   66220    66708    64685    62460    62413    61442    59684    59972 
   59502    57654    57561    57565    56147    56328    58498    59429 
   58515    58167    59648    60795    59999    61010    64409    65148 
   65028    66903    66822    64488    63512    64928    66449    65095 
   62746    62106    62379    63279    64025    62662    60469    60245 
   61003    61939    63394    63126    63383    66586    68196    67644 
   67050    66367    66677    66553    64871    63873    64700    66232 
   65560    63265    63694    65601    65437    64496    63903    63397 
   63261    62662    61565    60802    61022    62502    63649    64643 
   66226    66310    65344    64299    61948    60393    61672    63288 
   63085    62267    62456    62901    62461    61400    60621    61479 
   63120    63544    64201    65780    66398    66359    66781    68318 
   70228    69846    67741    66123    65257    65203    63876    60782 
   59213    59055    58630    57796    57933    60085    59998    58635 
   62434    66546    65778    65071    65693    65194    64571    64820 
   65454    65759    67356    73271    79818    80115    76165    74599 
   74992    72997    68505    62579    56011    51980    50388    48544 
   46253    42257    37567    35789    36386    41099    49924    54295 
   55228    60791    66619    67452    67887    71394    76065    80657 
   85382    88554    89461    88543    84659    78607    72106    66252 
   63173    61993    61942    64374    64962    62473    62989    64939 
   64798    65269    66118    65564    62880    58260    56551    58039 
   57180    57470    62359    64878    65820    70028    71234    67995 
   65412    63374    62521    62260    60949    61481    63875    68582 
   78077    83377    76823    69583    68686    64052    53304    46032 
   45274    46372    44988    43100    43375    41450    37033    32505 
   26939    24844    25945    26628    34674    49793    59742    64234 
   69461    75371    82142    89394    93553    94693    91993    83214 
   77770    82134    84415    78146    70016    65492    68118    73894 
   74556    71643    69445    67567    64650    59391    51656    43268 
   37720    38016    41126    40783    36528    32363    32665    39089 
   46897    52540    57769    63706    70627    76986    80372    82849 
   86042    87486    85711    79763    68735    56390    48675    46329 
   43887    38869    39587    51077    62964    67624    70263    73975 
   76072    74821    69194    60932    55858    58587    66926    71305 
   68706    67867    70403    70475    68442    65955    63342    65088 
   73719    80272    76546    69144    65704    64480    63386    64218 
   66768    67397    64921    61813    61808    64215    63246    61524 
   65086    68129    68335    71383    73589    72979    74258    73674 
   69526    67648    68856    69608    67641    66295    69338    72705 
   72125    67684    61869    59112    58440    55082    52421    55181 
   59676    64897    71955    74036    69130    64134    60558    56953 
   56011    60257    68351    75501    76356    69885    61480    55625 
   52351    52350    54677    57019    59634    61983    63795    66949 
   71922    77484    81585    82089    79701    77052    75668    77103 
   79135    73885    60781    48641    42410    41956    44986    48995 
   54284    57474    56170    56655    60891    63744    63290    60394 
   56293    53401    52300    50931    50461    54016    59161    61680 
   63009    65084    66648    68534    70856    71172    70534    69786 
   66579    62267    61438    63589    63185    59830    58405    59184 
   60531    62614    62401    58595    55250    53723    54253    58765 
   63259    63412    63229    64659    64303    62966    61809    57110 
   49458    45662    48413    54122    59101    61572    61033    60535 
   64191    69881    72176    70630    69128    69271    68057    64018 
   60794    62100    66629    68805    66425    63460    61722    59452 
   57950    58847    60430    61531    61321    59900    61068    65156 
   66596    64152    63130    66495    71728    75266    74335    69246 
   65736    67246    69751    69917    69356    69268    69498    70779 
   72528    72904    71687    69755    67655    65861    64504    62545 
   60085    59537    60637    58988    54657    53628    55171    54059 
   53584    57423    61361    62383    61911    61441    61731    63460 
   66995    71145    73543    73770    73631    74379    74839    73325 
   72654    75199    76424    73619    68843    63672    60324    58797 
   56712    55119    55237    55737    55475    53856    52826    54433 
   56119    55962    55169    54014    52863    52065    51190    51964 
   55271    58950    61360    60663    56813    54537    55613    56739 
   58240    61285    62893    63259    65079    67351    68796    69330 
   68744    68659    70305    71343    71003    72901    76905    77141 
   72993    71103    73311    74988    74704    74742    74904    72030 
   67355    66895    69708    70961    71593    71516    69365    67848 
   67925    68299    68813    68295    66401    65155    65225    65419 
   64786    63460    62001    60312    59034    59350    60164    60076 
   59506    57964    55374    53190    50525    47183    45720    45887 
   47682    53299    59765    63904    68095    71707    72449    72334 
   71028    66812    63610    64315    66172    67315    68141    68368 
   66999    63736    61437    62542    63458    61600    60261    60739 
   61476    62976    65884    68351    67517    64021    61765    60835 
   59120    57916    57588    56312    54928    55013    55377    54996 
   54240    53168    53237    54846    54762    52932    52354    53076 
   54787    56982    58120    58469    58043    57712    59840    62854 
   63796    62926    61843    61626    63005    65988    68397    68828 
   68902    69489    70468    71366    70015    66339    63130    60951 
   59215    59305    60944    61165    59351    58095    59157    61195 
   62515    63883    65998    67760    68616    68868    68644    68557 
   68709    67689    64910    62371    62510    64613    65612    64528 
   63167    63282    64228    63722    61888    61263    62675    64920 
   66410    66781    67092    66949    66278    67406    70729    73711 
   73165    68431    64276    64848    68107    69774    68702    67838 
   69109    70698    71072    70780    70727    70573    69583    68359 
   67162    65534    63950    63032    62880    63590    64949    65873 
   66532    68324    69282    66939    63364    60875    58893    56722 
   55432    56776    60196    63130    65172    67190    68242    68031 
   68409    70027    70544    68111    64700    63234    63458    63143 
   61738    60355    60075    60995    60974    59620    59475    60108 
   60500    60583    58666    56272    56524    57869    57879    57199 
   57364    58355    58845    58720    59520    61242    61685    60953 
   60895    61010    61569    63698    65007    63009    59606    57588 
   56481    55760    56197    56560    56381    57200    57507    55487 
   54456    57006    60361    61749    61668    61785    62318    62054 
   60658    58772    57312    57439    59381    61538    62060    62344 
   64855    67914    69304    69620    69934    70889    71201    70123 
   69394    68778    67799    67683    67717    66731    65556    64670 
   63224    61604    61095    60955    60342    60316    60520    59633 
   59247    60535    61952    62958    63315    63220    64214    65423 
   65396    65138    65770    67103    68553    70206    71622    72322 
   73055    73383    72956    73070    72750    70610    69225    69967 
   69969    68400    67042    66001    65376    65966    66995    67099 
