Origin Time       2024/04/02 04:24:00
Lat.              40.133
Long.             141.712
Depth. (km)       71
Mag.              6.0
Station Code      IWTH12
Station Lat.      40.1533
Station Long.     141.4245
Station Height(m) 365
Record Time       2024/04/02 04:24:48
Sampling Freq(Hz) 100Hz
Duration Time(s)  136
Dir.              4
Scale Factor      7845(gal)/8223790
Max. Acc. (gal)   206.594
Last Correction   2024/04/02 04:24:49
Memo.             
[...]
    3603     3597     3595     3597     3599     3597     3599     3599 
    3599     3597     3597     3597     3597     3597     3597     3600 
    3600     3596     3595     3597     3597     3596     3597     3597 
    3599     3599     3596     3597     3597     3595     3596     3600 
    3600     3597     3596     3596     3596     3596     3597     3599 
    3596     3596     3597     3597     3599     3597     3595     3597 
    3600     3599     3597     3596     3596     3597     3596     3596 
    3597     3597     3597     3597     3597     3597     3597     3597 
    3599     3599     3597     3597     3597     3596     3596     3597 
    3597     3596     3596     3596     3596     3596     3597     3596 
    3599     3600     3597     3596     3597     3597     3597     3597 
    3597     3597     3595     3597     3599     3597     3597     3600 
    3597     3596     3597     3597     3599     3601     3600     3597 
    3597     3597     3597     3599     3600     3599     3599     3599 
    3600     3601     3601     3600     3597     3596     3597     3596 
    3597     3599     3597     3596     3599     3600     3599     3600 
    3603     3601     3599     3599     3597     3597     3599     3599 
    3597     3596     3597     3599     3599     3596     3595     3597 
    3599     3600     3600     3599     3597     3600     3600     3597 
    3597     3599     3596     3596     3599     3600     3599     3597 
    3600     3600     3597     3599     3597     3595     3597     3597 
    3596     3597     3597     3595     3596     3597     3599     3599 
    3599     3599     3599     3599     3599     3599     3599     3599 
    3599     3599     3597     3597     3599     3597     3596     3596 
    3595     3596     3600     3600     3599     3599     3600     3599 
    3600     3600     3597     3600     3601     3599     3597     3599 
    3599     3597     3600     3599     3600     3603     3600     3599 
    3599     3596     3596     3599     3600     3597     3596     3596 
    3599     3599     3596     3599     3600     3597     3599     3600 
    3600     3596     3595     3597     3599     3599     3599     3600 
    3601     3597     3595     3596     3597     3599     3600     3600 
    3597     3596     3597     3599     3597     3597     3597     3597 
    3600     3600     3597     3597     3597     3596     3597     3600 
    3599     3596     3596     3600     3599     3596     3600     3601 
    3599     3597     3597     3596     3597     3599     3599     3597 
    3600     3599     3596     3597     3599     3599     3599     3599 
    3600     3599     3597     3599     3599     3599     3599     3600 
    3600     3599     3599     3599     3596     3596     3599     3600 
    3600     3599     3599     3599     3599     3596     3595     3597 
    3599     3597     3597     3597     3596     3599     3600     3597 
    3596     3596     3596     3596     3597     3599     3597     3597 
    3600     3600     3599     3599     3599     3599     3599     3599 
    3599     3600     3599     3595     3595     3599     3600     3599 
    3599     3599     3599     3597     3596     3596     3599     3601 
    3601     3597     3596     3599     3596     3593     3597     3603 
    3600     3599     3599     3597     3596     3599     3599     3599 
    3599     3597     3599     3600     3597     3599     3600     3599 
    3599     3597     3596     3597     3599     3597     3597     3600 
    3600     3600     3600     3599     3599     3599     3599     3597 
    3597     3600     3600     3599     3599     3599     3599     3599 
    3599     3596     3596     3600     3601     3597     3599     3600 
    3597     3599     3600     3599     3599     3599     3597     3600 
    3600     3599     3599     3596     3595     3597     3600     3597 
    3595     3600     3600     3595     3593     3597     3599     3597 
    3596     3596     3597     3597     3597     3600     3600     3597 
    3597     3597     3597     3596     3597     3597     3597     3600 
    3599     3595     3597     3597     3597     3600     3600     3597 
    3599     3597     3597     3597     3596     3596     3599     3600 
    3601     3599     3596     3596     3597     3597     3599     3599 
    3597     3599     3597     3596     3597     3600     3600     3601 
    3601     3597     3596     3597     3597     3599     3600     3600 
    3599     3597     3597     3600     3600     3599     3597     3597 
    3595     3596     3600     3600     3596     3597     3597     3597 
    3599     3597     3597     3600     3600     3597     3596     3597 
    3601     3599     3596     3599     3597     3596     3596     3596 
    3597     3599     3599     3599     3599     3595     3595     3600 
    3601     3599     3597     3597     3597     3597     3596     3597 
    3599     3597     3597     3599     3596     3596     3597     3596 
    3595     3596     3597     3597     3599     3599     3597     3597 
    3600     3599     3595     3596     3600     3599     3597     3597 
    3596     3597     3599     3597     3596     3597     3597     3600 
    3609     3632     3680     3761     3882     4055     4263     4396 
    4284     3896     3447     3144     2844     2362     2120     2776 
    3964     4390     3541     2477     2686     4311     5547     4924 
    4018     4835     5235     1637    -3989    -4334     3079     9128 
    5324     -920     1024     6018     6058     4201     3152     4356 
   11870    16191     6305    -1787     3700     7695     9605    17855 
   13929    -5931   -12475    -5618    -7537    -9844    -3141     -202 
   -1468       16     -777    -3696     -589     8748    16008    17810 
   18004    13398     3707     3010     6783    -4522   -11830    12984 
   37563    22283    -2774    -3704    -1200    -1786     7213     3784 
  -10864     1969    23988    12714    -8293   -15957   -25359   -15352 
   19805    23666    -6978   -19943   -10193      517     2859   -10690 
  -23492    -4396    32665    44548    27514    14135    20353    27614 
   12510   -10330   -13089    -5028     6411    24085    22050    -2856 
  -15465   -11843   -11611    -9092     4664    14071    11144     6486 
   -2520   -20455   -29689   -18095      610    15695    29971    39835 
   47247    50160    22273   -21127   -28094   -12621   -10625     -595 
   20289    15822     2543    10339     6519   -22110   -39445   -44436 
  -43282    -9876    31434    34110    28316    32589    11693   -17263 
  -25110   -22692    11168    70069    70158     6768   -32231   -25420 
   -1194    28252    34360    14397    17352    38277    22465   -13111 
  -21010   -23329   -44532   -54230   -38115   -10542    22661    40991 
   27899     7290      989     2883     7697    23755    44529    40144 
    9398   -11898   -10662    -3526    -7464   -33547   -61121   -51565 
  -15156    16210    41153    50815    34430    18677    21385    28039 
   36822    43540    21636    -9396    -7726    -7493   -36267   -49986 
  -44767   -46735   -37989   -14820     8106    37609    62815    59952 
   38427    25197    24070    17369     -710   -19368   -28476   -22327 
      25    24092    23571     1941   -10334   -17404   -33203   -31101 
   -6616     9321    18122    24802    18071    17001    28140    18171 
   -3983     3067    22462    13149   -13433   -29350   -32258   -18944 
    1004    -3807   -17458     3307    35112    32702    13147     9162 
   16640    25712    29488    15090    -4758    -2768    12621    13899 
   -4934   -28570   -31510    -8135     9907     3418    -5598    -3856 
   -4488    -1868    16866    35333    35287    12536   -22972   -36945 
  -14754     8460     7781     3052     9117    11659     6265     9494 
   17887    10611    -2677    -4857    -7254   -11199     -361    20185 
   26630    13419    -2168    -8895     -464    21675    31302    16027 
    -318     -422     5294     -751   -17034   -22806    -7580    10250 
    3618   -17794   -18083      291     6725     1493     7060    23998 
   27649     8912    -6964    -4247     6054    16582    14775     -754 
    9124    44176    47922    19538    -1647   -22779   -47503   -44193 
  -18280     -935     9467    16838    12934    10446    17652    11273 
   -9930    -6621    19537    24568    13147     9630     -649   -18474 
  -18810    -4376     5580    10709    11878     5034    -1215    -3646 
   -3956     6613    21010    26789    29841    24231     6693    -1987 
      29    -1952    -6293    -6069    -5968   -18231   -37307   -35631 
   -8858    14995    23388    20286     6178    -4398     1478    11863 
   19967    33123    38232    20432     5062     4496    -8571   -24834 
  -12471    11314    17937     9713     -599     -672     2691    -9023 
  -20035   -11745      750    12096    23170    17971     2729    -2211 
   -4698   -11032    -5670     7820    10606     6941     3757    -1593 
    1321     9185     2813    -2195    13524    25158    16065     8613 
   13103    13174     1807   -13042   -22612   -16402     4023    16173 
   12532     5863    -4028   -14368   -12172     -319    16779    28318 
   14045    -5517    -1480     9486    12390     8307    -7858   -20846 
   -3788    22966    17131    -2274     -626      994    -8546    -8365 
     172    11516    26555    29929    18461     7184    -2795   -12587 
  -12183    -1738     7141    11179    12208    10110     5278   -10462 
  -33320   -31507    -1819    17891    16208    17601    28198    23010 
   -1813   -14354    -3550    13865    26489    23055     3773    -9246 
   -7742    -1312     6272    11880    16366    19592     3161   -28846 
  -38226   -20703    -3808     8869    19606    19296    18042    22894 
   13119   -10076   -15475     4931    26570    25907     6874    -7492 
   -9474   -10003    -7777     1162     4907     4372     6027     3345 
    3485     8522      553    -7492    11357    35284    32189    13859 
   -1412   -14378   -20869   -16702    -9356    -3186     2539     2921 
   -8159   -23282   -23409    -2412    22808    32806    29249    28741 
   34677    36375    25317      567   -22256   -24251   -10461     1175 
    2178    -5640   -12347    -8442    -1140     -891      621    12275 
   24510    21767     1718   -15754    -9019    12001    20430    13267 
    6232     6808    11230     7723   -10241   -22998   -12915      -85 
    -360     4575    17404    17496    12704    18837    21226    16858 
   17544    11794    -2087    -6430    -8062   -18354   -21220    -9456 
     114     2806     3736      727     1999    11990    13817     6346 
    5521     9315     6978    -2281    -8881    -3982     5489    11198 
   15010    15036     9599     1498    -9418   -17774   -13882     1304 
   15242    15724     6859     3991     8554     8604     2512     -974 
    3009    16930    33785    34173    16540    -2331   -17099   -26635 
  -28830   -23527    -6016    11442    11308     4085     2226     5873 
   13779    14060     1652    -3327     8047    20499    28649    29242 
   11745    -9599   -15129   -18198   -27946   -26250   -11406     2602 
   16534    26260    20236     5476    -2182     1139     6710     6546 
    5425    10743    17304    16902     9644    -2949   -19187   -28156 
  -16892     2326     6307     5755    15751    18644     7767     1663 
    4433    10077    21060    29131    21192    11372    14257     9921 
   -9277   -15917    -5055     5690    12533     8390    -6610   -14936 
  -18135   -18686    -4999    10269    13792    18125    23105    16907 
    1497   -15684   -20248    -1939    17150    12872    -3091   -10370 
   -6291    -2920   -12125   -18941    -1337    26253    36285    25115 
    6103    -2758     8788    26539    26757    14613    11160    11689 
    1069   -17307   -27900   -20223    -1637     9813     5377    -3362 
   -1814     2015     2286    10057    16865     9501     1969     4180 
    9587    14493    13405     5387     2756     6566     2668    -9232 
  -14920   -11290    -5421     5332    21713    27656    13819    -6079 
  -11132    -2322    -1980   -13779   -18679    -6401     8935     4360 
  -13786   -16879     2104    21355    22850    18087    23619    32514 
   29767    12806    -4554    -6863     1034     5194     4633     2878 
     957    -1433   -10300   -22415   -18893     2535    18898    24152 
   31630    29913     7303   -10940   -15298   -22287   -15808    15677 
   33363    21042     6959    -1150    -5105     6030    18395    14203 
   10980    16428    11384     1583     3069    -1291   -20767   -30403 
  -19342    -4660     1895     -113    -6972    -3670    18338    40988 
   45858    36780    28429    30892    39556    34913    13169     4530 
   16382    13085   -11535   -33281   -51602   -65461   -56316   -25775 
     402      -66   -21517   -36234   -38341   -40882   -37395   -19618 
    6864    37747    52493    28166    -6914   -10211     5167     6436 
     600    14656    51154    84125    91455    71980    35029     1406 
   -8330    -2438    -4260   -14840   -16837    -4590    13782    28162 
   34784    43912    53690    35190   -12688   -46549   -47461   -41920 
  -54229   -74096   -58978    15842   104793   132040    83566    13795 
  -29929   -34126    -5524    17439     1300   -29353   -42680   -47272 
  -47949   -33328   -11685     -510      969     -723   -10228   -32007 
  -57238   -74745   -83477   -76607   -38419    13495    34641    17074 
  -17363   -51993   -73377   -77855   -61350   -23072     7222    11331 
   20382    62127   117760   156413   179571   203137   220160   210914 
  165175    81967   -24212  -108579  -121333   -70694   -13254    25608 
   59702    97042   118038    88418    14886   -54260  -100164  -137489 
 -166409  -177488  -174410  -154942  -104450   -35206    11830    28811 
   47511    68985    65400    50251    58013    76018    71066    47158 
   30879    25650     6473   -35903   -68931   -58801   -14200    32976 
   65005    76033    67439    62608    81317    95420    61981   -11470 
  -78705  -119731  -153300  -177300  -162557  -116483   -63967     5031 
   89583   145728   139475    87455    45198    45598    60552    66448 
   71946    60241    25736     8287     2165   -32896   -73468   -76291 
  -40853    22060    88122   106319    52933   -34908  -102945  -135423 
 -153191  -166388  -152848   -92299   -10768    43741    68582    91134 
  104475    81918    32736    -4241   -10335     1534    17952    41273 
   70594    93113   100650    92240    75821    71057    82532    86181 
   61399    19855    -7879    -9439    -1760    -9400   -46612  -100507 
 -130985  -119427   -95083   -89571  -103370  -117860  -110666   -81820 
  -60466   -57804   -46951    -7919    41341    74721    92638   101574 
   93976    76308    68045    67293    62484    57082    61025    76150 
   91100    88820    61842    23072    -1544    -3356    -5431   -26601 
  -49376   -55672   -58079   -66526   -74124   -78039   -74271   -53870 
  -25670   -13035   -17771   -22227   -25093   -34331   -39411   -22207 
   18824    65342    95283   102163    94153    80917    68706    59516 
   54355    53835    51425    42371    32764    24202     9274   -11275 
  -21743    -9346     9566     5377   -21274   -50426   -75232   -88084 
  -76931   -50464   -29197   -21095   -23147   -31973   -45851   -55377 
  -48676   -29250    -4222    25330    49528    51219    25130    -4201 
   -1097    31167    60250    74804    77749    68926    56099    43081 
   24853     4815   -12583   -24845   -20216     4234    29447    37208 
   20443   -16696   -51660   -66883   -67294   -57808   -40525   -23004 
   -4922    11531    13126     1795   -11254   -22789   -22921    -4914 
   20529    46102    71825    88273    83506    59657    29814     8927 
    5518    11173    14928    21204    28918    24071     5965   -12550 
  -25689   -38767   -50741   -47461   -27567    -8349    -2020    -6593 
  -14607   -23912   -27083    -7669    27770    48276    41004    24128 
   18006    19492     8584   -17578   -32883   -20467     1575    10176 
    8257     8862    11538    13829    16792    14068      913   -18696 
  -34827   -36031   -22400    -3731    13608    25659    26647    13378 
   -8916   -26077   -25412    -9863     7230    16451    17127    20956 
   33367    36625    24962    16058    14376    14571    19892    25007 
   16032     -953    -7717    -4820     -839     7693    23337    36162 
   35748    24929    14346     8961     5699     -778   -13198   -28803 
  -41512   -46738   -38298   -11543    17298    18798    -5062   -20749 
  -17990   -12135    -6126    -3269   -13952   -26347   -22929   -12206 
   -8633   -10277    -9076      202    17990    35218    41732    40549 
   40645    41535    37296    29180    23229    20444    19413    20398 
   21257    16610     5563      124     6868    10719     6134     4062 
     534    -9894   -20468   -36266   -57724   -61076   -40138   -18017 
   -7531    -2079     6986    16915    16830     6748    -1714      415 
   12249    20908    16897    12486    21763    36173    42859    40902 
   30630    17180    14060    19438    15962     3472    -3561    -3684 
   -6608   -16556   -26226   -27255   -23008   -19435   -15670    -8626 
    5312    21579    23367     7087   -12105   -29794   -43654   -36170 
   -7813    16414    26084    27506    21760     9531      213     3487 
   17076    29677    35770    34254    22983     8851     1782    -1182 
   -3622      108     7138     5265    -5269   -13297   -16092   -17878 
  -18069   -14642    -7488     3670    15315    20147    16864    14781 
   19596    23738    24541    27529    25246     9796    -5800   -10408 
  -11340   -14318   -14935   -11666    -7820    -3342     1433     1629 
   -4334   -12055   -15755   -12349    -3994     2408      652    -4098 
   -1780     2845     2006     3441    11878    17698    16614    15195 
   15531    12571     6268     3109     5962    13953    26239    38944 
   45399    41054    28606    15130     4391    -3939   -14172   -29575 
  -40051   -31074   -11649    -4762   -10998   -15862   -15180    -9305 
    1977     9868     8116     8638    17389    22539    23371    28080 
   31806    30218    28881    25543    13154    -2474   -14284   -23211 
  -23449   -10844      476      180    -3129    -6131   -12495   -12433 
   -2502      117    -8529   -11138     -333    12968    16945    13350 
   11383    11908    10291     5509     -487    -6831   -15445   -22840 
  -20987   -11165     1957    17671    28551    28478    28178    35599 
   39889    35650    28377    13369    -7689   -15448    -8287    -5228 
  -10839   -13995    -8645     1451     9626    11182     3747    -5498 
   -3983     1844    -3248   -13112   -13896    -4708     7423    13100 
   10162     7932     9690     8306      760    -9115   -13752    -9259 
   -4036    -6566   -11007    -5937     8409    18455    15022     6423 
    4965     6740     2602    -3944    -9725   -14993   -11376     2045 
   11884    13753    13794    13219    11508    12112    15245    15665 
   12961    12916    15858    17464    18650    20918    19404    12985 
    7495     1718    -6355    -7572     -176     2349    -5845   -14910 
  -15755   -10602    -6582    -6496    -8703    -8970    -2280     6802 
    7852     4762     7153    11516    13019    13828    14265    14254 
   15230    16303    19298    26680    31444    26809    14809    -1651 
