Origin Time       2024/04/02 04:24:00
Lat.              40.133
Long.             141.712
Depth. (km)       71
Mag.              6.0
Station Code      IWTH27
Station Lat.      39.0307
Station Long.     141.5320
Station Height(m) 80
Record Time       2024/04/02 04:24:58
Sampling Freq(Hz) 100Hz
Duration Time(s)  127
Dir.              6
Scale Factor      7845(gal)/8223790
Max. Acc. (gal)   38.512
Last Correction   2024/04/02 04:24:58
Memo.             
[...]
   -1563   -18524   -29452   -21798    -5980      627    -3867   -10523 
  -12402   -11037   -10932   -10642    -8113    -5177    -3084    -4380 
  -11538   -20970   -25389   -19542    -6801     3233     2511   -10570 
  -22783   -22430   -16807   -10740    -3300     -225    -3230    -8340 
  -11468   -11011   -10735   -11384    -9987    -8422   -10219   -14380 
  -16078   -13304    -9848    -8353    -8297    -9205    -9425    -9429 
  -13618   -20260   -21061   -13257    -2940     1512     -259    -3059 
   -9123   -19257   -22118   -13941    -6633    -4720    -4460    -8264 
  -15742   -21417   -21456   -12708     -585     2671    -5470   -15585 
  -17815   -13494   -11569   -13203   -12756    -9316    -5514    -2592 
   -2050    -5528   -11692   -17361   -17880   -10719    -4299    -5452 
   -9780   -16380   -21500   -15588    -4307     -935    -5926    -9813 
   -8257    -8684   -14192   -16672   -14643   -11755    -8554    -8785 
   -9983    -5277    -1891    -7971   -18025   -22773   -17598    -7015 
     423     1178    -4868   -15441   -24749   -25273   -15005    -2964 
     592    -5374   -13757   -17271   -16391   -14369   -10635    -5575 
    -792     -411   -10250   -21031   -18713    -8965    -3342    -4814 
  -10293   -13348   -11983    -9036    -7942    -9722   -10909   -13100 
  -20530   -23895   -12681     2594     3585    -8221   -15718   -13570 
  -10334    -9675    -8492    -6469    -7646   -13003   -17516   -15657 
   -6515     -441    -9009   -22777   -23714   -12001    -1359      947 
   -2347   -10774   -21930   -24525   -15711    -2458     7358     3515 
  -10937   -19889   -18353   -13815   -12734   -11003    -5061    -6187 
  -15938   -19670   -16275   -11345    -3693     2789     1456    -7897 
  -19087   -24781   -20553    -7341     3815     2569    -7673   -17180 
  -19195   -15650   -13460   -12702   -10962    -8321    -4571    -4965 
  -14080   -23318   -21695    -8510     5325     4194   -10805   -24046 
  -26353   -15179    -1248      336    -4899    -9526   -14648   -16852 
  -15329   -11389    -7291    -7172    -8608    -8816    -9768   -12229 
  -14581   -14814   -11254    -5274    -4403   -11132   -15836   -12193 
   -6060    -6378   -12384   -14689   -10719    -7758   -10793   -14940 
  -13335    -8274    -4756    -3635    -7040   -15250   -18983   -11495 
   -2759    -2797    -9320   -17313   -19772   -14779    -8066    -3321 
   -5005   -12295   -17879   -17184    -7434     2161    -1973   -12841 
  -17537   -16525   -13163    -8640    -5883    -6258    -8545   -11637 
  -13690   -13994   -13732   -12266    -8652    -5243    -6389   -11673 
  -15241   -14287    -8851    -2794    -4367   -11927   -16356   -15534 
  -11458    -8114   -10262   -14061   -11990    -6284    -3915    -7074 
  -13972   -19322   -17671   -10029    -2906    -1549    -6453   -14493 
  -19132   -15282    -7063    -2822    -6315   -13911   -16893   -12897 
   -8748    -9317   -12158   -11075    -6993    -8017   -13035   -14216 
  -11259    -8823    -7931    -6181    -5547    -8411   -11476   -14790 
  -17886   -14293    -6471    -4761    -9647   -14130   -15939   -16046 
  -13967    -8931    -3210    -2236    -7923   -15981   -20182   -17313 
  -10490    -4583    -2808    -7132   -13135   -14432   -12413    -9834 
   -6245    -4530    -7735   -12415   -14570   -14835   -13015    -8078 
   -4392    -6133   -10987   -14998   -14567    -9003    -4892    -6972 
  -11178   -12969   -12764   -12429   -10571    -7422    -8712   -13528 
  -14503   -11605    -8853    -8310   -11307   -14457   -11315    -3657 
   -2442   -11875   -21784   -21702   -13085    -5100    -2905    -5074 
  -10260   -15589   -15839   -11218    -6423    -5236    -8691   -13019 
  -12949    -8777    -7774   -12764   -14388    -8353    -3925    -6199 
  -11549   -16147   -16043   -10357    -4747    -3874    -7229   -12799 
  -16556   -13971    -8212    -7003   -10756   -13478   -11880    -8970 
   -9128   -11395   -13246   -14636   -13439    -9709    -9148   -12106 
  -14334   -14500   -10084    -2473    -1287    -8930   -16193   -17194 
  -13853    -9720    -7956    -8453    -7524    -5698    -6184    -8132 
  -10311   -12309   -13552   -15115   -15502   -12253    -8336    -7225 
   -8845   -11757   -13026   -10824    -8382    -9239   -10771   -10705 
  -11475   -11493    -8114    -5279    -6416   -11157   -17158   -17751 
   -9146     -780    -4480   -15736   -20363   -15510    -9621    -7792 
   -9027   -10046    -9136    -8962    -9329    -7825    -7312    -9760 
  -14100   -16694   -11091    -2394    -3588   -12263   -16159   -13132 
   -9930   -11122   -14328   -12630    -5651    -3550    -9281   -14004 
  -15565   -15805   -11180    -4990    -5375   -10933   -16121   -17331 
  -11888    -3342     -726    -7489   -15495   -15195    -9923    -8679 
  -11198   -13198   -14750   -14897   -10866    -5544    -4009    -6646 
  -11651   -15770   -15183   -10875    -7308    -5464    -4448    -6691 
  -11362   -13513   -13691   -13279   -11202   -10879   -13028   -11527 
   -6953    -5980    -8839   -12430   -15377   -15847   -13447    -9872 
   -7423    -7133    -7578    -8735   -11225   -13590   -13949   -10832 
   -6146    -4669    -8232   -14218   -17338   -14889   -10249    -7339 
   -7681   -10147   -10939   -10438   -10746   -10197   -10241   -13159 
  -14902   -11334    -6258    -6404   -10885   -13244   -10709    -7140 
   -7182   -10054   -12343   -12046   -10505   -10443   -11045   -10999 
  -11167   -11037    -8861    -5555    -5678   -10633   -14841   -15361 
  -13717    -8897    -4739    -7740   -13510   -15337   -13338    -9645 
   -6639    -6311    -8872   -12066   -12459   -10956   -11307   -12233 
  -11052    -8487    -6397    -7587   -11259   -13678   -14831   -14212 
  -11025    -7411    -4600    -5884   -13051   -18306   -16024   -10636 
   -7079    -5896    -5738    -7411   -12024   -15452   -14216   -10493 
   -7483    -7650    -9639    -9823   -11226   -16075   -17251   -10913 
   -3215    -1470    -6810   -14323   -18881   -17420   -10447    -3685 
   -2134    -6222   -12583   -16906   -17262   -13205    -8456    -7439 
   -7175    -6763   -10361   -15765   -17428   -14361    -9120    -4533 
   -3474    -8201   -15426   -18519   -14550    -6100     -803    -3981 
  -10945   -14912   -15279   -12619    -7830    -5282    -8068   -14216 
  -17795   -14567    -8260    -5289    -5671    -6189    -7740   -11516 
  -15808   -19966   -20182   -12433    -3477     -337    -2961   -11318 
  -19815   -20227   -13261    -4016     1098    -2990   -12075   -17895 
  -17425   -12413    -7612    -7296    -9678   -11780   -13543   -12237 
   -8214    -8154   -11750   -12981   -12109   -11765   -10320    -7804 
   -7558    -8548    -9108   -11628   -14098   -12008    -8139    -7302 
   -8706   -10280   -11377   -11453   -12849   -15539   -13733    -8849 
   -7450    -8463   -10338   -14273   -16101   -12382    -7516    -6208 
   -7979   -10177   -11017   -10821   -10908   -10999    -9844    -7820 
   -6551    -6593    -7578   -10860   -16168   -17509   -12089    -5661 
   -4429    -8789   -13089   -12463    -9321    -8892   -11381   -12618 
  -12430   -11844    -8702    -6631    -8325    -9053    -9637   -12174 
  -13049   -11195    -9000    -9398   -12607   -14555   -12980   -10636 
   -9491    -6905    -4504    -8888   -16299   -16853   -11195    -5922 
   -5259   -10455   -16085   -15406   -10758    -9247   -10975    -9567 
   -5587    -6573   -11777   -14157   -13994   -14624   -13136    -8610 
   -6444    -6902    -8434   -12676   -13940    -9234    -7592   -11900 
  -14154   -11168   -10335   -13697   -11777    -5113    -4870   -10843 
  -13674   -10733    -7825    -8761   -11377   -13119   -12399   -10195 
   -9196    -8383    -6918    -8017   -12939   -15681   -11395    -6910 
   -9387   -14713   -16031   -11268    -4727    -3724    -8298   -13003 
  -15747   -16119   -14183   -10810    -6862    -4405    -3955    -4908 
   -8291   -13568   -18219   -18760   -12510    -4113    -1634    -6502 
  -15222   -20582   -15650    -6500    -4442    -8768   -11809   -11194 
  -10199   -10420    -9811    -7950    -6716    -7188    -9236   -11473 
  -13968   -16974   -14380    -6052    -3871    -9286   -13454   -13421 
  -10447    -9217   -12733   -15799   -13635    -8301    -6053    -8594 
  -10960   -11897   -11126    -6727    -4237    -8806   -16414   -20736 
  -17744    -8482     -697    -2413   -12206   -19483   -17934   -12002 
   -7268    -4823    -4968    -8530   -13987   -16146   -13140    -9933 
   -9828   -10682    -8961    -5431    -6145   -12194   -16852   -15977 
  -11724    -8583    -6752    -4095    -5930   -14206   -17282   -10434 
   -4548    -5965   -10647   -14617   -16343   -15310   -11367    -5752 
   -2419    -5459   -14123   -20186   -17228    -9486    -5358    -7395 
   -9745    -9096   -10619   -13305   -10292    -5842    -7754   -12101 
  -13224   -12483   -10571    -9477   -12205   -12762    -8043    -5799 
   -7565   -11194   -17269   -18188   -11146    -5483    -2870    -2423 
   -8953   -18504   -19903   -10883    -2675    -5498   -14230   -19005 
  -16062    -6831    -1038    -5162   -11215   -13918   -15822   -14416 
   -8523    -4660    -6926   -11740   -13140   -10521    -7393    -6893 
  -11404   -16050   -13842    -8392    -5952    -7734   -10573   -11298 
  -13471   -16578   -14026    -8803    -8067   -12307   -15978   -12421 
   -3686     1838    -1429   -11681   -19673   -20347   -14669    -5761 
   -1657    -5522   -13298   -20456   -20803   -13396    -4900    -1667 
   -5401   -11281   -14632   -15156   -13479   -10984    -7411    -3057 
   -3106   -10199   -18192   -18115   -10829    -4959    -3146    -6261 
  -14161   -18652   -16856   -13652    -9316    -5414    -6917   -11816 
  -14300   -13641   -11959   -10014    -7307    -4985    -6666   -11356 
  -14075   -13976   -12143    -8797    -5493    -5412    -9381   -13678 
  -14960   -11333    -5441    -4457    -7897   -11812   -14982   -13811 
  -10224    -8221    -7125    -9990   -14072   -11997    -8689    -8864 
   -9180   -10489   -13532   -12926    -9231    -9342   -11800   -11149 
   -7962    -5485    -6928   -11897   -16391   -17583   -12931    -5179 
   -2566    -6235   -12036   -15572   -13910   -12360   -12820   -10827 
  -10423   -11479    -7354    -4060    -7707   -12583   -14967   -16380 
  -15001    -7295     -207    -5829   -19265   -24008   -16563    -6231 
    -661    -2759    -9807   -14207   -13964   -13306   -12313    -9602 
   -8159   -10282   -12306    -9664    -7249   -10266   -12602   -11441 
  -10469    -8712    -8064   -12614   -15661   -10998    -6201    -8081 
  -12175   -12847   -10138    -7380    -7180    -8869   -11402   -15140 
  -17209   -13819    -7298    -3288    -5533   -11618   -13408    -9315 
   -7588   -12930   -19527   -18667    -9229      -16     -310    -8194 
  -13921   -14440   -14476   -14250    -9535    -3057    -2882    -9200 
  -14222   -14682   -13705   -13011   -11546    -9144    -6173    -5100 
  -11241   -19758   -18341    -9059    -3469    -5404   -10431   -13150 
  -14494   -16129   -14052    -7932    -3229    -3256    -6605    -9147 
  -10646   -13605   -15458   -13090    -8615    -6339    -7915   -10916 
  -13151   -14168   -13930   -12556    -9142    -5339    -6594   -13123 
  -17247   -14940    -9394    -3107      149    -4172   -12854   -18800 
  -19124   -14824    -8058    -3229    -3958    -8471   -14355   -17914 
  -15218   -10339    -7408    -5655    -7816   -14152   -17490   -14993 
  -10126    -6257    -5795    -8457   -12156   -13279    -9329    -6975 
  -10916   -13645   -11416    -7902    -5490    -8270   -15404   -17945 
  -13629    -5948      895    -1799   -14589   -24403   -22210   -12501 
   -4492    -1908    -4390    -9016   -11716   -12289    -9945    -6496 
   -9294   -15352   -15016    -9213    -5324    -6835   -10971   -13455 
  -13691   -13624   -13046   -10069    -7056    -7476   -10600   -13504 
  -13004    -9861    -7950    -7919    -9764   -12441   -11616   -10111 
  -13069   -13500    -7572    -3832    -5494    -8371   -11017   -14519 
  -16785   -12681    -5526    -5123   -10616   -15944   -19550   -16950 
   -8375    -4170    -6619    -8789    -9019   -11259   -16447   -17336 
  -10080    -3642    -4926   -11578   -17167   -15292    -9655    -6855 
   -6103    -9934   -17979   -19626   -12704    -5140    -1354    -4137 
  -13990   -20740   -14359    -3470    -2494    -9494   -15002   -16179 
  -14395   -11646    -9034    -9553   -15425   -18157   -12058    -5742 
   -5610    -9991   -14355   -15287   -12806    -6143     -513    -3850 
  -12013   -18370   -19974   -13910    -3419     3767     2203    -7920 
  -19452   -23750   -18486    -8579     -823     -175    -7476   -17917 
  -23697   -20845   -12376    -3377      642    -4135   -13204   -17880 
  -14377    -6546    -2049    -2660    -4783    -7438    -9776   -10026 
   -8193    -4182     -679    -4494   -16480   -25852   -23904   -16025 
   -9668    -4278    -1247    -6724   -18301   -23082   -14084      -44 
    4737    -1669    -8766   -10436    -7018      160     3793    -3935 
  -17617   -24807   -21698   -13054    -4557    -1885    -9404   -22410 
  -28092   -19884    -6093    -2408   -12973   -26249   -30924   -20852 
    1254    16825     9871   -12838   -29416   -25621   -11214    -4109 
   -6273   -13413   -21729   -21433   -10917      662     5931     -313 
  -14137   -23490   -25749   -26380   -25138   -15812      623     9748 
    3898    -5356   -11356   -18176   -19479    -7608     9798    18438 
    8175   -18968   -44587   -49054   -32238    -5632    20715    29891 
   12123   -15921   -32001   -25843    -4746     6166    -3364   -15333 
  -16676   -13080   -10805    -8646    -7167   -10963   -19433   -22719 
  -10686    10033    17890     2415   -25254   -44167   -38341   -12175 
   10111    11665      962    -8631   -17167   -19676    -5954     7950 
   -2868   -29512   -44220   -34245   -10515     4260      -25   -17335 
  -34221   -36262   -21512     -321    13154    12920     5111   -10084 
  -27342   -26769   -11105    -3078    -6957   -12617   -11107     -992 
    3786    -5722   -17204   -21662   -22864   -21676   -14299    -1408 
    4943    -4140   -14168    -8911     2343     2891    -8228   -18924 
  -17548    -6832      685      463    -6185   -18962   -29262   -25586 
  -10195     4486     6181    -6512   -19576   -21026   -12865    -5425 
   -8129   -18281   -23826   -17220      521    14638     4761   -22751 
  -39726   -32609    -8100    12532     8989    -8071   -16950   -20614 
  -22642   -12968      928    -1129   -16677   -25575   -19479    -7369 
   -2367    -8946   -18759   -21246   -17298   -14538   -11315    -4818 
   -2928    -6542    -7697    -7738   -11246   -14484   -13338   -11604 
  -11464    -8415    -4229    -2997    -2640    -5555   -12241   -14586 
  -11194    -8729   -11720   -15989   -10498     4862    14301     4850 
  -18657   -35050   -29934   -13894    -3383    -2860   -10031   -20522 
  -28435   -22504    -1428    10878       24   -17740   -23307   -14887 
   -5803    -5371    -7446    -7889   -10449   -13309   -14369   -15383 
  -13922   -11476   -12777   -12445    -6863    -5730   -12892   -17243 
  -13239    -5972    -1980    -6724   -13170    -9455    -1587    -2323 
  -12525   -20129   -12695     1628     6060     -525   -14530   -30474 
  -31860   -12082     8877     8046   -10486   -26380   -32008   -27344 
   -8777    11927     7919   -19145   -33110   -18751     2392    11335 
    5498   -10898   -27110   -31456   -22526    -8256     2258     3869 
   -2085    -9393   -14031   -18242   -21374   -16436    -7507    -4864 
   -2444     4440     3704    -8735   -22300   -28132   -24781   -17379 
   -8361     3855     9275      388   -11669   -20652   -25770   -21419 
  -11724    -4704    -2205    -4866   -12752   -22735   -25174   -13468 
    4307    11869     1476   -15876   -25951   -25949   -17852    -7164 
    -172     2772      306    -9698   -18204   -14994    -7310    -5300 
   -6840    -9265   -11518   -12733   -16090   -20663   -19264    -9477 
     442    -1443   -16020   -29177   -28156   -14831      -35     5787 
   -1763   -16839   -26975   -26164   -18253    -6670     4029     4743 
   -6529   -19273   -19863    -7755     -116    -7257   -15315   -11516 
   -4155    -3847    -8641   -11156    -9751    -9293    -9373    -6925 
   -6637   -10771   -13909   -12737    -7689    -1229     -711   -11772 
  -24281   -23167   -11646    -1848     2106    -2124   -14287   -24227 
  -23583   -15032    -5206     1048     2648    -2357   -16216   -25969 
  -18377    -6056    -3812    -8401   -13562   -17057   -18638   -16904 
  -10728    -5733    -7447   -13474   -17936   -16370   -10654    -8370 
  -10373   -11754   -11915   -10125    -7466    -8028    -8417    -5992 
   -5452    -7375    -9760   -13178   -15691   -15101   -14328   -14405 
  -10571    -4810    -6725   -15130   -19275   -17463   -13090    -5283 
     791    -2282   -10512   -16837   -17593   -10898    -1327     2401 
   -3354   -13405   -19283   -17267   -11364    -8109    -6388    -3488 
   -4537    -9844   -11664    -9289    -9178   -12739   -15484   -15088 
  -11071    -5505    -6170   -12866   -13576    -7277    -7113   -13328 
  -14046   -12995   -16857   -16360    -7692     1408     3449    -6181 
  -21901   -28057   -16846    -2161    -1926   -12293   -17930   -14968 
   -9024    -3246    -1777    -8626   -16587   -18800   -17224   -12827 
   -7820    -5796    -8372   -14547   -17104   -13570    -8091    -2678 
   -3670   -11472   -14851   -12599    -9049    -2528     1200    -6168 
  -17396   -20563   -13991    -1601     6057     -886   -14129   -21298 
  -21639   -15464    -5586    -2326    -9356   -17555   -17431   -10218 
   -4193    -2960    -5007    -9319   -13513   -15747   -16441   -13161 
   -7601    -7005    -8887    -8047    -7014    -6998   -10076   -16765 
  -19908   -18711   -17062   -12236    -5584    -5391   -11518   -13699 
   -8978    -5726    -6897    -8023   -10589   -18044   -22102   -12109 
    3191     5684    -5734   -20344   -27060   -18233    -4364    -1209 
   -6311   -12205   -15395   -14172   -12044   -10245    -7813    -9248 
  -15606   -17054    -9124    -4267    -9288   -14850   -15190   -11248 
   -6706    -7474   -11048   -11681   -12166   -13112   -10517    -7396 
   -5976    -4702    -7458   -13190   -14328   -10476    -5278    -2122 
   -4536   -11569   -18486   -21054   -17568   -10426    -5780    -7229 
   -9602    -8028    -6936    -9675   -13792   -17250   -16067    -8950 
   -4590    -7207   -10453   -12982   -17008   -18177   -12009    -1364 
    2976    -5910   -16302   -15115    -8753    -5786    -5020    -6631 
  -10498   -13004   -12518    -9607    -7094    -7807   -10866   -12414 
   -9077    -5940   -10845   -17867   -16826   -12020   -11159    -9783 
   -4646    -4175   -11639   -18890   -20298   -15707    -7480    -2335 
   -5076   -11794   -15233   -13733   -12233   -12237    -9768    -6363 
   -6451    -8442    -9073    -8353    -9047   -12803   -15696   -14477 
  -12252   -11253   -10729    -9788    -8317    -9124   -12025   -11361 
   -5976    -3839   -10758   -18026   -15608    -7840    -3717    -7636 
  -16140   -18852   -14256   -11523   -11838    -9373    -5945    -6562 
   -8927    -8378    -7022   -10170   -16395   -19125   -15206    -6907 
   -1845    -6069   -13697   -16595   -14337    -8415    -3796    -5665 
