Origin Time       2024/04/02 04:24:00
Lat.              40.133
Long.             141.712
Depth. (km)       71
Mag.              6.0
Station Code      IWTH27
Station Lat.      39.0307
Station Long.     141.5320
Station Height(m) 80
Record Time       2024/04/02 04:24:58
Sampling Freq(Hz) 100Hz
Duration Time(s)  127
Dir.              5
Scale Factor      7845(gal)/8223790
Max. Acc. (gal)   72.118
Last Correction   2024/04/02 04:24:58
Memo.             
[...]
   -1556     -950    -1499    -2569    -3084      -60     7817    13891 
   14922    12509     6879     1293     -234      675      934      507 
    -747    -1200     4414    13815    16509    11396     9032    13633 
   15913     7628    -5179   -11537    -9649    -3123     5274    11574 
   11186     6778     7225    10714     9167     5443     2500     -857 
    -465     3696     5692     4942     4391     5755     8793    10660 
    9562     7119     4052      217     -714     2702     5385     5791 
    6237     5013     2097     1356     3542     8040    13285    14644 
   11317     6062      253    -2933    -3399    -5386    -4456     3828 
    9109     7296     9409    14184    10903     4680     5260     8532 
    5412    -4074    -9166    -2871     7500    11981     9819     9543 
   16459    19533     9082    -4001    -7870    -4973     1213     6901 
    5827     3681     7209     9748     9563     9493     5238     -870 
   -1387     1413     2655     3287     5077     7260    10104    13713 
   13167     7712     5296     5610      758    -5594    -5660     -841 
    5618     9682     7844     4224     2110      167        1     3855 
   10727    18461    21597    13352      442    -2898      220     -922 
   -3523    -1344     4459     8949     9159     6609     3650     4565 
   11898    15916     8453    -1398    -3163      326     -283    -6864 
   -7815     4085    16815    18991    14856    11326    10177     9019 
    3839    -1718     -422     2839      -27    -3591     -530     5316 
    7353     7334    11404    15699    12131     4695     1125     1355 
     704    -3056    -5169    -1286     6241    12455    14540    15148 
   13768     5109    -3855    -2299     4681     6694     2957      579 
    3589     8139    10902    10323     7129     8148    12001     7989 
   -1624    -6556    -7025    -5591     1408    12555    17925    14014 
    8938     8305     6544    -1968    -9315    -5931     2133     6409 
    8214     9427     9803     8691     5332     3765     5736     4684 
     429      290     6482    14945    15581     5543    -2168    -1401 
    2137     4887     4872     2173      544     4386    11553    12501 
    6173     2592     5684     7183     1250    -4928    -3453     3092 
    7230     8496    12544    15017     8788     1904     2508     4973 
    3630     1887     3303     5294     5741     5466     5281     5607 
    5865     6407     7881     7614     1780    -4459      607    12143 
   14041     5898     -176     1290     3055     2560     7673    13171 
    8419      284    -1503     1821     4688     3069      152     4240 
   13621    16160     9728     3161      162     -184      869     1463 
    1948     3937     6408     7619     9404    10953     9003     6826 
    5918     3256     1389     1713      -85    -2764     -791     5929 
   12636    12434     4973     1641     6957    11020     9000     4801 
     402    -1541     1151     3524     2246     2708     7180     9783 
    9356    10350    11362     7308      291    -1468     2641     4835 
    2639      245     1426     6416    11693    12476     7398     3307 
    4020     1431    -3778    -1817     3854     7365    11059    12717 
    9869     7234     6424     4621     1379    -1644    -2052      221 
    2986     6315     9825    10971     9983     9283     8317     5294 
    2305     1560     1325     1123     2307     4094     5817     7650 
    8903     8249     5640     4553     5582     4608     3249     4804 
    5829     4217     2246     1502     1786     1985     3079     4968 
    4897     5840    10227    12198    10077     8338     7383     5013 
    1941      818     1416     1520     1674     4028     8839    12154 
    9609     4469     2964     4249     3686      742     -932     -302 
    -433     -175     5212    13024    14937    10471     7102     7361 
    6767     3345       -9    -1283     -415     2689     6114     7234 
    6724     6683     9016    12576    11233     4052    -2452    -3846 
     589     5734     3809    -2047    -1559     5767    11541    11317 
    8217     7931    10264     9833     6558     3258      -43    -1767 
    -491     1692     4345     8610    10085     5645     3348     7881 
   11569    10177     6741     3098     -160    -2292    -2042     1158 
    4715     6713     8974    10748     7927     3622     4942     8665 
    6882     1254     -240     2899     2407    -1699      332     7677 
   10810     9477     9931    11919     9354     1507    -3520      249 
    7411     8710     2897    -2022     2332    12537    16144     9653 
    3284     3646     3171    -2519    -4423      436     3987     3682 
    4652     9112    10816     5402     1210     5440    12113    13686 
   10598     5522     -126    -2336     -535       70      727     5274 
   10288    12943    13743    11461     5042    -2789    -4727     2558 
    9934     8309     2608     1327     3342     4572     5351     6118 
    6713     7535     7379     5601     2469    -1678    -2835     2002 
    7858     9795    10188    10339     7322     3705     4654     6826 
    5995     5224     4756      529    -4947    -5192     1449    10750 
   14998    11962     8892     8661     5058    -1165     -822     5189 
    7302     4487     2309     3010     3789     1223     -305     5174 
   11884    11599     7522     6882     7827     5215     2617     2722 
    1543      845     4662     8968     7739     2080     -537     3550 
    8951     9709     7071     4534     2631     1779     1786     3244 
    8645    13181    10658     5591     2066    -1063    -1939      981 
    5017     7034     7685     8637     7387     3589     2176     4611 
    8016    10056     9228     6134     3199      847     -841      218 
    3157     3528     2046     4603     9676     9765     6714     7099 
    8619     6354     1088    -2211      881     7118     9680     8117 
    5698     4407     3542     1397      446     3330     7817    10304 
    7604     2215      585      619       44     3483     7491     6883 
    7175    10447    11468     8338     3188      145     2543     8013 
    9811     6012     1401    -1011     -480     3269     8168    11836 
   11759     8245     5530     3650      499    -2155     -835     5233 
   10076     9919     8023     4737     1215     2145     5579     6281 
    4834     3792     3195     3574     5448     7145     7161     5687 
    4025     3694     5954     9410    10168     7402     3060       41 
    1925     5962     4725      -39      202     4932     7755     8735 
    8275     4209     1097     2280     3624     4463     5223     3948 
    3939     7385     9706     8657     5752     2999     2651     3655 
    4272     5501     5651     3663     3458     4634     3736     3584 
    6536     7963     5339     3234     4384     5860     5339     4464 
    5467     6906     5742     2104      449     4240     9027     9936 
    9336     7983     4514     2205     1817      322      355     4955 
    9977    10868     7003     1675      167     2940     5875     6227 
    6193     8847     9601     4160     -784      164     2646     3315 
    3708     5132     6795     6651     6073     8197    10068     7592 
    2772    -1202    -1744     3520     9080     7098     2976     5436 
   10224     8989     2786      294     3580     5379     4812     5478 
    5421     5084     6124     6342     6408     6289     3983     2843 
    4472     4783     2716     1085     2258     5452     7107     6635 
    6268     5545     3877     3681     5197     5383     4494     5258 
    6521     5737     4634     5235     3256    -1780      526     9327 
   10366     4999     5084     9135     9001     5266     3797     5224 
    5983     4141     1699     3508     8905    10415     4563    -1728 
     963     7955     7805     3813     3694     4793     4234     3397 
    2875     3620     5298     4611     2517     3947     7172     6536 
    3954     5030     9135    11805    11229     8127     2849    -2459 
   -2921      463     1765     1526     3474     7975    12333    12035 
    8195     5105     2247     1933     5880     6993     4020     2917 
    3893     5409     6920     6759     4861     3024     3134     4391 
    4645     4275     3526     2878     4988     7210     5633     4931 
    6324     5768     5848     6767     4418     1586     2658     6802 
    9292     6394     2334     3168     6654     7026     4341     3377 
    4453     4402     4687     7396     9791     7549      945    -2084 
    2938     8325     7743     4135     1262     1706     5475     6829 
    4754     5822     8374     5880     3649     6720     6366      175 
     399     9136    13167     8336     3715     1971    -1345    -4031 
   -1466     4891    10346    11385     9329     9242    11711    10057 
    1632    -5597    -5806    -1800     2488     5317     8469    13190 
   14409    10336     6724     4114      225     -947      610      762 
    2290     6187     7966     8671     9958     7690     2835     1451 
    2374     2589     3677     4552     5397     8927     9602     4405 
    1085      653     -699      734     5942    10191    11844    11344 
    8441     4398     3755     6878     5652     -799    -3173     -457 
    3248     8122    10065     7182     7283    10832     9975     5566 
    3454     3319     3277     4864     6046     2141    -3627    -4457 
     572     7240    10831    11959    12565    10758     7186     3352 
    -332     -642     2781     6527     7175     3832     1710     3956 
    7703    10443     9806     5925     3310     4749     6999     5266 
    2424     2606     2362      880     1053     1617     2465     5541 
    8818     9005     7049     5930     5980     5918     4345     2968 
    4976     6161     4280     4683     6162     5483     4426     2417 
     369     1695     4599     5782     5513     5483     7075     9545 
    9771     6218     1418     -940     -292     1597     4048     7096 
    9514     8696     5408     4888     6820     6030     2662      230 
    2101     7291     8997     6775     5057     4135     4448     4257 
    2585     3682     4838     3141     5881    12681    12883     5304 
    -453     -147     1769     3492     5769     6744     6312     5873 
    5402     4513     3651     4228     5179     4644     5155     7959 
    8716     4606      221     2987     9363     8645     4344     5283 
    6759     4021     1422     1426     1413     1067     3916     8548 
   11384    13413    11041     1325    -4857     -332     4530     3329 
    2990     5167     5454     6134    10609    14150    11689     7561 
    5564     2077    -1669    -1574    -1551    -3485    -1109     6439 
   12329    12907     8681     3944     5161     8930     6158       87 
    -622     2694     4372     2866     1780     4542     7790     8395 
    8024     7993     8571     7323     3199     2042     5252     6451 
    5034     4951     5607     6122     8203    10123     7335     1449 
    -175     2964     2857    -2475    -3616     4056     9632     6694 
    6733    13454    13047     3974     -178     2562     4062     2654 
    2295     4260     5336     4932     5607     6215     6168     7651 
    9078     7547     3859      615    -1166    -1622     1115     6227 
    8336     7654     8511     9684     8912     8337     8055     5860 
    2983      548    -1425    -2389    -1641     3125     9504    12064 
   13259    13907     7489    -1748    -2223     2290     2138      179 
    1167     3192     5031     7072     9157    10839     9489     5351 
    3531     3202     1192     1773     4963     4681     3919     7763 
    9958     4897     -159       22      399     2631     9319    10727 
    5871     4958     7631     9801    10530     5636    -3280    -7218 
   -2448     5717     9468     8569     9036    12208    13520     9811 
    2575    -4139    -5578    -1576     2745     6451     9937     9819 
    6366     3744     5009     8382     8958     7067     5505     3337 
     -51    -1354     2301     7565     9300     8116     7573     8483 
    7731     2864     -692     2196     5100     3306      800    -2070 
   -4345     -240     8185    13342    14125    14245    14218     9370 
     184    -3604     -429      661     -668     1668     6612     7971 
    2596    -2185     2351    10642    13170     9952     6504     6177 
    5460      418    -5879    -7246    -1031     6419     7415     5300 
    5838     6905     6400     9244    15372    14261     5675    -1317 
   -7022    -9736    -4737      970     3080     6598    11709    16009 
   18623    17481    10903      881    -4635    -2562      630     3032 
    4599     2404     -384      124     3221     6839     7182     3832 
    1964     4187     6293     4388     2247     5367    12758    18875 
   19830    16289    10431     3931      751     4118     9871    13433 
   15627    13637     5116    -2760    -5740    -7657    -8553    -5115 
     436     2038     -913    -1387     5524    14310    16567    14535 
   14110    11782     4309    -2548    -2656     3018     8401     9578 
    8260     8475    11115    13073    12918    11342     8772     7033 
    4714    -1715    -6278    -2606     1579     -746    -5066    -9217 
  -14269   -11128     7094    28162    40648    46179    41597    21670 
   -4577   -23090   -31590   -33735   -28125   -13959     4581    17614 
   11140    -8662   -13262     1826    15920    27022    39830    44721 
   38469    22054    -2620   -14970    -6304    -5482   -23742   -32535 
  -23768   -16240    -4579    27930    66064    80551    67301    40320 
    6230   -29338   -49635   -45895   -27355    -4726    14482    25149 
   24309     9628   -11480   -25814   -26342   -13535     1921    12645 
   25027    38634    46280    44728    27224      780   -11210    -5248 
     373    -5424   -15456   -18987   -17088   -12919    -3126    15309 
   37301    46076    32547     9636   -10281   -23261   -20925    -2299 
   15025    15399     3800    -5710   -10489   -16437   -21332   -14380 
    8838    33802    41337    34393    28115    18956   -10091   -47051 
  -57416   -39607   -10744    25573    52771    54488    46727    39019 
   18771    -4904   -13135   -13459   -14855   -10713     1244    14431 
   20312    14605     3599    -3300    -7928   -17342   -23710   -14235 
    5022    21841    36522    50830    51601    27406    -3697   -18567 
  -20070   -19750   -20776   -18191    -7935     1709     5319    11242 
   17498    11672    -1671    -8922    -8344    -7650    -9070     -109 
   23614    43357    45566    37770    31363    21100    -2713   -26084 
  -30377   -17416     2965    20754    28155    23010     8471    -3765 
   -5292    -3065    -3790    -5206    -5073     -828     4120      144 
   -6523    -4657      972     5508     9147    12426    17105    17718 
   11194     5911     3609     -635    -4978    -7695    -6793     2632 
   14241    17161    15122    15807    12139    -3640   -19411   -21204 
  -11645     2944    19959    36657    49052    47920    27558      122 
  -20038   -29786   -27002   -13570     2093    13059    14593    11855 
   17705    25968    18203    -2660   -21263   -27530   -16175     1210 
    4650    -3465     -658    19411    33571    27426    18188    21956 
   30003    26940    11681    -4905   -16756   -26269   -30064   -22605 
   -7645     7862    16889    16190     9803     5293    11577    23045 
   21020     7803     1093     1914      936    -5760   -14993   -17466 
  -10353      695    17621    38461    44784    33585    23461    11493 
  -16213   -39677   -38578   -26541    -9073    21091    49073    55566 
   36081    -1574   -29905   -30433   -21284   -17413    -7195    15477 
   32678    23334    -3770   -19723   -16699    -4503    13809    34825 
   49557    52072    39129    13034   -12934   -24393   -19184    -8623 
   -6097   -10594    -8089      388     -267    -3203     9258    32011 
   45982    41451    24935     4052   -20872   -41366   -42214   -21895 
    4515    21799    28809    32397    33415    26229     5521   -20313 
  -29731   -19610    -7196     3095    15240    22774    21624    14481 
    3284    -3433     2517    12572    16393    18324    21251    20796 
   18689    12217    -7862   -27338   -22485    -7036    -7647   -14250 
   -6636     8753    17382    18152    20096    26956    29825    21508 
    6945    -2521    -2184    -2466   -10947   -15966    -8271     6012 
   20232    25042    14092     1752    -2991    -7785    -6588     4384 
    8761     3132      236     3627     6949     4378     -622     -967 
    1941     6050    13635    20922    18427     4348    -8959   -11619 
  -10328   -10185    -8340    -7291    -4584     6538    19199    24679 
   24887    22847    20455    19919    16802     3021   -14543   -18017 
  -10665    -7965    -3416    10629    22037    23276    17436     8060 
     175    -3651    -3262      257     1746     4280    15992    26447 
   21197     8260     1938     1818     1323     1219     3638     2976 
     342     3532     3127    -6762   -10216    -5086     -641     6578 
   14342    15753    15568    14751     7798      151    -1069    -1946 
   -6408    -6223     -425     -742    -6353     -982    13828    19978 
   17811    18341    19071    12267    -2924   -17014   -18877   -10986 
    -457    12783    24281    23953    13806     4275    -3381    -8440 
   -3365     8768    15319    13566    10995    10883     7399     -745 
   -3275     3515    12789    21357    23427    15078     8577     8517 
    3373    -5200    -7865    -7306    -4869     2619     8826     8560 
    9031    12310    11699     8554     6394     1391    -6632   -11237 
  -10848    -9977    -7960     1151    16021    26565    25288    15450 
    6624     2220    -1144    -4456    -5421    -2604      857     1571 
    1809     1764      465      869     3547     9961    20792    26677 
   22005    15529    11321     2558    -9304   -14570   -11730    -6905 
   -1787     6643    15915    19913    19994    21375    21505    13215 
   -1823   -14260   -22140   -25444   -16623     3478    22144    30163 
   29675    26811    18717     4311    -6894   -10579    -9364    -5258 
    -112     5814     9166     5621     1393     1914     1850     -610 
     410     7369    14106    16686    19453    19147     9747     -885 
   -7480   -12181   -10667    -2535     6396    15149    20744    19051 
   12278     4403      391      723    -1435    -5883    -5409     -857 
    1424     2713     8094    14964    18472    18663    16116    12741 
    9823     3237    -6390   -13738   -16155    -9169     2457     6439 
    7264    11159    11161    10149    15244    19696    18474    14091 
    7335     -970   -10505   -18589   -17676    -6793     6430    15410 
   19523    23105    25596    18739     4664    -2555    -2066    -4865 
   -9629    -5656     4336     5803      691     4303    13818    16677 
   13792    12016    13940    15844    12017     2489    -8476   -14092 
  -11770    -8329    -5741     1323    11021    17086    17053    12927 
   11850    14378    10679     -243    -8842    -9771    -6139    -4833 
   -5031     1597    14841    23845    22592    16587    11750     6188 
   -2361    -6866      113     9675     8928     2100     -711      449 
     157    -2961    -1517    10891    21957    16046     3786     2060 
    4434      680    -2610     1884     5466    -2116   -11541    -6914 
