Origin Time       2024/04/02 04:24:00
Lat.              40.133
Long.             141.712
Depth. (km)       71
Mag.              6.0
Station Code      IWTH28
Station Lat.      39.0094
Station Long.     140.8640
Station Height(m) 117
Record Time       2024/04/02 04:25:00
Sampling Freq(Hz) 100Hz
Duration Time(s)  120
Dir.              1
Scale Factor      2942(gal)/8224139
Max. Acc. (gal)   2.948
Last Correction   2024/04/02 04:25:01
Memo.             
[...]
   87012    86462    86572    87072    87556    88022    87818    86927 
   86575    87021    87436    87519    87415    87195    86948    86724 
   86459    86109    85884    86012    86205    86108    86028    86256 
   86402    86409    86825    87365    87075    86275    86373    87353 
   87723    87351    87461    88109    88335    87964    87481    86926 
   86362    86325    86564    86351    86204    86790    87142    86493 
   86039    86578    87004    86954    87353    87748    87327    87102 
   87529    87292    86421    86579    87416    87049    86181    86730 
   87705    87474    87176    87848    88022    86926    86366    87165 
   87497    86746    86691    87401    86942    85689    85810    86927 
   87079    86586    86724    86844    86445    86798    87891    87890 
   86834    86559    87015    86795    86344    86788    87270    86944 
   86869    87543    87936    87732    87582    87562    87311    87133 
   87255    86853    85999    86314    87539    87652    86898    86726 
   86713    86310    86371    86962    86972    86701    87280    87735 
   86867    86115    86472    86327    85251    85415    87072    87411 
   86059    85834    86881    86917    86080    86020    86606    86794 
   86725    86902    87000    86895    86876    86694    86208    86185 
   86941    87401    86742    85797    85851    86706    87069    86595 
   86296    86715    87112    87087    87039    86861    86277    85712 
   85738    86197    86347    86251    86800    87716    87648    86694 
   86313    86736    87004    86946    87057    87220    87014    86861 
   87068    86864    86499    87123    87901    87423    86695    87041 
   87372    86740    86682    87814    88145    87137    86661    87226 
   87438    86925    86684    86935    87127    87377    87694    87385 
   86864    87261    87867    87376    86517    86513    86872    86637 
   86196    86364    86869    87146    87249    87169    86807    86516 
   86644    87089    87551    87664    87176    86443    86269    86841 
   87400    87397    87149    86938    86610    86347    86444    86559 
   86566    86779    86887    86661    86703    86961    86609    85938 
   85953    86409    86537    86621    86979    87100    86945    87083 
   87114    86518    86305    87003    87336    86871    86568    86494 
   86238    86324    86915    87022    86377    85966    86201    86544 
   86751    87029    87367    87562    87592    87404    86968    86632 
   86524    86402    86547    87245    87816    87586    86971    86899 
   87466    87582    86802    86355    86796    87160    87123    87347 
   87727    87462    86759    86437    86213    85828    86316    87551 
   87766    87122    87331    87870    87305    86680    87157    87297 
   86483    86533    87451    87076    85734    85845    87169    87305 
   86435    86634    87399    87065    86470    86833    87291    87019 
   86914    87558    87866    87426    87430    87806    87197    86279 
   86755    87671    87164    86152    86215    86583    86233    85846 
   86144    86655    87000    87394    87517    87087    86846    87066 
   86964    86659    87000    87322    86628    86005    86628    87359 
   87007    86472    86594    86655    86393    86571    87069    87064 
   86705    86605    86520    86081    85795    85985    86250    86521 
   86838    86873    86815    87002    87119    87029    86987    87007 
   86957    86791    86697    86813    86741    86238    85862    86104 
   86544    86391    85800    85764    86260    86451    86521    86879 
   87025    86733    86665    87068    87049    86320    86231    87243 
   87696    86864    86397    87053    87359    86840    86760    87268 
   87384    87134    87069    86956    86663    86749    87237    87515 
   87447    87289    87097    86973    87043    87023    86867    87052 
   87393    87216    86814    86908    87176    86903    86404    86540 
   87361    87970    87786    87322    87150    86984    86649    86914 
   88068    88703    87820    86948    87447    87799    86826    86323 
   87247    87597    86684    86475    87319    87431    86752    86717 
   87089    87050    87335    88022    87670    86713    87124    88122 
   87551    86494    86980    87712    87011    86367    87072    87339 
   86131    85441    86189    86610    86158    86152    86514    86386 
   86545    87475    87635    86413    85585    86084    86594    86363 
   86440    87004    86714    85893    86192    87057    86848    86078 
   86287    87015    86598    85569    85820    86759    86648    86098 
   86367    86775    86459    86205    86597    86659    86220    86610 
   87539    87299    86470    86805    87492    86987    86321    86695 
   86907    86267    86216    87116    87585    87431    87324    86811 
   85946    86239    87565    87798    86852    86786    87623    87539 
   86656    86675    87381    87226    86636    86918    87459    87197 
   86741    87000    87461    87370    87143    87120    86965    86896 
   87281    87620    87339    86740    86590    86881    86952    86865 
   87099    87494    87597    87389    87183    86922    86617    86956 
   87777    87797    86964    86463    86652    86965    86999    86782 
   86476    86393    86915    87529    87223    86543    86757    87318 
   87023    86298    86015    85945    85873    86223    86737    86605 
   86078    86067    86455    86594    86575    86695    86869    86837 
   86506    86223    86121    86049    86255    86710    86904    86783 
   86657    86736    86969    87104    87057    86917    86813    86844 
   86868    86664    86289    86013    86138    86761    87405    87370 
   86833    86611    86741    86641    86394    86320    86260    86285 
   86694    87246    87355    87007    86940    87409    87716    87602 
   87509    87507    87546    87717    87632    87066    86578    86599 
   87031    87524    87635    87273    86930    87141    87612    87516 
   86968    86863    87131    87079    86991    87303    87353    86827 
   86703    87257    87466    87210    87423    88103    88322    87704 
   86859    86440    86364    86486    86805    86895    86482    86063 
   86262    86821    86983    86825    87006    87431    87521    87272 
   87000    86679    86449    86702    87012    86745    86428    86684 
   86975    86736    86601    86995    87050    86512    86405    86900 
   87000    86490    86194    86454    86981    87315    86875    85924 
   85618    86273    86760    86355    86036    86506    86907    86715 
   86439    86416    86688    87145    87300    86906    86497    86617 
   86934    86861    86630    86533    86229    85930    86313    87022 
   87115    86741    86803    87278    87447    87191    86902    86786 
   86741    86648    86541    86545    86869    87347    87282    86694 
   86536    86910    87102    87196    87484    87426    86860    86668 
   87007    86952    86611    86944    87411    86999    86638    87318 
   87836    87316    86800    86755    86699    86919    87490    87508 
   87002    87093    87644    87376    86471    86454    87373    87828 
   87578    87404    87191    86626    86371    86949    87739    87700 
   86977    86807    87169    86971    86536    86779    87077    86633 
   86282    86842    87386    86925    86115    85822    85776    85750 
   86008    86113    85687    85725    86721    87428    87216    87033 
   87332    87346    86656    86070    86331    86887    87011    86954 
   87023    87041    86888    86458    85866    85765    86370    87087 
   87459    87377    86705    85720    85334    86026    86810    86613 
   86265    86907    87741    87624    87022    86869    86975    86741 
   86570    86965    87168    86549    85959    86282    86953    86886 
   86242    86165    86806    87305    87644    88190    88254    87585 
   87184    87178    86829    86466    86834    87513    87559    87077 
   86892    86994    86838    86522    86427    86543    86752    87002 
   87112    87064    87137    87443    87768    87778    87513    87581 
   87964    87689    86776    86474    86760    86368    85641    86200 
   87513    87586    86975    87516    88260    87485    86428    86778 
   87529    87257    86557    86624    87210    87197    86514    86127 
   86312    86362    86175    86478    87104    87134    86722    86709 
   87046    87111    86825    86549    86429    86501    86629    86501 
   86468    87049    87677    87361    86336    86140    87088    87534 
   86953    86597    86803    86809    86622    86784    87088    86999 
   86732    86783    86948    86795    86436    86409    87037    87718 
   87523    86703    86343    86667    87037    87065    86887    86675 
   86395    86217    86306    86341    86225    86306    86683    87141 
   87369    87311    87064    86705    86760    87303    87207    86294 
   86000    86764    87377    87200    86841    86582    86267    86516 
   87567    88005    87332    87048    87278    86818    86310    86695 
   86976    86598    86508    86921    86940    86522    86595    87035 
   86852    86383    86501    86630    86227    86177    86935    87423 
   87011    86610    86576    86138    85696    86383    87413    87465 
   87268    87561    87463    86895    86751    86719    86186    85920 
   86709    87559    87347    86950    87237    87324    86985    87245 
   87783    87345    86375    86206    86517    86371    86320    86940 
   87385    87039    86643    86752    86710    86343    86535    87122 
   87114    86807    87104    87768    87858    87235    86732    86725 
   86809    86915    87178    87220    86894    86818    87135    87037 
   86459    86374    86718    86526    86093    86282    86688    86641 
   86580    86980    87245    86940    86618    86509    86437    86725 
   87241    87280    86992    87000    87187    87053    86575    86179 
   86094    86292    86737    87145    87230    87096    86958    86988 
   87162    87196    87100    87145    87181    86933    86706    86884 
   87210    87355    87516    87758    87664    87231    86987    86971 
   86888    87006    87372    87320    86903    86896    87166    87007 
   86613    86769    87305    87372    87238    87496    87477    86881 
   86705    87149    87189    86678    86602    86953    86792    86474 
   86830    87228    87016    86927    87467    87947    87909    87782 
   87656    87161    86544    86341    86491    86661    86745    86697 
   86413    86148    86494    87286    87547    87062    86683    86749 
   86645    86228    86188    86566    86830    87014    87087    86734 
   86231    86150    86400    86263    85916    86358    87299    87637 
   87416    87122    86614    86205    86854    88186    88418    87193 
   86143    86094    86270    86200    86219    86617    87204    87412 
   87026    86626    86687    86771    86490    86409    86803    86994 
   86694    86526    86763    86763    86431    86593    87045    86819 
   86332    86644    87521    88065    88106    88057    88028    87637 
   86904    86440    86479    86661    86483    85905    85569    85746 
   85934    86020    86471    87119    87339    87469    87999    88103 
   87347    86825    86827    86464    85958    86086    86250    85799 
   85666    86422    86886    86555    86460    86580    86161    85862 
   86309    86664    86448    86467    87110    87512    87262    87183 
   87461    87181    86355    86138    86760    87266    87135    86571 
   86017    86221    87210    87554    86622    85978    86498    86875 
   86664    86971    87577    87327    86854    87305    87767    87345 
   87073    87300    87029    86476    86638    87135    87006    86593 
   86867    87451    87482    87443    87724    87708    87385    87305 
   87451    87633    87871    87814    87106    86594    87188    88014 
   87959    87604    87774    87901    87320    86621    86535    86838 
   87042    87292    88022    88823    88662    87605    86891    86953 
   86902    86518    86686    87303    87492    87542    88168    88881 
   88823    88238    87732    87149    86578    86539    86695    86871 
   87427    87723    87380    87525    88503    88781    87721    86987 
   87373    87204    85750    84678    84771    84801    84412    84759 
   86022    87108    87505    87644    87906    88106    87993    87689 
   87536    87832    88273    88236    87898    87610    87010    85959 
   84978    84480    84354    84241    84001    83948    84565    85537 
   85707    84678    83529    83455    84265    84730    84754    85617 
   86977    86791    85217    84622    85365    85819    85776    86065 
   86478    86321    85571    84750    84545    85122    85486    85217 
   85683    86881    86761    85326    84811    85676    86441    87041 
   88518    89968    89753    88585    88003    87859    87644    87648 
   87706    87277    86456    85352    83880    82742    82846    83825 
   84896    86271    88157    89662    89899    89548    89843    90582 
   90809    90194    89148    88288    87519    86460    85395    84465 
   83211    81804    81395    82337    83840    85776    88314    90360 
   90747    90204    90239    90783    90879    90445    89976    89846 
   90198    90535    89753    87693    86107    86270    86620    85688 
   85198    86425    87058    85580    84288    84905    86143    87262 
   88956    90470    90741    91206    92874    93795    92619    90815 
   89964    89453    87870    85527    84053    84114    84824    84932 
   84261    83659    83458    83265    82900    81951    80046    78621 
   79447    81391    82305    83062    85560    88481    89887    91265 
   93503    93804    91476    89730    89429    88234    86144    85691 
   86842    87104    86227    85592    84794    83677    84217    86445 
   87392    86854    87839    89576    88114    84503    83502    84785 
   84368    82772    83575    86204    87313    87162    87870    88412 
   87408    86173    85650    85287    85306    86323    87432    87264 
   86186    85546    85681    85951    85931    86170    87338    88803 
   89117    87976    86850    86802    87172    87751    88994    89745 
   88885    87694    87378    86989    85870    85491    86745    87893 
   87500    86694    86714    86867    86428    85849    85221    84654 
   85151    86293    86324    85534    85336    85375    84862    84354 
   84651    85711    86918    88003    89430    91099    92021    91959 
   91393    90292    88866    88356    89309    89976    88582    86077 
   84164    83220    83922    86640    88955    89097    89460    91493 
   92141    89812    87799    88227    88624    87524    86926    86940 
   85491    83928    84928    86292    84788    83357    86277    90678 
   91249    88919    87211    85699    83463    82929    85132    86942 
   86571    85854    85688    85468    85579    85661    84532    83698 
   85762    89208    89862    87913    87370    88398    88121    87435 
   88631    89509    87151    84038    84462    87733    89872    89581 
   87987    85644    83533    83155    84238    85341    85766    85730 
   85727    86097    86969    88048    88653    88587    88403    88017 
   86540    84307    83357    85202    88439    89874    88585    86773 
   86443    87308    88138    88619    88858    88279    86593    84888 
   84407    84854    85094    85045    85406    86032    86179    86132 
   87215    89648    91639    91230    88859    87509    88670    90192 
   90397    90139    89721    88493    87000    86104    85580    85113 
   84838    84492    83554    82556    83050    85091    86544    86325 
   85820    86634    88866    91215    92215    91516    90074    89168 
   88620    87679    87498    88631    88303    85106    82683    83686 
   85190    85148    85577    86638    86962    87423    88029    87328 
   86148    86054    85756    83582    82040    84407    88169    89062 
   88268    88604    89195    89370    91068    93546    92928    89557 
   87453    86487    84230    82644    84392    86886    86883    85371 
   83963    83118    84052    86807    88987    89586    89845    89568 
   87968    86613    86725    86818    85999    85912    87408    88793 
   89060    88852    87542    84514    82152    82366    83471    83863 
   84460    85824    86298    84959    83771    84057    84514    84789 
   86185    88218    88960    88349    87669    86902    85552    84618 
   85683    88422    90155    89008    86410    84983    85311    86032 
   85884    84681    83598    84392    86319    86221    83613    81653 
   82270    84025    85369    86502    87089    86740    86730    86934 
   85654    84203    84996    86269    85249    83782    84726    86347 
   86103    85785    87408    88786    87650    85534    84777    85255 
   85808    86371    87265    88101    88744    89648    90213    89232 
   87567    87567    89144    89665    88430    87397    87110    86069 
   84515    84505    85707    85650    84365    84276    85687    86981 
   88206    89630    89515    87768    87390    89179    90296    89726 
   89714    91116    92141    91874    90960    89313    87097    86150 
   87042    87509    86479    86125    87439    88468    88339    87855 
   87218    86803    86938    86521    85465    85631    86633    85916 
   83749    82725    83211    83910    85554    89012    91586    90618 
   87727    86039    86382    87177    86679    85164    84543    85495 
   86385    85955    85290    85895    87446    88377    87872    86994 
   87143    87623    87172    86614    86894    87043    86791    87810 
   90078    90968    89908    89201    89417    88955    87450    85750 
   84673    84798    85491    85581    85396    85834    86678    87539 
   88331    88222    86644    85270    86186    88362    89505    89935 
   90336    89486    87556    86946    88219    89341    89534    89743 
   89511    88090    86705    85947    84694    83465    84273    86563 
   87484    86567    86452    88268    89712    88892    87072    86530 
   87694    88952    88649    86887    85070    84294    84798    85901 
   86390    86387    87273    88539    87953    85510    84041    85318 
   87416    87736    87134    87821    89426    89680    87394    84607 
   84456    86301    86653    84704    83197    83930    85626    86771 
   87300    87218    86298    84883    83941    84165    84719    84376 
   83982    84882    85951    86082    86913    88992    89604    87920 
   86907    87750    88078    86946    86223    86865    88106    89309 
   89348    87070    84557    84778    86098    85413    84219    85382 
   87300    87195    86471    86994    87214    86547    86752    87648 
   88007    88547    89451    88755    86350    85391    86780    87502 
   86686    86216    85801    84631    84639    86703    88169    87612 
   87439    89014    90040    89240    88059    86844    85297    84890 
   86221    87651    88321    88773    88821    87740    86478    86454 
   86200    84407    83701    85494    86861    86115    85426    86319 
   86856    85541    84387    85054    86539    88250    89737    89152 
   86956    86351    87357    86842    85209    85988    89019    90782 
   90019    87759    84712    82193    82155    84253    86132    86710 
   86634    86537    86370    86054    85838    85820    86324    87866 
   89696    90382    89845    89044    88221    86795    85036    84333 
