Origin Time       2024/04/02 04:24:00
Lat.              40.133
Long.             141.712
Depth. (km)       71
Mag.              6.0
Station Code      IWTH21
Station Lat.      39.4734
Station Long.     141.9336
Station Height(m) 13
Record Time       2024/04/02 04:24:53
Sampling Freq(Hz) 100Hz
Duration Time(s)  130
Dir.              4
Scale Factor      7845(gal)/8223790
Max. Acc. (gal)   129.371
Last Correction   2024/04/02 04:24:53
Memo.             
[...]
   13077    13076    13073    13072    13072    13073    13074    13077 
   13074    13072    13072    13073    13072    13073    13077    13074 
   13072    13074    13074    13074    13074    13072    13072    13076 
   13077    13070    13069    13072    13072    13072    13076    13076 
   13074    13072    13073    13076    13074    13077    13076    13069 
   13070    13077    13077    13074    13073    13070    13069    13074 
   13078    13073    13073    13077    13073    13070    13077    13076 
   13070    13072    13074    13072    13072    13074    13074    13073 
   13076    13074    13072    13076    13078    13076    13074    13074 
   13074    13072    13068    13072    13073    13070    13078    13082 
   13073    13068    13076    13077    13072    13074    13076    13069 
   13073    13077    13074    13072    13072    13073    13074    13076 
   13076    13074    13073    13073    13070    13076    13081    13076 
   13072    13074    13072    13068    13072    13077    13076    13072 
   13072    13072    13073    13078    13080    13074    13070    13073 
   13073    13070    13074    13074    13069    13073    13080    13074 
   13073    13077    13073    13068    13074    13078    13070    13068 
   13073    13074    13073    13076    13076    13074    13074    13072 
   13073    13077    13076    13072    13073    13077    13076    13070 
   13073    13076    13072    13070    13074    13074    13072    13070 
   13068    13069    13081    13104    13128    13147    13170    13192 
   13212    13224    13232    13270    13335    13343    13284    13266 
   13278    13190    13112    13178    13131    12887    12765    12727 
   12650    12889    13436    13743    13710    13753    14035    14133 
   13744    13521    14053    14342    13417    12359    12090    11919 
   11804    12272    12914    13414    13964    14391    14391    14160 
   14548    15477    15032    12683    10963    11264    11307    10534 
   12197    15739    16742    14314    11566    12262    16106    18288 
   16860    14430    12430    10450     9020     8216     7847     9976 
   14847    18354    17859    13464     7739     6843    10469    11726 
   12376    17892    23218    19467     8610      594     1223     9721 
   17991    17942    14851    16995    18891    13463     7025     4415 
    3870     8899    16023    15676    12322    13640    15304    12139 
    9367    12349    18576    22617    17867     8245     6334     9761 
    9884     8137     6561     8094    16958    23723    17880    10635 
   12854    16627    16810    15348    12360    11188    12225    11645 
    9890    10415    15242    17536    13707    12663    13859    10490 
    8017     9414     8046     9792    21404    25852    17166    14643 
   19302    15130     8091    14796    24988    21888    14727    13934 
   10648     -576    -4352     6191    14863    17693    18949    15637 
   11438     9722     9576     9910    15118    28296    29759    12069 
    -411        2     4083    12025    18944    18814    21150    25774 
   19160     8349     6188     9879    14434    13575     8129    10264 
   14858     5266    -4779     4905    17471    19527    20648    17855 
   13109    21544    31603    24098     9028     3792    10299    11940 
     774    -2934     8696    20490    19114     8631    11553    24430 
   20470     4309      371    13841    26874    26207    18638     8862 
   -1026    -2984     3063    11211    16290    17244    19639    21504 
   17914    17131    20880    16733     5626     3314    15529    22688 
    5305   -10633     7453    31831    25317     6235     5784    18852 
   19894     5358     2400    20245    33210    23888     4584     -326 
   10045    12758     5655     6223    16352    22630    17884     8727 
    4591    10029    18975    20711    18735    18534    14851     9524 
    8683     8252     7207    14011    25481    21571     2577    -1510 
   10119     9269     2544    10724    24105    28302    22701     9180 
    -811     7190    22948    25602    17778    17143    22137    14783 
   -1053    -5582     2504    13371    19947    16710     9805    10964 
   14960    13456    14530    20136    21712    18391     9251    -1443 
    -427    12633    23345    21132    15834    16956    13992     7321 
    6393     9504    16691    23494    18765     8058     6513    11272 
   12353    11583    12141    14315    14843    13166    15302    13779 
    5763     6948    13909    14067    13911    18041    19074    13983 
    9817    10534    11199    10793    13248    16800    16487    11537 
    5856     5706    10447    14065    18655    21879    18974    20518 
   22709    10531     -756     4070    11842    14665    16456    13741 
    7013     6556    10683    10096    10277    20220    31706    28987 
   15025     6706     8684    15036    15923     6797     2390     9555 
   13289    11056    12155    14427    16158    17691    13563     9246 
   14266    20673    18422    14021    13710    12050    10280    10389 
    6080     4642    13128    18817    17386    15368    12272    12141 
   14235     8668     5167    12266    17077    18185    19885    16703 
   12830    13937    13676    10241    11083    15923    15579     9813 
    5668     5332     9069    13852    14823    14150    14820    15684 
   16414    16430    13105     8271     8885    16206    22578    18246 
    6515     3476     9120    11400    11534    13751    18455    24098 
   18964     2535    -1224    12409    20225    18235    17695    16195 
   11543     8908     9660    13259    17749    19002    15631     8468 
    3271     7465    13551    11356    11242    21396    26860    18736 
   10357     9177     9359    12501    19608    20826    14999     8615 
    2759     1605     7250    12993    15188    14953    15849    19379 
   18175     8652     3238    10443    16015    11419    11292    17713 
   17469    14554    16398    16803    15068    15797    18601    19531 
   11935     2454     4779    10689     8031     5192    10859    16240 
   12457    10003    16846    18118     9836     8502    14912    21346 
   26527    21367     5205     -696    10687    18119    16102    20074 
   23288    11119    -3793    -5584      859    10841    22948    27148 
   26086    25641    16645     4351     1510     6601    14034    17080 
   16087    13509     5468     -164     5244    11146    12100    20534 
   32163    25320    10170     9121    11279     9297    14270    19998 
   16428    10106     6349     4619     6461    10339    11079    10891 
   17024    23244    20115    15419    11958     5536     6143    14897 
   21590    26071    24602    15384     8877     8266     9799     9977 
    9691    15250    19168    11334      924     -384     8479    18910 
   23026    25396    28645    23934     8645    -3555     -182    12515 
   18885    14796     9526     8958    10690    10984     9243    11040 
   19429    27074    26234    19016    11539     3562    -1048     7678 
   18110    15014    11632    11396     4577     4257    15531    24471 
   28440    27625    18956     7857      436    -4703    -4592     6281 
   16992    13987     7087    13207    23248    17991     8129    13918 
   27839    30923    20791    13221    18088    20935     7717    -9211 
  -11163      144     8718     9931    15834    24977    20002     7445 
    7703    14752    18310    25100    30373    23692    14928    11313 
    6515     5830    12494    14654    10282     4337     2737    11261 
   17724    14172    11705    13400    16610    21513    20148     5647 
   -4533     8734    23791    20827    18328    20771    16117     8518 
    2876     2856    11605    18276    15676    13878    17743    17594 
   10104     4734     8787    16195    16796    16887    21743    19209 
    9478     4648     5850    10327    15229    16150    12988     9633 
    9038     8613     5984     7487    15826    22011    20293    17269 
   20607    24896    20115     8795     5409    13984    16335     8548 
    8156    12102     7580     -754     -638    11828    22484    21519 
   18489    17147    15576    15264     9169      567     9531    26914 
   25451    15600    15778    12565     2475     2867     8394     9094 
   16564    23468    15923    11853    16019     9895      383     5468 
   17486    22975    23121    16518     5332     3655    10012    14879 
   17864    15211    10193    11993    16213    15315    11246    11794 
   15812    13169     8841    14064    19201    11422     1258     3937 
   16814    28660    26152     7805    -2003     9543    19395    13689 
   10593    16054    15863    11369     8217     6160    10138    16596 
   16915    17458    26134    29347    17155     6076     5566    10234 
   16731    17431     8640     -828     -172     8203    11904    12260 
   17863    25926    26811    15500     3206     5047    16005    19750 
   14856    15404    21814    18924     9281     4433     3516     8262 
   15560    15138    11944    11531    12021    13775    12056     9765 
   15876    22495    20445    11965     5374    11971    24999    24210 
   10473      618     1482     7653    10536    12309    21207    25891 
   15360     5768     6913    10633    15738    20844    18600    12233 
    9051     7148     7172    11113    13652    15298    17597    16233 
   15444    17707    15125    11079    13794    13941     7446     5124 
    4406     4625    15331    25906    25222    20108    14260    11295 
   13024    11921     9452    10837    10592     8873     9194     5908 
    3543    12438    19554    13751    12723    21748    23880    18513 
   14239    13301    15485    15581     9636     1252     1212    11854 
   19554    19309    15365     9485     5900     7183    12799    15163 
    7711     5822    17024    22161    17359    14123    12478    10292 
    8726    12236    22509    26970    17587     9991    14108    12594 
    5082     7666     9420     9134    17328    17188     6631     6114 
   14357    16472    11727    10530    14420    18879    19307    10924 
    3385     8222    17618    20251    16482    11882    12509    17533 
   14131     5791    10200    19954    21439    16533    10492     8247 
    9103    14212    19086    11969     5794     8104     3194      148 
    9971    17772    19148    21174    22104    17918    12055    10173 
   13863    21288    24071    15831     3820      282     7890    12514 
    3782      351    17131    32413    26503    12016     5521     9008 
   18756    24479    19801    14262    10836     6114     5370     4896 
    2409     8386    17701    19500    16769    11106     9271    20914 
   28390    14265     2496    11365    18388    14601    16217    16414 
    3495    -1736    12920    22450    15707    12984    18233    17656 
   13938    11858     6986     5408    11372    17286    18679    13986 
    7944     4399    -1250     1667    21119    34137    27672    16511 
   10084     8704    12820    17255    15643     9451     6208     9688 
   12326     9782    10536    13150     9921     9737    17410    19607 
   11651     7173    13007    20926    25944    28115    24865    14018 
    1629    -1559     3744    11529    19045    20090    15018    10540 
    4230    -4716    -2311    15903    28606    27116    24385    20335 
   11688      680    -6143     6812    26009    23665    13309    13563 
   13153     6253     3338     5273     7815    16845    28665    29663 
   20228     8716     2250     3402     8438    14602    14949     9306 
    9085     9005     5346    12016    24417    27051    22134    15900 
    8491     6771    13031    13564    11003    14990    15192    14208 
   17162     9909     1863    11421    20764    15939    13610    18168 
   15192     6347     5371    12299    16328    14104    14004    16785 
   13171     9437    12645    12375     6535      772    -4147    -2786 
    6393    14388    16893    17165    15925    12429    11412    18381 
   28067    30279    28445    30400    29226    20009    12247     9011 
    5255     2328    -1918   -11213   -14782    -4185    10420    15445 
   12310    12212    16380    21010    23431    16125     6297    11549 
   25134    27477    16600     7560    11946    23633    32981    39569 
   42034    38778    31112    13316   -12629   -25689   -21037   -16270 
  -16356   -17375   -16869    -8391     4429    14073    25988    48647 
   80487   101317    95133    71057    34839    -9201   -42013   -54413 
  -43216    -6529    29540    37546    23079    -5795   -44671   -66344 
  -45986     8706    64990    86583    75386    58661    33844     8564 
   12749    24201    10523   -12802   -34450   -45706   -22195    29187 
   67990    60758    20217     4671    28104    36524    13934    -1613 
    3071    10428     7204    -6237   -23001   -36180   -42445   -43812 
  -28844    16721    70008   100317   109204    95631    40825   -34015 
  -69936   -62604   -51911   -26341    45315   116870   117798    70659 
   20439   -37793   -67273   -40764    -9931    11549    41096    60384 
   58298    30245   -18812   -53931   -55413   -27039    32197    91091 
   93783    56762    28123    -6188   -42411   -43124   -21055     5078 
   36103    54693    55448    51117    40248    11020   -34958   -61804 
  -36086    23646    74061    84554    60831    35117     8247   -28952 
  -47888   -28252    10210    39685    42615    19801     5567    14258 
   -2705   -53924   -71424   -27599    45142   111019   127072    66243 
  -29712   -81422   -63437    -9301    54483    98010    97476    81036 
   46568   -43158  -122546   -93085     -179    51875    58429    54562 
   34738     4067   -10278    -8654     3276    27267    41357    36656 
   14596   -26149   -44693   -28048   -12685     3796    21747    23380 
   35849    69515    74355    38911    14362    13004    -7249   -47881 
  -54588    -4239    65658   106201    92965    32050   -36814   -65329 
  -51048   -27514    -4291    25027    55767    77449    62166     8070 
  -36698   -52392   -36439    21330    75994    73234    32618    -2274 
  -17523    -7319    23796    54052    62610    34130   -14978   -31221 
     -40    29031    30330    18088    -4449   -20644   -15738    -5953 
   14848    53500    68941    39441     2065   -10801    -4353    11894 
   31375    28796    -4506   -30373   -25560    -9757     7338    32104 
   45542    30462    11966     3592     4490    37939    71572    35635 
  -35873   -58428   -26985    12707    29417    26615    31633    43052 
   32876     8429     5364    27781    34091     1667   -21848     -344 
   23658    29648    46877    45785     4661    -7194    17288     9734 
  -19754   -30198   -21820    -2567     8872     5884    10692    25893 
   32348    37179    55964    64357    45916    28814    25042    14179 
   -5634    -8746     6804     9296    -7148   -17581   -18196   -14181 
    8770    43251    53766    38708    27658    21809     2309   -16735 
  -12189    -2597    -3932     2031    12826    13629    19631    34561 
   39869    34921    26788    15377     -356   -11115     1652    23593 
   26553    23383    19199    -4126   -28794   -24798     3493    24306 
   19535    11815     9204    -5555   -12407     8758    34090    46121 
   51665    52527    36791     6412   -12491   -14852   -11006    12382 
   47073    48208    11773   -21123   -31708   -18593    15026    42816 
   53736    54626    34269    -3260   -31645   -34059   -11036    12294 
   21068    33729    45553    34541    16876    12348    14928    18746 
   19473    15380    13891    16079    12137    -2154   -18048   -25438 
  -13857    17255    35935    32047    37161    35170    -1305   -24499 
    5760    54440    68570    39951     5185    -9018    -9148   -10219 
  -14251    -9082     4743    13174    17119    21213    21008    21222 
   24563    23789    28807    43119    42896    21702    -3357   -22447 
  -31180   -20250     7581    26586    24067    16422    10881     -804 
   -9076     1884    23712    42838    53438    47171    27201     6161 
  -10809   -14439     2376    18445    14094    11816    23075    15097 
   -4976     4237    22455    22885    28981    36335    23893     5941 
   -8866   -15630    -1507    24152    44709    44485    15576    -8203 
     625     9676      464     5462    25444    26613    14335    11118 
    9861     -880   -13716   -19765   -15164    12476    51763    57935 
   30316     8197    -2173    -7851     2299    26823    41986    38962 
   25475     5329    -1017    12444     7018   -16729   -11655    14311 
   20817    19587    26956    21767    10697    18293    25833    14628 
   10647    27591    29713     5846    -2010    11105    11839     6484 
   12818    22040    24094    15272    -1089   -18423   -27364   -11300 
   25663    50075    38470    14207    13329    18389     6845    11034 
   36768    38662    19869    13760     8287     -571     8213    16857 
     438   -19425   -16124     1852    18347    27803    18933    -4625 
   -8363    16556    40154    50688    51337    37211    15379     -743 
  -10720   -13636      859    24233    26248     4567   -13099   -13108 
    -103    13335    19305    31957    52681    54012    29231     -626 
  -12278    -2085     5117     3370    10269    22015    27052    16614 
   -9873   -24340    -9285    19710    42547    44267    31711    24777 
   18157      292   -13799    -3676    14401    12050     5232    10496 
   11611    11238    20027    23899    15176     8797    15030    23395 
   21828    13805     8689    10601    20574    31533    27750     9614 
   -5829    -9493    -7245    -4995     6698    20382    15876    14300 
   30689    36791    24941    15469    13335     9036     6975    18382 
   24355     7329    -6435    -3173     1760    11934    22940    20437 
   18566    23909    25618    24954    21914     6577   -16355   -19716 
    2825    28155    41763    34310    10207    -6079    -7369     4029 
   25677    34503    24533    19822    18970    10392     4082     4212 
   12542    22153    11720    -2803     6906    20309    15728     4448 
   -2960     2960    20279    24952    16086    14885    19892    19001 
   15610    13892    11927    16627    25169    18474     2425     2766 
   20281    30785    20329     5491     7867    16309    11372     3219 
    -149    -7368    -9045     6596    24594    32880    37693    34746 
   21166    12695    14246    17305    10658    -3766    -2889     8077 
    8671     8815     8009    -5682   -18778   -12792    14003    42453 
   51867    45106    29640     9764     -666     3704    13454    20167 
   17084     6886     2983     4661     3203     3292     8181    13427 
   20445    29570    32602    29889    29814    26019     9217   -10918 
  -15750      939    20259    19133     5675     1020     2547     5271 
   11102    10547    12506    30901    42803    32857    15654     4476 
    1378    -2049    -3677     9524    25932    24433    11689     6114 
   10195     9933     3346    13736    36004    37675    26265    18430 
    7152     -710     -827    -1711     2606    15057    24484    22962 
   14968    10613     7362     4572    12914    24312    23398    16679 
   14871    17016    16294     7720      -79     4139     9668     7204 
    8721    13076    10312    10517    17035    19975    21586    20281 
   10922     7111    13583    16059    15198    20247    22542    12097 
    -577    -5324    -2691     8318    18762    19832    18330    13443 
