Origin Time       2024/04/02 04:24:00
Lat.              40.133
Long.             141.712
Depth. (km)       71
Mag.              6.0
Station Code      IWTH27
Station Lat.      39.0307
Station Long.     141.5320
Station Height(m) -20
Record Time       2024/04/02 04:24:58
Sampling Freq(Hz) 100Hz
Duration Time(s)  127
Dir.              3
Scale Factor      2942(gal)/8224139
Max. Acc. (gal)   9.002
Last Correction   2024/04/02 04:24:58
Memo.             
[...]
  -29076   -27993   -27398   -25382   -25211   -30372   -34879   -33547 
  -32749   -36398   -37125   -34711   -34219   -32336   -32625   -37802 
  -37820   -34299   -33920   -32485   -29901   -28363   -26470   -26514 
  -29436   -30609   -29490   -30307   -31941   -31930   -33550   -36845 
  -36995   -34303   -32408   -32459   -34064   -35519   -35621   -35800 
  -36205   -35121   -32800   -29995   -27642   -28008   -29763   -29587 
  -30262   -33597   -33220   -29301   -30520   -35487   -36687   -34514 
  -33520   -34564   -34812   -34308   -33384   -30607   -30597   -34742 
  -36232   -34889   -34141   -32019   -29724   -30829   -30172   -25280 
  -25153   -29092   -29466   -30322   -31947   -31326   -33640   -36301 
  -34581   -33378   -34033   -33169   -30989   -30530   -31438   -29567 
  -28004   -32055   -34963   -33307   -34022   -34632   -31472   -30493 
  -31606   -31347   -31851   -33801   -35014   -33241   -28938   -27514 
  -31884   -35851   -34623   -34030   -37000   -37423   -35066   -34574 
  -34680   -34620   -35565   -34994   -31834   -28937   -30333   -33781 
  -31831   -27884   -28514   -30319   -31270   -31542   -29695   -29313 
  -32310   -33675   -31599   -30537   -33779   -37802   -38137   -36877 
  -36414   -34884   -31823   -29899   -30028   -30456   -30435   -29667 
  -29220   -31168   -32517   -31283   -30842   -31513   -32782   -34472 
  -33971   -33750   -36462   -36822   -32811   -30800   -33211   -33816 
  -32088   -32977   -32746   -30703   -31236   -29686   -26050   -27797 
  -33153   -34789   -31383   -30915   -36568   -38221   -34784   -35289 
  -36630   -32810   -28869   -29571   -31037   -30110   -30438   -32732 
  -33172   -30813   -27491   -27338   -30450   -32263   -33859   -35839 
  -35665   -35766   -36456   -35434   -35348   -36340   -35526   -34053 
  -32256   -31128   -33504   -35775   -34696   -32316   -30859   -32721 
  -33991   -31093   -30406   -32556   -33319   -33732   -33110   -31936 
  -32880   -33632   -32121   -31344   -32317   -32366   -32256   -33430 
  -34188   -33488   -31537   -30694   -31930   -32279   -31741   -31996 
  -32594   -32699   -31870   -32495   -34992   -35032   -32350   -30235 
  -30267   -32371   -32800   -28800   -27114   -31187   -32159   -29986 
  -31835   -33945   -33199   -32869   -34900   -36590   -33736   -30983 
  -32030   -31851   -31067   -32286   -31936   -30095   -30778   -32260 
  -31230   -30348   -31584   -32382   -31957   -32040   -33168   -33940 
  -33567   -33818   -34925   -34082   -32096   -32555   -33189   -30604 
  -29596   -32277   -32071   -29583   -30596   -32991   -34580   -35839 
  -34427   -32007   -31988   -32219   -32409   -33501   -32659   -31131 
  -32800   -34847   -32940   -30580   -32306   -33555   -31020   -30246 
  -33010   -34801   -33254   -30505   -30866   -33689   -34375   -33107 
  -32809   -33721   -34231   -33555   -32518   -32252   -33046   -32633 
  -30221   -29370   -29293   -28221   -30119   -33259   -32841   -32371 
  -34033   -34506   -34468   -35611   -35950   -35224   -34345   -33582 
  -33764   -33166   -31803   -33444   -36169   -35375   -32904   -32401 
  -32641   -31348   -30522   -31576   -31428   -29987   -30846   -31723 
  -29783   -30167   -33157   -32120   -30133   -32120   -32643   -30751 
  -31660   -32498   -30898   -31240   -32108   -30646   -30245   -31733 
  -32887   -33165   -33284   -33686   -33372   -33124   -33673   -33926 
  -34782   -35028   -32564   -30862   -32263   -33574   -33069   -32877 
  -34132   -35892   -36290   -33914   -32262   -33821   -33736   -31510 
  -32049   -33259   -32047   -30861   -30697   -30875   -31124   -31338 
  -31822   -31128   -29540   -30188   -32162   -32818   -32439   -30886 
  -29805   -32301   -34172   -31677   -30049   -30909   -31349   -32244 
  -33034   -32533   -32410   -32976   -34095   -35023   -34080   -33403 
  -34767   -35495   -35118   -35554   -35962   -35907   -36143   -34933 
  -32348   -32015   -33102   -31851   -30734   -32517   -33463   -32244 
  -31083   -29762   -28788   -28467   -27545   -27294   -28393   -30364 
  -33555   -35365   -34971   -35328   -35372   -34067   -34211   -34996 
  -33517   -32296   -33189   -32260   -30496   -32109   -33170   -30771 
  -29921   -32243   -33049   -31054   -29546   -29920   -31897   -34387 
  -34657   -32617   -32113   -34848   -37172   -35638   -32821   -33072 
  -33976   -31328   -29239   -30599   -30457   -29158   -30523   -32294 
  -32350   -31152   -30115   -31139   -32682   -32458   -32730   -35152 
  -34747   -30659   -30773   -34065   -33764   -33178   -33872   -32405 
  -32491   -35364   -35839   -33967   -32404   -32105   -32682   -32158 
  -31282   -31283   -31276   -31522   -32051   -32800   -33882   -33983 
  -33664   -34470   -34929   -33232   -31114   -31660   -33358   -32678 
  -31649   -32148   -30761   -28204   -28675   -29446   -28054   -29286 
  -32734   -33652   -34492   -35726   -33959   -32787   -34388   -34487 
  -32965   -32930   -34346   -35159   -34387   -33610   -33289   -32482 
  -32414   -32744   -31646   -30454   -31064   -32690   -32931   -31437 
  -30454   -31278   -33993   -35245   -32347   -31924   -35166   -34145 
  -31878   -33232   -33394   -31911   -32948   -34847   -34433   -33664 
  -33615   -31938   -29663   -29794   -30970   -30306   -29998   -31757 
  -32409   -32289   -33033   -32884   -32409   -32722   -32917   -32352 
  -31186   -31352   -31974   -30507   -30596   -32634   -31992   -31746 
  -33521   -33343   -33177   -34246   -33453   -32543   -33237   -32651 
  -31051   -31392   -33293   -33548   -31545   -31067   -32279   -32057 
  -31298   -31122   -31363   -32421   -33359   -33866   -33999   -33442 
  -33579   -33818   -32791   -32545   -33505   -34155   -34105   -32243 
  -29990   -30142   -30736   -31126   -32775   -32836   -31340   -31623 
  -32368   -32906   -34470   -34538   -32146   -31544   -33412   -33039 
  -31257   -31828   -32297   -31831   -32894   -33851   -32270   -29876 
  -30902   -33651   -33331   -32810   -33960   -33890   -33083   -32806 
  -33237   -33723   -33405   -33347   -33569   -33131   -32555   -33085 
  -33872   -32209   -29820   -30159   -30970   -30487   -31419   -32143 
  -30191   -30026   -32011   -32448   -33323   -34213   -32873   -32749 
  -34365   -33525   -30658   -29574   -30732   -32601   -34682   -35457 
  -34638   -35187   -36285   -34952   -32730   -31553   -31672   -32283 
  -32001   -31654   -31634   -31012   -30954   -31783   -31232   -30518 
  -32513   -34720   -34884   -34101   -32830   -32416   -33363   -33737 
  -33134   -33500   -35114   -34875   -32540   -31391   -31596   -32117 
  -32661   -31889   -30524   -30408   -30514   -30736   -32501   -33154 
  -31475   -32166   -34585   -33744   -32726   -34878   -36146   -35229 
  -34858   -35294   -35328   -34123   -32914   -32624   -30767   -29074 
  -31345   -32900   -30659   -29567   -29922   -28926   -28872   -30983 
  -32173   -30809   -30005   -31968   -33184   -32287   -32647   -32806 
  -30117   -29697   -33471   -34206   -31662   -32614   -34375   -32863 
  -32167   -32134   -30375   -29633   -30397   -31288   -32316   -33307 
  -33843   -33686   -33851   -34346   -34246   -33220   -31190   -31422 
  -34121   -33201   -30816   -33056   -34716   -32428   -32520   -34242 
  -32953   -32823   -35301   -35041   -32277   -31627   -32726   -31904 
  -30939   -33316   -35399   -33740   -32347   -33984   -34376   -32447 
  -32298   -32331   -30735   -31445   -33700   -33446   -33145   -34800 
  -34252   -31194   -30295   -32306   -33720   -31854   -29457   -31110 
  -33895   -32633   -30160   -30920   -32562   -32441   -32368   -32340 
  -31756   -32027   -31888   -31375   -32744   -33609   -32846   -33309 
  -33502   -32555   -33184   -32861   -30680   -31846   -35151   -35773 
  -34659   -33740   -32305   -30024   -28880   -29042   -28929   -30329 
  -32306   -32086   -32805   -33956   -32094   -31414   -33586   -34225 
  -33357   -33596   -34392   -33494   -31737   -31509   -31360   -30265 
  -29365   -28228   -28984   -32219   -32009   -30024   -32174   -33887 
  -33193   -33609   -33319   -32320   -32387   -33025   -33831   -33296 
  -33091   -34873   -35506   -34767   -33883   -32930   -32393   -30813 
  -29533   -30709   -31491   -32008   -34292   -35047   -33345   -33292 
  -35041   -35191   -33756   -33251   -33883   -33967   -33077   -32445 
  -33130   -33131   -31382   -32181   -34784   -33311   -30584   -31531 
  -33255   -32811   -31995   -32348   -32375   -32038   -32740   -32895 
  -32529   -33181   -31788   -28182   -28522   -31815   -31968   -31283 
  -32370   -32640   -33118   -34287   -33231   -32035   -34088   -35735 
  -33562   -31441   -32776   -34757   -34029   -31818   -31526   -33354 
  -33261   -30603   -30608   -32351   -30734   -29816   -32475   -33686 
  -33492   -33096   -30784   -31016   -34111   -33088   -31349   -33700 
  -34574   -33358   -33270   -31359   -29093   -31201   -32848   -29778 
  -28958   -33739   -35669   -32319   -32074   -34996   -35071   -34639 
  -34186   -30874   -30214   -33548   -33575   -31579   -32004   -31522 
  -29490   -29720   -31531   -32024   -31629   -31587   -30878   -30543 
  -32481   -33891   -32325   -29997   -31278   -35112   -34763   -33158 
  -36196   -38041   -36613   -36154   -34230   -30210   -29303   -31052 
  -29997   -27634   -29207   -31812   -31675   -31272   -32545   -34842 
  -35743   -35248   -36256   -36382   -33588   -32456   -33882   -33697 
  -32181   -32283   -32802   -31592   -29860   -29768   -31530   -32074 
  -30361   -30599   -31800   -30785   -31954   -34210   -32815   -33057 
  -35810   -35370   -34450   -35750   -35849   -34345   -33399   -33883 
  -34604   -32703   -29887   -30068   -31484   -31729   -31429   -31617 
  -32321   -31889   -30555   -30244   -31082   -30967   -28701   -29004 
  -32335   -31553   -29675   -31480   -31997   -31191   -31460   -32146 
  -33687   -33251   -31054   -31488   -31727   -30130   -32112   -35135 
  -32826   -31261   -34735   -35212   -31352   -30136   -32219   -33693 
  -32871   -31527   -31581   -32017   -32385   -32883   -32626   -32173 
  -31297   -30802   -33766   -36250   -34591   -33988   -34500   -32898 
  -32405   -32539   -31035   -31390   -33600   -33508   -31800   -33187 
  -36909   -36815   -34034   -33895   -34483   -33569   -33520   -33836 
  -32410   -30592   -30534   -32224   -33138   -32670   -32946   -32470 
  -31491   -33291   -34275   -32684   -32948   -33326   -31384   -31149 
  -32568   -31976   -32142   -34636   -33843   -30302   -30177   -31656 
  -31523   -31990   -33010   -33026   -32664   -33330   -34997   -34354 
  -31962   -32088   -32270   -30612   -31380   -33384   -32591   -32221 
  -34144   -34056   -32049   -31750   -32022   -31232   -31460   -32435 
  -31114   -29249   -30613   -32813   -31954   -29870   -30258   -32968 
  -34265   -33336   -33624   -34345   -33392   -33349   -34269   -33882 
  -32984   -33355   -34902   -34614   -32329   -31965   -32968   -33525 
  -34426   -33740   -30994   -28776   -27591   -27903   -29616   -31325 
  -32289   -31865   -31491   -32904   -34396   -33966   -32759   -32838 
  -33361   -32834   -32420   -33453   -34554   -34042   -33648   -33840 
  -31936   -29575   -29331   -29281   -29785   -32475   -33957   -32641 
  -31783   -31557   -31486   -32860   -33698   -33411   -33762   -33597 
  -32904   -34169   -36015   -35580   -34913   -35073   -34107   -32791 
  -32421   -32420   -30711   -28941   -31644   -33415   -30046   -29814 
  -32377   -31544   -31949   -33917   -32628   -31117   -31257   -31486 
  -32204   -33318   -33872   -33660   -34419   -35507   -34140   -31953 
  -30534   -30219   -31013   -29805   -28567   -31147   -33340   -32182 
  -30762   -30917   -31500   -31978   -32232   -32017   -32719   -33928 
  -34177   -34177   -34422   -34670   -33785   -32711   -33727   -33652 
  -31322   -31502   -32694   -31897   -33112   -34738   -31970   -29849 
  -31581   -31880   -29273   -28471   -31463   -33073   -30199   -29242 
  -32656   -34056   -33679   -34990   -35533   -36290   -37820   -35613 
  -32796   -34200   -34943   -32003   -30429   -31963   -32530   -32404 
  -33752   -33185   -31398   -33269   -35182   -33713   -33685   -35901 
  -35964   -34195   -33459   -33089   -32358   -32806   -32940   -31087 
  -30875   -32985   -33696   -33918   -34422   -33118   -32981   -36566 
  -39264   -37322   -34078   -33681   -34796   -35985   -36586   -34149 
  -31226   -31086   -31617   -32618   -34009   -33138   -30905   -30068 
  -30036   -29373   -28777   -28090   -27297   -27778   -28629   -29297 
  -31112   -33173   -33488   -33196   -34199   -35743   -37655   -39021 
  -37439   -35132   -35046   -34354   -30871   -28287   -28652   -28152 
  -25358   -23232   -22473   -22445   -23275   -23724   -23700   -24991 
  -27494   -29369   -30530   -33959   -39145   -40070   -36337   -34052 
  -35577   -37534   -35745   -31773   -30561   -31113   -28101   -20379 
  -14760   -18281   -26239   -28780   -25582   -23303   -25158   -29963 
  -35772   -38790   -37665   -38777   -42489   -41062   -38088   -40741 
  -43086   -39888   -37949   -41640   -44402   -41808   -36483   -32593 
  -33215   -33966   -31010   -30929   -34889   -36969   -37385   -35298 
  -30163   -29112   -32761   -33316   -30607   -32854   -41635   -46881 
  -44828   -42574   -41767   -38902   -32672   -25434   -21276   -19846 
  -19279   -19650   -20590   -21651   -23480   -27984   -33241   -36066 
  -40198   -46341   -48217   -44362   -36872   -27240   -17784   -10053 
   -7338   -12279   -20410   -27101   -30713   -29737   -29131   -33875 
  -39428   -43148   -45519   -43888   -39429   -35370   -32540   -29801 
  -24510   -19602   -18667   -20510   -26968   -35819   -37951   -33218 
  -28422   -25249   -24949   -31222   -39891   -41347   -37157   -35830 
  -39652   -47707   -54513   -53977   -49824   -47910   -48284   -43195 
  -31776   -29690   -35089   -31580   -26388   -27538   -27352   -27965 
  -30584   -27908   -26538   -31257   -31557   -28054   -29303   -33025 
  -34784   -34893   -38060   -43270   -39432   -27757   -19427   -18852 
  -27854   -36657   -30082   -16870   -14083   -17015   -18612   -23579 
  -27714   -28178   -33496   -39228   -40446   -43221   -40711   -29937 
  -26596   -32732   -35969   -35325   -35259   -35330   -33511   -29710 
  -30349   -38167   -43262   -39028   -32094   -29878   -29211   -26640 
  -27449   -32182   -34993   -36159   -35793   -31459   -27797   -28942 
  -35024   -43433   -43038   -33608   -31684   -38835   -41979   -38487 
  -35827   -39688   -46522   -48074   -43789   -37018   -29941   -28348 
  -30825   -27750   -23184   -27004   -34175   -35610   -31893   -29272 
  -29855   -30692   -28706   -23272   -21604   -27684   -30775   -25741 
  -20012   -17716   -20912   -28470   -30307   -23858   -20445   -28074 
  -41949   -49558   -47150   -43249   -41796   -40126   -39025   -40717 
  -39852   -32356   -27631   -30697   -33675   -32775   -29778   -26590 
  -26441   -29207   -31117   -32229   -34419   -37477   -39703   -37785 
  -34322   -35232   -37689   -37319   -34817   -31943   -30345   -30430 
  -31977   -33195   -31968   -29948   -27711   -23799   -19808   -17878 
  -19909   -26284   -29839   -26925   -26373   -32047   -37521   -37612 
  -34665   -36734   -40906   -38317   -35266   -37827   -39565   -37129 
  -33335   -30726   -31294   -35225   -38194   -35658   -30295   -27765 
  -29330   -32690   -34384   -33697   -32019   -29709   -28802   -30570 
  -33794   -35847   -33057   -28752   -27969   -28035   -28431   -29268 
  -28244   -29740   -33905   -34369   -34381   -35926   -34044   -31639 
  -32040   -32436   -31563   -30450   -30661   -32201   -34994   -38219 
  -39197   -37073   -31085   -25479   -28738   -36296   -36555   -31851 
  -31407   -34280   -35348   -35509   -34705   -29938   -25030   -25343 
  -26600   -24896   -25101   -28220   -29617   -29531   -29609   -30793 
  -33885   -34757   -32175   -33315   -40585   -45310   -42677   -39583 
  -38711   -37006   -38296   -41710   -39472   -35158   -35571   -38361 
  -39598   -37295   -33990   -34222   -35116   -33305   -29884   -25515 
  -24173   -27527   -29961   -30010   -28999   -27021   -28582   -32879 
  -31372   -26229   -25497   -27022   -27036   -26925   -27544   -28445 
  -28480   -27041   -26739   -29778   -32930   -31531   -27851   -28593 
  -33646   -37079   -36348   -33868   -33666   -35148   -34092   -32543 
  -33150   -30620   -26514   -28873   -32297   -31174   -31284   -32661 
  -33247   -36551   -41482   -42857   -40608   -40467   -41789   -38159 
  -35073   -39239   -41951   -38600   -35768   -33886   -31776   -32645 
  -34528   -33381   -29442   -26449   -27760   -29409   -27372   -26176 
  -29984   -35810   -37686   -35174   -33424   -33966   -35996   -39548 
  -40468   -36772   -34323   -33939   -32009   -31677   -32368   -29980 
  -29276   -30781   -29161   -28186   -28996   -26023   -23284   -25965 
  -28981   -29681   -31112   -33363   -33620   -30088   -27230   -28443 
  -28432   -27675   -30327   -32868   -33862   -34819   -35521   -35515 
  -33359   -31291   -32794   -34766   -34015   -33183   -34140   -33994 
  -32178   -31720   -32127   -32297   -32289   -31248   -31750   -34454 
  -34435   -32640   -33477   -34788   -34561   -33976   -33035   -33212 
  -34655   -33629   -30748   -31845   -38160   -41666   -38169   -35712 
  -35530   -32579   -31843   -34402   -35388   -34557   -30150   -25365 
  -26354   -27757   -26724   -29496   -32047   -27140   -22222   -23749 
  -27156   -29509   -30079   -28590   -28277   -30285   -32787   -36108 
  -39391   -39010   -35267   -31799   -29517   -28602   -29502   -30133 
  -29419   -29016   -30867   -33520   -33153   -32502   -33984   -34144 
  -34545   -34847   -32676   -34419   -38722   -36958   -33615   -35386 
  -38699   -37856   -34692   -35397   -36832   -34310   -32219   -32528 
  -32165   -30163   -29016   -29008   -28111   -29532   -32691   -31873 
  -30092   -31054   -33169   -35262   -34155   -31315   -33444   -37365 
  -35672   -32294   -33099   -34624   -35247   -37485   -37644   -34454 
  -34294   -36603   -35712   -33602   -33305   -33504   -34596   -35127 
  -32760   -31249   -31402   -30250   -28921   -27591   -26836   -27630 
  -27392   -28050   -30705   -30173   -28476   -30704   -33520   -33610 
  -33390   -34215   -33993   -33196   -33835   -34226   -34244   -35650 
  -36135   -34422   -32977   -32053   -31446   -32433   -33686   -34491 
  -34699   -32988   -32930   -34709   -33296   -32256   -32742   -29045 
  -25871   -27409   -27502   -26507   -27580   -27014   -25731   -27561 
  -29664   -29193   -27950   -28258   -30095   -32923   -36069   -35363 
  -31849   -33305   -36626   -35094   -33241   -34152   -34425   -33404 
  -33646   -35353   -36351   -37285   -37794   -35122   -32919   -34169 
  -33867   -31321   -31506   -34227   -34358   -31353   -30267   -30165 
  -28355   -29940   -34612   -35256   -33602   -34503   -34975   -33075 
  -32811   -34188   -34099   -33517   -32036   -29745   -30823   -32198 
  -29585   -28953   -32418   -34774   -34592   -33300   -33404   -35631 
  -37380   -37570   -35993   -34287   -34148   -31827   -27768   -27831 
  -30964   -33255   -33833   -32454   -31203   -33089   -35587   -33961 
  -31457   -32579   -33451   -31534   -30115   -30434   -31145   -32474 
  -34614   -35775   -34533   -32076   -31459   -32792   -33926   -34854 
