Origin Time       2024/04/02 04:24:00
Lat.              40.133
Long.             141.712
Depth. (km)       71
Mag.              6.0
Station Code      IWTH22
Station Lat.      39.3340
Station Long.     141.3015
Station Height(m) 160
Record Time       2024/04/02 04:24:55
Sampling Freq(Hz) 100Hz
Duration Time(s)  126
Dir.              3
Scale Factor      3923(gal)/8224838
Max. Acc. (gal)   5.097
Last Correction   2024/04/02 04:24:55
Memo.             
[...]
   11581    11584    11581    11581    11583    11583    11584    11583 
   11581    11583    11583    11581    11581    11583    11583    11584 
   11585    11585    11585    11583    11583    11581    11581    11583 
   11583    11580    11580    11580    11583    11585    11585    11584 
   11581    11581    11583    11581    11583    11584    11583    11581 
   11583    11581    11580    11583    11583    11578    11578    11581 
   11583    11584    11583    11583    11584    11581    11580    11583 
   11583    11580    11581    11584    11583    11581    11580    11581 
   11583    11581    11581    11578    11581    11584    11583    11581 
   11583    11583    11583    11584    11581    11584    11588    11591 
   11592    11596    11600    11604    11611    11615    11615    11611 
   11604    11599    11592    11574    11550    11537    11539    11542 
   11514    11484    11496    11511    11484    11461    11491    11503 
   11443    11418    11453    11389    11236    11198    11281    11308 
   11213    11109    11132    11210    11167    11107    11190    11237 
   11148    11164    11292    11298    11280    11427    11588    11610 
   11680    11858    11801    11493    11484    11817    11853    11450 
   11186    11326    11522    11496    11400    11431    11541    11589 
   11584    11677    11878    12006    12010    11869    11620    11684 
   12071    11990    11480    11630    12399    12571    12113    11923 
   11996    12185    12483    12364    11894    11784    12081    12461 
   12712    12542    12387    12810    12881    12160    11593    11376 
   11429    11751    11943    12081    12197    12141    12112    11726 
   10809    10230    10280    10926    12110    12495    11762    11572 
   12143    12387    12006    11303    10897    11596    12846    12378 
   10709    10633    11453    11919    12517    12185    11168    11334 
   11469    10597    10072     9948    10170    10725    10860    10277 
    8918     9097    11769    12908    12348    12970    13736    13945 
   13373    12021    11758    11326     9906    10721    12615    11437 
    9578    10354    10993    10022     9698    10666    10993     9919 
    9736    10602    10531    10687    13130    15167    12941    10278 
   12108    14635    12621     8610     9065    12988    13655    10636 
    8957    10921    13867    13483    11497    12263    12069    10119 
   11557    12032     9343    10254    13026    11977     9918    10936 
   11962     9386     7927    11429    13801    11156     8872    10416 
   12548    12309    11457    12361    13911    14323    13269    11915 
   12040    12333    10889    10458    12510    13409    11878    10613 
   11245    12897    12729    10099     9197    11356    13178    13163 
   11981    11577    12012    11095    10972    12550    11537     9216 
   10154    12172    12294    12264    12962    13412    13975    13702 
   11782    11745    13240    11815    10750    13918    15827    12337 
    8995    10758    12931    10868     8675    10346    12125    10797 
    9717    10231     9894    10098    11658    11087     9949    11561 
   12922    11313     9599    11520    12827    10247    10354    13209 
   13728    13778    13591    11402    10708    12810    12133     8868 
    9190    10704    10534    11973    12652    10995    10883    11375 
   11481    12098    11746    11927    12842    11900    11620    12846 
   12521    11446    11689    12406    12411    12359    12063    11905 
   12729    12785    12577    12869    12114    11392    11770    11855 
   10889    10355    11011    10675    10169    11831    12091    10018 
   10974    13583    12603    10998    11874    11712    10407    11815 
   13513    11275    10158    13132    12733     9412    10080    11673 
   10494    10351    12609    12846    11275    12089    12525    11065 
   11084    10728     9674    10075    10276    11178    12283    11118 
   10862    11931    11624    11249    11261    11317    11875    11799 
   11275    11412    11176    10864    11800    12777    12938    11901 
   10355    11114    12479    11057     8891     9963    13641    14473 
   11781     9621    10122    12631    12198     8752     8584    10856 
   10812     9537    11523    14968    14157    11788    12233    13450 
   13196    11473    10463    12198    14014    11994     9306    11327 
   13441    11179     9930    10812    10763    11499    12397    11476 
   10732    11800    13327    12244    10220    11758    14052    13324 
   11584    10978    11821    12280    11416    11483    11530    10828 
   11483    11469    10566    11109    11685    12116    12687    12299 
   11259    10987    12355    12391    10265     9695    10463    11097 
   11171     9931    10315    12969    13124    11423    12112    13348 
   12627    11981    12658    12947    11506    10137    11032    12214 
   11473    11248    12194    11456    10928    12213    12249    11672 
   11801    10816     9672    10644    12275    11611    10143    10932 
   11593    10863    11742    12629    11364    10810    11637    11944 
   11153    10272    10953    11713    11676    12511    13089    13450 
   14413    13699    12324    12555    12509    11616    10902     9576 
    9073    11213    12148    10245    10230    11680    11030    10602 
   11605    11928    11491    11057    11294    11614    11369    12734 
   14451    12733    10508    10546    10854    11724    12055    10104 
    9713    11657    11464     9915    11292    13462    12625    11788 
   12511    12348    12015    11861    10741     9749    10004    10276 
   10390    12118    13130    12152    12845    13225    10844    10565 
   12328    11561    10921    11923    10743     9936    12171    13055 
   11728    10917    11369    12514    12621    11645    11142    11368 
   11747    11562    11061    11404    12548    12658    11632    11857 
   12702    12210    11466    11280    11452    12417    12734    10758 
    9714    11114    11210    10538    11222    11628    11686    12210 
   12874    12949    12175    11965    11781    10750    10918    11836 
   11448    10631    10515    11171    12075    12438    11954    11163 
   11863    12739    10991     9594    10778    11715    11466    11321 
   11746    12120    11614    11327    12521    13257    12147    10990 
   11260    12560    13022    11985    11152    11361    11869    11290 
   10145    10679    11666    10717     9752    10848    12098    11677 
   10359    10334    12594    13770    12406    12054    11992    10638 
   11057    12108    11129    11172    12798    12264    10735    11519 
   12409    11248    10539    10763    10592    11551    12667    11452 
   10972    12919    13186    11078    10511    12240    12839    11439 
   11406    12442    11678    10805    11738    12648    11724    10141 
    9926    10628    10835    10295     9926    10508    11511    12199 
   12108    11654    11685    11691    11458    11502    11649    11618 
   11830    12843    13428    12330    10890    10721    11163    10565 
   10273    11141    10681    10617    12876    13991    13047    12101 
   12532    13834    13116    10926    10760    12012    12158    11321 
   10689    10631    10656    10640    11333    11915    11026    10314 
   11580    13089    12796    12082    12039    11574    11893    13180 
   12606    11533    12175    12233    11479    11985    12322    11441 
   11329    11700    11221    11395    11759    10390     9884    11750 
   13073    13115    12793    12150    12102    12401    11313    10089 
   10517    10458    10012    11553    12152    10559    10694    12293 
   11855    10312    11264    12849    11974    11904    12772    11218 
   10196    11464    11871    11785    12252    10874     9586    11823 
   12438     9007     8672    11815    12210    11017    10968    10840 
   11267    11686    10878    11323    12503    11874    11423    12241 
   11897    10469    10409    11487    12100    12148    11569     9919 
    9170    11522    12780    10758    10820    12237    11893    12118 
   12110    11323    11770    12202    12006    11994    11813    11685 
   11889    12226    12938    13470    12915    12501    12910    12852 
   12784    12653    11438    10987    11719    11583    10889    10878 
   11708    12901    12618    10555    10430    12592    12549    10702 
   10513    11306    11335    11188    11731    11831    11252    11925 
   12721    12079    12091    12387    11117     9992    10091    10180 
   10158    10538    10557    10667    11762    11592    10685    11857 
   12476    11480    11921    12924    12390    11780    12344    12114 
   10998    11647    12613    11527    10061    10085    10596     9690 
    9594    11754    12384    11902    13084    13610    12661    12241 
   11435    10197    11024    12514    11523     9728    10212    11237 
   10705    11215    12341    11030    10027    11236    11940    11759 
   12344    13265    12656    11472    12033    12634    11489    11083 
   12333    12403    11557    12140    12699    11973    11527    12135 
   12761    12191    11334    11524    12108    12037    11167    10808 
   11254    10864    10353    11310    12054    11523    11396    11361 
   11190    11597    10365     8865    10312    11553    10666     9929 
   10801    12626    12596    11520    12471    13463    13144    13273 
   13548    13232    12503    12205    12048    10523    10216    12104 
   12302    11693    12313    11793    10265    10446    11587    11246 
   10241    10324    11423    12850    13088    12151    11881    12187 
   12302    11857    11318    11799    11835    10525     9902    10322 
   10314    10385    11195    10779    10241    12253    13545    12509 
   12387    12784    12067    11550    11408    11010    10957    10643 
   10085    10746    11425    10866    10640    11421    11287    10274 
   11612    13587    12249    10910    12379    13338    11865    10439 
   11335    12433    11522    10450    11124    12645    12892    11996 
   11639    11470    11261    12008    12259    10922    10554    11155 
   11330    12712    13068    10465     9895    12031    12287    11079 
   11425    12645    12286    11426    12087    12629    12384    12422 
   12239    12177    12006    10910    10821    11971    12073    11380 
   11140    11416    12461    12928    10835     8934    10158    11524 
   10860    10345    10793    11118    10951    10582    10790    11200 
   11350    12307    12973    12729    13440    13379    11677    11306 
   11809    11202    10480    11329    12618    12166    10644    10053 
   11383    12530    11398    10847    12384    13097    11651     9922 
   10307    12052    11919    10508    11014    12206    11958    11993 
   12729    13085    13340    13251    13015    12784    12584    12206 
   10022     8989    11460    12118    10451    11311    13203    11784 
    9126    10303    12582    11616    10801    11419    11001    10548 
   10731    11200    11869    11234    10675    11653    11033     9610 
   10381    11295    12240    13455    12397    11071    11785    13186 
   14165    13435    12398    13479    13635    11036     9877    11136 
   11186    10444    11052    11483    11558    12737    12680    10481 
   10636    13088    12919    11418    11406    11484    11362    11438 
   11318    11160    11676    12094    10754    10374    12561    13423 
   12436    11946    12064    12634    13103    12337    10654     9792 
    9840     9281     9215    10131     9445     8873    11105    12482 
   11982    12779    13579    13705    14640    13944    11489    11018 
   11506    10208     9234    10471    11334    10412    10586    12347 
   11566     8927     9342    10790    10184    10741    12784    12891 
   12016    13404    15591    14110    10797    11419    13489    11843 
    9964    10933    11418    10733    10500    10552    11591    13088 
   13747    13837    12808    12361    14003    13998    11531    10797 
   12317    12150    10601    11578    12491    10856    10644    11581 
   10671     9822    10507    10697    10075    10376    11098    11618 
   12426    12280    10434     9768    11649    11681     9431     9761 
   11480    11456    10987    11557    12228    11639    11114    11207 
   11286    12545    13855    14084    14763    15057    13905    12712 
   12050    11854    12993    13772    11947    11549    13973    13015 
    9498     9699    12228    13073    13032    13289    13113    13429 
   13479    11651    11493    13525    14098    13355    12357    11715 
   10887     8414     6095     6191     7412     7412     7366     9053 
   10413    10849    11448    10326     7727     6288     5773     6346 
    7942     8343     8249     8761     8337     8274     9934     9913 
    8040     8125     9459    10683    12222    13282    14746    15724 
   14621    15217    17140    15452    12926    13293    12248     9081 
   10578    15273    16453    17116    19651    19299    16074    14293 
   15072    15808    14251    12603    13414    14490    13667    12765 
   12341    11615    12239    13711    12950     9841     7372     6944 
    6812     6471     5787     4962     7042    10046     9320     8280 
    9494     8756     7272     9884    12386    10993    11001    13305 
   14256    13930    12685    11314     9391     7106     8259     9364 
    6114     4927     7614     8152     6642     7709    12217    14839 
   12236    11662    16379    17771    14863    14247    13903    10887 
   10951    15248    14434     9154    10889    18423    22269    20264 
   15426    11628    10744    11797    13369    14416    14393    15061 
   17648    18223    15994    16093    17127    14245    11272    12880 
   14283    10642     5647     4687     7217     9271     9514     7975 
    5221     4384     7237    12328    17890    21243    19612    15896 
   15923    17420    14359    10542    11098    10288     5184     2610 
    5710    10786    12761    10781    10706    14373    15326    12582 
   11530    10863     9379    12113    15275    12316     9482    11129 
   11356     9423    11749    16668    15287    10789    12830    15010 
    9385     4753     6170     6647     4756     5185     7302     7580 
    7248     8135     8874     8849     9853    12749    13221     9840 
    8056     7751     6345     7784    12910    14793    10982     7908 
    7917     7334     6899     8353     9005     8694    10852    13398 
   13116    13149    13865    13733    15022    16753    17655    18666 
   16528    11075     9277    11889    12625    11596    12241    12482 
   11774    13387    15061    12814    11853    16598    18792    13306 
    8810    10312    12410    12718    12725    10821     7852     8205 
    9884     8683     7545     8387     9031    10926    14148    15114 
   14798    14593    12438     9926    10114    11437    12615    14943 
   16540    16529    17725    18813    17724    15034    12529    13224 
   15556    16371    14655     9560     6299     8541     8760     5583 
    7025    10948    11615    12474    14814    13274     7785     4924 
    6485     9756    13529    15431    14590    14453    16907    19268 
   18092    14944    12402     9702     8473     9173     8962     8440 
    7055     4274     4541     7527     8654     7840     6714     6916 
    9301    11462    11514    10100     8768    10150    13846    16048 
   16011    13946    11335    11707    12600    10358     7061     6840 
   11372    15583    15934    15232    13648    12487    14758    17174 
   16326    14226    13552    14477    15321    14449    11786     8112 
    6220     8229     9050     6525     7095    10582    11318    11221 
   12850    12487    11168    12808    13196    10696     9882    11011 
   12189    11659     9801    10285    12609    13248    11138     8316 
    8799    11700    12468    12019    12771    13765    14530    15021 
   14400    13612    15022    17505    17559    15978    14850    13571 
   13625    15161    15072    14987    15550    13410    10524     9159 
    8202     8276     9275     9104     6980     5809     7839     9894 
    9780     8668     7458     7939     9370     8020     5772     6050 
    7087     8095     8218     6532     6471     8517    10994    13851 
   14149    12317    12973    14609    13763    12050    10434     7947 
    7123     9900    11823     9999     9894    13971    16187    14836 
   13543    13294    13134    11304     9724    12390    14771    11994 
    9952    12318    13957    12617    10956    10837    11731    12209 
   12372    11537    10007    11276    13636    12548    10643    11330 
   11992    11763    13930    16972    17869    18424    17857    15099 
   13404    13378    14316    14940    11533     7453     8715    11238 
   11300    10983    10593    11646    13674    12881    11938    13167 
   12556    10403    10096    10374     9753     9065     8202     7318 
    7237     7877     9497    11469    12525    12741    11731    10828 
   11986    13277    13387    12522    10305     8922    10093    12143 
   13857    13818    10941     8600     9437    10639    10156     9589 
    9396     9170     9633    10169     9850     8726     7497     7225 
    6951     6856     8397     9478     9321    10056    12070    13609 
   13097    12769    13697    13036    12576    14868    15909    14089 
   13140    12897    12054    12946    14431    14777    15210    14607 
   14982    17578    16665    14450    16189    16120    12438    11061 
   11623    11464    11102    10349     9821    10902    12136    11838 
   10808    10370    11118    12214    12295    12006    12606    12806 
   11908    11848    12182    11576    11530    12857    14080    13934 
   14052    15516    15033    12218    11485    12934    13552    13932 
   13597    10542     8544     9580    10075     9931     9602     9313 
   10682    11854    11457    10114     9032     9925    10447     8897 
    7734     8344    10635    11965    10053     8762    10204    10485 
    9105     7711     5196     3958     6444     8186     6447     5235 
    7352     9823    10377    10963    11923    12144    12563    13841 
   14820    15263    16672    17992    17614    17037    16640    15700 
   14558    14692    16218    15053    11919    12244    13529    11831 
    9678     8868     8776     8360     7653     9378    12903    13923 
   12588    11897    12594    13113    12366    11761    11450    10542 
   10516    11299    11094    10801    10999     9798     7908     8564 
   10746    10943    10139    10666    11321    11124    11236    11611 
   11595    11778    12182    12129    11600    11140    10986    10787 
   11349    13209    14004    13356    13784    14408    13749    13922 
   15854    17223    15849    12517    10540    10875    10986    10821 
   11303    10029     8121     9335    11315    11367    11907    13467 
   13481    12644    12502    12085    12278    13413    13239    12463 
   12781    12517    10458     9396    10557    10562     9007     9340 
   10728     9844     8056     8228     9564    10134     9497     8932 
   10347    11800    10042     8649    10242    10211     8391     8635 
    9435     8743     8113     8465     9386     9887     9107     8924 
   10412    11369    11772    13331    15472    16074    14054    11966 
   12679    14131    13539    12270    12159    12540    12245    12120 
