Origin Time       2024/04/02 04:24:00
Lat.              40.133
Long.             141.712
Depth. (km)       71
Mag.              6.0
Station Code      IWTH04
Station Lat.      39.1809
Station Long.     141.3909
Station Height(m) 514
Record Time       2024/04/02 04:24:56
Sampling Freq(Hz) 100Hz
Duration Time(s)  135
Dir.              2
Scale Factor      2942(gal)/8224139
Max. Acc. (gal)   10.597
Last Correction   2024/04/02 04:24:56
Memo.             
[...]
  -27885   -31017   -30626   -29181   -29278   -30748   -29848   -26516 
  -26133   -28113   -29616   -29604   -28408   -28375   -29648   -29911 
  -28621   -28476   -29592   -28872   -27873   -29188   -29725   -28777 
  -29316   -29560   -29110   -29957   -30048   -29469   -29423   -28879 
  -28414   -28856   -29471   -27751   -26212   -29431   -30821   -26686 
  -25211   -28971   -31664   -29438   -26661   -28804   -33143   -33731 
  -30871   -29416   -29867   -29505   -29099   -29718   -29543   -28441 
  -29162   -30881   -30316   -28382   -27232   -28113   -29976   -29538 
  -28524   -28798   -27962   -27522   -29883   -32532   -31731   -27936 
  -26815   -29139   -29088   -27459   -29389   -32058   -30412   -28745 
  -31056   -30985   -27255   -27731   -29880   -28197   -28487   -29691 
  -28031   -28914   -29870   -29137   -30751   -29843   -26684   -27156 
  -28528   -29847   -31446   -30102   -28548   -29497   -29400   -27486 
  -27823   -30488   -30230   -28192   -28561   -29458   -29674   -29899 
  -30310   -30497   -29597   -28694   -29340   -30847   -29200   -24921 
  -25436   -28989   -28173   -27286   -30708   -32248   -30099   -29332 
  -30127   -28736   -25559   -25331   -29039   -32046   -31882   -30916 
  -30445   -29247   -27864   -27361   -27336   -27951   -28779   -30210 
  -32489   -31213   -28100   -29555   -31051   -28555   -27602   -30102 
  -31978   -31288   -29412   -28019   -27259   -26971   -27926   -29118 
  -29442   -29204   -28478   -28672   -28034   -25759   -26493   -27934 
  -27853   -30055   -31133   -28614   -27492   -29019   -29820   -27900 
  -25820   -27661   -31627   -32418   -31409   -31232   -29479   -29358 
  -32077   -30504   -26503   -26415   -29208   -31209   -31045   -30354 
  -29439   -29390   -31310   -30778   -27363   -26319   -28405   -30485 
  -30465   -29369   -29153   -29747   -30462   -30338   -28868   -27765 
  -28174   -29181   -28815   -26804   -27367   -30703   -31617   -30874 
  -30802   -29569   -27391   -27201   -29644   -30271   -27881   -28736 
  -32085   -31450   -29031   -29604   -31153   -30389   -29142   -29344 
  -29327   -28776   -28395   -28613   -29686   -29401   -27345   -27301 
  -29772   -31149   -30832   -29619   -27828   -27845   -28420   -26060 
  -24413   -27260   -29539   -28560   -28696   -29573   -29521   -29921 
  -29023   -28012   -29926   -30129   -27129   -27322   -29608   -29533 
  -29687   -30306   -29431   -29540   -30828   -31018   -31302   -31706 
  -30034   -27643   -26855   -27820   -29648   -30476   -30132   -29916 
  -29768   -29205   -28351   -28040   -28046   -27500   -28350   -30194 
  -28846   -27799   -30599   -30630   -27702   -27448   -28521   -28929 
  -28634   -28262   -29119   -30150   -29560   -27720   -27479   -29272 
  -29220   -28676   -29938   -28599   -26671   -28486   -29631   -29425 
  -30689   -30801   -29392   -30204   -31189   -29184   -28988   -30913 
  -30265   -29847   -30299   -28945   -28521   -28819   -27372   -27216 
  -29548   -30836   -29937   -28336   -28032   -29525   -29964   -28881 
  -28711   -28741   -28150   -28389   -28278   -27234   -27992   -29737 
  -29843   -29250   -30001   -30569   -29616   -30592   -31877   -30072 
  -28696   -28235   -27689   -28471   -29359   -29851   -30090   -30013 
  -30794   -30721   -29061   -29235   -30997   -31005   -28480   -26226 
  -27756   -30832   -31009   -29135   -28636   -29405   -28271   -26977 
  -28436   -29282   -28763   -28691   -28134   -28101   -28208   -27972 
  -30141   -31284   -28837   -29124   -31415   -29417   -26279   -26005 
  -26612   -27978   -30327   -31225   -30551   -29890   -29142   -27939 
  -27911   -30059   -30967   -29987   -30730   -31220   -29636   -29003 
  -28933   -28236   -28128   -28224   -27753   -27510   -28034   -28464 
  -28887   -29281   -28922   -29740   -30643   -28672   -27722   -29408 
  -30331   -31081   -31194   -29798   -30230   -31580   -30434   -28096 
  -28050   -30712   -31055   -28383   -28486   -30140   -29470   -29590 
  -30825   -29613   -28035   -28375   -28884   -28381   -26800   -27245 
  -30701   -30366   -27330   -28661   -29733   -27913   -28128   -29457 
  -30098   -29859   -27664   -26237   -28040   -30171   -30061   -29232 
  -29394   -28998   -27584   -27800   -29006   -29836   -31162   -31545 
  -30545   -29902   -29342   -28822   -28831   -28489   -28510   -29339 
  -29729   -29246   -27904   -27959   -28993   -27946   -27656   -29172 
  -29332   -28637   -28988   -30369   -30127   -28466   -29058   -29965 
  -28845   -28444   -28834   -28333   -28312   -28636   -28269   -28840 
  -29104   -28100   -29069   -30936   -30897   -30542   -30827   -30053 
  -28489   -28549   -29354   -29324   -29365   -29118   -28366   -27826 
  -28227   -29791   -29783   -27795   -27886   -29650   -28966   -27838 
  -29170   -29675   -29933   -31617   -30973   -30299   -31692   -29816 
  -27045   -28555   -29727   -28579   -29542   -31276   -29841   -28564 
  -30427   -29987   -26970   -27818   -29112   -27191   -27321   -28686 
  -26924   -26190   -29856   -32844   -32042   -29878   -29111   -30863 
  -31453   -28633   -26927   -27932   -29011   -28768   -27664   -28220 
  -29965   -30064   -29641   -30477   -31072   -29111   -27418   -29284 
  -30828   -30893   -31914   -31776   -29697   -28818   -29474   -28259 
  -26712   -28235   -28544   -26333   -26740   -29201   -29714   -28714 
  -28761   -29829   -29623   -28294   -28809   -30400   -29941   -27990 
  -27310   -29470   -30686   -28435   -28852   -31545   -30144   -27955 
  -28015   -28595   -30225   -30878   -29702   -29443   -29455   -29459 
  -29913   -29484   -28092   -27006   -27986   -29451   -29559   -29886 
  -30152   -30289   -30589   -30164   -29263   -28301   -28995   -30435 
  -29465   -28341   -28671   -28325   -27747   -28167   -29138   -29002 
  -26986   -26210   -28331   -30403   -30940   -31294   -31961   -31440 
  -29242   -27178   -26628   -28156   -30294   -30484   -29664   -29016 
  -28298   -28475   -29192   -29313   -29039   -29158   -30080   -30115 
  -28131   -26788   -28013   -29799   -30674   -30580   -28830   -27531 
  -28858   -29745   -28124   -26377   -26886   -29153   -30292   -30111 
  -29570   -28491   -28977   -29284   -27396   -26871   -27386   -28660 
  -31263   -31059   -29874   -30234   -27623   -25405   -28213   -29972 
  -29728   -31330   -31561   -29408   -28981   -29451   -28289   -27760 
  -29135   -30434   -31226   -31488   -30495   -29149   -27630   -26994 
  -28890   -29984   -30002   -31345   -30086   -26492   -26547   -29255 
  -29824   -29107   -29971   -30753   -29749   -28694   -28260   -27471 
  -27421   -28638   -29403   -30789   -33235   -33620   -31364   -28998 
  -27691   -26491   -26225   -27842   -29020   -29515   -30275   -30126 
  -29810   -29759   -29047   -28980   -29446   -28634   -27776   -28399 
  -29566   -30461   -31060   -31392   -30315   -28998   -30813   -31317 
  -27720   -27240   -29029   -27680   -27371   -28912   -28715   -29505 
  -30753   -29035   -27727   -28597   -29763   -30312   -28738   -27283 
  -28514   -29381   -29830   -31606   -32000   -30391   -28437   -27364 
  -28136   -28513   -27704   -28729   -30599   -30294   -29259   -28404 
  -27299   -27594   -29339   -30856   -31149   -30130   -28304   -27326 
  -28329   -28691   -27959   -28235   -28524   -29266   -30661   -30928 
  -30669   -29560   -28156   -28134   -27859   -27567   -28541   -29519 
  -29569   -28282   -27589   -28703   -28341   -28058   -30746   -31180 
  -28969   -28795   -28553   -26916   -26924   -29990   -33100   -32159 
  -29764   -29344   -28999   -28857   -29076   -26975   -25253   -26894 
  -27953   -28374   -30407   -30030   -29160   -31580   -31209   -29079 
  -30819   -30896   -27388   -27001   -29511   -30377   -30735   -30626 
  -28910   -28787   -29636   -28899   -27932   -28629   -30511   -29585 
  -27418   -28236   -29000   -29731   -30902   -29544   -29215   -30991 
  -30491   -28339   -26566   -25737   -26437   -27606   -29126   -30688 
  -30038   -29374   -31016   -31321   -29589   -28507   -27796   -27396 
  -28308   -29717   -30087   -29390   -29640   -31576   -31845   -29814 
  -29473   -29930   -28688   -28495   -29951   -29388   -27939   -29322 
  -30555   -29806   -30298   -30511   -28771   -28539   -30024   -29648 
  -27957   -28426   -30626   -31056   -29512   -29016   -29519   -29012 
  -28422   -29656   -30712   -28598   -26515   -26585   -27090   -29181 
  -30307   -28696   -29141   -30045   -28165   -28278   -30731   -30172 
  -27976   -27558   -28491   -29625   -29772   -29227   -28625   -28644 
  -29039   -28140   -28413   -29747   -28325   -27934   -30279   -30087 
  -28200   -28297   -28979   -28638   -28834   -29891   -28925   -26881 
  -28090   -31122   -31419   -29151   -28358   -29803   -29447   -27314 
  -28286   -31691   -32398   -30365   -29242   -29737   -29457   -28363 
  -29566   -30851   -28139   -27355   -31052   -31267   -29172   -29895 
  -30064   -28825   -28630   -28629   -27911   -27788   -28163   -27963 
  -28355   -29119   -28189   -26724   -27994   -30219   -29689   -29168 
  -29779   -28711   -27900   -27864   -26966   -27832   -30122   -30946 
  -30892   -30284   -30213   -30500   -28286   -26937   -28753   -28912 
  -28107   -29444   -30291   -29511   -28714   -28543   -29546   -30474 
  -29681   -29041   -29944   -30840   -30834   -30029   -29026   -29089 
  -30046   -29648   -28123   -28703   -29620   -28381   -29038   -31266 
  -30767   -29609   -29133   -28210   -28482   -28966   -28244   -28819 
  -30472   -30856   -30136   -29182   -28220   -27857   -28615   -28748 
  -28736   -30300   -30341   -29381   -30260   -30761   -30766   -29947 
  -27356   -27194   -28547   -27889   -28620   -29647   -28663   -29077 
  -28892   -27878   -29956   -31230   -29528   -29106   -29636   -27958 
  -26977   -29049   -29797   -29446   -30519   -29860   -27611   -26712 
  -27244   -28539   -28903   -27935   -27402   -27382   -28154   -30285 
  -31032   -30333   -31600   -32343   -30287   -28885   -27746   -25509 
  -25577   -28559   -30038   -28007   -26617   -28208   -29278   -28792 
  -29447   -30901   -30487   -29111   -28769   -29299   -30757   -32200 
  -32706   -32624   -31168   -28653   -27438   -27704   -27815   -28107 
  -28863   -29187   -29616   -29284   -27130   -26158   -27650   -28857 
  -29315   -30609   -30638   -28313   -28085   -30098   -30539   -29943 
  -29662   -29250   -28136   -27440   -28391   -28387   -26666   -27434 
  -30283   -30501   -29565   -30639   -31804   -31729   -30990   -29512 
  -27997   -28081   -28472   -27319   -27940   -30646   -30130   -27322 
  -27276   -28264   -27527   -28516   -30720   -30319   -30003   -30541 
  -29354   -28625   -29007   -28152   -27490   -28784   -30118   -29509 
  -29214   -31359   -31760   -29500   -29957   -31276   -28929   -26859 
  -28320   -30546   -31159   -29849   -29095   -30086   -29974   -29354 
  -30137   -30950   -30786   -29425   -28046   -28161   -28483   -28294 
  -28787   -29508   -30010   -30696   -30318   -29362   -30029   -31095 
  -30304   -28243   -27328   -27911   -27892   -27959   -28945   -28726 
  -27837   -28204   -29317   -30075   -29889   -29729   -29382   -27688 
  -27534   -29424   -29893   -29270   -29454   -30157   -30271   -29795 
  -29640   -30288   -30038   -28329   -28996   -30337   -28337   -27537 
  -29560   -30225   -30034   -30140   -28764   -26777   -26667   -28389 
  -30121   -31006   -30573   -28151   -26662   -28038   -28879   -28590 
  -28575   -27972   -28066   -28644   -28004   -28553   -29378   -28656 
  -29551   -30885   -30693   -30713   -29957   -28865   -28598   -27153 
  -26935   -29936   -30545   -27645   -26142   -26246   -26330   -27795 
  -30707   -31163   -28864   -29182   -31876   -32472   -31492   -30750 
  -30665   -31387   -31955   -31413   -30518   -31321   -32301   -30546 
  -28846   -29574   -29957   -28968   -28634   -29805   -31529   -33520 
  -35752   -34805   -30788   -30253   -32017   -30181   -27580   -28039 
  -29427   -30345   -31849   -33022   -33161   -32898   -30850   -28906 
  -29546   -30460   -31626   -33187   -33624   -32823   -31251   -30446 
  -29664   -29127   -30605   -31248   -30878   -31286   -31345   -33022 
  -35572   -36177   -38773   -42256   -40057   -35500   -34213   -34447 
  -33999   -33154   -33282   -34294   -34260   -33285   -30167   -25169 
  -24557   -27333   -25428   -21779   -23927   -28721   -32918   -37679 
  -39275   -36504   -32136   -26423   -22373   -22499   -24659   -26951 
  -25645   -19286   -15981   -19710   -23619   -24753   -23614   -18775 
  -14181   -14003   -15310   -13911   -10349   -10812   -15920   -16248 
  -10781    -8031    -6944    -4749    -8954   -18864   -24206   -24742 
  -24448   -22137   -15615    -7622    -8526   -20447   -31504   -34539 
  -29461   -20471   -17224   -20148   -23711   -29390   -32165   -27282 
  -24564   -26306   -29289   -39210   -52374   -58595   -56110   -47503 
  -40695   -42056   -46728   -47661   -46330   -48732   -51540   -47468 
  -40014   -34981   -33343   -34175   -32691   -25817   -20278   -23735 
  -31853   -36942   -38809   -38041   -36660   -38038   -37669   -33185 
  -28127   -20503   -12495   -11893   -17388   -22297   -20691   -13705 
  -11634   -15803   -19047   -20579   -20677   -19908   -21744   -24848 
  -25911   -25942   -27999   -33575   -38978   -40698   -42959   -46055 
  -42441   -36394   -35873   -32287   -24001   -24217   -29023   -27274 
  -26006   -28366   -26816   -26400   -32529   -37474   -41134   -50004 
  -58741   -58789   -50321   -37272   -25654   -21130   -19554   -15553 
  -13068   -14285   -16391   -15963   -10515    -7248   -15083   -26144 
  -28107   -26824   -34539   -46504   -50866   -48041   -43861   -40926 
  -41665   -42214   -35148   -23305   -14582   -14627   -22324   -27202 
  -22122   -11551    -6867   -11581   -16394   -18782   -25431   -35140 
  -42273   -46170   -44902   -36718   -30572   -33717   -38676   -40473 
  -41231   -37619   -30153   -26384   -27994   -30550   -31407   -34283 
  -38450   -34819   -27213   -27554   -31121   -29513   -26180   -24490 
  -25069   -24668   -17666   -10426   -10848   -17621   -28426   -35746 
  -34503   -33135   -36942   -39025   -36945   -36941   -36138   -30368 
  -26762   -25204   -22450   -23279   -24252   -22131   -24494   -27827 
  -24028   -20544   -22621   -26468   -30557   -36327   -46866   -54997 
  -51065   -43452   -39721   -35905   -31450   -26990   -21024   -15506 
  -14067   -16900   -21234   -24645   -27129   -30731   -33723   -31390 
  -25105   -21200   -22916   -25286   -23036   -21236   -22603   -23024 
  -24371   -25799   -23060   -22538   -26049   -25593   -25836   -33222 
  -37239   -33677   -30451   -26333   -23700   -31116   -39780   -39664 
  -39522   -45148   -46275   -38442   -29450   -22157   -17575   -17558 
  -18338   -21085   -27969   -29728   -24329   -23936   -30140   -34407 
  -35167   -32390   -28624   -30879   -34485   -31741   -30064   -34766 
  -36724   -32185   -30261   -34580   -37343   -34609   -32711   -34161 
  -30704   -21334   -17620   -22235   -27226   -29018   -29081   -29836 
  -32755   -35363   -32375   -26434   -26172   -29614   -29968   -28300 
  -28902   -31595   -32736   -33235   -33870   -31117   -28387   -29675 
  -28075   -22333   -20699   -21821   -21748   -22904   -23500   -23426 
  -26522   -27777   -24617   -24844   -26154   -24169   -27031   -31691 
  -29246   -27294   -30176   -32460   -35093   -35476   -28044   -22793 
  -25400   -23661   -17624   -17865   -20071   -20171   -23955   -26919 
  -23782   -23615   -28171   -29725   -29047   -27700   -25552   -28283 
  -35290   -37314   -34550   -36680   -42090   -39132   -32003   -31212 
  -31922   -33011   -38718   -42377   -40328   -37158   -35708   -37103 
  -38040   -34570   -31758   -32907   -33531   -33513   -34346   -32190 
  -28159   -31391   -39082   -37662   -32714   -35722   -37709   -32613 
  -28803   -29569   -30249   -30061   -31941   -31700   -26091   -21350 
  -19411   -17517   -17909   -21784   -25879   -28119   -29810   -33300 
  -33890   -27184   -23557   -27090   -28313   -27943   -28891   -27329 
  -24140   -22654   -24116   -26743   -26392   -23599   -24803   -29852 
  -28821   -22696   -22659   -26154   -25748   -25317   -27201   -27747 
  -27321   -26843   -23965   -22253   -26568   -29911   -28269   -28154 
  -30040   -31143   -32381   -34839   -36756   -34875   -32401   -31407 
  -28629   -26694   -27718   -28629   -29608   -31738   -33123   -33411 
  -33768   -33251   -31935   -31459   -31988   -32094   -29758   -26368 
  -25363   -25978   -26129   -27994   -31965   -32796   -30154   -29358 
  -30424   -30267   -30003   -29532   -25663   -21412   -22059   -25864 
  -28485   -30447   -34314   -35762   -32406   -30993   -32294   -32518 
  -32189   -29419   -25007   -25269   -27936   -27106   -25213   -24638 
  -25239   -27369   -28543   -29151   -32475   -33586   -28325   -24872 
  -26994   -29058   -30356   -30681   -28972   -28075   -27151   -26013 
  -28730   -33114   -33821   -32089   -30874   -29781   -29995   -32702 
  -34720   -33064   -29646   -28480   -28417   -26509   -25334   -27187 
  -29700   -30269   -28273   -25065   -24457   -27689   -29563   -26866 
  -25230   -29262   -32355   -29702   -28213   -29893   -30292   -31383 
  -32849   -31337   -30423   -31139   -29033   -25107   -24611   -27645 
  -28591   -26329   -25510   -26225   -27039   -28649   -27684   -27112 
  -32448   -34906   -31835   -31171   -30955   -28703   -27427   -28561 
  -30126   -28566   -26642   -26991   -28169   -31722   -34500   -31704 
  -28640   -30289   -32013   -31750   -33200   -33102   -30414   -32098 
  -34400   -31469   -29928   -31719   -31876   -30929   -29597   -27615 
  -26684   -25197   -23510   -25402   -27652   -27353   -27253   -26414 
  -26276   -30134   -32143   -29789   -28879   -28729   -26293   -24725 
  -26420   -29386   -31120   -30962   -28628   -26727   -29409   -32435 
  -31226   -29979   -29793   -30240   -33056   -33478   -29968   -28182 
  -27560   -25150   -23723   -23727   -23506   -26171   -28660   -26369 
  -26272   -29880   -31407   -30962   -29505   -28732   -29273   -29047 
  -29012   -26292   -19515   -18057   -22855   -24459   -24564   -28907 
  -32243   -31104   -29864   -29822   -30820   -33534   -35313   -33818 
  -32518   -34692   -35689   -32945   -29764   -27799   -28775   -31486 
  -30682   -26643   -25137   -26956   -26503   -22577   -21770   -27315 
  -33540   -35320   -33895   -32521   -31484   -28973   -28205   -31779 
  -33077   -30257   -28536   -27201   -26852   -29751   -31004   -29504 
  -29956   -31156   -30192   -28547   -27432   -27535   -29215   -30447 
  -30597   -30982   -32248   -34857   -36691   -34979   -33053   -33014 
  -31251   -29164   -28671   -26913   -25353   -25743   -27130   -29305 
  -29203   -26956   -25988   -25031   -25130   -28179   -30757   -31401 
  -30195   -28267   -29519   -32390   -33763   -33215   -29049   -26311 
  -29609   -31976   -30458   -29331   -28107   -25174   -23500   -25308 
  -27643   -28621   -30006   -30049   -28323   -29498   -31830   -30009 
  -26870   -27348   -28957   -28216   -27454   -26882   -25099   -24568 
  -25424   -26341   -26860   -27117   -27903   -27226   -26524   -27928 
  -27631   -27838   -30885   -30434   -29214   -33085   -35641   -33416 
  -30281   -29181   -30323   -30769   -31081   -31294   -28354   -26933 
