Origin Time       2024/04/02 04:24:00
Lat.              40.133
Long.             141.712
Depth. (km)       71
Mag.              6.0
Station Code      IWTH09
Station Lat.      40.0861
Station Long.     141.7120
Station Height(m) 140
Record Time       2024/04/02 04:24:48
Sampling Freq(Hz) 100Hz
Duration Time(s)  131
Dir.              1
Scale Factor      2940(gal)/6170270
Max. Acc. (gal)   64.282
Last Correction   2024/04/02 04:24:33
Memo.             
[...]
  -45779   -45780   -45780   -45779   -45781   -45781   -45778   -45779 
  -45780   -45779   -45779   -45781   -45781   -45780   -45780   -45780 
  -45778   -45779   -45781   -45781   -45779   -45779   -45782   -45783 
  -45782   -45779   -45779   -45779   -45779   -45779   -45780   -45781 
  -45780   -45778   -45780   -45782   -45780   -45780   -45781   -45779 
  -45777   -45777   -45779   -45780   -45779   -45778   -45779   -45780 
  -45780   -45778   -45777   -45778   -45778   -45778   -45778   -45778 
  -45778   -45778   -45778   -45778   -45780   -45780   -45780   -45781 
  -45780   -45779   -45780   -45780   -45779   -45779   -45779   -45779 
  -45780   -45780   -45779   -45780   -45782   -45781   -45779   -45780 
  -45781   -45781   -45780   -45779   -45779   -45779   -45777   -45777 
  -45779   -45780   -45779   -45779   -45779   -45778   -45779   -45779 
  -45777   -45778   -45778   -45778   -45779   -45778   -45778   -45781 
  -45781   -45778   -45778   -45779   -45780   -45779   -45779   -45780 
  -45780   -45779   -45780   -45779   -45779   -45779   -45779   -45779 
  -45780   -45779   -45778   -45778   -45780   -45781   -45779   -45778 
  -45780   -45781   -45779   -45779   -45778   -45777   -45779   -45781 
  -45779   -45778   -45779   -45779   -45780   -45780   -45776   -45777 
  -45781   -45780   -45779   -45779   -45780   -45780   -45780   -45782 
  -45781   -45778   -45779   -45779   -45780   -45780   -45777   -45776 
  -45780   -45781   -45778   -45777   -45778   -45779   -45779   -45778 
  -45779   -45781   -45780   -45778   -45778   -45779   -45779   -45779 
  -45779   -45779   -45778   -45779   -45779   -45779   -45780   -45780 
  -45780   -45780   -45779   -45779   -45779   -45778   -45780   -45781 
  -45779   -45779   -45780   -45779   -45779   -45778   -45779   -45780 
  -45780   -45780   -45781   -45781   -45780   -45780   -45780   -45779 
  -45778   -45779   -45781   -45780   -45779   -45780   -45780   -45780 
  -45779   -45779   -45779   -45780   -45780   -45780   -45780   -45780 
  -45780   -45779   -45779   -45779   -45779   -45780   -45779   -45777 
  -45778   -45780   -45779   -45779   -45780   -45781   -45780   -45780 
  -45780   -45779   -45780   -45779   -45777   -45777   -45780   -45781 
  -45780   -45780   -45779   -45779   -45779   -45780   -45779   -45778 
  -45778   -45779   -45780   -45780   -45781   -45781   -45781   -45780 
  -45781   -45783   -45781   -45780   -45781   -45780   -45779   -45780 
  -45781   -45781   -45780   -45780   -45779   -45780   -45779   -45780 
  -45781   -45782   -45782   -45782   -45781   -45779   -45779   -45779 
  -45779   -45777   -45778   -45780   -45781   -45781   -45779   -45779 
  -45780   -45779   -45778   -45780   -45781   -45781   -45781   -45782 
  -45780   -45780   -45781   -45779   -45778   -45780   -45779   -45778 
  -45780   -45780   -45780   -45780   -45780   -45781   -45781   -45780 
  -45780   -45780   -45779   -45779   -45780   -45781   -45780   -45778 
  -45779   -45781   -45780   -45780   -45780   -45780   -45780   -45780 
  -45781   -45782   -45780   -45779   -45779   -45779   -45778   -45779 
  -45780   -45780   -45780   -45781   -45780   -45780   -45779   -45779 
  -45781   -45781   -45781   -45780   -45779   -45778   -45780   -45781 
  -45780   -45778   -45779   -45782   -45783   -45782   -45780   -45779 
  -45778   -45777   -45778   -45779   -45780   -45780   -45779   -45780 
  -45780   -45778   -45777   -45779   -45781   -45781   -45779   -45778 
  -45778   -45780   -45781   -45779   -45778   -45779   -45781   -45781 
  -45779   -45778   -45778   -45780   -45779   -45778   -45780   -45781 
  -45780   -45779   -45780   -45780   -45780   -45779   -45781   -45781 
  -45780   -45780   -45781   -45780   -45777   -45778   -45778   -45777 
  -45778   -45779   -45779   -45779   -45778   -45778   -45779   -45780 
  -45779   -45778   -45779   -45780   -45780   -45780   -45778   -45778 
  -45780   -45780   -45779   -45779   -45779   -45779   -45779   -45780 
  -45780   -45779   -45779   -45778   -45778   -45780   -45779   -45778 
  -45779   -45779   -45777   -45777   -45779   -45779   -45778   -45778 
  -45779   -45779   -45778   -45777   -45778   -45778   -45778   -45778 
  -45778   -45779   -45778   -45779   -45780   -45780   -45780   -45781 
  -45779   -45779   -45781   -45779   -45777   -45779   -45780   -45778 
  -45778   -45779   -45778   -45779   -45780   -45779   -45778   -45777 
  -45776   -45778   -45780   -45779   -45779   -45779   -45779   -45780 
  -45779   -45778   -45780   -45782   -45778   -45778   -45779   -45778 
  -45777   -45778   -45779   -45780   -45780   -45779   -45779   -45781 
  -45781   -45778   -45778   -45780   -45780   -45778   -45779   -45779 
  -45778   -45779   -45780   -45778   -45778   -45779   -45778   -45779 
  -45779   -45778   -45778   -45777   -45778   -45779   -45778   -45779 
  -45779   -45779   -45779   -45779   -45779   -45779   -45779   -45779 
  -45778   -45779   -45781   -45779   -45777   -45779   -45780   -45781 
  -45780   -45780   -45780   -45779   -45779   -45780   -45778   -45777 
  -45778   -45778   -45779   -45780   -45778   -45779   -45781   -45778 
  -45777   -45777   -45777   -45778   -45780   -45778   -45779   -45780 
  -45780   -45780   -45780   -45779   -45777   -45777   -45778   -45778 
  -45778   -45779   -45780   -45779   -45780   -45780   -45778   -45779 
  -45780   -45782   -45798   -45834   -45887   -45933   -45914   -45812 
  -45706   -45737   -45946   -46155   -46150   -45951   -45744   -45644 
  -45590   -45497   -45466   -45547   -45478   -45140   -44901   -45064 
  -45378   -45515   -45830   -46797   -47750   -47377   -45853   -45389 
  -46635   -47436   -46995   -45782   -44547   -44919   -45814   -45585 
  -45431   -46059   -46803   -46192   -44584   -44470   -45331   -45546 
  -45034   -43903   -44125   -46063   -46810   -46295   -45752   -46024 
  -47340   -47510   -47463   -47752   -45543   -43046   -43628   -46390 
  -48441   -46678   -43770   -44939   -47595   -48960   -49975   -47513 
  -42875   -40563   -40859   -46122   -51157   -47932   -42389   -40276 
  -42429   -48152   -49813   -46223   -45193   -46715   -46542   -47045 
  -49502   -49033   -45005   -42217   -42707   -47222   -51820   -47534 
  -40304   -41449   -43903   -43283   -46878   -50335   -46444   -41951 
  -41584   -44657   -49678   -49217   -45981   -46057   -42704   -40682 
  -48450   -53526   -49033   -46066   -47837   -48178   -47884   -47972 
  -43034   -37305   -39533   -43059   -42215   -44366   -48148   -44485 
  -41239   -46602   -50235   -49087   -47561   -45194   -44453   -44713 
  -44531   -45707   -46000   -45916   -48419   -49569   -46930   -44235 
  -43124   -42990   -45403   -49307   -49083   -45960   -44437   -44355 
  -46237   -48748   -49886   -48160   -43630   -40868   -41138   -44407 
  -49028   -50065   -48065   -44771   -42067   -44982   -48465   -44053 
  -42135   -48200   -47070   -39690   -40964   -46436   -45742   -44400 
  -45374   -44235   -47510   -52533   -45762   -37087   -40676   -48187 
  -51022   -51712   -50214   -45754   -44975   -50206   -50299   -42161 
  -41931   -49276   -47729   -45355   -48485   -46348   -45247   -46865 
  -42912   -42383   -47338   -45743   -39473   -41989   -48086   -44658 
  -42518   -46060   -44792   -43130   -45116   -45534   -45375   -48276 
  -49444   -46731   -45965   -45303   -43086   -45644   -50407   -49066 
  -45463   -46755   -48641   -46669   -44613   -44493   -43979   -43212 
  -46635   -51104   -47860   -43991   -47735   -50325   -46562   -43337 
  -46346   -50542   -46689   -38794   -37932   -43550   -48640   -48631 
  -44145   -40643   -41938   -47226   -50488   -49902   -48857   -45249 
  -40408   -41277   -45174   -46611   -48012   -48606   -46479   -45385 
  -46092   -46402   -45023   -42156   -41943   -45787   -48988   -50322 
  -49431   -45794   -43555   -43925   -45148   -45543   -45590   -49032 
  -51911   -47203   -42379   -43036   -41996   -42794   -48332   -47846 
  -42747   -43750   -46399   -43963   -44761   -48432   -44995   -42181 
  -47797   -51578   -47907   -42906   -40587   -42247   -46622   -48472 
  -46405   -44217   -42135   -42410   -49765   -53837   -48434   -44045 
  -43066   -45199   -48882   -46976   -44048   -44376   -44136   -46271 
  -49704   -48757   -46761   -44923   -42429   -43824   -47671   -48362 
  -46476   -43674   -40500   -40616   -44357   -47645   -48898   -47468 
  -44799   -45029   -46075   -43521   -42678   -47259   -50236   -49472 
  -49010   -48130   -45822   -43918   -44658   -48143   -49107   -45867 
  -44537   -45198   -42918   -40728   -42394   -44233   -44437   -45745 
  -47057   -45165   -42987   -45099   -49463   -51220   -48006   -41932 
  -39796   -44184   -48763   -49589   -50783   -50389   -43247   -40434 
  -47747   -50445   -45395   -44542   -48906   -49716   -45056   -41754 
  -42972   -44349   -45610   -49179   -49627   -45664   -44027   -44634 
  -44265   -43810   -44988   -46335   -44816   -42816   -44435   -47540 
  -46839   -44831   -45847   -45133   -42373   -42269   -44562   -47390 
  -48661   -48519   -47904   -46598   -45308   -45648   -46539   -43659 
  -42876   -49179   -51320   -48944   -48414   -43918   -40990   -44922 
  -46184   -45989   -45852   -43723   -45958   -48792   -47092   -43453 
  -39100   -41930   -49640   -47987   -43364   -47048   -50978   -48177 
  -43993   -42964   -43612   -45298   -47523   -47050   -44592   -44877 
  -47270   -46728   -45635   -46493   -46246   -47057   -46819   -43588 
  -44739   -46677   -43714   -42165   -43773   -45374   -46645   -46481 
  -44039   -42805   -46267   -51392   -51980   -46314   -41239   -45152 
  -51809   -48710   -43144   -45642   -46956   -43418   -42706   -45298 
  -47314   -44599   -41818   -45595   -48645   -47979   -47797   -46015 
  -43151   -41859   -43040   -47171   -48611   -45956   -45107   -45683 
  -45723   -45329   -46026   -49130   -48498   -44215   -42937   -43354 
  -46396   -50502   -48302   -43893   -43554   -45725   -47484   -45384 
  -41540   -42956   -47245   -47067   -45498   -46778   -45921   -41827 
  -40440   -43730   -49508   -52562   -48957   -45440   -46193   -46635 
  -47966   -49658   -47857   -45760   -46375   -47492   -45572   -43121 
  -45054   -46833   -43670   -41594   -43735   -45310   -45737   -44060 
  -41273   -43984   -47734   -46790   -46522   -48701   -48747   -46669 
  -47695   -47602   -42306   -42210   -46648   -46244   -45204   -46926 
  -45818   -42244   -45474   -49272   -42595   -38836   -43681   -47805 
  -50693   -49183   -44173   -43876   -46801   -48255   -46869   -44114 
  -44851   -47447   -46072   -43803   -44725   -47034   -49101   -48215 
  -44958   -43954   -44956   -47230   -49187   -48917   -48486   -43523 
  -36004   -38670   -45340   -45689   -46860   -50388   -50054   -46301 
  -43968   -46298   -48922   -47581   -44850   -42315   -43539   -48339 
  -48392   -44528   -42149   -43439   -48300   -49538   -46215   -44377 
  -43376   -41875   -43213   -47293   -48171   -46886   -46877   -46293 
  -48291   -50749   -49339   -48323   -44808   -41593   -46809   -50462 
  -46257   -40760   -39650   -45076   -49314   -48198   -47185   -45907 
  -44590   -45579   -44135   -41714   -46709   -52216   -48094   -44197 
  -46812   -46526   -43203   -44380   -47612   -46333   -44884   -47253 
  -44544   -39531   -42961   -45569   -41518   -40703   -42565   -43207 
  -45032   -46384   -47867   -50263   -48909   -44996   -44737   -47892 
  -48119   -45039   -43884   -45249   -47895   -49263   -45725   -41257 
  -43429   -47560   -45703   -45987   -49923   -47690   -44074   -44932 
  -47151   -46517   -42424   -41805   -44384   -45696   -48313   -49475 
  -46586   -44519   -44083   -43319   -43706   -45578   -46149   -46258 
  -49119   -49948   -44864   -43020   -46399   -45559   -44046   -46882 
  -47432   -45259   -44483   -45474   -46905   -46773   -48134   -51212 
  -49662   -44184   -40494   -41358   -44469   -46094   -47400   -47821 
  -46214   -46699   -47115   -43324   -41188   -43880   -46094   -45569 
  -47013   -49579   -45311   -41076   -45596   -49440   -49122   -45857 
  -39245   -40460   -47276   -45437   -42490   -44985   -44664   -45601 
  -48061   -44394   -45483   -51010   -46396   -43115   -50318   -51811 
  -45080   -42206   -42849   -45305   -49379   -49670   -48524   -45970 
  -39163   -38142   -41956   -41679   -44057   -48944   -49429   -49542 
  -49438   -47925   -50275   -50609   -43216   -41647   -47656   -45879 
  -42005   -47356   -51786   -48527   -45202   -44762   -44081   -44625 
  -48217   -51668   -50534   -45508   -43622   -43180   -38958   -35020 
  -29118   -19930   -16500   -19095   -20447   -21785   -30319   -41957 
  -48658   -55133   -62504   -67879   -73694   -75068   -69367   -60147 
  -46100   -38471   -46337   -47690   -34168   -25913   -21019    -8903 
   -1930    -5379    -9510   -18544   -39581   -59660   -62307   -48680 
  -32366   -22544   -28495   -57187   -85067   -87747   -83991   -83954 
  -64142   -36093   -32532   -42873   -53345   -75238   -98591   -99031 
  -82728   -62198   -28208     3389    -5286   -42911   -66647   -63041 
  -38531   -14966   -15644   -20584   -15992   -15969    -6745    11224 
    7864   -18693   -47958   -63186   -73319   -86404   -66189   -17054 
  -11947   -57109   -86160   -69762   -23462    17139    22909     9821 
   -5882   -35500   -64787   -76532   -83976   -89782   -83726   -66238 
  -52032   -51166   -52991   -58337   -80503  -112399  -131775  -126826 
 -109593  -101165  -121324  -161956  -180689  -166787  -140706  -114523 
  -95446   -70868   -29092     3910     3310    -8403    -5150    -7139 
  -21190   -27397   -29839   -20100     7862    17090    -3302   -27129 
  -45659   -62550   -76563   -74087   -43346   -14157   -21157   -36793 
  -26594   -17022   -35967   -53522   -36784    -9068     3047     3923 
  -13180   -37709   -41141   -32393   -18685    -2775   -14840   -52100 
  -71239   -55670   -31648   -22483   -19498   -16629   -19792   -25296 
  -26964   -25125   -28218   -33260   -27935   -24015   -33852   -49981 
  -64171   -66881   -62467   -65411   -65037   -51726   -42880   -44963 
  -48320   -50730   -44502   -36759   -58780   -92252   -89851   -71603 
  -72341   -67733   -45806   -39588   -49261   -44560   -31868   -37182 
  -60328   -70208   -54008   -48188   -62323   -70168   -66565   -56134 
  -57515   -70335   -58510   -29183   -21119   -37039   -51904   -55284 
  -52823   -36058   -16554   -21230   -28492   -29077   -46978   -57713 
  -36586   -11440    -1890    -1400   -10640   -32916   -51358   -54454 
  -50532   -40082   -31234   -42746   -60950   -59366   -47044   -41867 
  -41072   -43989   -49063   -46320   -40795   -43123   -50718   -56549 
  -54665   -48589   -49844   -55902   -49797   -36127   -41292   -59552 
  -65441   -58970   -47030   -34860   -33568   -42656   -52844   -59830 
  -57980   -51988   -56280   -62734   -57186   -50372   -51848   -46724 
  -30678   -29669   -45568   -50040   -48401   -56404   -58420   -49634 
  -42816   -42891   -50596   -56495   -51528   -44419   -46124   -54357 
  -58172   -51723   -38536   -33036   -44898   -55947   -54704   -53117 
  -50244   -45691   -46755   -42119   -31387   -32456   -40369   -47645 
  -60936   -64177   -46667   -39836   -53068   -55232   -42091   -34286 
  -34685   -35945   -37808   -36566   -27412   -23161   -34148   -45426 
  -40786   -32559   -39819   -47136   -40505   -38998   -44612   -43621 
  -41404   -43183   -45441   -43369   -37804   -39748   -48310   -51357 
  -51125   -53444   -52298   -46811   -46224   -51029   -56237   -59349 
  -51997   -40897   -46147   -56956   -56188   -51638   -48019   -47621 
  -50508   -49412   -48225   -49438   -51287   -55618   -55355   -50102 
  -47764   -46859   -46788   -47086   -45799   -49721   -58859   -56095 
  -38737   -29107   -32277   -35908   -39014   -35365   -25257   -26612 
  -33104   -33526   -37681   -38745   -34172   -40420   -45593   -38155 
  -36326   -41926   -46248   -50968   -47197   -36245   -37512   -45420 
  -43839   -41171   -45981   -50910   -49140   -44453   -46260   -52901 
  -55900   -53827   -47569   -44087   -48142   -52073   -51667   -47838 
  -47799   -57168   -62972   -58088   -50602   -43744   -41053   -46639 
  -53285   -52658   -46945   -39549   -35041   -42597   -55011   -56018 
  -50155   -48720   -51014   -52061   -50025   -45796   -39070   -31750 
  -30667   -36150   -38710   -38789   -43494   -45570   -40954   -39421 
  -45129   -52278   -54151   -52205   -50670   -48735   -49290   -52691 
  -52225   -52470   -55214   -47946   -37485   -40431   -50133   -54394 
  -50604   -42468   -38741   -42084   -46228   -46564   -45914   -46831 
  -46897   -45887   -43393   -41353   -45876   -51793   -49718   -44216 
  -42096   -40447   -39928   -44395   -45251   -38050   -35827   -42392 
  -48924   -52293   -49126   -42597   -44759   -50076   -48238   -46647 
  -45661   -40063   -39950   -45906   -46294   -43357   -42951   -44649 
  -46708   -47817   -51947   -58044   -54360   -42643   -39191   -44928 
  -49253   -50470   -52314   -53928   -47735   -39113   -44278   -53510 
  -50379   -46087   -49483   -51828   -51675   -52292   -49210   -43164 
  -42192   -44252   -41980   -40370   -45257   -47262   -39895   -35114 
  -40231   -44824   -44988   -43571   -37884   -34918   -41372   -48323 
  -48491   -42916   -38221   -37248   -35969   -39658   -46397   -42521 
  -36675   -38513   -38416   -40906   -49921   -50433   -43626   -41669 
  -42299   -42780   -46119   -50187   -49277   -45774   -47915   -52556 
  -50933   -47345   -48312   -49362   -48585   -49546   -49511   -47430 
  -48011   -49623   -48188   -45568   -45899   -51562   -58005   -57052 
  -50639   -47478   -48418   -46302   -41617   -44970   -52107   -48239 
  -40415   -43778   -50989   -50239   -48524   -49513   -46042   -44392 
  -50125   -51227   -43997   -40460   -43386   -42693   -41330   -49478 
  -54701   -48120   -43958   -44247   -43545   -46217   -48551   -45368 
  -40189   -36080   -35673   -38504   -41289   -42913   -44062   -47097 
  -48524   -43967   -40635   -45483   -53778   -56860   -55217   -53599 
  -49459   -45209   -47062   -48942   -47334   -48597   -50988   -48236 
  -43206   -42249   -44134   -43944   -43085   -43599   -43902   -45215 
  -47724   -47962   -46082   -44144   -42242   -41948   -42951   -42493 
  -41530   -41392   -42567   -47203   -53075   -52826   -45234   -38954 
  -40414   -43815   -42072   -41510   -46670   -49151   -46049   -42366 
  -41344   -42560   -42782   -42402   -41646   -38506   -36128   -36720 
  -37877   -38599   -40058   -44144   -47956   -46045   -41585   -40704 
  -44234   -48570   -47933   -44027   -42885   -43399   -44183   -47097 
  -51163   -53846   -52675   -48349   -46061   -46201   -45923   -47427 
  -52066   -56510   -56048   -49400   -42824   -43327   -50369   -56405 
  -54130   -46022   -41300   -43632   -46015   -42108   -39422   -42487 
  -43964   -45454   -50785   -52716   -49409   -49230   -52629   -50107 
  -43409   -42152   -45109   -48585   -50150   -47471   -46696   -49770 
  -48530   -43158   -41289   -42953   -44188   -46666   -49024   -44878 
  -41051   -46217   -50906   -50436   -50106   -48262   -47335   -48666 
  -45919   -44658   -49739   -50515   -45510   -44449   -46471   -48104 
  -50807   -50876   -46737   -44783   -48666   -52950   -51379   -49818 
