Origin Time       2024/04/02 04:24:00
Lat.              40.133
Long.             141.712
Depth. (km)       71
Mag.              6.0
Station Code      IWTH02
Station Lat.      39.8250
Station Long.     141.3826
Station Height(m) 572.5
Record Time       2024/04/02 04:24:50
Sampling Freq(Hz) 100Hz
Duration Time(s)  137
Dir.              1
Scale Factor      2942(gal)/8224139
Max. Acc. (gal)   34.200
Last Correction   2024/04/02 04:24:50
Memo.             
[...]
  207817   207819   207816   207814   207817   207817   207813   207816 
  207817   207814   207814   207816   207817   207820   207819   207816 
  207817   207819   207817   207817   207817   207816   207816   207816 
  207816   207814   207817   207820   207817   207814   207814   207816 
  207820   207817   207814   207819   207820   207819   207816   207816 
  207817   207819   207819   207816   207814   207817   207817   207813 
  207813   207817   207819   207819   207817   207817   207816   207816 
  207820   207819   207817   207819   207817   207816   207819   207819 
  207817   207816   207814   207817   207817   207816   207817   207814 
  207813   207817   207819   207817   207819   207819   207817   207817 
  207814   207814   207817   207817   207817   207817   207814   207816 
  207819   207817   207817   207819   207816   207819   207819   207813 
  207813   207819   207820   207817   207817   207817   207817   207819 
  207819   207816   207817   207820   207817   207817   207820   207817 
  207816   207816   207814   207817   207817   207819   207819   207816 
  207816   207819   207817   207817   207817   207817   207817   207816 
  207817   207819   207819   207819   207819   207819   207820   207817 
  207816   207816   207816   207817   207819   207817   207817   207819 
  207820   207820   207819   207819   207817   207816   207816   207819 
  207819   207817   207819   207820   207819   207814   207816   207821 
  207817   207814   207819   207819   207817   207820   207819   207817 
  207817   207819   207817   207819   207820   207819   207819   207819 
  207817   207817   207817   207817   207816   207816   207817   207820 
  207820   207819   207816   207816   207816   207817   207819   207816 
  207814   207819   207820   207819   207817   207817   207817   207816 
  207817   207820   207820   207817   207817   207819   207819   207817 
  207817   207816   207816   207819   207817   207816   207817   207819 
  207816   207816   207814   207814   207817   207819   207817   207817 
  207819   207819   207817   207817   207819   207819   207817   207817 
  207817   207817   207817   207816   207816   207819   207816   207814 
  207817   207817   207817   207817   207817   207817   207819   207817 
  207817   207819   207819   207817   207816   207819   207819   207816 
  207817   207817   207817   207819   207817   207814   207816   207817 
  207819   207819   207816   207819   207820   207819   207820   207819 
  207816   207819   207821   207820   207817   207814   207816   207817 
  207817   207817   207817   207817   207817   207816   207819   207820 
  207817   207816   207819   207820   207819   207819   207819   207819 
  207814   207814   207817   207817   207816   207814   207817   207819 
  207819   207814   207814   207819   207819   207816   207816   207817 
  207817   207816   207816   207817   207816   207814   207817   207816 
  207814   207816   207817   207819   207817   207814   207816   207817 
  207814   207816   207821   207820   207816   207817   207817   207817 
  207817   207817   207819   207817   207816   207817   207817   207816 
  207816   207819   207819   207817   207819   207817   207816   207817 
  207817   207817   207817   207817   207817   207816   207816   207817 
  207816   207814   207817   207819   207816   207817   207817   207817 
  207816   207816   207817   207817   207816   207817   207820   207819 
  207817   207817   207817   207817   207819   207819   207819   207819 
  207816   207816   207819   207814   207814   207819   207817   207816 
  207817   207816   207814   207814   207814   207817   207817   207816 
  207816   207816   207819   207819   207816   207817   207819   207817 
  207816   207817   207816   207817   207819   207817   207816   207817 
  207816   207814   207817   207820   207817   207814   207817   207817 
  207814   207814   207816   207817   207817   207819   207817   207817 
  207817   207817   207817   207816   207816   207817   207817   207817 
  207816   207814   207816   207819   207817   207817   207817   207813 
  207814   207820   207820   207819   207816   207814   207816   207817 
  207817   207816   207816   207817   207819   207814   207813   207814 
  207817   207817   207814   207817   207819   207817   207816   207819 
  207819   207817   207817   207820   207820   207817   207816   207819 
  207820   207816   207813   207816   207819   207819   207817   207817 
  207817   207817   207817   207819   207819   207817   207817   207819 
  207817   207816   207816   207816   207814   207816   207820   207817 
  207817   207817   207813   207813   207817   207816   207809   207804 
  207793   207782   207773   207756   207732   207706   207675   207628 
  207570   207515   207490   207505   207511   207477   207490   207604 
  207698   207648   207574   207716   207983   207983   207720   207624 
  207843   208030   207767   207350   207600   208375   208656   208295 
  208224   208434   207940   207256   207427   207901   208190   208256 
  207608   206879   207296   207696   206759   206610   208209   208595 
  207090   206436   207207   207820   207874   207373   206659   206728 
  207241   207453   207863   209198   209960   208367   206680   206763 
  207268   208017   208857   208332   206878   205656   204913   206012 
  208485   208506   206485   206259   206749   205946   205596   206261 
  207522   209120   208377   206035   206415   208184   207485   206167 
  208255   210552   208930   208167   210265   210753   209264   207787 
  207543   209016   210382   209707   208519   209214   208441   205056 
  205224   208445   210057   210217   208907   206605   204942   205090 
  207796   210879   212330   212326   209842   205690   205259   209200 
  210446   208252   208693   210402   208564   206050   208302   211831 
  208904   203077   203094   208488   212656   212076   208363   202967 
  200203   204088   209089   211519   211889   209124   205529   204403 
  205641   207291   210128   212093   210373   209949   208963   205401 
  206238   208468   207893   208866   211023   210363   207713   208063 
  209898   207442   206116   209649   209309   206544   208276   208117 
  204796   204203   205729   208642   209692   206685   205864   206513 
  203019   203315   209583   209642   206253   206999   208522   209347 
  208329   207520   209800   210307   209912   211943   211774   209260 
  207171   205083   204415   205013   207492   211797   210876   206423 
  207423   209121   205683   204430   208327   209443   206223   205951 
  208870   207998   204533   205089   207511   208036   209048   210886 
  211049   209692   207690   204849   204722   208248   209499   209243 
  209642   206882   202544   201393   205063   209900   210181   208195 
  209247   210269   205853   201976   205054   209156   209096   205764 
  203265   204620   205625   206440   209652   208283   205387   210136 
  212781   207497   205286   208892   211037   209660   208951   209340 
  207069   204931   206857   207053   204940   209532   213428   205804 
  200485   206463   211088   209034   207219   206640   205803   208549 
  211203   208657   206238   205272   205673   208839   210489   211238 
  211503   208591   208052   210189   208727   206317   205637   206878 
  211135   212322   208008   206073   208075   207786   205565   206477 
  208273   206999   205735   207199   209731   210479   207855   205565 
  205993   206782   209700   212376   208129   204472   209563   213466 
  209603   206864   207517   205425   205241   210428   209541   203732 
  206574   210559   207597   207127   208981   208692   208279   208001 
  209869   210991   208105   206132   205258   205654   208604   208863 
  207949   210589   211173   206752   204471   207231   209310   207956 
  207061   208477   208931   207061   206691   208384   208194   208232 
  209413   206721   204952   209461   211908   208917   207218   207098 
  206027   207584   210346   207759   204025   204866   206604   207023 
  207157   207293   206679   206265   207786   207273   206163   210366 
  211557   206512   207183   210595   207806   205044   205642   206520 
  208869   211374   209636   207112   207573   206824   206416   207825 
  206421   206680   211033   211585   207230   204665   206101   207578 
  207794   209213   210315   208110   206699   209117   209056   205681 
  205078   206437   207148   207990   208346   207526   207214   207832 
  206903   204873   206771   210853   210945   210516   210747   207436 
  204696   203407   202375   207603   213852   211454   207917   208900 
  207535   205201   207675   208641   203728   204025   212600   213170 
  204064   201754   206693   208934   208363   207916   207482   207400 
  207971   207253   205536   206182   209240   210936   209085   207555 
  208904   209001   208680   209703   207173   205791   211329   213129 
  208175   206261   206307   205205   206826   209097   208113   206655 
  206189   205294   205935   207958   208491   209675   212568   211862 
  206624   204417   206737   208017   208429   208666   207231   206551 
  207347   208145   209449   209367   207162   207999   211428   210300 
  207627   208985   208170   204912   205903   206980   205676   206910 
  209112   208785   207007   205665   205641   207095   209451   210320 
  208391   205156   204701   209166   211873   209532   207044   205645 
  206575   210402   211065   207596   207269   209985   207640   201799 
  202856   210483   215593   215140   209548   202699   201607   204475 
  206308   207963   209337   209501   209394   207832   204969   204253 
  205499   207516   210737   211863   208561   204784   205402   208737 
  209479   208535   208712   208645   208633   210153   210332   207439 
  206143   209046   210120   206968   207415   209494   206019   205009 
  208623   208151   206567   207117   205613   204880   207162   207751 
  208656   211339   207010   199609   202872   210512   212106   210694 
  208117   205694   206134   208282   210814   211577   208589   205100 
  205754   210114   212939   210991   207289   204174   202000   205127 
  210833   210875   208819   209185   207747   204736   206367   209891 
  207860   205914   208735   209447   207954   207882   207405   207597 
  209804   211171   210276   208094   206234   206608   209152   209764 
  206506   205303   208132   209129   208464   209007   208276   205713 
  203895   204984   209229   212144   209659   205159   203678   205015 
  208117   211114   209879   207562   208661   208344   206718   207966 
  208074   207184   207881   206294   204543   206682   208326   207027 
  205054   203963   206123   210346   210560   207951   207598   206837 
  206158   209151   210861   209147   207715   208033   209366   208321 
  205534   204962   206945   210308   210398   206682   206282   209009 
  209725   207655   206076   208554   210501   207701   206832   208877 
  207469   206752   209852   209277   205409   206058   209445   209318 
  207863   206969   203451   202868   209698   214208   210888   205765 
  205510   208863   209339   208417   209256   210074   209175   205748 
  205811   209730   208233   205229   206929   208700   209545   210783 
  210766   209603   206988   202759   203318   209344   209625   205295 
  205772   206428   202969   201966   206367   210014   209551   208782 
  207910   205754   205144   207071   209979   210325   208198   207967 
  207207   205896   208585   209243   206253   206963   208538   208894 
  211009   209883   205918   207044   209549   207235   204608   205725 
  209552   211634   208724   207671   210118   207076   203793   208743 
  212733   210847   208915   207184   204890   205050   207226   207783 
  207535   209807   211547   208434   204394   205033   208441   209121 
  206404   205561   208014   208421   206598   206165   206706   208039 
  210145   209596   206925   207624   208846   206780   206783   209641 
  210263   207982   207198   208638   208188   207589   208099   207526 
  207885   208230   207341   208198   209772   209682   209015   208602 
  207756   207913   209004   207247   205004   206498   208392   208585 
  208641   207630   206915   209328   210663   208492   207493   208217 
  209509   210582   207755   205317   209102   210799   204963   203860 
  211184   212677   209179   209194   207571   205742   207473   208480 
  209308   209987   208533   208064   208604   206880   205395   207339 
  209285   207395   203239   201388   204904   208251   205603   203284 
  205266   207238   207369   206547   206248   206567   207285   208624 
  208691   208403   209012   207796   207304   209721   210547   211443 
  213424   211053   208615   209579   206612   202721   206307   210825 
  209559   208226   208724   208147   209270   212599   212704   206799 
  200233   199632   204911   213355   218123   214570   212121   213217 
  208537   204766   210741   216992   217431   215068   211377   209968 
  211041   210789   212248   217983   223431   224746   222451   220417 
  220835   218897   213124   211106   212480   211824   214624   218362 
  209757   197392   198763   207138   210847   214435   219117   215503 
  206251   206396   217987   228538   231773   230801   225936   215250 
  203639   196519   190120   184804   187550   192933   192681   187825 
  180813   180268   191431   203196   206296   200556   194211   200599 
  214686   223179   230524   241628   249008   247145   238512   232695 
  238137   247048   244852   230445   216720   213389   211180   204025 
  200165   195728   188100   184642   173233   141509   112213   112612 
  132584   148697   160029   171855   176751   170232   167016   178312 
  184632   174455   173442   193757   217386   234137   245839   252574 
  252045   245284   236019   225934   212525   190854   171659   171248 
  184520   203658   221238   220160   200241   180875   177388   187258 
  197419   204564   203565   190204   181128   181516   184808   204103 
  234850   245496   232100   213355   201395   205621   217229   223361 
  234079   242962   232276   219385   222143   231047   238716   243909 
  245493   250376   265723   282421   277327   249293   225475   209729 
  192373   188360   195786   192473   183301   178368   174550   178684 
  193060   206460   216199   218127   202891   180918   171332   171629 
  171660   176466   185464   191261   198103   203423   203948   207381 
  208091   200448   194992   199158   210084   219609   230372   247185 
  252925   240826   235818   246686   250954   242555   232537   219627 
  209942   206767   192832   181371   194151   201037   185332   177373 
  184746   190513   194732   199525   198293   195924   196493   192649 
  189918   197534   207272   210312   212130   217852   217552   210465 
  211022   213595   210627   213899   218076   210579   206755   217274 
  222751   215314   212380   214389   208967   205424   211831   214726 
  208662   201942   197210   195243   197708   203307   208462   208272 
  207928   211723   208538   199625   197579   199521   200799   206651 
  213553   213972   218727   229207   228302   220673   218112   217393 
  213298   202566   194965   199593   206911   214378   223558   223079 
  213591   208757   208585   211815   221522   228645   228118   223125 
  211573   198487   199573   217421   231202   225583   209212   192897 
  177873   171339   183552   204696   216695   214324   199897   184603 
  180862   185963   191658   196516   200226   199203   196069   199700 
  206111   202837   195886   196933   201249   203509   203467   205032 
  215082   225343   222466   212971   213490   223438   227994   225232 
  221409   213761   203543   202741   213926   225271   226336   217474 
  211241   214628   215002   204726   195524   196331   204919   214195 
  211947   199813   195755   200848   206505   214045   217649   210396 
  202485   203068   205270   204417   205380   205799   203924   207366 
  212778   212606   210342   206285   200254   201653   210967   213424 
  207206   204375   203837   202363   203821   203337   199893   200159 
  199442   195930   197878   204025   210169   213760   207771   199490 
  203177   210269   211758   214787   216452   213000   211451   210423 
  208967   210358   207794   198297   192337   200680   217528   222340 
  214219   211403   210562   202738   201943   212479   216340   208853 
  203939   204300   202721   202892   205942   206346   208796   213186 
  213016   214254   217283   213528   208427   209344   211763   212445 
  213074   213133   211316   208737   207631   208874   211445   214830 
  216392   212980   210419   214435   217553   212653   204514   198452 
  196096   200647   209601   212345   209646   212526   211697   199161 
  196011   202980   201600   202186   209228   208391   204071   203031 
  200696   200038   205359   210683   211090   209031   205738   201714 
  200682   205719   214114   215446   205363   195184   194803   202080 
  209764   211372   208171   205256   204539   208758   213484   211728 
  209984   212392   212868   210550   208738   206998   205272   206680 
  210654   211535   210739   214443   216241   211678   209324   209137 
  210672   219208   224579   216997   205869   203777   210724   215901 
  215932   213592   207673   204263   206612   208399   210621   212773 
  210609   208473   207220   202366   198882   202076   204894   201694 
  198135   199266   203935   209706   212325   209185   203092   198649 
  203364   215300   217044   208904   207060   207142   202142   201175 
  206622   211481   209289   200619   196719   199705   200836   201009 
  203137   203625   201534   200300   201853   203145   204169   207581 
  208340   204870   203759   205715   208116   211476   212336   206572 
  201772   205819   214166   221017   222870   219164   216687   217745 
  217382   214548   210875   209209   212519   214037   207832   202224 
  202238   204942   208236   209251   209196   208117   203632   200893 
  203391   206983   206971   205471   207925   210158   208944   208195 
  205070   200209   201970   206996   207049   206950   210789   210483 
  205248   204772   208144   208471   208850   210955   209741   207315 
  208182   209696   208649   206639   204907   201309   199265   201677 
  201417   197959   197658   199822   201969   203646   205218   205083 
  202833   205364   212044   213722   211609   211813   214019   214135 
  210547   207898   209403   211216   212194   215354   217151   212310 
  205679   204912   208380   209607   208672   210330   210968   205762 
  201780   202703   203953   205191   206493   205445   202556   203462 
  210058   211951   206388   206766   213228   212153   205830   207091 
  214419   216648   214139   214091   214686   213437   213876   215856 
  215265   213055   212128   209058   203654   201550   202544   206554 
  212946   213597   209727   209125   207621   203257   203808   209382 
  211751   209584   208643   208417   206317   205173   204253   202691 
  205200   209502   208533   205633   205160   205515   209437   215212 
  215077   211910   211057   209214   206586   208068   209110   202304 
  195462   199706   207125   207871   207909   208018   204846   205745 
  209634   209353   210023   212668   210865   207361   206192   205235 
  204757   207121   211702   214226   211322   208522   209765   208267 
  205920   210489   214401   211804   209695   208176   205492   206767 
