Origin Time       2024/04/02 04:24:00
Lat.              40.133
Long.             141.712
Depth. (km)       71
Mag.              6.0
Station Code      KKWH14
Station Lat.      43.3841
Station Long.     142.5245
Station Height(m) 389
Record Time       2024/04/02 04:26:09
Sampling Freq(Hz) 100Hz
Duration Time(s)  120
Dir.              5
Scale Factor      7845(gal)/8223790
Max. Acc. (gal)   0.726
Last Correction   2024/04/02 04:26:10
Memo.             
[...]
   37438    37438    37419    37393    37368    37332    37287    37242 
   37206    37188    37206    37250    37309    37368    37378    37324 
   37249    37204    37215    37270    37334    37361    37350    37326 
   37326    37358    37396    37404    37370    37314    37264    37241 
   37242    37254    37260    37250    37238    37241    37268    37316 
   37378    37427    37422    37358    37251    37135    37050    37022 
   37050    37126    37233    37346    37426    37447    37422    37370 
   37318    37291    37280    37276    37292    37336    37392    37432 
   37436    37403    37347    37297    37272    37268    37278    37299 
   37319    37331    37336    37334    37303    37228    37133    37071 
   37081    37168    37281    37343    37312    37215    37123    37096 
   37145    37242    37336    37390    37396    37374    37361    37366 
   37366    37346    37322    37304    37297    37312    37345    37372 
   37361    37318    37287    37282    37289    37288    37272    37250 
   37239    37251    37273    37282    37276    37264    37265    37308 
   37395    37488    37528    37481    37358    37233    37188    37226 
   37270    37262    37201    37134    37115    37162    37255    37351 
   37415    37420    37372    37297    37234    37196    37199    37237 
   37287    37323    37336    37323    37293    37265    37254    37261 
   37288    37331    37363    37346    37269    37164    37072    37030 
   37039    37068    37088    37112    37164    37242    37323    37395 
   37436    37427    37377    37314    37266    37258    37285    37326 
   37354    37341    37289    37247    37247    37281    37324    37358 
   37382    37411    37438    37451    37436    37366    37253    37153 
   37111    37137    37201    37268    37323    37374    37411    37423 
   37412    37380    37332    37276    37218    37181    37189    37245 
   37324    37386    37401    37365    37311    37282    37312    37395 
   37486    37544    37544    37492    37403    37297    37212    37174 
   37177    37196    37208    37211    37231    37305    37434    37559 
   37609    37552    37417    37273    37187    37174    37211    37260 
   37273    37226    37145    37085    37081    37134    37208    37255 
   37268    37255    37234    37228    37255    37301    37327    37312 
   37269    37230    37226    37268    37331    37373    37373    37357 
   37345    37347    37370    37384    37353    37280    37206    37172 
   37193    37249    37303    37328    37309    37262    37223    37204 
   37206    37224    37242    37243    37241    37258    37299    37343 
   37373    37384    37386    37384    37373    37343    37311    37299 
   37307    37328    37362    37404    37438    37440    37412    37374 
   37336    37305    37292    37296    37304    37297    37270    37223 
   37173    37157    37199    37282    37368    37427    37442    37382 
   37264    37149    37084    37081    37130    37204    37264    37273 
   37241    37212    37224    37284    37366    37420    37419    37378 
   37345    37353    37369    37324    37211    37098    37046    37075 
   37169    37269    37316    37304    37276    37270    37291    37323 
   37343    37332    37314    37326    37369    37412    37446    37473 
   37454    37377    37278    37203    37180    37214    37276    37322 
   37341    37346    37345    37339    37346    37357    37358    37362 
   37363    37339    37288    37227    37177    37160    37193    37265 
   37336    37388    37413    37404    37362    37309    37261    37228 
   37228    37268    37312    37304    37228    37138    37102    37152 
   37262    37374    37442    37438    37368    37277    37222    37227 
   37269    37289    37258    37211    37195    37216    37262    37296 
   37272    37196    37122    37116    37210    37342    37419    37399 
   37311    37220    37169    37168    37204    37247    37292    37345 
   37401    37434    37405    37309    37207    37169    37212    37285 
   37338    37355    37361    37377    37400    37411    37408    37396 
   37374    37336    37289    37254    37254    37285    37309    37308 
   37278    37227    37189    37210    37293    37400    37470    37444 
   37320    37183    37134    37199    37316    37400    37409    37359 
   37289    37237    37231    37281    37351    37405    37426    37413 
   37381    37324    37237    37131    37037    37002    37056    37192 
   37361    37489    37528    37488    37397    37287    37200    37172 
   37196    37247    37304    37359    37412    37463    37497    37481 
   37385    37234    37092    37029    37062    37158    37268    37345 
   37359    37322    37281    37285    37335    37395    37423    37400 
   37343    37292    37254    37226    37228    37266    37301    37308 
   37299    37292    37288    37276    37243    37208    37193    37187 
   37176    37169    37177    37192    37206    37208    37212    37233 
   37255    37265    37269    37272    37285    37326    37377    37400 
   37374    37291    37165    37060    37034    37112    37272    37451 
   37577    37615    37574    37476    37351    37249    37211    37249 
   37324    37388    37405    37378    37327    37288    37292    37322 
   37339    37331    37309    37282    37245    37216    37212    37219 
   37212    37189    37165    37170    37242    37386    37557    37660 
   37621    37453    37249    37107    37077    37149    37260    37350 
   37384    37362    37316    37282    37270    37254    37218    37181 
   37170    37196    37247    37311    37366    37385    37351    37280 
   37207    37166    37166    37195    37235    37273    37303    37320 
   37324    37336    37376    37424    37436    37386    37287    37188 
   37135    37137    37180    37250    37326    37382    37412    37428 
   37446    37465    37478    37478    37462    37411    37315    37195 
   37107    37099    37164    37246    37293    37297    37264    37222 
   37206    37246    37336    37422    37439    37376    37273    37204 
   37218    37309    37444    37562    37586    37492    37334    37200 
   37145    37160    37197    37203    37180    37168    37192    37251 
   37324    37389    37424    37411    37355    37296    37276    37292 
   37304    37297    37284    37276    37268    37261    37251    37233 
   37206    37176    37153    37142    37154    37196    37250    37291 
   37305    37300    37308    37368    37471    37573    37598    37505 
   37336    37179    37095    37118    37233    37365    37438    37417 
   37336    37262    37242    37266    37291    37281    37245    37215 
   37210    37237    37291    37351    37389    37389    37368    37362 
   37373    37372    37347    37297    37237    37197    37197    37223 
   37262    37304    37338    37366    37400    37424    37423    37401 
   37357    37288    37195    37100    37045    37050    37110    37203 
   37303    37382    37438    37461    37438    37376    37285    37192 
   37125    37104    37115    37130    37141    37149    37158    37193 
   37266    37359    37430    37439    37373    37257    37142    37079 
   37088    37158    37237    37278    37280    37270    37285    37318 
   37343    37342    37304    37249    37211    37210    37260    37351 
   37443    37484    37466    37415    37372    37373    37407    37430 
   37422    37380    37318    37274    37276    37309    37350    37373 
   37380    37404    37467    37544    37579    37546    37444    37299 
   37154    37061    37038    37058    37089    37130    37188    37268 
   37357    37430    37447    37392    37296    37216    37189    37220 
   37285    37345    37362    37341    37311    37288    37277    37303 
   37372    37446    37486    37473    37396    37278    37179    37134 
   37152    37197    37228    37230    37219    37219    37242    37274 
   37305    37334    37358    37369    37361    37339    37301    37261 
   37247    37272    37326    37377    37384    37335    37258    37204 
   37206    37238    37255    37249    37235    37235    37262    37308 
   37330    37300    37230    37157    37129    37170    37269    37377 
   37426    37376    37272    37199    37195    37239    37277    37265 
   37210    37139    37098    37126    37226    37354    37436    37422 
   37320    37201    37138    37161    37241    37339    37426    37469 
   37462    37436    37409    37372    37314    37247    37172    37096 
   37072    37141    37265    37369    37397    37342    37264    37238 
   37282    37342    37361    37334    37291    37251    37242    37277 
   37320    37314    37239    37156    37153    37262    37419    37535 
   37565    37507    37403    37305    37262    37278    37318    37339 
   37338    37336    37363    37407    37426    37411    37368    37300 
   37246    37233    37224    37183    37110    37038    37004    37048 
   37187    37377    37543    37624    37598    37498    37381    37299 
   37285    37319    37358    37390    37423    37449    37459    37457 
   37436    37392    37309    37214    37156    37138    37143    37164 
   37183    37184    37168    37152    37157    37177    37183    37180 
   37206    37262    37332    37384    37376    37301    37199    37107 
   37052    37049    37111    37212    37305    37362    37378    37357 
   37314    37270    37224    37196    37223    37296    37366    37399 
   37386    37350    37324    37324    37342    37359    37358    37342 
   37330    37332    37349    37357    37339    37289    37211    37120 
   37054    37049    37115    37226    37345    37442    37512    37540 
   37513    37453    37393    37353    37320    37280    37227    37184 
   37176    37218    37287    37332    37331    37309    37292    37304 
   37366    37442    37459    37382    37249    37129    37075    37093 
   37158    37227    37266    37266    37235    37191    37142    37102 
   37096    37145    37215    37261    37270    37254    37230    37207 
   37179    37146    37129    37138    37174    37220    37273    37339 
   37411    37462    37469    37419    37318    37223    37189    37215 
   37268    37323    37349    37327    37288    37258    37243    37249 
   37276    37304    37309    37304    37316    37349    37380    37381 
   37338    37278    37247    37270    37341    37431    37517    37577 
   37597    37574    37516    37438    37351    37270    37211    37199 
   37238    37297    37338    37354    37369    37393    37393    37335 
   37230    37141    37127    37195    37312    37420    37469    37458 
   37420    37378    37327    37269    37208    37137    37050    36964 
   36887    36829    36814    36845    36915    37019    37134    37234 
   37327    37428    37532    37608    37616    37532    37380    37218 
   37116    37111    37180    37291    37417    37521    37562    37532 
   37462    37389    37338    37301    37255    37207    37164    37141 
   37160    37224    37315    37404    37461    37470    37443    37416 
   37426    37481    37552    37596    37581    37513    37427    37338 
   37230    37111    37017    36987    37046    37173    37316    37430 
   37489    37497    37482    37466    37442    37380    37276    37179 
   37150    37183    37241    37300    37331    37309    37238    37162 
   37142    37207    37309    37377    37365    37281    37184    37120 
   37115    37174    37277    37363    37411    37436    37471    37523 
   37566    37567    37505    37376    37220    37106    37066    37081 
   37098    37084    37057    37077    37187    37372    37569    37687 
   37669    37544    37401    37319    37316    37362    37400    37400 
   37370    37338    37309    37289    37291    37296    37277    37233 
   37212    37254    37349    37454    37523    37524    37463    37386 
   37351    37372    37401    37396    37362    37332    37330    37361 
   37380    37323    37176    36990    36855    36841    36957    37134 
   37277    37341    37346    37320    37305    37331    37377    37390 
   37341    37243    37165    37152    37208    37312    37420    37492 
   37517    37509    37454    37328    37152    36984    36882    36886 
   37010    37200    37373    37477    37493    37431    37335    37255 
   37210    37192    37180    37164    37162    37195    37257    37315 
   37326    37287    37242    37234    37266    37319    37362    37363 
   37322    37280    37289    37345    37405    37439    37427    37374 
   37319    37301    37332    37392    37434    37422    37365    37314 
   37308    37345    37386    37390    37339    37235    37114    37050 
   37071    37115    37119    37064    36992    36972    37039    37168 
   37289    37338    37284    37153    37007    36917    36913    36971 
   37027    37046    37053    37103    37231    37417    37579    37644 
   37589    37457    37328    37258    37251    37285    37332    37363 
   37374    37389    37416    37427    37390    37326    37276    37270 
   37314    37368    37386    37357    37287    37197    37139    37156 
   37247    37366    37466    37528    37551    37540    37501    37439 
   37363    37272    37158    37057    37027    37104    37269    37457 
   37588    37619    37548    37404    37251    37169    37187    37254 
   37299    37288    37249    37243    37303    37376    37376    37269 
   37095    36961    36961    37108    37357    37624    37798    37795 
   37635    37432    37295    37247    37228    37154    37018    36888 
   36840    36909    37079    37308    37548    37754    37893    37962 
   37955    37849    37625    37297    36938    36656    36532    36574 
   36733    36929    37073    37141    37157    37165    37192    37238 
   37284    37315    37315    37287    37265    37269    37280    37278 
   37284    37347    37489    37669    37812    37852    37763    37571 
   37349    37174    37085    37056    37033    36984    36942    36972 
   37093    37269    37436    37535    37532    37457    37374    37324 
   37311    37315    37327    37362    37432    37511    37567    37579 
   37542    37442    37301    37174    37102    37089    37126    37204 
   37323    37463    37575    37602    37521    37368    37223    37169 
   37227    37378    37566    37705    37747    37694    37594    37493 
   37403    37300    37179    37066    37014    37034    37095    37156 
   37197    37223    37255    37323    37416    37493    37516    37488 
   37446    37419    37413    37409    37362    37233    37050    36907 
   36868    36949    37107    37242    37287    37258    37207    37169 
   37156    37138    37106    37073    37058    37077    37141    37230 
   37305    37324    37270    37189    37149    37174    37231    37277 
   37293    37292    37289    37291    37303    37338    37384    37393 
   37330    37191    37034    36929    36909    36975    37111    37276 
   37426    37542    37590    37551    37453    37347    37273    37239 
   37239    37277    37347    37409    37434    37409    37339    37249 
   37162    37104    37116    37216    37366    37511    37621    37671 
   37633    37497    37297    37092    36953    36925    36988    37085 
   37165    37187    37139    37048    36967    36941    36980    37064 
   37162    37254    37331    37413    37519    37616    37635    37515 
   37264    36980    36792    36780    36930    37152    37343    37455 
   37494    37504    37520    37530    37488    37370    37208    37068 
   36994    36980    36999    37029    37056    37098    37174    37299 
   37470    37667    37835    37906    37844    37670    37474    37336 
   37261    37210    37158    37127    37157    37246    37346    37401 
   37401    37381    37388    37439    37508    37535    37469    37309 
   37139    37085    37206    37438    37651    37735    37642    37439 
   37270    37222    37280    37377    37430    37385    37284    37214 
   37237    37328    37393    37365    37264    37166    37143    37220 
   37369    37531    37643    37678    37652    37606    37555    37477 
   37353    37200    37072    37029    37093    37226    37339    37351 
   37238    37064    36937    36925    37021    37143    37197    37149 
   37066    37037    37093    37212    37334    37403    37423    37446 
   37515    37635    37762    37833    37797    37673    37521    37396 
   37324    37299    37268    37187    37069    36981    36992    37114 
   37280    37407    37453    37436    37400    37374    37354    37319 
   37265    37222    37230    37304    37426    37539    37574    37508 
   37388    37297    37293    37393    37552    37674    37689    37597 
   37457    37338    37280    37253    37200    37108    37004    36942 
   36976    37123    37368    37640    37840    37889    37793    37619 
   37435    37261    37076    36877    36698    36582    36595    36775 
   37065    37370    37604    37709    37679    37544    37355    37161 
   36988    36861    36783    36733    36729    36809    36964    37143 
   37300    37393    37412    37378    37320    37251    37191    37146 
   37116    37106    37110    37112    37091    37027    36949    36921 
   36988    37138    37280    37343    37324    37250    37162    37118 
   37127    37152    37142    37083    37000    36957    36991    37102 
   37260    37401    37463    37459    37455    37482    37535    37584 
   37582    37524    37457    37422    37413    37404    37380    37349 
   37324    37314    37311    37314    37327    37382    37512    37692 
   37835    37859    37732    37485    37195    36957    36852    36891 
   37027    37181    37273    37272    37197    37112    37081    37139 
   37266    37415    37528    37578    37588    37577    37539    37447 
   37276    37052    36865    36784    36836    37011    37253    37453 
   37527    37453    37270    37079    36967    36973    37072    37192 
   37269    37262    37193    37138    37162    37274    37440    37590 
   37660    37639    37573    37528    37539    37582    37597    37542 
   37419    37268    37142    37100    37168    37303    37416    37440 
   37366    37246    37156    37147    37206    37277    37338    37392 
   37443    37501    37569    37628    37658    37646    37574    37457 
   37341    37241    37143    37052    36985    36968    36991    37010 
   36990    36938    36887    36872    36918    37033    37196    37359 
   37455    37462    37409    37330    37227    37088    36913    36742 
   36649    36694    36875    37130    37380    37550    37589    37494 
   37315    37133    37018    36979    36981    37017    37087    37200 
   37373    37590    37791    37903    37902    37809    37669    37532 
   37443    37413    37420    37442    37458    37447    37419    37401 
   37412    37444    37486    37519    37539    37562    37606    37669 
   37727    37736    37665    37520    37350    37215    37157    37172 
   37216    37251    37239    37154    37018    36911    36911    37039 
   37241    37404    37449    37393    37315    37277    37293    37328 
   37336    37296    37216    37161    37206    37355    37536    37647 
   37636    37535    37423    37363    37368    37407    37449    37476 
   37493    37517    37561    37601    37589    37477    37278    37068 
   36922    36900    37017    37201    37358    37449    37500    37540 
   37571    37574    37519    37386    37204    37039    36957    36996 
   37141    37309    37416    37450    37444    37420    37366    37291 
