Origin Time       2024/04/02 04:24:00
Lat.              40.133
Long.             141.712
Depth. (km)       71
Mag.              6.0
Station Code      KKWH14
Station Lat.      43.3841
Station Long.     142.5245
Station Height(m) 389
Record Time       2024/04/02 04:26:09
Sampling Freq(Hz) 100Hz
Duration Time(s)  120
Dir.              6
Scale Factor      7845(gal)/8223790
Max. Acc. (gal)   0.373
Last Correction   2024/04/02 04:26:10
Memo.             
[...]
    4584     4633     4683     4712     4730     4750     4758     4734 
    4692     4657     4604     4517     4438     4446     4550     4662 
    4712     4718     4726     4739     4737     4716     4702     4691 
    4662     4618     4584     4590     4629     4673     4699     4691 
    4630     4548     4525     4571     4642     4695     4698     4661 
    4629     4612     4588     4554     4536     4536     4544     4563 
    4606     4646     4645     4611     4573     4537     4540     4612 
    4693     4693     4630     4588     4612     4672     4693     4650 
    4592     4548     4491     4434     4421     4459     4533     4625 
    4707     4750     4741     4687     4627     4604     4612     4607 
    4579     4587     4657     4710     4673     4591     4530     4509 
    4529     4577     4641     4714     4764     4749     4695     4662 
    4658     4641     4612     4602     4603     4600     4595     4580 
    4546     4519     4529     4573     4621     4645     4658     4687 
    4712     4693     4612     4513     4469     4507     4552     4554 
    4560     4622     4715     4758     4725     4660     4619     4608 
    4602     4599     4621     4673     4726     4735     4692     4642 
    4617     4611     4625     4637     4608     4554     4531     4576 
    4653     4680     4630     4579     4588     4652     4720     4743 
    4716     4681     4656     4645     4658     4675     4669     4671 
    4712     4772     4799     4776     4727     4704     4707     4684 
    4626     4567     4538     4554     4585     4602     4615     4648 
    4689     4743     4795     4811     4787     4725     4619     4515 
    4473     4507     4568     4591     4565     4546     4581     4633 
    4638     4610     4603     4626     4627     4587     4540     4517 
    4530     4565     4600     4626     4653     4685     4712     4708 
    4658     4591     4556     4568     4603     4631     4634     4598 
    4550     4537     4567     4630     4711     4770     4765     4681 
    4571     4515     4537     4588     4626     4649     4685     4738 
    4774     4776     4762     4749     4718     4673     4634     4606 
    4572     4515     4453     4464     4549     4618     4629     4635 
    4695     4764     4757     4683     4623     4599     4568     4518 
    4503     4549     4604     4614     4595     4614     4692     4764 
    4780     4765     4757     4753     4719     4642     4549     4495 
    4507     4544     4569     4602     4660     4704     4706     4695 
    4707     4714     4688     4641     4587     4544     4530     4550 
    4588     4621     4626     4607     4583     4568     4580     4630 
    4702     4742     4699     4573     4456     4436     4495     4564 
    4619     4676     4722     4742     4758     4791     4792     4715 
    4610     4557     4560     4575     4573     4576     4614     4683 
    4735     4749     4753     4764     4742     4648     4541     4513 
    4563     4627     4677     4716     4727     4696     4648     4612 
    4594     4565     4522     4492     4492     4519     4563     4611 
    4652     4673     4661     4618     4581     4591     4625     4629 
    4579     4510     4491     4545     4623     4658     4644     4621 
    4633     4675     4731     4792     4812     4764     4675     4598 
    4575     4585     4571     4529     4517     4540     4553     4565 
    4631     4743     4799     4738     4629     4579     4602     4653 
    4703     4730     4712     4648     4552     4472     4469     4553 
    4671     4765     4814     4822     4800     4749     4676     4606 
    4580     4588     4580     4557     4552     4567     4600     4656 
    4722     4772     4772     4722     4665     4633     4646     4688 
    4681     4584     4464     4403     4423     4503     4607     4698 
    4730     4688     4608     4553     4546     4563     4561     4546 
    4529     4477     4417     4438     4569     4712     4789     4824 
    4858     4865     4803     4681     4572     4521     4500     4492 
    4534     4649     4770     4826     4807     4752     4699     4661 
    4623     4576     4527     4480     4467     4498     4537     4577 
    4639     4698     4723     4726     4712     4684     4657     4645 
    4626     4584     4549     4553     4580     4585     4571     4572 
    4618     4685     4712     4673     4610     4560     4519     4492 
    4496     4546     4630     4719     4766     4737     4653     4590 
    4600     4650     4688     4689     4669     4665     4676     4661 
    4622     4608     4627     4648     4666     4704     4753     4769 
    4727     4638     4558     4527     4545     4595     4668     4711 
    4679     4618     4599     4626     4665     4676     4644     4607 
    4594     4576     4549     4537     4530     4504     4475     4491 
    4583     4708     4780     4788     4777     4760     4718     4658 
    4615     4617     4638     4622     4579     4579     4642     4722 
    4761     4753     4726     4689     4656     4639     4637     4633 
    4630     4622     4599     4584     4602     4666     4760     4820 
    4797     4722     4666     4658     4658     4635     4594     4549 
    4514     4507     4549     4626     4691     4712     4677     4611 
    4572     4579     4604     4622     4611     4583     4567     4571 
    4584     4603     4634     4669     4688     4687     4679     4675 
    4675     4671     4661     4637     4600     4561     4522     4498 
    4513     4561     4614     4644     4653     4675     4712     4725 
    4677     4600     4567     4598     4637     4645     4630     4623 
    4633     4625     4591     4575     4606     4658     4696     4708 
    4704     4703     4710     4706     4685     4666     4675     4714 
    4764     4801     4799     4734     4638     4568     4545     4558 
    4594     4637     4650     4602     4537     4538     4634     4749 
    4776     4707     4638     4633     4649     4635     4611     4612 
    4612     4587     4577     4633     4712     4734     4676     4602 
    4573     4592     4622     4649     4671     4664     4629     4602 
    4610     4653     4700     4706     4672     4627     4584     4558 
    4581     4645     4693     4676     4603     4525     4471     4440 
    4434     4456     4511     4598     4681     4725     4743     4745 
    4708     4652     4623     4625     4606     4549     4511     4526 
    4564     4598     4645     4702     4733     4718     4666     4617 
    4599     4600     4598     4598     4588     4558     4540     4573 
    4642     4676     4654     4630     4652     4707     4747     4741 
    4714     4700     4683     4634     4590     4600     4639     4660 
    4657     4646     4638     4634     4618     4592     4584     4600 
    4627     4658     4677     4661     4626     4619     4649     4673 
    4661     4626     4603     4596     4588     4585     4606     4638 
    4664     4675     4675     4683     4699     4700     4692     4681 
    4657     4644     4676     4725     4722     4653     4561     4495 
    4467     4457     4459     4499     4607     4731     4781     4758 
    4734     4730     4735     4743     4746     4731     4703     4669 
    4662     4689     4712     4700     4654     4606     4573     4560 
    4552     4544     4534     4542     4579     4629     4665     4675 
    4673     4676     4666     4619     4537     4468     4468     4534 
    4600     4630     4638     4646     4662     4693     4714     4702 
    4680     4672     4656     4614     4584     4598     4618     4610 
    4571     4502     4433     4417     4457     4513     4571     4646 
    4745     4815     4780     4642     4503     4465     4537     4642 
    4716     4752     4754     4723     4658     4580     4545     4569 
    4602     4594     4571     4584     4634     4676     4683     4660 
    4644     4644     4621     4561     4519     4527     4552     4560 
    4538     4506     4521     4611     4716     4757     4734     4702 
    4677     4648     4607     4571     4544     4511     4475     4475 
    4530     4607     4668     4707     4725     4726     4706     4665 
    4619     4565     4506     4473     4488     4510     4522     4568 
    4671     4774     4814     4795     4760     4731     4711     4689 
    4688     4718     4727     4671     4579     4521     4526     4579 
    4639     4676     4679     4662     4657     4677     4700     4706 
    4722     4768     4795     4746     4657     4608     4627     4662 
    4662     4637     4622     4615     4575     4511     4467     4465 
    4487     4511     4544     4608     4683     4712     4687     4658 
    4658     4664     4645     4623     4619     4611     4590     4588 
    4630     4684     4692     4625     4526     4463     4459     4494 
    4546     4588     4569     4500     4459     4468     4487     4507 
    4563     4666     4770     4820     4815     4785     4745     4693 
    4638     4595     4585     4602     4619     4634     4653     4656 
    4615     4545     4484     4453     4449     4455     4473     4542 
    4644     4691     4638     4530     4441     4403     4411     4460 
    4542     4606     4627     4665     4752     4830     4857     4853 
    4827     4760     4662     4584     4567     4585     4588     4558 
    4546     4580     4608     4595     4579     4587     4591     4580 
    4583     4635     4710     4729     4673     4621     4625     4672 
    4746     4838     4912     4931     4891     4822     4770     4749 
    4727     4680     4604     4519     4446     4425     4488     4615 
    4730     4797     4833     4862     4885     4876     4826     4766 
    4725     4691     4654     4619     4608     4641     4681     4687 
    4660     4629     4610     4611     4623     4629     4600     4529 
    4461     4452     4483     4521     4565     4618     4677     4716 
    4708     4675     4665     4676     4645     4567     4523     4565 
    4638     4676     4680     4689     4712     4729     4737     4757 
    4773     4749     4688     4630     4603     4604     4612     4606 
    4603     4635     4687     4715     4695     4626     4557     4545 
    4599     4669     4712     4733     4754     4766     4737     4693 
    4702     4770     4849     4884     4855     4789     4720     4646 
    4560     4507     4530     4611     4677     4687     4672     4683 
    4704     4691     4660     4664     4692     4685     4633     4569 
    4530     4522     4538     4579     4652     4730     4780     4789 
    4750     4668     4564     4469     4430     4471     4536     4564 
    4577     4603     4625     4619     4575     4502     4438     4432 
    4453     4449     4440     4486     4599     4714     4769     4792 
    4850     4927     4930     4800     4587     4402     4330     4371 
    4457     4544     4630     4722     4779     4752     4644     4523 
    4461     4467     4490     4499     4502     4529     4580     4602 
    4545     4461     4457     4577     4739     4828     4816     4761 
    4725     4692     4629     4550     4499     4471     4434     4382 
    4359     4394     4455     4482     4467     4461     4509     4606 
    4708     4762     4752     4693     4622     4568     4546     4552 
    4565     4573     4577     4580     4599     4641     4680     4673 
    4626     4603     4653     4742     4797     4800     4780     4756 
    4739     4730     4739     4781     4822     4800     4726     4672 
    4662     4652     4594     4506     4436     4411     4436     4503 
    4604     4720     4823     4854     4776     4635     4517     4448 
    4417     4428     4499     4639     4812     4915     4884     4757 
    4629     4558     4552     4587     4629     4645     4622     4581 
    4545     4522     4534     4581     4618     4617     4607     4631 
    4704     4789     4800     4720     4644     4637     4671     4687 
    4675     4661     4661     4648     4603     4558     4565     4634 
    4702     4706     4681     4699     4738     4723     4665     4623 
    4602     4572     4552     4585     4683     4787     4838     4835 
    4801     4776     4796     4838     4847     4812     4766     4756 
    4795     4816     4754     4646     4581     4588     4611     4595 
    4577     4599     4617     4590     4526     4468     4459     4506 
    4567     4607     4646     4703     4754     4772     4770     4776 
    4784     4773     4726     4627     4506     4421     4407     4440 
    4476     4490     4500     4541     4608     4653     4642     4610 
    4603     4617     4604     4563     4550     4604     4692     4776 
    4842     4873     4855     4799     4708     4599     4529     4523 
    4552     4591     4642     4691     4716     4703     4653     4611 
    4607     4610     4584     4556     4576     4646     4707     4722 
    4698     4648     4569     4469     4428     4519     4688     4796 
    4776     4660     4540     4490     4499     4502     4486     4492 
    4544     4619     4683     4711     4711     4673     4579     4468 
    4426     4500     4617     4673     4661     4627     4587     4553 
    4572     4657     4737     4737     4654     4556     4519     4550 
    4585     4595     4604     4637     4672     4685     4688     4695 
    4675     4612     4533     4484     4502     4579     4653     4677 
    4646     4575     4500     4464     4483     4544     4625     4714 
    4819     4939     5024     5022     4938     4812     4684     4595 
    4588     4630     4633     4563     4444     4328     4286     4345 
    4471     4614     4726     4776     4776     4764     4761     4756 
    4734     4685     4598     4498     4449     4487     4576     4641 
    4642     4621     4623     4642     4656     4654     4631     4592 
    4550     4521     4496     4483     4499     4530     4548     4569 
    4633     4730     4820     4885     4927     4943     4936     4914 
    4855     4741     4599     4492     4479     4558     4676     4781 
    4858     4896     4847     4702     4544     4461     4464     4502 
    4526     4540     4575     4641     4706     4731     4719     4696 
    4676     4660     4645     4656     4715     4806     4873     4855 
    4754     4619     4490     4405     4413     4482     4525     4529 
    4540     4572     4598     4594     4587     4599     4615     4626 
    4637     4668     4714     4727     4692     4644     4618     4594 
    4538     4473     4456     4486     4514     4519     4519     4519 
    4513     4506     4506     4500     4503     4537     4596     4666 
    4733     4766     4764     4741     4699     4639     4600     4630 
    4719     4801     4826     4788     4706     4598     4496     4437 
    4410     4398     4414     4494     4619     4712     4738     4734 
    4745     4768     4774     4737     4665     4584     4525     4496 
    4475     4437     4396     4383     4419     4502     4604     4692 
    4731     4702     4619     4541     4498     4471     4452     4459 
    4511     4611     4714     4762     4754     4727     4695     4642 
    4575     4533     4534     4558     4595     4650     4726     4807 
    4864     4864     4812     4734     4652     4585     4540     4514 
    4495     4465     4444     4461     4521     4612     4731     4847 
    4923     4928     4862     4753     4641     4556     4502     4498 
    4546     4629     4734     4812     4811     4752     4685     4630 
    4596     4583     4576     4564     4531     4477     4433     4440 
    4486     4529     4558     4600     4654     4677     4645     4610 
    4621     4645     4626     4584     4569     4594     4615     4611 
    4607     4626     4657     4680     4676     4648     4627     4641 
    4665     4666     4648     4637     4648     4661     4648     4617 
    4604     4627     4671     4698     4687     4653     4621     4607 
    4630     4681     4731     4776     4806     4803     4764     4699 
    4622     4560     4548     4600     4696     4796     4873     4904 
    4868     4776     4664     4572     4529     4536     4581     4648 
    4719     4777     4806     4814     4806     4756     4676     4612 
    4591     4604     4630     4649     4664     4676     4688     4695 
    4693     4702     4733     4765     4760     4703     4634     4611 
    4630     4650     4668     4723     4807     4855     4819     4725 
    4657     4662     4693     4692     4685     4706     4716     4676 
    4623     4618     4654     4679     4660     4618     4611     4658 
    4711     4733     4715     4653     4565     4506     4509     4563 
    4635     4688     4703     4681     4634     4576     4521     4475 
    4430     4375     4342     4392     4494     4556     4548     4511 
    4491     4492     4495     4487     4472     4448     4411     4414 
    4483     4563     4587     4571     4567     4591     4610     4606 
    4595     4588     4568     4509     4436     4410     4452     4515 
    4548     4558     4577     4615     4666     4719     4723     4654 
    4557     4504     4533     4623     4718     4773     4795     4815 
    4842     4834     4779     4737     4769     4833     4831     4739 
    4622     4560     4557     4545     4496     4468     4506     4577 
    4625     4648     4672     4684     4648     4576     4529     4548 
    4619     4695     4733     4722     4684     4649     4621     4594 
    4565     4533     4511     4537     4606     4666     4677     4662 
    4671     4703     4710     4675     4634     4617     4608     4588 
    4558     4560     4622     4716     4781     4780     4730     4671 
    4607     4534     4473     4450     4456     4455     4421     4374 
    4369     4445     4575     4698     4760     4768     4762     4766 
    4762     4726     4671     4631     4637     4691     4760     4791 
    4777     4752     4730     4716     4727     4758     4783     4776 
    4749     4726     4706     4665     4617     4599     4607     4610 
    4615     4652     4695     4692     4622     4540     4526     4587 
    4645     4641     4598     4558     4522     4480     4456     4475 
    4554     4673     4773     4830     4855     4862     4854     4824 
    4761     4696     4673     4684     4692     4675     4649     4646 
    4671     4691     4683     4652     4606     4558     4515     4487 
    4496     4538     4569     4569     4546     4510     4479     4487 
    4548     4631     4695     4700     4658     4607     4571     4536 
    4504     4494     4502     4526     4557     4596     4664     4742 
    4781     4777     4770     4785     4808     4814     4801     4791 
    4799     4819     4823     4804     4785     4774     4761     4750 
    4745     4729     4695     4657     4633     4608     4563     4510 
    4487     4484     4486     4494     4503     4502     4483     4442 
    4413     4444     4511     4549     4554     4571     4614     4649 
    4635     4599     4587     4598     4594     4577     4571     4573 
    4577     4596     4635     4673     4680     4644     4573     4490 
    4414     4379     4386     4421     4477     4523     4542     4573 
    4633     4683     4692     4668     4653     4665     4683     4692 
    4703     4714     4718     4711     4695     4677     4654     4631 
