Origin Time       2024/04/02 04:24:00
Lat.              40.133
Long.             141.712
Depth. (km)       71
Mag.              6.0
Station Code      KKWH14
Station Lat.      43.3841
Station Long.     142.5245
Station Height(m) 239
Record Time       2024/04/02 04:26:09
Sampling Freq(Hz) 100Hz
Duration Time(s)  120
Dir.              1
Scale Factor      2942(gal)/8224139
Max. Acc. (gal)   0.206
Last Correction   2024/04/02 04:26:10
Memo.             
[...]
  138905   138879   138858   138851   138873   138915   138958   138990 
  139012   139035   139058   139062   139056   139058   139056   139055 
  139062   139077   139091   139094   139087   139079   139074   139075 
  139075   139060   139035   139004   138974   138964   138983   139004 
  138993   138960   138935   138920   138916   138936   138981   139036 
  139078   139097   139091   139063   139027   139004   139004   139017 
  139040   139059   139068   139068   139058   139037   139018   139012 
  139006   139002   139008   139013   139004   138982   138962   138966 
  139006   139054   139094   139133   139162   139168   139168   139183 
  139201   139197   139172   139149   139136   139132   139139   139137 
  139116   139075   139029   139002   139004   139012   139002   138993 
  139008   139044   139079   139101   139112   139113   139105   139095 
  139094   139102   139104   139082   139045   139010   138986   138982 
  139004   139029   139032   139020   139009   138996   138974   138958 
  138964   138978   138990   139023   139071   139110   139132   139144 
  139132   139082   139014   138958   138923   138913   138921   138935 
  138946   138960   138994   139039   139071   139086   139089   139094 
  139112   139129   139132   139128   139110   139072   139035   139037 
  139078   139117   139140   139160   139172   139163   139136   139101 
  139066   139047   139044   139040   139033   139039   139051   139054 
  139048   139047   139054   139066   139072   139060   139044   139052 
  139075   139081   139071   139059   139039   139002   138966   138944 
  138937   138943   138967   139002   139031   139050   139059   139056 
  139044   139037   139024   138998   138974   138951   138929   138923 
  138919   138919   138935   138959   138977   138994   139018   139033 
  139025   139005   138994   138985   138971   138970   138981   138985 
  138981   138979   138978   138963   138931   138905   138898   138900 
  138888   138869   138863   138871   138890   138924   138962   138985 
  138986   138977   138958   138939   138931   138921   138906   138902 
  138928   138963   138979   138975   138963   138951   138937   138921 
  138909   138909   138920   138942   138964   138983   138998   139006 
  139009   139001   138979   138960   138973   139008   139032   139032 
  139025   139027   139033   139033   139025   139006   138979   138956 
  138950   138960   138986   139031   139082   139124   139155   139168 
  139170   139172   139159   139124   139099   139098   139095   139082 
  139075   139075   139071   139071   139074   139077   139085   139101 
  139116   139122   139116   139108   139099   139087   139074   139052 
  139029   139024   139029   139035   139044   139060   139078   139093 
  139097   139081   139058   139050   139058   139071   139070   139050 
  139023   139005   139000   139001   139013   139032   139050   139082 
  139109   139097   139062   139039   139031   139020   139012   139018 
  139036   139059   139085   139102   139106   139109   139113   139118 
  139125   139131   139128   139113   139090   139066   139045   139024 
  139002   138993   138996   138996   138989   138991   139002   139004 
  138985   138955   138925   138904   138896   138910   138943   138975 
  138991   138998   139006   139009   138991   138964   138950   138954 
  138971   139005   139040   139052   139047   139047   139050   139047 
  139037   139032   139032   139028   139014   138990   138964   138950 
  138937   138923   138920   138928   138933   138929   138916   138898 
  138888   138885   138888   138906   138936   138975   139027   139075 
  139105   139110   139102   139095   139081   139063   139058   139055 
  139055   139062   139054   139029   139009   138994   138975   138967 
  138989   139032   139071   139102   139121   139118   139105   139093 
  139074   139037   139004   138998   139017   139024   139004   138981 
  138970   138967   138969   138971   138978   138985   138997   139012 
  139028   139039   139040   139044   139066   139101   139135   139166 
  139182   139179   139160   139129   139098   139064   139018   138959 
  138908   138881   138877   138883   138890   138888   138888   138916 
  138959   138991   139017   139056   139086   139095   139109   139135 
  139156   139162   139148   139117   139077   139036   138996   138956 
  138924   138910   138921   138939   138967   139010   139033   139033 
  139040   139045   139037   139018   139010   139023   139044   139063 
  139071   139070   139066   139055   139032   139009   139005   139023 
  139048   139054   139039   139024   139017   139017   139021   139029 
  139043   139058   139072   139086   139091   139079   139062   139060 
  139070   139067   139062   139078   139104   139106   139086   139071 
  139064   139050   139023   138998   138994   139009   139021   139008 
  138986   138985   138998   139016   139036   139040   139039   139044 
  139047   139043   139036   139033   139043   139059   139072   139082 
  139090   139099   139108   139105   139095   139075   139037   138998 
  138973   138956   138948   138948   138943   138910   138870   138856 
  138861   138851   138831   138825   138846   138881   138915   138939 
  138962   138985   139006   139021   139021   139018   139025   139029 
  139017   139006   139002   138996   138989   138985   138983   138982 
  138978   138964   138943   138919   138901   138897   138905   138920 
  138935   138954   138989   139037   139079   139108   139120   139117 
  139104   139075   139039   139018   139017   139021   139017   139010 
  139020   139040   139054   139075   139112   139126   139104   139077 
  139066   139062   139060   139052   139045   139055   139081   139101 
  139098   139085   139074   139062   139040   139024   139016   139002 
  138979   138964   138966   138981   139000   139018   139044   139085 
  139131   139168   139189   139198   139212   139228   139233   139205 
  139153   139112   139097   139090   139071   139045   139028   139013 
  138993   138966   138943   138940   138948   138943   138929   138924 
  138924   138929   138948   138977   139004   139033   139070   139098 
  139109   139122   139141   139129   139079   139035   139017   139013 
  139006   138996   138986   138994   139032   139072   139087   139087 
  139093   139093   139075   139051   139039   139035   139028   139018 
  139013   139013   139016   139016   138998   138962   138920   138890 
  138873   138865   138863   138870   138873   138867   138867   138878 
  138890   138904   138913   138925   138951   138990   139020   139023 
  139016   139027   139050   139059   139036   138991   138952   138936 
  138925   138916   138923   138944   138973   139006   139051   139089 
  139109   139113   139101   139079   139064   139056   139044   139036 
  139039   139040   139036   139031   139025   139023   139035   139068 
  139105   139122   139126   139128   139131   139133   139122   139099 
  139083   139090   139108   139117   139125   139133   139122   139097 
  139081   139078   139083   139095   139102   139099   139104   139114 
  139106   139066   139025   139017   139035   139047   139047   139048 
  139047   139044   139033   138998   138958   138933   138924   138932 
  138950   138960   138970   138996   139023   139035   139050   139078 
  139110   139141   139168   139180   139178   139158   139120   139079 
  139048   139021   138994   138974   138967   138970   138975   138986 
  139002   139028   139075   139121   139152   139189   139240   139274 
  139270   139241   139197   139147   139112   139093   139078   139063 
  139045   139024   139004   138986   138982   138985   138975   138959 
  138960   138983   139020   139052   139055   139028   138993   138966 
  138950   138931   138909   138905   138920   138935   138958   138989 
  139021   139041   139048   139051   139044   139018   138986   138950 
  138906   138871   138861   138866   138874   138896   138937   138987 
  139027   139041   139031   139006   138982   138970   138975   138985 
  138977   138955   138932   138923   138927   138940   138959   138973 
  138983   138993   138998   138998   139002   139017   139033   139051 
  139077   139105   139122   139126   139120   139104   139083   139079 
  139094   139112   139133   139175   139218   139230   139209   139170 
  139122   139071   139029   138990   138966   138986   139031   139074 
  139109   139122   139106   139079   139051   139027   139010   139006 
  139021   139041   139058   139077   139098   139108   139108   139112 
  139129   139172   139226   139260   139266   139241   139193   139122 
  139045   138977   138935   138933   138958   138994   139031   139048 
  139045   139040   139051   139070   139083   139089   139095   139104 
  139110   139101   139067   139021   138985   138958   138933   138912 
  138881   138844   138829   138852   138888   138900   138892   138890 
  138905   138923   138931   138935   138929   138901   138870   138870 
  138893   138915   138933   138954   138967   138966   138966   138973 
  138971   138954   138925   138904   138890   138882   138890   138923 
  138966   139001   139025   139039   139037   139017   138991   138977 
  138962   138947   138939   138932   138936   138959   138977   138966 
  138942   138935   138948   138956   138952   138946   138939   138927 
  138916   138921   138952   139002   139059   139108   139144   139171 
  139187   139197   139206   139210   139193   139156   139117   139097 
  139098   139104   139085   139043   139006   138981   138951   138908 
  138863   138835   138834   138870   138933   139008   139095   139189 
  139263   139314   139347   139359   139348   139320   139280   139225 
  139153   139087   139045   139025   139020   139039   139075   139112 
  139141   139168   139186   139176   139139   139097   139078   139087 
  139104   139104   139090   139086   139094   139097   139095   139091 
  139077   139048   139008   138974   138964   138967   138958   138937 
  138909   138873   138840   138827   138838   138848   138838   138808 
  138774   138744   138720   138711   138723   138748   138774   138780 
  138767   138751   138751   138786   138858   138936   138998   139058 
  139125   139185   139213   139195   139149   139097   139039   138977 
  138928   138901   138889   138882   138889   138913   138929   138917 
  138897   138905   138928   138932   138913   138886   138874   138889 
  138915   138933   138960   138996   139027   139056   139098   139135 
  139151   139156   139148   139114   139056   139008   138991   138989 
  138989   139001   139009   139012   139014   139017   139027   139048 
  139062   139062   139064   139079   139094   139093   139060   138997 
  138932   138893   138863   138829   138808   138805   138800   138785 
  138778   138800   138843   138886   138923   138944   138936   138917 
  138908   138888   138843   138802   138796   138825   138873   138913 
  138931   138951   138997   139050   139083   139101   139113   139118 
  139118   139113   139106   139093   139070   139047   139024   138998 
  138986   138991   139000   139002   138996   138971   138946   138952 
  138986   139012   139006   138989   138977   138978   139009   139068 
  139126   139155   139155   139156   139185   139224   139264   139305 
  139340   139349   139325   139282   139244   139229   139236   139237 
  139226   139224   139222   139195   139141   139082   139033   139006 
  139023   139066   139106   139124   139116   139094   139090   139108 
  139120   139113   139097   139078   139062   139045   139023   139002 
  138997   139002   139002   138994   138990   139004   139037   139083 
  139121   139147   139172   139189   139163   139116   139094   139099 
  139105   139113   139133   139147   139140   139129   139135   139140 
  139114   139066   139028   139017   139013   138985   138942   138913 
  138915   138932   138937   138935   138947   138971   139001   139040 
  139093   139148   139205   139251   139274   139268   139232   139163 
  139082   139009   138954   138919   138902   138902   138917   138940 
  138973   138997   138973   138906   138851   138821   138809   138813 
  138831   138850   138851   138838   138820   138817   138834   138867 
  138913   138960   138986   138996   138996   138982   138958   138932 
  138921   138950   139012   139081   139141   139191   139214   139205 
  139186   139182   139190   139217   139256   139288   139303   139284 
  139225   139163   139117   139074   139020   138963   138932   138958 
  139037   139129   139197   139229   139236   139228   139213   139203 
  139206   139199   139159   139093   139035   139005   139002   139018 
  139041   139058   139068   139071   139067   139068   139070   139055 
  139035   139037   139071   139112   139139   139155   139175   139195 
  139206   139205   139197   139180   139160   139140   139124   139101 
  139074   139047   139013   138979   138973   139001   139045   139081 
  139104   139141   139205   139266   139298   139290   139253   139210 
  139168   139120   139054   138990   138952   138946   138958   138977 
  139004   139059   139140   139224   139291   139342   139384   139402 
  139378   139314   139249   139209   139190   139179   139166   139139 
  139114   139108   139097   139052   138987   138915   138840   138778 
  138735   138692   138634   138582   138566   138586   138632   138692 
  138759   138823   138875   138910   138927   138932   138916   138867 
  138804   138751   138707   138663   138612   138541   138472   138449 
  138484   138558   138640   138724   138813   138893   138943   138956 
  138955   138974   139031   139108   139160   139159   139129   139114 
  139121   139122   139090   139028   138963   138920   138913   138931 
  138937   138931   138942   138975   139020   139059   139075   139091 
  139136   139190   139233   139271   139305   139324   139326   139318 
  139306   139298   139298   139302   139282   139213   139113   139017 
  138943   138888   138842   138785   138736   138728   138746   138758 
  138754   138739   138720   138690   138655   138645   138670   138721 
  138782   138840   138901   138967   139021   139044   139043   139032 
  139012   138966   138904   138854   138827   138798   138754   138715 
  138699   138704   138734   138781   138820   138852   138889   138928 
  138969   139035   139137   139256   139357   139418   139453   139482 
  139488   139461   139414   139368   139347   139345   139333   139294 
  139240   139179   139113   139051   139010   139008   139027   139039 
  139040   139027   139014   139033   139070   139098   139129   139182 
  139245   139290   139283   139232   139179   139145   139110   139039 
  138939   138854   138804   138778   138759   138728   138686   138657 
  138670   138719   138777   138835   138896   138947   138978   138997 
  139017   139040   139059   139075   139095   139114   139126   139124 
  139099   139075   139070   139071   139064   139040   139000   138959 
  138933   138925   138932   138933   138909   138873   138863   138892 
  138927   138935   138925   138932   138959   138996   139032   139060 
  139078   139075   139064   139070   139091   139114   139117   139083 
  139028   138978   138935   138897   138856   138805   138765   138758 
  138792   138859   138940   139002   139028   139041   139070   139098 
  139108   139105   139093   139070   139050   139044   139045   139050 
  139068   139095   139109   139099   139071   139032   138985   138942 
  138920   138932   138963   138994   139027   139075   139143   139226 
  139322   139418   139472   139449   139382   139324   139290   139263 
  139228   139190   139176   139178   139163   139139   139112   139060 
  138971   138865   138780   138744   138757   138798   138856   138921 
  138993   139060   139095   139089   139071   139063   139081   139116 
  139139   139137   139122   139105   139089   139071   139035   138969 
  138893   138846   138832   138815   138777   138748   138748   138755 
  138744   138720   138703   138704   138730   138771   138815   138851 
  138881   138919   138964   138994   138996   138975   138946   138915 
  138890   138877   138881   138909   138933   138917   138882   138870 
  138883   138913   138956   139004   139035   139048   139063   139082 
  139101   139133   139187   139249   139306   139349   139378   139396 
  139413   139407   139372   139326   139278   139225   139183   139176 
  139210   139266   139310   139334   139347   139347   139321   139271 
  139216   139176   139156   139155   139171   139205   139236   139241 
  139234   139244   139271   139288   139278   139240   139186   139141 
  139133   139155   139191   139228   139247   139253   139257   139248 
  139202   139120   139045   139008   138993   138981   138969   138969 
  138997   139056   139132   139193   139229   139240   139224   139183 
  139137   139109   139099   139085   139048   139009   138981   138955 
  138933   138923   138912   138897   138886   138875   138877   138897 
  138919   138924   138921   138921   138927   138932   138942   138955 
  138978   138991   138974   138958   138974   139002   139014   139014 
  139012   139004   139000   139012   139031   139036   139020   139004 
  139021   139078   139144   139190   139216   139237   139267   139301 
  139314   139294   139251   139201   139144   139067   138986   138935 
  138912   138890   138879   138883   138885   138869   138839   138812 
  138800   138792   138789   138815   138871   138950   139039   139113 
  139156   139176   139191   139207   139217   139212   139202   139202 
  139207   139201   139186   139182   139191   139214   139243   139259 
  139247   139207   139141   139056   138971   138901   138842   138794 
  138754   138715   138682   138658   138638   138618   138611   138626 
  138649   138669   138707   138758   138801   138832   138870   138931 
  139006   139059   139066   139040   139002   138973   138947   138901 
  138850   138825   138827   138834   138847   138866   138869   138846 
  138817   138805   138801   138793   138771   138736   138699   138670 
  138665   138690   138724   138731   138720   138719   138715   138686 
  138645   138619   138620   138636   138655   138674   138694   138721 
  138739   138734   138724   138731   138757   138789   138824   138850 
  138859   138870   138878   138883   138906   138951   138989   139009 
  139017   139033   139075   139136   139176   139176   139159   139141 
  139121   139090   139058   139033   139010   138985   138964   138970 
  139008   139054   139093   139132   139163   139186   139220   139260 
  139298   139338   139375   139394   139388   139363   139336   139317 
  139293   139260   139225   139187   139147   139117   139095   139064 
  139029   139006   139004   139033   139087   139140   139185   139217 
  139240   139244   139212   139163   139135   139135   139149   139155 
  139143   139131   139120   139099   139068   139032   138986   138942 
  138915   138913   138921   138928   138942   138969   139004   139043 
  139094   139148   139178   139168   139137   139093   139037   138998 
  138997   139020   139041   139059   139078   139097   139113   139125 
  139116   139079   139033   138998   138973   138956   138958   138981 
  139009   139033   139052   139060   139054   139043   139043   139044 
