Origin Time       2024/04/02 04:24:00
Lat.              40.133
Long.             141.712
Depth. (km)       71
Mag.              6.0
Station Code      KKWH13
Station Lat.      43.5113
Station Long.     142.3906
Station Height(m) 147.5
Record Time       2024/04/02 04:26:22
Sampling Freq(Hz) 100Hz
Duration Time(s)  120
Dir.              2
Scale Factor      3923(gal)/8224838
Max. Acc. (gal)   0.124
Last Correction   2024/04/02 04:26:23
Memo.             
[...]
   21340    21332    21324    21320    21317    21316    21320    21327 
   21327    21324    21324    21324    21321    21317    21316    21316 
   21317    21321    21321    21319    21319    21316    21312    21308 
   21303    21300    21298    21296    21296    21298    21303    21309 
   21317    21325    21332    21340    21351    21361    21367    21374 
   21382    21386    21388    21392    21392    21393    21396    21389 
   21381    21381    21375    21366    21363    21358    21352    21352 
   21351    21346    21340    21340    21342    21338    21332    21330 
   21324    21317    21315    21308    21303    21296    21284    21274 
   21267    21261    21258    21258    21259    21267    21278    21296 
   21316    21336    21359    21385    21409    21431    21448    21462 
   21477    21493    21501    21506    21508    21508    21504    21493 
   21473    21452    21431    21404    21377    21354    21336    21323 
   21312    21304    21304    21304    21308    21319    21331    21343 
   21355    21365    21374    21382    21389    21396    21404    21413 
   21420    21423    21425    21428    21424    21419    21419    21413 
   21404    21393    21381    21369    21355    21342    21331    21321 
   21313    21309    21315    21323    21334    21350    21365    21373 
   21382    21393    21396    21393    21388    21378    21367    21357 
   21344    21332    21315    21300    21290    21280    21269    21263 
   21259    21254    21253    21251    21253    21257    21263    21271 
   21281    21290    21298    21305    21312    21316    21319    21325 
   21328    21327    21325    21324    21319    21311    21305    21303 
   21300    21297    21300    21311    21324    21338    21355    21375 
   21393    21409    21427    21446    21463    21477    21487    21498 
   21506    21514    21516    21512    21501    21487    21471    21451 
   21432    21424    21417    21409    21405    21408    21408    21408 
   21412    21413    21412    21412    21412    21415    21419    21421 
   21427    21428    21428    21428    21429    21433    21440    21444 
   21446    21450    21448    21436    21419    21398    21379    21365 
   21351    21334    21319    21311    21303    21293    21290    21290 
   21293    21294    21303    21316    21327    21342    21358    21375 
   21393    21412    21432    21450    21465    21483    21504    21521 
   21536    21548    21556    21560    21558    21551    21540    21527 
   21509    21490    21473    21454    21438    21424    21413    21405 
   21400    21400    21404    21413    21421    21432    21450    21466 
   21475    21483    21487    21489    21487    21478    21460    21443 
   21423    21398    21377    21359    21340    21323    21309    21293 
   21285    21288    21290    21293    21297    21303    21308    21313 
   21320    21325    21328    21334    21339    21346    21351    21363 
   21375    21385    21392    21396    21397    21397    21390    21377 
   21363    21351    21336    21321    21309    21298    21288    21282 
   21285    21289    21292    21293    21298    21305    21308    21311 
   21312    21313    21312    21307    21301    21296    21290    21288 
   21285    21285    21280    21273    21274    21277    21277    21276 
   21278    21285    21288    21292    21297    21300    21303    21308 
   21312    21312    21313    21320    21323    21324    21331    21334 
   21332    21335    21340    21343    21351    21362    21366    21373 
   21382    21392    21401    21415    21427    21438    21443    21447 
   21451    21454    21454    21451    21447    21447    21447    21442 
   21435    21427    21419    21408    21397    21385    21367    21348 
   21334    21317    21298    21286    21274    21259    21253    21250 
   21249    21254    21262    21271    21282    21297    21313    21321 
   21323    21324    21321    21321    21321    21324    21331    21339 
   21348    21362    21375    21385    21393    21401    21409    21416 
   21419    21420    21423    21419    21417    21420    21423    21428 
   21438    21447    21460    21477    21493    21509    21520    21529 
   21541    21554    21562    21567    21578    21590    21594    21597 
   21601    21600    21597    21595    21593    21589    21585    21579 
   21570    21558    21548    21540    21527    21516    21508    21501 
   21492    21483    21475    21463    21454    21448    21443    21436 
   21432    21427    21421    21416    21415    21408    21393    21373 
   21355    21335    21308    21284    21262    21236    21216    21204 
   21189    21181    21178    21170    21165    21168    21174    21181 
   21189    21201    21216    21231    21243    21257    21273    21286 
   21300    21316    21330    21339    21346    21348    21348    21346 
   21339    21332    21324    21311    21301    21300    21298    21301 
   21303    21303    21307    21315    21317    21313    21308    21298 
   21286    21274    21267    21265    21265    21267    21271    21277 
   21285    21292    21296    21294    21292    21292    21289    21285 
   21282    21280    21273    21269    21270    21267    21265    21266 
   21267    21262    21255    21249    21239    21228    21217    21207 
   21203    21204    21203    21205    21211    21213    21216    21219 
   21222    21223    21226    21231    21242    21254    21269    21289 
   21311    21331    21348    21363    21379    21396    21415    21429 
   21444    21462    21478    21494    21506    21513    21517    21516 
   21509    21498    21486    21475    21465    21458    21460    21463 
   21470    21481    21489    21496    21502    21510    21516    21514 
   21513    21513    21508    21504    21502    21497    21492    21486 
   21479    21474    21470    21467    21470    21471    21470    21466 
   21465    21463    21455    21443    21432    21423    21411    21401 
   21390    21375    21365    21359    21352    21346    21340    21339 
   21340    21339    21338    21339    21342    21342    21343    21347 
   21351    21359    21366    21375    21388    21400    21409    21416 
   21421    21427    21431    21436    21444    21452    21458    21462 
   21470    21475    21479    21487    21493    21496    21492    21490 
   21486    21475    21463    21452    21438    21420    21405    21390 
   21378    21370    21366    21362    21358    21355    21348    21334 
   21316    21300    21284    21271    21262    21253    21246    21242 
   21240    21244    21255    21269    21280    21293    21309    21327 
   21344    21359    21371    21384    21396    21411    21423    21436 
   21455    21470    21478    21486    21487    21481    21473    21459 
   21446    21432    21419    21411    21406    21402    21401    21405 
   21412    21419    21423    21428    21431    21425    21419    21409 
   21397    21390    21386    21382    21379    21375    21373    21375 
   21377    21375    21377    21381    21384    21389    21394    21404 
   21415    21421    21424    21425    21428    21429    21429    21431 
   21429    21429    21429    21431    21435    21436    21436    21436 
   21431    21425    21419    21409    21398    21389    21382    21384 
   21385    21382    21381    21385    21382    21378    21374    21370 
   21370    21371    21371    21373    21374    21374    21374    21374 
   21378    21385    21388    21389    21389    21389    21389    21394 
   21394    21388    21381    21377    21375    21374    21374    21373 
   21375    21379    21382    21388    21392    21389    21385    21379 
   21374    21367    21354    21338    21321    21304    21286    21271 
   21257    21240    21226    21212    21205    21201    21196    21190 
   21186    21186    21190    21195    21196    21203    21205    21204 
   21208    21205    21197    21195    21189    21181    21182    21185 
   21188    21195    21204    21211    21215    21220    21226    21232 
   21243    21253    21261    21266    21277    21286    21293    21303 
   21308    21311    21315    21319    21320    21321    21320    21320 
   21323    21327    21332    21343    21358    21369    21377    21381 
   21382    21382    21382    21377    21370    21361    21352    21348 
   21346    21347    21351    21357    21363    21371    21382    21398 
   21415    21427    21440    21452    21465    21470    21471    21471 
   21470    21466    21463    21459    21455    21450    21440    21432 
   21424    21412    21404    21402    21401    21400    21405    21412 
   21421    21433    21446    21455    21470    21487    21500    21508 
   21517    21521    21519    21516    21513    21504    21493    21485 
   21473    21455    21433    21415    21400    21382    21365    21351 
   21340    21332    21332    21335    21339    21351    21367    21379 
   21389    21400    21412    21416    21412    21405    21390    21373 
   21358    21342    21323    21304    21290    21278    21265    21258 
   21254    21247    21243    21243    21244    21244    21242    21243 
   21242    21242    21246    21254    21258    21263    21274    21284 
   21289    21296    21300    21301    21301    21301    21305    21309 
   21312    21320    21331    21339    21352    21366    21379    21397 
   21411    21421    21433    21436    21433    21431    21423    21412 
   21404    21397    21388    21378    21373    21371    21370    21370 
   21371    21374    21382    21394    21408    21424    21440    21454 
   21471    21486    21496    21509    21521    21524    21523    21525 
   21525    21524    21523    21523    21529    21535    21533    21533 
   21536    21540    21547    21551    21554    21562    21563    21562 
   21563    21558    21546    21533    21520    21506    21496    21486 
   21474    21462    21455    21448    21442    21436    21432    21423 
   21413    21404    21389    21370    21351    21328    21307    21286 
   21263    21243    21231    21216    21200    21186    21178    21169 
   21159    21154    21151    21153    21157    21159    21166    21174 
   21184    21190    21196    21204    21212    21212    21213    21220 
   21222    21219    21220    21215    21207    21203    21197    21192 
   21189    21189    21195    21201    21212    21228    21247    21269 
   21288    21305    21323    21342    21354    21366    21384    21398 
   21411    21425    21436    21446    21456    21460    21465    21470 
   21473    21479    21492    21504    21517    21531    21544    21562 
   21578    21590    21604    21608    21602    21598    21590    21579 
   21568    21556    21541    21527    21510    21496    21482    21471 
   21462    21451    21439    21425    21412    21398    21390    21389 
   21385    21379    21377    21379    21384    21386    21392    21401 
   21406    21409    21416    21420    21423    21425    21425    21424 
   21419    21411    21397    21379    21359    21340    21324    21308 
   21294    21288    21288    21293    21300    21311    21327    21344 
   21358    21374    21393    21411    21431    21454    21477    21502 
   21525    21544    21560    21575    21586    21589    21591    21591 
   21583    21575    21570    21564    21558    21548    21536    21527 
   21519    21508    21490    21470    21451    21428    21401    21378 
   21358    21335    21319    21308    21301    21297    21292    21288 
   21284    21281    21280    21273    21263    21255    21247    21236 
   21227    21219    21211    21205    21203    21205    21205    21204 
   21209    21217    21220    21222    21223    21224    21226    21223 
   21220    21215    21204    21199    21197    21196    21196    21193 
   21192    21193    21193    21195    21199    21201    21204    21213 
   21224    21228    21234    21244    21253    21259    21267    21274 
   21285    21292    21292    21298    21305    21307    21311    21313 
   21313    21315    21319    21324    21328    21330    21332    21336 
   21340    21344    21352    21366    21375    21378    21386    21390 
   21392    21397    21401    21398    21400    21400    21398    21394 
   21388    21378    21369    21357    21343    21332    21324    21321 
   21323    21328    21334    21336    21346    21354    21359    21361 
   21361    21359    21354    21347    21340    21331    21325    21323 
   21317    21316    21319    21319    21320    21324    21325    21324 
   21324    21327    21331    21331    21330    21331    21331    21332 
   21331    21331    21332    21336    21344    21355    21365    21375 
   21386    21397    21405    21413    21419    21421    21421    21420 
   21423    21425    21427    21432    21442    21447    21451    21460 
   21469    21477    21483    21487    21490    21497    21500    21497 
   21496    21496    21492    21489    21492    21496    21496    21500 
   21502    21505    21510    21513    21513    21513    21509    21498 
   21490    21485    21475    21466    21462    21454    21446    21444 
   21442    21442    21447    21452    21460    21470    21474    21479 
   21483    21486    21486    21481    21482    21479    21470    21466 
   21462    21456    21454    21452    21447    21443    21442    21435 
   21424    21413    21404    21392    21378    21369    21361    21348 
   21339    21328    21317    21309    21300    21288    21278    21276 
   21273    21265    21258    21254    21250    21249    21253    21254 
   21258    21266    21271    21270    21271    21273    21266    21259 
   21250    21239    21227    21215    21200    21184    21168    21150 
   21136    21127    21119    21116    21114    21112    21120    21131 
   21146    21165    21186    21209    21235    21261    21285    21303 
   21320    21338    21348    21358    21366    21373    21381    21392 
   21406    21420    21429    21444    21459    21471    21483    21497 
   21513    21523    21531    21541    21548    21548    21548    21548 
   21546    21541    21537    21532    21524    21513    21505    21500 
   21493    21489    21486    21485    21485    21483    21483    21485 
   21487    21489    21487    21483    21482    21478    21471    21465 
   21458    21447    21433    21424    21413    21397    21384    21371 
   21358    21344    21331    21316    21304    21294    21289    21286 
   21282    21281    21284    21288    21296    21304    21309    21320 
   21334    21346    21355    21366    21374    21382    21390    21398 
   21404    21409    21420    21428    21429    21431    21438    21438 
   21433    21438    21442    21442    21442    21444    21450    21458 
   21463    21471    21481    21487    21494    21505    21510    21514 
   21513    21509    21508    21502    21492    21487    21481    21474 
   21467    21465    21463    21462    21459    21459    21460    21458 
   21454    21451    21447    21444    21446    21440    21432    21429 
   21424    21413    21402    21394    21384    21365    21348    21334 
   21319    21301    21284    21270    21263    21258    21254    21255 
   21259    21263    21271    21281    21290    21304    21321    21335 
   21346    21358    21365    21369    21373    21377    21378    21377 
   21375    21378    21381    21382    21381    21374    21370    21369 
   21363    21358    21354    21350    21342    21335    21328    21320 
   21312    21305    21297    21290    21288    21285    21284    21282 
   21281    21282    21284    21285    21285    21281    21282    21284 
   21284    21289    21296    21301    21308    21313    21316    21320 
   21321    21321    21317    21305    21294    21288    21282    21277 
   21273    21270    21267    21267    21270    21274    21284    21297 
   21308    21319    21328    21336    21348    21357    21362    21369 
   21377    21384    21394    21402    21409    21416    21421    21427 
   21435    21440    21439    21439    21444    21448    21447    21446 
   21447    21450    21452    21459    21463    21467    21473    21477 
   21479    21482    21482    21481    21481    21479    21474    21467 
   21462    21454    21442    21429    21417    21404    21388    21373 
   21361    21352    21344    21335    21327    21321    21312    21301 
   21296    21289    21284    21281    21278    21276    21276    21273 
   21271    21277    21278    21278    21280    21281    21277    21274 
   21274    21270    21263    21257    21249    21243    21239    21235 
   21228    21222    21215    21213    21213    21216    21223    21232 
   21242    21255    21276    21296    21313    21331    21351    21362 
   21369    21377    21382    21385    21386    21382    21379    21378 
   21377    21374    21371    21371    21371    21373    21373    21375 
   21384    21392    21397    21404    21411    21421    21432    21439 
   21450    21462    21469    21475    21482    21481    21475    21470 
   21459    21450    21433    21416    21404    21386    21366    21355 
   21339    21324    21315    21303    21293    21286    21281    21278 
   21276    21273    21277    21282    21286    21294    21307    21316 
   21321    21334    21346    21351    21358    21365    21366    21366 
   21366    21362    21361    21358    21352    21350    21346    21340 
   21334    21328    21325    21319    21313    21313    21313    21313 
   21321    21334    21340    21352    21370    21382    21396    21412 
   21425    21440    21452    21465    21481    21496    21505    21514 
   21524    21531    21536    21541    21546    21547    21547    21547 
   21548    21548    21547    21546    21547    21550    21550    21544 
   21540    21536    21535    21528    21521    21514    21506    21498 
   21490    21481    21470    21459    21447    21436    21425    21412 
   21401    21390    21377    21371    21370    21369    21363    21362 
   21365    21367    21369    21369    21371    21373    21370    21370 
   21370    21370    21375    21377    21374    21377    21373    21365 
   21363    21359    21352    21350    21350    21350    21347    21347 
   21350    21351    21352    21352    21352    21354    21355    21354 
   21355    21358    21363    21370    21375    21384    21396    21405 
   21412    21416    21420    21421    21423    21423    21417    21409 
   21402    21396    21389    21382    21375    21366    21358    21348 
   21336    21328    21323    21317    21311    21303    21297    21290 
   21284    21281    21277    21271    21267    21266    21263    21263 
   21265    21262    21259    21263    21266    21266    21269    21270 
   21270    21273    21274    21273    21273    21271    21269    21267 
   21266    21263    21258    21255    21259    21261    21255    21258 
   21259    21257    21257    21259    21261    21265    21270    21274 
   21284    21292    21300    21311    21319    21325    21340    21355 
   21369    21384    21400    21415    21431    21447    21463    21477 
   21490    21501    21509    21519    21523    21527    21527    21520 
   21512    21506    21500    21490    21479    21470    21460    21451 
   21443    21435    21431    21425    21417    21417    21420    21417 
   21420    21429    21433    21442    21452    21456    21458    21460 
   21462    21459    21458    21452    21446    21439    21431    21421 
   21412    21401    21393    21388    21381    21373    21365    21359 
   21352    21346    21343    21343    21338    21330    21327    21323 
   21317    21312    21308    21303    21301    21301    21304    21308 
