Origin Time       2024/04/02 04:24:00
Lat.              40.133
Long.             141.712
Depth. (km)       71
Mag.              6.0
Station Code      KKWH08
Station Lat.      43.0406
Station Long.     142.6562
Station Height(m) 469
Record Time       2024/04/02 04:25:59
Sampling Freq(Hz) 100Hz
Duration Time(s)  120
Dir.              2
Scale Factor      2942(gal)/8224139
Max. Acc. (gal)   0.267
Last Correction   2024/04/02 04:26:00
Memo.             
[...]
   20572    20629    20621    20548    20551    20606    20610    20614 
   20650    20686    20692    20641    20646    20753    20773    20721 
   20765    20804    20707    20591    20586    20671    20721    20669 
   20632    20687    20722    20707    20768    20796    20665    20603 
   20686    20704    20652    20630    20640    20644    20613    20583 
   20579    20569    20569    20622    20671    20650    20633    20677 
   20692    20640    20603    20594    20572    20583    20640    20664 
   20630    20590    20583    20611    20642    20650    20636    20637 
   20646    20626    20623    20696    20733    20702    20711    20713 
   20619    20580    20680    20702    20592    20610    20704    20628 
   20537    20617    20679    20595    20529    20588    20661    20629 
   20555    20567    20618    20592    20568    20617    20696    20763 
   20733    20630    20648    20730    20673    20605    20672    20726 
   20656    20553    20540    20575    20564    20578    20656    20695 
   20684    20688    20661    20580    20557    20595    20601    20625 
   20675    20657    20623    20621    20618    20640    20656    20601 
   20556    20564    20540    20525    20590    20645    20615    20540 
   20532    20622    20659    20590    20553    20579    20601    20610 
   20621    20645    20656    20607    20572    20623    20669    20653 
   20590    20509    20486    20517    20534    20555    20574    20542 
   20502    20487    20521    20590    20594    20529    20483    20490 
   20497    20456    20497    20622    20619    20544    20571    20629 
   20629    20623    20648    20626    20579    20591    20614    20599 
   20557    20525    20547    20575    20586    20626    20661    20698 
   20748    20682    20563    20603    20698    20650    20588    20634 
   20663    20611    20549    20549    20606    20582    20459    20444 
   20532    20522    20505    20605    20653    20611    20579    20542 
   20537    20574    20576    20602    20677    20698    20710    20775 
   20777    20698    20667    20731    20795    20767    20687    20625 
   20586    20560    20547    20586    20634    20591    20561    20636 
   20637    20536    20511    20560    20595    20599    20571    20578 
   20649    20677    20686    20760    20777    20733    20731    20702 
   20665    20715    20734    20645    20530    20463    20503    20613 
   20615    20524    20491    20491    20494    20544    20586    20578 
   20574    20619    20660    20660    20700    20769    20763    20768 
   20829    20799    20714    20700    20675    20569    20480    20483 
   20498    20398    20264    20244    20305    20382    20445    20470 
   20532    20664    20763    20810    20823    20754    20677    20717 
   20779    20730    20659    20640    20622    20602    20615    20656 
   20667    20655    20663    20623    20553    20542    20548    20567 
   20640    20700    20707    20661    20602    20618    20657    20615 
   20555    20486    20329    20217    20281    20364    20385    20449 
   20544    20547    20507    20547    20606    20614    20591    20549 
   20559    20613    20637    20696    20760    20704    20638    20706 
   20763    20676    20595    20634    20656    20582    20545    20548 
   20461    20402    20507    20618    20582    20520    20556    20610 
   20634    20672    20695    20626    20490    20437    20542    20617 
   20536    20467    20470    20407    20368    20480    20563    20521 
   20524    20542    20482    20476    20583    20672    20665    20630 
   20657    20655    20541    20470    20498    20515    20544    20601 
   20642    20672    20673    20632    20614    20657    20688    20641 
   20553    20514    20567    20628    20628    20625    20637    20664 
   20767    20889    20904    20866    20875    20877    20872    20968 
   21082    21057    20969    20945    20910    20780    20672    20672 
   20633    20471    20290    20225    20329    20468    20534    20556 
   20520    20440    20422    20525    20715    20807    20706    20621 
   20630    20594    20551    20565    20559    20474    20367    20339 
   20348    20333    20382    20443    20391    20335    20449    20694 
   20811    20746    20754    20811    20740    20721    20852    20908 
   20839    20792    20806    20817    20779    20722    20690    20680 
   20617    20466    20405    20487    20501    20471    20532    20568 
   20520    20514    20574    20576    20587    20682    20680    20599 
   20642    20702    20632    20587    20665    20749    20734    20665 
   20718    20852    20819    20742    20807    20817    20694    20610 
   20568    20480    20453    20536    20563    20579    20730    20845 
   20738    20565    20503    20447    20378    20399    20422    20437 
   20525    20588    20595    20614    20578    20447    20398    20457 
   20441    20406    20541    20713    20669    20555    20609    20691 
   20664    20634    20673    20757    20831    20846    20834    20845 
   20814    20706    20623    20617    20655    20714    20736    20707 
   20663    20611    20595    20611    20623    20645    20686    20745 
   20810    20834    20837    20888    20981    20996    20895    20839 
   20919    20964    20871    20796    20833    20831    20765    20819 
   20949    20970    20947    20946    20888    20834    20779    20582 
   20402    20394    20399    20387    20426    20430    20362    20331 
   20402    20486    20448    20352    20387    20491    20499    20478 
   20483    20468    20510    20671    20790    20727    20638    20675 
   20718    20660    20595    20623    20699    20723    20715    20722 
   20684    20607    20621    20763    20864    20790    20691    20726 
   20781    20758    20711    20694    20649    20556    20515    20553 
   20641    20730    20773    20810    20783    20661    20621    20677 
   20644    20571    20556    20482    20347    20274    20290    20355 
   20394    20370    20325    20336    20451    20606    20679    20628 
   20551    20549    20592    20625    20655    20687    20640    20564 
   20582    20572    20547    20641    20699    20613    20541    20586 
   20641    20587    20510    20545    20610    20580    20563    20649 
   20714    20731    20802    20879    20914    20912    20884    20865 
   20845    20771    20672    20648    20659    20609    20536    20490 
   20414    20314    20259    20201    20117    20129    20244    20355 
   20402    20409    20472    20584    20594    20517    20522    20547 
   20478    20447    20455    20347    20260    20398    20563    20541 
   20468    20475    20515    20534    20538    20545    20544    20542 
   20586    20641    20623    20582    20601    20606    20532    20510 
   20584    20636    20719    20837    20834    20833    20925    20929 
   20864    20872    20852    20733    20613    20548    20556    20634 
   20668    20580    20501    20564    20704    20773    20742    20690 
   20588    20480    20587    20788    20775    20652    20607    20594 
   20572    20571    20606    20641    20605    20542    20540    20553 
   20548    20599    20714    20754    20660    20621    20722    20744 
   20618    20521    20493    20414    20349    20451    20579    20583 
   20605    20700    20781    20877    21003    21057    21058    21066 
   20995    20825    20703    20652    20591    20561    20580    20578 
   20542    20514    20521    20514    20398    20262    20247    20270 
   20262    20305    20348    20275    20250    20385    20463    20421 
   20445    20505    20532    20713    20956    20938    20780    20736 
   20723    20657    20568    20451    20347    20317    20344    20430 
   20571    20652    20646    20683    20790    20837    20808    20802 
   20834    20856    20791    20636    20553    20569    20542    20506 
   20513    20506    20490    20479    20459    20441    20432    20457 
   20511    20560    20599    20583    20530    20578    20737    20862 
   20864    20810    20819    20872    20902    20930    20904    20776 
   20642    20583    20584    20575    20497    20409    20387    20402 
   20387    20339    20293    20240    20229    20336    20461    20525 
   20590    20636    20668    20704    20618    20433    20380    20506 
   20668    20772    20736    20568    20463    20497    20561    20636 
   20695    20719    20740    20677    20602    20677    20773    20796 
   20845    20884    20835    20750    20731    20767    20776    20748 
   20706    20715    20835    20912    20827    20754    20749    20673 
   20594    20594    20580    20552    20555    20526    20453    20391 
   20387    20452    20486    20479    20540    20579    20517    20515 
   20614    20714    20853    20916    20791    20738    20826    20830 
   20771    20729    20659    20594    20537    20441    20371    20348 
   20299    20297    20397    20480    20542    20669    20790    20795 
   20790    20850    20830    20703    20672    20721    20675    20578 
   20579    20656    20652    20555    20494    20494    20534    20561 
   20478    20358    20333    20372    20432    20514    20591    20640 
   20659    20676    20718    20767    20767    20733    20775    20862 
   20864    20827    20812    20734    20580    20445    20370    20339 
   20358    20416    20416    20348    20405    20605    20710    20694 
   20725    20831    20923    20900    20761    20648    20646    20696 
   20709    20668    20659    20722    20777    20779    20792    20815 
   20753    20641    20578    20541    20499    20474    20472    20497 
   20480    20394    20380    20445    20443    20406    20409    20426 
   20468    20513    20537    20592    20625    20623    20698    20752 
   20707    20737    20848    20839    20760    20818    20930    20937 
   20887    20842    20785    20772    20817    20776    20641    20595 
   20648    20644    20590    20614    20725    20852    20962    21028 
   21057    21069    21039    20984    20987    21024    20965    20763 
   20607    20709    20849    20757    20648    20663    20663    20677 
   20723    20719    20677    20621    20594    20613    20607    20576 
   20556    20553    20547    20537    20563    20549    20429    20360 
   20391    20337    20216    20201    20250    20271    20266    20287 
   20394    20443    20337    20248    20223    20185    20163    20224 
   20333    20370    20352    20403    20505    20556    20540    20511 
   20559    20694    20798    20860    20937    20935    20853    20849 
   20912    20887    20763    20645    20613    20682    20742    20713 
   20656    20649    20656    20634    20650    20686    20680    20679 
   20650    20584    20603    20632    20514    20367    20310    20310 
   20374    20460    20497    20530    20576    20561    20509    20547 
   20630    20590    20468    20445    20517    20565    20580    20572 
   20511    20487    20521    20507    20482    20515    20534    20507 
   20493    20493    20493    20553    20617    20515    20347    20329 
   20387    20352    20285    20299    20353    20335    20297    20375 
   20459    20426    20437    20528    20575    20607    20588    20491 
   20463    20534    20629    20731    20804    20814    20845    20865 
   20761    20746    20903    20941    20850    20846    20862    20784 
   20750    20817    20837    20848    20902    20884    20810    20835 
   20939    20946    20929    21015    21016    20906    20899    20941 
   20915    20891    20876    20835    20810    20803    20764    20696 
   20622    20590    20613    20614    20607    20655    20628    20495 
   20460    20568    20679    20696    20588    20470    20476    20532 
   20553    20572    20587    20591    20594    20580    20472    20308 
   20305    20455    20486    20370    20351    20472    20538    20524 
   20528    20513    20459    20502    20638    20657    20560    20552 
   20606    20634    20690    20730    20731    20815    20911    20889 
   20877    20919    20929    20892    20777    20671    20698    20748 
   20669    20544    20560    20660    20663    20634    20673    20691 
   20637    20564    20559    20628    20727    20822    20817    20738 
   20727    20745    20717    20699    20700    20692    20668    20625 
   20582    20534    20484    20441    20447    20537    20609    20622 
   20677    20785    20852    20844    20810    20819    20884    20907 
   20868    20849    20799    20704    20652    20594    20544    20563 
   20545    20460    20448    20547    20571    20463    20420    20480 
   20510    20484    20493    20572    20630    20614    20560    20487 
   20501    20591    20517    20352    20386    20466    20356    20220 
   20224    20263    20231    20229    20316    20312    20241    20339 
   20488    20525    20542    20537    20497    20530    20534    20437 
   20425    20499    20497    20421    20405    20479    20509    20452 
   20417    20412    20387    20358    20333    20294    20224    20186 
   20245    20283    20266    20349    20433    20385    20405    20520 
   20545    20569    20691    20745    20725    20761    20818    20860 
   20871    20853    20869    20850    20788    20781    20781    20733 
   20648    20565    20560    20606    20599    20470    20353    20398 
   20467    20476    20451    20356    20278    20312    20405    20486 
   20483    20398    20326    20310    20402    20592    20660    20564 
   20582    20783    20935    20979    21069    21192    21231    21234 
   21244    21263    21319    21363    21328    21205    21111    21176 
   21230    21107    21022    21088    21123    21099    21116    21091 
   20968    20862    20791    20719    20748    20812    20750    20660 
   20667    20682    20642    20625    20694    20740    20676    20617 
   20606    20587    20578    20547    20478    20425    20386    20418 
   20561    20675    20713    20753    20787    20748    20686    20699 
   20687    20547    20414    20386    20379    20304    20218    20223 
   20285    20325    20290    20260    20370    20484    20460    20420 
   20448    20499    20542    20603    20677    20715    20737    20776 
   20817    20817    20754    20660    20559    20497    20472    20445 
   20434    20409    20366    20353    20336    20332    20403    20466 
   20430    20389    20449    20520    20533    20619    20767    20780 
   20692    20683    20706    20649    20594    20574    20559    20583 
   20591    20555    20556    20613    20672    20686    20629    20574 
   20591    20650    20673    20646    20602    20564    20583    20602 
   20553    20542    20561    20511    20480    20495    20501    20501 
   20503    20525    20578    20645    20704    20742    20772    20760 
   20694    20653    20702    20780    20817    20883    21018    21051 
   20947    20889    20848    20734    20723    20835    20852    20754 
   20687    20672    20687    20709    20711    20711    20709    20700 
   20729    20790    20825    20844    20850    20746    20603    20596 
   20610    20518    20459    20444    20326    20189    20177    20193 
   20160    20086    20016    20086    20213    20237    20274    20409 
   20486    20455    20501    20638    20623    20486    20483    20548 
   20513    20443    20378    20309    20264    20239    20237    20237 
   20217    20196    20135    20083    20154    20293    20356    20341 
   20371    20422    20393    20356    20379    20440    20610    20825 
   20887    20883    20941    20966    20969    20965    20889    20849 
   20904    20950    20954    20930    20947    21066    21168    21174 
   21169    21207    21240    21247    21259    21231    21166    21062 
   20862    20745    20788    20785    20758    20775    20746    20727 
   20758    20777    20772    20734    20684    20641    20559    20451 
   20387    20394    20443    20463    20426    20358    20298    20316 
   20308    20212    20197    20239    20212    20218    20290    20326 
   20344    20356    20349    20372    20416    20386    20358    20430 
   20475    20518    20665    20688    20564    20545    20574    20563 
   20636    20749    20710    20607    20673    20757    20630    20474 
   20460    20463    20439    20494    20571    20625    20687    20717 
   20698    20646    20632    20726    20792    20792    20875    20996 
   21039    21019    20992    21012    21064    21070    21026    21011 
   21023    20997    20970    20969    20915    20781    20682    20699 
   20780    20827    20848    20862    20834    20761    20725    20700 
   20590    20498    20510    20490    20420    20367    20324    20326 
   20376    20413    20452    20513    20509    20448    20482    20599 
   20602    20468    20448    20590    20591    20451    20429    20482 
   20510    20561    20587    20571    20584    20625    20668    20707 
   20718    20694    20682    20726    20773    20781    20815    20817 
   20696    20586    20551    20509    20484    20497    20510    20506 
   20421    20374    20501    20617    20615    20641    20686    20660 
   20594    20563    20614    20737    20811    20780    20706    20637 
   20642    20702    20713    20672    20584    20506    20544    20569 
   20472    20430    20444    20360    20326    20461    20576    20540 
   20488    20544    20632    20687    20738    20823    20889    20872 
   20826    20768    20704    20731    20775    20718    20655    20622 
   20540    20479    20513    20517    20484    20515    20538    20497 
   20507    20614    20663    20595    20613    20696    20596    20468 
   20542    20640    20633    20618    20661    20723    20733    20687 
   20605    20505    20482    20532    20457    20313    20340    20380 
   20340    20457    20621    20618    20619    20702    20727    20717 
   20765    20844    20871    20873    20850    20757    20717    20750 
   20730    20710    20704    20661    20664    20727    20722    20623 
   20540    20472    20456    20594    20691    20594    20553    20649 
   20663    20609    20660    20769    20791    20792    20842    20845 
   20838    20884    20877    20808    20765    20764    20781    20795 
   20806    20812    20818    20808    20783    20794    20826    20818 
   20807    20821    20795    20744    20734    20753    20713    20564 
   20399    20333    20325    20318    20317    20301    20263    20271 
   20335    20355    20312    20275    20270    20332    20394    20370 
   20359    20394    20367    20302    20306    20336    20336    20399 
   20499    20498    20457    20480    20517    20537    20568    20583 
   20590    20606    20592    20590    20626    20660    20744    20837 
   20787    20690    20692    20680    20606    20611    20637    20579 
   20576    20622    20544    20429    20387    20362    20351    20398 
   20466    20452    20398    20444    20507    20488    20502    20584 
   20607    20556    20542    20584    20628    20648    20610    20571 
   20621    20669    20656    20690    20742    20704    20657    20655 
   20605    20572    20623    20637    20628    20632    20567    20518 
   20563    20587    20511    20425    20461    20594    20698    20713 
   20702    20753    20775    20704    20677    20706    20713    20725 
   20717    20665    20638    20637    20638    20672    20700    20688 
   20715    20779    20777    20711    20667    20659    20622    20602 
