Origin Time       2024/04/02 04:24:00
Lat.              40.133
Long.             141.712
Depth. (km)       71
Mag.              6.0
Station Code      KKWH14
Station Lat.      43.3841
Station Long.     142.5245
Station Height(m) 239
Record Time       2024/04/02 04:26:09
Sampling Freq(Hz) 100Hz
Duration Time(s)  120
Dir.              2
Scale Factor      2942(gal)/8224139
Max. Acc. (gal)   0.222
Last Correction   2024/04/02 04:26:10
Memo.             
[...]
  157302   157331   157354   157369   157396   157431   157453   157458 
  157457   157438   157408   157395   157397   157396   157381   157356 
  157333   157329   157335   157333   157310   157270   157230   157204 
  157211   157241   157272   157297   157316   157333   157365   157400 
  157420   157435   157453   157462   157466   157481   157499   157509 
  157507   157489   157459   157435   157420   157418   157427   157450 
  157472   157474   157461   157445   157439   157446   157454   157455 
  157461   157486   157515   157518   157500   157484   157481   157472 
  157451   157446   157465   157491   157507   157513   157516   157523 
  157531   157522   157496   157474   157473   157485   157485   157468 
  157447   157422   157400   157387   157373   157368   157387   157408 
  157404   157377   157353   157339   157335   157339   157354   157373 
  157387   157387   157372   157350   157333   157314   157291   157272 
  157264   157258   157250   157245   157254   157272   157280   157273 
  157265   157258   157258   157277   157306   157326   157334   157329 
  157334   157347   157335   157312   157310   157316   157324   157343 
  157358   157365   157374   157391   157410   157418   157411   157408 
  157424   157453   157480   157492   157491   157481   157465   157451 
  157450   157454   157454   157443   157430   157401   157370   157368 
  157381   157385   157376   157353   157333   157326   157338   157361 
  157373   157362   157341   157324   157315   157307   157308   157315 
  157315   157315   157312   157310   157322   157337   157335   157330 
  157329   157326   157326   157329   157322   157303   157287   157273 
  157270   157283   157297   157296   157275   157246   157234   157250 
  157269   157277   157280   157288   157314   157343   157347   157334 
  157326   157323   157333   157360   157392   157403   157397   157403 
  157411   157408   157391   157373   157377   157401   157431   157458 
  157469   157459   157449   157451   157453   157451   157476   157519 
  157540   157536   157526   157501   157464   157441   157438   157438 
  157430   157416   157405   157404   157410   157415   157414   157412 
  157423   157464   157526   157563   157567   157555   157534   157508 
  157482   157438   157387   157351   157331   157314   157302   157295 
  157288   157280   157261   157223   157191   157184   157195   157219 
  157250   157280   157315   157362   157408   157447   157481   157500 
  157504   157486   157449   157407   157365   157326   157303   157297 
  157297   157307   157319   157322   157339   157378   157414   157428 
  157420   157396   157393   157427   157468   157495   157508   157508 
  157500   157488   157476   157464   157455   157442   157408   157369 
  157353   157342   157333   157341   157368   157401   157442   157488 
  157532   157566   157580   157581   157589   157603   157609   157612 
  157619   157627   157632   157615   157565   157497   157434   157391 
  157396   157439   157476   157496   157511   157516   157515   157508 
  157485   157439   157385   157343   157307   157270   157252   157264 
  157299   157339   157365   157378   157399   157428   157461   157486 
  157486   157457   157428   157427   157445   157464   157486   157515 
  157540   157561   157565   157540   157500   157477   157477   157476 
  157462   157451   157453   157468   157492   157509   157504   157485 
  157470   157477   157505   157518   157499   157468   157449   157445 
  157443   157424   157383   157350   157343   157349   157366   157392 
  157424   157469   157508   157523   157518   157504   157496   157486 
  157462   157431   157408   157393   157389   157408   157441   157466 
  157477   157473   157454   157428   157408   157383   157345   157312 
  157289   157265   157239   157233   157248   157264   157276   157293 
  157311   157319   157307   157280   157248   157219   157196   157198 
  157222   157246   157270   157302   157339   157376   157404   157416 
  157405   157385   157369   157360   157354   157342   157335   157356 
  157397   157431   157449   157465   157469   157439   157388   157327 
  157254   157185   157153   157157   157175   157208   157260   157315 
  157357   157377   157385   157396   157408   157397   157366   157335 
  157306   157277   157261   157254   157237   157215   157206   157202 
  157198   157214   157260   157314   157358   157393   157408   157389 
  157349   157318   157314   157322   157326   157319   157300   157283 
  157270   157254   157229   157185   157129   157088   157075   157084 
  157107   157142   157185   157221   157246   157279   157306   157323 
  157349   157378   157399   157415   157435   157461   157485   157507 
  157524   157543   157551   157551   157563   157599   157643   157692 
  157734   157755   157751   157717   157670   157626   157581   157542 
  157513   157473   157405   157341   157312   157306   157307   157324 
  157342   157334   157319   157311   157307   157322   157350   157384 
  157416   157431   157431   157443   157468   157484   157491   157488 
  157481   157482   157500   157530   157565   157585   157582   157567 
  157543   157520   157497   157446   157369   157299   157264   157262 
  157262   157234   157200   157194   157203   157212   157204   157181 
  157161   157141   157110   157086   157087   157115   157169   157245 
  157345   157453   157545   157603   157630   157628   157613   157590 
  157561   157518   157470   157442   157437   157427   157405   157380 
  157357   157350   157346   157341   157351   157381   157412   157437 
  157450   157458   157468   157476   157497   157538   157577   157604 
  157612   157615   157617   157597   157539   157469   157410   157360 
  157319   157302   157311   157343   157384   157415   157432   157453 
  157493   157553   157613   157666   157715   157767   157815   157835 
  157827   157801   157766   157732   157700   157662   157623   157592 
  157577   157566   157545   157505   157453   157397   157354   157329 
  157322   157333   157351   157370   157401   157442   157461   157447 
  157422   157404   157392   157372   157326   157261   157211   157198 
  157199   157185   157165   157146   157122   157098   157087   157096 
  157130   157184   157252   157322   157378   157419   157443   157438 
  157404   157362   157337   157338   157351   157345   157315   157284 
  157268   157266   157262   157230   157164   157083   157014   156980 
  156979   156982   156982   156991   157026   157079   157129   157177 
  157242   157316   157374   157410   157437   157453   157449   157450 
  157492   157569   157639   157680   157693   157693   157677   157639 
  157582   157516   157458   157415   157383   157361   157356   157345 
  157307   157254   157207   157171   157148   157130   157111   157086 
  157079   157108   157150   157188   157219   157221   157195   157169 
  157150   157135   157123   157119   157137   157169   157196   157212 
  157238   157289   157349   157401   157458   157508   157524   157507 
  157480   157438   157378   157315   157264   157241   157245   157248 
  157239   157233   157231   157241   157257   157272   157285   157304 
  157333   157365   157392   157430   157478   157524   157562   157574 
  157561   157539   157508   157468   157435   157416   157404   157397 
  157405   157437   157478   157513   157540   157565   157589   157615 
  157635   157657   157692   157729   157748   157744   157747   157770 
  157790   157778   157729   157667   157621   157600   157585   157562 
  157527   157495   157478   157476   157491   157523   157566   157612 
  157654   157700   157740   157742   157707   157655   157596   157542 
  157512   157504   157491   157462   157426   157385   157349   157318 
  157281   157233   157191   157173   157189   157230   157280   157333 
  157397   157472   157523   157531   157523   157516   157495   157450 
  157403   157369   157353   157356   157376   157414   157466   157520 
  157562   157589   157597   157592   157590   157592   157588   157567 
  157527   157491   157468   157451   157437   157434   157462   157522 
  157574   157580   157543   157481   157411   157374   157383   157410 
  157430   157454   157505   157577   157639   157671   157669   157638 
  157593   157562   157559   157567   157572   157580   157600   157619 
  157613   157574   157516   157454   157403   157376   157377   157404 
  157449   157493   157518   157519   157513   157512   157493   157427 
  157343   157283   157227   157167   157110   157053   157006   156988 
  156987   156984   157000   157053   157106   157126   157121   157106 
  157084   157071   157073   157077   157069   157059   157060   157080 
  157110   157144   157172   157184   157175   157158   157149   157134 
  157094   157041   156986   156940   156919   156915   156915   156926 
  156948   156979   157014   157030   157025   157027   157056   157090 
  157114   157137   157177   157239   157310   157368   157393   157392 
  157381   157376   157395   157439   157478   157489   157484   157484 
  157484   157470   157443   157415   157408   157422   157450   157489 
  157531   157569   157599   157611   157612   157631   157666   157681 
  157662   157634   157619   157621   157620   157601   157576   157546 
  157505   157459   157410   157346   157287   157266   157280   157296 
  157314   157343   157372   157391   157416   157455   157489   157491 
  157461   157427   157397   157361   157304   157245   157219   157231 
  157253   157277   157320   157374   157414   157422   157404   157380 
  157353   157326   157316   157333   157358   157397   157454   157508 
  157536   157535   157523   157511   157496   157469   157427   157387 
  157377   157397   157419   157437   157461   157486   157522   157585 
  157667   157732   157746   157708   157650   157584   157511   157454 
  157423   157408   157405   157408   157403   157381   157351   157322 
  157292   157261   157235   157215   157191   157164   157140   157114 
  157081   157056   157053   157067   157079   157088   157102   157121 
  157131   157119   157088   157064   157061   157068   157065   157059 
  157056   157054   157060   157087   157144   157207   157253   157291 
  157320   157341   157356   157376   157391   157387   157378   157389 
  157416   157458   157511   157559   157605   157654   157697   157725 
  157747   157774   157801   157827   157863   157910   157940   157941 
  157918   157875   157821   157777   157743   157701   157658   157623 
  157601   157609   157635   157646   157651   157671   157707   157735 
  157746   157746   157738   157711   157665   157617   157582   157572 
  157574   157572   157563   157567   157581   157582   157574   157578 
  157597   157619   157623   157593   157558   157547   157527   157468 
  157414   157387   157360   157320   157285   157260   157227   157189 
  157180   157215   157266   157315   157357   157399   157451   157518 
  157581   157623   157654   157684   157712   157735   157748   157752 
  157754   157740   157700   157655   157630   157612   157584   157540 
  157492   157454   157419   157378   157346   157335   157324   157304 
  157288   157279   157269   157260   157264   157288   157308   157310 
  157297   157273   157245   157229   157231   157250   157269   157275 
  157279   157300   157329   157349   157361   157361   157346   157326 
  157302   157261   157207   157165   157145   157127   157098   157067 
  157049   157037   157014   156983   156953   156924   156906   156891 
  156867   156841   156832   156840   156855   156865   156872   156878 
  156901   156946   156992   157023   157038   157061   157107   157164 
  157214   157264   157308   157337   157357   157374   157388   157403 
  157418   157422   157415   157388   157330   157243   157154   157080 
  157036   157023   157040   157072   157103   157125   157149   157171 
  157175   157165   157173   157225   157306   157380   157422   157434 
  157435   157423   157395   157365   157346   157330   157312   157292 
  157284   157302   157343   157396   157450   157508   157565   157612 
  157653   157688   157713   157729   157732   157729   157739   157752 
  157754   157750   157752   157763   157778   157781   157752   157704 
  157673   157671   157678   157677   157677   157694   157729   157761 
  157785   157817   157851   157871   157871   157869   157885   157910 
  157921   157900   157847   157782   157729   157693   157661   157634 
  157628   157635   157630   157611   157609   157634   157658   157661 
  157646   157628   157615   157608   157597   157574   157543   157509 
  157484   157478   157496   157515   157513   157493   157468   157446 
  157435   157428   157411   157384   157358   157334   157315   157302 
  157283   157246   157204   157185   157195   157211   157235   157266 
  157293   157314   157329   157343   157369   157399   157422   157428 
  157414   157395   157391   157399   157407   157411   157420   157430 
  157423   157405   157384   157356   157323   157300   157277   157243 
  157215   157200   157188   157181   157183   157188   157203   157243 
  157310   157378   157426   157441   157438   157437   157424   157381 
  157319   157265   157227   157184   157133   157090   157061   157036 
  157009   156978   156934   156883   156834   156810   156821   156860 
  156930   157022   157106   157168   157206   157215   157215   157216 
  157208   157198   157196   157188   157150   157088   157029   156991 
  156967   156937   156895   156845   156798   156771   156776   156818 
  156875   156905   156918   156945   156969   156983   157006   157048 
  157104   157168   157216   157238   157253   157284   157323   157350 
  157361   157364   157360   157341   157303   157258   157227   157214 
  157227   157273   157337   157391   157427   157458   157489   157509 
  157507   157496   157496   157518   157559   157605   157648   157690 
  157728   157755   157767   157773   157778   157789   157801   157813 
  157813   157789   157752   157727   157717   157717   157725   157742 
  157761   157793   157831   157842   157806   157755   157716   157689 
  157671   157673   157694   157723   157756   157793   157824   157837 
  157829   157819   157819   157820   157806   157774   157734   157694 
  157653   157615   157589   157581   157590   157609   157619   157607 
  157577   157545   157520   157500   157472   157437   157407   157383 
  157356   157322   157291   157269   157257   157242   157219   157188 
  157149   157130   157148   157181   157214   157256   157306   157345 
  157370   157389   157397   157393   157385   157368   157335   157299 
  157268   157237   157214   157212   157203   157176   157162   157169 
  157177   157191   157216   157248   157272   157292   157327   157373 
  157395   157395   157399   157415   157439   157454   157442   157408 
  157358   157307   157281   157283   157292   157302   157306   157306 
  157318   157341   157370   157401   157420   157427   157432   157455 
  157501   157557   157611   157663   157702   157728   157738   157715 
  157665   157605   157559   157543   157543   157538   157522   157505 
  157491   157486   157499   157512   157515   157526   157549   157559 
  157546   157528   157520   157522   157543   157585   157627   157650 
  157661   157667   157658   157626   157590   157580   157590   157605 
  157613   157608   157603   157608   157612   157601   157569   157523 
  157477   157432   157385   157335   157293   157272   157270   157269 
  157262   157253   157248   157245   157234   157207   157175   157149 
  157140   157141   157146   157146   157148   157161   157181   157195 
  157189   157164   157134   157111   157102   157102   157095   157072 
  157050   157041   157042   157059   157077   157092   157111   157126 
  157118   157102   157096   157095   157086   157071   157054   157054 
  157087   157142   157203   157257   157284   157296   157322   157356 
  157387   157412   157434   157453   157469   157481   157485   157477 
  157457   157430   157411   157407   157405   157397   157383   157368 
  157354   157334   157310   157297   157300   157299   157287   157285 
  157307   157338   157370   157404   157431   157441   157432   157416 
  157396   157378   157374   157380   157380   157369   157350   157319 
  157283   157253   157227   157192   157158   157142   157145   157171 
  157222   157272   157304   157327   157346   157362   157376   157388 
  157395   157404   157432   157476   157516   157540   157543   157530 
  157515   157491   157454   157424   157414   157423   157446   157468 
  157484   157503   157545   157607   157659   157692   157720   157761 
  157804   157829   157829   157819   157815   157820   157828   157833 
  157831   157820   157793   157747   157689   157634   157573   157505 
  157443   157396   157358   157326   157300   157277   157254   157230 
  157212   157214   157226   157239   157258   157284   157307   157311 
  157288   157249   157199   157150   157121   157106   157095   157096 
  157117   157148   157176   157188   157183   157169   157160   157158 
  157162   157172   157175   157173   157183   157202   157215   157227 
  157243   157264   157295   157339   157387   157427   157451   157464 
  157473   157478   157489   157504   157513   157512   157497   157477 
  157459   157458   157470   157485   157489   157480   157477   157493 
  157516   157536   157543   157536   157519   157493   157455   157405 
  157368   157356   157356   157358   157373   157392   157408   157427 
  157449   157470   157504   157545   157569   157585   157608   157626 
  157621   157605   157589   157576   157567   157566   157572   157582 
  157592   157590   157580   157562   157543   157534   157532   157526 
  157507   157488   157470   157443   157410   157385   157376   157380 
  157393   157405   157414   157419   157420   157422   157431   157453 
  157481   157508   157523   157526   157527   157523   157511   157492 
  157468   157435   157401   157370   157333   157283   157231   157185 
  157148   157118   157092   157079   157090   157118   157145   157164 
  157177   157183   157183   157177   157180   157196   157211   157214 
  157208   157208   157215   157210   157192   157169   157141   157121 
  157114   157104   157086   157075   157086   157119   157169   157219 
  157264   157324   157404   157473   157519   157561   157608   157650 
  157685   157717   157750   157771   157779   157771   157750   157728 
  157717   157709   157698   157688   157677   157666   157662   157673 
  157689   157709   157735   157748   157755   157765   157767   157751 
  157725   157705   157698   157700   157694   157673   157647   157635 
  157636   157623   157577   157520   157472   157437   157410   157374 
  157326   157285   157266   157265   157265   157265   157279   157302 
  157316   157320   157316   157306   157293   157281   157273   157266 
  157257   157245   157242   157250   157264   157283   157292   157283 
  157262   157241   157229   157219   157199   157175   157165   157164 
  157161   157167   157187   157211   157233   157258   157287   157314 
  157331   157353   157389   157435   157472   157500   157524   157534 
  157518   157495   157477   157457   157431   157396   157361   157327 
  157291   157253   157219   157192   157169   157146   157119   157087 
