Origin Time       2024/04/02 04:24:00
Lat.              40.133
Long.             141.712
Depth. (km)       71
Mag.              6.0
Station Code      KSRH05
Station Lat.      43.2556
Station Long.     144.2338
Station Height(m) -216.1
Record Time       2024/04/02 04:25:33
Sampling Freq(Hz) 100Hz
Duration Time(s)  129
Dir.              2
Scale Factor      2942(gal)/8224139
Max. Acc. (gal)   0.977
Last Correction   2024/04/02 04:25:34
Memo.             
[...]
   88612    88554    88500    88434    88365    88379    88416    88425 
   88462    88504    88460    88354    88327    88433    88557    88530 
   88350    88252    88354    88484    88507    88510    88584    88654 
   88584    88450    88422    88469    88476    88423    88398    88442 
   88488    88554    88659    88676    88577    88500    88547    88649 
   88569    88334    88246    88315    88306    88222    88257    88404 
   88491    88501    88539    88657    88781    88755    88643    88578 
   88477    88362    88388    88487    88468    88346    88325    88418 
   88445    88434    88501    88566    88581    88577    88533    88464 
   88441    88465    88426    88295    88218    88241    88244    88221 
   88207    88203    88258    88304    88257    88254    88392    88527 
   88516    88435    88416    88443    88434    88379    88393    88511 
   88549    88429    88318    88377    88520    88541    88533    88647 
   88704    88631    88603    88585    88484    88411    88450    88507 
   88476    88446    88542    88604    88512    88503    88659    88728 
   88627    88488    88404    88352    88277    88258    88339    88402 
   88392    88362    88400    88528    88593    88543    88526    88564 
   88538    88443    88391    88420    88454    88461    88465    88435 
   88410    88438    88445    88400    88372    88399    88457    88507 
   88577    88604    88503    88408    88381    88296    88248    88326 
   88360    88360    88461    88555    88549    88489    88472    88506 
   88491    88480    88539    88530    88406    88357    88491    88626 
   88591    88522    88515    88450    88364    88393    88499    88570 
   88554    88519    88533    88447    88260    88187    88214    88304 
   88479    88582    88582    88574    88557    88596    88682    88630 
   88446    88335    88416    88577    88614    88547    88484    88452 
   88472    88453    88431    88489    88447    88319    88337    88464 
   88580    88686    88711    88628    88561    88538    88515    88515 
   88595    88724    88732    88539    88308    88177    88141    88184 
   88260    88294    88304    88388    88526    88537    88453    88501 
   88578    88493    88408    88398    88327    88238    88231    88260 
   88236    88136    88113    88311    88483    88447    88470    88576 
   88506    88391    88462    88607    88643    88611    88634    88662 
   88576    88464    88499    88642    88690    88577    88466    88454 
   88443    88377    88310    88290    88354    88507    88627    88615 
   88574    88533    88387    88233    88168    88155    88254    88398 
   88476    88596    88645    88491    88410    88477    88442    88307 
   88314    88487    88570    88446    88299    88307    88470    88630 
   88635    88562    88515    88472    88468    88503    88520    88542 
   88554    88493    88393    88333    88327    88311    88321    88443 
   88555    88531    88466    88426    88353    88308    88420    88581 
   88622    88612    88630    88584    88496    88461    88410    88337 
   88330    88361    88391    88435    88488    88545    88588    88578 
   88547    88560    88533    88391    88242    88213    88331    88476 
   88519    88596    88742    88678    88437    88352    88425    88492 
   88497    88461    88510    88585    88515    88375    88300    88361 
   88508    88545    88499    88550    88597    88493    88327    88229 
   88234    88264    88284    88385    88483    88470    88477    88546 
   88573    88523    88445    88470    88573    88554    88526    88608 
   88576    88446    88400    88365    88361    88434    88462    88435 
   88375    88323    88383    88441    88393    88308    88209    88191 
   88299    88381    88461    88614    88726    88716    88597    88464 
   88415    88402    88372    88366    88364    88288    88236    88300 
   88338    88321    88419    88549    88560    88580    88681    88740 
   88740    88722    88701    88673    88537    88368    88396    88500 
   88425    88300    88342    88446    88462    88443    88535    88738 
   88812    88699    88593    88534    88441    88345    88314    88300 
   88256    88291    88408    88446    88450    88537    88596    88542 
   88453    88414    88422    88384    88337    88425    88497    88402 
   88337    88393    88365    88287    88383    88508    88427    88234 
   88125    88230    88473    88600    88611    88663    88666    88577 
   88596    88707    88697    88584    88510    88489    88457    88456 
   88531    88550    88493    88476    88461    88435    88418    88383 
   88399    88412    88323    88260    88283    88346    88457    88461 
   88357    88410    88516    88445    88339    88352    88497    88657 
   88627    88515    88519    88537    88499    88491    88530    88565 
   88555    88541    88533    88464    88427    88489    88542    88561 
   88553    88538    88566    88491    88294    88241    88330    88403 
   88443    88393    88337    88365    88314    88241    88353    88491 
   88524    88627    88796    88824    88705    88547    88392    88295 
   88250    88280    88460    88628    88619    88564    88515    88470 
   88493    88454    88323    88330    88443    88410    88280    88267 
   88310    88290    88287    88388    88542    88658    88603    88402 
   88315    88415    88503    88465    88371    88403    88543    88538 
   88396    88387    88522    88547    88473    88511    88566    88535 
   88573    88639    88546    88398    88438    88578    88538    88426 
   88452    88504    88491    88433    88400    88437    88399    88337 
   88414    88450    88353    88279    88292    88420    88580    88676 
   88713    88623    88487    88465    88434    88342    88330    88392 
   88439    88422    88385    88477    88622    88596    88497    88524 
   88581    88574    88550    88516    88434    88323    88273    88292 
   88339    88430    88553    88658    88635    88449    88327    88404 
   88533    88511    88352    88348    88480    88445    88375    88407 
   88361    88261    88249    88291    88248    88129    88194    88472 
   88618    88562    88589    88734    88755    88626    88551    88558 
   88539    88500    88488    88512    88507    88450    88462    88496 
   88429    88466    88674    88739    88645    88632    88635    88519 
   88352    88245    88276    88319    88241    88196    88283    88348 
   88419    88612    88728    88628    88547    88585    88555    88458 
   88501    88597    88533    88419    88422    88519    88574    88481 
   88399    88453    88582    88591    88310    88141    88400    88589 
   88418    88196    88157    88244    88202    88102    88284    88466 
   88358    88358    88597    88711    88539    88354    88464    88620 
   88468    88358    88635    88828    88570    88291    88295    88308 
   88213    88132    88133    88273    88388    88335    88380    88611 
   88766    88735    88650    88668    88662    88493    88380    88435 
   88542    88596    88541    88518    88538    88362    88236    88489 
   88753    88747    88697    88688    88666    88604    88441    88242 
   88186    88379    88623    88615    88479    88479    88514    88499 
   88553    88658    88611    88330    88017    87914    88083    88326 
   88358    88287    88376    88515    88541    88533    88582    88597 
   88504    88431    88420    88379    88366    88384    88345    88368 
   88497    88603    88668    88716    88699    88524    88288    88314 
   88533    88543    88422    88476    88605    88612    88520    88460 
   88508    88492    88318    88285    88437    88445    88318    88307 
   88399    88507    88599    88547    88445    88580    88744    88568 
   88308    88329    88439    88406    88314    88321    88435    88546 
   88570    88493    88452    88574    88647    88524    88412    88372 
   88314    88287    88341    88369    88303    88300    88426    88496 
   88493    88576    88654    88562    88456    88511    88620    88663 
   88588    88349    88236    88511    88723    88580    88477    88487 
   88449    88452    88430    88360    88323    88264    88284    88456 
   88596    88588    88515    88487    88408    88299    88402    88543 
   88558    88689    88842    88726    88522    88473    88524    88503 
   88399    88416    88534    88537    88470    88449    88528    88695 
   88723    88608    88546    88487    88353    88244    88269    88362 
   88375    88371    88335    88249    88375    88604    88569    88400 
   88406    88647    88842    88626    88292    88341    88487    88307 
   88107    88279    88511    88445    88327    88358    88364    88268 
   88198    88341    88626    88673    88400    88204    88335    88538 
   88508    88372    88407    88479    88290    88106    88356    88749 
   88763    88549    88500    88554    88497    88384    88323    88353 
   88433    88385    88329    88469    88501    88364    88329    88250 
   88123    88217    88516    88812    88888    88713    88491    88406 
   88434    88469    88522    88473    88294    88338    88595    88605 
   88449    88497    88612    88572    88566    88674    88700    88612 
   88468    88308    88245    88292    88372    88422    88454    88476 
   88358    88095    87961    88130    88393    88520    88523    88379 
   88275    88497    88749    88722    88553    88337    88258    88423 
   88512    88399    88330    88377    88483    88624    88658    88554 
   88527    88649    88688    88489    88249    88236    88465    88608 
   88360    88119    88346    88697    88828    88777    88612    88542 
   88578    88454    88362    88566    88720    88541    88299    88272 
   88348    88408    88500    88541    88493    88535    88673    88730 
   88681    88623    88596    88547    88420    88349    88524    88778 
   88722    88438    88396    88520    88396    88222    88206    87999 
   87778    88015    88384    88483    88499    88697    88963    88921 
   88705    88727    88723    88460    88338    88555    88753    88585 
   88192    88009    88129    88285    88389    88484    88491    88350 
   88171    88105    88198    88350    88462    88492    88516    88736 
   89014    89024    88912    88785    88364    87786    87542    87718 
   88105    88472    88676    88838    89029    89027    88781    88641 
   88759    88746    88331    87831    87625    87679    87790    88084 
   88669    89071    88973    88790    88803    88678    88429    88516 
   88813    88840    88533    88148    88051    88144    88030    88037 
   88470    88786    88749    88722    88759    88577    88055    87644 
   87913    88576    88978    88994    88963    89102    89066    88681 
   88434    88489    88564    88643    88704    88461    87886    87381 
   87335    87786    88388    88659    88603    88524    88456    88435 
   88572    88680    88596    88322    87844    87536    87933    88696 
   89063    89005    88923    88997    89132    88985    88468    88146 
   88214    88149    88060    88441    88889    88865    88631    88526 
   88402    88150    87949    87880    87858    87939    88182    88346 
   88418    88731    89122    89267    89280    89102    88649    88203 
   87822    87421    87363    88024    89074    89633    89197    88304 
   87902    88169    88462    88360    88129    88083    88183    88186 
   88086    88348    88874    89081    89209    89486    89587    89511 
   89233    88703    88206    87862    87739    87793    87764    87924 
   88442    88576    88064    87758    88199    88840    88848    88404 
   88461    88850    88554    87886    87925    88557    88873    88681 
   88624    88790    88373    87463    87239    87932    88534    88534 
   88558    88942    89006    88560    88281    88283    88211    88209 
   88446    88623    88388    87903    87739    88002    88334    88681 
   89048    89348    89637    89954    90207    90036    89306    88496 
   87893    87512    87598    88029    88261    88206    88300    88716 
   89063    89110    89021    88651    87812    87138    87454    88400 
   88781    88296    87895    88086    88153    87868    88037    88566 
   88569    88319    88608    89048    88994    88662    88279    87909 
   87750    87687    87805    88294    88619    88543    88572    88767 
   88840    88821    88819    88885    88942    88932    89193    89592 
   89276    88299    87725    87799    87617    87120    87400    88364 
   89012    89233    89244    89050    88600    88203    88624    89328 
   88970    88091    87874    88006    87864    87501    87301    87709 
   88624    89360    89711    90042    90236    89703    88592    87870 
   87740    87550    87015    86387    86275    86941    87878    88612 
   88874    88732    88717    88974    89314    89548    89478    89415 
   89325    88618    87980    88268    88595    88001    87116    87382 
   88869    89924    89826    89429    89208    88773    87999    87583 
   87732    87632    87357    87669    88075    88037    88210    88847 
   89557    90096    90066    89424    88732    88298    88063    87961 
   87901    87790    87689    87764    87906    88061    88584    89317 
   89581    89368    89172    89106    88790    88042    87721    88578 
   89392    88884    88057    87990    88082    87739    87436    87920 
   88784    88958    88657    88607    88623    88719    89139    89156 
   88272    87527    87764    88188    88024    87959    88655    89195 
   88577    87687    87845    88568    88858    89122    90066    90913 
   90320    88454    86636    85730    85947    86903    87727    88361 
   89490    90595    90471    89428    88715    88526    88231    87774 
   87563    87698    87999    88229    88254    88330    88771    89403 
   89685    89397    88740    87855    87087    87174    87970    88379 
   88292    88411    88719    89006    89257    89108    88496    87970 
   87832    87957    88057    88113    88348    88483    88277    88115 
   88253    88530    88692    88857    89343    89796    89491    88550 
   87885    87860    88071    88294    88442    88345    88214    88196 
   88140    88312    88898    89311    89090    88701    88653    88483 
   87948    87750    87964    88214    88684    89105    89087    88870 
   88466    88002    87862    88048    88400    88608    88585    88622 
   88570    88210    87667    87169    87370    88392    89125    89171 
   89064    88450    87123    86458    87454    89086    89892    89702 
   89233    89127    89399    89417    88777    88279    88788    89438 
   89089    88268    87786    87566    87462    87610    88156    88878 
   89158    88842    88425    88083    87747    87770    88426    89160 
   89124    88489    88055    87750    87407    87751    88847    89415 
   88932    88541    88993    89372    88846    88113    88009    88254 
   88429    88457    88148    87678    87601    88034    88736    89262 
   89280    89191    89248    88912    88051    87419    87532    87964 
   87975    87581    87590    88264    88723    88531    88628    89311 
   89475    88904    88574    88936    89442    89079    87994    87562 
   87990    88373    88373    88207    88161    88330    88527    88646 
   88754    88848    88762    88334    87798    87570    87682    87961 
   88491    89298    89577    88742    88025    88425    88838    88431 
   87928    88007    88572    88798    88179    87920    88744    89027 
   88047    87211    87205    87610    88164    88708    88913    88615 
   88416    88771    88885    88445    88596    89487    89684    88908 
   88419    88550    88501    88164    87967    87859    87717    87759 
   88119    88515    88647    88754    89145    89506    89206    88387 
   88099    88562    88735    88302    87868    87787    88172    88697 
   88844    88878    89086    88805    87822    87467    88375    88946 
   88308    87698    87732    87878    87976    88318    88946    89487 
   89922    90293    89868    88828    88635    89195    89029    88136 
   87550    87500    87686    87837    87891    88111    88503    88788 
   89031    89101    88669    88226    88261    88325    88184    88114 
   88017    87679    87531    88396    89808    89900    88746    88487 
   89102    88716    87650    87696    88692    89118    88555    87759 
   87474    87751    88173    88582    89062    89368    89068    88256 
   87658    87759    88115    88202    88256    88533    88839    88963 
   88938    89101    89453    89349    88739    88315    88295    88466 
   88546    88095    87389    87336    87818    88071    88310    88844 
   88993    88553    88479    89066    89426    89074    88550    88431 
   88520    88445    88460    88723    88866    88827    88874    88969 
   88986    89032    89014    88632    88234    88466    88724    88020 
   87088    87208    87953    88167    88041    88453    89147    89236 
   88753    88453    88526    88500    88261    87991    87747    87791 
   88261    88813    89109    88919    88234    87751    88072    88545 
   88344    87895    87887    88238    88339    87687    86883    87127 
   88221    88881    88859    88975    89411    89465    89052    88811 
   88771    88503    88005    87752    88136    88597    88411    88169 
   88495    88759    88573    88431    88645    88962    89008    88935 
   89143    89166    88589    88238    88470    88576    88631    89158 
   89486    88750    87566    87189    87781    88492    88681    88512 
   88469    88535    88493    88651    89114    89185    88543    87787 
   87494    87598    87581    87544    88157    89039    89158    88537 
   88121    88360    88666    88690    88813    89043    89058    88754 
   88287    88060    88117    88111    88153    88499    88901    88935 
   88453    87916    88053    88589    88569    88090    88020    88507 
   88878    88758    88631    88824    88888    88578    88400    88713 
   89002    88809    88511    88273    87868    87637    87735    87583 
   87326    87678    88365    88569    88373    88479    88692    88350 
   88006    88275    88634    88807    88932    88992    89106    89278 
   89328    89139    88677    88184    87879    87531    87139    87147 
   87455    87860    88524    89074    89232    89353    89260    88673 
   88210    88273    88383    88415    88618    88692    88622    88839 
   89208    89496    89596    89094    88269    88021    88366    88755 
   89016    89175    89239    88992    88267    87623    87704    88175 
   88321    88078    87758    87475    87435    87993    88884    89282 
   89071    88804    88696    88697    88716    88585    88349    88269 
   88437    88585    88460    88230    88040    87637    87259    87571 
   88348    88784    88888    89220    89430    88678    87619    87617 
   88430    88854    88600    88250    88122    88041    88067    88389 
   88773    88954    88923    88767    88695    88636    88348    88215 
   88562    88819    88724    88715    88740    88284    87655    87875 
   88728    88816    88065    87579    87627    87922    88349    88701 
   88757    88589    88669    89160    89518    89513    89433    89494 
   89557    89112    88357    88110    88069    87629    87496    88159 
   88670    88542    88592    89121    89406    89058    88426    88049 
   88092    88096    87755    87608    88051    88442    88304    88298 
   88771    89051    89031    89251    89488    89310    88970    88773 
