Origin Time       2024/04/02 04:24:00
Lat.              40.133
Long.             141.712
Depth. (km)       71
Mag.              6.0
Station Code      KSRH03
Station Lat.      43.3848
Station Long.     144.6279
Station Height(m) -24
Record Time       2024/04/02 04:25:35
Sampling Freq(Hz) 100Hz
Duration Time(s)  166
Dir.              2
Scale Factor      2940(gal)/6170270
Max. Acc. (gal)   1.239
Last Correction   2024/04/02 04:25:20
Memo.             
[...]
   63332    63249    63263    63235    63171    63163    63139    63143 
   63259    63352    63391    63453    63498    63443    63294    63253 
   63345    63334    63295    63335    63325    63324    63353    63298 
   63225    63210    63239    63275    63278    63308    63334    63263 
   63253    63315    63224    63104    63120    63123    63122    63206 
   63304    63423    63485    63399    63300    63186    63057    63059 
   63143    63245    63348    63348    63301    63295    63281    63254 
   63213    63139    63118    63156    63217    63354    63481    63467 
   63419    63447    63457    63394    63379    63461    63511    63487 
   63461    63386    63225    63088    63035    63064    63160    63275 
   63372    63432    63407    63305    63234    63185    63138    63177 
   63238    63239    63268    63339    63362    63370    63415    63388 
   63248    63166    63227    63264    63168    63116    63215    63312 
   63335    63400    63481    63440    63379    63367    63263    63142 
   63153    63189    63177    63196    63261    63340    63379    63338 
   63331    63413    63494    63519    63514    63523    63538    63494 
   63365    63230    63189    63242    63329    63323    63187    63122 
   63174    63208    63243    63294    63349    63505    63733    63834 
   63739    63574    63465    63404    63369    63379    63303    63122 
   63052    63060    63061    63174    63290    63283    63301    63354 
   63329    63264    63246    63281    63290    63271    63299    63319 
   63282    63312    63441    63426    63204    63100    63219    63273 
   63173    63096    63133    63217    63247    63261    63352    63421 
   63401    63398    63427    63435    63421    63425    63427    63316 
   63188    63199    63294    63401    63420    63335    63330    63386 
   63386    63380    63326    63207    63125    63108    63161    63255 
   63298    63272    63207    63152    63159    63164    63147    63223 
   63373    63486    63530    63497    63416    63356    63318    63240 
   63141    63105    63117    63132    63158    63148    63093    63107 
   63239    63391    63445    63384    63310    63285    63331    63495 
   63609    63482    63325    63286    63194    63149    63283    63353 
   63292    63285    63306    63280    63294    63311    63239    63144 
   63084    63110    63260    63420    63450    63390    63353    63359 
   63397    63425    63429    63524    63649    63612    63445    63256 
   63096    63004    62968    62974    63006    63014    63076    63257 
   63381    63342    63329    63439    63502    63466    63471    63421 
   63240    63185    63247    63236    63215    63202    63158    63096 
   63015    62987    63037    63124    63263    63477    63697    63767 
   63599    63381    63352    63419    63397    63346    63351    63317 
   63285    63396    63489    63436    63370    63349    63373    63403 
   63347    63277    63256    63211    63107    62989    62965    63048 
   63147    63265    63347    63401    63510    63554    63537    63564 
   63513    63401    63358    63321    63299    63281    63176    63140 
   63195    63134    63082    63140    63170    63242    63375    63411 
   63409    63442    63406    63296    63234    63269    63407    63590 
   63611    63430    63298    63309    63294    63206    63128    63041 
   62950    62983    63180    63373    63390    63293    63250    63276 
   63285    63295    63357    63399    63362    63327    63316    63261 
   63180    63125    63117    63191    63261    63215    63189    63268 
   63297    63291    63361    63461    63505    63435    63376    63451 
   63464    63271    63063    63029    63103    63154    63193    63306 
   63506    63644    63585    63427    63336    63350    63451    63537 
   63444    63230    63077    63030    63051    63059    63028    63058 
   63197    63409    63601    63649    63560    63469    63455    63485 
   63443    63340    63352    63414    63385    63338    63248    63075 
   62934    62923    63064    63270    63427    63476    63457    63484 
   63507    63451    63396    63423    63526    63574    63473    63352 
   63292    63251    63258    63233    63102    63029    63057    63072 
   63083    63182    63372    63498    63506    63460    63354    63236 
   63166    63166    63200    63166    63176    63374    63584    63629 
   63566    63437    63224    63070    63080    63094    63054    63153 
   63417    63644    63693    63556    63372    63271    63290    63448 
   63587    63617    63754    63948    63860    63584    63457    63438 
   63366    63333    63351    63238    63024    62941    63024    63060 
   62961    62955    63101    63188    63206    63260    63292    63217 
   63093    63086    63240    63452    63687    63939    64070    63968 
   63630    63139    62717    62621    62867    63190    63360    63388 
   63349    63218    63034    62914    62858    62872    63001    63065 
   62909    62713    62733    62951    63163    63321    63463    63475 
   63365    63333    63396    63419    63414    63466    63476    63314 
   63152    63155    63245    63385    63556    63777    64157    64493 
   64415    63995    63544    63194    62993    62984    63205    63575 
   63853    63891    63677    63339    63052    62741    62367    62143 
   62111    62163    62332    62554    62671    62748    62919    63139 
   63277    63291    63320    63467    63648    63843    64095    64230 
   64020    63606    63270    63018    62920    63088    63308    63371 
   63249    62979    62685    62511    62577    62850    63117    63280 
   63370    63428    63565    63916    64377    64560    64253    63754 
   63390    63218    63312    63620    63932    64132    64062    63723 
   63309    62940    62627    62192    61770    61865    62460    63270 
   64125    64591    64458    64089    63683    63237    62823    62476 
   62347    62374    62266    62192    62329    62560    62993    63578 
   63903    63828    63557    63296    63121    62940    62860    63206 
   63776    64209    64554    64695    64444    64122    64216    64700 
   65031    64793    64099    63483    63337    63456    63431    63225 
   62964    62654    62406    62269    62131    62049    62067    62145 
   62359    62698    63047    63385    63675    63742    63448    62927 
   62518    62420    62566    62839    63143    63241    63081    62997 
   63201    63665    64204    64533    64620    64584    64327    63806 
   63409    63388    63397    63308    63420    63811    64312    64445 
   63874    63130    62749    62589    62430    62356    62514    62691 
   62645    62703    63175    63583    63504    63305    63173    62949 
   62833    63028    63399    63790    64174    64392    64218    63718 
   63133    62570    62189    62313    62814    63175    63354    63550 
   63592    63359    63141    63065    62996    63192    63672    63760 
   63427    63273    63232    63018    62867    62934    62995    63049 
   63356    63946    64439    64340    63798    63342    62919    62561 
   62775    63415    63799    63829    63877    64046    64025    63561 
   62912    62418    62043    61775    61784    62154    62887    63732 
   64125    63859    63231    62606    62368    62498    62469    62241 
   62444    63281    64208    64825    65132    65035    64612    64278 
   64118    63861    63534    63383    63420    63591    63865    63943 
   63510    62827    62521    62820    63367    63672    63545    63187 
   62784    62383    62243    62501    62930    63364    63701    63927 
   64122    64219    64271    64312    63862    62862    62100    61820 
   61607    61532    61879    62473    63081    63748    64570    65260 
   65203    64555    64026    63510    62762    62274    62409    62891 
   63397    63760    63593    62865    62455    62934    63600    63654 
   63311    63107    63198    63523    63840    63829    63443    62978 
   62686    62418    62148    62301    62897    63533    64070    64409 
   64472    64418    64312    63969    63388    63009    62976    62975 
   63011    62999    62554    61955    61735    61933    62409    62957 
   63429    63845    64121    64172    64044    63809    63590    63374 
   62897    62297    62087    62161    62030    61775    61938    62664 
   63346    63672    63996    64323    64532    64913    65475    65638 
   65014    64024    63227    62574    62046    62001    62422    62879 
   63175    63286    63224    63103    62956    62897    63153    63474 
   63457    63142    62620    62145    62163    62646    63436    64280 
   64568    64359    64325    64442    64448    64539    64516    64050 
   63496    63055    62655    62486    62313    61774    61499    62169 
   63190    63595    63348    63027    62940    63147    63778    64567 
   64831    64421    63925    63789    63646    62990    62348    62589 
   63449    64028    63948    63295    62381    61812    62019    62829 
   63632    63830    63523    63365    63558    63765    63724    63690 
   64072    64567    64578    64124    63546    62943    62401    62273 
   62670    63083    62995    62547    62094    61648    61368    61682 
   62544    63404    63935    64247    64394    64369    64422    64432 
   64012    63513    63330    63343    63659    64088    63904    63300 
   63129    63446    63837    64117    64197    64032    63595    62967 
   62479    62395    62651    63023    63273    63252    62925    62284 
   61606    61526    62159    62767    63006    63192    63204    63023 
   63174    63527    63638    63664    63716    63645    63532    63449 
   63240    63008    62992    63186    63719    64658    65524    65764 
   65339    64782    64491    64215    63814    63454    63091    62675 
   62319    62248    62448    62514    62421    62488    62767    63116 
   63293    63223    62953    62376    61773    61647    61853    62173 
   62670    63190    63707    64164    64322    64394    64527    64523 
   64510    64561    64467    64335    64390    64481    64366    63942 
   63356    62981    62835    62673    62559    62603    62661    62740 
   62982    62951    62313    61841    62128    62663    62897    62895 
   62947    63136    63387    63630    63719    63774    64088    64326 
   63992    63406    63190    63243    63086    62811    62628    62415 
   62295    62410    62741    63427    64266    64903    65277    65148 
   64555    64030    63661    63283    62917    62553    62302    62247 
   62337    62656    63046    63076    62795    62645    62926    63616 
   64206    64231    63964    63858    63793    63390    62661    61942 
   61448    61292    61670    62514    63365    63937    64343    64625 
   64621    64445    64355    64332    64282    64095    63606    62917 
   62418    62243    62219    62354    62598    62649    62481    62249 
   61956    61700    61868    62758    63908    64541    64713    64654 
   64161    63591    63447    63490    63545    63826    64350    64666 
   64298    63552    63011    62717    62748    63199    63580    63478 
   63174    63020    62945    62782    62699    62854    63035    63123 
   63227    63407    63645    63812    63847    63779    63577    63384 
   63385    63286    62706    62089    62226    63054    63941    64465 
   64345    63666    62889    62096    61364    61176    61505    61977 
   62653    63416    63713    63522    63429    63552    63647    63906 
   64581    65421    65892    65746    65203    64549    63882    63192 
   62627    62352    62134    61854    61811    62088    62612    63240 
   63651    63809    63770    63519    63419    63664    63838    63676 
   63376    63201    63190    63094    62853    62732    62722    62682 
   62663    62726    63000    63440    63673    63577    63336    63017 
   62650    62394    62478    62877    63329    63813    64371    64693 
   64566    64275    64065    63860    63766    63970    64367    64604 
   64382    63847    63169    62424    61961    61700    61403    61490 
   62068    62659    62950    62949    63023    63280    63433    63590 
   63803    63928    64190    64373    64003    63389    62987    63042 
   63527    63931    64018    63988    63868    63617    63480    63712 
   64014    63928    63581    63340    63113    62651    62264    62379 
   62781    63148    63478    63626    63435    63213    63335    63546 
   63488    63372    63270    62929    62461    62251    62437    62713 
   62822    62987    63147    62863    62529    62847    63643    64370 
   64670    64623    64564    64416    63977    63466    63207    63148 
   63086    63065    63010    62796    62706    62993    63463    63732 
   63713    63693    63706    63534    63232    62794    62178    61732 
   61923    62779    63585    63734    63590    63560    63534    63474 
   63515    63636    63599    63385    63299    63285    62994    62643 
   62763    63287    63754    63893    63689    63396    63234    63067 
   62779    62650    62945    63510    64079    64408    64328    64120 
   63958    63663    63403    63258    62907    62441    62180    62202 
   62425    62556    62691    63209    63718    63765    63599    63455 
   63369    63399    63514    63525    63420    63342    63274    63230 
   63177    62999    62834    62770    62602    62344    62375    62789 
   63269    63565    63575    63557    63793    63974    63890    63768 
   63617    63388    63363    63685    64015    63996    63834    63929 
   64165    64202    63930    63424    62802    62104    61482    61092 
   60821    60701    60961    61507    62149    63002    63981    64745 
   65256    65611    65687    65287    64678    64456    64461    64212 
   63994    63984    63827    63477    63115    62841    62672    62396 
   61960    61798    62191    62814    63337    63762    64015    63873 
   63427    63085    62875    62668    62782    63054    62962    62901 
   63266    63554    63438    63356    63644    64053    64403    64598 
   64292    63663    63361    63332    63055    62616    62446    62543 
   62812    63378    64091    64652    64951    64851    64335    63726 
   63409    63345    63186    62897    62680    62501    62151    61679 
   61510    61746    62092    62598    63344    63992    64338    64541 
   64720    64764    64569    64267    64109    64056    63767    63280 
   62932    62674    62419    62345    62530    62960    63484    63797 
   63956    64151    64136    63747    63275    62935    62562    62026 
   61647    61666    61808    61906    62180    62738    63435    64070 
   64498    64723    64755    64577    64280    63958    63587    63054 
   62389    61955    61938    62053    62265    62835    63605    64159 
   64353    64336    64288    64170    63812    63226    62677    62302 
   61984    61808    61953    62243    62466    62708    62992    63246 
   63517    63736    63810    63788    63744    63796    63899    63901 
   63859    63822    63635    63144    62567    62390    62710    63140 
   63412    63546    63571    63615    63727    63680    63453    63175 
   62978    63060    63146    62946    62812    62962    63233    63496 
   63619    63608    63594    63549    63484    63370    63020    62669 
   62656    62844    63151    63554    63792    63825    63836    63803 
   63676    63565    63530    63494    63370    63188    62949    62642 
   62530    62742    63083    63490    63765    63599    63286    63261 
   63457    63646    63722    63682    63581    63418    63181    62952 
   62813    62797    62923    63211    63668    64091    64202    64022 
   63683    63300    63112    63225    63449    63536    63351    63009 
   62778    62704    62670    62590    62514    62704    63177    63512 
   63622    63888    64344    64699    64910    64933    64576    63985 
   63601    63465    63293    63136    63104    62989    62746    62592 
   62573    62527    62432    62506    62803    63143    63461    63662 
   63630    63463    63211    62933    62741    62621    62639    62838 
   63065    63206    63273    63375    63609    63841    63896    63728 
   63356    63103    63240    63469    63649    63958    64202    64220 
   64237    64286    64152    63730    63207    62784    62354    62018 
   62139    62606    63022    63313    63561    63690    63734    63789 
   63757    63700    63677    63506    63183    62916    62776    62594 
   62329    62233    62383    62681    63077    63396    63588    63760 
   63750    63568    63500    63498    63439    63286    62976    62674 
   62583    62585    62501    62498    62822    63279    63526    63560 
   63519    63484    63479    63399    63232    63109    62994    62877 
   62965    63210    63325    63404    63711    64112    64392    64498 
   64392    64111    63731    63429    63378    63389    63249    63031 
   62867    62972    63383    63736    63786    63633    63351    62924 
   62520    62412    62633    62928    63086    63157    63217    63229 
   63158    63053    63020    63042    63065    63122    63168    63106 
   62924    62779    62822    63001    63228    63362    63330    63375 
   63674    64039    64236    64216    64018    63764    63555    63320 
   63079    62954    62935    63009    63202    63457    63542    63292 
   63005    62886    62715    62586    62753    63070    63360    63618 
   63849    64026    64066    63976    63869    63660    63316    63112 
   63068    63020    63068    63197    63219    63159    63104    63052 
   63096    63278    63518    63798    63975    63928    63796    63699 
   63639    63590    63582    63665    63772    63899    64015    63938 
   63589    63033    62510    62259    62184    62172    62206    62209 
   62220    62294    62384    62478    62594    62778    63041    63277 
   63473    63719    63900    63991    64191    64344    64298    64269 
   64232    64071    63829    63501    63265    63259    63298    63247 
   63106    62985    63033    63203    63433    63743    64019    64024 
   63759    63489    63204    62833    62661    62782    62960    63064 
   63096    63045    62889    62741    62721    62785    62876    62979 
   63047    63013    62938    62949    62962    62911    62947    63059 
   63022    62846    62819    63028    63321    63638    63953    64185 
   64366    64661    64974    64966    64737    64547    64298    63986 
   63726    63451    63167    62958    62794    62620    62464    62447 
   62521    62451    62315    62263    62123    61948    61966    62096 
   62295    62642    63060    63498    64006    64487    64690    64559 
   64330    64084    63737    63458    63407    63453    63530    63696 
   63849    63808    63540    63190    62891    62666    62608    62812 
   63062    63196    63385    63555    63596    63751    63928    63772 
   63468    63339    63241    63062    63032    63159    63189    63157 
   63220    63308    63329    63328    63399    63555    63703    63738 
   63569    63272    63067    62974    62917    62966    63074    63059 
   63001    63095    63222    63224    63189    63161    63081    62973 
   62956    63095    63279    63411    63501    63554    63631    63752 
   63794    63715    63532    63340    63345    63422    63297    63123 
   63119    63213    63347    63468    63457    63349    63265    63236 
   63289    63416    63478    63434    63456    63536    63505    63472 
   63517    63480    63411    63438    63451    63390    63358    63404 
