Origin Time       2024/04/02 04:24:00
Lat.              40.133
Long.             141.712
Depth. (km)       71
Mag.              6.0
Station Code      KSRH03
Station Lat.      43.3848
Station Long.     144.6279
Station Height(m) 83
Record Time       2024/04/02 04:25:35
Sampling Freq(Hz) 100Hz
Duration Time(s)  166
Dir.              6
Scale Factor      3920(gal)/6170801
Max. Acc. (gal)   4.253
Last Correction   2024/04/02 04:25:20
Memo.             
[...]
  -23086   -22936   -22897   -23317   -23759   -23733   -23331   -22817 
  -22561   -23034   -23843   -23922   -23125   -22347   -22269   -22798 
  -23373   -23503   -23187   -22873   -22950   -23379   -23777   -23683 
  -23073   -22657   -22947   -23516   -23724   -23406   -22868   -22665 
  -22943   -23183   -23037   -22843   -22978   -23378   -23734   -23667 
  -23140   -22753   -22913   -23172   -23082   -22829   -22676   -22674 
  -22798   -22996   -23300   -23609   -23672   -23579   -23535   -23444 
  -23200   -22851   -22533   -22503   -22884   -23263   -23107   -22488 
  -21986   -22238   -23348   -24361   -24257   -23314   -22506   -22306 
  -22705   -23352   -23642   -23345   -22885   -22850   -23197   -23235 
  -22722   -22303   -22504   -23085   -23564   -23622   -23282   -22994 
  -23045   -23250   -23306   -23076   -22751   -22539   -22439   -22526 
  -22850   -23362   -24049   -24538   -24248   -23304   -22431   -22208 
  -22730   -23393   -23565   -23273   -22697   -22143   -22153   -22705 
  -23124   -23171   -23217   -23295   -23324   -23543   -23724   -23413 
  -22941   -22830   -23093   -23445   -23435   -22883   -22346   -22463 
  -23179   -23840   -23825   -23198   -22640   -22605   -22838   -22886 
  -22763   -22730   -22775   -22894   -23226   -23557   -23538   -23224 
  -23019   -23296   -23817   -23834   -23129   -22275   -21917   -22323 
  -23133   -23629   -23644   -23497   -23290   -23173   -23445   -23938 
  -24076   -23466   -22198   -21005   -20842   -21846   -23209   -24165 
  -24383   -23946   -23514   -23576   -23744   -23644   -23371   -22945 
  -22461   -22260   -22449   -22761   -22875   -22764   -22771   -23219 
  -23836   -23971   -23544   -23128   -23052   -23171   -23362   -23465 
  -23226   -22769   -22452   -22528   -23129   -23803   -23727   -22944 
  -22203   -21923   -22279   -22974   -23140   -22742   -22670   -23120 
  -23545   -23661   -23622   -23774   -24160   -24276   -23821   -23165 
  -22722   -22535   -22447   -22282   -22126   -22364   -23041   -23603 
  -23601   -23277   -23149   -23349   -23831   -24268   -23747   -22174 
  -21032   -21442   -22850   -23959   -24075   -23518   -23073   -23215 
  -23653   -23660   -23054   -22379   -22316   -22958   -23462   -23295 
  -23085   -23312   -23706   -23947   -23733   -22954   -22193   -21959 
  -21925   -21827   -22087   -23006   -24118   -24733   -24602   -23854 
  -22925   -22422   -22529   -22893   -23050   -22849   -22711   -23042 
  -23422   -23258   -22835   -22749   -23040   -23404   -23542   -23325 
  -22787   -22206   -22210   -22981   -23739   -23747   -23191   -22867 
  -23083   -23312   -23289   -23359   -23600   -23673   -23347   -22824 
  -22572   -22701   -22901   -23014   -23129   -23352   -23570   -23322 
  -22620   -22330   -22740   -23137   -23163   -23106   -23229   -23535 
  -23676   -23373   -22940   -22805   -23027   -23339   -23266   -22817 
  -22651   -22931   -23172   -23300   -23618   -23934   -23785   -23198 
  -22560   -22169   -22140   -22487   -23060   -23363   -23135   -22849 
  -22923   -23236   -23634   -23843   -23486   -22894   -22733   -22864 
  -22770   -22442   -22266   -22628   -23442   -24121   -24329   -24124 
  -23554   -22914   -22727   -22901   -22696   -21976   -21681   -22310 
  -23173   -23636   -23562   -23203   -23324   -24051   -24374   -23669 
  -22515   -21983   -22480   -23315   -23709   -23573   -23133   -22740 
  -22763   -23174   -23605   -23513   -22603   -21578   -21326   -21856 
  -22879   -23976   -24464   -24096   -23398   -23246   -23936   -24571 
  -24204   -23079   -21996   -21461   -21703   -22605   -23573   -23860 
  -23383   -22952   -23120   -23500   -23544   -23237   -22901   -22691 
  -22590   -22581   -22486   -22250   -22277   -22758   -23275   -23637 
  -24158   -24797   -24880   -23837   -22247   -21510   -21922   -22602 
  -23178   -23644   -23614   -23094   -22750   -22975   -23457   -23590 
  -23130   -22422   -21966   -22282   -23491   -24509   -24312   -23687 
  -23681   -23747   -23048   -21852   -21083   -21517   -22977   -24366 
  -24720   -23836   -22512   -22141   -23090   -24018   -23758   -22871 
  -22465   -22773   -23387   -23710   -23328   -22625   -22422   -22879 
  -23572   -24031   -23774   -23010   -22672   -22917   -23017   -22754 
  -22533   -22519   -22692   -23146   -23597   -23527   -23167   -23271 
  -23787   -23829   -23076   -22081   -21601   -22192   -23442   -24073 
  -23548   -22630   -22291   -22795   -23627   -23976   -23571   -22872 
  -22466   -22640   -23195   -23656   -23786   -23533   -23001   -22633 
  -22799   -23205   -23152   -22511   -22064   -22532   -23507   -23944 
  -23641   -23268   -23155   -23117   -23013   -22731   -22436   -22686 
  -23468   -24203   -24439   -23799   -22706   -22309   -22706   -23062 
  -23001   -22722   -22716   -23319   -23973   -23670   -22585   -22110 
  -22765   -23632   -23911   -23528   -22872   -22601   -22947   -23473 
  -23569   -23019   -22560   -22919   -23406   -23143   -22471   -22173 
  -22614   -23396   -23735   -23619   -23497   -23346   -23156   -23193 
  -23393   -23379   -23028   -22639   -22460   -22446   -22476   -22448 
  -22616   -23425   -24194   -23772   -22766   -22595   -23238   -23757 
  -23550   -22730   -22183   -22600   -23477   -23959   -23820   -23096 
  -22270   -22256   -22829   -22956   -22773   -22830   -22927   -22998 
  -23053   -22937   -23187   -24067   -24588   -24077   -23038   -22283 
  -22325   -23009   -23585   -23572   -23209   -22912   -22814   -22755 
  -22441   -22188   -22813   -23947   -24261   -23545   -22651   -22307 
  -22827   -23729   -24044   -23448   -22577   -22506   -23439   -24000 
  -23262   -22264   -22169   -22763   -23362   -23561   -23151   -22443 
  -22258   -22919   -23802   -24030   -23367   -22689   -22927   -23560 
  -23387   -22295   -21371   -21750   -23415   -24982   -24987   -23438 
  -21945   -22116   -23641   -24613   -24020   -22590   -21364   -20916 
  -21337   -22263   -23242   -23864   -24014   -24039   -24036   -23828 
  -23497   -23053   -22573   -22506   -22861   -23104   -23190   -23423 
  -23691   -23801   -23725   -23325   -22751   -22713   -23409   -23921 
  -23486   -22392   -21524   -21778   -23120   -24417   -24735   -23862 
  -22493   -22164   -23154   -23988   -23836   -22938   -21862   -21537 
  -22277   -23321   -23765   -23407   -23079   -23462   -23795   -23196 
  -22450   -22763   -23803   -24471   -24303   -23373   -22189   -21590 
  -21938   -22632   -22829   -22576   -22675   -23431   -24249   -24479 
  -23688   -21836   -20211   -20449   -22074   -23259   -23550   -23684 
  -24130   -24965   -25630   -25198   -23651   -22006   -21395   -21938 
  -22436   -22110   -21636   -21904   -23135   -24836   -25775   -25098 
  -23519   -22313   -21984   -22434   -23051   -22999   -22349   -22053 
  -22670   -23824   -24584   -24317   -23593   -23496   -23842   -23524 
  -22434   -21481   -21302   -22077   -23563   -24854   -24957   -23837 
  -22715   -22617   -23080   -23241   -22882   -22245   -21930   -22299 
  -23043   -23651   -23723   -23344   -23200   -23538   -23781   -23541 
  -22958   -22537   -22824   -23349   -22957   -21642   -20623   -20776 
  -21880   -23175   -24172   -24874   -25357   -25402   -24744   -23544 
  -22482   -22168   -22386   -22501   -22299   -22070   -22285   -23120 
  -24282   -25217   -25299   -24322   -22960   -22157   -22033   -21997 
  -21746   -21517   -21746   -22625   -23722   -24413   -24606   -24596 
  -24549   -24347   -23745   -22898   -22448   -22477   -22265   -21563 
  -21020   -21380   -22725   -24294   -25242   -25182   -24175   -22944 
  -22441   -23001   -23822   -23475   -21870   -20605   -20808   -22292 
  -24122   -24996   -24493   -23590   -23090   -22995   -23128   -23176 
  -22874   -22321   -21875   -21958   -22552   -23025   -23013   -22854 
  -22804   -22857   -23245   -23999   -24601   -24733   -24409   -23658 
  -22785   -22172   -21946   -22265   -22975   -23416   -23534   -23946 
  -24432   -24157   -23181   -22189   -21516   -21356   -21810   -22268 
  -22199   -22277   -23095   -23998   -24426   -24637   -24594   -24041 
  -23368   -22927   -22408   -21762   -21619   -22330   -23458   -24233 
  -24096   -23204   -22218   -21735   -22267   -23536   -24220   -23700 
  -22713   -22160   -22705   -24127   -24697   -23403   -21890   -22182 
  -23722   -24124   -22407   -20334   -20177   -22131   -24730   -26485 
  -26284   -24359   -22934   -23328   -23952   -23292   -22056   -21384 
  -21605   -22414   -23028   -23044   -22875   -23186   -24214   -25110 
  -24724   -23149   -21695   -21615   -22801   -24015   -24262   -23322 
  -22049   -21874   -22802   -23308   -22726   -22111   -22574   -23680 
  -23882   -22762   -21982   -23000   -24879   -25498   -24001   -21536 
  -20378   -21692   -23845   -24606   -24025   -23333   -23198   -23724 
  -24083   -23100   -21228   -20393   -21851   -24806   -26853   -26272 
  -23694   -21179   -20252   -20778   -21533   -21749   -22009   -23308 
  -25055   -25569   -24626   -23392   -22807   -23295   -24340   -24488 
  -23242   -21664   -20682   -20377   -20735   -22185   -24643   -26403 
  -26061   -24462   -23042   -22438   -22842   -23622   -23550   -22335 
  -21079   -21121   -22289   -22829   -22075   -21701   -23142   -25478 
  -26619   -25584   -23373   -21700   -21034   -20673   -20288   -20361 
  -21629   -24101   -26411   -27172   -26597   -25546   -24234   -22581 
  -20650   -18925   -18395   -19592   -22122   -25215   -27537   -27620 
  -25627   -23066   -21157   -20425   -20497   -20598   -20851   -22038 
  -24080   -25826   -26478   -26161   -25558   -25546   -25706   -24388 
  -21653   -19376   -18579   -19166   -20481   -21664   -22868   -24503 
  -25985   -26664   -26344   -25229   -24079   -23570   -23528   -22939 
  -21129   -19304   -19450   -21596   -23784   -24274   -23244   -22748 
  -24134   -26057   -26463   -24950   -22513   -20643   -20206   -20537 
  -20768   -21355   -23034   -25585   -27940   -28259   -25304   -20965 
  -18954   -20151   -21940   -22308   -21837   -21818   -22778   -24292 
  -25092   -24664   -24200   -24434   -24132   -22209   -19905   -19428 
  -21219   -23386   -23697   -22180   -21220   -22823   -26347   -29088 
  -29081   -26808   -23998   -21957   -21030   -20826   -20876   -21049 
  -21400   -21817   -22035   -22087   -22377   -23289   -24609   -25267 
  -24505   -23305   -23027   -23359   -23440   -23205   -22515   -21624 
  -21910   -23717   -25272   -24944   -23128   -21605   -21496   -22392 
  -23589   -24692   -24708   -23079   -21503   -21482   -21869   -21834 
  -22650   -24598   -25784   -24964   -23108   -22050   -22587   -23772 
  -24247   -23786   -22863   -21802   -20865   -20417   -20696   -21843 
  -23781   -25470   -25776   -25045   -24253   -23846   -23629   -22937 
  -21750   -20832   -20501   -20940   -22345   -23959   -25135   -26356 
  -27474   -26943   -24009   -20253   -18025   -18187   -20194   -23017 
  -25143   -25272   -23711   -22163   -22058   -23175   -23958   -23516 
  -22370   -21392   -21445   -22923   -24856   -25930   -25689   -24203 
  -22286   -21271   -21348   -21869   -22918   -24419   -25392   -25261 
  -23919   -21690   -20063   -20207   -21713   -23731   -25426   -25820 
  -24755   -23314   -22673   -22749   -22229   -20608   -19492   -20453 
  -22931   -25262   -26322   -26223   -25814   -25341   -24395   -22537 
  -19902   -18082   -18726   -21248   -23659   -24683   -24550   -24412 
  -24709   -24731   -24174   -23380   -22428   -21726   -21920   -22651 
  -23041   -22826   -22379   -22224   -22576   -23245   -23884   -24261 
  -24348   -24359   -24395   -23911   -22565   -21410   -21446   -21824 
  -21541   -21080   -21300   -22772   -25210   -26967   -26910   -25768 
  -24864   -24435   -23474   -21426   -19438   -19032   -20200   -21781 
  -22860   -23292   -23719   -24569   -25397   -25988   -26190   -25047 
  -22500   -20522   -20692   -22245   -23327   -23142   -22469   -22466 
  -23511   -24772   -24739   -23152   -21551   -21095   -21422   -21920 
  -22664   -23772   -24796   -25118   -24368   -22592   -20911   -21058 
  -23031   -24720   -24502   -22976   -22090   -22573   -23227   -23360 
  -23503   -23733   -23710   -23369   -22796   -22714   -23774   -24945 
  -24756   -23295   -21689   -20800   -20764   -21364   -22204   -22862 
  -23461   -24034   -24222   -24347   -24755   -24855   -24232   -23264 
  -22627   -22645   -22784   -22638   -22769   -23377   -23457   -21961 
  -19468   -18422   -20549   -24493   -27547   -28238   -26303   -22748 
  -20120   -20111   -21328   -21597   -21551   -23258   -26299   -28127 
  -27305   -24726   -22377   -21509   -21882   -22310   -21809   -20744 
  -20324   -20802   -21635   -22703   -23862   -24616   -24639   -24120 
  -23865   -24243   -24463   -24067   -23461   -22898   -22630   -22605 
  -21986   -20694   -19875   -20413   -22107   -24130   -26063   -27644 
  -27823   -25751   -22420   -20039   -19805   -21259   -23055   -23637 
  -22829   -22308   -22896   -23689   -24395   -24854   -24072   -22752 
  -22740   -23664   -23892   -22926   -21505   -21074   -22457   -24510 
  -25534   -25141   -23539   -21398   -20412   -21487   -23361   -23972 
  -22679   -20925   -20399   -21202   -22303   -23179   -24199   -25278 
  -25654   -25292   -24805   -24391   -24009   -23721   -23419   -22801 
  -22000   -21914   -22809   -23459   -22995   -22300   -22587   -23561 
  -24058   -23942   -23898   -23750   -22682   -20889   -19354   -18637 
  -19019   -20452   -22408   -24850   -27772   -29787   -29373   -27020 
  -24475   -22425   -20450   -18909   -18672   -19699   -21627   -23786 
  -24966   -24802   -23861   -22831   -22425   -22868   -23611   -23757 
  -23185   -23127   -24311   -25682   -25981   -25100   -23612   -22197 
  -21455   -21074   -20173   -19028   -18682   -19540   -21553   -24338 
  -26604   -27000   -25957   -24807   -23958   -23285   -22386   -21099 
  -20335   -20943   -22943   -25539   -27143   -26789   -24967   -22862 
  -21505   -21144   -21194   -21108   -21419   -23048   -25216   -25797 
  -24116   -21520   -19733   -20005   -22366   -24884   -25292   -23641 
  -22177   -22675   -24440   -25057   -23471   -21489   -21270   -22589 
  -23675   -23652   -22998   -22567   -23038   -24170   -24789   -24492 
  -23976   -23485   -22593   -21513   -21363   -22453   -23323   -22747 
  -21522   -21316   -22609   -24354   -25472   -25776   -25597   -25540 
  -25707   -25297   -24154   -22826   -21022   -18517   -16661   -17103 
  -19964   -23906   -27027   -27734   -26154   -24369   -23969   -24394 
  -24536   -24083   -22919   -21453   -20832   -21124   -21111   -20525 
  -20213   -20461   -21196   -22734   -24861   -26580   -27297   -26826 
  -25025   -22690   -21091   -20612   -21183   -22399   -23217   -23190 
  -23139   -24179   -26070   -26918   -25718   -23424   -21017   -19145 
  -18600   -19504   -21293   -23388   -25190   -26069   -25469   -23537 
  -21761   -21466   -22224   -23272   -24707   -26208   -26568   -25355 
  -23722   -22871   -22735   -22489   -21375   -19474   -18153   -18975 
  -22064   -25593   -27036   -25626   -23210   -22323   -23636   -25302 
  -25226   -23574   -22248   -22684   -24275   -24955   -24058   -22904 
  -22124   -21060   -19445   -17979   -17866   -19789   -23072   -25960 
  -26608   -24836   -22878   -22899   -24512   -25544   -24565   -22363 
  -20829   -21168   -23496   -26328   -27091   -25085   -22353   -20948 
  -21096   -21912   -22682   -23418   -24445   -25273   -24740   -22780 
  -20784   -20120   -20993   -22291   -22969   -23448   -24443   -25609 
  -26338   -26097   -24141   -20836   -18287   -18265   -20570   -23630 
  -25872   -26523   -25565   -23594   -21653   -20591   -20624   -21492 
  -22743   -24085   -25382   -26244   -26191   -25214   -23784   -22412 
  -21342   -20642   -20452   -20904   -21872   -23113   -24351   -24773 
  -23645   -21954   -21593   -22868   -24450   -25054   -24335   -23072 
  -22500   -22994   -23731   -23795   -23243   -22629   -22053   -21457 
  -21116   -21356   -22209   -23457   -24765   -25557   -25247   -23910 
  -22406   -21870   -22645   -23718   -24172   -24156   -23961   -23724 
  -23471   -22890   -22145   -22067   -22659   -22747   -21701   -20421 
  -20238   -21497   -23296   -24517   -25034   -25370   -25668   -25741 
  -25375   -24385   -23020   -21933   -21688   -22470   -23637   -23915 
  -22788   -21367   -21262   -22451   -23504   -23845   -23735   -23247 
  -22925   -23218   -23322   -22584   -21596   -21161   -21680   -22968 
  -23891   -23530   -22672   -22741   -23761   -24329   -23376   -21538 
  -20491   -21012   -22448   -23922   -24938   -25363   -25593   -25884 
  -25595   -23941   -21439   -19770   -19860   -21071   -22230   -22647 
  -22477   -22425   -23130   -24535   -25648   -25471   -24234   -23262 
  -23445   -24100   -23888   -22553   -21048   -20533   -21563   -23484 
  -24788   -24474   -22977   -21673   -21413   -22054   -23017   -23685 
  -23975   -24183   -24209   -23862   -23336   -22788   -22200   -21745 
  -21684   -22116   -23158   -24674   -25887   -26118   -25494   -24578 
  -23818   -23119   -21933   -20296   -19203   -19492   -21198   -23722 
  -25772   -26280   -25387   -23696   -21880   -20894   -21137   -22049 
  -23094   -24186   -24950   -24814   -23998   -23260   -22920   -22792 
  -22671   -22617   -22817   -23265   -23709   -23799   -23340   -22571 
  -21919   -21499   -21308   -21486   -22022   -22682   -23237   -23659 
  -24151   -24637   -24580   -23824   -22998   -22665   -22643   -22661 
  -23062   -23863   -24153   -23402   -22192   -21624   -22231   -23307 
  -23992   -24087   -23609   -23023   -23093   -23864   -24524   -24075 
  -22373   -20573   -19867   -20442   -21667   -22639   -23417   -25032 
  -27232   -28094   -26404   -23045   -20385   -20428   -22788   -24991 
  -25055   -23084   -20727   -19709   -20465   -22034   -23466   -24410 
  -24454   -23704   -23238   -23578   -24090   -24029   -23187   -22064 
  -21315   -21121   -21641   -22919   -24400   -25464   -25607   -24608 
  -23269   -22566   -22343   -22049   -21764   -21865   -22310   -22605 
  -22578   -22453   -22094   -21569   -21745   -22966   -24421   -25340 
  -25692   -25688   -25321   -24522   -23411   -22306   -21584   -21679 
  -22783   -24068   -24239   -23096   -21565   -20675   -21099   -22715 
  -24364   -24946   -24250   -22703   -21294   -20704   -20772   -21531 
  -23004   -24600   -25879   -26547   -26132   -24583   -22653   -21558 
  -21844   -22708   -23168   -22882   -21690   -20193   -19922   -21410 
  -23420   -24383   -23809   -22728   -22632   -23694   -24761   -25162 
  -25395   -25894   -26229   -25714   -24208   -22472   -21553   -21675 
  -22230   -22461   -22019   -21345   -21191   -21813   -22961   -23919 
  -23809   -22794   -22186   -22765   -23972   -24741   -24567   -23840 
  -23193   -22896   -22884   -22939   -22863   -22608   -22442   -22638 
  -22893   -22789   -22416   -22080   -21974   -22036   -22106   -22328 
  -22860   -23664   -24788   -25853   -25986   -24990   -23667   -22888 
  -22705   -22555   -22332   -22421   -22884   -23415   -23702   -23478 
  -22652   -21727   -21403   -21661   -21941   -22114   -22679   -23821 
  -24973   -25539   -25210   -23996   -22543   -21658   -21635   -22284 
  -22987   -23064   -22523   -22105   -22458   -23343   -24003   -24028 
