Origin Time       2024/04/02 04:24:00
Lat.              40.133
Long.             141.712
Depth. (km)       71
Mag.              6.0
Station Code      KSRH05
Station Lat.      43.2556
Station Long.     144.2338
Station Height(m) 114
Record Time       2024/04/02 04:25:33
Sampling Freq(Hz) 100Hz
Duration Time(s)  129
Dir.              4
Scale Factor      7845(gal)/8223790
Max. Acc. (gal)   4.418
Last Correction   2024/04/02 04:25:34
Memo.             
[...]
     862      681      464      324      279      310      419      576 
     693      693      587      507      538      573      533      503 
     540      576      594      619      646      673      718      768 
     783      731      630      537      506      545      585      591 
     629      704      702      602      502      422      321      251 
     319      511      675      724      724      738      729      608 
     391      256      314      457      595      754      912      949 
     831      657      457      224       56       70      238      495 
     796     1020     1066      985      823      573      278      -16 
    -198      -82      272      585      801     1040     1202     1063 
     608       41     -365     -376        4      491      896     1256 
    1491     1408      990      378     -199     -414     -144      340 
     754      986     1012      903      724      433       90      -44 
     167      567      904     1070     1055      897      679      457 
     275      206      270      373      476      599      722      789 
     776      683      522      340      243      287      400      544 
     750      958     1065     1038      849      504      152       -5 
      87      288      450      598      762      868      812      592 
     340      211      214      295      473      726      946     1061 
    1047      891      642      426      295      229      283      529 
     859     1073     1078      930      708      426       87     -217 
    -334     -184      152      583     1055     1412     1451     1136 
     596       20     -352     -344       21      572     1078     1368 
    1381     1143      747      301      -59     -145      120      535 
     854      990      954      785      557      321      130       64 
     166      380      635      869      997      972      842      633 
     342      102       66      209      409      579      696      756 
     754      702      594      465      446      564      687      743 
     785      804      704      492      303      220      203      217 
     303      460      592      626      575      535      588      680 
     708      673      581      445      356      359      407      504 
     642      714      668      572      454      294      160      170 
     344      616      908     1094     1074      905      702      499 
     353      368      537      749      884      872      724      483 
     229       75       63      176      426      757      999     1007 
     793      481      166      -66      -86      152      529      892 
    1100     1055      823      560      332      190      182      282 
     483      743      855      734      591      575      573      488 
     378      326      367      479      630      754      774      692 
     545      342      153       71      133      361      745     1146 
    1339     1219      864      396      -56     -303     -163      332 
     931     1389     1564     1386      901      278     -249     -456 
    -255      253      899     1431     1594     1344      858      303 
    -199     -473     -376       24      541     1036     1366     1370 
    1086      715      372      124       67      190      394      631 
     855      961      859      595      336      245      302      360 
     395      526      730      811      753      729      737      641 
     442      224       49       12      199      549      897     1138 
    1200     1000      579      166      -45      -36      170      535 
     953     1275     1389     1224      808      305      -81     -222 
     -74      324      789     1113     1171      927      500      136 
     -21        0      147      417      814     1189     1274      970 
     463       27     -147      -36      240      546      845     1143 
    1321     1202      805      319      -70     -202      -27      313 
     642      870      961      930      828      633      310       20 
     -14      199      487      718      815      788      715      648 
     585      504      433      472      634      747      685      541 
     446      391      353      357      407      492      606      661 
     585      453      395      436      522      623      751      899 
     976      842      484      126       24      186      426      618 
     765      866      845      665      446      332      325      372 
     441      523      662      835      874      704      450      275 
     286      492      737      870      931      999     1009      843 
     492      108      -82       13      224      379      542      770 
     909      849      676      492      329      259      364      600 
     835      999     1062      997      808      529      217       27 
      68      247      438      660      907     1075     1088      967 
     807      689      581      363       74      -28      152      396 
     556      735      930      938      723      441      211      117 
     191      360      557      749      850      760      492      206 
      82      174      434      753      986     1088     1085      953 
     661      298       27      -62      -13      114      351      692 
     989     1071      934      712      498      298      141       90 
     193      472      846     1115     1120      899      575      247 
       2     -124      -66      325      913     1283     1254      965 
     554      101     -237     -267       16      426      827     1132 
    1215      997      610      263       33      -79       31      396 
     737      823      816      908     1015      969      726      432 
     310      375      467      510      550      656      778      745 
     514      286      195      183      197      271      452      688 
     845      835      654      395      245      278      376      517 
     737      892      827      608      380      238      206      286 
     519      838     1008      953      823      712      596      471 
     398      411      491      607      675      610      507      481 
     500      573      712      750      567      319      241      375 
     592      746      800      814      822      765      598      448 
     475      621      742      797      795      741      625      379 
      71      -40      184      588      911     1007      913      739 
     498      168     -112      -90      259      618      796      951 
    1136     1128      823      398       87        2      109      257 
     369      545      796      961      949      777      472      174 
      40       39      109      298      558      803     1059     1200 
     982      517      167      117      271      425      540      787 
    1174     1425     1327      939      453       62     -103      -52 
     155      518      963     1252     1185      810      367       72 
     -51      -60      132      589     1073     1289     1228      994 
     650      313      118       82      164      359      665      966 
    1053      850      542      317      197      168      217      313 
     523      881     1127     1034      745      504      376      257 
      60      -52      164      664     1123     1208      885      480 
     238       85      -56      -81      155      661     1193     1367 
    1066      616      407      349      171       63      314      777 
    1159     1236      889      346       14      -49      -70      -67 
     162      637     1129     1425     1364      922      394       97 
     -41     -166      -98      351      990     1404     1413     1146 
     687      145     -186     -156      172      634      962     1048 
    1031      934      603      132      -93       91      452      730 
     843      820      758      741      679      515      418      450 
     453      391      390      495      618      687      800      961 
     909      607      344      252      274      413      642      822 
     897      864      661      365      156       60       35      110 
     255      423      621      735      629      387      226      244 
     388      540      650      820     1084     1201      970      561 
     244       56      -54      -21      278      792     1210     1246 
     893      423      156      140      159      186      492     1070 
    1455     1296      751      205      -94     -152      -90      140 
     621     1098     1232     1035      683      267      -35      -67 
     106      445      927     1279     1275     1021      729      515 
     406      383      436      506      496      425      388      395 
     448      592      751      758      623      529      514      477 
     434      423      449      603      888     1007      738      336 
     157      213      288      271      313      608     1003     1139 
     913      476       63      -41      217      535      777     1120 
    1489     1530     1175      695      295        5     -116       -9 
     222      492      783      966      928      731      526      432 
     429      438      454      480      545      727      916      888 
     665      436      294      229      234      278      282      261 
     387      664      804      625      315      211      437      730 
     738      538      500      699      855      757      488      310 
     369      531      560      402      244      297      519      687 
     719      745      795      761      631      499      417      388 
     396      453      618      903     1177     1193      805      257 
      27      247      530      599      676      989     1252     1035 
     396     -190     -402     -234      152      585      989     1325 
    1479     1305      756       32     -517     -731     -646     -287 
     255      781     1131     1193      876      328      -22       47 
     341      665      992     1169     1057      784      526      324 
     187      159      292      540      653      487      265      287 
     531      734      739      630      503      341      174       90 
     164      494     1074     1656     1942     1846     1462      868 
      97     -634     -915     -583       97      835     1495     1935 
    1987     1615      993      307     -295     -568     -359      176 
     750     1140     1291     1243      993      648      415      336 
     301      278      322      441      477      260      -48      -75 
     247      560      552      396      486      804     1020     1032 
    1004      966      804      522      217       10       97      483 
     877     1070     1040      774      349      -10     -182     -222 
    -187       49      610     1248     1463     1105      529      124 
      47      307      756     1107     1250     1310     1251      891 
     390      120      153      359      631      760      589      318 
     160       48     -101     -199      -45      461     1038     1305 
    1274     1061      592        1     -346     -270      182      737 
    1008      943      847      859      812      631      441      334 
     297      307      386      549      684      634      511      630 
    1001     1255     1115      688      268       49       70      287 
     558      661      600      579      565      406      245      314 
     552      801     1086     1323     1178      550     -132     -322 
      89      773     1371     1648     1464      911      236     -448 
    -965     -878     -101      853     1502     1728     1610     1262 
     658     -140     -670     -461      361     1225     1633     1464 
     874       14     -891    -1404    -1196     -363      741     1675 
    2101     2042     1675     1042      298     -191     -333     -418 
    -541     -429       93      957     1861     2281     1995     1359 
     707      -14     -816    -1297     -940      222     1507     2347 
    2737     2685     1968      743     -279     -540     -108      538 
    1027     1294     1293      822     -117     -999    -1094     -228 
     959     1711     1823     1466      710     -406    -1510    -1979 
   -1455     -221     1021     1825     2133     1903     1285      592 
    -152     -909    -1206     -646      465     1312     1428     1112 
     865      760      542      243      332      918     1435     1497 
    1177      565     -124     -472     -329       43      352      626 
    1129     1706     1769     1290      874      770      687      353 
    -144     -419     -172      434      980     1308     1505     1505 
    1125      411     -392    -1035    -1246     -823      112     1182 
    2056     2494     2262     1325       12    -1201    -1908    -1803 
    -831      579     1732     2286     2382     2058     1242      318 
    -182     -218      -52       47      -78     -207       63      664 
    1146     1421     1671     1759     1387      594     -353    -1181 
   -1485     -889      450     1894     2739     2583     1594      311 
    -677     -882     -384      238      796     1344     1509      997 
     143     -540     -707     -278      454     1096     1356     1023 
     295     -225     -170      498     1559     2440     2633     2007 
     708     -715    -1556    -1532     -742      585     2054     3079 
    3057     1857      -35    -1767    -2380    -1617     -221     1132 
    2149     2373     1563      162     -996    -1318     -946     -309 
     571     1784     3007     3661     3306     1938       43    -1621 
   -2570    -2716    -1917     -159     1996     3929     5179     4993 
    2903     -255    -2909    -4063    -3739    -2474     -615     1607 
    3400     3800     2945     1821      970      394      -12     -367 
    -552     -421     -283     -384     -305      321     1171     1764 
    1795     1116      180     -349     -468     -330      205      996 
    1436     1074       90     -811     -909      -72     1115     2131 
    2930     3310     2685      816    -1466    -2794    -2641    -1416 
     409     2381     3808     3973     2768     1050     -249     -959 
   -1102     -560      448     1478     2135     1972      946     -301 
   -1094    -1179     -589      467     1665     2516     2349     1020 
    -556    -1478    -1807    -1764    -1054      460     2178     3109 
    2706     1320     -153    -1008    -1084     -542      306     1148 
    1782     1755      793     -346     -888     -905     -371      745 
    1725     2016     1671      772     -267     -801     -792     -464 
     249     1224     1952     2130     1929     1586     1107      440 
    -317     -928    -1084     -581      205      629      761     1128 
    1640     1814     1472      704     -120     -492     -342      176 
    1119     2096     2330     1672      483     -936    -2097    -2506 
   -2084     -805     1165     2887     3376     2714     1386     -444 
   -2077    -2322     -999      945     2708     3893     4033     2965 
    1285     -334    -1610    -2146    -1605     -376      893     1904 
    2394     2106     1158      -33     -930    -1092     -727     -340 
     118      878     1690     2060     1806     1186      517      -89 
    -488     -409      257     1127     1559     1360      886      413 
     -81     -445     -217      805     2196     3269     3429     2436 
     783     -729    -1667    -1957    -1621     -653      838     2185 
    2478     1595      356     -513    -1074    -1593    -1794    -1159 
     249     1634     2268     2288     2255     2137     1437      241 
    -718     -957     -608      -29      502      832      989      997 
     811      707     1069     1660     1867     1414      400     -815 
   -1605    -1522     -789      168     1324     2533     3138     2763 
    1674      322     -793    -1247    -1023     -436      156      517 
     699      985     1439     1710     1559     1290     1285     1459 
    1382      796        5     -442     -465     -400     -383     -163 
     363      854     1038      916      530       22     -334     -329 
       4      317      310      147      183      364      521      874 
    1634     2651     3329     2798     1036     -803    -1803    -1954 
   -1394      -59     1858     3642     4321     3429     1464     -629 
   -2185    -2817    -2303     -859      922     2463     3218     2735 
    1182     -635    -1918    -2239    -1574     -187     1521     3017 
    3636     3038     1512     -311    -1768    -2439    -2330    -1491 
      37     1740     2910     3284     2812     1435     -542    -2336 
   -3119    -2400     -399     1798     3210     3734     3412     1998 
    -182    -2018    -2563    -1690       49     1733     2640     2744 
    2285     1312      108     -631     -515      259     1254     2029 
    2428     2577     2270     1240      -75    -1082    -1687    -1799 
   -1162       76     1331     2023     2000     1599     1057      184 
   -1024    -1961    -1888     -716      876     2087     2625     2532 
    1744      429     -735    -1219     -981     -183      888     1807 
    2212     1979     1221      224     -645    -1097     -984     -391 
     328      953     1422     1405      749       -6     -386     -422 
     -87      658     1466     1844     1514      530     -614    -1304 
   -1318     -679      638     2312     3530     3740     3094     1958 
     519     -907    -1710    -1606     -927      -93      643     1062 
    1179     1312     1412     1123      673      558      646      542 
     135     -468     -955     -935     -230      992     2281     3140 
    3273     2700     1692      583     -487    -1316    -1491     -945 
     -86      719     1188     1173      857      390     -121     -245 
     234      888     1275     1310      990      391     -255     -722 
    -935     -905     -507      299     1204     1833     2033     1764 
    1182      562       54     -222     -194       87      629     1305 
    1748     1744     1314      558     -157     -441     -349      -71 
     375      870     1246     1440     1341      918      504      487 
     753      851      515     -149     -747     -963     -785     -298 
     334      976     1644     2035     1688      872      280      125 
     225      414      571      583      372      -66     -517     -707 
    -650     -438      102     1026     1977     2585     2704     2313 
    1495      469     -417     -841     -684      -91      608     1124 
    1440     1659     1561      799     -340     -945     -638      -13 
     395      715     1171     1501     1305      792      540      715 
    1078     1378     1452     1138      433     -201     -256      116 
     473      778     1143     1371     1105      238     -918    -1809 
   -1908    -1084      149     1139     1790     2278     2502     2234 
    1602     1013      581      199       47      275      510      454 
     436      703      870      608      160     -167     -329     -396 
    -430     -355       59      882     1792     2269     1993     1039 
    -106     -749     -560      125      905     1757     2457     2425 
    1525      105    -1453    -2616    -2774    -1753       22     1768 
    2737     2709     1960      746     -626    -1352     -841      360 
    1340     1868     2014     1624      685     -364     -927     -576 
     669     2192     3130     3005     1895      229    -1254    -1907 
