Origin Time       2024/04/02 04:24:00
Lat.              40.133
Long.             141.712
Depth. (km)       71
Mag.              6.0
Station Code      KSRH07
Station Lat.      43.1359
Station Long.     144.3274
Station Height(m) 38
Record Time       2024/04/02 04:26:04
Sampling Freq(Hz) 100Hz
Duration Time(s)  120
Dir.              6
Scale Factor      7845(gal)/8223790
Max. Acc. (gal)   5.499
Last Correction   2024/04/02 04:26:05
Memo.             
[...]
    4353     4577     4703     4455     4035     3963     4353     4706 
    4568     4001     3530     3661     4307     4928     5115     4876 
    4549     4374     4298     4240     4133     3969     3908     4087 
    4396     4610     4598     4402     4228     4276     4463     4513 
    4325     4035     3894     4152     4714     5050     4769     4072 
    3512     3549     4203     4954     5194     4807     4140     3595 
    3343     3477     4170     5225     5898     5616     4572     3607 
    3488     4094     4661     4729     4413     4121     4095     4151 
    4112     4160     4487     4931     5163     5047     4630     4045 
    3514     3311     3731     4749     5674     5648     4614     3489 
    3199     3744     4444     4774     4745     4672     4665     4536 
    4224     3920     3885     4155     4484     4657     4544     4159 
    3793     3684     3879     4453     5273     5776     5370     4129 
    2998     2972     4054     5266     5656     5163     4429     4001 
    3975     4066     4071     4187     4445     4488     4234     4012 
    4075     4365     4602     4631     4527     4365     4197     4174 
    4357     4544     4569     4518     4503     4457     4205     3790 
    3605     3929     4507     4872     4868     4569     4108     3815 
    4094     4838     5274     4816     3883     3469     3910     4514 
    4596     4264     3952     3889     4149     4716     5281     5325 
    4587     3414     2705     3207     4677     6018     6169     4872 
    3110     2455     3416     5046     6048     5679     4267     3014 
    2820     3611     4662     5117     4683     4018     3986     4691 
    5413     5274     4203     3168     3086     4016     5363     6156 
    5653     4195     2889     2589     3469     4936     5938     5894 
    5042     3950     3258     3406     4220     5011     5121     4527 
    3811     3539     3932     4799     5420     5167     4340     3672 
    3538     3855     4168     4182     4209     4548     4881     4789 
    4340     3942     4014     4560     4958     4706     4093     3825 
    4284     5111     5416     4769     3817     3462     3847     4499 
    4931     4900     4456     3917     3735     4190     4978     5377 
    5031     4282     3735     3647     3781     3877     3920     3986 
    4216     4691     5124     5143     4841     4483     4083     3676 
    3553     3981     4799     5339     5044     4170     3507     3549 
    4186     4962     5395     5238     4541     3632     3095     3339 
    4104     4827     5252     5286     4860     4199     3739     3781 
    4195     4494     4468     4426     4594     4726     4576     4325 
    4132     3997     4090     4437     4742     4730     4422     4128 
    4108     4367     4688     4699     4216     3624     3564     4166 
    4853     4992     4612     4298     4336     4441     4392     4303 
    4234     4147     4110     4248     4541     4769     4735     4460 
    4152     4023     4083     4260     4441     4372     4056     3889 
    4047     4445     4943     5131     4766     4210     3829     3704 
    3910     4415     4865     4891     4495     3977     3720     4017 
    4572     4753     4459     4075     3986     4298     4681     4742 
    4423     3971     3788     4052     4521     4737     4475     4118 
    4131     4306     4226     3993     4027     4446     4923     5054 
    4742     4371     4434     4834     4949     4545     4104     4068 
    4326     4503     4413     4226     4151     4099     4001     4002 
    4228     4602     4853     4741     4324     3982     4116     4653 
    5073     4950     4320     3688     3569     3897     4287     4712 
    5111     5023     4368     3705     3491     3688     3973     4170 
    4473     4984     5251     4827     4017     3528     3661     4222 
    4865     5243     5186     4706     3921     3281     3306     3987 
    4945     5699     5699     4750     3392     2621     3119     4683 
    6216     6389     4963     3333     3122     4317     5298     4897 
    3720     3207     3987     5309     5884     5131     3612     2551 
    2844     4298     5647     5663     4469     3329     3338     4514 
    5721     5856     4978     3775     2948     3048     3946     4873 
    5167     4653     3816     3478     3874     4560     5093     5157 
    4683     4133     3998     4237     4519     4488     4025     3642 
    4058     5235     6108     5468     3461     1834     2133     3994 
    5745     6231     5417     3974     2987     3223     4434     5741 
    6115     5023     3422     2891     3584     4441     4754     4642 
    4623     4870     5017     4787     4232     3483     2844     2956 
    4225     5930     6508     5103     2744     1715     3200     5825 
    7098     5995     3705     2243     2670     4337     5738     5915 
    4968     3819     3391     3854     4725     5267     4976     4032 
    3119     2957     3785     4885     5224     4621     3721     3318 
    3865     5066     6043     6080     5089     3667     2697     2731 
    3715     5070     5964     5760     4646     3574     3246     3562 
    3950     4075     4360     5208     5914     5362     3667     2308 
    2502     3896     5077     5247     4877     4691     4718     4602 
    4264     3950     3834     4016     4660     5474     5578     4568 
    3199     2713     3667     5287     6104     5514     4313     3487 
    3254     3469     4120     5113     5954     5950     4963     3765 
    3083     2965     3423     4340     5058     5173     4889     4598 
    4567     4479     3847     3134     3318     4511     5726     5896 
    5059     4218     3969     4005     3867     3569     3550     4105 
    5031     5738     5580     4494     3211     2631     3221     4525 
    5255     4723     3743     3665     4822     5927     5485     3829 
    2764     3404     4996     5864     5406     4542     4114     3940 
    3601     3406     4000     5121     5675     5100     3940     3287 
    3699     4584     5182     5282     4727     3704     3006     3198 
    4212     5393     5721     4907     3855     3523     4106     5093 
    5482     4666     3307     2627     3154     4450     5557     5678 
    4818     3685     2899     2781     3530     4928     6276     6727 
    5796     4112     2964     2878     3354     3759     4063     4681 
    5551     6043     5603     4087     2278     1651     2849     5043 
    6621     6412     4888     3647     3500     3939     4274     4355 
    4353     4430     4521     4572     4752     4764     4122     3326 
    3348     4255     5004     4615     3551     3318     4529     6027 
    6161     4738     3187     2913     4035     5337     5464     4314 
    3003     2717     3631     4947     5911     6168     5503     4031 
    2411     1691     2686     5008     6972     6995     5104     3078 
    2763     3866     4491     4043     3727     4328     5305     5736 
    5250     4193     3084     2401     2718     4197     6100     7134 
    6471     4747     3433     3080     3254     3624     4098     4490 
    4665     4742     4691     4190     3461     3397     4284     5232 
    5238     4405     3731     3839     4525     5246     5545     5273 
    4387     2978     1958     2705     5128     7161     6836     4405 
    2317     2766     5100     6669     5906     3754     2303     2361 
    3114     3848     4567     5239     5449     5003     4492     4567 
    5080     5233     4356     3003     2575     3474     4924     6027 
    6029     4783     3137     2280     2980     4855     6297     6168 
    4963     3697     2876     2783     3435     4260     4677     4828 
    5262     5867     5530     3720     1840     1838     3883     6146 
    6693     5559     4521     4417     4344     3762     3280     3650 
    4934     6029     5481     3470     1885     2023     3559     5354 
    6259     6049     5436     4892     4413     3871     3261     3180 
    4132     5458     6016     5340     3929     2860     2874     3964 
    5341     5796     5059     3996     3346     3466     4380     5279 
    5213     4433     4001     4260     4584     4382     3932     4110 
    4996     5308     4147     2682     2659     4021     5445     5917 
    5208     4193     3893     4125     4140     3743     3469     4070 
    5521     6466     5368     2785     1289     2448     5198     7165 
    6743     4452     2331     1864     3055     4989     6405     6409 
    5184     3681     2775     3019     4392     5672     5505     4156 
    3098     3624     5462     6481     5452     3686     2705     2886 
    4017     5188     5506     5035     4209     3559     3811     5059 
    6070     5364     3281     1881     2610     4820     6340     5667 
    3775     2868     3427     4041     3910     3672     4075     5070 
    5832     5682     5051     4765     4561     3545     2029     1564 
    2876     4876     5960     5661     4935     4799     5089     5009 
    4240     3311     3024     3408     3815     4086     4702     5805 
    6727     6463     4961     3366     2527     2382     2620     3175 
    4433     6270     7202     6053     3809     2490     2940     4387 
    5398     5251     4656     4433     4378     4367     4514     4394 
    4058     4143     4464     4386     3906     3478     3630     4498 
    5236     4847     3596     2533     2444     3753     5967     7504 
    7257     5481     3285     2003     2255     3534     4834     5246 
    4527     3381     2929     3977     6056     7022     5347     2623 
    1852     3670     5968     6592     5314     3589     2731     2826 
    3492     4594     5868     6659     6243     4656     3180     3090 
    3960     4386     3885     3256     3493     4495     5103     5054 
    5467     6543     6853     5470     3107     1339     1236     2290 
    3285     4072     5103     6000     6112     5517     4885     4896 
    5076     4279     2903     2585     3933     5398     5165     3873 
    3258     3805     4715     4631     3638     3235     3751     4638 
    5305     5107     4629     4926     5888     6484     5421     2790 
     738     1082     3649     6666     7890     6500     3923     2311 
    2566     4055     5487     5856     5030     3457     2176     2673 
    4814     6543     6509     4922     2947     1985     2423     3732 
    5221     6204     6185     4918     3169     2899     4577     6322 
    6691     5512     3816     3252     3582     3793     4144     4737 
    5007     4398     2907     1796     2471     4544     6259     6770 
    6493     5695     4633     3892     3634     3640     3596     3244 
    2986     3551     4683     5344     5116     4356     3910     4610 
    5960     6473     5406     3415     2111     2496     3966     5111 
    4860     3906     3858     4602     5113     4927     4006     3435 
    4429     5927     5859     3904     1570     1113     3352     6258 
    7696     7254     5313     3049     1729     1771     3380     6072 
    7946     7408     4861     2158     1136     2124     3615     4167 
    3854     3542     4102     5756     7277     7198     5482     2994 
     900      583     2455     5240     7168     7246     5428     3059 
    2370     3978     6334     7398     6085     3532     1729     1094 
    1579     3393     5742     7414     7754     6409     3986     2212 
    2272     3699     4909     4901     4240     3761     3618     3827 
    4315     4949     5769     6340     5886     4510     3221     2691 
    2701     2841     3208     4056     5104     5649     5368     4729 
    4464     4930     5892     6465     5584     3445     1661     1448 
    2691     4456     5503     5267     4441     3959     4028     4276 
    4461     4498     4205     3838     3788     3971     4198     4234 
    4341     5127     6197     6705     6197     4652     2964     2328 
    3038     4467     5413     5044     3832     2628     2126     3252 
    5786     7892     7854     5552     2959     2137     3024     4369 
    5000     4511     3677     3325     3838     5244     6529     6307 
    4441     2362     1803     3048     4666     5309     5078     4784 
    4942     5601     6264     6354     5751     4569     3222     2281 
    1971     2423     3592     4854     5513     5011     3472     2403 
    3156     5076     6201     5302     3256     2263     3435     5520 
    6346     5159     3092     1912     2648     4808     6748     7144 
    6037     4414     3322     3264     3935     4629     4942     4985 
    5061     5135     4564     3064     1815     2366     4572     6671 
    7168     5832     3620     2050     2008     3280     5057     6399 
    6570     5591     4310     3559     3505     3788     4031     4104 
    3959     3632     3343     3329     3690     4437     5509     6674 
    7429     7090     5321     2619      311      -43     2066     5373 
    7785     7952     5949     3025     1027     1390     3843     6169 
    6038     3821     2450     3632     5944     6794     5089     2466 
    1503     2717     4473     5111     4677     4456     4892     5331 
    5150     4311     3603     3738     4172     4284     4567     5225 
    5628     5517     5174     4996     5050     4693     3686     2795 
    2741     3592     4743     5390     5449     5553     6022     6185 
    5105     2992     1385     1567     3148     4841     5784     5522 
    4356     3217     2803     3534     5100     6435     6216     3628 
     400      -85     3152     7654    10122     8989     5381     1960 
     544     1318     3269     4669     4548     3512     2857     3877 
    6771     9198     8283     4180      159     -405     2600     6127 
    7389     6081     4341     4239     5047     4953     3908     2925 
    2794     3808     5236     6161     6600     6651     5945     4482 
    3138     2859     3273     3325     3071     3362     4523     6039 
    6750     5817     4050     2859     2658     3354     4321     4579 
    4001     3204     3111     4314     6054     6768     5553     3140 
    1663     2546     4990     6714     5891     3358     2143     3827 
    6605     7223     4491      972      314     2910     5961     7005 
    5873     4225     3666     4037     4139     3875     4147     4947 
    5390     5211     4752     4365     4245     4139     3846     3748 
    4120     4627     4737     4320     3721     3419     3865     5001 
    5799     5282     3893     2890     3042     4275     5620     5927 
    4959     3418     2448     2886     4305     5346     5277     4445 
    3705     3991     5247     6134     5814     4801     3784     2970 
    2604     3090     4410     5815     6106     4780     2979     2404 
    3538     5409     6377     5513     3701     2710     3334     4754 
    5512     4858     3303     2197     2440     3867     5845     7361 
    7321     5594     3145     1471     1883     4121     6093     6100 
    4642     3399     3323     3994     4545     4865     5259     5632 
    5752     5421     4455     3383     3177     3788     4372     4455 
    4113     3747     3657     3859     4218     4473     4461     4333 
    4402     4807     5266     5298     4583     3226     2120     2421 
    4230     6261     6939     5900     4287     3504     3912     4676 
    4828     4194     3294     2821     3164     4287     5664     6280 
    5614     4307     3385     3447     4218     4808     4772     4349 
    3958     3892     4153     4483     4549     4201     3708     3530 
    3867     4708     5709     6214     5914     5047     4126     3707 
    4013     4671     4882     4114     2843     2265     3030     4753 
    6421     6925     5945     4263     2995     2772     3327     3948 
    4282     4340     4172     3982     4086     4380     4482     4328 
    4012     3597     3415     3786     4278     4338     4348     4880 
    5800     6502     6394     5467     4191     3010     2438     2893 
    4206     5632     6207     5524     4216     3295     3365     4267 
    5062     4881     3892     3252     3967     5526     6285     5413 
    3736     2706     3087     4465     5589     5437     4212     2965 
    2648     3370     4201     4297     3878     3667     3975     4391 
    4387     4063     3919     4414     5665     6930     6914     5309 
    3411     2682     3369     4558     4978     4190     3319     3755 
    5293     6521     6388     4901     2984     1783     2046     3603 
    5213     5564     4592     3489     3415     4595     6018     6164 
    4653     2602     1684     2574     4224     5452     5961     5805 
    5220     4486     3943     3916     4187     4365     4352     4247 
    4534     5428     6158     5913     4687     3019     1925     2311 
    3963     5890     7065     6813     5259     3516     2979     3863 
    4916     4862     3784     2747     2497     3095     4064     4780 
    5061     4862     4149     3458     3456     4355     5651     6015 
    4801     3420     3719     5624     7227     6713     4293     2046 
    1680     3034     4720     5391     4600     3186     2446     2914 
    4183     5244     5389     4927     4567     4591     4727     4536 
    4070     3707     3753     4429     5397     5678     4785     3348 
    2448     2695     3793     4833     5005     4249     3420     3445 
    4386     5578     6153     5610     4468     3905     4444     5371 
    5495     4349     2727     1952     2560     3962     5297     6069 
    6102     5503     4575     3701     3427     3989     4841     5170 
    4648     3686     3117     3370     4014     4430     4598     4799 
    5085     5221     4785     3712     2749     2694     3456     4359 
    4932     5139     5130     5090     5171     5298     5181     4648 
    3931     3445     3350     3604     4067     4483     4762     5076 
    5424     5476     5088     4573     4239     4056     3892     3688 
    3534     3761     4395     4831     4707     4286     3808     3466 
    3630     4459     5483     5807     5011     3666     2802     3098 
    4186     4858     4502     3759     3520     4031     4799     5209 
    5270     5290     5200     4842     4314     3817     3553     3616 
    3855     4087     4419     4936     5220     4757     3705     2812 
    2798     3780     4976     5363     4861     4217     4044     4553 
    5432     5794     5097     3805     2826     2879     4012     5344 
    5788     5157     4324     4180     4599     4815     4546     4263 
    4433     4882     5061     4719     4172     3917     4118     4457 
    4403     3802     3132     3102     4068     5489     6207     5694 
    4513     3549     3302     3640     4099     4379     4484     4575 
    4726     4768     4465     3823     3217     3198     3904     4779 
    5142     4861     4386     4145     4010     3697     3422     3697 
    4581     5505     5840     5493     4943     4619     4326     3715 
    3002     2867     3686     4919     5634     5536     4962     4410 
    4251     4421     4509     4284     3905     3736     4068     4621 
    4757     4429     4093     3908     3870     4140     4662     5107 
    5186     4741     4002     3570     3763     4249     4374     3905 
    3240     2856     3063     3866     4815     5290     4973     4274 
    4174     5117     6323     6598     5683     4379     3627     3794 
