Origin Time       2024/04/02 04:24:00
Lat.              40.133
Long.             141.712
Depth. (km)       71
Mag.              6.0
Station Code      KSRH02
Station Lat.      43.1142
Station Long.     144.1230
Station Height(m) -75
Record Time       2024/04/02 04:25:31
Sampling Freq(Hz) 100Hz
Duration Time(s)  153
Dir.              2
Scale Factor      2942(gal)/8224139
Max. Acc. (gal)   0.758
Last Correction   2024/04/02 04:25:31
Memo.             
[...]
  131049   131148   131190   131174   131168   131203   131089   130877 
  130863   131101   131402   131481   131230   130933   130906   131101 
  131236   131214   131152   131134   131205   131341   131426   131442 
  131460   131429   131268   131071   131014   131132   131205   131041 
  130844   130810   130797   130820   130970   131014   130855   130684 
  130631   130738   130917   131024   131094   131153   131124   131024 
  130877   130713   130686   130788   130823   130820   130893   130968 
  130987   131012   131049   131056   131097   131193   131259   131325 
  131444   131452   131283   131172   131248   131360   131365   131252 
  131114   131085   131153   131113   130950   130958   131058   131020 
  131045   131159   131149   131121   131153   131182   131207   131170 
  131056   130995   131071   131175   131129   131013   130972   130900 
  130809   130883   130939   130771   130681   130843   130956   130924 
  130963   131098   131114   131031   131114   131363   131511   131413 
  131220   131182   131187   131045   130931   130971   131005   130908 
  130739   130671   130715   130673   130627   130812   131075   131117 
  130935   130825   130974   131103   131004   130862   130767   130742 
  130883   131060   131103   131105   131114   131087   131098   131232 
  131355   131253   131068   131107   131295   131419   131423   131282 
  131036   130813   130721   130820   130979   131008   130936   130891 
  130971   131161   131264   131251   131264   131288   131282   131214 
  131067   131016   131076   131083   131122   131228   131279   131282 
  131225   131151   131118   131029   130937   130932   130927   130924 
  130933   130958   131074   131156   131093   130997   130963   130978 
  131002   131064   131137   131056   130852   130867   131188   131407 
  131372   131340   131348   131255   131102   131078   131095   130920 
  130739   130824   131021   131102   131130   131274   131365   131118 
  130792   130864   131203   131288   131058   130928   131002   131017 
  130951   130925   130909   130910   131024   131240   131371   131225 
  131009   131097   131402   131517   131345   131167   131148   131186 
  131176   131105   130983   130858   130821   130909   130974   130948 
  130960   130945   130869   130948   131128   131172   131171   131321 
  131429   131217   130906   130844   131031   131197   131087   130858 
  130883   131083   131095   130939   130924   131114   131259   131152 
  130971   131012   131182   131256   131363   131566   131508   131083 
  130704   130589   130588   130561   130512   130550   130696   130851 
  131017   131225   131294   131107   131001   131170   131280   131229 
  131175   131120   131067   131001   130951   130997   131025   130891 
  130605   130424   130567   130781   130956   131233   131386   131296 
  131140   131017   131067   131225   131237   131195   131280   131323 
  131237   131245   131337   131269   131080   130947   130869   130801 
  130813   130909   130905   130824   130893   131082   131179   131126 
  130995   130894   130959   131140   131222   131203   131097   130893 
  130859   131053   131141   131080   131122   131299   131342   131068 
  130685   130546   130729   131018   131253   131449   131508   131353 
  131157   131044   130932   130762   130651   130796   131078   131151 
  131009   130972   131106   131079   130824   130837   131298   131533 
  131203   130978   131255   131508   131344   131053   130987   131059 
  131056   131008   131048   131130   131078   130881   130783   130943 
  131107   131053   130956   130989   131062   131006   130927   130970 
  130928   130746   130701   130869   131058   131018   130789   130848 
  131352   131724   131549   131125   130870   130875   131053   131251 
  131274   131074   130883   130809   130752   130817   131016   131080 
  130962   130856   130877   130944   130912   130864   130909   130940 
  131053   131283   131359   131315   131256   131178   131336   131656 
  131629   131186   130769   130748   130955   131010   131001   131128 
  131380   131622   131579   131280   131029   130821   130627   130536 
  130465   130476   130782   131120   131018   130663   130681   131091 
  131310   131172   131068   131107   131109   131175   131329   131260 
  130962   130704   130580   130569   130751   131247   131757   131726 
  131317   131157   131352   131588   131600   131429   131364   131365 
  131222   131106   131099   131032   130909   130797   130678   130581 
  130688   131078   131436   131554   131583   131535   131352   131153 
  131134   131257   131211   130954   130793   130925   131132   130997 
  130567   130316   130422   130640   130789   130987   131290   131444 
  131338   131133   131005   131043   131064   130891   130771   130998 
  131465   131785   131622   131125   130786   130816   130987   130972 
  130804   130790   130883   130837   130852   131116   131332   131303 
  131202   131155   131124   131058   131009   131078   131031   130677 
  130486   130638   130675   130748   131291   131890   131853   131292 
  130905   130778   130594   130663   131001   130941   130567   130434 
  130522   130782   131248   131649   131835   131831   131453   130751 
  130295   130350   130584   130844   131264   131550   131403   131161 
  131075   131082   131151   131161   131079   130939   130704   130507 
  130482   130582   130731   130906   131090   131191   131156   131087 
  131086   131082   131024   130974   130914   130742   130485   130376 
  130546   130891   131229   131336   131136   130920   131033   131309 
  131299   131039   130767   130430   130191   130492   131261   131934 
  132268   132382   132209   131701   131102   130747   130829   131095 
  131082   130873   130786   130696   130513   130466   130643   131026 
  131361   131267   131005   130808   130343   129952   130449   131596 
  132278   131959   131365   131292   131336   130828   130241   130179 
  130114   129709   129729   130626   131819   132599   132857   132842 
  132599   132163   131818   131541   131017   130474   130393   130554 
  130597   130689   130823   130877   131147   131676   132150   132393 
  132148   131403   130794   130820   131298   131699   131602   131078 
  130524   130264   130496   131093   131575   131612   131199   130565 
  130153   130293   130806   131140   131026   130670   130516   130804 
  131172   131371   131596   131626   131163   130746   130828   130917 
  130694   130634   130931   131210   131371   131598   131616   131301 
  131268   131488   131305   131026   131075   131071   130923   130858 
  130819   130963   131526   132093   132038   131372   130742   130538 
  130432   130173   130027   130164   130418   130810   131336   131561 
  131364   131126   130963   130824   130909   131261   131396   130939 
  130198   129817   130102   130771   131353   131571   131427   131225 
  131157   131087   130933   130815   130797   130904   131286   131769 
  131822   131461   131234   131427   131669   131356   130611   130134 
  130238   130628   130802   130752   130890   131140   131128   131052 
  131379   131904   131900   131265   130747   130882   131461   131928 
  131838   131203   130650   130592   130516   130262   130604   131402 
  131529   130831   130141   129972   130231   130698   131211   131511 
  131503   131426   131318   131068   131032   131415   131588   131048 
  130227   129871   130291   131116   131672   131787   131880   132086 
  131965   131414   130843   130441   130370   130848   131423   131456 
  131144   130933   130763   130574   130636   131206   132009   132256 
  131612   130854   130855   131283   131303   130928   130657   130671 
  130809   130925   131148   131511   131639   131450   131369   131298 
  130767   130118   129964   130266   130689   130959   130885   130609 
  130477   130451   130338   130230   130250   130459   130859   131248 
  131506   131697   131720   131409   130956   130781   130947   131114 
  131107   131171   131387   131382   131031   130774   130875   131141 
  131395   131519   131465   131471   131553   131334   130886   130681 
  130966   131599   131908   131421   130677   130275   130216   130493 
  130983   131256   131190   131010   130850   130886   131209   131438 
  131314   131132   131166   131395   131634   131673   131573   131402 
  130982   130580   130721   130962   130634   130353   130740   131125 
  130936   130607   130674   131152   131608   131646   131407   131157 
  130904   130785   130827   130705   130513   130497   130542   130797 
  131414   131978   132092   131751   131299   131167   131274   131082 
  130563   130369   130734   131079   131049   130827   130572   130536 
  130729   130711   130713   131205   131765   132069   132216   132106 
  131911   131919   131839   131465   131267   131399   131305   130870 
  130558   130559   130793   131079   131151   130975   130875   131022 
  131032   130577   130153   130407   130901   130789   130277   129968 
  129924   130160   130636   131079   131328   131315   131130   130867 
  130493   130396   130846   131372   131797   132228   132233   131676 
  131010   130509   130262   130208   130275   130639   131139   131288 
  131128   131010   131089   131356   131556   131315   130778   130626 
  131228   132094   132543   132474   132094   131560   131097   130863 
  130690   130346   129968   129986   130470   131152   131843   132204 
  132023   131635   131206   130696   130385   130316   130192   130049 
  130076   130204   130312   130462   130792   131340   131958   132328 
  132224   131652   130847   130145   129855   130303   131279   131892 
  131710   131242   131198   131579   131701   131295   130801   130596 
  130585   130580   130728   131067   131164   130909   130728   130831 
  131041   131203   131236   131039   130646   130396   130681   131210 
  131264   130913   130628   130450   130553   131152   131954   132432 
  132051   130870   129814   129520   129757   130111   130523   131086 
  131695   132221   132617   132713   132449   131912   131263   130815 
  130670   130720   131004   131519   131957   131974   131581   130968 
  130330   129868   129658   129643   129722   129907   130295   130828 
  131390   131897   132160   132016   131637   131391   131305   131062 
  130615   130261   130126   130206   130566   131039   131172   130883 
  130675   130964   131537   131862   131803   131588   131236   130825 
  130723   130929   131159   131279   131190   131014   130983   131005 
  131047   131226   131392   131615   132116   132435   132175   131811 
  131531   131017   130577   130573   130863   131433   131934   131861 
  131627   131637   131487   131008   130597   130624   131101   131571 
  131425   130639   129924   129824   130150   130547   130887   131022 
  130947   130901   130993   131008   130770   130681   131068   131390 
  131290   131106   131045   131178   131465   131529   131207   130848 
  130716   130728   130694   130609   130644   130626   130400   130466 
  131017   131591   131884   131770   131395   131269   131441   131344 
  130837   130501   130601   130754   130717   130747   131240   132055 
  132491   132290   131970   131915   131873   131569   131140   130819 
  130771   130983   131118   130878   130492   130354   130273   130010 
  130007   130589   131276   131519   131388   131279   131283   131058 
  130446   129824   129595   129886   130465   130836   130869   130820 
  130850   131040   131326   131564   131737   131768   131723   131803 
  131849   131750   131734   131703   131380   130966   130729   130551 
  130308   130153   130229   130349   130389   130623   131024   131242 
  131431   131909   132366   132370   132108   132004   131946   131553 
  131129   131045   130879   130442   130123   130099   130322   130524 
  130447   130365   130551   130752   130823   130981   131126   131093 
  131215   131611   131753   131260   130538   130235   130337   130574 
  130983   131290   131161   130990   131228   131668   131917   131795 
  131217   130362   129838   130000   130462   130827   131076   131143 
  130991   130891   131105   131477   131566   131346   131363   131770 
  131973   131618   131035   130607   130588   131062   131633   131814 
  131643   131479   131576   131841   131814   131332   130752   130212 
  129681   129446   129606   129945   130496   131211   131646   131726 
  131750   131633   131317   131201   131346   131287   130993   130924 
  131068   131036   130735   130311   130054   130194   130611   131043 
  131186   130890   130531   130453   130542   130678   130792   130685 
  130393   130238   130451   131087   131901   132420   132530   132453 
  132277   132085   131984   131818   131283   130594   130451   130835 
  130995   130756   130531   130638   131113   131492   131360   131009 
  130810   130789   130852   130904   130894   130723   130374   130299 
  130875   131674   131969   131643   131060   130472   130146   130346 
  130761   130889   130825   130890   131120   131330   131309   131280 
  131544   131688   131417   131215   131376   131606   131611   131421 
  131203   130902   130561   130534   130851   131180   131372   131539 
  131679   131483   130985   130654   130570   130549   130577   130657 
  130836   131130   131471   131866   132171   132102   131765   131522 
  131395   131134   130648   130206   130225   130696   131299   131957 
  132503   132436   131631   130819   130665   130932   131113   130950 
  130401   129730   129157   128933   129527   130732   131696   132039 
  131859   131298   130675   130441   130721   131147   131265   131017 
  130731   130678   130815   130971   131037   130986   130941   131043 
  131168   131203   131288   131323   131118   130935   130978   131124 
  131260   131268   131085   130850   130779   130944   131126   131113 
  131021   131010   131067   131167   131194   130952   130469   130048 
  130095   130673   131330   131650   131577   131319   131229   131414 
  131723   131954   131822   131322   130862   130694   130752   130773 
  130663   130766   131170   131426   131307   130964   130558   130287 
  130376   130736   131014   131018   130813   130613   130748   131296 
  131762   131776   131630   131518   131298   131025   130882   130898 
  130910   130775   130728   131107   131681   131916   131716   131352 
  131099   131116   131314   131539   131712   131764   131703   131556 
  131325   131044   130771   130686   130856   131045   131167   131386 
  131603   131535   131218   130912   130815   131014   131276   131259 
  130900   130291   129664   129415   129726   130422   131037   131161 
  130873   130590   130567   130716   130825   130897   131140   131595 
  131998   132008   131413   130551   130187   130322   130276   130060 
  130054   130119   130191   130567   131195   131625   131646   131484 
  131344   131176   131091   131356   131857   132308   132556   132437 
  132043   131615   131202   130831   130499   130202   130029   130049 
  130400   130966   131226   131129   131045   130931   130701   130648 
  130862   131093   131176   131105   130935   130758   130700   130894 
  131179   131311   131448   131565   131271   130704   130430   130621 
  131133   131768   132160   132063   131630   131116   130854   131168 
  131726   131797   131332   130932   130808   130674   130531   130611 
  130871   131184   131577   132028   132327   132248   131849   131382 
  130909   130443   130237   130480   130944   131310   131626   131984 
  132173   132089   131819   131342   130802   130550   130594   130623 
  130585   130701   130894   130885   130827   130952   131058   130962 
  130763   130711   130958   131221   131193   130917   130585   130497 
  130728   130918   130941   131080   131458   131776   131770   131658 
  131602   131404   131141   131067   131086   131085   131194   131458 
  131778   131904   131491   130750   130400   130594   130914   131145 
  131198   130983   130642   130391   130447   130873   131365   131606 
  131477   131133   130998   131099   130983   130642   130480   130513 
  130616   130871   131211   131475   131693   131768   131576   131368 
  131311   131167   130844   130658   130864   131257   131399   131124 
  130655   130243   129913   129766   130032   130468   130578   130509 
  130643   130790   130766   130879   131259   131573   131650   131554 
  131315   131095   131048   131021   130929   130852   130752   130563 
  130419   130523   130717   130752   130805   131001   131075   130890 
  130626   130563   130740   130941   131139   131400   131625   131770 
  131850   131824   131666   131317   130836   130412   130177   130242 
  130608   131067   131422   131581   131565   131485   131353   131140 
  130896   130593   130316   130316   130458   130360   130184   130349 
  130673   130738   130673   130762   130855   130782   130731   130863 
  131013   130991   130936   130909   130770   130723   131040   131546 
  131893   131870   131549   131156   130790   130567   130555   130549 
  130507   130716   131201   131599   131700   131592   131388   131136 
  130927   130804   130775   130891   131120   131325   131406   131349 
  131299   131332   131276   131101   130954   130797   130563   130416 
  130501   130746   130968   131040   131082   131286   131534   131657 
  131677   131595   131414   131229   131064   130936   131056   131469 
  131753   131723   131689   131733   131680   131631   131815   131967 
  131598   130844   130291   130153   130203   130304   130518   130769 
  131075   131507   131770   131743   131662   131480   131040   130554 
  130310   130322   130428   130540   130621   130576   130472   130599 
  130963   131275   131426   131504   131577   131649   131679   131699 
  131738   131697   131533   131346   131179   130925   130612   130455 
  130620   131060   131473   131548   131361   131224   131241   131373 
  131568   131680   131585   131349   131113   130970   130985   131172 
  131353   131323   131134   130815   130315   129949   130030   130303 
  130458   130620   130897   131114   131178   131241   131421   131569 
  131510   131329   131211   131226   131319   131288   131093   130985 
  130964   130744   130404   130111   129782   129631   129917   130306 
  130505   130685   130927   131043   131039   131070   131076   130972 
  130879   130932   131174   131526   131846   132043   132059   131930 
  131815   131737   131577   131441   131433   131434   131498   131657 
  131627   131376   131171   131004   130734   130522   130599   130846 
  130960   130955   130964   130913   130747   130555   130451   130543 
  130743   130874   130951   131040   131144   131260   131302   131193 
  130987   130855   130952   131249   131530   131615   131423   131016 
  130662   130603   130752   130815   130717   130734   130954   131118 
  131137   131175   131269   131330   131307   131218   131171   131268 
  131367   131280   131133   131114   131168   131145   131006   130842 
  130775   130829   130879   130843   130771   130669   130607   130720 
  130839   130748   130600   130555   130551   130603   130746   130792 
  130666   130711   131136   131584   131792   131986   132259   132435 
  132453   132293   131915   131449   131090   130833   130488   130046 
  129891   130231   130669   130908   131194   131584   131781   131737 
