Origin Time       2024/04/02 04:24:00
Lat.              40.133
Long.             141.712
Depth. (km)       71
Mag.              6.0
Station Code      KSRH05
Station Lat.      43.2556
Station Long.     144.2338
Station Height(m) -216.1
Record Time       2024/04/02 04:25:33
Sampling Freq(Hz) 100Hz
Duration Time(s)  129
Dir.              3
Scale Factor      2942(gal)/8224139
Max. Acc. (gal)   0.484
Last Correction   2024/04/02 04:25:34
Memo.             
[...]
   71568    71545    71456    71365    71316    71415    71490    71436 
   71443    71485    71362    71235    71288    71290    71192    71244 
   71355    71317    71271    71340    71428    71421    71344    71334 
   71348    71270    71185    71176    71220    71304    71311    71228 
   71273    71436    71489    71439    71462    71559    71599    71575 
   71556    71509    71436    71427    71455    71452    71491    71620 
   71720    71705    71570    71393    71347    71419    71489    71554 
   71551    71497    71496    71481    71397    71321    71253    71173 
   71219    71382    71419    71374    71487    71609    71474    71200 
   71093    71193    71309    71448    71631    71722    71728    71624 
   71429    71329    71253    71112    71180    71509    71744    71706 
   71560    71491    71528    71563    71518    71416    71298    71174 
   71113    71223    71373    71366    71334    71420    71477    71412 
   71317    71270    71278    71394    71559    71562    71428    71355 
   71362    71396    71428    71436    71425    71385    71338    71319 
   71336    71373    71373    71361    71398    71423    71401    71408 
   71393    71294    71248    71312    71320    71275    71257    71178 
   71138    71294    71479    71533    71552    71594    71609    71597 
   71578    71578    71591    71471    71251    71236    71394    71443 
   71448    71548    71597    71556    71645    71829    71745    71429 
   71354    71486    71516    71562    71641    71531    71320    71181 
   71155    71289    71431    71377    71248    71242    71335    71425 
   71528    71694    71697    71442    71298    71347    71394    71494 
   71555    71444    71385    71487    71540    71415    71212    71128 
   71194    71270    71342    71464    71529    71462    71359    71319 
   71356    71459    71544    71529    71487    71443    71377    71479 
   71726    71826    71770    71614    71362    71234    71297    71342 
   71361    71410    71404    71389    71410    71386    71369    71367 
   71346    71369    71385    71402    71502    71633    71751    71718 
   71505    71416    71504    71571    71605    71593    71544    71543 
   71516    71429    71361    71328    71329    71332    71328    71340 
   71275    71128    71035    71023    71132    71386    71540    71494 
   71491    71583    71536    71369    71346    71388    71325    71335 
   71346    71163    71077    71320    71595    71635    71609    71663 
   71559    71327    71328    71451    71356    71180    71165    71292 
   71485    71639    71635    71510    71379    71361    71486    71496 
   71267    71109    71128    71145    71254    71502    71578    71421 
   71374    71477    71504    71528    71605    71527    71352    71311 
   71343    71346    71335    71338    71367    71371    71394    71574 
   71764    71707    71424    71194    71239    71362    71348    71319 
   71285    71221    71239    71358    71525    71574    71436    71328 
   71324    71377    71470    71470    71436    71447    71313    71217 
   71415    71555    71415    71239    71181    71196    71270    71471 
   71716    71790    71622    71317    71131    71207    71382    71543 
   71624    71528    71417    71419    71362    71328    71487    71554 
   71374    71354    71554    71545    71405    71421    71375    71239 
   71301    71525    71629    71475    71278    71297    71431    71505 
   71504    71485    71483    71383    71281    71409    71581    71591 
   71568    71513    71280    71053    71157    71429    71604    71740 
   71743    71543    71400    71417    71469    71459    71374    71309 
   71363    71514    71575    71440    71311    71316    71319    71280 
   71280    71294    71311    71379    71456    71481    71521    71574 
   71524    71433    71447    71568    71740    71820    71694    71469 
   71374    71494    71644    71647    71532    71340    71205    71346 
   71587    71513    71224    71145    71246    71243    71239    71412 
   71497    71294    71162    71359    71562    71532    71410    71316 
   71315    71483    71659    71541    71278    71250    71363    71429 
   71543    71544    71280    71136    71377    71598    71440    71238 
   71328    71467    71439    71334    71293    71334    71262    71099 
   71169    71354    71404    71544    71713    71544    71307    71392 
   71559    71567    71535    71504    71464    71510    71555    71540 
   71564    71543    71429    71381    71417    71455    71436    71388 
   71370    71379    71450    71516    71421    71239    71138    71197 
   71427    71633    71606    71352    71104    71120    71315    71486 
   71568    71510    71400    71332    71307    71331    71298    71297 
   71528    71663    71448    71248    71288    71373    71386    71386 
   71419    71452    71425    71420    71551    71616    71433    71247 
   71240    71271    71235    71261    71405    71477    71433    71394 
   71354    71358    71392    71271    71140    71224    71431    71698 
   71869    71709    71443    71386    71429    71374    71319    71455 
   71606    71517    71431    71563    71652    71582    71521    71369 
   71103    71138    71504    71639    71440    71323    71302    71215 
   71151    71181    71296    71361    71281    71201    71189    71302 
   71487    71433    71307    71464    71609    71598    71698    71709 
   71479    71351    71413    71455    71347    71143    71193    71566 
   71730    71572    71581    71653    71408    71267    71473    71491 
   71354    71454    71544    71408    71298    71348    71370    71336 
   71486    71760    71855    71703    71427    71319    71491    71622 
   71604    71608    71602    71571    71560    71510    71429    71366 
   71346    71329    71204    71182    71446    71616    71562    71533 
   71446    71292    71382    71659    71733    71508    71236    71173 
   71320    71467    71547    71685    71790    71703    71566    71597 
   71718    71640    71437    71343    71196    71069    71208    71286 
   71235    71308    71212    71047    71340    71714    71678    71560 
   71564    71386    71143    71334    71761    71815    71447    71084 
   71080    71320    71512    71645    71678    71481    71167    71037 
   71227    71479    71579    71629    71470    71074    71039    71419 
   71539    71354    71284    71248    71123    71105    71189    71300 
   71455    71450    71335    71502    71770    71609    71155    70970 
   71149    71361    71508    71662    71753    71779    71676    71365 
   71180    71269    71251    71146    71254    71369    71271    71153 
   71161    71193    71159    71185    71313    71298    71118    71201 
   71662    71926    71629    71182    71082    71236    71379    71564 
   71747    71817    71886    71783    71405    71189    71189    71062 
   70897    71007    71346    71624    71760    71705    71366    71092 
   71132    71197    71080    71010    71153    71172    71115    71543 
   72029    71740    71207    71313    71659    71556    71335    71410 
   71513    71459    71374    71343    71396    71486    71587    71699 
   71755    71751    71648    71446    71342    71331    71315    71400 
   71531    71527    71365    71131    71108    71487    71968    72053 
   71571    70980    70911    71238    71479    71516    71386    71324 
   71528    71682    71570    71459    71486    71448    71312    71302 
   71386    71409    71498    71690    71806    71717    71452    71255 
   71273    71339    71321    71410    71748    71884    71597    71478 
   71583    71451    71308    71415    71440    71246    71177    71362 
   71504    71478    71425    71385    71339    71421    71678    71811 
   71759    71802    71728    71325    71080    71123    71131    71207 
   71547    72068    72354    72046    71653    71629    71548    71221 
   70941    70929    71205    71587    71976    72110    71714    71335 
   71474    71716    71601    71199    70933    71051    71205    71157 
   71266    71604    71644    71304    71059    71145    71485    71811 
   71838    71618    71342    71097    70996    71061    71207    71385 
   71493    71583    71821    71950    71794    71676    71618    71298 
   70933    70974    71188    71143    71072    71253    71490    71533 
   71474    71577    71550    71003    70560    70788    71161    71254 
   71331    71490    71478    71375    71432    71365    71034    71020 
   71564    71937    71579    71120    71176    71278    71209    71402 
   71690    71593    71361    71393    71514    71523    71547    71528 
   71163    70669    70645    71058    71401    71504    71450    71294 
   71196    71342    71555    71481    71328    71502    71574    71220 
   71196    71695    71857    71459    71120    71217    71500    71663 
   71641    71259    70822    70951    71420    71721    71753    71628 
   71516    71393    71224    71028    70976    71423    72019    72060 
   71662    71281    71082    71145    71297    71169    70993    71389 
   71967    71921    71655    71736    71604    71058    70854    71116 
   71389    71595    71699    71717    71718    71496    71274    71475 
   71550    71123    71066    71567    71608    71185    71238    71686 
   71716    71375    71203    71134    71221    71583    71776    71763 
   71714    71509    71358    71354    71325    71263    71196    71356 
   71670    71637    71447    71543    71712    71575    71208    71064 
   71301    71532    71409    71084    71172    71761    71999    71720 
   71455    71074    70707    70916    71491    71915    71968    71687 
   71420    71373    71451    71547    71605    71560    71340    71103 
   71292    71842    71928    71383    71119    71424    71714    71599 
   71086    70596    70536    70821    71284    71725    71907    71910 
   71894    71730    71356    71122    71270    71535    71570    71390 
   71452    71903    72023    71479    71066    71269    71621    71793 
   71787    71614    71560    71702    71604    71251    71001    70877 
   70881    71128    71440    71597    71614    71514    71335    71194 
   71065    70918    70756    70725    71203    71925    72090    71748 
   71373    71086    71254    71887    72092    71551    71026    71034 
   71325    71532    71535    71389    71248    71103    71096    71562 
   71910    71567    71280    71367    71346    71246    71207    71288 
   71570    71749    71668    71555    71547    71724    71860    71594 
   71286    71406    71639    71644    71686    71942    71959    71379 
   70973    71381    71675    71284    71003    71118    71213    71189 
   71186    71354    71606    71563    71159    70926    71162    71524 
   71848    71969    71435    70671    70563    71054    71640    71975 
   71903    71662    71514    71554    71732    71671    71169    70665 
   70679    71128    71493    71644    71745    71739    71772    71825 
   71540    71223    71120    70961    70980    71305    71574    71590 
   71324    71238    71621    71752    71506    71674    72063    71828 
   71115    70924    71374    71485    71348    71593    71636    71203 
   70884    70980    71351    71545    71570    71783    71818    71489 
   71127    70669    70405    70900    71686    71991    71910    71907 
   71948    71670    71321    71335    71410    71327    71425    71724 
   71782    71427    71069    71085    71181    71084    71142    71469 
   71686    71753    71759    71548    71286    71201    71001    70661 
   70765    71347    71798    71828    71589    71382    71239    70962 
   70902    71298    71659    71761    71741    71639    71648    71595 
   71101    70661    70848    71304    71548    71668    71898    71972 
   71567    71188    71174    70969    70718    71085    71604    71701 
   71774    72049    72090    71780    71560    71397    71054    71020 
   71327    71255    71030    71139    71258    71361    71567    71572 
   71551    71775    71836    71610    71467    71536    71722    71682 
   71228    70848    70908    71238    71493    71512    71571    71717 
   71489    70937    70748    71053    71081    70637    70619    71466 
   72354    72330    71725    71458    71509    71622    71821    71597 
   70864    70703    71406    71936    71779    71446    71320    71208 
   71068    71172    71500    71895    72183    72102    71670    71203 
   71072    71194    71066    70942    71266    71579    71682    71787 
   71647    71208    70926    71045    71215    70993    70804    71184 
   71621    71810    72153    72399    71988    71132    70665    71189 
   71983    72061    71842    71747    71412    71016    70974    71131 
   71312    71547    71736    71645    71365    71254    71228    71113 
   71211    71566    71709    71350    70802    70522    70596    71007 
   71501    71570    71199    70956    71404    72203    72335    71972 
   71925    71766    71275    71208    71432    71334    71184    71304 
   71350    71180    71227    71406    71327    71508    72185    72495 
   72068    71354    70722    70393    70467    70791    71077    71257 
   71404    71425    71464    71579    71348    71120    71636    72177 
   71902    71694    71986    71659    70795    70684    71167    71421 
   71520    71610    71622    71587    71477    71477    71702    71702 
   71355    71181    71269    71352    71504    71712    71818    71894 
   71915    71733    71388    71119    71265    71610    71446    71014 
   70908    70771    70718    71262    71598    71278    71415    72154 
   72418    72208    72011    71636    71062    70440    70062    70545 
   71497    71892    71932    72112    72053    71651    71485    71652 
   71668    71514    71469    71486    71473    71356    71162    71099 
   71248    71497    71587    71494    71448    71315    71294    71859 
   72242    71734    71020    70646    70713    71236    71454    70964 
   70831    71409    71717    71734    71956    71883    71401    71302 
   71614    71706    71504    71284    71332    71670    71716    71415 
   71378    71382    71031    70804    70946    71157    71427    71678 
   71489    70989    70822    71166    71498    71454    71335    71230 
   71089    71432    72010    71982    71768    71837    71691    71392 
   71392    71581    71698    71541    71177    71089    71431    71836 
   71886    71556    71282    71130    70974    71011    71018    70742 
   70633    71134    71841    71833    71317    71255    71351    71181 
   71378    71945    72068    71689    71344    71111    71068    71644 
   72310    71884    70893    70795    71178    70941    70594    70772 
   71132    71432    71614    71639    71485    71146    70976    71135 
   71281    71317    71521    71944    72102    71705    71223    71101 
   71243    71397    71396    71293    71300    71381    71282    71035 
   70962    71113    71250    71412    71605    71504    71383    71783 
   72173    71848    71359    71412    71451    70911    70609    70996 
   71220    71319    71864    72107    71702    71518    71678    71618 
   71311    71011    70906    71221    71859    72264    72184    71721 
   71107    70927    71265    71446    71378    71398    71327    71042 
   70865    70929    71026    71167    71643    72301    72473    72011 
   71423    70916    70665    70931    71184    71109    71458    72229 
   72501    72311    72281    72199    71639    71089    71123    71327 
   71397    71747    72122    71940    71567    71444    71510    71586 
   71342    70914    70870    71051    71104    71207    71190    70777 
   70545    71051    71748    71934    71864    71915    71910    71643 
   71459    71659    71670    71404    71439    71289    70848    71085 
   71745    71923    71918    72281    72524    72087    71498    71278 
   71177    71131    71266    71321    71232    71386    71690    71545 
   71153    71208    71455    71232    70822    70838    71124    71367 
   71629    71749    71637    71473    71313    71343    71498    71362 
   71136    71352    71775    71728    71324    71243    71298    70920 
   70692    71269    71712    71325    71035    71211    71344    71574 
   71878    71787    71620    71826    71926    71498    71180    71528 
   71801    71359    70951    71097    71139    70780    70676    70969 
   70935    70723    71146    71868    72110    71960    71779    71532 
   71240    71263    71490    71323    70954    71057    71572    71999 
   72002    71672    71375    71247    71236    71186    71062    71289 
   71886    71990    71498    71348    71508    71293    70950    70881 
   71042    71244    71185    71064    71266    71482    71505    71598 
   71743    71793    71790    71810    71736    71404    71034    70854 
   70827    71012    71250    71301    71348    71498    71587    71512 
   71271    71053    71018    71111    71217    71392    71760    71968 
   71707    71442    71280    70914    70821    71358    71988    72227 
   72104    71898    71775    71560    71261    71238    71421    71516 
   71664    71822    71583    71200    71190    71221    70962    70989 
   71585    71959    71575    71149    71398    71807    71671    71172 
   70835    70892    71155    71501    71882    71811    71302    71055 
   71139    71311    71494    71548    71595    71734    71807    71803 
   71604    71228    71108    71197    71215    71354    71583    71594 
   71446    71412    71416    70985    70413    70648    71417    71766 
   71582    71215    71059    71344    71869    72234    72204    71956 
   71486    70885    71053    71948    72337    72099    71783    71390 
   71092    71204    71394    71212    71000    71163    71336    71124 
   70754    70819    71400    71761    71699    71763    71906    71797 
   71437    70984    70877    71220    71643    71968    71968    71636 
   71485    71639    71664    71423    71274    71386    71402    71163 
   71161    71535    71628    71308    71182    71311    71232    70992 
   70980    71062    71111    71500    72029    72091    71855    71689 
   71381    70906    70853    71292    71575    71663    71676    71382 
   71289    71772    72188    72334    72216    71626    71297    71575 
   71653    71666    71987    71836    71201    71047    71375    71533 
   71386    71108    70877    70930    71157    71158    70857    70555 
   70681    71216    71574    71690    71739    71356    70843    70784 
   70730    70629    70966    71308    71366    71637    72085    72153 
   71798    71506    71485    71570    71689    71682    71386    71104 
   71107    71197    71228    71289    71433    71675    71869    71667 
   71161    70883    70896    70992    71246    71590    71936    72341 
   72387    71898    71531    71383    71059    70960    71362    71707 
   71705    71532    71253    70923    70804    70981    71061    70977 
   71163    71436    71467    71551    71631    71410    71196    71261 
   71464    71608    71616    71709    71950    71945    71606    71325 
   71128    70734    70425    70650    71042    71217    71528    72015 
   72179    71977    71732    71505    71397    71520    71510    71231 
   71242    71718    72125    72046    71725    71747    71901    71547 
   71104    71207    71487    71409    71081    70989    71251    71535 
   71743    72063    72376    72256    71676    71192    71030    70880 
   70861    71143    71219    71011    71128    71446    71340    70945 
