Origin Time       2024/04/02 04:24:00
Lat.              40.133
Long.             141.712
Depth. (km)       71
Mag.              6.0
Station Code      KSRH06
Station Lat.      43.2200
Station Long.     144.4285
Station Height(m) 30
Record Time       2024/04/02 04:25:36
Sampling Freq(Hz) 100Hz
Duration Time(s)  151
Dir.              5
Scale Factor      7845(gal)/8223790
Max. Acc. (gal)   6.304
Last Correction   2024/04/02 04:25:36
Memo.             
[...]
   -3952    -4340    -4587    -4449    -3977    -3616    -3628    -3848 
   -4136    -4499    -4731    -4476    -3827    -3323    -3287    -3588 
   -3997    -4344    -4461    -4334    -4143    -4017    -3993    -4128 
   -4399    -4621    -4608    -4295    -3798    -3423    -3396    -3593 
   -3817    -4113    -4436    -4486    -4213    -3936    -3877    -4002 
   -4274    -4592    -4684    -4382    -3874    -3450    -3242    -3306 
   -3635    -4074    -4374    -4394    -4171    -3897    -3858    -4141 
   -4491    -4596    -4405    -4056    -3682    -3406    -3424    -3809 
   -4307    -4584    -4498    -4083    -3516    -3110    -3140    -3573 
   -4140    -4585    -4703    -4460    -4083    -3761    -3580    -3688 
   -4044    -4340    -4421    -4386    -4348    -4309    -4214    -4067 
   -3913    -3782    -3734    -3777    -3861    -4050    -4322    -4407 
   -4193    -3874    -3686    -3775    -4075    -4337    -4401    -4298 
   -4120    -3935    -3840    -3915    -4068    -4166    -4272    -4421 
   -4398    -4117    -3823    -3684    -3650    -3759    -4095    -4476 
   -4630    -4534    -4260    -3819    -3383    -3283    -3597    -4054 
   -4395    -4558    -4495    -4160    -3747    -3593    -3784    -4105 
   -4328    -4357    -4251    -4074    -3813    -3592    -3619    -3869 
   -4112    -4197    -4175    -4112    -3955    -3781    -3757    -3805 
   -3813    -3897    -4116    -4311    -4406    -4473    -4446    -4167 
   -3771    -3592    -3696    -3923    -4213    -4513    -4558    -4202 
   -3730    -3523    -3577    -3672    -3797    -4045    -4291    -4330 
   -4172    -4006    -3951    -3973    -3986    -3960    -3979    -4136 
   -4311    -4314    -4199    -4121    -4054    -3923    -3831    -3909 
   -4028    -3963    -3807    -3808    -3892    -3873    -3861    -4013 
   -4244    -4387    -4396    -4318    -4174    -3951    -3686    -3551 
   -3785    -4306    -4614    -4491    -4268    -4131    -3947    -3809 
   -3901    -4043    -3964    -3765    -3719    -3840    -3963    -4095 
   -4295    -4415    -4275    -3942    -3773    -4052    -4537    -4681 
   -4294    -3682    -3284    -3300    -3665    -4241    -4845    -5123 
   -4780    -3991    -3302    -3094    -3420    -4063    -4523    -4449 
   -4035    -3624    -3348    -3335    -3724    -4379    -4922    -5001 
   -4523    -3811    -3403    -3534    -3955    -4310    -4499    -4548 
   -4409    -4086    -3720    -3531    -3663    -3958    -4131    -4094 
   -3916    -3734    -3682    -3746    -3913    -4233    -4549    -4633 
   -4540    -4396    -4105    -3696    -3503    -3655    -3888    -4024 
   -4113    -4086    -3886    -3670    -3543    -3593    -3975    -4531 
   -4777    -4544    -4128    -3703    -3291    -3200    -3701    -4483 
   -4973    -4950    -4541    -3950    -3464    -3358    -3693    -4240 
   -4629    -4668    -4433    -4041    -3654    -3497    -3609    -3812 
   -3960    -4032    -4032    -4000    -4020    -4131    -4251    -4328 
   -4359    -4234    -3923    -3690    -3728    -3925    -4207    -4517 
   -4612    -4337    -3865    -3559    -3653    -4037    -4438    -4664 
   -4626    -4302    -3763    -3280    -3213    -3607    -4098    -4345 
   -4360    -4270    -4031    -3639    -3438    -3712    -4201    -4490 
   -4495    -4336    -4133    -3956    -3755    -3558    -3639    -4117 
   -4606    -4739    -4581    -4253    -3843    -3607    -3630    -3717 
   -3856    -4126    -4272    -4085    -3794    -3623    -3613    -3909 
   -4445    -4734    -4554    -4194    -3842    -3512    -3381    -3564 
   -3966    -4469    -4801    -4626    -4087    -3735    -3827    -4108 
   -4236    -4145    -4013    -3960    -3909    -3796    -3757    -3910 
   -4133    -4280    -4453    -4649    -4591    -4193    -3777    -3662 
   -3819    -3964    -4021    -4193    -4387    -4266    -3931    -3754 
   -3763    -3869    -4137    -4475    -4580    -4379    -4087    -3792 
   -3497    -3441    -3700    -4000    -4216    -4387    -4461    -4383 
   -4178    -3910    -3696    -3657    -3767    -3873    -3952    -4106 
   -4274    -4268    -4087    -3915    -3859    -3898    -4004    -4164 
   -4248    -4108    -3904    -3869    -3890    -3870    -3991    -4214 
   -4248    -4180    -4183    -4058    -3774    -3673    -3820    -3892 
   -3750    -3638    -3755    -3967    -4077    -4116    -4182    -4249 
   -4244    -4104    -3877    -3816    -4060    -4357    -4390    -4214 
   -4054    -3879    -3650    -3645    -3985    -4270    -4257    -4141 
   -3998    -3805    -3719    -3777    -3902    -4090    -4225    -4167 
   -4039    -4027    -4079    -4112    -4201    -4294    -4224    -4074 
   -3993    -3886    -3708    -3643    -3792    -4102    -4500    -4726 
   -4517    -4031    -3605    -3395    -3484    -3863    -4284    -4459 
   -4305    -3958    -3685    -3685    -3905    -4220    -4588    -4862 
   -4754    -4244    -3713    -3456    -3466    -3680    -4013    -4321 
   -4533    -4557    -4241    -3759    -3574    -3785    -4077    -4307 
   -4571    -4676    -4278    -3569    -3172    -3304    -3727    -4290 
   -4816    -4907    -4491    -3923    -3423    -3160    -3434    -4214 
   -4895    -4954    -4544    -4047    -3604    -3397    -3642    -4162 
   -4531    -4484    -4087    -3653    -3439    -3450    -3589    -3858 
   -4255    -4573    -4541    -4205    -3900    -3771    -3717    -3731 
   -3948    -4349    -4604    -4456    -4085    -3757    -3562    -3649 
   -4027    -4376    -4523    -4506    -4287    -3923    -3634    -3538 
   -3635    -3935    -4321    -4513    -4403    -4230    -4193    -4131 
   -3846    -3528    -3487    -3659    -3792    -3910    -4198    -4541 
   -4607    -4342    -3964    -3630    -3473    -3643    -4070    -4465 
   -4621    -4436    -3912    -3418    -3375    -3662    -4001    -4411 
   -4799    -4814    -4418    -3981    -3762    -3743    -3816    -3892 
   -3962    -4013    -3920    -3743    -3746    -3896    -3937    -3915 
   -3970    -3921    -3659    -3485    -3673    -4110    -4457    -4479 
   -4336    -4263    -4054    -3588    -3395    -3778    -4248    -4453 
   -4577    -4611    -4369    -4027    -3782    -3562    -3441    -3570 
   -3812    -4024    -4243    -4372    -4302    -4152    -4025    -3904 
   -3863    -3979    -4163    -4318    -4380    -4190    -3775    -3569 
   -3802    -4193    -4495    -4637    -4486    -4101    -3792    -3674 
   -3613    -3634    -3861    -4168    -4356    -4440    -4490    -4511 
   -4399    -4098    -3862    -3869    -3940    -3994    -4074    -4108 
   -4060    -3971    -3817    -3676    -3782    -4151    -4444    -4401 
   -4105    -3784    -3612    -3662    -3854    -4039    -4210    -4492 
   -4803    -4818    -4441    -3997    -3770    -3747    -3829    -3954 
   -4039    -4077    -4175    -4295    -4209    -3954    -3873    -4037 
   -4164    -4091    -3897    -3713    -3661    -3836    -4166    -4372 
   -4369    -4444    -4629    -4514    -4081    -3808    -3798    -3846 
   -4006    -4224    -4191    -4000    -3942    -3870    -3619    -3503 
   -3717    -3950    -3939    -3844    -3944    -4214    -4401    -4376 
   -4156    -3838    -3611    -3541    -3620    -3963    -4448    -4614 
   -4276    -3777    -3526    -3539    -3694    -4072    -4596    -4826 
   -4556    -4008    -3406    -2940    -2964    -3615    -4423    -4820 
   -4781    -4526    -4078    -3608    -3469    -3645    -3889    -4199 
   -4568    -4742    -4577    -4189    -3757    -3447    -3441    -3856 
   -4483    -4774    -4568    -4233    -3943    -3576    -3285    -3434 
   -3986    -4490    -4715    -4714    -4419    -3896    -3539    -3519 
   -3601    -3711    -4066    -4580    -4768    -4390    -3794    -3511 
   -3681    -3981    -4147    -4239    -4321    -4216    -3829    -3474 
   -3460    -3708    -4024    -4332    -4554    -4503    -4087    -3659 
   -3649    -3820    -3743    -3650    -3924    -4356    -4536    -4374 
   -4027    -3721    -3645    -3813    -4091    -4342    -4449    -4256 
   -3856    -3627    -3674    -3909    -4445    -5063    -5098    -4475 
   -3852    -3604    -3519    -3496    -3763    -4356    -4792    -4536 
   -3743    -3230    -3458    -3981    -4228    -4297    -4446    -4492 
   -4261    -3905    -3601    -3534    -3802    -4164    -4340    -4348 
   -4261    -4060    -3809    -3639    -3618    -3824    -4291    -4837 
   -5119    -4876    -4132    -3249    -2768    -3018    -3834    -4685 
   -4955    -4453    -3731    -3361    -3361    -3635    -4175    -4691 
   -4791    -4444    -3874    -3308    -3030    -3314    -3964    -4419 
   -4526    -4526    -4445    -4186    -3878    -3711    -3694    -3865 
   -4276    -4600    -4464    -4043    -3586    -3225    -3399    -4257 
   -5121    -5348    -4892    -4044    -3281    -2934    -2976    -3387 
   -4148    -4865    -5069    -4703    -4067    -3531    -3329    -3539 
   -4013    -4398    -4504    -4428    -4224    -3829    -3375    -3295 
   -3852    -4671    -5055    -4710    -4078    -3744    -3569    -3261 
   -3246    -3759    -4176    -4237    -4363    -4407    -3951    -3480 
   -3615    -4023    -4329    -4762    -5155    -4810    -3766    -2894 
   -2666    -3051    -4072    -5273    -5626    -4858    -3712    -2841 
   -2425    -2695    -3835    -5238    -5881    -5503    -4576    -3564 
   -2890    -2929    -3492    -4081    -4660    -5155    -4901    -3808 
   -3001    -3165    -3711    -4135    -4523    -4774    -4696    -4380 
   -3946    -3519    -3472    -3900    -4218    -4079    -3929    -4106 
   -4307    -4261    -4185    -4222    -4172    -4074    -4141    -4148 
   -3770    -3349    -3518    -4166    -4588    -4502    -4147    -3724 
   -3352    -3210    -3437    -4139    -5251    -6022    -5472    -3892 
   -2708    -2624    -3125    -3824    -4711    -5162    -4626    -3904 
   -3852    -3964    -3732    -3655    -3987    -4240    -4248    -4272 
   -4225    -4010    -3906    -3804    -3360    -3096    -3639    -4459 
   -4826    -4780    -4399    -3667    -3046    -2994    -3476    -4368 
   -5362    -5607    -4672    -3447    -2936    -3015    -3323    -3981 
   -4843    -5205    -4699    -3786    -3217    -3349    -3971    -4565 
   -4807    -4693    -4224    -3485    -3033    -3295    -3863    -4302 
   -4693    -4880    -4459    -3576    -2916    -3024    -3812    -4679 
   -5117    -5181    -5062    -4436    -3129    -1977    -1934    -2932 
   -4205    -5150    -5611    -5483    -4541    -3190    -2570    -3125 
   -4060    -4685    -4990    -4872    -4141    -3188    -2686    -2959 
   -3883    -4905    -5292    -4966    -4556    -4226    -3705    -3385 
   -3704    -4156    -4162    -3819    -3496    -3472    -3726    -3993 
   -4324    -4833    -5019    -4436    -3561    -3099    -3168    -3526 
   -3940    -4344    -4772    -5012    -4764    -4253    -3906    -3673 
   -3433    -3403    -3663    -4025    -4413    -4703    -4600    -4199 
   -3844    -3449    -3040    -3094    -3599    -4121    -4734    -5382 
   -5332    -4534    -3835    -3423    -3048    -3113    -3893    -4780 
   -5158    -4951    -4297    -3473    -2875    -2768    -3296    -4430 
   -5670    -6261    -5865    -4666    -3073    -1848    -1829    -3109 
   -4957    -6189    -5769    -4136    -2880    -2606    -2848    -3553 
   -4823    -5846    -5548    -4191    -3065    -2767    -2988    -3410 
   -3802    -3966    -3924    -3699    -3395    -3468    -4106    -4858 
   -5221    -5059    -4457    -3532    -2720    -2740    -3635    -4599 
   -5062    -4989    -4364    -3389    -2754    -2956    -3782    -4741 
   -5487    -5632    -4853    -3577    -2743    -2682    -3177    -4172 
   -5340    -5779    -5022    -3628    -2577    -2662    -4020    -5724 
   -6494    -6007    -4700    -2874    -1282    -1348    -3226    -5398 
   -6624    -6581    -5320    -3357    -1737    -1498    -2822    -4815 
   -6338    -6644    -5636    -3955    -2327    -1344    -1753    -3558 
   -5408    -5967    -5171    -3746    -2222    -1067    -1186    -3019 
   -5458    -6770    -6281    -4523    -2531    -1358    -1557    -2926 
   -4909    -6770    -7299    -5751    -3242    -1576    -1368    -2527 
   -4727    -6666    -6795    -5140    -3165    -2029    -2068    -3304 
   -5124    -6218    -5792    -4298    -2891    -2633    -3739    -5277 
   -6025    -5634    -4518    -2992    -1452     -939    -2143    -4357 
   -6405    -7441    -6951    -5341    -3667    -2529    -2034    -2195 
   -2957    -4118    -5197    -5544    -4862    -3685    -3056    -3537 
   -4707    -5741    -6043    -5352    -3916    -2532    -1829    -1821 
   -2450    -3743    -5108    -5544    -4816    -3615    -2839    -3100 
   -4264    -5556    -6215    -5671    -3794    -1437      -36     -583 
   -2979    -6068    -8353    -8819    -7304    -4510    -1691     -163 
    -618    -2506    -4569    -5852    -5919    -4892    -3453    -2463 
   -2587    -3836    -5343    -6003    -5350    -3844    -2374    -1632 
   -2026    -3497    -5309    -6448    -6143    -4353    -2083     -911 
   -1879    -4567    -7335    -8556    -7441    -4329     -635     1850 
    1788    -1139    -5692    -9414   -10288    -8186    -4627    -1297 
     626      248    -2423    -5791    -7788    -7585    -5676    -3100 
   -1111     -614    -1690    -3839    -6081    -7040    -6089    -4298 
   -3156    -2916    -3235    -4098    -5221    -5803    -5220    -3707 
   -2392    -2220    -3007    -4018    -4710    -4720    -3998    -3156 
   -3249    -4727    -6642    -7492    -6520    -3943     -823     1271 
    1036    -1972    -6704   -10454   -10646    -7195    -2700      -70 
    -121    -1931    -4580    -7129    -8064    -6488    -3207       -9 
    1348      -47    -3325    -6389    -7808    -7434    -5776    -3789 
   -2544    -2432    -3099    -3904    -4287    -4058    -3399    -2687 
   -2404    -3069    -4700    -6349    -6798    -5715    -3888    -2583 
   -2475    -3099    -3690    -4155    -4704    -5240    -5506    -5317 
   -4795    -4423    -4326    -3898    -2739    -1602    -1584    -2620 
   -3836    -4851    -5610    -5749    -5186    -4429    -3751    -3092 
   -2749    -3245    -4498    -5466    -4992    -3168    -1408    -1071 
   -2328    -4361    -6145    -6816    -6019    -4203    -2419    -1803 
   -2651    -4048    -4999    -5127    -4357    -3192    -2839    -3870 
   -5354    -6089    -5823    -4822    -3473    -2282    -1629    -1829 
   -3052    -4741    -5918    -6262    -5996    -4995    -3258    -1719 
   -1483    -2763    -4715    -6058    -6091    -4904    -2903    -1027 
    -731    -2632    -5579    -7651    -7722    -5782    -2641      -35 
     120    -2444    -6042    -8787    -9468    -7526    -3615      338 
    2142      787    -2727    -6477    -8942    -8980    -6304    -2551 
    -238     -309    -1904    -4097    -6218    -7125    -6029    -3738 
   -1985    -1867    -3154    -4741    -5806    -6138    -5541    -4129 
   -2783    -2470    -3443    -4995    -5908    -5428    -3781    -1921 
    -897    -1092    -2297    -4333    -6673    -8218    -8094    -6161 
   -3111     -387      411    -1401    -4603    -6883    -7063    -5657 
   -3778    -2423    -2120    -2745    -3913    -5215    -5841    -5194 
   -4118    -3971    -4571    -4730    -4147    -3319    -2835    -3233 
   -4411    -5451    -5462    -4378    -2847    -1678    -1753    -3549 
   -6195    -7862    -7272    -4769    -1907     -155     -292    -2297 
   -5223    -7507    -7753    -5906    -3451    -1900    -1714    -2631 
   -4205    -5798    -6421    -5328    -3011     -930     -261    -1318 
   -3573    -5838    -7011    -6903    -6053    -4903    -3622    -2527 
   -2169    -2601    -3148    -3430    -3839    -4788    -5933    -6435 
   -6007    -4936    -3419    -1973    -1571    -2481    -3936    -5143 
   -5833    -5867    -5011    -3623    -2776    -3048    -3877    -4324 
   -3801    -2286     -684     -589    -2655    -5497    -7157    -7195 
   -6453    -5547    -4612    -3827    -3418    -3609    -4247    -4399 
   -3643    -2867    -2586    -2478    -2826    -4017    -5220    -5478 
   -5157    -4756    -3740    -2192    -1490    -2165    -3316    -4519 
   -5876    -6347    -4977    -3107    -2736    -3894    -5414    -6831 
   -7835    -7163    -4239     -654     1503     1329    -1040    -4595 
   -7659    -8860    -7909    -5486    -2656     -542      -64    -1509 
   -4236    -6817    -7861    -7034    -4963    -2412     -406     -291 
   -2312    -4882    -6276    -6227    -5246    -3588    -1921    -1525 
   -2659    -4275    -5601    -6432    -6443    -5341    -3339    -1404 
    -838    -2057    -4106    -5706    -6389    -6367    -5624    -4001 
   -2068    -1007    -1745    -4224    -7141    -8841    -8495    -6245 
   -3256    -1286     -920    -1352    -2204    -3801    -5809    -7005 
   -6461    -4477    -2358    -1171    -1019    -1607    -2914    -4770 
   -6277    -6486    -5445    -3879    -2668    -2843    -4573    -6457 
   -6801    -5192    -2647     -726     -565    -2236    -4522    -5904 
   -5844    -4621    -2872    -1879    -2844    -5333    -7631    -8440 
   -7222    -4276    -1143      361     -355    -2609    -5352    -7372 
   -7364    -5136    -2312     -939    -1818    -4244    -6818    -8220 
   -7568    -4932    -1626      660     1036     -607    -3967    -7866 
  -10312    -9755    -6326    -2089      537      780     -716    -3059 
   -5242    -6180    -5281    -3161    -1528    -1794    -3848    -6227 
   -7290    -6444    -4453    -2506    -1502    -2033    -3866    -5595 
   -5957    -5020    -3397    -1517     -384    -1198    -3661    -6269 
   -7827    -7627    -5520    -2729    -1205    -1385    -2126    -3002 
   -4660    -6855    -7888    -6872    -5089    -3935    -3435    -3308 
   -3646    -4434    -4962    -4213    -2500    -1495    -2085    -3550 
   -4842    -5620    -5791    -5013    -3335    -1499     -552    -1462 
   -4055    -6594    -7588    -7006    -5401    -3458    -2255    -2392 
   -3156    -3726    -4263    -4878    -5003    -4623    -4440    -4553 
   -4388    -3686    -2857    -2404    -2313    -2492    -3221    -4364 
   -5105    -5058    -4733    -4645    -4633    -4356    -3900    -3577 
   -3530    -3751    -4141    -4276    -3554    -2189    -1458    -2188 
   -3878    -5872    -7871    -8914    -7790    -4762    -1622     -130 
    -766    -2671    -4531    -5397    -4984    -3831    -3126    -3766 
   -5421    -6795    -6714    -4926    -2359     -634     -870    -2793 
   -5028    -6357    -6277    -4772    -2733    -1903    -3084    -5189 
   -6778    -7396    -6793    -4708    -2038     -379     -390    -1830 
   -4170    -6363    -7234    -6531    -5013    -3627    -2909    -2874 
   -3055    -3038    -2994    -3056    -2920    -2918    -4039    -6033 
   -7206    -6536    -4664    -2948    -2450    -3221    -4052    -3835 
   -3114    -3177    -4054    -4584    -4365    -4271    -4696    -4756 
   -3703    -2227    -1842    -3087    -4935    -6112    -6129    -5159 
   -3908    -3244    -3310    -3619    -4051    -4703    -5204    -5116 
   -4533    -3734    -2767    -1829    -1637    -2720    -4403    -5452 
   -5563    -5159    -4455    -3670    -3325    -3632    -4317    -4966 
   -4926    -3700    -2085    -1719    -3240    -5598    -7074    -6616 
   -4513    -2025     -364     -209    -1890    -4777    -6957    -7029 
   -5722    -4565    -3788    -3064    -3222    -4954    -6646    -6042 
