Origin Time       2024/04/02 04:24:00
Lat.              40.133
Long.             141.712
Depth. (km)       71
Mag.              6.0
Station Code      KSRH05
Station Lat.      43.2556
Station Long.     144.2338
Station Height(m) 114
Record Time       2024/04/02 04:25:33
Sampling Freq(Hz) 100Hz
Duration Time(s)  129
Dir.              5
Scale Factor      7845(gal)/8223790
Max. Acc. (gal)   5.011
Last Correction   2024/04/02 04:25:34
Memo.             
[...]
   10758    10785    10844    10837    10744    10643    10597    10598 
   10629    10696    10779    10831    10828    10782    10692    10597 
   10597    10700    10812    10864    10844    10733    10578    10527 
   10623    10735    10771    10762    10732    10701    10720    10778 
   10818    10833    10832    10797    10713    10584    10446    10400 
   10498    10646    10747    10814    10833    10746    10602    10486 
   10411    10393    10473    10605    10698    10743    10750    10701 
   10633    10602    10619    10655    10647    10567    10501    10509 
   10582    10704    10844    10939    10947    10848    10665    10497 
   10447    10496    10569    10639    10683    10678    10677    10694 
   10675    10650    10675    10728    10763    10743    10655    10575 
   10589    10642    10639    10625    10666    10685    10642    10631 
   10700    10791    10872    10939    10976    10968    10867    10665 
   10481    10430    10504    10658    10837    10955    10963    10883 
   10713    10453    10255    10276    10435    10611    10806    10975 
   11024    10957    10805    10592    10436    10498    10750    10951 
   10944    10791    10586    10362    10195    10201    10404    10717 
   11026    11269    11371    11206    10770    10293    10034    10065 
   10336    10766    11190    11396    11252    10816    10318     9975 
    9906    10130    10551    11022    11392    11475    11196    10731 
   10350    10211    10322    10584    10847    11045    11175    11140 
   10876    10542    10369    10423    10604    10824    11043    11165 
   11107    10914    10681    10430    10173    10015    10075    10328 
   10677    11055    11321    11279    10948    10536    10224    10096 
   10153    10380    10700    10945    11020    10980    10920    10849 
   10736    10559    10393    10374    10516    10666    10725    10741 
   10771    10789    10750    10656    10582    10574    10648    10782 
   10871    10841    10736    10616    10515    10481    10503    10509 
   10530    10636    10789    10871    10824    10698    10596    10540 
   10493    10481    10547    10631    10673    10729    10822    10839 
   10694    10490    10362    10319    10376    10579    10859    11070 
   11157    11115    10916    10615    10359    10228    10243    10417 
   10677    10886    10975    10976    10948    10866    10702    10544 
   10467    10415    10372    10422    10570    10723    10841    10928 
   10947    10862    10686    10512    10461    10566    10724    10852 
   10995    11151    11176    10987    10651    10335    10230    10435 
   10856    11261    11421    11280    10922    10463    10108    10027 
   10172    10440    10767    11016    11055    10868    10517    10169 
   10085    10385    10867    11234    11377    11319    11030    10552 
   10139    10010    10133    10404    10774    11107    11223    11088 
   10814    10521    10303    10211    10250    10405    10648    10939 
   11195    11277    11105    10817    10609    10490    10390    10338 
   10399    10574    10797    10966    10999    10909    10783    10693 
   10625    10579    10609    10725    10831    10820    10724    10671 
   10705    10754    10755    10710    10658    10582    10435    10295 
   10309    10474    10681    10851    10922    10840    10625    10378 
   10228    10247    10412    10652    10855    10912    10825    10678 
   10494    10323    10316    10535    10840    11080    11202    11186 
   11033    10806    10579    10397    10309    10366    10517    10679 
   10859    11029    11053    10893    10704    10606    10567    10555 
   10569    10619    10710    10778    10748    10663    10609    10612 
   10629    10600    10528    10523    10642    10793    10851    10785 
   10655    10538    10469    10442    10478    10628    10856    11033 
   11121    11182    11186    11047    10763    10409    10096     9995 
   10200    10562    10833    10940    11003    11082    11017    10725 
   10415    10324    10454    10666    10847    10940    10921    10755 
   10450    10188    10211    10485    10774    10971    11091    11136 
   11134    11009    10650    10251    10138    10322    10597    10800 
   10854    10843    10902    10960    10848    10581    10346    10295 
   10426    10651    10867    10986    10994    10971    10933    10839 
   10693    10520    10384    10409    10621    10870    10975    10891 
   10746    10663    10615    10530    10407    10314    10351    10566 
   10840    10979    10881    10650    10534    10621    10762    10829 
   10827    10758    10619    10478    10446    10527    10655    10827 
   11024    11141    11091    10862    10540    10309    10309    10466 
   10588    10613    10642    10706    10716    10635    10559    10555 
   10588    10624    10675    10773    10901    10983    10968    10916 
   10881    10818    10690    10542    10434    10412    10508    10654 
   10725    10708    10713    10779    10808    10739    10616    10507 
   10469    10507    10574    10667    10812    10966    10995    10813 
   10535    10377    10385    10481    10643    10863    11041    11063 
   10879    10551    10201     9990    10050    10357    10764    11144 
   11379    11372    11099    10709    10440    10355    10347    10450 
   10771    11142    11286    11173    10901    10550    10291    10242 
   10323    10458    10704    11047    11271    11191    10879    10574 
   10446    10446    10434    10400    10424    10503    10598    10721 
   10845    10882    10760    10503    10277    10278    10503    10758 
   10928    11026    11071    11057    10901    10498    10053     9946 
   10257    10721    11070    11179    11075    10863    10628    10389 
   10180    10150    10453    10940    11215    11101    10829    10646 
   10471    10197    10019    10193    10651    11102    11323    11260 
   10972    10590    10260    10053    10010    10200    10543    10785 
   10831    10837    10903    10939    10895    10864    10889    10881 
   10752    10586    10555    10692    10876    10979    10916    10767 
   10705    10686    10548    10396    10469    10737    10968    11038 
   10966    10805    10633    10531    10507    10558    10712    10874 
   10856    10686    10612    10701    10744    10636    10558    10612 
   10647    10582    10539    10592    10714    10866    10939    10854 
   10683    10543    10416    10276    10246    10403    10604    10759 
   10947    11161    11230    11011    10631    10354    10297    10455 
   10687    10767    10717    10714    10710    10616    10532    10550 
   10602    10652    10717    10775    10879    11056    11133    11026 
   10845    10640    10443    10315    10261    10353    10646    10989 
   11206    11256    11097    10697    10224     9998    10210    10705 
   11086    11161    11114    11078    10908    10538    10154     9977 
   10108    10476    10866    11099    11151    11082    10920    10669 
   10401    10238    10274    10516    10875    11184    11280    11137 
   10872    10558    10208     9963    10000    10328    10801    11196 
   11346    11288    11114    10755    10253     9921     9964    10262 
   10590    10859    11074    11188    11071    10659    10169    10008 
   10278    10602    10671    10686    10914    11179    11179    10924 
   10605    10393    10363    10397    10347    10330    10606    11091 
   11399    11376    11091    10619    10220    10191    10434    10669 
   10878    11149    11280    10999    10453    10029     9896    10038 
   10465    11086    11570    11601    11215    10702    10292    10100 
   10196    10535    10903    11055    10936    10694    10467    10289 
   10278    10584    11063    11331    11161    10658    10091     9732 
    9805    10291    10825    11122    11199    11067    10732    10416 
   10284    10280    10413    10669    10859    10903    10847    10692 
   10523    10538    10760    10963    10960    10818    10687    10620 
   10589    10597    10689    10805    10808    10720    10697    10783 
   10859    10841    10790    10785    10767    10616    10380    10281 
   10404    10624    10851    10987    10887    10655    10577    10674 
   10773    10852    10967    11038    10970    10837    10736    10525 
   10130     9904    10145    10589    10864    10966    11076    11192 
   11102    10732    10309    10118    10273    10654    10968    11036 
   10963    10932    10903    10739    10504    10413    10500    10616 
   10694    10748    10810    10883    10852    10650    10422    10300 
   10234    10188    10297    10621    10952    11092    11087    11041 
   10957    10783    10493    10235    10303    10670    10937    10937 
   10837    10741    10621    10471    10357    10324    10354    10451 
   10658    10913    11036    10948    10770    10656    10670    10733 
   10705    10636    10727    10908    10885    10632    10424    10434 
   10617    10824    10901    10824    10720    10723    10767    10704 
   10582    10581    10733    10906    10975    10882    10654    10451 
   10443    10552    10565    10443    10355    10442    10677    10893 
   10926    10798    10665    10601    10550    10424    10287    10343 
   10714    11267    11608    11404    10771    10150     9888    10042 
   10373    10658    10929    11172    11236    11094    10779    10374 
   10142    10308    10720    10983    10968    10871    10735    10474 
   10278    10388    10692    10910    10918    10763    10643    10705 
   10795    10705    10543    10565    10790    10978    10914    10669 
   10474    10386    10330    10396    10648    10926    11105    11203 
   11244    11225    11113    10847    10504    10354    10601    11036 
   11191    10945    10681    10694    10824    10773    10434     9919 
    9537     9613    10123    10744    11271    11647    11777    11574 
   11041    10281     9585     9366     9842    10779    11665    12062 
   11816    11102    10223     9540     9424     9817    10214    10467 
   10894    11435    11614    11260    10627    10031     9745     9936 
   10455    10921    11213    11541    11808    11596    10885    10095 
    9512     9247     9495    10288    11252    11943    12171    11905 
   11219    10341     9544     9112     9279     9965    10793    11429 
   11681    11477    10984    10538    10296    10193    10303    10737 
   11253    11523    11534    11358    10913    10231     9653     9487 
    9778    10469    11329    11870    11838    11476    10979    10223 
    9351     8904     9132     9821    10800    11961    12870    13014 
   12283    10963     9545     8650     8681     9436    10408    11303 
   11965    12085    11403    10199     9171     8823     9251    10284 
   11542    12510    12704    11978    10687     9389     8580     8615 
    9468    10729    12020    13057    13416    12681    10939     9039 
    8029     8225     9227    10631    12110    13203    13562    13055 
   11600     9537     7909     7614     8569    10100    11651    12746 
   12901    12139    11021     9987     9186     8856     9332    10596 
   12082    13004    12829    11543     9772     8536     8405     9080 
   10150    11527    12742    12953    12001    10596     9455     8861 
    8860     9375    10254    11291    12204    12680    12469    11558 
   10395     9594     9351     9539    10087    10783    11321    11653 
   11797    11653    11211    10623    10088     9701     9386     9186 
    9305     9806    10592    11530    12302    12487    12010    11210 
   10373     9555     8872     8703     9283    10341    11375    12015 
   12094    11753    11260    10620     9806     9251     9513    10601 
   11889    12567    12253    11205     9842     8518     7738     8006 
    9363    11371    13425    14735    14582    12999    10694     8569 
    7406     7466     8496    10137    11892    13154    13498    12784 
   11300     9806     9007     9028     9544    10272    11079    11708 
   11857    11445    10763    10316    10296    10323    10052     9764 
    9945    10501    10902    11067    11379    11753    11658    11065 
   10504    10156     9697     9186     9200     9914    10867    11580 
   11877    11858    11703    11356    10562     9425     8691     9119 
   10501    11789    12307    12163    11570    10648     9667     8974 
    8923     9753    11148    12258    12496    11932    10918     9794 
    8986     8999     9927    11264    12438    13082    12816    11570 
    9930     8748     8503     9174    10565    12237    13329    13266 
   12260    10675     8815     7384     7209     8406    10324    12195 
   13416    13527    12476    10767     9193     8440     8753     9957 
   11611    12901    13035    12009    10498     9124     8255     8245 
    9336    11178    12826    13342    12537    11171    10139     9655 
    9477     9522     9979    10868    11607    11545    10828    10106 
    9856    10238    10991    11561    11599    11215    10712    10234 
    9803     9497     9489    10004    11001    11983    12455    12274 
   11553    10567     9657     9092     9067     9590    10492    11638 
   12652    12843    12104    11165    10596    10196     9590     8924 
    8688     9097     9992    11072    11951    12283    12073    11581 
   10920    10030     9045     8333     8240     9101    11098    13402 
   14427    13575    11659     9539     7717     6901     7703     9964 
   12719    14566    14426    12422     9670     7344     6318     7199 
   10007    13636    15936    15327    12425     9163     6953     6409 
    7620    10073    12779    14593    14760    13356    10966     8445 
    7025     7495     9343    11338    12540    12645    11932    10979 
   10311    10139    10211    10022     9514     9340    10062    11384 
   12503    12907    12518    11485    10076     8649     7665     7699 
    8981    10966    12781    13851    13826    12494    10260     8419 
    8135     9329    11047    12282    12357    11331     9991     9094 
    8872     9202    10017    11263    12414    12591    11650    10481 
    9930    10038    10485    11144    11695    11500    10476     9288 
    8694     9116    10408    12066    13447    13720    12479    10214 
    7936     6945     7944     9988    11659    12607    13005    12745 
   11664     9967     8468     8082     8865    10214    11616    12532 
   12521    11881    11264    10800    10227     9536     9136     9504 
   10524    11453    11907    12131    12167    11722    10712     9508 
    8735     8760     9423    10354    11242    11859    12075    11836 
   11160    10249     9508     9320     9710    10305    10787    11184 
   11673    12291    12629    12044    10623     9360     9042     9547 
   10285    10832    11067    11118    11246    11407    11134    10372 
    9809     9907    10363    10821    11229    11476    11475    11350 
   11122    10642    10002     9462     9103     8995     9391    10392 
   11689    12776    13180    12675    11468     9994     8685     7996 
    8171     8985    10177    11631    12934    13479    12934    11406 
    9579     8379     8206     8920    10210    11477    12137    12198 
   12000    11647    11049    10295     9740     9644     9941    10378 
   10743    10935    10960    10885    10777    10647    10427    10158 
   10125    10466    10883    11060    11079    11198    11422    11524 
   11376    11010    10427     9741     9290     9337     9931    10921 
   11836    12112    11670    11001    10581    10369    10093     9844 
    9864    10145    10525    10793    10783    10590    10446    10521 
   10829    11188    11484    11707    11684    11310    10785    10192 
    9354     8391     7966     8644    10223    11993    13351    13910 
   13432    11988     9958     8064     7261     8101    10273    12908 
   14980    15611    14442    11850     8835     6677     6332     7816 
   10123    12021    13026    13282    12733    11222     9256     7902 
    7869     9016    10727    12359    13381    13582    13119    11958 
    9891     7520     6197     6686     8617    11038    12962    13759 
   13293    11911    10390     9362     8891     9027    10011    11489 
   12475    12326    11318    10261     9680     9609     9987    10624 
   11111    11257    11173    10882    10407    10154    10566    11300 
   11545    11214    10885    10741    10574    10444    10584    10908 
   11091    10976    10548     9817     9142     9282    10513    12108 
   13086    13139    12451    11103     9267     7788     7759     9329 
   11502    13147    13599    12684    10894     9085     7938     7940 
    9111    10743    12081    12695    12263    11014     9925     9660 
    9945    10239    10349    10323    10226    10165    10281    10594 
   11011    11520    12020    12000    11097     9855     9158     9259 
    9972    11079    12139    12540    12100    11291    10624    10139 
    9736     9570     9737    10073    10471    10825    10866    10606 
   10415    10426    10392    10143     9937    10143    10692    11236 
   11591    11596    11119    10461    10201    10476    10925    11306 
   11519    11368    10840    10180     9555     9130     9221     9844 
   10554    11076    11543    11969    12120    11869    11261    10473 
    9782     9339     9243     9801    11025    12224    12677    12218 
   11103     9918     9360     9603    10123    10505    11040    11894 
   12418    11981    10773     9497     8895     9346    10604    11944 
   12604    12382    11651    10701     9583     8603     8271     8850 
   10212    11965    13529    14224    13545    11641     9350     7595 
    6918     7565     9486    12021    13975    14454    13362    11261 
    9184     7996     7881     8641     9963    11452    12644    12911 
   11970    10386     8964     8279     8700     9942    11087    11508 
   11288    10903    10665    10505    10403    10555    10989    11454 
   11642    11271    10493    10062    10471    11215    11466    11024 
   10183     9275     8743     9027    10192    11781    12968    13119 
   12243    10779     9185     7963     7847     9282    11655    13636 
   14327    13679    12050     9860     7632     6222     6540     8668 
   11605    14042    15056    14420    12573    10241     8156     7092 
    7545     9319    11659    13567    14087    12997    11007     9001 
    7624     7356     8467    10731    13089    14234    13842    12559 
   11040     9741     9086     9332    10346    11448    11819    11300 
   10390     9613     9251     9393     9945    10651    11265    11682 
   11715    11047     9864     9057     9304    10249    11061    11443 
   11511    11234    10673    10218    10122    10241    10405    10609 
   10714    10450     9859     9396     9424     9855    10486    11342 
   12259    12754    12663    12225    11520    10605     9895     9802 
   10223    10677    10763    10455    10115    10219    10791    11350 
   11576    11634    11780    11880    11441    10373     9393     9246 
    9984    11106    11948    12074    11561    10762     9961     9466 
    9495     9953    10589    11205    11610    11481    10524     9112 
    8283     8634     9850    11443    12976    13697    13097    11599 
    9968     8660     8120     8779    10330    11651    11747    10675 
    9463     9063     9622    10746    11961    12826    12941    12085 
