Origin Time       2024/04/02 04:24:00
Lat.              40.133
Long.             141.712
Depth. (km)       71
Mag.              6.0
Station Code      KSRH09
Station Lat.      42.9856
Station Long.     143.9841
Station Height(m) 27
Record Time       2024/04/02 04:25:31
Sampling Freq(Hz) 100Hz
Duration Time(s)  174
Dir.              6
Scale Factor      3920(gal)/6170801
Max. Acc. (gal)   2.478
Last Correction   2024/04/02 04:25:16
Memo.             
[...]
   11692    11799    11992    12021    11787    11466    11273    11291 
   11494    11789    12045    12152    12103    12008    11949    11849 
   11615    11334    11185    11251    11493    11814    12052    12045 
   11794    11503    11402    11554    11810    11967    11993    12052 
   12266    12444    12236    11620    10988    10704    10810    11178 
   11692    12163    12323    12122    11846    11688    11557    11420 
   11400    11510    11643    11685    11537    11242    11042    11161 
   11576    12018    12230    12190    11961    11559    11164    11073 
   11312    11620    11807    11857    11783    11605    11430    11378 
   11453    11541    11574    11622    11719    11801    11880    12017 
   12146    12173    12078    11885    11701    11650    11726    11826 
   11868    11855    11836    11840    11848    11824    11702    11468 
   11253    11191    11234    11278    11359    11574    11826    11878 
   11715    11582    11613    11677    11631    11559    11644    11845 
   11950    11949    12006    12145    12244    12232    12131    11947 
   11662    11356    11228    11400    11741    11935    11837    11592 
   11352    11167    11101    11200    11440    11738    11924    11850 
   11626    11546    11704    11906    11980    12006    12105    12137 
   11871    11432    11196    11305    11577    11787    11861    11856 
   11778    11624    11547    11677    11853    11789    11485    11284 
   11423    11695    11723    11440    11111    11002    11204    11621 
   12013    12187    12094    11763    11360    11185    11399    11802 
   12023    11939    11806    11849    11945    11926    11822    11683 
   11526    11430    11435    11453    11454    11503    11605    11703 
   11723    11600    11366    11154    11072    11173    11472    11897 
   12300    12477    12229    11626    11060    10832    10943    11284 
   11757    12229    12494    12382    11960    11557    11408    11409 
   11392    11345    11276    11224    11316    11608    11989    12261 
   12260    11980    11573    11240    11144    11313    11551    11677 
   11759    11902    12024    12026    11919    11715    11445    11255 
   11312    11641    12014    12090    11821    11528    11476    11622 
   11766    11752    11566    11353    11279    11344    11445    11540 
   11624    11686    11784    11939    12007    11891    11685    11534 
   11496    11555    11692    11903    12123    12282    12377    12406 
   12304    12005    11564    11184    11068    11185    11305    11276 
   11214    11390    11832    12190    12176    11900    11644    11507 
   11414    11376    11524    11854    12131    12173    12026    11796 
   11559    11414    11428    11555    11727    11869    11885    11791 
   11752    11848    11983    12050    11998    11816    11583    11415 
   11324    11258    11204    11164    11167    11300    11585    11876 
   11986    11877    11697    11613    11657    11766    11851    11849 
   11763    11623    11473    11377    11343    11335    11387    11559 
   11820    12054    12165    12169    12189    12279    12308    12101 
   11657    11220    11069    11251    11597    11935    12171    12242 
   12146    11991    11917    11959    11986    11857    11687    11677 
   11706    11553    11330    11283    11442    11678    11843    11843 
   11732    11633    11585    11534    11421    11301    11317    11425 
   11396    11248    11284    11544    11708    11631    11507    11552 
   11764    11912    11854    11762    11829    11959    11906    11629 
   11342    11252    11353    11510    11636    11718    11745    11681 
   11567    11556    11757    12035    12092    11831    11491    11348 
   11443    11602    11645    11600    11634    11826    12076    12199 
   12104    11840    11508    11263    11246    11412    11605    11771 
   11927    12021    11958    11710    11396    11213    11185    11220 
   11395    11738    12020    12138    12224    12271    12089    11600 
   10989    10584    10570    10884    11352    11746    11888    11842 
   11792    11706    11453    11190    11279    11764    12238    12349 
   12150    11826    11441    11136    11194    11652    12132    12301 
   12228    12149    12145    12118    11975    11794    11731    11764 
   11712    11503    11293    11245    11292    11285    11283    11455 
   11775    11998    11983    11885    11858    11812    11634    11398 
   11245    11214    11244    11346    11580    11812    11833    11713 
   11705    11898    12145    12248    12145    11975    11863    11759 
   11601    11431    11371    11523    11766    11849    11777    11770 
   11897    11984    11849    11528    11236    11149    11288    11549 
   11766    11803    11718    11725    11835    11782    11504    11343 
   11540    11895    12061    11900    11556    11283    11222    11405 
   11801    12154    12142    11801    11453    11317    11435    11792 
   12238    12422    12125    11573    11202    11163    11285    11417 
   11509    11515    11493    11529    11551    11533    11604    11786 
   11933    11904    11682    11422    11316    11361    11460    11626 
   11859    12023    12017    11866    11625    11385    11304    11439 
   11632    11720    11736    11750    11729    11668    11662    11811 
   12116    12404    12426    12129    11710    11350    11134    11132 
   11331    11615    11841    11858    11644    11394    11201    10941 
   10707    10841    11426    12130    12527    12389    11870    11391 
   11212    11325    11652    12042    12263    12222    12059    11945 
   11951    12057    12129    12035    11817    11584    11412    11386 
   11445    11481    11621    11913    12107    12107    12033    11897 
   11683    11476    11384    11506    11831    12108    12044    11663 
   11302    11211    11290    11385    11578    11915    12216    12295 
   12138    11871    11631    11485    11488    11677    11909    11924 
   11643    11271    11101    11276    11687    12045    12107    11881 
   11623    11500    11418    11307    11355    11723    12211    12512 
   12555    12321    11767    11184    11062    11384    11628    11500 
   11208    11099    11283    11627    11977    12207    12167    11862 
   11583    11620    11822    11783    11446    11128    11080    11339 
   11736    11926    11778    11575    11546    11572    11521    11482 
   11624    11930    12120    11979    11680    11470    11307    11167 
   11245    11567    11878    12008    11935    11685    11429    11346 
   11393    11445    11452    11385    11283    11274    11393    11543 
   11690    11893    12105    12215    12219    12164    12057    11904 
   11759    11745    11875    11895    11642    11395    11498    11820 
   11942    11694    11352    11250    11320    11306    11223    11261 
   11471    11771    11989    11951    11742    11599    11530    11443 
   11427    11561    11740    11841    11796    11652    11607    11740 
   11913    12019    11992    11779    11511    11409    11474    11489 
   11356    11245    11351    11606    11782    11768    11616    11421 
   11218    10999    10926    11268    11908    12347    12297    11905 
   11445    11130    11109    11421    11911    12265    12259    11980 
   11705    11609    11636    11625    11534    11467    11509    11618 
   11687    11716    11829    12037    12149    11979    11549    11134 
   11033    11277    11707    12170    12411    12194    11709    11438 
   11617    11998    12141    11996    11943    12134    12226    11918 
   11361    10969    10982    11273    11686    12247    12762    12708 
   11869    10806    10398    10870    11618    12045    12125    12083 
   11930    11577    11241    11234    11418    11437    11360    11459 
   11690    11875    12028    12199    12287    12147    11810    11482 
   11329    11415    11671    11889    11924    11809    11628    11468 
   11419    11509    11722    12027    12308    12354    12025    11441 
   10952    10850    11142    11628    12104    12453    12566    12314 
   11770    11265    11060    11176    11494    11831    12111    12414 
   12625    12427    11878    11488    11521    11687    11714    11649 
   11485    11146    10829    10819    11091    11420    11631    11602 
   11345    11156    11361    11863    12272    12413    12390    12265 
   11982    11544    11147    11020    11129    11315    11615    12057 
   12328    12069    11391    10796    10660    10946    11353    11657 
   11867    12062    12178    12111    11906    11678    11459    11247 
   11217    11544    11927    11887    11612    11681    12043    12102 
   11690    11282    11279    11581    11905    12130    12209    12027 
   11510    10817    10407    10684    11482    12230    12540    12388 
   11982    11598    11412    11460    11650    11763    11618    11337 
   11240    11363    11462    11533    11849    12356    12549    12200 
   11730    11561    11601    11538    11303    11133    11263    11531 
   11544    11261    11021    11072    11422    11914    12233    12164 
   11902    11779    11824    11909    12067    12381    12732    12830 
   12508    11929    11414    11151    11123    11255    11526    11888 
   12141    11991    11427    10959    11046    11463    11755    11855 
   11878    11856    11757    11558    11469    11730    12075    12056 
   11799    11614    11457    11344    11417    11552    11615    11746 
   12053    12337    12268    11788    11189    10798    10726    10947 
   11433    12054    12460    12352    11860    11361    11098    11131 
   11382    11628    11680    11587    11498    11450    11479    11723 
   12095    12212    11928    11567    11450    11555    11713    11822 
   11844    11781    11701    11721    11768    11487    10948    10986 
   11955    12869    12825    12271    12009    12052    11976    11677 
   11478    11602    11816    11875    11870    11840    11607    11146 
   10694    10505    10715    11275    11883    12187    12081    11656 
   11099    10776    11059    11865    12580    12715    12402    11971 
   11574    11354    11290    11146    10994    11120    11481    11917 
   12342    12460    11994    11149    10507    10577    11310    12081 
   12432    12446    12227    11828    11588    11700    11840    11677 
   11331    11233    11581    11982    11992    11714    11474    11414 
   11608    12038    12369    12238    11730    11218    10947    10992 
   11285    11632    11906    12018    11882    11650    11537    11405 
   11097    10892    11104    11636    12173    12399    12159    11680 
   11406    11588    12108    12529    12471    12013    11500    11251 
   11518    12198    12740    12675    11994    11128    10650    10780 
   11249    11676    11844    11781    11785    12064    12315    12107 
   11545    11040    10762    10673    10742    11071    11764    12440 
   12463    11899    11449    11442    11510    11209    10745    10840 
   11639    12415    12626    12481    12266    11889    11285    10765 
   10808    11540    12454    12873    12614    12074    11721    11654 
   11791    11989    11931    11576    11359    11466    11578    11472 
   11338    11436    11739    11934    11799    11564    11588    11802 
   11918    11897    11851    11797    11648    11267    10786    10833 
   11716    12670    12791    12185    11537    11342    11673    12041 
   11838    11180    10775    11024    11671    12173    12179    11793 
   11427    11402    11734    12209    12452    12119    11301    10571 
   10398    10808    11603    12399    12696    12387    11799    11308 
   11269    11659    11902    11667    11260    11109    11419    11990 
   12233    11905    11464    11347    11448    11529    11560    11656 
   11927    12256    12372    12193    11829    11398    10981    10696 
   10787    11364    12064    12254    11736    11105    11057    11500 
   11871    12032    12073    11853    11455    11359    11688    11951 
   11786    11452    11405    11703    12058    12262    12246    11897 
   11280    10920    11252    11996    12510    12476    12025    11386 
   10691    10174    10186    10869    11879    12538    12556    12309 
   12069    11710    11313    11152    11219    11343    11489    11729 
   12116    12571    12798    12473    11702    11095    11154    11680 
   11979    11701    11285    11291    11625    11880    11938    11903 
   11894    11937    11947    11831    11522    11116    10865    10933 
   11364    11984    12404    12431    12139    11604    11022    10762 
   10964    11352    11633    11910    12421    12881    12708    11969 
   11319    11059    10909    10681    10746    11477    12391    12610 
   12098    11514    11223    11171    11256    11436    11699    11853 
   11631    11331    11599    12322    12641    12009    10830    10175 
   10649    11684    12433    12734    12657    12096    11335    10980 
   11137    11343    11307    11335    11780    12232    11901    10957 
   10530    11121    12155    13024    13419    13050    11997    11002 
   10780    11258    11735    11700    11337    11149    11455    12304 
   13259    13524    12699    11253    10237    10374    11316    12101 
   12259    12235    12679    13327    13083    11491     9611     8945 
    9796    11297    12649    13503    13586    12856    11776    10843 
   10100     9610     9815    10800    11926    12630    12994    13422 
   13907    13585    11791     9481     8276     8606     9855    11539 
   13495    15213    15574    13876    10981     8672     7968     8739 
   10480    12622    14228    14305    12913    11266    10368    10238 
   10557    11298    12529    13787    14100    13152    11700    10467 
    9698     9554    10084    11203    12635    13634    13559    12739 
   11993    11660    11552    11432    11391    11664    11984    11765 
   11056    10417    10034     9799     9848    10442    11547    12822 
   13960    14706    14638    13476    11552     9717     8756     8889 
    9907    11421    12798    13498    13486    12841    11589    10231 
    9630    10128    11246    12279    12907    13143    12985    12335 
   11303    10318     9700     9588    10121    11065    11939    12662 
   13201    13204    12659    12074    11809    11757    11469    10675 
   10011    10381    11515    12309    12298    11922    11744    11793 
   11649    11188    10943    11376    12148    12582    12553    12387 
   12189    11755    10971    10144     9953    10788    12067    12655 
   12175    11417    11301    11870    12380    12243    11758    11500 
   11415    11257    11117    11127    11378    11912    12548    13203 
   13825    13808    12639    10965     9982    10150    11069    12106 
   12798    12941    12527    11823    11236    10850    10542    10409 
   10548    10826    11157    11555    12118    12946    13694    13770 
   13069    12058    11250    10690    10237    10328    11524    13247 
   14232    14068    13299    12306    10905     9178     8122     8652 
   10204    11443    12054    12663    13443    13872    13706    13321 
   12795    11615     9913     8811     9050    10374    12200    14042 
   15341    15488    14279    12249    10479     9683     9696    10222 
   11112    12019    12499    12291    11639    11024    10590    10325 
   10290    10584    11084    11342    11257    11130    11218    11814 
   12774    13402    13196    12056    10591     9917    10432    11570 
   12500    12790    12469    11632    10680    10301    10738    11584 
   12233    12458    12373    12078    11620    11104    10824    11007 
   11388    11666    11858    11927    11835    11897    12372    12966 
   13204    12925    12198    11157     9880     8594     7991     8593 
   10039    11635    13089    14299    14948    14719    13666    12082 
   10278     8712     8149     9138    11220    13278    14563    14840 
   14127    12714    11095     9919     9757    10512    11438    12015 
   12471    13090    13387    12615    10885     9134     8159     8194 
    9140    10709    12363    13489    13837    13655    13284    12840 
   12316    11738    11182    10794    10764    11160    11816    12355 
   12592    12801    13180    13554    13750    13567    12678    11181 
    9855     9515    10200    11058    11266    10983    10952    11401 
   11994    12475    12665    12402    11885    11413    11235    11646 
   12401    12821    12589    11851    11127    10857    10848    10787 
   10810    11056    11350    11477    11421    11447    11652    11593 
   11079    10694    10896    11690    12895    13733    13413    12234 
   11045    10327    10134    10389    11110    12153    12867    12758 
   12190    11709    11257    10709    10357    10478    11060    11862 
   12591    13116    13390    13352    13025    12550    12064    11638 
   11320    11099    10995    11097    11313    11414    11243    10744 
   10204    10237    11162    12596    13650    13536    12418    11264 
   10539    10008     9828    10526    11962    13219    13568    13172 
   12651    12264    11895    11505    11100    10612    10152     9982 
   10390    11562    13036    13936    13956    13371    12452    11423 
   10728    10858    11809    12971    13413    12449    10428     8598 
    7882     8380     9737    11338    12713    13729    14094    13532 
   12534    11907    11822    12059    12240    12074    11996    12152 
   11825    10997    10495    10671    11155    11337    10950    10343 
    9893     9721    10068    11084    12349    13220    13427    13022 
   12165    11022     9954     9839    11124    12770    13531    13519 
   13434    13290    12681    11609    10532     9831     9571     9748 
   10479    11810    13405    14518    14522    13402    11733    10402 
   10037    10532    11352    12161    12853    13225    13072    12429 
   11450    10220     9086     8855     9888    11507    12809    13396 
   13417    13186    12595    11541    10575    10172    10225    10487 
   10948    11793    12771    13139    12633    11712    10943    10668 
   10821    11041    11272    11806    12565    13045    12945    12304 
   11523    11019    10646    10342    10516    11199    11938    12308 
   12135    11590    10928    10361    10208    10617    11411    12360 
   13389    14397    14953    14561    13302    11845    10727     9988 
    9630     9832    10490    11242    11973    12594    12833    12737 
   12595    12403    11986    11269    10443    10078    10521    11373 
   12079    12465    12547    12313    11818    11361    11354    11846 
   12363    12482    12336    12225    12092    11789    11388    10876 
   10248     9952    10442    11479    12385    12757    12687    12407 
   11982    11457    11105    11114    11217    11156    11015    11002 
   11297    11759    11903    11629    11371    11347    11385    11395 
   11498    11777    11973    11762    11386    11401    11951    12747 
   13318    13197    12439    11707    11476    11619    11761    11715 
   11651    11756    11788    11455    10966    10654    10584    10876 
   11578    12265    12524    12375    11851    10946    10074     9880 
   10660    12096    13359    13725    13127    11901    10477     9499 
    9628    10785    12124    12964    13172    13030    12855    12637 
   12432    12349    12075    11390    10639    10283    10552    11293 
