Origin Time       2024/04/02 04:24:00
Lat.              40.133
Long.             141.712
Depth. (km)       71
Mag.              6.0
Station Code      KSRH09
Station Lat.      42.9856
Station Long.     143.9841
Station Height(m) 27
Record Time       2024/04/02 04:25:31
Sampling Freq(Hz) 100Hz
Duration Time(s)  174
Dir.              5
Scale Factor      3920(gal)/6170801
Max. Acc. (gal)   3.159
Last Correction   2024/04/02 04:25:16
Memo.             
[...]
   13877    14138    14434    14715    14949    15135    15282    15372 
   15390    15359    15334    15361    15400    15342    15154    14915 
   14668    14398    14117    13884    13733    13656    13636    13683 
   13793    13926    14045    14130    14171    14192    14242    14356 
   14530    14743    14930    15023    15060    15098    15091    14975 
   14765    14517    14261    14004    13782    13664    13691    13849 
   14092    14359    14587    14719    14714    14601    14454    14326 
   14249    14227    14212    14187    14212    14306    14442    14584 
   14661    14669    14710    14788    14778    14639    14479    14392 
   14377    14416    14505    14598    14662    14752    14894    15000 
   15002    14933    14848    14759    14649    14482    14225    13914 
   13645    13508    13529    13678    13887    14068    14165    14175 
   14136    14120    14144    14154    14153    14192    14263    14296 
   14259    14205    14167    14118    14078    14079    14108    14161 
   14241    14319    14365    14371    14346    14311    14279    14285 
   14364    14486    14577    14605    14584    14522    14447    14386 
   14361    14415    14537    14669    14792    14876    14890    14878 
   14854    14755    14560    14316    14082    13902    13817    13860 
   14030    14292    14585    14841    15024    15083    14952    14638 
   14256    13940    13755    13673    13656    13740    13955    14228 
   14475    14667    14747    14695    14578    14434    14261    14092 
   13991    14018    14200    14490    14805    15081    15288    15380 
   15332    15156    14889    14628    14476    14455    14531    14605 
   14598    14558    14477    14270    14005    13801    13627    13460 
   13390    13447    13584    13801    14088    14371    14595    14731 
   14739    14614    14426    14264    14183    14218    14370    14579 
   14766    14878    14890    14856    14864    14858    14704    14440 
   14192    13985    13837    13822    13933    14084    14223    14307 
   14313    14305    14319    14318    14322    14356    14394    14476 
   14663    14892    15077    15192    15199    15103    14995    14906 
   14752    14519    14289    14089    13922    13828    13792    13739 
   13618    13427    13265    13281    13450    13670    13952    14253 
   14481    14679    14888    15027    15035    14951    14843    14754 
   14746    14842    14958    14994    14938    14831    14704    14586 
   14470    14330    14208    14137    14054    13929    13831    13810 
   13882    14058    14299    14527    14707    14826    14858    14807 
   14715    14622    14501    14315    14154    14119    14139    14102 
   14038    14008    13972    13918    13913    13958    13999    14053 
   14167    14331    14540    14788    14980    15046    15047    15037 
   14983    14862    14699    14468    14201    14060    14088    14145 
   14139    14098    14069    14076    14110    14158    14212    14239 
   14219    14217    14287    14357    14366    14381    14437    14511 
   14628    14758    14764    14619    14482    14439    14414    14390 
   14407    14454    14513    14559    14554    14554    14599    14625 
   14626    14682    14775    14791    14712    14597    14452    14287 
   14152    14032    13866    13682    13596    13676    13880    14114 
   14339    14534    14648    14704    14763    14767    14658    14520 
   14425    14373    14387    14471    14537    14548    14549    14547 
   14516    14449    14367    14347    14438    14588    14763    14965 
   15093    15071    15007    14973    14916    14817    14691    14500 
   14236    14011    13928    13929    13928    13952    14006    14041 
   14058    14049    13961    13864    13844    13823    13776    13823 
   13997    14229    14511    14807    14984    14976    14852    14690 
   14523    14369    14215    14032    13878    13870    14007    14201 
   14427    14656    14794    14820    14803    14755    14607    14351 
   14110    14008    14046    14151    14297    14464    14607    14700 
   14722    14642    14444    14143    13824    13629    13629    13789 
   14007    14155    14192    14214    14278    14331    14356    14393 
   14456    14549    14667    14750    14684    14463    14255    14214 
   14323    14488    14665    14851    15006    15079    15058    14953 
   14763    14536    14355    14223    14122    14089    14101    14122 
   14181    14231    14138    13893    13632    13447    13327    13336 
   13594    14015    14379    14648    14907    15115    15162    15065 
   14918    14807    14791    14851    14897    14882    14875    14971 
   15155    15313    15325    15135    14796    14414    14064    13814 
   13722    13754    13835    13924    13947    13833    13655    13541 
   13466    13398    13475    13723    13966    14155    14388    14639 
   14822    14943    15006    14984    14898    14794    14661    14502 
   14428    14497    14585    14586    14542    14458    14306    14193 
   14233    14368    14473    14504    14487    14455    14383    14260 
   14170    14195    14297    14408    14533    14676    14784    14819 
   14783    14666    14471    14243    14069    14017    14064    14172 
   14355    14575    14738    14777    14685    14499    14289    14112 
   14004    14053    14285    14528    14587    14527    14573    14745 
   14872    14928    14970    14938    14822    14736    14710    14667 
   14608    14606    14616    14498    14221    13899    13652    13503 
   13450    13476    13525    13596    13758    13985    14154    14208 
   14192    14216    14361    14538    14625    14721    14898    15009 
   15055    15232    15486    15579    15496    15326    15044    14637 
   14177    13729    13324    12975    12713    12605    12698    12964 
   13317    13674    13995    14260    14460    14597    14674    14744 
   14850    14955    15068    15209    15287    15260    15173    15019 
   14851    14802    14833    14790    14681    14576    14444    14257 
   14043    13869    13791    13786    13828    13902    13950    13926 
   13883    13916    14016    14089    14171    14410    14781    15077 
   15201    15210    15126    14946    14746    14572    14390    14213 
   14108    14081    14109    14192    14300    14362    14333    14204 
   14015    13859    13747    13634    13612    13797    14068    14276 
   14496    14760    14929    15004    15093    15139    15077    14960 
   14816    14684    14614    14580    14592    14647    14586    14348 
   14124    14042    14031    14064    14243    14533    14731    14768 
   14779    14832    14844    14804    14786    14750    14575    14275 
   13980    13826    13853    13936    13989    14067    14148    14189 
   14258    14313    14268    14266    14406    14529    14536    14494 
   14401    14232    14076    14035    14141    14372    14619    14798 
   14892    14888    14863    14874    14813    14650    14547    14561 
   14554    14466    14437    14547    14660    14656    14616    14606 
   14541    14396    14262    14182    14092    13992    13999    14095 
   14093    13955    13792    13606    13421    13388    13529    13726 
   13989    14352    14705    14933    14984    14875    14712    14601 
   14599    14688    14766    14830    14981    15127    15112    14986 
   14806    14531    14202    13876    13579    13420    13489    13668 
   13764    13717    13612    13585    13664    13755    13873    14084 
   14308    14472    14627    14762    14843    14909    14935    14855 
   14747    14693    14658    14613    14560    14481    14388    14322 
   14274    14237    14203    14131    14081    14195    14480    14779 
   14923    14908    14792    14598    14466    14507    14592    14593 
   14521    14397    14255    14158    14102    14071    14124    14250 
   14322    14314    14294    14242    14122    13989    13927    14011 
   14253    14546    14791    15024    15253    15347    15292    15167 
   14914    14573    14334    14182    14021    13997    14193    14360 
   14359    14368    14454    14479    14399    14279    14177    14130 
   14155    14197    14218    14299    14490    14743    14996    15147 
   15141    15044    14891    14695    14529    14407    14240    14027 
   13886    13839    13848    13933    14067    14154    14121    14006 
   13946    14024    14208    14418    14590    14691    14740    14782 
   14815    14816    14752    14604    14452    14359    14322    14347 
   14393    14397    14325    14128    13849    13680    13681    13763 
   13907    14063    14112    14109    14229    14439    14593    14706 
   14849    14972    15022    15022    14992    14942    14864    14721 
   14467    14143    13924    13906    13945    13859    13667    13566 
   13678    13893    14119    14361    14482    14366    14168    14057 
   14022    14028    14134    14410    14812    15207    15448    15458 
   15280    15010    14743    14582    14531    14506    14494    14515 
   14521    14503    14505    14535    14535    14418    14209    14037 
   13953    13911    13867    13901    14113    14366    14526    14700 
   14884    14839    14519    14232    14219    14350    14418    14461 
   14566    14630    14530    14277    13897    13492    13266    13244 
   13334    13608    14088    14576    14941    15212    15396    15477 
   15449    15349    15303    15330    15284    15163    15085    15022 
   14885    14646    14292    13895    13604    13510    13646    13960 
   14234    14265    14044    13699    13410    13280    13228    13204 
   13443    14116    14946    15569    15906    15991    15855    15587 
   15216    14702    14146    13671    13282    13120    13288    13533 
   13639    13693    13767    13726    13453    13104    12939    13068 
   13530    14267    15060    15725    16189    16422    16378    16015 
   15459    14904    14399    13952    13665    13622    13783    14019 
   14227    14330    14273    14118    14056    14167    14231    14013 
   13669    13476    13357    13218    13280    13637    14135    14767 
   15499    16068    16341    16362    16106    15573    14897    14278 
   13891    13710    13551    13399    13398    13638    14158    14931 
   15768    16361    16514    16317    16003    15686    15341    14901 
   14376    13900    13591    13397    13216    13123    13303    13748 
   14138    14121    13757    13433    13344    13407    13566    13802 
   13980    13953    13741    13517    13475    13763    14400    15213 
   15942    16483    16898    17131    16946    16194    15026    13737 
   12550    11711    11440    11675    12191    12799    13286    13505 
   13548    13658    14076    14828    15615    16208    16717    17129 
   17113    16544    15717    14938    14304    13906    13890    14261 
   14716    14873    14705    14431    14074    13587    13130    12802 
   12613    12802    13455    14069    14150    13854    13657    13687 
   13773    13905    14233    14774    15345    15754    16015    16201 
   16223    16014    15654    15154    14469    13796    13416    13352 
   13534    13979    14618    15210    15522    15440    15007    14487 
   14061    13590    12938    12272    11866    11856    12258    12983 
   13818    14540    15033    15314    15449    15433    15231    14841 
   14331    13931    13989    14631    15536    16214    16394    16119 
   15667    15260    14924    14670    14508    14401    14369    14347 
   14158    13822    13474    13114    12741    12440    12223    12221 
   12752    13816    14976    15769    15916    15496    14950    14577 
   14398    14489    14902    15536    16229    16700    16727    16420 
   15895    15143    14349    13710    13161    12553    11765    10958 
   10759    11514    12717    13760    14551    15025    15132    15166 
   15226    15152    14967    14739    14578    14584    14620    14618 
   14802    15335    16067    16806    17390    17558    17139    16099 
   14657    13299    12246    11534    11374    11822    12638    13470 
   14022    14253    14293    14326    14440    14552    14581    14521 
   14473    14547    14778    15306    16107    16841    17342    17559 
   17294    16386    14894    13072    11296    10075     9849    10693 
   12404    14484    16141    16794    16396    15192    13483    11680 
   10361    10013    10696    12040    13538    14832    15818    16518 
   16896    16921    16655    16211    15681    15059    14417    14007 
   13878    13826    13813    13925    14094    14187    14176    14143 
   14311    14881    15757    16653    17217    16987    15803    14178 
   12831    12102    11989    12424    13312    14457    15529    16095 
   15862    14955    13784    12747    12165    12202    12754    13611 
   14704    16045    17390    18179    18031    17076    15709    14332 
   13281    12746    12736    13098    13618    14141    14610    14922 
   14819    14231    13423    12592    11849    11421    11416    11716 
   12288    13134    14032    14924    15939    16814    17270    17491 
   17548    17196    16381    15364    14506    14068    13947    13852 
   13788    13804    13773    13822    14075    14189    13823    13088 
   12438    12226    12352    12554    12847    13355    14045    14814 
   15526    16060    16465    16718    16660    16333    15822    15184 
   14712    14565    14546    14556    14708    14997    15207    15013 
   14262    13183    12074    11004    10117     9729    10109    11432 
   13581    16026    18081    19229    19361    18651    17258    15517 
   13993    13024    12650    12897    13686    14831    16081    16965 
   17167    16839    16042    14698    13137    11834    11009    10779 
   11070    11546    12038    12637    13307    13893    14303    14476 
   14487    14443    14187    13604    12939    12530    12526    12796 
   13182    13825    14761    15633    16185    16495    16719    17043 
   17578    18080    18205    17948    17485    16985    16565    16157 
   15712    15212    14496    13592    12772    12223    12041    12199 
   12523    12972    13572    14062    14190    14064    13846    13638 
   13460    13156    12777    12604    12777    13428    14540    15781 
   16873    17531    17367    16446    15244    13999    12812    11932 
   11520    11666    12446    13614    14755    15689    16267    16227 
   15562    14598    13639    12852    12370    12312    12607    12973 
   13247    13529    13848    14109    14346    14688    15172    15793 
   16554    17443    18357    18937    18678    17480    15759    14089 
   13048    12880    13199    13558    13999    14604    15092    15130 
   14620    13696    12680    11861    11337    11198    11430    11778 
   12131    12622    13227    13717    14004    14215    14452    14688 
   14880    15047    15214    15368    15475    15473    15364    15279 
   15256    15203    15110    15006    14903    14848    14778    14570 
   14263    14000    13866    13885    14082    14514    15164    15876 
   16391    16446    16087    15674    15276    14640    13851    13238 
   12925    12936    13295    13861    14345    14617    14836    15064 
   15090    14732    14088    13452    13003    12796    13012    13713 
   14548    15163    15550    15781    15822    15583    14957    14066 
   13301    12919    12962    13463    14221    14806    15048    15088 
   15069    15031    14975    14948    14960    14872    14587    14148 
   13572    12832    12070    11566    11462    11669    12031    12495 
   13086    13719    14242    14637    14997    15412    15886    16265 
   16369    16196    15923    15778    15906    16284    16729    17010 
   16968    16447    15325    13801    12364    11411    11099    11451 
   12382    13675    15061    16274    17011    17057    16408    15190 
   13739    12579    12016    12014    12535    13546    14731    15677 
   16163    16005    15196    14137    13291    12855    12858    13242 
   13828    14389    14787    15048    15320    15636    15851    15922 
   15958    16024    16095    16064    15827    15380    14680    13678 
   12541    11475    10579    10047    10153    10986    12354    13857 
   15060    15737    15920    15752    15398    15084    15061    15369 
   15783    16202    16699    17117    17172    16849    16255    15436 
   14563    13919    13619    13544    13535    13545    13499    13256 
   12868    12555    12397    12386    12628    13217    14053    14957 
   15717    16059    15886    15412    14891    14477    14156    13849 
   13689    13870    14289    14738    15126    15245    14890    14304 
   13915    13880    14112    14414    14661    14850    14961    15022 
   15089    15028    14625    13862    12888    11887    11081    10685 
   10852    11611    12737    13899    14892    15552    15723    15485 
   15070    14615    14225    14023    14006    14140    14490    15086 
   15802    16341    16492    16394    16171    15693    14986    14321 
   13916    13816    13889    13966    14013    14052    14107    14246 
   14487    14739    14967    15217    15447    15615    15798    16005 
   16139    16158    16001    15542    14867    14394    14367    14495 
   14383    13990    13482    12936    12298    11559    10926    10712 
   11040    11697    12380    12994    13628    14394    15244    15924 
   16220    16136    15831    15498    15228    15051    15091    15439 
   15985    16528    16932    17132    17049    16626    15927    15118 
   14404    13921    13672    13560    13451    13258    12929    12475 
   12063    11866    11882    11981    12033    12005    11991    12067 
   12182    12342    12731    13490    14539    15690    16786    17727 
   18446    18839    18827    18525    18100    17519    16717    15797 
   14878    13971    13062    12223    11552    11050    10700    10563 
   10687    11047    11635    12513    13589    14575    15294    15726 
   15936    16029    16010    15862    15689    15585    15513    15313 
   14917    14475    14145    13925    13768    13686    13689    13714 
   13725    13710    13628    13520    13524    13664    13870    14173 
   14648    15217    15695    15997    16204    16373    16416    16264 
   15945    15545    15166    14827    14457    14008    13542    13114 
   12627    12028    11511    11260    11256    11527    12156    13012 
   13902    14754    15441    15820    15935    15933    15950    16043 
   16155    16217    16191    16001    15668    15386    15249    15137 
   14893    14420    13740    13001    12350    11905    11807    12096 
   12686    13456    14246    14873    15283    15515    15611    15672 
   15792    15851    15640    15138    14465    13814    13492    13669 
   14109    14516    14910    15300    15447    15195    14623    13871 
   13052    12291    11808    11791    12149    12645    13283    14138 
   14960    15478    15707    15700    15489    15197    14903    14648 
   14527    14602    14803    14961    14946    14787    14604    14479 
   14408    14269    14003    13872    14150    14751    15458    16158 
   16767    17214    17399    17140    16438    15578    14810    14168 
   13555    12877    12230    11807    11592    11574    11965    12735 
   13538    14147    14457    14395    14047    13639    13409    13495 
   13870    14396    14944    15424    15738    15856    15865    15808 
