Origin Time       2024/04/02 04:24:00
Lat.              40.133
Long.             141.712
Depth. (km)       71
Mag.              6.0
Station Code      KSRH04
Station Lat.      43.2139
Station Long.     144.6804
Station Height(m) 30
Record Time       2024/04/02 04:25:36
Sampling Freq(Hz) 100Hz
Duration Time(s)  153
Dir.              6
Scale Factor      7845(gal)/8223790
Max. Acc. (gal)   3.083
Last Correction   2024/04/02 04:25:36
Memo.             
[...]
   -5370    -5329    -5344    -5603    -5906    -6073    -6060    -5856 
   -5617    -5475    -5451    -5632    -5995    -6305    -6246    -5644 
   -4989    -4893    -5202    -5678    -6166    -6230    -5833    -5293 
   -4882    -4984    -5508    -5871    -5962    -5929    -5709    -5567 
   -5643    -5537    -5466    -5795    -6041    -5884    -5532    -5194 
   -5173    -5521    -5771    -5599    -5298    -5232    -5386    -5587 
   -5787    -5991    -5946    -5579    -5389    -5544    -5622    -5497 
   -5397    -5452    -5591    -5680    -5729    -5776    -5734    -5589 
   -5479    -5502    -5684    -5934    -5879    -5476    -5256    -5356 
   -5533    -5780    -5961    -5825    -5540    -5495    -5678    -5830 
   -5872    -5656    -5229    -5067    -5312    -5583    -5628    -5613 
   -5746    -5948    -5944    -5613    -5340    -5394    -5466    -5505 
   -5765    -6075    -6080    -5760    -5395    -5313    -5486    -5584 
   -5570    -5590    -5548    -5447    -5449    -5536    -5678    -5880 
   -5802    -5313    -5076    -5391    -5680    -5613    -5462    -5556 
   -5848    -5967    -5783    -5559    -5440    -5386    -5508    -5814 
   -5992    -5887    -5625    -5375    -5278    -5273    -5225    -5238 
   -5494    -5726    -5624    -5659    -6002    -5898    -5300    -5024 
   -5359    -5903    -6165    -5980    -5625    -5510    -5690    -5869 
   -5821    -5597    -5498    -5482    -5321    -5387    -5763    -5892 
   -5764    -5648    -5512    -5381    -5360    -5501    -5745    -5827 
   -5699    -5553    -5412    -5449    -5744    -5702    -5286    -5343 
   -5845    -6021    -5949    -6007    -5895    -5555    -5459    -5587 
   -5529    -5281    -5200    -5583    -6091    -6006    -5476    -5196 
   -5188    -5270    -5595    -5980    -5890    -5494    -5405    -5537 
   -5736    -6058    -6052    -5587    -5273    -5269    -5425    -5701 
   -5649    -5316    -5439    -5815    -5927    -5950    -5757    -5383 
   -5441    -5826    -6049    -6160    -6106    -5711    -5325    -5242 
   -5331    -5560    -5757    -5719    -5690    -5656    -5567    -5726 
   -5917    -5813    -5644    -5543    -5487    -5409    -5205    -5220 
   -5598    -5725    -5522    -5549    -5695    -5575    -5223    -4926 
   -5193    -5992    -6500    -6289    -5634    -5116    -5084    -5182 
   -5275    -5575    -5780    -5764    -5749    -5709    -5738    -5853 
   -5759    -5535    -5454    -5503    -5702    -5926    -5879    -5719 
   -5660    -5560    -5452    -5409    -5393    -5425    -5439    -5414 
   -5455    -5626    -5784    -5724    -5695    -5873    -5867    -5628 
   -5583    -5638    -5401    -5146    -5259    -5459    -5540    -5637 
   -5656    -5640    -5821    -5823    -5416    -5320    -5665    -5764 
   -5675    -5644    -5536    -5586    -5830    -5902    -5875    -5911 
   -5740    -5302    -4990    -5085    -5636    -6222    -6181    -5786 
   -5640    -5518    -5487    -5946    -6193    -5563    -4885    -4818 
   -4938    -5254    -5825    -5832    -5406    -5562    -5911    -5887 
   -6019    -6084    -5501    -5090    -5440    -5748    -5559    -5260 
   -5224    -5529    -5810    -5877    -6000    -5968    -5501    -5015 
   -4942    -5354    -5964    -6183    -5913    -5707    -5724    -5594 
   -5439    -5653    -5929    -5780    -5501    -5414    -5256    -5147 
   -5458    -5792    -5868    -6025    -6184    -6061    -5792    -5547 
   -5320    -5189    -5448    -5960    -5911    -5327    -5258    -5749 
   -5844    -5634    -5721    -5752    -5512    -5409    -5548    -5691 
   -5590    -5383    -5464    -5738    -5850    -5697    -5447    -5401 
   -5567    -5589    -5491    -5553    -5691    -5956    -6200    -5829 
   -5232    -5130    -5201    -5308    -5620    -5787    -5850    -5933 
   -5566    -5143    -5398    -5736    -5690    -5644    -5517    -5259 
   -5313    -5605    -5746    -5787    -5840    -5868    -5904    -5817 
   -5472    -5305    -5628    -5724    -5325    -5359    -5714    -5564 
   -5401    -5575    -5728    -6016    -6211    -5800    -5271    -5161 
   -5250    -5339    -5482    -5624    -5705    -5663    -5557    -5776 
   -6237    -6270    -5786    -5286    -5113    -5254    -5485    -5545 
   -5414    -5448    -5833    -6133    -5981    -5695    -5582    -5429 
   -5219    -5277    -5602    -5926    -5903    -5428    -5125    -5444 
   -5864    -5985    -5954    -5796    -5463    -5189    -5229    -5489 
   -5751    -5884    -5809    -5818    -5999    -5776    -5213    -5139 
   -5557    -5821    -5867    -5864    -5713    -5431    -5170    -5175 
   -5584    -5917    -5799    -5614    -5537    -5348    -5285    -5625 
   -5940    -5724    -5260    -5192    -5556    -5992    -6189    -5826 
   -5077    -4689    -4936    -5402    -5738    -5850    -5634    -5236 
   -5216    -5733    -6234    -6420    -6420    -6124    -5575    -5143 
   -5016    -5310    -5815    -6022    -5944    -5806    -5614    -5467 
   -5418    -5412    -5489    -5664    -5679    -5335    -5013    -5121 
   -5506    -5962    -6357    -6431    -6111    -5518    -4830    -4602 
   -5236    -5926    -5842    -5431    -5278    -5472    -5821    -5946 
   -5899    -5884    -5759    -5533    -5576    -6058    -6246    -5530 
   -4916    -5302    -5890    -5977    -5919    -5813    -5422    -5054 
   -5012    -5142    -5408    -5799    -5988    -5838    -5610    -5410 
   -5193    -5244    -5622    -5825    -5826    -5846    -5620    -5287 
   -5247    -5393    -5633    -5837    -5776    -5667    -5618    -5545 
   -5775    -6080    -5765    -5401    -5651    -5818    -5725    -5871 
   -5880    -5490    -5174    -5269    -5769    -6133    -5940    -5576 
   -5270    -5119    -5386    -5796    -5977    -5902    -5530    -5051 
   -4965    -5283    -5597    -5948    -6322    -6331    -5942    -5468 
   -5317    -5529    -5571    -5335    -5282    -5495    -5653    -5769 
   -5925    -5854    -5703    -5756    -5652    -5254    -5028    -5202 
   -5638    -6088    -6185    -5872    -5597    -5579    -5660    -5823 
   -6039    -5964    -5332    -4716    -4860    -5385    -5688    -5863 
   -5833    -5537    -5513    -5807    -5863    -5703    -5833    -6305 
   -6338    -5497    -4719    -4764    -5215    -5601    -5833    -5814 
   -5533    -5254    -5287    -5607    -5769    -5695    -5825    -5876 
   -5553    -5445    -5481    -5290    -5254    -5421    -5601    -5890 
   -6003    -5643    -5285    -5373    -5525    -5348    -5162    -5404 
   -5952    -6219    -5898    -5456    -5341    -5408    -5529    -5837 
   -6249    -6286    -5813    -5498    -5576    -5468    -5194    -5188 
   -5277    -5367    -5713    -5919    -5684    -5537    -5603    -5616 
   -5466    -5198    -5389    -6016    -6103    -5827    -6120    -6396 
   -5860    -5298    -5185    -5107    -5260    -5687    -5906    -5979 
   -6004    -5709    -5306    -5302    -5520    -5452    -4953    -4477 
   -4833    -5682    -6085    -6185    -6156    -5722    -5206    -5165 
   -5603    -6093    -6280    -6054    -5695    -5595    -5649    -5607 
   -5390    -5188    -5405    -5861    -6064    -6037    -5994    -5667 
   -4823    -4428    -5260    -6185    -6156    -5601    -5170    -5181 
   -5545    -5991    -6573    -6970    -6559    -5676    -4915    -4333 
   -4314    -5101    -5938    -6195    -5898    -5271    -5028    -5541 
   -6018    -5937    -5589    -5344    -5551    -6088    -6326    -6107 
   -5734    -5213    -4804    -5085    -5618    -5741    -5813    -6010 
   -5979    -5621    -5078    -4808    -5221    -5968    -6327    -5981 
   -5397    -5377    -5813    -5975    -5834    -5583    -5260    -5310 
   -5616    -5509    -5340    -5455    -5475    -5745    -6328    -6288 
   -5702    -5383    -5427    -5680    -6018    -6069    -5695    -5389 
   -5533    -5641    -5341    -4986    -4745    -4897    -5805    -6628 
   -6535    -5935    -5275    -4953    -5202    -5412    -5513    -5954 
   -6131    -5707    -5385    -5314    -5375    -5842    -6296    -6031 
   -5285    -4742    -4872    -5541    -5971    -5884    -5779    -5738 
   -5463    -5146    -5123    -5459    -6038    -6262    -5922    -5742 
   -5752    -5472    -5221    -5325    -5578    -5637    -5320    -4995 
   -5173    -5606    -5800    -5857    -6029    -6230    -6006    -5360 
   -5181    -5346    -5115    -5223    -6058    -6601    -6511    -6288 
   -6033    -5556    -5046    -5147    -5861    -6052    -5368    -4714 
   -4549    -4860    -5533    -6196    -6515    -6156    -5260    -4716 
   -4822    -5231    -6130    -7168    -7176    -6230    -5111    -4298 
   -4634    -5814    -6343    -6042    -5572    -5151    -5043    -5324 
   -5580    -5802    -6230    -6264    -5433    -4671    -4801    -5333 
   -5799    -6231    -6490    -6474    -6116    -5354    -4595    -4565 
   -5418    -6215    -6191    -5802    -5448    -5007    -4847    -5177 
   -5495    -5721    -5952    -5984    -6010    -5964    -5574    -5370 
   -5474    -5366    -5282    -5580    -5899    -5896    -5714    -5449 
   -5184    -5386    -5887    -5845    -5368    -5136    -5296    -5711 
   -6149    -6319    -6042    -5483    -5151    -5235    -5490    -5875 
   -6110    -5590    -4985    -5439    -6372    -6677    -6106    -5017 
   -4484    -5023    -5719    -5853    -5626    -5475    -5475    -5312 
   -5162    -5367    -5584    -5444    -5144    -5296    -6099    -6801 
   -6775    -6089    -5302    -5246    -5819    -6126    -6022    -5697 
   -5057    -4530    -4750    -5478    -5969    -5899    -5400    -4957 
   -5135    -5734    -6008    -5734    -5397    -5502    -5857    -5964 
   -5852    -5803    -5980    -6241    -6099    -5556    -5144    -5078 
   -5286    -5665    -5779    -5439    -5200    -5109    -4955    -5464 
   -6301    -5945    -5023    -5198    -6021    -6296    -5944    -5269 
   -4685    -4730    -5327    -6119    -6868    -6853    -5965    -5306 
   -5196    -5236    -5661    -6145    -5795    -5265    -5447    -5489 
   -5221    -5617    -6123    -6091    -6116    -5979    -5228    -4611 
   -4704    -5485    -6521    -6789    -6266    -5891    -5472    -4777 
   -4631    -5377    -6439    -6916    -6369    -5331    -4425    -4182 
   -4932    -6058    -6767    -6597    -5563    -4891    -5278    -5630 
   -5375    -5198    -5552    -6292    -6667    -5937    -4692    -4251 
   -4896    -5830    -6262    -6210    -6172    -5908    -5142    -4827 
   -5325    -5556    -5213    -5108    -5526    -5967    -6083    -6062 
   -6061    -5961    -5892    -6079    -6265    -6149    -5607    -4649 
   -4162    -4891    -5992    -6592    -6617    -6227    -5846    -5297 
   -4471    -4276    -4587    -4824    -5645    -6839    -7198    -6547 
   -5402    -4459    -4399    -5047    -5724    -6050    -5957    -5760 
   -5687    -5629    -5940    -6552    -6226    -4741    -3646    -4212 
   -5945    -6957    -6349    -5529    -5498    -5467    -5439    -6050 
   -6489    -5813    -4457    -3851    -5038    -6783    -7087    -6166 
   -5193    -4615    -4861    -5697    -6124    -6084    -5914    -5437 
   -4838    -4644    -5166    -6160    -6639    -6120    -5657    -6361 
   -7358    -7047    -5514    -3971    -3442    -4212    -5368    -5755 
   -5551    -5667    -5967    -5911    -5678    -5489    -5366    -5331 
   -5231    -4989    -4959    -5498    -6184    -6211    -5686    -5563 
   -5741    -5343    -5158    -6054    -6893    -6673    -5490    -4361 
   -4785    -6162    -6643    -6280    -5971    -5911    -5863    -5476 
   -5282    -5891    -6205    -5468    -4739    -4831    -5873    -7248 
   -7148    -5242    -3716    -4035    -5200    -5795    -5887    -5888 
   -5545    -5088    -5136    -5933    -6995    -6936    -5728    -5044 
   -4938    -4680    -4715    -4872    -5049    -6160    -7572    -7734 
   -6702    -5271    -4145    -3921    -4546    -5803    -7069    -6979 
   -5547    -4433    -4509    -5437    -6471    -6633    -5671    -4687 
   -4577    -4769    -4811    -5413    -6481    -6895    -6566    -5973 
   -5302    -5235    -5861    -5763    -4864    -5054    -6297    -6650 
   -5705    -4685    -4560    -5297    -6185    -6612    -6736    -6744 
   -5869    -4239    -3572    -4372    -5377    -5606    -5305    -5503 
   -6615    -7288    -6386    -5198    -4899    -4988    -5412    -5899 
   -5572    -4990    -5069    -5467    -5764    -6095    -6342    -6177 
   -5837    -5630    -5440    -5277    -5221    -5225    -5567    -6367 
   -6586    -5587    -4725    -5017    -5977    -6940    -6764    -5336 
   -4657    -5200    -5424    -5085    -4885    -5065    -5968    -7126 
   -6971    -5976    -5895    -6127    -5733    -5189    -4563    -4160 
   -4864    -6195    -7006    -6793    -5066    -3103    -3655    -5786 
   -6655    -6562    -6474    -6230    -6091    -6045    -5470    -4676 
   -4530    -5069    -6197    -7115    -6322    -4769    -4344    -4878 
   -5786    -6340    -5702    -4544    -4176    -4899    -6108    -7098 
   -7327    -6852    -6237    -5400    -4558    -4884    -6143    -6660 
   -5775    -4380    -3790    -4460    -5516    -5823    -5497    -5285 
   -5206    -5239    -5749    -6577    -6988    -6492    -5512    -4851 
   -4889    -5571    -5981    -5613    -5837    -6632    -5719    -3487 
   -2812    -4442    -6813    -8071    -7287    -5576    -4996    -5880 
   -6913    -6975    -6170    -5520    -5382    -5197    -4742    -4274 
   -4299    -5061    -5807    -5570    -4344    -3420    -4263    -5971 
   -6293    -5846    -6488    -7171    -6872    -6860    -7211    -6696 
   -5539    -5104    -5935    -6752    -5661    -3206    -2376    -4203 
   -6563    -7554    -6889    -5535    -4978    -5551    -6241    -6185 
   -5768    -5593    -5386    -5216    -5421    -5421    -5005    -5212 
   -6092    -6162    -5066    -3763    -3133    -3858    -5539    -6944 
   -7676    -7798    -7134    -6228    -5991    -5879    -5208    -4769 
   -4765    -4681    -4976    -5691    -6038    -6231    -6735    -6758 
   -5967    -5196    -4703    -4602    -5117    -5520    -5474    -5499 
   -5406    -4986    -5027    -6114    -7616    -8136    -6955    -5398 
   -5219    -5583    -4877    -3910    -3929    -4428    -4776    -5302 
   -6172    -6824    -6702    -6070    -6021    -6853    -7115    -6218 
   -5541    -5529    -5217    -4392    -3969    -4681    -5760    -5725 
   -4664    -4324    -5549    -6679    -6077    -4853    -4527    -4718 
   -5265    -6617    -7782    -7657    -6739    -5967    -5871    -6204 
   -5837    -4380    -3208    -3665    -5228    -6489    -6725    -6281 
   -6014    -6031    -5911    -5879    -6116    -6006    -5270    -4429 
   -3696    -3631    -5229    -7254    -7433    -6034    -4604    -4113 
   -5009    -6116    -5803    -4639    -4039    -4580    -6334    -8077 
   -8051    -6401    -4745    -4399    -5308    -6103    -6158    -6131 
   -6255    -6157    -5509    -4523    -4070    -4401    -5026    -5890 
   -6701    -6754    -6378    -6010    -5240    -4714    -5281    -5883 
   -6021    -6723    -7395    -6332    -4193    -3252    -4217    -6081 
   -7169    -6432    -5325    -5405    -5510    -4666    -4027    -4699 
   -6299    -7533    -7398    -6052    -4525    -3592    -3670    -5067 
   -6789    -7157    -6350    -5549    -4969    -4666    -4652    -4557 
   -4939    -6057    -6477    -6141    -6416    -6558    -5798    -5385 
   -5690    -6153    -6359    -5701    -4768    -4808    -5460    -5679 
   -5441    -5269    -5543    -6142    -6381    -6115    -5705    -5289 
   -5162    -5093    -4637    -4650    -5728    -6744    -6814    -6235 
   -5117    -4002    -4413    -5933    -6551    -6227    -5729    -4866 
   -3944    -4206    -6064    -7662    -7261    -6114    -5879    -6177 
   -6328    -5906    -4638    -3739    -4503    -6203    -7485    -7736 
   -6835    -5225    -3971    -3955    -4510    -4468    -4509    -5494 
   -6600    -6940    -6616    -6426    -6858    -7056    -6388    -5489 
   -4669    -4266    -5049    -6396    -7040    -6427    -4521    -2820 
   -2911    -4132    -5610    -7155    -7839    -7014    -5162    -3260 
   -2897    -4708    -6724    -7445    -7358    -6467    -5015    -4382 
   -4877    -5865    -6779    -6606    -5567    -5370    -5764    -5324 
   -4496    -4179    -4047    -3704    -3909    -5625    -7908    -8622 
   -7365    -5753    -5314    -6458    -7986    -7948    -6342    -4658 
   -3603    -3369    -3896    -4758    -5605    -5935    -5629    -5555 
   -6146    -6478    -5989    -5375    -5200    -5389    -5678    -5819 
   -6021    -6254    -5805    -4808    -4483    -5391    -6667    -6737 
   -5346    -4167    -4167    -4766    -5622    -6498    -6983    -7157 
   -6885    -6084    -5402    -4826    -4186    -4564    -6042    -7095 
   -7123    -6264    -4977    -4473    -4806    -4959    -5086    -5837 
   -6740    -6654    -5521    -4540    -4382    -4702    -4897    -5127 
   -6199    -7361    -6924    -5281    -4086    -3623    -3761    -5293 
   -7385    -7735    -6551    -5373    -4484    -4383    -5390    -6353 
   -6667    -7145    -7578    -6940    -5630    -4452    -3975    -4834 
   -5945    -6003    -5773    -5788    -5611    -5483    -5437    -4895 
   -4374    -4814    -5724    -6199    -6327    -6477    -6439    -6003 
   -5632    -5536    -5300    -5146    -5470    -5827    -5903    -5792 
   -5328    -4572    -4364    -5150    -5761    -5275    -4869    -5597 
   -6579    -6891    -6754    -6369    -5605    -4986    -5173    -5587 
   -5373    -5022    -5269    -5778    -5960    -5455    -4425    -4063 
   -4873    -5857    -6397    -6543    -6326    -5968    -5798    -6030 
   -6478    -6349    -5386    -4648    -4779    -5192    -5626    -6183 
   -6423    -6139    -5776    -5545    -5155    -4656    -4638    -5414 
   -6561    -7071    -6542    -5998    -6191    -6416    -6249    -5988 
   -5155    -3789    -3349    -3962    -4692    -5680    -6523    -6134 
   -5042    -4272    -4004    -4521    -5618    -6490    -7087    -7314 
   -6627    -5624    -5460    -5937    -6195    -6029    -5505    -5071 
   -5317    -5605    -5304    -5371    -6197    -6552    -5949    -5269 
   -5035    -5012    -4764    -4342    -4617    -5910    -7150    -7280 
   -6662    -6269    -6092    -5807    -5617    -5424    -4985    -4459 
   -4239    -4729    -5625    -6207    -6453    -6481    -5899    -4861 
   -4344    -4595    -4980    -5402    -6070    -6732    -6952    -6601 
   -6030    -5440    -5096    -5649    -6559    -6492    -5570    -4787 
   -4467    -4533    -4815    -4854    -4897    -5594    -6241    -6343 
   -6559    -6528    -5726    -5104    -5271    -5606    -5560    -5158 
   -4962    -5589    -6478    -6736    -6454    -5559    -4233    -3866 
   -4556    -4892    -4600    -4459    -5277    -7098    -8623    -8671 
   -7429    -5930    -5051    -4858    -4745    -4450    -4623    -5386 
   -5891    -5989    -5935    -5732    -5796    -6039    -5556    -4525 
   -4113    -4841    -6384    -7427    -6741    -5227    -4264    -4018 
   -4664    -5996    -7015    -7049    -6053    -4919    -4949    -5818 
   -5977    -5263    -4768    -4970    -5547    -5845    -5880    -6421 
   -6983    -6392    -5336    -5212    -5757    -5938    -5580    -4958 
   -4515    -4923    -5694    -5616    -5173    -5355    -5580    -5424 
   -5387    -5387    -5329    -5459    -5408    -5344    -5879    -6339 
   -6366    -6605    -6716    -6126    -5189    -4241    -3685    -4116 
