Origin Time       2024/04/02 04:24:00
Lat.              40.133
Long.             141.712
Depth. (km)       71
Mag.              6.0
Station Code      KSRH02
Station Lat.      43.1142
Station Long.     144.1230
Station Height(m) -75
Record Time       2024/04/02 04:25:31
Sampling Freq(Hz) 100Hz
Duration Time(s)  153
Dir.              3
Scale Factor      2942(gal)/8224139
Max. Acc. (gal)   0.577
Last Correction   2024/04/02 04:25:31
Memo.             
[...]
  -43475   -43784   -44037   -43811   -43259   -43017   -43198   -43434 
  -43733   -44032   -43935   -43559   -43370   -43441   -43623   -43737 
  -43606   -43372   -43398   -43679   -43915   -43937   -43744   -43556 
  -43571   -43687   -43799   -43791   -43555   -43380   -43480   -43576 
  -43644   -43842   -43951   -43852   -43752   -43758   -43773   -43650 
  -43430   -43317   -43366   -43360   -43272   -43402   -43627   -43588 
  -43584   -43849   -43939   -43717   -43459   -43241   -43132   -43178 
  -43299   -43579   -43792   -43511   -43248   -43605   -44037   -44101 
  -44070   -43943   -43615   -43484   -43700   -43780   -43580   -43425 
  -43394   -43492   -43742   -43876   -43788   -43703   -43636   -43555 
  -43522   -43505   -43559   -43605   -43482   -43364   -43436   -43645 
  -43713   -43440   -43210   -43326   -43533   -43686   -43745   -43660 
  -43595   -43632   -43727   -43846   -43752   -43426   -43310   -43619 
  -43950   -43904   -43703   -43660   -43606   -43457   -43530   -43926 
  -44190   -43872   -43413   -43532   -43841   -43672   -43386   -43479 
  -43668   -43567   -43484   -43771   -43977   -43777   -43598   -43564 
  -43407   -43330   -43476   -43549   -43484   -43360   -43301   -43618 
  -44058   -44011   -43746   -43807   -43953   -43930   -43949   -43984 
  -43850   -43602   -43299   -43144   -43397   -43738   -43737   -43632 
  -43650   -43559   -43470   -43717   -44003   -43897   -43642   -43611 
  -43684   -43719   -43711   -43583   -43483   -43491   -43409   -43278 
  -43294   -43406   -43441   -43390   -43486   -43930   -44362   -44151 
  -43618   -43549   -43745   -43675   -43501   -43545   -43710   -43702 
  -43599   -43702   -43891   -43914   -43800   -43652   -43659   -43857 
  -43814   -43443   -43353   -43595   -43600   -43555   -43822   -43951 
  -43703   -43548   -43660   -43660   -43318   -43046   -43328   -43854 
  -43947   -43533   -43140   -43137   -43370   -43579   -43657   -43572 
  -43416   -43325   -43410   -43677   -43869   -43760   -43513   -43252 
  -43136   -43424   -43665   -43465   -43343   -43528   -43618   -43436 
  -43279   -43421   -43671   -43822   -43825   -43756   -43881   -43953 
  -43775   -43875   -44072   -43767   -43349   -43359   -43622   -43683 
  -43538   -43600   -43794   -43788   -43733   -43850   -44035   -44073 
  -43881   -43681   -43733   -43868   -43772   -43475   -43286   -43428 
  -43794   -44124   -44332   -44334   -43997   -43582   -43526   -43762 
  -43907   -43799   -43607   -43656   -43830   -43677   -43464   -43661 
  -43780   -43533   -43518   -43812   -43941   -43749   -43517   -43679 
  -43904   -43511   -42998   -43087   -43386   -43391   -43285   -43440 
  -43814   -43947   -43710   -43405   -43282   -43474   -43710   -43599 
  -43411   -43384   -43370   -43532   -43772   -43540   -43100   -43178 
  -43526   -43557   -43522   -43698   -43781   -43571   -43249   -43191 
  -43387   -43443   -43510   -43814   -43927   -43675   -43371   -43173 
  -43116   -43137   -43178   -43456   -43866   -43877   -43659   -43791 
  -43981   -43868   -43830   -43850   -43528   -43123   -43027   -43254 
  -43696   -43974   -43804   -43521   -43517   -43730   -43949   -44062 
  -43943   -43669   -43590   -43812   -44194   -44338   -43829   -43239 
  -43322   -43730   -43989   -44054   -43889   -43746   -43922   -44149 
  -44028   -43686   -43421   -43232   -43108   -43243   -43623   -43908 
  -43910   -43777   -43679   -43668   -43667   -43514   -43243   -43113 
  -43317   -43727   -43980   -43920   -43811   -43703   -43401   -43279 
  -43695   -43987   -43630   -43275   -43509   -43943   -43993   -43560 
  -43112   -43081   -43251   -43394   -43681   -43996   -44113   -44151 
  -44115   -43942   -43835   -43908   -43945   -43679   -43313   -43348 
  -43727   -44018   -44199   -44285   -43985   -43552   -43588   -43779 
  -43610   -43518   -43764   -43814   -43524   -43368   -43534   -43731 
  -43769   -43806   -43889   -43845   -43622   -43391   -43317   -43140 
  -42776   -42876   -43526   -44005   -44022   -43735   -43363   -43155 
  -43289   -43573   -43569   -43367   -43437   -43753   -43870   -43617 
  -43343   -43330   -43370   -43366   -43329   -43239   -43474   -44018 
  -44242   -44084   -43725   -43237   -43059   -43256   -43484   -43691 
  -43767   -43587   -43337   -43266   -43444   -43564   -43474   -43507 
  -43691   -43846   -44051   -44224   -44253   -44205   -43999   -43703 
  -43646   -43750   -43665   -43509   -43600   -43748   -43661   -43649 
  -44022   -44464   -44437   -43906   -43475   -43524   -43617   -43417 
  -43143   -42951   -43028   -43441   -43804   -43989   -44055   -43850 
  -43642   -43754   -43762   -43426   -43071   -42746   -42668   -43228 
  -43771   -43653   -43610   -44084   -44293   -43968   -43750   -43671 
  -43308   -42903   -42850   -43190   -43823   -44174   -43845   -43475 
  -43538   -43652   -43677   -43915   -44263   -44104   -43225   -42525 
  -42911   -43899   -44383   -44124   -43636   -43322   -43251   -43378 
  -43517   -43432   -43177   -43017   -43179   -43634   -43933   -43860 
  -43819   -43900   -43862   -43812   -43754   -43625   -43591   -43502 
  -43335   -43563   -44035   -44271   -44351   -44186   -43648   -43414 
  -43831   -44100   -43789   -43393   -43089   -42803   -42826   -43197 
  -43556   -43695   -43606   -43510   -43706   -43889   -43615   -43267 
  -43182   -42989   -42788   -43117   -43729   -44080   -44189   -44173 
  -43927   -43518   -43213   -43317   -43767   -43945   -43722   -43672 
  -43802   -43777   -43807   -43949   -43835   -43514   -43406   -43579 
  -43690   -43511   -43248   -43201   -43374   -43564   -43588   -43434 
  -43387   -43657   -44059   -44342   -44336   -43852   -43001   -42587 
  -43148   -43841   -43772   -43575   -43903   -44216   -44153   -44046 
  -44053   -43926   -43571   -43232   -42982   -42807   -42913   -43379 
  -44007   -44447   -44316   -43660   -43102   -43146   -43546   -43819 
  -43802   -43557   -43391   -43702   -44355   -44591   -44103   -43533 
  -43394   -43545   -43744   -43881   -43961   -44055   -44000   -43584 
  -43260   -43425   -43699   -44019   -44563   -44767   -44213   -43441 
  -43075   -43206   -43575   -43704   -43487   -43488   -43806   -44039 
  -44204   -44130   -43591   -43054   -42812   -42746   -42867   -43096 
  -43417   -43929   -44262   -44054   -43632   -43428   -43348   -43205 
  -43268   -43745   -44176   -44151   -44042   -44051   -43718   -43127 
  -42819   -42726   -42803   -43290   -43837   -43776   -43317   -43268 
  -43579   -43690   -43518   -43154   -42880   -42981   -43276   -43582 
  -43895   -44113   -44172   -44157   -44203   -44297   -44103   -43638 
  -43600   -44099   -44545   -44601   -44058   -43175   -42850   -43168 
  -43425   -43495   -43492   -43517   -43881   -44243   -44050   -43698 
  -43510   -43186   -43051   -43595   -44140   -44014   -43719   -43707 
  -43764   -43754   -43738   -43880   -44201   -44236   -43811   -43434 
  -43393   -43561   -43787   -43956   -44072   -44003   -43649   -43437 
  -43602   -43757   -43734   -43656   -43422   -42966   -42600   -42689 
  -43113   -43529   -43854   -44053   -43983   -43556   -43058   -43173 
  -43891   -44269   -43837   -43146   -42957   -43231   -43298   -43141 
  -43073   -42943   -42911   -43266   -43741   -44166   -44548   -44598 
  -44172   -43403   -42641   -42498   -42850   -43024   -43190   -43559 
  -43587   -43228   -43106   -43278   -43367   -43384   -43260   -42993 
  -43086   -43519   -43841   -44107   -44261   -44038   -43735   -43569 
  -43407   -43501   -43857   -44131   -44402   -44487   -44091   -43783 
  -43977   -44176   -43988   -43686   -43686   -43920   -43943   -43791 
  -43865   -44104   -44216   -44140   -43911   -43595   -43235   -42869 
  -42724   -42950   -43362   -43614   -43695   -44014   -44469   -44563 
  -44320   -43912   -43468   -43281   -43425   -43741   -44041   -44057 
  -43781   -43660   -43815   -43931   -43906   -43690   -43266   -42982 
  -42940   -42896   -43119   -43754   -44153   -43916   -43457   -43186 
  -42989   -42888   -43158   -43657   -43962   -43810   -43432   -43356 
  -43686   -44219   -44608   -44467   -44076   -43848   -43564   -43152 
  -42843   -42630   -42746   -43413   -44045   -44250   -44351   -44216 
  -43769   -43629   -43785   -43842   -43904   -43826   -43609   -43681 
  -43773   -43571   -43457   -43455   -43414   -43702   -44227   -44429 
  -44352   -44285   -44162   -43788   -43152   -42576   -42449   -42741 
  -43109   -43486   -43843   -44027   -44212   -44500   -44547   -44051 
  -43314   -43006   -43105   -43181   -43339   -43556   -43501   -43231 
  -43054   -43205   -43518   -43625   -43684   -43795   -43573   -43067 
  -42778   -42851   -43048   -43218   -43351   -43420   -43514   -43825 
  -44149   -43937   -43293   -42996   -43252   -43711   -44228   -44567 
  -44502   -44247   -43868   -43324   -42880   -42751   -43054   -43617 
  -44016   -44324   -44535   -44255   -43841   -43800   -43872   -44062 
  -44622   -45029   -44682   -43857   -43183   -43063   -43472   -43908 
  -44000   -43891   -43742   -43529   -43457   -43632   -43729   -43575 
  -43237   -42836   -42473   -42195   -42364   -43008   -43275   -43009 
  -43039   -43372   -43456   -43495   -43776   -44061   -43980   -43332 
  -42759   -43133   -43865   -43884   -43437   -43209   -43129   -42959 
  -43006   -43571   -44069   -43912   -43652   -43727   -43783   -43740 
  -43795   -43893   -43804   -43559   -43519   -43803   -44270   -44604 
  -44361   -43787   -43648   -44111   -44690   -44757   -44065   -43175 
  -42877   -43247   -43825   -44290   -44624   -44674   -44316   -43924 
  -43757   -43559   -43259   -43021   -42982   -43364   -43972   -44173 
  -43897   -43548   -43251   -43023   -42977   -43121   -43339   -43460 
  -43380   -43225   -43301   -43642   -43854   -43673   -43263   -43048 
  -43294   -43557   -43405   -43371   -43781   -44008   -43815   -43634 
  -43640   -43695   -43698   -43703   -43841   -44078   -44177   -43922 
  -43507   -43371   -43571   -43833   -44011   -44155   -44258   -44281 
  -44320   -44397   -44363   -44254   -44143   -43771   -43060   -42472 
  -42385   -42712   -43117   -43483   -43837   -43980   -43951   -44026 
  -44099   -43914   -43443   -43043   -43094   -43299   -43294   -43340 
  -43572   -43640   -43497   -43568   -43889   -44142   -44128   -43765 
  -43421   -43347   -43066   -42623   -42709   -43210   -43502   -43642 
  -43873   -43845   -43487   -43399   -43623   -43708   -43668   -43737 
  -44035   -44354   -44203   -43754   -43545   -43528   -43580   -43765 
  -43776   -43340   -42989   -43110   -43125   -42867   -42776   -42913 
  -43380   -44041   -44367   -44486   -44631   -44460   -44043   -43916 
  -44088   -44097   -43765   -43432   -43532   -43883   -43823   -43351 
  -43154   -43312   -43370   -43308   -43173   -42807   -42418   -42326 
  -42560   -43056   -43560   -43642   -43299   -43193   -43668   -44124 
  -44065   -43614   -43127   -43079   -43534   -44024   -44319   -44448 
  -44370   -44081   -43735   -43492   -43362   -43252   -43146   -43258 
  -43764   -44165   -43953   -43534   -43293   -43205   -43444   -43902 
  -44284   -44589   -44582   -44042   -43330   -42894   -42990   -43522 
  -43902   -43768   -43345   -43081   -43324   -43877   -44123   -43907 
  -43626   -43491   -43449   -43587   -43943   -44270   -44332   -44126 
  -43835   -43544   -43276   -43279   -43594   -43970   -44197   -44070 
  -43845   -43908   -43916   -43609   -43378   -43406   -43414   -43444 
  -43927   -44518   -44473   -44142   -44051   -43911   -43730   -43854 
  -44146   -44375   -44536   -44605   -44455   -43933   -43224   -42870 
  -43020   -43259   -43367   -43522   -43664   -43632   -43653   -43641 
  -43209   -42857   -43174   -43575   -43546   -43487   -43510   -43380 
  -43343   -43561   -43702   -43606   -43395   -43254   -43440   -43819 
  -44007   -44173   -44424   -44393   -44054   -43711   -43480   -43317 
  -43174   -43071   -43013   -43038   -43314   -43694   -43660   -43271 
  -43151   -43429   -43707   -43834   -43949   -44073   -44123   -43973 
  -43615   -43387   -43395   -43240   -43052   -43384   -43900   -43926 
  -43563   -43213   -43152   -43353   -43463   -43433   -43382   -43177 
  -43025   -43330   -43734   -43667   -43378   -43382   -43592   -43660 
  -43595   -43497   -43301   -43195   -43343   -43490   -43510   -43465 
  -43270   -43067   -43119   -43285   -43432   -43484   -43285   -43101 
  -43158   -43287   -43599   -44142   -44582   -44695   -44501   -44132 
  -43644   -43089   -42757   -42863   -43313   -43884   -44363   -44541 
  -44367   -44116   -44064   -44143   -44145   -43919   -43515   -43278 
  -43397   -43626   -43706   -43654   -43603   -43618   -43610   -43441 
  -43293   -43487   -43837   -43949   -43873   -43806   -43683   -43460 
  -43386   -43511   -43536   -43418   -43410   -43622   -43837   -43853 
  -43893   -44030   -44101   -44347   -44814   -45023   -44707   -44034 
  -43492   -43359   -43271   -43067   -43079   -43308   -43548   -43823 
  -44107   -44258   -44149   -43818   -43653   -43796   -43856   -43721 
  -43738   -43999   -44034   -43491   -42831   -42588   -42610   -42678 
  -42827   -42900   -42905   -43137   -43428   -43522   -43605   -43679 
  -43613   -43555   -43659   -43962   -44308   -44412   -44373   -44401 
  -44166   -43530   -43001   -42773   -42743   -42957   -43312   -43731 
  -44211   -44497   -44555   -44675   -44771   -44582   -44113   -43333 
  -42427   -42014   -42156   -42313   -42533   -43119   -43653   -43852 
  -44050   -44138   -43865   -43575   -43436   -43386   -43507   -43596 
  -43611   -43858   -44142   -44134   -44085   -44178   -44174   -43960 
  -43617   -43237   -42986   -42992   -43182   -43483   -43841   -44062 
  -44014   -43785   -43490   -43198   -43047   -43152   -43492   -43877 
  -44086   -44074   -43957   -43849   -43883   -44068   -44084   -43827 
  -43475   -43002   -42739   -43132   -43729   -43949   -43915   -43891 
  -43926   -43893   -43700   -43588   -43690   -43785   -43922   -44282 
  -44537   -44281   -43744   -43364   -43235   -43233   -43198   -43194 
  -43428   -43613   -43426   -43140   -43055   -43160   -43205   -43028 
  -42867   -42908   -43128   -43470   -43638   -43448   -43112   -42885 
  -42924   -43263   -43603   -43745   -43908   -44088   -43930   -43638 
  -43683   -43866   -43907   -43939   -44076   -44254   -44238   -43999 
  -43908   -43908   -43621   -43322   -43436   -43711   -43734   -43663 
  -43837   -43946   -43676   -43487   -43587   -43551   -43370   -43440 
  -43760   -44010   -44028   -43907   -43753   -43571   -43483   -43632 
  -43773   -43710   -43680   -43741   -43590   -43243   -43097   -43393 
  -43934   -44251   -44153   -43953   -43862   -43798   -43838   -43946 
  -43777   -43375   -43036   -42780   -42681   -42903   -43278   -43505 
  -43556   -43564   -43598   -43552   -43212   -42828   -42900   -43247 
  -43414   -43426   -43505   -43737   -44028   -44185   -44213   -44259 
  -44267   -44155   -44007   -43835   -43742   -43761   -43617   -43411 
  -43443   -43533   -43579   -43623   -43555   -43444   -43430   -43515 
  -43785   -44199   -44374   -44197   -43970   -43683   -43326   -43258 
  -43295   -43063   -42992   -43352   -43664   -43756   -43792   -43729 
  -43625   -43596   -43638   -43750   -43676   -43294   -43117   -43371 
  -43599   -43561   -43487   -43578   -43802   -43995   -44103   -44132 
  -44026   -43902   -43879   -43772   -43499   -43195   -43082   -43345 
  -43741   -43899   -43950   -44051   -43988   -43727   -43530   -43448 
  -43364   -43285   -43302   -43471   -43704   -43761   -43533   -43279 
  -43235   -43298   -43325   -43263   -43198   -43375   -43710   -43864 
  -43866   -43812   -43568   -43270   -43225   -43407   -43742   -44174 
  -44304   -44049   -43908   -44026   -44180   -44262   -44189   -44069 
  -44119   -44259   -44185   -43808   -43344   -42927   -42661   -42770 
  -43144   -43380   -43413   -43470   -43607   -43686   -43760   -43933 
  -43977   -43792   -43761   -44135   -44574   -44701   -44655   -44543 
  -44170   -43725   -43602   -43745   -43842   -43690   -43451   -43465 
  -43614   -43656   -43733   -43850   -43800   -43609   -43551   -43731 
  -43802   -43534   -43235   -43260   -43588   -43875   -43978   -44107 
  -44165   -43942   -43740   -43814   -43923   -43744   -43380   -43332 
  -43607   -43637   -43448   -43482   -43646   -43603   -43399   -43362 
  -43634   -43993   -44199   -44166   -43966   -43754   -43502   -43245 
  -43237   -43390   -43471   -43567   -43645   -43499   -43267   -43114 
  -42973   -42869   -42839   -42890   -43225   -43827   -44201   -44058 
  -43737   -43595   -43578   -43563   -43479   -43344   -43302   -43318 
  -43302   -43313   -43217   -42890   -42741   -43032   -43345   -43440 
  -43509   -43524   -43455   -43445   -43526   -43803   -44194   -44297 
  -44135   -43977   -43767   -43529   -43389   -43303   -43178   -42947 
  -42758   -42827   -43124   -43468   -43707   -43846   -43872   -43784 
  -43789   -43881   -43796   -43602   -43606   -43837   -44015   -43981 
  -43934   -43942   -43789   -43537   -43368   -43232   -43151   -43183 
  -43258   -43378   -43488   -43475   -43495   -43683   -43865   -43896 
  -43861   -43860   -43826   -43735   -43692   -43758   -43904   -43908 
  -43605   -43274   -43166   -43182   -43190   -43214   -43299   -43387 
  -43476   -43664   -43927   -44064   -43946   -43741   -43590   -43452 
  -43479   -43794   -44051   -43980   -43810   -43735   -43706   -43698 
  -43700   -43630   -43476   -43345   -43355   -43488   -43622   -43706 
  -43760   -43769   -43810   -43958   -44076   -44031   -43883   -43762 
  -43779   -43841   -43826   -43860   -44008   -44103   -44046   -43849 
  -43607   -43536   -43607   -43591   -43452   -43314   -43299   -43409 
  -43522   -43599   -43626   -43618   -43600   -43501   -43421   -43513 
  -43646   -43792   -43953   -43949   -43835   -43789   -43726   -43579 
  -43490   -43549   -43665   -43735   -43802   -43933   -44059   -44078 
  -43973   -43796   -43596   -43421   -43360   -43410   -43486   -43563 
  -43637   -43744   -43814   -43680   -43416   -43231   -43200   -43243 
  -43212   -43101   -43033   -43015   -43060   -43251   -43441   -43452 
  -43406   -43480   -43594   -43607   -43551   -43459   -43351   -43336 
  -43407   -43470   -43513   -43522   -43465   -43353   -43308   -43447 
  -43605   -43622   -43606   -43600   -43622   -43750   -43906   -43916 
  -43781   -43679   -43719   -43837   -43981   -44053   -43903   -43571 
  -43259   -43206   -43407   -43600   -43668   -43626   -43517   -43510 
  -43637   -43730   -43825   -44022   -44203   -44320   -44439   -44475 
  -44312   -43981   -43708   -43734   -43926   -43968   -43912   -43891 
  -43738   -43488   -43434   -43540   -43572   -43521   -43390   -43167 
  -43027   -43114   -43328   -43542   -43741   -43819   -43700   -43534 
  -43380   -43167   -43027   -43087   -43231   -43271   -43162   -43047 
  -43036   -43079   -43096   -43114   -43216   -43344   -43406   -43453 
  -43515   -43590   -43754   -44012   -44242   -44298   -44170   -44069 
  -44146   -44244   -44177   -44003   -43848   -43687   -43555   -43633 
  -43953   -44201   -44126   -43957   -43887   -43771   -43617   -43560 
  -43580   -43641   -43718   -43816   -43958   -44107   -44161   -44030 
