Origin Time       2024/04/02 04:24:00
Lat.              40.133
Long.             141.712
Depth. (km)       71
Mag.              6.0
Station Code      KSRH05
Station Lat.      43.2556
Station Long.     144.2338
Station Height(m) -216.1
Record Time       2024/04/02 04:25:33
Sampling Freq(Hz) 100Hz
Duration Time(s)  129
Dir.              1
Scale Factor      2942(gal)/8224139
Max. Acc. (gal)   0.935
Last Correction   2024/04/02 04:25:34
Memo.             
[...]
   -1063    -1088    -1198    -1341    -1382    -1256    -1169    -1270 
   -1343    -1247    -1196    -1320    -1463    -1464    -1344    -1278 
   -1358    -1452    -1447    -1417    -1475    -1517    -1350    -1085 
   -1015    -1139    -1192    -1078    -1008    -1159    -1401    -1475 
   -1385    -1358    -1428    -1374    -1171    -1120    -1290    -1363 
   -1228    -1158    -1293    -1449    -1435    -1300    -1274    -1332 
   -1294    -1246    -1296    -1358    -1356    -1232    -1070    -1066 
   -1161    -1225    -1308    -1367    -1375    -1401    -1421    -1432 
   -1456    -1467    -1475    -1401    -1213    -1128    -1204    -1239 
   -1216    -1267    -1323    -1237    -1090    -1047    -1132    -1256 
   -1273    -1175    -1144    -1170    -1119    -1104    -1205    -1273 
   -1267    -1286    -1333    -1371    -1374    -1323    -1255    -1235 
   -1285    -1351    -1351    -1332    -1470    -1653    -1567    -1339 
   -1293    -1335    -1297    -1306    -1435    -1501    -1424    -1323 
   -1275    -1262    -1260    -1255    -1270    -1312    -1297    -1293 
   -1413    -1413    -1201    -1165    -1347    -1362    -1216    -1217 
   -1304    -1247    -1158    -1259    -1490    -1539    -1356    -1298 
   -1425    -1463    -1426    -1439    -1406    -1252    -1094    -1089 
   -1206    -1324    -1397    -1401    -1374    -1364    -1302    -1223 
   -1271    -1352    -1360    -1355    -1264    -1065     -922     -886 
    -961    -1166    -1358    -1389    -1286    -1242    -1386    -1516 
   -1455    -1377    -1363    -1331    -1323    -1327    -1242    -1115 
   -1089    -1163    -1185    -1150    -1229    -1410    -1521    -1518 
   -1412    -1242    -1189    -1335    -1444    -1316    -1135    -1121 
   -1162    -1148    -1116    -1031     -976    -1113    -1300    -1428 
   -1530    -1479    -1324    -1263    -1262    -1273    -1275    -1231 
   -1224    -1216    -1116    -1125    -1332    -1437    -1350    -1321 
   -1444    -1607    -1691    -1586    -1387    -1341    -1329    -1115 
    -973    -1182    -1483    -1536    -1354    -1134    -1030    -1032 
   -1032    -1090    -1298    -1401    -1220    -1089    -1236    -1394 
   -1341    -1224    -1236    -1344    -1420    -1420    -1363    -1339 
   -1370    -1312    -1170    -1173    -1359    -1544    -1567    -1467 
   -1453    -1532    -1431    -1205    -1252    -1417    -1248    -1005 
   -1059    -1177    -1192    -1196    -1178    -1200    -1371    -1598 
   -1680    -1534    -1313    -1219    -1219    -1181    -1113    -1125 
   -1232    -1312    -1345    -1358    -1318    -1300    -1339    -1374 
   -1458    -1587    -1607    -1456    -1267    -1208    -1181    -1011 
    -880     -981    -1109    -1124    -1169    -1286    -1387    -1449 
   -1482    -1431    -1351    -1420    -1548    -1495    -1397    -1464 
   -1506    -1320    -1075    -1011    -1078    -1081    -1035    -1165 
   -1455    -1560    -1379    -1282    -1441    -1547    -1410    -1305 
   -1413    -1497    -1402    -1263    -1250    -1389    -1509    -1530 
   -1545    -1502    -1339    -1248    -1320    -1332    -1194    -1111 
   -1175    -1232    -1152    -1067    -1171    -1390    -1487    -1420 
   -1335    -1350    -1416    -1405    -1341    -1296    -1282    -1327 
   -1350    -1285    -1217    -1169    -1150    -1197    -1281    -1364 
   -1318    -1093    -1059    -1321    -1385    -1175    -1096    -1258 
   -1462    -1367    -1070    -1071    -1263    -1206     -999     -972 
   -1174    -1362    -1385    -1433    -1582    -1640    -1605    -1572 
   -1448    -1273    -1236    -1354    -1502    -1512    -1279    -1063 
   -1096    -1120     -980     -980    -1256    -1520    -1534    -1391 
   -1317    -1329    -1258    -1102    -1036    -1174    -1448    -1552 
   -1395    -1341    -1522    -1586    -1320    -1090    -1242    -1390 
   -1205    -1074    -1197    -1233    -1051     -981    -1236    -1452 
   -1297    -1092    -1198    -1420    -1394    -1190    -1177    -1332 
   -1320    -1182    -1197    -1318    -1328    -1232    -1192    -1324 
   -1506    -1412    -1116    -1084    -1263    -1233    -1061    -1078 
   -1270    -1402    -1409    -1391    -1404    -1379    -1237    -1102 
   -1158    -1328    -1408    -1370    -1355    -1377    -1228     -946 
    -912    -1128    -1165    -1015    -1084    -1354    -1420    -1278 
   -1294    -1518    -1634    -1499    -1300    -1225    -1251    -1235 
   -1170    -1225    -1402    -1459    -1325    -1264    -1424    -1539 
   -1399    -1252    -1355    -1534    -1502    -1237     -994    -1088 
   -1355    -1274     -946     -905    -1142    -1383    -1587    -1629 
   -1451    -1258    -1192    -1263    -1355    -1331    -1264    -1316 
   -1482    -1528    -1312    -1109    -1151    -1277    -1312    -1368 
   -1540    -1572    -1310    -1113    -1236    -1391    -1350    -1248 
   -1150     -993     -885     -953    -1069    -1109    -1177    -1291 
   -1331    -1383    -1579    -1698    -1549    -1383    -1366    -1287 
   -1120    -1061    -1127    -1205    -1271    -1402    -1571    -1579 
   -1444    -1405    -1476    -1528    -1475    -1314    -1274    -1444 
   -1505    -1364    -1287    -1314    -1323    -1323    -1312    -1217 
   -1098    -1161    -1399    -1559    -1561    -1517    -1517    -1539 
   -1412    -1248    -1293    -1406    -1393    -1291    -1215    -1229 
   -1313    -1426    -1540    -1583    -1494    -1271    -1063    -1042 
   -1084    -1054    -1170    -1433    -1440    -1200    -1112    -1197 
   -1192    -1094    -1084    -1206    -1429    -1567    -1395    -1121 
   -1093    -1243    -1293    -1143     -984    -1101    -1408    -1537 
   -1444    -1393    -1479    -1540    -1502    -1522    -1590    -1514 
   -1302    -1097    -1061    -1215    -1366    -1416    -1372    -1294 
   -1296    -1275    -1136    -1047    -1042    -1080    -1179    -1178 
   -1090    -1246    -1609    -1686    -1372    -1186    -1277    -1306 
   -1270    -1231    -1040     -900    -1092    -1410    -1491    -1293 
   -1155    -1264    -1273    -1071    -1030    -1143    -1178    -1197 
   -1304    -1499    -1678    -1653    -1509    -1537    -1626    -1390 
    -997     -924    -1066    -1085    -1035    -1082    -1198    -1251 
   -1205    -1235    -1394    -1420    -1333    -1503    -1809    -1744 
   -1305     -981    -1009    -1115    -1020     -876    -1019    -1305 
   -1273    -1162    -1456    -1759    -1588    -1250    -1123    -1208 
   -1328    -1354    -1368    -1356    -1181     -966     -897     -992 
   -1111    -1070    -1036    -1290    -1678    -1895    -1858    -1637 
   -1390    -1286    -1289    -1206    -1058    -1048    -1206    -1451 
   -1667    -1730    -1815    -2034    -1957    -1497    -1192    -1147 
   -1028     -769     -639     -926    -1386    -1468    -1210    -1146 
   -1433    -1641    -1462    -1217    -1250    -1335    -1239    -1255 
   -1614    -1922    -1836    -1615    -1549    -1564    -1586    -1620 
   -1568    -1316     -893     -500     -309     -363     -660    -1080 
   -1358    -1436    -1462    -1381    -1308    -1566    -1757    -1355 
    -843     -777     -992    -1225    -1301    -1169    -1082    -1192 
   -1385    -1551    -1610    -1566    -1524    -1449    -1190     -904 
    -896    -1124    -1398    -1570    -1572    -1607    -1702    -1516 
   -1128    -1094    -1418    -1482    -1273    -1362    -1607    -1583 
   -1566    -1757    -1854    -1570     -831     -121      -81     -521 
    -811     -808     -876    -1224    -1521    -1548    -1524    -1568 
   -1642    -1745    -1849    -1837    -1641    -1452    -1474    -1594 
   -1594    -1489    -1507    -1668    -1734    -1620    -1443    -1228 
    -841     -360     -178     -346     -522     -704    -1026    -1210 
   -1297    -1722    -2319    -2486    -2066    -1351     -723     -386 
    -375     -778    -1605    -2481    -2803    -2361    -1611    -1112 
    -868     -699     -897    -1524    -1661     -807      120      405 
     365      122     -567    -1587    -2389    -2411    -1858    -1591 
   -1783    -1791    -1409    -1028     -811     -730     -966    -1556 
   -2096    -2135    -1692    -1233    -1062    -1046    -1080    -1065 
    -878     -805     -855     -735     -986    -1938    -2698    -2635 
   -2119    -1679    -1279     -687     -351     -761    -1313    -1200 
    -727     -761    -1397    -1880    -1753    -1335    -1117    -1262 
   -1417    -1255    -1035     -988     -940     -900    -1055    -1379 
   -1637    -1665    -1725    -2058    -2157    -1625    -1204    -1480 
   -1783    -1421     -776     -633     -965    -1084    -1093    -1579 
   -2037    -1752    -1209     -982     -758     -282      -98     -676 
   -1424    -1586    -1367    -1375    -1883    -2548    -2594    -1888 
   -1101     -707     -730     -905     -935     -924     -950     -811 
    -714     -990    -1343    -1491    -1701    -1958    -1841    -1410 
   -1013     -665     -387     -429     -904    -1495    -1760    -1761 
   -1723    -1638    -1571    -1424    -1162    -1128    -1156     -919 
    -870    -1456    -2317    -2612    -2073    -1567    -1715    -1894 
   -1512     -976     -695     -380       17     -120     -942    -1486 
   -1237    -1112    -1568    -1767    -1443    -1429    -1840    -1611 
    -747     -615    -1258    -1509    -1337    -1561    -2088    -1919 
    -946     -414     -897    -1433    -1202     -719     -985    -1782 
   -1794    -1043    -1193    -2381    -2776    -1914    -1274    -1521 
   -1655    -1031     -426     -560     -978     -986     -869    -1348 
   -2026    -2104    -2061    -2373    -2361    -1796    -1305    -1147 
   -1128     -872     -139      633      719        4     -946    -1684 
   -2191    -2311    -1834    -1132     -994    -1582    -1930    -1323 
    -515     -523    -1042    -1098     -843    -1254    -2038    -1933 
   -1227    -1329    -2189    -2390    -1416     -399     -394    -1070 
   -1636    -1811    -1722    -1485    -1009     -499     -527    -1188 
   -1911    -1887     -999     -495    -1055    -1526    -1387    -1460 
   -1771    -1854    -1903    -1953    -1911    -1906    -1568     -712 
    -152     -394    -1048    -1726    -2012    -1614    -1070     -935 
    -994    -1147    -1699    -2312    -2127    -1254     -649     -621 
    -730     -708     -648     -649     -703     -780     -827     -872 
   -1009    -1074    -1001    -1244    -1771    -1933    -1779    -1668 
   -1328     -814    -1067    -2177    -2552    -1588    -1046    -1753 
   -1960     -982     -718    -1877    -2685    -2019     -967     -832 
   -1223    -1294    -1320    -1426    -1055     -445     -457    -1101 
   -1586    -1624    -1688    -1938    -2072    -2003    -1749    -1409 
   -1379    -1750    -1809    -1063     -283     -463    -1264    -1408 
    -415      668      530     -729    -1679    -1647    -1611    -2193 
   -2543    -2018    -1127     -572     -483     -742    -1294    -1680 
   -1293     -575     -472     -756     -591     -238     -623    -1695 
   -2343    -1783     -588     -183     -857    -1258     -962    -1217 
   -2324    -3140    -3013    -2435    -2061    -1768    -1283    -1152 
   -1544    -1595    -1146     -923    -1082    -1389    -1895    -2416 
   -2196    -1263     -950    -1426    -1173     -109      113     -869 
   -1645    -1385     -967    -1451    -2268    -2203    -1462    -1042 
   -1123    -1436    -1694    -1189      162      899       17    -1321 
   -1663    -1458    -1802    -2361    -2209    -1580    -1520    -2196 
   -2471    -1695     -695     -279     -234     -183     -394    -1158 
   -1898    -2054    -1987    -2008    -1925    -1753    -1663    -1555 
   -1364    -1278    -1279    -1028     -535     -371     -731    -1150 
   -1394    -1571    -1567    -1291    -1039    -1163    -1503    -1561 
   -1509    -2041    -2832    -2586    -1206     -410    -1111    -1752 
   -1093     -502    -1074    -1566    -1147     -788    -1170    -1665 
   -1521     -982     -850    -1097    -1038     -772     -770     -815 
    -626     -398     -507    -1016    -1483    -1741    -2018    -2101 
   -1799    -1671    -1821    -1505     -942    -1092    -1736    -2104 
   -2007    -1440     -766     -745    -1466    -2178    -2061    -1156 
    -610     -823     -766     -230     -156     -896    -1884    -2220 
   -1898    -2112    -2895    -2623    -1074      -48     -333     -761 
    -726     -926    -1470    -1857    -2076    -2247    -2216    -1802 
   -1206     -892     -876     -823     -660     -611     -756     -789 
    -588     -495     -835    -1451    -1783    -1777    -2030    -2447 
   -2311    -1626    -1053     -958    -1084    -1034     -841     -876 
   -1316    -1553    -1098     -882    -1549    -2058    -1576     -626 
    -152     -380     -734    -1043    -1574    -1964    -1833    -1606 
   -1541    -1298     -978    -1003    -1286    -1426    -1150     -769 
   -1034    -1845    -2238    -1899    -1505    -1534    -1512     -837 
     -29       85     -287     -727    -1125    -1185    -1020    -1017 
    -895     -619     -961    -1888    -2346    -2045    -1692    -1564 
   -1329    -1084    -1143    -1275    -1439    -2046    -2674    -2421 
   -1594    -1098    -1036    -1260    -1872    -2592    -2849    -2509 
   -1995    -1634    -1108     -176      410       35     -480     -271 
     110      -28     -275     -329     -764    -1660    -2300    -2482 
   -2646    -2837    -2482    -1248      189      757      398      -89 
    -477    -1383    -2944    -3909    -3273    -2070    -1725    -1875 
   -1312     -149      156     -886    -1837    -1711    -1328    -1304 
   -1154     -745     -554     -612     -652     -548      -70      330 
    -406    -1871    -2354    -1674    -1460    -2080    -2081    -1417 
   -1594    -2511    -2689    -1896    -1053     -594     -259      -56 
    -658    -2281    -3586    -3257    -2099    -1567    -1350     -572 
     209      148     -286     -332     -164     -151     -380     -965 
   -1601    -1989    -2421    -2779    -2596    -1952    -1325    -1134 
   -1059     -639     -598    -1497    -2350    -2293    -1648    -1004 
    -888    -1487    -2146    -2165    -1772    -1467    -1107     -506 
     -70     -226     -795    -1084     -892     -967    -1605    -2141 
   -2173    -1844    -1404    -1181    -1370    -1750    -2000    -2196 
   -2381    -2049    -1209     -864    -1125     -907     -376     -796 
   -1790    -1829     -989     -598     -761     -580     -276     -714 
   -1374    -1271     -923    -1196    -1606    -1332     -618     -375 
    -897    -1483    -1467     -997     -627     -669     -999    -1250 
   -1282    -1483    -2238    -2951    -2654    -1786    -1580    -1746 
   -1086      -45      -66     -904    -1134     -656     -527     -953 
   -1258    -1382    -1876    -2619    -2801    -2231    -1651    -1606 
   -1705    -1163     -342     -642    -1949    -2524    -1919    -1385 
   -1485    -1429     -858     -486     -811    -1391    -1652    -1583 
   -1258     -835     -924    -1617    -2220    -2280    -1906    -1587 
   -1717    -1956    -1713    -1123     -658     -400     -324     -306 
    -255     -637    -1480    -1968    -1957    -2007    -2184    -2164 
   -1695     -762      153      472      179     -460    -1379    -2169 
   -2120    -1485    -1264    -1521    -1472    -1100    -1016    -1258 
   -1494    -1547    -1435    -1495    -1661    -1231     -427     -398 
   -1092    -1340    -1027    -1104    -1659    -1829    -1424    -1183 
   -1605    -2141    -1729     -595     -182     -784    -1398    -1501 
   -1274    -1005     -969    -1277    -1645    -1815    -2158    -2826 
   -2878    -1776     -602     -237       31      749     1046      411 
    -265     -364     -530    -1294    -2092    -2324    -2285    -2339 
   -2165    -1682    -1672    -2301    -2469    -1733     -967     -697 
    -594     -549     -997    -1736    -1829    -1341    -1165    -1294 
   -1201     -946     -959    -1363    -1696    -1513    -1132    -1077 
   -1267    -1486    -1831    -2138    -1929    -1447    -1516    -2074 
   -2351    -2315    -2354    -2184    -1595    -1161    -1213    -1309 
    -866       52      529      149     -202     -108     -386    -1425 
   -2504    -2961    -2830    -2450    -1925    -1125     -413     -363 
    -685     -673     -190      276      209     -243     -706    -1273 
   -1868    -2087    -1944    -1895    -2209    -2455    -2112    -1485 
   -1059     -965    -1270    -1647    -1464     -712     -144     -387 
   -1162    -1567    -1410    -1587    -2253    -2276    -1692    -1821 
   -2398    -2030     -980     -618     -955     -846      -51      380 
     -86     -635     -656     -754    -1495    -2251    -2068    -1298 
   -1173    -1730    -1981    -1764    -1691    -1915    -2025    -1810 
   -1563    -1536    -1620    -1691    -1822    -1853    -1379     -652 
    -429     -724     -878     -611     -237     -178     -596    -1267 
   -1829    -2174    -2238    -1972    -1823    -2029    -2115    -1864 
   -1475    -1096    -1013    -1390    -1979    -2624    -3076    -2810 
   -1991    -1323     -969     -658     -282       47      170       14 
    -321     -638     -963    -1499    -2158    -2490    -2255    -1927 
   -1863    -1540     -706      -74     -224     -791     -978     -730 
    -847    -1548    -1988    -1678    -1320    -1540    -1736    -1313 
    -774     -737    -1054    -1020     -441     -207     -676    -1057 
   -1147    -1413    -1850    -2131    -1975    -1489    -1401    -1991 
   -2454    -2296    -2064    -2223    -2313    -1783    -1175    -1147 
   -1125     -569      -58       -6       25      241      -21    -1105 
   -2029    -1941    -1579    -1902    -2482    -2300    -1390     -824 
   -1012    -1190     -897     -576     -649     -961    -1313    -1798 
   -2218    -2346    -2477    -2531    -2115    -1487    -1028     -630 
    -216      -97     -498    -1075    -1239     -878     -739    -1323 
   -1737    -1297     -803     -859    -1102    -1227    -1358    -1726 
   -2224    -2647    -2986    -2832    -1871     -741     -141      -20 
     -25      -68     -271     -413     -207     -106     -807    -1894 
   -2091    -1314    -1034    -1732    -2077    -1618    -1637    -2378 
   -2435    -1405     -599     -908    -1665    -1956    -1864    -1799 
   -1653    -1113     -247      449      612      351       10     -245 
    -629    -1255    -1709    -1571    -1102     -974    -1366    -1796 
   -1898    -1722    -1412    -1158    -1223    -1683    -2166    -2088 
   -1432     -888     -878    -1042    -1035    -1040    -1077     -907 
    -830    -1109    -1364    -1494    -1729    -1983    -2064    -1887 
   -1624    -1563    -1590    -1395    -1044    -1038    -1695    -2442 
   -2554    -2250    -2110    -2138    -1958    -1560    -1298    -1156 
    -870     -603     -665     -888     -823     -464     -290     -575 
   -1093    -1420    -1439    -1509    -1814    -2056    -2116    -2039 
   -1545     -720     -317     -463     -583     -715    -1200    -1676 
   -1705    -1547    -1695    -1977    -1688     -989     -963    -1548 
   -1578    -1015     -909    -1455    -1721    -1166     -402     -110 
    -133     -168     -360     -807    -1194    -1194     -877     -710 
   -1134    -1861    -2178    -2073    -2025    -2016    -1822    -1498 
