Origin Time       2024/04/02 04:24:00
Lat.              40.133
Long.             141.712
Depth. (km)       71
Mag.              6.0
Station Code      KSRH02
Station Lat.      43.1142
Station Long.     144.1230
Station Height(m) 30
Record Time       2024/04/02 04:25:31
Sampling Freq(Hz) 100Hz
Duration Time(s)  153
Dir.              5
Scale Factor      7845(gal)/8223790
Max. Acc. (gal)   4.705
Last Correction   2024/04/02 04:25:31
Memo.             
[...]
    7037     6937     6901     6853     6745     6625     6554     6500 
    6417     6331     6272     6222     6176     6156     6168     6238 
    6403     6601     6717     6721     6651     6528     6378     6270 
    6239     6264     6326     6435     6563     6633     6601     6509 
    6442     6451     6527     6617     6675     6669     6570     6400 
    6216     6093     6069     6122     6230     6385     6512     6511 
    6389     6280     6250     6210     6133     6164     6354     6563 
    6682     6721     6705     6648     6581     6535     6519     6534 
    6612     6727     6775     6720     6627     6535     6438     6369 
    6376     6427     6465     6504     6547     6536     6446     6319 
    6200     6091     6004     5994     6110     6299     6440     6519 
    6592     6625     6548     6373     6197     6127     6189     6340 
    6573     6862     7092     7153     7072     6940     6775     6590 
    6471     6478     6542     6578     6612     6709     6820     6783 
    6586     6372     6181     6011     5977     6111     6241     6293 
    6381     6523     6602     6586     6529     6480     6462     6473 
    6489     6482     6453     6442     6430     6349     6241     6210 
    6237     6231     6228     6296     6404     6494     6517     6436 
    6282     6097     5933     5900     6046     6274     6513     6774 
    6974     6986     6826     6608     6380     6120     5904     5926 
    6184     6428     6554     6679     6799     6760     6544     6311 
    6196     6184     6219     6331     6555     6772     6820     6718 
    6610     6542     6458     6396     6469     6673     6851     6906 
    6885     6833     6712     6485     6241     6123     6124     6150 
    6220     6370     6524     6608     6642     6700     6767     6743 
    6652     6608     6582     6509     6459     6500     6578     6642 
    6658     6566     6384     6181     5994     5868     5840     5908 
    6084     6308     6455     6457     6323     6124     6016     6091 
    6257     6397     6490     6550     6583     6559     6417     6238 
    6174     6188     6212     6357     6636     6843     6876     6856 
    6875     6895     6851     6763     6710     6659     6496     6307 
    6299     6409     6450     6471     6594     6706     6621     6390 
    6220     6151     6096     6095     6261     6528     6677     6648 
    6592     6559     6482     6386     6378     6469     6565     6594 
    6551     6434     6245     6072     6010     6043     6156     6331 
    6502     6588     6486     6199     5945     5910     6046     6270 
    6566     6858     7032     7074     7074     7017     6778     6434 
    6172     6042     6042     6154     6289     6365     6388     6436 
    6552     6647     6646     6621     6639     6640     6563     6455 
    6404     6443     6512     6523     6462     6412     6454     6555 
    6602     6578     6546     6478     6340     6243     6247     6249 
    6239     6315     6423     6438     6394     6431     6558     6654 
    6683     6702     6739     6756     6675     6502     6330     6212 
    6188     6272     6388     6482     6582     6677     6698     6628 
    6546     6488     6393     6292     6255     6264     6297     6332 
    6315     6245     6157     6062     5952     5913     6049     6241 
    6336     6417     6581     6758     6835     6778     6654     6543 
    6485     6538     6710     6910     7079     7173     7074     6805 
    6561     6435     6390     6409     6500     6640     6739     6631 
    6322     6022     5811     5613     5474     5536     5809     6143 
    6405     6535     6555     6504     6374     6241     6204     6264 
    6439     6777     7168     7416     7452     7352     7199     7021 
    6797     6546     6354     6272     6255     6261     6231     6073 
    5795     5551     5466     5530     5722     6048     6401     6659 
    6806     6866     6832     6690     6477     6381     6513     6698 
    6801     6899     6956     6816     6556     6382     6327     6281 
    6205     6210     6313     6328     6247     6276     6372     6350 
    6273     6297     6416     6531     6555     6520     6571     6705 
    6747     6691     6698     6758     6740     6650     6571     6508 
    6434     6342     6262     6242     6273     6297     6264     6215 
    6205     6189     6141     6130     6185     6277     6427     6625 
    6770     6832     6875     6864     6744     6604     6507     6415 
    6334     6291     6282     6359     6516     6606     6554     6470 
    6458     6463     6478     6559     6629     6600     6496     6388 
    6320     6255     6166     6158     6304     6520     6705     6818 
    6839     6783     6698     6583     6434     6330     6350     6467 
    6590     6662     6683     6633     6430     6124     5940     5962 
    6085     6269     6551     6844     7002     6980     6798     6531 
    6286     6087     5926     5898     6057     6299     6508     6658 
    6701     6582     6393     6309     6365     6471     6567     6651 
    6713     6714     6679     6647     6544     6339     6187     6168 
    6178     6189     6265     6339     6297     6219     6215     6239 
    6239     6270     6421     6701     6934     6982     6914     6805 
    6617     6363     6188     6189     6282     6382     6494     6592 
    6666     6714     6718     6724     6723     6654     6597     6616 
    6602     6469     6288     6177     6134     6095     6069     6104 
    6185     6292     6428     6548     6592     6577     6547     6481 
    6413     6432     6448     6340     6216     6166     6160     6193 
    6232     6249     6327     6517     6643     6543     6377     6316 
    6297     6308     6377     6473     6601     6698     6710     6685 
    6616     6504     6467     6538     6612     6658     6698     6706 
    6651     6565     6469     6327     6162     6089     6208     6443 
    6573     6538     6451     6304     6084     5962     6072     6303 
    6498     6651     6810     6937     6943     6824     6697     6639 
    6574     6465     6436     6525     6593     6573     6525     6505 
    6504     6473     6434     6471     6544     6502     6361     6277 
    6237     6142     6056     6085     6232     6440     6600     6639 
    6604     6490     6312     6241     6340     6457     6519     6615 
    6706     6643     6443     6264     6207     6272     6392     6494 
    6544     6509     6417     6328     6227     6097     6029     6108 
    6273     6413     6508     6556     6517     6386     6238     6151 
    6135     6208     6405     6686     6947     7047     6941     6789 
    6677     6523     6403     6442     6531     6531     6496     6507 
    6490     6378     6296     6322     6390     6509     6664     6737 
    6648     6427     6196     6073     6095     6269     6565     6894 
    7165     7280     7195     6984     6736     6488     6319     6316 
    6430     6507     6462     6332     6160     5945     5760     5759 
    5929     6096     6177     6208     6249     6268     6165     5992 
    5908     5935     6049     6261     6480     6598     6652     6737 
    6880     7014     7065     7030     6941     6795     6593     6399 
    6297     6300     6388     6529     6666     6747     6754     6681 
    6577     6536     6639     6889     7183     7329     7219     6897 
    6462     6041     5713     5501     5495     5736     6077     6331 
    6471     6592     6731     6853     6951     7029     7092     7109 
    6988     6713     6330     5883     5512     5395     5528     5814 
    6218     6642     6936     7038     6959     6750     6517     6319 
    6137     5984     5898     5935     6127     6343     6484     6623 
    6785     6894     6910     6790     6550     6328     6220     6199 
    6230     6286     6357     6442     6469     6369     6189     5981 
    5757     5628     5648     5659     5626     5832     6354     6883 
    7238     7530     7753     7753     7464     6991     6442     5845 
    5381     5358     5768     6243     6517     6671     6907     7240 
    7512     7618     7533     7233     6755     6222     5741     5422 
    5397     5645     6002     6388     6775     7009     6979     6724 
    6327     5926     5694     5748     6123     6655     7055     7169 
    6978     6520     5960     5502     5247     5224     5410     5771 
    6246     6639     6764     6698     6586     6498     6528     6652 
    6717     6701     6658     6547     6351     6112     5911     5864 
    5987     6239     6629     7113     7581     7936     8051     7917 
    7686     7385     6940     6467     6196     6176     6254     6297 
    6350     6444     6415     6147     5818     5641     5652     5819 
    6135     6481     6698     6785     6779     6678     6575     6620 
    6772     6775     6453     6019     5805     5832     5945     6157 
    6571     7102     7495     7681     7807     7762     7294     6562 
    5937     5463     5074     4981     5333     5822     6108     6212 
    6238     6258     6431     6833     7331     7678     7676     7399 
    7061     6633     5987     5247     4739     4673     5019     5698 
    6592     7366     7717     7658     7358     6957     6606     6412 
    6322     6238     6170     6141     6122     6068     5983     6019 
    6288     6608     6840     7153     7581     7746     7381     6759 
    6323     6161     6110     6199     6567     6971     6939     6475 
    5962     5516     5093     4935     5289     6027     6945     7902 
    8568     8576     7919     6921     5906     5017     4423     4347 
    4768     5375     5888     6304     6727     7106     7376     7582 
    7732     7655     7152     6296     5424     4787     4395     4263 
    4537     5240     6087     6790     7314     7655     7730     7585 
    7406     7329     7322     7273     7145     6887     6508     6276 
    6350     6509     6543     6544     6690     6901     6921     6717 
    6354     5786     5184     4988     5404     6160     6797     7117 
    7210     7206     7182     7121     7006     6895     6759     6538 
    6404     6486     6636     6821     7156     7450     7350     6818 
    6157     5580     5028     4465     4051     4028     4568     5532 
    6484     7102     7322     7184     6802     6366     6108     6264 
    6799     7314     7479     7284     6778     6079     5557     5475 
    5710     6048     6396     6720     6967     7009     6748     6291 
    5814     5557     5861     6758     7786     8495     8791     8706 
    8183     7227     6077     5136     4757     5017     5701     6513 
    7206     7564     7547     7233     6597     5670     4749     4237 
    4203     4488     5165     6288     7506     8356     8630     8351 
    7655     6756     5900     5344     5306     5790     6515     7083 
    7217     6894     6351     5849     5454     5279     5605     6354 
    6975     7080     6790     6330     5780     5323     5256     5663 
    6342     7024     7487     7527     6980     5941     4931     4506 
    4727     5340     6111     6820     7238     7242     6961     6713 
    6718     6963     7318     7678     7867     7771     7587     7477 
    7375     7339     7507     7796     8100     8351     8293     7692 
    6624     5398     4403     3821     3566     3688     4363     5459 
    6493     7095     7242     6971     6304     5533     5174     5425 
    6008     6583     6997     7173     7122     6964     6778     6623 
    6656     6898     7198     7515     7728     7473     6625     5479 
    4426     3809     3800     4295     5107     6106     7141     7974 
    8272     7885     7099     6403     6080     6162     6605     7298 
    7921     8083     7666     6898     6099     5462     5192     5487 
    6218     6994     7626     8087     8141     7516     6399     5308 
    4625     4395     4495     4810     5277     5818     6246     6413 
    6475     6770     7299     7659     7668     7549     7419     7075 
    6428     5791     5433     5319     5398     5660     6042     6470 
    6798     6964     7011     6905     6606     6205     5900     5872 
    6114     6512     7017     7601     8127     8356     8108     7410 
    6574     5894     5363     4961     4916     5320     5837     6099 
    6088     6052     6142     6357     6679     7065     7419     7557 
    7310     6818     6340     5945     5733     5879     6347     6866 
    7190     7291     7172     6772     6219     5776     5551     5536 
    5761     6241     6871     7396     7558     7344     6991     6647 
    6239     5827     5660     5840     6285     6766     6901     6501 
    5806     5135     4554     4108     4055     4569     5539     6708 
    7744     8336     8422     8195     7820     7326     6805     6434 
    6264     6243     6326     6424     6509     6725     7130     7464 
    7387     6781     5728     4480     3535     3415     4288     5898 
    7732     9211     9894     9671     8657     7064     5409     4414 
    4421     5192     6268     7285     7973     8098     7577     6655 
    5823     5343     5081     4974     5215     5830     6466     6775 
    6820     6841     6856     6723     6434     6124     5985     6176 
    6632     7188     7797     8257     8191     7608     6860     6215 
    5892     5984     6251     6413     6423     6266     5800     4990 
    4060     3303     3037     3613     5105     7165     9261    10814 
   11383    10883     9529     7717     5941     4545     3681     3489 
    4021     5050     6189     7183     7963     8526     8743     8469 
    7859     7256     6678     5929     5155     4700     4621     4849 
    5417     6183     6835     7213     7287     7002     6504     6154 
    6038     5876     5590     5387     5301     5204     5140     5262 
    5649     6286     7071     7839     8364     8386     7769     6660 
    5471     4675     4652     5557     7096     8640     9639     9783 
    8968     7315     5287     3576     2681     2739     3630     5040 
    6590     7893     8576     8533     7996     7280     6681     6480 
    6787     7322     7663     7653     7364     6929     6475     6091 
    5815     5643     5597     5714     5937     6058     5919     5663 
    5495     5404     5406     5640     6061     6517     6963     7362 
    7592     7609     7474     7287     7145     7059     6971     6841 
    6696     6496     6127     5737     5675     5953     6296     6575 
    6760     6755     6605     6462     6318     6111     5942     5915 
    5985     6058     6114     6249     6519     6751     6808     6831 
    6866     6720     6357     6029     5913     5975     6142     6285 
    6207     5837     5267     4634     4224     4394     5184     6285 
    7422     8344     8730     8496     7901     7252     6733     6403 
    6270     6345     6490     6431     6058     5563     5286     5517 
    6289     7330     8252     8721     8499     7588     6258     4895 
    3915     3669     4197     5227     6420     7533     8371     8788 
    8793     8496     8019     7528     7067     6539     6010     5678 
    5633     5842     6245     6785     7365     7767     7753     7258 
    6486     5702     5062     4707     4731     5003     5285     5449 
    5541     5726     6099     6532     6887     7196     7400     7238 
    6594     5614     4556     3767     3632     4409     5992     7794 
    9147     9790     9666     8691     7137     5616     4541     4066 
    4360     5414     6740     7746     8225     8235     7843     7136 
    6258     5468     5078     5192     5599     6079     6627     7229 
    7677     7777     7538     7042     6415     5906     5725     5902 
    6250     6427     6309     6089     5842     5548     5410     5634 
    6089     6597     7179     7794     8267     8503     8479     8118 
    7399     6458     5564     5050     5096     5470     5765     5867 
    5946     6141     6374     6465     6440     6583     6959     7325 
    7572     7735     7632     7036     6149     5425     5054     4997 
    5248     5740     6276     6658     6764     6624     6432     6304 
    6191     6064     5941     5861     5926     6162     6500     6917 
    7364     7654     7672     7510     7263     6968     6644     6226 
    5679     5224     5155     5491     5999     6459     6793     7049 
    7335     7582     7516     7018     6266     5448     4630     3979 
    3824     4359     5427     6673     7759     8402     8464     8089 
    7550     6966     6366     5948     5927     6242     6586     6721 
    6637     6362     5906     5545     5694     6366     7192     7780 
    7850     7312     6367     5425     4884     4976     5683     6686 
    7573     8063     8017     7464     6588     5751     5378     5560 
    5980     6292     6390     6326     6104     5707     5277     5131 
    5459     6149     6945     7668     8225     8519     8456     8114 
    7690     7250     6697     6052     5590     5468     5551     5738 
    6058     6399     6528     6338     5913     5417     4990     4806 
    5031     5597     6243     6804     7182     7334     7345     7381 
    7531     7701     7754     7618     7253     6706     6093     5509 
    5131     5138     5398     5670     6000     6504     7032     7404 
    7650     7793     7734     7483     7219     7020     6791     6494 
    6239     6149     6169     6153     6104     6122     6216     6324 
    6299     6030     5667     5358     4992     4575     4428     4741 
    5314     5900     6471     7020     7416     7581     7576     7470 
    7187     6666     6153     5973     6114     6309     6369     6334 
    6384     6527     6524     6281     6026     5935     5875     5784 
    5908     6288     6616     6759     6891     7152     7488     7735 
    7809     7781     7666     7376     6959     6610     6442     6401 
    6369     6264     6085     5903     5772     5601     5314     5140 
    5360     5887     6403     6804     7206     7607     7800     7672 
    7325     6864     6370     6056     6133     6582     7164     7619 
    7762     7438     6642     5663     4904     4604     4842     5553 
    6466     7163     7333     7010     6484     5971     5636     5730 
    6326     7109     7624     7618     7087     6193     5224     4536 
    4453     5085     6161     7214     7944     8266     8044     7211 
    6137     5400     5225     5508     6108     6820     7389     7682 
    7624     7263     6833     6516     6359     6490     6949     7452 
    7708     7719     7522     7021     6222     5474     5150     5247 
    5541     5859     6085     6183     6081     5724     5373     5428 
    5918     6600     7298     7881     8166     7990     7366     6451 
    5482     4814     4750     5262     6075     6933     7612     7811 
    7364     6477     5544     4828     4415     4363     4718     5366 
    6023     6458     6624     6598     6423     6201     6231     6733 
    7474     8020     8187     7987     7435     6594     5794     5516 
    5899     6667     7535     8321     8784     8658     7943     7040 
    6397     6084     5933     5925     6056     6076     5751     5221 
    4803     4603     4621     4900     5437     6096     6654     6913 
    6826     6515     6184     5999     6042     6331     6828     7385 
