Origin Time       2024/04/02 04:24:00
Lat.              40.133
Long.             141.712
Depth. (km)       71
Mag.              6.0
Station Code      KSRH07
Station Lat.      43.1359
Station Long.     144.3274
Station Height(m) 38
Record Time       2024/04/02 04:26:04
Sampling Freq(Hz) 100Hz
Duration Time(s)  120
Dir.              4
Scale Factor      7845(gal)/8223790
Max. Acc. (gal)   9.369
Last Correction   2024/04/02 04:26:05
Memo.             
[...]
   -1763    -1040     -561     -460     -757    -1375    -2119    -2740 
   -3044    -2975    -2608    -2010    -1287     -695     -473     -656 
   -1097    -1629    -2145    -2502    -2563    -2319    -1863    -1336 
    -915     -731     -826    -1204    -1777    -2305    -2533    -2419 
   -2100    -1686    -1197     -718     -529     -885    -1663    -2444 
   -2933    -3034    -2705    -2039    -1317     -814     -635     -768 
   -1162    -1757    -2365    -2714    -2662    -2253    -1621     -989 
    -638     -702    -1036    -1437    -1869    -2280    -2412    -2108 
   -1575    -1162     -993    -1000    -1194    -1648    -2269    -2783 
   -2937    -2685    -2197    -1675    -1232     -950     -885    -1039 
   -1389    -1877    -2331    -2517    -2347    -1937    -1489    -1173 
   -1086    -1196    -1347    -1494    -1742    -2100    -2374    -2393 
   -2158    -1782    -1414    -1229    -1269    -1398    -1561    -1813 
   -2127    -2374    -2425    -2245    -1858    -1347     -900     -753 
   -1012    -1551    -2077    -2398    -2525    -2504    -2295    -1830 
   -1146     -454      -78     -256     -942    -1809    -2508    -2866 
   -2855    -2520    -1972    -1374     -881     -614     -692    -1196 
   -2012    -2771    -3098    -2906    -2326    -1556     -857     -494 
    -553     -928    -1485    -2120    -2666    -2911    -2779    -2381 
   -1885    -1389    -1009     -915    -1108    -1391    -1633    -1850 
   -2077    -2284    -2357    -2209    -1880    -1509    -1242    -1097 
    -990     -927    -1035    -1385    -1858    -2236    -2363    -2249 
   -2030    -1768    -1453    -1205    -1162    -1274    -1471    -1806 
   -2241    -2555    -2550    -2211    -1709    -1278    -1061    -1055 
   -1193    -1408    -1696    -2070    -2390    -2439    -2191    -1813 
   -1464    -1183     -961     -866    -1011    -1332    -1636    -1884 
   -2145    -2277    -2139    -1868    -1605    -1323    -1065     -989 
   -1151    -1453    -1788    -2120    -2394    -2452    -2165    -1702 
   -1420    -1394    -1439    -1498    -1698    -2064    -2377    -2416 
   -2212    -1914    -1621    -1360    -1117     -940     -980    -1339 
   -1921    -2400    -2469    -2173    -1827    -1632    -1497    -1310 
   -1170    -1236    -1509    -1827    -2033    -2054    -1921    -1742 
   -1568    -1368    -1212    -1231    -1449    -1753    -1991    -2135 
   -2204    -2120    -1863    -1541    -1305    -1289    -1464    -1640 
   -1803    -2097    -2394    -2366    -1991    -1566    -1279    -1152 
   -1169    -1300    -1567    -1931    -2181    -2188    -2030    -1736 
   -1308     -928     -812     -957    -1259    -1707    -2224    -2567 
   -2548    -2230    -1833    -1557    -1460    -1445    -1399    -1382 
   -1594    -2012    -2295    -2184    -1861    -1709    -1815    -1898 
   -1746    -1540    -1559    -1753    -1834    -1721    -1621    -1640 
   -1632    -1539    -1529    -1661    -1756    -1733    -1736    -1836 
   -1902    -1821    -1633    -1445    -1297    -1171    -1124    -1244 
   -1482    -1690    -1854    -2019    -2115    -2052    -1873    -1691 
   -1555    -1449    -1399    -1501    -1761    -2023    -2103    -1969 
   -1786    -1684    -1617    -1553    -1552    -1574    -1524    -1479 
   -1595    -1809    -1880    -1779    -1679    -1628    -1521    -1378 
   -1364    -1529    -1725    -1852    -1921    -1894    -1744    -1532 
   -1328    -1166    -1121    -1293    -1678    -2135    -2442    -2466 
   -2303    -2072    -1738    -1336    -1074    -1128    -1483    -1980 
   -2376    -2473    -2251    -1894    -1563    -1270    -1034     -961 
   -1111    -1435    -1845    -2261    -2527    -2407    -1891    -1327 
   -1028    -1004    -1112    -1256    -1451    -1749    -2100    -2326 
   -2328    -2170    -1894    -1548    -1343    -1435    -1663    -1748 
   -1678    -1675    -1834    -1992    -1956    -1742    -1545    -1474 
   -1491    -1545    -1609    -1675    -1755    -1881    -2110    -2347 
   -2347    -2019    -1587    -1329    -1242    -1155    -1092    -1231 
   -1622    -2097    -2371    -2316    -2104    -1922    -1728    -1490 
   -1343    -1370    -1568    -1925    -2277    -2400    -2316    -2197 
   -2068    -1857    -1578    -1290    -1128    -1279    -1679    -1983 
   -2002    -1891    -1845    -1846    -1742    -1443    -1026     -712 
    -687     -903    -1221    -1603    -2018    -2363    -2504    -2300 
   -1795    -1324    -1117    -1092    -1131    -1277    -1572    -1915 
   -2118    -2114    -2012    -1891    -1713    -1486    -1301    -1270 
   -1499    -1939    -2297    -2335    -2114    -1881    -1745    -1587 
   -1390    -1345    -1526    -1773    -1944    -2007    -1927    -1655 
   -1308    -1156    -1336    -1725    -2087    -2203    -2053    -1825 
   -1652    -1455    -1189     -982     -924    -1034    -1360    -1834 
   -2226    -2390    -2340    -2160    -1898    -1603    -1389    -1273 
   -1185    -1170    -1372    -1837    -2370    -2610    -2416    -2034 
   -1769    -1672    -1594    -1425    -1252    -1306    -1644    -1995 
   -2084    -1930    -1744    -1664    -1575    -1312    -1031     -997 
   -1178    -1420    -1688    -1954    -2052    -1873    -1621    -1580 
   -1691    -1668    -1506    -1491    -1707    -1919    -1980    -1985 
   -1998    -1865    -1549    -1359    -1506    -1736    -1761    -1683 
   -1741    -1925    -2019    -2012    -2023    -1914    -1533    -1148 
   -1140    -1433    -1632    -1539    -1374    -1516    -1945    -2208 
   -2016    -1566    -1259    -1331    -1672    -2003    -2169    -2157 
   -2039    -1962    -1921    -1756    -1485    -1270    -1232    -1471 
   -1906    -2231    -2351    -2416    -2419    -2232    -1899    -1532 
   -1139     -784     -681     -920    -1327    -1729    -2103    -2370 
   -2404    -2219    -1922    -1549    -1150     -864     -834    -1112 
   -1547    -1929    -2247    -2544    -2648    -2393    -1885    -1409 
   -1163    -1147    -1270    -1521    -1915    -2339    -2589    -2504 
   -2058    -1443     -993     -938    -1196    -1512    -1752    -1953 
   -2095    -2053    -1831    -1566    -1308     -993     -727     -838 
   -1374    -1925    -2182    -2243    -2269    -2243    -2056    -1656 
   -1185     -873     -850    -1093    -1449    -1768    -2015    -2223 
   -2373    -2327    -1988    -1493    -1081     -907    -1013    -1327 
   -1779    -2290    -2639    -2663    -2431    -2046    -1545    -1031 
    -718     -769    -1150    -1660    -2079    -2307    -2338    -2138 
   -1761    -1448    -1341    -1286    -1173    -1208    -1507    -1873 
   -2119    -2220    -2205    -2081    -1849    -1626    -1579    -1671 
   -1733    -1709    -1726    -1903    -2104    -2100    -1899    -1683 
   -1553    -1495    -1499    -1522    -1464    -1398    -1478    -1632 
   -1709    -1721    -1742    -1736    -1659    -1615    -1657    -1618 
   -1421    -1278    -1368    -1588    -1725    -1746    -1783    -1926 
   -2093    -2118    -1989    -1817    -1632    -1466    -1409    -1463 
   -1561    -1659    -1736    -1811    -1910    -2029    -2115    -2085 
   -1941    -1833    -1918    -2093    -2099    -1880    -1588    -1366 
   -1271    -1242    -1209    -1252    -1449    -1744    -1988    -2014 
   -1806    -1547    -1362    -1229    -1188    -1316    -1518    -1686 
   -1906    -2170    -2251    -2064    -1799    -1594    -1428    -1383 
   -1539    -1752    -1869    -1903    -1891    -1854    -1798    -1703 
   -1567    -1394    -1279    -1370    -1598    -1759    -1796    -1741 
   -1582    -1425    -1441    -1539    -1514    -1472    -1583    -1746 
   -1858    -1988    -2133    -2137    -1919    -1656    -1617    -1771 
   -1849    -1807    -1831    -2054    -2340    -2377    -2100    -1815 
   -1702    -1629    -1529    -1455    -1366    -1251    -1339    -1783 
   -2255    -2223    -1680    -1229    -1255    -1534    -1713    -1678 
   -1540    -1503    -1653    -1796    -1617    -1138     -870    -1217 
   -1954    -2543    -2675    -2400    -1903    -1435    -1235    -1248 
   -1215    -1109    -1178    -1630    -2316    -2735    -2550    -1981 
   -1521    -1409    -1490    -1510    -1383    -1215    -1194    -1382 
   -1653    -1791    -1629    -1359    -1358    -1640    -1902    -1919 
   -1736    -1624    -1736    -1867    -1799    -1624    -1520    -1607 
   -1906    -2173    -2178    -2074    -2031    -1938    -1776    -1729 
   -1803    -1792    -1610    -1383    -1321    -1528    -1814    -1923 
   -1931    -2004    -1996    -1718    -1336    -1173    -1283    -1475 
   -1694    -2012    -2277    -2197    -1819    -1503    -1414    -1379 
   -1237    -1003     -858    -1081    -1633    -2041    -2046    -1979 
   -2149    -2392    -2385    -2074    -1659    -1340    -1178    -1210 
   -1534    -2046    -2340    -2278    -2238    -2405    -2427    -2074 
   -1524     -978     -642     -749    -1213    -1672    -1907    -1960 
   -1980    -2061    -2045    -1722    -1275    -1127    -1325    -1522 
   -1516    -1426    -1429    -1557    -1659    -1594    -1447    -1398 
   -1556    -1831    -1979    -1961    -1961    -1999    -1896    -1641 
   -1441    -1410    -1483    -1567    -1579    -1526    -1566    -1730 
   -1818    -1811    -1965    -2238    -2218    -1777    -1285    -1162 
   -1494    -1917    -2023    -1942    -2073    -2415    -2555    -2222 
   -1630    -1209    -1109    -1204    -1387    -1605    -1726    -1719 
   -1749    -1853    -1844    -1587    -1188    -1000    -1233    -1555 
   -1582    -1494    -1638    -1933    -2020    -1803    -1574    -1548 
   -1582    -1590    -1746    -2034    -2149    -1992    -1803    -1773 
   -1765    -1580    -1381    -1530    -1984    -2216    -1898    -1333 
   -1093    -1328    -1665    -1799    -1814    -1942    -2242    -2520 
   -2504    -2089    -1452     -963     -911    -1223    -1611    -1938 
   -2168    -2205    -2053    -1842    -1640    -1401    -1088     -834 
    -955    -1506    -2023    -2103    -1896    -1729    -1680    -1672 
   -1664    -1690    -1733    -1692    -1605    -1675    -1906    -2031 
   -1888    -1679    -1752    -2122    -2424    -2388    -2058    -1636 
   -1318    -1190    -1169    -1140    -1105    -1189    -1532    -2081 
   -2497    -2446    -2016    -1571    -1336    -1308    -1306    -1264 
   -1387    -1740    -2097    -2270    -2214    -2025    -1802    -1553 
   -1379    -1472    -1792    -2019    -1988    -1971    -2164    -2292 
   -2056    -1532    -1024     -733     -739    -1173    -1956    -2586 
   -2608    -2060    -1412    -1151    -1256    -1256     -977     -877 
   -1350    -2137    -2636    -2529    -1998    -1395     -962     -911 
   -1210    -1495    -1633    -1775    -2000    -2250    -2285    -1958 
   -1505    -1262    -1398    -1845    -2292    -2543    -2664    -2624 
   -2251    -1674    -1247     -999     -789     -830    -1309    -1915 
   -2226    -2204    -2126    -2155    -2031    -1420     -573     -252 
    -746    -1354    -1449    -1493    -2065    -2698    -2613    -1945 
   -1387    -1150     -999     -976    -1320    -1846    -2142    -2242 
   -2308    -2139    -1609    -1075    -1027    -1512    -1958    -1930 
   -1900    -2430    -2994    -2702    -1717    -1012    -1058    -1472 
   -1759    -1787    -1703    -1721    -1898    -1979    -1782    -1540 
   -1421    -1279    -1182    -1441    -1911    -2031    -1706    -1385 
   -1305    -1390    -1574    -1729    -1817    -1992    -2177    -1996 
   -1402     -814     -610     -819    -1192    -1456    -1696    -2180 
   -2717    -2810    -2250    -1263     -373      -55     -353     -981 
   -1590    -2025    -2536    -3316    -3850    -3439    -2292    -1371 
   -1200    -1286    -1057     -815    -1139    -1894    -2612    -3132 
   -3362    -3138    -2523    -1810    -1215     -828     -735    -1008 
   -1588    -2268    -2868    -3221    -3098    -2485    -1730    -1193 
    -919     -783     -797    -1107    -1679    -2255    -2551    -2369 
   -1760    -1042     -508     -303     -422     -684    -1024    -1641 
   -2400    -2629    -1954     -766      276      714      479     -168 
   -1055    -2187    -3265    -3588    -2814    -1447     -255      425 
     692      571     -282    -1980    -3778    -4726    -4645    -3867 
   -2544     -870      480      815       97    -1239    -2849    -4465 
   -5417    -5022    -3642    -2246    -1186     -405     -129     -688 
   -2027    -3515    -4268    -3925    -2944    -1836     -665      259 
     384     -332    -1706    -3528    -5109    -5773    -5468    -4302 
   -2272      225     2243     3048     2559     1081     -846    -2598 
   -3850    -4417    -3969    -2430     -356     1382     2118     1764 
     830     -202    -1356    -2612    -3349    -2982    -1710     -344 
     249     -249    -1339    -2257    -2740    -2952    -2918    -2336 
   -1047      379     1036      569     -864    -2978    -5287    -7107 
   -7788    -6964    -4819    -2010      639     2424     2997     2239 
     264    -2246    -4272    -5175    -4885    -3667    -2007     -361 
     939     1335      232    -2092    -4328    -5236    -4610    -2991 
   -1008      919     2403     2724     1408     -878    -3001    -4571 
   -5706    -6048    -4827    -2049      851     2288     2155     1260 
     168     -666    -1035    -1308    -1794    -2311    -2625    -2879 
   -3408    -4244    -4950    -4831    -3389     -869     1831     3827 
    4621     3875     1277    -2763    -6866    -9784   -11037   -10307 
   -7310    -2521     2592     6439     8125     7354     4141     -892 
   -6246   -10007   -11030    -9616    -6621    -2500     2020     5370 
    6286     4780     1864    -1289    -4018    -5719    -5599    -3811 
   -1456      550     1659     1578      -43    -2872    -5147    -6053 
   -5894    -4210    -1332     1532     3535     3724     2164     -322 
   -3735    -7254    -8978    -8094    -5325    -2079      769     3233 
    4788     4151     1279    -2322    -5491    -7762    -8517    -7169 
   -3812      351     3496     4615     3792     1845     -203    -2533 
   -5362    -6957    -5856    -2826      564     3183     4502     4209 
    2077    -1121    -4237    -6702    -7643    -6565    -4321    -1448 
    1472     2745     1659     -984    -4086    -6762    -8681    -9192 
   -7261    -3149     1463     5097     7149     7146     4889      903 
   -3873    -7959    -9848    -9100    -6351    -2825      596     3844 
    6274     6126     2883    -1524    -5116    -7334    -8147    -7754 
   -6335    -3890     -912     1790     3188     2646     1009    -1067 
   -3472    -5005    -5077    -4324    -3153    -2025    -1077       40 
     716      -27    -1875    -3763    -4672    -3909    -2074     -109 
    2003     3956     4895     4403     2340    -1094    -5059    -8365 
   -9734    -8398    -4996     -977     2610     5084     5881     4546 
     953    -3969    -8464   -11022   -11095    -9084    -5609    -1171 
    3407     6752     7507     5555     2138    -1761    -5510    -7784 
   -7811    -6085    -3392     -761     1255     2825     3323     2268 
     373    -1776    -3727    -4861    -5043    -4287    -2629     -672 
     764     1283      982      -16    -1782    -3657    -4275    -3433 
   -2177    -1001      232     1328     1570      108    -2957    -6246 
   -8226    -8132    -6150    -3141       20     2727     4487     4746 
    2967     -577    -4415    -7069    -7990    -6964    -4082     -413 
    2577     4051     3460      598    -3265    -6430    -8448    -8946 
   -7402    -4441     -656     3376     5836     5667     3553      527 
   -2619    -5545    -7511    -7453    -5591    -3014     -403     1991 
    3721     3834     1894    -1032    -3624    -5281    -5649    -5220 
   -4579    -3087     -708     1386     2307     1894      850     -189 
   -1316    -2290    -2502    -1929    -1073     -336       91       67 
    -391    -1175    -2347    -3950    -5491    -6106    -5632    -4665 
   -3419    -1768      -59      958      766     -345    -1625    -2859 
   -4031    -4442    -3451    -1383      854     2462     3086     2601 
     963    -1491    -4140    -6246    -7142    -6797    -5575    -3402 
    -469     1883     2668     2488     1975      687    -1557    -3947 
   -5498    -5776    -5049    -3893    -2581    -1115      272     1097 
    1278     1028      132    -1532    -3430    -4710    -4729    -3713 
   -2547    -1521     -122     1595     2671     2431      828    -1817 
   -4552    -6230    -6484    -5576    -3807    -1574      500     1854 
    2123     1005    -1520    -4746    -7445    -8521    -7642    -5329 
   -2245     1127     3970     5258     4483     1902    -1584    -4772 
   -6712    -6825    -4873    -1490     1925     4162     4550     2963 
     132    -2884    -5548    -7114    -6596    -4356    -1686      684 
    2216     2311      841    -1614    -3904    -5034    -4630    -3046 
   -1070      992     2940     3646     2181     -693    -3568    -5765 
   -6890    -6569    -4788    -1699     1983     4584     4704     2674 
     -45    -2868    -6156    -9178   -10002    -7754    -3720      112 
    3021     5305     6447     5313     2181    -1668    -5657    -8941 
  -10064    -8706    -5594    -1576     2562     5769     6521     4677 
    1719    -1756    -5702    -8854    -9869    -8630    -5749    -2263 
     938     3163     3030      364    -2529    -4074    -4729    -4649 
   -3493    -1555      529     1810     1378     -800    -3730    -5894 
   -6604    -5823    -3391       24     3194     5255     5333     3153 
    -135    -3381    -6255    -7935    -7500    -5289    -2247      876 
    3268     3919     2592      490    -1490    -3593    -5265    -5656 
   -5161    -3819    -1451      792     2052     2211     1169     -351 
   -1702    -3098    -4401    -5043    -4567    -2824     -521     1096 
    1287      153    -1551    -3219    -4776    -5675    -4903    -2548 
      21     1780     2675     2647     1186    -1579    -4236    -5763 
   -6358    -5832    -3724     -915     1098     1559      426    -1512 
   -3017    -3754    -4000    -3366    -1545      650     1965     1759 
     292    -1692    -3460    -4672    -5171    -4409    -2261       63 
    1171      958      209     -733    -2070    -3732    -4889    -4573 
   -2852     -545     1615     2728     2015       -2    -2124    -4063 
   -5753    -6446    -5679    -3800    -1464      548     1340      625 
    -888    -2596    -4288    -5255    -4920    -3677    -2025      -66 
    1811     2786     2261      369    -2000    -3676    -3935    -3026 
   -1922    -1140     -184     1062     1525      550    -1233    -3025 
   -4369    -4930    -4592    -3480    -2027    -1116    -1225    -1744 
   -1976    -2008    -2091    -2166    -2039    -1432     -337      635 
     810       17    -1412    -2876    -3757    -3681    -2909    -2106 
   -1501     -807      108      793      557     -541    -1664    -2301 
   -2567    -2512    -1925     -915     -132       -5     -160     -184 
    -513    -1784    -3476    -4163    -3230    -1575     -571     -692 
   -1259    -1536    -1738    -2631    -4220    -5362    -5049    -3454 
   -1525      -67      669      753       62    -1549    -3483    -4602 
   -4428    -3456    -2479    -1954    -1687    -1219     -502        1 
    -180     -946    -1674    -2034    -2428    -3288    -4145    -3967 
