Origin Time       2024/04/02 04:24:00
Lat.              40.133
Long.             141.712
Depth. (km)       71
Mag.              6.0
Station Code      KSRH04
Station Lat.      43.2139
Station Long.     144.6804
Station Height(m) -210
Record Time       2024/04/02 04:25:36
Sampling Freq(Hz) 100Hz
Duration Time(s)  153
Dir.              1
Scale Factor      3923(gal)/8224838
Max. Acc. (gal)   1.563
Last Correction   2024/04/02 04:25:36
Memo.             
[...]
   24200    24264    24255    24206    24208    24135    24019    24092 
   24275    24321    24277    24240    24109    23963    23981    24011 
   23932    23973    24154    24259    24301    24295    24214    24246 
   24316    24170    24055    24179    24223    24059    23926    23904 
   23953    24067    24150    24125    24063    24001    23949    23986 
   24074    24108    24186    24304    24259    24213    24379    24439 
   24248    24190    24277    24217    24155    24144    23904    23710 
   23920    24078    23963    24035    24271    24277    24143    24104 
   24128    24166    24183    24121    24028    24004    24077    24241 
   24402    24370    24187    24115    24166    24205    24252    24258 
   24154    24115    24151    24070    23971    23992    24012    24067 
   24246    24328    24277    24341    24443    24336    24111    24025 
   24098    24187    24275    24322    24182    23986    23984    24075 
   24128    24221    24248    24090    23978    23980    23884    23826 
   23980    24065    24017    24127    24266    24194    24133    24214 
   24229    24132    24052    24044    24040    23958    23896    23959 
   24035    24079    24152    24178    24115    24058    24031    24007 
   24001    24009    24000    23988    23981    23985    24047    24160 
   24295    24405    24358    24208    24170    24219    24228    24201 
   24175    24275    24472    24435    24174    24142    24271    24129 
   23951    24105    24220    24086    24090    24186    24070    23985 
   24067    24104    24158    24267    24312    24324    24229    23992 
   23884    23961    24050    24144    24154    23997    23927    24044 
   24129    24165    24209    24136    24016    24071    24150    24081 
   24086    24198    24162    24132    24256    24217    24023    24065 
   24294    24440    24456    24352    24213    24181    24144    24040 
   24111    24286    24227    24143    24268    24214    23944    23946 
   24111    24085    24038    24063    24034    24051    24084    23962 
   23947    24152    24166    23982    24023    24192    24210    24239 
   24298    24178    24059    24139    24202    24146    24084    23997 
   23899    23954    24147    24244    24121    23919    23877    23977 
   23967    23904    24023    24167    24173    24219    24297    24263 
   24241    24256    24193    24196    24283    24212    24115    24181 
   24150    24043    24163    24273    24173    24250    24459    24306 
   24000    24032    24209    24200    24117    24069    24008    23962 
   23955    24000    24093    24133    24093    24078    24105    24081 
   23982    23954    24061    24138    24132    24125    24085    24039 
   24127    24274    24320    24348    24417    24354    24127    23885 
   23751    23805    23923    23943    23992    24117    24074    23958 
   24104    24273    24179    24096    24074    23931    23915    24079 
   24050    23922    23985    24065    24143    24355    24414    24277 
   24282    24275    24078    24062    24213    24175    24156    24317 
   24306    24181    24239    24244    24085    24024    24075    24158 
   24264    24277    24219    24204    24132    24013    24046    24219 
   24352    24378    24322    24275    24279    24193    23970    23846 
   23917    24066    24235    24348    24324    24193    23993    23836 
   23849    23899    23859    23900    24046    24125    24185    24258 
   24162    23980    23982    24089    24116    24148    24208    24135 
   24001    24009    24081    24128    24267    24476    24552    24425 
   24233    24127    24106    24084    24015    23946    23957    24000 
   23967    23953    24051    24074    24004    24129    24306    24187 
   24055    24108    23974    23755    23951    24220    24047    23892 
   24127    24278    24220    24320    24449    24327    24147    24102 
   24092    24109    24198    24237    24217    24233    24193    24081 
   24062    24061    23936    23857    23873    23846    23908    24088 
   24048    23884    24004    24225    24266    24337    24451    24383 
   24278    24204    24027    23978    24160    24175    24023    24111 
   24339    24340    24177    24113    24171    24197    24174    24201 
   24171    23963    23812    23843    23834    23827    24038    24243 
   24246    24316    24511    24513    24349    24264    24196    24140 
   24178    24138    24027    24084    24169    24112    24101    24090 
   23881    23741    23818    23811    23769    23900    23978    23944 
   24043    24233    24286    24208    24236    24391    24394    24241 
   24224    24383    24507    24448    24295    24274    24354    24275 
   24088    24019    24021    24032    24170    24321    24278    24143 
   24046    23951    23936    24067    24192    24208    24204    24273 
   24317    24135    23853    23765    23772    23785    24000    24263 
   24309    24266    24254    24223    24159    24073    24055    24171 
   24287    24282    24254    24277    24252    24133    23986    23890 
   23916    24030    24109    24119    24160    24268    24273    24096 
   23919    23805    23768    23950    24197    24241    24239    24247 
   24108    24044    24217    24309    24182    24063    24044    24036 
   24027    24066    24090    24001    23949    24052    24079    23997 
   24112    24386    24551    24628    24598    24345    24112    24085 
   24075    24074    24098    23927    23782    24036    24283    24169 
   24165    24343    24169    23920    24165    24452    24351    24255 
   24224    23958    23788    24004    24179    24112    24057    24019 
   23958    24008    24079    24082    24133    24166    24148    24216 
   24217    24074    24109    24266    24209    24156    24281    24202 
   23966    24021    24189    24119    24052    24135    24152    24174 
   24258    24177    24012    24001    24043    24043    24057    24035 
   24027    24067    24004    23963    24165    24378    24379    24254 
   24105    24073    24101    23959    23855    24012    24111    24101 
   24267    24385    24264    24247    24354    24290    24143    24042 
   23900    23828    23928    24031    24139    24297    24277    24125 
   24154    24260    24210    24079    24013    24074    24155    24036 
   23847    23905    24059    24081    24173    24360    24416    24387 
   24295    24050    23859    23880    23951    23988    24001    23962 
   23977    24160    24341    24332    24266    24279    24305    24285 
   24200    24071    24015    24117    24246    24170    24040    24140 
   24258    24171    24116    24186    24233    24278    24366    24397 
   24324    24231    24202    24144    23982    23985    24252    24274 
   23853    23656    23951    24125    24046    24135    24237    24066 
   23935    24084    24198    24024    23863    23954    23958    23807 
   23955    24270    24224    24067    24138    24101    23951    24097 
   24321    24271    24190    24248    24304    24290    24159    24021 
   24139    24318    24231    24136    24212    24131    23872    23747 
   23792    23920    24090    24156    24075    24050    24201    24363 
   24320    24167    24139    24155    24028    23928    24024    24119 
   24059    23977    23976    24086    24309    24494    24470    24255 
   24067    24139    24328    24289    24143    24260    24470    24401 
   24348    24638    24742    24344    24044    24046    23989    23950 
   24025    23936    23787    23835    23892    23885    23957    23947 
   23915    24181    24435    24248    23998    23970    23838    23719 
   23981    24285    24271    24233    24308    24270    24229    24274 
   24075    23809    23963    24170    24059    24059    24217    24175 
   24163    24340    24295    24062    24004    23931    23743    23823 
   24089    24159    24179    24289    24217    23982    23923    24065 
   24158    24052    23862    23849    23942    23900    23909    24054 
   23998    23904    24198    24524    24432    24279    24359    24362 
   24223    24267    24410    24297    24092    24140    24239    24143 
   24065    24032    23895    23904    24105    24086    23953    24017 
   24052    24081    24394    24551    24189    23924    23949    23836 
   23890    24192    24085    23911    24274    24444    24125    24048 
   24058    23830    23897    24101    23897    23719    23854    24025 
   24278    24416    24152    24019    24179    24065    23944    24294 
   24530    24359    24210    24052    23839    23872    23994    24044 
   24197    24241    24062    24013    24055    24039    24171    24348 
   24359    24324    24187    23924    23859    23985    24088    24335 
   24646    24629    24448    24356    24278    24406    24563    24194 
   23831    24100    24243    23962    24005    24144    23872    23818 
   24205    24362    24273    24298    24233    24025    24021    24155 
   24129    24074    24173    24273    24321    24416    24337    24013 
   24016    24490    24668    24306    23969    23788    23672    23878 
   24263    24309    24020    23664    23411    23538    23907    24025 
   24054    24251    24258    24167    24291    24196    23916    24093 
   24310    24094    24102    24341    24150    23936    24093    24171 
   24287    24549    24364    24098    24497    24835    24625    24597 
   24709    24456    24310    24459    24347    24015    23766    23481 
   23257    23438    23901    24147    23931    23573    23514    23695 
   23803    23865    23998    24094    24082    23961    23769    23828 
   24189    24383    24414    24669    24960    25043    25045    24808 
   24247    23862    23795    23739    23868    24278    24491    24287 
   23876    23575    23695    24011    23993    23792    23874    24063 
   24066    24066    24098    23920    23626    23521    23535    23469 
   23566    24085    24740    25197    25394    25284    24989    24773 
   24551    24136    23818    23870    24055    24159    24223    24146 
   24027    24192    24430    24433    24383    24290    24138    24340 
   24802    24829    24430    24079    23696    23286    23248    23494 
   23761    24094    24278    24194    24286    24551    24536    24430 
   24425    24121    23697    23764    24044    24009    23907    23962 
   23896    23720    23630    23580    23778    24329    24648    24501 
   24363    24171    23564    23078    23263    23593    23715    23997 
   24375    24560    24642    24482    24070    24136    24775    24894 
   24313    24108    24355    24389    24455    24621    24283    23769 
   23674    23643    23599    23892    24106    23957    23943    23957 
   23535    23230    23589    24057    24283    24719    25177    25033 
   24637    24449    24187    23980    24294    24761    24860    24939 
   25235    25170    24645    24314    24193    23880    23758    24140 
   24376    24003    23323    22694    22477    22928    23576    23905 
   24275    24941    25215    24759    24156    23568    22870    22701 
   23307    23753    23697    23863    24363    24696    24840    24846 
   24553    24159    23940    23809    23772    23927    23994    23789 
   23662    23901    24359    24768    25061    25259    25104    24525 
   24165    24300    24343    24138    24001    23831    23552    23383 
   23480    24058    24760    24540    23627    23334    23589    23812 
   24397    24916    24605    24440    24884    24821    24444    24564 
   24375    23554    23283    23684    23827    23862    24312    24802 
   25076    25164    24679    23754    23232    23302    23538    23681 
   23607    23359    23206    23407    23930    24324    24278    24004 
   23720    23666    24240    25114    25394    25124    24776    23922 
   22485    21762    22519    23880    24750    24848    24489    24398 
   24900    25205    24769    24179    23878    23765    23889    24219 
   24420    24270    23939    23938    24422    24831    24891    24918 
   24943    24807    24553    24198    23934    23909    23635    22977 
   22746    23222    23919    24549    24749    24271    23824    24062 
   24467    24521    24401    24016    23398    23237    23552    23670 
   23602    23726    23994    24259    24579    24835    24784    24719 
   25099    25408    24769    23716    23363    23355    23198    23500 
   24016    24009    24250    25100    25145    23935    22859    22759 
   23301    23947    24144    23818    23738    24313    24838    24672 
   24295    24376    24595    24626    24718    24561    24013    24019 
   24649    24804    24544    24499    24128    23313    23121    23647 
   23962    23961    24075    24287    24503    24727    24904    25110 
   25203    24753    24042    23828    23986    23912    23661    23519 
   23471    23592    23863    23801    23457    23699    24572    25024 
   24696    24192    23762    23427    23386    23299    22908    22789 
   23086    23418    23939    24691    25272    25528    25504    25339 
   25166    24831    24290    23901    23924    24125    23997    23464 
   23238    23656    23799    23229    22952    23350    23768    24244 
   24783    24717    24613    25452    26177    25512    24224    23565 
   23878    24835    25431    24946    24043    23445    22775    21926 
   21636    22161    23128    24291    25398    25999    25780    24904 
   24009    23444    23109    23353    24283    24989    25297    25712 
   25344    23789    23025    23746    24059    23642    23666    23742 
   23484    23622    23828    23643    23909    24298    23554    22611 
   22770    23409    24456    26335    27403    26561    25582    25132 
   23681    22100    22747    24435    24738    24472    24822    24722 
   23849    23307    23230    23265    23454    23506    23453    23780 
   24152    24181    24260    24358    24287    24594    25024    24630 
   24081    24552    25294    25182    24509    23600    22373    21624 
   21994    22727    23421    24624    25983    26461    25960    25127 
   24412    23750    22990    22770    23726    24996    25359    24719 
   23537    22599    22837    24040    25131    25717    25753    25011 
   23931    23198    22704    22437    22889    23803    24231    24021 
   23994    24520    25051    25240    25366    25343    24827    24236 
   24036    23982    24020    24339    24692    24858    24642    23793 
   22874    22624    22661    22599    23017    23957    24475    24376 
   24268    24344    24575    24911    24854    24220    23742    23901 
   24167    24098    23899    23579    23004    22470    22388    23008 
   24196    25193    25591    25857    26030    25501    24451    23652 
   23248    23160    23701    24690    25095    24464    23660    23525 
   23792    23845    23820    24177    24695    24788    24667    24941 
   25083    24414    23889    24266    24553    24139    23544    22983 
   22785    23527    24503    24624    24333    24277    24133    24012 
   24297    24615    24842    25111    24895    24227    24005    23998 
   23323    22688    22993    23232    22665    22488    23210    23855 
   24366    25193    25490    24769    24086    24025    24177    24301 
   24329    24305    24304    24143    23936    24093    24410    24367 
   24017    23749    23814    24363    25047    25142    24646    24040 
   23568    23581    23886    23668    23391    23989    24738    24957 
   25051    24761    24051    24085    24559    23965    22997    23089 
   23490    23422    23598    24135    24529    24981    25502    25542 
   25239    25104    24829    24212    23787    23457    22835    22790 
   23908    24891    24818    24325    23645    22773    22566    23008 
   23130    23315    24081    24347    23955    24381    25504    25748 
   25056    24533    24507    24634    24655    24491    24185    23792 
   23506    23633    23905    23893    24244    25281    25544    24464 
   23785    24233    24559    24387    24220    23809    23311    23546 
   24066    23903    23517    23579    23719    23711    23947    24664 
   25562    25813    24972    23958    23791    24025    23992    23998 
   24177    24146    23930    23620    23129    22859    23237    23962 
   24561    24759    24318    23507    23047    23101    23298    23807 
   24871    25313    24100    22879    23380    24165    23733    23345 
   24119    25327    26234    26427    25554    24391    24030    24043 
   23807    23784    23804    23341    23371    24397    25012    24754 
   24497    24113    23706    24561    26036    25917    24638    24094 
   23834    22896    22257    22563    23029    23388    23984    24463 
   24413    24152    23851    23345    22962    23232    24061    24964 
   25560    25628    25246    24705    24232    24077    24306    24328 
   23701    23195    23657    24416    24258    23394    23035    23558 
   24263    24571    24536    24306    23984    24031    24619    25078 
   25131    25154    24919    24336    24235    24493    23907    22829 
   22882    24108    25002    24906    24625    24730    24644    23932 
   23182    22955    23066    23141    23220    23650    24391    24833 
   24741    24555    24516    24444    24258    24001    23780    23742 
   23749    23661    23695    23827    23753    23565    23487    23512 
   23839    24448    24619    24300    24459    25122    25408    25220 
   24683    23595    22628    22793    23573    23940    24183    24590 
   24464    24000    24279    24927    24862    24555    24660    24502 
   23853    23458    23402    23321    23280    23221    23124    23481 
   24354    25073    25351    25446    25369    24841    23957    23357 
   23475    23859    23876    23716    23907    24106    23700    23284 
   23773    24591    24736    24533    24663    24842    24607    24078 
   23539    23001    22346    21936    22489    23706    24534    25095 
   25826    25871    25014    24474    24236    23404    22851    23588 
   24426    24456    24505    24678    24456    24405    24678    24641 
   24598    24815    24671    24336    24412    24502    24235    23799 
   23329    23234    23720    23963    23592    23392    23504    23396 
   23236    23301    23480    23859    24366    24715    25043    25266 
   25000    24772    25027    24899    24213    23930    23890    23680 
   24088    24868    24660    24003    24030    23780    22692    22234 
   22867    23529    24146    24933    25112    24653    24547    24804 
   24661    24097    23662    23647    23954    24366    24663    24683 
   24426    24028    23868    24252    24725    24711    24502    24463 
   24281    23742    23195    23097    23545    23990    23884    23731 
   24162    24679    24846    24880    24507    23750    23553    23758 
   23407    23085    23434    23693    23787    24152    24123    23531 
   23202    23152    23160    23572    24085    24160    24389    25261 
   25995    25920    25459    25182    25062    24915    24790    24601 
   24102    23589    23502    23487    23384    23803    24532    24781 
   24862    25030    24483    23437    23202    23630    23727    23819 
   24416    24966    25093    25031    24850    24468    24066    24028 
   24443    24705    24268    23778    23958    24097    23737    23677 
   23851    23579    23367    23518    23533    23631    23892    23695 
   23531    24084    24522    24564    24997    25381    25030    24547 
   24163    23618    23349    23373    23087    22864    23341    24042 
