Origin Time       2024/04/02 04:24:00
Lat.              40.133
Long.             141.712
Depth. (km)       71
Mag.              6.0
Station Code      KSRH04
Station Lat.      43.2139
Station Long.     144.6804
Station Height(m) 30
Record Time       2024/04/02 04:25:36
Sampling Freq(Hz) 100Hz
Duration Time(s)  153
Dir.              5
Scale Factor      7845(gal)/8223790
Max. Acc. (gal)   3.896
Last Correction   2024/04/02 04:25:36
Memo.             
[...]
    4669     4621     4588     4577     4541     4392     4249     4210 
    4283     4596     4887     4738     4391     4253     4369     4527 
    4515     4479     4540     4588     4750     4919     4710     4406 
    4392     4334     4126     4122     4290     4403     4453     4402 
    4363     4517     4630     4587     4585     4563     4467     4376 
    4383     4623     4878     4862     4637     4329     4090     4012 
    4095     4311     4519     4612     4545     4390     4340     4357 
    4402     4518     4604     4671     4731     4712     4683     4649 
    4634     4702     4687     4554     4459     4425     4430     4382 
    4263     4229     4305     4409     4492     4507     4445     4421 
    4638     4965     4976     4689     4342     4013     3943     4187 
    4430     4569     4688     4618     4311     4199     4376     4521 
    4704     4888     4711     4401     4434     4649     4645     4473 
    4369     4326     4280     4268     4320     4375     4302     4307 
    4584     4729     4715     4818     4634     4199     4197     4390 
    4241     4272     4769     5022     4789     4560     4426     4174 
    4104     4448     4625     4461     4517     4635     4402     4131 
    4114     4263     4527     4845     4899     4619     4487     4499 
    4236     4102     4394     4568     4561     4764     4969     4795 
    4588     4679     4579     4329     4378     4325     4056     4110 
    4486     4683     4545     4529     4768     4680     4176     3915 
    4118     4306     4337     4577     4858     4706     4450     4541 
    4627     4565     4669     4773     4592     4406     4380     4314 
    4337     4471     4311     4144     4360     4419     4272     4529 
    4874     4811     4588     4378     4279     4449     4634     4626 
    4460     4270     4328     4646     4959     5030     4905     4725 
    4383     4129     4257     4364     4293     4368     4472     4446 
    4502     4626     4621     4556     4536     4649     4958     5117 
    4869     4552     4446     4409     4326     4245     4102     3942 
    3959     4126     4332     4577     4745     4542     4152     4236 
    4745     4995     4692     4217     4136     4391     4477     4276 
    4071     4108     4315     4554     4777     4764     4549     4579 
    4774     4702     4514     4534     4644     4672     4649     4583 
    4571     4729     4797     4588     4465     4626     4730     4606 
    4302     3870     3747     4152     4611     4818     4737     4460 
    4364     4510     4604     4522     4387     4371     4332     4178 
    4283     4683     4892     4780     4591     4476     4457     4453 
    4387     4290     4176     4104     4216     4498     4738     4756 
    4666     4621     4423     4136     4249     4673     4858     4662 
    4228     3874     3946     4213     4425     4800     5157     5125 
    4954     4818     4437     3915     3798     4090     4268     4383 
    4622     4594     4367     4448     4706     4764     4584     4294 
    4062     4071     4314     4514     4577     4617     4607     4522 
    4430     4390     4445     4530     4490     4433     4549     4662 
    4630     4602     4718     4854     4708     4351     4199     4324 
    4436     4568     4996     5304     4916     4368     4245     4230 
    4174     4270     4396     4479     4684     4834     4688     4498 
    4356     4120     4082     4342     4450     4317     4260     4340 
    4449     4585     4777     4818     4563     4402     4403     4186 
    4039     4230     4332     4351     4588     4781     4831     4977 
    4945     4571     4349     4392     4411     4492     4671     4800 
    4849     4785     4696     4650     4476     4260     4295     4523 
    4693     4716     4569     4255     4108     4417     4708     4626 
    4652     4950     5015     4615     4087     3905     4098     4330 
    4374     4302     4442     4784     4851     4540     4255     4167 
    4093     4158     4554     4787     4417     4018     4106     4395 
    4774     5201     5174     4668     4353     4440     4387     4020 
    3867     4249     4855     5103     4869     4461     4009     3917 
    4407     4688     4490     4488     4648     4612     4629     4644 
    4382     4193     4274     4421     4645     4830     4662     4216 
    3967     4101     4367     4679     4974     4954     4695     4575 
    4579     4491     4386     4411     4503     4569     4542     4287 
    4005     4072     4309     4504     4757     4873     4737     4468 
    4186     4141     4338     4519     4703     4905     4810     4482 
    4440     4509     4301     4210     4498     4788     4684     4368 
    4263     4321     4523     4877     4949     4596     4266     4248 
    4252     4137     4233     4402     4317     4252     4482     4806 
    4901     4706     4463     4399     4503     4656     4649     4374 
    4198     4306     4325     4252     4383     4527     4340     4079 
    4232     4644     4835     4749     4629     4518     4401     4414 
    4455     4329     4202     4264     4418     4477     4487     4557 
    4464     4140     4118     4631     5100     5093     4872     4722 
    4592     4450     4305     4171     4209     4418     4658     4753 
    4513     4340     4660     4996     4901     4653     4565     4542 
    4433     4467     4779     4974     4842     4571     4380     4371 
    4306     4028     3766     3743     4128     4676     4801     4688 
    4876     5080     4814     4365     4247     4395     4457     4368 
    4213     4099     4282     4610     4657     4457     4317     4384 
    4436     4363     4473     4664     4683     4841     5071     4942 
    4544     4093     3697     3608     3832     4121     4352     4472 
    4515     4745     5039     4946     4658     4584     4630     4675 
    4675     4533     4287     4160     4295     4461     4459     4638 
    5101     5130     4599     4305     4297     4228     4329     4459 
    4213     3894     3912     4166     4446     4698     4903     5012 
    5036     4981     4649     4145     3944     3996     4018     4097 
    4314     4623     4742     4548     4506     4714     4664     4368 
    4380     4614     4573     4453     4469     4585     4912     4982 
    4698     4773     4882     4421     3975     4012     4136     4043 
    4089     4588     4833     4498     4525     4881     4810     4621 
    4600     4480     4315     4383     4498     4409     4428     4587 
    4468     4193     4176     4342     4456     4429     4183     4047 
    4428     4916     4992     4858     4735     4527     4315     4194 
    4147     4236     4428     4577     4595     4311     3788     3732 
    4380     4876     4970     5125     5169     4962     4669     4222 
    3921     4158     4579     4626     4468     4646     4926     4862 
    4716     4644     4329     3947     4059     4274     4029     4043 
    4623     4936     4820     4773     4806     4592     4263     4085 
    3990     4144     4577     4839     4850     4800     4747     4654 
    4341     4079     4307     4531     4337     4321     4745     5070 
    4953     4476     3971     3848     4101     4307     4515     4941 
    5092     4860     4774     4681     4290     4056     4294     4660 
    4881     4982     4912     4594     4191     4062     4137     4063 
    4054     4291     4414     4325     4291     4430     4564     4621 
    4641     4459     4220     4260     4426     4533     4521     4357 
    4210     4218     4477     4688     4243     3688     4135     5077 
    5306     4922     4615     4490     4538     4758     4800     4838 
    5143     5189     5077     5104     4633     3827     3545     3708 
    4060     4652     4868     4365     4271     4866     4989     4800 
    4908     4749     4433     4496     4527     4428     4367     4089 
    3947     4309     4714     4999     5088     4633     4087     4095 
    4320     4421     4688     4936     4656     4145     3964     4244 
    4662     4665     4291     3921     3800     4008     4002     3611 
    3495     3925     4726     5333     5201     4668     4229     4066 
    4338     4760     4801     4403     3924     3802     4176     4808 
    5308     5501     5454     5004     4149     3419     3277     3879 
    4874     5571     5655     5197     4538     4018     3727     3786 
    4159     4569     4880     4847     4401     4203     4519     4822 
    5040     5108     4714     4405     4638     4923     4923     4855 
    5120     5675     5881     5564     4970     4179     3565     3476 
    3844     4567     5148     5112     4766     4430     4066     3746 
    3677     3896     3979     3672     3420     3635     4062     4179 
    3925     3650     3759     4375     4865     4770     4472     4005 
    3559     4094     5221     5566     5194     4992     5317     5954 
    6357     6072     4993     3747     3249     3526     3802     3815 
    4102     4544     4521     4436     4750     4854     4398     4023 
    3946     3800     3908     4627     5242     5040     4571     4525 
    4691     4880     4788     4094     3591     3846     4376     4924 
    5476     5603     5096     4540     4155     3600     3235     3522 
    4276     5179     5819     5767     5049     4163     3715     3971 
    4411     4423     4365     4590     4662     4363     3935     3493 
    3217     3541     4402     5069     5362     5738     5984     5518 
    4807     4885     5374     5000     3939     3099     2643     2709 
    3449     4280     4519     4496     4918     5590     6269     6955 
    6604     4739     3053     2806     3329     3608     3505     3707 
    4594     5717     6524     6482     5308     3802     3059     3086 
    3312     3624     4122     4541     4826     5455     6222     6185 
    5155     3847     3006     3177     4045     4407     4041     3912 
    4303     4652     4503     4018     3800     3885     3851     3987 
    4648     5217     5208     5038     5130     5427     5796     5782 
    4793     3678     3743     4461     4761     4668     4372     3819 
    3462     3649     3674     3339     3607     4315     4405     4333 
    5000     5751     5740     5377     5286     5341     5247     4864 
    4079     3343     3307     3869     4463     4800     5192     5638 
    5425     4777     4608     4502     3766     3040     2914     3437 
    4774     5791     5081     3982     4151     4649     4425     3990 
    4058     4766     5686     6007     5390     4464     3744     3044 
    2417     2396     3447     5386     7045     7568     7404     6902 
    5944     4785     3757     3265     3377     3649     4135     4641 
    4320     3092     2025     2255     3505     4642     5429     5872 
    5603     5135     5260     5348     4850     4433     4217     3848 
    3199     2111     1300     1821     3388     4804     5339     5165 
    4992     5499     6228     6106     5583     5645     5821     5332 
    4546     4251     4590     5144     5355     5055     4754     4592 
    4054     3203     2573     2496     2875     3246     3807     4792 
    5333     4985     4509     4534     4762     4607     4283     4255 
    4356     4577     5057     5381     5235     4739     3989     3497 
    3947     4504     3963     3207     3485     4236     4909     5946 
    6889     6671     5549     4411     3426     2500     1979     2253 
    3019     3854     4955     6218     6793     6535     6335     6357 
    5706     4144     2697     2324     2872     3759     4658     5027 
    4706     4644     5151     5466     5335     4807     4293     4615 
    5004     4005     2637     2685     3847     5223     6388     6760 
    6327     5788     5325     4610     3828     3568     3846     4189 
    4433     4650     4374     3283     2631     3573     4861     5200 
    5610     6488     6203     4375     2535     1818     2246     3067 
    3481     3462     3577     4074     4693     5379     5937     5479 
    4035     2983     2745     2523     2212     2683     4522     6879 
    8181     8093     6983     4789     2655     2249     3057     4172 
    5780     7117     7408     7304     6779     5231     3491     2609 
    2196     1885     2532     4079     5232     5923     6384     5589 
    3446     1730     1714     2859     3933     4399     4635     4972 
    5178     5161     5219     5468     5611     5476     5305     5123 
    4680     4220     4264     4927     6068     6961     6432     4877 
    3835     3281     2646     2666     3771     5174     6053     5942 
    4723     3067     2241     3061     4769     5744     5609     5123 
    4648     4078     3489     3173     3257     3790     4818     5778 
    5900     5308     4538     3991     4179     4892     5313     5258 
    4702     3537     2444     2579     3981     5485     6246     5999 
    5028     4048     3103     2438     2934     4230     5063     5115 
    4687     3948     3589     4283     5290     5698     5823     5975 
    5594     4284     2544     1637     2685     4955     6444     6601 
    6130     5201     3901     2817     2308     2485     3439     4527 
    4742     4268     4298     5071     5491     5159     4989     5086 
    4568     3743     3569     3782     3881     4126     4604     4927 
    5155     5881     6745     6461     4737     2581     1229     1317 
    2578     4160     5486     6921     8253     8406     7754     6895 
    5202     2994     1244      402     1019     2751     4558     6135 
    6835     6183     5162     4513     4087     3813     3843     4483 
    5368     5463     4903     4711     4661     4125     3500     2860 
    2215     2462     3491     4293     4812     5186     5258     5254 
    5356     5220     4606     4052     4063     4321     4715     5632 
    6623     6582     5335     3977     3619     3874     3696     3426 
    3597     3728     3821     4121     4276     4425     4914     5416 
    5775     5948     5560     5044     4889     4473     3790     3530 
    3654     3771     3631     3468     3584     3434     2848     2673 
    3353     4716     6257     7160     6880     5529     3936     3046 
    2884     2943     3339     4118     4571     4774     5578     6486 
    6421     5907     5620     5324     5347     5697     5557     5001 
    4568     4290     4006     3582     3435     4163     5136     5487 
    5200     4220     3038     2785     3308     3819     4363     4558 
    4028     3793     4054     3997     3977     4407     5108     6002 
    6477     6064     5308     4536     3582     2749     2745     3765 
    5084     5705     5138     4035     3538     3531     3577     4055 
    4629     4644     4336     3794     2968     2569     3321     4823 
    6151     7064     7167     5722     3635     2619     2713     3157 
    3902     4926     5904     6579     6789     6647     6189     5297 
    4437     3964     3464     2961     2891     2922     2774     2960 
    3620     4270     4743     5262     5657     5540     5440     5933 
    6069     4980     3403     2365     2168     2826     4094     5377 
    6328     6926     7015     6285     4726     3073     2401     3019 
    4141     4935     5193     4905     4253     3653     3373     3366 
    3439     3736     4249     4558     4572     4245     3609     3420 
    4174     5192     5833     6241     6231     5354     4357     4531 
    5406     5601     5186     4629     3973     3485     2925     2500 
    3431     5301     6304     6084     5383     4345     3086     2288 
    2170     2548     3514     4962     6556     7807     7808     6288 
    4571     4048     4422     4725     4557     3933     3450     3365 
    2947     2466     2817     3577     4426     5556     6524     6840 
    6362     5285     4217     3969     4608     4996     4588     3921 
    3400     3373     3788     4099     4402     5017     5383     4924 
    4218     3951     4044     4491     5179     5508     5526     5632 
    5478     4855     4233     3952     3762     3357     2933     2697 
    2767     3256     3932     4612     4909     4406     3974     4442 
    5217     5832     6305     6355     5644     4415     3655     3642 
    3585     3530     4125     5173     6139     6562     5698     3535 
    1730     1744     2998     4236     5077     5626     5892     5832 
    5520     5063     4657     4490     4537     4785     4838     4170 
    3164     2570     2847     3855     4568     4657     4847     4974 
    4372     3589     3605     4382     5134     5444     5462     5343 
    5128     4947     4934     4866     4378     3790     3767     4348 
    5146     5724     5706     5231     4726     4081     3222     2879 
    3375     4059     4610     5196     5431     4900     4133     3566 
    3044     2822     3253     3867     3932     3565     3501     3854 
    4132     4221     4418     4927     5709     6380     6458     6234 
    6426     6758     6562     5894     4688     3033     1934     1971 
    2940     4457     5668     6095     5960     5248     4394     4311 
    4872     5038     4514     4044     3970     3770     3260     2992 
    3181     3430     3769     4313     4558     4413     4332     4230 
    4149     4861     6161     6745     6542     6409     6189     5451 
    4599     4101     3875     3786     3962     4283     4379     4191 
    3977     3888     3832     3983     4645     5259     5036     4337 
    3973     3924     4074     4703     5186     4922     4611     4325 
    3627     3204     3669     4475     4689     4333     4164     4095 
    3905     4168     4854     5375     5655     5607     5038     4025 
    2991     2606     3118     4176     5185     5508     5319     5503 
    5875     5286     3924     3115     3215     3685     4036     3958 
    3728     3653     3582     3908     4889     5730     6092     6328 
    6147     5387     4702     4255     3792     3427     3240     3464 
    4307     5001     4808     4149     3550     3145     3160     3626 
    4401     5414     6161     6104     5506     4745     4012     3838 
    4201     4482     4783     5238     5263     4662     3831     3200 
    3248     4108     5124     5464     4980     4345     4359     4888 
    5255     5279     4803     3676     2691     2646     3227     4110 
    5455     6806     7260     6704     5649     4398     3272     2826 
    3076     3412     3757     4579     5571     5894     5483     4855 
    4483     4585     4715     4426     4071     4012     4006     3793 
    3653     4153     5120     5466     4672     3437     2516     2134 
    2492     3694     5254     6473     7115     7225     6683     5540 
    4379     3673     3342     3453     4005     4299     4074     3920 
    3997     4152     4695     5606     6064     5865     5645     5321 
    4460     3504     3203     3554     4027     4395     4529     4360 
    4340     4642     4710     4168     3326     3049     3775     4761 
    5224     5154     4819     4523     4564     5059     5813     6349 
    6124     4997     3630     2998     3319     4004     4498     4552 
    4306     4151     4136     4087     3991     4102     4614     5371 
    6145     6409     5624     4198     2974     2332     2250     2639 
    3599     4764     5227     4988     4814     4891     5032     5289 
