Origin Time       2024/04/02 04:24:00
Lat.              40.133
Long.             141.712
Depth. (km)       71
Mag.              6.0
Station Code      MYGH07
Station Lat.      38.1802
Station Long.     140.6405
Station Height(m) 186
Record Time       2024/04/02 04:25:12
Sampling Freq(Hz) 100Hz
Duration Time(s)  214
Dir.              5
Scale Factor      7845(gal)/8223790
Max. Acc. (gal)   13.165
Last Correction   2024/04/02 04:25:12
Memo.             
[...]
    1329     2042     2751     3130     3119     2605     1572      290 
    -796    -1150     -581      506     1706     2787     3547     3894 
    3715     2884     1539      103     -915    -1225     -653      673 
    2026     2840     3160     3065     2538     1586      490      -76 
     372     1625     2909     3470     3261     2760     2262     1823 
    1583     1668     1935     2076     1984     1795     1768     2073 
    2303     1883     1035      407      342      884     1661     2157 
    2255     2139     2157     2590     3150     3465     3611     3616 
    3300     2528     1395      463      292      982     2239     3504 
    4243     4257     3576     2207      361    -1113    -1390     -429 
    1281     2940     3801     3809     3329     2636     1912     1247 
     773      629      776     1289     2246     3152     3362     2934 
    2342     1756     1223     1129     1615     2080     2083     2012 
    2266     2697     3003     2953     2340     1301      452      264 
     684     1487     2355     2906     3014     2681     1814      631 
    -238     -423      -13      788     1614     2057     2161     2263 
    2409     2415     2296     2035     1418      575      -18        2 
     676     1553     2253     2836     3084     2674     1798      820 
     201      402     1331     2446     3230     3350     2775     1737 
     724      325      652     1198     1539     1695     1750     1776 
    1810     1611     1152      842      915     1460     2415     3156 
    3079     2439     2035     2328     3098     3732     3651     2833 
    1840     1057      688     1058     1968     2772     3153     3019 
    2489     1973     1530      980      801     1606     3026     4122 
    4297     3429     1858      368     -221      437     2006     3731 
    4901     5167     4591     3441     2115     1231     1213     1769 
    2334     2554     2234     1610     1250     1310     1564     1687 
    1339      724      545     1143     2296     3450     4002     3797 
    3145     2209      895     -500    -1190     -715      649     2380 
    3886     4440     3928     2890     1445     -349    -1655    -1647 
    -332     1688     3510     4330     4062     3198     2066      792 
    -255     -757     -772     -314      756     2187     3402     4051 
    3827     2538      835     -190     -245      287     1213     2278 
    2976     3273     3511     3674     3441     2556     1198       98 
     -86      650     1737     2466     2512     2074     1536     1105 
     739      500      581      824     1115     1827     3041     4280 
    4969     4515     2826      737     -611     -629      399     1804 
    3042     3721     3665     2901     1748      865      560      607 
     950     1644     2369     2893     3283     3333     2841     2141 
    1614     1277      969      724      897     1552     2257     2852 
    3418     3547     2775     1480      540      337      715     1503 
    2475     3088     2982     2261      970     -743    -2045    -2080 
    -847     1098     3056     4332     4710     4410     3677     2895 
    2439     2181     1864     1665     1831     2214     2633     3187 
    3731     3753     3149     2351     1606      915      311     -178 
    -440     -198      710     2047     3181     3531     2978     1817 
     626      -14       20      517     1205     1737     1941     1858 
    1498     1065      874      958     1279     1858     2542     3095 
    3342     3281     3040     2509     1540      480     -106      -59 
     484     1528     2951     4212     4986     5262     4811     3639 
    2191      816      -59       60      981     1944     2542     2790 
    2741     2538     2317     2061     1757     1390      957      745 
    1042     1744     2473     2805     2704     2528     2290     1846 
    1512     1602     1965     2246     2211     1980     1927     2259 
    2654     2582     2042     1512     1336     1460     1614     1775 
    2043     2212     2180     2209     2216     1791     1070      630 
     745     1424     2492     3461     4050     4230     3792     2808 
    1736      881      429      376      600     1128     1718     1883 
    1491      812      299      218      328      361      372      390 
     480      963     1790     2430     2659     2632     2497     2376 
    2137     1497      780      712     1345     2043     2408     2555 
    2631     2629     2558     2303     1706      980      604      720 
    1208     2030     2974     3805     4471     4517     3504     1975 
     685     -157     -373      284     1745     3541     4891     5119 
    4155     2578     1193      541      679     1485     2830     4118 
    4419     3443     1773      314     -274      121     1081     1902 
    2292     2488     2527     2358     2200     2043     1796     1679 
    1827     2205     2821     3492     3828     3580     2798     1915 
    1483     1528     1733     1995     2193     2259     2300     2185 
    1826     1495     1414     1613     1946     2076     1910     1703 
    1587     1436     1192      923      639      330      103      210 
     915     2041     3109     3848     3904     2882     1077     -722 
   -1741    -1526     -353     1092     2253     2790     2740     2377 
    1738      861       79     -311     -125      766     2054     3134 
    3612     3300     2430     1718     1539     1645     1729     1748 
    1911     2258     2485     2466     2227     1647      936      662 
     892     1196     1358     1466     1786     2446     3036     3122 
    2705     1807      633     -309     -826    -1005     -788     -184 
     481      889      976      747      287     -199     -515     -306 
     675     1944     2979     3898     4672     5012     4939     4540 
    3796     2821     1953     1598     1907     2673     3549     4174 
    4278     3727     2435      711     -454     -278      989     2690 
    4272     5040     4710     3777     2691     1543      567      120 
     241      785     1709     2790     3550     3792     3624     3123 
    2492     2003     1533      851      248      271     1001     2062 
    3090     3569     3067     2008     1040      414      523     1472 
    2547     3165     3430     3576     3673     3608     3086     2080 
    1132      757      966     1559     2223     2695     3092     3542 
    3937     4137     4008     3589     3034     2319     1636     1498 
    2107     3100     3836     3777     2886     1659      633       -5 
    -241      -33      525     1200     1849     2313     2296     1733 
     872     -175    -1215    -1580     -730     1009     2728     3794 
    3939     3019     1487      203     -491     -598      -28     1005 
    2069     2948     3499     3514     2887     1675      322     -369 
      22     1142     2255     2849     2871     2527     2226     2459 
    3092     3360     2975     2280     1556      999      936     1574 
    2662     3775     4762     5359     5078     3912     2166       68 
   -1826    -2782    -2550    -1441       -4     1156     1630     1441 
     868      252      -10      125      321      561     1140     2014 
    2810     3246     3180     2605     1780     1059      710      913 
    1539     2133     2392     2339     2052     1605     1182      838 
     484      276      461     1043     1804     2388     2436     1869 
    1112      793     1043     1629     2327     2705     2421     1807 
    1489     1734     2523     3573     4179     3728     2353      903 
     421     1340     3119     4812     5709     5474     4220     2377 
     514     -803    -1310     -935      284     1954     3519     4523 
    4725     4287     3565     2960     2805     2998     3206     3248 
    2995     2573     2238     1861     1266      619       82     -148 
     172      818     1328     1642     1912     2138     2200     2050 
    1819     1602     1456     1575     2041     2709     3354     3588 
    3171     2409     1734     1321     1269     1576     2049     2326 
    2111     1757     1984     2685     2991     2361     1090       49 
    -299     -197      264      953     1364     1448     1462     1254 
     886      943     1605     2361     2841     3188     3684     4450 
    5242     5462     4637     3010     1497      666      405      595 
    1096     1726     2511     3157     3233     2829     2108     1266 
     994     1772     3349     5314     7078     7728     6844     4764 
    2205      251     -328      144      989     1861     2601     3194 
    3483     3075     1993      758     -179     -560     -311      421 
    1582     3067     4183     4153     2955      947    -1526    -3915 
   -5705    -6550    -5942    -3797     -957     1564     3005     2782 
    1071    -1121    -2833    -3466    -2843    -1340      473     2127 
    3165     3339     2731     1520      -98    -1732    -2890    -3265 
   -2710    -1287      573     2440     4125     5371     5879     5467 
    4113     2362     1074      525      594     1215     2115     2980 
    3462     3154     2147      853     -371     -847      -72     1599 
    3666     5776     7133     6849     4942     2525      918      650 
    1398     2597     3900     5005     5494     5173     4244     3164 
    2563     3019     4573     6708     8901    10638    11218    10299 
    8151     5325     2455       74    -1428    -1775    -1148     -109 
     911     1579     1490      568     -702    -1651    -1823    -1111 
     216     1651     2728     3269     3472     3759     4529     5726 
    6772     7141     6637     5395     3954     2920     2424     2030 
    1374      676      156     -407     -949    -1012     -626      -28 
     623      714      -43     -970    -1470    -1375     -454     1327 
    3465     5366     6601     6637     5167     2560     -143    -1814 
   -2011     -784     1472     3581     4230     2943      214    -2727 
   -4382    -3474      217     5379     9987    12193    10999     6797 
    1111    -4176    -7766    -9026    -7456    -3453     1271     4907 
    6191     4711     1478    -1711    -3604    -4060    -3639    -3079 
   -3223    -4479    -6070    -6448    -4367      297     5956    10034 
   11256     9917     6330     1540    -2443    -4545    -4171     -934 
    3605     7080     8390     7227     3623    -1382    -5710    -7678 
   -6858    -3709      326     3514     5460     6845     7717     7573 
    6735     5888     4990     4186     3928     3619     2548     1331 
     824      945     1192     1678     2694     3802     4806     6265 
    7967     8514     7153     4712     1988     -963    -3338    -3877 
   -2524       58     3250     5871     6320     4267     1513        9 
     -36      966     3022     5586     7198     6879     5266     3424 
    1296    -1124    -2596    -2416    -1323       60     1495     2365 
    2104     1031      338      984     2659     4437     5811     6605 
    6581     5675     4364     3468     3375     4013     5259     6412 
    6419     5080     2682     -371    -3044    -4322    -3861    -2076 
    -151     1075     1702     1942     1748      958     -422    -1834 
   -2685    -2943    -2528    -1046     1310     3510     4795     5236 
    5089     4580     3855     2712     1267      265      102      510 
    1136     1467      896     -560    -2409    -4024    -4599    -3840 
   -1908      992     4050     6478     8010     7863     5701     2770 
     396    -1125    -1956    -2203    -2339    -3184    -4521    -4973 
   -3616     -730     2343     4383     5082     4151     1914      238 
     430     2096     4600     7210     8669     8421     7096     5255 
    3159     1837     2403     4303     5996     6453     5003     1745 
   -1439    -2261     -151     3762     8054    11686    13467    12344 
    8854     4409      -43    -2983    -2597      777     4880     7983 
    9239     7761     3807     -467    -3365    -4972    -5594    -5109 
   -3838    -2430     -931      908     2905     4843     6597     7535 
    6841     4459     1134    -2259    -4824    -5552    -4148    -1421 
    1432     3403     4199     4410     4423     4012     3138     2003 
     641    -1000    -2760    -3952    -3739    -2027      410     2573 
    3680     3233     1028    -2656    -6890   -10180   -10943    -8494 
   -3554     2201     6647     8168     6833     4048     1317     -243 
      70     2060     4630     6548     6841     5271     2714      569 
     -33     1401     4430     7655     9378     8463     5124     1296 
    -704      -37     2774     6650    10045    11572    10473     6679 
    1512    -2781    -4876    -4538    -1817     2324     5902     7392 
    6393     3510      244    -2254    -3827    -4295    -3392    -1256 
    1721     4507     5624     4610     2290     -175    -1738    -1679 
     -16     2616     5466     7695     8307     6902     3989      372 
   -2844    -4499    -4515    -3753    -2735    -1680    -1003     -811 
    -913    -1366    -2062    -2539    -2718    -2679    -2069     -838 
     631     2218     3748     4827     5279     5059     4282     3225 
    2270     2214     3258     4245     4271     3595     2755     2151 
    2054     2316     2489     2691     3381     3994     3674     2575 
    1038     -540    -1240     -693      708     2361     3277     2771 
    1212     -504    -1378     -881      432     1719     2548     2733 
    2629     3064     4459     6636     9180    11088    11195     9472 
    6793     4081     2428     2752     5107     8869    12939    15670 
   15574    12553     7983     3426      -49    -1676    -1502     -463 
     685     1431     1044     -429    -1806    -2087    -1073      692 
    1753      897    -1499    -4247    -6197    -6084    -3326      878 
    4391     5780     4788     2153     -627    -2133    -1837      -85 
    2209     3720     3194      410    -3508    -7148    -9347    -8908 
   -5332      234     5499     8456     8460     5783     1205    -3327 
   -5865    -6382    -5690    -4014    -1767       27      820     1113 
    1513     2158     2898     3311     3001     1512    -1358    -4079 
   -4191    -1013     4245     9612    12403    10706     5225    -1459 
   -6771    -9193    -8392    -4774      572     6130    10669    13014 
   12426     9745     6570     3910     2457     2938     5250     7979 
    9668     9597     7758     5235     3334     2435     2316     2539 
    3034     4018     4818     4729     3894     2209     -278    -2701 
   -4290    -4527    -3161     -808     1680     4056     6127     7395 
    7454     6004     3001     -487    -2519    -2052      321     3406 
    6084     6956     4827      465    -3443    -5077    -4741    -3516 
   -2605    -3071    -4568    -5422    -4513    -1850     2014     5913 
    8197     7789     4922      882    -2613    -3854    -1899     2536 
    7541    10994    11350     8546     3971     -399    -2971    -3531 
   -2662     -800     1263     2592     2840     2188     1105       98 
     -85     1333     3798     5802     6648     6199     4203     1179 
   -1460    -2585    -1794      731     4012     6662     8055     8328 
    7492     5645     3271      695    -1742    -3165    -2735     -460 
    2755     5298     5528     3184     -129    -2592    -3739    -3788 
   -2764     -934     1343     3820     5821     6824     7142     7109 
    6759     6332     5925     5213     4167     3230     2571     2111 
    1988     2135     1841      206    -2830    -5973    -7545    -6864 
   -4287     -757     2417     4394     4974     3979     1786     -558 
   -2357    -3106    -2488    -1013      657     1961     2116     1202 
     -16    -1354    -2710    -3836    -4708    -5143    -4743    -3191 
    -753     1255     1702      654    -1377    -3628    -4849    -4125 
   -1422     2748     7200    10191    10995    10381     8841     6308 
    3595     2182     2836     5039     7484     9067     9269     7877 
    5302     2646      633     -719    -1323     -911      615     3048 
    5620     7279     7445     6232     4186     1873     -113     -804 
     422     3042     6039     8533     9873     9819     8507     6691 
    5424     5061     5572     7084     9120    10697    11369    11090 
    9798     7704     5348     3248     1359     -888    -3354    -4864 
   -4573    -2470      700     3306     4014     2743       43    -2957 
   -4931    -5440    -4760    -3445    -2351    -1885    -1506     -444 
    1601     4376     6866     7680     6234     2760    -2058    -6717 
   -9522    -9436    -6238    -1120     3666     6270     5903     2945 
    -996    -4068    -5458    -5074    -3180    -1117     -476    -1483 
   -3325    -4923    -5297    -4078    -1656      972     2644     2799 
    1617      -95     -923       63     2223     4118     4847     4396 
    3258     2209     2241     3618     5333     6223     5630     3250 
    -263    -3345    -4896    -4401    -1630     2320     5259     5857 
    4185      969    -2446    -4351    -3905    -1782      849     3268 
    4739     4488     2717      480    -1296    -1768     -249     2816 
    6161     8775     9767     8729     6490     4086     2222     1703 
    2425     3354     4326     5917     7877     9103     8758     6787 
    3971     1895     1690     2770     3959     4892     5563     5979 
    6481     7172     7538     7204     6203     4896     3956     3638 
    3596     3628     3643     3527     3642     4407     5327     5340 
    4236     2770     1447      469       -6     -186       86     1354 
    3348     5368     6779     6563     4272     1030    -1431    -2214 
   -1363      814     3449     5144     5262     4021     1741    -1044 
   -3418    -4413    -3793    -2300     -673      737     1227      152 
   -1993    -4256    -6147    -7041    -6400    -4907    -3753    -3253 
   -3142    -3279    -3559    -3867    -3966    -3331    -1842     -145 
    1142     1659     1367      889      649      430      434     1113 
    2112     2749     2728     1915      395    -1144    -1651     -535 
    1867     4567     6304     6255     4972     3634     2641     1958 
    1767     2216     3373     5140     6848     7481     6602     4691 
    2539      835      217     1131     3319     5657     7044     7121 
    5922     3786     1543      151      167     1566     3821     5857 
    6556     5791     4276     2640     1109      -48     -245      495 
    1285     1831     2461     2997     3348     3873     4234     3358 
     888    -2222    -4540    -5073    -3524     -230     3572     6097 
    6598     5564     3499     1084     -737    -1566    -1317       47 
    2209     4475     5988     6231     5132     3036      747    -1169 
   -2513    -2975    -2550    -1467      220     2184     3856     4789 
    4567     3273     1734      410     -845    -1698    -1615     -766 
     490     2035     3562     4536     4527     3284      824    -2122 
   -4093    -3950    -1849     1107     3762     5341     5679     5242 
    4546     3746     2806     1979     1844     2648     4044     5602 
    6806     6995     6239     5456     5047     4274     2512      400 
    -831     -631      911     3412     5763     6642     5695     3379 
     684     -969    -1108     -649     -106     1078     2974     4522 
    4897     4247     3045     1831     1129      835      469       87 
