Origin Time       2024/04/02 04:24:00
Lat.              40.133
Long.             141.712
Depth. (km)       71
Mag.              6.0
Station Code      MYGH10
Station Lat.      37.9411
Station Long.     140.8924
Station Height(m) 18
Record Time       2024/04/02 04:25:14
Sampling Freq(Hz) 100Hz
Duration Time(s)  215
Dir.              4
Scale Factor      7845(gal)/8223790
Max. Acc. (gal)   10.492
Last Correction   2024/04/02 04:25:14
Memo.             
[...]
    -839     -908    -1298    -1269    -1109    -1128    -1007     -654 
    -511     -735    -1140    -1745    -2366    -2505    -2141    -1860 
   -1838    -1652    -1260    -1067    -1377    -1852    -2049    -2120 
   -1831    -1138     -816     -865     -982    -1606    -2760    -3207 
   -2170     -893     -533     -858    -1494    -2204    -2760    -2886 
   -2708    -2650    -2463    -2133    -2023    -1867    -1564    -1316 
    -908     -282     -353    -1594    -2466    -2103    -1737    -1674 
   -1205     -837    -1046    -1117     -896    -1302    -2452    -3349 
   -3484    -3100    -2479    -1752     -912     -164      -25     -691 
   -1476    -1533    -1421    -1880    -1921    -1202     -816     -664 
    -321     -486    -1578    -2870    -3478    -3466    -2910    -1726 
    -935    -1210    -1703    -2042    -2613    -3011    -2590    -1738 
   -1202     -866     -392     -162     -608    -1416    -1875    -1917 
   -2084    -2378    -2261    -1996    -2223    -2528    -2377    -2192 
   -2467    -2654    -2054    -1247     -947     -888     -895    -1375 
   -1887    -1494     -538      314      712      280     -691    -1800 
   -3164    -4337    -4120    -2781    -1831    -1081      -78     -114 
   -1455    -2501    -2772    -3133    -3366    -2797    -1983    -1617 
   -1571    -1532    -1479    -1722    -2284    -2770    -2918    -2767 
   -2701    -2602    -1861     -828     -209     -301    -1134    -2029 
   -2388    -2424    -2473    -2724    -2994    -2727    -2103    -1615 
    -877       70      270     -245     -876    -1923    -3149    -3426 
   -2929    -2533    -2023    -1221     -733     -626     -356     -207 
    -857    -1872    -2546    -2817    -2663    -2258    -1921    -1507 
   -1048    -1011    -1290    -1409    -1676    -2365    -2656    -2191 
   -1844    -1809    -1328     -473       10       27     -279    -1081 
   -1898    -2178    -2334    -2448    -2299    -1819     -900     -236 
    -581    -1363    -1935    -2592    -3253    -3154    -2378    -1745 
   -1256     -676     -480     -685    -1017    -1593    -2176    -2512 
   -2475    -1925    -1444    -1534    -1732    -1695    -1690    -1894 
   -1845    -1397    -1328    -1549    -1404    -1185    -1358    -1752 
   -1962    -2270    -2961    -3404    -3188    -2471    -1491     -745 
    -699    -1129    -1347    -1426    -1881    -2335    -2369    -2062 
   -1494     -977     -629     -463     -930    -2062    -3146    -3532 
   -3141    -1896      -71      957      693      198     -224     -845 
   -1444    -2273    -3407    -3800    -3226    -2725    -2475    -1898 
   -1105     -739    -1005    -1475    -2011    -2621    -2697    -2143 
   -1360     -422      243      410       35    -1212    -2771    -3811 
   -4125    -3820    -3090    -1899     -522      338      353     -454 
   -2072    -3699    -3960    -3078    -2222    -1513     -738     -463 
   -1312    -2500    -2856    -2566    -2269    -2049    -1853    -1976 
   -2270    -2010    -1776    -2543    -3300    -3276    -3318    -3337 
   -2617    -1636    -1355    -1880    -2374    -2567    -2656    -2204 
   -1250     -567     -562    -1201    -2130    -2880    -3172    -3146 
   -3231    -3227    -2667    -1728     -737     -198     -382     -827 
   -1533    -2486    -2790    -2268    -1995    -2559    -3207    -3279 
   -2859    -1845     -646     -193     -359     -742    -1421    -2006 
   -2245    -2513    -2403    -1393     -533     -545     -760     -928 
   -1202    -1375    -1335    -1136     -803     -263      457      931 
     805      336     -225     -823    -1204    -1458    -1696    -1571 
   -1422    -1416     -772     -230    -1105    -2404    -2671    -2054 
   -1186     -383      -35     -310     -696     -927    -1266    -1753 
   -2301    -2864    -3354    -3460    -2955    -2328    -1831    -1320 
   -1151    -1119     -900    -1152    -1663    -1674    -1701    -2112 
   -2340    -2290    -2511    -3175    -3738    -3568    -2527    -1275 
    -847    -1078    -1161    -1414    -1741    -1395    -1201    -1969 
   -2535    -1818     -793     -433      -97      178     -328    -1375 
   -2444    -3067    -3003    -2571    -2045    -1382     -963    -1316 
   -1848    -1756    -1444    -1556    -1799    -1821    -1944    -1883 
   -1233     -719     -905    -1399    -1686    -1875    -1981    -1626 
   -1233    -1188    -1165    -1042    -1094    -1667    -2280    -2544 
   -2897    -3196    -3195    -2920    -2376    -1826    -1368     -980 
    -511      -81      -72     -182     -517    -1408    -2111    -2509 
   -2853    -2374    -1105     -330     -576    -1096    -1451    -2234 
   -3387    -3950    -3913    -4013    -4131    -3445    -1753       52 
     993     1054      654     -110    -1170    -2022    -2038    -1460 
   -1228    -1597    -2008    -2439    -3167    -3407    -2864    -2693 
   -2928    -2910    -3217    -3915    -3885    -2886    -1787     -993 
    -291       83     -340    -1313    -2199    -2739    -2748    -2091 
   -1098     -195      314      430      375      -54     -750    -1262 
   -1888    -2674    -2953    -2781    -2724    -2346    -1063       31 
      60     -236     -676    -1664    -2744    -3184    -2868    -2384 
   -2349    -2562    -2574    -2565    -2531    -2169    -1802    -1745 
   -1721    -1447    -1193    -1236    -1397    -1687    -2058    -2151 
   -2060    -2145    -2442    -2536    -2123    -1539    -1161     -931 
    -772     -853    -1132    -1140     -792     -477     -147      481 
     811      322      -76     -263    -1605    -3670    -4618    -4423 
   -3916    -3145    -2602    -2911    -3553    -4004    -4318    -4460 
   -4356    -3901    -2979    -1733     -662     -353     -704    -1004 
   -1134    -1829    -2964    -3229    -2687    -2609    -2905    -2998 
   -3230    -3457    -3068    -2574    -2462    -2423    -2444    -2412 
   -2145    -2099    -2513    -2787    -2374    -1402     -247      715 
    1235     1439     1117     -211    -1939    -2940    -3111    -2922 
   -2477    -1876    -1398    -1082     -916     -832     -265      865 
    1490     1138      530       83     -351     -757    -1069    -1306 
   -1420    -1491    -1702    -2012    -2309    -2617    -2825    -2629 
   -2107    -1826    -1899    -1872    -1798    -1899    -1926    -1753 
   -1497    -1189     -908     -957    -1529    -2106    -2146    -1953 
   -1649     -877       45      568      626      249     -567    -1594 
   -2550    -3422    -4013    -3924    -3161    -1918     -621       40 
    -244    -1285    -2463    -3099    -3076    -2704    -2192    -1632 
   -1036     -382      -56     -608    -1787    -2752    -3113    -3045 
   -2562    -1649     -799     -488     -808    -1818    -3130    -3829 
   -3927    -3946    -3555    -2593    -1324      -97      328     -153 
    -891    -1512    -1912    -1892    -1205     -294      -99     -625 
    -994    -1070    -1564    -2276    -2351    -1831    -1255    -1089 
   -1325    -1227     -932    -1790    -3562    -4278    -3720    -3087 
   -2025     -168      828      124     -666     -691     -903    -1354 
   -1119     -297      337      550      286     -515    -1462    -1848 
   -1696    -1925    -2573    -2781    -2361    -1865    -1806    -2037 
   -2280    -2394    -2038    -1582    -1945    -2544    -2100    -1213 
    -939     -560      540     1300      992      429     -265    -2057 
   -4303    -5186    -4750    -4603    -5009    -4735    -3640    -2714 
   -2201    -1918    -1825    -1930    -2262    -2408    -2068    -1574 
    -977      -14      407     -876    -2466    -2332    -1663    -2100 
   -2304    -1603    -1633    -2362    -2513    -2444    -3132    -4097 
   -3951    -3036    -2845    -3049    -2565    -1807    -1584    -1597 
   -1412    -1208    -1047     -789     -403       66      507      810 
    1078     1246      819     -167     -850     -874     -847    -1236 
   -1902    -2378    -2498    -2755    -3312    -3558    -2897    -1652 
    -629      314     1215     1337      768      -68    -1101    -2108 
   -2655    -2270    -1119      171      804      329     -525    -1248 
   -2068    -2860    -3375    -3622    -3669    -3481    -3395    -3659 
   -3697    -3392    -3306    -3372    -2936    -2242    -2327    -2911 
   -3078    -3025    -3531    -4413    -4507    -3936    -3586    -3213 
   -2511    -1915    -1890    -2041    -2176    -3022    -4085    -3942 
   -2744    -1931    -1867    -2045    -2805    -3836    -3915    -3215 
   -2586    -1877     -986     -876    -1715    -2245    -2189    -1875 
    -905      344      993      753     -499    -2258    -3472    -3982 
   -4241    -4174    -3618    -2736    -1680     -851     -831    -1432 
   -1699    -1080      -71      554     1085     2262     3678     4425 
    4185     2851      612    -1437    -1961    -1507    -1663    -2014 
   -1722    -1718    -2754    -3959    -4372    -4333    -4302    -3744 
   -2540    -1451     -413      959     1799     1603     1181      853 
     305     -124      -13       97     -282     -900    -1447    -1672 
   -1701    -2134    -3141    -4075    -4498    -4715    -4422    -3191 
   -1574      117     1644     2168     1140     -805    -2297    -2972 
   -2880    -1547      113      606      558      939      788     -406 
   -1278    -1274    -1202    -1822    -3537    -5649    -6837    -6924 
   -6655    -5910    -4155    -2146     -427     1204     1900     1125 
     120     -216     -197      429     1744     2417     1977     1028 
    -577    -2903    -5181    -6740    -7626    -7839    -6924    -5351 
   -4167    -3375    -2937    -2971    -2613    -1332      129     1202 
    1966     1933      853     -387    -1498    -2299    -2087    -1699 
   -2344    -3208    -3037    -2042    -1331    -1680    -2875    -4638 
   -6806    -7898    -7175    -5815    -4283    -2042     1062     3929 
    5427     5548     3954     1055    -1583    -3811    -5589    -5849 
   -4634    -3053    -2046    -1871    -2224    -2972    -3465    -2963 
   -2104    -1348     -248     1004     1350      121    -1553    -2050 
   -1435     -407      804     1830     2061     1308       45    -1232 
   -2230    -3069    -4004    -4440    -3981    -3248    -2308     -611 
    1186     1892     1566      619    -1129    -3375    -5084    -5954 
   -6139    -5112    -3088    -1601    -1267    -1148     -697     -503 
   -1304    -3346    -5992    -7788    -7693    -6027    -3410       66 
    3511     5566     5853     4206      419    -4071    -6586    -6605 
   -5521    -3103      784     3631     3528     1174    -2515    -6631 
   -8962    -8052    -4977    -1638     1027     2836     3140     1277 
   -1615    -4020    -5678    -5811    -3346      803     4529     6662 
    6550     3451    -1818    -6552    -8434    -7388    -4627    -1514 
     442      606     -710    -2590    -3916    -4394    -3696    -1494 
    1572     4309     5525     5174     3709      699    -3318    -5873 
   -5547    -4068    -3242    -2350    -1611    -2789    -4932    -6162 
   -7018    -8019    -8024    -6475    -4384    -2556    -1289     -495 
     781     2604     3981     4715     5269     5278     3369        9 
   -2012    -1840    -1216     -892     -523     -850    -2821    -5883 
   -8610   -10098    -9794    -7381    -3593      344     3242     3974 
    2559      133    -2592    -5474    -7150    -6573    -4977    -2316 
    2411     7088     9165     8850     6490     1868    -2313    -3242 
   -3218    -4421    -5031    -4318    -3283    -1854     -352     -386 
   -2197    -3888    -4376    -4244    -3642    -2026      225     1872 
    2473     2400     1698       -9    -2578    -4797    -5968    -6770 
   -7198    -6509    -5479    -4912    -3790    -1543      761     1838 
    1285     -537    -3500    -6940    -8837    -8170    -6007    -3169 
     179     2998     4148     3889     2677      205    -2528    -4002 
   -4650    -5038    -4648    -2793      167     1669     -465    -4834 
   -8106    -8757    -7346    -5112    -4101    -4872    -5185    -3979 
   -2473    -1225      340     2319     4240     5757     5822     3618 
     753     -693     -639     -103     -202    -1135    -1628    -1196 
   -1205    -1999    -2340    -2289    -2544    -2496    -1858    -1845 
   -3211    -4768    -5216    -4756    -3916    -2920    -2251    -2536 
   -3376    -3424    -2540    -1633     -692      477     1606     2905 
    4438     5301     4904     3954     2848      481    -3831    -8337 
  -10044    -8491    -5987    -3369     -552      606     -268     -669 
      -8      421      796     1117      124    -2087    -4129    -5324 
   -4939    -2181     1316     3164     3549     3114     1404    -1057 
   -2659    -2261     -152     2446     4222     4421     3599     2385 
     642    -2164    -6264    -9690   -10008    -7632    -4595    -2296 
   -1258    -1170     -837      271      985      199    -1858    -3723 
   -3909    -2793    -1316      580     1794      264    -3253    -5876 
   -7118    -8571    -9737    -8885    -6716    -4969    -3854    -2956 
   -2594    -3117    -3489    -2737    -1603     -834       62     1433 
    1795      144    -1355    -1001      226     1428     2344     1875 
   -1078    -5201    -7703    -7553    -5566    -2690      388     2943 
    4028     2940      156    -2596    -3511    -2655    -1937    -1863 
   -1456    -1159    -1451    -1151      166      754     -824    -3183 
   -4318    -4804    -5938    -7005    -6920    -6535    -6357    -4445 
    -118     4440     7778     9296     7997     4194     -820    -5861 
   -9270    -9695    -7437    -3807      355     4166     5760     4175 
     882    -2015    -3622    -3951    -3576    -3836    -5008    -5182 
   -3636    -2343    -2844    -3715    -2386      970     4310     6131 
    5404     2239    -1844    -5047    -6480    -6091    -3874     -654 
    1954     2679      954    -2184    -4617    -5151    -4077    -1929 
    1348     5120     7888     8696     6936     2444    -3601    -8765 
  -10611    -8753    -4953    -1020     1744     2058      145    -2251 
   -4453    -6295    -6743    -5297    -3111    -2295    -3279    -4245 
   -4383    -4668    -5081    -4167    -1571     1399     3188     3044 
    1306    -1485    -4650    -6724    -6716    -5513    -4174    -2187 
      91      405    -1879    -4784    -6696    -7446    -6939    -4855 
   -1567     1329     2158     1244      523     1040     1904     1648 
     487     -240    -1039    -2932    -4475    -4027    -2182     -683 
    -468     -695     -749    -1200    -1517     -789      318      792 
     463     -379    -1638    -2760    -2370     -302     1823     2772 
    2575     1414     -693    -3040    -3910    -2292       16      596 
    -623    -2556    -4347    -5778    -7005    -7757    -7524    -5701 
   -2274     1517     4151     4862     3994     2042    -1217    -5206 
   -8151    -9138    -8550    -7209    -6268    -6480    -6366    -4156 
   -1482     -403     -166     -280    -1737    -4071    -5328    -5217 
   -4419    -2277      920     3204     4039     3983     2650       21 
   -2151    -2679    -2324    -1406      -43      415     -538    -1885 
   -2373    -1802    -1533    -2533    -3974    -4540    -4125    -3478 
   -2739    -1336      912     3319     5026     5404     4421     2936 
    1622      699      383       17    -1402    -3238    -4091    -3993 
   -3862    -3937    -3802    -3339    -2535    -1004      405      353 
     -99      464     1293     1378      976      622      172     -831 
   -2533    -4564    -6394    -7743    -8596    -9049    -8800    -7739 
   -6095    -3619    -1112     -225     -741    -1825    -3723    -5790 
   -6200    -4405    -1598     1201     3457     3865     1737    -1208 
   -2972    -3798    -4884    -5822    -5425    -3680    -1000     1637 
    2382     1309      654     1055     1533     2493     4441     5957 
    5973     4784     2452     -787    -3750    -5347    -5996    -6928 
   -7707    -6478    -2671     1664     4013     4102     2728      469 
   -1556    -2446    -2524    -2432    -2047    -1247     -758    -1119 
   -1869    -2187    -1426      184     1448     1742     1139     -386 
   -2401    -4357    -6262    -8039    -9202    -9162    -7516    -4972 
   -3438    -3431    -2983    -1108      565      850      218     -822 
   -2070    -3106    -3200    -2278    -1012      469     1779     2165 
    1634      243    -1736    -3647    -5022    -5310    -4344    -2878 
   -2118    -2405    -3030    -3789    -4484    -3755    -1255     1189 
    2747     4665     6565     5783     2192    -1436    -3790    -5425 
   -6751    -7257    -6234    -3877     -764     2288     3541     2077 
    -425    -1657    -1416    -1379    -2601    -4351    -5475    -5576 
   -5062    -4180    -2704    -1282     -672     -923    -2338    -4153 
   -4683    -3774    -2598    -2108    -2155    -2382    -3110    -4055 
   -4714    -5599    -6581    -6127    -3453       83     2301     2632 
    1776       71    -1911    -3100    -3248    -3045    -2420     -445 
    2339     3289     1183    -1822    -4384    -7149    -8858    -7800 
   -5070    -1885     2018     5436     6211     4573     2205      471 
     166      382     -129    -1274    -2532    -3040    -2648    -2236 
   -1560     -365      373      608      959      654     -992    -2523 
   -2587    -2423    -3373    -4700    -5597    -5633    -3950     -913 
    1387     1323     -710    -2991    -4297    -4990    -6012    -6941 
   -6874    -5710    -3268     -102     1759     1702     1386     1297 
     284    -1309    -2106    -2265    -2654    -3365    -4178    -4382 
   -2891      157     3164     4008     1717    -1971    -4639    -5652 
   -4928    -2423      980     4166     6332     6974     5809     2681 
   -1580    -5557    -8619   -10143    -9239    -6166    -2536       28 
    1140     1035       -8     -992    -1287    -1439    -1435     -409 
    1383     2467     2137      729    -1088    -2428    -2727    -1923 
    -754     -286     -450     -900    -1638    -2339    -3065    -3724 
   -3504    -2628    -1926    -1013       28     -292    -1524    -1719 
   -1210    -1107    -1235    -1273    -1217    -1329    -1780    -1983 
   -1487    -1436    -2602    -3078    -1555      -85     -365    -1104 
   -1291    -1757    -2473    -2756    -3477    -5409    -7138    -7119 
   -5665    -3739    -1975     -579      549     1088      237    -2389 
   -5757    -7879    -8302    -8148    -7352    -5074    -2058      394 
    1946     2177      837     -793    -1081     -437     -870    -2718 
   -3905    -3202    -1760     -796     -183      363      861     1463 
    1713      402    -2408    -4989    -6177    -6076    -4985    -2722 
     360     2841     4035     4248     3576     2185     1142     1745 
    3234     3491     2319      664    -1764    -5022    -7578    -7990 
   -6312    -4243    -3234    -2964    -3412    -5135    -6747    -6081 
   -3528    -1074      577     1900     3117     3905     3971     2960 
     326    -3669    -7672   -10156   -10579    -9547    -7963    -6307 
   -4148    -1395      978     2432     2910     2412      999    -1151 
   -2944    -3407    -2837    -1598      454     2296     1853     -542 
   -2855    -4860    -6941    -8418    -8364    -6415    -3275     -349 
    1324     1255     -417    -2415    -3515    -3569    -2586     -371 
