Origin Time       2024/04/02 04:24:00
Lat.              40.133
Long.             141.712
Depth. (km)       71
Mag.              6.0
Station Code      MYGH14
Station Lat.      38.3400
Station Long.     140.9551
Station Height(m) -986
Record Time       2024/04/02 04:25:07
Sampling Freq(Hz) 100Hz
Duration Time(s)  120
Dir.              2
Scale Factor      7845(gal)/8223790
Max. Acc. (gal)   2.025
Last Correction   2024/04/02 04:25:07
Memo.             
[...]
   -3846    -3686    -3572    -3524    -3569    -3697    -3812    -3877 
   -3882    -3790    -3742    -3823    -3805    -3584    -3445    -3573 
   -3767    -3842    -3854    -3823    -3670    -3569    -3677    -3747 
   -3763    -3896    -3855    -3630    -3580    -3626    -3603    -3565 
   -3550    -3657    -3910    -4109    -4152    -4071    -3874    -3754 
   -3747    -3650    -3601    -3692    -3678    -3553    -3518    -3696 
   -3904    -3850    -3734    -3796    -3839    -3773    -3750    -3839 
   -3932    -3904    -3827    -3742    -3646    -3723    -3847    -3713 
   -3573    -3634    -3713    -3785    -3812    -3730    -3694    -3716 
   -3688    -3673    -3711    -3771    -3848    -3905    -3931    -3848 
   -3669    -3615    -3612    -3527    -3538    -3626    -3689    -3738 
   -3711    -3658    -3678    -3705    -3630    -3523    -3574    -3727 
   -3807    -3832    -3836    -3831    -3831    -3823    -3893    -3969 
   -3858    -3731    -3728    -3700    -3688    -3711    -3636    -3612 
   -3661    -3573    -3543    -3678    -3740    -3815    -3966    -3977 
   -3900    -3828    -3690    -3627    -3731    -3769    -3672    -3686 
   -3788    -3758    -3748    -3913    -4009    -3897    -3792    -3840 
   -3940    -3939    -3811    -3721    -3754    -3680    -3497    -3514 
   -3665    -3766    -3820    -3801    -3763    -3788    -3828    -3835 
   -3789    -3712    -3651    -3662    -3740    -3777    -3771    -3792 
   -3747    -3624    -3577    -3597    -3615    -3653    -3674    -3642 
   -3604    -3581    -3628    -3747    -3736    -3631    -3636    -3674 
   -3739    -3879    -3936    -3883    -3851    -3846    -3771    -3674 
   -3736    -3851    -3798    -3765    -3854    -3782    -3550    -3477 
   -3576    -3638    -3681    -3739    -3747    -3788    -3850    -3819 
   -3759    -3703    -3667    -3761    -3943    -4029    -3956    -3839 
   -3747    -3662    -3630    -3688    -3757    -3785    -3800    -3773 
   -3677    -3631    -3677    -3723    -3719    -3705    -3811    -4000 
   -4013    -3820    -3669    -3631    -3608    -3630    -3730    -3802 
   -3805    -3726    -3549    -3400    -3389    -3489    -3612    -3696 
   -3789    -3840    -3748    -3720    -3780    -3686    -3570    -3666 
   -3838    -3873    -3792    -3801    -3831    -3686    -3608    -3781 
   -3985    -4036    -3902    -3721    -3709    -3781    -3704    -3627 
   -3751    -3805    -3697    -3711    -3775    -3797    -3900    -3913 
   -3761    -3681    -3720    -3786    -3828    -3848    -3879    -3889 
   -3890    -3901    -3894    -3862    -3825    -3865    -3855    -3690 
   -3618    -3647    -3647    -3699    -3727    -3709    -3705    -3646 
   -3603    -3655    -3777    -3940    -3991    -3917    -3874    -3785 
   -3663    -3699    -3784    -3820    -3844    -3781    -3781    -3863 
   -3712    -3530    -3616    -3635    -3577    -3693    -3723    -3624 
   -3595    -3565    -3593    -3677    -3709    -3761    -3774    -3701 
   -3686    -3763    -3824    -3769    -3680    -3665    -3604    -3565 
   -3730    -3879    -3873    -3916    -3912    -3688    -3483    -3514 
   -3751    -3981    -3963    -3767    -3576    -3457    -3487    -3599 
   -3647    -3707    -3863    -3956    -3888    -3796    -3731    -3653 
   -3591    -3539    -3520    -3608    -3723    -3784    -3923    -4095 
   -4083    -3973    -3885    -3796    -3740    -3705    -3703    -3767 
   -3820    -3762    -3645    -3662    -3771    -3778    -3793    -3881 
   -3885    -3825    -3759    -3662    -3605    -3612    -3619    -3623 
   -3538    -3376    -3335    -3441    -3615    -3771    -3824    -3817 
   -3720    -3555    -3581    -3796    -3900    -3866    -3890    -3971 
   -4009    -3967    -3858    -3775    -3704    -3650    -3728    -3786 
   -3659    -3555    -3569    -3613    -3717    -3820    -3865    -3942 
   -3994    -3942    -3859    -3773    -3693    -3654    -3564    -3445 
   -3546    -3773    -3828    -3882    -3963    -3869    -3861    -3943 
   -3835    -3757    -3858    -3958    -3966    -3866    -3717    -3561 
   -3365    -3310    -3561    -3881    -3954    -3863    -3828    -3831 
   -3824    -3781    -3619    -3572    -3802    -3955    -3886    -3774 
   -3673    -3640    -3684    -3712    -3696    -3650    -3692    -3851 
   -3916    -3886    -3875    -3785    -3676    -3708    -3751    -3708 
   -3694    -3736    -3728    -3653    -3597    -3551    -3453    -3420 
   -3541    -3634    -3608    -3672    -3823    -3867    -3875    -3906 
   -3874    -3777    -3689    -3715    -3773    -3708    -3697    -3813 
   -3838    -3780    -3739    -3746    -3834    -3842    -3738    -3717 
   -3723    -3647    -3620    -3665    -3650    -3645    -3789    -3867 
   -3762    -3759    -3831    -3785    -3720    -3634    -3578    -3705 
   -3850    -3848    -3753    -3747    -3897    -3875    -3697    -3715 
   -3753    -3634    -3585    -3599    -3559    -3550    -3586    -3680 
   -3843    -3966    -4014    -4023    -3982    -3906    -3805    -3731 
   -3730    -3709    -3682    -3672    -3541    -3438    -3537    -3651 
   -3771    -3866    -3858    -3927    -3967    -3851    -3792    -3770 
   -3720    -3757    -3839    -3855    -3828    -3869    -3969    -3955 
   -3747    -3510    -3483    -3655    -3794    -3834    -3870    -3893 
   -3859    -3738    -3608    -3669    -3805    -3847    -3892    -3879 
   -3798    -3785    -3757    -3662    -3613    -3669    -3712    -3650 
   -3676    -3746    -3646    -3531    -3480    -3512    -3674    -3667 
   -3550    -3704    -3882    -3821    -3751    -3743    -3713    -3658 
   -3580    -3623    -3796    -3774    -3603    -3646    -3805    -3801 
   -3654    -3515    -3528    -3732    -3905    -3867    -3736    -3623 
   -3580    -3666    -3707    -3634    -3688    -3820    -3726    -3568 
   -3739    -4052    -4024    -3767    -3634    -3645    -3731    -3765 
   -3654    -3545    -3572    -3712    -3855    -3909    -3877    -3827 
   -3832    -3865    -3890    -3875    -3788    -3751    -3839    -3897 
   -3862    -3838    -3809    -3739    -3713    -3743    -3809    -3905 
   -3893    -3762    -3727    -3823    -3805    -3705    -3769    -3807 
   -3716    -3797    -3937    -3886    -3769    -3711    -3670    -3588 
   -3601    -3696    -3627    -3603    -3731    -3694    -3613    -3684 
   -3720    -3666    -3657    -3781    -3875    -3694    -3484    -3558 
   -3681    -3719    -3789    -3769    -3709    -3820    -3944    -3892 
   -3750    -3685    -3727    -3758    -3780    -3827    -3834    -3824 
   -3819    -3882    -4033    -3989    -3747    -3580    -3437    -3385 
   -3553    -3650    -3550    -3581    -3801    -3890    -3811    -3770 
   -3817    -3886    -3805    -3593    -3557    -3689    -3761    -3817 
   -3894    -3889    -3823    -3785    -3739    -3643    -3643    -3808 
   -3900    -3820    -3755    -3781    -3844    -3811    -3651    -3646 
   -3750    -3667    -3573    -3654    -3757    -3808    -3765    -3565 
   -3422    -3539    -3747    -3882    -3960    -4044    -4112    -3987 
   -3809    -3871    -3929    -3819    -3755    -3715    -3684    -3711 
   -3630    -3493    -3470    -3534    -3623    -3639    -3636    -3777 
   -3921    -3912    -3842    -3766    -3658    -3554    -3569    -3673 
   -3705    -3684    -3632    -3557    -3627    -3796    -3789    -3659 
   -3688    -3923    -4017    -3813    -3665    -3690    -3672    -3619 
   -3581    -3496    -3503    -3757    -3921    -3759    -3705    -3890 
   -3973    -3966    -3946    -3802    -3663    -3763    -3913    -3746 
   -3532    -3635    -3723    -3649    -3609    -3553    -3528    -3632 
   -3704    -3703    -3746    -3834    -3896    -3962    -4012    -3996 
   -3951    -3834    -3713    -3777    -3850    -3739    -3604    -3558 
   -3596    -3678    -3720    -3780    -3894    -3935    -3935    -3919 
   -3769    -3613    -3600    -3680    -3809    -3883    -3839    -3774 
   -3694    -3667    -3847    -3962    -3680    -3276    -3307    -3758 
   -4032    -3975    -3897    -3808    -3653    -3530    -3565    -3762 
   -3808    -3646    -3569    -3574    -3592    -3634    -3639    -3677 
   -3736    -3744    -3769    -3743    -3697    -3798    -3875    -3758 
   -3635    -3661    -3715    -3694    -3697    -3784    -3844    -3816 
   -3785    -3688    -3508    -3487    -3612    -3744    -3889    -3905 
   -3785    -3676    -3574    -3511    -3526    -3612    -3780    -3847 
   -3789    -3808    -3817    -3771    -3798    -3750    -3603    -3573 
   -3616    -3682    -3785    -3781    -3684    -3647    -3712    -3813 
   -3796    -3661    -3557    -3542    -3653    -3804    -3831    -3774 
   -3792    -3865    -3850    -3798    -3800    -3786    -3781    -3832 
   -3937    -4043    -3982    -3762    -3582    -3545    -3609    -3716 
   -3794    -3844    -3993    -4125    -3996    -3790    -3735    -3717 
   -3792    -3951    -3856    -3632    -3681    -3844    -3863    -3758 
   -3616    -3535    -3612    -3850    -4010    -4014    -3977    -3885 
   -3854    -3919    -3959    -3997    -3944    -3781    -3689    -3724 
   -3796    -3730    -3615    -3769    -4001    -3931    -3771    -3905 
   -4095    -3955    -3732    -3661    -3588    -3593    -3673    -3613 
   -3595    -3734    -3780    -3649    -3515    -3558    -3685    -3685 
   -3626    -3537    -3429    -3543    -3771    -3836    -3785    -3758 
   -3825    -3900    -3832    -3678    -3605    -3689    -3750    -3681 
   -3645    -3682    -3739    -3801    -3761    -3673    -3705    -3731 
   -3650    -3672    -3767    -3742    -3762    -3873    -3866    -3805 
   -3767    -3712    -3640    -3565    -3597    -3658    -3547    -3458 
   -3522    -3519    -3520    -3616    -3541    -3403    -3545    -3805 
   -3982    -4131    -4167    -3989    -3794    -3746    -3703    -3686 
   -3809    -3856    -3744    -3645    -3595    -3604    -3645    -3616 
   -3574    -3572    -3572    -3604    -3638    -3624    -3630    -3742 
   -3867    -3865    -3892    -4005    -3991    -3916    -3878    -3854 
   -3865    -3797    -3781    -3890    -3692    -3442    -3696    -3947 
   -3946    -4120    -4224    -4002    -3815    -3847    -3948    -3969 
   -3900    -3758    -3628    -3658    -3638    -3449    -3438    -3681 
   -3943    -4098    -4077    -3947    -3882    -3866    -3778    -3666 
   -3589    -3504    -3442    -3516    -3670    -3709    -3711    -3855 
   -3990    -3952    -3867    -3863    -3900    -3908    -3827    -3662 
   -3570    -3519    -3454    -3543    -3608    -3464    -3458    -3634 
   -3667    -3596    -3543    -3577    -3738    -3780    -3613    -3584 
   -3712    -3659    -3566    -3674    -3734    -3693    -3777    -3877 
   -3839    -3757    -3773    -3865    -3816    -3674    -3723    -3896 
   -3933    -3873    -3915    -4020    -4009    -3865    -3697    -3618 
   -3589    -3543    -3574    -3577    -3447    -3492    -3767    -3940 
   -3870    -3701    -3694    -3823    -3797    -3763    -3925    -4010 
   -3910    -3747    -3577    -3584    -3696    -3653    -3568    -3613 
   -3700    -3746    -3762    -3766    -3777    -3774    -3726    -3638 
   -3565    -3632    -3781    -3788    -3715    -3755    -3867    -3883 
   -3867    -3951    -3962    -3956    -4178    -4307    -4106    -3823 
   -3620    -3565    -3627    -3667    -3609    -3381    -3217    -3458 
   -3759    -3740    -3694    -3778    -3846    -3910    -3951    -3866 
   -3677    -3596    -3755    -3879    -3798    -3840    -4013    -3915 
   -3696    -3712    -3773    -3723    -3769    -3832    -3699    -3578 
   -3591    -3576    -3615    -3763    -3850    -3809    -3713    -3665 
   -3597    -3435    -3450    -3655    -3703    -3680    -3712    -3707 
   -3825    -4001    -3962    -3921    -4035    -4055    -4017    -4055 
   -4000    -3836    -3709    -3640    -3678    -3865    -4008    -3929 
   -3815    -3785    -3712    -3677    -3717    -3672    -3589    -3539 
   -3558    -3732    -3811    -3655    -3589    -3622    -3559    -3514 
   -3558    -3659    -3808    -3946    -3963    -3784    -3596    -3618 
   -3663    -3465    -3203    -3221    -3410    -3534    -3612    -3605 
   -3491    -3474    -3688    -3877    -3788    -3628    -3672    -3751 
   -3643    -3561    -3742    -3933    -3870    -3711    -3685    -3811 
   -3994    -4149    -4214    -4182    -4159    -4156    -4035    -3866 
   -3802    -3815    -3908    -4013    -3927    -3753    -3709    -3711 
   -3731    -3906    -4071    -4071    -4129    -4275    -4324    -4313 
   -4257    -4149    -4082    -4014    -3858    -3694    -3686    -3775 
   -3704    -3477    -3319    -3384    -3672    -3840    -3742    -3727 
   -3769    -3639    -3530    -3519    -3495    -3473    -3422    -3242 
   -2994    -2844    -2805    -2810    -2826    -2895    -3221    -3578 
   -3568    -3493    -3686    -3839    -3769    -3765    -3844    -3705 
   -3518    -3547    -3578    -3639    -3955    -4171    -3962    -3661 
   -3538    -3337    -3029    -3069    -3480    -3848    -4099    -4363 
   -4615    -4688    -4548    -4449    -4372    -4110    -3890    -3898 
   -3915    -3902    -4095    -4240    -3900    -3499    -3461    -3470 
   -3437    -3465    -3511    -3635    -3784    -3862    -3844    -3611 
   -3330    -3337    -3569    -3861    -4205    -4480    -4498    -4263 
   -3981    -3711    -3418    -3331    -3380    -3123    -2687    -2409 
   -2297    -2594    -3375    -4079    -4649    -5394    -5744    -5223 
   -4445    -4203    -4359    -4109    -3526    -2957    -2332    -1995 
   -1761    -1620    -2111    -2485    -2374    -2525    -3006    -3649 
   -4448    -5243    -5466    -4939    -4762    -5059    -4903    -4707 
   -4787    -4584    -4136    -3572    -2895    -2512    -2593    -2712 
   -2794    -3240    -3812    -4180    -4596    -5003    -5100    -4918 
   -4673    -4637    -4797    -4792    -4522    -4259    -4099    -3901 
   -3738    -3707    -3626    -3422    -3191    -3060    -3180    -3493 
   -3790    -3931    -3900    -3919    -4151    -4317    -4183    -3990 
   -3997    -4060    -3890    -3488    -3113    -2895    -2837    -2955 
   -3095    -3157    -3264    -3362    -3312    -3163    -3045    -3056 
   -3086    -3013    -3021    -3181    -3276    -3395    -3650    -3793 
   -3974    -4388    -4656    -4615    -4442    -4279    -4176    -3921 
   -3456    -3122    -3142    -3414    -3640    -3716    -3971    -4320 
   -4087    -3468    -3407    -3901    -4217    -4186    -4095    -4106 
   -4222    -4294    -4104    -3809    -3823    -3915    -3750    -3734 
   -3989    -4012    -3769    -3727    -3842    -3794    -3974    -4460 
   -4348    -3584    -3252    -3538    -3670    -3526    -3474    -3514 
   -3468    -3188    -2709    -2435    -2644    -3199    -3612    -3511 
   -3456    -3898    -4136    -3900    -3832    -3971    -3883    -3939 
   -4445    -4642    -4272    -3836    -3449    -3167    -2983    -2731 
   -2446    -2313    -2674    -3503    -3952    -3622    -3190    -3100 
   -3184    -3284    -3338    -3435    -3793    -4259    -4448    -4468 
   -4573    -4592    -4444    -4294    -4180    -4086    -4098    -4168 
   -3905    -3199    -2573    -2339    -2392    -2781    -3503    -4190 
   -4527    -4550    -4372    -4102    -3983    -4236    -4642    -4773 
   -4715    -4753    -4800    -4738    -4479    -4121    -3998    -3991 
   -3807    -3566    -3418    -3408    -3589    -3798    -3809    -3743 
   -3889    -4170    -4368    -4383    -4143    -3901    -3792    -3690 
   -3973    -4511    -4438    -3786    -3287    -3222    -3283    -3256 
   -3415    -3618    -3420    -3102    -2899    -2712    -2700    -2794 
   -2959    -3387    -3816    -3951    -3920    -4009    -4218    -4251 
   -4178    -4048    -3685    -3499    -3736    -3931    -3861    -3711 
   -3736    -3913    -3774    -3442    -3640    -4178    -4422    -4407 
   -4168    -3708    -3334    -3202    -3389    -3780    -3962    -3955 
   -4066    -4147    -3916    -3385    -2921    -3055    -3640    -3850 
   -3605    -3674    -4082    -4109    -3632    -3113    -2929    -3164 
   -3376    -3256    -3408    -4083    -4503    -4386    -4205    -4078 
   -3766    -3415    -3314    -3169    -2830    -2774    -3017    -3284 
   -3434    -3202    -2961    -3180    -3527    -4005    -4621    -4723 
   -4261    -3804    -3650    -3754    -3932    -4272    -4737    -4834 
   -4618    -4544    -4487    -4307    -4291    -4406    -4209    -3665 
   -3187    -2975    -2921    -2832    -2754    -3041    -3470    -3639 
   -4024    -4402    -3960    -3584    -3904    -3977    -3724    -3723 
   -3901    -4090    -4275    -4306    -3940    -3588    -3815    -4141 
   -4236    -4267    -3775    -2806    -2169    -2170    -2844    -3750 
   -4081    -4109    -4526    -4950    -4750    -4286    -4144    -4075 
   -3740    -3341    -3138    -3312    -3713    -3758    -3341    -3115 
   -3512    -4059    -4002    -3564    -3504    -3639    -3466    -3354 
   -3512    -3542    -3673    -4170    -4479    -4414    -4226    -3861 
   -3483    -3307    -3194    -3206    -3384    -3477    -3496    -3624 
   -3650    -3311    -3215    -3762    -4060    -3929    -4055    -4129 
   -3882    -3836    -3923    -3616    -3299    -3561    -3834    -3716 
   -3667    -3684    -3618    -3476    -3082    -2897    -3244    -3495 
   -3439    -3327    -3403    -4006    -4671    -4642    -4272    -4199 
   -4287    -4159    -3950    -4087    -4442    -4488    -4357    -4310 
   -4033    -3566    -3306    -3258    -3315    -3380    -3407    -3573 
   -3681    -3512    -3545    -3763    -3577    -3252    -3264    -3407 
   -3738    -4344    -4603    -4374    -4168    -3994    -3623    -3323 
   -3487    -3820    -3863    -3739    -3731    -3815    -3673    -3353 
   -3345    -3472    -3393    -3624    -4322    -4725    -4541    -4225 
   -3901    -3541    -3558    -4020    -4224    -4008    -3908    -3873 
   -3694    -3572    -3361    -3137    -3308    -3518    -3508    -3692 
   -3977    -4005    -3846    -3623    -3454    -3447    -3416    -3299 
   -3515    -3935    -3797    -3304    -3204    -3322    -3299    -3342 
   -3373    -3175    -3156    -3539    -3905    -4004    -4009    -4043 
   -4032    -4095    -4324    -4465    -4407    -4216    -3892    -3581 
   -3377    -3246    -3356    -3665    -3856    -3923    -3844    -3531 
   -3372    -3619    -3932    -4047    -4098    -4178    -4081    -3813 
   -3735    -3905    -4128    -4322    -4419    -4338    -4000    -3532 
   -3096    -2795    -2932    -3352    -3574    -3639    -3682    -3762 
   -3862    -3689    -3380    -3395    -3696    -4105    -4317    -3954 
   -3520    -3700    -4072    -4082    -3962    -3946    -3937    -3836 
   -3591    -3423    -3589    -3788    -3719    -3712    -3975    -4158 
   -4220    -4417    -4380    -4013    -4126    -4550    -4361    -3883 
   -3534    -3080    -2941    -3265    -3397    -3599    -4247    -4552 
   -4290    -4048    -3947    -3902    -3750    -3538    -3658    -3823 
   -3669    -3708    -3990    -3775    -3144    -2933    -3271    -3561 
   -3646    -3796    -3807    -3580    -3581    -3782    -3801    -3709 
   -3674    -3735    -3894    -4048    -3948    -3505    -3091    -2902 
   -2813    -2965    -3230    -3364    -3755    -4155    -3807    -3323 
   -3524    -3869    -3794    -3667    -3893    -4307    -4488    -4214 
   -3649    -3133    -2902    -2978    -3325    -3885    -4160    -3748 
