Origin Time       2024/04/02 04:24:00
Lat.              40.133
Long.             141.712
Depth. (km)       71
Mag.              6.0
Station Code      MYGH14
Station Lat.      38.3400
Station Long.     140.9551
Station Height(m) 48
Record Time       2024/04/02 04:25:07
Sampling Freq(Hz) 100Hz
Duration Time(s)  120
Dir.              5
Scale Factor      7845(gal)/8223790
Max. Acc. (gal)   11.551
Last Correction   2024/04/02 04:25:07
Memo.             
[...]
   -8662    -8633    -8425    -8139    -7711    -7107    -6525    -6056 
   -5637    -5475    -5850    -6575    -7190    -7519    -7650    -7570 
   -7222    -6774    -6421    -6035    -5557    -5382    -5715    -6238 
   -6674    -6922    -6879    -6639    -6427    -6384    -6461    -6516 
   -6647    -7038    -7456    -7558    -7468    -7445    -7438    -7430 
   -7666    -8059    -8077    -7535    -6859    -6475    -6440    -6470 
   -6292    -6068    -6143    -6400    -6439    -6297    -6266    -6274 
   -6107    -5861    -5715    -5665    -5733    -5892    -5977    -6053 
   -6318    -6648    -6812    -6762    -6696    -6894    -7244    -7403 
   -7388    -7323    -7130    -6839    -6538    -6307    -6421    -7005 
   -7690    -8104    -8198    -8074    -7893    -7750    -7582    -7442 
   -7383    -7258    -7038    -6876    -6787    -6651    -6439    -6297 
   -6385    -6639    -6758    -6494    -5910    -5189    -4446    -3886 
   -3894    -4758    -6246    -7686    -8700    -9447   -10006   -10060 
   -9455    -8645    -8120    -7862    -7547    -6980    -6295    -5779 
   -5544    -5634    -6027    -6330    -6142    -5530    -4841    -4561 
   -4958    -5617    -6103    -6612    -7415    -8411    -9310    -9805 
   -9802    -9485    -8945    -8171    -7345    -6710    -6338    -6226 
   -6292    -6257    -5940    -5448    -4922    -4456    -4171    -4236 
   -4738    -5447    -5958    -6161    -6257    -6382    -6459    -6416 
   -6389    -6581    -7020    -7580    -8023    -8113    -7863    -7480 
   -7102    -6810    -6701    -6736    -6681    -6345    -5865    -5570 
   -5493    -5462    -5571    -5950    -6421    -6852    -7155    -7194 
   -7149    -7253    -7280    -6976    -6596    -6477    -6536    -6612 
   -6868    -7290    -7514    -7456    -7183    -6643    -6093    -5813 
   -5784    -6127    -6891    -7615    -7858    -7680    -7298    -6844 
   -6547    -6700    -7302    -7956    -8298    -8290    -8047    -7673 
   -7236    -6813    -6551    -6552    -6735    -6882    -6959    -7126 
   -7325    -7190    -6606    -5976    -5640    -5506    -5460    -5606 
   -6002    -6555    -7110    -7438    -7419    -7183    -6829    -6378 
   -6021    -5937    -6143    -6581    -7069    -7438    -7727    -7946 
   -7901    -7558    -7296    -7360    -7402    -7042    -6411    -5881 
   -5641    -5590    -5729    -6295    -7128    -7503    -7072    -6336 
   -5930    -5956    -6176    -6451    -6721    -6828    -6677    -6401 
   -6222    -6193    -6219    -6340    -6731    -7302    -7651    -7476 
   -6936    -6542    -6400    -6124    -5663    -5378    -5481    -5923 
   -6477    -6945    -7348    -7587    -7403    -6955    -6637    -6463 
   -6265    -6110    -6096    -6241    -6631    -7231    -7771    -8172 
   -8519    -8630    -8336    -7879    -7538    -7299    -7091    -6924 
   -6756    -6494    -6224    -6102    -6084    -6095    -6307    -6883 
   -7500    -7681    -7472    -7153    -6778    -6369    -5995    -5790 
   -5969    -6432    -6725    -6675    -6592    -6786    -7231    -7744 
   -8178    -8294    -7850    -6978    -6122    -5661    -5616    -5664 
   -5633    -5676    -5780    -5722    -5629    -5911    -6604    -7244 
   -7407    -7223    -7111    -7148    -7210    -7371    -7592    -7587 
   -7300    -6999    -6867    -6971    -7206    -7288    -7230    -7257 
   -7227    -6840    -6130    -5439    -5050    -4919    -4895    -5005 
   -5271    -5580    -5900    -6357    -6966    -7542    -7993    -8397 
   -8770    -9049    -9127    -8846    -8147    -7308    -6759    -6590 
   -6569    -6532    -6381    -6085    -5873    -5879    -5956    -6021 
   -6072    -6129    -6319    -6717    -7182    -7430    -7318    -7061 
   -7013    -7250    -7524    -7570    -7410    -7238    -7096    -6885 
   -6563    -6273    -6241    -6316    -6123    -5796    -5773    -6169 
   -6836    -7489    -7809    -7728    -7345    -6798    -6397    -6372 
   -6567    -6662    -6513    -6259    -6197    -6446    -6744    -6917 
   -7165    -7506    -7717    -7862    -7962    -7681    -6964    -6261 
   -5856    -5738    -5956    -6454    -6906    -6976    -6559    -5799 
   -5067    -4756    -4941    -5358    -5687    -5875    -6112    -6502 
   -6898    -7141    -7258    -7330    -7323    -7215    -7084    -6925 
   -6619    -6211    -5842    -5625    -5678    -5994    -6438    -6875 
   -7211    -7519    -7766    -7653    -7209    -6804    -6594    -6617 
   -6835    -7010    -7024    -6975    -6998    -7155    -7420    -7693 
   -7723    -7402    -6966    -6554    -6197    -6228    -6835    -7527 
   -7720    -7433    -6994    -6588    -6400    -6602    -6930    -6945 
   -6754    -6740    -6872    -6987    -7083    -7057    -6893    -6778 
   -6771    -6910    -7211    -7387    -7217    -6866    -6608    -6617 
   -6879    -7168    -7221    -6972    -6656    -6551    -6608    -6517 
   -6012    -5285    -4941    -5128    -5416    -5667    -5960    -6189 
   -6540    -7306    -8251    -8938    -9216    -9067    -8433    -7418 
   -6450    -5886    -5633    -5455    -5320    -5256    -5231    -5231 
   -5190    -5034    -4947    -5206    -5672    -5884    -5780    -5755 
   -5910    -6118    -6531    -7167    -7742    -8221    -8677    -9050 
   -9282    -9215    -8681    -7901    -7439    -7628    -8105    -8256 
   -7850    -6984    -5981    -5344    -5305    -5595    -5827    -6011 
   -6480    -7159    -7508    -7353    -6995    -6694    -6567    -6539 
   -6372    -6099    -6000    -6025    -6012    -6197    -6772    -7510 
   -8062    -8260    -8248    -8286    -8378    -8345    -8145    -7931 
   -7766    -7442    -6777    -5965    -5379    -5117    -5055    -5227 
   -5734    -6399    -6936    -7276    -7392    -7273    -7115    -6976 
   -6615    -6038    -5579    -5402    -5448    -5652    -6057    -6644 
   -7207    -7623    -7878    -7863    -7604    -7356    -7349    -7641 
   -8002    -8171    -8282    -8402    -8101    -7223    -6349    -5992 
   -6149    -6659    -7307    -7807    -7978    -7646    -6770    -5730 
   -5039    -4780    -4591    -4380    -4509    -4990    -5537    -6134 
   -6805    -7403    -7801    -7935    -7855    -7769    -7790    -7781 
   -7661    -7564    -7543    -7435    -7102    -6596    -6062    -5576 
   -5128    -4795    -4723    -4892    -5174    -5562    -6147    -6889 
   -7425    -7384    -6893    -6512    -6596    -6890    -7087    -7298 
   -7418    -7061    -6536    -6386    -6412    -6411    -6689    -7281 
   -7740    -7765    -7404    -6943    -6783    -7047    -7373    -7379 
   -7090    -6770    -6615    -6798    -7337    -7835    -7908    -7481 
   -6658    -5811    -5363    -5290    -5401    -5652    -5980    -6219 
   -6142    -5571    -4637    -3836    -3748    -4556    -5660    -6226 
   -6272    -6467    -6955    -7452    -7909    -8201    -8063    -7572 
   -7064    -6929    -7379    -8067    -8492    -8706    -8918    -8887 
   -8340    -7456    -6620    -6049    -5657    -5292    -5092    -5271 
   -5679    -5971    -6053    -6160    -6463    -6799    -6947    -6940 
   -6976    -7048    -6893    -6586    -6525    -6735    -7078    -7665 
   -8451    -9099    -9374    -9234    -8762    -8101    -7304    -6539 
   -6103    -6010    -6141    -6586    -7152    -7292    -7003    -6836 
   -6991    -7323    -7628    -7630    -7489    -7632    -7804    -7558 
   -7011    -6366    -5868    -5863    -6081    -5991    -5676    -5398 
   -5177    -5125    -5305    -5498    -5620    -5746    -5832    -5995 
   -6512    -7230    -7692    -7832    -7919    -8017    -8020    -7946 
   -7832    -7555    -7029    -6373    -5757    -5292    -5115    -5346 
   -5900    -6494    -6833    -6717    -6131    -5421    -5086    -5274 
   -5899    -6837    -7700    -8082    -7912    -7373    -6907    -6955 
   -7425    -7921    -8283    -8457    -8198    -7322    -6106    -5042 
   -4440    -4456    -4976    -5567    -5917    -5971    -5759    -5422 
   -5319    -5763    -6582    -7321    -7780    -7904    -7651    -7215 
   -6741    -6211    -5880    -6022    -6378    -6550    -6515    -6538 
   -6855    -7453    -8201    -8972    -9574    -9817    -9622    -9030 
   -8309    -7909    -7901    -7866    -7653    -7476    -7335    -7125 
   -6948    -6760    -6346    -5873    -5782    -6210    -6983    -7828 
   -8413    -8526    -8221    -7699    -7244    -7009    -6863    -6640 
   -6235    -5629    -5071    -4849    -5069    -5687    -6459    -7171 
   -7734    -8008    -8016    -7933    -7692    -7148    -6408    -5694 
   -5281    -5476    -6214    -6929    -7032    -6345    -5231    -4210 
   -3535    -3318    -3618    -4275    -5074    -5967    -6902    -7665 
   -7981    -7707    -6956    -6107    -5599    -5567    -5875    -6462 
   -7225    -7866    -8175    -8102    -7688    -7317    -7414    -7785 
   -7971    -7973    -8039    -8145    -8021    -7639    -7280    -7011 
   -6651    -6307    -6274    -6540    -6886    -7177    -7369    -7439 
   -7319    -6941    -6285    -5408    -4513    -3773    -3194    -2797 
   -2632    -2635    -2779    -3234    -3987    -4720    -5281    -5796 
   -6316    -6767    -7195    -7700    -8268    -8804    -9205    -9371 
   -9302    -9190    -9188    -9189    -8923    -8247    -7465    -7055 
   -7106    -7303    -7271    -6990    -6782    -6717    -6650    -6660 
   -6789    -6939    -7078    -7107    -7171    -7607    -8194    -8469 
   -8556    -8850    -9271    -9393    -9093    -8538    -7776    -6890 
   -6235    -6054    -6197    -6432    -6586    -6598    -6748    -7237 
   -7647    -7530    -7051    -6481    -5730    -4785    -4056    -3937 
   -4310    -4702    -4787    -4652    -4546    -4464    -4251    -4047 
   -4182    -4830    -5857    -6824    -7384    -7550    -7418    -7074 
   -6578    -5899    -5116    -4536    -4349    -4519    -5062    -5973 
   -6987    -7878    -8621    -9069    -9084    -8919    -8945    -9208 
   -9601   -10134   -10783   -11323   -11541   -11504   -11427   -11323 
  -11011   -10474    -9848    -9131    -8291    -7412    -6539    -5694 
   -4968    -4411    -4118    -4394    -5402    -6732    -7686    -7923 
   -7591    -6944    -6080    -5057    -4051    -3199    -2511    -1972 
   -1618    -1510    -1660    -2096    -2988    -4568    -6791    -9173 
  -11109   -12291   -12892   -13269   -13429   -13166   -12453   -11207 
   -9192    -6436    -3414     -742     1109     1985     2077     1733 
    1189      453     -622    -2041    -3771    -5895    -8163   -10088 
  -11466   -12174   -12106   -11349   -10034    -8379    -6682    -5088 
   -3692    -2639    -2018    -1908    -2274    -2835    -3246    -3429 
   -3696    -4345    -5242    -6246    -7462    -8779    -9965   -11199 
  -12741   -14413   -15715   -16167   -15620   -14366   -12930   -11596 
  -10307    -9096    -8213    -7885    -8070    -8260    -7836    -6697 
   -5125    -3443    -2278    -2282    -3288    -4658    -6056    -7438 
   -8916   -10592   -12425   -14111   -14789   -13694   -11074    -7846 
   -4862    -2539     -684      954     2052     2029      687    -1622 
   -4128    -6127    -7375    -7861    -7696    -7252    -6874    -6442 
   -5636    -4517    -3306    -1885     -114     1723     3148     3786 
    3375     1903     -298    -2876    -5755    -9051   -12694   -15971 
  -17875   -17995   -16673   -14655   -12637   -10808    -9094    -7516 
   -5949    -4324    -3006    -2362    -2423    -3121    -4275    -5629 
   -7021    -8237    -9158   -10145   -11512   -12904   -13640   -13259 
  -11815    -9933    -8332    -7190    -6232    -5417    -4959    -4803 
   -4949    -5767    -7105    -8121    -8479    -8545    -8434    -8121 
   -7835    -7550    -7106    -6735    -6539    -6081    -5067    -3662 
   -2127     -851     -437    -1339    -3422    -5845    -7620    -8453 
   -8641    -8397    -7938    -7650    -7631    -7716    -7944    -8506 
   -9498   -10675   -11329   -10910    -9528    -7588    -5445    -3431 
   -1914    -1343    -2031    -3661    -5401    -6648    -7317    -7624 
   -7857    -8058    -8128    -8213    -8453    -8730    -9080    -9799 
  -10855   -11596   -11381   -10309    -8853    -7339    -6035    -5046 
   -4361    -4203    -4521    -4691    -4398    -4033    -3883    -3850 
   -3877    -3898    -3744    -3437    -3333    -3993    -5784    -8445 
  -11053   -12637   -12931   -12289   -11045    -9555    -8332    -7574 
   -6918    -5799    -4112    -2486    -1578    -1422    -1846    -2848 
   -4341    -6016    -7576    -8876    -9859   -10477   -10667   -10590 
  -10554   -10419    -9768    -8579    -7053    -5363    -3605    -1661 
     322     1657     1838      834    -1239    -4041    -6886    -9057 
  -10228   -10540   -10315    -9711    -8865    -8132    -7739    -7515 
   -7099    -6378    -5790    -5744    -5953    -6041    -6223    -6691 
   -7132    -7362    -7539    -7589    -7348    -7123    -7519    -8637 
   -9875   -10654   -10752    -9960    -8257    -6247    -4747    -3950 
   -3400    -2820    -2431    -2432    -2555    -2316    -1578     -823 
    -777    -1732    -3473    -5557    -7283    -8056    -8085    -7963 
   -8046    -8708   -10048   -11449   -12379   -12857   -12934   -12465 
  -11356    -9715    -8028    -7184    -7769    -9270   -10639   -11449 
  -11800   -11836   -11713   -11350   -10589    -9528    -8229    -6822 
   -5859    -5655    -5622    -4904    -3303    -1397      -64      125 
    -911    -2974    -5618    -8268   -10509   -12186   -13228   -13485 
  -12928   -11929   -10980   -10390   -10214   -10181    -9821    -8833 
   -7371    -5698    -3676    -1092     1787     4225     5354     4845 
    3109      669    -2100    -4654    -6416    -7302    -7727    -8186 
   -8789    -8972    -8175    -6727    -5265    -4029    -3242    -3145 
   -3682    -4695    -5841    -6643    -7176    -7861    -8695    -9450 
  -10015   -10349   -10358    -9815    -8598    -7122    -6052    -5670 
   -5950    -6709    -7423    -7601    -7364    -7180    -7202    -7159 
   -6754    -5949    -4949    -4149    -3997    -4534    -5228    -5555 
   -5656    -6045    -6814    -7611    -7916    -7194    -5466    -3549 
   -2381    -2420    -3537    -5211    -6858    -8128    -9027    -9799 
  -10638   -11519   -12258   -12530   -12082   -10982    -9454    -7654 
   -5917    -4723    -4324    -4866    -6463    -8641   -10301   -10728 
  -10195    -9377    -8590    -7639    -6353    -5171    -4757    -5341 
   -6901    -9130   -11173   -12325   -12642   -12499   -12067   -11236 
   -9721    -7510    -4950    -2297      141     1655     1768      851 
    -257     -918    -1096    -1225    -1556    -2088    -3029    -4459 
   -6019    -7545    -9063   -10134   -10342    -9892    -8966    -7516 
   -5949    -4973    -4719    -4800    -4931    -4816    -4141    -3426 
   -3824    -5584    -7882   -10042   -11861   -13288   -14501   -15655 
  -16397   -16343   -15623   -14308   -12163    -9441    -6922    -4930 
   -3273    -1900     -900     -386     -386     -630     -958    -1574 
   -2479    -3325    -3865    -4225    -4874    -6165    -7735    -8876 
   -9316    -9283    -9346   -10041   -11205   -12228   -12816   -12854 
  -12189   -10945    -9464    -8067    -7044    -6465    -6183    -6079 
   -5921    -5525    -5225    -5368    -5715    -5850    -5576    -4860 
   -3834    -2693    -1416        1     1096     1216       55    -2112 
   -4549    -6732    -8615   -10054   -10727   -10635   -10260   -10187 
  -10681   -11554   -12297   -12375   -11615   -10280    -8761    -7447 
   -6650    -6258    -5761    -4811    -3550    -2358    -1555    -1281 
   -1512    -2282    -3646    -5262    -6444    -6832    -6687    -6512 
   -6781    -7716    -9130   -10868   -12685   -13807   -13736   -12777 
  -11277    -9408    -7647    -6351    -5170    -3819    -2712    -2169 
   -1987    -2074    -2583    -3569    -5051    -6849    -8452    -9464 
   -9825    -9756    -9679    -9879   -10274   -10453    -9868    -8379 
   -6520    -4901    -3572    -2425    -1618    -1302    -1624    -2700 
   -4124    -5205    -5822    -6235    -6474    -6570    -6794    -7182 
   -7321    -6859    -5972    -5013    -4029    -3110    -2786    -3581 
   -5387    -7483    -9117    -9865    -9564    -8467    -7272    -6550 
   -6304    -6261    -6272    -6295    -6235    -5985    -5553    -5211 
   -5282    -5745    -6168    -6046    -5374    -4770    -4730    -5293 
   -6435    -8019    -9718   -11176   -11836   -11217    -9495    -7396 
   -5749    -5128    -5393    -5782    -5730    -5259    -4657    -4216 
   -4224    -4997    -6683    -8888   -10887   -12168   -12464   -11562 
   -9545    -7153    -5439    -4928    -5320    -5841    -5836    -5368 
   -5167    -5686    -6779    -8208    -9779   -11253   -12379   -12924 
  -12810   -12276   -11618   -10814    -9732    -8494    -7338    -6330 
   -5516    -5098    -5182    -5508    -5591    -5252    -4904    -4881 
   -4922    -4968    -5562    -6886    -8343    -9190    -9163    -8503 
   -7503    -6311    -5121    -4116    -3423    -3302    -3747    -4347 
   -4989    -5926    -7209    -8583    -9568    -9765    -9259    -8422 
   -7543    -6768    -6153    -5765    -5659    -5705    -5809    -6151 
   -6805    -7476    -7821    -7878    -7967    -8210    -8399    -8271 
   -7636    -6527    -5227    -3870    -2376     -924      112      657 
     745      268     -575    -1335    -2053    -3235    -5178    -7632 
   -9921   -11423   -12073   -12283   -12285   -11880   -10998    -9953 
   -9043    -8383    -7970    -7646    -7190    -6596    -6273    -6540 
   -6986    -6988    -6534    -5945    -5602    -5962    -7029    -8306 
   -9617   -10944   -11831   -11974   -11654   -11067    -9977    -8243 
   -6134    -3951    -1729      442     2146     2949     2729     1555 
    -430    -2875    -5305    -7465    -9166    -9998    -9984    -9925 
  -10326   -11007   -11738   -12037   -11340    -9890    -8344    -6906 
   -5535    -4290    -3361    -3048    -3391    -4098    -4873    -5414 
   -5541    -5324    -4955    -4749    -5016    -5737    -6547    -7252 
   -8167    -9486   -10744   -11331   -11125   -10477    -9786    -9154 
   -8505    -7808    -7190    -6851    -6852    -7006    -7063    -6872 
   -6411    -5771    -5093    -4549    -4394    -4818    -5784    -7300 
   -9219   -10690   -11003   -10632   -10312   -10080    -9790    -9502 
   -9078    -8078    -6401    -4664    -3439    -2701    -2492    -2999 
   -3843    -4634    -5595    -6768    -7674    -7950    -7553    -6720 
   -5946    -5678    -5836    -5930    -5810    -5764    -6011    -6686 
   -7751    -8730    -9043    -8472    -7223    -5861    -4874    -4126 
   -3223    -2286    -1908    -2540    -3970    -5339    -5890    -5541 
   -4673    -3717    -3063    -3080    -3942    -5374    -6858    -8154 
   -9296   -10332   -11250   -11705   -11348   -10465    -9498    -8553 
   -7757    -7242    -6979    -7033    -7452    -8044    -8480    -8322 
   -7321    -5906    -4895    -4706    -5152    -5886    -6817    -7862 
   -8671    -9020    -8981    -8689    -8325    -8073    -7963    -7942 
   -8048    -8201    -7946    -7006    -5651    -4307    -3267    -2737 
   -2787    -3361    -4349    -5445    -6315    -6916    -7196    -6975 
   -6465    -6334    -7057    -8353    -9340    -9529    -9248    -8830 
   -8347    -8167    -8579    -9121    -9189    -8641    -7431    -5622 
   -3755    -2313    -1219     -390      -58     -365    -1317    -2970 
