Origin Time       2024/04/02 04:24:00
Lat.              40.133
Long.             141.712
Depth. (km)       71
Mag.              6.0
Station Code      MYGH07
Station Lat.      38.1802
Station Long.     140.6405
Station Height(m) 186
Record Time       2024/04/02 04:25:12
Sampling Freq(Hz) 100Hz
Duration Time(s)  214
Dir.              6
Scale Factor      7845(gal)/8223790
Max. Acc. (gal)   4.554
Last Correction   2024/04/02 04:25:12
Memo.             
[...]
  -24537   -25154   -25353   -24678   -23672   -22987   -23130   -23899 
  -24051   -23275   -22647   -22779   -23454   -24075   -24104   -23754 
  -23445   -23265   -23326   -23452   -23244   -22974   -23240   -23892 
  -24376   -24510   -24390   -24214   -24089   -23938   -23930   -24166 
  -24229   -24025   -24047   -24356   -24453   -24112   -23610   -23465 
  -23954   -24683   -25064   -24938   -24368   -23553   -22925   -22874 
  -23450   -24229   -24445   -23803   -22963   -22824   -23575   -24401 
  -24344   -23741   -23689   -24138   -24243   -23895   -23481   -23117 
  -22777   -22500   -22420   -22635   -23033   -23413   -23692   -23873 
  -23926   -23755   -23287   -22879   -23151   -23949   -24462   -24331 
  -23706   -22910   -22607   -23094   -23684   -23838   -23754   -23635 
  -23569   -23629   -23666   -23518   -23260   -23045   -23176   -23872 
  -24518   -24376   -23796   -23499   -23477   -23344   -23144   -23326 
  -23957   -24611   -24888   -24387   -23220   -22557   -23261   -24602 
  -25189   -24669   -23990   -23893   -24025   -23923   -23700   -23635 
  -23876   -24167   -23986   -23400   -23198   -23797   -24506   -24425 
  -23849   -23738   -24128   -24240   -23554   -22419   -21942   -22793 
  -24235   -24957   -24405   -23122   -22206   -22343   -23274   -24073 
  -24075   -23506   -23058   -23157   -23458   -23367   -23222   -23531 
  -23924   -23993   -23800   -23808   -24497   -25250   -24908   -23610 
  -22720   -23137   -24328   -25122   -25145   -24730   -24223   -24065 
  -24422   -24696   -24387   -23854   -23544   -23388   -23319   -23506 
  -23824   -23846   -23598   -23614   -24131   -24738   -24817   -24409 
  -24071   -23889   -23674   -23541   -23637   -23820   -23710   -23472 
  -23823   -24552   -24682   -23954   -22882   -22273   -22711   -23730 
  -24378   -24390   -24025   -23481   -22974   -22974   -23566   -23747 
  -23098   -22917   -23680   -24131   -23607   -22566   -21810   -22006 
  -22994   -24108   -24803   -24557   -23371   -22142   -22099   -23681 
  -25463   -25429   -23812   -22685   -22990   -23923   -24568   -24672 
  -24349   -23700   -22951   -22871   -23862   -24925   -24976   -24196 
  -23514   -23593   -24047   -24094   -23757   -23309   -22890   -22981 
  -23801   -24574   -24283   -23167   -22441   -22711   -23727   -24761 
  -24854   -23985   -23319   -23647   -24514   -24923   -24378   -23319 
  -22639   -22828   -23596   -24371   -24838   -24651   -23650   -22584 
  -22408   -23139   -23993   -24340   -24306   -24290   -24358   -24335 
  -24042   -23637   -23548   -23743   -23950   -24260   -24502   -24094 
  -23079   -22369   -22867   -24381   -25547   -25290   -24055   -23107 
  -23183   -24071   -24833   -24698   -23942   -23264   -23079   -23344 
  -23391   -23001   -22997   -23727   -24343   -24046   -23210   -22813 
  -23037   -23187   -22877   -22582   -22937   -23903   -24714   -24529 
  -23492   -22723   -22897   -23733   -24591   -24871   -24336   -23203 
  -22145   -22081   -23067   -24159   -24815   -25073   -24738   -23796 
  -22932   -22921   -24001   -25401   -25894   -25149   -23827   -23035 
  -23403   -24298   -24894   -24884   -24170   -23349   -23291   -23901 
  -24309   -24023   -23626   -23843   -24332   -24471   -24155   -23573 
  -23454   -24047   -24212   -23442   -22773   -22806   -22952   -22613 
  -22077   -21928   -22045   -21971   -21729   -21828   -22588   -23252 
  -22827   -21627   -20671   -20659   -21699   -22968   -23368   -22659 
  -21601   -21159   -21556   -22497   -23835   -25051   -25255   -24363 
  -23197   -22648   -23049   -23896   -24629   -25047   -24934   -24437 
  -24086   -24174   -24761   -25602   -26041   -25600   -24718   -24664 
  -25995   -27414   -27400   -26153   -24962   -24826   -25748   -26628 
  -26503   -25753   -25292   -25132   -24679   -23971   -23604   -23573 
  -23344   -22928   -22813   -23001   -23112   -23152   -23369   -23781 
  -24252   -24510   -24240   -23599   -22990   -22577   -22690   -23660 
  -24672   -24398   -23078   -22311   -22856   -24135   -25188   -25247 
  -24432   -23832   -24048   -24403   -24204   -23661   -23105   -22612 
  -22495   -22929   -23253   -22783   -22072   -22019   -22539   -23118 
  -23399   -23157   -22682   -22532   -22932   -23716   -24344   -24436 
  -24378   -24609   -25019   -25354   -25282   -24656   -23888   -23344 
  -22956   -22643   -22582   -22810   -22945   -22729   -22312   -22198 
  -22819   -23565   -23337   -22280   -21670   -22203   -23350   -24160 
  -24098   -23211   -22233   -22280   -23452   -24605   -24961   -24603 
  -24017   -23826   -24271   -25138   -25942   -26288   -26158   -25527 
  -24800   -25150   -26516   -27045   -25863   -24344   -24171   -25421 
  -26647   -26644   -25762   -24993   -24692   -24656   -24571   -24344 
  -24129   -23743   -23032   -22581   -22665   -22636   -22203   -21674 
  -21168   -20822   -20991   -21606   -22187   -22474   -22427   -22173 
  -22046   -22094   -22010   -21716   -21645   -22403   -23718   -24478 
  -24247   -23484   -22797   -22813   -23525   -24007   -23665   -22812 
  -22046   -22115   -23199   -24084   -23674   -22512   -21907   -22505 
  -23633   -24082   -23816   -23716   -24086   -24691   -25253   -25577 
  -25710   -25479   -24776   -24321   -24412   -24533   -24771   -25105 
  -24788   -23815   -22913   -22550   -22970   -23877   -24363   -24101 
  -23781   -23832   -23704   -23242   -23315   -24025   -24406   -24069 
  -23345   -22763   -22848   -23427   -23853   -23920   -23715   -23407 
  -23244   -23152   -23109   -23268   -23400   -23383   -23383   -23225 
  -22889   -22816   -23101   -23539   -24113   -24661   -24711   -23986 
  -23121   -23357   -24880   -26468   -26954   -26114   -24617   -23507 
  -23494   -24416   -25265   -25211   -24402   -23662   -23934   -25083 
  -25705   -25272   -24565   -24019   -23650   -23510   -23357   -22967 
  -22450   -22154   -22369   -22805   -22979   -22894   -22856   -23260 
  -24036   -24354   -23880   -23249   -23013   -23392   -24105   -24182 
  -23571   -23464   -24063   -24462   -24193   -23361   -22786   -23452 
  -24764   -25218   -24534   -23674   -23471   -23928   -24502   -24745 
  -24619   -24306   -24036   -24131   -24679   -25112   -24771   -23882 
  -23247   -23122   -23278   -23562   -23885   -24109   -24027   -23541 
  -22972   -22765   -22941   -23120   -23022   -22928   -23160   -23600 
  -24183   -24567   -24036   -23085   -22916   -23437   -24016   -24340 
  -23992   -23307   -23194   -23514   -23646   -23541   -23236   -22882 
  -22914   -23336   -23683   -23778   -23679   -23423   -23117   -22833 
  -22678   -22797   -23184   -23688   -23978   -23673   -22831   -22250 
  -22928   -24601   -25554   -24858   -23646   -23417   -24066   -24414 
  -24165   -23932   -23804   -23514   -23229   -23193   -23535   -24185 
  -24571   -24337   -23922   -23874   -24327   -24933   -25154   -24838 
  -24351   -24352   -24958   -25215   -24435   -23247   -22682   -22964 
  -23560   -23845   -23291   -22063   -21247   -21321   -21782   -22453 
  -23137   -23180   -22634   -22360   -22827   -23548   -23884   -24086 
  -24559   -25045   -25315   -25186   -24626   -24449   -25131   -25741 
  -25396   -24293   -23168   -22725   -23191   -24013   -24336   -23831 
  -22956   -22451   -22597   -23156   -23939   -24907   -25695   -25546 
  -24390   -23487   -23788   -24732   -25189   -24560   -23456   -23116 
  -23583   -23723   -23153   -22761   -23328   -24449   -25000   -24491 
  -23383   -22277   -21771   -22264   -23342   -24248   -24541   -24023 
  -22894   -21932   -21860   -22577   -23359   -23712   -23504   -22655 
  -21633   -21481   -22392   -23483   -23973   -23645   -22885   -22569 
  -23271   -24403   -24865   -24636   -24259   -23712   -23292   -23679 
  -24655   -25255   -24910   -24043   -23518   -23712   -24497   -25409 
  -25778   -25621   -25509   -25270   -24707   -24628   -25469   -26391 
  -26242   -24792   -23130   -22495   -22990   -23846   -24349   -24459 
  -24386   -23924   -22925   -21914   -21772   -22765   -23809   -23819 
  -23170   -22619   -22415   -22681   -23188   -23301   -22800   -22310 
  -22327   -22501   -22477   -22411   -22535   -23060   -23913   -24471 
  -24424   -24139   -23830   -23589   -23811   -24517   -25015   -24791 
  -24256   -24021   -24088   -24304   -24710   -24935   -24408   -23602 
  -23404   -23761   -24274   -24730   -25007   -25034   -24622   -24151 
  -24298   -24655   -24455   -23768   -23048   -22792   -23170   -23697 
  -23940   -23750   -23209   -22855   -22989   -23472   -23988   -23720 
  -22403   -21307   -21552   -22636   -23429   -23480   -22993   -22241 
  -21608   -21578   -21967   -22042   -21790   -21834   -22242   -22665 
  -23047   -23537   -24417   -25544   -25961   -25386   -24984   -25578 
  -26462   -26527   -25693   -24806   -24556   -25110   -26134   -26747 
  -26438   -25817   -25509   -25240   -24552   -23625   -23193   -23722 
  -24510   -24200   -22809   -21986   -22673   -24093   -24808   -24054 
  -22692   -22241   -23005   -24075   -24393   -23718   -22801   -22302 
  -22486   -23369   -24154   -24241   -24308   -24653   -24363   -23261 
  -22567   -22975   -23807   -24063   -23402   -22495   -22424   -23298 
  -24032   -23799   -23128   -23221   -24278   -25238   -25353   -24877 
  -24287   -24123   -24561   -24772   -24262   -23719   -23643   -23949 
  -24597   -25301   -25708   -25891   -25651   -24676   -23615   -23148 
  -23242   -23834   -24453   -24251   -23359   -22713   -22638   -22758 
  -22855   -22832   -22458   -21944   -21717   -21562   -21370   -21582 
  -22019   -22183   -22261   -22531   -22855   -22735   -21848   -21015 
  -21182   -22110   -23278   -24088   -23893   -23315   -23454   -24345 
  -25384   -25733   -24867   -23502   -22916   -23427   -24138   -24152 
  -23751   -23703   -23877   -23529   -22567   -21830   -22026   -22747 
  -23085   -22990   -23202   -24043   -24965   -25250   -24911   -24613 
  -24889   -25566   -25722   -24640   -22999   -22289   -22829   -23603 
  -23695   -22796   -21550   -21195   -21828   -22653   -23417   -23892 
  -23847   -23661   -23623   -23641   -23533   -23375   -23623   -24224 
  -24699   -25033   -25143   -24862   -24575   -24530   -24497   -24359 
  -24317   -24661   -25228   -25451   -25564   -26106   -26445   -26095 
  -25637   -25238   -24688   -24282   -24264   -24351   -24183   -23912 
  -23969   -24260   -24337   -24298   -24591   -25235   -25536   -24609 
  -23068   -22975   -24837   -26651   -26520   -24628   -22659   -22025 
  -22632   -23356   -23776   -24375   -24922   -24474   -22989   -21729 
  -21980   -23691   -25435   -25602   -24221   -22929   -22435   -22341 
  -22607   -22832   -22550   -22173   -21884   -21531   -21390   -21798 
  -22472   -22936   -23588   -24775   -25408   -24294   -22018   -20376 
  -20440   -21720   -22719   -22685   -22561   -22611   -21951   -21065 
  -20987   -21749   -22828   -23380   -23151   -22777   -22975   -23931 
  -24420   -23222   -21311   -20301   -20707   -22172   -23481   -23846 
  -24201   -25224   -25978   -25893   -25803   -26177   -25992   -24553 
  -23190   -23306   -24520   -25685   -25834   -24884   -24062   -24313 
  -25019   -24961   -23841   -22732   -22536   -22912   -23568   -24035 
  -23542   -22860   -22774   -22927   -23670   -25041   -26196   -26730 
  -26458   -25751   -25303   -25359   -25947   -26464   -26507   -26750 
  -27313   -27271   -26141   -24723   -24154   -24298   -24497   -24553 
  -24052   -23110   -22771   -23197   -23329   -22773   -22613   -23309 
  -23695   -23548   -23820   -24416   -24780   -24588   -23525   -22469 
  -22563   -23380   -24204   -24672   -24555   -24524   -24764   -24437 
  -23769   -23471   -23634   -24071   -23993   -23101   -22540   -23157 
  -24524   -25513   -24945   -23032   -21114   -19731   -19253   -20220 
  -21897   -23251   -23836   -23226   -22457   -23336   -25272   -26288 
  -25524   -23765   -22971   -23514   -23527   -22501   -21706   -21757 
  -22269   -22351   -21826   -21982   -23295   -24352   -24235   -23473 
  -22702   -22215   -22194   -22671   -23357   -23488   -22716   -21810 
  -21574   -21905   -22331   -22763   -23554   -24645   -25054   -24313 
  -23356   -22859   -22414   -21774   -21384   -21783   -23102   -24826 
  -25756   -24700   -22280   -21173   -22635   -24606   -25083   -24331 
  -23390   -23157   -23604   -23951   -24302   -24672   -24636   -24629 
  -24682   -24745   -25409   -25986   -26086   -26539   -26990   -26739 
  -25717   -24424   -24343   -25601   -26631   -26847   -26532   -26100 
  -25913   -25490   -24602   -23915   -23421   -22802   -22453   -22721 
  -23863   -25417   -25632   -23862   -21721   -20900   -21262   -21867 
  -22550   -22956   -22752   -22793   -23539   -24393   -24796   -24769 
  -24710   -24474   -23899   -23511   -23409   -23355   -23457   -23711 
  -23981   -24206   -24306   -24003   -22774   -20891   -19624   -19446 
  -19799   -20390   -21199   -22491   -24352   -25825   -26227   -25951 
  -25550   -25335   -24988   -24432   -24576   -25119   -24536   -23110 
  -22492   -23411   -25385   -26990   -26889   -25199   -23314   -22669 
  -23346   -24349   -25184   -25624   -25207   -24564   -24833   -25571 
  -25726   -24941   -23337   -22007   -22168   -23514   -24850   -25301 
  -24862   -24366   -24671   -25996   -27568   -27834   -25949   -23137 
  -21361   -21034   -21342   -21490   -21011   -20243   -20113   -20795 
  -21316   -20834   -19797   -19481   -20704   -23191   -25425   -25458 
  -22940   -19959   -18967   -20191   -21793   -22435   -22492   -22702 
  -23186   -23666   -23688   -22924   -21539   -20113   -19631   -21108 
  -23993   -25864   -25300   -23616   -22607   -22636   -23441   -24607 
  -25266   -25031   -24499   -24398   -25066   -26006   -26312   -25963 
  -25397   -25008   -25456   -26515   -26912   -26092   -24668   -23593 
  -23284   -23352   -23394   -23525   -24059   -24752   -24837   -24316 
  -24160   -25083   -26847   -28235   -27992   -26538   -25407   -25158 
  -25307   -25273   -24833   -24349   -24155   -23923   -23187   -22067 
  -21270   -21312   -22123   -23441   -24958   -26118   -26077   -24684 
  -23207   -22956   -23944   -25381   -26388   -26439   -25459   -23747 
  -22148   -21562   -22045   -22800   -23040   -22854   -23016   -23730 
  -24321   -24271   -23635   -22671   -21814   -21676   -22279   -22789 
  -22801   -22790   -23224   -24038   -24428   -23880   -23436   -23915 
  -24378   -24059   -23110   -21660   -20773   -21718   -23558   -24468 
  -24055   -22940   -22077   -22123   -22879   -24328   -26395   -27706 
  -27245   -25839   -24660   -24248   -24845   -26199   -27278   -27067 
  -25575   -23699   -22511   -22554   -23268   -23359   -22243   -20811 
  -20248   -20817   -21979   -22817   -22751   -22399   -22856   -24181 
  -25326   -25203   -23831   -22360   -21320   -20528   -20571   -21463 
  -21863   -21282   -20266   -19597   -20479   -22847   -24678   -24374 
  -22345   -20410   -20414   -22468   -24391   -24264   -22783   -21720 
  -22022   -23765   -25802   -26712   -26665   -26277   -25489   -24599 
  -24030   -23847   -23916   -23449   -22242   -21698   -22507   -23724 
  -24634   -24786   -23936   -23342   -23881   -24547   -24922   -25218 
  -24984   -24351   -23754   -23403   -23835   -24599   -24421   -23368 
  -22642   -23031   -24082   -24845   -25436   -26329   -26970   -26557 
  -25282   -24372   -24933   -26586   -27691   -27365   -26562   -26395 
  -26628   -26395   -25625   -25228   -25766   -26759   -27002   -25354 
  -22775   -21743   -22686   -24048   -24532   -23809   -22905   -22874 
  -23514   -24183   -24189   -23488   -22863   -22235   -21471   -21467 
  -22311   -23203   -23615   -23107   -21990   -21550   -22360   -23419 
  -23419   -22383   -21489   -21539   -22410   -23384   -23527   -22354 
  -20568   -19676   -20139   -21235   -22654   -24263   -25157   -24243 
  -22094   -20902   -21405   -22161   -22175   -21776   -21783   -22609 
  -23575   -24138   -24961   -26217   -26698   -25785   -24621   -24506 
  -24977   -24784   -23869   -23002   -22993   -24251   -25578   -25316 
  -23835   -22866   -23380   -24871   -25759   -25126   -24034   -23862 
  -24574   -25687   -26916   -27556   -27048   -25528   -23689   -22923 
  -23885   -25335   -25991   -25720   -25065   -25012   -25866   -26531 
  -26048   -24862   -24259   -24946   -26142   -26453   -25440   -24078 
  -23631   -23946   -24106   -23876   -23043   -21645   -20707   -20829 
  -21676   -22920   -24028   -24178   -23221   -21998   -21323   -20935 
  -20177   -19426   -19683   -20993   -22316   -22786   -22549   -22221 
  -21953   -21663   -21537   -21541   -21578   -22283   -23734   -24410 
  -23422   -21951   -21450   -22006   -22447   -21883   -21212   -21554 
  -22279   -22729   -23296   -23855   -23683   -22810   -22179   -22585 
  -23403   -23382   -22924   -23186   -24094   -25069   -25593   -25542 
  -25582   -25716   -25205   -24252   -23788   -24586   -26384   -27619 
  -27504   -26734   -26156   -26395   -27136   -27249   -26732   -26642 
  -27236   -27784   -27641   -26931   -26528   -26748   -26644   -25681 
  -24317   -23071   -22419   -22248   -22077   -22364   -23186   -23356 
  -22520   -21670   -21586   -21832   -21271   -20229   -20380   -21809 
  -23075   -23549   -23494   -23259   -23224   -23502   -23807   -23878 
  -23464   -22418   -21390   -21393   -22437   -23454   -23730   -23893 
  -24633   -25266   -25146   -24472   -23201   -21817   -21563   -22243 
  -22593   -22566   -22900   -23360   -23047   -22177   -22130   -23507 
  -25282   -25813   -24857   -23998   -24119   -24349   -24024   -23553 
  -23490   -23980   -24858   -25716   -25934   -25431   -24962   -24792 
  -24495   -24133   -23789   -23345   -23248   -23692   -24248   -24580 
  -24283   -23407   -22898   -23344   -24447   -25305   -25188   -24501 
  -23922   -23591   -23538   -23552   -23444   -23368   -23403   -23499 
  -23410   -23176   -23413   -23850   -23460   -22569   -22550   -23801 
  -25184   -24949   -22755   -20609   -20574   -22324   -23843   -23846 
  -22889   -22091   -21926   -22561   -23869   -25095   -25459   -24684 
  -23248   -22366   -22736   -23711   -24359   -24672   -25218   -25830 
  -25589   -24219   -22750   -22470   -23662   -25523   -26819   -26651 
  -25332   -24256   -24025   -23706   -23180   -23404   -23726   -22945 
  -21467   -20166   -19876   -21020   -22414   -22524   -21689   -21629 
  -23082   -24760   -25096   -24200   -23334   -23232   -23568   -23711 
  -23571   -23503   -23778   -24372   -24892   -24965   -24868   -24815 
  -24471   -24025   -23935   -23992   -24093   -24452   -25012   -25608 
  -25752   -25050   -24291   -24246   -24489   -24663   -24760   -24660 
  -24559   -24540   -24444   -24503   -24529   -23842   -22808   -22601 
  -23619   -25199   -26333   -26198   -24684   -22692   -21315   -21026 
  -21919   -23649   -24962   -24684   -23122   -21762   -21744   -22840 
  -23974   -24511   -24498   -24142   -23835   -23846   -23901   -23957 
  -24483   -25474   -26010   -25380   -24286   -23791   -23768   -23863 
  -24213   -24673   -25085   -25353   -25089   -24339   -23394   -22361 
  -21682   -21452   -21034   -20399   -20239   -20644   -21088   -21473 
  -22023   -22612   -23002   -23039   -22584   -21782   -20900   -20370 
  -20958   -22523   -23591   -23294   -22218   -21639   -22692   -24848 
