Origin Time       2024/04/02 04:24:00
Lat.              40.133
Long.             141.712
Depth. (km)       71
Mag.              6.0
Station Code      MYGH14
Station Lat.      38.3400
Station Long.     140.9551
Station Height(m) 48
Record Time       2024/04/02 04:25:07
Sampling Freq(Hz) 100Hz
Duration Time(s)  120
Dir.              4
Scale Factor      7845(gal)/8223790
Max. Acc. (gal)   13.129
Last Correction   2024/04/02 04:25:07
Memo.             
[...]
    3649     4027     4239     4059     3510     2880     2592     2767 
    3167     3570     3778     3631     3337     3153     3045     3075 
    3377     3901     4506     4851     4534     3584     2382     1375 
     940     1113     1667     2403     3018     3264     3284     3191 
    2918     2583     2216     1746     1418     1408     1566     1796 
    2034     2157     2243     2446     2759     3184     3716     4183 
    4479     4604     4461     4039     3618     3453     3429     3327 
    3180     3036     2859     2756     2795     2830     2751     2652 
    2795     3168     3304     3110     3048     3167     3210     3208 
    3183     3105     3049     3005     2922     2791     2592     2405 
    2332     2331     2359     2366     2278     2268     2610     3183 
    3593     3703     3620     3488     3369     3157     2772     2323 
    1999     2077     2678     3429     3836     3846     3723     3720 
    3846     3875     3717     3507     3357     3273     3171     2964 
    2751     2704     2805     2889     2809     2619     2444     2153 
    1657     1235     1158     1464     2065     2736     3287     3696 
    3877     3790     3711     3962     4612     5359     5630     5171 
    4380     3738     3358     3156     3038     2999     3003     2848 
    2465     2041     1764     1705     1810     1988     2193     2389 
    2594     2836     3071     3298     3484     3491     3329     3213 
    3203     3245     3469     3912     4329     4565     4657     4572 
    4178     3430     2504     1750     1464     1659     2118     2575 
    2886     3078     3206     3237     3110     2868     2605     2370 
    2246     2326     2519     2597     2497     2347     2208     2065 
    2038     2297     2762     3211     3613     3966     4131     4063 
    3950     3943     3897     3589     3161     2893     2770     2760 
    2914     3049     3079     3214     3435     3476     3277     3002 
    2813     2755     2752     2724     2627     2425     2177     2131 
    2461     3033     3666     4199     4386     4193     3842     3433 
    2934     2366     1807     1371     1077      942     1167     1845 
    2768     3589     3971     3993     4048     4125     4072     4020 
    3925     3754     3788     4066     4398     4676     4726     4486 
    3929     2926     1796     1058      726      760     1181     1692 
    1980     1945     1691     1570     1748     2046     2296     2388 
    2258     2080     2128     2577     3392     4263     4772     4814 
    4684     4649     4710     4770     4788     4734     4392     3547 
    2560     2070     2154     2416     2571     2536     2231     1632 
     973      579      579      938     1540     2158     2589     2739 
    2655     2585     2770     3294     4082     4822     5313     5537 
    5250     4347     3276     2513     2204     2424     3073     3696 
    3933     3762     3277     2679     2178     1868     1875     2137 
    2349     2558     3057     3657     3955     3869     3593     3503 
    3781     4217     4502     4364     3829     3261     2767     2282 
    1954     1931     2209     2712     3214     3447     3373     3160 
    2979     2913     2906     2920     2917     2739     2420     2232 
    2328     2654     3046     3443     4050     4816     5202     4904 
    4122     3204     2485     2134     2096     2226     2411     2732 
    3258     3750     3979     4016     3959     3690     3053     2191 
    1529     1410     1728     2188     2768     3391     3736     3685 
    3424     3204     3235     3514     3661     3280     2524     1931 
    1807     2107     2628     3025     2983     2596     2303     2327 
    2505     2783     3253     3724     3974     4035     3970     3802 
    3611     3507     3474     3298     2916     2500     2188     2060 
    2092     2216     2390     2403     2155     2015     2249     2566 
    2619     2384     2008     1676     1597     1838     2281     2814 
    3356     3843     4338     4857     5179     5111     4752     4315 
    3915     3574     3188     2639     2056     1741     1730     1710 
    1545     1394     1412     1760     2479     3354     4056     4426 
    4622     4803     4920     4992     4969     4545     3649     2681 
    1984     1610     1491     1547     1742     2103     2621     3191 
    3605     3650     3412     3234     3227     3331     3600     4013 
    4345     4291     3766     3003     2276     1736     1479     1570 
    1942     2369     2732     3195     3815     4398     4814     4965 
    4689     4067     3458     3127     3095     3136     2833     2135 
    1620     1718     2285     2937     3273     3150     2845     2632 
    2546     2543     2455     2034     1386      918      834     1084 
    1557     2187     2828     3137     2976     2643     2438     2484 
    2839     3408     4048     4652     5059     5179     5043     4661 
    4063     3460     3165     3210     3225     3106     3136     3268 
    3215     3025     2899     2867     2879     2851     2624     2205 
    1833     1667     1799     2226     2632     2758     2741     2732 
    2641     2365     2038     1911     1949     2007     2243     2786 
    3449     3993     4236     4182     4024     3915     4032     4376 
    4689     4932     5130     5067     4650     3975     3146     2374 
    1907     1814     1945     2084     2174     2263     2322     2219 
    1964     1877     2146     2562     2994     3407     3815     4437 
    5193     5617     5460     4722     3631     2737     2365     2370 
    2551     2841     3199     3457     3372     2821     2041     1547 
    1544     1856     2365     2913     3229     3267     3152     2883 
    2381     1833     1737     2303     3234     4128     4680     4756 
    4476     4086     3788     3700     3819     3923     3798     3512 
    3152     2637     1987     1416     1173     1377     1885     2427 
    2893     3198     3121     2771     2635     2808     2940     2925 
    2926     3037     3179     3187     3088     2874     2404     1938 
    1869     2104     2292     2315     2317     2344     2300     2239 
    2268     2443     2799     3257     3712     4082     4318     4552 
    4776     4784     4549     4112     3574     3171     2897     2737 
    2848     3052     3087     2967     2655     2246     2133     2512 
    3299     4186     4723     4765     4387     3615     2745     2277 
    2309     2498     2544     2535     2681     2839     2867     2929 
    3075     3319     3646     3755     3639     3600     3593     3558 
    3593     3534     3241     2859     2475     2011     1343      656 
     468      934     1575     1977     2246     2619     3064     3458 
    3771     3894     3682     3375     3312     3360     3287     3118 
    2959     2928     2862     2454     1944     1861     2374     3169 
    3657     3588     3366     3358     3570     3958     4314     4313 
    3916     3388     3053     3090     3400     3700     3771     3649 
    3460     3365     3449     3406     2994     2509     2254     2205 
    2296     2478     2695     2826     2759     2721     3018     3511 
    3827     3821     3667     3565     3534     3546     3581     3543 
    3203     2469     1711     1321     1271     1444     1763     2095 
    2285     2192     1981     2033     2300     2620     3177     3935 
    4510     4654     4423     4086     3767     3372     2940     2585 
    2245     1795     1198      615      319      460     1021     1867 
    2690     3306     3823     4244     4402     4256     3789     3145 
    2724     2590     2536     2581     2659     2543     2268     2062 
    2083     2299     2620     3075     3564     3788     3765     3767 
    3861     3975     4008     3827     3461     3019     2575     2188 
    1879     1734     1903     2362     2862     3144     3156     2995 
    2793     2702     2727     2629     2282     1968     2016     2407 
    2953     3569     4175     4712     5223     5705     6026     6000 
    5444     4490     3532     2767     2351     2493     2945     3283 
    3460     3445     3069     2505     2153     2197     2492     2805 
    3015     3003     2884     3090     3694     4236     4274     3627 
    2577     1795     1559     1656     1908     2139     2258     2461 
    2907     3584     4430     5196     5638     5836     5782     5293 
    4592     3986     3523     3337     3322     3163     2920     2637 
    2245     2092     2392     2775     2887     2602     1949     1271 
     892      837     1071     1447     1737     2007     2420     2856 
    3146     3354     3630     4029     4500     4943     5227     5306 
    5281     5186     4947     4525     3994     3538     3215     2857 
    2300     1626     1089      818      756      792      892     1198 
    1791     2481     3196     4008     4525     4357     3838     3350 
    3069     3222     3538     3554     3381     3246     3175     3148 
    2998     2679     2424     2295     2153     2042     2084     2193 
    2272     2347     2371     2335     2446     2832     3360     3744 
    3740     3492     3380     3389     3250     3115     3265     3508 
    3447     2936     2160     1533     1302     1323     1439     1653 
    1906     2200     2702     3339     3792     3852     3488     2940 
    2635     2641     2712     2685     2446     1969     1526     1422 
    1699     2185     2600     2767     2756     2686     2625     2728 
    3084     3580     4071     4392     4410     4162     3742     3361 
    3341     3596     3743     3748     3766     3715     3551     3294 
    2840     2241     1668     1190     1047     1420     2031     2582 
    3069     3532     3952     4257     4287     3979     3383     2635 
    2081     1991     2338     2999     3746     4299     4568     4623 
    4483     4155     3896     3966     4263     4637     4978     5053 
    4830     4452     3786     2824     2100     2079     2704     3537 
    4086     4185     3815     3092     2442     2022     1642     1301 
    1001      738      702      930     1354     1929     2286     2115 
    1668     1368     1557     2393     3539     4533     5209     5483 
    5355     5078     4815     4583     4426     4232     3846     3311 
    2656     1917     1300      923      724      729      980     1409 
    1906     2415     2898     3194     3230     3275     3473     3689 
    3940     4237     4453     4623     4765     4769     4656     4599 
    4712     4815     4715     4617     4677     4799     5011     5232 
    5231     5170     5266     5324     5103     4463     3497     2635 
    2064     1674     1549     1836     2377     2808     2894     2620 
    2064     1425      850      407      243      309      318       85 
    -340     -697     -750     -561     -422     -510     -754     -888 
    -618       49      776     1345     1831     2224     2431     2587 
    2916     3522     4271     4826     5067     4963     4288     3279 
    2625     2532     2694     2841     2852     2799     2860     3184 
    3897     4834     5539     5829     5849     5776     5809     6010 
    6104     5764     4988     3931     2725     1617      805      278 
     -20     -157     -195      -67      334     1020     1776     2274 
    2536     2868     3262     3461     3446     3457     3682     4081 
    4386     4349     4045     3771     3842     4540     5922     7728 
    9624    11348    12576    13015    12722    11962    10885     9532 
    7982     6273     4239     1803     -803    -3177    -4793    -5373 
   -4981    -3678    -1628      889     3585     6041     7931     9220 
    9904     9933     9386     8557     7771     7028     6053     4779 
    3304     1625     -176    -1871    -3345    -4766    -6336    -7830 
   -8725    -8716    -7789    -6172    -4297    -2517     -926      550 
    2019     3549     5154     6679     7881     8664     8937     8488 
    7231     5287     2771      -51    -2551    -4159    -4776    -4704 
   -4387    -4044    -3531    -2538     -842     1521     4218     6832 
    9039    10546    11207    11155    10658    10058     9610     9225 
    8541     7242     5258     2856      637     -859    -1478    -1270 
    -356      918     2061     2786     3051     2837     2185     1350 
     805      994     1933     3105     3919     4186     3964     3237 
    2031      633     -407     -499      444     1922     3445     4684 
    5482     6085     6677     6922     6671     6389     6396     6481 
    6400     6170     5998     5962     5753     5077     3989     2675 
    1476      724      365      157      -60     -260      -86      648 
    1667     2683     3364     3323     2617     1590      576        6 
     102      630     1294     2095     3234     4699     6081     7246 
    8441     9472     9886     9718     9212     8313     6720     4237 
    1028    -2430    -5339    -6764    -6373    -4641    -2166      469 
    2683     4583     6594     8405     9494     9971    10116     9990 
    9456     8212     6288     4291     2651     1409      738      707 
     928     1013      820      284     -510    -1200    -1308     -699 
     442     1923     3148     3408     2663     1188     -434    -1223 
    -824       95      903     1752     3141     5092     6990     7885 
    7152     5027     2251     -367    -2054    -2631    -2523    -2039 
   -1416     -805       21     1196     2721     4866     7578    10478 
   13413    15832    16773    15973    13744    10400     6362     2018 
   -2146    -5286    -6955    -7477    -7223    -6354    -5049    -3402 
   -1433      642     2485     3846     4692     5387     6339     7549 
    8694     9331     9266     8490     6822     4419     1910     -341 
   -2247    -3508    -3886    -3468    -2335     -580     1502     3697 
    5810     7411     8222     8432     8158     7207     5676     4037 
    2536     1148      -93     -962    -1129     -592      267     1252 
    2319     3113     3179     2382      988     -388    -1159    -1097 
    -174     1443     3333     5198     6980     8571     9903    10990 
   11650    11670    11157    10274     9026     7507     5794     3825 
    1949      774      260      -43     -216     -174       14      124 
    -118     -676    -1359    -2049    -2250    -1402      147     1602 
    2587     3122     3651     4668     5900     6814     7273     7318 
    7284     7692     8467     8968     8675     7489     5653     3586 
    1733      427     -284     -627     -788     -756     -395      383 
    1328     1949     1965     1567     1131      627     -237    -1498 
   -2901    -3855    -3649    -2147      105     2457     4467     5833 
    6519     6840     6944     6637     5883     4830     3603     2482 
    1679     1034      681     1323     3026     4738     5456     4941 
    3543     2064     1293     1476     2317     3262     3919     4387 
    4996     5923     7087     7935     7835     6843     5482     4172 
    3114     2343     2006     2319     3241     4375     5161     5368 
    5125     4499     3654     2920     2481     2455     2857     3570 
    4482     5258     5331     4480     2999     1304     -275    -1528 
   -2308    -2388    -1678     -510      627     1354     1526     1421 
    1458     1686     1968     2270     2512     2743     3137     3589 
    4193     5279     6524     7334     7619     7430     6739     5584 
    4224     3207     2700     2223     1636     1252     1089      945 
     660      -24    -1221    -2436    -2822    -1875      210     2490 
    3812     3720     2643     1431      842     1177     2394     4229 
    6007     7092     7595     8017     8560     9054     9158     8677 
    7736     6538     5225     3981     2747      951    -1799    -4943 
   -7425    -8467    -7861    -5967    -3252       41     3557     6724 
    9063    10204    10048     9213     8646     8583     8486     7997 
    7314     6705     6245     5849     5304     4469     3476     2497 
    1551      730      301      351      714     1297     1992     2467 
    2442     1966     1252      332     -749    -1447    -1163       74 
    1705     3084     4056     5004     6160     7391     8372     8525 
    7608     6204     4962     4117     3716     3415     2659     1358 
    -313    -2315    -4328    -5499    -5049    -3091     -433     2324 
    4826     6546     7152     7044     6886     6804     6532     5859 
    4638     2967     1232     -329    -1713    -2774    -3142    -2358 
    -496     1489     2875     3796     4556     5316     6014     6254 
    5714     4666     3712     3060     2574     2162     1641      654 
    -990    -2868    -4044    -4082    -3472    -2648    -1524      -82 
    1687     3759     5553     6725     7649     8526     9373    10191 
   10689    10697    10469    10303    10242    10119     9559     8221 
    6363     4556     3005     1769      908      432      542     1255 
    1948     2034     1487      596     -121     -214      264     1058 
    1904     2401     2212     1271     -167    -1487    -1950    -1166 
     527     2139     2737     2309     1549      945      815     1486 
    2708     3973     5320     6812     8154     9234    10035    10318 
    9873     8776     7325     5818     4419     3176     2057     1053 
     259       62      737     1713     2250     2330     2147     1707 
    1102      645      533      459       -6     -704    -1350    -2072 
   -2744    -2758    -1665      450     3033     5401     7037     7599 
    7107     5975     4814     4071     3651     3333     3211     3240 
    3169     2928     2436     1610      737      360      726     1530 
    2238     2632     2771     2625     2231     1907     1971     2536 
    3461     4318     4665     4465     4075     3858     3936     4218 
    4600     5042     5416     5601     5823     6505     7603     8438 
    8401     7465     5979     4360     3113     2624     2766     2874 
    2316     1251      388      -25     -307     -812    -1732    -2812 
   -3424    -3287    -2637    -1624      -91     1942     4013     5564 
    6459     6978     7524     8301     9062     9487     9499     8932 
    7688     6230     5184     4762     4791     4750     4121     3065 
    2133     1399      616     -140     -542     -384      183      633 
     594      400      506      739      819      907     1069     1085 
     793      249     -124      109     1077     2781     4815     6307 
    6664     5945     4858     4303     4422     4787     5200     5530 
    5580     5397     5069     4630     4310     4288     4342     4074 
    3399     2702     2299     2057     1713     1154      394     -351 
    -708     -511      -25      476     1113     1998     2797     3137 
    3260     3770     4735     5566     5927     6099     6228     5906 
    4654     2531      205    -1564    -2349    -1946     -468     1613 
    3865     5979     7631     8488     8330     7396     6295     5177 
    3646     1584     -548    -2215    -3218    -3630    -3543    -2984 
   -1884     -206     1836     3843     5321     5971     6156     6455 
    6934     7352     7310     6411     4884     3287     1848      670 
     -85     -311      -51      391      816     1296     1692     1849 
    1980     2303     2779     3318     3896     4437     4626     4228 
