Origin Time       2024/04/02 04:24:00
Lat.              40.133
Long.             141.712
Depth. (km)       71
Mag.              6.0
Station Code      MYGH04
Station Lat.      38.7860
Station Long.     141.3254
Station Height(m) -65
Record Time       2024/04/02 04:25:01
Sampling Freq(Hz) 100Hz
Duration Time(s)  122
Dir.              2
Scale Factor      2942(gal)/8224139
Max. Acc. (gal)   4.449
Last Correction   2024/04/02 04:25:01
Memo.             
[...]
  189238   189788   190193   189818   190491   191062   190071   188971 
  188612   188981   189398   188883   188480   188832   188983   189178 
  189367   188748   188397   189141   190039   190323   189841   189538 
  189981   190034   189799   189702   189283   189707   190676   190506 
  190206   189820   188740   188590   189121   189160   188933   188171 
  188050   189472   190112   189390   188989   189039   189109   188870 
  188874   190217   191266   190725   190112   189712   189603   190059 
  189787   189676   190410   189950   189584   190356   189810   189195 
  190115   190463   190215   190121   189845   190011   189981   189101 
  188801   189364   189388   188638   188515   189117   189136   188954 
  189116   189361   189996   189993   189008   189128   189606   188828 
  189251   191189   191357   190518   190683   190023   188917   189417 
  189384   188535   189378   189801   188523   188503   189136   188412 
  188145   189310   189999   189550   189364   189334   188627   189093 
  190887   190912   189178   188009   188619   190281   190048   189040 
  190671   191979   190818   189697   188632   188134   189437   189938 
  189243   189689   189931   188630   188077   189137   189704   189368 
  189356   189363   189256   189448   189230   189027   189580   189611 
  189176   189842   190225   189055   189000   190162   189737   189591 
  190732   190514   190444   190840   189216   188227   188947   189221 
  189738   189699   189189   189911   189530   188650   189409   188962 
  188102   188743   188657   188977   190100   189912   189986   190291 
  189892   189896   189286   188947   189720   189137   188963   190051 
  189441   188667   188963   189382   189954   189167   188824   190831 
  191204   190162   190152   189294   188862   189729   189079   188612 
  189804   190038   189737   189878   189522   189395   189437   189286 
  189869   190000   189233   189125   189049   188847   189591   190478 
  191027   191416   191047   189815   188507   188569   189722   190158 
  190215   189969   189103   189101   188802   187660   188721   190062 
  189282   189610   190105   189102   190062   191207   189913   189600 
  189965   189398   189395   188971   188639   189761   189959   189548 
  189689   189233   189729   190705   189405   188138   188649   189344 
  190071   190004   189253   189942   190588   189973   189893   189548 
  189116   190377   190502   188572   187728   187770   188665   190240 
  189510   188732   190169   189932   188944   189645   189561   189395 
  189822   189060   188658   188536   188217   189448   189861   189564 
  191114   190555   188797   190221   190309   189047   190614   190849 
  189459   189619   188667   187852   188955   188860   188531   188993 
  189121   190053   190497   189870   190012   189720   189314   189796 
  189761   189955   190071   189287   189286   188944   188350   189629 
  190452   190255   190374   189576   189328   190020   189270   188578 
  188689   188666   189627   190210   189414   188871   188292   188572 
  190219   190343   189481   189629   189720   189841   190247   189895 
  189260   189324   190239   191313   191192   189934   189157   189664 
  189974   188846   188411   189611   190146   189926   189380   188265 
  188685   190057   189630   188574   188241   188630   189815   190328 
  190054   189811   188848   188194   188871   189556   190042   190418 
  190189   189803   189211   188604   188977   189349   189035   189707 
  190614   190189   190530   191474   190285   188499   187998   188168 
  189170   190258   190451   189873   188428   188157   189804   190043 
  189224   189579   189394   188870   189684   190012   189241   189282 
  189912   189976   190034   189931   188820   188593   189795   189454 
  188603   189957   191319   191073   190424   189950   189726   189047 
  188439   189463   190530   190534   190271   189121   188503   189650 
  189872   189328   189768   189494   188815   189521   190190   189924 
  189839   190069   189637   188850   189236   189332   187876   188416 
  190502   189718   188083   188352   189252   190463   190688   189498 
  189499   190090   189772   189596   189305   188914   189027   189121 
  189984   191014   190152   188690   187724   186958   187674   189113 
  189535   190034   190622   189745   188354   188235   188724   188844 
  189522   190726   191197   191123   190570   189967   190567   190552 
  188860   188389   189430   190453   191277   190332   188697   189182 
  189392   188323   188736   189850   190216   190021   189175   188812 
  188958   188528   188292   188370   188627   189768   190740   190690 
  190406   190102   189500   188563   188408   189684   190150   189598 
  190151   190300   189216   189322   190490   190876   190128   189398 
  189789   190096   189753   189477   188523   188302   190004   190478 
  189616   189691   189584   189226   188987   188118   188412   189553 
  189446   189930   190887   190412   190235   190447   190042   190143 
  190012   189514   189508   188709   188526   189819   189302   188609 
  189784   189175   187995   189074   189854   189972   189946   189207 
  189282   189373   188811   189361   189884   189866   190040   189604 
  189928   190444   188885   188316   189577   189484   189637   190941 
  190109   188254   188457   188932   188869   189621   189390   188846 
  190360   190726   189336   189202   188819   188041   188412   188454 
  188792   190054   190170   189749   189804   189503   189568   190140 
  189849   189063   188793   189247   190171   190196   189236   189149 
  189465   189135   189094   188906   188754   190155   191110   190429 
  190439   190737   190120   189665   189486   189433   189249   188570 
  189207   190769   190489   189699   190244   190668   190324   189909 
  189769   189793   189383   188596   188445   189022   189006   188439 
  188771   189336   188998   188856   189892   190900   190073   188900 
  189665   190150   189238   189067   189325   189502   189828   189822 
  190455   190895   189476   188562   189099   189243   189383   189648 
  189279   189317   189372   188404   188380   189577   190011   189965 
  189332   188366   189122   190005   189490   189832   190185   189264 
  189766   190756   189207   187991   189392   190366   190269   191089 
  191690   190921   190258   189950   189303   189091   189616   190216 
  190183   189103   188410   188730   188653   189125   190329   189951 
  189495   190235   189480   188192   188968   189897   189595   189301 
  189230   189243   189540   189460   189137   189765   190452   189884 
  189124   188655   188281   188775   189891   190672   190409   189368 
  189180   189307   188748   188912   189206   188964   189537   189534 
  188939   190009   190574   189861   190171   189792   188781   189513 
  189692   188886   189162   189086   188900   189737   189820   189045 
  188485   188659   189589   189828   189976   190680   189880   188508 
  188597   189097   189229   189426   190007   189785   188426   188902 
  190736   190510   189267   188952   189581   190468   190151   189365 
  189627   189799   189091   188676   188879   188677   188777   189945 
  190035   189271   189719   189943   189648   190005   189756   189463 
  190699   191400   190008   188901   189611   190323   190200   190236 
  190313   189793   188689   188195   189265   190046   189371   188636 
  188412   189230   190518   189803   188742   189440   189294   189054 
  190370   189988   188896   189874   189966   188662   188254   188431 
  189419   190351   189588   189144   189780   190223   191230   191577 
  190196   190158   190723   189193   188454   188993   188018   187683 
  188905   188909   189000   190409   190509   189696   189884   189882 
  189484   189488   189230   189179   189581   189284   189162   189768 
  189978   190363   190444   189213   188703   188951   188890   189851 
  190378   189653   190081   190331   189990   190964   190779   189480 
  189919   190371   190152   189835   188705   188608   189360   189168 
  189234   188566   187043   187656   188566   188330   189299   189588 
  188102   187990   188844   189272   190174   190740   190329   189865 
  189460   189334   189954   190321   189598   189186   189924   190250 
  189441   188501   188345   189094   189831   190071   190194   190000 
  189643   189741   189800   189452   189465   189537   188450   187396 
  188229   189556   189780   190036   190474   190132   189993   190194 
  190067   190255   189716   188804   189730   190161   189507   190441 
  190491   189471   190487   190375   188154   187782   188797   189558 
  189616   189005   189815   190884   190170   189949   190329   190416 
  191216   190957   189544   189193   188661   188573   190417   190950 
  189612   189049   188743   188568   189301   189837   189801   189276 
  188227   187898   188545   189056   188873   188638   189382   190175 
  190606   191501   191110   189683   189538   189243   188850   189476 
  189147   188964   190084   189915   189380   189911   189635   189094 
  189371   189437   189245   189434   190416   191149   189881   188522 
  188847   188711   188119   188676   189303   189326   189187   189363 
  190228   190858   191137   191083   189326   187756   188562   189195 
  188775   189405   190783   191161   190364   190170   190771   190220 
  189140   188368   187756   188838   190148   189743   189837   190023 
  189099   188959   189048   188535   188428   188356   188597   189355 
  189680   189897   189743   188967   188962   189849   190624   190567 
  190075   190402   190521   189762   189812   190107   189631   189245 
  188634   187743   188042   189152   189259   188927   189363   189236 
  188890   190404   191540   190196   188495   187513   187802   189680 
  190360   189282   189264   190161   190170   190069   190652   190062 
  188404   188744   190063   189822   189508   189233   188099   188354 
  190071   190552   190024   190013   189868   189360   189832   190536 
  189950   189673   190347   189711   188515   189180   190039   189114 
  188327   188839   188666   187812   188401   189603   189980   190063 
  189598   189152   189731   189892   189718   190057   189514   188882 
  189368   189614   189710   190007   190431   191396   191050   189745 
  189804   188977   187697   188816   189051   188461   190152   190633 
  189453   189436   188939   188566   189337   189384   189491   189958 
  189900   189575   188615   188588   189546   188896   189089   190602 
  189697   189318   190701   189932   189356   189957   188762   188095 
  188608   188596   189396   190115   190355   191133   190671   189801 
  189194   187100   186995   189807   190566   190351   191274   190775 
  189502   189206   189284   189869   190201   189419   189164   190296 
  191353   191575   191629   191012   188978   187566   188072   189017 
  190034   190424   189209   188588   188924   188496   188898   190080 
  189311   187732   187863   189066   190066   191247   192061   190971 
  189760   189900   189190   188704   190175   190381   189153   188489 
  187137   186879   188299   187837   187805   189076   187693   186340 
  185830   183886   184501   185861   184407   184991   186391   186067 
  187069   186802   185626   186868   186464   185342   186602   186965 
  187386   188630   188302   188304   188190   187254   188090   188165 
  187204   188720   189394   188566   190134   191247   189970   189691 
  190701   191331   192092   193276   193468   193017   193174   192381 
  191824   194208   195979   195697   196129   195039   192909   194305 
  195724   193691   192138   192261   193207   194898   194543   193286 
  194883   196539   196013   195489   194711   192794   190852   189958 
  190162   190138   190116   191916   194273   194940   193662   189791 
  184912   183451   183984   181990   180419   182494   184707   185913 
  187986   189870   190609   189819   187126   185430   186723   188168 
  187882   186912   185334   183720   184839   188865   192793   195018 
  194914   192985   191745   190620   187107   183112   180254   177399 
  177753   183485   189228   193356   197922   199462   197792   196067 
  193256   192240   194880   195970   196276   197482   196302   196029 
  198090   196734   192708   190117   191052   195659   197212   192645 
  186975   181229   177927   180798   184285   185789   187755   186883 
  184578   186422   188765   188624   190239   192672   191830   191434 
  193675   191990   186262   183922   184604   184376   184523   187336 
  192775   196358   193691   189284   187996   186653   184981   187070 
  191538   195732   198856   197453   192304   188489   185410   182920 
  182992   182877   183253   185419   184574   183019   184243   183057 
  181188   183651   187573   190485   190810   189886   192231   194397 
  193017   191254   189044   187142   187752   188272   188910   192111 
  194043   191624   189298   191361   195713   197387   193135   184520 
  179325   182756   188750   191623   195219   198841   195259   187596 
  185819   189873   191791   188534   183554   180782   182009   184943 
  186599   189788   194069   193522   192773   196716   196658   192183 
  191127   188708   182456   179724   180193   181862   187508   193617 
  194246   190320   187999   191404   194717   193214   193757   196323 
  192865   187501   187805   192699   197509   196130   189494   185612 
  185464   185988   186243   186410   189156   192746   193174   192913 
  191567   186154   180341   177088   177402   183169   190105   192194 
  191340   192994   197132   198027   194313   191771   192368   192048 
  189207   187049   188715   192254   193985   194845   195849   193619 
  187907   184447   185062   185437   185548   188802   192040   191340 
  189614   189093   188569   187373   185878   185805   187934   191686 
  194625   192121   188184   189378   189095   185283   185899   188568 
  189513   191806   194024   194923   196311   197676   197968   195023 
  190136   188519   187423   184333   185820   191686   195112   194852 
  190809   185573   185884   188563   186183   183860   186707   188966 
  188239   188446   189148   187496   185022   184954   188160   192287 
  192631   189507   187717   186471   184920   185861   187334   187770 
  188076   187520   188801   191350   190254   189147   191668   194190 
  194495   192275   189792   189382   188703   188207   189465   189720 
  189569   191052   192346   193696   196456   197729   194860   189739 
  184802   183076   188249   193739   191320   189002   191523   191477 
  189899   189284   188214   189581   189687   185616   184337   184743 
  184099   185955   185890   182949   184424   187139   187996   191432 
  192566   187450   183809   183483   183528   186435   190275   190385 
  189558   190471   191250   190783   188975   187732   189384   191710 
  191330   188244   186813   190864   195116   194383   191948   189739 
  189214   191482   191853   190359   189553   187204   186769   190412 
  192948   194895   196233   194204   193371   193681   190750   189033 
  189797   188859   188902   191481   191889   188034   183367   184403 
  191346   194472   191350   190483   192399   192404   192642   191848 
  187681   186908   188646   186509   185338   184882   182241   185048 
  189274   187744   189035   191682   188978   187965   187517   183473 
  183930   187628   188200   189365   189388   185079   183475   186017 
  186829   186838   188586   189282   188630   189660   190607   189071 
  188782   192196   195372   195563   194175   191377   188747   189743 
  191018   190275   191579   191740   188339   187397   187744   187652 
  190254   190960   189430   190738   190348   188619   190212   189865 
  188157   189662   190578   190887   191640   190260   188657   187699 
  187870   189982   189990   190536   195250   196676   193649   191636 
  190260   190096   190584   189839   191658   194891   193943   191486 
  191309   191675   190640   189168   190043   191386   189164   187104 
  188501   189511   189461   190143   190717   191637   191725   189653 
  188858   188589   187127   189218   192256   190471   188977   189322 
  187591   188095   192549   194910   194324   192896   190769   190156 
  190428   188148   185727   185225   185014   186364   187809   187294 
  188684   190001   188134   188188   188592   186281   185566   183614 
  180208   182853   186621   187065   190305   193700   192717   190841 
  189157   187612   187461   188447   189546   189264   189292   191475 
  192790   192449   192109   191239   190202   189487   188558   187351 
  185236   182602   182251   185445   189094   190610   190885   190082 
  188954   189010   188867   189413   190571   188380   187178   189961 
  189785   188041   188145   186984   187713   190965   193306   196904 
  198913   196916   194379   189912   186115   187290   189774   193503 
  197210   195949   194784   196384   194678   191068   189611   188388 
  186706   186285   187308   187948   187394   187420   188755   190945 
  192769   191991   189762   187990   186448   186043   185827   185878 
  189044   191484   190158   189229   188608   187903   189787   191312 
  190818   190853   190452   189297   188442   186297   183319   182075 
  183563   187320   190235   190289   190602   191621   189810   187704 
  188781   190057   191335   192986   190899   188437   189756   189398 
  187497   187658   187312   188292   191324   192103   192902   193858 
  192083   191191   190314   188401   190115   190179   186648   189589 
  194570   192827   190629   189985   189187   190806   190699   188455 
  189541   189943   187459   186459   186767   187893   188538   186123 
  184393   186005   187686   187947   188214   189558   190323   189379 
  189378   190580   191162   190711   188050   186108   188424   190393 
  189932   190082   190104   190197   191158   191466   191632   191003 
  188883   187583   187377   188437   190413   190626   191192   193696 
  194104   192708   192615   193764   194630   193106   191022   191498 
  191875   190097   188264   188466   190135   189611   187922   189453 
  191311   191168   191663   190572   186914   185792   187258   187767 
  188750   191074   191898   191871   192986   193226   191924   191178 
  191718   191911   189789   187500   187618   188199   187820   186113 
  183996   184670   186223   185512   184632   183945   184154   187693 
  190228   188728   188987   191700   191135   189432   189915   188361 
  185272   185110   185800   185499   185936   187596   189558   189824 
  189248   190657   191921   191089   189760   188315   188508   191155 
  192303   191423   191091   190161   188287   187137   186321   186115 
  187539   189031   188993   188406   189176   190671   190082   188770 
  189213   188642   187918   190664   192160   189652   187527   186826 
  187987   191020   192659   192867   191679   189197   188936   189791 
  190911   193726   194310   193436   193567   191714   191126   192285 
  190206   188663   188862   188318   189822   191347   190844   191278 
  192110   193033   193529   192299   192096   191947   189766   189009 
  190387   192400   193047   189758   186822   187843   188829   188269 
  187933   188110   188045   186856   185827   187108   190274   191334 
  188418   187222   189291   189028   187274   186075   184511   185527 
