Origin Time       2024/04/02 04:24:00
Lat.              40.133
Long.             141.712
Depth. (km)       71
Mag.              6.0
Station Code      MYGH06
Station Lat.      38.5907
Station Long.     141.0710
Station Height(m) 20
Record Time       2024/04/02 04:25:04
Sampling Freq(Hz) 100Hz
Duration Time(s)  177
Dir.              5
Scale Factor      7845(gal)/8223790
Max. Acc. (gal)   4.138
Last Correction   2024/04/02 04:25:05
Memo.             
[...]
   -2982    -3098    -3080    -2979    -2974    -3122    -3368    -3487 
   -3414    -3354    -3387    -3466    -3589    -3703    -3780    -3831 
   -3825    -3797    -3736    -3492    -3091    -2768    -2693    -2857 
   -3106    -3319    -3514    -3666    -3740    -3770    -3758    -3716 
   -3635    -3396    -3057    -2872    -2947    -3198    -3473    -3623 
   -3632    -3599    -3650    -3823    -3955    -3897    -3661    -3375 
   -3171    -3103    -3229    -3424    -3451    -3451    -3585    -3592 
   -3354    -3154    -3113    -3017    -2816    -2716    -2871    -3206 
   -3424    -3372    -3276    -3314    -3412    -3527    -3642    -3672 
   -3566    -3451    -3522    -3738    -3879    -3859    -3767    -3697 
   -3684    -3586    -3241    -2976    -3187    -3528    -3580    -3393 
   -3133    -3036    -3145    -3253    -3451    -3794    -3844    -3534 
   -3349    -3385    -3453    -3551    -3613    -3651    -3836    -3894 
   -3541    -3245    -3346    -3439    -3321    -3404    -3746    -3792 
   -3434    -3133    -3126    -3322    -3534    -3591    -3476    -3361 
   -3368    -3385    -3369    -3339    -3253    -3275    -3507    -3685 
   -3692    -3680    -3661    -3564    -3526    -3681    -3843    -3720 
   -3331    -3084    -3168    -3292    -3307    -3331    -3348    -3331 
   -3379    -3501    -3574    -3555    -3630    -3909    -4144    -4085 
   -3773    -3376    -3073    -3109    -3514    -3839    -3878    -3971 
   -4002    -3685    -3435    -3520    -3612    -3589    -3492    -3211 
   -2860    -2718    -2802    -2982    -3152    -3184    -3088    -2994 
   -2999    -3133    -3252    -3227    -3246    -3491    -3759    -3798 
   -3676    -3576    -3566    -3542    -3368    -3237    -3292    -3222 
   -3103    -3383    -3813    -3994    -4066    -4010    -3700    -3349 
   -3072    -2787    -2575    -2543    -2670    -2937    -3279    -3557 
   -3693    -3715    -3770    -3960    -4040    -3856    -3716    -3649 
   -3379    -3078    -2941    -2859    -2952    -3260    -3399    -3264 
   -3113    -3049    -3142    -3420    -3599    -3503    -3299    -3145 
   -3145    -3339    -3632    -3906    -4041    -4005    -3909    -3840 
   -3788    -3743    -3746    -3865    -4009    -3888    -3458    -3088 
   -3090    -3397    -3682    -3728    -3623    -3462    -3241    -3083 
   -3025    -2929    -2843    -2875    -2986    -3173    -3411    -3541 
   -3543    -3542    -3472    -3190    -2840    -2724    -2932    -3245 
   -3454    -3558    -3539    -3450    -3396    -3308    -3326    -3688 
   -4082    -4051    -3673    -3368    -3318    -3416    -3615    -3843 
   -3943    -3873    -3622    -3298    -3214    -3368    -3477    -3555 
   -3692    -3773    -3727    -3663    -3740    -3925    -4018    -3896 
   -3613    -3292    -2980    -2828    -3091    -3608    -3861    -3754 
   -3605    -3493    -3349    -3191    -3115    -3258    -3607    -3947 
   -4027    -3744    -3362    -3191    -3140    -3164    -3484    -3916 
   -3958    -3651    -3555    -3753    -3715    -3321    -3061    -3113 
   -3186    -3194    -3235    -3245    -3107    -2898    -2789    -2840 
   -3021    -3260    -3310    -3018    -2789    -2980    -3298    -3445 
   -3537    -3686    -3800    -3819    -3834    -3715    -3365    -3165 
   -3268    -3275    -3098    -3059    -3230    -3404    -3472    -3438 
   -3343    -3222    -3038    -3038    -3460    -3829    -3747    -3636 
   -3734    -3658    -3481    -3645    -3925    -3958    -3940    -3931 
   -3794    -3651    -3422    -3028    -2860    -3082    -3396    -3653 
   -3829    -3777    -3578    -3600    -3815    -3973    -4118    -4185 
   -3991    -3713    -3542    -3446    -3370    -3279    -3194    -3202 
   -3277    -3308    -3353    -3493    -3569    -3553    -3543    -3407 
   -3159    -3017    -2999    -3013    -3045    -3145    -3296    -3396 
   -3427    -3391    -3191    -2886    -2772    -2984    -3335    -3701 
   -4004    -4052    -3846    -3537    -3179    -2845    -2698    -2817 
   -3030    -3137    -3181    -3227    -3385    -3676    -3744    -3589 
   -3549    -3512    -3366    -3315    -3399    -3433    -3283    -3113 
   -3130    -3275    -3473    -3673    -3794    -3915    -4060    -4089 
   -3919    -3634    -3499    -3645    -3747    -3546    -3235    -2983 
   -2886    -3064    -3217    -3061    -2949    -3150    -3488    -3782 
   -3919    -3931    -3952    -3898    -3727    -3588    -3399    -3073 
   -2901    -2980    -3051    -3055    -3198    -3481    -3700    -3885 
   -4091    -4135    -3948    -3626    -3304    -3279    -3604    -3867 
   -3834    -3597    -3284    -3094    -3032    -2930    -2970    -3321 
   -3677    -3755    -3661    -3562    -3499    -3508    -3531    -3392 
   -3273    -3464    -3665    -3561    -3362    -3245    -3248    -3412 
   -3557    -3555    -3555    -3445    -3168    -3235    -3666    -3820 
   -3612    -3393    -3314    -3315    -3303    -3292    -3273    -3248 
   -3335    -3483    -3566    -3547    -3431    -3402    -3457    -3318 
   -3084    -3068    -3179    -3230    -3302    -3419    -3456    -3504 
   -3734    -4010    -4060    -3812    -3507    -3358    -3256    -3203 
   -3316    -3392    -3322    -3298    -3331    -3267    -3055    -2882 
   -2928    -3040    -3087    -3186    -3456    -3773    -3834    -3565 
   -3195    -2955    -2903    -2917    -2995    -3206    -3443    -3639 
   -3715    -3545    -3397    -3561    -3839    -4094    -4253    -4028 
   -3545    -3285    -3361    -3677    -4050    -4120    -3933    -3790 
   -3603    -3365    -3234    -3127    -3126    -3354    -3492    -3375 
   -3303    -3303    -3275    -3495    -3861    -3908    -3867    -4044 
   -4099    -4024    -4014    -3861    -3654    -3634    -3581    -3434 
   -3392    -3414    -3333    -3219    -3307    -3437    -3254    -2880 
   -2620    -2721    -3191    -3368    -2971    -2785    -3041    -3142 
   -3186    -3522    -3692    -3387    -3090    -3100    -3346    -3738 
   -3865    -3596    -3549    -3774    -3690    -3507    -3638    -3740 
   -3622    -3411    -2987    -2605    -2775    -3262    -3551    -3543 
   -3341    -3167    -3132    -2980    -2756    -2901    -3246    -3311 
   -3244    -3330    -3457    -3457    -3306    -3168    -3271    -3497 
   -3570    -3554    -3516    -3396    -3492    -3865    -3959    -3759 
   -3773    -3908    -3834    -3647    -3485    -3306    -3140    -3105 
   -3229    -3402    -3508    -3582    -3763    -4040    -4174    -3952 
   -3535    -3354    -3456    -3551    -3638    -3728    -3711    -3688 
   -3568    -3119    -2772    -2982    -3341    -3330    -3029    -2835 
   -3006    -3343    -3573    -3782    -3948    -3812    -3433    -3146 
   -3145    -3333    -3528    -3649    -3673    -3611    -3582    -3618 
   -3377    -2870    -2774    -3157    -3423    -3514    -3591    -3524 
   -3329    -3118    -2894    -2810    -2913    -2970    -3090    -3449 
   -3665    -3420    -3083    -3148    -3424    -3582    -3886    -4220 
   -4051    -3654    -3420    -3342    -3593    -3905    -3850    -3740 
   -3762    -3770    -3798    -3770    -3730    -3883    -4035    -4010 
   -4018    -3991    -3635    -3169    -3051    -3200    -3248    -3105 
   -2955    -2997    -3140    -3254    -3422    -3555    -3640    -3882 
   -4149    -4195    -4047    -3823    -3720    -3770    -3630    -3260 
   -3084    -3173    -3186    -3082    -3129    -3276    -3248    -3153 
   -3288    -3651    -3858    -3453    -2704    -2484    -2839    -2999 
   -2849    -2843    -3082    -3329    -3491    -3696    -3883    -3896 
   -3796    -3628    -3422    -3379    -3572    -3747    -3697    -3557 
   -3422    -3203    -3056    -3248    -3642    -3789    -3499    -3046 
   -2787    -2893    -3134    -3098    -2964    -3154    -3495    -3576 
   -3356    -3148    -3244    -3562    -3832    -3974    -4114    -4286 
   -4298    -4095    -3802    -3512    -3358    -3383    -3489    -3635 
   -3708    -3531    -3160    -2953    -3090    -3242    -3241    -3233 
   -3096    -2866    -2963    -3310    -3550    -3747    -3820    -3599 
   -3403    -3388    -3361    -3329    -3207    -2882    -2662    -2810 
   -3169    -3466    -3661    -3751    -3673    -3607    -3786    -4075 
   -4259    -4248    -3963    -3554    -3350    -3470    -3805    -3940 
   -3491    -2945    -2934    -3219    -3445    -3659    -3824    -3829 
   -3693    -3423    -3168    -3207    -3366    -3338    -3268    -3210 
   -3090    -3129    -3430    -3773    -3913    -3797    -3595    -3477 
   -3512    -3569    -3472    -3385    -3381    -3352    -3466    -3666 
   -3553    -3227    -3053    -3024    -3115    -3456    -3919    -4194 
   -4189    -4056    -3913    -3771    -3654    -3551    -3453    -3415 
   -3277    -2853    -2508    -2501    -2606    -2952    -3564    -3916 
   -3993    -4085    -3994    -3700    -3624    -3848    -3994    -3859 
   -3592    -3454    -3549    -3615    -3524    -3534    -3591    -3450 
   -3186    -2936    -2826    -2895    -2856    -2571    -2415    -2519 
   -2435    -2201    -2332    -2701    -2871    -2793    -2687    -2894 
   -3383    -3666    -3553    -3372    -3333    -3233    -3010    -2859 
   -2782    -2771    -2836    -2862    -2894    -2975    -2963    -2976 
   -3203    -3396    -3338    -3180    -2997    -2859    -3099    -3700 
   -4033    -3859    -3663    -3761    -4172    -4719    -4954    -4816 
   -4596    -4430    -4540    -4920    -5197    -5266    -5227    -5188 
   -5351    -5660    -5728    -5410    -5138    -5128    -4993    -4692 
   -4596    -4698    -4725    -4548    -4344    -4359    -4536    -4714 
   -4664    -4291    -4008    -3913    -3620    -3184    -2751    -2299 
   -2083    -2107    -2111    -2230    -2525    -2651    -2586    -2535 
   -2320    -2012    -2074    -2404    -2613    -2837    -3184    -3315 
   -3125    -2899    -2833    -2953    -3029    -2682    -1954    -1305 
    -912     -658     -596     -677     -588     -297     -106     -294 
   -1093    -2292    -3194    -3649    -4059    -4352    -4286    -4097 
   -3978    -3827    -3798    -4101    -4399    -4326    -4114    -4083 
   -4168    -4225    -4230    -4336    -4676    -4806    -4309    -3762 
   -3676    -3692    -3747    -4128    -4641    -4953    -4977    -4729 
   -4305    -3879    -3532    -3229    -3053    -3235    -3717    -4040 
   -3925    -3653    -3458    -3125    -2631    -2405    -2690    -3341 
   -4012    -4378    -4310    -3819    -3275    -3183    -3285    -2906 
   -1977    -1062     -679     -797    -1320    -2184    -2778    -2732 
   -2504    -2398    -2342    -2440    -2839    -3370    -3843    -4185 
   -4081    -3524    -3009    -2650    -2309    -2000    -1873    -2350 
   -3404    -4329    -4737    -4581    -3832    -2860    -2209    -2089 
   -2431    -3092    -3879    -4469    -4777    -5004    -5008    -4498 
   -3642    -2884    -2679    -3335    -4707    -6016    -6396    -5975 
   -5552    -5344    -5175    -5013    -4714    -4144    -3697    -3808 
   -4276    -4729    -4992    -5022    -4984    -4865    -4423    -3796 
   -3245    -2874    -2875    -3073    -2843    -2196    -1869    -2143 
   -2641    -3144    -3731    -4310    -4644    -4703    -4610    -4247 
   -3381    -2322    -1767    -1861    -2100    -2276    -2462    -2370 
   -1961    -1764    -1988    -2524    -3599    -5192    -6385    -6504 
   -5976    -5143    -3950    -2774    -1956    -1444    -1381    -1836 
   -2583    -3369    -3804    -3727    -3496    -3214    -2690    -2184 
   -1917    -1556    -1023     -734     -905    -1439    -2334    -3485 
   -4479    -5158    -5649    -5876    -5795    -5522    -5022    -4341 
   -3955    -4171    -4680    -5142    -5267    -4819    -4129    -3553 
   -3073    -2830    -2906    -3256    -3834    -4174    -3944    -3677 
   -3890    -4206    -4093    -3618    -3024    -2338    -1611     -992 
    -606     -685    -1389    -2408    -3241    -3696    -3700    -3241 
   -2789    -2832    -3095    -3033    -2592    -1998    -1433    -1231 
   -1642    -2450    -3292    -3932    -4263    -4243    -3721    -2790 
   -1880    -1246    -1040    -1522    -2547    -3433    -3827    -4121 
   -4737    -5568    -6259    -6354    -5609    -4542    -3657    -2893 
   -2357    -2111    -2026    -2216    -2601    -2907    -3298    -4101 
   -5181    -5975    -6146    -5819    -5298    -4918    -4826    -4945 
   -5327    -5665    -5296    -4468    -4122    -4494    -5034    -5178 
   -4888    -4475    -3932    -2898    -1441     -248      125     -230 
    -961    -1903    -2791    -3238    -3195    -2679    -1744     -904 
    -693    -1074    -1725    -2559    -3576    -4529    -5252    -5728 
   -5834    -5578    -5078    -4371    -3624    -3253    -3542    -4329 
   -5354    -6447    -6947    -6219    -4846    -3689    -2790    -2219 
   -2253    -2687    -3250    -3789    -4050    -4212    -4594    -4766 
   -4252    -3628    -3662    -4125    -4521    -4737    -4675    -4440 
   -4360    -4328    -3969    -3343    -2790    -2398    -2339    -2706 
   -2988    -2898    -2594    -2039    -1414    -1166    -1525    -2463 
   -3291    -3100    -2277    -1918    -2135    -2625    -3383    -4045 
   -4491    -5232    -6035    -6010    -5093    -3858    -2590    -1498 
   -1254    -2172    -3302    -3696    -3528    -3109    -2566    -2444 
   -2957    -3312    -3075    -3007    -3619    -4351    -4718    -4729 
   -4390    -3781    -3129    -2629    -2370    -2285    -2072    -1413 
    -737    -1042    -2110    -2619    -2284    -1707    -1066     -288 
     517      899      405     -741    -1890    -2743    -3690    -5053 
   -6331    -6933    -6876    -6399    -5486    -4344    -3716    -3928 
   -4518    -4891    -4689    -4248    -4224    -4479    -4388    -3994 
   -3831    -3900    -3676    -3206    -2990    -2918    -2606    -2276 
   -2308    -2573    -2751    -2841    -3208    -3979    -4525    -4495 
   -4469    -4662    -4480    -3739    -2984    -2716    -2951    -3480 
   -4004    -4126    -3775    -3426    -3362    -3150    -2452    -1765 
   -1611    -1701    -1625    -1659    -2173    -2832    -3100    -3083 
   -3080    -3072    -3246    -3792    -4446    -5231    -6160    -6597 
   -6311    -5950    -6060    -6373    -6154    -5163    -3874    -2808 
   -2253    -2305    -2689    -2953    -3222    -4012    -5012    -5302 
   -4730    -3939    -3541    -3557    -3450    -3145    -3072    -3041 
   -2764    -2660    -2967    -3325    -3483    -3495    -3337    -3021 
   -2801    -2781    -2933    -3373    -4017    -4536    -4689    -4402 
   -3936    -3601    -3237    -2778    -2559    -2685    -2952    -3117 
   -2994    -2832    -3036    -3454    -3747    -3889    -3896    -3892 
   -4179    -4635    -4877    -4864    -4733    -4716    -4846    -4522 
   -3499    -2438    -1763    -1313    -1059    -1088    -1335    -1759 
   -2272    -2498    -2440    -2716    -3365    -3932    -4394    -4652 
   -4391    -3742    -2967    -2296    -2262    -2835    -3225    -3461 
   -4025    -4372    -4102    -3925    -4125    -4089    -3441    -2421 
   -1489     -981    -1078    -1830    -3184    -4738    -5722    -5856 
   -5362    -4538    -4035    -4237    -4646    -4872    -5096    -5260 
   -4864    -3862    -3036    -2802    -2760    -2690    -2586    -2253 
   -1818    -1790    -2411    -3414    -4203    -4276    -3643    -2894 
   -2907    -3746    -4226    -3701    -2860    -2309    -1958    -1645 
   -1653    -2195    -2656    -2517    -2227    -2309    -2583    -2627 
   -2457    -2388    -2381    -2281    -2250    -2308    -2347    -2500 
   -2868    -3564    -4642    -5566    -5795    -5489    -4978    -4421 
   -3927    -3504    -3250    -3188    -3094    -3275    -4229    -5327 
   -5556    -4977    -4272    -3669    -2863    -2045    -2099    -3171 
   -4486    -5590    -6335    -6555    -6274    -5863    -5776    -5825 
   -5563    -5109    -4546    -3866    -3383    -3115    -2944    -3026 
   -3246    -3366    -3419    -3419    -3345    -3102    -2621    -2133 
   -1679    -1208    -1252    -2076    -3060    -3743    -4191    -4410 
   -4282    -3875    -3430    -3040    -2770    -3001    -3863    -4662 
   -4901    -4766    -4094    -2740    -1529    -1279    -1713    -2101 
   -2280    -2463    -2643    -2693    -2635    -2724    -3078    -3360 
   -3520    -3890    -4266    -4290    -4075    -3766    -3503    -3411 
   -3218    -2795    -2625    -2948    -3304    -3294    -2895    -2330 
   -2170    -2735    -3443    -3619    -3264    -2886    -3002    -3535 
   -3908    -3904    -3800    -3797    -3904    -3991    -3859    -3497 
   -3061    -2898    -3372    -4064    -4363    -4529    -4765    -4711 
   -4472    -4375    -4083    -3423    -2982    -2943    -2916    -2878 
   -3049    -3477    -4023    -4383    -4449    -4233    -3507    -2323 
   -1340    -1247    -1926    -2529    -2737    -2980    -3384    -3591 
   -3419    -3179    -3125    -2913    -2241    -1567    -1344    -1355 
   -1458    -1825    -2347    -2748    -2848    -2706    -2852    -3561 
   -4388    -4919    -4957    -4423    -3758    -3384    -3055    -2636 
   -2614    -3338    -4422    -5316    -5915    -6162    -5899    -5431 
   -5138    -4665    -3889    -3645    -4212    -5000    -5624    -5656 
   -5034    -4511    -4317    -4122    -4137    -4610    -5274    -5667 
   -5487    -4860    -4066    -3316    -2880    -2629    -2122    -1441 
    -976     -938    -1304    -1757    -2151    -2531    -2652    -2533 
   -2519    -2583    -2698    -2975    -3198    -3002    -2299    -1460 
   -1089    -1359    -1810    -2089    -2490    -3126    -3734    -4287 
   -4727    -5013    -5313    -5405    -5038    -4468    -4036    -3894 
   -3978    -4228    -4438    -4018    -2976    -2138    -1872    -1869 
   -1819    -1734    -1837    -2093    -2241    -2189    -2189    -2573 
   -3164    -3443    -3411    -3538    -4039    -4715    -5189    -5305 
   -5385    -5491    -5157    -4434    -3962    -3821    -3469    -2709 
   -1925    -1360     -946     -635     -484     -618    -1011    -1595 
   -2413    -3098    -3140    -2891    -3088    -3667    -4085    -4351 
   -4610    -4706    -4870    -5243    -5292    -4808    -4334    -4413 
   -4986    -5481    -5628    -5745    -5850    -5610    -5186    -4955 
   -4876    -4774    -4563    -4225    -3896    -3809    -4216    -4882 
   -5111    -4684    -4023    -3561    -3254    -2817    -2423    -2371 
   -2555    -2840    -3159    -3265    -3148    -3202    -3496    -3554 
   -3183    -2760    -2578    -2506    -2347    -2303    -2567    -2581 
   -1919    -1395    -1773    -2498    -2705    -2382    -2056    -1984 
   -1979    -1803    -1394     -851     -506     -699    -1308    -1840 
   -2220    -2866    -3701    -4133    -4105    -4001    -3978    -4089 
   -4357    -4623    -4664    -4576    -4637    -4743    -4560    -4106 
   -3744    -3608    -3299    -2673    -2323    -2452    -2535    -2428 
   -2465    -2722    -3082    -3657    -4638    -5850    -6683    -6543 
   -5628    -4868    -4657    -4568    -4448    -4635    -5188    -5695 
   -5796    -5463    -4908    -4409    -4098    -3923    -3923    -4180 
   -4413    -4266    -3909    -3597    -3288    -3156    -3370    -3650 
   -3925    -4347    -4444    -3766    -2816    -2191    -1717    -1225 
   -1069    -1413    -1934    -2435    -2917    -3172    -3052    -2759 
   -2569    -2569    -2581    -2587    -2851    -3242    -3462    -3712 
