Origin Time       2024/04/02 04:24:00
Lat.              40.133
Long.             141.712
Depth. (km)       71
Mag.              6.0
Station Code      MYGH04
Station Lat.      38.7860
Station Long.     141.3254
Station Height(m) -65
Record Time       2024/04/02 04:25:01
Sampling Freq(Hz) 100Hz
Duration Time(s)  122
Dir.              3
Scale Factor      2942(gal)/8224139
Max. Acc. (gal)   4.514
Last Correction   2024/04/02 04:25:01
Memo.             
[...]
  -77585   -77463   -75975   -76451   -77049   -75982   -75751   -76940 
  -78169   -78225   -77064   -76954   -77356   -76469   -76459   -77055 
  -76071   -74989   -74864   -75651   -76904   -76847   -75983   -76167 
  -77564   -79424   -79841   -77955   -76524   -77093   -77452   -77198 
  -77340   -75911   -74160   -76381   -78395   -75643   -74136   -76674 
  -77969   -77099   -76779   -76567   -76231   -77116   -77608   -76601 
  -76659   -77067   -75982   -75946   -77352   -77278   -75671   -75467 
  -77263   -78031   -77163   -76604   -76364   -76420   -77317   -77599 
  -76108   -75282   -76771   -77317   -75721   -75448   -76507   -76117 
  -75483   -76584   -77344   -76300   -75674   -76256   -76800   -77206 
  -76955   -76250   -77171   -78970   -78848   -77422   -76929   -77125 
  -77390   -77388   -76214   -75698   -77337   -78079   -76793   -76418 
  -77037   -76482   -76200   -77261   -76881   -75374   -75564   -76280 
  -75888   -75378   -75169   -74964   -75601   -77106   -77562   -77450 
  -78444   -78615   -77589   -77706   -77954   -77240   -77148   -77749 
  -77596   -76905   -77444   -78783   -78439   -76940   -76947   -78181 
  -78179   -77070   -76528   -75906   -75285   -75724   -75660   -75014 
  -75134   -75189   -76175   -78476   -78329   -76331   -76890   -78267 
  -77226   -76005   -76152   -76183   -75960   -76219   -77032   -77522 
  -77110   -77209   -77782   -77361   -77209   -77571   -76543   -75664 
  -76711   -77328   -76441   -76430   -77522   -77365   -76214   -76061 
  -76750   -77126   -76742   -76015   -76100   -76823   -77064   -77071 
  -76874   -76243   -76642   -77809   -77112   -75239   -75051   -76160 
  -76427   -75674   -75728   -77102   -77679   -76848   -76410   -76974 
  -77577   -77458   -77085   -76955   -76770   -77255   -78144   -77311 
  -76130   -77345   -78578   -77440   -76365   -76396   -76121   -76160 
  -76771   -76916   -76962   -77001   -76918   -77614   -78374   -78244 
  -78088   -77603   -76275   -75712   -76099   -75691   -75124   -75759 
  -76273   -76376   -77469   -77990   -76454   -76160   -78619   -78904 
  -75817   -75096   -77311   -77835   -76279   -75123   -75544   -76748 
  -77031   -76300   -75747   -76033   -76724   -76908   -76472   -75851 
  -76025   -77332   -77352   -75676   -75872   -77681   -77415   -75421 
  -74893   -76302   -77261   -77035   -77059   -77550   -77751   -77507 
  -77047   -76913   -77288   -77317   -76959   -76893   -76520   -76214 
  -76898   -77244   -76804   -76528   -76543   -77275   -78116   -77452 
  -76104   -76130   -77186   -77452   -76724   -76106   -76206   -76993 
  -77874   -77787   -76750   -76018   -75949   -76511   -77475   -77529 
  -76816   -76798   -77313   -77534   -77504   -77139   -76021   -75365 
  -76662   -77791   -76846   -76210   -76681   -76663   -76989   -77692 
  -76971   -75891   -76268   -76963   -76863   -76642   -76357   -76096 
  -76516   -76604   -76175   -76967   -78175   -78192   -77548   -76659 
  -76219   -76312   -75905   -75969   -76769   -76770   -76373   -76705 
  -77310   -77188   -76662   -76354   -76612   -77512   -77345   -76229 
  -76643   -77646   -77028   -76446   -77472   -77464   -75897   -75668 
  -76067   -76233   -77546   -78563   -78197   -77742   -77475   -77571 
  -77955   -77750   -77429   -77454   -77171   -77008   -77248   -76292 
  -74723   -75770   -77777   -76392   -74183   -75335   -77214   -76767 
  -75668   -75682   -76237   -76395   -76466   -76999   -76944   -75961 
  -75699   -76177   -76145   -75987   -76338   -76923   -77070   -76715 
  -76916   -77314   -76725   -75888   -75838   -76935   -78183   -77500 
  -75687   -75535   -76964   -77687   -77031   -76562   -76959   -77051 
  -77340   -78138   -77056   -75405   -76233   -77068   -76268   -76319 
  -76945   -76306   -75671   -76342   -77236   -77217   -76461   -76227 
  -76932   -77584   -78111   -78312   -78031   -78464   -78657   -77650 
  -77427   -77737   -77107   -76801   -76883   -76161   -75598   -75891 
  -76230   -75955   -75413   -75690   -76311   -76377   -77056   -78047 
  -77723   -77599   -78424   -78254   -77557   -77372   -77311   -77449 
  -77009   -76438   -77469   -78077   -76740   -76285   -77180   -77044 
  -76150   -76111   -76644   -76810   -76678   -76416   -76590   -77521 
  -77517   -76392   -76153   -76829   -77380   -77206   -76311   -76206 
  -77318   -78058   -77862   -77066   -75991   -76118   -77494   -77472 
  -76138   -75834   -76358   -77013   -77275   -76103   -75080   -75996 
  -77553   -78521   -78306   -77047   -76547   -76555   -76211   -76712 
  -76881   -75933   -76331   -77228   -76823   -76891   -76708   -75046 
  -75114   -76617   -76015   -74916   -75697   -76910   -77074   -76353 
  -75820   -75884   -75832   -75767   -75952   -76027   -76369   -76929 
  -76991   -76875   -76936   -76968   -76982   -76503   -75917   -76416 
  -76794   -76368   -76644   -77076   -76756   -76647   -76715   -76576 
  -76831   -77344   -77888   -78105   -77224   -76828   -77934   -78078 
  -76508   -75620   -76662   -77657   -76620   -75346   -75980   -77460 
  -78016   -77881   -78175   -78182   -76997   -76094   -76573   -77017 
  -76468   -76029   -76366   -77112   -77450   -76971   -77166   -78097 
  -77805   -77103   -77307   -77450   -77471   -77507   -76909   -76574 
  -76979   -76978   -76540   -76175   -76252   -76886   -76836   -76310 
  -76716   -77026   -76559   -76250   -76003   -75915   -76651   -77257 
  -76482   -75516   -76192   -77441   -77137   -76334   -76796   -77029 
  -76140   -76103   -76788   -76338   -76103   -76909   -76423   -75316 
  -75938   -77199   -77669   -77631   -77607   -77538   -76837   -75757 
  -75520   -76843   -78459   -78021   -76468   -76621   -77341   -77089 
  -76886   -76559   -76781   -78363   -78821   -77438   -76782   -77512 
  -77791   -77149   -76936   -77325   -77747   -77804   -76954   -76177 
  -76455   -76169   -74903   -74969   -76297   -76945   -76860   -76507 
  -76466   -77328   -77858   -77125   -76516   -76921   -77075   -76410 
  -76353   -77130   -77008   -76137   -76508   -77410   -76924   -76354 
  -76982   -77229   -76873   -77390   -77735   -76812   -76358   -76563 
  -76238   -75830   -75676   -76270   -77125   -76647   -76056   -76211 
  -76102   -76013   -75888   -76118   -76967   -76590   -75861   -76735 
  -77390   -76985   -76762   -76310   -75851   -76783   -78035   -77637 
  -76037   -75369   -76443   -77257   -76797   -76434   -76693   -77446 
  -77970   -77866   -78028   -77350   -75417   -74947   -75847   -76273 
  -76762   -76956   -76260   -76361   -77238   -76860   -75922   -76122 
  -77025   -77769   -77724   -77205   -77426   -78143   -78281   -77629 
  -76901   -76913   -76878   -75882   -75506   -76388   -76582   -76160 
  -76545   -76914   -77004   -78201   -78579   -76526   -76238   -78328 
  -78273   -76820   -76303   -75953   -76171   -76612   -75982   -75739 
  -76653   -77063   -76848   -77044   -77133   -76447   -75915   -76538 
  -77399   -77214   -77144   -77830   -77626   -77126   -77523   -77639 
  -77299   -76692   -75849   -76380   -77398   -76437   -75331   -76087 
  -76778   -76855   -77490   -77556   -76939   -76789   -76852   -77723 
  -78406   -77128   -75644   -75751   -77044   -77220   -75620   -75189 
  -75883   -75909   -76281   -76981   -76734   -75760   -75416   -76373 
  -77342   -77338   -76913   -76967   -78035   -78964   -78629   -78266 
  -78364   -77846   -76913   -76264   -76296   -76648   -76384   -76326 
  -76566   -76106   -75945   -76052   -75624   -75751   -76054   -75451 
  -75685   -76989   -76725   -75806   -76518   -77479   -77626   -77508 
  -77322   -77442   -77745   -77770   -77564   -77511   -77473   -76662 
  -76121   -76671   -76393   -75246   -75001   -75597   -75991   -75833 
  -76335   -77473   -77099   -76576   -78101   -78119   -75795   -76354 
  -78302   -77708   -77477   -77895   -77075   -76954   -77476   -77180 
  -76511   -75852   -75807   -76879   -78058   -78044   -77026   -76616 
  -77091   -76971   -76607   -76736   -76719   -77120   -77511   -76387 
  -75517   -76609   -77396   -76418   -75536   -75986   -77539   -78862 
  -77727   -75496   -75257   -76091   -76527   -76881   -77032   -76859 
  -76416   -76331   -76287   -75343   -75467   -76752   -76675   -76069 
  -76134   -76712   -77375   -77063   -76318   -75816   -75739   -76729 
  -77614   -77700   -77619   -77020   -76968   -77907   -77611   -76666 
  -77210   -77841   -77311   -76867   -76924   -77396   -77716   -77207 
  -76844   -76368   -75968   -76863   -76885   -75674   -75550   -75753 
  -75995   -77233   -78159   -77699   -76920   -77139   -78204   -78561 
  -77059   -75220   -75810   -77880   -77920   -76392   -76426   -77593 
  -77511   -76327   -75911   -76643   -76839   -76607   -77267   -77587 
  -77352   -77777   -77639   -76609   -76280   -75965   -75051   -75112 
  -75591   -75551   -76470   -77656   -77361   -76528   -76360   -77028 
  -77692   -77221   -76050   -75390   -75832   -76815   -77361   -77469 
  -76874   -75586   -75726   -77500   -77913   -76666   -76291   -77001 
  -77099   -76767   -76910   -76643   -76141   -77071   -78401   -77704 
  -75948   -75895   -77021   -76944   -76221   -76503   -76538   -75720 
  -76229   -77140   -76098   -75479   -76842   -77646   -77018   -76411 
  -76593   -76991   -77454   -78148   -77164   -74902   -75419   -77560 
  -77072   -75851   -76580   -77525   -77654   -77144   -76208   -76443 
  -77920   -78403   -77842   -77890   -77934   -77361   -77272   -77198 
  -77114   -77969   -77476   -75697   -76383   -77576   -76234   -75667 
  -77110   -77583   -77400   -77537   -77099   -77102   -77646   -77029 
  -76133   -76319   -76470   -75982   -75969   -76461   -76771   -76985 
  -77082   -77558   -78316   -77372   -75616   -76503   -78065   -76563 
  -75336   -76620   -76449   -75212   -76200   -77760   -77472   -76073 
  -75967   -77360   -77133   -75616   -76243   -77334   -76508   -76153 
  -76993   -77118   -76890   -77309   -77197   -75913   -75420   -76851 
  -78015   -77275   -76383   -76489   -76831   -77001   -76296   -75165 
  -75568   -76997   -77477   -77194   -77398   -77608   -76844   -76621 
  -77895   -78351   -77110   -76623   -77638   -77622   -76659   -77047 
  -77182   -76226   -76748   -77908   -77460   -76117   -74974   -74721 
  -75539   -76383   -76212   -75586   -75870   -76238   -75613   -75384 
  -76088   -76724   -76909   -76858   -77105   -77722   -78225   -77932 
  -76954   -77039   -77820   -77290   -76904   -77503   -77052   -76215 
  -76561   -76742   -75821   -75280   -76419   -78084   -77668   -75917 
  -76492   -78356   -78263   -77523   -77346   -76991   -76738   -76289 
  -75749   -76000   -76797   -77699   -77951   -77384   -77255   -77665 
  -77446   -76939   -77267   -77409   -76997   -77422   -77666   -77363 
  -78320   -78942   -77291   -75725   -76104   -77284   -77542   -76503 
  -75849   -76044   -75822   -75141   -74092   -73402   -73827   -73998 
  -73957   -74927   -76191   -77033   -77147   -76924   -77463   -77984 
  -78021   -78306   -78082   -77309   -77419   -77912   -77573   -77410 
  -77657   -76779   -75681   -76243   -76909   -75747   -74849   -76133 
  -77098   -76256   -76052   -76810   -77036   -77043   -76495   -75740 
  -76006   -76372   -76200   -76029   -76349   -76999   -76944   -76281 
  -75698   -75204   -75577   -76574   -76173   -75082   -75307   -76148 
  -76630   -76486   -76083   -76566   -77785   -78327   -77194   -76408 
  -78156   -79250   -77754   -76896   -77278   -77040   -76734   -76991 
  -76804   -76223   -76059   -75748   -75651   -76800   -77662   -76940 
  -76260   -77143   -78244   -77895   -77637   -78435   -78375   -77538 
  -77523   -77631   -76497   -75014   -74811   -74889   -73685   -72898 
  -74002   -74876   -74613   -75563   -78317   -79822   -78615   -78151 
  -79577   -79317   -77728   -77796   -78511   -77824   -76523   -76604 
  -78028   -78829   -78331   -78013   -78429   -78387   -78111   -77980 
  -76881   -76023   -77093   -77402   -75255   -74422   -75887   -75783 
  -75045   -76350   -77202   -76827   -77589   -78984   -79108   -78669 
  -79213   -79945   -80059   -79739   -78945   -78595   -78725   -78165 
  -77279   -76997   -77739   -78975   -79492   -79254   -78422   -77706 
  -78497   -79458   -79587   -79759   -78922   -77672   -78376   -79002 
  -77137   -75682   -76273   -76302   -76099   -77269   -77670   -76134 
  -75374   -77032   -77872   -75991   -75251   -76933   -77994   -77895 
  -77313   -76338   -76119   -76454   -75381   -73041   -70985   -69869 
  -70229   -71294   -71501   -71055   -70922   -72794   -76457   -77797 
  -76511   -76491   -77603   -77296   -75895   -75359   -75763   -75552 
  -74754   -74746   -75232   -74772   -74241   -75444   -76947   -76866 
  -76412   -76891   -77464   -76983   -76889   -77947   -76902   -74776 
  -75824   -77793   -78582   -79560   -79123   -76932   -76405   -78403 
  -80223   -80739   -82136   -83258   -80262   -77144   -77881   -77256 
  -74472   -74376   -75795   -75872   -75095   -74881   -75774   -76283 
  -76115   -76775   -77753   -78147   -77928   -76551   -75319   -76715 
  -79816   -81222   -79533   -76522   -74611   -74063   -73383   -72635 
  -72994   -73179   -72057   -71820   -73433   -74839   -76250   -78086 
  -77336   -74684   -73823   -74555   -75855   -77079   -77013   -76486 
  -76947   -78768   -81988   -83932   -81151   -76304   -74628   -75897 
  -76401   -74393   -70360   -66232   -65003   -66089   -66403   -67047 
  -69735   -73873   -79137   -83155   -84505   -86486   -89411   -89280 
  -86497   -84861   -85043   -85337   -84646   -83061   -81517   -81395 
  -82682   -82405   -79211   -76727   -77283   -78375   -77448   -74348 
  -70893   -70305   -72809   -74285   -74406   -76805   -79824   -79837 
  -76929   -72281   -68851   -68445   -68320   -67285   -67446   -70384 
  -75047   -77701   -76805   -75439   -76711   -79431   -80303   -79471 
  -78752   -79215   -82243   -84939   -83188   -80225   -78914   -76910 
  -75394   -76026   -75003   -71524   -70529   -72805   -73820   -73714 
  -76651   -81615   -84924   -85841   -84963   -82626   -79034   -75597 
  -72933   -69951   -67560   -66154   -66483   -71069   -76522   -78895 
  -80774   -82553   -82007   -80561   -79272   -76989   -74815   -74316 
  -74584   -74798   -75608   -77062   -77488   -77097   -78320   -79785 
  -79501   -80455   -83123   -83331   -80320   -76975   -75404   -74965 
  -73773   -72476   -72098   -72423   -74289   -76563   -76785   -75610 
  -75243   -76761   -78223   -77908   -76854   -74463   -71428   -71343 
  -74136   -76246   -75554   -73924   -74135   -75618   -77074   -78776 
  -81318   -84530   -86475   -86287   -86158   -86467   -84785   -81207 
  -78896   -79402   -80937   -81209   -79936   -77643   -74557   -72985 
  -75301   -78202   -75988   -70452   -68986   -71008   -71072   -70920 
  -71917   -71536   -71134   -71196   -70848   -72620   -75276   -75614 
  -76025   -78403   -80590   -80374   -78814   -78757   -80198   -81766 
  -81156   -76944   -74528   -77407   -80453   -81438   -81915   -80347 
  -77944   -77715   -78160   -78225   -77932   -76465   -75492   -75571 
  -74664   -73464   -73512   -73876   -73977   -74611   -75644   -75899 
  -74811   -74023   -75705   -77568   -76505   -74646   -74817   -77070 
  -78818   -77809   -76605   -76781   -76950   -77589   -77706   -76762 
  -77445   -78430   -77805   -79377   -82892   -82379   -78961   -77938 
  -78247   -77423   -75641   -73082   -70518   -68953   -68796   -69778 
  -71973   -75319   -77398   -77770   -78165   -77828   -77560   -79408 
  -81954   -82486   -80298   -78062   -77788   -77394   -75427   -73506 
  -73948   -76119   -76175   -74015   -72995   -73298   -73684   -73688 
  -73264   -73221   -73032   -73002   -75875   -80083   -81903   -82522 
  -82255   -79698   -78521   -81054   -82208   -79300   -77369   -79083 
  -80320   -79068   -79084   -81229   -80709   -77002   -74490   -74312 
  -74656   -75084   -76846   -78344   -76493   -74074   -75099   -77134 
  -77048   -76009   -75718   -76932   -78305   -76755   -74837   -77309 
  -80164   -78398   -75763   -75811   -77388   -79780   -81010   -79300 
  -76963   -75855   -75582   -75064   -74233   -74906   -75529   -73903 
  -72867   -73569   -74007   -73893   -73872   -74510   -75474   -76054 
  -76704   -77606   -78198   -78201   -77942   -77674   -77076   -77230 
  -79531   -81147   -79444   -76836   -75069   -74085   -74587   -75039 
  -73635   -72200   -72520   -74379   -77129   -79338   -79686   -78524 
  -77024   -75606   -74740   -74896   -74918   -75105   -76403   -76472 
  -75116   -75028   -75975   -76958   -77688   -77278   -76482   -76075 
  -75440   -75605   -76974   -78073   -78576   -78071   -76998   -77449 
  -78702   -79099   -78889   -77832   -77711   -80122   -81112   -80017 
  -80893   -81630   -79543   -77760   -76902   -75031   -73467   -73556 
  -74713   -77145   -79805   -81170   -82242   -82256   -81754   -83817 
  -84800   -82069   -79986   -79041   -77530   -75895   -74318   -74260 
  -75627   -75609   -73386   -70745   -70717   -73341   -74395   -73098 
  -73120   -75853   -79392   -81508   -81434   -79998   -78283   -77017 
  -76577   -75687   -73953   -73627   -74722   -75533   -76324   -76696 
  -75595   -74960   -76755   -78702   -78417   -76684   -74494   -72720 
  -72210   -72146   -72111   -73519   -76323   -77658   -76497   -75286 
  -74592   -73538   -73685   -75109   -75509   -74834   -74474   -74992 
  -76142   -77097   -77326   -77278   -77895   -79151   -79980   -80009 
  -79504   -78370   -76955   -75798   -75109   -75834   -78190   -79867 
  -78548   -75953   -75531   -76539   -76854   -76577   -75574   -74190 
  -74094   -75344   -75882   -75999   -77433   -77480   -74988   -74796 
  -77691   -79404   -79423   -79192   -78236   -77654   -78601   -79003 
  -78259   -77554   -76238   -75061   -75312   -75645   -76075   -76423 
  -75046   -73927   -74290   -74765   -76858   -79402   -78090   -76829 
  -80482   -83284   -81480   -79543   -80176   -82071   -82266   -80578 
  -80094   -80558   -80700   -81502   -81858   -80528   -79205   -78447 
  -76735   -74044   -71581   -69202   -67852   -69573   -71907   -72067 
  -72520   -74120   -74745   -75346   -76743   -76742   -75404   -75312 
  -75959   -74534   -72535   -73734   -76542   -77450   -76438   -74652 
  -73998   -75367   -75497   -73778   -74356   -76315   -76188   -76018 
  -77233   -77361   -76554   -77544   -79806   -81318   -82939   -84684 
  -84578   -82768   -80522   -78526   -77175   -76667   -76947   -76561 
  -75809   -77429   -78965   -76616   -74332   -74973   -75865   -77287 
  -78474   -76520   -75185   -77226   -77650   -74758   -73415   -75120 
  -75389   -72881   -72700   -76387   -78339   -76540   -75006   -76059 
  -79131   -81244   -79639   -77182   -77129   -77607   -77637   -78796 
  -79791   -78757   -77499   -77492   -77299   -76099   -75973   -78062 
  -78877   -76956   -75776   -75077   -72904   -71860   -72989   -74229 
  -74904   -75161   -75250   -75628   -76470   -77924   -79918   -81449 
  -81654   -81021   -80115   -79041   -78129   -77319   -76223   -75574 
  -75907   -75496   -73874   -73980   -76265   -76817   -74368   -72918 
  -74980   -76867   -75843   -74842   -74688   -74132   -74846   -76604 
  -78159   -80161   -80392   -78251   -78050   -79311   -78829   -78440 
