Origin Time       2024/04/02 04:24:00
Lat.              40.133
Long.             141.712
Depth. (km)       71
Mag.              6.0
Station Code      MYGH10
Station Lat.      37.9411
Station Long.     140.8924
Station Height(m) 18
Record Time       2024/04/02 04:25:14
Sampling Freq(Hz) 100Hz
Duration Time(s)  215
Dir.              5
Scale Factor      7845(gal)/8223790
Max. Acc. (gal)   11.818
Last Correction   2024/04/02 04:25:14
Memo.             
[...]
   -5836    -5563    -5065    -4689    -4592    -4540    -4239    -3993 
   -4583    -5532    -5691    -5570    -5991    -6126    -5516    -5285 
   -5346    -4618    -3956    -4110    -3933    -3129    -3083    -4266 
   -5198    -5332    -5690    -5918    -5090    -3879    -3257    -3109 
   -3165    -3834    -4936    -5676    -6038    -6053    -5522    -4958 
   -4820    -4645    -4110    -4029    -4626    -4878    -4824    -5032 
   -4946    -4453    -4419    -4934    -5409    -5852    -6085    -5618 
   -4908    -4437    -4010    -3898    -4399    -4978    -5197    -5436 
   -5972    -6269    -5971    -5449    -4791    -4248    -4750    -5694 
   -5702    -5314    -5238    -4850    -3890    -3015    -2830    -3200 
   -3875    -4812    -5294    -4911    -4660    -5038    -5297    -4880 
   -4031    -3453    -3264    -3199    -3921    -5595    -6578    -6019 
   -5109    -4715    -4360    -3784    -3564    -3689    -3828    -4472 
   -5557    -6268    -6660    -6970    -6511    -5004    -3271    -2338 
   -2550    -3292    -4190    -5096    -5570    -6010    -6617    -6461 
   -5572    -4997    -4765    -4206    -3376    -2714    -2605    -3415 
   -4494    -4882    -5275    -6543    -7392    -6690    -5764    -5344 
   -4488    -3565    -3341    -3272    -3300    -3846    -4646    -5599 
   -6602    -7061    -6920    -6372    -5157    -3766    -3164    -3192 
   -3574    -4378    -5008    -5211    -5177    -4490    -3623    -3939 
   -4895    -5070    -4914    -5120    -5309    -5795    -6876    -7215 
   -6173    -5022    -4418    -3939    -3609    -3735    -4185    -4533 
   -4716    -4955    -5143    -5185    -5063    -4785    -4737    -4823 
   -4556    -4334    -4336    -3817    -3254    -3742    -4419    -4442 
   -4714    -5043    -4403    -3775    -4244    -5067    -5532    -5813 
   -6093    -6430    -6793    -6669    -6165    -5969    -5302    -3893 
   -3303    -3483    -3345    -3721    -4903    -5393    -5347    -6021 
   -6571    -5837    -4514    -3132    -1802    -1463    -2242    -3402 
   -4972    -6632    -7476    -7456    -6745    -5379    -4091    -3723 
   -3809    -3342    -3103    -3734    -3929    -3935    -5012    -6168 
   -6342    -6211    -5987    -4968    -3514    -2944    -3638    -4642 
   -5017    -5169    -5535    -5196    -4089    -3291    -2884    -2791 
   -3545    -4850    -5697    -6172    -6809    -6804    -5728    -4752 
   -4588    -4849    -5232    -5518    -5232    -4526    -4207    -4261 
   -4222    -4417    -5028    -5328    -4932    -4330    -3685    -3022 
   -3063    -3867    -4680    -5332    -5934    -6681    -7441    -7418 
   -6660    -5572    -4210    -3165    -2581    -2403    -2948    -3736 
   -4490    -5632    -6523    -6490    -6354    -6326    -5481    -3697 
   -2139    -2320    -3649    -4318    -4823    -6104    -7009    -6582 
   -5892    -5844    -5557    -4909    -4978    -5211    -4548    -4016 
   -4730    -5378    -4907    -4833    -5606    -5616    -5158    -5289 
   -5177    -4324    -3512    -3335    -3565    -3856    -4480    -5240 
   -5524    -5562    -5675    -5871    -6145    -6178    -5807    -5232 
   -4538    -3948    -3767    -3863    -3875    -3921    -4276    -4583 
   -4837    -5471    -5856    -5732    -5898    -5971    -5193    -4252 
   -3923    -4025    -4249    -4483    -4492    -4110    -3572    -3372 
   -3431    -3426    -3815    -4514    -4976    -5524    -5941    -5779 
   -5624    -5491    -4795    -3951    -3507    -3377    -3809    -4769 
   -5279    -5329    -5609    -5417    -4445    -4072    -4729    -5405 
   -5868    -6172    -5536    -4403    -4359    -4949    -4754    -4267 
   -4257    -4361    -4641    -5394    -5934    -5864    -5782    -5589 
   -4891    -4210    -3807    -3532    -3406    -3190    -3102    -4001 
   -5755    -6748    -6195    -5702    -5933    -5273    -4261    -4610 
   -4869    -3991    -3709    -4182    -4417    -4966    -5544    -5009 
   -4098    -3708    -3423    -3634    -4536    -4761    -4477    -4715 
   -4692    -4247    -4321    -4660    -4622    -4558    -4827    -4760 
   -4195    -4359    -5425    -5942    -5563    -4959    -4207    -3885 
   -4360    -4630    -4702    -5282    -5414    -4675    -4513    -4731 
   -4187    -3937    -4307    -4116    -3593    -3451    -4077    -5343 
   -6218    -6354    -6091    -5401    -4652    -4575    -4919    -5105 
   -5332    -5366    -5103    -5165    -4977    -4035    -3285    -3333 
   -4139    -5472    -6669    -6986    -6462    -5856    -5167    -4122 
   -3461    -3522    -3989    -4752    -5354    -5637    -5879    -5742 
   -5364    -5343    -5009    -3928    -2924    -2409    -2671    -3757 
   -4662    -5112    -5472    -5169    -4322    -4180    -4689    -4990 
   -5143    -5374    -5620    -6208    -7434    -8275    -7534    -6266 
   -5562    -4376    -2990    -2879    -3136    -2868    -3118    -3946 
   -4585    -5013    -5074    -4882    -4938    -4833    -4299    -3885 
   -3694    -3690    -4234    -5057    -5443    -5784    -6447    -6378 
   -5653    -5435    -5076    -4094    -3424    -2817    -1918    -2049 
   -3372    -4374    -5131    -6145    -6282    -5310    -4290    -3476 
   -2762    -2436    -2594    -3145    -3889    -4546    -5406    -6535 
   -7106    -6615    -5479    -4669    -4491    -4495    -4787    -5213 
   -5196    -5335    -5931    -5861    -5194    -4870    -4666    -4761 
   -5490    -6011    -6301    -6678    -6374    -5719    -5633    -5421 
   -5003    -5402    -5746    -5179    -5196    -5984    -5890    -5032 
   -4388    -3936    -3885    -4320    -4660    -5165    -5859    -5718 
   -4957    -4121    -3075    -2758    -3410    -3879    -4531    -5872 
   -6686    -6826    -7366    -7716    -7303    -7061    -6895    -6299 
   -5760    -5246    -4625    -4714    -5647    -6340    -6408    -6193 
   -5559    -4591    -3959    -3712    -3500    -3499    -3549    -3148 
   -2860    -3156    -3402    -3642    -4337    -5148    -5987    -6839 
   -7006    -6191    -4988    -4117    -3703    -3433    -3380    -3848 
   -4696    -5080    -4301    -3222    -2961    -2829    -2193    -2073 
   -2675    -3026    -3325    -4147    -5200    -6204    -6639    -5954 
   -4936    -4563    -4429    -3820    -3059    -2860    -2988    -3002 
   -3204    -3565    -3484    -3115    -3218    -3696    -3998    -4145 
   -3883    -3014    -2444    -2616    -3073    -4105    -6023    -7966 
   -9022    -9323    -9209    -8468    -7096    -5290    -3244    -1728 
   -1158    -1188    -1894    -3245    -4656    -5918    -6467    -5748 
   -4850    -4510    -4054    -3469    -3091    -2889    -3303    -4348 
   -5347    -6407    -7677    -8386    -8109    -7268    -6643    -6507 
   -6057    -5096    -4445    -4309    -4519    -4959    -5232    -5098 
   -4565    -3632    -2841    -3055    -3835    -4120    -4369    -5422 
   -6705    -7253    -6903    -6076    -5377    -4995    -4257    -3219 
   -3215    -4132    -4521    -4633    -5135    -5044    -4303    -4144 
   -4059    -3121    -2411    -2727    -3075    -3226    -4376    -6481 
   -7933    -8108    -7653    -6633    -5278    -4577    -4518    -4361 
   -3950    -3832    -4302    -4617    -4799    -5896    -7202    -7095 
   -6363    -6538    -6729    -5691    -4275    -3564    -3256    -3103 
   -3476    -4280    -4887    -4873    -4573    -4128    -3136    -2351 
   -2774    -3811    -4831    -6007    -7052    -7442    -7354    -7365 
   -7427    -6953    -5671    -4152    -3615    -3927    -3794    -3939 
   -5440    -6394    -5601    -5066    -5358    -5023    -4519    -4881 
   -5112    -4510    -4363    -5140    -5509    -5189    -5101    -5124 
   -4631    -3927    -3573    -3581    -3801    -4236    -4820    -5135 
   -4830    -4337    -4074    -3846    -3886    -4548    -5170    -5144 
   -4611    -3694    -2899    -2875    -3007    -2864    -3358    -4280 
   -4712    -5135    -5749    -6060    -6161    -6034    -5427    -4429 
   -3514    -3183    -3385    -3723    -3886    -4171    -4824    -5143 
   -5004    -4855    -4376    -3481    -2863    -3227    -4568    -6311 
   -8071    -9238    -9325    -8980    -8711    -7751    -6039    -5070 
   -5062    -5115    -5397    -6162    -6993    -7264    -6752    -6145 
   -6065    -5822    -4722    -3661    -2916    -2029    -1848    -2305 
   -2845    -4577    -7257    -8673    -8297    -7298    -5834    -3424 
    -969     -270    -1277    -2022    -2349    -2986    -2928    -2594 
   -3277    -3672    -3127    -3280    -4244    -4637    -4390    -4329 
   -4807    -5566    -5717    -5032    -4603    -4854    -5186    -5416 
   -5463    -4988    -4064    -3055    -2431    -2647    -3202    -3515 
   -4004    -4109    -2836    -1579    -1620    -1952    -2373    -3384 
   -3960    -3720    -3951    -5239    -6685    -7288    -7550    -8190 
   -8305    -7666    -7331    -6762    -5242    -4032    -3454    -2344 
   -1224    -1709    -3487    -4915    -5821    -6755    -6889    -5784 
   -4753    -4386    -3562    -2035    -1167    -1895    -4252    -7800 
  -11488   -13994   -14432   -12781    -9524    -5468    -1749      526 
     608     -781    -2114    -3207    -4479    -5443    -5243    -4047 
   -3102    -3045    -3576    -4255    -4584    -4638    -5049    -5306 
   -4517    -3883    -4864    -6724    -8094    -7839    -5601    -2987 
   -1448     -901    -1318    -2679    -4386    -6108    -7831    -8965 
   -8527    -5995    -2393      211      877     -735    -4448    -8203 
  -10952   -13545   -15325   -15516   -14885   -12812    -8488    -3821 
    -211     3127     5391     5049     3261      954    -2821    -7549 
  -10768   -11056    -9256    -6273    -2880    -1229    -1911    -3184 
   -4785    -7038    -8766    -9290    -8494    -6361    -4218    -3240 
   -3241    -3346    -2770    -2165    -2783    -4556    -5761    -4878 
   -2872    -1205     -275     -689    -2328    -4560    -7549   -10725 
  -13193   -15118   -15954   -14382   -10120    -4070     1601     4456 
    3769      926    -1506    -2501    -3767    -6092    -7445    -6724 
   -5737    -5570    -4567    -2099     -303     -531    -2529    -6336 
  -10548   -12448   -11988   -10651    -8213    -4453     -649     2022 
    2654     1166       -2      248     -912    -3987    -5499    -4540 
   -3414    -2841    -2177    -2378    -4436    -7142    -9639   -12027 
  -12877   -11265    -8637    -6069    -3892    -2679    -1314     1823 
    4558     3734      477    -2987    -6662   -10000   -11337   -10470 
   -8579    -6127    -3011     -488     -156    -1038    -1686    -3406 
   -6795    -9516   -10377   -10193    -8934    -6659    -4950    -4413 
   -3545    -2147    -2467    -4822    -6524    -6893    -7739    -8225 
   -6043    -2886    -1602    -1520    -1466    -2215    -4129    -6544 
   -8784    -9570    -8324    -6166    -3601    -1368    -1340    -3277 
   -4735    -4374    -3064    -1586      283      950    -1524    -5358 
   -8104    -9941   -11080   -10851    -9283    -6825    -4274    -3187 
   -3978    -5017    -4739    -3238    -2181    -2404    -2944    -3789 
   -4984    -4936    -3713    -3264    -3569    -2991    -1696    -1489 
   -2739    -4357    -6150    -7638    -7272    -6048    -5911    -5274 
   -2728     -101     1656     3778     6012     6215     3591     -639 
   -4920    -8888   -12613   -14897   -14882   -13462   -11653    -8981 
   -5373    -3229    -3460    -3655    -3168    -4099    -6743    -8745 
   -8787    -7315    -4930    -2840    -1580     -314      284     -976 
   -3204    -5248    -6770    -7103    -6403    -6353    -6966    -6268 
   -4440    -3240    -2893    -2968    -3339    -4392    -6118    -6629 
   -5267    -4124    -4086    -3962    -3065    -1954    -1591    -2724 
   -5124    -7353    -8343    -8559    -9082    -9774    -8887    -5566 
   -1605     1171     2594     2281      -39    -3751    -8001   -11457 
  -13653   -14854   -14349   -12089    -8769    -4544     -700      756 
    -252    -2733    -6034    -8451    -8613    -7614    -6339    -4768 
   -3870    -4421    -5773    -6277    -4688    -2304    -1722    -3064 
   -4482    -5833    -7709    -8098    -5643    -2809    -1188      291 
    1179      356     -904    -1863    -3623    -5719    -6691    -6309 
   -4858    -3333    -3426    -5050    -6033    -5595    -5718    -7281 
   -7747    -5591    -3464    -3576    -4538    -5039    -5811    -7403 
   -8935    -8745    -6929    -5800    -5368    -3640    -1867    -2400 
   -3916    -4806    -5930    -6547    -4606    -1613     -337     -126 
      87     -922    -3010    -4526    -5687    -6697    -6339    -5108 
   -4978    -6361    -8225    -9108    -7808    -5624    -5069    -5722 
   -5668    -4419    -3219    -4083    -6189    -7156    -7499    -7762 
   -6176    -3065    -1444    -1948    -3245    -5688    -9239   -11649 
  -11422    -9585    -7088    -3199     1260     3380     2019    -1289 
   -4039    -5298    -6592    -8449    -9328    -8479    -6544    -4492 
   -3137    -2640    -2269    -1148      537     1966     2735     2169 
    -847    -5719    -9590   -10816   -10022    -7507    -3960     -977 
     773      766    -1042    -3059    -4129    -5032    -7082    -9865 
  -11277   -10099    -7422    -5296    -4210    -3181    -2191    -1788 
   -1151      318      824    -1312    -4738    -7160    -8368    -8899 
   -8083    -6050    -4386    -3970    -4777    -6250    -7743    -9059 
   -9448    -8456    -6825    -4604    -2073     -765     -155     1086 
    1282       -4      -45      118    -3447    -9567   -14315   -16816 
  -17173   -15151   -11686    -7811    -3931     -923       58     -648 
   -1192    -1081    -1757    -3523    -4982    -5503    -5193    -3658 
   -1857    -1767    -3186    -5008    -6824    -8425    -9471    -9113 
   -8056    -8051    -8552    -8428    -8208    -8328    -8189    -7411 
   -5790    -2978      143     2513     4113     4541     4036     3505 
    2436      415    -2041    -4653    -6535    -6609    -5130    -3265 
   -2502    -3700    -5857    -7653    -8644    -8340    -7047    -6172 
   -7015    -9675   -11743   -10948    -8255    -4958    -1328     1081 
     766    -1728    -5071    -7981    -9512    -9567    -8602    -7075 
   -4729    -1429     1409     2006     -103    -3886    -7850   -10944 
  -12280   -11307    -8716    -6022    -3796    -1877     -575      128 
     468       -9    -1609    -4207    -7210    -9136    -9383    -8982 
   -8151    -5891    -2673     -406      -95    -1900    -4985    -6933 
   -6952    -6717    -6421    -5073    -3219    -1776    -1487    -2847 
   -4071    -3356    -2095    -2120    -3377    -5165    -6740    -7207 
   -6085    -4384    -3855    -4414    -4637    -4056    -2906    -1360 
    -157     -900    -3936    -7117    -8950   -10023   -10706   -10685 
   -9522    -7271    -5313    -4695    -4753    -4804    -5044    -5150 
   -4831    -5537    -7689    -9202    -9363    -9135    -7885    -4594 
    -903      646     -295    -2949    -6949   -10729   -11772   -10446 
   -8750    -5994    -2022      753     2471     4522     4954     1961 
   -2754    -6438    -8357    -9138    -8541    -6502    -3636     -261 
    2968     5227     5846     4159       32    -5907   -12231   -16575 
  -16864   -13536    -8885    -4344     -626     1501     2192     1991 
     680    -1927    -4706    -5973    -6076    -6521    -6817    -6126 
   -5063    -3805    -2597    -2531    -3769    -5432    -6862    -8222 
   -9726   -10805   -11464   -12074   -11585    -9524    -7288    -5474 
   -4256    -4595    -5622    -5826    -5629    -4753    -2624    -1291 
   -1686    -1468    -1112    -3740    -7773    -9460    -8937    -7179 
   -4099    -1235     -437    -1420    -2185    -1370     -708    -2052 
   -4102    -6045    -8041    -8175    -6022    -4104    -2485     -201 
     673     -715    -2473    -4253    -7044    -9944   -10660    -9104 
   -7565    -6828    -5593    -3396    -1867    -2552    -4440    -5647 
   -5830    -5655    -5420    -4353    -2193     -604    -1094    -3198 
   -5378    -6597    -7087    -7646    -8120    -7566    -5817    -3634 
   -1995    -2014    -3759    -5456    -6007    -5827    -5181    -4506 
   -4063    -3808    -4581    -5953    -5614    -3604    -2259    -2074 
   -2386    -3662    -5688    -7028    -7488    -7798    -7879    -7623 
   -7196    -6455    -5328    -3851    -2307    -1314    -1420    -2863 
   -4811    -5949    -5998    -5630    -5884    -7183    -8503    -8452 
   -6697    -3846     -847     1027     1005      -63    -1138    -2543 
   -4612    -7056    -9324   -10384    -9468    -6694    -3041      276 
    2798     4201     3227     -766    -5502    -8194    -9224    -9787 
   -9292    -7797    -6305    -4796    -3230    -1729     -579    -1043 
   -2798    -4091    -5360    -7547    -9224    -8880    -7373    -6108 
   -5258    -4661    -4361    -4752    -5814    -6640    -7331    -8048 
   -7349    -5760    -5850    -7021    -6863    -5884    -5454    -4464 
   -2066      -47       83    -1089    -2555    -4018    -5251    -5977 
   -6643    -7581    -8394    -8262    -6411    -3284      112     2922 
    3362      387    -3871    -7186   -10262   -13076   -13304   -10574 
   -6629    -2700      406     2324     2884     1854     -839    -5498 
  -10478   -12467   -11782   -10632    -8301    -4664    -2007    -1015 
    -604     -299     -569    -2351    -6091   -10571   -13726   -14690 
  -13629   -11132    -8333    -5468    -2161      220       98    -1381 
   -2313    -2997    -4140    -4911    -4990    -5009    -4712    -3640 
   -2061     -469      342     -457    -2789    -5459    -6956    -7006 
   -6493    -5836    -5254    -5150    -5107    -4401    -3597    -4017 
   -5154    -4984    -3364    -1730     -639     -114     -228    -1667 
   -5150    -8972   -10845   -10616    -8433    -4710    -1193      859 
    1497     1170       56    -1872    -4118    -5875    -7091    -7912 
   -7716    -6885    -6790    -6890    -6196    -5351    -4428    -2874 
   -1941    -3329    -6041    -7948    -8591    -8233    -7388    -6717 
   -5922    -4799    -4008    -3993    -4974    -7219    -9576    -9760 
   -7785    -5458    -3589    -3053    -4075    -5239    -6295    -7248 
   -6251    -3322    -1524    -2066    -3343    -4356    -4914    -4590 
   -3835    -3748    -4172    -4556    -5479    -6639    -6386    -4885 
   -3746    -3006    -2039    -1915    -3402    -4877    -5159    -4739 
   -4043    -3600    -3886    -4576    -4907    -4187    -3014    -3180 
   -5138    -7076    -7044    -5412    -4190    -3574    -2311    -1494 
   -2876    -4880    -5568    -5672    -5961    -6102    -5805    -4923 
   -3566    -2600    -2899    -3882    -4180    -3831    -4577    -6520 
   -6961    -5533    -5016    -5904    -6759    -7798    -9410   -10606 
  -10733    -9904    -8363    -6439    -4337    -2435    -1208     -413 
     433      708     -430    -2222    -3716    -5263    -6774    -7311 
   -6678    -5008    -2656    -1648    -3325    -5772    -7028    -7651 
   -8708    -9697    -9514    -8348    -6974    -5328    -3161    -1310 
    -742     -850     -927    -1618    -3439    -5587    -6808    -7360 
   -7740    -6787    -4243    -1918    -1080    -1104     -913     -596 
   -1154    -3242    -6129    -8698   -10947   -12433   -11358    -7485 
   -3157     -183     1202     1289      978      949      436    -1630 
   -4714    -7233    -8437    -8484    -7908    -7528    -7600    -7295 
