Origin Time       2024/04/02 04:24:00
Lat.              40.133
Long.             141.712
Depth. (km)       71
Mag.              6.0
Station Code      MYGH10
Station Lat.      37.9411
Station Long.     140.8924
Station Height(m) -187
Record Time       2024/04/02 04:25:14
Sampling Freq(Hz) 100Hz
Duration Time(s)  215
Dir.              3
Scale Factor      2942(gal)/8224139
Max. Acc. (gal)   2.091
Last Correction   2024/04/02 04:25:14
Memo.             
[...]
  102978   102949   102855   103021   102911   103339   103802   103403 
  103121   103734   104152   103576   103245   103843   104458   104260 
  103632   103669   103708   102840   102462   103323   103928   103327 
  102681   102824   102936   102882   102865   102452   102408   103121 
  103295   103094   103766   104457   103779   102821   103114   103916 
  104167   104097   103864   103474   103465   103771   103589   102975 
  102531   102483   102735   102772   102536   102575   102924   103215 
  103208   102887   102533   102487   102892   103725   104457   104355 
  103824   103538   103262   102938   102663   102610   102737   102689 
  103285   104055   103427   102802   103090   103114   102833   102508 
  102562   102902   102658   103059   104427   104422   103310   103006 
  103188   103362   103879   104198   103856   103725   104245   104422 
  103967   103623   103073   102178   101888   102424   103221   103288 
  102666   103122   104213   103932   103415   103686   103553   103599 
  104229   103985   103427   104079   105077   104764   103717   103387 
  103069   102161   102077   102853   103073   103003   103019   102838 
  103252   103835   103501   103289   103527   103447   103376   103381 
  103613   104490   104935   104244   103500   103445   103573   103350 
  102983   102720   102621   102479   101947   101925   103018   103581 
  103104   103262   103605   102936   102782   103497   103311   102861 
  103601   104075   103173   102520   102698   102532   102092   102402 
  103283   103491   102882   102482   102732   103196   103422   103729 
  104002   103520   102861   102579   102509   102878   103607   104144 
  103835   103121   103106   103175   102811   102978   103584   103612 
  103214   103007   102941   103237   103800   103685   103640   104400 
  104230   103349   103582   103794   103107   103084   103527   103493 
  104012   104275   102849   101826   102230   102471   102474   102547 
  102222   102249   103268   103821   103438   103779   104495   104317 
  103999   103823   103319   102795   102652   103073   103597   103474 
  102752   102482   103229   103609   103176   103030   102910   103021 
  103806   103775   103129   103697   104376   103628   103207   104080 
  104396   103701   103365   103559   103559   103673   104001   103505 
  102837   103416   104117   103916   103782   104095   104419   104720 
  105038   105312   105175   104319   103692   104137   105065   105521 
  104850   104332   105401   105931   104988   104649   104754   104473 
  104340   104599   105583   106064   104620   103188   103378   104238 
  104225   103243   103547   105259   105645   104449   103712   104232 
  104915   104456   103427   103478   104178   104143   103705   103392 
  103150   102755   102487   102810   102593   102158   102917   103177 
  102263   101979   102123   101703   101317   101788   102498   101956 
  100458    99770   100170   100511   100345   100452   100791   100641 
  100718   100828    99858    99351   100269   100638   100132   100245 
  100909   100894   100345   100981   101807   100527    99139    99446 
  100265   101217   101908   102211   102486   102220   101949   101988 
  101902   102234   102433   102147   102420   102729   102660   103137 
  103947   104537   104576   103677   102790   102880   103701   104650 
  104922   104634   104749   105232   105478   105158   104539   104499 
  104958   104826   104286   104804   106088   106301   105810   106143 
  106613   106099   105511   105730   105919   105916   106336   106384 
  106245   106883   106853   105665   105225   105767   106096   106089 
  105987   105669   105490   105439   104897   104581   105171   105376 
  104629   103852   103280   102960   102978   103060   103523   104147 
  103967   103160   102706   103206   103659   102864   102467   103493 
  103767   102956   102984   103108   101740   100531   100662   100531 
   99922    99754    99905   100392   100873   100739   100546   100815 
  101281   102046   102998   103302   103411   103763   103333   102663 
  102527   101744    99982    99069   100165   100917    99916    99712 
  100854   101341   101268   101908   102956   103292   103067   103441 
  104765   105676   105293   104957   105460   105451   104155   103030 
  102722   102100   102087   103499   104178   103640   103407   103657 
  104005   104411   104630   104527   104527   104446   104052   104145 
  104488   104365   104361   104795   105328   105682   105567   105448 
  105741   105352   104365   104365   104490   103681   103009   102886 
  103088   102898   101979   101729   102479   103219   103391   103169 
  103495   104097   104074   104166   104619   104573   104107   103586 
  103204   103389   103495   102710   102172   102714   103063   102482 
  101699   101182   101140   101294   101075   101263   101868   101538 
  101109   101488   101541   101455   101999   101946   101054   101844 
  103775   103180   102041   103685   104930   104079   103831   104188 
  104012   104041   104098   103785   103835   103646   102919   103175 
  103817   103346   103131   103832   103823   103900   104912   104684 
  104263   105638   106328   105694   105768   106288   105864   104807 
  104760   105394   105476   105528   105356   104791   104743   104546 
  103902   103640   103380   103473   104583   105501   105590   105433 
  105360   105270   104927   104876   105025   104464   104167   104544 
  104041   103399   103905   104372   104589   105117   105038   104101 
  102693   101528   101987   102810   102280   101999   102176   101455 
  100975   101488   101862   101992   102658   103053   102205   101424 
  101347   101128   101204   101644   101413   101016   100993   100332 
   99644   100074   100502   100512   100303    99495    99557   100847 
  100904   100051   100503   101333   101240   101019   100931   100789 
  101151   101738   101721   101497   101483   101353   101304   101696 
  102142   101719   100425    99576    99819   100765   101669   101835 
  102178   103351   103384   102134   102204   103559   104668   105567 
  106150   106374   106686   106651   106030   105529   105328   104878 
  104364   104557   104984   105009   105375   105826   105582   105673 
  105879   105258   105453   106524   106802   107082   107331   106452 
  106056   106855   106866   106024   105707   105618   105750   106353 
  106394   105780   105289   104994   104787   104766   105054   105306 
  104915   104245   104441   105004   104593   104156   104818   105533 
  105436   105054   104944   105051   105169   104742   103368   102168 
  102039   102123   102066   102508   103252   103709   103624   102841 
  102186   102250   101900   101144   101268   101938   102181   101962 
  101614   101271   101012   100749   100209    99782   100020   100525 
  100457   100049   100726   102292   102605   101688   101730   102648 
  102436   100876    99769   100311   101348   101637   101729   101916 
  101796   101397   101283   101630   101744   101775   101966   101781 
  102035   102983   103304   103540   104342   104292   103261   102787 
  103018   103049   103272   104167   104514   103856   103670   104205 
  104047   103507   103792   104249   103912   102794   102239   102837 
  102774   102563   103808   104608   103993   103854   104679   104881 
  104221   104282   104926   104822   104276   103986   104233   104834 
  104623   104039   104043   102897   101136   101640   103006   103229 
  103453   104244   104804   104496   104184   104900   105233   104279 
  103473   103885   104720   104318   103405   103484   103090   102023 
  102149   102348   101698   102307   103873   103920   103184   103666 
  104296   103878   104063   105156   105367   104760   104317   104616 
  105349   104803   103630   104009   104778   104600   104530   104733 
  104588   103886   103110   103430   104315   104564   104345   104021 
  103968   104112   104005   103474   102251   101096   100819   100939 
  101502   102645   103658   104040   103935   104045   104180   103396 
  102860   103978   105089   104579   103242   102307   101965   101461 
  100886   100965   101019   100197    99407   100021   101007   100961 
  101293   102585   103208   103100   103333   103279   102397   102033 
  102058   101349   100716   100846   101055   100521   100441   101690 
  101925   101005   100988   101228   100508    99860   100969   102879 
  103832   103912   103297   102713   102690   102552   102888   103986 
  104315   104074   104479   104835   104903   105171   104963   104546 
  104499   103879   103181   103711   104680   105455   105948   104958 
  103081   102838   103891   104340   104776   106266   107616   107206 
  105939   105413   105097   104672   104820   104863   103889   103183 
  104245   105484   105085   104703   105250   105048   104788   105605 
  105703   104780   104538   105246   105910   105409   104006   103102 
  102963   103090   103491   103945   103970   104333   105308   105158 
  103643   102895   103875   104741   103851   102801   103211   104137 
  104525   104353   104309   104444   103740   102691   102208   101954 
  102537   103651   103711   103762   104097   103084   101633   100788 
  100778   101483   100904    99982   101061   102080   101380   100494 
  101008   102558   103198   103057   103262   102807   101772   101779 
  102695   103192   103192   103808   104303   103226   102055   102037 
  101784   101106   101625   102914   103207   103060   103485   104058 
  104213   103395   102470   102624   102671   101771   101023   101356 
  102217   102481   102663   103285   103477   103341   103045   102840 
  103642   104247   104514   105576   105794   105160   104418   102937 
  102733   104140   104560   103366   101902   102128   103126   102968 
  103300   104256   104380   104600   104774   104494   104252   103516 
  102905   102529   101567   101250   101682   101817   102003   102404 
  102987   103059   102309   102070   101819   101098   101899   103798 
  104877   105348   105166   103670   101896   101691   102639   102840 
  103153   104306   104249   103061   102313   102303   102942   103264 
  102793   102867   103773   103728   102898   103268   103827   103142 
  102501   102440   102297   102350   103102   104025   104454   104480 
  104224   103797   103437   103153   103192   103761   104117   104126 
  104595   104741   104010   103646   103721   103794   104259   104464 
  103729   103445   104404   104915   104365   104620   106046   106189 
  104723   104490   105287   104527   103501   104125   104282   103207 
  103053   103657   103813   103697   103665   104013   104272   104313 
  104811   104957   104126   103135   102766   103169   103281   103283 
  103975   103603   102207   102386   104095   105359   105472   104984 
  104102   102791   101800   101619   101795   102315   102980   102710 
  102172   102741   103609   103585   102740   102147   102519   102840 
  102802   103813   105850   107088   106370   105084   104368   102228 
   99258    98663    99495    99648    99875   100913   101606   101343 
  101082   101434   102532   103600   103932   103970   103505   102860 
  103134   103615   103002   102266   102803   103262   102710   102670 
  103435   103609   103117   103447   104313   104028   103036   102365 
  101904   101753   102388   103634   104040   102783   101358   101227 
  101287   100371   100018   101421   102801   102438   101973   102926 
  103038   101864   101958   102728   102656   102878   103783   103999 
  103320   103158   103779   103883   103619   103923   104557   105876 
  107438   107181   105617   104704   104332   104279   104603   104303 
  104137   105337   105745   104330   103451   103874   103889   103212 
  103499   103962   103469   103916   105119   105355   105150   104896 
  104656   104695   104571   104737   105976   106976   106521   105322 
  104328   103755   103380   103674   104935   106116   106389   105389 
  103912   103046   102054   101444   102135   102401   102034   102540 
  102969   102799   103873   105399   104920   103401   102456   101810 
  101109   100561   100904   101684   101445   100936   101900   103466 
  103288   102141   102559   103343   103018   103073   102925   101754 
  101694   102122   100885    99947   101008   102211   102640   103248 
  103528   102759   102061   101979   102091   102311   102177   101877 
  102385   103257   103207   102215   101517   101564   101547   101313 
  101306   101004   100468   101186   102809   103615   103855   104268 
  104139   103210   103156   104095   103728   102778   103042   103257 
  103461   104552   104851   104029   103774   104085   104024   103235 
  102288   102533   103644   104093   104217   104537   103725   102011 
  102141   103900   104298   103723   104507   105964   105921   104170 
  102317   102126   103470   103920   102848   102433   103175   103508 
  102871   102366   102612   102739   102767   103237   103697   104267 
  104886   104876   105131   106138   106420   106238   106883   107415 
  107264   107125   107009   106843   106226   104938   104229   104557 
  104749   104629   104730   104681   104230   103783   103620   103168 
  102556   103713   106023   106434   105084   103920   103015   101814 
  101059   101422   101478   100957   102030   103848   104006   103573 
  103277   102435   102579   104082   104348   103269   103203   103987 
  104483   105046   104904   103454   102334   101745   100876   100795 
  101547   101696   101407   100734    99630    99400    98925    97478 
   98024    99855   100021    99593    99983   101484   103509   104467 
  104561   104399   103588   102193   100888   101065   102914   104206 
  103927   103519   103642   103437   102235   100912   100890   101541 
  101980   102674   103512   103987   103904   103696   103840   104083 
  104267   103381   101259   100367   101223   102220   103050   103669 
  103790   103266   102644   102690   103081   104151   105584   105669 
  104992   104598   104161   103901   103832   103837   104109   104090 
  103635   103902   104612   104171   103451   104413   106161   106481 
  106281   107446   108101   107266   107042   107007   105888   104460 
  103096   101912   101457   101919   102968   103769   104055   104265 
  104097   103472   103654   104406   104171   103819   104164   104086 
  103827   103998   104687   105907   106231   105516   105047   104122 
  102589   101879   102262   102965   102891   102196   102259   102841 
  103080   102820   102111   101629   101545   101741   102487   103113 
  103570   104190   103523   101841   101402   102300   103331   103812 
  103909   104256   104595   104602   104406   103624   102324   101733 
  102604   103829   103723   103046   103970   105640   105483   103720 
  102489   102199   101745   101448   101946   102074   101822   102458 
  102701   101459   100422    99948    99435    99648   100631   101796 
  102697   102959   102882   102477   101815   101854   102848   103545 
  102764   101710   102153   102909   102668   102393   102469   102061 
  101237   101297   102766   104022   103562   102762   102909   102941 
  102807   103049   103121   103158   103420   103239   102450   102238 
  102944   103465   103879   104508   105024   105587   105891   105669 
  105636   106007   105800   104828   104404   104581   104495   104340 
  104301   104431   104942   105151   104538   104438   105295   105594 
  105150   104407   103781   103906   104268   104595   104630   104446 
  105140   105372   103982   102982   102609   102269   103176   104093 
  103455   102898   102872   102546   102392   102385   102089   102223 
  102810   102492   101977   102531   102269   101270   102224   103783 
  104058   104437   104955   104569   104048   104248   104708   104677 
  103896   102876   102332   102109   102208   103013   103657   103099 
  101730   100892   101413   102263   102640   103110   103142   102637 
  102776   102847   102323   102825   104051   103734   102293   101549 
  101259   101413   102355   103167   104085   105151   104711   103412 
  103443   103975   103167   102367   102990   103523   104044   105709 
  106628   106182   106016   105669   104425   103127   102436   102222 
  102142   102035   101989   102289   102257   101429   101551   102747 
  102595   101645   102124   103036   103037   102878   102982   103106 
  102671   101821   101856   102371   102355   102710   103393   103065 
  102686   103493   104230   104390   104762   105111   105000   104356 
  103765   104018   104101   103634   103781   103747   103500   104233 
  104724   104673   104795   104218   103018   102170   102108   102604 
  103090   103385   103373   103324   103080   101983   101197   101644 
  102190   102451   102641   102612   103276   104643   105070   104606 
  103917   102728   101848   102512   104043   104828   104932   105263 
  105460   104764   103095   101756   102282   103358   103131   102828 
  103489   103661   103196   103897   105078   104778   103712   103000 
  102945   103983   105235   105644   105583   105653   105736   105233 
  104356   104026   104132   103906   103729   104098   104248   103557 
  102667   102978   104055   103681   102600   102751   103117   102925 
  102714   102763   103445   104318   104769   104951   104676   104045 
  103617   103306   102724   101760   100997   101042   101281   100882 
  100361   100697   100973   100101    99782   100537   100651   100732 
  101421   101200   100180   100411   101692   101838   101722   103072 
  103987   103592   103411   102984   102145   102088   102115   101676 
  101370   101314   101962   102894   103351   104323   105393   105111 
  104454   104487   104992   105456   105484   105868   106463   105634 
  104183   103962   103968   103044   102428   102601   102447   102469 
  103921   105787   106493   105895   104340   103007   102982   103408 
  103882   104517   104256   103636   103874   103874   103233   103751 
  105219   105252   104531   104564   103987   103088   103199   103503 
  103728   104129   104024   103009   101825   101584   102186   102694 
  102878   103111   103547   103728   103319   103044   103108   102531 
  101930   102652   103917   104754   105055   104868   104861   104674 
  103561   103152   104627   106215   106209   105136   104407   104415 
  104274   103455   103022   103601   103828   103214   103601   105536 
  106564   105412   103750   102622   102046   102244   102917   103770 
  104257   103704   102583   101515   100854   100873   101268   101699 
  102362   103261   103075   101683   101424   102180   101857   101162 
  101416   101715   101437   101460   102070   102240   101356   100593 
  101147   102311   102712   101961   101252   101611   102528   103589 
  104369   103874   102817   102882   103041   102093   101493   101575 
  101356   101475   102652   103570   103148   102564   102483   102555 
  102575   102115   101920   102401   102833   103601   104529   104236 
  103069   103226   104386   103999   103118   103731   104634   104994 
  105183   105360   105699   105754   104849   103482   102925   103265 
  103512   103756   104537   104998   104869   105074   105375   105451 
  105424   104707   103628   103152   103094   103088   103380   104109 
  105050   105646   105699   105939   106601   106949   106500   105580 
