Origin Time       2024/04/02 04:24:00
Lat.              40.133
Long.             141.712
Depth. (km)       71
Mag.              6.0
Station Code      MYGH11
Station Lat.      38.5158
Station Long.     141.3421
Station Height(m) -202.1
Record Time       2024/04/02 04:25:05
Sampling Freq(Hz) 100Hz
Duration Time(s)  120
Dir.              3
Scale Factor      3923(gal)/8224838
Max. Acc. (gal)   2.202
Last Correction   2024/04/02 04:25:05
Memo.             
[...]
  -15898   -15861   -15580   -15724   -15988   -15700   -15565   -15759 
  -15757   -15700   -15619   -15357   -15276   -15539   -15789   -15720 
  -15404   -15361   -15716   -16070   -16178   -15822   -15415   -15480 
  -15773   -16227   -16564   -16263   -15795   -15735   -15739   -15364 
  -14917   -15114   -15743   -15896   -15854   -16100   -16108   -15939 
  -15835   -15419   -14797   -14723   -15608   -16204   -15556   -14759 
  -14276   -14017   -14461   -15265   -15877   -16241   -16133   -15638 
  -15423   -15541   -15445   -15587   -16038   -15758   -15483   -15975 
  -16021   -15661   -15709   -15724   -15503   -15487   -15796   -16087 
  -15973   -15608   -15460   -15485   -15314   -15028   -15074   -15511 
  -15950   -15970   -15485   -15022   -14866   -14893   -15399   -16109 
  -16309   -16217   -15969   -15400   -15028   -15190   -15685   -16124 
  -16183   -16255   -16618   -16615   -15880   -15201   -15217   -15354 
  -15294   -15426   -15354   -14976   -15430   -16249   -15720   -14656 
  -14781   -15481   -15584   -15387   -15477   -15692   -15865   -15915 
  -15700   -15707   -16024   -16132   -16189   -16113   -15840   -15981 
  -16397   -16634   -16306   -15466   -15433   -16127   -16086   -15589 
  -15348   -15337   -15539   -15537   -15280   -15511   -16015   -15654 
  -15043   -15344   -15543   -15171   -15179   -15456   -15593   -15758 
  -15957   -16089   -16216   -16383   -16291   -15904   -15938   -16200 
  -15669   -15141   -15703   -16140   -15603   -15120   -15138   -15147 
  -15179   -15511   -15728   -15685   -15785   -15660   -15255   -15323 
  -15689   -15762   -15404   -14940   -15076   -15558   -15574   -15414 
  -15388   -15082   -14806   -15018   -15369   -15689   -15989   -16352 
  -16486   -15965   -15658   -15784   -15788   -16214   -16582   -16065 
  -15673   -15703   -15387   -15114   -15395   -15843   -15731   -15138 
  -15138   -15334   -15002   -14872   -15070   -15449   -15854   -15913 
  -15998   -16125   -16077   -16119   -16140   -15780   -15326   -15346 
  -15472   -15403   -15546   -15716   -15828   -16197   -16578   -16513 
  -15893   -15425   -15493   -15414   -15315   -15460   -15417   -15677 
  -16310   -16332   -15712   -15237   -15198   -15113   -14890   -15138 
  -15719   -16109   -16102   -15684   -15543   -15881   -15965   -15804 
  -15917   -16182   -15936   -15352   -15465   -15985   -16089   -16158 
  -16170   -15772   -15476   -15511   -15601   -15628   -15392   -15009 
  -15169   -15674   -15541   -15244   -15649   -15768   -15268   -15361 
  -15546   -15404   -15851   -15882   -14948   -14677   -15233   -15394 
  -15153   -15419   -15712   -15448   -15673   -15994   -15610   -15723 
  -16260   -16421   -16448   -16066   -15554   -15523   -15646   -15672 
  -15464   -15279   -15527   -15738   -15591   -15353   -15337   -15826 
  -16139   -15583   -14843   -14623   -14854   -15130   -15512   -16078 
  -16255   -16171   -16017   -15475   -15209   -15815   -16626   -16862 
  -16584   -16357   -16160   -15670   -15385   -15485   -15565   -15846 
  -16258   -16001   -15255   -15214   -15678   -15749   -15847   -15660 
  -14951   -15230   -16000   -15611   -15311   -15947   -15978   -15423 
  -15354   -15326   -15129   -15144   -15230   -15485   -15726   -15434 
  -15168   -15202   -15056   -15286   -16028   -16129   -15731   -15615 
  -15352   -14997   -15441   -16294   -16286   -15892   -16120   -16167 
  -15789   -15705   -15761   -15917   -16001   -15568   -15121   -15130 
  -15364   -15680   -16036   -16109   -15840   -15635   -15411   -15059 
  -15056   -15302   -15546   -15797   -15824   -15919   -16055   -15834 
  -15822   -16040   -15711   -15172   -15141   -15498   -16063   -16564 
  -16474   -15946   -15546   -15352   -15213   -15498   -16096   -16133 
  -15755   -15711   -16047   -16151   -15516   -15288   -16029   -15882 
  -14874   -14872   -15452   -15588   -15597   -15658   -15562   -15523 
  -15762   -15904   -15799   -15832   -15925   -15813   -15789   -15957 
  -15913   -15657   -15387   -15025   -14778   -14962   -15232   -15121 
  -15172   -15727   -15677   -15125   -15380   -15792   -15260   -14481 
  -14823   -15784   -15591   -14890   -15047   -15527   -15970   -16317 
  -15884   -15203   -15601   -16101   -15518   -15060   -15303   -15468 
  -15411   -15314   -15326   -15759   -16285   -16349   -16239   -16017 
  -15741   -15777   -15800   -16021   -16492   -16287   -15730   -15745 
  -15919   -15601   -15476   -15882   -15962   -15861   -15784   -15390 
  -15344   -15844   -16194   -15967   -15399   -15446   -15772   -15653 
  -15915   -16259   -16097   -16085   -16174   -16303   -16197   -15620 
  -15608   -15943   -15726   -15565   -15681   -15642   -15658   -15697 
  -15491   -15368   -15225   -14943   -15194   -15642   -15581   -15402 
  -15155   -15005   -15433   -15747   -15681   -15861   -16274   -16526 
  -16059   -15325   -15178   -14985   -14949   -15728   -16366   -16572 
  -16676   -16159   -15187   -15249   -16187   -16060   -15610   -16152 
  -16368   -15862   -15466   -15337   -15319   -15265   -15356   -15530 
  -15368   -15125   -15253   -15191   -14706   -15060   -16079   -15871 
  -14887   -14867   -15662   -16355   -16406   -15904   -15541   -15558 
  -15616   -15476   -15321   -15660   -16220   -15677   -14737   -15380 
  -15979   -14960   -14430   -14898   -15041   -15232   -15817   -16051 
  -15843   -15897   -15950   -15600   -15583   -15669   -15290   -15387 
  -16025   -16074   -15819   -16011   -16295   -16293   -15935   -15377 
  -15029   -15214   -15824   -15978   -15746   -15952   -15986   -15638 
  -15453   -15138   -15214   -16036   -16275   -15975   -15913   -15593 
  -15267   -15003   -14642   -15040   -15431   -15203   -15502   -15923 
  -16001   -16139   -16139   -16332   -16443   -15755   -15207   -15526 
  -16139   -16617   -16910   -16904   -16289   -15234   -14890   -15245 
  -15334   -15724   -16177   -15770   -15514   -15472   -15167   -15761 
  -16707   -16557   -16132   -16105   -15939   -15693   -15697   -15591 
  -15511   -15815   -15592   -15121   -15529   -15928   -15633   -15399 
  -15603   -15603   -15205   -15425   -15784   -15403   -15673   -16171 
  -15431   -14769   -14574   -14615   -15461   -15981   -15869   -15835 
  -15414   -14999   -14986   -14519   -14381   -15395   -15882   -15885 
  -15957   -14933   -14368   -15516   -16569   -16518   -15851   -15855 
  -16429   -16125   -15427   -15353   -15700   -15984   -16121   -16403 
  -16486   -15843   -14809   -14276   -14613   -15168   -15550   -15805 
  -15870   -15796   -15383   -14983   -15400   -16067   -16127   -15788 
  -15479   -15538   -15720   -15368   -15012   -15458   -16210   -16252 
  -15344   -14651   -14949   -15333   -15322   -15658   -16468   -16190 
  -14990   -15118   -15742   -15562   -15701   -16020   -15904   -15795 
  -15792   -15600   -15396   -15654   -15977   -15971   -15963   -15861 
  -15223   -14467   -14979   -16259   -16282   -15727   -15990   -16228 
  -16090   -16108   -16093   -16062   -16113   -15965   -15688   -15558 
  -15583   -15547   -15468   -15487   -15496   -15523   -15558   -15322 
  -15183   -15712   -15915   -15082   -14851   -15633   -15965   -15801 
  -15639   -15615   -15935   -16132   -15789   -15537   -16056   -16560 
  -16299   -16090   -16039   -15460   -14801   -14746   -14989   -15184 
  -15488   -15462   -15260   -15394   -15321   -15533   -16008   -15561 
  -14917   -14574   -14419   -15300   -16222   -15664   -14987   -15349 
  -15660   -15356   -15044   -15345   -15859   -15503   -14870   -15178 
  -15913   -16235   -16096   -16044   -16372   -16281   -15807   -15816 
  -15997   -16166   -16673   -16949   -16366   -15916   -16127   -15502 
  -14593   -14918   -15163   -15422   -16464   -16371   -15477   -15165 
  -14759   -14743   -15157   -15472   -15905   -15870   -16025   -16546 
  -16032   -15218   -15049   -15310   -15745   -15851   -16002   -16059 
  -15358   -15036   -15498   -15759   -15707   -15538   -15252   -14686 
  -14264   -14289   -13977   -13721   -14179   -14970   -15982   -16255 
  -15473   -15228   -15438   -14979   -14619   -15051   -15782   -16267 
  -16210   -16364   -16734   -16146   -15114   -14733   -14870   -15057 
  -15252   -15267   -14870   -14997   -15473   -14840   -14328   -15199 
  -15570   -14872   -14794   -15240   -15410   -15896   -16236   -15951 
  -16040   -16178   -16262   -17035   -17481   -17213   -17192   -17599 
  -18288   -18715   -18168   -17209   -16838   -16602   -16121   -16306 
  -17050   -17440   -17136   -16270   -15892   -16312   -16455   -16027 
  -15682   -15834   -15947   -15654   -15876   -16572   -16584   -16467 
  -16837   -17011   -17324   -17644   -17105   -17039   -18107   -18374 
  -17590   -17508   -17894   -17244   -16320   -16426   -16673   -16129 
  -15556   -15471   -15302   -15001   -14823   -14620   -14535   -14778 
  -14995   -14879   -15036   -15391   -15557   -16260   -16846   -16475 
  -16440   -17192   -17505   -16950   -16741   -17458   -17585   -16633 
  -16340   -16664   -16168   -15770   -15831   -15194   -15044   -15607 
  -14851   -13765   -13610   -12618   -11256   -11460   -11705   -11101 
  -11620   -12791   -12586   -12048   -12594   -13059   -12538   -12082 
  -12339   -12638   -13433   -14953   -15178   -14256   -14396   -15446 
  -16386   -16785   -16436   -15758   -15340   -15553   -16386   -17564 
  -18121   -17208   -15653   -14648   -14631   -14956   -14763   -14467 
  -14467   -14719   -15331   -15670   -15360   -15390   -16108   -16822 
  -17327   -17697   -17675   -16587   -15275   -15796   -16812   -16357 
  -16085   -16517   -16465   -16370   -16497   -16830   -16985   -15925 
  -14827   -14659   -14131   -13400   -13487   -13765   -13602   -13595 
  -14013   -13760   -12787   -12752   -12969   -12037   -11761   -13036 
  -14096   -14528   -15556   -16796   -16700   -16374   -17238   -18056 
  -18520   -19172   -19163   -18292   -17713   -17699   -17207   -16071 
  -15033   -14114   -13635   -14388   -15739   -16723   -17450   -17853 
  -17637   -16856   -16394   -16957   -17116   -16540   -16846   -17545 
  -17668   -17828   -18045   -17431   -16179   -15603   -15411   -14955 
  -15395   -16430   -16528   -16066   -15526   -14656   -13887   -13865 
  -14829   -16121   -16526   -15624   -14377   -13865   -13963   -14424 
  -14998   -15206   -15616   -16398   -16216   -14881   -14084   -14534 
  -15093   -15213   -15592   -16294   -16977   -17371   -17011   -16768 
  -16843   -15882   -15071   -15244   -14457   -13713   -14794   -15456 
  -14740   -14615   -15190   -15161   -14906   -15549   -16445   -16501 
  -16183   -15936   -15538   -15190   -15022   -15264   -15649   -15171 
  -15151   -16380   -16422   -14820   -13046   -11874   -11853   -12490 
  -13663   -15893   -18071   -18750   -18295   -17946   -17798   -17606 
  -17967   -18215   -17258   -16260   -16023   -15758   -15523   -15502 
  -15965   -16870   -16578   -15534   -15217   -14985   -15128   -15714 
  -15277   -14750   -15518   -15772   -15047   -15153   -15441   -14918 
  -14154   -13747   -14358   -15061   -15151   -15811   -16325   -15799 
  -15234   -15018   -15570   -16575   -16835   -16795   -16557   -15850 
  -15993   -16780   -16745   -17068   -18527   -19095   -18135   -16870 
  -15896   -15074   -14260   -13949   -14224   -14439   -14219   -13302 
  -12209   -12636   -15151   -17454   -17412   -16248   -15615   -15265 
  -14843   -14231   -14130   -15527   -16864   -17124   -17336   -16405 
  -14526   -14457   -15552   -15754   -15720   -16540   -17301   -17014 
  -16249   -15178   -14620   -15682   -16345   -15512   -15048   -15048 
  -14426   -13778   -14342   -15682   -15892   -14917   -14565   -15412 
  -16683   -17101   -16227   -15326   -14403   -12989   -12822   -14083 
  -15446   -16702   -16906   -16387   -16494   -16100   -15357   -16027 
  -17734   -19045   -18574   -16714   -15350   -14943   -15148   -15715 
  -16137   -16236   -16669   -17702   -18515   -18198   -16448   -15066 
  -15268   -15282   -15109   -15828   -16627   -17135   -16853   -15815 
  -15407   -15213   -14617   -14364   -14436   -14948   -15970   -16048 
  -14859   -14442   -15148   -15676   -16198   -16455   -16163   -15750 
  -15099   -15722   -17644   -17859   -16843   -16410   -14895   -12955 
  -13093   -13575   -13684   -15016   -15832   -15111   -15363   -16545 
  -16611   -16468   -16633   -16330   -16443   -17039   -17182   -16972 
  -16795   -16719   -16578   -16159   -15542   -15106   -14948   -14750 
  -14357   -14272   -14642   -14018   -12208   -12001   -13797   -14878 
  -15534   -16191   -15057   -13772   -13890   -14095   -14652   -15163 
  -14612   -13923   -13579   -13614   -14056   -14941   -15716   -14951 
  -13961   -14292   -14747   -15549   -16599   -16478   -15934   -15547 
  -14931   -14832   -15778   -16553   -16407   -17026   -18181   -17598 
  -16104   -15503   -16050   -16884   -16892   -16900   -17197   -16549 
  -15759   -15666   -15904   -16896   -17988   -18358   -18373   -17820 
  -16987   -16298   -15920   -16576   -17572   -17872   -17640   -16915 
  -16321   -16154   -14759   -12181   -11362   -12715   -14118   -14968 
  -14848   -14345   -14918   -15503   -15866   -16775   -16949   -16459 
  -15963   -14690   -13961   -14889   -15299   -14769   -14762   -15125 
  -15458   -15481   -15882   -17046   -16633   -14756   -14018   -13562 
  -12299   -11923   -12553   -12395   -11839   -13011   -15346   -16287 
  -16383   -16888   -16578   -15527   -14925   -15464   -16850   -17312 
  -17620   -18698   -18762   -19016   -20260   -19796   -18215   -17213 
  -16336   -15511   -14835   -15425   -16406   -15936   -16268   -16661 
  -15094   -14493   -15407   -16237   -16862   -16933   -16524   -15970 
  -15745   -16270   -17189   -17605   -17190   -16507   -15832   -15635 
  -15626   -15095   -15168   -15928   -16425   -16700   -16289   -15685 
  -16081   -16924   -17023   -15840   -14661   -15438   -16875   -16459 
  -15167   -14712   -14666   -14462   -14154   -14146   -13890   -12845 
  -13470   -15790   -15647   -14143   -14516   -14287   -13140   -13722 
  -14395   -14612   -15772   -16387   -16357   -16379   -15410   -14297 
  -13838   -13207   -13074   -13934   -14191   -13664   -14133   -15010 
  -15152   -15889   -17103   -17374   -17537   -17752   -17248   -17305 
  -17432   -16557   -16410   -16443   -15657   -15311   -15277   -15525 
  -16100   -15693   -15068   -15881   -16695   -16519   -16538   -16131 
  -14885   -14116   -14177   -15020   -16046   -16418   -16357   -16013 
  -15565   -15438   -15434   -15264   -15450   -15831   -15180   -14378 
  -14318   -13801   -13671   -14482   -14351   -14094   -14831   -14975 
  -14953   -16036   -17402   -18121   -17455   -15881   -14891   -14408 
  -14164   -14459   -15088   -15935   -16706   -16872   -16391   -15966 
  -15961   -15493   -15024   -15786   -16528   -16744   -16839   -15488 
  -14262   -14895   -15010   -15248   -16941   -17234   -16465   -16768 
  -16872   -16737   -16984   -16749   -16567   -16775   -16649   -16263 
  -15677   -15114   -15275   -15766   -15827   -15703   -15508   -14875 
  -14409   -15022   -15531   -14841   -14138   -13896   -14029   -14898 
  -15885   -16576   -17037   -16980   -16553   -16538   -16987   -16467 
  -15624   -16544   -17444   -17514   -17996   -16827   -14746   -14423 
  -14134   -13595   -14322   -15160   -15252   -15117   -14592   -13884 
  -14014   -15160   -16121   -15381   -14141   -14258   -13860   -12741 
  -13589   -14810   -14413   -14368   -15155   -15583   -15628   -15741 
  -15890   -15581   -16173   -17988   -17703   -16082   -16397   -16642 
  -16085   -17524   -19029   -17270   -15331   -15708   -15469   -14836 
  -15874   -16515   -16124   -16402   -16634   -15866   -15178   -14796 
  -14029   -13362   -13111   -13864   -15626   -16571   -16954   -17190 
  -16367   -15614   -15302   -14864   -14997   -15624   -16401   -17103 
  -16760   -15812   -15681   -15900   -15635   -15817   -16826   -17003 
  -16413   -16627   -17126   -17176   -16725   -16229   -16654   -17294 
  -17309   -17410   -17701   -17332   -16425   -15870   -15927   -16071 
  -15830   -15747   -16150   -16009   -15647   -16166   -16098   -14956 
  -15061   -15943   -15137   -14231   -15215   -15183   -13181   -12758 
  -13952   -14295   -13595   -12542   -12536   -14079   -15230   -14966 
  -14737   -15410   -15562   -14949   -15045   -15601   -15676   -15592 
  -15765   -15971   -16303   -16432   -15669   -15334   -15700   -14620 
  -13420   -14855   -16421   -15900   -15795   -16301   -15735   -15199 
  -15321   -15876   -16784   -16876   -16492   -16762   -16654   -16074 
  -15641   -15195   -15903   -16896   -16455   -16071   -15963   -15342 
  -15094   -15286   -15535   -16015   -15757   -14790   -15592   -17046 
  -16690   -16530   -16857   -15610   -14092   -14280   -15130   -15205 
  -14944   -14959   -15356   -15581   -14895   -14161   -14241   -14543 
  -15209   -16750   -17629   -17109   -16609   -16173   -15562   -15350 
  -15267   -15083   -14924   -14863   -15276   -15965   -15919   -15445 
  -15361   -14864   -13937   -13744   -14088   -14152   -14251   -14724 
  -14661   -14418   -15430   -16364   -16015   -16005   -16852   -17756 
  -18169   -17285   -15743   -14862   -14493   -14936   -16248   -16302 
  -15388   -16146   -16970   -15963   -15661   -16356   -15992   -15495 
  -15407   -15273   -15599   -15658   -15622   -16537   -17142   -16738 
  -16341   -15901   -14723   -14002   -15326   -17226   -17903   -17979 
  -17745   -16838   -16096   -16252   -16502   -16185   -15793   -16218 
  -17323   -17321   -16071   -15330   -15164   -14814   -14589   -15052 
  -15716   -15219   -14428   -15357   -16220   -15747   -16209   -16727 
  -15685   -15462   -16078   -15418   -14871   -15283   -15346   -14914 
  -14446   -14808   -15661   -15576   -15333   -15553   -15283   -14937 
  -14837   -13867   -12973   -13548   -14122   -14270   -14675   -14548 
  -14316   -14642   -14889   -15419   -15919   -15426   -15138   -15450 
  -15750   -16154   -15687   -14994   -15606   -16239   -16055   -15622 
  -15589   -15992   -16016   -15982   -16239   -16221   -15988   -15911 
  -15689   -15395   -15858   -16237   -15769   -15780   -16112   -15643 
  -14872   -14635   -15304   -15874   -15163   -14530   -14855   -15136 
  -15356   -15747   -15819   -15191   -14998   -16560   -17686   -16983 
  -16935   -17444   -16760   -16017   -15726   -15246   -15369   -16355 
  -16760   -16617   -17254   -17934   -18166   -18152   -17248   -16299 
  -16032   -15984   -15909   -15515   -15191   -15147   -14986   -15421 
  -16565   -16719   -15781   -15214   -14681   -13944   -14121   -15113 
  -15943   -16056   -15647   -15272   -14970   -14700   -14557   -14905 
  -15697   -15893   -15469   -15315   -15647   -16102   -15904   -15298 
  -15213   -15361   -15195   -15040   -15614   -16262   -15583   -14292 
  -13675   -13833   -14631   -15106   -14809   -14790   -15071   -15260 
  -15410   -15264   -14931   -14732   -15148   -15736   -15704   -16079 
  -17012   -16872   -15882   -16210   -17423   -16939   -15670   -15499 
  -15276   -14735   -15094   -15718   -15817   -16096   -16159   -15678 
  -15485   -15248   -14976   -15009   -14952   -15284   -16141   -16606 
  -16193   -15878   -16195   -16017   -15894   -16378   -16113   -15215 
  -14790   -15268   -15873   -15607   -15348   -15836   -16384   -16656 
