Origin Time       2024/04/02 04:24:00
Lat.              40.133
Long.             141.712
Depth. (km)       71
Mag.              6.0
Station Code      MYGH03
Station Lat.      38.9207
Station Long.     141.6377
Station Height(m) -37
Record Time       2024/04/02 04:24:59
Sampling Freq(Hz) 100Hz
Duration Time(s)  124
Dir.              3
Scale Factor      2942(gal)/8224139
Max. Acc. (gal)   10.638
Last Correction   2024/04/02 04:24:59
Memo.             
[...]
  -31779   -31996   -31005   -29755   -29637   -28992   -26935   -23953 
  -23784   -28127   -30199   -28077   -27685   -29107   -30450   -32337 
  -33235   -32624   -31064   -28949   -28999   -30303   -28359   -26526 
  -29227   -30345   -29015   -32341   -35343   -32310   -30075   -30788 
  -30523   -30164   -30631   -31140   -32285   -32178   -29307   -27518 
  -28151   -28798   -28991   -27500   -25748   -27646   -29659   -28872 
  -29613   -31703   -32470   -33284   -32664   -29201   -27652   -29381 
  -30431   -30137   -29061   -28293   -29346   -30014   -30890   -34053 
  -35027   -31648   -29157   -30966   -32756   -30678   -29886   -32474 
  -32395   -29196   -27261   -27210   -27846   -29185   -29940   -28152 
  -26573   -28104   -30289   -30601   -29070   -27928   -28512   -28618 
  -28802   -29512   -27855   -27148   -30303   -32378   -31930   -31565 
  -31089   -30311   -30393   -29824   -27688   -28158   -31622   -33156 
  -32467   -32590   -33204   -31768   -30241   -31068   -30306   -28343 
  -28867   -28329   -26797   -28305   -29766   -29227   -29193   -29658 
  -30689   -32404   -31953   -29343   -28699   -30504   -31407   -31198 
  -31953   -32231   -30021   -28013   -28514   -29254   -28972   -28912 
  -29060   -28921   -29766   -32568   -34330   -32572   -30260   -30466 
  -32144   -30981   -27000   -27180   -30449   -30348   -30329   -32209 
  -31029   -28476   -28506   -29687   -30071   -30072   -30681   -31086 
  -31113   -32036   -32320   -31151   -31160   -31432   -29412   -28281 
  -29660   -29992   -29909   -30581   -28826   -26782   -28659   -31056 
  -30917   -30187   -29628   -29317   -30024   -30107   -28383   -27234 
  -28185   -29801   -30433   -29277   -27207   -27425   -29609   -28980 
  -26291   -25758   -27356   -29895   -31345   -30262   -29164   -30086 
  -31880   -31450   -28719   -28456   -30507   -30770   -30986   -32161 
  -31749   -31661   -32738   -31954   -30628   -30365   -29274   -28555 
  -29273   -28863   -28328   -29797   -30601   -29737   -29803   -30802 
  -31055   -30634   -29967   -29359   -29972   -31371   -31156   -30298 
  -30792   -30747   -29836   -29843   -29597   -27896   -26985   -28699 
  -30681   -30331   -28721   -28445   -30024   -31595   -32169   -31149 
  -28895   -28161   -28489   -28362   -29301   -30693   -31136   -31433 
  -31803   -31746   -31561   -31525   -30618   -28887   -28314   -29022 
  -29689   -30145   -30478   -30599   -30272   -29683   -29748   -29700 
  -29141   -29938   -30631   -29257   -29281   -31303   -30910   -29158 
  -29305   -28665   -27098   -29106   -31924   -31021   -30360   -31531 
  -30921   -30322   -31942   -32698   -31155   -28949   -28340   -30219 
  -31457   -30654   -30624   -30883   -28996   -26612   -26431   -27719 
  -28031   -27820   -29037   -29907   -29195   -29704   -31529   -32152 
  -31517   -31036   -31549   -32494   -32468   -31187   -30580   -31486 
  -31369   -29548   -28467   -28873   -30106   -31274   -30815   -29374 
  -29484   -31068   -31711   -30632   -29359   -29039   -29424   -29736 
  -29805   -30388   -30808   -29326   -27889   -30032   -32533   -30438 
  -27911   -28501   -28015   -27055   -28444   -28622   -28019   -30125 
  -31121   -29627   -30275   -31692   -30484   -28352   -27002   -27603 
  -29775   -30252   -29128   -28779   -29625   -31240   -32138   -31414 
  -29991   -29350   -29724   -29986   -30289   -30605   -30546   -30705 
  -30750   -30975   -30766   -28788   -27841   -29096   -29895   -30384 
  -31515   -31993   -30902   -29660   -30194   -30819   -29114   -27189 
  -28243   -31402   -32665   -30935   -29898   -30458   -29548   -28842 
  -30514   -29961   -26921   -27465   -30384   -30975   -30862   -30923 
  -29069   -28358   -31255   -32601   -29358   -26724   -28659   -31120 
  -31183   -31293   -31064   -29612   -30063   -32817   -33566   -31105 
  -28899   -28377   -28821   -29767   -30292   -30057   -29361   -29174 
  -29714   -29760   -29952   -30861   -31442   -31801   -31912   -31333 
  -30384   -29709   -29847   -29767   -29180   -29601   -30554   -30919 
  -30530   -29457   -28910   -29335   -29721   -29369   -28008   -26634 
  -26789   -27238   -27338   -30126   -33120   -31193   -28783   -30021 
  -31702   -32449   -32323   -30429   -28651   -28810   -29409   -30273 
  -31619   -31125   -29633   -29855   -30549   -30366   -29976   -28984 
  -28093   -29359   -30133   -28209   -27912   -30001   -31029   -31099 
  -30717   -29920   -29216   -28664   -28506   -28275   -28285   -29227 
  -29797   -29180   -28648   -29492   -30755   -30973   -31071   -31099 
  -30117   -30092   -31494   -31900   -31220   -30267   -29173   -28595 
  -28563   -29072   -30487   -31733   -31195   -30032   -30267   -30441 
  -30694   -32699   -32530   -29289   -27723   -27777   -28605   -31186 
  -32790   -31676   -30289   -30244   -30742   -30492   -30061   -30774 
  -31338   -30974   -30578   -29565   -29070   -30775   -31930   -30748 
  -29620   -29353   -28490   -27746   -28466   -29085   -29011   -29686 
  -29579   -28362   -29131   -30653   -30761   -30858   -30140   -28702 
  -29343   -30969   -31024   -29830   -29155   -29570   -29488   -28987 
  -29628   -30631   -30873   -30639   -31302   -32252   -30585   -28853 
  -29763   -29907   -29682   -30927   -30877   -29520   -29484   -29828 
  -28796   -27745   -27776   -28827   -30443   -30537   -29550   -29155 
  -28291   -28223   -30365   -31426   -29902   -28645   -29034   -29512 
  -29494   -30026   -30476   -29589   -28165   -27805   -29366   -30863 
  -30113   -29558   -30167   -29833   -29636   -29540   -29268   -30998 
  -31900   -30422   -30335   -30527   -29728   -31260   -33205   -31275 
  -29266   -30596   -31517   -30991   -30703   -30219   -30059   -29668 
  -28123   -27942   -29727   -30570   -30331   -30823   -30604   -29230 
  -29847   -30924   -29349   -28587   -29997   -30670   -31549   -32545 
  -31406   -29952   -29867   -29906   -29609   -29689   -29527   -28425 
  -28078   -28494   -27785   -27315   -28549   -29540   -29382   -29582 
  -30052   -30086   -30388   -31040   -31363   -31122   -31445   -32506 
  -32042   -31274   -31920   -30589   -28273   -29556   -31567   -30029 
  -27523   -27197   -28448   -30284   -30642   -28364   -27437   -29544 
  -29960   -28621   -30375   -32603   -31638   -30785   -30844   -30022 
  -29405   -29956   -31068   -31610   -31117   -30724   -31610   -33014 
  -33173   -31922   -30883   -30429   -29862   -29806   -30233   -30600 
  -31279   -31502   -30316   -29010   -29064   -29579   -29504   -29119 
  -28881   -28834   -27774   -25929   -26165   -28694   -30033   -28773 
  -27325   -27730   -29398   -30330   -29853   -29380   -29566   -30291 
  -31598   -31969   -30626   -30241   -31190   -30748   -30260   -30866 
  -30009   -28516   -28706   -29519   -29405   -28603   -28305   -28837 
  -28995   -27972   -27270   -28794   -31564   -32397   -30615   -29830 
  -30762   -30412   -30129   -30852   -29581   -27627   -28278   -30493 
  -31810   -31708   -31611   -32344   -32840   -32027   -30717   -30397 
  -29420   -26990   -26640   -28634   -30801   -33045   -33686   -32142 
  -31131   -30470   -29162   -29355   -29200   -26268   -26056   -29610 
  -30647   -30195   -30400   -28923   -28972   -31363   -30342   -27735 
  -28409   -30339   -31760   -33093   -32564   -30627   -30106   -29640 
  -27720   -26752   -28472   -31413   -31904   -30244   -30682   -31823 
  -30790   -30447   -31839   -31887   -30165   -28679   -28444   -30165 
  -32570   -31865   -28714   -28728   -32294   -33133   -29924   -28379 
  -29227   -28336   -26454   -26310   -28071   -29945   -29740   -29992 
  -31963   -31380   -30034   -30605   -30129   -30457   -31734   -29870 
  -28776   -30430   -29770   -28536   -29975   -30420   -28734   -28244 
  -29378   -29716   -28980   -29092   -29821   -30360   -30836   -29918 
  -28435   -29214   -30873   -30624   -29729   -29732   -30125   -31218 
  -31545   -30095   -30179   -31359   -30929   -30789   -31141   -29670 
  -27750   -28034   -29004   -28462   -28294   -29191   -28815   -28186 
  -29681   -31804   -32686   -31706   -29779   -30186   -32251   -32344 
  -30874   -29938   -30102   -29999   -28170   -26820   -27727   -28212 
  -27957   -28989   -29579   -29079   -29251   -29724   -30574   -31619 
  -31213   -30719   -30935   -29772   -28144   -27927   -28671   -29709 
  -30599   -31780   -32691   -32216   -31789   -31453   -30605   -30846 
  -31426   -30489   -28815   -28462   -29728   -30179   -29623   -29802 
  -30099   -30838   -31658   -30327   -29358   -30751   -31126   -29987 
  -29779   -30484   -30453   -29717   -30358   -31206   -29944   -28648 
  -28699   -28902   -28930   -28858   -29000   -29525   -29366   -28703 
  -29227   -30504   -30836   -30694   -31232   -31091   -30088   -30231 
  -30207   -29323   -29937   -30042   -27677   -27672   -30993   -31357 
  -29145   -29463   -29452   -26995   -27604   -30920   -31714   -30935 
  -29926   -28394   -28485   -30213   -31002   -30298   -29569   -29439 
  -29249   -28674   -28910   -30662   -30767   -28894   -29012   -29516 
  -28703   -29250   -30897   -32861   -33623   -30667   -28381   -29766 
  -30468   -30963   -32563   -31141   -28359   -29070   -31224   -31216 
  -30191   -30964   -32459   -31687   -30017   -29895   -29880   -28958 
  -28903   -30231   -30889   -29733   -28795   -29525   -30252   -30098 
  -30221   -30697   -30194   -29104   -28983   -29236   -29620   -30659 
  -30589   -29457   -29420   -29860   -29901   -29817   -29970   -31066 
  -32196   -32043   -30813   -29629   -29407   -30026   -31448   -32321 
  -30595   -28255   -28555   -30514   -30392   -27650   -26747   -28183 
  -27789   -27757   -30800   -31653   -29016   -28664   -30539   -30574 
  -29295   -29170   -30703   -31752   -30488   -28933   -29624   -30607 
  -29451   -28669   -29505   -29643   -29494   -30562   -31619   -31121 
  -29818   -28669   -28420   -29782   -30476   -29612   -29470   -29701 
  -29693   -29581   -28340   -27837   -28931   -28686   -28167   -28858 
  -29146   -30850   -33528   -32502   -30312   -31579   -32942   -31951 
  -31140   -31241   -31195   -30414   -30083   -31716   -32930   -31783 
  -30781   -30650   -29519   -27985   -27456   -27783   -28320   -28617 
  -28873   -29309   -30029   -30572   -30176   -30231   -30558   -29049 
  -28637   -31156   -32229   -30732   -29516   -29733   -30821   -30940 
  -29224   -27843   -29138   -31068   -30653   -30246   -31465   -30974 
  -28375   -27714   -29170   -29635   -30113   -30861   -29731   -28853 
  -29596   -31028   -32304   -31676   -31056   -31403   -29860   -28026 
  -29245   -31654   -30879   -28768   -30393   -31861   -29805   -29091 
  -29563   -29023   -29805   -30701   -30076   -30242   -31322   -31256 
  -29484   -28281   -30460   -33041   -31981   -29751   -29026   -29439 
  -30088   -29860   -29106   -28593   -27853   -27184   -28406   -30843 
  -30867   -28942   -28696   -29528   -29567   -30254   -31715   -32213 
  -31972   -30312   -27700   -28030   -30118   -30073   -29371   -29295 
  -28609   -28339   -29358   -29794   -29432   -29309   -28545   -28054 
  -29143   -29673   -29717   -31189   -31322   -29511   -30300   -31405 
  -29278   -28267   -28806   -28528   -29288   -30655   -31463   -31860 
  -31035   -30639   -30943   -28553   -26077   -28139   -31160   -31326 
  -30451   -29563   -29413   -32263   -35178   -33878   -30694   -28587 
  -27810   -28368   -30383   -32796   -32069   -29242   -30022   -32975 
  -32439   -29978   -30339   -31253   -29949   -29567   -29583   -28128 
  -28262   -29533   -29208   -28705   -29367   -29783   -28447   -26765 
  -27168   -28559   -28888   -28613   -28206   -27947   -28672   -30605 
  -32306   -31855   -30901   -30646   -29304   -27345   -26164   -27673 
  -31098   -30700   -28011   -28486   -29344   -28848   -29220   -29594 
  -28799   -27572   -28092   -30393   -31307   -30577   -29660   -29266 
  -29450   -29575   -30861   -32391   -31294   -29222   -28578   -29247 
  -30888   -31298   -28979   -27342   -28360   -29862   -31469   -33065 
  -32351   -29826   -29214   -31171   -32059   -30445   -29693   -32030 
  -34404   -33504   -32089   -32969   -33097   -32190   -33168   -33866 
  -33685   -36000   -38071   -36001   -33443   -33876   -35171   -35475 
  -36471   -38601   -38707   -36294   -36007   -39106   -39406   -34210 
  -29316   -27564   -26542   -27118   -30503   -32202   -29683   -27499 
  -27588   -27531   -28228   -31364   -33760   -31831   -28688   -27649 
  -26338   -25315   -27328   -29589   -29643   -29532   -28466   -25122 
  -24618   -27529   -26929   -22951   -20568   -20748   -21695   -20545 
  -18592   -21134   -27110   -30037   -28760   -26806   -25153   -22997 
  -22206   -25620   -29585   -28728   -26838   -26215   -24015   -23615 
  -27029   -30311   -30915   -28888   -25706   -23298   -25826   -33837 
  -39641   -39239   -35451   -31264   -28435   -27259   -27789   -28530 
  -27924   -29187   -33111   -34484   -33817   -35920   -38524   -37061 
  -32668   -30840   -34461   -39791   -42820   -41303   -34985   -29239 
  -25731   -21142   -20497   -27079   -31024   -27649   -22947   -20075 
  -22293   -32485   -43771   -48097   -45619   -40319   -33235   -24214 
  -19712   -21988   -22847   -22588   -24467   -20254   -10673    -8669 
  -12725   -15901   -24653   -36070   -37816   -36058   -35796   -28283 
  -18813   -16193   -16032   -16783   -18414   -18578   -20329   -25786 
  -30758   -30523   -26102   -25081   -30630   -37201   -41899   -46284 
  -52998   -59703   -56386   -44977   -38917   -40915   -43854   -42356 
  -38928   -36073   -31297   -28792   -30781   -30461   -28571   -29633 
  -32595   -36556   -37759   -32967   -28749   -27973   -24775   -21992 
  -26431   -33053   -33486   -29466   -26715   -23386   -19206   -22881 
  -32778   -35082   -29343   -26549   -29431   -33874   -35614   -34300 
  -34033   -34341   -32205   -29812   -29543   -31112   -32080   -27372 
  -17105   -10916   -15835   -24328   -27113   -29353   -34393   -35016 
  -32379   -33504   -36794   -37272   -33718   -26686   -18090   -13563 
  -16799   -22613   -24713   -26014   -31415   -36737   -36643   -36054 
  -39885   -43020   -41323   -35322   -28077   -26298   -29376   -29884 
  -25485   -20034   -19832   -25317   -30630   -32232   -30812   -30362 
  -30109   -23754   -17190   -18821   -21751   -22947   -26264   -28957 
  -31271   -34434   -35471   -37926   -42979   -42142   -36424   -32772 
  -27135   -20626   -20981   -21986   -19624   -23911   -35127   -42263 
  -43040   -42402   -40637   -36537   -32653   -29975   -26096   -21203 
  -20510   -25656   -30537   -32925   -36016   -38503   -37970   -35063 
  -29808   -23660   -18883   -15792   -16235   -20691   -24409   -24638 
  -24094   -26052   -31010   -34211   -32244   -30230   -30296   -27302 
  -22850   -25326   -33976   -39699   -41492   -43140   -41940   -38913 
  -40431   -43640   -43857   -43703   -41640   -35540   -31950   -33331 
  -35888   -38439   -36780   -29477   -25242   -26152   -25959   -25574 
  -26222   -23977   -22022   -24331   -26145   -25182   -24703   -26407 
  -29914   -34005   -36778   -36621   -34052   -33489   -36578   -37573 
  -34376   -31819   -31739   -29778   -24734   -22536   -22723   -21105 
  -20086   -19036   -18053   -21444   -25240   -25720   -26617   -28128 
  -28790   -28485   -24858   -20182   -21968   -30970   -37764   -35149 
  -29501   -29608   -33151   -34624   -33687   -32198   -30894   -29994 
  -29651   -29820   -32044   -34970   -32314   -26862   -26789   -27626 
  -25779   -25101   -22642   -19638   -22511   -26752   -27723   -29023 
  -31081   -31353   -32308   -36188   -38045   -35002   -32621   -32514 
  -31743   -32205   -32992   -31217   -31193   -34931   -36860   -34700 
  -33220   -34335   -33685   -31545   -31595   -30102   -24128   -19384 
  -21154   -27801   -31500   -28679   -25984   -27234   -29110   -27618 
  -23411   -21402   -22900   -28611   -35253   -34195   -28898   -28119 
  -32192   -35272   -31244   -27083   -30422   -31801   -27386   -26758 
  -29678   -30437   -31704   -32647   -29350   -25751   -26298   -31221 
  -36732   -37511   -35865   -35668   -33169   -29493   -31045   -33833 
  -34605   -36838   -35993   -30715   -28902   -30854   -31957   -32767 
  -34792   -33868   -27353   -22887   -25011   -28775   -31367   -31266 
  -28282   -26985   -28520   -31880   -36539   -38616   -37463   -35614 
  -33708   -31891   -29358   -27584   -28601   -28804   -25566   -21664 
  -20829   -24120   -26863   -25844   -23803   -21330   -19696   -21749 
  -24960   -25905   -25331   -25743   -26318   -25901   -27186   -29474 
  -30584   -32178   -32904   -30289   -28080   -29370   -31017   -31509 
  -32358   -31795   -29344   -27525   -26650   -27454   -29565   -31213 
  -32784   -33678   -34813   -36720   -35311   -31876   -32135   -33851 
  -33083   -33200   -35972   -37308   -35992   -36011   -37531   -35949 
  -32629   -31580   -31429   -31256   -32157   -32854   -31058   -27495 
  -26522   -28298   -27602   -25502   -24719   -24305   -27619   -31891 
  -29965   -27518   -28749   -27464   -25038   -28038   -31195   -28456 
  -25517   -25864   -27189   -28190   -28269   -27256   -25269   -26673 
  -32541   -35615   -34491   -31931   -29597   -30631   -32950   -31066 
  -26150   -25114   -29343   -32390   -32127   -31807   -32036   -32109 
  -30909   -29064   -31158   -35519   -35473   -33002   -32580   -32309 
  -31554   -32630   -34233   -33612   -31328   -29532   -28890   -28925 
  -29459   -29089   -27693   -28305   -29979   -28969   -25810   -24039 
  -25624   -28232   -29693   -30088   -27741   -23704   -23349   -27056 
  -29515   -29903   -30875   -30094   -27479   -27766   -29778   -31144 
  -32065   -28759   -23161   -23768   -27989   -30279   -33421   -35756 
  -33988   -32656   -33151   -32533   -32157   -31749   -30033   -29713 
  -30520   -32163   -34574   -33143   -29752   -28746   -28282   -28170 
  -28707   -29906   -31330   -29857   -27742   -29577   -32733   -33898 
  -34199   -33192   -30915   -32001   -35545   -33517   -26997   -25315 
  -28308   -29558   -30705   -34149   -35189   -34194   -34213   -30087 
  -23388   -23599   -28387   -30642   -30623   -30295   -30461   -30011 
  -27483   -25452   -25686   -25868   -25782   -27237   -29208   -29080 
  -26628   -25293   -27124   -27746   -25911   -28031   -30807   -27160 
  -25378   -28841   -28850   -27270   -27453   -24908   -22528   -25666 
  -30541   -31985   -32298   -33713   -31476   -27634   -28848   -31162 
  -30472   -29798   -31133   -32640   -32352   -31324   -32053   -34624 
  -34967   -32707   -32794   -34834   -34221   -30861   -30080   -33110 
  -34366   -33484   -34128   -35460   -35182   -32472   -30053   -30755 
  -30963   -29986   -30794   -29760   -27314   -27943   -27758   -24939 
  -24221   -26608   -29184   -29373   -28067   -29122   -31645   -31249 
  -28867   -28418   -29612   -28829   -27325   -28948   -31104   -31407 
  -31592   -31980   -31843   -30005   -27588   -27684   -29261   -29268 
  -27604   -27918   -31309   -31807   -29166   -30042   -32447   -31843 
  -29848   -28593   -29871   -31006   -27746   -25806   -30144   -33748 
  -31143   -27378   -26619   -26736   -28555   -33165   -35779   -34250 
  -31599   -30412   -30769   -31241   -31820   -31947   -31010   -31590 
  -33239   -32803   -31642   -31646   -30894   -29038   -29853   -32892 
