Origin Time       2024/04/02 04:24:00
Lat.              40.133
Long.             141.712
Depth. (km)       71
Mag.              6.0
Station Code      MYGH03
Station Lat.      38.9207
Station Long.     141.6377
Station Height(m) 80
Record Time       2024/04/02 04:24:59
Sampling Freq(Hz) 100Hz
Duration Time(s)  124
Dir.              4
Scale Factor      7845(gal)/8223790
Max. Acc. (gal)   33.249
Last Correction   2024/04/02 04:24:59
Memo.             
[...]
   10941     9891     9703    10960    10831     8873     8540    10184 
   10902    11249    12609    13096    12069    10602     9783    10750 
   11659    10917    11290    12613    10998     8422     8920    10339 
   11172    12679    12506    10284     9802    10885    11122    10258 
    9254     9009     9163    10092    12198    13011    11145     9045 
    9556    12225    13732    12582    10309     8618     8671    10465 
   11808    11327    11144    12231    11514     9607    10935    13117 
   11828    10204    10624    10342    10444    13131    14443    12977 
   11164     8930     8309    10042    10947    10582     8789     7734 
   10898    13181    11753    12198    13637    12243    11011    11002 
    9697     9359    11537    12131    10646    10450    11584    12260 
   11535    10544    11264    12000    10369     8388     8945    11045 
   11734    11861    13394    13852    11647     8482     6558     8707 
   12980    12899     9278     8413    10048    10812    11618    12544 
   11724    10177     9482    10191    11745    12010    10760     9856 
   10629    12071    11684    10126     9684    10881    12556    12052 
   10802    12433    14107    12997    11550    10366     8357     7815 
    9788    10716    10368    11492    11835     9929     9545    11099 
   10844     9472    10125    11715    12548    11630     8614     8159 
   11815    13884    13203    12363    11196     9810     8819     9003 
   10667    11295    10288    10701    12561    13131    12525    12144 
   11028     8864     8904    11836    12491     9877     9973    12857 
   13093    11974    11944     9863     6841     7520    10251    11862 
   12631    12361    11284    11553    12876    12248    10088    10050 
   11484    11256    10740    11396    10767     8630     8403    10442 
   11865    12324    12803    12324    10184     8050     8433    11099 
   11816     9046     7697     9829    12397    14204    13721    10457 
    9371    11677    11502     8383     8170    10665    11954    12550 
   12830    11970    11313    11237    10760    10173    10551    11449 
   11423    11580    12341    11635    10507    10679    10719     9937 
    9595     9649     9651    10663    11340    10763    11853    13140 
   11620    10355    10964    11589    11576    10060     8746    10843 
   12766    10766     9054    10142    11450    12386    12484    10346 
    8341     9803    13043    13702    11298     8853     8263     9798 
   12820    14342    11357     7211     7256     9582    11271    13632 
   14864    12503    10305    11456    12337    10307     9328    10812 
   10428     8390     9293    12807    14349    12688    10589     9139 
    8546    10010    11506    11240    11665    12619    11975    11125 
   10979    10451     9991    10384    10442     9780    10424    11885 
   11726    11280    11176     9628     9246    11919    13344    11229 
    8985     9679    11292    11284    12048    13683    11905     8668 
    8626     9984    11020    12355    12664    12016    11519    10494 
    9556    10045    10909    11011    10423     9375     9683    12052 
   13194    11785    10538    10604    10716    10600    10994    11564 
   11956    11288     8668     8398    12376    13903    11946    11221 
   10658     9807    10473    10844    10361    10262    10454    11392 
   11954    10358     8658     9158    10542    10681    10593    11225 
   10430    10042    12544    12604     9404     9535    11797    11596 
   10355     9585     9456    11221    13277    12691    11124    11151 
   11578    10841     9732    10002    11169    10727     9594    10681 
   12137    11799    11253    11163    11992    12565     9949     7314 
    8453    11047    12950    13193    11557    10193     9780    10158 
   11796    12825    12043    10967    10787    11330    11321    10574 
    9811     8993     9788    12603    12835     9639     8966    12271 
   14516    12899     9514     7966     9201    11464    13034    12363 
   10245    10181    11580    11619    11773    11763     9350     8644 
   12607    15010    11705     8780    10311    11315    10643    11832 
   12559    10696     9050     9437    11267    12255    11722    11875 
   12194    10935     9533     9286    10068    11541    11954    10704 
   10390    11083    10465    10029    10744    10713    10820    11878 
   11512     9455     8665    10743    12857    11192     9011    10864 
   11975     9537     9379    12552    14129    11992     8810     8762 
   10683    10948    11191    12071    10658     8766     9024     9813 
   11074    11759     9385     7684     9877    12047    11817    12085 
   13965    14542    12391     9370     8198     9489    10504    10162 
   10010    10377    11284    11857    10945    10554    11780    11898 
   10050     9630    11843    12885    11561    11071    11807    11588 
   10559    10139    10409    11053    11753    12190    12222    10824 
    9355    10682    11965    10679    10593    12279    11765     8972 
    8324    11959    15175    13663     9609     6987     9016    13400 
   12718     8768     9279    12083    11446     8730     8236    11529 
   14858    13463     9579     8455     9995    10507     9927    11017 
   11743    10053     9173     9373     9872    12518    14393    12721 
   10523     9328     9560    12147    13902    12368    10374     9913 
    9532     8557     9358    12337    13360    12067    11510    11099 
   10064     9155     9996    12553    12660    11083    11238    10809 
   10242    11954    12366     9543     8176    10110    11452    11801 
   12042    10729     9886     9772     9574    12347    14523    11649 
    9135     9684    10625    11881    12598    11807    10916     9625 
    8321     9400    11539    11676    10413    10111    11267    12510 
   12676    12352    12333    11433     9432     8883    10276    11817 
   12901    11900     8708     8683    12518    13522    11272    10179 
    9537     8811     9817    11207    10929     9761    10076    12105 
   12642    11249    10606    10774    11124    10620     8718     9429 
   13096    14202    12228    10504     9529     8594     9076    11502 
   12766    11562     9949     9339    10143    11627    12214    10876 
    9115     9842    11219    10999    11473    11759    10983    12194 
   13474    12394    11697    10917     9764    11341    12009     9470 
    9613    10998     9285     8869    11033    11938    11770    11264 
   10158    10389    12015    11979    10305    10008    10932    11454 
   11670    10918     9910    10428    10924    10380    10555    12224 
   13799    13119    11705    11772    11045     9998    11207    12106 
   12132    12383    10754     8935     9485    11057    12542    12083 
    9487     8006     8421     9544    11654    14374    13903     9683 
    8536    11295    11804     9850     8151     8009    10131    12259 
   12448    12237    12951    12665    10184     8689    10038    11620 
   11705    12027    12862    11191     8625    10044    12467    11049 
    9427    10582    11092     9886     8897     8700     9811    12193 
   14110    13171    10046     9517    11452    10908     8885     8889 
   10131    10633    10725    12208    13736    12334     9621     9714 
   11809    10939     8914    10509    11925    11136    11130    10797 
   10222    10658    11022    11620    11090     8726     8083     9315 
   10589    12997    14648    12125     9428    11280    12935    10779 
    9059     8950     8361     8733    10995    13641    15375    13772 
    9559     8286     9603     9450     9375    11416    14368    14048 
    9321     8621    13130    13248    10665    11491    12002     9801 
    7867     8425    11277    13651    13070    10894    10889    13058 
   12845     9884     8750     9355     8572     8587    11214    13169 
   13624    13157    11032     9653     9855     9653     9998    10922 
   11226    11453    10578     9247    10717    13244    13599    13300 
   12482     9867     9092    10720     9722     7827     9020    10854 
   11800    12047    11106    10616    11485    12893    13425    11157 
    8700    10474    13305    12079     9572     9821    10648    10935 
   12895    13537     9772     6787     8391    10852    11434    11944 
   12509    11429    10895    12515    12299     8752     6895     8804 
   10647    11772    13674    13443    10930    10405    10670     9062 
    8935    11568    12433    10628    10230    11560    11171     9606 
   10318    12769    12737     9714     9050    11488    11712    10395 
   10910    12114    12911    12351    10269     9138     9626    10528 
   10733     9792     9671    11462    12521    11404    11122    12731 
   12787    11545    10997     9860     9822    11770    11857    10214 
    9737    10273    10790    11043    11483    11601    10403     9946 
   10990    11304    11596    11646    10262    10413    11173     9317 
    8390    10045    10392     9436    10569    12906    13251    12818 
   12290     9841     8522     9787    10112    10454    11776    11222 
   10026    10575    11786    13269    13489    10146     7383     9150 
   12243    14227    13959    10145     7711    10227    11877    10554 
   11065    12340    10682     7915     7344     9597    12618    13603 
   11538     9420    10741    12735    11847    10891    11826    11944 
   10579     9852    10103    10277    11223    13119    13431    12228 
   11318    10516    10555    11511    10982     9518     9439     9364 
    9173    11159    12133    10149    10476    12727    11967    10280 
   10469    11311    11335     9387     7395     8199    10309    11522 
   12264    13930    14975    12398     9452    10354    12069    11159 
    8851     8756    11990    13782    11187     8380     9308    11666 
   11323    10505    12541    12941     9039     7354    11373    14400 
   11477     8149     8629     9258    10249    13752    14816    11372 
    8770     9281    10292    10563    11712    13290    12110     9517 
    9100     9609     9597    10381    11858    12619    12086    10867 
   10413    10578    10589    11551    11938     9725     8657    10504 
   12182    12623    12386    12536    12559    10174     8256     9664 
   11090    12317    14318    13714    11925    11986    10559     7946 
    8540    10327    10449     9940     9776    11209    12876    12143 
   11389    12600    13045    11763    10640     9256     7523     7623 
    9397    11489    12934    13251    12753    10320     8010     9254 
   11199    11912    11940    10380    10466    13382    13078     9359 
    9159    12760    13238     9062     6565     9178    12822    13319 
   12190    12050    11595     9780     9292    11064    11457     9610 
    9252     9914     8957     9451    12756    14343    12962    11507 
   10315     8017     7175    10845    14882    13424     9351     9410 
   11271     9821     8872    10615    11163    10670    10593    10639 
   11951    13305    12128     9734     8812    10615    13197    13167 
   11873    11730    11022     9293     9498    11835    12814    11172 
    8515     7666    11030    14778    13389    10471    10625    10204 
    8658    10984    15215    15157    11175     8395     8646     9567 
   10073    11227    12725    13072    12295    10966     9347     9377 
   11288    11645    10104     9730    10189     9987    10986    12469 
   11319    10581    11913    11209     9589     9436    10103    11867 
   12379    12198    14473    14415     9848     7569     8992     9508 
   10320    13355    13695    10979    10303    10793    11288    12409 
   11435     9471     9393    10110    12021    13699    11909     9234 
    8484     8949    10045    10682    10131     9614     9782     9819 
   10439    12199    12568    11593    12148    12588    11207    10686 
   10258     7674     6484     8484    10663    12638    14364    12954 
    9224     8187    10606    12352    12318    12121    10446     7896 
    8041     9765    11732    14296    13895    10516     9023     8718 
    8156    10041    12258    11024     8920     9838    13671    15986 
   13239     8954     8973    11934    12371    11403    12398    13100 
   11682     9582     8642    10385    12141    10516     8961    10003 
   10222     9579    10882    11576     9788    10270    13478    13297 
   10493    11276    14175    12591     6984     4500     7288     9359 
    8634     9606    11146    10300     9323     7758     5935     7041 
    8723     9113    10180    12258    13659    10706     4201     1610 
    4985     8486     8777     9460    14883    22515    25708    23780 
   19533    11121     1316    -1687     1030     5417    11645    15925 
   14264     8484     3485     3388     6096     7074     6903     6548 
    6424    11030    21347    30258    31561    26067    20591    20378 
   21775    18889    12899    10687    15225    18414    13649     7771 
    5503     1993    -1227     1771     7254     8151     4622     3021 
    8235    17004    25461    34030    38017    31989    21269    16421 
   19863    21033    12190       10   -10234   -18191   -17564    -6995 
    5071    13015    14470    12050    14615    21186    23500    24660 
   27819    23237     8807    -1177     1275     6905     4621    -3415 
  -10454   -13819    -6162    12613    25964    26939    22123    13907 
    6382     4963     6674     9678    14570    16012    10006     1416 
     963    10621    17604    19417    25370    28077    19138     6288 
   -9383   -23932   -19075     1621    16098    23885    28783    19734 
    3296     -102     7537    13211    13602    10740     9051     7128 
    2679     5707    16340    17675     7430      891     7881    22651 
   27830    16725     5000     4455     6119    -1285    -9374     1001 
   25216    36575    27553    18447    22611    26493    19444    16684 
   25041    27322    17313     7126     4445     3318    -2208    -2120 
    7955    13707    12771    15542    17351     7182    -6868    -6694 
    6963    17397    20628    24212    24868    17701    11689    15512 
   23398    22593    13402    10215    14485    11469      953    -1263 
    5192     7429     3848      500     2153    10243    16491    12961 
    7973    11041    13849     7879      580     1017     6789     8792 
    5360     5772    15018    24189    20636     7330     3581    11757 
    8673    -8785   -13790     1094    12731    11124    12957    24834 
   29820    21934    17331    19597    14616     5055     4380     7433 
    5957     5628     9744    10538     3873     2613    14770    22860 
   16306     9333     9105     7511     1815    -1013     7106    21169 
   21682     7854     5161    18238    24538    18844    15464    18173 
   18407    11869     2687    -1856     3493    13132    16390    15790 
   16398    13421     8552     9055    12942    14018    10114     5640 
    8375    16344    20304    20310    19627    13340     2124     -542 
    9015    15202     7998    -2286    -5332    -4349     1756    15349 
   24092    21143    13690     9883    15834    24544    22716    15153 
   11834     7653    -1661    -4758     6885    19840    18315     9306 
    7510    13570    19124    18770    13209     3492    -8553   -11917 
    2612    21739    24078    13703     8843    10948    12028     9836 
    9084    15647    23670    22688    13676     3954     -508     -334 
    1740    10037    18265    13319     4734     6629    13807    17616 
   16931    13004     9134     9162     8753     3379     2484    11137 
   17093    12911     5962     5285    11036    16437    17821    17739 
   18732    18962    14200     6145     5517    13675    17286    16075 
   20061    21232     9456    -3285    -1460    10467    15341     7900 
    2536     9054    14327    12699    17890    20972     6979    -5069 
    -591     8660    14710    19626    20829    14584    10547    14315 
   12567     4995     7157    15820    17460    12646     7130     3651 
    5991     9717     7369     9468    21821    27009    17871     6176 
    1088     2691     4243     5373    13126    21080    16964     9582 
   13196    16325     5420    -2845     6208    17041    18608    17078 
   10682     1475     2747    12718    15531     6409      907    10620 
   19053    13483    12313    23561    25555    11294    -1039    -1582 
    3434     7168    11292    16791    15250     6586     4735    11712 
   13741     8428     7453    12017    10952     2859     1412    11105 
   17786    13863     8525    11727    19188    17415     9472    10878 
   18829    18522     6874    -4189     -830    11997    19342    19183 
   14196     6943     3820     7005    13608    17637    15244    12406 
   12059     6165    -2497       83    10042    12947     9512     8203 
   11402    16798    20629    19824    14866     9479     7425     6176 
    1563     2177    13447    21114    17319    10755     6831     6022 
    8106    11469    15302    17149    15493    13043    13417    17587 
   20189    17066    11726     7597     5702     7893    12739    13483 
   10497    11514    14007    12039     9331     9059    10019    11338 
   12630    13134     9899     5124     5220     6466     4897     7898 
   15996    15736     4206    -1744     4756     9890    10071    14022 
   16737    13255    12028    13652    12995     9790     5015     5343 
   11950    14156    10008     7304     9180    14031    18142    15484 
    7722     7441    15963    19348    14427     9153     5471     4671 
    9255    13867    13192    11230    13466    17347    17204    13365 
   10392    10573    10212     6682     4826     7591    11379    13089 
   13018    10756     6363     6721    15722    22627    17601     7264 
    2751     5688    11133    13913    13257    13054    14054    12941 
    9441     6245     6342    10741    14164    12228     8391     5953 
    7218    13752    18270    13880     8051     9798    11790     6647 
    5233    12726    17975    16066    10980     9209    13409    16077 
   13263     9499     8270    10141    11750    10021     6353     4707 
    8837    13794    12587    10571    12729    14835    14187    10596 
    6401     7589    12884    13633     9305     7325     9953    13576 
   14110     9909     5764     6534     9035    10859    14449    17571 
   14320     6566     4375    10966    14817     8729     4406    10405 
   17248    15894     9999     8405    11083    10173     7404     8633 
   10619    11472    13027    13039    10654     9350    11362    13959 
   13157    10559     9131     9026     8996     8694    10324     9582 
    5184     8938    16656    15005    12386    14021    11794     8552 
   10029    13003    13927    12881    10781     9610    10417     8514 
    5440    10238    15967    10498     2983     7973    19786    21027 
   11129     6021     9626    12070     9865     8086    10079    12820 
   12506    11281    11156     9871     8607    10201    11121     8843 
    7182     7290     9197    12941    13764    12321    12008     9487 
    6559     8773    13023    13706    10967     9520    11171    11701 
   11103    12349    11526     9391    13510    18982    16171     9171 
    5706     7030    10292    10272     8802    11358    12313    10224 
   14002    19153    16190    10997    12113    15199    12187     8430 
   10867    12023     8129     6836    11394    17064    16344     9288 
