Origin Time       2024/04/02 04:24:00
Lat.              40.133
Long.             141.712
Depth. (km)       71
Mag.              6.0
Station Code      MYGH09
Station Lat.      38.0091
Station Long.     140.6027
Station Height(m) 30
Record Time       2024/04/02 04:25:14
Sampling Freq(Hz) 100Hz
Duration Time(s)  185
Dir.              1
Scale Factor      2942(gal)/8224139
Max. Acc. (gal)   1.361
Last Correction   2024/04/02 04:25:14
Memo.             
[...]
  116922   117227   117352   117300   117190   117250   117501   117607 
  117255   116662   116299   116235   116220   116194   116338   116646 
  116830   116715   116432   116218   116194   116332   116511   116614 
  116698   116965   117408   117744   117780   117570   117382   117551 
  118071   118480   118413   118142   118200   118428   118258   117848 
  117633   117539   117522   117679   117869   118002   118108   118220 
  118345   118322   118064   117873   117979   118091   117957   117842 
  117957   118147   118246   118169   117936   117668   117394   117112 
  116802   116371   116039   116148   116463   116513   116297   116033 
  115867   115807   115666   115334   114995   114868   114894   114855 
  114728   114666   114789   115095   115358   115369   115167   114833 
  114490   114361   114440   114408   114149   113992   114110   114315 
  114412   114281   114014   113772   113528   113358   113401   113578 
  113769   113890   113942   114119   114436   114632   114698   114804 
  114844   114779   114868   115165   115430   115672   116019   116293 
  116429   116580   116672   116699   116872   117073   117138   117153 
  117026   116758   116641   116654   116644   116691   116784   116850 
  116845   116661   116409   116283   116276   116376   116459   116343 
  116214   116320   116449   116397   116249   116000   115747   115843 
  116187   116375   116469   116588   116523   116282   116040   115798 
  115582   115510   115566   115572   115497   115588   115835   115982 
  116148   116452   116604   116604   116815   117074   116934   116629 
  116580   116621   116737   117228   117848   118133   118126   118120 
  118138   117999   117783   117699   117714   117741   117715   117520 
  117283   117234   117239   117161   117153   117227   117259   117320 
  117382   117255   117062   117013   116920   116641   116401   116163 
  115700   115244   115091   115053   114867   114604   114454   114413 
  114401   114412   114365   114228   114251   114501   114690   114797 
  115024   115322   115632   116010   116375   116559   116557   116591 
  116835   117266   117670   117756   117597   117467   117298   116982 
  116621   116388   116398   116453   116361   116266   116208   116035 
  115740   115423   115211   115238   115604   116228   116733   116802 
  116598   116518   116680   116974   117324   117532   117335   116893 
  116657   116862   117315   117567   117464   117252   117089   116937 
  116726   116476   116403   116591   116766   116793   116808   116893 
  117143   117562   117867   117796   117467   117244   117250   117282 
  117232   117190   117317   117591   117649   117350   117150   117386 
  117667   117594   117427   117423   117477   117505   117444   117283 
  117135   117053   117026   116934   116716   116550   116511   116549 
  116634   116465   115867   115307   115082   114930   114928   115269 
  115587   115661   115726   115811   115788   115699   115545   115202 
  114798   114642   114701   114836   114983   114953   114708   114421 
  114161   114033   114230   114656   114902   114791   114644   114794 
  115049   115038   114925   115063   115226   115105   114922   114887 
  114859   114762   114674   114662   114706   114712   114625   114538 
  114669   115003   115194   115227   115468   115973   116576   117185 
  117571   117622   117531   117432   117490   117828   118161   118187 
  118029   117837   117506   117123   116941   116861   116679   116515 
  116569   116857   117215   117445   117418   117201   117107   117352 
  117694   117786   117749   117779   117617   117196   116951   116969 
  116878   116540   116190   116129   116294   116367   116375   116438 
  116421   116376   116430   116380   116144   115959   115825   115570 
  115400   115554   115807   115873   115753   115533   115306   115140 
  114968   114652   114201   113899   113922   114015   114004   114042 
  114178   114367   114710   115155   115434   115605   115854   116104 
  116329   116455   116318   116093   116035   116268   116793   117261 
  117321   117043   116644   116193   115805   115628   115554   115560 
  115812   116106   116170   116078   115943   115839   115827   115890 
  116104   116452   116689   116695   116588   116592   116762   116927 
  117113   117378   117468   117370   117366   117491   117618   117655 
  117614   117655   117734   117591   117320   117246   117175   116812 
  116541   116664   116768   116608   116421   116293   116132   116021 
  116104   116297   116472   116765   117166   117405   117504   117621 
  117710   117734   117720   117640   117543   117509   117421   117227 
  117138   117262   117541   117842   117998   118076   118154   118077 
  117867   117701   117594   117498   117285   116920   116671   116742 
  117039   117266   117217   117124   117159   117076   116878   116815 
  116711   116347   115947   115740   115662   115661   115715   115678 
  115526   115381   115300   115368   115462   115134   114388   113779 
  113543   113491   113449   113458   113748   114269   114621   114706 
  114783   114956   115128   115246   115275   115236   115381   115688 
  115724   115599   115766   116101   116278   116348   116384   116324 
  116355   116625   116741   116523   116374   116343   116214   116170 
  116280   116343   116390   116488   116510   116463   116538   116722 
  116742   116623   116734   117015   117082   117111   117402   117632 
  117661   117877   118218   118207   117896   117774   117969   118164 
  118243   118309   118264   118104   117954   117582   116946   116575 
  116518   116187   115510   114918   114577   114389   114249   114201 
  114369   114610   114714   114721   114771   114934   115105   115155 
  115119   115059   114980   114858   114727   114723   114766   114652 
  114489   114444   114538   114743   114841   114718   114654   114793 
  114930   114978   114961   114839   114771   114991   115344   115608 
  115785   115935   116152   116297   116093   115788   115794   115954 
  116014   116117   116352   116630   116914   117134   117283   117455 
  117558   117510   117467   117455   117416   117536   117914   118261 
  118242   117875   117536   117487   117575   117560   117455   117408 
  117475   117618   117721   117652   117433   117282   117393   117585 
  117647   117791   118017   117969   117682   117458   117437   117543 
  117598   117590   117643   117752   117753   117622   117591   117675 
  117617   117439   117397   117552   117728   117714   117490   117244 
  117124   117165   117352   117558   117601   117452   117200   116877 
  116523   116268   116249   116413   116325   115770   115276   115237 
  115360   115420   115434   115304   115026   114781   114632   114509 
  114413   114361   114343   114409   114511   114501   114373   114226 
  114203   114345   114366   114112   113890   113832   113798   113886 
  114133   114284   114296   114373   114552   114713   114817   114902 
  114883   114777   114913   115372   115734   115846   115971   116055 
  115973   116036   116208   116043   115669   115541   115690   115896 
  116014   116041   116046   116066   116122   116205   116213   116121 
  116079   116086   116054   116124   116295   116247   115979   115929 
  116198   116406   116453   116586   116727   116698   116729   116982 
  117229   117320   117337   117313   117266   117255   117219   117081 
  116955   116984   116993   116777   116453   116197   116117   116229 
  116226   116016   115886   115815   115736   115905   116243   116456 
  116638   116927   117204   117414   117545   117575   117633   117733 
  117679   117570   117545   117369   117000   116749   116665   116610 
  116544   116451   116476   116783   117147   117223   117078   117065 
  117197   117194   117046   116981   117086   117320   117651   117950 
  118054   117931   117679   117520   117528   117456   117267   117207 
  117174   116974   116822   116818   116762   116664   116680   116734 
  116683   116633   116689   116773   116897   117051   117197   117454 
  117605   117293   116819   116645   116721   116793   116827   116976 
  117173   117211   117126   116923   116614   116502   116646   116748 
  116749   116785   116819   116698   116363   115965   115785   115881 
  115971   115935   115933   115871   115642   115527   115543   115387 
  115091   114948   115167   115581   115738   115561   115326   115225 
  115257   115234   115078   114951   114933   114916   114822   114804 
  115009   115222   115281   115369   115481   115341   114917   114525 
  114416   114424   114351   114313   114269   114176   114355   114681 
  114694   114619   114756   114887   114944   115192   115676   116021 
  116024   115966   115973   115884   115848   116100   116460   116654 
  116644   116464   116279   116310   116428   116372   116112   115678 
  115153   114713   114529   114605   114678   114660   114771   114999 
  115179   115356   115595   115879   116120   116212   116251   116371 
  116556   116738   116820   116870   117011   117132   117193   117273 
  117324   117371   117641   118116   118436   118450   118323   118218 
  118308   118550   118629   118567   118615   118700   118650   118451 
  118137   117883   117782   117512   117022   116746   116741   116752 
  116722   116619   116548   116739   117069   117301   117397   117288 
  117062   116920   116775   116640   116676   116738   116708   116702 
  116734   116757   116768   116653   116380   116212   116268   116309 
  116163   115882   115674   115693   115674   115425   115152   114951 
  114790   114763   114879   115084   115400   115765   116048   116298 
  116532   116533   116274   116025   115923   115881   115875   115906 
  115898   115815   115646   115469   115493   115681   115728   115551 
  115373   115348   115389   115400   115542   115838   115936   115807 
  115749   115726   115685   115649   115376   114925   114650   114504 
  114324   114212   114272   114500   114810   115040   115094   115088 
  115172   115303   115395   115488   115642   115878   116125   116309 
  116463   116637   116943   117417   117775   117891   117910   117732 
  117400   117333   117582   117787   117726   117447   117220   117239 
  117346   117328   117240   117296   117522   117606   117339   117057 
  117077   117177   117205   117425   117896   118318   118469   118415 
  118322   118285   118304   118312   118230   118050   117796   117413 
  116908   116509   116442   116617   116715   116591   116401   116336 
  116379   116405   116399   116418   116488   116594   116656   116716 
  116908   117085   117042   116972   117013   116924   116675   116468 
  116270   116052   115981   116014   115912   115661   115510   115537 
  115601   115750   115967   115905   115601   115445   115381   115237 
  115238   115545   115940   116191   116264   116256   116286   116364 
  116349   116193   116135   116237   116232   116135   116152   116220 
  116232   116230   116260   116310   116364   116430   116461   116409 
  116326   116183   115893   115601   115434   115303   115321   115630 
  115983   116206   116422   116573   116534   116475   116525   116507 
  116280   116016   115981   116183   116247   115936   115609   115555 
  115535   115330   115064   114906   114866   114812   114642   114496 
  114524   114600   114704   114968   115202   115141   114995   115059 
  115128   115017   115020   115176   115132   114926   114855   114875 
  114925   115177   115524   115634   115615   115674   115605   115373 
  115294   115385   115464   115510   115545   115603   115651   115528 
  115281   115149   115148   115183   115360   115692   115909   115906 
  115878   115958   116128   116353   116657   117036   117377   117540 
  117491   117354   117340   117513   117729   117972   118242   118370 
  118409   118467   118409   118304   118320   118363   118388   118438 
  118440   118261   117915   117552   117310   117266   117371   117448 
  117333   117119   117035   117015   116891   116780   116818   116977 
  117151   117196   117170   117315   117560   117602   117458   117374 
  117393   117400   117382   117462   117547   117381   117090   116934 
  116826   116680   116527   116374   116237   116113   116058   116114 
  116181   116264   116368   116289   116081   115986   115982   116017 
  116132   116253   116230   115993   115630   115276   114971   114750 
  114664   114691   114708   114624   114593   114731   114879   114966 
  115057   115195   115458   115834   116237   116581   116665   116677 
  116959   117196   117051   116780   116561   116326   116162   116197 
  116275   116114   115754   115499   115499   115686   115851   115757 
  115462   115311   115379   115429   115420   115446   115462   115485 
  115611   115749   115788   115813   115812   115731   115717   115820 
  115875   115771   115557   115375   115366   115614   116077   116545 
  116823   116935   117034   117240   117593   117969   118185   118316 
  118551   118874   119218   119506   119623   119570   119415   119249 
  119196   119142   118836   118361   118033   117937   117907   117813 
  117661   117383   116985   116762   116803   116784   116579   116380 
  116293   116297   116320   116166   115825   115620   115626   115558 
  115403   115337   115285   115186   115079   114910   114768   114825 
  115067   115381   115630   115692   115700   115763   115688   115497 
  115437   115445   115392   115281   115040   114659   114257   113877 
  113611   113559   113533   113329   113043   112720   112491   112623 
  112870   112891   112897   113128   113526   113961   114347   114640 
  114849   115020   115172   115263   115226   115134   115148   115254 
  115403   115701   116147   116540   116841   117124   117301   117301 
  117296   117404   117514   117549   117528   117454   117397   117370 
  117246   116999   116730   116600   116684   116834   116965   117146 
  117297   117355   117432   117478   117427   117445   117526   117418 
  117227   117217   117312   117397   117609   117873   117810   117383 
  117016   116982   117177   117313   117274   117186   117113   117063 
  117061   116981   116881   116968   117040   116955   116958   116988 
  116927   116986   117148   117300   117431   117381   117205   117104 
  116970   116766   116625   116550   116546   116579   116507   116352 
  116275   116263   116251   116295   116338   116276   116170   116116 
  116156   116232   116326   116460   116517   116542   116646   116714 
  116730   116680   116491   116368   116382   116349   116306   116286 
  116182   116074   116025   115909   115704   115561   115582   115634 
  115523   115334   115269   115358   115472   115460   115362   115317 
  115365   115533   115761   115882   115897   116032   116370   116645 
  116667   116576   116572   116664   116711   116680   116667   116669 
  116627   116563   116529   116521   116521   116569   116654   116737 
  116860   116989   116962   116808   116807   116978   117090   117200 
  117363   117351   117201   117138   117144   117184   117283   117342 
  117274   117167   117090   117101   117225   117370   117512   117705 
  117864   117884   117815   117667   117274   116623   116002   115628 
  115535   115600   115600   115483   115306   115156   115229   115510 
  115719   115842   116039   116232   116359   116553   116734   116737 
  116710   116714   116563   116328   116222   116087   115747   115379 
  115034   114579   114062   113607   113312   113282   113464   113594 
  113516   113354   113231   113192   113270   113402   113547   113778 
  114089   114399   114606   114659   114718   114945   115192   115356 
  115643   116027   116197   116240   116467   116799   117082   117308 
  117310   117131   117112   117231   117242   117227   117324   117393 
  117342   117317   117327   117270   117212   117103   116807   116478 
  116216   115901   115578   115273   114899   114620   114573   114597 
  114662   114930   115327   115554   115618   115749   115869   115911 
  116108   116401   116503   116559   116829   117211   117479   117582 
  117666   117846   118044   118185   118336   118512   118647   118739 
  118754   118612   118453   118420   118350   118164   117957   117698 
  117420   117289   117304   117342   117354   117425   117578   117582 
  117397   117333   117410   117412   117401   117537   117815   118029 
  117950   117710   117616   117694   117713   117603   117590   117693 
  117598   117310   117024   116665   116279   116039   115885   115676 
  115375   115037   114713   114440   114222   113984   113755   113663 
  113672   113611   113533   113671   113994   114316   114619   114826 
  114921   115018   115088   115079   115007   115003   115203   115446 
  115557   115578   115491   115291   115145   115150   115180   115103 
  115038   115082   115101   115110   115261   115406   115349   115223 
  115149   115171   115326   115496   115593   115624   115545   115473 
  115591   115873   116156   116252   116145   116112   116276   116363 
  116291   116314   116424   116496   116634   116892   117135   117194 
  117103   117046   117011   116912   116901   117069   117252   117398 
  117576   117730   117767   117698   117648   117720   117784   117729 
  117653   117547   117315   117078   116937   116800   116662   116596 
  116606   116681   116803   116927   117011   116981   116826   116656 
  116518   116424   116441   116521   116596   116714   116905   117097 
  117215   117396   117744   117998   117877   117490   117119   116839 
  116677   116730   116835   116773   116672   116698   116773   116853 
  117001   117150   117189   117180   117189   117166   117078   116989 
  116897   116742   116618   116625   116706   116831   116997   117144 
  117265   117333   117256   117077   116888   116707   116559   116471 
  116494   116606   116667   116657   116692   116804   116907   116881 
  116673   116398   116226   116144   116051   116024   116093   116117 
  116078   116043   115998   115944   115874   115816   115835   115869 
  115870   115906   115905   115794   115722   115757   115790   115743 
  115568   115252   114926   114816   114967   115173   115296   115368 
  115325   115160   115096   115152   115099   115051   115187   115330 
  115377   115368   115249   115067   114885   114664   114469   114343 
  114255   114237   114249   114245   114253   114223   114199   114303 
  114448   114567   114691   114700   114597   114633   114806   114953 
  115072   115091   114967   114813   114679   114619   114643   114592 
  114471   114478   114624   114786   114912   115057   115325   115628 
  115773   115797   115931   116249   116580   116750   116889   117224 
  117605   117699   117586   117548   117621   117713   117786   117896 
  118126   118372   118508   118512   118393   118281   118273   118265 
  118224   118212   118166   118073   118026   118048   118076   118008 
  117838   117784   117938   118011   117834   117580   117386   117390 
  117670   117914   117892   117877   118027   118138   118120   118029 
  117842   117606   117510   117586   117541   117279   117109   117088 
  116961   116756   116675   116631   116442   116232   116183   116183 
  116131   116104   116114   116133   116203   116311   116340   116247 
  116083   115911   115831   115901   116004   116014   115928   115807 
