Origin Time       2024/04/02 04:24:00
Lat.              40.133
Long.             141.712
Depth. (km)       71
Mag.              6.0
Station Code      MYGH09
Station Lat.      38.0091
Station Long.     140.6027
Station Height(m) 30
Record Time       2024/04/02 04:25:14
Sampling Freq(Hz) 100Hz
Duration Time(s)  185
Dir.              3
Scale Factor      2942(gal)/8224139
Max. Acc. (gal)   1.215
Last Correction   2024/04/02 04:25:14
Memo.             
[...]
   91250    91446    91536    91538    91592    91643    91598    91544 
   91561    91640    91747    91836    91786    91588    91509    91582 
   91648    91735    91747    91597    91467    91466    91419    91268 
   91268    91449    91527    91427    91346    91315    91146    90894 
   90803    90830    90784    90736    90840    90988    90976    90801 
   90713    90903    91091    91029    90934    90856    90722    90756 
   90895    90864    90811    90828    90667    90410    90391    90570 
   90666    90618    90625    90814    91062    91193    91195    91116 
   90977    90844    90815    90845    90818    90796    90876    91006 
   91023    90840    90686    90652    90504    90452    90702    90807 
   90671    90717    90882    90907    90961    91091    91149    91214 
   91195    91002    90948    91087    91126    91008    90934    91141 
   91440    91401    91135    91002    90895    90618    90447    90576 
   90702    90661    90625    90698    90813    90826    90763    90784 
   90902    91062    91289    91431    91316    91222    91370    91431 
   91284    91289    91442    91443    91370    91365    91395    91493 
   91555    91476    91336    91250    91305    91442    91520    91450 
   91227    91107    91126    91030    91003    91139    91095    90994 
   91126    91254    91242    91226    91184    91081    91006    90987 
   90925    90826    90836    90941    91110    91269    91231    91085 
   90985    90917    90850    90744    90687    90734    90803    90903 
   90977    90917    90822    90815    90807    90760    90786    90845 
   90890    91014    91142    91089    90936    90833    90709    90468 
   90324    90494    90722    90768    90823    90936    90952    90849 
   90748    90713    90637    90562    90585    90602    90664    90832 
   90998    91093    91065    90995    90987    90940    90863    90792 
   90734    90829    91010    91079    91068    91045    91012    90922 
   90699    90478    90458    90571    90675    90841    91022    90985 
   90880    90865    90788    90772    90915    90975    90952    91060 
   91255    91382    91459    91517    91520    91608    91829    91960 
   91959    91993    92125    92223    92230    92229    92145    92025 
   92014    92003    92044    92246    92383    92348    92375    92450 
   92372    92290    92313    92380    92599    92962    93212    93163 
   92944    92773    92678    92600    92511    92425    92348    92377 
   92578    92645    92461    92291    92088    91837    91739    91693 
   91608    91542    91446    91312    91230    91168    90931    90607 
   90475    90359    90142    90104    90128    89927    89669    89511 
   89347    89155    88997    88844    88688    88589    88551    88515 
   88430    88298    88157    88020    87856    87733    87766    87866 
   88002    88240    88437    88501    88512    88462    88337    88264 
   88468    88835    89019    89162    89604    90138    90404    90441 
   90417    90381    90416    90545    90661    90786    91011    91243 
   91417    91573    91577    91489    91507    91469    91393    91570 
   91912    92107    91947    91616    91594    91824    91852    91708 
   91705    91893    92173    92346    92272    92215    92221    92016 
   91756    91682    91727    91820    91957    92148    92298    92269 
   92236    92357    92273    91851    91613    91705    91831    91975 
   92128    92214    92357    92545    92581    92458    92283    92156 
   92207    92317    92357    92491    92692    92789    92774    92653 
   92564    92510    92308    92151    92277    92543    92689    92599 
   92449    92361    92222    92076    91882    91524    91288    91369 
   91471    91390    91196    90999    90863    90730    90612    90637 
   90756    90774    90622    90481    90539    90671    90711    90639 
   90467    90335    90252    90089    89916    89780    89662    89572 
   89421    89291    89305    89340    89280    89166    89106    89039 
   88871    88732    88715    88804    88889    88863    88816    88732 
   88533    88342    88248    88214    88321    88754    89370    89768 
   90009    90319    90528    90666    90860    90940    90967    91049 
   91125    91338    91663    91871    91956    92006    92048    92103 
   92275    92547    92720    92788    92902    93043    93075    93016 
   92973    92904    92824    92940    93174    93135    92838    92726 
   92832    92804    92678    92746    92935    92931    92628    92249 
   92102    92156    92168    92148    92195    92261    92286    92267 
   92206    92072    91959    91916    91741    91446    91254    91084 
   90832    90547    90232    90057    90069    90090    90138    90123 
   89955    89903    89922    89742    89565    89619    89726    89685 
   89526    89390    89256    89048    88992    89197    89418    89621 
   89861    90099    90275    90259    90112    89972    89824    89820 
   89968    90050    90066    90063    90059    90135    90184    90103 
   90108    90258    90321    90344    90431    90490    90598    90725 
   90725    90691    90644    90533    90512    90613    90675    90740 
   91039    91482    91725    91733    91611    91390    91174    90995 
   90790    90633    90612    90629    90672    90828    90957    90869 
   90664    90590    90657    90713    90725    90690    90657    90761 
   90942    91068    91180    91372    91658    91924    92020    92053 
   92198    92229    92038    91940    91989    92109    92342    92626 
   92854    92943    92943    92851    92616    92427    92388    92416 
   92441    92412    92426    92527    92562    92506    92404    92250 
   92203    92296    92284    92132    92025    92034    92013    91899 
   91879    91952    92003    92010    92003    92094    92226    92299 
   92349    92373    92379    92292    92109    92057    92169    92138 
   91876    91650    91520    91292    91022    90884    90715    90389 
   90153    90063    89895    89707    89522    89198    88975    89009 
   89102    89174    89183    89159    89190    89154    89093    89221 
   89368    89361    89429    89648    89823    89934    90072    90186 
   90215    90208    90181    90038    89847    89827    89961    90040 
   90078    90138    90057    89818    89654    89634    89604    89560 
   89657    89880    90008    89941    89930    90072    90070    90047 
   90290    90497    90448    90333    90418    90694    90840    90811 
   90709    90679    90940    91196    91295    91459    91562    91590 
   91748    91971    92221    92461    92618    92781    92942    93028 
   93148    93240    93199    93233    93372    93376    93189    92981 
   92939    93001    93008    92880    92692    92658    92715    92573 
   92276    92078    91991    91800    91532    91407    91408    91517 
   91723    91832    91786    91613    91380    91203    90958    90629 
   90468    90417    90275    90140    90045    89808    89557    89506 
   89505    89383    89278    89299    89226    88974    88732    88614 
   88647    88749    88917    89217    89545    89800    89833    89652 
   89496    89340    89124    89055    89229    89534    90016    90568 
   90763    90751    90849    90833    90799    90984    91215    91300 
   91243    91176    91138    91239    91485    91615    91747    91967 
   92033    92036    92036    91912    91733    91565    91430    91404 
   91465    91597    91829    91991    92043    92105    92029    91773 
   91565    91474    91446    91462    91612    91879    92087    92223 
   92318    92364    92445    92449    92299    92273    92354    92249 
   92134    92259    92504    92788    93052    93033    92724    92550 
   92534    92434    92411    92477    92462    92456    92499    92610 
   92726    92584    92306    92205    92195    92168    92115    91960 
   91782    91643    91524    91432    91247    90923    90576    90302 
   90151    90081    89992    89793    89449    89104    88951    88900 
   88739    88628    88777    88940    88874    88771    88743    88534 
   88218    88177    88307    88393    88576    88828    88971    89040 
   89114    89264    89338    89172    89064    89166    89225    89243 
   89379    89550    89657    89888    90290    90529    90624    90857 
   90984    90871    90911    91137    91277    91359    91504    91709 
   91921    92102    92144    91968    91839    91929    91974    91930 
   92082    92313    92317    92338    92577    92639    92472    92388 
   92352    92377    92530    92565    92504    92593    92686    92685 
   92747    92778    92701    92674    92703    92680    92572    92426 
   92329    92265    92137    91847    91459    91261    91238    91035 
   90715    90583    90587    90571    90501    90462    90454    90243 
   89895    89700    89507    89181    88982    89020    89141    89164 
   89037    88824    88589    88527    88654    88705    88676    88767 
   89037    89313    89388    89374    89415    89469    89571    89768 
   90018    90236    90328    90356    90466    90599    90614    90618 
   90802    91034    91169    91427    91758    91813    91714    91638 
   91494    91346    91227    91157    91293    91605    91905    92102 
   92191    92194    92044    91832    91775    91754    91698    91767 
   91879    91982    92183    92430    92645    92772    92730    92599 
   92503    92427    92322    92159    92006    91979    92041    92087 
   92097    92026    91922    91879    91721    91342    91108    91273 
   91458    91343    91257    91434    91660    91913    92182    92279 
   92322    92416    92275    91800    91397    91403    91623    91682 
   91740    92138    92472    92319    91955    91562    91183    90954 
   90886    90957    91118    91378    91746    91924    91825    91650 
   91436    91184    90875    90617    90632    90849    91015    90952 
   90836    91007    91243    91107    90707    90520    90572    90502 
   90390    90431    90405    90266    90197    90247    90363    90495 
   90601    90583    90525    90590    90699    90783    90717    90421 
   90267    90400    90517    90774    91314    91652    91656    91562 
   91299    90896    90679    90709    90676    90576    90753    91096 
   91172    90945    90711    90605    90464    90248    90189    90288 
   90281    90209    90262    90290    90162    90116    90174    89949 
   89480    89286    89459    89635    89776    90027    90186    90153 
   90038    89792    89499    89363    89257    89002    88843    89095 
   89513    89661    89645    89783    89968    90047    90196    90418 
   90590    90823    91057    91180    91216    91088    90990    91173 
   91478    91623    91450    91245    91281    91358    91453    91586 
   91646    91697    91704    91689    91754    91774    91858    92137 
   92292    92290    92353    92275    91960    91709    91544    91424 
   91557    91864    92082    92141    92138    92333    92647    92700 
   92651    92894    93241    93344    93312    93348    93398    93351 
   93245    93245    93241    93048    92985    93204    93264    93021 
   92788    92692    92637    92523    92314    92140    92128    92186 
   92133    92026    92002    91831    91353    90899    90755    90809 
   90855    90906    91039    91038    90828    90667    90470    90047 
   89568    89340    89581    89951    90050    90082    90034    89679 
   89212    88901    88759    88693    88707    88796    89041    89365 
   89484    89503    89499    89313    89082    88881    88632    88372 
   88165    88163    88392    88620    88894    89411    89808    89862 
   90000    90266    90452    90768    91084    91118    91053    91006 
   91033    91224    91427    91530    91540    91480    91380    91141 
   90780    90571    90543    90416    90180    90266    90624    90641 
   90517    90699    90922    91048    91131    91150    91196    91269 
   91368    91536    91712    91763    91586    91257    91039    90957 
   90818    90810    91093    91305    91331    91467    91789    92087 
   92246    92425    92588    92616    92712    92807    92700    92557 
   92429    92263    92149    92088    92121    92222    92164    91902 
   91536    91234    91276    91590    91936    92353    92715    92727 
   92503    92302    92138    92025    91999    91910    91624    91301 
   91150    91127    91142    91196    91116    90779    90532    90566 
   90436    90074    90144    90698    91021    90956    90923    91015 
   90983    90779    90564    90470    90579    90795    90896    90890 
   90969    91266    91713    92010    91956    91656    91323    91114 
   90917    90616    90553    90728    90590    90309    90393    90400 
   89889    89313    89002    88782    88673    88839    89110    89399 
   89991    90722    91134    91241    91118    90868    90761    90759 
   90747    90684    90567    90601    90759    90726    90486    90358 
   90491    90559    90502    90799    91301    91403    91191    91041 
   90840    90451    90352    90860    91435    91647    91777    92074 
   92290    92125    91781    91530    91281    91165    91292    91289 
   91133    91160    91351    91489    91503    91397    91193    91014 
   90860    90714    90755    90977    91238    91416    91496    91724 
   92025    92149    92128    91947    91798    91933    92078    92072 
   92138    92318    92395    92160    91732    91508    91505    91368 
   91152    91061    91060    91183    91255    91183    91255    91270 
   90830    90054    89279    88690    88114    87642    87660    87963 
   88263    88676    89121    89332    89256    89104    89050    89013 
   89139    89748    90491    90911    91324    92059    92719    92788 
   92398    92051    91944    91949    91878    91704    91670    91887 
   92024    91920    91806    91724    91606    91530    91454    91366 
   91435    91600    91650    91685    91856    92110    92399    92650 
   92666    92438    92283    92256    92190    92188    92338    92572 
   92732    92561    92144    91890    92014    92280    92341    92238 
   92156    92118    92056    91841    91496    91189    91041    90953 
   90632    90186    90081    90150    89907    89599    89557    89592 
   89599    89553    89457    89505    89714    89949    90104    90123 
   90194    90481    90763    90764    90508    90219    89943    89676 
   89704    90067    90351    90498    90678    90741    90736    90840 
   90877    90841    90957    91125    91142    91095    91196    91407 
   91524    91477    91408    91486    91462    91133    90890    90919 
   91093    91412    91716    91843    91793    91412    90904    90811 
   91019    91164    91253    91208    91089    91091    90968    90567 
   90153    89833    89595    89337    89020    89043    89556    90100 
   90323    90387    90486    90331    89977    89926    90100    90216 
   90315    90464    90738    91027    91141    91270    91508    91669 
   91743    91687    91566    91685    91855    91705    91511    91743 
   92227    92342    92071    92014    92230    92271    92110    92036 
   92118    92306    92423    92223    91895    91786    91775    91729 
   91795    92059    92387    92542    92619    92746    92562    92063 
   91775    91717    91561    91315    91041    90744    90591    90613 
   90490    90180    90069    90157    90232    90421    90845    91336 
   91419    90915    90319    89928    89613    89475    89617    89695 
   89749    90147    90482    90387    90211    90051    89830    89789 
   90003    90225    90239    90103    90154    90423    90579    90618 
   90720    90875    91114    91326    91318    91469    91990    92287 
   92098    91841    91728    91609    91408    91361    91651    91922 
   91832    91628    91654    91859    91893    91621    91238    90787 
   90274    89865    89777    90074    90354    90387    90548    90860 
   90956    90682    90099    89579    89333    89256    89498    89988 
   90386    90756    91052    90941    90574    90321    90051    89687 
   89591    89743    89758    89706    89958    90483    90930    91328 
   91849    92261    92318    92133    92052    92156    92090    91922 
   92164    92820    93537    93987    93897    93534    93436    93614 
   93661    93407    93150    93074    92990    92966    93070    92858 
   92250    91756    91542    91503    91651    91767    91619    91494 
   91582    91598    91347    90936    90568    90189    89629    89202 
   89210    89360    89374    89418    89545    89567    89537    89442 
   89116    88647    88264    88298    88766    89274    89807    90231 
   90207    89982    89746    89436    89290    89468    89853    90358 
   90888    91179    91191    91234    91272    90994    90564    90456 
   90741    91145    91440    91531    91516    91524    91519    91604 
   91777    91755    91551    91486    91727    92109    92372    92512 
   92659    92773    92664    92389    92275    92254    92130    92252 
   92711    92925    92792    92762    92907    92946    92743    92483 
   92322    92065    91692    91531    91586    91601    91515    91327 
   91165    91146    91034    90714    90435    90316    90165    89895 
   89762    89885    90093    90247    90355    90502    90572    90371 
   90012    89704    89403    89114    89110    89386    89653    89945 
   90279    90370    90227    90190    90294    90374    90352    90188 
   90007    89968    90154    90477    90653    90861    91289    91459 
   91200    90981    91044    91116    91023    90938    90953    91091 
   91224    91091    90887    90998    91262    91319    91206    91142 
   91166    91126    90975    90991    91091    90911    90639    90470 
   90304    90228    90347    90564    90644    90489    90240    90077 
   90126    90340    90672    91106    91308    91131    91018    91177 
   91446    91773    92090    92354    92564    92537    92391    92456 
   92541    92310    91949    91732    91600    91393    91069    90783 
   90657    90643    90674    90634    90510    90385    90247    90247 
   90409    90506    90531    90568    90574    90482    90394    90535 
   90825    91052    91285    91450    91296    91076    91169    91395 
   91575    91905    92284    92360    92267    92400    92688    92824 
   92815    92812    92873    92877    92608    92210    91984    91858 
   91681    91620    91859    92152    92130    91881    91563    91247 
   91247    91582    91856    91918    91986    92173    92229    92080 
   91887    91677    91538    91498    91505    91573    91592    91447 
   91157    90649    90030    89644    89438    89325    89499    89768 
   89812    89730    89761    89808    89588    89399    89560    89761 
   89851    89887    89845    89795    89726    89554    89341    89330 
   89692    90278    90688    90698    90616    90659    90737    91065 
   91588    91821    91756    91540    91273    91257    91372    91322 
   91254    91246    91176    91035    90900    90795    90653    90467 
   90396    90420    90246    89873    89561    89413    89490    89704 
   89753    89540    89318    89236    89108    88997    89253    89791 
   90213    90329    90170    89984    89997    90251    90670    91018 
   91276    91590    91801    91902    92057    92090    91930    91777 
   91701    91783    92053    92346    92604    92855    92997    92917 
