Origin Time       2024/04/02 04:24:00
Lat.              40.133
Long.             141.712
Depth. (km)       71
Mag.              6.0
Station Code      MYGH11
Station Lat.      38.5158
Station Long.     141.3421
Station Height(m) 5
Record Time       2024/04/02 04:25:05
Sampling Freq(Hz) 100Hz
Duration Time(s)  120
Dir.              6
Scale Factor      7845(gal)/8223790
Max. Acc. (gal)   7.041
Last Correction   2024/04/02 04:25:05
Memo.             
[...]
  -43236   -42493   -42229   -42881   -42724   -41428   -41021   -42240 
  -42786   -42466   -42944   -42797   -41605   -41625   -42583   -42723 
  -41986   -41087   -41046   -42288   -42916   -41891   -41604   -42827 
  -43471   -43233   -42674   -41442   -41013   -42820   -44086   -42552 
  -40671   -40733   -42094   -42885   -42400   -41982   -42391   -42908 
  -42530   -41492   -41565   -42255   -41732   -41796   -43619   -43873 
  -42010   -41192   -41466   -42367   -44335   -44712   -42005   -39501 
  -40702   -44190   -44809   -42160   -40443   -40518   -41542   -43294 
  -43785   -42021   -40622   -41532   -43324   -44442   -44224   -41889 
  -39086   -39688   -43590   -45724   -43370   -39723   -39056   -41493 
  -43798   -43791   -42450   -42169   -43087   -42757   -41188   -41403 
  -43594   -44428   -42881   -41990   -42855   -42716   -41477   -41931 
  -42967   -42090   -41261   -41982   -42213   -41590   -41952   -42703 
  -41608   -40587   -42221   -42816   -40684   -40805   -43330   -43816 
  -42747   -41953   -41447   -42141   -43910   -45048   -43877   -40972 
  -39914   -41382   -43127   -44385   -43735   -41287   -40539   -41594 
  -41710   -41434   -41804   -42032   -42449   -42871   -42215   -41932 
  -42850   -42819   -41971   -41975   -41673   -41246   -42677   -44007 
  -43390   -42850   -42267   -41116   -42098   -43834   -42782   -41482 
  -42259   -42442   -41378   -41419   -42174   -42175   -42724   -43935 
  -43283   -41334   -41149   -42232   -42427   -42537   -43174   -42639 
  -41400   -42191   -43951   -42950   -40763   -41346   -43012   -43318 
  -43182   -42442   -40941   -40184   -40625   -42024   -43733   -44122 
  -42439   -40447   -41184   -43992   -44558   -42481   -41116   -41557 
  -42997   -43853   -42376   -40564   -41476   -43213   -43051   -41985 
  -41663   -42161   -42543   -41897   -40983   -41038   -41440   -42161 
  -43089   -42408   -41235   -41208   -42044   -44053   -44431   -41774 
  -40378   -41372   -42543   -43220   -43085   -42205   -41580   -42438 
  -43969   -43650   -41438   -39715   -40491   -43100   -44122   -42681 
  -41395   -41440   -42291   -43019   -42541   -41435   -41654   -43125 
  -43453   -41887   -40240   -40556   -42688   -43942   -43383   -42786 
  -42480   -41999   -42230   -43237   -43546   -42597   -41689   -41808 
  -42543   -43393   -43344   -42117   -42101   -43433   -42963   -41401 
  -41524   -42206   -41507   -40351   -41277   -43537   -43136   -41291 
  -41624   -42114   -41400   -41786   -43075   -43275   -42562   -42304 
  -42040   -41007   -41107   -43185   -44428   -43218   -41635   -41324 
  -41933   -43545   -44766   -43482   -41395   -40684   -41335   -42971 
  -43839   -42253   -40266   -41169   -43629   -43378   -40608   -39576 
  -41866   -44651   -44942   -43081   -41239   -40699   -41762   -43622 
  -43884   -41836   -40545   -41787   -43260   -43507   -43545   -43147 
  -41850   -41538   -42774   -42738   -40486   -39467   -41489   -43538 
  -43498   -42963   -42705   -42002   -41937   -42730   -42360   -41249 
  -41509   -42849   -43129   -41548   -40015   -40001   -41095   -43021 
  -44358   -43780   -42893   -42228   -41181   -41476   -43218   -43810 
  -42753   -41011   -39842   -41921   -45485   -44589   -40802   -40209 
  -42307   -43656   -43098   -41625   -41251   -41705   -42003   -42040 
  -41461   -41708   -42888   -42782   -42253   -42495   -42759   -42869 
  -42383   -41419   -41245   -42499   -43947   -43356   -41588   -40788 
  -40848   -41986   -43802   -44478   -43568   -42236   -41870   -41955 
  -41478   -41203   -41820   -42537   -42279   -42076   -42423   -41423 
  -40691   -42759   -43964   -41547   -40090   -42680   -44894   -43430 
  -41481   -42082   -43540   -43526   -42894   -41845   -40123   -40856 
  -43518   -43451   -41010   -39775   -41747   -45334   -45987   -42901 
  -40335   -41492   -44356   -44585   -42028   -39752   -39272   -40721 
  -42838   -43576   -42934   -41562   -40266   -41451   -44265   -44375 
  -42114   -41154   -41832   -43006   -44313   -44192   -42067   -40675 
  -41382   -42491   -43094   -42738   -41046   -39911   -41431   -44189 
  -44298   -41574   -40400   -41918   -43418   -43846   -42753   -40671 
  -40648   -42591   -43429   -43150   -42444   -41404   -41586   -42627 
  -42645   -41727   -40576   -40158   -41808   -43764   -42707   -40223 
  -40289   -42959   -45557   -45603   -42971   -40510   -40753   -43532 
  -45769   -44631   -42009   -40841   -40833   -41586   -42155   -41149 
  -40645   -41721   -41848   -40842   -41234   -43436   -44074   -41841 
  -40853   -42161   -43227   -44062   -43956   -42437   -41634   -42267 
  -43746   -44199   -42256   -40730   -40937   -40591   -40517   -42568 
  -44130   -42919   -41419   -42068   -43285   -43100   -42614   -42538 
  -41771   -41077   -41280   -41890   -43582   -45107   -43551   -40359 
  -39430   -41447   -43893   -44128   -42338   -41100   -41045   -41219 
  -42338   -44080   -44478   -43274   -41596   -40990   -41837   -42391 
  -42016   -41985   -42512   -42834   -42504   -41683   -41760   -42637 
  -42334   -41812   -42545   -42538   -41820   -42797   -43580   -41968 
  -40686   -41301   -41836   -42326   -43422   -42616   -40869   -41860 
  -42727   -41374   -41821   -43984   -43957   -42018   -40932   -41223 
  -42276   -43559   -43119   -41206   -41219   -43117   -44045   -43152 
  -41754   -41322   -41430   -41874   -43039   -43301   -42306   -41342 
  -40510   -40810   -42560   -43914   -44219   -43171   -40884   -39673 
  -40880   -43461   -45268   -44375   -41809   -40733   -41781   -42576 
  -41916   -41551   -42961   -44113   -43205   -41844   -41015   -40702 
  -41607   -43206   -43995   -43402   -42375   -41542   -41106   -42053 
  -43210   -42816   -42337   -42319   -41688   -41804   -43537   -43649 
  -41135   -41019   -43622   -43082   -40024   -39255   -40724   -42249 
  -42867   -43043   -43449   -42842   -41607   -42056   -42780   -42618 
  -43422   -43675   -42020   -41211   -41418   -41428   -42163   -43197 
  -43529   -42573   -41264   -42233   -43545   -42615   -41723   -41764 
  -42001   -41995   -41412   -41767   -42670   -42496   -42408   -42750 
  -42755   -42615   -42263   -41945   -41912   -41874   -41968   -42646 
  -43389   -42723   -41538   -41693   -42547   -43594   -43687   -41459 
  -39964   -41467   -43352   -43502   -42195   -41301   -41998   -42600 
  -42664   -43363   -43667   -42878   -42088   -41682   -42071   -43062 
  -42484   -40834   -41438   -42885   -41517   -39899   -41428   -43276 
  -43065   -42283   -41980   -42541   -43264   -43285   -42971   -41752 
  -41044   -42403   -43147   -43231   -43727   -42584   -40801   -40204 
  -40788   -42700   -43309   -40946   -39306   -41148   -43717   -43641 
  -42456   -43044   -43641   -41570   -40008   -42516   -44707   -42205 
  -39575   -41346   -44055   -43672   -41662   -40522   -40886   -42587 
  -44034   -43461   -41465   -40900   -42676   -43390   -41733   -40817 
  -42248   -43927   -43735   -42728   -41872   -41446   -42695   -43931 
  -43611   -42723   -40910   -40031   -42256   -44278   -43448   -41690 
  -40844   -41277   -42768   -43239   -41835   -41708   -43528   -43625 
  -41602   -40618   -41636   -43278   -44448   -44266   -42303   -40549 
  -41166   -43117   -44089   -42738   -40571   -40788   -42745   -43698 
  -43047   -41766   -41350   -41354   -41234   -41902   -41947   -41114 
  -42002   -43879   -44103   -42556   -40819   -40470   -41885   -44128 
  -44899   -43231   -42098   -42601   -42172   -40675   -40115   -40963 
  -42028   -42793   -43756   -44248   -43519   -41909   -40400   -40918 
  -43842   -45558   -43418   -40825   -41069   -42045   -41882   -42044 
  -42412   -41135   -40425   -42446   -43344   -41617   -41553   -43274 
  -42558   -40629   -41944   -44317   -43075   -40725   -41613   -43810 
  -43949   -42705   -41391   -40460   -41384   -43067   -42903   -42361 
  -43060   -43213   -41168   -39521   -41986   -43908   -40986   -39788 
  -42430   -43667   -43205   -42400   -42117   -43518   -44234   -42565 
  -41300   -42448   -43271   -41791   -41204   -42067   -41763   -41929 
  -42688   -41550   -40883   -42182   -42429   -41326   -41778   -43727 
  -44254   -44007   -44419   -43316   -41467   -41031   -41019   -41724 
  -42684   -42052   -41297   -41385   -41384   -41939   -42499   -42053 
  -42071   -42496   -42460   -42639   -42930   -43551   -44112   -43291 
  -42009   -41058   -40751   -42364   -44221   -43830   -43105   -42824 
  -40760   -38954   -40065   -42350   -44082   -44232   -42886   -41732 
  -41520   -42522   -43287   -42695   -43433   -44520   -42700   -40514 
  -39938   -41223   -44383   -44794   -41706   -40477   -40945   -40583 
  -41794   -44446   -44232   -41685   -40410   -41071   -42422   -43205 
  -43255   -42763   -42427   -43168   -43090   -41253   -40579   -41470 
  -41936   -42461   -42796   -41326   -39476   -39604   -42088   -44608 
  -43297   -41175   -43349   -44666   -41909   -39997   -40306   -42338 
  -45519   -46259   -42886   -39116   -39927   -43464   -43900   -41935 
  -41516   -42325   -42151   -41914   -42993   -42778   -40786   -40417 
  -41737   -43093   -43930   -42657   -40328   -40934   -43475   -43866 
  -42577   -42026   -42573   -43227   -42889   -42354   -42313   -41199 
  -39958   -41450   -43748   -43633   -41716   -39603   -40099   -43750 
  -45165   -43364   -43051   -43132   -40211   -38431   -41481   -44456 
  -44471   -44058   -43043   -40863   -40579   -43131   -44186   -42157 
  -40701   -41206   -42055   -41926   -41358   -41384   -41459   -42759 
  -45247   -44864   -42120   -41098   -41874   -42768   -43097   -43067 
  -43129   -43024   -42101   -40574   -40432   -41647   -42410   -43116 
  -42699   -40782   -40398   -41316   -42138   -43991   -45528   -43734 
  -40462   -40248   -42565   -43954   -43480   -41870   -40679   -41311 
  -43083   -44038   -43463   -42284   -41170   -41346   -43108   -43347 
  -41494   -40419   -40909   -41658   -41658   -42507   -44258   -43440 
  -40788   -40432   -42894   -44563   -42942   -40859   -40454   -40914 
  -43121   -44277   -40618   -38522   -42358   -44643   -42330   -41218 
  -42894   -43518   -41701   -41091   -43683   -45299   -43761   -42032 
  -41350   -41679   -42631   -42611   -42614   -43271   -42979   -41978 
  -40734   -40587   -42959   -44227   -41543   -39089   -40784   -43945 
  -45153   -44037   -40942   -39495   -41962   -44265   -44076   -42030 
  -40205   -41087   -42282   -42766   -43941   -43382   -41536   -41152 
  -41694   -42572   -43341   -43440   -42171   -40263   -40817   -42850 
  -42444   -39830   -39040   -41794   -44069   -43345   -42061   -41791 
  -41605   -41050   -42252   -44386   -43349   -41273   -42218   -43644 
  -42087   -40262   -42206   -44625   -43002   -40432   -40830   -42357 
  -42299   -41631   -41632   -41241   -40906   -42153   -43137   -42685 
  -42630   -42431   -41234   -41301   -42866   -43092   -41496   -40652 
  -41872   -43653   -44161   -42836   -41033   -41154   -43480   -46171 
  -46587   -43040   -39534   -41477   -46183   -47406   -44153   -39992 
  -39259   -42264   -44632   -44836   -44091   -41395   -38954   -40578 
  -43629   -44821   -43644   -40390   -38462   -39819   -42422   -44346 
  -44535   -44023   -43776   -42966   -43457   -45562   -45630   -44568 
  -43934   -42282   -42126   -44032   -44120   -42880   -41952   -41011 
  -41210   -42074   -42219   -42408   -41573   -39854   -40757   -42917 
  -42741   -41046   -39780   -40420   -42822   -44074   -43116   -41781 
  -41666   -43872   -46751   -45990   -42452   -41492   -43483   -44647 
  -44176   -44042   -43958   -41956   -39879   -40390   -41443   -41551 
  -42134   -41995   -40031   -39017   -39276   -39027   -40090   -41947 
  -41042   -39681   -40556   -40652   -39964   -40990   -41075   -38938 
  -38759   -41374   -43013   -42072   -40470   -40392   -41802   -44093 
  -45496   -43062   -40203   -41976   -45524   -46792   -44444   -40333 
  -39010   -40387   -42651   -44887   -43794   -39734   -36931   -37264 
  -40826   -45038   -46230   -44886   -43605   -44319   -46325   -45993 
  -42373   -37966   -36765   -40911   -45153   -44478   -42107   -41207 
  -40872   -41890   -44641   -45380   -42750   -40620   -40640   -40948 
  -41527   -42923   -44011   -43735   -41578   -40225   -42751   -45277 
  -43456   -39453   -37404   -38857   -41623   -42471   -40518   -39131 
  -41272   -42735   -41233   -41396   -43279   -42601   -40122   -40204 
  -42907   -44350   -44397   -45249   -45999   -45243   -43272   -40864 
  -39970   -41921   -43856   -42925   -41392   -42052   -43827   -44844 
  -44782   -43425   -41543   -41223   -41752   -40421   -39195   -42030 
  -45642   -45250   -43492   -43464   -44113   -43949   -42931   -42226 
  -42137   -42425   -42750   -42246   -42153   -43179   -42519   -40579 
  -41131   -43688   -45472   -44795   -41909   -40528   -40784   -38954 
  -37449   -39564   -42446   -43885   -43802   -42484   -41770   -41970 
  -42391   -42426   -40949   -40101   -42099   -44572   -44752   -42994 
  -41555   -40967   -40342   -40825   -43314   -44938   -43852   -42327 
  -40529   -38869   -41104   -44182   -42873   -40923   -41447   -42475 
  -43023   -42651   -42441   -43499   -44466   -45496   -46668   -45192 
  -40684   -37783   -39461   -40672   -37173   -35201   -39094   -43087 
  -43849   -44231   -45399   -44977   -42866   -43154   -45063   -44008 
  -41557   -40950   -41796   -42776   -42925   -42218   -40780   -39480 
  -39887   -41669   -44766   -48637   -49661   -47048   -43559   -40540 
  -39145   -39451   -39984   -40309   -39584   -38314   -39459   -42665 
  -43789   -41708   -41412   -45341   -47110   -43695   -40240   -39047 
  -39548   -42538   -45844   -44533   -39830   -39104   -43491   -47363 
  -48196   -46827   -43650   -40047   -40144   -44486   -46246   -42072 
  -37372   -37319   -40423   -41639   -40146   -39758   -41600   -42928 
  -42442   -41882   -42753   -43023   -39911   -36952   -39199   -44091 
  -46769   -45918   -42946   -40649   -40417   -42911   -46862   -47282 
  -43437   -40694   -41134   -42007   -42066   -42510   -42842   -40799 
  -36657   -35244   -39930   -46114   -47502   -43938   -40414   -40845 
  -42441   -42323   -42585   -42998   -42356   -42732   -44346   -45981 
  -47208   -45063   -39631   -37467   -39710   -41092   -39852   -38923 
  -41867   -45812   -45877   -43803   -40657   -38236   -41127   -44774 
  -43390   -41840   -43505   -44335   -42765   -41769   -41686   -40475 
  -39718   -41867   -44184   -43704   -43231   -44381   -45017   -45652 
  -46176   -43914   -39766   -37501   -38796   -42061   -45435   -47657 
  -46043   -41798   -40498   -41499   -40844   -38915   -36911   -38458 
  -44907   -48165   -45748   -42971   -40095   -38628   -41327   -44753 
  -45689   -44221   -41663   -40200   -40336   -41609   -43205   -42392 
  -39717   -39395   -41415   -42738   -42727   -41879   -40213   -39800 
  -42487   -44340   -42107   -39911   -41431   -44517   -46005   -45488 
  -44356   -42927   -41916   -42853   -43406   -42126   -41547   -41206 
  -40219   -40316   -40987   -40516   -40053   -41886   -44928   -46160 
  -44451   -41110   -39627   -40329   -40590   -41723   -43787   -43478 
  -41391   -40490   -41605   -42398   -40498   -38028   -38415   -42051 
  -44844   -43538   -42682   -43919   -42572   -40217   -40707   -42993 
  -43654   -41328   -40373   -42716   -44316   -44450   -44454   -43654 
  -42695   -43389   -44743   -43005   -39434   -39438   -41648   -41241 
  -39349   -40404   -44509   -46961   -46460   -45538   -43251   -39787 
  -39478   -43028   -46726   -46888   -44238   -41858   -39305   -38007 
  -40306   -42334   -41206   -39136   -38718   -41108   -45376   -48579 
  -47680   -43189   -39799   -40544   -42850   -42958   -41989   -41677 
  -39984   -39204   -42919   -45702   -43101   -38820   -37408   -40207 
  -44698   -47733   -47093   -42334   -38631   -38668   -38909   -39326 
  -40713   -41303   -42079   -43313   -43056   -42088   -42021   -42261 
  -41561   -40896   -42280   -43114   -41257   -41327   -43860   -44031 
  -42493   -42512   -45075   -46957   -43907   -40915   -42916   -44383 
  -43322   -43656   -44645   -43868   -41729   -40242   -40035   -39560 
  -39357   -40437   -41856   -43348   -43568   -42747   -44049   -45667 
  -44730   -43559   -42998   -42207   -42792   -43939   -43120   -41505 
  -41087   -42372   -43654   -42672   -42142   -43829   -43546   -40868 
  -40215   -41953   -42803   -41558   -40217   -40444   -41897   -44020 
  -45096   -43812   -42712   -42549   -41318   -40308   -39926   -38981 
  -38813   -39761   -41156   -42677   -44280   -46070   -45728   -43067 
  -41373   -40266   -38786   -39424   -42246   -43757   -42488   -40691 
  -40954   -43389   -44666   -41702   -37845   -38144   -41108   -42668 
  -42911   -43804   -44328   -43637   -43583   -44277   -44215   -42624 
  -40320   -40909   -44278   -44501   -41597   -41126   -42601   -43244 
  -43191   -41035   -37604   -38618   -43623   -45407   -43537   -43444 
  -44585   -42823   -41184   -43552   -44199   -40331   -38497   -41292 
  -44882   -45202   -42110   -39487   -39847   -42107   -43179   -41898 
  -40524   -41019   -43195   -44590   -43430   -41566   -40846   -41450 
  -42633   -42546   -42365   -43803   -43417   -40355   -38623   -39483 
  -41710   -42886   -42129   -42674   -44749   -44717   -42390   -41395 
  -43830   -45940   -43714   -39787   -37764   -38715   -42427   -45256 
  -44543   -42334   -41161   -41976   -43067   -42469   -41472   -41758 
  -43318   -43780   -41342   -39403   -41031   -43931   -44736   -43087 
  -41963   -43314   -44857   -44575   -43586   -43204   -42777   -40940 
  -39480   -40887   -42388   -41937   -41288   -40031   -38870   -40707 
  -44575   -46699   -45372   -42552   -40805   -40591   -41669   -43325 
  -44392   -44702   -43403   -40819   -40570   -42525   -43372   -42628 
  -41440   -41624   -43065   -43112   -41133   -40078   -41863   -42859 
  -41064   -40531   -42504   -43870   -42854   -39815   -37727   -39465 
  -42651   -43912   -43263   -41343   -40235   -42145   -44635   -44574 
  -42592   -40829   -40714   -42025   -43722   -44617   -44224   -43864 
  -43245   -41350   -40907   -42930   -43432   -41517   -41143   -42851 
  -43436   -43484   -44658   -44088   -41179   -40112   -41488   -41878 
  -41002   -41400   -41756   -39847   -39096   -41203   -42500   -42977 
  -45045   -46078   -43528   -41295   -42414   -43213   -41597   -40865 
  -42299   -43393   -43019   -42542   -41874   -40729   -41696   -43826 
  -43587   -42233   -41885   -43256   -45249   -45211   -44134   -43398 
  -42078   -41022   -41887   -43964   -44088   -40965   -38029   -38107 
  -39995   -43363   -47949   -48460   -43110   -39318   -41320   -44073 
  -43308   -41854   -41929   -41246   -40049   -40582   -41395   -40224 
  -39648   -41785   -42569   -40954   -40726   -42138   -43395   -42604 
  -40306   -40716   -42799   -43097   -44130   -45881   -44000   -40069 
  -39352   -41975   -43146   -40745   -38778   -40691   -44427   -45690 
  -43734   -42541   -42554   -39930   -37428   -39973   -44479   -45993 
  -44315   -42213   -42064   -42893   -42738   -42519   -42568   -41401 
  -40466   -42907   -46799   -46205   -41990   -40225   -41539   -43129 
  -42700   -40809   -40081   -39988   -41071   -44258   -45581   -43644 
