Origin Time       2024/04/02 04:24:00
Lat.              40.133
Long.             141.712
Depth. (km)       71
Mag.              6.0
Station Code      MYGH06
Station Lat.      38.5907
Station Long.     141.0710
Station Height(m) 20
Record Time       2024/04/02 04:25:04
Sampling Freq(Hz) 100Hz
Duration Time(s)  177
Dir.              4
Scale Factor      7845(gal)/8223790
Max. Acc. (gal)   3.862
Last Correction   2024/04/02 04:25:05
Memo.             
[...]
   -3038    -3051    -3061    -2930    -2944    -3153    -3222    -3176 
   -3261    -3326    -3269    -3307    -3422    -3407    -3307    -3226 
   -3130    -2991    -2848    -2678    -2447    -2369    -2583    -2781 
   -2853    -3136    -3564    -3755    -3771    -3862    -3986    -3931 
   -3632    -3528    -3738    -3518    -2883    -2578    -2520    -2551 
   -2890    -3253    -3379    -3542    -3753    -3726    -3537    -3258 
   -2907    -2860    -3137    -3322    -3362    -3338    -3206    -3073 
   -3087    -3149    -3099    -3121    -3372    -3565    -3569    -3636 
   -3886    -4102    -3969    -3499    -3164    -3183    -3219    -3123 
   -3141    -3372    -3646    -3720    -3624    -3649    -3704    -3524 
   -3283    -3184    -3121    -2959    -2675    -2477    -2656    -3083 
   -3352    -3384    -3376    -3443    -3526    -3484    -3330    -3199 
   -3252    -3462    -3496    -3380    -3473    -3524    -3314    -3291 
   -3501    -3570    -3501    -3385    -3312    -3318    -3164    -2999 
   -3184    -3323    -3022    -2755    -2799    -2859    -2956    -3271 
   -3581    -3712    -3677    -3410    -3146    -3144    -3064    -2799 
   -2689    -2732    -2905    -3202    -3310    -3284    -3605    -4075 
   -4070    -3829    -3771    -3501    -2991    -2924    -3312    -3530 
   -3484    -3524    -3632    -3554    -3318    -3137    -3071    -3026 
   -2976    -2938    -3034    -3395    -3477    -2949    -2660    -2926 
   -3148    -3306    -3438    -3365    -3406    -3601    -3446    -3052 
   -2964    -3115    -3157    -3316    -3757    -3873    -3472    -3304 
   -3555    -3643    -3539    -3615    -3821    -3859    -3611    -3346 
   -3380    -3512    -3481    -3501    -3645    -3613    -3353    -3049 
   -2875    -3032    -3449    -3694    -3534    -3318    -3399    -3427 
   -3067    -2798    -2929    -3113    -3315    -3589    -3597    -3345 
   -3110    -2986    -3083    -3337    -3592    -3825    -3873    -3763 
   -3742    -3645    -3396    -3257    -3075    -2683    -2498    -2651 
   -2659    -2454    -2485    -2828    -3194    -3427    -3426    -3338 
   -3568    -3858    -3636    -3267    -3268    -3353    -3339    -3375 
   -3272    -3028    -3094    -3358    -3353    -3298    -3434    -3410 
   -3206    -3157    -3179    -3154    -3129    -2871    -2401    -2311 
   -2775    -3181    -3198    -3200    -3310    -3214    -3071    -3238 
   -3510    -3667    -3865    -3943    -3738    -3630    -3667    -3458 
   -3176    -3237    -3520    -3703    -3662    -3422    -3095    -2794 
   -2737    -3119    -3504    -3414    -3234    -3302    -3418    -3578 
   -3669    -3416    -3167    -3248    -3323    -3248    -3233    -3275 
   -3399    -3672    -3815    -3724    -3703    -3719    -3483    -3099 
   -2852    -2764    -2762    -2879    -3063    -3175    -3262    -3330 
   -3152    -2763    -2550    -2679    -2945    -3295    -3736    -3836 
   -3545    -3505    -3713    -3762    -3866    -3888    -3473    -3207 
   -3249    -3040    -2999    -3434    -3557    -3223    -3091    -3294 
   -3400    -3237    -3106    -3067    -2829    -2602    -2749    -3010 
   -3153    -3349    -3488    -3485    -3597    -3632    -3362    -3222 
   -3395    -3554    -3570    -3491    -3422    -3492    -3666    -3827 
   -3850    -3631    -3231    -2886    -2793    -2978    -3262    -3404 
   -3403    -3418    -3392    -3230    -3033    -2967    -3136    -3358 
   -3365    -3242    -3210    -3248    -3265    -3348    -3532    -3626 
   -3623    -3663    -3688    -3746    -3865    -3716    -3275    -3002 
   -2984    -2978    -3013    -3071    -2913    -2652    -2677    -2982 
   -3214    -3288    -3365    -3435    -3541    -3761    -3815    -3538 
   -3370    -3488    -3438    -3169    -3003    -2921    -2976    -3181 
   -3269    -3339    -3474    -3354    -3087    -2982    -3010    -3132 
   -3214    -3165    -3244    -3458    -3611    -3720    -3689    -3546 
   -3607    -3615    -3260    -2968    -2933    -2971    -3087    -3123 
   -3191    -3626    -3846    -3456    -3241    -3441    -3537    -3477 
   -3312    -3040    -3010    -3315    -3472    -3211    -2887    -2883 
   -3025    -3030    -3075    -3257    -3292    -3217    -3291    -3427 
   -3449    -3373    -3375    -3503    -3500    -3380    -3427    -3437 
   -3298    -3411    -3632    -3554    -3370    -3295    -3279    -3294 
   -3227    -3067    -3044    -3299    -3654    -3769    -3600    -3393 
   -3171    -2860    -2655    -2694    -2980    -3495    -3829    -3707 
   -3672    -3874    -3713    -3406    -3477    -3518    -3403    -3611 
   -3877    -3700    -3319    -3096    -3105    -3242    -3248    -3118 
   -3080    -2998    -2718    -2457    -2409    -2578    -2839    -3048 
   -3285    -3531    -3423    -3141    -3300    -3620    -3551    -3423 
   -3510    -3553    -3442    -3214    -2963    -2933    -3222    -3526 
   -3427    -3130    -3168    -3383    -3339    -3177    -3169    -3279 
   -3333    -3233    -3156    -3206    -3130    -3071    -3348    -3527 
   -3283    -2894    -2455    -2161    -2423    -3142    -3709    -3636 
   -3145    -2829    -2794    -3007    -3542    -3928    -3809    -3611 
   -3609    -3597    -3434    -3215    -3230    -3512    -3732    -3782 
   -3658    -3289    -2982    -2968    -2999    -3024    -3129    -3133 
   -3122    -3408    -3831    -3990    -3954    -3994    -3990    -3759 
   -3453    -3142    -2832    -2817    -3183    -3514    -3582    -3546 
   -3468    -3354    -3204    -2953    -2820    -2956    -3021    -2997 
   -3206    -3484    -3634    -3866    -4094    -4006    -3908    -4101 
   -4209    -4067    -3902    -3659    -3308    -3148    -3223    -3229 
   -3156    -3186    -3211    -3300    -3559    -3565    -3203    -3052 
   -3308    -3616    -3771    -3743    -3503    -3130    -2805    -2674 
   -2836    -3271    -3650    -3640    -3426    -3329    -3160    -2710 
   -2382    -2482    -2623    -2492    -2428    -2700    -2957    -3038 
   -3235    -3493    -3589    -3626    -3526    -3098    -2614    -2419 
   -2411    -2482    -2902    -3631    -4027    -3870    -3619    -3443 
   -3149    -2876    -2903    -3113    -3300    -3431    -3412    -3289 
   -3315    -3591    -4091    -4444    -4124    -3528    -3339    -3283 
   -3168    -3357    -3545    -3312    -3222    -3439    -3323    -3165 
   -3462    -3601    -3399    -3362    -3456    -3531    -3592    -3460 
   -3227    -3172    -3229    -3252    -3252    -3210    -3080    -2913 
   -2875    -3048    -3213    -3264    -3412    -3596    -3618    -3496 
   -3254    -3117    -3249    -3233    -2905    -2666    -2604    -2548 
   -2604    -2902    -3245    -3439    -3684    -4068    -4198    -3929 
   -3622    -3411    -3254    -3281    -3260    -2943    -2818    -3106 
   -3295    -3207    -3133    -3219    -3265    -3121    -3072    -3119 
   -3038    -3226    -3680    -3690    -3380    -3265    -3195    -3096 
   -3175    -3248    -3126    -3029    -3163    -3422    -3532    -3569 
   -3758    -3747    -3383    -3276    -3461    -3396    -3272    -3327 
   -3275    -3235    -3345    -3253    -3173    -3561    -4017    -4118 
   -4005    -3794    -3588    -3478    -3402    -3333    -3250    -3056 
   -2771    -2712    -3042    -3339    -3252    -3075    -3186    -3547 
   -3820    -3754    -3539    -3399    -3342    -3495    -3667    -3410 
   -3029    -2909    -2641    -2301    -2436    -2747    -2960    -3295 
   -3569    -3851    -4293    -4229    -3565    -3069    -2911    -2921 
   -3024    -2978    -2776    -2798    -3200    -3491    -3285    -3109 
   -3223    -3217    -3248    -3489    -3480    -3258    -3245    -3361 
   -3518    -3740    -3766    -3597    -3500    -3306    -3046    -3114 
   -3357    -3488    -3558    -3489    -3346    -3337    -3299    -3159 
   -3088    -3150    -3187    -2988    -2852    -3067    -3188    -3091 
   -3173    -3231    -3011    -2964    -3229    -3304    -3157    -3165 
   -3322    -3481    -3458    -3204    -3306    -3728    -3605    -3192 
   -3122    -2918    -2559    -2743    -3133    -3213    -3437    -3798 
   -3746    -3553    -3640    -3728    -3623    -3528    -3519    -3416 
   -3141    -2941    -3003    -3115    -3061    -3083    -3495    -3881 
   -3766    -3541    -3457    -3307    -3242    -3339    -3348    -3241 
   -3171    -3246    -3380    -3303    -3032    -2961    -3299    -3704 
   -3761    -3585    -3465    -3397    -3393    -3469    -3422    -3214 
   -3138    -3233    -3288    -3325    -3289    -3060    -3060    -3480 
   -3601    -3226    -3001    -2970    -2894    -3013    -3213    -3198 
   -3114    -3006    -2998    -3250    -3403    -3493    -3831    -3919 
   -3631    -3381    -2871    -2324    -2556    -2953    -2998    -3481 
   -4051    -3902    -3689    -3650    -3376    -3350    -3692    -3684 
   -3348    -3230    -3211    -2926    -2586    -2650    -3099    -3476 
   -3696    -3951    -3896    -3373    -3007    -3149    -3616    -4018 
   -3933    -3443    -3037    -3060    -3271    -3137    -2921    -3015 
   -2941    -2739    -3029    -3434    -3478    -3483    -3507    -3419 
   -3410    -3470    -3430    -3356    -3213    -2862    -2619    -2851 
   -3163    -3067    -2878    -2913    -3014    -3180    -3260    -2971 
   -2764    -2909    -2957    -3072    -3492    -3624    -3404    -3254 
   -2995    -2627    -2482    -2478    -2563    -2840    -3134    -3362 
   -3534    -3495    -3397    -3456    -3480    -3511    -3662    -3578 
   -3312    -3237    -3121    -2970    -3200    -3396    -3042    -2671 
   -2752    -2926    -2995    -3257    -3582    -3593    -3554    -3720 
   -3827    -3825    -3786    -3678    -3731    -3925    -3964    -4037 
   -4253    -4259    -4099    -4024    -3861    -3712    -3870    -3956 
   -3793    -3720    -3491    -2933    -2678    -2999    -3346    -3327 
   -3090    -2770    -2494    -2428    -2516    -2772    -3134    -3246 
   -3113    -3057    -3203    -3515    -3816    -4055    -4266    -4145 
   -3697    -3381    -3207    -2976    -2663    -2249    -2029    -2371 
   -2970    -3353    -3669    -4035    -4014    -3609    -3353    -3245 
   -3183    -3357    -3505    -3470    -3609    -3743    -3673    -3805 
   -3960    -3747    -3562    -3499    -3279    -3298    -3612    -3535 
   -3265    -3480    -3708    -3487    -3442    -3711    -3609    -3153 
   -2862    -2803    -2987    -3497    -3852    -3681    -3492    -3515 
   -3423    -3419    -3586    -3438    -3106    -3249    -3734    -3767 
   -3235    -2806    -2816    -3007    -3249    -3608    -3773    -3468 
   -3113    -3091    -3218    -3375    -3624    -3676    -3327    -3213 
   -3589    -3696    -3370    -3098    -2907    -2772    -2849    -3042 
   -3119    -2979    -2727    -2629    -2783    -2922    -2959    -3132 
   -3342    -3438    -3654    -3815    -3516    -3168    -3244    -3403 
   -3392    -3316    -3056    -2810    -2963    -3179    -3218    -3415 
   -3646    -3592    -3582    -3630    -3322    -3057    -3213    -3468 
   -3773    -4002    -3854    -3616    -3478    -3335    -3271    -3026 
   -2436    -2060    -2157    -2268    -2246    -2371    -2554    -2632 
   -2845    -3244    -3595    -3882    -4132    -4095    -3712    -3431 
   -3353    -3068    -2830    -3044    -3248    -3322    -3740    -4102 
   -3693    -3086    -3028    -3006    -2685    -2482    -2381    -2340 
   -2519    -2677    -2745    -2840    -2771    -2627    -2686    -2867 
   -3168    -3566    -3639    -3519    -3673    -3654    -3345    -3485 
   -3765    -3468    -3080    -3053    -3103    -3092    -3072    -2986 
   -2859    -2841    -2841    -2759    -2937    -3380    -3446    -3069 
   -2876    -3025    -3215    -3474    -3728    -3589    -3327    -3443 
   -3781    -4229    -4731    -4827    -4384    -3807    -3499    -3489 
   -3396    -3210    -3346    -3661    -3763    -3640    -3271    -2872 
   -2893    -3202    -3296    -3140    -3100    -3262    -3491    -3765 
   -3970    -4141    -4345    -4263    -3937    -3824    -3958    -4085 
   -3958    -3574    -3226    -3082    -3011    -2883    -3011    -3613 
   -4078    -4109    -4264    -4504    -4383    -4253    -4382    -4270 
   -3906    -3850    -3971    -3952    -4082    -4317    -4275    -4207 
   -4514    -4942    -4899    -4490    -4336    -4237    -3750    -3314 
   -3306    -3389    -3376    -3342    -3148    -2774    -2484    -2420 
   -2574    -2767    -2789    -2708    -2504    -2054    -1722    -1780 
   -1925    -2107    -2411    -2517    -2371    -2115    -1734    -1609 
   -1934    -2235    -2388    -2604    -2770    -2853    -2943    -2891 
   -2729    -2716    -2718    -2511    -2459    -2803    -3096    -3179 
   -3333    -3488    -3534    -3673    -3832    -3573    -2909    -2382 
   -2215    -2350    -2830    -3384    -3770    -4139    -4306    -4012 
   -3484    -2793    -1879    -1070     -776    -1085    -1780    -2627 
   -3264    -3222    -2867    -2986    -3505    -4054    -4558    -4698 
   -4351    -3946    -3681    -3647    -3985    -4128    -3701    -3357 
   -3306    -3034    -2417    -1599     -943     -989    -1626    -2226 
   -2517    -2700    -2882    -2949    -2945    -3088    -3415    -3784 
   -4106    -4521    -5242    -6135    -6594    -6222    -5412    -4523 
   -3427    -2423    -1973    -1884    -1906    -1964    -1949    -1946 
   -2161    -2978    -4355    -5281    -5227    -4681    -3847    -2749 
   -2004    -2070    -2559    -2952    -3199    -3568    -4274    -4870 
   -4718    -4050    -3254    -2245    -1313     -899     -908    -1563 
   -3099    -4575    -5433    -6374    -7256    -7349    -7015    -6527 
   -5420    -3960    -3100    -3100    -3572    -4332    -5243    -5668 
   -5148    -4153    -3246    -2457    -2037    -2245    -2623    -2805 
   -2952    -3200    -3500    -3439    -2776    -2164    -1980    -1757 
   -1458    -1513    -1934    -2646    -3607    -4239    -4171    -3843 
   -3431    -2884    -2832    -3555    -4295    -4444    -4024    -3450 
   -3296    -3364    -2940    -2232    -1863    -1699    -1630    -1914 
   -2312    -2496    -2613    -2647    -2527    -2515    -2687    -3086 
   -3885    -4878    -5806    -6556    -6741    -6161    -5321    -4745 
   -4257    -3315    -1898     -645     -345    -1428    -3200    -4364 
   -4696    -4591    -4137    -3677    -3589    -3505    -2528     -629 
     639      171    -1173    -2118    -2293    -1902    -1345     -977 
    -908    -1171    -1782    -2473    -2895    -3218    -3740    -4396 
   -5170    -5900    -6100    -5757    -5082    -4018    -2921    -2339 
   -2273    -2589    -3069    -3060    -2602    -2583    -3196    -4136 
   -5254    -6049    -6158    -5825    -5185    -4239    -3237    -2430 
   -1865    -1632    -1991    -2961    -4163    -5053    -5065    -4333 
   -3753    -3649    -3669    -3820    -4247    -4467    -3971    -3006 
   -2066    -1621    -1871    -2195    -2154    -2258    -2668    -2829 
   -2729    -2976    -3585    -3898    -3919    -4104    -3985    -3281 
   -2824    -2798    -2744    -2926    -3460    -3771    -3723    -3516 
   -3118    -2652    -2332    -2019    -1629    -1516    -1923    -2461 
   -2739    -3052    -3505    -3757    -4099    -4926    -5908    -6627 
   -6750    -6389    -6222    -6143    -5495    -4623    -4178    -4156 
   -4310    -4272    -3970    -3676    -3211    -2675    -2678    -2909 
   -2799    -2670    -2637    -2578    -2957    -3889    -4739    -5205 
   -5256    -4599    -3384    -2482    -2232    -2282    -2583    -2994 
   -3082    -2936    -2782    -2450    -1877    -1310     -936     -886 
   -1296    -1694    -1339     -606     -305     -167      116     -253 
   -1834    -3974    -5745    -6546    -6258    -5571    -5182    -4718 
   -3545    -2041    -1183    -1178    -1356    -1634    -2370    -2852 
   -2625    -2617    -2926    -2679    -2111    -2031    -2393    -2670 
   -3028    -4004    -4858    -4552    -3735    -3148    -2571    -2417 
   -2983    -3418    -3554    -3943    -4279    -4284    -4436    -4781 
   -4762    -3990    -2667    -1424     -483      106     -178    -1431 
   -3271    -5310    -6507    -6180    -5127    -4199    -3662    -3823 
   -4550    -5219    -5532    -5240    -3981    -2158     -691      -62 
    -375    -1537    -3090    -4413    -5363    -6064    -5799    -4120 
   -2447    -1923    -1764    -1374    -1225    -1428    -1575    -1516 
   -1308    -1011     -872    -1329    -2590    -4239    -5536    -6110 
   -6054    -5821    -5884    -6124    -6068    -5633    -5065    -4375 
   -3488    -2843    -2808    -2903    -2749    -2687    -3015    -3719 
   -4614    -5177    -4931    -4001    -2956    -2390    -2498    -3011 
   -3632    -4233    -4711    -4872    -4503    -3731    -3234    -3569 
   -4264    -4669    -5055    -5560    -5717    -5436    -4889    -4410 
   -4561    -4993    -4839    -4365    -4144    -3825    -3150    -2587 
   -2407    -2574    -3132    -3719    -3994    -4164    -3881    -2722 
   -1618    -1204     -683      135      441       51     -854    -2251 
   -3410    -3414    -2614    -2043    -1907    -1938    -2254    -2655 
   -2563    -2400    -2987    -3786    -3974    -3943    -3852    -3219 
   -2652    -2968    -3674    -4191    -4671    -5105    -5055    -4492 
   -3967    -3600    -2980    -2153    -1707    -1821    -2164    -2704 
   -3441    -3892    -4016    -4419    -5113    -5544    -5405    -4760 
   -4098    -3940    -4135    -4043    -3404    -2628    -2046    -1563 
   -1312    -1525    -1763    -1459     -913     -812    -1174    -1409 
   -1371    -1699    -2593    -3314    -3558    -3615    -3526    -3514 
   -3763    -3827    -3476    -3010    -2583    -2181    -2083    -2601 
   -3146    -2882    -2223    -1971    -2015    -2045    -2238    -2786 
   -3342    -3407    -3117    -2882    -2740    -2658    -2605    -2506 
   -2643    -3140    -3458    -3426    -3685    -4436    -5096    -5305 
   -5292    -5414    -5703    -5907    -5913    -5811    -5640    -5354 
   -4973    -4707    -4750    -4747    -4187    -3352    -2867    -2913 
   -3466    -4168    -4421    -4305    -4118    -3715    -3348    -3399 
   -3450    -3268    -3311    -3484    -3438    -3492    -3658    -3465 
   -3046    -2971    -3253    -3262    -2898    -2710    -2546    -1962 
   -1421    -1598    -2461    -3148    -2851    -2111    -1796    -1717 
   -1668    -1804    -1749    -1273     -977    -1237    -1680    -2120 
   -2782    -3391    -3545    -3561    -3538    -3173    -2803    -2774 
   -2949    -3345    -3966    -4757    -5694    -6282    -5972    -4955 
   -3735    -2628    -1895    -1590    -1447    -1371    -1429    -1540 
   -1981    -3181    -4730    -5927    -6612    -6683    -6153    -5575 
   -5358    -5389    -5559    -5599    -5228    -4700    -4095    -3249 
   -2443    -1864    -1647    -1871    -1933    -1678    -1794    -2093 
   -1894    -1699    -2107    -2508    -2409    -2096    -1709    -1329 
   -1340    -1968    -2948    -3562    -3289    -2659    -2559    -3080 
   -3782    -4320    -4654    -4839    -4626    -3921    -3095    -2417 
   -2008    -2137    -2567    -2573    -2224    -2226    -2706    -3457 
   -4303    -4907    -5044    -4753    -4193    -3788    -4004    -4622 
   -4943    -4675    -3997    -3346    -3213    -3647    -4303    -4671 
   -4425    -4002    -4031    -4450    -4915    -5152    -4924    -4299 
   -3546    -2806    -2323    -2416    -2794    -2808    -2471    -2226 
