Origin Time       2024/04/02 04:24:00
Lat.              40.133
Long.             141.712
Depth. (km)       71
Mag.              6.0
Station Code      MYGH04
Station Lat.      38.7860
Station Long.     141.3254
Station Height(m) -65
Record Time       2024/04/02 04:25:01
Sampling Freq(Hz) 100Hz
Duration Time(s)  122
Dir.              1
Scale Factor      2942(gal)/8224139
Max. Acc. (gal)   5.139
Last Correction   2024/04/02 04:25:01
Memo.             
[...]
  -25176   -24887   -23522   -21894   -24052   -27176   -26327   -24019 
  -23017   -22697   -24042   -25895   -25257   -24071   -24237   -24051 
  -24000   -24605   -24254   -23819   -24062   -23839   -24270   -25523 
  -24946   -23175   -22828   -23332   -23660   -24059   -24084   -24495 
  -26285   -26400   -23556   -22416   -23755   -24333   -25575   -26542 
  -23490   -21996   -25893   -27121   -23679   -22126   -23005   -24505 
  -25826   -24374   -22707   -25042   -27135   -25402   -23781   -24139 
  -24783   -25272   -24929   -23988   -23927   -24128   -24271   -24880 
  -24676   -23782   -23566   -23537   -24150   -25682   -25667   -24328 
  -24347   -24694   -24475   -25814   -27353   -25920   -23562   -23596 
  -24740   -25284   -26277   -26677   -24321   -21886   -22304   -23873 
  -25127   -25226   -23242   -22729   -25134   -25112   -22968   -23491 
  -24159   -23383   -24410   -24927   -23053   -23132   -25070   -25574 
  -25240   -24228   -23607   -26118   -27630   -24244   -22493   -25485 
  -26511   -24522   -24727   -26125   -25089   -23372   -23440   -24097 
  -24017   -23728   -23753   -24466   -25964   -26326   -24187   -22269 
  -23211   -25112   -25542   -24937   -24139   -23896   -24691   -24885 
  -23602   -23039   -23984   -24495   -24545   -25396   -25528   -24088 
  -24475   -27230   -27456   -25022   -24723   -26206   -26531   -26199 
  -25458   -23985   -23623   -24759   -25224   -24111   -22636   -22754 
  -24749   -25988   -24557   -22555   -23113   -25247   -25589   -24952 
  -25725   -26019   -25087   -25469   -25843   -23834   -22538   -24088 
  -25384   -25051   -24559   -23998   -23672   -24413   -25092   -24717 
  -24229   -23930   -23350   -23171   -23341   -23006   -23481   -25030 
  -24769   -23178   -23575   -24673   -23946   -23390   -24277   -24541 
  -24333   -24892   -24769   -23839   -24017   -24958   -25606   -25944 
  -24895   -23041   -23688   -25732   -25636   -25254   -25224   -22675 
  -21313   -24642   -26859   -25149   -23672   -23394   -23328   -24189 
  -25280   -25374   -24525   -23514   -23913   -25547   -26354   -26187 
  -25378   -23930   -23862   -25590   -26391   -25577   -24503   -23770 
  -24046   -25096   -25196   -24786   -25278   -24937   -23444   -23683 
  -24636   -24128   -24135   -24499   -23853   -24667   -26248   -25402 
  -24385   -25000   -25281   -25829   -26904   -25620   -23120   -23368 
  -25126   -25316   -24725   -24653   -24629   -24312   -23846   -23442 
  -23665   -24522   -24714   -24030   -23603   -23074   -22416   -22900 
  -23769   -24264   -25222   -25604   -24830   -24738   -24830   -24401 
  -25425   -26223   -24098   -22729   -24480   -25550   -24734   -24048 
  -22924   -22279   -24617   -26034   -23171   -21811   -24386   -25174 
  -23688   -23836   -24873   -25369   -25902   -25712   -24673   -24578 
  -25143   -24328   -23080   -23892   -26019   -26801   -25257   -23398 
  -24244   -26180   -24880   -22620   -24013   -26129   -25546   -24807 
  -24965   -24580   -24337   -24267   -23986   -24690   -24779   -22945 
  -22805   -24668   -24802   -24476   -25762   -26107   -24799   -24016 
  -24300   -25095   -25162   -23946   -24027   -25833   -25413   -23279 
  -23618   -25070   -25199   -25469   -25475   -24283   -23797   -23938 
  -23832   -24622   -25293   -24328   -23026   -22608   -23411   -24709 
  -24860   -24510   -24652   -24074   -23426   -24310   -25265   -25429 
  -25612   -24900   -23631   -23998   -24814   -24291   -24597   -26190 
  -26230   -24939   -23992   -23553   -24474   -25602   -24821   -24536 
  -25747   -24981   -22977   -23241   -24538   -24259   -23384   -24108 
  -25220   -23946   -22513   -24190   -25509   -23743   -23168   -25348 
  -26245   -25104   -24790   -25805   -26388   -25867   -25389   -25891 
  -26211   -24950   -23839   -24869   -25660   -24526   -24142   -24690 
  -24097   -23870   -24480   -23710   -22943   -23873   -24347   -24208 
  -25081   -25440   -24262   -23646   -24611   -25524   -25010   -24189 
  -24638   -25290   -24957   -24702   -24394   -23309   -23372   -24590 
  -24143   -23383   -24327   -24324   -23348   -23961   -24491   -24347 
  -25701   -26171   -23515   -21670   -22975   -25056   -26225   -25758 
  -24052   -23673   -24854   -25097   -24872   -25824   -26113   -24814 
  -24329   -24610   -23911   -23708   -24826   -24996   -23712   -22647 
  -22924   -24389   -25258   -24981   -25169   -25366   -24433   -23660 
  -23525   -23394   -24078   -25497   -25790   -24817   -24181   -24543 
  -25474   -25952   -25172   -24402   -24977   -25296   -24476   -24541 
  -25438   -24887   -23444   -23649   -25213   -25313   -24332   -24867 
  -25328   -24108   -24000   -25255   -24698   -22935   -23024   -24194 
  -23893   -23418   -24452   -24549   -23130   -23588   -25617   -26244 
  -25999   -25683   -24798   -24219   -24067   -24036   -24937   -25701 
  -24835   -23854   -24270   -24923   -24123   -22653   -23275   -25419 
  -25509   -24448   -24835   -24733   -23923   -24740   -24857   -22962 
  -22593   -23974   -25111   -25859   -25004   -23180   -23103   -23877 
  -24135   -24544   -24660   -24592   -25436   -25918   -24178   -21645 
  -21789   -25018   -27113   -25899   -24516   -24445   -24688   -25901 
  -26603   -24899   -23812   -24452   -24390   -24457   -24760   -23618 
  -23507   -24922   -24522   -24043   -25205   -24999   -24466   -25731 
  -25705   -24248   -24459   -25027   -24718   -25142   -25104   -23866 
  -24374   -25748   -24911   -24259   -25142   -24734   -24457   -26339 
  -26244   -23067   -22350   -24989   -26183   -25107   -24723   -24718 
  -23287   -22809   -24351   -24335   -23468   -24517   -24494   -22586 
  -22500   -23946   -25089   -25915   -25610   -24803   -24669   -23878 
  -23290   -24987   -26007   -24136   -22900   -23687   -24121   -24532 
  -25548   -25369   -24945   -25903   -25602   -23809   -24359   -26064 
  -25381   -24381   -25213   -25550   -24471   -23746   -23738   -23870 
  -24096   -23905   -23253   -23602   -24948   -25122   -24363   -24808 
  -25593   -25078   -24154   -23383   -22870   -23766   -25393   -25920 
  -25717   -25786   -26211   -26215   -24898   -24120   -25084   -24587 
  -23298   -24934   -25533   -22626   -22800   -25822   -24819   -22670 
  -23799   -24005   -22684   -24146   -26589   -26833   -26331   -25223 
  -23176   -23048   -24432   -24008   -23384   -24625   -25315   -24803 
  -24443   -23687   -23477   -24952   -25393   -23977   -23643   -24106 
  -23313   -23129   -24900   -25726   -24609   -23742   -23456   -23768 
  -25536   -26707   -25398   -24013   -24094   -24129   -24426   -25726 
  -25536   -23037   -21579   -22423   -23772   -25111   -25609   -24405 
  -23885   -24690   -24254   -23523   -24699   -26353   -26784   -25937 
  -24629   -24387   -24696   -23849   -23572   -25273   -26121   -25398 
  -25154   -24637   -23610   -23468   -23471   -23804   -24984   -24964 
  -23976   -23873   -24008   -24750   -26437   -25710   -22485   -22022 
  -24962   -26516   -25456   -24463   -24268   -24046   -23801   -23110 
  -22229   -22879   -24503   -25508   -26114   -25369   -23391   -23742 
  -25508   -24723   -24167   -26249   -26622   -25069   -25235   -25415 
  -24447   -24713   -25357   -25085   -25195   -25353   -25128   -25087 
  -24183   -23175   -24111   -24933   -24071   -23830   -24229   -23900 
  -24264   -25381   -25124   -23755   -23654   -25407   -26419   -25739 
  -25204   -24143   -23191   -25207   -26171   -23064   -22076   -24162 
  -24005   -23427   -25137   -26055   -25544   -25459   -25215   -24279 
  -23394   -23737   -25228   -24966   -22762   -22628   -24586   -25353 
  -25073   -25031   -24942   -24808   -24580   -24212   -24511   -25245 
  -25020   -24048   -24048   -24806   -24178   -23058   -23741   -24075 
  -22913   -23731   -25778   -25223   -23800   -23984   -24621   -25894 
  -27305   -25915   -23615   -23585   -23233   -22856   -25756   -27819 
  -25801   -24221   -24552   -24459   -24412   -24822   -24980   -25393 
  -25675   -24738   -24163   -25111   -25084   -23492   -23341   -24730 
  -25392   -25785   -26366   -25721   -24306   -23566   -23835   -25304 
  -26088   -24106   -22038   -22287   -23079   -23514   -23647   -23346 
  -23993   -24896   -23908   -23202   -24759   -25429   -24217   -24317 
  -25475   -25537   -24988   -23951   -23449   -25203   -25829   -23679 
  -23337   -23930   -22800   -24297   -27095   -25825   -24452   -25084 
  -23781   -22559   -23384   -23738   -24686   -26046   -24729   -23328 
  -24050   -24200   -24229   -25083   -24557   -23799   -25043   -26241 
  -26329   -26299   -24894   -22761   -23217   -24570   -24003   -24372 
  -25755   -24301   -22728   -24092   -24489   -23677   -24633   -24462 
  -22904   -24467   -26419   -24831   -23600   -24264   -24362   -25332 
  -26898   -26107   -25041   -24942   -23932   -24615   -26860   -25178 
  -22482   -24321   -26207   -25089   -24372   -23850   -22766   -23171 
  -24131   -24092   -24159   -24638   -24983   -25019   -24471   -24100 
  -24598   -25350   -25944   -25380   -23561   -23427   -24821   -24366 
  -23804   -25527   -26414   -25440   -24742   -23618   -22928   -24557 
  -24995   -23512   -24105   -24723   -23670   -24741   -25752   -23224 
  -22215   -24995   -26553   -25623   -24534   -23935   -24660   -26553 
  -27120   -25722   -24424   -24555   -25258   -24861   -23773   -24185 
  -25326   -24786   -24394   -25810   -25837   -23971   -23472   -23606 
  -23090   -23930   -25080   -24368   -23988   -24915   -25357   -25458 
  -25343   -24883   -25265   -25366   -24125   -23973   -24765   -23892 
  -23269   -24826   -24983   -22810   -22138   -22951   -23850   -25354 
  -24718   -21861   -22424   -24741   -23774   -23661   -26055   -25548 
  -23587   -23907   -24580   -25351   -26176   -25015   -24271   -25188 
  -24271   -23272   -24860   -25188   -24301   -25053   -24625   -23460 
  -24651   -24665   -22817   -23851   -26279   -26424   -25531   -24767 
  -24270   -24302   -24422   -25199   -25832   -24695   -24221   -25056 
  -24109   -23174   -24734   -25593   -24561   -23990   -23932   -24304 
  -25242   -24992   -24597   -25820   -25848   -23959   -23278   -23922 
  -24291   -24266   -24131   -24455   -24660   -23472   -22862   -24059 
  -23930   -22697   -23311   -23688   -22563   -23256   -25242   -25081 
  -23800   -23723   -24058   -24115   -24857   -25587   -24995   -24679 
  -25371   -25083   -24370   -24996   -25691   -25458   -25143   -24964 
  -25089   -25581   -25475   -24691   -24023   -23680   -23546   -23553 
  -24471   -25807   -24995   -23446   -24466   -25551   -24840   -25614 
  -26905   -25326   -23912   -25034   -25408   -24730   -25880   -27384 
  -26381   -24449   -24047   -24484   -24225   -23823   -24595   -24930 
  -22707   -20969   -23095   -25721   -24723   -22230   -22115   -23774 
  -24190   -23954   -25219   -25926   -24598   -23859   -24449   -25431 
  -26144   -24549   -22253   -23010   -24322   -24148   -25208   -26168 
  -24975   -24187   -24177   -23684   -23963   -24642   -23928   -23171 
  -24216   -25531   -25231   -24109   -23388   -23334   -23861   -24607 
  -25473   -25587   -24092   -23256   -24661   -25415   -24351   -24051 
  -24476   -24101   -23504   -22991   -23153   -24259   -23841   -22511 
  -24113   -26183   -24364   -22261   -23427   -24460   -23907   -24576 
  -26023   -25708   -24117   -23198   -23140   -23369   -24178   -24903 
  -24374   -23731   -24278   -25137   -25119   -24104   -23302   -24067 
  -25772   -27310   -28113   -27013   -25226   -25589   -26519   -25602 
  -24975   -26173   -26993   -26007   -25388   -26667   -27402   -26673 
  -26285   -25326   -24156   -25591   -26727   -24848   -24313   -25632 
  -25347   -25242   -25435   -23584   -23367   -26055   -26296   -24541 
  -25045   -25901   -25173   -25083   -25196   -24039   -23712   -24301 
  -23238   -22027   -23078   -24375   -24178   -23880   -24252   -24649 
  -24887   -25431   -26304   -26153   -24502   -23896   -25627   -26823 
  -25882   -24818   -24637   -24846   -25192   -24873   -23616   -22682 
  -23457   -24894   -24158   -22569   -23904   -26176   -25494   -23579 
  -23660   -24833   -24655   -24177   -25532   -26613   -25235   -23749 
  -24061   -24937   -24760   -22990   -21506   -21942   -22419   -22596 
  -23801   -24106   -23545   -24740   -25587   -24061   -23373   -24934 
  -26188   -26118   -26094   -26595   -25735   -23487   -23782   -26165 
  -25979   -24721   -24588   -22821   -21452   -23645   -24548   -22207 
  -21347   -22007   -21745   -22018   -22927   -22231   -21076   -22261 
  -24524   -24977   -24283   -24089   -24279   -24949   -25910   -25834 
  -24656   -24046   -24833   -25573   -24803   -24408   -26211   -27039 
  -24706   -22527   -22539   -23404   -24186   -24491   -24807   -25587 
  -25478   -24999   -26100   -27017   -26271   -25839   -26315   -27515 
  -29181   -28372   -24921   -23458   -25392   -27313   -26680   -24495 
  -23197   -23055   -22655   -21710   -20677   -20367   -21775   -23660 
  -23886   -22547   -21127   -21411   -23511   -25311   -25490   -24085 
  -22673   -23549   -25293   -24644   -22167   -20088   -19284   -20815 
  -24069   -25725   -24958   -23668   -22299   -20930   -20191   -20358 
  -22504   -26468   -28633   -27583   -26724   -27405   -28098   -29640 
  -31587   -29740   -24906   -23221   -24520   -24005   -22902   -23484 
  -22967   -21672   -22862   -25131   -26643   -27930   -27958   -26022 
  -24429   -25191   -26337   -25793   -26110   -27951   -27583   -26310 
  -28143   -31742   -35662   -38901   -36621   -28885   -22266   -18214 
  -15446   -15917   -18439   -20352   -22219   -22742   -22690   -27087 
  -31336   -26921   -20784   -23211   -29543   -31187   -28956   -28732 
  -31147   -30046   -24676   -22520   -23676   -21590   -18978   -21134 
  -24390   -25745   -26090   -22855   -16363   -12962   -12910   -12402 
  -14353   -18994   -20479   -21925   -26542   -24884   -18573   -21606 
  -28293   -27507   -28177   -33613   -32397   -26129   -25870   -29497 
  -28290   -23182   -20939   -22624   -25463   -28525   -28733   -24888 
  -24386   -28058   -26009   -19943   -20437   -25548   -27375   -25224 
  -22489   -22966   -26626   -27445   -23880   -22878   -26304   -28385 
  -27399   -24556   -20358   -18474   -19357   -18129   -16546   -18320 
  -18374   -16272   -19537   -24277   -22990   -22686   -27877   -30951 
  -30491   -30333   -27927   -22522   -18813   -18636   -21959   -28255 
  -33816   -36757   -36774   -31699   -25566   -24630   -23954   -19121 
  -16995   -19955   -23433   -28008   -33389   -34473   -28941   -20135 
  -17489   -22798   -24009   -21786   -26662   -30294   -24409   -19651 
  -21043   -22902   -23731   -22914   -21763   -24594   -27828   -27622 
  -26728   -23851   -20580   -22339   -22725   -20166   -25778   -32467 
  -26960   -22072   -26817   -26854   -20857   -22901   -30094   -29681 
  -23549   -21631   -23001   -21161   -20471   -24921   -24591   -17575 
  -16756   -22759   -26596   -28790   -29245   -25195   -22362   -22850 
  -21903   -22555   -26218   -26558   -26515   -31050   -32659   -29100 
  -28345   -28925   -26061   -25677   -28981   -27140   -21728   -21174 
  -22297   -21415   -24155   -29444   -28236   -21586   -20206   -26536 
  -32171   -33361   -32279   -27141   -20077   -19537   -23098   -21656 
  -18750   -21744   -25701   -24617   -22451   -21855   -20440   -20372 
  -24009   -26325   -24336   -22261   -21436   -19117   -16960   -18922 
  -23828   -25579   -21438   -18346   -21512   -24754   -25606   -28028 
  -27635   -24761   -29331   -32784   -23619   -18592   -25817   -27484 
  -23157   -22707   -19796   -17170   -22447   -25371   -24887   -29430 
  -29956   -24723   -27152   -30951   -25143   -21128   -24862   -26063 
  -24159   -25316   -26304   -23936   -22832   -25365   -27027   -25458 
  -24453   -25357   -26599   -29069   -29620   -24827   -22258   -26127 
  -27271   -23498   -22509   -22734   -21047   -22254   -24295   -23117 
  -23580   -24729   -21780   -21546   -27349   -28979   -24047   -21469 
  -21929   -20845   -21358   -24489   -24322   -21726   -20839   -19927 
  -20252   -24131   -26252   -25023   -25880   -27333   -26298   -28242 
  -32610   -30879   -26590   -27989   -30622   -29592   -27511   -25459 
  -24313   -25270   -25807   -25586   -26163   -26167   -25386   -23882 
  -22022   -22400   -21546   -16464   -15327   -20756   -26369   -30708 
  -29135   -20452   -19570   -26098   -23646   -20707   -27357   -28174 
  -22950   -25810   -29295   -28385   -30380   -27796   -18863   -18422 
  -22906   -21527   -21647   -23608   -20127   -19008   -22199   -20503 
  -19527   -24702   -25857   -21591   -19836   -19603   -19044   -20776 
  -23931   -24460   -20503   -17718   -22377   -28094   -27098   -25015 
  -27220   -29342   -29479   -30352   -31892   -32745   -31831   -29739 
  -30063   -31671   -29844   -27045   -26725   -26399   -25528   -24937 
  -23179   -22549   -24182   -22424   -18859   -21316   -24884   -23409 
  -25131   -31310   -31094   -26217   -23839   -19942   -16830   -21918 
  -25389   -20985   -21913   -28143   -27251   -24081   -24077   -21011 
  -17921   -19703   -21023   -21659   -24194   -25505   -27094   -29081 
  -24992   -20582   -24841   -27911   -23512   -22616   -26626   -26817 
  -23448   -20989   -22761   -27198   -24943   -18021   -18586   -21405 
  -18686   -19840   -25717   -27259   -27118   -26929   -24698   -27091 
  -31434   -27569   -23969   -27051   -24570   -17626   -18187   -21845 
  -23195   -24953   -25262   -25922   -29417   -27108   -21127   -24591 
  -29135   -23379   -21250   -28197   -28024   -21647   -22653   -25759 
  -24576   -25134   -25031   -22025   -24193   -28193   -27143   -27411 
  -28532   -24966   -24020   -26771   -25396   -25857   -31325   -30235 
  -24445   -24921   -27291   -27639   -30079   -30639   -27226   -26029 
  -25597   -23251   -25085   -29034   -25004   -18018   -18589   -19931 
  -15349   -13093   -15782   -17712   -20780   -25834   -26273   -22905 
  -22200   -22914   -22855   -25679   -30241   -29897   -25884   -24844 
  -26154   -25717   -24435   -24876   -27055   -28507   -27311   -25972 
  -26075   -23970   -20208   -20468   -23558   -24518   -24344   -24640 
  -24557   -24719   -24694   -23754   -22859   -21190   -19978   -22765 
  -26619   -26325   -22636   -19414   -19033   -20749   -22354   -23228 
  -25137   -27989   -27641   -25600   -27801   -29812   -26407   -25402 
  -29201   -28019   -23167   -24085   -27796   -28509   -27924   -26292 
  -23923   -23730   -24510   -24385   -23491   -20613   -18322   -21321 
  -26460   -27893   -25783   -23175   -22530   -23215   -22970   -24225 
  -27710   -26950   -21672   -19799   -22797   -25793   -26163   -24923 
  -24948   -26083   -24597   -21030   -21035   -25428   -28437   -28621 
  -29643   -30477   -28765   -26887   -26218   -26647   -28088   -26981 
  -23629   -23538   -24039   -21531   -21658   -23512   -20964   -19314 
  -21504   -19905   -17223   -20449   -20931   -15344   -16482   -24187 
  -27577   -28458   -29855   -28787   -26959   -24952   -22650   -25816 
  -32256   -32938   -30358   -29124   -25870   -22731   -23330   -23130 
  -22476   -25212   -26979   -25965   -25563   -24503   -23082   -23808 
  -23691   -21905   -21438   -21195   -21473   -23506   -22743   -19865 
  -20641   -21747   -21498   -25632   -30555   -29551   -26288   -24823 
