Origin Time       2024/04/02 04:24:00
Lat.              40.133
Long.             141.712
Depth. (km)       71
Mag.              6.0
Station Code      MYGH08
Station Lat.      38.1133
Station Long.     140.8441
Station Height(m) -90
Record Time       2024/04/02 04:25:11
Sampling Freq(Hz) 100Hz
Duration Time(s)  147
Dir.              1
Scale Factor      3923(gal)/8224838
Max. Acc. (gal)   7.211
Last Correction   2024/04/02 04:25:12
Memo.             
[...]
  -15712   -15412   -15294   -15651   -15903   -15704   -15587   -15881 
  -15962   -15514   -15260   -15518   -15654   -15337   -14850   -14492 
  -14454   -14667   -14783   -14558   -14237   -14343   -14818   -14904 
  -14408   -14068   -14276   -14628   -14778   -14790   -14783   -14786 
  -14860   -15028   -15094   -14983   -14924   -14949   -14964   -15141 
  -15407   -15442   -15380   -15445   -15526   -15538   -15514   -15454 
  -15318   -15138   -15078   -15099   -14891   -14382   -14004   -14172 
  -14674   -14975   -14937   -14785   -14796   -15082   -15260   -15020 
  -14715   -14615   -14538   -14465   -14521   -14639   -14773   -14989 
  -15218   -15334   -15349   -15340   -15400   -15581   -15720   -15668 
  -15462   -15129   -14871   -15048   -15471   -15577   -15400   -15400 
  -15566   -15533   -15383   -15417   -15364   -14959   -14704   -14964 
  -15263   -15098   -14702   -14584   -14762   -14986   -15230   -15529 
  -15809   -15924   -15778   -15465   -15187   -15157   -15286   -15120 
  -14689   -14600   -14917   -15088   -15060   -15246   -15607   -15778 
  -15693   -15502   -15365   -15350   -15354   -15214   -14881   -14621 
  -14764   -15134   -15287   -15165   -15021   -14929   -14871   -14894 
  -14885   -14801   -14833   -15010   -15070   -14847   -14673   -14899 
  -15256   -15408   -15375   -15151   -14847   -14820   -15045   -14920 
  -14303   -14004   -14424   -14801   -14609   -14462   -14863   -15275 
  -15249   -15218   -15390   -15361   -15188   -15321   -15626   -15631 
  -15303   -14886   -14565   -14459   -14489   -14573   -14794   -15048 
  -15059   -14786   -14551   -14661   -14863   -14800   -14663   -14673 
  -14804   -14993   -15144   -15317   -15529   -15630   -15669   -15654 
  -15527   -15488   -15525   -15259   -14782   -14692   -15079   -15310 
  -15120   -15059   -15429   -15608   -15080   -14436   -14450   -14868 
  -15074   -15097   -15199   -15288   -15304   -15407   -15471   -15203 
  -14847   -14953   -15450   -15537   -14956   -14563   -14940   -15502 
  -15473   -15009   -14867   -15238   -15576   -15519   -15325   -15438 
  -15878   -16062   -15651   -15171   -15101   -15202   -15016   -14557 
  -14513   -15180   -15692   -15391   -14844   -14821   -15213   -15381 
  -14999   -14420   -14283   -14678   -15093   -15024   -14515   -14347 
  -14945   -15411   -15007   -14598   -15064   -15653   -15487   -15120 
  -15213   -15385   -15340   -15411   -15411   -14844   -14311   -14725 
  -15510   -15460   -14856   -14804   -15163   -14997   -14295   -13898 
  -14187   -14635   -14715   -14550   -14432   -14513   -14894   -15246 
  -15137   -15010   -15367   -15606   -15196   -14720   -14852   -15361 
  -15599   -15342   -14848   -14566   -14747   -15059   -14980   -14688 
  -14831   -15311   -15387   -15051   -15028   -15547   -15994   -15904 
  -15576   -15349   -15264   -15290   -15192   -14840   -14581   -14710 
  -14898   -14805   -14697   -14955   -15439   -15657   -15487   -15311 
  -15304   -15296   -15182   -15071   -15144   -15318   -15300   -15056 
  -14831   -14891   -15269   -15535   -15315   -14898   -14813   -15066 
  -15172   -14901   -14592   -14621   -14908   -14989   -14683   -14472 
  -14756   -15259   -15549   -15454   -15034   -14829   -15267   -15778 
  -15691   -15252   -15024   -15086   -15052   -14805   -14783   -15076 
  -15130   -14725   -14342   -14391   -14697   -14870   -14774   -14547 
  -14370   -14386   -14612   -14820   -14821   -14833   -15134   -15654 
  -16062   -16051   -15699   -15411   -15449   -15676   -15804   -15673 
  -15277   -14871   -14921   -15457   -15699   -15078   -14295   -14241 
  -14607   -14756   -14812   -14990   -15009   -14797   -14898   -15395 
  -15473   -15028   -14983   -15414   -15395   -14814   -14547   -14921 
  -15372   -15465   -15364   -15441   -15732   -15889   -15646   -15161 
  -14924   -15167   -15503   -15480   -15246   -15287   -15549   -15510 
  -15118   -14854   -14995   -15372   -15557   -15345   -15125   -15218 
  -15318   -15259   -15265   -15330   -15309   -15271   -15287   -15284 
  -15218   -15080   -14897   -14786   -14833   -14976   -15126   -15275 
  -15406   -15454   -15350   -15088   -14878   -14882   -14982   -15055 
  -15036   -14872   -14805   -15101   -15456   -15358   -14921   -14725 
  -15025   -15421   -15425   -15061   -14698   -14635   -14831   -14845 
  -14488   -14222   -14438   -14747   -14553   -14149   -14368   -15059 
  -15256   -14941   -14874   -15051   -15006   -14756   -14585   -14505 
  -14376   -14339   -14457   -14368   -14150   -14350   -14713   -14540 
  -14276   -14797   -15564   -15429   -14632   -14347   -14743   -14985 
  -14866   -14901   -15194   -15408   -15487   -15681   -15898   -15888 
  -15873   -15958   -15809   -15537   -15577   -15830   -15716   -15088 
  -14585   -14585   -14634   -14435   -14246   -14273   -14426   -14604 
  -14909   -15279   -15480   -15546   -15527   -15437   -15503   -15722 
  -15646   -15176   -14864   -15093   -15568   -15815   -15750   -15650 
  -15685   -15820   -15925   -15735   -15268   -15002   -15059   -14960 
  -14521   -14261   -14523   -14867   -14823   -14551   -14388   -14531 
  -14975   -15336   -15317   -15176   -15290   -15477   -15253   -14759 
  -14623   -14980   -15369   -15385   -15186   -15184   -15304   -15109 
  -14728   -14740   -15057   -15137   -15045   -15156   -15325   -15287 
  -15196   -15134   -14936   -14766   -14928   -15210   -15199   -15039 
  -15097   -15079   -14546   -14050   -14366   -15048   -15190   -14955 
  -15110   -15484   -15345   -15032   -15210   -15445   -15399   -15493 
  -15577   -15199   -14878   -15246   -15700   -15430   -14956   -15147 
  -15577   -15371   -14824   -14744   -14968   -14926   -14771   -14833 
  -14833   -14570   -14563   -15018   -15174   -14713   -14420   -14739 
  -14935   -14546   -14409   -14906   -15025   -14342   -13825   -14218 
  -15043   -15403   -15217   -15115   -15369   -15676   -15734   -15520 
  -15263   -15182   -15234   -15234   -15087   -14904   -14870   -14925 
  -14779   -14484   -14536   -14940   -15006   -14636   -14584   -15133 
  -15614   -15391   -14770   -14636   -15241   -15808   -15705   -15288 
  -15190   -15354   -15323   -15126   -15068   -15020   -14771   -14585 
  -14671   -14812   -14912   -15129   -15250   -14956   -14746   -15232 
  -15781   -15527   -15013   -15190   -15747   -15846   -15623   -15635 
  -15564   -15057   -14844   -15358   -15765   -15545   -15346   -15593 
  -15824   -15746   -15584   -15302   -14786   -14365   -14291   -14347 
  -14295   -14246   -14289   -14289   -14307   -14527   -14806   -14862 
  -14833   -15056   -15445   -15761   -15954   -15951   -15704   -15326 
  -14985   -14794   -14750   -14855   -15040   -14983   -14654   -14459 
  -14559   -14701   -14704   -14674   -14748   -14858   -14943   -15021 
  -14904   -14573   -14401   -14439   -14507   -14644   -14781   -14782 
  -14752   -14844   -15076   -15319   -15410   -15388   -15419   -15461 
  -15442   -15522   -15777   -16002   -16079   -16201   -16329   -16109 
  -15741   -15758   -15959   -15826   -15439   -15156   -15114   -15286 
  -15377   -15153   -14914   -14999   -15342   -15622   -15654   -15774 
  -16301   -16914   -17093   -16823   -16617   -16694   -16657   -16291 
  -15913   -15882   -16120   -16048   -15492   -15113   -15178   -15182 
  -14864   -14467   -14370   -14683   -15068   -15199   -15099   -15045 
  -15354   -15873   -16044   -15812   -15589   -15583   -15712   -15731 
  -15491   -15192   -15063   -15033   -14829   -14389   -14071   -14018 
  -13973   -13948   -14062   -14099   -14008   -14037   -14199   -14304 
  -14250   -14145   -14224   -14430   -14490   -14405   -14293   -14249 
  -14337   -14307   -13976   -13778   -14085   -14535   -14601   -14311 
  -14077   -14181   -14412   -14319   -13990   -13919   -14123   -14154 
  -13849   -13616   -13717   -13751   -13575   -13536   -13560   -13443 
  -13417   -13618   -13853   -14056   -14435   -14894   -14979   -14764 
  -14689   -14546   -13913   -13259   -13324   -13763   -13876   -13811 
  -13911   -14138   -14453   -14787   -14964   -14970   -15105   -15657 
  -16337   -16602   -16438   -16325   -16518   -16807   -17039   -17293 
  -17512   -17609   -17732   -17882   -17776   -17406   -17035   -16653 
  -16087   -15514   -15282   -15318   -15252   -15044   -15006   -15403 
  -16033   -16362   -16247   -16129   -16397   -16942   -17292   -17147 
  -16826   -16812   -17023   -17038   -16733   -16428   -16509   -16807 
  -16784   -16332   -15971   -16163   -16511   -16291   -15561   -14968 
  -14931   -15138   -14962   -14519   -14337   -14289   -14138   -14068 
  -14177   -14505   -15070   -15485   -15380   -15090   -15075   -15022 
  -14524   -13925   -13594   -13528   -13645   -13568   -13011   -12536 
  -12868   -13676   -13999   -13795   -13911   -14501   -14898   -14937 
  -14899   -14721   -14458   -14418   -14497   -14409   -14211   -14152 
  -14262   -14295   -14273   -14503   -14802   -14769   -14538   -14474 
  -14494   -14239   -13863   -13779   -13914   -14096   -14339   -14476 
  -14307   -13907   -13703   -13990   -14392   -14520   -14543   -14679 
  -14941   -15273   -15435   -15318   -15391   -15971   -16483   -16305 
  -15803   -15722   -15907   -15584   -14758   -14191   -14168   -14251 
  -14114   -13938   -13927   -13934   -13954   -14258   -14685   -14829 
  -14841   -14975   -15097   -15263   -15777   -16546   -17041   -16945 
  -16621   -16533   -16613   -16599   -16395   -16140   -16144   -16360 
  -16249   -15573   -14890   -14816   -15066   -14887   -14320   -14211 
  -14665   -14866   -14669   -14669   -15066   -15577   -15939   -16039 
  -15853   -15653   -15820   -16150   -16163   -16108   -16510   -17012 
  -16885   -16290   -15909   -15838   -15765   -15711   -15739   -15597 
  -15356   -15398   -15583   -15429   -14958   -14706   -14908   -15175 
  -15288   -15449   -15550   -15259   -14775   -14661   -14878   -14893 
  -14844   -15250   -15716   -15489   -14787   -14349   -14189   -13888 
  -13728   -14162   -14670   -14586   -14208   -14037   -14098   -14339 
  -14573   -14427   -14006   -13887   -14270   -14712   -14825   -14766 
  -14790   -14877   -14964   -14932   -14592   -14377   -14952   -15777 
  -15789   -15179   -14931   -15250   -15487   -15264   -14867   -14631 
  -14774   -15261   -15471   -15037   -14723   -15327   -16123   -15823 
  -14883   -14725   -15317   -15537   -15102   -14813   -15179   -15705 
  -15838   -15634   -15286   -14994   -14990   -15040   -14648   -13932 
  -13575   -13845   -14211   -14146   -13942   -14173   -14737   -15174 
  -15402   -15651   -15990   -16119   -15846   -15406   -15024   -14863 
  -15052   -15259   -15060   -14634   -14427   -14589   -14872   -14972 
  -14893   -14832   -14882   -14920   -14793   -14648   -14717   -14982 
  -15353   -15714   -15805   -15583   -15377   -15287   -15184   -15179 
  -15353   -15588   -15618   -15298   -15006   -14947   -14744   -14392 
  -14287   -14431   -14562   -14539   -14353   -14146   -14158   -14418 
  -14593   -14540   -14677   -15184   -15634   -15773   -15823   -15911 
  -15809   -15531   -15500   -15687   -15658   -15550   -15695   -15731 
  -15381   -15384   -16085   -16411   -15697   -14855   -14810   -15223 
  -15399   -15430   -15612   -15687   -15473   -15306   -15288   -15184 
  -15095   -15093   -14956   -14845   -15037   -15269   -15241   -15053 
  -14928   -14999   -15182   -15144   -14914   -15044   -15762   -16579 
  -16862   -16614   -16475   -16636   -16545   -16090   -15742   -15581 
  -15353   -15110   -15037   -15018   -14912   -14713   -14322   -13849 
  -13710   -13890   -13807   -13344   -13194   -13599   -13813   -13554 
  -13498   -13963   -14499   -14652   -14543   -14554   -14625   -14733 
  -15110   -15363   -15016   -14535   -14455   -14584   -14623   -14643 
  -14621   -14281   -13736   -13506   -13724   -13971   -13892   -13558 
  -13217   -13047   -13200   -13509   -13494   -13279   -13548   -14257 
  -14631   -14380   -13971   -13844   -14129   -14737   -15091   -14806 
  -14534   -14835   -15267   -15348   -15315   -15591   -16004   -16141 
  -16144   -16217   -16150   -16013   -16120   -16432   -16723   -16742 
  -16452   -16268   -16389   -16501   -16479   -16537   -16794   -17076 
  -17126   -16993   -17000   -17298   -17517   -17185   -16750   -16961 
  -17510   -17703   -17563   -17537   -17736   -17720   -17257   -16895 
  -17078   -17446   -17671   -17849   -17860   -17618   -17536   -17861 
  -18180   -18072   -17821   -17890   -18053   -17803   -17064   -16077 
  -15182   -14624   -14401   -14345   -14165   -13743   -13250   -12756 
  -12299   -12093   -12168   -12179   -11805   -11434   -11709   -12310 
  -12557   -12622   -13012   -13720   -14234   -14057   -13336   -12702 
  -12526   -12611   -12492   -12258   -12391   -12760   -12799   -12258 
  -11402   -10782   -10540   -10497   -10663   -11057   -11730   -12522 
  -12933   -13170   -13981   -15304   -16348   -16563   -16229   -16058 
  -16235   -16429   -16313   -15700   -14710   -13759   -12958   -11820 
  -10088    -8372    -7257    -6504    -5903    -5933    -6820    -8070 
   -9347   -10918   -12941   -14953   -16503   -17763   -19188   -20956 
  -22770   -24136   -24888   -25363   -25864   -26252   -26038   -24842 
  -23017   -21433   -20333   -19170   -17741   -16349   -14766   -12491 
   -9830    -7592    -6126    -5278    -5178    -6323    -8394   -10295 
  -11893   -14152   -17315   -20555   -23380   -25883   -27893   -29112 
  -29754   -30192   -30195   -29404   -28047   -26343   -24115   -21612 
  -19407   -17334   -14912   -12274    -9668    -7275    -5691    -5262 
   -5597    -6273    -7064    -7835    -8544    -9202   -10123   -11522 
  -13093   -14567   -15811   -16681   -17331   -17994   -18709   -19338 
  -19462   -18891   -17994   -16933   -15515   -13821   -12258   -11296 
  -11071   -11149   -11030   -10739   -10625   -10797   -11063   -11354 
  -11873   -12748   -13815   -14881   -15664   -15741   -15203   -14748 
  -14783   -15022   -15098   -15271   -15900   -16456   -16151   -15006 
  -13606   -12432   -11496   -10683   -10191   -10044   -10068   -10454 
  -11165   -11619   -11774   -12329   -13648   -15176   -15973   -15990 
  -15969   -16073   -16024   -16121   -16960   -18462   -19808   -20186 
  -19504   -18445   -17801   -17928   -18327   -18250   -17917   -17647 
  -16825   -15159   -13512   -12977   -13572   -14355   -14920   -15553 
  -16324   -16884   -16792   -16217   -15804   -15731   -15876   -16183 
  -16665   -17491   -18409   -18739   -18387   -17848   -17528   -17342 
  -16862   -16081   -15434   -15153   -14989   -14234   -12645   -11121 
  -10396   -10168   -10160   -10446   -10883   -11460   -12371   -13258 
  -13504   -13329   -13468   -13922   -14111   -14096   -14650   -15836 
  -16892   -17844   -19321   -21089   -22388   -22721   -21794   -19539 
  -16650   -14481   -13416   -12506   -11605   -11713   -12942   -14131 
  -14407   -14084   -14041   -14636   -15469   -16015   -16452   -17270 
  -18204   -18760   -19093   -19514   -20073   -20526   -20451   -19737 
  -18504   -16900   -15047   -12955   -10860    -9113    -7850    -7033 
   -6629    -7140    -8955   -11101   -12556   -13778   -15264   -16359 
  -16464   -16244   -16617   -17154   -16981   -16729   -17537   -19001 
  -19747   -19071   -17462   -15963   -15110   -14598   -13609   -12005 
  -11001   -11048   -10894    -9836    -8864    -9296   -11134   -13300 
  -15007   -16106   -16869   -17589   -18144   -18401   -18554   -18891 
  -19283   -18959   -17514   -15730   -14727   -14473   -13898   -12630 
  -11410   -10860   -10743   -10493   -10135   -10129   -10683   -11727 
  -12899   -13533   -13437   -13405   -13927   -14407   -14378   -14084 
  -13930   -14224   -15071   -16274   -17317   -17879   -18300   -18794 
  -18993   -18774   -18542   -18404   -17753   -16078   -13799   -12010 
  -11469   -11857   -12322   -12650   -13331   -14526   -15568   -15982 
  -16233   -16738   -17251   -17568   -17744   -17612   -17051   -16521 
  -16633   -17419   -18428   -19192   -19503   -19410   -19074   -18657 
  -18231   -17741   -17049   -16127   -15295   -14967   -15088   -15102 
  -14393   -13247   -12914   -13740   -14640   -14804   -14449   -14296 
  -14787   -15349   -14916   -13539   -12667   -13347   -14685   -14905 
  -13911   -13257   -13343   -13105   -12402   -12272   -12989   -13568 
  -13483   -13373   -13701   -14241   -14597   -14482   -13938   -13435 
  -13636   -14743   -16013   -16637   -16598   -16221   -15797   -15662 
  -15924   -16351   -16757   -16845   -16164   -14899   -13809   -13501 
  -13973   -14629   -15237   -16013   -16822   -17514   -17896   -17416 
  -16295   -15572   -15464   -15377   -15275   -15622   -16239   -16324 
  -15558   -14461   -13755   -13707   -13990   -14256   -14519   -14721 
  -14656   -14256   -13666   -13450   -14007   -14893   -15673   -16312 
  -16738   -16972   -16938   -16569   -16366   -16788   -17427   -17439 
  -16690   -15881   -15495   -15380   -15280   -15125   -14971   -15037 
  -15542   -15961   -15057   -12816   -10978   -10503   -10584   -10523 
  -10655   -11416   -12582   -13617   -14477   -15537   -16943   -18339 
  -18890   -18172   -17043   -16443   -15934   -14628   -12943   -12120 
  -12445   -13147   -13501   -13540   -13819   -14420   -14727   -14220 
  -13444   -13732   -15026   -15526   -14268   -12467   -12091   -13096 
  -13412   -12712   -12906   -14507   -15993   -16302   -16081   -16618 
  -17921   -18616   -18135   -17342   -16881   -16542   -15963   -15210 
  -14709   -14716   -15026   -15145   -14947   -15025   -15658   -16090 
  -15727   -14918   -14157   -13575   -13215   -13201   -13474   -13848 
  -14393   -15017   -15252   -15205   -15677   -16754   -17386   -17032 
  -16544   -16683   -16950   -16633   -16148   -16287   -16722   -16721 
  -16432   -16348   -16513   -16540   -16131   -15419   -14832   -14859 
  -15554   -16225   -16023   -14978   -14281   -14674   -15084   -14384 
  -13494   -13828   -14798   -15066   -14949   -15327   -15735   -15435 
  -14874   -14702   -14713   -14791   -15237   -15776   -15768   -15348 
  -15210   -15260   -15151   -15371   -15931   -16132   -16050   -16166 
  -16303   -15840   -14870   -14341   -14521   -14939   -15475   -15951 
  -16036   -15795   -15384   -14804   -14191   -14142   -14967   -15485 
  -14597   -13468   -13567   -14183   -14065   -13522   -13313   -13266 
  -13205   -13568   -14098   -13995   -13768   -14260   -14640   -14076 
  -13649   -14346   -15087   -15034   -15415   -16667   -17278   -16822 
  -16465   -16749   -17196   -17250   -16915   -16762   -17041   -17240 
  -16785   -15716   -14716   -14291   -14191   -14048   -13818   -13590 
  -13455   -13216   -12498   -11593   -11430   -12202   -13030   -13246 
  -13050   -13059   -13593   -14233   -14368   -14073   -14129   -14949 
  -15772   -15851   -15678   -15952   -16621   -17250   -17394   -17081 
  -17086   -17878   -18635   -18364   -17413   -16699   -16147   -15083 
  -13595   -12609   -12568   -12870   -12780   -12236   -12001   -12916 
  -14546   -15472   -15345   -15434   -16619   -18191   -19047   -18851 
  -18241   -18235   -18594   -17964   -16243   -14828   -14436   -14223 
  -13444   -12895   -13251   -13666   -13498   -13358   -13621   -13840 
  -13792   -13726   -13470   -12907   -13101   -14628   -16073   -16376 
