Origin Time       2024/04/02 04:24:00
Lat.              40.133
Long.             141.712
Depth. (km)       71
Mag.              6.0
Station Code      MYGH06
Station Lat.      38.5907
Station Long.     141.0710
Station Height(m) 20
Record Time       2024/04/02 04:25:04
Sampling Freq(Hz) 100Hz
Duration Time(s)  177
Dir.              6
Scale Factor      7845(gal)/8223790
Max. Acc. (gal)   3.005
Last Correction   2024/04/02 04:25:05
Memo.             
[...]
  -17045   -17165   -17653   -18264   -18551   -18353   -18250   -18411 
  -18049   -17363   -17358   -17614   -17532   -17594   -17745   -17605 
  -17343   -17155   -17188   -17437   -17653   -17586   -17320   -17396 
  -17643   -17228   -16679   -16927   -17182   -16881   -16810   -17080 
  -17304   -17479   -17491   -17555   -17845   -17830   -17498   -17435 
  -17489   -17331   -17289   -17564   -17913   -18054   -17875   -17579 
  -17343   -17328   -17645   -17898   -17960   -18030   -17857   -17559 
  -17517   -17444   -17244   -17301   -17455   -17344   -17095   -16933 
  -17081   -17408   -17273   -16896   -17024   -17312   -17371   -17462 
  -17459   -17248   -17154   -17321   -17591   -17782   -17928   -18014 
  -17880   -17670   -17491   -17223   -17035   -16987   -16762   -16622 
  -16999   -17512   -17791   -17879   -17644   -17294   -17228   -17150 
  -17041   -17419   -17898   -17895   -17807   -17883   -17794   -17620 
  -17560   -17413   -17302   -17523   -17659   -17308   -16869   -16884 
  -17246   -17361   -17131   -17089   -17432   -17755   -17753   -17593 
  -17541   -17663   -17759   -17730   -17740   -17737   -17631   -17485 
  -17373   -17463   -17724   -17842   -17845   -17913   -17770   -17327 
  -17105   -17197   -17294   -17563   -17928   -17859   -17539   -17504 
  -17667   -17788   -17909   -18050   -18096   -17967   -17679   -17404 
  -17352   -17269   -16945   -16807   -17027   -17397   -17840   -18077 
  -17844   -17370   -17047   -17023   -17139   -17325   -17706   -17976 
  -17797   -17597   -17685   -17659   -17555   -17770   -17798   -17274 
  -16938   -16943   -16742   -16572   -16690   -16835   -17126   -17477 
  -17568   -17656   -17768   -17680   -17432   -17008   -16803   -17038 
  -17142   -17185   -17537   -17771   -17902   -18306   -18522   -18279 
  -17902   -17413   -16931   -16758   -16740   -16760   -16960   -17258 
  -17478   -17497   -17294   -17190   -17424   -17672   -17689   -17713 
  -17740   -17659   -17633   -17460   -17201   -17428   -17806   -17759 
  -17578   -17541   -17590   -17625   -17516   -17373   -17462   -17647 
  -17647   -17649   -17768   -17821   -17990   -18235   -18149   -17971 
  -17907   -17618   -17213   -17084   -17105   -17008   -17019   -17259 
  -17257   -16991   -16935   -16965   -16814   -16879   -17284   -17485 
  -17436   -17412   -17145   -16771   -16787   -16885   -16816   -17057 
  -17566   -17782   -17886   -18172   -18211   -18026   -17982   -17805 
  -17436   -17305   -17475   -17718   -17887   -18015   -18220   -18351 
  -18176   -17706   -17217   -17223   -17552   -17381   -16946   -17037 
  -17274   -17313   -17537   -17716   -17714   -17898   -17788   -17262 
  -17047   -16924   -16642   -16725   -17093   -17361   -17520   -17660 
  -17725   -17493   -17320   -17703   -18058   -17888   -17653   -17605 
  -17562   -17462   -17397   -17381   -17267   -17107   -17123   -17153 
  -17047   -17149   -17525   -17824   -17876   -17732   -17624   -17693 
  -17699   -17483   -17313   -17317   -17243   -17236   -17458   -17401 
  -17016   -16799   -16663   -16456   -16536   -17039   -17531   -17674 
  -17788   -18176   -18370   -18216   -18281   -18193   -17473   -17082 
  -17400   -17679   -17903   -18216   -18171   -17830   -17770   -17959 
  -18030   -18076   -18175   -18134   -17914   -17555   -17215   -17007 
  -16841   -16834   -16985   -17192   -17629   -17894   -17424   -16942 
  -17215   -17635   -17663   -17637   -17728   -17675   -17274   -16816 
  -16838   -17219   -17437   -17293   -16856   -16533   -16575   -16632 
  -16719   -17165   -17670   -17940   -18036   -17941   -17805   -17686 
  -17417   -17313   -17562   -17645   -17544   -17621   -17747   -17953 
  -18165   -17983   -17662   -17394   -17126   -17311   -17768   -17909 
  -17882   -17716   -17190   -16654   -16515   -16690   -17019   -17523 
  -18065   -18134   -17691   -17473   -17506   -17311   -17266   -17586 
  -17720   -17474   -17038   -16599   -16465   -16799   -17440   -17942 
  -17902   -17554   -17307   -17182   -17078   -17004   -17224   -17724 
  -17876   -17606   -17581   -17799   -17786   -17718   -17685   -17388 
  -17309   -17663   -17586   -17088   -16937   -16933   -16745   -16719 
  -17140   -17787   -18169   -18162   -17983   -17745   -17560   -17645 
  -18053   -18443   -18441   -18169   -17921   -17660   -17324   -17107 
  -17077   -16964   -16929   -17431   -17960   -17841   -17604   -17815 
  -17963   -17743   -17741   -17994   -18048   -18080   -18023   -17583 
  -17130   -16935   -16880   -16869   -16942   -17074   -17089   -17244 
  -17701   -18045   -18058   -17724   -17177   -16754   -16515   -16332 
  -16382   -16806   -17139   -17043   -16884   -16972   -17277   -17517 
  -17373   -17257   -17579   -17860   -17880   -17913   -17942   -17929 
  -17963   -18037   -17984   -17670   -17293   -17136   -17199   -17173 
  -16985   -17170   -17698   -17868   -17940   -18289   -18218   -17741 
  -17761   -17910   -17370   -16907   -17142   -17189   -16964   -17115 
  -17242   -17174   -17250   -17335   -17474   -17707   -17829   -17976 
  -18067   -17787   -17398   -17155   -16939   -16746   -16648   -16765 
  -17081   -17247   -17436   -17967   -18189   -17925   -17825   -17717 
  -17361   -17166   -17277   -17442   -17424   -17500   -17844   -17930 
  -17933   -18307   -18459   -18083   -17722   -17683   -17683   -17454 
  -17209   -17143   -17230   -17467   -17605   -17374   -16926   -16726 
  -17001   -17385   -17425   -17158   -17107   -17506   -17540   -16942 
  -16819   -17242   -17265   -17053   -17118   -17172   -16902   -16605 
  -16794   -17277   -17346   -17232   -17545   -17745   -17570   -17617 
  -17691   -17462   -17325   -17442   -17591   -17614   -17524   -17554 
  -17764   -17884   -17743   -17509   -17504   -17678   -17748   -17794 
  -17969   -18153   -18176   -17917   -17500   -17502   -18056   -18337 
  -17998   -17668   -17679   -17830   -18027   -18280   -18434   -18357 
  -18144   -17976   -17676   -17130   -16978   -17335   -17451   -17378 
  -17529   -17682   -17707   -17772   -17651   -17089   -16499   -16240 
  -16272   -16541   -16942   -17408   -17740   -17806   -17882   -17969 
  -17764   -17196   -16696   -16906   -17409   -17448   -17406   -17416 
  -17055   -16806   -17022   -17263   -17394   -17412   -17383   -17675 
  -17982   -17759   -17639   -18021   -18108   -17923   -17953   -17713 
  -17230   -17018   -16733   -16330   -16405   -16966   -17539   -17664 
  -17437   -17251   -17045   -17042   -17474   -17782   -17747   -17721 
  -17734   -17504   -17103   -17010   -17311   -17713   -17886   -17693 
  -17734   -18002   -17528   -16922   -17167   -17489   -17678   -18157 
  -18077   -17200   -16625   -16603   -16908   -17617   -18003   -17628 
  -17163   -16784   -16487   -16657   -17053   -17277   -17464   -17732 
  -17953   -17992   -17874   -17716   -17840   -18345   -18418   -17788 
  -17392   -17369   -17307   -17365   -17601   -17968   -18180   -17883 
  -17551   -17489   -17378   -17192   -17131   -17417   -17879   -18021 
  -17911   -17591   -16891   -16501   -16860   -17259   -17424   -17612 
  -17527   -17107   -16988   -17208   -17285   -17464   -17944   -18111 
  -17825   -17491   -17062   -16756   -17038   -17516   -17895   -18308 
  -18447   -18392   -18395   -18060   -17541   -17250   -16989   -17026 
  -17423   -17340   -17158   -17771   -18123   -17491   -17077   -17292 
  -17501   -17618   -17629   -17444   -17267   -17208   -17173   -17184 
  -17300   -17207   -16769   -16453   -16459   -16711   -17170   -17436 
  -17312   -17265   -17574   -17903   -18083   -18370   -18650   -18689 
  -18511   -17984   -17564   -17679   -17583   -17285   -17413   -17405 
  -17138   -17157   -17284   -17498   -17753   -17775   -17956   -18099 
  -17560   -17030   -17130   -17356   -17305   -17111   -17120   -17138 
  -16977   -17294   -17872   -18034   -18362   -18798   -18759   -18627 
  -18245   -17578   -17496   -17612   -17150   -16727   -16665   -16646 
  -16893   -17280   -17270   -16976   -16757   -16852   -17204   -17502 
  -17706   -17882   -17953   -17745   -17382   -17111   -16710   -16433 
  -16795   -17205   -17230   -17361   -17670   -17641   -17263   -17313 
  -17891   -18117   -17994   -17913   -17663   -17415   -17227   -16962 
  -16950   -16923   -16725   -16929   -17184   -17086   -17170   -17471 
  -17624   -17500   -17219   -16989   -16812   -16826   -17043   -17298 
  -17705   -18021   -17922   -17628   -17455   -17458   -17342   -17035 
  -17010   -17397   -17544   -17139   -16821   -16887   -17011   -17174 
  -17562   -18092   -18463   -18411   -18064   -17851   -17841   -17822 
  -17807   -17706   -17471   -17520   -17667   -17257   -16853   -16916 
  -16740   -16468   -16745   -17239   -17587   -17713   -17506   -17436 
  -17855   -18058   -17925   -18104   -18102   -17722   -17813   -18048 
  -17990   -18274   -18738   -18628   -18231   -18054   -17836   -17491 
  -17215   -16731   -16209   -16254   -16495   -16410   -16470   -16904 
  -17219   -17379   -17555   -17560   -17481   -17637   -17988   -18149 
  -17967   -17837   -17975   -17992   -17847   -17936   -18094   -17982 
  -17842   -17859   -17859   -17828   -17875   -17778   -17315   -16860 
  -16745   -16753   -16765   -16876   -16891   -16648   -16505   -16667 
  -16934   -17269   -17437   -17311   -17298   -17516   -17729   -17779 
  -17683   -17545   -17304   -17151   -17289   -17481   -17749   -17818 
  -17101   -16305   -16195   -16162   -16120   -16449   -16576   -16619 
  -17131   -17298   -17047   -17321   -17760   -17861   -17959   -17844 
  -17323   -17223   -17560   -17365   -17055   -17243   -17423   -17469 
  -17514   -17614   -17721   -17502   -17319   -17567   -17818   -17986 
  -18384   -18921   -19084   -18717   -18511   -18731   -18756   -18612 
  -18808   -18864   -18281   -17713   -17543   -17459   -17540   -17794 
  -17818   -17676   -17707   -17790   -17701   -17636   -17880   -18231 
  -18419   -18503   -18472   -18480   -18493   -17996   -17290   -16947 
  -16761   -16719   -16964   -17227   -17258   -16966   -16563   -16505 
  -16707   -16626   -16726   -17568   -17980   -17470   -17358   -17699 
  -17687   -17604   -17613   -17578   -17767   -18061   -18135   -18216 
  -18504   -18679   -18559   -18372   -18144   -17668   -17057   -16557 
  -16189   -15996   -16206   -16573   -16607   -16625   -16926   -17170 
  -17146   -16884   -16852   -17259   -17298   -16950   -17022   -17189 
  -17031   -17004   -17162   -17286   -17443   -17475   -17109   -16573 
  -16498   -16896   -17292   -17622   -17853   -18037   -18330   -18385 
  -18156   -17894   -17463   -16977   -16567   -16355   -16613   -16907 
  -17015   -17158   -17232   -17427   -17587   -17490   -17626   -17752 
  -17614   -17867   -18411   -18724   -18871   -18908   -18759   -18505 
  -18458   -18688   -18746   -18567   -18432   -18218   -17801   -17317 
  -17032   -17027   -17028   -17068   -17389   -17833   -17996   -17635 
  -17154   -17254   -17676   -17859   -18060   -18090   -17566   -17270 
  -17394   -17356   -17379   -17432   -17128   -16753   -16353   -15790 
  -15595   -15890   -16308   -17016   -17760   -17880   -17722   -17799 
  -17844   -17636   -17366   -17369   -17683   -17915   -17964   -18026 
  -18081   -18034   -17933   -17957   -17963   -17517   -16772   -16050 
  -15248   -14651   -14787   -15422   -16144   -17132   -18061   -18112 
  -17620   -17324   -17143   -16856   -16434   -16109   -16352   -17194 
  -18225   -18967   -18813   -17826   -16880   -16332   -16340   -17022 
  -17562   -17622   -17851   -18342   -19009   -19724   -19716   -19078 
  -18797   -18536   -17926   -17926   -18393   -18430   -18316   -18192 
  -17982   -18049   -18199   -17876   -17049   -16517   -16812   -16918 
  -16324   -15978   -16227   -16563   -16528   -16335   -16656   -17359 
  -17852   -17960   -17851   -17706   -17469   -17385   -17595   -17532 
  -17132   -16819   -16733   -16945   -17248   -17502   -17813   -17830 
  -17340   -16702   -16125   -15697   -15735   -16432   -17377   -17782 
  -17385   -17069   -17749   -18765   -18941   -18553   -18218   -17617 
  -16900   -16578   -16275   -15962   -16135   -16394   -16382   -16582 
  -16857   -16889   -17246   -17810   -17891   -17905   -18501   -19468 
  -20144   -19889   -18615   -17105   -16403   -16788   -17591   -18265 
  -18850   -19249   -19238   -18943   -18358   -17379   -16530   -16231 
  -16228   -16486   -16888   -16872   -16541   -16426   -16789   -17841 
  -19174   -19867   -19897   -19768   -19188   -18338   -18409   -19032 
  -18837   -18017   -17124   -16352   -16082   -16004   -15816   -15985 
  -16276   -16208   -16270   -16605   -16630   -16729   -17466   -18083 
  -18292   -18806   -19360   -19159   -18353   -17448   -16715   -16600 
  -17176   -17847   -18415   -18787   -18497   -17641   -17073   -17262 
  -17663   -17836   -17766   -17216   -16530   -16089   -15718   -15828 
  -16484   -17271   -18274   -19121   -19450   -19369   -18673   -17545 
  -16640   -16140   -15776   -15280   -14794   -14708   -15255   -16378 
  -17506   -18122   -18396   -18542   -18771   -19342   -19784   -19600 
  -18924   -17928   -17018   -16472   -15962   -15666   -15863   -16101 
  -16540   -17462   -18115   -18395   -18729   -18820   -18640   -18293 
  -17641   -17105   -16915   -16730   -16606   -16895   -17560   -18060 
  -17955   -17281   -16193   -15406   -15495   -15657   -15695   -16429 
  -17487   -17898   -17311   -16181   -15581   -15990   -16887   -17712 
  -18601   -19801   -20622   -20441   -19778   -19111   -18528   -18199 
  -17956   -17628   -17203   -16708   -16596   -16783   -16583   -16353 
  -16812   -17479   -17764   -18057   -18616   -18928   -18477   -17747 
  -17733   -17949   -17415   -16769   -16854   -17347   -17543   -17226 
  -16849   -16841   -17135   -17382   -17394   -17516   -17852   -17813 
  -17456   -17551   -17890   -17992   -18369   -18913   -18994   -18985 
  -18801   -17925   -17028   -16623   -16572   -16988   -17331   -16999 
  -16690   -16814   -16876   -16927   -17261   -17648   -17868   -18046 
  -18262   -18312   -18087   -17466   -16467   -15911   -16150   -16598 
  -17116   -17609   -17693   -17412   -17167   -17039   -16565   -16357 
  -17559   -18879   -18769   -18079   -17456   -16586   -15801   -15480 
  -15712   -16613   -17666   -18200   -18199   -17934   -17915   -18281 
  -18322   -18006   -17959   -17983   -18002   -18293   -18378   -17969 
  -17601   -17806   -18385   -18215   -17181   -16595   -16407   -15755 
  -15252   -15384   -15631   -15963   -16349   -16586   -17122   -17824 
  -18115   -18318   -18418   -18011   -17582   -17589   -17988   -18721 
  -19336   -19529   -19673   -19557   -18827   -18031   -17115   -15916 
  -15249   -15300   -15788   -16540   -17231   -17841   -18108   -17793 
  -17308   -16938   -17014   -17712   -18230   -17969   -17490   -17304 
  -17239   -17205   -17255   -17504   -18262   -19076   -18932   -18114 
  -17601   -17228   -16573   -16259   -16704   -17327   -17824   -18432 
  -18962   -18859   -18230   -17814   -17609   -17281   -17278   -17436 
  -17023   -16610   -17045   -17833   -18121   -18121   -18264   -18021 
  -17253   -16765   -16879   -17261   -17543   -17659   -17726   -17425 
  -16788   -16671   -16993   -16900   -16588   -16788   -17378   -17587 
  -17563   -18171   -18948   -19133   -19001   -18628   -17949   -17104 
  -16467   -16638   -17136   -17297   -17786   -18770   -19300   -19095 
  -18642   -18358   -18397   -18496   -18335   -18144   -18006   -17339 
  -16318   -15812   -15377   -14602   -14763   -15927   -16548   -16652 
  -17004   -17239   -17388   -18004   -18412   -18185   -18478   -19259 
  -19143   -18414   -18183   -18162   -17579   -16760   -16498   -16240 
  -15269   -14607   -14913   -15461   -16125   -17039   -17868   -18613 
  -19057   -18854   -18528   -18435   -18382   -18441   -18628   -18870 
  -19120   -18986   -18148   -17011   -16193   -15637   -15344   -15803 
  -16553   -16870   -17246   -17917   -18407   -18609   -18646   -18424 
  -17671   -16645   -16082   -16156   -16611   -17163   -17583   -17756 
  -17616   -17354   -17228   -17140   -17081   -17197   -17254   -17058 
  -16985   -17250   -17369   -17068   -16549   -16085   -16201   -16815 
  -17108   -16939   -16883   -17182   -17235   -16830   -16659   -16695 
  -16590   -16686   -17344   -18474   -19306   -19314   -18891   -18443 
  -18381   -18918   -19245   -18929   -18605   -18243   -17501   -17135 
  -17520   -17901   -17905   -17563   -17069   -16869   -16864   -16710 
  -16683   -17139   -17752   -17934   -17613   -17014   -16610   -16826 
  -17173   -17240   -17323   -17419   -17356   -17091   -16706   -16704 
  -17054   -17076   -17076   -17554   -18100   -18609   -19056   -19026 
  -18713   -18607   -18441   -17676   -16792   -16572   -16443   -15614 
  -14901   -15192   -15854   -16328   -16854   -17435   -18007   -18442 
  -18474   -18376   -18162   -17460   -17111   -18029   -19368   -20066 
  -20232   -20139   -19359   -17949   -17194   -17327   -17273   -17085 
  -17019   -16835   -16897   -16960   -16731   -16914   -17271   -17369 
  -17636   -17828   -17782   -17964   -17980   -17496   -17084   -17131 
  -17718   -18380   -18378   -18025   -17917   -17666   -16729   -15614 
  -15292   -15693   -16345   -17231   -17768   -17456   -17047   -17104 
  -17332   -17545   -17710   -17938   -18427   -18719   -18477   -18118 
  -17662   -17321   -17697   -18234   -18319   -18320   -18256   -17776 
  -17157   -17001   -17373   -17574   -17285   -17099   -16976   -16206 
  -15264   -15201   -15823   -16470   -17055   -17444   -17439   -17235 
  -17181   -17258   -17041   -16669   -16785   -17143   -16934   -16395 
  -16626   -17589   -18200   -18308   -18148   -17749   -17478   -17481 
  -17887   -18616   -18916   -18744   -18700   -18728   -18593   -18443 
  -18401   -18272   -17793   -16991   -16359   -16528   -17317   -17919 
  -18208   -18540   -18720   -18405   -17869   -17582   -17574   -17721 
  -17898   -17778   -17460   -17340   -17424   -17672   -17910   -17875 
  -17761   -17583   -17045   -16476   -16387   -16482   -16505   -16775 
  -17159   -17509   -17982   -18121   -17795   -17452   -17076   -16858 
  -16957   -17039   -17281   -17663   -17451   -16650   -15958   -15685 
  -15511   -14997   -14439   -14338   -14839   -15871   -16735   -16796 
  -16632   -17149   -18018   -18532   -18991   -19369   -19413   -19654 
  -19885   -19661   -19676   -20027   -19984   -19726   -19583   -19161 
  -18346   -17595   -17466   -17716   -17550   -17119   -16893   -16860 
  -17016   -17059   -16872   -16764   -16607   -16517   -16645   -16447 
  -16306   -16826   -17419   -17876   -18088   -17814   -17730   -18084 
  -18296   -18052   -17525   -17062   -16776   -16958   -17524   -17760 
  -17837   -18156   -18269   -17886   -17351   -17207   -17513   -17779 
  -17694   -17246   -16753   -16433   -16047   -16100   -16946   -17298 
  -16950   -17155   -17551   -17282   -16858   -16721   -16702   -16700 
  -16816   -17242   -17838   -18237   -18349   -18281   -18299   -18408 
  -18130   -17703   -17752   -17979   -18137   -18285   -18068   -17770 
  -18073   -18477   -18443   -18573   -18925   -18855   -18577   -18418 
  -18023   -17282   -16586   -16294   -16194   -15947   -15770   -15822 
  -16085   -16459   -16653   -16654   -16398   -15971   -16052   -16619 
