Origin Time       2024/04/02 04:24:00
Lat.              40.133
Long.             141.712
Depth. (km)       71
Mag.              6.0
Station Code      MYGH11
Station Lat.      38.5158
Station Long.     141.3421
Station Height(m) -202.1
Record Time       2024/04/02 04:25:05
Sampling Freq(Hz) 100Hz
Duration Time(s)  120
Dir.              1
Scale Factor      3923(gal)/8224838
Max. Acc. (gal)   2.802
Last Correction   2024/04/02 04:25:05
Memo.             
[...]
  -67351   -67437   -67284   -66939   -67003   -67277   -67084   -66657 
  -66413   -66328   -66448   -66814   -67166   -67252   -67224   -67332 
  -67483   -67493   -67432   -67348   -67105   -66937   -67180   -67302 
  -66989   -67012   -67265   -66908   -66637   -67228   -67788   -67637 
  -67213   -66873   -66560   -66442   -66703   -66884   -66942   -67350 
  -67683   -67443   -67054   -67039   -67127   -66771   -66348   -66545 
  -67024   -67197   -67232   -67176   -66974   -67203   -67591   -67305 
  -66950   -67181   -67443   -67402   -67278   -67174   -67139   -67212 
  -67252   -67081   -66835   -66749   -66640   -66488   -66776   -67178 
  -66996   -66823   -67135   -67196   -67027   -67297   -67460   -67036 
  -66793   -67088   -67478   -67693   -67498   -66950   -66663   -66733 
  -66727   -66746   -66996   -67263   -67377   -67297   -67143   -67109 
  -66931   -66564   -66834   -67541   -67367   -66636   -66658   -67209 
  -67267   -66885   -66792   -67142   -67400   -67151   -66862   -66943 
  -66984   -67045   -67205   -66885   -66480   -66609   -66985   -67570 
  -67922   -67377   -66807   -67027   -67392   -67313   -66837   -66434 
  -66802   -67680   -67941   -67221   -66397   -66517   -67450   -67892 
  -67352   -66690   -66552   -66868   -67223   -67338   -67450   -67456 
  -66970   -66735   -67174   -67188   -66873   -67278   -67774   -67682 
  -67444   -67207   -67180   -67575   -67605   -67101   -66874   -66730 
  -66455   -66623   -66969   -66960   -66799   -66825   -67207   -67675 
  -67670   -67234   -67058   -67293   -67169   -66515   -66148   -66363 
  -66864   -67433   -67724   -67549   -67154   -67070   -67266   -67053 
  -66850   -67247   -67343   -66845   -66561   -66445   -66186   -66310 
  -66843   -66914   -66721   -67153   -67656   -67501   -67289   -67171 
  -66621   -66291   -66791   -67112   -66784   -66637   -66993   -67365 
  -67198   -66708   -66665   -66857   -66622   -66467   -66946   -67536 
  -67950   -68327   -68076   -67196   -66885   -67161   -67240   -67217 
  -67232   -67297   -67424   -67305   -66825   -66425   -66556   -66972 
  -67122   -67142   -67381   -67622   -67752   -67767   -67285   -66476 
  -66147   -66411   -66599   -66515   -66754   -67379   -67571   -67093 
  -66584   -66594   -67036   -67356   -67419   -67404   -67159   -66692 
  -66270   -66096   -66356   -66839   -67074   -67095   -66992   -66791 
  -66953   -67373   -67230   -66681   -66519   -66579   -66475   -66457 
  -66572   -66869   -67525   -67865   -67690   -67780   -67752   -67350 
  -67524   -67878   -67386   -66603   -66432   -66671   -66717   -66563 
  -66453   -66577   -67046   -67323   -67286   -67751   -68235   -67724 
  -67076   -67192   -67338   -67077   -66943   -66897   -66667   -66660 
  -66789   -66741   -66993   -67559   -67967   -68197   -68072   -67462 
  -66938   -66881   -66849   -66582   -66517   -66938   -67675   -68125 
  -67747   -66982   -66494   -66399   -66571   -66762   -66974   -67335 
  -67751   -67840   -67279   -66754   -66924   -67273   -67447   -67593 
  -67475   -66908   -66634   -67130   -67342   -66976   -67126   -67493 
  -67171   -66800   -66854   -66852   -66941   -67297   -67394   -67068 
  -66758   -66874   -67235   -67344   -67146   -67012   -67119   -67302 
  -67285   -66745   -66154   -66441   -67134   -67068   -66650   -66955 
  -67651   -68034   -68080   -67778   -67293   -66838   -66621   -66962 
  -67284   -66847   -66143   -66048   -66569   -66920   -66941   -67101 
  -67119   -66873   -67147   -67798   -67988   -67780   -67306   -66702 
  -66665   -67015   -67057   -67078   -67239   -67221   -67070   -66796 
  -66480   -66598   -67243   -67562   -67063   -66698   -66955   -67111 
  -66907   -66694   -66660   -66645   -66546   -66748   -67146   -66997 
  -66571   -66908   -67578   -67473   -67149   -67367   -67539   -67153 
  -66758   -66991   -67362   -67254   -67055   -67234   -67655   -67824 
  -67255   -66266   -65920   -66364   -66553   -66282   -66440   -66968 
  -67186   -67296   -67427   -67427   -67494   -67587   -67613   -67417 
  -66820   -66613   -67313   -67798   -67327   -66698   -66529   -66726 
  -67042   -67136   -67050   -66964   -67022   -67342   -67301   -66683 
  -66401   -66764   -67239   -67474   -67278   -66715   -66592   -67150 
  -67305   -66879   -66714   -66839   -66771   -66569   -66772   -67123 
  -67080   -66972   -67023   -67134   -67082   -66788   -66691   -66854 
  -67269   -67886   -67945   -67354   -66854   -67005   -67551   -67412 
  -66806   -66671   -66544   -66285   -66499   -66981   -67294   -67315 
  -67174   -67236   -67352   -67312   -67328   -67215   -66970   -67030 
  -67128   -66935   -66970   -67336   -67155   -66625   -66730   -67158 
  -67288   -67189   -67258   -67420   -67119   -67140   -68027   -68233 
  -67377   -66789   -66793   -67008   -67189   -67089   -67077   -67551 
  -67945   -67602   -66816   -66681   -67167   -67000   -66445   -66602 
  -67134   -67317   -67294   -67309   -67196   -67042   -66968   -66949 
  -66997   -66776   -66432   -66538   -66951   -67230   -67151   -66972 
  -67167   -67593   -67757   -67543   -67182   -66839   -66668   -66795 
  -66918   -67035   -67470   -67738   -67609   -67497   -67239   -66852 
  -66796   -66826   -66591   -66399   -66575   -67084   -67478   -67316 
  -67057   -67374   -67753   -67478   -66965   -66623   -66564   -66798 
  -66737   -66630   -67119   -67454   -67436   -67707   -67732   -67244 
  -67219   -67676   -67556   -66987   -67004   -67180   -66538   -65981 
  -66467   -67065   -67018   -66837   -66881   -67176   -67566   -67385 
  -66839   -66919   -67217   -67068   -66825   -66534   -66179   -66275 
  -66762   -67180   -67458   -67456   -67225   -67223   -67359   -67167 
  -66769   -66820   -67329   -67421   -67042   -66903   -66943   -66872 
  -66976   -67132   -66799   -66667   -67185   -67061   -66533   -66834 
  -67189   -66912   -66456   -66503   -67207   -67320   -66839   -67298 
  -67968   -67355   -66317   -66019   -66144   -66541   -67278   -67441 
  -66978   -67108   -67760   -67852   -67190   -66749   -67054   -67196 
  -66658   -66187   -66653   -67828   -68058   -66833   -66172   -67077 
  -67706   -67066   -66744   -67296   -67381   -67055   -67344   -67802 
  -67382   -66644   -67146   -68261   -68204   -67491   -67247   -67228 
  -67190   -66911   -66316   -66334   -67014   -67289   -67211   -67211 
  -67293   -67459   -67501   -67382   -67400   -67537   -67315   -66838 
  -66802   -67019   -67022   -66829   -66444   -66316   -66808   -67201 
  -67171   -67154   -67068   -66965   -67158   -67392   -67435   -67400 
  -67284   -67097   -67041   -67009   -66734   -66621   -67014   -67230 
  -66942   -66904   -66982   -66560   -66340   -66721   -67068   -66951 
  -66561   -66579   -67053   -67437   -67520   -66930   -65892   -65776 
  -66784   -67535   -67621   -67630   -67659   -67655   -67516   -67057 
  -66479   -66312   -66857   -67385   -67431   -67678   -67873   -67369 
  -66841   -66739   -66969   -67505   -67571   -67051   -66981   -67131 
  -66729   -66249   -66341   -66625   -66721   -67139   -67597   -67491 
  -67429   -67325   -66567   -65935   -66235   -66977   -67375   -67293 
  -67090   -66872   -66488   -66422   -67059   -67574   -67485   -67393 
  -67520   -67729   -67838   -67609   -67451   -67593   -67591   -67311 
  -66843   -66530   -66721   -66958   -66862   -66816   -67045   -67030 
  -66603   -66569   -67031   -67286   -67389   -67455   -67246   -67104 
  -67080   -66784   -66602   -66688   -66842   -67058   -67142   -67165 
  -66887   -66421   -66534   -66719   -66750   -67169   -67320   -66900 
  -66657   -66730   -66704   -66700   -67034   -67290   -67020   -66711 
  -67140   -67895   -67950   -67721   -67888   -67752   -67030   -66422 
  -66216   -66341   -66555   -66631   -66793   -67068   -67360   -67682 
  -67760   -67529   -67124   -66806   -67050   -67451   -67288   -66931 
  -66918   -66954   -66707   -66615   -66784   -66609   -66252   -66480 
  -67150   -67271   -66823   -66776   -67257   -67733   -67668   -66907 
  -66314   -66594   -67315   -67713   -67547   -67161   -66808   -66646 
  -66792   -66694   -66151   -65834   -65821   -65921   -66434   -67213 
  -67683   -67845   -67826   -67429   -67109   -67221   -66927   -66349 
  -66441   -66734   -66839   -67192   -67603   -67533   -66960   -66776 
  -67470   -68046   -67865   -67522   -67419   -67189   -66800   -66795 
  -67248   -67693   -67913   -68068   -67936   -67315   -66785   -66823 
  -67005   -66715   -66591   -67389   -68061   -67863   -67398   -66960 
  -66903   -67609   -68312   -68054   -67259   -66922   -67095   -67463 
  -67878   -67884   -67525   -67304   -67047   -66677   -66600   -67000 
  -67699   -67863   -67358   -67320   -67667   -67531   -67231   -67116 
  -66741   -66108   -65885   -66066   -66208   -66550   -67193   -67891 
  -68322   -67999   -67470   -67355   -67115   -66753   -66800   -67081 
  -66945   -66275   -66185   -67248   -68076   -67620   -66781   -66610 
  -66996   -67387   -67612   -67737   -67686   -67312   -66654   -66236 
  -66403   -66837   -67279   -67344   -66841   -66521   -66819   -67186 
  -67163   -66752   -66278   -66363   -66764   -66630   -66753   -67941 
  -68628   -67748   -66707   -67023   -67767   -67228   -66505   -67089 
  -67967   -68089   -67514   -66864   -66722   -66596   -66264   -66536 
  -67239   -67362   -66939   -66636   -66657   -66695   -66687   -67066 
  -67387   -66920   -66395   -66711   -67286   -67154   -66611   -66494 
  -66795   -67261   -67568   -67258   -67103   -67913   -68424   -67682 
  -66671   -66337   -66510   -66641   -67112   -68166   -68690   -68326 
  -67721   -67153   -66775   -66567   -66687   -67225   -67532   -67512 
  -67505   -66995   -66012   -65832   -66533   -66673   -66384   -66808 
  -67200   -66880   -66758   -66795   -66397   -66048   -66278   -67022 
  -67356   -66561   -65977   -66542   -67230   -67452   -67319   -67219 
  -67524   -67697   -67313   -66708   -66530   -66918   -67001   -66874 
  -67458   -67879   -67232   -66727   -67389   -68160   -67805   -66935 
  -66754   -67485   -68002   -67315   -66691   -67047   -67207   -66991 
  -67115   -67304   -67365   -67383   -67216   -67068   -66891   -66816 
  -67738   -68739   -67961   -66401   -66071   -66798   -67463   -67613 
  -67293   -67240   -67637   -67393   -66864   -67030   -66914   -66310 
  -66642   -67722   -68409   -68631   -68189   -67178   -66785   -66945 
  -66723   -66496   -66577   -66744   -67178   -67605   -67671   -67566 
  -67085   -66638   -67188   -67905   -67394   -66339   -66163   -66418 
  -66012   -65630   -66217   -66991   -66942   -66456   -66681   -67822 
  -68559   -68438   -68528   -68658   -68180   -67680   -67308   -66916 
  -66818   -66892   -67049   -67265   -67057   -66631   -66548   -66664 
  -66937   -67032   -66833   -67077   -66916   -65595   -64858   -65315 
  -65661   -65591   -65664   -65915   -65915   -65778   -66133   -66733 
  -66918   -66978   -67254   -67647   -67927   -67491   -66509   -66293 
  -66640   -66010   -65273   -65680   -65925   -65349   -65024   -65688 
  -66206   -65163   -64037   -64152   -64276   -64130   -64530   -65232 
  -65503   -65265   -65132   -65493   -65886   -65889   -66136   -67005 
  -67729   -68022   -68384   -68855   -69329   -69745   -69824   -69896 
  -70359   -70803   -70614   -69965   -69893   -70168   -69512   -68127 
  -66970   -66618   -67117   -67733   -67829   -67636   -67751   -68269 
  -68997   -69618   -69484   -68431   -67227   -66891   -67286   -66985 
  -65929   -65890   -67193   -68458   -69304   -69934   -69812   -68887 
  -67986   -67570   -67369   -67009   -66465   -65990   -65923   -66413 
  -67123   -67417   -66947   -66316   -66356   -66452   -66069   -66307 
  -67209   -67340   -66441   -65164   -64415   -65352   -66984   -67015 
  -66410   -67558   -69045   -67959   -65707   -65535   -66267   -65596 
  -64956   -65736   -66522   -66054   -65199   -65280   -66371   -67788 
  -68783   -68941   -69010   -69866   -70522   -69871   -68563   -67065 
  -65678   -65438   -66100   -66791   -67880   -69179   -69677   -69206 
  -68443   -68400   -68656   -67968   -67386   -68272   -69242   -68454 
  -67003   -67444   -69260   -69627   -67895   -65754   -65271   -66870 
  -67791   -66793   -67020   -69452   -70961   -69769   -67135   -65321 
  -65457   -66264   -65770   -64057   -62591   -62407   -63340   -64106 
  -64019   -63633   -63510   -63298   -62619   -62560   -64031   -65946 
  -67193   -68065   -68789   -68751   -67846   -67406   -68231   -69142 
  -69623   -70509   -71208   -70945   -70725   -70322   -68604   -67023 
  -66380   -65133   -63934   -64505   -65925   -66625   -66910   -67262 
  -66827   -65735   -65188   -65500   -66160   -66428   -67331   -70033 
  -71876   -70630   -68459   -67493   -66911   -65280   -62869   -61334 
  -61618   -63061   -64813   -66622   -67251   -65412   -63740   -65580 
  -68971   -70366   -69415   -67802   -67528   -68461   -68424   -67173 
  -66262   -66109   -65828   -65227   -66029   -68361   -68855   -66872 
  -65801   -66629   -67660   -67775   -66735   -65626   -65562   -66144 
  -66618   -66272   -65286   -65530   -67108   -68133   -68959   -70131 
  -70382   -69441   -67855   -66644   -66726   -67149   -67416   -67749 
  -66831   -64824   -64760   -67749   -70659   -70295   -67648   -65904 
  -66056   -66152   -64378   -61994   -61820   -64320   -67004   -67915 
  -67169   -65385   -64180   -65608   -68345   -69338   -69465   -71209 
  -72943   -71316   -67549   -66919   -70264   -71963   -69966   -67956 
  -67238   -66823   -66607   -66505   -67248   -69070   -69751   -68284 
  -67257   -68686   -69951   -68500   -67844   -70463   -71501   -68786 
  -67028   -67533   -67454   -67016   -67716   -68742   -68875   -68185 
  -67659   -67666   -67244   -66270   -66148   -66711   -66374   -65506 
  -65245   -65623   -66717   -67896   -67425   -65268   -63757   -64451 
  -65996   -66499   -66424   -66819   -66587   -64675   -63911   -66426 
  -68708   -68790   -68731   -68638   -68362   -68405   -67437   -65290 
  -64161   -65318   -66915   -66332   -64357   -64201   -66320   -67169 
  -65357   -63786   -63694   -64276   -65547   -66587   -66715   -66972 
  -67026   -65993   -65063   -65763   -67406   -67212   -65098   -64764 
  -66303   -66438   -65199   -64345   -64578   -65723   -66213   -65142 
  -64204   -65291   -67548   -68447   -67743   -67602   -68191   -68041 
  -67976   -68894   -69346   -68947   -68769   -68377   -67030   -65873 
  -66476   -68125   -68979   -69639   -71219   -72284   -71949   -71429 
  -70900   -69469   -67911   -68156   -69649   -69495   -68507   -69205 
  -69249   -67828   -67420   -66575   -64619   -64305   -65276   -65379 
  -65164   -65708   -65936   -65531   -66298   -67788   -67994   -67336 
  -66579   -66301   -67115   -67828   -68068   -68369   -68358   -67656 
  -65823   -63822   -63150   -63779   -64782   -65033   -65470   -66820 
  -66749   -65180   -64979   -66730   -68084   -67328   -66626   -68080 
  -68991   -67531   -66463   -67173   -67386   -66178   -65835   -66937 
  -66955   -66243   -67170   -68372   -67969   -67047   -66923   -67617 
  -68629   -69184   -68631   -67895   -68326   -69660   -70202   -68624 
  -66829   -66762   -66772   -66170   -66113   -66394   -66343   -65917 
  -66075   -66876   -66001   -63837   -63580   -64875   -65726   -65855 
  -65495   -65693   -66405   -66606   -67208   -67801   -66972   -66568 
  -67598   -67774   -67103   -68199   -70347   -70042   -67500   -66819 
  -68885   -70015   -68827   -68273   -69381   -69820   -68985   -67694 
  -66490   -66717   -67979   -68273   -67952   -67998   -68030   -67667 
  -66897   -66606   -66490   -65279   -65492   -68467   -70031   -68289 
  -65844   -65080   -65917   -66533   -66803   -67832   -68713   -68015 
  -66383   -65738   -66641   -67309   -66530   -65799   -65781   -65631 
  -65888   -66229   -65988   -66680   -67822   -67154   -65605   -65350 
  -65978   -65889   -65352   -65431   -65507   -65026   -65061   -65880 
  -66324   -66035   -65865   -66806   -68115   -67667   -66406   -66814 
  -67794   -68273   -69404   -70348   -70197   -69996   -69368   -68443 
  -68868   -69233   -67487   -65298   -64816   -65867   -66629   -66190 
  -66116   -67020   -67853   -68334   -68274   -67608   -67236   -67433 
  -66800   -64962   -63894   -64592   -65928   -66822   -67112   -67586 
  -68242   -67450   -65907   -65804   -66860   -68269   -69133   -67953 
  -65337   -63775   -64401   -66143   -67698   -68527   -68640   -67973 
  -66722   -65831   -65457   -65722   -67000   -68196   -68141   -67301 
  -67109   -67495   -66970   -66056   -66596   -68535   -69412   -68084 
  -67255   -68107   -68447   -68099   -68199   -67729   -65739   -63828 
  -64265   -67070   -70033   -70579   -67976   -65210   -65715   -68015 
  -68588   -67558   -67370   -68771   -69650   -68553   -67649   -68022 
  -68044   -68017   -68729   -68978   -68057   -67049   -66984   -66856 
  -65857   -65927   -67660   -68202   -67004   -66533   -67059   -67832 
  -68544   -67788   -65979   -65510   -66806   -67664   -65867   -63204 
  -63305   -65186   -65796   -65967   -67350   -68763   -69002   -67888 
  -66299   -66509   -67987   -67505   -65415   -64386   -64465   -64660 
  -65151   -66033   -66398   -65946   -65697   -65781   -65912   -66384 
  -66646   -67090   -68503   -69448   -69815   -70274   -69564   -68449 
  -68149   -67247   -66399   -67051   -67090   -65862   -66050   -67784 
  -68631   -68274   -68477   -69203   -68443   -66804   -66351   -66503 
  -66494   -66602   -66837   -67031   -66509   -65546   -65275   -65236 
  -65129   -66202   -68288   -69816   -69919   -68204   -65700   -64843 
  -66035   -67092   -67365   -67593   -66476   -64646   -65430   -67652 
  -67636   -65689   -64577   -65092   -65253   -64382   -64481   -65476 
  -65827   -66536   -67821   -67655   -66556   -66680   -67450   -67493 
  -67992   -69445   -69142   -66919   -66258   -67351   -67724   -67190 
  -66631   -66229   -66274   -67269   -68943   -69480   -68098   -67169 
  -68176   -69090   -68485   -68281   -69133   -68615   -67051   -66785 
  -67578   -68558   -69288   -68953   -67698   -66703   -66729   -67356 
  -67729   -67765   -67539   -66757   -65838   -65781   -66977   -68314 
  -68019   -66703   -66918   -67570   -65819   -64669   -66718   -67830 
  -66182   -64953   -65965   -68085   -68499   -66191   -64609   -66336 
  -68284   -67697   -66054   -65141   -65593   -66614   -67062   -66972 
  -66492   -66525   -67738   -68881   -68423   -66402   -65588   -67493 
  -68582   -67224   -66804   -68338   -69504   -69238   -68226   -67788 
  -68197   -68493   -68493   -68044   -66974   -66768   -67776   -67860 
  -66434   -65443   -66224   -67872   -68284   -66545   -64581   -65172 
  -67359   -67325   -65028   -64234   -65971   -67359   -66721   -66054 
  -66654   -66722   -66133   -67111   -68655   -68339   -67166   -66656 
  -67032   -67759   -67552   -66707   -66274   -66047   -65816   -66270 
  -67524   -68377   -68119   -67032   -65942   -65551   -65646   -65774 
  -65912   -66667   -67514   -67043   -66352   -66823   -67332   -66896 
  -66559   -67447   -68042   -66833   -65720   -66123   -66889   -67848 
  -68708   -68158   -67568   -68080   -67548   -66060   -66299   -67836 
  -68308   -67205   -65784   -65943   -67490   -67825   -67036   -67670 
