Origin Time       2024/04/02 04:24:00
Lat.              40.133
Long.             141.712
Depth. (km)       71
Mag.              6.0
Station Code      MYGH04
Station Lat.      38.7860
Station Long.     141.3254
Station Height(m) 35
Record Time       2024/04/02 04:25:01
Sampling Freq(Hz) 100Hz
Duration Time(s)  122
Dir.              4
Scale Factor      7845(gal)/8223790
Max. Acc. (gal)   32.610
Last Correction   2024/04/02 04:25:01
Memo.             
[...]
    6913     7047     7150     8307     9193     8937     7879     7223 
    8029     9054     9224     8839     7681     6150     5513     6353 
    8353     9906     9221     7213     6458     6990     7268     7472 
    7835     8160     8883     9512     8924     7345     6455     7022 
    8010     8889     9607     9224     7257     5431     6258     8915 
   10100     9544     9096     8702     7631     6554     6569     7402 
    8095     8934     9568     8295     6231     6054     7341     8526 
    8776     7923     7204     6797     6421     7607    10241    11643 
    9564     5463     3946     5715     8397    11253    12000     9139 
    5714     4429     5648     8519    10575     9734     7314     6354 
    6932     7036     6795     7272     7804     8004     8456     8661 
    8233     7638     7024     7140     8167     8703     8353     7636 
    6820     6212     6212     7443     9046     9670     9900     9545 
    7881     6053     5337     6272     8494    10376     9903     6462 
    3029     3285     7007    11659    14114    12150     7919     4699 
    3242     4209     7429    10841    12438    11283     8230     5059 
    3975     6278     9995    12569    12587     9080     3653      391 
    2342     8068    12841    13676    10482     5563     3129     5022 
    8838    11857    12596    10100     5994     3943     5599     8567 
    9675     9171     8187     6920     6434     7518     9591    10374 
    8075     4757     3383     4926     8954    12363    11944     8951 
    6343     5501     5861     5891     6852     9616    10789     9621 
    8185     6172     4531     4878     6654     9910    12757    11955 
    8976     6284     4263     4537     7931    11403    11144     7466 
    4066     3118     4908     8645    11622    11974    10030     6876 
    5221     6847     9038     9352     8969     7858     5609     4826 
    6037     7654     9358     9832     9238     9367     8943     7072 
    6106     7587     9876    10260     8352     6046     4882     5314 
    7500    10303    10893     8734     6370     5394     6581     9541 
   11300    10060     6710     3457     3014     5621     9027    11661 
   12534    10350     6056     3488     4460     7264     9795    11010 
   11419    10822     8089     5298     4105     3523     5672    10720 
   13290    11821     8688     5373     3357     3376     5827     9910 
   11695     9448     6258     4866     5628     7777    10141    11464 
   10188     6658     4233     4828     7422    10469    11537     9393 
    6593     5740     6674     7796     8635     9408     8236     5476 
    5100     7673    10453    10920     8608     6134     5184     6178 
    9134    11070    10559     8923     6107     4276     6070     9053 
   10451    10130     8480     6743     6338     7308     8638     9420 
    9486     8673     6810     4835     3950     4715     7688    11457 
   12600    10423     6889     4045     4406     8060    11260    11533 
    9074     5184     3227     5329     9513    12830    12513     8113 
    4112     3966     6234     9096    11379    11618     9726     6747 
    4455     4224     5300     6643     7915     8760     9543    10295 
    9305     6616     5082     5470     7105     9701    11074    10149 
    8248     5996     5082     6932     8833     8785     8352     8160 
    7992     8104     8376     8731     8598     8460     8845     7622 
    5610     6324     8537     9051     7500     5022     3551     5123 
    9456    13389    13529     9886     5703     3693     5305     9456 
   11044     8422     6052     5841     6723     8816    10015     7753 
    5007     5695     9050    12301    13180    10461     5213     1215 
    2390     7776    12262    13385    11797     8193     4513     2608 
    3184     7109    11360    12364    11865     9948     6026     3271 
    3019     5544     9809    11335     9107     6624     6210     7420 
    8955     9610     8071     6079     6519     8136     9597    10721 
    9487     6166     4018     4642     7160     9433     9850     8725 
    7773     8091     8505     8068     7593     6704     5308     6066 
    8795     9644     8446     7241     5999     6111     9505    12582 
   10235     5440     4314     6408     8712    10822    12087    10255 
    6291     4260     4654     6666    10282    12405    10771     6710 
    2978     2840     6324    10150    12066    11286     8243     5350 
    5161     7249     9432    10800     9884     6215     4094     5432 
    6988     8055     8889     8140     7214     8112     9433     9358 
    8282     7202     6916     8046     9497     9377     7541     5931 
    6146     7184     8486     9855     8865     6296     5536     6632 
    8726    10851    11098     8617     4490     2533     4928     8310 
    9709     9508     8518     7790     8364     9927    10353     8564 
    6573     4974     3686     5744    11082    14295    12623     7828 
    2758      837     3680     8733    12428    13288    11302     7426 
    4471     4673     6856     8991     9892     9099     7942     7546 
    7304     6876     6608     7366     9208    10038     9429     8436 
    6768     5494     5706     7335    10179    11209     8802     5923 
    4725     5734     8347    10332    10678     9904     8329     6400 
    5687     7156     8745     8496     7549     7155     7387     8410 
    9443     8969     6798     4403     3919     6185     9628    12070 
   12255     9776     5736     2926     3611     6952    10222    11971 
   11786     9444     5950     4064     5454     7828     9135     9397 
    8213     7192     7959     8679     8421     7889     7130     6698 
    7229     8467     9911    10562     9732     8449     7264     5714 
    4780     5262     6988     9456    10326     8673     6870     6461 
    6905     7041     7277     8110     7832     7349     8378     8561 
    7627     7618     7670     7501     8289     9309     9196     7992 
    7130     7268     7485     7730     7939     7277     6755     7657 
    9036     9498     8513     6928     6509     7109     7916     8703 
    7651     5850     7207    10006    10480     9286     8114     6937 
    5437     4853     6237     8417     9925    10528    10403     8680 
    6056     5539     7022     8673     9728     8942     7040     5759 
    5233     5999     8364    10837    10928     8387     6342     6153 
    7152     9671    12023    10936     6716     3357     3636     6814 
   10547    11990     9848     5799     2731     3171     7327    12168 
   13311    10228     7033     5084     4013     5557     8827    11144 
   11041     8217     5381     4849     5782     7103     8294     9262 
    9269     8021     7615     8178     7981     7183     6170     6157 
    8241    10257    10458     8984     6370     4789     5767     8387 
   11557    13679    12106     7402     4095     4055     5640     7766 
    9454     9602     7942     5881     5584     7215     9429    10200 
    9130     8145     6802     5456     6990     9626    10492    10357 
    8452     4733     3068     4819     8391    12343    14033    11677 
    6569     2845     3838     6905     9107    10721     9958     7172 
    6285     7128     7905     8359     7176     5213     5358     7847 
   11076    12375    10029     6141     3742     4546     8162    11653 
   12221     9709     6903     5599     5448     6740     7730     7256 
    8198    10042     9605     7353     5277     4344     4376     5881 
    9647    13454    13525     8696     3690     3908     7169     9738 
   10944     9451     6551     5481     6421     8417    10054    10072 
    8544     6011     4978     6713     8754     9832     9378     7142 
    5940     7037     8232     8626     8683     8156     7287     6786 
    6782     7042     7325     7974     8931     9799    10647    10065 
    7821     6164     5408     5559     6802     8156     9786    10269 
    8095     5757     5070     6042     7946     8526     7800     7758 
    8210     8106     7765     8152     8893     8422     7485     7740 
    7716     6790     7196     8696     9248     8924     8019     6543 
    6134     7180     7915     8275     8796     8374     6864     6038 
    7090     9072    10284     9637     7294     6193     8187    10034 
    9346     7746     6818     7001     7847     8623     9146     9074 
    8586     8043     6990     5880     6061     7524     8877     9018 
    7912     6685     6534     7146     8125     9423    10064     9633 
    8629     6955     4973     5171     7948     9649     9768     9741 
    7944     5171     4365     5717     8337    10341     9958     8822 
    7886     6064     5746     8676    11107    10245     7003     3928 
    4105     7562    11055    12044    10106     6674     3960     3524 
    5783     9189    10957    10380     9076     7576     6496     7252 
    8213     8025     8492     9340     9099     8895     9153     8861 
    8154     7068     6056     5937     6525     8332    10156     9536 
    7889     6724     6033     7356     9283     8641     6864     5925 
    5782     6912     8012     7847     7978     8405     8102     8075 
    8937     9798     9487     7892     7182     8171     7982     6480 
    6475     7330     7488     7430     7180     6023     5265     7400 
   10513    11329    10065     6438     2232     2442     6855    11319 
   13251    11827     8965     6781     5937     7103     8645     8973 
    8737     7726     7326     8845     8974     6697     5421     5875 
    7268     9464    10629     9968     8309     6080     5097     6524 
    8965    10809    10411     7682     5633     5518     5618     6805 
   10030    12067    10581     7053     5078     6139     7470     8201 
    9333     9601     8770     7626     6764     6737     6453     6540 
    8565    10432     9882     8071     7439     8091     8502     8379 
    8321     8739     8687     7852     7487     6933     6173     6758 
    8001     9169     9937     9436     8116     6516     5559     6679 
    8978    10403    10080     8460     6831     5921     5699     6382 
    7612     8662     9672    10200     9097     6183     2770     1251 
    3257     8068    12488    13513    10933     6366     3030     3303 
    6003     9103     9903     7627     6123     6403     7094     8565 
    9154     8792     9070     8046     5880     5167     5775     7461 
    9942    11009     9315     6355     4477     4286     6277    10399 
   12995    11421     8224     6409     5649     5917     8591    11203 
    9977     6500     4681     5320     7202     9526    10150     7192 
    4148     5084     8687    11835    11875     8526     5022     3418 
    4465     8271    11815    12147     9618     6758     5548     6453 
    8710     9490     7557     5416     5397     7904    10339    10104 
    8780     7218     5625     6517     8812     9576     9104     8179 
    8271     9756     9865     8822     8587     7231     4922     5344 
    7248     7377     7177     7774     7707     6901     6648     8017 
   10517    11877    10714     7516     3982     2884     5371     9790 
   13890    14346     9587     4228     3446     7115    11961    14355 
   12448     7555     3615     4491     8734    10837     9406     6636 
    4183     4351     7295     9888     9981     7782     6080     6635 
    8152    10195    11160     8698     5189     4453     7195    10952 
   11874     9369     6041     3618     3407     6150     9518    10285 
    8147     5142     3539     4999     8347     9483     7747     6597 
    7068     8325     9882    10049     7821     5435     5867     9215 
   13824    17037    14947     7506      280    -1050     4608    12789 
   17068    14355     7094      419    -1804     2161    10018    15761 
   15654    11291     7491     7591    10432    11757     8191     2072 
    -797     2898    12094    19716    18530     9767     -858    -7569 
   -5513     3767    13211    17312    13973     4885    -2655     -382 
   10778    20486    21528    15186     5481    -1561     -448     5408 
    8961     8050     3985     1578     4607    10864    15520    14127 
    7763     2087      936     5984    11772    10303     3441    -4453 
  -10035    -6725     6165    22104    34038    35248    23836     5692 
   -9163   -12542    -4904     5977    12062     9343     2959     2910 
    9732    15087    15070    11977     6436     -465    -2197     4234 
   13212    18339    16356     8191      753     1104     7404    12730 
   14979    15460    15472    16515    17992    15736     7294     -641 
   -2165    -1702      842     9292    15229    11632     5179      382 
   -5066    -7460     1935    19712    28471    21003     7032    -4729 
   -8074      531    11510    15183    15843    16961    13867     7712 
    5822     7632     7488     4648     2330     5833    13371    13652 
    6243     1462     1123     2670     7160    13063    16310    16997 
   16406    13167     8380     3404    -1984    -2147     6984    16417 
   16129     9547     3569    -2398    -5759      -67    10463    17130 
   19411    20132    18894    13556     3807    -7319   -14931   -14353 
   -2308    17845    32543    31216    19155     7075    -1188    -4995 
   -4498    -3122    -3254    -1196     9216    24513    30508    23737 
   13860     3279    -6829    -7928     2282    16295    23236    18080 
    6808    -2837    -5336     1232     9917    13656    13230    10058 
    4718     3986    13510    22693    16686     -580   -14748   -16839 
   -2416    23485    42041    35602     7727   -18808   -25479    -9806 
   19047    41739    40081    18137    -4423   -14843    -9586     5444 
   15653    14517     8386     4021     5012    11051    14438    10069 
    2471    -4051    -7435    -4591     4379    15399    21830    19797 
   13300     6093      770     3055    10698    15261    14436     7500 
   -2872    -5647     4876    19028    21359    10112    -2911   -10282 
   -6158    10897    25683    27992    21983    10280    -1422    -5779 
   -3501     1263     4897     9737    19002    24297    18256     5958 
   -4039    -5898     1857    16764    29277    26017     9756    -3045 
   -4540     2435    11296    14851     9350      137    -2465      531 
    3389    10729    20429    20518    12297     4683     1834     6363 
   13424    14604     9445      997    -5806    -5553      225     8008 
   16101    21099    21177    15930     5455    -4507    -7295    -3046 
    5027    14000    19129    16447     8683     2884     1247     1838 
    4197     7102    10442    14635    14530     8556     3634     4043 
    9161    14219    12472     6825     4780     4683     4342     7304 
   12636    14341    10467     5741     5125     7844    11653    14283 
   10187     1699     -238     5224    12590    18210    15315     5429 
    -469      -21     3005     6906     8731     6234     3013     4307 
    8950    11078     7479     2789     4511    10825    14922    13801 
    7106     -346    -2516      896     8722    17590    19971    15480 
   12483    13169    13624    11271     1988    -9224    -7141     6273 
   16328    20700    18735     6520    -6327    -7426     2393    15731 
   22229    15750     3507    -3241     1586    14212    21693    17790 
    7427    -1934    -3198     4488    14571    20279    17706     8294 
    -673     -961     7994    17759    21809    17562     5954    -4044 
   -4914     1822     9440    11121     8502     6443     3734     2419 
    5440     7250     4206     -301     -764     6331    15541    18154 
   14122     8110     3203     1453     4004     9887    14038    12610 
    9439     9475    11750    10970     5112    -1336    -5344    -3982 
    6089    18342    24468    22609    11969    -1324    -4826     4016 
   14625    17165    12305     5420     1347     5516    15003    17772 
   11071     2385    -3323    -3933      -63     7273    17354    20881 
   12426     3115      824     3377     9024    14797    18125    16576 
    7815     -594       39     7415    15566    18438    12957     3601 
   -4330    -7503    -2165    10214    20505    20204    11171     3268 
    1235     3979    11214    19257    20622    12268      438    -5449 
   -3964     1210     8822    16448    18230    11713     4068     2889 
    4514     4340     5925     9979    12268    12267     9456     3871 
    1493     3230     5012     8182    11858    12900    11109     4989 
   -2127    -2575     3739    10643    13424    12387     9706     6582 
    4568     2575     1021     3473     7808    12833    19550    21195 
   12904      248    -6004     -238    12104    24264    29177    20186 
    3859    -8399   -11384    -3391    10426    21034    22748    15898 
    6755    -1683    -7573    -3913     7522    17212    21720    18688 
    8136    -3015    -8316    -2605    11252    20059    19762    15174 
    8579     4207     3308     2983     4279     6309     6301     6862 
    9649    11639    12919    14157    11180     5922     4256     4515 
    6693    11554    13748    12324    10076     6582     1417    -3284 
   -3550     1852     9151    13728    14801    13360     9135     5691 
    5742     5339     4352     6092     9513    11909    11368     8856 
    6786     5672     6686    10268    13927    13752     7105     -363 
     283     6920    12051    14391    13556     7649      936      610 
    7356    15495    16059     6504    -2041    -1462     3739     9177 
   14370    17389    14033     3863    -5085    -5861      191     8640 
   14503    15727    13984     9115     3962     3744     6270     9450 
   14777    17379    13078     6955     4121     4722     8278    13941 
   16403    11566     7578    10339    10532     4579    -1378    -4638 
   -1971     5668    12432    17652    17410     6971    -5709   -10276 
   -3807    10939    24804    28188    19746     5449    -6728   -10405 
   -3578     9574    20750    23205    16881     7786     1830     1258 
    5368    10797    12953    10755     8613     9620    11379     9807 
    2353    -6408    -7500      869    14435    24961    23766    13829 
    2748    -6394    -7335     2056    12872    18415    16348     7188 
     157     2436    10003    16170    15952     8367       36    -1610 
    3431    11392    18314    17292     7847      155    -1895     -548 
    6447    17027    21713    15657     5101    -1216    -2612     -183 
    7449    16092    19464    16600     8511    -1452    -6434    -3265 
    5098    12610    14779    14570    14555    11103     5899     4865 
    6790     6728     5985     9437    13235    10008     3106       99 
    2061     7504    14808    17936    12789     4828      321     1036 
    6979    14094    15816    10550     5034     4946     7639    10196 
   11364     9944     7946     7236     6615     4461     3334     6191 
    9386    10354    10042     7311     4213     4396     6473     9159 
   12630    13660     9417     3554     1977     4843     9265    14465 
   16578    11604     4719     2064     4417     9914    13336    12973 
   10258     4869     2415     6072     8816     8889     8459     5745 
    3593     5409     7823     8691     9533    10976    12113    11473 
    8777     5988     4711     4135     4149     5705     7056     6444 
    5179     5292     7835    10982    11360     8306     4098     3087 
    6470    10652    14770    17246    13473     5929      992     1089 
