Origin Time       2024/04/02 04:24:00
Lat.              40.133
Long.             141.712
Depth. (km)       71
Mag.              6.0
Station Code      MYGH07
Station Lat.      38.1802
Station Long.     140.6405
Station Height(m) 44
Record Time       2024/04/02 04:25:12
Sampling Freq(Hz) 100Hz
Duration Time(s)  214
Dir.              2
Scale Factor      3923(gal)/8224838
Max. Acc. (gal)   3.089
Last Correction   2024/04/02 04:25:12
Memo.             
[...]
  -21139   -21047   -20877   -20707   -20796   -21185   -21466   -21448 
  -21305   -21120   -20877   -20679   -20561   -20341   -19994   -19795 
  -19782   -19762   -19693   -19687   -19958   -20406   -20517   -20353 
  -20371   -20299   -19931   -19724   -19766   -19804   -19903   -20078 
  -20112   -19985   -20036   -20436   -20814   -20950   -21069   -21180 
  -21122   -20922   -20706   -20588   -20613   -20719   -20806   -20758 
  -20591   -20479   -20526   -20569   -20441   -20304   -20196   -19880 
  -19507   -19390   -19472   -19695   -19944   -19940   -19727   -19610 
  -19780   -20156   -20428   -20525   -20622   -20613   -20324   -19916 
  -19705   -19761   -19954   -20213   -20370   -20382   -20553   -20884 
  -21082   -21116   -21057   -21112   -21385   -21505   -21339   -21072 
  -20718   -20385   -20160   -19959   -19904   -20009   -20020   -20000 
  -20151   -20339   -20332   -20108   -19854   -19774   -19858   -20036 
  -20340   -20606   -20594   -20479   -20559   -20852   -21177   -21138 
  -20714   -20556   -20727   -20753   -20698   -20583   -20383   -20412 
  -20517   -20542   -20591   -20378   -20085   -20083   -19966   -19677 
  -19561   -19577   -19777   -19997   -19931   -19881   -20007   -20123 
  -20267   -20359   -20344   -20464   -20775   -21128   -21447   -21775 
  -22030   -21870   -21355   -20935   -20784   -20949   -21188   -21011 
  -20598   -20405   -20340   -20225   -20106   -20235   -20628   -20808 
  -20757   -20749   -20457   -19826   -19323   -19102   -19122   -19201 
  -19199   -19261   -19134   -18647   -18319   -18262   -18331   -18650 
  -18867   -18862   -19219   -19903   -20420   -20753   -20980   -21116 
  -21276   -21432   -21413   -21247   -21141   -21216   -21532   -21928 
  -22098   -22072   -21991   -21905   -21906   -21901   -21913   -22071 
  -21998   -21605   -21358   -21184   -20785   -20305   -19938   -19741 
  -19718   -19893   -20206   -20428   -20530   -20503   -20262   -20088 
  -20023   -19749   -19489   -19603   -19930   -20173   -20279   -20418 
  -20532   -20434   -20297   -20179   -19981   -19816   -19565   -19219 
  -19272   -19642   -19796   -19827   -20051   -20460   -20953   -21509 
  -22099   -22492   -22593   -22505   -22202   -21919   -21922   -21928 
  -21926   -22208   -22546   -22640   -22492   -22218   -22022   -21878 
  -21628   -21354   -21100   -20856   -20684   -20618   -20706   -20798 
  -20671   -20497   -20356   -20098   -19904   -19830   -19676   -19514 
  -19267   -18856   -18723   -18955   -19229   -19607   -20069   -20382 
  -20594   -20726   -20695   -20610   -20580   -20493   -20254   -20101 
  -20124   -20062   -19785   -19440   -19338   -19541   -19746   -19897 
  -19980   -19928   -20011   -20322   -20682   -20968   -21023   -20956 
  -20953   -20885   -20706   -20467   -20209   -20050   -19977   -20025 
  -20244   -20422   -20533   -20673   -20696   -20557   -20286   -20005 
  -19915   -19850   -19792   -19953   -19966   -19781   -19819   -19791 
  -19570   -19653   -19846   -19715   -19562   -19678   -19753   -19549 
  -19430   -19649   -19853   -19854   -19846   -19853   -19827   -19795 
  -19741   -19745   -19815   -19870   -19961   -20052   -20164   -20403 
  -20497   -20453   -20744   -21124   -21168   -21062   -20860   -20584 
  -20434   -20291   -20173   -20262   -20395   -20394   -20189   -19793 
  -19445   -19329   -19388   -19462   -19535   -19745   -19866   -19589 
  -19233   -19168   -19375   -19838   -20294   -20305   -19962   -19568 
  -19157   -18759   -18584   -18805   -19245   -19708   -20158   -20302 
  -20322   -20773   -21282   -21573   -21921   -21984   -21797   -21793 
  -21679   -21590   -21926   -22326   -22545   -22469   -22083   -21770 
  -21531   -21276   -21184   -21145   -21195   -21446   -21649   -21798 
  -21911   -21794   -21539   -21346   -21423   -21882   -22330   -22540 
  -22694   -22696   -22531   -22326   -21921   -21510   -21396   -21296 
  -21192   -21223   -21108   -20985   -21045   -20845   -20460   -20371 
  -20336   -20196   -20287   -20467   -20366   -20079   -19751   -19334 
  -18931   -18684   -18584   -18670   -19053   -19618   -19966   -19901 
  -19768   -19719   -19494   -19391   -19727   -20098   -20364   -20463 
  -20106   -19657   -19483   -19485   -19696   -19958   -20104   -20206 
  -20140   -20187   -20777   -21502   -22086   -22661   -22864   -22561 
  -22204   -22094   -22191   -22021   -21289   -20609   -20262   -19899 
  -19712   -19782   -19708   -19622   -19701   -19773   -20024   -20395 
  -20470   -20483   -20596   -20389   -20096   -20093   -19921   -19566 
  -19458   -19300   -18991   -18972   -19047   -18810   -18455   -18187 
  -18000   -17949   -18180   -18798   -19502   -19984   -20457   -20873 
  -20946   -20976   -21136   -21172   -21062   -20829   -20576   -20522 
  -20455   -20206   -19924   -19692   -19786   -20287   -20830   -21301 
  -21617   -21652   -21597   -21421   -21070   -20796   -20476   -19924 
  -19421   -19136   -18925   -18692   -18542   -18549   -18557   -18593 
  -18775   -18851   -18829   -18943   -19044   -19341   -20083   -20802 
  -21242   -21355   -21073   -20889   -20869   -20551   -20190   -20104 
  -20063   -19985   -19982   -20135   -20530   -21185   -21959   -22675 
  -23247   -23527   -23491   -23472   -23615   -23749   -23820   -23724 
  -23365   -22896   -22316   -21556   -20804   -20191   -19764   -19664 
  -20012   -20691   -21176   -21196   -21255   -21566   -21743   -21826 
  -21971   -21857   -21481   -21184   -20818   -20124   -19398   -18878 
  -18459   -18239   -18291   -18334   -18272   -18299   -18513   -18797 
  -19056   -19414   -19832   -20133   -20461   -20785   -20898   -21007 
  -21142   -21192   -21303   -21203   -20711   -20298   -20181   -20251 
  -20476   -20875   -21498   -22153   -22650   -23022   -23099   -22766 
  -22184   -21465   -20831   -20472   -20254   -20160   -20305   -20552 
  -20660   -20551   -20412   -20394   -20416   -20536   -20889   -21263 
  -21416   -21452   -21505   -21570   -21663   -21740   -21666   -21459 
  -21097   -20540   -20152   -20101   -20011   -19809   -19535   -18971 
  -18287   -17787   -17531   -17662   -18179   -18709   -18993   -19245 
  -19669   -19857   -19483   -18867   -18351   -18168   -18449   -18933 
  -19481   -20106   -20515   -20552   -20376   -20179   -20086   -19894 
  -19543   -19425   -19511   -19546   -19610   -19427   -18755   -18088 
  -17690   -17452   -17604   -18165   -18805   -19391   -19637   -19253 
  -18531   -17938   -17733   -17876   -18222   -18894   -19836   -20723 
  -21562   -22222   -22430   -22347   -21940   -21208   -20791   -20746 
  -20544   -20439   -20737   -21051   -21228   -21323   -21277   -21401 
  -21807   -22087   -22033   -21651   -21204   -21062   -21088   -21277 
  -21824   -22111   -21721   -21224   -20715   -19955   -19475   -19614 
  -20015   -20447   -20888   -21344   -21838   -22144   -22013   -21775 
  -21901   -22238   -22464   -22484   -22172   -21609   -21169   -21131 
  -21533   -22009   -22158   -22021   -21659   -21155   -20911   -21072 
  -21366   -21724   -22154   -22370   -22164   -21595   -20725   -19769 
  -19334   -19835   -20760   -21298   -21398   -21492   -21728   -22117 
  -22833   -23712   -24231   -24312   -24001   -23174   -22264   -21741 
  -21450   -21201   -20911   -20584   -20268   -19738   -19137   -18909 
  -18841   -18674   -18420   -17905   -17432   -17594   -18177   -18800 
  -19545   -20413   -21149   -21645   -22033   -22152   -21573   -20339 
  -18725   -16869   -15229   -14319   -14268   -14871   -15646   -16430 
  -17343   -17925   -17841   -17658   -17987   -18941   -20281   -21544 
  -22349   -22468   -21906   -21141   -20613   -20332   -20421   -20933 
  -21425   -21766   -22003   -21643   -20769   -20166   -19870   -19637 
  -19537   -19464   -19446   -19624   -19915   -20345   -20943   -21573 
  -21980   -22115   -22476   -23091   -23296   -23117   -22901   -22631 
  -22326   -21874   -21213   -20447   -19421   -18242   -17221   -16526 
  -16560   -17201   -17764   -18328   -19086   -19622   -19885   -20291 
  -20976   -21713   -22287   -22497   -22249   -21990   -21972   -21728 
  -21396   -21423   -21456   -21547   -21980   -22235   -22079   -21535 
  -20321   -18833   -17799   -17460   -17802   -18511   -19170   -19498 
  -19346   -18962   -18655   -18638   -19194   -20038   -20336   -19672 
  -18396   -17425   -17219   -17371   -17869   -19047   -20691   -22454 
  -23849   -24335   -24042   -23357   -22609   -22225   -22098   -21768 
  -21460   -21690   -22233   -22482   -22374   -22149   -21743   -21240 
  -20883   -20480   -20237   -20733   -21479   -21838   -22056   -21952 
  -21247   -20555   -20098   -19526   -19013   -18777   -18705   -18750 
  -18832   -19051   -19527   -19888   -19857   -19653   -19645   -20100 
  -20677   -20765   -20617   -20790   -21038   -20889   -20289   -19372 
  -18426   -17775   -17489   -17559   -17875   -18118   -18380   -18939 
  -19603   -20390   -21535   -22754   -23808   -24648   -24829   -24128 
  -23122   -22734   -23252   -23930   -23984   -23217   -21654   -19703 
  -17824   -16019   -14574   -14040   -14161   -14207   -14351   -15452 
  -17294   -19014   -20614   -21829   -22044   -21929   -21957   -21590 
  -21149   -21146   -21089   -20850   -20896   -21262   -21687   -22025 
  -22269   -22527   -22839   -23093   -23018   -22505   -21952   -21736 
  -21660   -21674   -22067   -22501   -22612   -22847   -23344   -23758 
  -23908   -23492   -22589   -21689   -21027   -20854   -21078   -21335 
  -21960   -22954   -23542   -23604   -23139   -22025   -21200   -21168 
  -21089   -20767   -20439   -19942   -19807   -20502   -21188   -21307 
  -21284   -21130   -20601   -20048   -19774   -19665   -19726   -19836 
  -19572   -18960   -18470   -18171   -17770   -17367   -17428   -18085 
  -19017   -19935   -20687   -21034   -20920   -20787   -20987   -21319 
  -21469   -21465   -21581   -21703   -21409   -20912   -20538   -19997 
  -19332   -18887   -18643   -18578   -18547   -18338   -18245   -18368 
  -18364   -18353   -18663   -19244   -19809   -19820   -19229   -18812 
  -18604   -18121   -17799   -17848   -17840   -17942   -18226   -18284 
  -18072   -17674   -17278   -17046   -16630   -16198   -16467   -17324 
  -18480   -20005   -21401   -22266   -22883   -23328   -23608   -23730 
  -23382   -22674   -21868   -20852   -20247   -20791   -21783   -22538 
  -23279   -23739   -23622   -23305   -22887   -22428   -22179   -21818 
  -21070   -20317   -19831   -19245   -18258   -17452   -17037   -16186 
  -15302   -15588   -16380   -16686   -16858   -16873   -16513   -16564 
  -17396   -18500   -19666   -20941   -22130   -22977   -23575   -24139 
  -24394   -24221   -24177   -24467   -24806   -25122   -25320   -25182 
  -24736   -24318   -24108   -23552   -22397   -21311   -20452   -19834 
  -19989   -20440   -20444   -20321   -19969   -19350   -19479   -20289 
  -20638   -20443   -20140   -19882   -19907   -20345   -20952   -21288 
  -21207   -20972   -20646   -20283   -20382   -20748   -20544   -20070 
  -19969   -19919   -19940   -20464   -21196   -21879   -22572   -22964 
  -22866   -22427   -21794   -21034   -20039   -19116   -18928   -19260 
  -19705   -20501   -21226   -21262   -21042   -20727   -20277   -20583 
  -21620   -22104   -21964   -21876   -21656   -21190   -20935   -20926 
  -20892   -20796   -20448   -19630   -18740   -18135   -17598   -17016 
  -16484   -16062   -15903   -16043   -16417   -17088   -17953   -18750 
  -19325   -19608   -19704   -19645   -19288   -18828   -18594   -18580 
  -18713   -18970   -19516   -20564   -21578   -21930   -21718   -21024 
  -20108   -19599   -19526   -19672   -19955   -20151   -20414   -20772 
  -20633   -20146   -19973   -20009   -20063   -20406   -21055   -21636 
  -22007   -22439   -23175   -24305   -25498   -26011   -25870   -25533 
  -24615   -23215   -22465   -22459   -22461   -22272   -21671   -20810 
  -20433   -20278   -19527   -18092   -16347   -15284   -15562   -16416 
  -17219   -17990   -18582   -19105   -19583   -19850   -20355   -21073 
  -21201   -20927   -20865   -20872   -20680   -20082   -19287   -19071 
  -19558   -20412   -21478   -22262   -22507   -22442   -21969   -21119 
  -20387   -20100   -20223   -20317   -20098   -19981   -20272   -20729 
  -21145   -21568   -22092   -22480   -22495   -22599   -22979   -23164 
  -23302   -23704   -24160   -24744   -25211   -24777   -23573   -22269 
  -21089   -20275   -19882   -19724   -19830   -19880   -19434   -18866 
  -18670   -18763   -18978   -19462   -20322   -21087   -21219   -20926 
  -20663   -20491   -20406   -20480   -20576   -20540   -20567   -20873 
  -21197   -21093   -20768   -20891   -21309   -21358   -21289   -21523 
  -21691   -21830   -22096   -21767   -20992   -20753   -20605   -19913 
  -19183   -18507   -17647   -17066   -17246   -18079   -18848   -18887 
  -18439   -18033   -17722   -17523   -17516   -17436   -16899   -15973 
  -15172   -14897   -14979   -15064   -15371   -16148   -16884   -17139 
  -17138   -17054   -16943   -16966   -17101   -17590   -18647   -19441 
  -19404   -19133   -18727   -18107   -17909   -17940   -17452   -16757 
  -16274   -15986   -16081   -16359   -16656   -17470   -18343   -18403 
  -18465   -19363   -20483   -21367   -22018   -22434   -22900   -23534 
  -24246   -25023   -25559   -25674   -25783   -26111   -26238   -25947 
  -25656   -25618   -25749   -26104   -26468   -26460   -26079   -25535 
  -25161   -24930   -24491   -24170   -24128   -24194   -24958   -26252 
  -26921   -26902   -26611   -26067   -25479   -25065   -24930   -25051 
  -25164   -25033   -24502   -23680   -23010   -22573   -22165   -21860 
  -21633   -21182   -20598   -20309   -20197   -19921   -19764   -19926 
  -20151   -20275   -20132   -19624   -18895   -18130   -17587   -17259 
  -16896   -16726   -16902   -16916   -16478   -15908   -15557   -15427 
  -15429   -15628   -15970   -16348   -16812   -17068   -16837   -16722 
  -17118   -17470   -17764   -18449   -18936   -18760   -18634   -18793 
  -18738   -18558   -18550   -18667   -18974   -19241   -18964   -18349 
  -17836   -17469   -17377   -17525   -17682   -17817   -17848   -17763 
  -17645   -17659   -18106   -18673   -18785   -18751   -19053   -19557 
  -19901   -19880   -19649   -19395   -19090   -19144   -19882   -20698 
  -21216   -21728   -22261   -22648   -22715   -22515   -22426   -22214 
  -21640   -21442   -21795   -22073   -22314   -22543   -22277   -21640 
  -21120   -20845   -20844   -20953   -20919   -20899   -20939   -20798 
  -20514   -20285   -20402   -21092   -21864   -22210   -22403   -22615 
  -22572   -22281   -21875   -21317   -20740   -20479   -20552   -20513 
  -20248   -20109   -20120   -20277   -20926   -22061   -23113   -23473 
  -23242   -23191   -23449   -23668   -24097   -24802   -25389   -25689 
  -25448   -24746   -24240   -23895   -23252   -22543   -22069   -21595 
  -20985   -20611   -20540   -20275   -19823   -19565   -19573   -19800 
  -19955   -19815   -19692   -19701   -19661   -19611   -19622   -19687 
  -19765   -19703   -19318   -18812   -18813   -19337   -19801   -20123 
  -20347   -20187   -19395   -18049   -16941   -16772   -17393   -18355 
  -19107   -19477   -19678   -19444   -19084   -19538   -20324   -20487 
  -20218   -20044   -20403   -21197   -21566   -21301   -20876   -20484 
  -20472   -21035   -21645   -22107   -22489   -22256   -21490   -21070 
  -20802   -20202   -19781   -19611   -19336   -19184   -19202   -19377 
  -19947   -20436   -20387   -20259   -20332   -20569   -20989   -21172 
  -20760   -20121   -19629   -19387   -19603   -20266   -20968   -21222 
  -20818   -20115   -19499   -18929   -18644   -18866   -19062   -18943 
  -18860   -19022   -19423   -19805   -19955   -20275   -20973   -21575 
  -21901   -22030   -22067   -22505   -23299   -23693   -23519   -22990 
  -22334   -21732   -21047   -20920   -21799   -22296   -21946   -21551 
  -20779   -19961   -19998   -20144   -19758   -19078   -18517   -18773 
  -19303   -19199   -19251   -19754   -19831   -19549   -19168   -18549 
  -18052   -17712   -17254   -17066   -17257   -17379   -17343   -17273 
  -17269   -17236   -17001   -16895   -17111   -17431   -18071   -19032 
  -19715   -20146   -20740   -21266   -21486   -21582   -21465   -21038 
  -20696   -20791   -21404   -22343   -23187   -23681   -23557   -22680 
  -21679   -21050   -20506   -20050   -20069   -20429   -20628   -20443 
  -20214   -20507   -21215   -21656   -21725   -21767   -21787   -21763 
  -21813   -21793   -21467   -20972   -20723   -20815   -20883   -20744 
  -20359   -19661   -19259   -19743   -20579   -21216   -21540   -21250 
  -20610   -20186   -19874   -19480   -18948   -18432   -18393   -18659 
  -18931   -19488   -20047   -20129   -20135   -20297   -20340   -20324 
  -20387   -20453   -20542   -20614   -20582   -20657   -20999   -21343 
  -21628   -21999   -22223   -22227   -22238   -22130   -21845   -21335 
  -20378   -19469   -19078   -18821   -18662   -18916   -19650   -20823 
  -21805   -21914   -21307   -20410   -19975   -20575   -21568   -22296 
  -22666   -22574   -22248   -21929   -21620   -21535   -21697   -21836 
  -21774   -21544   -21439   -21492   -21242   -20449   -19643   -19448 
  -19673   -20104   -20906   -21678   -22017   -22026   -21691   -21389 
  -21606   -21884   -21847   -21836   -21929   -21886   -21803   -21952 
  -21975   -21358   -20646   -20329   -19984   -19683   -19743   -19803 
  -19758   -19786   -19880   -20268   -20772   -20812   -20393   -19683 
  -19022   -18982   -19323   -19834   -20671   -21232   -21439   -21780 
  -21598   -20779   -20532   -20980   -21200   -20969   -20781   -20850 
  -20802   -20413   -19753   -18824   -18067   -17975   -18283   -18643 
  -19128   -19884   -20733   -21105   -20918   -20499   -19813   -19140 
  -18835   -18526   -18138   -17980   -17987   -18139   -18370   -18577 
  -19005   -19658   -20204   -20337   -20090   -19916   -19739   -19357 
  -19303   -19651   -19938   -20048   -20124   -20328   -20387   -20317 
  -20748   -21266   -21348   -21320   -20841   -20056   -19901   -19893 
  -19449   -18944   -18384   -17928   -17763   -17444   -17101   -17147 
  -17436   -17728   -17625   -17271   -17485   -18069   -18324   -18276 
  -18106   -18256   -19205   -20324   -20717   -20544   -20370   -20244 
  -19993   -19830   -20040   -20472   -20802   -20758   -20278   -19905 
  -20189   -20779   -21219   -21670   -22118   -22347   -22468   -22680 
  -23045   -23284   -23264   -23426   -23696   -23583   -23247   -23017 
  -23041   -23276   -23499   -23845   -24208   -24135   -23919   -23737 
  -23113   -22281   -21780   -21587   -21793   -22468   -23272   -23966 
  -24100   -23136   -21717   -20875   -20320   -19630   -19426   -19915 
  -20517   -21109   -21757   -22202   -22357   -22063   -21030   -19785 
  -19341   -20021   -21373   -22377   -22364   -21813   -21047   -19928 
  -19207   -19323   -19543   -19901   -20846   -21654   -21628   -21111 
  -20768   -20999   -21452   -21663   -21982   -22478   -22419   -21616 
  -20625   -19992   -19938   -20059   -19687   -19044   -18885   -18836 
  -18161   -17543   -17775   -18427   -18933   -19003   -18679   -18476 
  -18401   -18126   -17806   -17633   -18007   -19171   -20221   -20536 
  -20564   -20370   -19830   -19299   -18945   -18651   -18387   -18189 
  -17953   -17644   -17570   -17871   -18304   -18715   -19040   -19309 
