Origin Time       2024/04/02 04:24:00
Lat.              40.133
Long.             141.712
Depth. (km)       71
Mag.              6.0
Station Code      MYGH11
Station Lat.      38.5158
Station Long.     141.3421
Station Height(m) 5
Record Time       2024/04/02 04:25:05
Sampling Freq(Hz) 100Hz
Duration Time(s)  120
Dir.              5
Scale Factor      7845(gal)/8223790
Max. Acc. (gal)   14.234
Last Correction   2024/04/02 04:25:05
Memo.             
[...]
   20453    21409    21590    20594    19245    18689    19035    19684 
   20451    21096    21400    21249    20237    18873    18234    18451 
   19117    20036    21261    22114    21523    20044    18927    18632 
   19245    19988    20110    20055    20367    20783    20482    19781 
   19719    19768    19290    19020    19523    20472    21142    20993 
   20559    20595    20432    19615    18804    18631    19500    20507 
   20748    20864    21031    21050    20802    20063    19299    18746 
   18503    18701    18983    19526    20364    21070    21521    21338 
   20428    19267    18625    18893    19148    19003    19553    21331 
   22773    22072    20252    19120    19134    19912    19948    19307 
   19519    20043    20089    19892    19696    19870    20067    19819 
   19311    18998    19523    20405    20745    20714    20393    19917 
   19773    19926    20197    20455    20328    19703    19168    19426 
   20367    21030    20557    19487    19296    19969    20228    20152 
   20352    20471    20198    19496    18925    19484    20760    21514 
   21200    20175    19282    18723    18449    18508    18948    20183 
   21419    21402    20958    20927    20785    20175    19229    18453 
   18331    18793    19560    20259    20680    20969    21231    21421 
   21338    20899    19989    18782    18469    19327    20051    20162 
   20179    20218    20035    19749    19472    18979    18702    19143 
   19820    20328    20482    20318    20587    21163    20823    19584 
   18697    18900    19969    20737    20436    19966    20119    20526 
   20661    20363    20074    20183    20025    18864    17744    18173 
   19696    21097    21925    22087    21439    19924    18527    18615 
   19946    20875    20456    19635    19260    19164    19741    20682 
   21107    21297    21165    20298    19256    18831    19118    19630 
   20073    20281    19973    19365    19364    20332    21224    20961 
   19803    18883    19053    20115    21216    21641    21177    20294 
   19580    18991    18422    18345    19105    20574    22160    22535 
   21226    19816    19296    18750    18034    18122    19094    20125 
   20474    20245    20082    20413    21093    21190    20268    19336 
   19205    19453    19866    20576    21108    21149    20667    20005 
   19747    19448    18848    18364    18040    18446    19877    21481 
   22450    22441    21741    20569    18773    17088    16972    18851 
   21118    21826    21015    19917    19480    19996    20480    20164 
   19926    20065    19792    19317    19390    19934    20517    20530 
   19749    19346    19830    20170    20233    20511    20648    20399 
   20268    20474    20661    20557    20075    19271    18684    18993 
   19915    20621    20638    19944    19348    19226    19076    19430 
   20406    20960    21282    21483    20861    19939    19334    19103 
   19429    19738    19858    20409    20984    20962    20349    19431 
   18846    18913    19365    19857    20271    20557    20587    20464 
   20333    20164    19915    19527    19341    19836    20459    20498 
   20017    19300    19192    19742    19735    19067    18561    19217 
   20988    22063    21876    21027    19859    18955    18118    17464 
   17963    19390    20839    21617    21512    20934    20201    19822 
   20179    20822    21092    20487    19376    18786    18910    19506 
   20363    20988    21116    20929    20409    19350    18335    18183 
   19008    20403    21261    20776    19762    19450    19993    20684 
   20818    20343    19685    19075    18638    18846    20007    21348 
   21847    21620    20985    19764    18594    18389    19140    20479 
   21216    20702    20542    20947    20407    19379    18820    18874 
   19525    20081    20078    19674    19129    18944    19368    20119 
   20601    20605    20491    20385    20189    19913    19828    19962 
   19865    19479    19333    20169    21675    22528    22419    21703 
   20352    18584    17248    17209    18478    20160    21104    20907 
   20289    19912    19678    19668    20182    20776    20783    20061 
   19215    19280    20052    20556    20652    20368    19859    19476 
   19209    19449    20224    20700    20934    20858    20002    19404 
   19847    20518    20528    19658    18634    18419    19105    19822 
   19850    19881    20599    21312    21479    21037    20200    19722 
   19244    18192    17721    18513    19766    20896    21411    20825 
   20074    19978    19816    19842    20537    20814    20525    20225 
   19773    19624    19839    19588    18928    18720    19480    20517 
   20868    20671    20274    20100    20223    19961    19508    19441 
   19820    20309    20252    20113    20463    20974    21531    21471 
   20650    20036    19599    18805    17917    18014    19008    19552 
   19813    19932    19747    20132    20556    20343    20325    20618 
   20680    20551    20464    20266    19896    19476    19234    19734 
   20582    21105    21212    20623    19816    19068    18378    18562 
   19515    20864    22029    21649    20217    19242    19294    20098 
   20152    19094    18616    19079    19707    20150    20166    20505 
   21578    21932    20723    19043    18376    19003    19909    20291 
   20281    20486    20962    21076    20969    20723    19735    18617 
   18303    18774    19527    19808    19762    19912    20125    20471 
   20893    20957    20455    19607    19236    19715    20218    20116 
   19975    20343    20536    19890    18820    18330    19349    21289 
   22279    21717    20552    19670    19419    19421    18935    18334 
   18422    18852    19234    19737    20547    21497    21605    20815 
   20164    19711    19660    20104    19885    19083    18751    18970 
   19548    20390    21390    22038    21595    20393    19036    18046 
   18353    19556    20588    21173    20884    20092    19812    20078 
   20532    20633    20002    19222    19032    19638    20822    21870 
   22104    21617    20665    19372    18148    17386    17308    18022 
   19325    20526    21020    20973    20673    20382    20254    19915 
   19548    19518    19533    19734    20395    21251    21967    22135 
   21401    19911    18396    17664    18095    19568    21308    21984 
   20923    19107    18146    18423    19168    19894    20683    21389 
   21413    20623    19830    19704    19930    19549    18916    19369 
   20263    20298    19518    18775    19136    19917    19850    19711 
   20418    21444    21644    20614    19515    19677    20760    21247 
   20910    20563    20120    19757    19426    18365    17930    19302 
   20706    20834    19963    19084    19192    19442    19236    19464 
   19998    20501    20781    20205    19705    20817    22829    23676 
   22378    19764    17626    16976    17502    19075    21324    22844 
   22408    20119    17572    16380    17185    19445    21554    22324 
   21550    20079    19190    19268    20119    21060    21319    20914 
   20079    19102    18565    19138    20417    20907    20565    20181 
   19738    19452    19514    19882    20432    20397    19703    19427 
   19467    19126    19341    20200    20537    20846    21004    20038 
   19060    18724    18709    19564    20783    21277    21139    21046 
   21011    20004    18802    19167    20093    20378    19988    18881 
   18424    19441    20520    20838    20669    20213    19515    18727 
   18617    19311    20075    20584    20804    21039    20983    20371 
   20324    20821    20980    20749    19807    18372    17694    18230 
   19287    20200    20931    21593    21852    21396    20764    20448 
   19982    19242    18998    19349    19606    19650    19557    19569 
   20154    20514    20208    20101    20409    21162    21462    20256 
   19381    19531    19024    18384    18357    18426    18820    19537 
   20463    21370    21544    21213    20572    19661    19479    19920 
   19942    19881    20263    20542    20351    19892    19515    19523 
   19572    19237    19329    20579    21710    21324    20136    19430 
   19496    19745    19537    19403    19882    20113    19828    19781 
   20166    20742    20795    19955    19020    18593    18949    20007 
   21010    21301    20906    20673    20436    19487    18948    19375 
   20044    20773    20989    20386    20042    20590    21231    21332 
   20989    20070    18864    18122    17751    17809    18878    20599 
   21809    21778    20884    19847    19238    19261    19020    18596 
   19136    20070    20736    21342    21551    21043    20129    19506 
   19236    19120    19612    20591    21278    21130    20094    18623 
   17363    17350    18951    20862    22115    22570    21984    21020 
   20209    19133    18037    17693    18850    21166    22577    21957 
   20316    18939    18211    17975    18373    19755    21451    22003 
   21114    19750    18867    18659    18727    19283    20709    22076 
   22184    21374    20725    20140    18989    17786    17370    18092 
   19909    21578    21994    21637    20956    19764    18226    17406 
   18314    20237    21664    22038    21685    21155    20767    20061 
   18862    18651    19572    19739    19283    19138    19363    20100 
   20385    19778    19584    19985    20081    19622    19407    20106 
   20806    20941    20749    20054    19707    20181    20310    19715 
   18968    18658    18702    18735    19283    20317    21419    22297 
   21952    21182    21051    20398    19616    19576    19418    19445 
   19984    19959    19742    19948    19746    19881    20988    21548 
   21312    20599    19241    17890    17022    17115    18503    20163 
   21298    21936    21791    20933    19662    18443    18449    19712 
   21015    21676    21458    20903    20853    20968    20665    19920 
   19083    18913    18827    17879    17355    18200    20248    22815 
   23437    21465    19579    19376    20046    20434    20227    19880 
   19693    19060    18112    18065    19105    20974    22673    22310 
   20353    18777    18513    19468    20185    19915    19704    19290 
   18230    18351    20127    22009    23332    23251    21651    20023 
   18598    17745    18353    19538    20653    21332    20607    18910 
   17847    18454    19930    20806    21131    21212    21215    21054 
   19939    18808    19089    19938    20002    19346    19282    20237 
   20907    20659    19978    19219    18810    18855    18962    19473 
   20827    21960    21864    21037    20029    19261    19167    18890 
   18098    18225    19325    20452    21575    22144    21613    20576 
   19678    18721    17834    18326    20227    21632    21226    19862 
   19283    19785    20877    21882    22084    21323    19627    18142 
   18026    19014    20923    22447    21799    19917    18230    17221 
   17757    19556    21092    21616    21132    19903    18989    19376 
   20285    20911    21136    20368    19311    18937    18621    18585 
   19761    21458    22412    22432    21304    19300    18256    18333 
   18350    18763    19485    19788    20244    20933    20876    20250 
   20403    20962    20660    19857    18859    18238    18704    19233 
   19404    19661    20235    21022    20935    20065    19094    18177 
   18418    19507    20289    21307    22318    22400    21269    19311 
   18543    19433    19965    19823    19782    19873    20204    20437 
   20287    20476    20835    20079    18504    17594    18252    20285 
   22189    23076    23044    21887    20117    18817    18422    18706 
   19504    20356    20376    20248    20463    20325    20329    19990 
   19207    19314    19160    18588    19056    20024    21189    21953 
   21636    21122    20601    20375    20474    20163    20181    20579 
   20734    20515    19477    18472    18071    17793    17941    18632 
   19859    20996    20791    19442    18347    18824    20278    20791 
   20308    20100    20360    20433    20424    20673    20860    21203 
   21691    20920    18513    16669    17213    18870    19746    20355 
   21217    21185    20032    18985    19314    20736    21277    20310 
   19109    18715    19272    20106    20667    21155    21369    20873 
   19862    18823    18634    19325    20078    20595    20190    19188 
   19098    19811    20171    19391    18175    18104    19202    20326 
   20830    21053    21142    21092    21277    20849    19899    19731 
   19549    18901    18435    18303    19076    20152    20614    20787 
   19804    17864    17217    17859    19030    20418    21006    21242 
   21324    20379    19692    20399    21265    21531    21363    20920 
   20985    21288    20439    18947    18229    18301    18301    18013 
   18428    19676    20542    20669    20555    20262    19160    17604 
   17281    18391    20359    23147    25004    24499    22917    21284 
   19707    19129    19962    21286    22369    22820    22037    19564 
   16318    14509    14962    16933    19318    20337    19624    18824 
   18647    18820    19673    21321    22735    22685    21200    19939 
   19878    20371    21687    23778    25501    26747    26809    25706 
   24956    23688    21060    17986    15822    16861    20520    23168 
   22611    18762    13999    10851    10161    13355    19969    26468 
   30279    30345    27205    23045    19521    17481    17686    20209 
   23454    25473    26046    25710    25016    24254    22239    18331 
   13848     9459     5931     5074     6623     9599    14011    18708 
   22923    26179    27243    26518    24389    20799    17294    15134 
   14269    14241    15434    18566    23171    27970    30599    28908 
   23577    17365    12409     9142     8171    10474    15134    20405 
   24927    27013    26304    23885    20532    17969    17620    18146 
   18582    19417    20584    21872    22531    21905    20776    19674 
   18873    18990    19519    20106    21352    22353    21331    18226 
   14868    13452    14416    16787    19585    21825    23402    24993 
   25683    23735    20370    18434    18971    21964    25971    28794 
   30173    29430    24560    16308     8865     6119     8872    15294 
   22075    25809    25658    23434    20645    18235    17093    17134 
   18374    20583    22315    22734    21821    20617    20745    21072 
   19346    16802    15669    16254    18975    22505    23653    22773 
   21193    18214    14918    12607    11218    11688    14450    19072 
   25080    30565    33104    31826    28179    24179    19623    14292 
   10910    12239    17487    22705    24597    23735    21732    18075 
   12748     8407     8132    12109    18432    25474    31201    33899 
   32347    25064    14856     8334     8128    12280    18405    24652 
   29392    30778    28113    23539    19668    17994    18878    20002 
   19005    16938    15615    15492    17011    20031    23290    25956 
   26882    24746    20733    16753    13400    11588    11923    13899 
   17344    21475    23735    23452    23160    24133    25231    25110 
   24297    24493    24570    23245    22273    22148    22351    22901 
   22566    21728    23055    25964    26080    21373    14507     9201 
    7298     8145    10292    13198    16156    17470    15492    11794 
   11218    15379    22094    28933    32548    32132    29917    25616 
   19670    16143    16792    19498    21633    21791    20699    20171 
   20291    19745    18571    17702    16829    15002    12372    11068 
   13370    18940    25598    30200    29299    23178    16179    12526 
   14241    19782    26369    32078    33558    29732    22731    14570 
    9788    10721    14370    18966    22964    24912    25863    26106 
   25392    24030    21479    16483     9876     6091     7653    12820 
   18947    24173    28378    30449    27697    21147    14814    11538 
   11645    13944    18474    24263    28179    28780    25960    21199 
   16692    13088    12708    16968    23244    28462    28782    22912 
   15472    10959    10841    14775    21392    27538    28945    25647 
   21195    18318    18010    18928    20116    21419    22188    22945 
   22474    19468    17147    16992    17147    17020    16245    15928 
   18362    21767    21999    18716    15741    16659    20166    22354 
   23147    23512    22590    20767    18073    14913    14106    16707 
   21409    26041    27322    24516    20595    16968    13170    11851 
   14682    18631    22891    27206    28066    25637    22640    18427 
   13105    10299    11695    15337    19915    24274    26569    27475 
   27307    24988    22453    20884    19674    19369    18666    17774 
   18644    19753    21124    23402    24293    23585    21524    18330 
   16275    15581    15916    18567    22932    26462    26929    24723 
   22318    20046    17138    14399    13589    16718    22758    27734 
   29280    27571    23754    18083    11963     8406     7677     9360 
   13143    16082    17338    19153    21382    23004    24646    25479 
   24436    22742    21157    20634    22373    24185    23985    21694 
   16883    12299    12028    15867    21022    23831    22964    20956 
   19255    17751    16646    16329    17340    18891    19483    19359 
   19820    20925    22184    23950    25397    24807    22275    18778 
   15361    13753    14206    14993    16382    20478    25841    28073 
   25704    20807    16571    16031    18571    21074    23450    26022 
   26370    22727    15800     9474     8572    12908    18160    21136 
   21047    19801    20058    21278    21709    21968    23082    24467 
   25293    24533    21681    19491    19759    20432    21050    21807 
   21957    22360    22844    23203    23757    22234    18693    15282 
   11838    10035    11178    13907    19523    27129    31575    31719 
   27903    20551    14615    12017    10434    11821    17579    23564 
   26794    27688    25883    21219    16217    13267    13136    15481 
   18747    22075    25381    27338    26107    21753    17064    15132 
   16017    17136    17793    19788    21972    22102    21937    21797 
   20667    20729    20650    18517    17739    18611    19542    21429 
   23197    23912    24079    23576    22788    20663    16492    13807 
   14725    16816    18135    18678    18858    19560    20397    19684 
   18219    18095    19481    21384    22056    20050    17199    17197 
   19751    22108    23882    24040    21843    20213    20081    19156 
   17230    15765    16344    19579    23168    24611    23615    22327 
   22821    22816    20502    17037    13150    11700    14092    16688 
   17670    18360    19689    21868    24975    27595    26628    22729 
   19861    19057    19587    20714    21416    23095    26342    27078 
   23599    18674    14877    14315    16676    19807    21712    20401 
   18796    19892    19714    17513    16835    17366    18794    21022 
   21682    20893    21084    22677    23178    20675    17392    16116 
   16785    17485    17064    17450    19114    19206    18388    19789 
   22233    22982    22071    20074    17666    16521    17408    19244 
   20680    21116    20761    21209    22905    24486    24956    23511 
   22422    23953    24557    21797    18279    17089    19263    21705 
   20511    17554    17274    20252    22850    21936    19253    17190 
