Origin Time       2024/04/02 04:24:00
Lat.              40.133
Long.             141.712
Depth. (km)       71
Mag.              6.0
Station Code      MYGH03
Station Lat.      38.9207
Station Long.     141.6377
Station Height(m) 80
Record Time       2024/04/02 04:24:59
Sampling Freq(Hz) 100Hz
Duration Time(s)  124
Dir.              5
Scale Factor      7845(gal)/8223790
Max. Acc. (gal)   30.995
Last Correction   2024/04/02 04:24:59
Memo.             
[...]
   -5208    -4542    -4766    -5312    -6295    -6486    -5501    -5537 
   -6689    -6509    -6011    -5918    -4839    -4973    -6393    -5836 
   -5003    -6667    -8194    -6874    -5196    -5184    -4905    -4480 
   -4441    -3145    -3578    -7263    -8923    -7433    -4857    -2451 
   -3630    -7308    -7609    -5255    -6415    -9717    -8286    -4251 
   -3708    -4676    -5618    -7626    -7049    -5017    -5767    -5995 
   -4923    -5271    -5436    -4760    -5166    -6419    -6008    -4968 
   -5827    -5818    -4800    -6430    -7495    -5872    -5821    -6589 
   -5927    -5744    -5536    -5308    -7306    -9285    -8064    -4688 
   -2285    -3237    -5849    -6802    -5737    -4464    -4935    -6814 
   -7993    -6879    -4222    -2855    -3257    -4808    -7782    -9386 
   -6918    -4276    -5019    -5792    -5740    -6698    -6540    -5686 
   -5611    -4745    -4247    -5710    -7364    -7495    -6031    -4853 
   -6162    -8013    -7515    -5417    -2604    -1593    -5084    -7920 
   -6093    -5139    -7101    -6918    -4976    -4800    -5005    -5125 
   -5891    -5570    -5112    -6228    -7095    -6853    -6292    -5478 
   -4986    -5319    -5566    -5544    -5937    -5517    -3865    -3634 
   -6068    -9348   -10289    -7771    -4978    -4288    -4230    -3532 
   -3661    -5643    -7564    -8468    -8314    -5456    -2421    -3360 
   -5937    -7186    -7396    -7265    -7686    -7480    -5566    -3993 
   -3559    -4097    -5620    -6007    -5491    -6562    -6979    -4675 
   -3411    -5089    -6783    -7168    -6760    -5541    -5323    -6724 
   -6215    -3662    -4032    -6652    -6054    -4677    -5888    -6053 
   -6164    -7835    -6540    -4471    -6706    -8703    -6785    -4833 
   -5617    -7288    -6338    -4338    -5109    -5730    -4388    -4676 
   -6551    -7574    -7388    -5769    -3677    -3376    -4437    -4928 
   -5557    -6450    -5742    -5707    -6797    -5682    -5915    -7129 
   -4792    -5193    -8449    -7110    -5220    -5135    -4499    -6747 
   -8831    -5859    -3514    -4525    -5354    -5387    -5398    -6160 
   -7268    -7105    -6315    -5093    -4351    -5402    -4604    -3369 
   -6322    -7954    -6080    -6332    -7144    -5904    -5568    -6211 
   -6180    -5316    -4179    -5468    -7484    -5368    -2801    -4260 
   -6288    -6810    -6702    -4950    -3545    -5637    -8020    -8070 
   -6793    -3681    -1345    -3231    -6886    -9252    -9107    -6696 
   -5034    -5143    -5262    -6070    -7771    -7321    -6316    -7379 
   -6367    -3624    -3204    -3738    -5275    -7007    -6415    -6204 
   -6346    -4303    -3501    -5142    -6006    -7164    -8202    -6385 
   -5190    -5512    -5433    -6471    -5778    -3990    -5699    -6149 
   -4480    -6323    -8136    -6261    -4380    -3684    -3585    -5651 
   -7869    -6529    -5081    -6864    -7258    -4646    -3176    -3717 
   -5196    -7188    -8255    -8382    -7493    -4689    -3654    -5960 
   -6709    -5517    -5459    -5933    -5281    -4183    -5215    -6974 
   -7195    -7956    -7508    -5055    -4695    -4633    -3989    -5566 
   -6214    -4918    -5464    -6824    -6955    -6686    -5594    -4511 
   -5711    -7110    -6917    -7492    -8027    -6783    -5337    -3773 
   -3485    -5917    -7187    -5926    -4876    -4955    -6138    -7079 
   -6507    -5741    -5360    -5721    -6574    -5404    -4044    -4955 
   -4949    -4217    -5691    -7464    -6978    -5659    -5844    -6012 
   -5080    -5071    -4904    -4326    -5975    -7227    -6103    -5757 
   -5571    -5310    -7469    -7685    -3786    -2351    -4689    -6705 
   -7057    -6054    -5270    -5439    -5765    -6836    -7719    -6003 
   -3649    -4428    -6075    -4693    -3645    -5432    -6691    -7573 
   -8572    -6602    -4175    -5009    -5339    -4588    -6246    -7069 
   -5209    -4314    -4749    -5783    -7966    -9194    -7514    -5398 
   -4695    -4310    -5410    -6995    -5707    -4914    -6122    -5744 
   -5984    -7487    -6871    -5655    -5098    -4648    -4851    -4665 
   -4738    -6799    -7763    -6430    -6249    -6223    -5119    -5524 
   -5395    -3412    -4129    -6966    -8176    -8459    -7722    -5587 
   -4159    -4419    -6523    -8278    -5996    -2848    -3616    -5848 
   -6439    -5946    -5769    -5539    -4837    -6046    -7655    -5827 
   -3771    -4812    -6540    -6039    -4091    -4973    -8260    -8789 
   -6531    -4598    -4104    -4553    -4826    -5390    -6853    -8245 
   -8329    -6095    -3717    -3778    -4360    -5350    -7249    -7298 
   -7065    -7491    -5217    -3657    -5695    -6268    -6096    -7325 
   -5255    -2859    -5117    -6313    -5040    -6097    -7325    -6602 
   -6864    -7385    -6475    -5755    -5152    -3842    -3435    -5136 
   -6880    -6836    -6246    -5906    -5535    -5467    -5737    -5853 
   -5568    -5306    -5196    -4383    -4187    -6237    -7792    -7618 
   -6439    -4052    -3748    -5879    -6131    -5040    -4606    -4305 
   -4612    -5876    -6940    -7735    -8149    -6056    -3242    -4587 
   -7730    -8267    -7766    -5967    -2652    -2664    -6099    -8904 
   -9248    -6177    -3087    -3846    -5236    -5254    -6068    -7191 
   -8005    -7755    -4711    -2758    -4816    -6184    -5351    -5260 
   -5202    -5225    -6921    -7080    -5532    -5792    -5771    -6242 
   -8942    -8537    -4866    -2679    -3919    -7234    -7415    -5428 
   -5398    -4436    -3898    -6319    -6114    -3871    -4843    -6706 
   -6907    -5960    -4464    -4666    -6567    -6507    -5298    -6484 
   -6802    -4460    -4471    -6050    -6407    -7813    -8267    -6457 
   -6015    -5171    -3360    -4780    -6459    -5395    -6494    -8271 
   -5325    -3273    -5313    -5463    -4136    -4334    -4951    -6646 
   -8090    -6459    -5292    -6752    -7179    -6600    -5433    -2440 
   -2282    -6500    -9107    -8523    -6930    -4626    -2930    -3497 
   -5435    -7188    -7007    -4950    -5452    -8429    -7339    -2862 
   -2199    -6156    -8968    -7712    -5836    -6070    -6311    -5009 
   -3280    -3618    -6546    -7778    -7011    -7890    -7557    -4742 
   -3623    -3765    -4631    -6552    -5498    -4428    -8583   -10685 
   -7071    -4806    -5481    -6308    -6318    -5152    -4954    -6693 
   -6759    -4498    -4401    -6651    -6635    -4135    -2334    -2664 
   -5146    -7042    -6687    -7368    -8669    -6778    -3626    -3392 
   -5967    -7839    -7348    -6377    -6286    -6075    -5065    -4541 
   -3870    -3334    -6498    -8985    -6825    -6061    -5837    -3904 
   -4733    -6065    -5782    -5594    -4213    -4180    -7091    -8569 
   -7322    -4746    -3782    -6177    -7065    -5587    -5584    -5848 
   -6435    -6987    -4806    -3677    -4151    -3492    -5274    -6648 
   -5308    -7641    -9362    -6010    -4546    -5131    -5158    -6181 
   -6166    -5412    -6299    -6157    -4999    -6295    -7614    -6860 
   -7708    -8247    -4807    -3416    -6404    -7098    -4853    -3854 
   -3789    -3523    -4855    -7769    -8758    -7288    -6579    -5157 
   -1915    -3038    -6801    -6351    -5439    -6293    -6782    -7894 
   -6885    -3427    -3049    -5454    -7072    -6957    -5524    -4853 
   -5611    -5968    -5313    -5175    -7345    -8822    -6332    -5096 
   -5451    -2524    -3063    -8549    -9325    -7101    -6250    -4068 
   -3230    -5589    -5765    -4648    -6556    -6629    -4059    -5981 
   -8652    -6139    -3445    -4202    -6794    -8725    -7881    -5502 
   -4218    -4229    -4922    -6357    -7859    -8407    -7061    -4633 
   -4500    -5740    -4544    -3493    -4619    -4947    -5435    -6334 
   -4919    -4013    -5952    -7646    -7335    -5849    -4749    -5090 
   -5660    -5873    -6443    -6741    -6806    -6864    -6219    -5610 
   -5984    -7209    -7758    -6115    -3955    -3321    -3759    -5043 
   -7376    -7948    -5378    -4591    -6496    -6642    -6434    -6705 
   -4544    -3561    -6137    -7021    -5659    -5805    -5964    -4378 
   -4351    -6818    -7684    -5751    -3734    -3245    -4052    -5994 
   -9273   -10434    -6853    -3973    -4811    -5378    -4461    -3990 
   -5116    -6596    -6080    -5584    -6367    -5521    -4873    -6030 
   -6714    -7527    -7516    -5834    -4710    -4187    -4083    -4896 
   -6238    -6897    -6465    -6237    -6475    -6631    -5732    -3816 
   -2589    -3478    -6774    -8438    -6328    -5730    -7160    -6241 
   -5240    -6052    -6084    -5682    -4803    -3956    -6561    -9382 
   -7470    -4854    -4455    -3920    -4436    -6376    -7096    -7068 
   -7308    -6588    -4244    -3357    -5212    -6515    -7530    -8311 
   -7230    -6149    -4194    -1852    -3217    -5562    -6805    -9055 
   -9046    -6278    -4941    -4325    -3747    -3875    -4523    -6979 
   -9319    -8212    -6095    -5505    -5016    -4796    -4634    -3892 
   -5116    -6504    -5305    -5377    -7065    -6525    -4853    -4629 
   -5193    -5869    -6543    -6201    -5324    -5262    -6322    -7318 
   -6447    -5910    -7944    -8206    -4406    -2401    -4441    -4768 
   -3379    -4661    -6794    -8326    -8473    -5552    -4054    -5340 
   -5116    -5559    -7800    -7697    -5652    -3937    -4368    -7276 
   -7701    -4656    -3554    -5686    -7657    -7319    -5975    -4722 
   -3673    -4919    -6793    -6162    -5719    -5503    -4455    -6102 
   -8243    -7337    -5915    -4162    -3757    -6704    -7057    -5472 
   -7361    -8063    -5474    -3765    -4279    -5607    -5252    -4657 
   -5360    -5169    -5086    -6085    -6980    -8129    -7865    -5441 
   -5081    -6220    -5038    -5202    -7457    -7414    -6498    -5243 
   -3389    -3748    -4969    -5502    -6447    -6771    -6428    -7110 
   -7380    -5108    -3230    -4058    -4787    -5317    -6439    -6597 
   -6997    -6602    -4132    -4067    -6559    -7483    -6839    -6328 
   -6577    -6228    -4722    -4618    -6327    -7277    -6224    -4402 
   -4108    -5583    -6342    -5412    -5113    -6802    -8529    -7898 
   -5746    -4453    -4158    -4811    -6309    -7315    -6805    -4720 
   -3796    -5232    -6027    -5887    -6022    -5232    -4129    -4411 
   -5880    -8472    -8943    -4762    -2733    -4996    -4977    -4855 
   -8438   -10442    -8464    -5508    -4014    -4082    -3890    -4641 
   -6561    -6750    -6126    -6465    -7522    -7570    -5115    -4091 
   -6369    -6550    -4469    -4291    -5270    -7080    -7898    -4916 
   -3697    -6666    -7738    -6446    -5927    -5935    -6282    -6436 
   -6269    -7083    -6910    -5663    -7079    -7654    -4218    -3546 
   -6926    -7626    -6718    -7722    -6636    -3765    -4071    -6628 
   -9413   -10004    -7241    -5655    -5957    -5216    -5391    -8391 
   -9772    -7693    -7635    -8568    -6971    -6318    -6230    -5255 
   -6077    -8210    -9194    -9909   -11441    -9440    -4594    -3699 
   -3658    -1100     -576    -3821    -9173   -12136   -10998    -9207 
   -5324      523     2698     1324        0    -1138    -3169    -6357 
   -9942   -11178    -9240    -7615    -6160     -870     5366     5080 
     236    -2066    -4137    -8955   -11797   -10359    -5070     4017 
   11623    11619     5502    -1381    -4587    -3258    -1794    -3600 
   -8656   -15593   -21127   -22150   -16974    -6619     2380     5687 
    6928     6646     3032     2273     7975    13281    11885     3599 
   -8039   -17351   -21440   -22131   -20864   -17440   -14467   -15242 
  -15313   -10486    -5620    -4141    -7898   -17379   -22574   -15295 
   -1794     8225    11414     9239     4374     -415    -1525     -409 
   -5084   -16750   -29087   -36200   -32240   -20371   -10453    -2477 
    5854    10817    12393    10478      942   -10154   -13919   -13096 
   -8082     -610     -704    -2619     2201     2191    -5543   -13302 
  -22515   -27392   -21321   -13701    -8536    -2047     -562    -4666 
   -2832     1444    -3874   -11097    -8777     -980     7739    12729 
    6361    -6706   -18466   -26558   -23418    -7083     8856    10978 
    1904    -5535    -9182   -12874   -11408    -1667     7844     7335 
    -425    -6018    -8725   -12596   -15410   -12627    -8761    -9747 
  -10581    -7577    -7549   -12903   -13657    -5541     1389     2394 
    4035     8571    12251    14087    14103     5725   -16062   -36265 
  -34406   -14716     2539     6143    -1572   -14580   -25444   -21579 
   -3036    11904    13960     6754    -3296    -8675   -10951   -13444 
  -11880    -9140   -11010   -14224   -13589    -4654     7034     5917 
   -8899   -26215   -36192   -26869    -1663    13671     9078     1898 
     345    -3345    -7666    -3844     6947    12636     4380    -9333 
  -12475    -6355    -8085   -18368   -19495    -9369    -1286    -3308 
  -12852   -17427   -10056      672      379   -12328   -19071    -8518 
    5329     5049    -1570     3491    12586    11504     4654    -5346 
  -19118   -27735   -26306   -19002    -8087     2783     6084     2716 
     827      367    -3654    -9594   -13300   -13011    -9990    -8839 
  -10955    -7480     8035    19373    12559     -533   -14262   -29328 
  -32792   -22214    -9448     -819     3890     5649     3473    -1109 
   -2315     2637     6798    -1043   -16544   -23765   -22500   -19326 
  -12221    -7196    -8271    -5768    -1155      604     4927     8255 
    5186     1023    -3296   -10928   -16078   -14928   -15002   -14991 
   -3688    13718    19728    10849    -5082   -24155   -38280   -34003 
  -11620    10057    15076     7337    -2686   -10022    -9096     -441 
    2793    -2523    -4344    -1296    -1125    -6781   -16464   -23124 
  -22084   -13015      662     4750    -3310    -7156    -6979   -11619 
  -15654   -16179   -13063    -3800     4037     2394    -3028    -5027 
   -6007    -7226    -4707    -3771   -11688   -16864    -6959     6315 
    8550     4671    -1563   -13169   -19931   -14551    -4112     7699 
   12194     1669    -9107   -10457    -9948    -7137     -970      710 
   -2930    -7484   -12495   -14341   -10389    -6674    -7021    -9108 
   -8526    -3519     -237    -4461   -13003   -16249   -11194    -7280 
   -7377    -5960    -6107    -7381    -2111     1035    -6257    -9694 
   -4673    -3731    -7285    -8131    -4725     -706    -2602    -9725 
  -13487    -9732    -2049     2409     2663     4086     2555    -5115 
   -8985    -6705    -5093    -5498    -7473   -10328    -8136      729 
    4957    -1071    -8341   -12148   -12486    -7554    -3161    -3928 
   -5329    -7566   -11828   -12518    -7663    -1737    -1143    -6821 
  -10065    -7501    -5235    -3909    -3889    -6598    -4704    -1975 
   -7462   -10914   -11002   -14628    -9917      939    -1453   -10091 
   -9921    -8174   -10451   -11462    -8144    -2625    -2779    -6477 
   -3009     1827    -1668    -6403    -4874    -1556      386    -1580 
  -10601   -14752    -8471    -6799   -10669    -8839    -2992     2249 
    4214     -245    -4820    -3464    -2236    -5158   -10698   -15708 
  -12937    -4741    -1806    -3435    -3021      151      723    -5390 
  -11739   -10612    -4826     -886    -1201    -4652    -9292   -15369 
  -18231    -8274     4764     1836    -7703    -6014      681      136 
   -7257   -10844    -5443    -1128    -1618    -2207    -5475   -10054 
  -12675   -14652   -12511    -7200    -6210    -9143   -10327    -8706 
   -7365    -6110    -2770      627     1860     -870    -7226    -9718 
   -6764    -5316    -6636    -9930   -12086    -5919     2644     1900 
   -3397    -3225     -518    -2157    -5684    -8186   -10512   -10543 
   -9084    -8734    -7464    -4299    -1617    -1544    -4337    -7466 
   -7420    -4241    -1746    -4012    -9856   -14440   -16441   -13112 
   -4218      307    -3291    -8536   -11634    -9753    -2706      359 
   -4361    -5867    -1188    -1147    -5769    -8210    -9101    -7418 
   -3411    -2361    -3597    -4261    -4847    -3862    -1722    -3770 
   -7896    -8143    -8726   -10060    -6434    -2362    -1455    -2405 
   -5764    -6963    -4873    -4348    -6439    -8953    -6673    -1792 
   -3075    -7612    -7157    -3489    -3388    -6571    -8839   -10342 
  -10840    -7136     -550     1555    -2844    -5653    -3098    -2037 
   -4781    -5667    -5246    -6659    -7106    -6729    -7713    -8900 
  -10008   -10524   -11759   -13490    -7909     2334     4050    -2826 
   -9454   -12245   -12270    -9463    -5366    -5300    -6142    -2926 
   -1494    -3258    -4102    -7011   -11040    -8455    -1973    -1065 
   -3296    -2212    -3578    -9570   -11854   -11819   -12941   -10332 
   -5371    -2894    -2986    -5544    -9817   -11044    -5922    -1097 
   -2737    -5890    -6513    -6281    -3909       51    -1486    -7962 
  -10989    -8708    -4861    -4473    -6887    -5571    -2046    -1418 
   -4428    -7717    -5497    -3715    -8676   -10948    -6365     -399 
     946    -5456    -9640    -3643     2794     2150     -407    -2517 
   -6831    -9849    -9019    -8311    -6717    -3285    -3146    -5521 
   -7974   -10111    -7383    -2465    -2327    -5163    -6712    -3505 
     361    -4955   -12675   -11287    -6534    -4607    -5194    -7627 
   -7500    -5803    -6933    -7695    -7196    -6409    -4332    -5702 
  -10355   -10133    -6632    -7469   -10112    -7773    -2155     1267 
    -598    -7890   -11913    -5980    -1340    -4847    -5996    -5501 
  -10968   -13922   -10457    -8968    -8893    -5732    -3163    -5427 
   -9288    -8055    -2037     1147    -1767    -6021    -8029    -6934 
   -2878    -2145    -6064    -6868    -5684    -5107    -1717    -1078 
   -5578    -6316    -4417    -5776    -7271    -7780    -8802    -7192 
   -3959    -4695    -7543    -6998    -2304     1850     -827    -6624 
   -7701    -7099    -9026   -10677    -9699    -7628    -6837    -6581 
   -5042    -4001    -5665    -7685    -7708    -6474    -4423    -3797 
   -6173    -7628    -5570    -2706    -2983    -5755    -6312    -5449 
   -5833    -5144    -4268    -5891    -6706    -5024    -5900    -8514 
   -6536    -4043    -4345    -1572      -33    -5449    -9809    -9861 
   -9062    -7096    -6057    -7461    -7503    -4783    -2409    -2089 
   -3252    -4812    -5321    -5791    -7068    -7794    -8538    -8523 
   -7214    -7533    -7755    -5617    -4502    -5919    -7296    -5332 
   -2720    -5170   -10084   -11321    -6351     -758    -2700    -6953 
   -5248     -815      299    -2679    -6107    -6851    -6023    -5686 
   -5058    -4824    -7244    -9513    -8225    -5942    -5017    -4934 
   -7099    -8750    -5300    -2145    -1630     -118    -2266    -8097 
  -10343    -8136    -2448     1722    -1183    -5904    -7072    -5337 
   -4315    -6848    -9167    -9833   -10176    -7716    -5224    -6795 
   -8654    -7986    -7284    -6412    -3221    -1293    -3512    -5829 
   -5810    -5891    -7576    -7913    -6056    -7142    -9556    -7241 
   -3237    -1803    -3584    -7226    -9663   -12320   -13606    -9670 
   -5593    -2342      137    -5641   -10831    -3715     2523     -872 
   -4893    -4468    -1377    -1120    -6602   -11065    -9219    -6050 
   -6324    -7392    -6982    -6077    -5125    -5058    -5964    -5655 
   -5883    -8850    -8984    -5167    -4098    -5094    -5186    -5586 
