Origin Time       2024/04/02 04:24:00
Lat.              40.133
Long.             141.712
Depth. (km)       71
Mag.              6.0
Station Code      MYGH04
Station Lat.      38.7860
Station Long.     141.3254
Station Height(m) 35
Record Time       2024/04/02 04:25:01
Sampling Freq(Hz) 100Hz
Duration Time(s)  122
Dir.              6
Scale Factor      7845(gal)/8223790
Max. Acc. (gal)   9.663
Last Correction   2024/04/02 04:25:01
Memo.             
[...]
    1320     4870     4662     -314      272     4649     2914      387 
    3569     4861      637    -1590     2204     5748     3073      552 
    3410     3734      279     1509     6064     6108      629    -2810 
     919     4642     2592      112      573     2205     3693     3298 
    2236     3006     2434      488     3095     5545      652    -1001 
    5799     6192     -874     -677     4525     3937     1046     1728 
    2662     2161     1991     1834     3069     4907     2860     -367 
    1144     4610     3497      -60      714     3753     3963     2913 
    1748     -264      178     4175     5290     2079     2038     4702 
    3028      287     2018     3295     1032     1506     5400     4834 
     278     -418     2667     4163     2538      -45       35     3042 
    3870     1678     1765     3173     2254     2139     2906     1059 
      52     2786     4752     3600     2317     1437      731     3040 
    5589     3438     1271     2822     3870     2893     1687      569 
     388     2073     2879     1229     1379     3283     2608     1885 
    2916     2010      221     1296     3415     2597      461     1480 
    3773     2857      797     1597     3240     2760     2583     3808 
    4004     3438     2708     1965     2185      866    -1383     1574 
    6309     4315      450     2157     3924     1691     1510     3912 
    2492    -1080      224     4442     4479     1998     2142     2388 
    1040     2088     3843     1914      607     3137     3739     1208 
    1590     4380     3635      395      602     3805     4372     2045 
    1398     2141     1329     1281     3435     3528     1344     2012 
    4631     3753      805     1321     3943     3168      438     1539 
    4731     3632     -237       56     3863     4410     1852      909 
     558       87     2732     5659     3408     -174     1078     3979 
    3272     1354     1991     3335     2548     1092     1539     2431 
    1740     1389     2261     2482     2990     4542     3927     1653 
    1860     2891     2119     1845     1634       60     1354     5594 
    4591    -1266     -816     5252     5175      251      399     4409 
    4828     1544      406     3038     4433     2450     1381     2967 
    3249     1372     1719     3441     2130     1316     3676     3258 
     314     1876     5331     3678      222      899     2760     1804 
     955     2802     4270     2976      946      783     2230     2285 
    1451     3406     4553     1516      743     3246     2930     1404 
    1883     2531     2848     2806     1818     1626     2781     2975 
    2026     1957     1976     1012     1894     4298     3771     1721 
    1742     1918     1283     1852     2874     2995     2543     1229 
    1004     4156     5494     1455     -496     2394     2729      830 
    2523     4515     2880     1412     2235     2839     2239     1687 
    2535     4583     4133       49    -1232     2026     3229     1992 
    2365     3244     3013     2299     2326     3262     2682      935 
    1385     3283     3256     1640     1755     3250     3210     1864 
     904     1837     3727     2876     1039     2586     4027     1875 
    1094     3245     3407     1819      747       81     1291     2783 
    2004     1788     3357     3890     2141      581     1880     3269 
    1908     1529     4536     5949     1807    -1621     2528     6404 
    1887    -1441     3326     6076     1917       67     3703     4259 
     -16     -445     3970     5279     2550     1741     3308     2538 
     -86      673     4124     4232     1192      884     4035     5209 
    1937     -600     1638     4263     3133      984     1544     3210 
    2169     1121     3300     2883     -985      711     5952     4996 
    1368     1823     2493     1378     2431     4166     2801      749 
    1264     2818     2694     1362     1046     2049     2979     2039 
     -48      973     3996     3348     1329     2247     3096     2778 
    3423     3149     1647     2207     3804     3045     1302     1679 
    2421      718      359     3850     4363      553        9     2238 
    2686     2326     2427     3258     3024      660      749     3624 
    3510     1503     2739     4506     2065     -492     1610     4218 
    3217     1314     1713     3487     3473     1547      989     1906 
    1999     2308     3545     3028      789      421     2625     4221 
    2820      926     2185     4016     3424     2435     1329      726 
    2852     4203     2253      268      338     2926     4841     2540 
    1246     3105     2123      587     2953     3862     1912     1497 
    2218     4325     6201     2415    -1301     2118     4768     1771 
     351     3145     4691     2776     1525     3036     3470     1665 
    1447     2257     1397     1451     3564     4133     2353     1175 
    2188     3258     2444     2218     3389     2535      540     1283 
    3499     3657     2053     1228     1301     1024     2083     4266 
    2644     -695     1629     6191     4379    -1013      -68     5971 
    5562    -1101    -2292     2651     4212     1641     1980     5042 
    4383      274     -369     3388     4696     1412     -444     2265 
    4054     1240      341     4290     4777      518     -303     2199 
    2979     2887     3190     3063     2627     1784      977     1409 
    2895     3727     2731     1865     2585     2713     2243     2783 
    2686     1408     1398     3122     4001     2247      438     1984 
    3915     2544     1656     3179     2870     1463     2490     3194 
    2033     2230     2909     1845      970     1399     2289     3172 
    3690     3574     2655     1615      873      400     2135     4639 
    3299      891     1564     2706     2624     1536      -24      859 
    3748     4074     1636      823     2137     2336     1680     1988 
    2911     3717     3248     1981     2875     4396     2539      460 
    1844     2911     1980     2315     3238     2192      761     1030 
    2606     3997     3414     1221      638     2859     3916     1463 
     826     4197     4432      612      434     3191     2624     1177 
    3010     4240     2089     1027     3059     3466      974     1054 
    4295     4730     2110     1111     2392     3167     1551      965 
    4363     5448     1167    -1077     1278     3495     4016     3399 
    1266     -133     2060     5173     4382     1223      943     2631 
    1999      261      720     3130     4291     2776     2924     4853 
    2365     -764     1690     3613     1838     1806     3396     3171 
    2250     2459     3149     2390       55     -183     2363     3040 
    1908     2760     3819     2500     1166     2045     3709     3188 
    1090     1590     3923     3547     1520      642      -67      989 
    4591     4251      353      934     3640     3283     2735     2663 
    1831     2154     2841     2281     2103     2490     2616     3258 
    3505     1819     -139      615     3346     3172      711     1853 
    4155     2736      899     1563     3453     3979     1786     1009 
    3470     3643     1127     1306     2758     1856     1421     2594 
    2573     1329      761     2625     5279     4719     2030      737 
    1509     2716     3146     3970     4031     1089     -765     2073 
    4962     3773     1823     2014     1831      510      453     1354 
    1780     2178     3017     3564     2837     1705     1988     2650 
    2096     1984     2870     3407     3605     2947     2047     2359 
    2416     2490     3478     2312      464     2486     3987     1084 
     -58     3032     4440     1946       32     1606     3433     2307 
     652     2407     5452     3445     -561     1977     6235     3858 
      79     1479     3925     1498    -1228     3443     7276     1210 
   -1815     4133     4125    -1355     -128     3682     4054     3230 
    2118     1845     2205     1482     2177     4174     2781     -440 
     679     4394     3657      795     1857     3138     1813     1707 
    2488     2647     3813     3846      934      193     3088     3913 
    2274     1568     1441     2401     4272     3546     1059      781 
    2246     2921     3152     3832     3229     2010     2677     2594 
    1128     1726     2679     2367     2469     2721     2735     2227 
    1701     2281     2392     1794     1795     2307     3342     2598 
       8      949     3942     2987     1476     3322     3330       78 
    -101     3261     3774     1606     3145     5711     2714     -750 
     982     3897     3954     1644      108     1410     3140     3142 
    2353     1283     1001     3114     4977     2929     -429      307 
    3788     3535      714     2330     5609     3064     -799     1359 
    3842     1138     -110     2924     4320     2998     2284     2659 
    2937     2569     2142     3154     4268     1745    -1443      901 
    5390     4934     1327     1030     3377     3110     1116      801 
    1999     3254     2728     2018     3739     3487      -44      218 
    3824     3672     1293     2180     4050     2435      441     2409 
    4326     1788     -330     2084     4267     3429     2866     2840 
    1545     1464     2967     1895      970     4086     5016     1437 
     126     2189     2554     1011     2061     3852     2178     2398 
    5769     3439    -1883     -121     4347     3492     1163     2083 
    3807     3092      226     -588     2806     4390      913     -256 
    3260     4471     2486     1004      660     2810     4703     1439 
    -302     4226     5080      477      240     3156     2879     1159 
     954     2646     4371     3366     1532     2241     3402     2047 
     859     2227     2955     1684      895     1425     3786     5502 
    1956     -660     3666     4634     -656      510     6697     5346 
    -652     -179     4909     4148     -930      843     6133     3302 
   -1420     2100     5644     2201      -78     2663     3777     1640 
    1305     3260     3410     1598     1397     2781     2859     1698 
    1775     3804     4685     1910     -649     1363     3731     1802 
     781     3447     3188     -253      522     5030     5281      936 
     152     2432     1609     1749     5059     4434      503      237 
    3488     5235     3365      981     1155     2783     3099     1710 
    2393     4758     3321      827     2016     2868      835     -453 
    1445     3847     3730     2967     2624     1672     1375     1278 
    1578     4440     5136      953      133     4275     4506      311 
    -739     2608     3809      126     -596     4672     5668      577 
    -128     3878     4783     2527     1341     1237      625      976 
    2906     3578     2596     2828     3711     1926     -305      908 
    2737     2826     2469     1136      336     2814     5260     3381 
    -116      345     4271     5946     3825     1964     2841     4256 
    3264     1867     3520     5069     2787     -108      -94     2173 
    3723     2656     1161      569      299     1933     4099     2994 
    1202     2220     2698     1437     2450     4517     3508     2077 
    3063     2498      -52     1147     4320     3284     1332     2127 
    2488     2613     3380     2432     1048     1887     3886     3894 
    1810     1792     3928     4097     2662     1583     1021     2016 
    3310     2925     2550     2566     2330     2918     2571     -117 
    -757     3073     5235     1588     -697     2528     3848     1788 
    2801     4617     2122     -124     1981     4571     4796     3208 
     599     -575     1138     2675     1551      918     2852     3180 
     967      706     2377     2963     3338     5022     5425     2926 
    2004     4386     4220     1107     1633     3990     1177    -3619 
   -1588     5130     5296      418     1899     5289      792    -3694 
     930     6392     3426    -1290      534     3765     2303      556 
    2725     3885     1659     2182     4650     2404      207     3696 
    5320     2007     1575     3545     2197      845     1811      730 
   -1597      105     3703     2708     -596      337     3414     3474 
    1533     1121     2523     2918     1628     1381     2469     1845 
    -167      737     3300     2089     -912    -1209      855     3808 
    4361     1301      514     3798     4287     1305     1804     3831 
    1188     -286     4710     6669      436    -2261     3892     6689 
     950    -2347     1621     4823     3600     2197     2911     4938 
    5818     5166     6396     7063     3076      148     2484     4199 
     872    -1590     3315     8658     5792     1070     2334     4660 
    2185      -87     3523     6754     2157    -3488     -220     5902 
    3978       74     3107     5649     1489    -1156     2987     5787 
    2435      986     3597     3196      804      414      676     1597 
    3375     3632     1656      272      924     -475    -2829      527 
    3676      483      572     5792     6473     3273     1729     1719 
    2166     2963     3773     4249     4290     3200     1358     1128 
    1409     -268     -961     1171     2786     3129     3807     4283 
    5346     7487     6278      882    -1536      737      742     -710 
    3508     7709     4588     2088     3932     4135     3897     4602 
    2589       94      696     1809      723     -891      472     3117 
    1356     -945     4090    10257     8631     4824     5840     7551 
    6045     4356     4372     3902      -52    -6373    -7805    -2369 
    1908     1012     -880     -533      911      832     -900    -2608 
   -3007     -608     1356    -2766    -6158     1156    10323     8757 
    2833     3566     7920     7211     2043      697     5055     6296 
    1243     -430     3658     5236     5209     7931     8568     4517 
    1026     2107     4180     1796    -1690    -1119      329     -315 
    -224     1807     2776     2135     2505     3430     2543      163 
   -1100      858     4610     5672     3291     3308     6605     5420 
     133     -784     1256       60    -1750     -799       64      116 
    2795     7634     9026     5464     1799     1200     3570     5023 
    1305    -1455     1529     2334     -521      820     5233     6443 
    5044     4275     3113       83    -1479       68      909      896 
    2246     2794     2644     3229     1532    -1483     -797     2775 
    4889     3842     2473     3202     2675     1516     4191     6535 
    4978     3078     1757     1148     2053     2104     1449     2756 
    4507     4677     4043     2228      338     2632     6594     3642 
   -4002    -4784     1803     4857       45    -5080    -3991    -1246 
   -1479     -396     3821     6492     5759     3889     1287    -2266 
   -1868     4253     7546     4311     1942     4128     6033     4129 
    2548     5159     7653     6733     3983      -64    -1416     2490 
    4776     3439     3211     2565      240     -352       86     -922 
    -461     4032     6913     3418     -476      218     2077     2670 
    1336    -1071     -380     1888     1933     2211     2987     2875 
    4311     5969     4579     2350     1466      990     1555     3901 
    5717     4896     2405     1321     2370     2509     1660     1722 
    1875     2392     2662     1572     1972     3152     2531     2785 
    3667     2101     -564    -1132     2169     5177     1305    -4498 
   -2385     3342     3242     1858     6014     9985     8402     4220 
    1271     1582     3731     3962     2978     2933      870    -3126 
   -2322     3083     4807     1725      939     2990     2116      942 
    4279     6685     3730      314     1066     3418     2837     1845 
    4669     6644     3279     -572      206     4390     6133     1942 
   -1237     1715     1891    -3551    -2324     6153     7013     -302 
   -2326     1607     2662     1036     1074     1219      -89      611 
    3256     2771      839     3809     8194     5015    -1787    -1445 
    3029     3368     1922     2666     3769     3017      506     -793 
    2301     6065     4018      255     1867     3888     1922     1378 
    3204     2891      876      881     3150     4257     3913     4415 
    5042     5109     3526     -433     -989     3793     5823     2339 
    -334      961     2705     2226     1575     1846     1856     2741 
    4599     4294     1246    -1588     -498     3942     5125     2529 
    2787     5665     5613     1903      -10     2980     5514     3442 
    -803    -3237     -199     5305     5809     3060     3113     4433 
    2801     -148      336     2486     2215     3512     7179     5979 
    1564      673     1344      808      810     1610     1281     -338 
    -531      966     1791     2980     4718     4725     4526     3699 
    -899    -3990     -749     2007     1059     1695     3685     3952 
    3098     2482     4186     5594      607    -5697    -4521     -183 
     278    -1426     -106     5328     7726     3312      346     2990 
    5413     3916     1483     2559     4243     2878     3877     6990 
    4369     -930     -724     3076     3172     -494    -1034     2069 
    3396     3099     3361     3589     4523     5454     3919     2184 
    1903      402     -368     2216     3483     2091     2377     3451 
    2667     1764     2629     4226     4650     4642     4774     3218 
    1702     2195     1850     2258     6320     7412     2527     -756 
     -71     1354     3145     3969     2830     1534      832     1590 
    3256     2145     -514      922     4788     4048      152      527 
    3940     3437      -94     -309     2200     2442     1993     3240 
    3006     1989     3665     4797     3045     2577     2720      225 
     357     4657     5124     1408      333     2516     3769     2431 
    1262     1895     1980      814     -113      340     2859     5136 
    4396     2042      992     2123     3400     3478     3469     1630 
   -1738     -152     4114     2484     -878      697     2366      201 
   -1537      309     2380     1603     1355     2997     1183    -2812 
    -592     5481     5991     3477     5491     8160     5849     2547 
    3069     5845     5251      164    -1641     2754     5348     2894 
    1205     2309     1815      415     3607     7380     4530      606 
    2373     4978     3200     -191     -583     2787     6407     6241 
    3250     1671     2161     2390     1543       74    -1136     -558 
    1051      283    -1853     -375     3190     3181     1185     1598 
    2301     1657     3361     5606     2682     -904     1232     3956 
    3142     2527     2353     2420     4695     3998     -861     -195 
    5356     5240     1350     2681     6736     4923     -814    -1019 
    3608     3993       27     -859     2349     3707     1421      445 
    2191     2030     -523      395     5069     5254       71     -310 
    5829     7231     1104    -1485     2508     3890     1706     3215 
    6917     6285     1692    -1053     1838     5532     2953    -1441 
      -5     3485     2286    -1680    -1894     1902     3229     1368 
    2413     6304     6176     1128     -780     3196     4838     1740 
    1900     5792     5408      973       81     3327     4672     3153 
    1841     1208     1767     1881     -433      261     3608     2216 
