Origin Time       2024/04/02 04:24:00
Lat.              40.133
Long.             141.712
Depth. (km)       71
Mag.              6.0
Station Code      MYGH14
Station Lat.      38.3400
Station Long.     140.9551
Station Height(m) -986
Record Time       2024/04/02 04:25:07
Sampling Freq(Hz) 100Hz
Duration Time(s)  120
Dir.              1
Scale Factor      7845(gal)/8223790
Max. Acc. (gal)   1.885
Last Correction   2024/04/02 04:25:07
Memo.             
[...]
   -6378    -6079    -5873    -5860    -5838    -5798    -5869    -5985 
   -5983    -5940    -6038    -6154    -6147    -6220    -6350    -6274 
   -6131    -6111    -6060    -5921    -5868    -5934    -5967    -5992 
   -6185    -6384    -6354    -6219    -6043    -5846    -5848    -5996 
   -6018    -5935    -5910    -5908    -5902    -5983    -6099    -6118 
   -6107    -6095    -5899    -5711    -5860    -6075    -6061    -5971 
   -5968    -6089    -6250    -6363    -6424    -6367    -6251    -6195 
   -6073    -5917    -5910    -5952    -5941    -5923    -5929    -5968 
   -5961    -5933    -6081    -6292    -6282    -6162    -6126    -6096 
   -6061    -6072    -6054    -5975    -5906    -5935    -6016    -6049 
   -6068    -6091    -6070    -6056    -6133    -6234    -6218    -6103 
   -5979    -5881    -5861    -5913    -5980    -6066    -6146    -6131 
   -6031    -5938    -5894    -5935    -5999    -5967    -5962    -6066 
   -6081    -5971    -5856    -5740    -5707    -5895    -6100    -6095 
   -6096    -6276    -6389    -6301    -6223    -6239    -6289    -6330 
   -6262    -6138    -6080    -5941    -5759    -5783    -5884    -5940 
   -6065    -6122    -6081    -6119    -6123    -6029    -6018    -6110 
   -6127    -6075    -6073    -6056    -5958    -5838    -5744    -5800 
   -5973    -6084    -6195    -6320    -6340    -6350    -6308    -6119 
   -6073    -6203    -6199    -6068    -5980    -5989    -6025    -5981 
   -5969    -5992    -5907    -5898    -5987    -5933    -5914    -6085 
   -6150    -6021    -5921    -5950    -6054    -6154    -6246    -6299 
   -6205    -5946    -5671    -5590    -5697    -5810    -5884    -5992 
   -6180    -6351    -6374    -6262    -6079    -5964    -5967    -6046 
   -6242    -6346    -6187    -5965    -5813    -5863    -6095    -6133 
   -6027    -6075    -6154    -6208    -6255    -6110    -5877    -5844 
   -5964    -6111    -6197    -6141    -6077    -6130    -6130    -6034 
   -6002    -5985    -5917    -5952    -6097    -6142    -6124    -6196 
   -6184    -6016    -5961    -6030    -6025    -6000    -6061    -6087 
   -5989    -5927    -6000    -6068    -6010    -5952    -6073    -6258 
   -6259    -6126    -6019    -5919    -5881    -6029    -6193    -6170 
   -6108    -6115    -6012    -5769    -5657    -5796    -5962    -6015 
   -6045    -6053    -6064    -6114    -6021    -5810    -5784    -5902 
   -5926    -5967    -6134    -6227    -6172    -6050    -5945    -6030 
   -6170    -6129    -6142    -6266    -6241    -6087    -5907    -5853 
   -6026    -6162    -6124    -6077    -6038    -6025    -6118    -6218 
   -6183    -6126    -6181    -6156    -6015    -6038    -6150    -6134 
   -6154    -6293    -6320    -6145    -5995    -6011    -6053    -6045 
   -6018    -6003    -6018    -6064    -6147    -6120    -5968    -5967 
   -6000    -5910    -5949    -6092    -6185    -6336    -6370    -6165 
   -6123    -6246    -6142    -5996    -6065    -6119    -6058    -5998 
   -5938    -5923    -6002    -6038    -6002    -6011    -6014    -5956 
   -5914    -5860    -5787    -5790    -5895    -6052    -6104    -6006 
   -5960    -5968    -5875    -5834    -6033    -6286    -6291    -6166 
   -6187    -6201    -6137    -6158    -6134    -5981    -5837    -5728 
   -5795    -5979    -5964    -5908    -6034    -6119    -6139    -6207 
   -6204    -6106    -6025    -5998    -5977    -5927    -5884    -5881 
   -5923    -5995    -6057    -6130    -6211    -6219    -6220    -6258 
   -6170    -6133    -6237    -6099    -5856    -5900    -5991    -5948 
   -5960    -6025    -6116    -6200    -6115    -6034    -6147    -6195 
   -6034    -5833    -5787    -5914    -5934    -5837    -5902    -5991 
   -5975    -6065    -6164    -6070    -6027    -6131    -6135    -6035 
   -5922    -5822    -5861    -6029    -6174    -6254    -6293    -6327 
   -6339    -6226    -6019    -5929    -5935    -5876    -5846    -5904 
   -5896    -5890    -5980    -6019    -6056    -6281    -6562    -6596 
   -6396    -6207    -6083    -6065    -6150    -6072    -5826    -5763 
   -5895    -5950    -5976    -6118    -6208    -6157    -6096    -6056 
   -6050    -6116    -6169    -6211    -6282    -6246    -6056    -5869 
   -5769    -5795    -5962    -6154    -6264    -6332    -6301    -6108 
   -5930    -5823    -5795    -6002    -6251    -6311    -6300    -6219 
   -5996    -5853    -5944    -6027    -5957    -5979    -6115    -6149 
   -6106    -6057    -6007    -6054    -6161    -6168    -6049    -5935 
   -5957    -6054    -6075    -6007    -5883    -5733    -5728    -5925 
   -6085    -6079    -6039    -6050    -6039    -5983    -6030    -6149 
   -6100    -5995    -6088    -6183    -6016    -5823    -5829    -5894 
   -5915    -5873    -5902    -6096    -6192    -6127    -6075    -6038 
   -6092    -6183    -6164    -6118    -6072    -6007    -5956    -5873 
   -5854    -5975    -6077    -6042    -5944    -5988    -6176    -6188 
   -6064    -6119    -6181    -6088    -6057    -6075    -6026    -6034 
   -6124    -6135    -6033    -5899    -5795    -5846    -5989    -6075 
   -6162    -6258    -6307    -6274    -6184    -6185    -6203    -6100 
   -6057    -6088    -6007    -5913    -5935    -5961    -5867    -5790 
   -5952    -6081    -5975    -5994    -6158    -6222    -6207    -6222 
   -6332    -6262    -5942    -5918    -6185    -6254    -6220    -6188 
   -5998    -5931    -6043    -5969    -5915    -6045    -6084    -6104 
   -6177    -6137    -6106    -6158    -6054    -5881    -5902    -6019 
   -6133    -6232    -6185    -6046    -6016    -6043    -6004    -5999 
   -6054    -5973    -5800    -5799    -5906    -5999    -6126    -6147 
   -6054    -6085    -6188    -6197    -6151    -6068    -5891    -5749 
   -5836    -5988    -6016    -6037    -6070    -6087    -6137    -6156 
   -6160    -6183    -6134    -6099    -6141    -6124    -6030    -5953 
   -5899    -5863    -5956    -6114    -6115    -5979    -5890    -5991 
   -6187    -6170    -5987    -5919    -5907    -5906    -5973    -5971 
   -5930    -6007    -6118    -6116    -6087    -6174    -6157    -5937 
   -5854    -5961    -6131    -6253    -6069    -5830    -6012    -6228 
   -6089    -5973    -6011    -5969    -5881    -5894    -6080    -6296 
   -6326    -6265    -6246    -6243    -6232    -6138    -5931    -5841 
   -6080    -6369    -6301    -6095    -6088    -6095    -5948    -5819 
   -5850    -5944    -5945    -5925    -6056    -6258    -6261    -6092 
   -6012    -6006    -6065    -6281    -6372    -6172    -5979    -5945 
   -5949    -5940    -5987    -6046    -6002    -5953    -5948    -5881 
   -5919    -6097    -6066    -5887    -5883    -6025    -6224    -6347 
   -6272    -6262    -6397    -6340    -6072    -5869    -5832    -5881 
   -6021    -6170    -6100    -5968    -6026    -6075    -6023    -6004 
   -6000    -5930    -5817    -5827    -5903    -5822    -5778    -5923 
   -6029    -6093    -6185    -6069    -5799    -5823    -6123    -6216 
   -6169    -6291    -6273    -6038    -5976    -6035    -6058    -6130 
   -6259    -6343    -6259    -6193    -6307    -6285    -6053    -5810 
   -5591    -5563    -5818    -6147    -6313    -6278    -6246    -6188 
   -5969    -5887    -5999    -6026    -6033    -6103    -6124    -6037 
   -5880    -5817    -5908    -6038    -6126    -6110    -6080    -6208 
   -6372    -6326    -6093    -5871    -5792    -5837    -5881    -5861 
   -5919    -6066    -6015    -5850    -5953    -6153    -6091    -6003 
   -6127    -6154    -5965    -5896    -6003    -6119    -6203    -6180 
   -6139    -6157    -6077    -6006    -6046    -5957    -5838    -5998 
   -6203    -6220    -6199    -6027    -5776    -5957    -6299    -6223 
   -6037    -6041    -6107    -6162    -6079    -5940    -5996    -6106 
   -6118    -6124    -6164    -6211    -6146    -5973    -5902    -5984 
   -6041    -5980    -6010    -6120    -6038    -5913    -5945    -5930 
   -5902    -5975    -5960    -5925    -6080    -6307    -6424    -6346 
   -6081    -5852    -5842    -5958    -6064    -6126    -6069    -5940 
   -5919    -6029    -6151    -6137    -5931    -5775    -5819    -5929 
   -6004    -6066    -6106    -6041    -5875    -5814    -5908    -5968 
   -5958    -5930    -5930    -6010    -6003    -5887    -6037    -6380 
   -6459    -6389    -6307    -6103    -6057    -6166    -6043    -5886 
   -5950    -5965    -5826    -5775    -5923    -6119    -6189    -6158 
   -6103    -5979    -5761    -5648    -5783    -5911    -5960    -6097 
   -6123    -6076    -6147    -5979    -5699    -5881    -6212    -6246 
   -6189    -6180    -6135    -6061    -5985    -5879    -5737    -5679 
   -5767    -5908    -6054    -6158    -6137    -6135    -6300    -6366 
   -6200    -6096    -6085    -5988    -5896    -5861    -5886    -5917 
   -5860    -5941    -6115    -6107    -6129    -6228    -6157    -6065 
   -6222    -6432    -6388    -6178    -6065    -6120    -6238    -6313 
   -6332    -6292    -6297    -6438    -6467    -6255    -6065    -5962 
   -5958    -6188    -6303    -6110    -6023    -6095    -6162    -6208 
   -6112    -6039    -6187    -6350    -6370    -6377    -6444    -6319 
   -6014    -5973    -6108    -6038    -5876    -5784    -5779    -5954 
   -6212    -6289    -6191    -6204    -6347    -6312    -6216    -6357 
   -6462    -6419    -6457    -6405    -6281    -6305    -6196    -5983 
   -6039    -6226    -6214    -5981    -5868    -5945    -5898    -5829 
   -5877    -5826    -5724    -5796    -5930    -5848    -5678    -5734 
   -5875    -5861    -5827    -5838    -5741    -5552    -5535    -5852 
   -6184    -6138    -5964    -5965    -5910    -5765    -5782    -5853 
   -5790    -5684    -5690    -5796    -5930    -6015    -6038    -6033 
   -5996    -6011    -6038    -5930    -5861    -5934    -5904    -5737 
   -5638    -5706    -5872    -5995    -5991    -5913    -5919    -6118 
   -6297    -6230    -6165    -6251    -6285    -6324    -6432    -6400 
   -6316    -6309    -6188    -6073    -6172    -6219    -6160    -6214 
   -6345    -6461    -6454    -6377    -6423    -6470    -6403    -6335 
   -6268    -6183    -6251    -6378    -6261    -6130    -6280    -6385 
   -6160    -5857    -5863    -6022    -5938    -5779    -5825    -5938 
   -6069    -6261    -6346    -6339    -6308    -6166    -6084    -6065 
   -5891    -5764    -5771    -5657    -5510    -5566    -5714    -5805 
   -5881    -5945    -5949    -5960    -6000    -5987    -5891    -5776 
   -5697    -5633    -5590    -5620    -5672    -5755    -5981    -6234 
   -6281    -6161    -6138    -6257    -6253    -6083    -5958    -5972 
   -6079    -6092    -6007    -6045    -6133    -6196    -6246    -6092 
   -5988    -6245    -6380    -6189    -6127    -6119    -5949    -5902 
   -5968    -5973    -6075    -6255    -6305    -6154    -5927    -5849 
   -5981    -6112    -6052    -5991    -6114    -6170    -6069    -6084 
   -6226    -6339    -6496    -6632    -6562    -6315    -6073    -5964 
   -5861    -5722    -5671    -5656    -5725    -5941    -6092    -6102 
   -6041    -5917    -5865    -5954    -6011    -6007    -6053    -6088 
   -5989    -5856    -5864    -5930    -5956    -5980    -5958    -5964 
   -6061    -6070    -5965    -5891    -5976    -6203    -6297    -6204 
   -6165    -6169    -6172    -6274    -6270    -6077    -5992    -6010 
   -6002    -5973    -5952    -6064    -6173    -6166    -6201    -6197 
   -6129    -6061    -5934    -5842    -5752    -5638    -5698    -5872 
   -5888    -5784    -5883    -6096    -6118    -6099    -6208    -6265 
   -6189    -6185    -6285    -6297    -6269    -6289    -6282    -6268 
   -6204    -6038    -5948    -5975    -5980    -5894    -5771    -5776 
   -5823    -5756    -5772    -5921    -6014    -6069    -6048    -5935 
   -5960    -6073    -6112    -6162    -6191    -6220    -6345    -6382 
   -6311    -6346    -6453    -6524    -6562    -6493    -6323    -6239 
   -6231    -6143    -6043    -6010    -6084    -6241    -6258    -6127 
   -5995    -5869    -5836    -5829    -5706    -5756    -5931    -5771 
   -5622    -5830    -5864    -5644    -5566    -5543    -5520    -5594 
   -5710    -5823    -5902    -6048    -6270    -6288    -6210    -6289 
   -6264    -6097    -6168    -6373    -6354    -6272    -6459    -6628 
   -6411    -6228    -6327    -6296    -6161    -6184    -6282    -6397 
   -6470    -6538    -6701    -6733    -6559    -6415    -6308    -6243 
   -6336    -6461    -6415    -6241    -6052    -5861    -5771    -5896 
   -6007    -5946    -6007    -6143    -6026    -5880    -5871    -5763 
   -5667    -5803    -5919    -5752    -5578    -5706    -5926    -5980 
   -5973    -6080    -6210    -6191    -6143    -6189    -6216    -6196 
   -6187    -6272    -6477    -6628    -6647    -6532    -6293    -6019 
   -5773    -5582    -5449    -5472    -5636    -5791    -5919    -5919 
   -5776    -5630    -5468    -5454    -5567    -5405    -5161    -5117 
   -5011    -4884    -4887    -4935    -5117    -5386    -5566    -5728 
   -5902    -5979    -5973    -5973    -5965    -5863    -5684    -5651 
   -5832    -5935    -5822    -5707    -5607    -5360    -5205    -5425 
   -5728    -5767    -5579    -5428    -5503    -5648    -5841    -6261 
   -6558    -6474    -6443    -6597    -6729    -6953    -7227    -7234 
   -7107    -7037    -6806    -6543    -6471    -6324    -6189    -6262 
   -6311    -6354    -6359    -6114    -5877    -5744    -5466    -5364 
   -5709    -6160    -6562    -6961    -7284    -7435    -7430    -7349 
   -7296    -7573    -8028    -7848    -7078    -6480    -6006    -5336 
   -4716    -4588    -4896    -4965    -4617    -4260    -4290    -4756 
   -4982    -5223    -6210    -7033    -7253    -7411    -7350    -6967 
   -6778    -7241    -7634    -7190    -6863    -6917    -6380    -5751 
   -5709    -5721    -5607    -5589    -5567    -5463    -5359    -5211 
   -5219    -5686    -6112    -6118    -6091    -6200    -6293    -6204 
   -5941    -5724    -5548    -5417    -5501    -5810    -6328    -6752 
   -6741    -6662    -6708    -6573    -6354    -6228    -6012    -5668 
   -5340    -5028    -4816    -5023    -5638    -6161    -6172    -5865 
   -5724    -5710    -5613    -5601    -5736    -5900    -6089    -6215 
   -6141    -5967    -5898    -6027    -6282    -6397    -6319    -6250 
   -6192    -6232    -6299    -6027    -5833    -6187    -6365    -5933 
   -5667    -5836    -5667    -5080    -4996    -5719    -6431    -6423 
   -5942    -5449    -5155    -5227    -5402    -5560    -6062    -6554 
   -6416    -5910    -5722    -5977    -6103    -6065    -6264    -6350 
   -6249    -6328    -6412    -6507    -6658    -6450    -6170    -6292 
   -6257    -5740    -5387    -5498    -5567    -5539    -5906    -6421 
   -6546    -6307    -5904    -5632    -5699    -5968    -6241    -6566 
   -7227    -7935    -7825    -7069    -6660    -6844    -6982    -6601 
   -6188    -6154    -6112    -5902    -5776    -5989    -6339    -6504 
   -6760    -6990    -6902    -6841    -6718    -6269    -5877    -5703 
   -5467    -5339    -5568    -5809    -5891    -6041    -6185    -6284 
   -6469    -6588    -6407    -5907    -5416    -5310    -5553    -5873 
   -5967    -5925    -6116    -6276    -6006    -5707    -6026    -6556 
   -6367    -5802    -5571    -5460    -5382    -5432    -5494    -5722 
   -6106    -6230    -6048    -5945    -6048    -6043    -6002    -6268 
   -6469    -6284    -6022    -5773    -5517    -5363    -5395    -5678 
   -5907    -5904    -6056    -6286    -6025    -5474    -5368    -5502 
   -5286    -5170    -5530    -5873    -5972    -5930    -5918    -6211 
   -6525    -6313    -5948    -6046    -6227    -6042    -5853    -6034 
   -6482    -6743    -6524    -6218    -6076    -5887    -5918    -6316 
   -6534    -6474    -6439    -6515    -6701    -6774    -6512    -6169 
   -6131    -6353    -6358    -5962    -5692    -5756    -5688    -5508 
   -5572    -5861    -6189    -6349    -6285    -6166    -6053    -5964 
   -5952    -5890    -5683    -5530    -5680    -6184    -6825    -7263 
   -7302    -7040    -6561    -5718    -5034    -5289    -5877    -6034 
   -6110    -6291    -6303    -6096    -5865    -5913    -6299    -6527 
   -6249    -5930    -5998    -6177    -6097    -5917    -6183    -6652 
   -6547    -6077    -5684    -5310    -5111    -5173    -5339    -5517 
   -5730    -6156    -6748    -7123    -7213    -7025    -6474    -6112 
   -6205    -6069    -5711    -5730    -5900    -5752    -5456    -5429 
   -5645    -5926    -6331    -6647    -6593    -6301    -5980    -5744 
   -5643    -5652    -5753    -5756    -5587    -5555    -5733    -5983 
   -6223    -6224    -6134    -6343    -6380    -5802    -5360    -5494 
   -5647    -5778    -5969    -5810    -5745    -6343    -6779    -6562 
   -6358    -6196    -5771    -5551    -5742    -5950    -5972    -5900 
   -5995    -6301    -6567    -6686    -6627    -6529    -6601    -6478 
   -5826    -5192    -5219    -5610    -5675    -5559    -5630    -5410 
   -4969    -5215    -5856    -6083    -6187    -6529    -6597    -5929 
   -5120    -4982    -5412    -5984    -6388    -6431    -6334    -6158 
   -5814    -5760    -6139    -6440    -6687    -7099    -7260    -7002 
   -6779    -6793    -6756    -6467    -6160    -6092    -6181    -6309 
   -6370    -6122    -5633    -5445    -5715    -5876    -5757    -5837 
   -6070    -6079    -5954    -5809    -5724    -6153    -6940    -7196 
   -6785    -6239    -5852    -5547    -5305    -5456    -5948    -6242 
   -6176    -6062    -6139    -6272    -6195    -5796    -5422    -5671 
   -6303    -6504    -6220    -5934    -5744    -5431    -5107    -5157 
   -5390    -5541    -5965    -6349    -6026    -5670    -5728    -5533 
   -5228    -5337    -5649    -5919    -6169    -6443    -6540    -6324 
   -6291    -6562    -6543    -6319    -6353    -6400    -6332    -6230 
   -5814    -5502    -5819    -6085    -6085    -6276    -6309    -6048 
   -5925    -5894    -5809    -5751    -5691    -5859    -6250    -6158 
   -5714    -5679    -5818    -5806    -5949    -6332    -6771    -7045 
   -6775    -6002    -5616    -5933    -6154    -6282    -6816    -7083 
   -6770    -6701    -6755    -6258    -5732    -5738    -5935    -6158 
   -6446    -6478    -6264    -6253    -6326    -6037    -5769    -5911 
   -5950    -5795    -5842    -5794    -5427    -5269    -5508    -5771 
   -6002    -6439    -6883    -6712    -6095    -5965    -6004    -5521 
   -5390    -6000    -6365    -6187    -6002    -6123    -6408    -6513 
   -6269    -5965    -6102    -6336    -6075    -5806    -5876    -5895 
   -5802    -5736    -5759    -5751    -5574    -5656    -6023    -6033 
   -5860    -5904    -5898    -5833    -5861    -5822    -5796    -6033 
   -6363    -6331    -6103    -6262    -6559    -6435    -6081    -5863 
   -5798    -5807    -5876    -6012    -6138    -6208    -6257    -6254 
   -6172    -6072    -6025    -6134    -6508    -6768    -6559    -6227 
   -5942    -5606    -5347    -5310    -5844    -6716    -6995    -6879 
   -6851    -6396    -5837    -5953    -6176    -6142    -6327    -6706 
   -6980    -6952    -6529    -6116    -6007    -5832    -5630    -5772 
   -5775    -5354    -5229    -5617    -5983    -6122    -6161    -6173 
   -6104    -5957    -6053    -6390    -6466    -6187    -5934    -5857 
   -5867    -5962    -6214    -6507    -6438    -5945    -5566    -5539 
