Origin Time       2024/04/02 04:24:00
Lat.              40.133
Long.             141.712
Depth. (km)       71
Mag.              6.0
Station Code      MYGH07
Station Lat.      38.1802
Station Long.     140.6405
Station Height(m) 44
Record Time       2024/04/02 04:25:12
Sampling Freq(Hz) 100Hz
Duration Time(s)  214
Dir.              3
Scale Factor      3923(gal)/8224838
Max. Acc. (gal)   2.411
Last Correction   2024/04/02 04:25:12
Memo.             
[...]
   21502    21616    21826    21897    21779    21617    21589    21732 
   21984    22256    22362    22330    22248    22010    21838    21822 
   21573    21226    21204    21412    21609    21676    21610    21498 
   21443    21614    21913    22025    21895    21616    21357    21197 
   21043    21011    21076    21043    21211    21724    22117    22175 
   22140    22215    22337    22288    22045    21775    21552    21344 
   21131    20953    20983    21258    21508    21559    21483    21428 
   21427    21416    21438    21443    21319    21190    21076    20896 
   20885    21124    21348    21469    21490    21443    21486    21564 
   21531    21501    21462    21259    21157    21323    21378    21282 
   21371    21497    21412    21284    21195    21010    20861    21066 
   21519    21714    21564    21417    21273    21008    20929    21089 
   21045    20741    20468    20308    20289    20313    20232    20251 
   20547    20938    21311    21631    21849    22010    21978    21751 
   21759    21982    21978    21856    21907    21983    21865    21616 
   21485    21635    21853    21786    21540    21597    21806    21510 
   20999    21070    21583    22099    22535    22667    22381    21951 
   21708    21768    21990    22221    22262    21924    21528    21516 
   21660    21645    21694    22005    22447    22748    22626    22227 
   21948    21706    21420    21397    21579    21536    21286    21247 
   21463    21548    21363    21216    21254    21251    21147    21207 
   21492    21618    21405    21280    21438    21489    21343    21199 
   21001    20796    20765    20798    20852    21147    21601    21894 
   21975    21926    21749    21471    21127    20844    20827    21037 
   21246    21286    21157    21026    20934    20900    21226    21810 
   22157    22281    22171    21620    20997    20690    20694    20991 
   21323    21386    21244    21072    21037    21155    21176    21122 
   21321    21764    22065    21980    21578    21068    20831    21061 
   21346    21446    21567    21598    21433    21444    21659    21760 
   21834    21917    21871    21863    21875    21768    21790    22041 
   22216    22169    21999    21753    21582    21708    21996    22212 
   22346    22339    22095    21732    21513    21528    21519    21308 
   21024    20802    20719    20812    20954    21068    21381    21941 
   22202    21898    21514    21454    21620    21807    21824    21513 
   21053    20800    20769    20791    20908    21143    21280    21371 
   21718    22046    22052    22059    22145    22080    21995    21990 
   21915    21798    21911    22181    22145    22017    22237    22403 
   22443    22835    23333    23531    23652    23832    23890    23903 
   24008    23985    23646    23079    22597    22511    22662    22740 
   22802    22898    22871    22698    22477    22297    22187    21980 
   21555    21061    20641    20370    20196    19855    19404    19307 
   19595    19877    20027    20089    19939    19593    19352    19218 
   18894    18557    18562    18713    18856    19102    19356    19662 
   20098    20385    20410    20398    20430    20374    20185    20039 
   20092    20263    20407    20623    21054    21595    22148    22565 
   22628    22546    22590    22561    22316    22022    21726    21429 
   21277    21323    21428    21537    21689    21770    21801    21946 
   22130    22343    22523    22364    22009    21725    21398    21100 
   20995    21061    21153    21003    20749    20841    21072    21033 
   21014    21244    21435    21547    21745    21964    22227    22635 
   22979    23021    22842    22636    22530    22400    22083    21838 
   21828    21813    21793    21905    22079    22198    22167    22210 
   22547    22713    22531    22495    22574    22518    22431    22404 
   22473    22435    22083    21674    21335    21049    20957    20776 
   20266    19913    20001    20079    19832    19467    19290    19363 
   19414    19296    19229    19272    19372    19604    19880    20108 
   20333    20521    20754    21220    21768    22099    22195    22154 
   22114    22225    22264    21987    21573    21290    21298    21655 
   22265    22839    23137    23267    23415    23599    23778    23924 
   23993    23884    23558    23217    23056    23016    22985    22958 
   22970    23010    22979    22905    22804    22495    22077    21791 
   21533    21330    21340    21370    21216    20960    20730    20605 
   20495    20348    20430    20829    21172    21235    21231    21424 
   21760    21899    21699    21315    20885    20583    20565    20669 
   20713    20649    20379    20231    20688    21286    21390    21305 
   21416    21748    22212    22373    22045    21643    21436    21527 
   21924    22252    22242    22018    21857    22069    22615    22987 
   22912    22632    22315    21857    21393    21285    21424    21373 
   21182    21084    20989    20822    20672    20748    21049    21239 
   21269    21265    21211    21154    20973    20667    20583    20588 
   20402    20221    20162    20179    20256    20436    20903    21398 
   21496    21463    21558    21722    21967    21951    21579    21325 
   21213    21095    21176    21406    21562    21729    21865    21698 
   21513    21666    21864    22075    22530    22751    22393    21929 
   21627    21347    21093    20857    20632    20495    20434    20480 
   20610    20579    20387    20368    20683    21118    21344    21332 
   21289    21344    21392    21321    21284    21254    21030    20911 
   21257    21755    21883    21668    21527    21577    21676    21744 
   21663    21442    21336    21406    21327    21057    20962    21081 
   21303    21709    22056    22080    22106    22235    22092    21797 
   21644    21377    20941    20719    20884    21319    21752    21986 
   22021    21932    21955    22183    22446    22675    22724    22496 
   22324    22384    22312    21932    21614    21502    21304    21166 
   21363    21506    21292    21091    21163    21335    21462    21423 
   21108    20771    20626    20661    20943    21276    21303    21131 
   21136    21501    21987    22231    22226    22121    21976    21859 
   21884    22077    22269    22337    22329    22254    22135    22106 
   22191    22253    22152    22022    22091    22118    21894    21720 
   21721    21879    22179    22273    22127    22160    22342    22399 
   22458    22609    22608    22509    22565    22567    22388    22130 
   21667    21186    21000    20818    20456    20171    20092    20170 
   20302    20359    20367    20449    20580    20799    21231    21760 
   22113    22183    22048    21747    21390    21105    20871    20834 
   21150    21505    21632    21608    21419    21023    20718    20765 
   20819    20533    20248    20183    20170    20353    20754    21003 
   21088    21168    21338    21739    22065    21975    21706    21558 
   21691    21951    22007    22073    22248    22257    22281    22447 
   22512    22492    22461    22347    22226    22077    21762    21303 
   20763    20275    20151    20413    20650    20628    20598    20796 
   21062    21180    21174    21141    21088    20969    20893    21014 
   21163    21195    21184    21033    20673    20332    20235    20441 
   20771    20911    20856    20908    21189    21496    21675    21809 
   22071    22432    22666    22708    22504    22115    21814    21617 
   21708    22265    22651    22539    22495    22615    22516    22419 
   22620    22678    22268    21865    21834    21784    21490    21224 
   21043    20956    20895    20691    20696    21028    21186    21153 
   21134    21112    21178    21265    21377    21687    21903    21834 
   21853    22115    22415    22511    22378    22411    22773    23047 
   23018    22815    22457    22099    21932    21878    21910    21990 
   21986    22080    22329    22441    22361    22227    22130    22034 
   21760    21331    20934    20630    20455    20401    20436    20656 
   21012    21308    21628    22054    22198    21925    21674    21509 
   21159    20707    20293    20043    20016    19873    19693    19992 
   20540    20902    21176    21338    21351    21336    21203    21007 
   20798    20374    20005    20047    20224    20353    20517    20664 
   20798    20953    20977    20763    20653    20996    21428    21540 
   21496    21510    21577    21621    21655    21668    21436    20980 
   20618    20347    20102    19948    19803    19587    19484    19746 
   20152    20395    20630    20871    21038    21305    21451    21228 
   20915    20646    20520    20702    20962    21208    21544    21670 
   21612    21825    22100    22072    22002    22107    22144    21988 
   22002    22264    22311    22276    22624    22958    22875    22663 
   22454    22184    22018    22130    22451    22673    22550    22202 
   22002    22219    22661    22850    22725    22636    22671    22744 
   22852    22936    23048    23319    23754    24309    24794    24991 
   24935    24750    24572    24416    24084    23638    23359    23218 
   23056    22802    22446    22196    22196    22268    22253    22135 
   22015    22160    22576    22909    23103    23375    23643    23728 
   23587    23269    22883    22383    21622    20768    20189    19985 
   19955    20070    20370    20684    21004    21324    21334    20972 
   20544    20229    19916    19484    19090    18900    18868    18908 
   18963    19082    19143    18927    18797    18991    18960    18642 
   18574    18787    18935    18971    19143    19425    19588    19791 
   20235    20672    20827    20596    20101    19951    20218    20117 
   19650    19464    19626    19957    20362    20698    20872    21039 
   21177    21015    20806    20817    20920    21204    21523    21529 
   21379    21176    20792    20470    20569    21091    21712    22252 
   22748    22985    22977    23240    23701    23853    23818    23836 
   23652    23049    22304    22032    22549    23410    23976    24359 
   24871    25110    24912    24784    24867    24862    24579    24155 
   23762    23233    22620    22216    21972    21886    22111    22535 
   22998    23449    23608    23298    22887    22515    21852    21162 
   20988    21068    20989    20865    20857    20884    20768    20717 
   21034    21363    21516    21919    22401    22204    21369    20653 
   20259    19924    19778    19838    19714    19472    19444    19550 
   19745    20179    20799    21490    22048    22162    21924    21624 
   21270    20877    20633    20447    20131    19919    20013    20383 
   21007    21552    21644    21509    21546    21790    22003    21963 
   21625    21055    20437    19768    18862    18135    18098    18426 
   18712    18978    19203    19399    19688    19901    19843    19823 
   20070    20335    20572    20825    20783    20464    20271    20353 
   20753    21473    22258    22843    22998    22567    21852    21371 
   21290    21397    21463    21567    21786    21932    22064    22084 
   21635    21281    21490    21578    21386    21396    21508    21529 
   21629    21969    22516    23063    23325    23128    22767    22667 
   22739    22850    23072    23402    23913    24351    24416    24447 
   24470    24042    23549    23676    24058    23957    23392    22800 
   22491    22500    22545    22526    22653    22820    22719    22441 
   22345    22455    22520    22626    22970    23188    22995    22739 
   22546    22210    21694    21055    20609    20464    20260    20013 
   20015    20245    20513    20742    21060    21394    21594    21755 
   21797    21790    22041    22227    22072    21960    22025    21848 
   21170    20429    19971    19633    19488    19585    19741    19913 
   19801    19278    18878    18868    19103    19484    19805    19951 
   20101    20277    20090    19488    19159    19334    19489    19592 
   19858    20190    20696    21280    21405    21035    20648    20514 
   20610    20784    20858    20914    21135    21331    21474    21992 
   22751    23226    23364    23156    22707    22476    22481    22442 
   22434    22424    22380    22570    22909    23171    23337    23217 
   22835    22334    21629    21051    21046    21379    21705    21932 
   21971    21798    21500    21205    20934    20579    20314    20401 
   20682    21034    21578    22014    22026    21983    22106    22315 
   22724    23101    23238    23330    23134    22523    22019    21766 
   21482    21049    20575    20464    20825    21203    21483    21807 
   21891    21610    21215    20673    19893    19134    18677    18589 
   18825    19377    20116    20444    20241    20274    20795    21521 
   22369    23059    23429    23808    24302    24752    25146    25448 
   25573    25467    25127    24653    24013    23036    21963    21261 
   20987    20817    20574    20595    20945    21047    20964    21239 
   21771    22235    22531    22698    22829    22647    22073    21595 
   21141    20443    19931    19747    19549    19205    18858    18859 
   19228    19570    19870    20416    21093    21597    22050    22654 
   23201    23623    23976    23901    23394    22921    22331    21412 
   20649    20267    20019    19888    20036    20606    21404    21787 
   21524    21095    20777    20541    20731    21377    21789    21833 
   21914    22094    22258    22289    22210    21915    21072    19931 
   18798    17581    16671    16460    16575    16757    17203    17798 
   18303    18927    19836    20563    20694    20663    21105    21995 
   22746    22993    23053    23017    22481    21671    21064    20525 
   20028    19919    20047    19927    19731    19934    20417    20910 
   21471    22196    23101    23900    24205    24189    24214    24339 
   24549    24857    25115    24972    24401    23764    23288    23045 
   22914    22810    22839    22756    22338    21848    21552    21513 
   21699    22115    22738    23179    23020    22478    22171    22241 
   22422    22657    22925    22947    22605    22177    21929    21743 
   21460    21232    21139    21084    21139    21465    21930    22357 
   22806    23225    23515    23695    23831    24106    24235    23850 
   23545    23530    23091    22350    21870    21514    21336    21512 
   21591    21490    21524    21427    21122    20868    20510    20229 
   20457    20938    21373    21714    21706    21459    21374    21348 
   21215    21000    20459    19635    19183    19242    19371    19413 
   19340    19261    19468    19812    19926    19715    19404    19494 
   20011    20459    20768    20869    20599    20358    20313    20409 
   20862    21308    21105    20271    19237    18550    18291    17979 
   17532    17154    17097    17599    18141    18370    18908    19905 
   20850    21433    21552    21512    21810    22358    22774    22947 
   22774    22358    22389    23156    23888    24074    24175    24570 
   25018    25116    24829    24360    23727    23018    22504    22346 
   22524    22727    22630    22276    21994    22212    22968    23652 
   23896    23961    24121    24340    24444    24602    25014    25195 
   24844    24476    24306    24011    23614    23229    22736    22279 
   21884    21351    20993    20903    20704    20611    20866    21207 
   21393    21258    20956    20702    20108    19357    19321    19680 
   19614    19352    19145    18775    18431    18454    18862    19325 
   19323    18879    18377    17934    17689    17721    17797    17780 
   17670    17562    17807    18473    19284    20005    20298    20291 
   20460    20676    20919    21317    21460    21266    20992    20711 
   20522    20281    19900    19801    20127    20680    21429    22056 
   22219    22179    22113    22118    22458    22885    23174    23615 
   24048    24213    24428    24553    24138    23685    23957    24634 
   24862    24568    24362    24459    24551    24516    24557    24502 
   24101    23857    24213    24869    25222    24869    24359    24274 
   24208    24115    24109    23781    23386    23337    23313    23072 
   22728    22391    22000    21541    21143    20664    19985    19368 
   18959    18766    18696    18581    18613    18900    19276    19701 
   20078    20420    20672    20733    20861    20912    20634    20405 
   20250    20013    19954    20073    19988    19545    19157    19268 
   19657    19986    20331    20756    21180    21519    21668    21601 
   21359    21165    21288    21496    21497    21595    21875    21875 
   21506    21055    20696    20594    20675    20487    20039    19947 
   20220    20383    20607    21169    21884    22756    23718    24254 
   24331    24385    24399    24171    23824    23400    22682    21878 
   21325    20795    20398    20565    20887    20868    20825    21103 
   21447    21486    21286    21172    21238    21230    21008    20995 
   21415    21616    21267    21019    21046    20937    20903    21093 
   21018    20686    20561    20565    20386    20229    20482    20929 
   21211    21431    21818    22380    22734    22670    22574    22520 
   22245    21990    21905    21790    21529    21012    20402    19957 
   19836    20071    20146    19965    20005    19839    19109    18627 
   18748    19045    19411    19943    20711    21631    22473    23325 
   24082    24331    24192    23992    23924    24043    24111    24165 
   24313    24271    24073    24008    23912    23608    23364    23233 
   22958    22828    23028    22920    22519    22481    22806    23276 
   23701    23908    23974    23885    23647    23386    23171    23010 
   22727    22227    21640    21053    20549    20127    19886    20077 
   20537    20822    20848    20821    20655    20214    19778    19321 
   18632    18202    18358    18642    18839    19167    19388    19016 
   18388    18293    18654    18963    19315    20056    21015    21496 
   21284    20866    20536    20332    20302    20483    20852    21000 
   20615    20120    19819    19471    19234    19403    19579    19561 
   19711    20164    20879    21616    21999    22104    22153    22150 
   22129    22071    21806    21450    21524    22068    22485    22437 
   22154    22052    22003    21605    21176    21087    21147    21188 
   21142    21267    21825    22401    22782    23171    23454    23631 
   23965    24386    24537    24409    24343    24204    23737    23265 
   23021    22931    22839    22611    22581    22955    23330    23529 
   23761    24032    24096    23966    23843    23681    23475    23021 
   22227    21890    22276    22667    22971    23360    23481    23153 
   22512    21810    21435    21424    21402    21321    21308    21181 
   20937    20788    20738    20837    21023    20893    20501    20364 
   20331    19859    19309    19317    19595    19568    19260    19128 
   19280    19114    18550    18428    18916    19483    19942    20297 
   20656    20977    21012    21100    21531    21810    21753    21544 
   21136    20703    20439    20298    20266    20332    20517    20633 
   20479    20453    20682    20706    20741    21250    21994    22727 
   23229    23194    23118    23436    23550    23167    22669    22260 
   22038    21933    21639    21296    21150    20952    20686    20686 
