Origin Time       2024/04/02 04:24:00
Lat.              40.133
Long.             141.712
Depth. (km)       71
Mag.              6.0
Station Code      MYGH06
Station Lat.      38.5907
Station Long.     141.0710
Station Height(m) -80
Record Time       2024/04/02 04:25:04
Sampling Freq(Hz) 100Hz
Duration Time(s)  177
Dir.              3
Scale Factor      2942(gal)/8224139
Max. Acc. (gal)   2.107
Last Correction   2024/04/02 04:25:05
Memo.             
[...]
  -70906   -71261   -71381   -71320   -71095   -70719   -70700   -71235 
  -71446   -70807   -70348   -70546   -70332   -69615   -69387   -69488 
  -69292   -69026   -69126   -69558   -69959   -70056   -70052   -70299 
  -70623   -70654   -70405   -69985   -69635   -69718   -70255   -70885 
  -71099   -70879   -70700   -70618   -70575   -70638   -70584   -70480 
  -70663   -71004   -71181   -71015   -70482   -69958   -69894   -70232 
  -70698   -70951   -70752   -70584   -70710   -70565   -70016   -69500 
  -69299   -69391   -69481   -69457   -69597   -69877   -69978   -69951 
  -69989   -70058   -70087   -70066   -70101   -70293   -70391   -70268 
  -70187   -70105   -69873   -69772   -69990   -70503   -71123   -71190 
  -70530   -69807   -69194   -68839   -69371   -70401   -70989   -71124 
  -71034   -70748   -70537   -70467   -70158   -69758   -70069   -70893 
  -70984   -70272   -69840   -69781   -69611   -69573   -69849   -70179 
  -70557   -70930   -70964   -70641   -70249   -69957   -69957   -70352 
  -70694   -70432   -69935   -70031   -70660   -71167   -71311   -71147 
  -70876   -70710   -70575   -70326   -70058   -70105   -70661   -71315 
  -71606   -71560   -71226   -70719   -70464   -70565   -70733   -70803 
  -70652   -70374   -70414   -70671   -70517   -70008   -69780   -70168 
  -70993   -71710   -71780   -71081   -70117   -69653   -69685   -69630 
  -69619   -69984   -70360   -70646   -71024   -71088   -70510   -69896 
  -69808   -69770   -69485   -69558   -70032   -70285   -70301   -70266 
  -70040   -69969   -70378   -70665   -70376   -69982   -69776   -69326 
  -68640   -68569   -69310   -70023   -70390   -70738   -70958   -70996 
  -71122   -71238   -71107   -70626   -69950   -69523   -69319   -68991 
  -68839   -69392   -70428   -71194   -71365   -71128   -70727   -70359 
  -70069   -69751   -69457   -69408   -69711   -70124   -70333   -70438 
  -70745   -71181   -71413   -71289   -71020   -70919   -70806   -70310 
  -69827   -70042   -70727   -71197   -71242   -71010   -70862   -71031 
  -71088   -70750   -70353   -70054   -69862   -69970   -70262   -70244 
  -69966   -70235   -71189   -71915   -71809   -71019   -69930   -69012 
  -68662   -68827   -69140   -69435   -69662   -69600   -69333   -69325 
  -69525   -69529   -69543   -69849   -70160   -70330   -70326   -70025 
  -69851   -70069   -70159   -69989   -70025   -70465   -70996   -71267 
  -71540   -72048   -72426   -72438   -71828   -70573   -69807   -70098 
  -70368   -70171   -70174   -70386   -70536   -70684   -70677   -70533 
  -70552   -70694   -70706   -70349   -69585   -68821   -68636   -69171 
  -70009   -70650   -70891   -70842   -70804   -70922   -71084   -71105 
  -70590   -69619   -69186   -69560   -69951   -70055   -69935   -69651 
  -69665   -70104   -70289   -69993   -69992   -70669   -71273   -71182 
  -70821   -70668   -70605   -70511   -70344   -69969   -69672   -69817 
  -70046   -69994   -69896   -69839   -69738   -69630   -69496   -69466 
  -69704   -69993   -70083   -70168   -70476   -70749   -70870   -70958 
  -70536   -69596   -69367   -70241   -71163   -71577   -71888   -72210 
  -72134   -71759   -71489   -71212   -70912   -70891   -71003   -70938 
  -70773   -70737   -70853   -71051   -71263   -71212   -70869   -70731 
  -70756   -70355   -69753   -69597   -69722   -69687   -69746   -70221 
  -70557   -70221   -69676   -69353   -69250   -69531   -69780   -69406 
  -69149   -69668   -70189   -70135   -69884   -69785   -69776   -69739 
  -69735   -69786   -69719   -69465   -69345   -69755   -70480   -70880 
  -70926   -71170   -71653   -71830   -71552   -71269   -71228   -71242 
  -71155   -70923   -70526   -70166   -70106   -70249   -70229   -70033 
  -69900   -69778   -69819   -70299   -70681   -70364   -69795   -69650 
  -69801   -69819   -69795   -70101   -70683   -70972   -70757   -70476 
  -70347   -70320   -70328   -70125   -69682   -69337   -69237   -69086 
  -68746   -68771   -69588   -70721   -71404   -71388   -70966   -70525 
  -70187   -69870   -69591   -69822   -70679   -71163   -70826   -70522 
  -70548   -70367   -69965   -69817   -70024   -70282   -70222   -69793 
  -69515   -69628   -69993   -70569   -70996   -71270   -71698   -71741 
  -71192   -70699   -70605   -70829   -71022   -70988   -71015   -71077 
  -70930   -70931   -71192   -71091   -70698   -70638   -70690   -70621 
  -70848   -71166   -71055   -70789   -70683   -70411   -69827   -69468 
  -69585   -69773   -70077   -70704   -71228   -71266   -70808   -70114 
  -69639   -69358   -68890   -68480   -68627   -69064   -69287   -69377 
  -69542   -69673   -69747   -69866   -69943   -69947   -70006   -70013 
  -69942   -70100   -70467   -70779   -71050   -71278   -71238   -70725 
  -69952   -69581   -69747   -70029   -70406   -70911   -71150   -71131 
  -71140   -70857   -70393   -70471   -70618   -70160   -69773   -69855 
  -70044   -70324   -70665   -70806   -70807   -70764   -70563   -70359 
  -70447   -70676   -70785   -70776   -70540   -70137   -69905   -69688 
  -69225   -68831   -68917   -69426   -69947   -70340   -70669   -70744 
  -70465   -69948   -69422   -69390   -69988   -70640   -70978   -71281 
  -71822   -72249   -72110   -71806   -71567   -70860   -69954   -69669 
  -69935   -70329   -70564   -70362   -70008   -70189   -70865   -71167 
  -70721   -70324   -70499   -70606   -70245   -69719   -69237   -69218 
  -69843   -70191   -69832   -69612   -69925   -70235   -69957   -69226 
  -68740   -68725   -69001   -69407   -69627   -69611   -69835   -70436 
  -70752   -70617   -70706   -70798   -70282   -69689   -69442   -69345 
  -69473   -69758   -69961   -70191   -70511   -70660   -70497   -70387 
  -70723   -71196   -71227   -71055   -71280   -71582   -71319   -70773 
  -70815   -71518   -71987   -71747   -71298   -71177   -71243   -71197 
  -71146   -71275   -71606   -71992   -72189   -71932   -71223   -70730 
  -70870   -70985   -70652   -70343   -70263   -70447   -70943   -71053 
  -70438   -69808   -69603   -69863   -70171   -70032   -70035   -70449 
  -70424   -70036   -70025   -69924   -69068   -68230   -68509   -69464 
  -69921   -69863   -69817   -69747   -69731   -70135   -70642   -70519 
  -69869   -69476   -69763   -70494   -70977   -70796   -70440   -70397 
  -70405   -70254   -70129   -70151   -70282   -70209   -69736   -69488 
  -70020   -70708   -70683   -70166   -69800   -69703   -70033   -70719 
  -70798   -69998   -69489   -69696   -69761   -69471   -69454   -69754 
  -69882   -69971   -70565   -71487   -71774   -71080   -70333   -70117 
  -70147   -70478   -70930   -70749   -70152   -69965   -70119   -70299 
  -70621   -70889   -70518   -69541   -68827   -68866   -69209   -69340 
  -69407   -69822   -70443   -70876   -71059   -70972   -70559   -70281 
  -70610   -70915   -70447   -69827   -69824   -70271   -70841   -71366 
  -71824   -72085   -71707   -70810   -70123   -69835   -69574   -69348 
  -69635   -70480   -71082   -70961   -70680   -70665   -70722   -70745 
  -70672   -70587   -70622   -70492   -70279   -70374   -70401   -70056 
  -69957   -70339   -70509   -70170   -69772   -69576   -69506   -69507 
  -69616   -69969   -70494   -71116   -71960   -72361   -71583   -70542 
  -69997   -69512   -69550   -70470   -71143   -71352   -71801   -72023 
  -71390   -70332   -69643   -69723   -70178   -70330   -70013   -69554 
  -69425   -69705   -70044   -70294   -70456   -70224   -69523   -69079 
  -69450   -69978   -69842   -69345   -69222   -69573   -70085   -70683 
  -71284   -71540   -71446   -71336   -71154   -70703   -70167   -69932 
  -70156   -70480   -70596   -70785   -71147   -71371   -71460   -71443 
  -71196   -70930   -70726   -70314   -69812   -69735   -70225   -70596 
  -70349   -70047   -70016   -70060   -70366   -70823   -71015   -71074 
  -71124   -71134   -71247   -71193   -70614   -69946   -69772   -70116 
  -70646   -71039   -71410   -71775   -71497   -70584   -69836   -69265 
  -68607   -68392   -68877   -69542   -70093   -70445   -70240   -69628 
  -69425   -69699   -69893   -70133   -70448   -70316   -70170   -70648 
  -70981   -70599   -70112   -69772   -69473   -69583   -69982   -70009 
  -69751   -69681   -69738   -69805   -69940   -70109   -70256   -70281 
  -70220   -70209   -69990   -69373   -68889   -68944   -69152   -69238 
  -69390   -69734   -70312   -70804   -70858   -70683   -70402   -69997 
  -69700   -69534   -69271   -68956   -68987   -69479   -69913   -69970 
  -70243   -71035   -71508   -71335   -71255   -71493   -71361   -70437 
  -69357   -68864   -68949   -69430   -70156   -70993   -71730   -71749 
  -71135   -70764   -70650   -70451   -70299   -70140   -69878   -69739 
  -69812   -69847   -69804   -70001   -70345   -70551   -70727   -70899 
  -70935   -70926   -70899   -70823   -70916   -71154   -71097   -71030 
  -71589   -72235   -72319   -72010   -71226   -70171   -69854   -70337 
  -70607   -70313   -69930   -69777   -69715   -69549   -69358   -69352 
  -69514   -69601   -69641   -69998   -70742   -71416   -71489   -71065 
  -70713   -70640   -70953   -71655   -72058   -71809   -71450   -71032 
  -70131   -69132   -68898   -69638   -70652   -71092   -70865   -70256 
  -69504   -69030   -68998   -69082   -69043   -68916   -68796   -68924 
  -69630   -70497   -70741   -70571   -70486   -70347   -70147   -70044 
  -69986   -70117   -70244   -69751   -68940   -68480   -68199   -68107 
  -68381   -68638   -69061   -69770   -69792   -69179   -68998   -69190 
  -69217   -69195   -69168   -69037   -69310   -70105   -70440   -70078 
  -70127   -70927   -71371   -70978   -70556   -70355   -70200   -70422 
  -70734   -70672   -70880   -71707   -72443   -72469   -71892   -71369 
  -71185   -71104   -71394   -72133   -72438   -72220   -72439   -72975 
  -73001   -72787   -72831   -72743   -72391   -72395   -72650   -72127 
  -70977   -70335   -70303   -70645   -71172   -71381   -71591   -72030 
  -71834   -70914   -70270   -70402   -70753   -70660   -70355   -70237 
  -70025   -69685   -69962   -70753   -70942   -70707   -70816   -70494 
  -69319   -68559   -68705   -68878   -68723   -68617   -68902   -69824 
  -71176   -72002   -71917   -71840   -72225   -72439   -72314   -71994 
  -71253   -70429   -70193   -70252   -70120   -70029   -69911   -69535 
  -69385   -69554   -69672   -69557   -68813   -67805   -67508   -67725 
  -67900   -68173   -68709   -69418   -69981   -70287   -70605   -70961 
  -71158   -70931   -70168   -69458   -69426   -69823   -70106   -70197 
  -70379   -70707   -70796   -70436   -69857   -69365   -69097   -68906 
  -68717   -68769   -69021   -69190   -69504   -70240   -70837   -70972 
  -71186   -71435   -71289   -71020   -70923   -70896   -70903   -71253 
  -71936   -72165   -71874   -71809   -71710   -71189   -71066   -71598 
  -71787   -71281   -70872   -70866   -70676   -70357   -70579   -71302 
  -72026   -72323   -71976   -71271   -70769   -70619   -70472   -70104 
  -69595   -69195   -69365   -70181   -71014   -71344   -71035   -70144 
  -69310   -69101   -69144   -69043   -68875   -68872   -69282   -69780 
  -69850   -69732   -69711   -69614   -69564   -69655   -69614   -69645 
  -70193   -70843   -71011   -70949   -70993   -70885   -70479   -70078 
  -69719   -69338   -69422   -69824   -69604   -69188   -69539   -70364 
  -71250   -71766   -71103   -69311   -67312   -65898   -65303   -65295 
  -65700   -66625   -68088   -69741   -71038   -71447   -71066   -70533 
  -70159   -70322   -71230   -71932   -71807   -71602   -71797   -72146 
  -72292   -71741   -70785   -70478   -70976   -71685   -72003   -71560 
  -70865   -70560   -70587   -70950   -71821   -72958   -73750   -73611 
  -72905   -72620   -72476   -71344   -69620   -68901   -69458   -69880 
  -69341   -68489   -68092   -68196   -68519   -68898   -68994   -68497 
  -67973   -68096   -68758   -69728   -70861   -71811   -72063   -71483 
  -70750   -70182   -69342   -68490   -68170   -68095   -67983   -68094 
  -68775   -70054   -71342   -71975   -72042   -71937   -71504   -70648 
  -69805   -69022   -68335   -68393   -68970   -68991   -68516   -68771 
  -70156   -71455   -71724   -71269   -70495   -69704   -69113   -68513 
  -67996   -68116   -69079   -70591   -71979   -72484   -72193   -71867 
  -71703   -71475   -71355   -71653   -72192   -72457   -72210   -71525 
  -70626   -70017   -70036   -70483   -71068   -71369   -71026   -70406 
  -69984   -70092   -71038   -72071   -72121   -71370   -70625   -70309 
  -70170   -70085   -70438   -71028   -71506   -72148   -72905   -73246 
  -72571   -70966   -69728   -69388   -69115   -68675   -68328   -68030 
  -68058   -68808   -69851   -70515   -71051   -71740   -71856   -71027 
  -69889   -68882   -68179   -68083   -68578   -69484   -70923   -72774 
  -74164   -74421   -73930   -73372   -73107   -73102   -72767   -71753 
  -70382   -69055   -68189   -68077   -68424   -68677   -68794   -69245 
  -70001   -70336   -69936   -69353   -68862   -68265   -67875   -68049 
  -68620   -69206   -69391   -69439   -69927   -70494   -70758   -70978 
  -70976   -70592   -70260   -70148   -70191   -70236   -69755   -68802 
  -68226   -68493   -69464   -70943   -72430   -73114   -72944   -72337 
  -71300   -70209   -69661   -69437   -69268   -69461   -70046   -70447 
  -70482   -70769   -71230   -70748   -69172   -67705   -67428   -68148 
  -68736   -68910   -69406   -70638   -71957   -72060   -70660   -68681 
  -66893   -65769   -65782   -67247   -69769   -71859   -72342   -71830 
  -71361   -70969   -70470   -70201   -70636   -71884   -73765   -75610 
  -76223   -75224   -73323   -71113   -69066   -67540   -66505   -66175 
  -67011   -68766   -70384   -71211   -71579   -71685   -71278   -70907 
  -71467   -72516   -72895   -72319   -71331   -70721   -70625   -70383 
  -70252   -71181   -72619   -73246   -72939   -71940   -70086   -68131 
  -67371   -67873   -68844   -69673   -70164   -70542   -71016   -71325 
  -71142   -70879   -71080   -71248   -71069   -71180   -71540   -71521 
  -71047   -70337   -69788   -69631   -69476   -69129   -68723   -68118 
  -67548   -67655   -68466   -69565   -70542   -70945   -70841   -70730 
  -70137   -68439   -66945   -67275   -69076   -71119   -72578   -72844 
  -71901   -70730   -69935   -69202   -68893   -69415   -69759   -69303 
  -68823   -68809   -68941   -69064   -69518   -70155   -70471   -71068 
  -72338   -73049   -72436   -71273   -70615   -70783   -71347   -71887 
  -72026   -71309   -69967   -68597   -67278   -66455   -66833   -67630 
  -67925   -68436   -69384   -69959   -70457   -71493   -72496   -72589 
  -72110   -72303   -72947   -72655   -71653   -70827   -69948   -69206 
  -69272   -69970   -70895   -71651   -71745   -71423   -71096   -70579 
  -70127   -70395   -71000   -70919   -70079   -69608   -70376   -71540 
  -71825   -71405   -70873   -70314   -69861   -69371   -68791   -68683 
  -68887   -68634   -68388   -69395   -71335   -72490   -72427   -72145 
  -72125   -72063   -71690   -71296   -71181   -71073   -70726   -70137 
  -69619   -69519   -69292   -68746   -68990   -70287   -71568   -72335 
  -72804   -72894   -72331   -71575   -71200   -70687   -69782   -69277 
  -69593   -70368   -70792   -70333   -69665   -69535   -69610   -69568 
  -69660   -69942   -70005   -69554   -69149   -69557   -70526   -71263 
  -71653   -72291   -73113   -73186   -72393   -71340   -70158   -69388 
  -69943   -71454   -72870   -73589   -73377   -72752   -72181   -71312 
  -70353   -69755   -69175   -68709   -68724   -68756   -68682   -69156 
  -69931   -70012   -69576   -69460   -69437   -69137   -68855   -68469 
  -67981   -68257   -69249   -69626   -69269   -69481   -70379   -71005 
  -71473   -72296   -72674   -71806   -70511   -69535   -68569   -67953 
  -68381   -69290   -69851   -70271   -70933   -71401   -71192   -70457 
  -69462   -68593   -68407   -68963   -69909   -70815   -71227   -71261 
  -71324   -71136   -70482   -69977   -70162   -70737   -70997   -70950 
  -71062   -71122   -70879   -70671   -70344   -69500   -68748   -68736 
  -69275   -69896   -70239   -70607   -71050   -70664   -69754   -69653 
  -70259   -70406   -69681   -69025   -69322   -69959   -69954   -69129 
  -68161   -68223   -69195   -69510   -68814   -68326   -68621   -69149 
  -69442   -69642   -69885   -69726   -69016   -68700   -69352   -70171 
  -70339   -69898   -69313   -69141   -69726   -70854   -71857   -72324 
  -72765   -73549   -74039   -73980   -73859   -73418   -72131   -70621 
  -69681   -69106   -68378   -67670   -67818   -69230   -71095   -72188 
  -72129   -71510   -70804   -70077   -69692   -70008   -70852   -71701 
  -72063   -71956   -71726   -71402   -70849   -70097   -69178   -68318 
  -67981   -68314   -68894   -69141   -69169   -69322   -69277   -69248 
  -69988   -70906   -71104   -71239   -71763   -71950   -71622   -70997 
  -70125   -69506   -69219   -68751   -68322   -68446   -68976   -69499 
  -69965   -70808   -72088   -73402   -74580   -74902   -73689   -71932 
  -70561   -69350   -68679   -69034   -70002   -71327   -72650   -73198 
  -72894   -72381   -71971   -71292   -70162   -69294   -69361   -69894 
  -70124   -70133   -70287   -70509   -70355   -69456   -68473   -68667 
  -69735   -70248   -70112   -70060   -69952   -69543   -69304   -69410 
  -69444   -69498   -69834   -69890   -69448   -69226   -69576   -70249 
  -70938   -71377   -71254   -70660   -70472   -70919   -71069   -70730 
  -70638   -70916   -71142   -71181   -71170   -71338   -71514   -71196 
  -70559   -70008   -69267   -68239   -67485   -67375   -67898   -69030 
  -70471   -71483   -71342   -70112   -68843   -68181   -67987   -68388 
  -69088   -69060   -68368   -68289   -69217   -70276   -70826   -70980 
  -70981   -70864   -70748   -70933   -71381   -71774   -72094   -72404 
  -72391   -71933   -71552   -71400   -70974   -70345   -70011   -70193 
  -71086   -72319   -72758   -72148   -71559   -71675   -71896   -71390 
  -70403   -69931   -70359   -71273   -72021   -72145   -71686   -70972 
  -70237   -69693   -69695   -70240   -70475   -69948   -69643   -69973 
  -69928   -69458   -69433   -69811   -70363   -70895   -70715   -70071 
  -69780   -69454   -68843   -68593   -68689   -68669   -68634   -68737 
  -68825   -68968   -69380   -69568   -68904   -67896   -67369   -67429 
  -68096   -69013   -69061   -68327   -68307   -69261   -70065   -70097 
  -69854   -70132   -70642   -70491   -70086   -70468   -71595   -72786 
  -73552   -73807   -73969   -74169   -74000   -73669   -73765   -74009 
  -73826   -73435   -73160   -72532   -71311   -70314   -69780   -68998 
  -68288   -68320   -68438   -67952   -67482   -67977   -69061   -69601 
  -69597   -69838   -70505   -71167   -71616   -71923   -71898   -71756 
  -71876   -71572   -70617   -70173   -70696   -71212   -70935   -70073 
  -69140   -68478   -68212   -68083   -68019   -68566   -69572   -70144 
  -70503   -71162   -71412   -70772   -69924   -69434   -69093   -68758 
  -68671   -68841   -69222   -69973   -70883   -71481   -71541   -71146 
  -70633   -70314   -70013   -69492   -69106   -69282   -69912   -70822 
  -71770   -72154   -72067   -72195   -72256   -71883   -71844   -72458 
  -73067   -73264   -73133   -72917   -72771   -72547   -72019   -71212 
  -70247   -69223   -68617   -68885   -69543   -69722   -69129   -68075 
  -67128   -66854   -67323   -67976   -68489   -68967   -69318   -69469 
  -69583   -69607   -69360   -69001   -69148   -70102   -71201   -71760 
