Origin Time       2024/04/02 04:24:00
Lat.              40.133
Long.             141.712
Depth. (km)       71
Mag.              6.0
Station Code      MYGH14
Station Lat.      38.3400
Station Long.     140.9551
Station Height(m) -986
Record Time       2024/04/02 04:25:07
Sampling Freq(Hz) 100Hz
Duration Time(s)  120
Dir.              3
Scale Factor      7845(gal)/8223790
Max. Acc. (gal)   1.509
Last Correction   2024/04/02 04:25:07
Memo.             
[...]
    -309     -373     -567     -665     -715     -742     -711     -639 
    -603     -622     -615     -589     -571     -518     -476     -496 
    -575     -684     -733     -742     -776     -727     -552     -387 
    -372     -475     -564     -650     -627     -360     -236     -406 
    -476     -477     -571     -546     -421     -413     -500     -533 
    -498     -544     -634     -587     -492     -521     -576     -511 
    -468     -611     -710     -650     -607     -544     -502     -585 
    -643     -639     -550     -364     -352     -530     -575     -484 
    -383     -270     -340     -569     -602     -488     -527     -629 
    -606     -552     -534     -537     -614     -666     -567     -507 
    -648     -768     -693     -572     -475     -388     -463     -592 
    -513     -403     -507     -622     -568     -571     -681     -549 
    -395     -589     -747     -715     -691     -554     -394     -421 
    -481     -476     -557     -604     -394     -276     -403     -467 
    -641     -854     -730     -596     -638     -607     -535     -456 
    -376     -427     -440     -309     -372     -550     -495     -433 
    -537     -638     -712     -699     -522     -414     -484     -491 
    -480     -599     -562     -356     -375     -591     -762     -800 
    -657     -568     -621     -495     -307     -394     -557     -585 
    -583     -645     -716     -608     -410     -445     -589     -553 
    -480     -554     -602     -553     -553     -546     -531     -577 
    -572     -561     -589     -572     -637     -734     -638     -495 
    -448     -507     -630     -633     -618     -615     -490     -438 
    -440     -394     -484     -577     -490     -414     -510     -603 
    -558     -515     -459     -332     -371     -541     -592     -572 
    -549     -492     -450     -449     -403     -314     -355     -508 
    -596     -548     -387     -310     -417     -510     -496     -429 
    -395     -454     -506     -538     -637     -760     -861     -903 
    -812     -672     -567     -490     -527     -599     -550     -530 
    -561     -529     -565     -670     -660     -611     -661     -648 
    -465     -353     -425     -534     -630     -652     -572     -533 
    -564     -585     -573     -584     -638     -691     -679     -554 
    -495     -553     -526     -521     -603     -573     -500     -529 
    -534     -445     -407     -438     -382     -275     -302     -446 
    -513     -487     -519     -568     -569     -523     -440     -521 
    -685     -683     -703     -741     -591     -508     -575     -477 
    -309     -351     -504     -646     -730     -677     -557     -530 
    -616     -565     -405     -504     -649     -596     -603     -599 
    -517     -589     -719     -648     -441     -361     -515     -699 
    -689     -535     -430     -438     -422     -390     -515     -672 
    -673     -603     -557     -579     -645     -681     -650     -506 
    -337     -238     -232     -438     -642     -561     -468     -490 
    -495     -565     -623     -507     -278     -197     -414     -592 
    -565     -581     -581     -472     -433     -517     -668     -707 
    -496     -380     -531     -567     -502     -540     -545     -584 
    -650     -534     -405     -450     -491     -398     -391     -538 
    -598     -639     -791     -808     -616     -490     -511     -506 
    -456     -437     -460     -552     -675     -676     -507     -411 
    -535     -646     -562     -510     -664     -731     -575     -504 
    -660     -801     -719     -557     -510     -542     -572     -538 
    -515     -615     -738     -710     -508     -402     -517     -625 
    -656     -643     -603     -588     -544     -492     -449     -391 
    -538     -760     -616     -340     -379     -488     -436     -499 
    -572     -421     -324     -313     -243     -307     -477     -515 
    -483     -459     -383     -369     -475     -583     -665     -681 
    -558     -430     -442     -535     -673     -753     -631     -519 
    -525     -476     -433     -454     -522     -614     -534     -454 
    -571     -517     -434     -619     -664     -560     -666     -768 
    -648     -600     -718     -691     -584     -638     -702     -635 
    -492     -395     -499     -660     -634     -585     -685     -730 
    -680     -637     -573     -511     -351     -180     -334     -603 
    -661     -634     -619     -588     -554     -487     -409     -418 
    -400     -324     -399     -526     -604     -726     -650     -442 
    -554     -707     -486     -325     -498     -564     -483     -541 
    -621     -567     -454     -445     -506     -444     -405     -522 
    -612     -585     -526     -600     -738     -546     -174     -251 
    -618     -710     -630     -668     -770     -712     -530     -504 
    -519     -473     -567     -683     -665     -558     -434     -359 
    -302     -395     -604     -592     -575     -751     -703     -511 
    -494     -423     -359     -486     -546     -534     -633     -656 
    -498     -409     -475     -499     -415     -390     -522     -622 
    -625     -741     -783     -608     -554     -583     -500     -518 
    -626     -629     -529     -410     -407     -448     -395     -460 
    -546     -313     -137     -284     -315     -333     -656     -831 
    -687     -622     -529     -317     -396     -607     -588     -616 
    -661     -433     -310     -560     -702     -548     -579     -793 
    -708     -542     -652     -710     -656     -689     -639     -600 
    -649     -441     -218     -400     -675     -693     -611     -697 
    -784     -627     -540     -606     -519     -453     -585     -664 
    -569     -486     -535     -592     -560     -515     -521     -557 
    -565     -575     -572     -417     -336     -581     -729     -507 
    -298     -338     -395     -294     -272     -432     -554     -638 
    -614     -418     -359     -504     -623     -687     -685     -599 
    -625     -692     -600     -598     -602     -384     -313     -433 
    -486     -517     -510     -531     -654     -652     -522     -494 
    -549     -526     -459     -496     -534     -473     -496     -542 
    -479     -492     -604     -660     -604     -526     -607     -697 
    -619     -545     -561     -596     -596     -538     -533     -670 
    -762     -707     -639     -503     -386     -531     -545     -238 
    -216     -459     -511     -560     -612     -480     -473     -629 
    -719     -774     -633     -375     -421     -596     -567     -433 
    -336     -292     -284     -409     -627     -599     -437     -495 
    -562     -529     -607     -673     -576     -475     -522     -584 
    -480     -399     -449     -472     -588     -735     -618     -473 
    -548     -561     -480     -614     -789     -700     -538     -448 
    -395     -498     -672     -703     -652     -541     -356     -290 
    -402     -585     -688     -641     -608     -614     -606     -627 
    -594     -575     -633     -616     -656     -738     -618     -633 
    -868     -746     -375     -264     -386     -545     -631     -619 
    -604     -569     -446     -344     -382     -417     -344     -386 
    -506     -533     -633     -774     -826     -760     -507     -465 
    -594     -388     -333     -623     -653     -573     -639     -592 
    -507     -580     -675     -615     -445     -346     -391     -450 
    -448     -521     -618     -432     -221     -379     -587     -637 
    -606     -436     -344     -515     -641     -492     -315     -332 
    -406     -419     -454     -558     -687     -688     -556     -552 
    -595     -464     -371     -376     -367     -531     -814     -801 
    -591     -592     -587     -410     -436     -550     -534     -565 
    -585     -691     -909     -765     -494     -514     -463     -372 
    -527     -685     -719     -712     -681     -646     -531     -479 
    -679     -638     -245     -222     -513     -684     -751     -634 
    -571     -758     -762     -629     -699     -714     -567     -542 
    -627     -618     -468     -321     -275     -313     -481     -668 
    -676     -614     -618     -542     -384     -413     -441     -298 
    -361     -502     -437     -473     -558     -486     -542     -695 
    -625     -473     -463     -438     -423     -529     -414     -233 
    -444     -602     -554     -699     -729     -515     -464     -562 
    -664     -766     -814     -708     -592     -711     -807     -696 
    -580     -561     -731     -839     -652     -484     -402     -387 
    -587     -745     -699     -585     -436     -365     -490     -679 
    -757     -715     -638     -540     -479     -490     -522     -600 
    -588     -418     -405     -538     -504     -425     -541     -606 
    -394     -284     -383     -368     -371     -481     -517     -565 
    -568     -472     -496     -445     -252     -245     -290     -337 
    -517     -538     -490     -668     -788     -656     -490     -423 
    -373     -261     -260     -461     -553     -391     -209      -66 
       8     -197     -479     -477     -432     -623     -680     -351 
    -148     -328     -454     -387     -271     -233     -360     -465 
    -548     -673     -718     -773     -697     -375     -236     -341 
    -427     -558     -646     -571     -583     -676     -618     -521 
    -495     -569     -708     -630     -487     -615     -724     -697 
    -770     -845     -801     -700     -610     -553     -558     -784 
    -966     -724     -537     -681     -646     -394     -375     -614 
    -737     -654     -656     -695     -576     -583     -773     -799 
    -765     -788     -643     -506     -594     -660     -622     -625 
    -656     -660     -546     -387     -365     -411     -472     -454 
    -303     -353     -584     -660     -679     -800     -850     -700 
    -633     -778     -664     -337     -414     -662     -569     -488 
    -706     -760     -508     -432     -513     -364     -229     -486 
    -750     -573     -344     -495     -681     -600     -518     -610 
    -630     -430     -357     -554     -638     -542     -523     -634 
    -730     -629     -504     -652     -788     -661     -540     -531 
    -562     -645     -653     -537     -449     -456     -465     -436 
    -484     -594     -584     -481     -449     -459     -425     -403 
    -394     -353     -342     -340     -342     -529     -706     -572 
    -388     -353     -355     -330     -233     -209     -411     -579 
    -469     -376     -450     -360     -243     -359     -399     -360 
    -452     -477     -363     -337     -507     -648     -619     -652 
    -753     -723     -604     -548     -629     -625     -469     -513 
    -612     -457     -313     -359     -488     -622     -641     -625 
    -700     -668     -477     -427     -572     -608     -495     -438 
    -549     -708     -592     -399     -495     -468     -229     -284 
    -548     -675     -598     -383     -238     -272     -419     -625 
    -793     -904     -963     -888     -734     -654     -550     -440 
    -529     -523     -249     -252     -552     -615     -549     -534 
    -410     -394     -592     -719     -777     -761     -608     -494 
    -373     -216     -260     -425     -469     -476     -499     -445 
    -442     -626     -699     -515     -514     -683     -615     -546 
    -627     -612     -621     -756     -876     -924     -924     -918 
    -913     -876     -862     -954     -903     -677     -708     -796 
    -634     -594     -677     -607     -596     -718     -699     -583 
    -589     -569     -380     -298     -371     -294     -230     -395 
    -407     -164      -91     -232     -295     -228      -97      -10 
     -51     -162     -245     -198     -153     -326     -411     -228 
    -255     -544     -619     -526     -530     -529     -476     -580 
    -716     -527     -326     -454     -606     -670     -768     -915 
   -1000     -876     -795     -834     -865     -990     -963     -757 
    -741     -738     -653     -770    -1009    -1070     -951     -916 
    -958     -831     -645     -638     -724     -773     -847     -953 
    -907     -729     -704     -872     -994     -954     -837     -741 
    -708     -731     -711     -715     -834     -849     -661     -441 
    -356     -475     -625     -588     -476     -413     -341     -384 
    -530     -569     -622     -665     -495     -328     -265     -187 
    -295     -568     -572     -330     -286     -461     -449     -259 
    -291     -526     -684     -604     -387     -391     -544     -544 
    -464     -405     -477     -785    -1078    -1016     -691     -538 
    -575     -384        0      124      -27      -33      175      144 
    -214     -240      133      205      -74     -386     -764    -1054 
   -1000     -838     -903     -951     -756     -642     -623     -283 
     211      446      521      557      432      220      133       99 
     -71     -309     -461     -541     -553     -450     -436     -723 
   -1092    -1167    -1034    -1111    -1323    -1320    -1310    -1459 
   -1449    -1250    -1057     -888     -723     -430     -139     -122 
    -144     -147     -310     -368     -311     -391     -342     -140 
    -241     -596     -826     -847     -900    -1016     -899     -697 
    -826    -1242    -1495    -1335    -1193    -1194     -803     -117 
     414      441       10       71      681     1043      945      469 
     383      373     -673    -1371     -873     -618     -760     -780 
   -1143    -1829    -1732     -928     -859     -911     -103      272 
      45       70      139      306      452      198      -51     -102 
    -292     -666     -984    -1219    -1395    -1459    -1408    -1115 
    -626     -132      292      535      602      473      148     -218 
    -591     -903    -1034    -1066    -1088     -963     -600     -275 
    -241     -324     -352     -457     -665     -838    -1062    -1333 
   -1398    -1309    -1306    -1308    -1046     -726     -801    -1066 
   -1163    -1264    -1443    -1518    -1491    -1287     -891     -719 
    -791     -722     -573     -514     -665     -993     -954     -442 
    -230     -546     -754     -603     -364     -324     -511     -519 
    -222      -22       29       98      118        5     -292     -553 
    -398      -16      222      301      222       41     -117     -224 
    -280     -336     -373     -278     -112      -55      -55      -83 
    -282     -515     -553     -460     -467     -699    -1008    -1169 
   -1094     -846     -417      102      272       45     -287     -606 
    -681     -645     -702     -587     -564     -984    -1304    -1065 
    -791     -931    -1005     -754     -568     -688     -900    -1035 
   -1335    -1669    -1597    -1225     -908     -544      -32       81 
    -336     -585     -517     -579     -623     -360     -251     -569 
    -812     -770     -712     -517      -93       24     -240     -345 
    -247     -234     -372     -445     -276     -145     -274     -384 
    -230       10       85       49      -45     -311     -625     -785 
    -762     -573     -341     -206     -244     -394     -477     -554 
    -621     -476     -297     -199      -12       81      -89     -270 
    -346     -414     -488     -410     -135      -14     -213     -483 
    -704     -891    -1120    -1355    -1294     -951     -676     -502 
    -521     -801     -824     -564     -456     -430     -457     -614 
    -762     -687     -326     -103     -224     -336     -400     -684 
   -1050    -1233    -1404    -1594    -1559    -1491    -1374     -953 
    -650     -720     -639     -216        2     -140     -103      140 
      -8     -515     -877     -943     -828     -792     -785     -514 
    -175     -108     -247     -263     -187     -399     -827    -1189 
   -1359    -1281    -1127     -892     -537     -499     -726     -635 
    -332     -189     -249     -515     -750     -622     -425     -468 
    -352      -55      -98     -356     -450     -484     -533     -554 
    -581     -418       12      221       16     -106      -37     -103 
    -255     -399     -739    -1155    -1344    -1436    -1416    -1221 
   -1124     -901     -491     -426     -471     -287     -257     -346 
    -450     -805     -962     -726     -634     -567     -488     -734 
    -791     -410     -240     -349     -395     -498     -696     -720 
    -564     -233      251      253     -315     -450     -144     -202 
    -441     -534     -662     -803     -703     -427     -500    -1021 
   -1351    -1151     -805     -625     -514     -483     -526     -494 
    -517     -702     -845     -827     -606     -351     -318     -268 
    -172     -279     -330     -364     -596     -594     -334     -261 
    -229     -168     -309     -517     -756     -963     -873     -643 
    -373      -36       20     -392     -884    -1005     -924     -768 
    -334      -76     -307     -610     -882    -1038     -762     -355 
    -194     -149     -152     -180     -301     -572     -742     -847 
   -1034     -978     -584     -276     -279     -414     -526     -492 
    -353     -345     -284        1       91     -234     -576     -681 
    -765     -727     -441     -399     -576     -542     -587     -819 
    -889     -878     -820     -615     -553     -652     -677     -706 
    -797     -953    -1038     -915     -743     -477     -175     -172 
    -298     -383     -588     -772     -661     -319     -191     -479 
    -683     -548     -472     -607     -714     -835    -1088    -1086 
    -870     -812     -517      -44     -136     -562     -741     -843 
   -1020    -1035     -885     -715     -480     -355     -495     -564 
    -399     -218     -171     -376     -572     -540     -638     -768 
    -538     -116      217      201     -152     -550     -951    -1209 
   -1152     -855     -525     -527     -673     -579     -657     -919 
    -822     -541     -400     -321     -216     -125     -172     -325 
    -596     -935     -885     -461     -328     -463     -357      -72 
     144      162     -166     -557     -599     -504     -575     -627 
    -486     -332     -359     -496     -560     -587     -737     -769 
    -594     -633     -751     -642     -780    -1205    -1202     -791 
    -616     -653     -518     -368     -406     -364     -116       17 
     -72      -93      -48     -135     -210     -267     -476     -596 
    -556     -557     -392     -199     -359     -515     -436     -523 
    -984    -1435    -1358     -955     -792     -751     -522     -145 
     195      207      -43     -189     -313     -499     -495     -341 
    -341     -527     -622     -534     -577     -729     -670     -558 
    -514     -392     -379     -562     -641     -652     -869    -1032 
    -835     -576     -556     -660     -730     -712     -658     -830 
   -1223    -1233     -919     -927     -935     -661     -490     -355 
    -170       -8       64     -147     -529     -800     -842     -808 
    -930     -955     -645     -355     -309     -252     -164     -168 
    -198     -252     -311     -517     -851     -865     -696     -499 
    -184     -321     -730     -703     -666     -815     -591     -180 
