Origin Time       2024/04/02 04:24:00
Lat.              40.133
Long.             141.712
Depth. (km)       71
Mag.              6.0
Station Code      MYGH06
Station Lat.      38.5907
Station Long.     141.0710
Station Height(m) -80
Record Time       2024/04/02 04:25:04
Sampling Freq(Hz) 100Hz
Duration Time(s)  177
Dir.              1
Scale Factor      2942(gal)/8224139
Max. Acc. (gal)   2.037
Last Correction   2024/04/02 04:25:05
Memo.             
[...]
  -49322   -49543   -49740   -49792   -49769   -49531   -48972   -48718 
  -49022   -49449   -49796   -49955   -49960   -49927   -49600   -49111 
  -49014   -49195   -49169   -48874   -48456   -48126   -48184   -48546 
  -48726   -48706   -48953   -49412   -49589   -49559   -49611   -49566 
  -49342   -49065   -48820   -48744   -48820   -48991   -49345   -49671 
  -49766   -49678   -49330   -48772   -48378   -48361   -48605   -48751 
  -48629   -48459   -48396   -48465   -48685   -49154   -49894   -50369 
  -50269   -49986   -49623   -49221   -49042   -48884   -48656   -48784 
  -49219   -49393   -49315   -49424   -49639   -49739   -49937   -50156 
  -50044   -49782   -49518   -49168   -49110   -49491   -49816   -49724 
  -49365   -49249   -49481   -49677   -49774   -49781   -49612   -49563 
  -49792   -49828   -49361   -48872   -48852   -48952   -48714   -48428 
  -48493   -48674   -48616   -48436   -48431   -48667   -49011   -49284 
  -49331   -49256   -49374   -49671   -49871   -49948   -49920   -49723 
  -49508   -49430   -49385   -49322   -49142   -48794   -48672   -48763 
  -48609   -48546   -48784   -48856   -49026   -49515   -49775   -49891 
  -50005   -49794   -49647   -49767   -49615   -49230   -49069   -49169 
  -49391   -49644   -49785   -49666   -49343   -49059   -48983   -49000 
  -49036   -49330   -49732   -49674   -49183   -48847   -49033   -49428 
  -49576   -49694   -49879   -49655   -49065   -48690   -48852   -49360 
  -49731   -49846   -49948   -50041   -50016   -49905   -49688   -49373 
  -48994   -48647   -48647   -48901   -49011   -49118   -49338   -49480 
  -49666   -50008   -50190   -49900   -49191   -48531   -48442   -48903 
  -49427   -49666   -49673   -49711   -49851   -49967   -50010   -49987 
  -49905   -49844   -49828   -49700   -49438   -49165   -48821   -48512 
  -48527   -48716   -48902   -49080   -49017   -48803   -48771   -48726 
  -48729   -49160   -49593   -49481   -49081   -48822   -48870   -49162 
  -49526   -49813   -49786   -49419   -49129   -49052   -48992   -48991 
  -49072   -49146   -49245   -49345   -49351   -49243   -49167   -49211 
  -49223   -49135   -49210   -49675   -50083   -49836   -49246   -48836 
  -48717   -48917   -49233   -49438   -49628   -49835   -49951   -49963 
  -49881   -49634   -49169   -48612   -48308   -48409   -48558   -48537 
  -48535   -48678   -48990   -49341   -49585   -49763   -49635   -49087 
  -48757   -49033   -49470   -49735   -49773   -49331   -48701   -48701 
  -49250   -49574   -49523   -49484   -49594   -49797   -49999   -50118 
  -50167   -49948   -49497   -49318   -49466   -49638   -49728   -49748 
  -49711   -49617   -49522   -49364   -49094   -48841   -48608   -48444 
  -48501   -48594   -48440   -48255   -48486   -49091   -49658   -49981 
  -50144   -50259   -50218   -49789   -49242   -49207   -49702   -50043 
  -49748   -49138   -48929   -49373   -49937   -50006   -49711   -49566 
  -49658   -49578   -49099   -48567   -48312   -48336   -48479   -48513 
  -48516   -48703   -49054   -49430   -49711   -49943   -50016   -49713 
  -49432   -49524   -49666   -49589   -49279   -48929   -48849   -48829 
  -48664   -48772   -49276   -49739   -49798   -49580   -49605   -49871 
  -49963   -50056   -50291   -50263   -49932   -49617   -49264   -48768 
  -48471   -48577   -48751   -48689   -48452   -48451   -49075   -49837 
  -49883   -49351   -48983   -49041   -49281   -49342   -49230   -49227 
  -49204   -49063   -49203   -49557   -49623   -49418   -49161   -48857 
  -48613   -48701   -49084   -49285   -49131   -48941   -48845   -48740 
  -48614   -48523   -48424   -48235   -48276   -48782   -49095   -48915 
  -48774   -48798   -48987   -49360   -49669   -50021   -50314   -50012 
  -49351   -48921   -48730   -48647   -48590   -48473   -48498   -48845 
  -49191   -49123   -48624   -47961   -47564   -47837   -48686   -49450 
  -49732   -49854   -50113   -50326   -50263   -49970   -49688   -49581 
  -49658   -49850   -49981   -50058   -50328   -50693   -50742   -50399 
  -50008   -49750   -49520   -49437   -49547   -49528   -49264   -48901 
  -48694   -48828   -48953   -48879   -48921   -49015   -48949   -48925 
  -49053   -49285   -49628   -50066   -50491   -50575   -50446   -50647 
  -50842   -50600   -50139   -49512   -49113   -49273   -49428   -49315 
  -49191   -49211   -49484   -49812   -49900   -49860   -49805   -49578 
  -49281   -49063   -48678   -48199   -48099   -48332   -48597   -49045 
  -49576   -49816   -50002   -50323   -50575   -50727   -50668   -50382 
  -50171   -49977   -49380   -48531   -48228   -48752   -49410   -49527 
  -49316   -49222   -49088   -48984   -49299   -49843   -50247   -50421 
  -50422   -50305   -50010   -49665   -49608   -49781   -49762   -49495 
  -49318   -49423   -49626   -49512   -49123   -49036   -49260   -49470 
  -49827   -50116   -49813   -49315   -49140   -48999   -48824   -48979 
  -49272   -49407   -49665   -49878   -49478   -48843   -48652   -48748 
  -48830   -48986   -49302   -49746   -49945   -49578   -49135   -49103 
  -49260   -49389   -49516   -49597   -49503   -49343   -49395   -49519 
  -49562   -49743   -49871   -49512   -48921   -48701   -49003   -49405 
  -49401   -49046   -48783   -48766   -48721   -48510   -48346   -48244 
  -48262   -48705   -49330   -49788   -50137   -50178   -49906   -49775 
  -49692   -49350   -49094   -49188   -49349   -49358   -49188   -48991 
  -49048   -49252   -49258   -48829   -48222   -48076   -48320   -48369 
  -48180   -47995   -48018   -48334   -48776   -49320   -49945   -50298 
  -50410   -50665   -50855   -50619   -50186   -49797   -49279   -48585 
  -48022   -47652   -47182   -46789   -47001   -47536   -47777   -47830 
  -47914   -48141   -48760   -49427   -49491   -49095   -48865   -49021 
  -49354   -49727   -50049   -50090   -49792   -49384   -49125   -49113 
  -49246   -49366   -49383   -49275   -48910   -48204   -47555   -47399 
  -47579   -47698   -47753   -48045   -48482   -48672   -48799   -49176 
  -49412   -49312   -49318   -49549   -49792   -50021   -50296   -50564 
  -50699   -50633   -50402   -50295   -50510   -50631   -50427   -50292 
  -50296   -50035   -49303   -48455   -48011   -48058   -48475   -49025 
  -49291   -49292   -49481   -49985   -50499   -50704   -50742   -50855 
  -50797   -50557   -50534   -50704   -50737   -50522   -50341   -50537 
  -51082   -51767   -52093   -51528   -50481   -49747   -49377   -49094 
  -49061   -49453   -49752   -49658   -49682   -50017   -50491   -51162 
  -51846   -52178   -52087   -51806   -51682   -51810   -52101   -52131 
  -51143   -49643   -49056   -49157   -48840   -48397   -48591   -49114 
  -49384   -49550   -49812   -49948   -49866   -49585   -49161   -48852 
  -48749   -48602   -48201   -47738   -47682   -48142   -48902   -49775 
  -50279   -50048   -49609   -49412   -49185   -48724   -48030   -47403 
  -47306   -47526   -47609   -47696   -48001   -48254   -48255   -48243 
  -48216   -48074   -48239   -48907   -49631   -50048   -50147   -50080 
  -49854   -49145   -47764   -46098   -44775   -44150   -44450   -45774 
  -47466   -48582   -48946   -48683   -47803   -46696   -45937   -45793 
  -46365   -47520   -48771   -49866   -50807   -51457   -51807   -52003 
  -51997   -51673   -51070   -50274   -49238   -47977   -46919   -46654 
  -47285   -48124   -48334   -47829   -47169   -46758   -46692   -47051 
  -47663   -48085   -48249   -48195   -47630   -46683   -46128   -46461 
  -47425   -48382   -49158   -50272   -51781   -52812   -53096   -53298 
  -53401   -52911   -51860   -50348   -48671   -47673   -47845   -48722 
  -49269   -48887   -48114   -47970   -48917   -50407   -51435   -51524 
  -50685   -49076   -47181   -45810   -45647   -46692   -48366   -49871 
  -50653   -50708   -50296   -50141   -50930   -52072   -52672   -52473 
  -51379   -49932   -48995   -48547   -48575   -49786   -51903   -53550 
  -54216   -54224   -53597   -52128   -49997   -48076   -47271   -47710 
  -49080   -50850   -51995   -51821   -50737   -49605   -48972   -48782 
  -48759   -48838   -48716   -48051   -47263   -46996   -47402   -48274 
  -49226   -49963   -50488   -50835   -50922   -50701   -50307   -50068 
  -50198   -50419   -50044   -48886   -47868   -47722   -48207   -49041 
  -49950   -50658   -51308   -52035   -52767   -52988   -52053   -50680 
  -50188   -50380   -50469   -50425   -50268   -49875   -49149   -47954 
  -46461   -45056   -44325   -44752   -45847   -47078   -48621   -50190 
  -51229   -51744   -51765   -51367   -50630   -49202   -47210   -45863 
  -46406   -48678   -51081   -52354   -52073   -50280   -48189   -47132 
  -46993   -47008   -46715   -46174   -45962   -46522   -47588   -48460 
  -48844   -49153   -49454   -49212   -48683   -48654   -49117   -49808 
  -50700   -51362   -51368   -51052   -50618   -49836   -49025   -48548 
  -47891   -46624   -45258   -44640   -45339   -47179   -49110   -50242 
  -50379   -49615   -48605   -48035   -47748   -47506   -47429   -47623 
  -48270   -49457   -50934   -52305   -53217   -53369   -52463   -50930 
  -50159   -50507   -50932   -50911   -50703   -50722   -51175   -51664 
  -51736   -51638   -51660   -51372   -50608   -49979   -49751   -49669 
  -49546   -49331   -48843   -47686   -45995   -44668   -44469   -45438 
  -46921   -48301   -49361   -49875   -49962   -50110   -50438   -50900 
  -51495   -51771   -51309   -50400   -49557   -48967   -48390   -47548 
  -46765   -46573   -47136   -48250   -49387   -50148   -50650   -51246 
  -52076   -52753   -52779   -52419   -52361   -52624   -52517   -51699 
  -50689   -50080   -50039   -50368   -50558   -50383   -50037   -49462 
  -48532   -47463   -46566   -46192   -46481   -47051   -47525   -47961 
  -48798   -50183   -51220   -51381   -51403   -51572   -51696   -51937 
  -51919   -51140   -50013   -49318   -49383   -49837   -50095   -50110 
  -50137   -50049   -49639   -49111   -48834   -49053   -49661   -49995 
  -49677   -49234   -48884   -48239   -47439   -47105   -47452   -47822 
  -47634   -47407   -47305   -46564   -45357   -44652   -44581   -44983 
  -46195   -47945   -49142   -49177   -48105   -46437   -45314   -45570 
  -46726   -47871   -48902   -49793   -50029   -49765   -49781   -50361 
  -51027   -50808   -49466   -47866   -46642   -45995   -45937   -46105 
  -46550   -47800   -49890   -52281   -53909   -53669   -51676   -49108 
  -47086   -46228   -46438   -47277   -48462   -49607   -50098   -49559 
  -48440   -48065   -49249   -51034   -51991   -51850   -51058   -50178 
  -49266   -47804   -46408   -46498   -47850   -49233   -50386   -51383 
  -51922   -51803   -50877   -49212   -47370   -46126   -45912   -46229 
  -46599   -47586   -49356   -50745   -50931   -50548   -50508   -50841 
  -51244   -51502   -51121   -50159   -49623   -50029   -50812   -51378 
  -51684   -51719   -51140   -49972   -48712   -47304   -45881   -45415 
  -46079   -47290   -48817   -50350   -51358   -51571   -51464   -51691 
  -51888   -51557   -51224   -51158   -50799   -50117   -49748   -49928 
  -50296   -50758   -51526   -52049   -51757   -51167   -50718   -50305 
  -50033   -50368   -51530   -52655   -52987   -53314   -53964   -53847 
  -52602   -50850   -49175   -48246   -48151   -48131   -48014   -48501 
  -49721   -50781   -51219   -51528   -51792   -51310   -49700   -47629 
  -46302   -46479   -47939   -49451   -49916   -49410   -48613   -48209 
  -48465   -48861   -48736   -48354   -48708   -49620   -49859   -49503 
  -49269   -48847   -47923   -46730   -45760   -45747   -47040   -49287 
  -51327   -52112   -51792   -50614   -48739   -46843   -45260   -44464 
  -45185   -46791   -47903   -48099   -48080   -48809   -50247   -51463 
  -51659   -50558   -49013   -48224   -48019   -47930   -48190   -48791 
  -49694   -50733   -51263   -51198   -50857   -50387   -49797   -48895 
  -47992   -47594   -47418   -47148   -47021   -47223   -47688   -48207 
  -48574   -48957   -49489   -49869   -50058   -50186   -49879   -49059 
  -48323   -47953   -47818   -47812   -47806   -47599   -47007   -46159 
  -45654   -45840   -46534   -47547   -48582   -49176   -49234   -49046 
  -48876   -48632   -48307   -48448   -48886   -48767   -48574   -49023 
  -49488   -49589   -49580   -49462   -49388   -49507   -49786   -50519 
  -51663   -52455   -52401   -51687   -50971   -50627   -50167   -49353 
  -48853   -49073   -49581   -49704   -49292   -49087   -49792   -50866 
  -51310   -51186   -51084   -51019   -51023   -51266   -51490   -51771 
  -52493   -53244   -53288   -52510   -51491   -50900   -50819   -50974 
  -50953   -50534   -50201   -50097   -49482   -48303   -47317   -46391 
  -45133   -44294   -44265   -44379   -44702   -46022   -48001   -49173 
  -49181   -49134   -49666   -50623   -51563   -51808   -51138   -49886 
  -48539   -47441   -46753   -46722   -47198   -47696   -48294   -49204 
  -50328   -51324   -51529   -50750   -49586   -48575   -47910   -47734 
  -47858   -47734   -47370   -47221   -47345   -47587   -47974   -48536 
  -49200   -49882   -50232   -49827   -49150   -49388   -50885   -52691 
  -53761   -53786   -52853   -51394   -50325   -50120   -50071   -49399 
  -48466   -47842   -47282   -46822   -46957   -47444   -47849   -48111 
  -47965   -47426   -47125   -47517   -48332   -49032   -49573   -50080 
  -50526   -50892   -51073   -51205   -51513   -51607   -51016   -49840 
  -48550   -47765   -47852   -48433   -48864   -48965   -48834   -48531 
  -48131   -47854   -47937   -48033   -47819   -47730   -47999   -48303 
  -48378   -48250   -48344   -48867   -49256   -49184   -49257   -50125 
  -51891   -53921   -55007   -54865   -54290   -53657   -52795   -51267 
  -49079   -47471   -47439   -48416   -49248   -49270   -48789   -48523 
  -48531   -48531   -48324   -47677   -46826   -46464   -46975   -48123 
  -49437   -50538   -51109   -51220   -51297   -51572   -52037   -52211 
  -51468   -50355   -49681   -49106   -48516   -48215   -47838   -47690 
  -48519   -49648   -50309   -50485   -49716   -48130   -47029   -46970 
  -47542   -48462   -49219   -49293   -48965   -48554   -48027   -47752 
  -48084   -48822   -49569   -50101   -50221   -49601   -48627   -48181 
  -48263   -48632   -49459   -50449   -51030   -50884   -50140   -49586 
  -49805   -50544   -51088   -50847   -50024   -49380   -49346   -49596 
  -49532   -49181   -49107   -49534   -49820   -49123   -47806   -47221 
  -47945   -49154   -49970   -50303   -50129   -49503   -49154   -49441 
  -49855   -50079   -50031   -49682   -49299   -49096   -49265   -49729 
  -49877   -49530   -49254   -49482   -49932   -50134   -50149   -49974 
  -49531   -49165   -49017   -49173   -49918   -50969   -51655   -51290 
  -49515   -47251   -46066   -46677   -48636   -50666   -51761   -51837 
  -51412   -51071   -50770   -50279   -49755   -49258   -49061   -49574 
  -50222   -49951   -48725   -47542   -47187   -47533   -48111   -48763 
  -49350   -49549   -49339   -49091   -49252   -49847   -50128   -49627 
  -49033   -49006   -49144   -48965   -48748   -48571   -48251   -48166 
  -48548   -48964   -49129   -49038   -48612   -47860   -47086   -46635 
  -46514   -46549   -46816   -47587   -48767   -49661   -50005   -50191 
  -50052   -49219   -48212   -47871   -48435   -49635   -50998   -51691 
  -51013   -49631   -49092   -49724   -50399   -50471   -50348   -50463 
  -50683   -50573   -50005   -49119   -48124   -47656   -48155   -49083 
  -49928   -50500   -50384   -49719   -49015   -48552   -48651   -48979 
  -49007   -49172   -49682   -50172   -50704   -51246   -51456   -51567 
  -52031   -52578   -52672   -52276   -51470   -50221   -48756   -47704 
  -47459   -47521   -47374   -47152   -46980   -47020   -47394   -47726 
  -47769   -47613   -47434   -47555   -47896   -48208   -48818   -49824 
  -50684   -51115   -51013   -50259   -49311   -48876   -49010   -49383 
  -49923   -50376   -50153   -49356   -48617   -48145   -47821   -47341 
  -46780   -46946   -48057   -49369   -50296   -50652   -50419   -49873 
  -49480   -49532   -49729   -49701   -49877   -50550   -50884   -50367 
  -49624   -49183   -49218   -49724   -50101   -49839   -49295   -48874 
  -48509   -48290   -48394   -48703   -49079   -49430   -49643   -49723 
  -49777   -49918   -50035   -49789   -49277   -49180   -49743   -50210 
  -49856   -48902   -48015   -47605   -47497   -47383   -47646   -48600 
  -49542   -49774   -49559   -49458   -49773   -50572   -51370   -51440 
  -50674   -49717   -49374   -49605   -49688   -49451   -48930   -48112 
  -47695   -48041   -48564   -49092   -49542   -49682   -50052   -50781 
  -51051   -50593   -49662   -48762   -48686   -49477   -50415   -50936 
  -51001   -51021   -50940   -50178   -49003   -48223   -47898   -47800 
  -47819   -47683   -47483   -47605   -47984   -48392   -48784   -49133 
  -49416   -49442   -49072   -48552   -48012   -47551   -47491   -47856 
  -48455   -49268   -50264   -51259   -52000   -52393   -52282   -51452 
  -50203   -49137   -48487   -48112   -47930   -48027   -48211   -48274 
  -48659   -49563   -50426   -50942   -50919   -50160   -49266   -48725 
  -48182   -47439   -46602   -45700   -44956   -44861   -45759   -47164 
  -48049   -48193   -48411   -49250   -50334   -51015   -51039   -50664 
  -50473   -50789   -51399   -51960   -52353   -52722   -52929   -52359 
  -51019   -49897   -49619   -49685   -49260   -48483   -48320   -48899 
  -49350   -49177   -48720   -48427   -48386   -48771   -49719   -50838 
  -51682   -52153   -52150   -51579   -50673   -49678   -48735   -48232 
  -48220   -48192   -47946   -47673   -47478   -47245   -47096   -47565 
  -48550   -49275   -49624   -49819   -49925   -50170   -50205   -49648 
  -49160   -49067   -49011   -49083   -49404   -49900   -50556   -50961 
  -50674   -50044   -49747   -50049   -50754   -51364   -51432   -50886 
  -49883   -48744   -48034   -48111   -48763   -49549   -50031   -50043 
  -49979   -49935   -49472   -48686   -47837   -46738   -45544   -44913 
  -45283   -46607   -48255   -49324   -49459   -48926   -48281   -48239 
  -48926   -49839   -50754   -51541   -51819   -51368   -50553   -50247 
  -50741   -51372   -51572   -51212   -50238   -48768   -47275   -46144 
  -45419   -45234   -45659   -46191   -46408   -46711   -47483   -48420 
  -49283   -50062   -50492   -50484   -50342   -50477   -51074   -51547 
  -51186   -50375   -49966   -49925   -49715   -49422   -49134   -48415 
  -47633   -47521   -47687   -47664   -47822   -48509   -49698   -50917 
  -51592   -51888   -52027   -51786   -51385   -51117   -50673   -49869 
  -48998   -48485   -48752   -49813   -50980   -51495   -51297   -50593 
  -49546   -48774   -48668   -48868   -49211   -49628   -49815   -49798 
  -49713   -49499   -49257   -49099   -48887   -48393   -47488   -46516 
  -46068   -46106   -46321   -46831   -47630   -48424   -49049   -49401 
  -49634   -50031   -50267   -50062   -49959   -50355   -50949   -51331 
  -51304   -51187   -51352   -51282   -50593   -49990   -49828   -49647 
  -49466   -49657   -49917   -49852   -49715   -49627   -49270   -48771 
  -48672   -48879   -48951   -49073   -49423   -49856   -50450   -51090 
  -51378   -50996   -50197   -49882   -49983   -49570   -48936   -48682 
  -48454   -48024   -47610   -47341   -46971   -46354   -46209   -46808 
  -47331   -47534   -47700   -47810   -48126   -48662   -48830   -48654 
  -48602   -48735   -48933   -48902   -48258   -47364   -47167   -47889 
  -48887   -49621   -49933   -49985   -50049   -50074   -49929   -49665 
