Origin Time       2024/04/02 04:24:00
Lat.              40.133
Long.             141.712
Depth. (km)       71
Mag.              6.0
Station Code      NIGH03
Station Lat.      38.1327
Station Long.     139.4289
Station Height(m) -215
Record Time       2024/04/02 04:25:22
Sampling Freq(Hz) 100Hz
Duration Time(s)  164
Dir.              3
Scale Factor      2940(gal)/6170270
Max. Acc. (gal)   0.468
Last Correction   2024/04/02 04:25:07
Memo.             
[...]
  180324   180326   180335   180353   180375   180393   180411   180429 
  180440   180442   180436   180427   180419   180419   180428   180446 
  180467   180482   180496   180512   180521   180524   180516   180499 
  180480   180463   180446   180435   180430   180424   180411   180396 
  180378   180354   180326   180296   180268   180245   180228   180210 
  180190   180169   180149   180130   180112   180093   180073   180054 
  180034   180010   179987   179970   179957   179945   179931   179912 
  179893   179877   179864   179859   179865   179876   179887   179891 
  179888   179886   179878   179870   179868   179868   179867   179869 
  179875   179887   179903   179919   179938   179955   179963   179969 
  179981   179995   180009   180027   180047   180068   180087   180104 
  180115   180119   180117   180116   180122   180133   180141   180151 
  180160   180161   180156   180154   180157   180169   180193   180221 
  180249   180279   180308   180331   180354   180376   180391   180400 
  180404   180404   180403   180406   180406   180401   180392   180378 
  180362   180351   180345   180346   180356   180376   180406   180440 
  180479   180522   180557   180584   180611   180639   180670   180698 
  180721   180743   180766   180789   180809   180823   180832   180845 
  180865   180892   180917   180935   180952   180966   180975   180983 
  180996   181012   181024   181032   181033   181028   181020   181014 
  181010   181009   181004   181001   180995   180978   180956   180937 
  180922   180912   180902   180887   180873   180859   180848   180842 
  180833   180814   180791   180763   180731   180702   180670   180637 
  180612   180590   180562   180530   180497   180465   180437   180415 
  180398   180383   180370   180359   180349   180343   180339   180334 
  180334   180336   180343   180356   180368   180376   180381   180384 
  180382   180379   180374   180370   180366   180361   180352   180340 
  180323   180305   180288   180275   180268   180269   180274   180282 
  180292   180296   180292   180284   180274   180262   180246   180230 
  180214   180200   180189   180175   180158   180147   180142   180140 
  180138   180135   180130   180126   180127   180133   180140   180147 
  180156   180165   180170   180168   180164   180164   180170   180180 
  180191   180201   180207   180205   180202   180207   180214   180223 
  180233   180239   180246   180251   180247   180239   180234   180227 
  180219   180214   180213   180217   180228   180244   180262   180276 
  180290   180305   180319   180326   180328   180328   180328   180329 
  180329   180327   180324   180318   180311   180309   180313   180320 
  180334   180348   180350   180346   180345   180348   180353   180357 
  180363   180369   180369   180361   180351   180337   180322   180314 
  180307   180298   180289   180282   180277   180270   180264   180258 
  180249   180243   180237   180230   180229   180235   180239   180241 
  180244   180247   180247   180246   180249   180260   180275   180290 
  180304   180320   180337   180353   180370   180380   180382   180386 
  180393   180399   180409   180430   180454   180476   180495   180507 
  180514   180524   180537   180550   180560   180563   180560   180555 
  180544   180534   180529   180520   180507   180503   180504   180500 
  180494   180494   180496   180495   180495   180497   180501   180507 
  180510   180511   180512   180514   180516   180520   180524   180527 
  180532   180534   180536   180544   180552   180559   180566   180570 
  180565   180557   180546   180532   180514   180498   180488   180481 
  180473   180464   180454   180440   180430   180424   180418   180412 
  180405   180392   180377   180369   180364   180364   180374   180390 
  180406   180421   180430   180434   180437   180439   180440   180436 
  180423   180402   180380   180359   180345   180340   180337   180339 
  180342   180341   180341   180347   180363   180387   180413   180438 
  180458   180471   180475   180473   180473   180469   180459   180454 
  180450   180440   180430   180422   180414   180405   180390   180376 
  180368   180364   180363   180370   180385   180402   180417   180427 
  180431   180431   180425   180414   180404   180391   180377   180365 
  180346   180319   180292   180267   180242   180218   180197   180180 
  180174   180176   180185   180205   180230   180254   180275   180294 
  180306   180318   180329   180339   180348   180360   180372   180381 
  180391   180402   180412   180420   180429   180439   180444   180450 
  180461   180471   180480   180495   180505   180507   180509   180511 
  180512   180510   180505   180498   180485   180467   180448   180429 
  180407   180384   180364   180344   180323   180304   180291   180286 
  180288   180287   180278   180263   180251   180243   180237   180231 
  180227   180226   180229   180233   180232   180228   180226   180227 
  180228   180233   180240   180244   180250   180256   180262   180273 
  180284   180291   180294   180295   180293   180283   180274   180273 
  180273   180271   180268   180262   180253   180243   180234   180225 
  180211   180202   180204   180217   180239   180268   180299   180329 
  180360   180387   180404   180416   180425   180437   180451   180463 
  180474   180481   180489   180499   180511   180524   180538   180553 
  180570   180587   180605   180624   180638   180645   180649   180657 
  180669   180682   180695   180705   180712   180717   180714   180703 
  180693   180688   180685   180684   180680   180674   180665   180656 
  180647   180641   180635   180631   180633   180639   180642   180642 
  180637   180626   180610   180587   180557   180528   180504   180487 
  180476   180465   180446   180427   180407   180382   180360   180349 
  180340   180333   180337   180349   180359   180365   180370   180376 
  180379   180383   180388   180385   180377   180365   180346   180322 
  180297   180272   180253   180242   180235   180232   180235   180238 
  180240   180241   180242   180244   180244   180241   180242   180243 
  180242   180247   180258   180270   180282   180288   180289   180287 
  180283   180279   180277   180270   180263   180263   180265   180265 
  180266   180265   180262   180262   180268   180279   180292   180303 
  180306   180301   180290   180276   180261   180245   180225   180204 
  180182   180162   180144   180129   180119   180113   180109   180106 
  180106   180102   180093   180090   180091   180092   180094   180096 
  180096   180099   180108   180115   180118   180122   180128   180131 
  180135   180139   180146   180165   180191   180215   180241   180271 
  180299   180329   180359   180387   180420   180457   180490   180519 
  180539   180552   180563   180571   180577   180585   180592   180594 
  180589   180583   180583   180584   180588   180597   180608   180621 
  180633   180639   180646   180649   180647   180651   180658   180660 
  180664   180671   180675   180678   180681   180682   180672   180654 
  180636   180620   180605   180597   180589   180578   180566   180561 
  180562   180563   180562   180561   180558   180556   180553   180549 
  180545   180542   180539   180538   180538   180535   180528   180522 
  180514   180505   180499   180498   180499   180499   180502   180507 
  180511   180512   180514   180516   180522   180529   180533   180535 
  180531   180525   180526   180528   180527   180528   180529   180526 
  180520   180515   180509   180501   180490   180476   180462   180447 
  180430   180411   180391   180370   180349   180327   180299   180268 
  180238   180214   180193   180172   180158   180154   180152   180150 
  180152   180154   180158   180166   180178   180190   180205   180223 
  180236   180244   180252   180258   180263   180266   180261   180252 
  180249   180244   180234   180221   180208   180196   180190   180193 
  180200   180211   180225   180239   180253   180272   180290   180300 
  180309   180318   180326   180334   180339   180342   180349   180359 
  180372   180383   180390   180395   180404   180418   180433   180445 
  180452   180457   180463   180469   180470   180467   180470   180475 
  180477   180477   180477   180477   180478   180481   180480   180480 
  180482   180483   180484   180486   180487   180487   180485   180478 
  180467   180454   180444   180436   180424   180413   180398   180379 
  180362   180349   180338   180330   180320   180311   180304   180295 
  180285   180271   180254   180245   180245   180246   180244   180238 
  180230   180222   180216   180210   180207   180206   180205   180204 
  180202   180195   180190   180188   180183   180181   180184   180189 
  180195   180206   180217   180224   180229   180231   180235   180238 
  180238   180237   180236   180237   180243   180247   180247   180246 
  180238   180227   180218   180212   180206   180200   180194   180187 
  180179   180166   180150   180135   180121   180109   180109   180116 
  180120   180126   180139   180153   180173   180202   180235   180269 
  180301   180334   180369   180400   180429   180464   180499   180528 
  180555   180575   180589   180601   180609   180619   180635   180659 
  180688   180723   180758   180789   180814   180835   180855   180875 
  180898   180922   180942   180964   180980   180987   180995   181005 
  181008   181008   181006   180996   180988   180981   180969   180955 
  180944   180931   180913   180896   180879   180864   180854   180843 
  180834   180826   180815   180804   180793   180781   180769   180763 
  180760   180756   180749   180739   180726   180713   180701   180691 
  180686   180689   180694   180697   180695   180689   180681   180672 
  180669   180666   180657   180644   180628   180611   180597   180585 
  180574   180566   180560   180552   180545   180537   180528   180518 
  180508   180499   180497   180501   180500   180493   180482   180465 
  180445   180421   180397   180372   180349   180333   180321   180307 
  180293   180279   180268   180259   180246   180231   180218   180206 
  180193   180185   180180   180172   180156   180140   180123   180101 
  180075   180046   180017   179990   179966   179946   179929   179910 
  179888   179866   179841   179812   179783   179758   179740   179728 
  179719   179715   179711   179703   179692   179679   179670   179665 
  179661   179666   179683   179705   179721   179738   179759   179778 
  179798   179824   179851   179880   179909   179929   179943   179952 
  179956   179959   179964   179970   179973   179974   179973   179977 
  179984   179994   180007   180022   180037   180051   180061   180071 
  180085   180095   180099   180101   180098   180091   180084   180079 
  180073   180068   180066   180066   180067   180071   180076   180085 
  180100   180118   180135   180146   180151   180154   180157   180160 
  180162   180163   180164   180167   180171   180171   180172   180177 
  180179   180181   180184   180187   180197   180215   180232   180250 
  180270   180292   180317   180345   180372   180398   180423   180445 
  180467   180493   180517   180541   180571   180599   180628   180661 
  180695   180729   180763   180796   180831   180860   180885   180910 
  180933   180951   180967   180981   180991   181000   181012   181027 
  181038   181045   181050   181049   181044   181035   181025   181019 
  181016   181012   181008   181008   181006   181005   181006   181007 
  181008   181013   181019   181030   181048   181063   181074   181090 
  181104   181113   181122   181129   181130   181130   181130   181129 
  181124   181115   181103   181087   181069   181052   181035   181014 
  180997   180984   180971   180955   180935   180913   180889   180864 
  180836   180807   180779   180756   180733   180706   180677   180646 
  180613   180583   180557   180533   180514   180499   180487   180482 
  180479   180470   180456   180442   180421   180394   180370   180347 
  180321   180299   180276   180249   180226   180210   180194   180186 
  180185   180181   180176   180172   180162   180149   180136   180122 
  180105   180085   180067   180045   180026   180017   180012   180003 
  179998   180000   180000   179999   180002   180005   180009   180018 
  180025   180030   180034   180033   180028   180020   180008   179990 
  179972   179958   179945   179928   179908   179886   179862   179839 
  179819   179800   179783   179767   179748   179725   179700   179680 
  179662   179647   179635   179625   179617   179611   179605   179601 
  179602   179604   179611   179624   179639   179660   179686   179716 
  179746   179772   179796   179816   179832   179850   179867   179880 
  179894   179907   179915   179925   179935   179941   179945   179950 
  179959   179971   179983   179999   180017   180036   180055   180075 
  180096   180117   180133   180146   180160   180173   180189   180203 
  180214   180225   180236   180250   180262   180276   180295   180316 
  180340   180365   180388   180414   180441   180468   180497   180527 
  180556   180584   180610   180636   180664   180692   180715   180734 
  180745   180750   180755   180759   180769   180781   180790   180797 
  180804   180810   180819   180835   180849   180862   180878   180894 
  180911   180928   180945   180962   180982   181000   181015   181027 
  181042   181059   181078   181102   181125   181143   181161   181181 
  181198   181216   181239   181263   181288   181315   181336   181350 
  181363   181372   181373   181366   181358   181351   181345   181336 
  181325   181315   181307   181298   181285   181264   181238   181206 
  181169   181138   181112   181085   181063   181045   181024   181001 
  180976   180949   180922   180900   180880   180859   180841   180824 
  180805   180790   180781   180770   180755   180735   180708   180676 
  180640   180607   180583   180562   180538   180509   180480   180451 
  180424   180403   180386   180367   180349   180332   180315   180296 
  180273   180254   180234   180214   180197   180179   180159   180135 
  180108   180080   180049   180015   179983   179954   179924   179896 
  179870   179843   179819   179794   179769   179745   179721   179695 
  179667   179641   179618   179601   179587   179578   179574   179575 
  179576   179580   179582   179579   179580   179587   179592   179594 
  179596   179597   179600   179603   179605   179612   179622   179632 
  179644   179658   179669   179682   179697   179711   179725   179744 
  179760   179774   179794   179818   179844   179871   179893   179911 
  179928   179946   179964   179986   180012   180041   180074   180108 
  180140   180167   180191   180213   180233   180250   180263   180274 
  180283   180292   180299   180304   180308   180310   180313   180315 
  180317   180326   180341   180358   180376   180395   180412   180427 
  180441   180453   180464   180477   180493   180512   180532   180551 
  180571   180592   180611   180630   180651   180668   180685   180707 
  180728   180743   180758   180771   180781   180789   180795   180798 
  180804   180814   180818   180817   180819   180821   180820   180820 
  180819   180818   180821   180823   180822   180824   180830   180835 
  180834   180827   180820   180814   180808   180804   180798   180787 
  180774   180759   180736   180711   180685   180657   180630   180605 
  180580   180555   180529   180508   180494   180486   180481   180476 
  180470   180467   180466   180463   180455   180449   180444   180436 
  180425   180408   180385   180366   180349   180332   180317   180305 
  180296   180291   180288   180284   180283   180282   180280   180277 
  180278   180280   180277   180274   180269   180260   180253   180246 
  180237   180227   180219   180213   180205   180195   180184   180169 
  180153   180137   180120   180106   180097   180093   180093   180096 
  180100   180102   180101   180099   180094   180088   180087   180089 
  180090   180096   180104   180113   180124   180136   180142   180148 
  180158   180167   180175   180185   180197   180207   180218   180230 
  180241   180252   180262   180269   180278   180288   180300   180315 
  180329   180343   180361   180377   180392   180407   180424   180441 
  180454   180465   180472   180481   180490   180498   180505   180510 
  180511   180511   180507   180501   180495   180490   180488   180485 
  180482   180484   180486   180488   180492   180494   180499   180505 
  180507   180511   180516   180518   180522   180525   180523   180521 
  180519   180513   180512   180509   180498   180488   180481   180474 
  180469   180466   180465   180463   180456   180448   180442   180440 
  180444   180451   180454   180456   180453   180448   180443   180440 
  180438   180436   180433   180430   180426   180422   180418   180409 
  180398   180390   180382   180370   180357   180344   180333   180325 
  180317   180304   180294   180286   180276   180267   180258   180253 
  180253   180252   180253   180258   180267   180277   180288   180296 
  180305   180317   180327   180337   180347   180360   180371   180380 
  180387   180389   180388   180388   180389   180393   180402   180412 
  180417   180417   180419   180426   180434   180440   180444   180446 
  180446   180448   180450   180452   180455   180460   180465   180469 
  180480   180494   180509   180526   180543   180560   180577   180592 
  180609   180626   180642   180661   180680   180695   180708   180723 
  180740   180749   180754   180760   180761   180761   180766   180770 
  180773   180776   180779   180780   180779   180773   180761   180746 
  180735   180728   180719   180707   180694   180681   180668   180654 
  180646   180645   180645   180645   180644   180641   180637   180632 
  180629   180626   180624   180624   180622   180618   180612   180605 
  180597   180591   180583   180576   180573   180571   180568   180566 
  180564   180554   180545   180541   180542   180540   180532   180520 
  180509   180503   180497   180484   180471   180462   180446   180424 
  180404   180386   180368   180352   180338   180326   180313   180300 
  180290   180281   180273   180269   180269   180268   180264   180256 
  180247   180237   180224   180209   180197   180182   180164   180148 
  180134   180124   180115   180103   180093   180083   180069   180055 
  180044   180032   180020   180011   180004   179998   179993   179990 
  179985   179980   179972   179956   179939   179928   179919   179912 
  179906   179906   179915   179922   179929   179943   179958   179974 
  179992   180010   180027   180043   180054   180063   180074   180082 
  180084   180083   180080   180077   180074   180071   180065   180061 
  180061   180059   180056   180053   180052   180051   180049   180046 
  180043   180043   180040   180037   180035   180030   180020   180014 
  180010   180006   180003   179999   179996   179997   179996   179991 
  179992   180001   180010   180023   180044   180067   180086   180110 
  180133   180151   180171   180193   180211   180226   180237   180246 
  180256   180265   180270   180271   180268   180265   180264   180265 
  180270   180278   180287   180300   180315   180329   180340   180351 
  180365   180381   180401   180421   180440   180460   180480   180499 
  180522   180550   180576   180604   180635   180664   180690   180717 
