Origin Time       2024/04/02 04:24:00
Lat.              40.133
Long.             141.712
Depth. (km)       71
Mag.              6.0
Station Code      NIGH02
Station Lat.      38.2799
Station Long.     139.5486
Station Height(m) 34
Record Time       2024/04/02 04:25:18
Sampling Freq(Hz) 100Hz
Duration Time(s)  204
Dir.              5
Scale Factor      3920(gal)/6170801
Max. Acc. (gal)   1.263
Last Correction   2024/04/02 04:25:03
Memo.             
[...]
   -5880    -6011    -6123    -6255    -6377    -6465    -6530    -6572 
   -6588    -6593    -6608    -6640    -6673    -6682    -6654    -6569 
   -6449    -6357    -6320    -6316    -6311    -6300    -6292    -6260 
   -6185    -6111    -6091    -6120    -6177    -6241    -6305    -6374 
   -6436    -6485    -6524    -6552    -6584    -6629    -6687    -6757 
   -6839    -6928    -6993    -7000    -6959    -6907    -6873    -6859 
   -6862    -6890    -6927    -6932    -6897    -6836    -6762    -6687 
   -6622    -6571    -6522    -6471    -6431    -6385    -6310    -6256 
   -6246    -6239    -6230    -6236    -6235    -6200    -6124    -6024 
   -5950    -5943    -5988    -6049    -6097    -6114    -6104    -6097 
   -6112    -6168    -6272    -6377    -6428    -6420    -6384    -6360 
   -6384    -6437    -6494    -6568    -6620    -6612    -6582    -6551 
   -6501    -6443    -6413    -6416    -6435    -6462    -6494    -6512 
   -6504    -6477    -6450    -6443    -6439    -6413    -6407    -6450 
   -6501    -6542    -6582    -6584    -6514    -6423    -6376    -6401 
   -6508    -6672    -6834    -6937    -6978    -7004    -7043    -7082 
   -7115    -7127    -7074    -6955    -6814    -6680    -6547    -6424 
   -6324    -6236    -6154    -6073    -5987    -5915    -5870    -5844 
   -5823    -5797    -5755    -5695    -5606    -5496    -5412    -5382 
   -5396    -5422    -5421    -5396    -5381    -5376    -5371    -5377 
   -5392    -5391    -5372    -5334    -5273    -5223    -5212    -5225 
   -5236    -5248    -5271    -5303    -5354    -5429    -5503    -5554 
   -5583    -5583    -5561    -5551    -5575    -5632    -5705    -5764 
   -5792    -5783    -5733    -5659    -5594    -5563    -5571    -5579 
   -5541    -5468    -5368    -5244    -5147    -5118    -5134    -5158 
   -5171    -5169    -5157    -5145    -5163    -5229    -5323    -5424 
   -5502    -5535    -5569    -5646    -5740    -5810    -5858    -5901 
   -5921    -5910    -5903    -5903    -5883    -5843    -5781    -5713 
   -5684    -5703    -5754    -5806    -5816    -5800    -5785    -5765 
   -5760    -5785    -5810    -5818    -5818    -5819    -5835    -5875 
   -5931    -5988    -6026    -6050    -6081    -6109    -6124    -6144 
   -6170    -6211    -6288    -6403    -6523    -6605    -6624    -6567 
   -6475    -6420    -6431    -6479    -6523    -6539    -6523    -6521 
   -6569    -6658    -6779    -6889    -6946    -6985    -7029    -7065 
   -7118    -7186    -7204    -7159    -7085    -7029    -7028    -7064 
   -7089    -7065    -6968    -6833    -6727    -6686    -6684    -6688 
   -6700    -6704    -6677    -6651    -6651    -6651    -6627    -6592 
   -6564    -6542    -6525    -6516    -6498    -6456    -6391    -6301 
   -6197    -6103    -6031    -5975    -5915    -5837    -5758    -5698 
   -5641    -5570    -5493    -5417    -5322    -5219    -5145    -5102 
   -5079    -5075    -5070    -5047    -5017    -4997    -4992    -5014 
   -5040    -5036    -5019    -5022    -5038    -5053    -5067    -5072 
   -5063    -5048    -5047    -5082    -5167    -5273    -5360    -5419 
   -5462    -5512    -5600    -5740    -5892    -6015    -6114    -6197 
   -6271    -6354    -6455    -6569    -6652    -6659    -6618    -6587 
   -6566    -6557    -6581    -6610    -6618    -6599    -6544    -6483 
   -6448    -6410    -6348    -6285    -6251    -6245    -6240    -6236 
   -6249    -6282    -6331    -6383    -6436    -6509    -6568    -6588 
   -6610    -6638    -6657    -6682    -6700    -6686    -6645    -6607 
   -6593    -6587    -6563    -6536    -6524    -6524    -6522    -6528 
   -6555    -6584    -6589    -6578    -6556    -6513    -6461    -6400 
   -6341    -6303    -6281    -6277    -6272    -6234    -6179    -6124 
   -6071    -6043    -6041    -6055    -6078    -6093    -6100    -6095 
   -6053    -5998    -5952    -5893    -5835    -5788    -5722    -5641 
   -5577    -5529    -5486    -5443    -5389    -5320    -5252    -5190 
   -5166    -5204    -5263    -5310    -5341    -5357    -5388    -5447 
   -5534    -5646    -5757    -5832    -5861    -5858    -5869    -5912 
   -5950    -5985    -6036    -6076    -6090    -6083    -6061    -6050 
   -6047    -6026    -6004    -5980    -5935    -5885    -5829    -5754 
   -5701    -5691    -5694    -5726    -5800    -5858    -5885    -5934 
   -6016    -6076    -6097    -6087    -6044    -5994    -5972    -5985 
   -6030    -6075    -6093    -6085    -6047    -6002    -5989    -6002 
   -6012    -6003    -5978    -5970    -5993    -6030    -6077    -6132 
   -6170    -6170    -6146    -6136    -6159    -6194    -6215    -6216 
   -6205    -6198    -6188    -6174    -6181    -6205    -6228    -6256 
   -6292    -6312    -6309    -6285    -6250    -6240    -6268    -6314 
   -6362    -6396    -6420    -6444    -6479    -6539    -6626    -6728 
   -6819    -6883    -6937    -7004    -7088    -7162    -7209    -7214 
   -7155    -7064    -6999    -6953    -6897    -6841    -6781    -6699 
   -6602    -6524    -6483    -6474    -6451    -6372    -6249    -6125 
   -6031    -5951    -5872    -5818    -5779    -5717    -5634    -5561 
   -5522    -5503    -5483    -5454    -5414    -5365    -5310    -5260 
   -5210    -5171    -5165    -5177    -5196    -5218    -5247    -5309 
   -5410    -5519    -5609    -5664    -5673    -5648    -5613    -5575 
   -5537    -5508    -5482    -5452    -5413    -5364    -5315    -5277 
   -5242    -5214    -5208    -5212    -5213    -5228    -5261    -5298 
   -5340    -5406    -5502    -5610    -5718    -5849    -6010    -6169 
   -6308    -6417    -6496    -6565    -6644    -6737    -6842    -6942 
   -7015    -7056    -7077    -7096    -7124    -7167    -7240    -7337 
   -7425    -7499    -7567    -7610    -7619    -7618    -7605    -7577 
   -7549    -7520    -7485    -7442    -7396    -7361    -7315    -7233 
   -7145    -7064    -6973    -6860    -6730    -6599    -6458    -6300 
   -6146    -6010    -5874    -5725    -5573    -5433    -5317    -5222 
   -5138    -5074    -5032    -4989    -4944    -4920    -4903    -4857 
   -4798    -4740    -4670    -4611    -4575    -4556    -4565    -4591 
   -4607    -4601    -4582    -4578    -4594    -4625    -4679    -4769 
   -4890    -5009    -5100    -5172    -5240    -5284    -5293    -5294 
   -5308    -5332    -5356    -5386    -5441    -5519    -5593    -5665 
   -5749    -5840    -5912    -5964    -6035    -6140    -6262    -6392 
   -6502    -6562    -6557    -6503    -6437    -6379    -6325    -6272 
   -6233    -6219    -6221    -6222    -6221    -6217    -6209    -6198 
   -6194    -6211    -6242    -6276    -6302    -6308    -6313    -6336 
   -6367    -6389    -6396    -6398    -6402    -6399    -6396    -6400 
   -6396    -6363    -6306    -6247    -6210    -6219    -6252    -6273 
   -6280    -6262    -6227    -6206    -6189    -6179    -6178    -6155 
   -6119    -6083    -6052    -6069    -6126    -6178    -6203    -6193 
   -6172    -6162    -6161    -6177    -6193    -6187    -6179    -6174 
   -6158    -6148    -6160    -6186    -6192    -6168    -6147    -6138 
   -6137    -6152    -6171    -6218    -6299    -6374    -6427    -6460 
   -6450    -6400    -6338    -6281    -6250    -6243    -6235    -6221 
   -6211    -6203    -6188    -6158    -6127    -6105    -6077    -6046 
   -6043    -6079    -6136    -6187    -6229    -6254    -6248    -6236 
   -6248    -6291    -6367    -6473    -6580    -6651    -6685    -6702 
   -6724    -6758    -6792    -6820    -6827    -6789    -6724    -6683 
   -6673    -6671    -6663    -6634    -6589    -6540    -6481    -6425 
   -6380    -6344    -6308    -6260    -6205    -6149    -6081    -6002 
   -5921    -5862    -5834    -5820    -5813    -5808    -5768    -5696 
   -5633    -5591    -5565    -5535    -5486    -5436    -5406    -5387 
   -5384    -5419    -5482    -5537    -5567    -5596    -5652    -5728 
   -5813    -5903    -5985    -6047    -6082    -6109    -6153    -6216 
   -6271    -6310    -6344    -6368    -6390    -6434    -6479    -6486 
   -6463    -6449    -6450    -6444    -6431    -6422    -6402    -6356 
   -6312    -6293    -6269    -6222    -6147    -6030    -5898    -5804 
   -5750    -5703    -5652    -5597    -5529    -5440    -5367    -5340 
   -5336    -5323    -5298    -5275    -5264    -5261    -5268    -5289 
   -5313    -5336    -5346    -5344    -5341    -5322    -5286    -5266 
   -5274    -5312    -5380    -5443    -5484    -5515    -5531    -5528 
   -5550    -5615    -5668    -5683    -5681    -5669    -5678    -5744 
   -5830    -5898    -5951    -5967    -5949    -5936    -5940    -5954 
   -5967    -5972    -5971    -5955    -5932    -5930    -5952    -5985 
   -6025    -6061    -6096    -6137    -6176    -6206    -6231    -6237 
   -6219    -6192    -6169    -6160    -6171    -6184    -6184    -6187 
   -6192    -6188    -6183    -6181    -6191    -6229    -6297    -6380 
   -6450    -6487    -6506    -6512    -6506    -6516    -6563    -6624 
   -6663    -6674    -6680    -6706    -6775    -6884    -6986    -7052 
   -7085    -7088    -7077    -7087    -7132    -7185    -7220    -7232 
   -7221    -7184    -7132    -7064    -6987    -6915    -6849    -6801 
   -6788    -6784    -6746    -6666    -6573    -6479    -6386    -6305 
   -6227    -6145    -6044    -5909    -5772    -5662    -5577    -5524 
   -5496    -5474    -5455    -5446    -5442    -5449    -5476    -5527 
   -5593    -5666    -5738    -5781    -5782    -5756    -5725    -5697 
   -5685    -5692    -5720    -5750    -5755    -5747    -5751    -5764 
   -5792    -5843    -5896    -5929    -5939    -5926    -5916    -5939 
   -5974    -5974    -5962    -5972    -5976    -5956    -5944    -5960 
   -5968    -5949    -5932    -5930    -5915    -5883    -5873    -5883 
   -5883    -5876    -5880    -5894    -5904    -5919    -5949    -5967 
   -5957    -5926    -5880    -5833    -5784    -5746    -5736    -5739 
   -5733    -5723    -5716    -5708    -5716    -5743    -5761    -5760 
   -5745    -5715    -5684    -5673    -5693    -5741    -5809    -5884 
   -5937    -5949    -5944    -5960    -5991    -6030    -6079    -6126 
   -6159    -6171    -6185    -6235    -6311    -6369    -6391    -6390 
   -6385    -6394    -6412    -6425    -6434    -6435    -6417    -6405 
   -6411    -6411    -6394    -6377    -6364    -6362    -6375    -6380 
   -6367    -6323    -6242    -6149    -6092    -6070    -6045    -5999 
   -5951    -5917    -5903    -5920    -5960    -5991    -5981    -5923 
   -5870    -5872    -5896    -5900    -5877    -5815    -5715    -5599 
   -5488    -5410    -5360    -5296    -5205    -5117    -5043    -4980 
   -4946    -4948    -4951    -4952    -4982    -5044    -5132    -5237 
   -5323    -5387    -5450    -5512    -5578    -5658    -5742    -5831 
   -5918    -5985    -6042    -6095    -6125    -6139    -6161    -6201 
   -6254    -6307    -6340    -6340    -6304    -6259    -6247    -6290 
   -6389    -6516    -6635    -6728    -6792    -6859    -6933    -6974 
   -6990    -7015    -7027    -7005    -6961    -6919    -6904    -6890 
   -6836    -6763    -6699    -6635    -6573    -6534    -6510    -6485 
   -6456    -6420    -6381    -6350    -6306    -6235    -6180    -6139 
   -6086    -6033    -5988    -5962    -5967    -5975    -5982    -6012 
   -6042    -6034    -6012    -6021    -6065    -6136    -6230    -6322 
   -6384    -6398    -6353    -6282    -6239    -6254    -6317    -6379 
   -6411    -6418    -6402    -6382    -6379    -6397    -6420    -6422 
   -6384    -6309    -6233    -6193    -6187    -6189    -6182    -6167 
   -6139    -6098    -6070    -6065    -6059    -6038    -6016    -6004 
   -5999    -6002    -5992    -5957    -5912    -5873    -5844    -5821 
   -5825    -5855    -5860    -5820    -5768    -5726    -5705    -5720 
   -5759    -5802    -5848    -5892    -5925    -5934    -5903    -5855 
   -5818    -5787    -5771    -5780    -5792    -5774    -5717    -5650 
   -5606    -5601    -5643    -5700    -5733    -5749    -5737    -5689 
   -5667    -5703    -5759    -5818    -5864    -5890    -5913    -5929 
   -5947    -5979    -6013    -6039    -6041    -6023    -6026    -6051 
   -6070    -6075    -6053    -6002    -5944    -5891    -5861    -5856 
   -5851    -5842    -5821    -5765    -5677    -5579    -5501    -5464 
   -5455    -5447    -5427    -5401    -5374    -5338    -5299    -5275 
   -5270    -5274    -5279    -5290    -5306    -5320    -5337    -5368 
   -5403    -5428    -5471    -5544    -5594    -5614    -5654    -5713 
   -5758    -5806    -5879    -5968    -6056    -6126    -6193    -6274 
   -6363    -6458    -6551    -6638    -6714    -6774    -6835    -6895 
   -6945    -7005    -7070    -7117    -7149    -7182    -7223    -7285 
   -7361    -7431    -7487    -7528    -7548    -7539    -7520    -7529 
   -7557    -7582    -7600    -7601    -7578    -7532    -7475    -7426 
   -7391    -7363    -7343    -7331    -7303    -7259    -7224    -7208 
   -7198    -7190    -7183    -7166    -7115    -7029    -6937    -6848 
   -6752    -6652    -6548    -6443    -6365    -6315    -6273    -6244 
   -6219    -6194    -6172    -6139    -6110    -6107    -6118    -6142 
   -6176    -6190    -6165    -6110    -6041    -5970    -5909    -5878 
   -5858    -5805    -5716    -5605    -5477    -5344    -5221    -5115 
   -5012    -4901    -4787    -4662    -4544    -4475    -4442    -4413 
   -4380    -4344    -4305    -4251    -4191    -4166    -4181    -4196 
   -4196    -4186    -4145    -4089    -4067    -4092    -4160    -4248 
   -4330    -4398    -4449    -4478    -4498    -4552    -4670    -4813 
   -4947    -5095    -5265    -5441    -5607    -5750    -5877    -5995 
   -6093    -6174    -6262    -6367    -6479    -6579    -6674    -6775 
   -6864    -6934    -6993    -7039    -7081    -7118    -7150    -7180 
   -7188    -7163    -7104    -7021    -6947    -6887    -6829    -6779 
   -6722    -6629    -6521    -6441    -6390    -6347    -6293    -6227 
   -6153    -6077    -6009    -5944    -5866    -5788    -5731    -5695 
   -5668    -5646    -5652    -5678    -5669    -5619    -5575    -5539 
   -5506    -5491    -5489    -5484    -5490    -5513    -5532    -5540 
   -5541    -5529    -5528    -5551    -5595    -5661    -5722    -5746 
   -5754    -5757    -5752    -5778    -5843    -5910    -5970    -6017 
   -6038    -6053    -6081    -6114    -6134    -6146    -6155    -6156 
   -6170    -6205    -6252    -6302    -6329    -6313    -6285    -6262 
   -6236    -6225    -6257    -6309    -6342    -6358    -6364    -6349 
   -6323    -6311    -6302    -6276    -6261    -6271    -6282    -6295 
   -6340    -6409    -6478    -6532    -6570    -6613    -6656    -6669 
   -6662    -6665    -6691    -6730    -6766    -6819    -6891    -6936 
   -6951    -6960    -6955    -6933    -6895    -6840    -6784    -6755 
   -6746    -6747    -6751    -6736    -6704    -6665    -6618    -6568 
   -6534    -6506    -6445    -6355    -6259    -6150    -6045    -5976 
   -5921    -5854    -5785    -5736    -5721    -5717    -5709    -5723 
   -5754    -5756    -5747    -5771    -5812    -5835    -5846    -5844 
   -5820    -5785    -5760    -5757    -5775    -5785    -5773    -5752 
   -5732    -5718    -5718    -5741    -5780    -5844    -5935    -6031 
   -6121    -6192    -6232    -6255    -6277    -6299    -6328    -6381 
   -6446    -6478    -6464    -6442    -6444    -6455    -6443    -6409 
   -6366    -6308    -6224    -6149    -6122    -6110    -6081    -6034 
   -5966    -5895    -5851    -5824    -5786    -5742    -5702    -5670 
   -5646    -5631    -5637    -5654    -5656    -5636    -5587    -5525 
   -5503    -5528    -5554    -5566    -5586    -5617    -5635    -5646 
   -5680    -5731    -5779    -5823    -5875    -5922    -5969    -6027 
   -6085    -6143    -6210    -6259    -6261    -6233    -6206    -6185 
   -6166    -6160    -6184    -6212    -6209    -6173    -6121    -6074 
   -6040    -6019    -6017    -6022    -6005    -5961    -5892    -5800 
   -5700    -5628    -5612    -5627    -5643    -5659    -5677    -5688 
   -5693    -5696    -5701    -5714    -5712    -5681    -5661    -5676 
   -5702    -5737    -5780    -5811    -5825    -5846    -5890    -5945 
   -6008    -6071    -6098    -6087    -6072    -6069    -6091    -6140 
   -6189    -6227    -6260    -6287    -6304    -6314    -6321    -6330 
   -6339    -6343    -6368    -6439    -6519    -6576    -6625    -6666 
   -6699    -6749    -6810    -6854    -6887    -6913    -6922    -6911 
   -6887    -6852    -6802    -6741    -6683    -6624    -6561    -6500 
   -6434    -6370    -6321    -6281    -6263    -6277    -6289    -6272 
   -6242    -6204    -6154    -6102    -6063    -6049    -6060    -6089 
   -6137    -6191    -6215    -6202    -6187    -6193    -6204    -6227 
   -6278    -6313    -6307    -6305    -6342    -6408    -6464    -6488 
   -6496    -6491    -6470    -6452    -6449    -6448    -6437    -6405 
   -6352    -6298    -6260    -6230    -6180    -6117    -6062    -6018 
   -5987    -5982    -5976    -5923    -5829    -5744    -5669    -5592 
   -5550    -5548    -5547    -5542    -5553    -5576    -5581    -5561 
   -5542    -5527    -5503    -5509    -5568    -5626    -5635    -5610 
   -5572    -5515    -5446    -5400    -5379    -5360    -5331    -5289 
   -5259    -5257    -5263    -5254    -5234    -5220    -5207    -5198 
   -5213    -5245    -5275    -5305    -5337    -5361    -5374    -5379 
   -5388    -5409    -5428    -5449    -5481    -5498    -5483    -5453 
   -5413    -5361    -5331    -5345    -5365    -5371    -5390    -5430 
   -5474    -5507    -5536    -5583    -5657    -5737    -5811    -5892 
   -5963    -5987    -5989    -6025    -6099    -6183    -6255    -6300 
   -6313    -6301    -6290    -6308    -6376    -6471    -6532    -6558 
   -6584    -6605    -6609    -6623    -6649    -6660    -6658    -6659 
   -6665    -6685    -6702    -6692    -6673    -6645    -6596    -6561 
   -6551    -6535    -6509    -6486    -6464    -6449    -6467    -6514 
   -6553    -6574    -6577    -6545    -6491    -6442    -6414    -6404 
   -6379    -6334    -6311    -6312    -6301    -6277    -6254    -6225 
   -6194    -6185    -6211    -6260    -6307    -6317    -6286    -6253 
   -6231    -6228    -6266    -6330    -6376    -6395    -6427    -6486 
   -6532    -6563    -6600    -6630    -6654    -6671    -6663    -6657 
   -6650    -6606    -6533    -6455    -6371    -6304    -6260    -6210 
   -6136    -6066    -6021    -5984    -5951    -5940    -5946    -5956 
   -5976    -6004    -6017    -6014    -5999    -5965    -5910    -5858 
   -5819    -5779    -5737    -5686    -5599    -5506    -5453    -5443 
   -5457    -5474    -5484    -5482    -5453    -5416    -5411    -5431 
   -5467    -5527    -5588    -5643    -5689    -5721    -5753    -5778 
   -5779    -5777    -5783    -5795    -5820    -5865    -5919    -5943 
   -5935    -5922    -5890    -5835    -5794    -5786    -5791    -5798 
   -5810    -5829    -5842    -5843    -5857    -5893    -5921    -5938 
   -5962    -5976    -5969    -5970    -5976    -5958    -5931    -5920 
   -5910    -5881    -5852    -5839    -5836    -5858    -5921    -5991 
   -6051    -6118    -6184    -6223    -6251    -6311    -6409    -6504 
   -6592    -6696    -6792    -6850    -6896    -6947    -6976    -6965 
