Origin Time       2024/04/02 04:24:00
Lat.              40.133
Long.             141.712
Depth. (km)       71
Mag.              6.0
Station Code      NIGH03
Station Lat.      38.1327
Station Long.     139.4289
Station Height(m) -215
Record Time       2024/04/02 04:25:22
Sampling Freq(Hz) 100Hz
Duration Time(s)  164
Dir.              1
Scale Factor      2940(gal)/6170270
Max. Acc. (gal)   0.279
Last Correction   2024/04/02 04:25:07
Memo.             
[...]
   74256    74264    74278    74300    74326    74349    74367    74383 
   74398    74409    74416    74426    74441    74457    74475    74505 
   74545    74591    74635    74670    74693    74708    74714    74715 
   74709    74689    74663    74643    74630    74625    74629    74631 
   74628    74622    74613    74604    74595    74584    74570    74554 
   74539    74530    74527    74530    74540    74555    74573    74593 
   74617    74644    74670    74690    74707    74722    74729    74730 
   74725    74711    74690    74668    74648    74623    74586    74543 
   74506    74471    74434    74400    74375    74359    74348    74340 
   74333    74329    74332    74341    74352    74365    74380    74402 
   74427    74444    74457    74477    74503    74526    74542    74551 
   74556    74551    74532    74504    74471    74435    74401    74366 
   74332    74303    74281    74263    74245    74239    74240    74236 
   74240    74263    74292    74319    74343    74363    74383    74400 
   74419    74438    74457    74476    74498    74517    74532    74544 
   74549    74541    74523    74499    74473    74451    74439    74431 
   74424    74417    74406    74395    74392    74391    74389    74387 
   74383    74380    74379    74377    74375    74377    74380    74383 
   74384    74382    74377    74369    74364    74360    74354    74349 
   74349    74351    74354    74358    74363    74363    74356    74342 
   74329    74323    74322    74329    74343    74358    74381    74416 
   74455    74495    74530    74550    74556    74552    74537    74515 
   74488    74454    74420    74387    74351    74320    74302    74295 
   74292    74296    74299    74299    74303    74309    74315    74319 
   74320    74324    74332    74339    74344    74344    74336    74328 
   74319    74302    74286    74271    74257    74243    74224    74210 
   74209    74211    74213    74219    74227    74238    74257    74281 
   74305    74330    74350    74367    74387    74403    74416    74430 
   74443    74451    74457    74460    74463    74464    74461    74455 
   74440    74417    74388    74352    74313    74276    74245    74220 
   74203    74198    74202    74212    74224    74237    74255    74278 
   74301    74320    74331    74335    74337    74334    74334    74343 
   74352    74354    74350    74340    74324    74302    74275    74251 
   74237    74225    74210    74198    74194    74194    74194    74198 
   74204    74214    74226    74239    74248    74253    74266    74284 
   74298    74314    74335    74356    74374    74392    74412    74430 
   74443    74453    74458    74455    74451    74444    74434    74427 
   74425    74428    74440    74458    74476    74489    74495    74494 
   74486    74468    74451    74436    74424    74421    74426    74436 
   74452    74471    74484    74487    74482    74470    74452    74432 
   74413    74396    74390    74395    74409    74430    74456    74480 
   74503    74523    74534    74534    74525    74512    74494    74473 
   74459    74449    74438    74437    74442    74451    74469    74485 
   74494    74499    74497    74489    74476    74460    74445    74434 
   74435    74447    74464    74490    74509    74508    74502    74498 
   74497    74506    74520    74541    74568    74589    74596    74589 
   74574    74555    74529    74497    74468    74444    74425    74418 
   74420    74428    74445    74467    74491    74520    74553    74583 
   74605    74614    74614    74609    74598    74585    74576    74569 
   74561    74556    74558    74561    74564    74565    74561    74556 
   74559    74560    74551    74539    74528    74522    74516    74512 
   74511    74509    74506    74506    74510    74523    74541    74551 
   74555    74560    74563    74566    74573    74581    74587    74591 
   74590    74582    74579    74588    74596    74599    74606    74616 
   74623    74629    74636    74644    74651    74650    74638    74622 
   74601    74579    74561    74543    74520    74489    74454    74429 
   74418    74414    74414    74417    74422    74428    74433    74442 
   74455    74465    74472    74482    74484    74474    74461    74446 
   74419    74380    74340    74306    74274    74243    74218    74193 
   74162    74134    74113    74093    74080    74083    74093    74102 
   74112    74121    74126    74130    74129    74123    74117    74112 
   74110    74112    74115    74122    74135    74153    74180    74203 
   74215    74221    74222    74215    74210    74213    74220    74234 
   74255    74278    74298    74314    74330    74346    74361    74374 
   74385    74398    74409    74414    74419    74432    74453    74474 
   74494    74516    74529    74533    74535    74535    74535    74527 
   74509    74489    74470    74453    74448    74462    74487    74520 
   74556    74585    74610    74637    74662    74675    74678    74667 
   74643    74614    74586    74559    74536    74513    74487    74455 
   74415    74372    74330    74292    74262    74246    74236    74223 
   74213    74207    74195    74179    74169    74170    74174    74170 
   74157    74142    74131    74126    74129    74138    74145    74153 
   74166    74181    74193    74206    74218    74224    74227    74227 
   74228    74235    74245    74252    74257    74262    74268    74283 
   74307    74333    74366    74408    74455    74506    74555    74596 
   74629    74649    74654    74648    74636    74622    74610    74607 
   74612    74620    74632    74642    74648    74653    74656    74653 
   74644    74633    74619    74607    74602    74603    74608    74611 
   74609    74601    74588    74579    74570    74555    74540    74532 
   74528    74530    74534    74533    74532    74533    74528    74520 
   74518    74516    74508    74491    74462    74424    74383    74348 
   74320    74306    74309    74317    74323    74329    74333    74338 
   74341    74342    74337    74327    74325    74333    74342    74351 
   74354    74340    74315    74286    74261    74246    74231    74209 
   74184    74163    74142    74123    74111    74106    74104    74104 
   74109    74116    74123    74135    74160    74194    74231    74271 
   74311    74345    74371    74391    74406    74425    74447    74462 
   74470    74474    74476    74478    74479    74476    74467    74459 
   74454    74444    74431    74421    74409    74396    74387    74384 
   74388    74393    74398    74404    74410    74409    74403    74399 
   74397    74394    74392    74392    74396    74406    74417    74427 
   74440    74455    74469    74484    74496    74499    74491    74475 
   74460    74447    74427    74405    74383    74354    74321    74292 
   74268    74245    74224    74210    74205    74210    74228    74254 
   74286    74320    74349    74376    74406    74434    74453    74463 
   74468    74475    74484    74496    74516    74538    74558    74576 
   74590    74596    74593    74583    74570    74549    74512    74466 
   74415    74368    74331    74302    74279    74267    74268    74279 
   74302    74338    74383    74426    74465    74501    74540    74587 
   74635    74676    74706    74717    74711    74697    74675    74650 
   74623    74587    74550    74515    74473    74427    74378    74326 
   74280    74245    74222    74208    74204    74212    74225    74241 
   74264    74286    74300    74306    74304    74290    74267    74245 
   74226    74205    74182    74163    74151    74151    74161    74169 
   74176    74185    74201    74219    74233    74243    74252    74256 
   74261    74274    74289    74306    74333    74369    74412    74461 
   74514    74567    74615    74652    74677    74694    74703    74705 
   74699    74677    74648    74620    74592    74566    74547    74539 
   74543    74555    74572    74594    74622    74642    74652    74654 
   74652    74647    74637    74618    74593    74561    74523    74483 
   74448    74424    74408    74393    74380    74366    74352    74339 
   74325    74311    74305    74308    74319    74341    74372    74396 
   74410    74423    74434    74442    74443    74440    74438    74434 
   74423    74407    74386    74366    74354    74345    74330    74311 
   74296    74279    74260    74247    74242    74251    74272    74292 
   74311    74334    74359    74387    74423    74466    74506    74540 
   74569    74589    74599    74603    74607    74617    74629    74632 
   74628    74624    74626    74637    74652    74666    74682    74704 
   74725    74743    74758    74765    74762    74749    74729    74706 
   74682    74658    74632    74605    74585    74570    74557    74545 
   74533    74517    74500    74480    74458    74438    74419    74401 
   74384    74366    74350    74337    74326    74319    74321    74331 
   74337    74336    74321    74294    74262    74223    74178    74137 
   74102    74079    74069    74065    74064    74066    74071    74077 
   74090    74111    74129    74140    74151    74168    74193    74223 
   74249    74268    74283    74299    74311    74320    74326    74325 
   74321    74315    74311    74308    74304    74303    74315    74343 
   74385    74424    74457    74492    74527    74558    74596    74635 
   74670    74700    74724    74738    74747    74753    74757    74762 
   74774    74793    74816    74840    74862    74884    74904    74912 
   74909    74894    74867    74831    74794    74760    74729    74706 
   74698    74706    74721    74734    74739    74743    74745    74744 
   74744    74745    74746    74744    74739    74730    74714    74694 
   74678    74662    74644    74620    74589    74550    74508    74471 
   74445    74428    74422    74433    74456    74482    74514    74548 
   74573    74591    74604    74611    74613    74608    74587    74556 
   74525    74493    74460    74426    74390    74353    74315    74280 
   74250    74224    74206    74196    74185    74165    74144    74130 
   74127    74135    74142    74142    74138    74126    74102    74077 
   74055    74031    74006    73984    73968    73965    73974    73992 
   74020    74057    74099    74144    74187    74228    74270    74308 
   74341    74373    74405    74433    74465    74503    74535    74568 
   74601    74628    74644    74646    74625    74584    74540    74495 
   74447    74410    74387    74360    74329    74294    74261    74242 
   74234    74234    74245    74262    74283    74315    74355    74390 
   74419    74444    74460    74471    74485    74502    74515    74519 
   74510    74489    74469    74458    74454    74452    74451    74450 
   74450    74448    74445    74439    74430    74419    74411    74404 
   74399    74398    74401    74402    74392    74374    74358    74346 
   74335    74318    74296    74272    74243    74220    74209    74206 
   74209    74220    74228    74235    74249    74266    74282    74293 
   74298    74297    74289    74277    74270    74267    74264    74258 
   74249    74236    74222    74210    74199    74193    74192    74188 
   74181    74170    74158    74155    74159    74165    74169    74165 
   74156    74152    74156    74161    74168    74173    74181    74203 
   74239    74287    74342    74394    74441    74486    74526    74556 
   74584    74606    74612    74607    74595    74576    74554    74530 
   74502    74469    74435    74412    74402    74400    74410    74431 
   74450    74456    74454    74452    74447    74439    74427    74415 
   74403    74388    74374    74373    74384    74400    74415    74432 
   74446    74458    74470    74479    74484    74483    74476    74469 
   74464    74466    74472    74474    74475    74482    74497    74510 
   74518    74523    74527    74531    74536    74540    74542    74544 
   74544    74545    74548    74554    74559    74557    74550    74543 
   74530    74509    74489    74466    74443    74427    74425    74434 
   74443    74451    74452    74442    74429    74421    74420    74427 
   74434    74442    74448    74445    74438    74430    74416    74401 
   74389    74378    74369    74358    74344    74325    74299    74273 
   74248    74225    74209    74196    74184    74178    74176    74178 
   74193    74218    74245    74282    74329    74369    74405    74443 
   74479    74509    74523    74521    74509    74488    74464    74442 
   74419    74399    74381    74357    74329    74301    74277    74261 
   74257    74264    74275    74284    74301    74324    74351    74384 
   74418    74446    74467    74475    74471    74460    74443    74425 
   74412    74406    74410    74419    74422    74414    74397    74371 
   74339    74304    74274    74252    74234    74222    74216    74225 
   74252    74285    74319    74355    74386    74411    74438    74467 
   74494    74515    74526    74525    74515    74493    74457    74416 
   74370    74328    74300    74287    74280    74270    74250    74221 
   74192    74171    74161    74161    74166    74161    74142    74115 
   74088    74062    74034    74008    73987    73970    73965    73977 
   74006    74047    74089    74128    74166    74196    74217    74231 
   74236    74237    74237    74236    74245    74260    74274    74292 
   74312    74332    74353    74371    74382    74386    74387    74384 
   74381    74386    74402    74425    74459    74504    74552    74597 
   74636    74671    74712    74762    74809    74855    74900    74933 
   74954    74969    74982    74993    75001    75002    74992    74976 
   74962    74946    74927    74905    74870    74817    74766    74724 
   74690    74673    74673    74679    74695    74710    74710    74706 
   74700    74686    74673    74662    74646    74633    74625    74613 
   74596    74576    74551    74525    74507    74496    74480    74462 
   74450    74442    74440    74447    74458    74468    74472    74464 
   74446    74421    74393    74368    74348    74334    74332    74339 
   74349    74361    74375    74389    74405    74419    74435    74453 
   74471    74491    74524    74562    74595    74621    74642    74654 
   74658    74661    74662    74665    74667    74661    74647    74631 
   74616    74600    74582    74571    74562    74548    74540    74543 
   74559    74578    74593    74607    74618    74629    74645    74667 
   74685    74698    74710    74724    74740    74751    74754    74748 
   74730    74705    74681    74658    74634    74611    74586    74551 
   74513    74478    74443    74414    74390    74361    74331    74298 
   74257    74216    74176    74140    74113    74094    74076    74063 
   74059    74056    74051    74046    74042    74037    74029    74025 
   74025    74032    74049    74072    74099    74130    74164    74197 
   74228    74254    74270    74285    74300    74308    74309    74311 
   74313    74310    74307    74306    74311    74326    74346    74364 
   74372    74369    74362    74360    74363    74372    74393    74426 
   74461    74491    74521    74542    74549    74553    74550    74538 
   74521    74495    74467    74442    74415    74384    74353    74321 
   74285    74249    74222    74196    74171    74151    74134    74120 
   74110    74101    74094    74092    74098    74110    74129    74154 
   74183    74213    74241    74266    74283    74291    74296    74298 
   74294    74284    74267    74254    74251    74254    74264    74277 
   74286    74288    74290    74300    74311    74327    74350    74377 
   74409    74449    74489    74527    74556    74575    74584    74583 
   74585    74594    74599    74603    74613    74626    74646    74681 
   74721    74759    74791    74809    74815    74820    74824    74829 
   74827    74815    74801    74779    74742    74698    74657    74619 
   74585    74559    74535    74509    74482    74463    74456    74461 
   74474    74490    74507    74520    74526    74529    74530    74519 
   74495    74466    74439    74421    74409    74401    74397    74399 
   74409    74430    74460    74491    74511    74522    74526    74526 
   74526    74527    74525    74521    74515    74504    74486    74465 
   74441    74417    74392    74374    74365    74356    74348    74344 
   74348    74361    74377    74392    74404    74409    74411    74410 
   74414    74428    74445    74462    74477    74481    74473    74463 
   74451    74438    74424    74403    74379    74358    74335    74310 
   74288    74265    74245    74232    74216    74197    74189    74184 
   74185    74203    74227    74247    74266    74289    74314    74338 
   74361    74380    74393    74401    74404    74400    74392    74378 
   74358    74336    74318    74305    74300    74306    74318    74326 
   74329    74328    74328    74333    74345    74364    74381    74391 
   74399    74409    74422    74431    74434    74432    74418    74391 
   74363    74332    74299    74272    74251    74235    74224    74218 
   74220    74221    74216    74209    74199    74181    74163    74155 
   74160    74173    74182    74183    74177    74167    74156    74143 
   74130    74118    74111    74105    74103    74103    74102    74100 
   74104    74116    74132    74146    74153    74155    74150    74144 
   74142    74144    74149    74162    74186    74222    74267    74313 
   74355    74387    74403    74406    74407    74407    74409    74413 
   74414    74408    74399    74391    74385    74379    74370    74361 
   74353    74343    74333    74326    74319    74312    74311    74317 
   74328    74344    74363    74381    74397    74412    74425    74439 
   74457    74474    74483    74481    74478    74481    74488    74494 
   74502    74513    74525    74530    74532    74537    74541    74539 
   74536    74530    74520    74510    74499    74489    74481    74471 
   74461    74460    74462    74460    74458    74456    74450    74449 
   74450    74450    74453    74464    74474    74481    74492    74498 
   74494    74490    74489    74493    74500    74511    74520    74530 
   74544    74559    74570    74580    74587    74584    74572    74555 
   74536    74518    74500    74474    74443    74411    74383    74365 
   74361    74366    74372    74378    74394    74420    74446    74476 
   74514    74548    74570    74585    74593    74599    74606    74611 
   74615    74615    74609    74599    74590    74590    74599    74614 
   74634    74652    74667    74688    74711    74731    74752    74764 
   74763    74757    74749    74739    74728    74714    74696    74676 
   74658    74646    74645    74650    74657    74670    74683    74682 
   74672    74667    74663    74655    74635    74600    74561    74526 
   74493    74458    74419    74377    74332    74292    74265    74257 
   74263    74269    74276    74289    74309    74335    74361    74386 
   74408    74430    74450    74461    74463    74457    74440    74425 
   74417    74409    74398    74387    74377    74366    74350    74331 
   74318    74312    74305    74300    74292    74276    74255    74234 
   74214    74197    74194    74205    74216    74225    74241    74264 
   74290    74317    74340    74353    74356    74357    74366    74379 
   74387    74394    74403    74413    74429    74453    74476    74492 
   74501    74510    74520    74534    74553    74569    74578    74581 
