Origin Time       2024/04/02 04:24:00
Lat.              40.133
Long.             141.712
Depth. (km)       71
Mag.              6.0
Station Code      NIGH10
Station Lat.      37.5438
Station Long.     139.3648
Station Height(m) 218
Record Time       2024/04/02 04:25:27
Sampling Freq(Hz) 100Hz
Duration Time(s)  120
Dir.              6
Scale Factor      3920(gal)/6170801
Max. Acc. (gal)   0.293
Last Correction   2024/04/02 04:25:12
Memo.             
[...]
  -29672   -29672   -29673   -29673   -29672   -29674   -29674   -29672 
  -29672   -29673   -29673   -29675   -29674   -29672   -29675   -29676 
  -29673   -29674   -29677   -29674   -29672   -29673   -29674   -29674 
  -29674   -29675   -29676   -29675   -29674   -29674   -29672   -29672 
  -29674   -29672   -29672   -29675   -29674   -29672   -29674   -29674 
  -29673   -29673   -29672   -29672   -29675   -29674   -29670   -29672 
  -29676   -29675   -29673   -29672   -29673   -29673   -29676   -29675 
  -29673   -29673   -29673   -29673   -29673   -29675   -29675   -29673 
  -29673   -29675   -29674   -29673   -29673   -29673   -29672   -29673 
  -29674   -29673   -29671   -29672   -29673   -29673   -29676   -29676 
  -29672   -29673   -29674   -29671   -29670   -29674   -29673   -29671 
  -29674   -29675   -29673   -29675   -29676   -29673   -29671   -29674 
  -29674   -29672   -29674   -29674   -29673   -29673   -29673   -29672 
  -29670   -29671   -29674   -29673   -29671   -29672   -29673   -29673 
  -29673   -29672   -29673   -29675   -29674   -29673   -29672   -29671 
  -29671   -29672   -29673   -29673   -29673   -29675   -29676   -29674 
  -29674   -29675   -29674   -29674   -29674   -29671   -29670   -29673 
  -29674   -29672   -29672   -29673   -29673   -29673   -29673   -29673 
  -29673   -29672   -29672   -29673   -29673   -29675   -29675   -29672 
  -29674   -29674   -29670   -29674   -29676   -29672   -29673   -29675 
  -29672   -29671   -29673   -29673   -29672   -29673   -29674   -29672 
  -29672   -29674   -29674   -29672   -29674   -29675   -29672   -29673 
  -29672   -29670   -29673   -29676   -29675   -29673   -29674   -29675 
  -29673   -29675   -29676   -29673   -29672   -29676   -29673   -29670 
  -29673   -29674   -29673   -29674   -29673   -29673   -29674   -29674 
  -29676   -29675   -29674   -29675   -29672   -29671   -29673   -29674 
  -29674   -29674   -29673   -29673   -29673   -29672   -29672   -29674 
  -29675   -29673   -29672   -29672   -29673   -29674   -29674   -29674 
  -29673   -29671   -29674   -29675   -29672   -29673   -29675   -29672 
  -29673   -29674   -29672   -29673   -29674   -29674   -29673   -29674 
  -29675   -29674   -29674   -29675   -29676   -29675   -29673   -29675 
  -29673   -29671   -29674   -29674   -29671   -29672   -29674   -29673 
  -29675   -29678   -29676   -29674   -29674   -29673   -29674   -29675 
  -29672   -29673   -29675   -29674   -29673   -29673   -29673   -29673 
  -29673   -29674   -29673   -29672   -29673   -29674   -29674   -29673 
  -29673   -29674   -29676   -29676   -29672   -29671   -29673   -29674 
  -29674   -29676   -29675   -29672   -29673   -29677   -29676   -29673 
  -29675   -29677   -29676   -29674   -29672   -29673   -29675   -29676 
  -29674   -29673   -29675   -29675   -29673   -29675   -29677   -29674 
  -29673   -29674   -29672   -29672   -29674   -29673   -29673   -29674 
  -29673   -29672   -29673   -29674   -29674   -29674   -29672   -29674 
  -29675   -29672   -29673   -29673   -29673   -29675   -29673   -29673 
  -29676   -29674   -29671   -29672   -29675   -29674   -29673   -29675 
  -29676   -29673   -29674   -29676   -29673   -29671   -29675   -29675 
  -29674   -29675   -29675   -29672   -29673   -29675   -29673   -29672 
  -29675   -29674   -29672   -29675   -29674   -29671   -29673   -29676 
  -29673   -29672   -29675   -29675   -29674   -29674   -29674   -29675 
  -29675   -29673   -29673   -29674   -29673   -29671   -29672   -29673 
  -29673   -29672   -29674   -29676   -29675   -29673   -29671   -29671 
  -29672   -29673   -29674   -29674   -29674   -29674   -29674   -29674 
  -29675   -29674   -29674   -29676   -29675   -29673   -29674   -29675 
  -29672   -29673   -29676   -29674   -29672   -29675   -29675   -29672 
  -29672   -29674   -29674   -29675   -29677   -29676   -29673   -29672 
  -29675   -29675   -29673   -29673   -29674   -29676   -29676   -29673 
  -29672   -29674   -29675   -29675   -29675   -29675   -29674   -29675 
  -29676   -29674   -29674   -29674   -29674   -29673   -29671   -29675 
  -29676   -29673   -29674   -29675   -29672   -29672   -29673   -29674 
  -29675   -29675   -29673   -29673   -29674   -29675   -29674   -29672 
  -29673   -29676   -29674   -29674   -29677   -29676   -29673   -29674 
  -29675   -29676   -29675   -29673   -29675   -29677   -29674   -29673 
  -29676   -29675   -29672   -29673   -29674   -29673   -29675   -29677 
  -29675   -29674   -29675   -29675   -29674   -29675   -29675   -29673 
  -29673   -29675   -29676   -29674   -29673   -29674   -29674   -29674 
  -29674   -29673   -29673   -29675   -29676   -29674   -29674   -29674 
  -29673   -29674   -29676   -29675   -29673   -29672   -29674   -29675 
  -29674   -29676   -29675   -29673   -29675   -29675   -29672   -29674 
  -29675   -29674   -29674   -29675   -29674   -29672   -29674   -29678 
  -29676   -29673   -29674   -29675   -29673   -29675   -29675   -29673 
  -29674   -29674   -29672   -29674   -29673   -29673   -29676   -29675 
  -29672   -29674   -29676   -29675   -29673   -29674   -29675   -29673 
  -29674   -29676   -29674   -29671   -29675   -29675   -29671   -29672 
  -29674   -29672   -29673   -29674   -29673   -29670   -29672   -29675 
  -29673   -29674   -29677   -29675   -29671   -29672   -29674   -29673 
  -29672   -29673   -29673   -29673   -29673   -29672   -29673   -29674 
  -29672   -29672   -29674   -29677   -29675   -29672   -29672   -29674 
  -29675   -29674   -29673   -29673   -29674   -29674   -29674   -29674 
  -29674   -29675   -29675   -29671   -29674   -29677   -29675   -29675 
  -29675   -29674   -29674   -29674   -29675   -29675   -29674   -29674 
  -29674   -29674   -29675   -29675   -29673   -29674   -29676   -29674 
  -29673   -29675   -29676   -29675   -29674   -29674   -29676   -29673 
  -29670   -29673   -29676   -29675   -29674   -29674   -29673   -29673 
  -29676   -29678   -29674   -29672   -29676   -29675   -29672   -29674 
  -29674   -29673   -29674   -29675   -29674   -29672   -29673   -29674 
  -29673   -29675   -29675   -29673   -29676   -29677   -29673   -29672 
  -29674   -29674   -29673   -29673   -29673   -29673   -29675   -29674 
  -29671   -29670   -29672   -29674   -29672   -29673   -29673   -29672 
  -29675   -29676   -29673   -29673   -29674   -29672   -29672   -29675 
  -29675   -29671   -29672   -29676   -29673   -29671   -29675   -29674 
  -29671   -29673   -29674   -29672   -29673   -29676   -29676   -29674 
  -29674   -29674   -29674   -29676   -29675   -29673   -29673   -29673 
  -29672   -29673   -29675   -29676   -29675   -29676   -29677   -29675 
  -29674   -29675   -29673   -29675   -29675   -29673   -29673   -29674 
  -29673   -29674   -29676   -29675   -29676   -29673   -29672   -29674 
  -29672   -29672   -29676   -29675   -29673   -29674   -29674   -29673 
  -29673   -29673   -29674   -29676   -29674   -29672   -29675   -29676 
  -29675   -29673   -29673   -29675   -29675   -29673   -29675   -29675 
  -29674   -29676   -29676   -29672   -29673   -29676   -29676   -29675 
  -29674   -29674   -29675   -29677   -29674   -29671   -29673   -29672 
  -29672   -29674   -29675   -29673   -29673   -29674   -29676   -29675 
  -29674   -29675   -29674   -29674   -29677   -29676   -29673   -29673 
  -29675   -29674   -29674   -29674   -29674   -29674   -29676   -29675 
  -29674   -29675   -29674   -29672   -29674   -29675   -29672   -29673 
  -29675   -29674   -29673   -29674   -29676   -29675   -29675   -29674 
  -29672   -29674   -29677   -29675   -29672   -29674   -29676   -29672 
  -29671   -29675   -29675   -29673   -29675   -29674   -29672   -29675 
  -29676   -29673   -29673   -29675   -29673   -29672   -29675   -29676 
  -29675   -29676   -29677   -29675   -29674   -29673   -29673   -29674 
  -29675   -29675   -29672   -29672   -29674   -29674   -29673   -29675 
  -29675   -29673   -29676   -29675   -29673   -29674   -29676   -29674 
  -29672   -29673   -29673   -29674   -29675   -29675   -29673   -29672 
  -29675   -29674   -29673   -29676   -29674   -29673   -29674   -29674 
  -29673   -29674   -29674   -29673   -29673   -29674   -29672   -29672 
  -29675   -29673   -29671   -29673   -29674   -29673   -29673   -29675 
  -29676   -29673   -29673   -29675   -29674   -29674   -29675   -29671 
  -29670   -29673   -29675   -29675   -29674   -29675   -29675   -29675 
  -29676   -29673   -29671   -29674   -29674   -29672   -29674   -29676 
  -29673   -29672   -29673   -29673   -29673   -29674   -29673   -29673 
  -29674   -29674   -29672   -29673   -29675   -29672   -29672   -29675 
  -29676   -29672   -29671   -29674   -29675   -29674   -29675   -29676 
  -29675   -29675   -29674   -29673   -29675   -29675   -29674   -29676 
  -29676   -29673   -29672   -29676   -29675   -29672   -29674   -29676 
  -29672   -29671   -29675   -29676   -29674   -29673   -29674   -29673 
  -29673   -29674   -29675   -29674   -29674   -29675   -29675   -29677 
  -29676   -29671   -29671   -29675   -29673   -29673   -29674   -29672 
  -29671   -29674   -29675   -29674   -29673   -29674   -29674   -29671 
  -29673   -29676   -29672   -29674   -29677   -29674   -29674   -29676 
  -29674   -29672   -29673   -29675   -29674   -29672   -29671   -29672 
  -29674   -29675   -29673   -29672   -29673   -29675   -29673   -29673 
  -29672   -29672   -29673   -29675   -29675   -29673   -29673   -29674 
  -29674   -29674   -29674   -29673   -29674   -29676   -29675   -29673 
  -29674   -29673   -29673   -29673   -29674   -29676   -29674   -29674 
  -29676   -29674   -29673   -29675   -29675   -29674   -29675   -29675 
  -29675   -29678   -29677   -29674   -29674   -29673   -29672   -29674 
  -29675   -29673   -29674   -29677   -29676   -29672   -29672   -29675 
  -29674   -29672   -29674   -29675   -29674   -29674   -29672   -29672 
  -29676   -29675   -29672   -29673   -29674   -29675   -29674   -29675 
  -29675   -29673   -29673   -29675   -29673   -29672   -29675   -29675 
  -29674   -29673   -29673   -29674   -29674   -29674   -29673   -29673 
  -29674   -29673   -29673   -29674   -29675   -29674   -29674   -29675 
  -29673   -29672   -29676   -29675   -29672   -29674   -29677   -29675 
  -29673   -29673   -29672   -29673   -29673   -29673   -29673   -29675 
  -29674   -29672   -29675   -29676   -29672   -29672   -29676   -29675 
  -29672   -29674   -29676   -29674   -29672   -29675   -29678   -29677 
  -29676   -29676   -29676   -29675   -29677   -29678   -29676   -29675 
  -29675   -29675   -29678   -29677   -29674   -29676   -29680   -29678 
  -29677   -29679   -29677   -29677   -29678   -29679   -29682   -29681 
  -29680   -29682   -29685   -29687   -29690   -29691   -29693   -29697 
  -29699   -29701   -29706   -29708   -29709   -29713   -29714   -29712 
  -29712   -29712   -29706   -29704   -29703   -29696   -29691   -29689 
  -29684   -29678   -29677   -29675   -29674   -29676   -29676   -29674 
  -29678   -29683   -29688   -29694   -29700   -29706   -29710   -29715 
  -29720   -29719   -29715   -29714   -29710   -29704   -29701   -29700 
  -29695   -29692   -29690   -29683   -29674   -29670   -29663   -29652 
  -29644   -29637   -29631   -29628   -29623   -29613   -29600   -29588 
  -29578   -29570   -29564   -29562   -29565   -29572   -29584   -29596 
  -29610   -29627   -29641   -29654   -29670   -29680   -29682   -29682 
  -29674   -29655   -29634   -29609   -29577   -29543   -29508   -29475 
  -29444   -29417   -29395   -29375   -29361   -29355   -29357   -29366 
  -29389   -29424   -29469   -29522   -29584   -29652   -29718   -29785 
  -29851   -29910   -29964   -30012   -30048   -30076   -30095   -30094 
  -30072   -30038   -29993   -29943   -29899   -29858   -29816   -29773 
  -29729   -29681   -29633   -29590   -29554   -29527   -29515   -29516 
  -29527   -29547   -29573   -29596   -29616   -29640   -29667   -29698 
  -29733   -29773   -29811   -29845   -29871   -29881   -29879   -29877 
  -29877   -29875   -29874   -29871   -29862   -29850   -29834   -29813 
  -29788   -29761   -29730   -29696   -29659   -29630   -29606   -29583 
  -29562   -29547   -29537   -29527   -29516   -29507   -29506   -29508 
  -29510   -29518   -29533   -29545   -29554   -29564   -29575   -29587 
  -29597   -29604   -29603   -29593   -29583   -29568   -29544   -29521 
  -29504   -29490   -29486   -29495   -29514   -29537   -29566   -29598 
  -29632   -29673   -29716   -29761   -29811   -29855   -29887   -29905 
  -29911   -29907   -29896   -29875   -29854   -29834   -29806   -29771 
  -29738   -29698   -29656   -29623   -29599   -29586   -29586   -29592 
  -29603   -29621   -29641   -29668   -29707   -29748   -29786   -29824 
  -29857   -29878   -29891   -29897   -29892   -29877   -29860   -29839 
  -29813   -29785   -29755   -29723   -29689   -29656   -29629   -29609 
  -29602   -29605   -29607   -29609   -29619   -29633   -29651   -29670 
  -29689   -29701   -29711   -29721   -29722   -29715   -29708   -29696 
  -29680   -29664   -29644   -29622   -29601   -29576   -29548   -29519 
  -29492   -29478   -29474   -29478   -29491   -29504   -29518   -29536 
  -29544   -29548   -29558   -29564   -29567   -29576   -29591   -29605 
  -29620   -29638   -29653   -29662   -29669   -29680   -29694   -29707 
  -29717   -29719   -29715   -29711   -29699   -29675   -29656   -29639 
  -29617   -29592   -29558   -29516   -29478   -29444   -29416   -29393 
  -29376   -29372   -29383   -29406   -29442   -29485   -29532   -29585 
  -29645   -29709   -29774   -29838   -29896   -29954   -30012   -30061 
  -30099   -30126   -30134   -30126   -30106   -30076   -30035   -29983 
  -29924   -29854   -29783   -29716   -29650   -29590   -29543   -29500 
  -29458   -29421   -29389   -29360   -29344   -29351   -29370   -29395 
  -29432   -29478   -29528   -29583   -29639   -29690   -29744   -29804 
  -29864   -29927   -29994   -30051   -30090   -30115   -30130   -30133 
  -30117   -30088   -30053   -30008   -29957   -29904   -29845   -29783 
  -29727   -29670   -29602   -29530   -29459   -29393   -29340   -29295 
  -29255   -29226   -29214   -29221   -29249   -29290   -29329   -29366 
  -29411   -29461   -29508   -29548   -29586   -29624   -29660   -29690 
  -29713   -29735   -29760   -29787   -29811   -29831   -29847   -29856 
  -29861   -29868   -29869   -29867   -29869   -29865   -29847   -29821 
  -29789   -29747   -29707   -29678   -29655   -29633   -29613   -29592 
  -29574   -29561   -29553   -29546   -29538   -29535   -29537   -29548 
  -29570   -29601   -29632   -29657   -29678   -29699   -29720   -29751 
  -29792   -29841   -29891   -29931   -29949   -29950   -29945   -29931 
  -29904   -29872   -29841   -29808   -29779   -29757   -29729   -29687 
  -29647   -29605   -29554   -29507   -29468   -29436   -29418   -29413 
  -29414   -29426   -29454   -29489   -29527   -29567   -29607   -29646 
  -29681   -29718   -29755   -29788   -29819   -29848   -29871   -29883 
  -29881   -29858   -29821   -29777   -29719   -29657   -29599   -29547 
  -29502   -29465   -29431   -29405   -29394   -29401   -29421   -29454 
  -29496   -29536   -29571   -29604   -29636   -29667   -29700   -29732 
  -29752   -29763   -29769   -29770   -29772   -29781   -29787   -29784 
  -29781   -29779   -29772   -29758   -29740   -29718   -29699   -29684 
  -29662   -29632   -29604   -29581   -29565   -29558   -29559   -29570 
  -29595   -29634   -29674   -29705   -29732   -29755   -29771   -29779 
  -29781   -29785   -29798   -29815   -29826   -29829   -29824   -29818 
  -29811   -29797   -29775   -29744   -29709   -29677   -29648   -29620 
  -29589   -29562   -29550   -29545   -29548   -29562   -29583   -29611 
  -29636   -29651   -29666   -29680   -29683   -29670   -29648   -29626 
  -29613   -29610   -29613   -29617   -29625   -29641   -29660   -29676 
  -29691   -29706   -29721   -29742   -29759   -29769   -29768   -29760 
  -29745   -29715   -29676   -29647   -29627   -29609   -29585   -29551 
  -29515   -29494   -29493   -29502   -29520   -29542   -29556   -29567 
  -29584   -29600   -29608   -29610   -29610   -29604   -29601   -29604 
  -29611   -29617   -29620   -29622   -29629   -29662   -29718   -29774 
  -29820   -29848   -29855   -29847   -29840   -29834   -29823   -29812 
  -29803   -29786   -29770   -29762   -29754   -29747   -29748   -29748 
  -29740   -29726   -29707   -29682   -29661   -29648   -29629   -29605 
  -29590   -29588   -29596   -29624   -29667   -29710   -29744   -29772 
  -29799   -29832   -29868   -29900   -29922   -29940   -29956   -29961 
  -29950   -29927   -29886   -29830   -29776   -29733   -29689   -29639 
  -29595   -29563   -29545   -29539   -29534   -29524   -29511   -29500 
  -29497   -29507   -29530   -29560   -29587   -29607   -29620   -29627 
  -29633   -29637   -29635   -29628   -29623   -29621   -29619   -29617 
  -29612   -29604   -29600   -29599   -29594   -29590   -29592   -29587 
  -29576   -29566   -29551   -29538   -29533   -29533   -29527   -29510 
  -29502   -29522   -29555   -29589   -29623   -29644   -29653   -29662 
  -29671   -29683   -29698   -29712   -29727   -29746   -29758   -29762 
  -29774   -29787   -29785   -29766   -29737   -29710   -29698   -29700 
  -29708   -29711   -29703   -29689   -29677   -29669   -29671   -29682 
  -29695   -29705   -29713   -29730   -29755   -29779   -29790   -29783 
  -29779   -29793   -29811   -29818   -29812   -29801   -29801   -29807 
  -29800   -29773   -29740   -29716   -29696   -29675   -29650   -29622 
  -29599   -29590   -29582   -29574   -29571   -29569   -29560   -29548 
  -29544   -29547   -29554   -29561   -29569   -29584   -29604   -29624 
  -29638   -29642   -29638   -29624   -29600   -29572   -29546   -29528 
  -29515   -29502   -29489   -29489   -29499   -29512   -29524   -29529 
  -29526   -29533   -29562   -29610   -29669   -29733   -29782   -29801 
  -29805   -29819   -29843   -29861   -29869   -29875   -29877   -29872 
  -29860   -29842   -29820   -29803   -29792   -29775   -29757   -29747 
  -29739   -29734   -29733   -29727   -29714   -29702   -29695   -29695 
  -29703   -29713   -29718   -29724   -29731   -29729   -29719   -29711 
  -29701   -29677   -29653   -29637   -29627   -29618   -29614   -29622 
  -29649   -29694   -29741   -29776   -29807   -29833   -29843   -29849 
  -29863   -29874   -29878   -29884   -29886   -29867   -29843   -29825 
  -29795   -29749   -29692   -29626   -29563   -29518   -29482   -29441 
  -29407   -29394   -29394   -29397   -29395   -29378   -29365   -29371 
  -29384   -29394   -29419   -29460   -29490   -29501   -29509   -29517 
  -29528   -29548   -29574   -29603   -29627   -29637   -29629   -29618 
  -29613   -29613   -29620   -29645   -29686   -29726   -29759   -29793 
  -29825   -29849   -29868   -29879   -29875   -29862   -29850   -29833 
  -29799   -29745   -29691   -29659   -29654   -29658   -29666   -29683 
  -29701   -29704   -29696   -29687   -29691   -29713   -29753   -29786 
  -29792   -29793   -29810   -29832   -29852   -29870   -29873   -29863 
  -29845   -29824   -29796   -29764   -29744   -29739   -29732   -29714 
  -29679   -29653   -29656   -29650   -29622   -29611   -29626   -29637 
  -29636   -29631   -29641   -29670   -29686   -29679   -29676   -29692 
  -29712   -29715   -29690   -29661   -29652   -29652   -29650   -29643 
  -29624   -29610   -29616   -29621   -29614   -29598   -29574   -29557 
  -29554   -29539   -29507   -29492   -29509   -29531   -29528   -29512 
