Origin Time       2024/04/02 04:24:00
Lat.              40.133
Long.             141.712
Depth. (km)       71
Mag.              6.0
Station Code      NIGH10
Station Lat.      37.5438
Station Long.     139.3648
Station Height(m) 118
Record Time       2024/04/02 04:25:27
Sampling Freq(Hz) 100Hz
Duration Time(s)  120
Dir.              1
Scale Factor      2940(gal)/6170270
Max. Acc. (gal)   0.201
Last Correction   2024/04/02 04:25:12
Memo.             
[...]
  -26672   -26646   -26641   -26651   -26661   -26666   -26670   -26672 
  -26665   -26647   -26624   -26609   -26597   -26572   -26535   -26496 
  -26466   -26449   -26449   -26452   -26450   -26449   -26460   -26471 
  -26468   -26451   -26429   -26423   -26434   -26439   -26431   -26420 
  -26414   -26416   -26419   -26416   -26409   -26409   -26425   -26452 
  -26473   -26481   -26484   -26490   -26501   -26508   -26499   -26487 
  -26491   -26508   -26524   -26532   -26526   -26512   -26514   -26537 
  -26569   -26593   -26603   -26600   -26595   -26594   -26599   -26614 
  -26641   -26665   -26674   -26679   -26685   -26691   -26699   -26708 
  -26712   -26704   -26693   -26683   -26669   -26651   -26636   -26628 
  -26633   -26654   -26679   -26696   -26705   -26705   -26705   -26712 
  -26721   -26720   -26708   -26698   -26701   -26703   -26690   -26667 
  -26641   -26620   -26603   -26576   -26534   -26499   -26497   -26527 
  -26562   -26584   -26592   -26598   -26610   -26618   -26612   -26601 
  -26591   -26587   -26588   -26585   -26572   -26565   -26576   -26590 
  -26587   -26576   -26576   -26579   -26570   -26554   -26535   -26518 
  -26510   -26511   -26515   -26523   -26530   -26528   -26518   -26510 
  -26512   -26526   -26547   -26560   -26559   -26553   -26557   -26575 
  -26593   -26601   -26602   -26595   -26586   -26582   -26586   -26594 
  -26607   -26626   -26649   -26671   -26678   -26679   -26688   -26705 
  -26724   -26733   -26730   -26729   -26741   -26751   -26742   -26716 
  -26686   -26665   -26665   -26667   -26651   -26618   -26583   -26558 
  -26548   -26538   -26519   -26502   -26490   -26476   -26461   -26444 
  -26424   -26401   -26373   -26352   -26350   -26365   -26387   -26402 
  -26398   -26380   -26363   -26353   -26349   -26344   -26329   -26311 
  -26307   -26319   -26337   -26351   -26367   -26392   -26421   -26443 
  -26456   -26461   -26468   -26490   -26533   -26588   -26642   -26691 
  -26734   -26766   -26783   -26784   -26775   -26772   -26787   -26808 
  -26818   -26816   -26809   -26810   -26820   -26826   -26817   -26792 
  -26762   -26743   -26736   -26725   -26700   -26663   -26625   -26608 
  -26607   -26604   -26592   -26579   -26570   -26566   -26562   -26552 
  -26539   -26536   -26546   -26555   -26552   -26544   -26547   -26566 
  -26587   -26590   -26574   -26560   -26566   -26579   -26581   -26574 
  -26573   -26583   -26600   -26606   -26595   -26585   -26597   -26625 
  -26642   -26637   -26625   -26622   -26639   -26665   -26677   -26672 
  -26667   -26677   -26696   -26708   -26702   -26691   -26691   -26695 
  -26691   -26676   -26657   -26652   -26671   -26695   -26701   -26687 
  -26678   -26681   -26678   -26658   -26626   -26600   -26593   -26590 
  -26565   -26514   -26460   -26428   -26414   -26405   -26388   -26356 
  -26327   -26327   -26342   -26348   -26342   -26335   -26334   -26345 
  -26360   -26359   -26339   -26325   -26333   -26357   -26373   -26368 
  -26355   -26355   -26365   -26364   -26337   -26301   -26286   -26305 
  -26339   -26368   -26386   -26402   -26424   -26451   -26470   -26479 
  -26485   -26497   -26514   -26532   -26558   -26584   -26599   -26601 
  -26590   -26574   -26566   -26565   -26560   -26549   -26545   -26556 
  -26578   -26600   -26621   -26638   -26651   -26661   -26667   -26668 
  -26670   -26681   -26687   -26677   -26669   -26676   -26690   -26702 
  -26711   -26719   -26733   -26750   -26753   -26736   -26706   -26681 
  -26681   -26694   -26700   -26699   -26694   -26692   -26698   -26702 
  -26698   -26697   -26697   -26692   -26684   -26665   -26639   -26622 
  -26617   -26610   -26594   -26569   -26545   -26536   -26530   -26508 
  -26474   -26445   -26433   -26434   -26436   -26439   -26450   -26475 
  -26499   -26502   -26492   -26495   -26522   -26556   -26568   -26553 
  -26532   -26535   -26568   -26603   -26609   -26591   -26576   -26579 
  -26602   -26630   -26646   -26651   -26655   -26663   -26677   -26695 
  -26709   -26711   -26703   -26700   -26707   -26714   -26711   -26698 
  -26670   -26639   -26621   -26615   -26604   -26582   -26557   -26540 
  -26528   -26523   -26524   -26522   -26525   -26540   -26552   -26547 
  -26524   -26498   -26482   -26476   -26467   -26453   -26439   -26433 
  -26431   -26431   -26425   -26416   -26414   -26413   -26412   -26415 
  -26421   -26428   -26433   -26434   -26434   -26440   -26449   -26454 
  -26458   -26473   -26497   -26513   -26525   -26536   -26547   -26573 
  -26620   -26662   -26679   -26686   -26701   -26730   -26767   -26790 
  -26781   -26748   -26721   -26725   -26750   -26765   -26759   -26738 
  -26719   -26720   -26730   -26726   -26708   -26686   -26672   -26669 
  -26667   -26655   -26639   -26625   -26615   -26611   -26613   -26612 
  -26597   -26570   -26541   -26515   -26502   -26511   -26530   -26542 
  -26540   -26526   -26507   -26489   -26475   -26462   -26450   -26440 
  -26435   -26433   -26423   -26398   -26364   -26329   -26307   -26302 
  -26305   -26310   -26313   -26305   -26290   -26285   -26289   -26297 
  -26317   -26349   -26384   -26411   -26419   -26409   -26400   -26407 
  -26418   -26425   -26441   -26466   -26486   -26492   -26483   -26468 
  -26459   -26457   -26463   -26478   -26499   -26523   -26545   -26556 
  -26555   -26550   -26543   -26541   -26551   -26581   -26617   -26643 
  -26658   -26666   -26676   -26697   -26718   -26722   -26717   -26726 
  -26754   -26778   -26777   -26756   -26743   -26753   -26783   -26815 
  -26826   -26816   -26801   -26792   -26792   -26791   -26791   -26806 
  -26840   -26875   -26893   -26893   -26889   -26895   -26912   -26919 
  -26915   -26914   -26925   -26934   -26926   -26905   -26888   -26882 
  -26881   -26867   -26836   -26803   -26785   -26772   -26740   -26688 
  -26650   -26646   -26656   -26655   -26632   -26588   -26544   -26517 
  -26503   -26489   -26478   -26471   -26472   -26483   -26495   -26495 
  -26483   -26465   -26449   -26446   -26464   -26489   -26506   -26511 
  -26505   -26498   -26503   -26515   -26520   -26516   -26502   -26483 
  -26470   -26469   -26474   -26490   -26525   -26570   -26598   -26599 
  -26584   -26568   -26566   -26576   -26584   -26588   -26592   -26587 
  -26564   -26534   -26516   -26516   -26533   -26539   -26511   -26470 
  -26450   -26449   -26440   -26402   -26356   -26336   -26356   -26392 
  -26409   -26402   -26398   -26402   -26402   -26392   -26380   -26385 
  -26416   -26448   -26456   -26434   -26399   -26379   -26376   -26375 
  -26369   -26365   -26368   -26387   -26415   -26435   -26446   -26461 
  -26486   -26508   -26517   -26513   -26511   -26523   -26541   -26548 
  -26546   -26555   -26583   -26624   -26657   -26659   -26631   -26597 
  -26579   -26578   -26588   -26598   -26607   -26618   -26620   -26605 
  -26585   -26572   -26569   -26570   -26565   -26551   -26540   -26547 
  -26569   -26595   -26614   -26627   -26640   -26644   -26636   -26630 
  -26624   -26611   -26600   -26588   -26574   -26559   -26546   -26541 
  -26536   -26533   -26547   -26570   -26585   -26586   -26583   -26591 
  -26612   -26638   -26657   -26664   -26670   -26686   -26699   -26693 
  -26668   -26648   -26658   -26695   -26724   -26722   -26696   -26667 
  -26655   -26664   -26668   -26650   -26627   -26616   -26620   -26632 
  -26629   -26605   -26583   -26579   -26585   -26590   -26581   -26562 
  -26551   -26554   -26563   -26577   -26596   -26615   -26627   -26622 
  -26599   -26574   -26564   -26566   -26566   -26557   -26539   -26518 
  -26498   -26483   -26480   -26492   -26517   -26542   -26556   -26566 
  -26582   -26597   -26592   -26574   -26561   -26560   -26565   -26560 
  -26543   -26534   -26538   -26545   -26541   -26527   -26518   -26524 
  -26534   -26535   -26529   -26536   -26568   -26615   -26646   -26641 
  -26615   -26603   -26617   -26642   -26650   -26627   -26597   -26590 
  -26603   -26621   -26639   -26650   -26654   -26654   -26644   -26616 
  -26578   -26553   -26543   -26532   -26521   -26517   -26521   -26533 
  -26539   -26516   -26477   -26453   -26457   -26482   -26510   -26526 
  -26528   -26525   -26522   -26515   -26497   -26483   -26491   -26517 
  -26535   -26538   -26534   -26531   -26536   -26546   -26538   -26516 
  -26515   -26546   -26586   -26600   -26575   -26536   -26522   -26538 
  -26560   -26576   -26586   -26596   -26607   -26606   -26590   -26585 
  -26604   -26633   -26653   -26663   -26661   -26655   -26657   -26661 
  -26667   -26684   -26712   -26732   -26729   -26710   -26694   -26694 
  -26703   -26713   -26722   -26738   -26765   -26792   -26803   -26792 
  -26773   -26765   -26765   -26758   -26737   -26711   -26701   -26707 
  -26705   -26690   -26667   -26656   -26667   -26678   -26656   -26601 
  -26546   -26520   -26528   -26540   -26532   -26510   -26496   -26502 
  -26517   -26510   -26479   -26448   -26434   -26438   -26455   -26463 
  -26451   -26436   -26425   -26412   -26404   -26403   -26402   -26396 
  -26392   -26397   -26401   -26394   -26384   -26379   -26385   -26401 
  -26428   -26459   -26478   -26478   -26467   -26457   -26453   -26458 
  -26467   -26465   -26456   -26460   -26483   -26502   -26504   -26500 
  -26506   -26524   -26533   -26513   -26471   -26440   -26447   -26477 
  -26499   -26503   -26504   -26519   -26537   -26537   -26522   -26512 
  -26516   -26526   -26525   -26505   -26484   -26485   -26504   -26517 
  -26514   -26511   -26525   -26555   -26582   -26589   -26575   -26555 
  -26547   -26547   -26546   -26551   -26579   -26623   -26653   -26655 
  -26644   -26641   -26652   -26669   -26678   -26670   -26662   -26677 
  -26709   -26739   -26760   -26777   -26794   -26813   -26819   -26801 
  -26774   -26758   -26751   -26746   -26741   -26736   -26732   -26735 
  -26745   -26748   -26731   -26697   -26663   -26641   -26626   -26614 
  -26601   -26582   -26568   -26561   -26554   -26550   -26556   -26561 
  -26564   -26566   -26570   -26569   -26556   -26532   -26503   -26484 
  -26487   -26500   -26507   -26507   -26508   -26518   -26534   -26543 
  -26540   -26531   -26527   -26542   -26572   -26597   -26614   -26625 
  -26628   -26630   -26637   -26649   -26666   -26680   -26677   -26659 
  -26636   -26619   -26615   -26619   -26620   -26621   -26625   -26622 
  -26611   -26602   -26593   -26579   -26573   -26570   -26563   -26553 
  -26540   -26529   -26525   -26530   -26541   -26550   -26545   -26535 
  -26531   -26532   -26527   -26506   -26475   -26461   -26473   -26496 
  -26511   -26496   -26460   -26437   -26441   -26461   -26483   -26501 
  -26521   -26554   -26598   -26628   -26625   -26611   -26610   -26621 
  -26625   -26612   -26589   -26571   -26565   -26566   -26562   -26556 
  -26558   -26560   -26555   -26549   -26546   -26539   -26528   -26516 
  -26507   -26511   -26537   -26573   -26595   -26595   -26585   -26579 
  -26578   -26564   -26527   -26482   -26450   -26443   -26451   -26455 
  -26446   -26434   -26442   -26477   -26517   -26530   -26517   -26498 
  -26490   -26506   -26534   -26541   -26523   -26499   -26486   -26489 
  -26506   -26533   -26563   -26587   -26589   -26568   -26540   -26524 
  -26529   -26558   -26594   -26616   -26629   -26642   -26649   -26648 
  -26646   -26647   -26654   -26664   -26678   -26692   -26700   -26704 
  -26698   -26681   -26670   -26677   -26692   -26697   -26678   -26637 
  -26596   -26575   -26579   -26593   -26599   -26585   -26564   -26558 
  -26559   -26547   -26526   -26510   -26503   -26499   -26494   -26485 
  -26476   -26475   -26480   -26467   -26432   -26398   -26387   -26396 
  -26410   -26414   -26412   -26410   -26407   -26396   -26380   -26363 
  -26349   -26344   -26346   -26349   -26345   -26338   -26342   -26369 
  -26414   -26458   -26478   -26468   -26455   -26461   -26488   -26520 
  -26544   -26568   -26618   -26688   -26738   -26738   -26708   -26692 
  -26710   -26749   -26780   -26786   -26782   -26793   -26814   -26816 
  -26794   -26778   -26784   -26810   -26841   -26853   -26845   -26848 
  -26875   -26899   -26892   -26866   -26856   -26864   -26869   -26867 
  -26857   -26845   -26847   -26856   -26848   -26817   -26784   -26764 
  -26749   -26721   -26687   -26671   -26675   -26679   -26660   -26616 
  -26576   -26566   -26572   -26566   -26540   -26511   -26497   -26490 
  -26475   -26442   -26400   -26374   -26373   -26376   -26366   -26352 
  -26341   -26335   -26338   -26343   -26349   -26361   -26378   -26396 
  -26403   -26395   -26387   -26392   -26405   -26419   -26436   -26452 
  -26469   -26476   -26461   -26430   -26418   -26445   -26492   -26525 
  -26528   -26523   -26539   -26576   -26604   -26605   -26588   -26577 
  -26579   -26578   -26564   -26539   -26517   -26515   -26536   -26557 
  -26558   -26548   -26544   -26546   -26550   -26559   -26562   -26548 
  -26523   -26495   -26471   -26463   -26472   -26487   -26495   -26495 
  -26494   -26493   -26488   -26473   -26455   -26453   -26470   -26490 
  -26505   -26516   -26527   -26544   -26564   -26569   -26552   -26527 
  -26513   -26511   -26511   -26510   -26509   -26511   -26514   -26505 
  -26490   -26486   -26496   -26502   -26490   -26474   -26479   -26511 
  -26549   -26579   -26593   -26599   -26615   -26646   -26675   -26687 
  -26681   -26667   -26661   -26669   -26685   -26699   -26708   -26709 
  -26706   -26708   -26721   -26745   -26783   -26824   -26853   -26873 
  -26885   -26894   -26908   -26923   -26935   -26945   -26953   -26964 
  -26984   -26994   -26972   -26941   -26930   -26940   -26951   -26943 
  -26908   -26862   -26835   -26832   -26827   -26802   -26764   -26728 
  -26712   -26712   -26701   -26674   -26651   -26646   -26653   -26657 
  -26642   -26611   -26587   -26579   -26564   -26523   -26473   -26443 
  -26427   -26402   -26366   -26338   -26337   -26359   -26370   -26350 
  -26310   -26289   -26307   -26349   -26377   -26372   -26356   -26361 
  -26387   -26399   -26369   -26318   -26280   -26273   -26292   -26313 
  -26323   -26333   -26357   -26389   -26411   -26417   -26418   -26434 
  -26471   -26511   -26532   -26538   -26555   -26593   -26623   -26620 
  -26596   -26578   -26582   -26604   -26621   -26615   -26600   -26601 
  -26615   -26621   -26621   -26620   -26623   -26631   -26631   -26615 
  -26600   -26596   -26593   -26589   -26582   -26578   -26583   -26591 
  -26586   -26567   -26549   -26545   -26547   -26536   -26505   -26470 
  -26460   -26476   -26483   -26463   -26437   -26434   -26452   -26468 
  -26458   -26427   -26402   -26405   -26426   -26440   -26439   -26437 
  -26453   -26479   -26492   -26487   -26472   -26459   -26456   -26455 
  -26445   -26429   -26424   -26435   -26446   -26450   -26457   -26466 
  -26468   -26464   -26458   -26456   -26468   -26493   -26509   -26509 
  -26510   -26523   -26538   -26552   -26564   -26576   -26594   -26613 
  -26616   -26593   -26559   -26536   -26539   -26557   -26570   -26576 
  -26584   -26596   -26609   -26613   -26607   -26605   -26615   -26631 
  -26644   -26646   -26640   -26638   -26643   -26653   -26664   -26677 
  -26683   -26676   -26660   -26643   -26630   -26621   -26608   -26596 
  -26587   -26575   -26564   -26562   -26568   -26580   -26590   -26590 
  -26583   -26571   -26566   -26578   -26589   -26592   -26590   -26579 
  -26569   -26568   -26573   -26576   -26572   -26577   -26598   -26620 
  -26629   -26627   -26627   -26641   -26667   -26688   -26684   -26661 
  -26642   -26643   -26650   -26649   -26654   -26682   -26720   -26744 
  -26746   -26732   -26716   -26724   -26751   -26768   -26767   -26760 
  -26759   -26767   -26773   -26760   -26730   -26696   -26672   -26661 
  -26658   -26649   -26635   -26632   -26647   -26663   -26670   -26666 
  -26657   -26652   -26652   -26646   -26635   -26628   -26627   -26623 
  -26612   -26587   -26557   -26547   -26562   -26584   -26599   -26600 
  -26587   -26579   -26584   -26599   -26614   -26627   -26641   -26655 
  -26656   -26645   -26625   -26607   -26601   -26604   -26601   -26586 
  -26563   -26550   -26549   -26542   -26526   -26509   -26492   -26489 
  -26499   -26504   -26492   -26470   -26457   -26462   -26468   -26466 
  -26457   -26439   -26415   -26396   -26380   -26362   -26360   -26379 
  -26401   -26408   -26406   -26397   -26384   -26379   -26385   -26391 
  -26396   -26405   -26421   -26445   -26463   -26461   -26453   -26445 
  -26439   -26450   -26476   -26490   -26489   -26485   -26488   -26501 
  -26527   -26559   -26585   -26603   -26616   -26623   -26619   -26614 
  -26621   -26640   -26655   -26662   -26667   -26668   -26664   -26662 
  -26663   -26667   -26676   -26687   -26696   -26702   -26706   -26700 
  -26679   -26654   -26635   -26634   -26649   -26661   -26656   -26637 
  -26614   -26594   -26582   -26576   -26570   -26568   -26572   -26576 
  -26576   -26568   -26551   -26535   -26534   -26543   -26552   -26554 
  -26546   -26529   -26504   -26479   -26465   -26455   -26444   -26439 
  -26452   -26476   -26499   -26513   -26521   -26532   -26552   -26584 
  -26622   -26652   -26668   -26676   -26682   -26689   -26695   -26698 
  -26697   -26699   -26708   -26717   -26717   -26716   -26718   -26713 
  -26700   -26689   -26689   -26709   -26748   -26782   -26789   -26782 
  -26791   -26809   -26805   -26770   -26723   -26688   -26685   -26703 
  -26705   -26676   -26638   -26613   -26596   -26576   -26555   -26541 
  -26534   -26524   -26497   -26457   -26429   -26426   -26436   -26443 
  -26441   -26433   -26424   -26417   -26408   -26387   -26364   -26360 
  -26368   -26367   -26349   -26324   -26305   -26305   -26311   -26300 
  -26276   -26256   -26244   -26238   -26235   -26227   -26218   -26225 
  -26251   -26288   -26316   -26329   -26335   -26342   -26353   -26360 
  -26356   -26347   -26349   -26362   -26375   -26381   -26381   -26383 
  -26395   -26409   -26417   -26423   -26442   -26475   -26503   -26514 
  -26515   -26515   -26531   -26561   -26593   -26624   -26664   -26706 
  -26737   -26751   -26754   -26745   -26726   -26707   -26697   -26696 
  -26710   -26741   -26773   -26784   -26776   -26763   -26758   -26759 
  -26765   -26770   -26757   -26734   -26729   -26741   -26751   -26764 
  -26770   -26757   -26739   -26729   -26725   -26717   -26692   -26658 
  -26640   -26643   -26648   -26647   -26642   -26634   -26637   -26646 
  -26639   -26613   -26594   -26599   -26622   -26645   -26659   -26669 
  -26672   -26668   -26659   -26646   -26637   -26639   -26637   -26618 
  -26593   -26585   -26599   -26612   -26603   -26574   -26551   -26552 
  -26573   -26587   -26578   -26563   -26569   -26604   -26635   -26634 
  -26615   -26602   -26604   -26612   -26621   -26622   -26615   -26614 
  -26618   -26614   -26607   -26614   -26630   -26640   -26636   -26620 
  -26604   -26601   -26609   -26619   -26631   -26644   -26655   -26655 
  -26645   -26643   -26661   -26688   -26704   -26695   -26671   -26659 
  -26660   -26657   -26647   -26646   -26667   -26693   -26693   -26668 
  -26637   -26616   -26612   -26609   -26584   -26550   -26525   -26515 
  -26509   -26495   -26473   -26453   -26440   -26442   -26459   -26474 
  -26477   -26477   -26470   -26441   -26402   -26382   -26379   -26383 
  -26392   -26393   -26377   -26359   -26345   -26335   -26335   -26342 
  -26346   -26343   -26338   -26336   -26338   -26340   -26339   -26344 
