Origin Time       2024/04/02 04:24:00
Lat.              40.133
Long.             141.712
Depth. (km)       71
Mag.              6.0
Station Code      NIGH02
Station Lat.      38.2799
Station Long.     139.5486
Station Height(m) -70.5
Record Time       2024/04/02 04:25:18
Sampling Freq(Hz) 100Hz
Duration Time(s)  204
Dir.              1
Scale Factor      2940(gal)/6170270
Max. Acc. (gal)   0.647
Last Correction   2024/04/02 04:25:03
Memo.             
[...]
   10765    10810    10832    10844    10858    10871    10877    10881 
   10895    10926    10969    11013    11044    11058    11064    11065 
   11060    11050    11045    11058    11094    11141    11183    11215 
   11239    11255    11274    11302    11328    11341    11335    11313 
   11287    11265    11254    11260    11282    11312    11344    11370 
   11388    11396    11399    11398    11392    11386    11392    11410 
   11435    11460    11479    11483    11474    11456    11433    11414 
   11400    11381    11361    11340    11314    11288    11280    11297 
   11338    11386    11424    11455    11483    11507    11524    11537 
   11548    11554    11553    11544    11525    11500    11469    11440 
   11427    11436    11463    11507    11567    11636    11710    11785 
   11852    11905    11944    11981    12020    12057    12082    12089 
   12081    12059    12025    11988    11952    11913    11867    11811 
   11750    11693    11629    11553    11476    11408    11345    11287 
   11237    11192    11146    11089    11018    10937    10851    10763 
   10674    10584    10491    10394    10291    10190    10102    10027 
    9965     9923     9901     9885     9868     9856     9852     9852 
    9852     9847     9837     9828     9830     9840     9844     9833 
    9813     9794     9778     9763     9746     9734     9737     9755 
    9788     9831     9878     9927     9981    10050    10127    10203 
   10274    10344    10416    10494    10573    10649    10726    10808 
   10888    10961    11030    11108    11198    11300    11407    11515 
   11623    11731    11831    11920    11996    12046    12065    12065 
   12052    12020    11974    11929    11894    11871    11856    11847 
   11845    11854    11868    11875    11869    11853    11836    11823 
   11807    11786    11769    11759    11746    11729    11713    11701 
   11691    11684    11677    11672    11666    11660    11657    11646 
   11614    11567    11515    11465    11421    11384    11358    11341 
   11315    11275    11225    11165    11102    11045    10998    10963 
   10946    10944    10948    10949    10944    10929    10910    10896 
   10886    10882    10876    10855    10819    10776    10728    10671 
   10620    10582    10555    10535    10524    10523    10528    10525 
   10507    10478    10444    10413    10395    10386    10372    10353 
   10337    10316    10290    10271    10265    10270    10291    10323 
   10352    10376    10398    10415    10429    10447    10478    10518 
   10564    10617    10675    10739    10817    10908    11005    11106 
   11205    11296    11382    11458    11521    11568    11599    11619 
   11637    11647    11647    11642    11637    11632    11626    11618 
   11607    11593    11582    11587    11604    11622    11632    11629 
   11607    11568    11521    11460    11386    11306    11233    11171 
   11124    11086    11047    11007    10966    10930    10910    10909 
   10915    10919    10918    10911    10904    10897    10884    10857 
   10811    10749    10683    10614    10547    10486    10421    10346 
   10264    10177    10084     9996     9914     9841     9786     9754 
    9747     9763     9793     9835     9887     9941     9989    10027 
   10053    10078    10109    10149    10192    10232    10264    10292 
   10316    10336    10354    10376    10410    10460    10518    10584 
   10656    10736    10820    10900    10973    11042    11115    11186 
   11244    11285    11310    11322    11329    11333    11338    11348 
   11358    11362    11367    11379    11394    11406    11418    11437 
   11461    11490    11528    11571    11613    11659    11706    11750 
   11778    11781    11767    11739    11700    11661    11622    11582 
   11545    11511    11482    11457    11438    11433    11449    11472 
   11483    11474    11450    11410    11357    11294    11222    11138 
   11037    10915    10782    10657    10549    10455    10379    10328 
   10295    10275    10271    10279    10290    10303    10325    10361 
   10404    10444    10478    10506    10529    10555    10590    10631 
   10672    10709    10743    10774    10804    10834    10873    10927 
   10981    11033    11098    11183    11281    11380    11465    11531 
   11574    11601    11623    11643    11662    11684    11710    11736 
   11753    11752    11743    11739    11748    11769    11803    11847 
   11898    11954    12005    12050    12090    12125    12153    12171 
   12179    12179    12174    12163    12140    12096    12037    11971 
   11906    11844    11781    11716    11653    11602    11559    11511 
   11456    11409    11383    11375    11378    11383    11381    11376 
   11365    11343    11307    11261    11212    11172    11152    11145 
   11143    11144    11150    11157    11153    11132    11098    11061 
   11035    11016    10994    10972    10954    10935    10913    10890 
   10867    10838    10803    10770    10733    10687    10631    10570 
   10508    10448    10390    10336    10293    10266    10252    10254 
   10266    10283    10307    10337    10375    10417    10453    10483 
   10514    10552    10599    10650    10693    10728    10761    10788 
   10805    10808    10792    10757    10714    10674    10642    10620 
   10603    10589    10580    10585    10601    10620    10646    10682 
   10721    10759    10795    10826    10854    10878    10896    10914 
   10940    10972    11005    11035    11057    11073    11084    11093 
   11104    11114    11121    11136    11164    11202    11244    11285 
   11316    11335    11343    11343    11338    11328    11312    11300 
   11296    11295    11297    11299    11287    11267    11251    11243 
   11237    11223    11192    11150    11108    11073    11054    11055 
   11068    11082    11093    11092    11087    11087    11090    11087 
   11070    11038    10997    10955    10916    10879    10847    10828 
   10824    10825    10820    10799    10763    10719    10670    10625 
   10586    10547    10508    10471    10435    10396    10358    10319 
   10282    10245    10215    10196    10184    10179    10176    10171 
   10166    10162    10156    10151    10155    10168    10182    10197 
   10210    10211    10199    10175    10144    10113    10088    10076 
   10088    10125    10173    10219    10262    10296    10320    10337 
   10352    10362    10364    10361    10358    10368    10398    10442 
   10491    10535    10571    10608    10646    10685    10736    10794 
   10850    10904    10961    11020    11078    11135    11186    11223 
   11238    11228    11198    11160    11127    11097    11073    11052 
   11030    11017    11020    11031    11044    11065    11089    11117 
   11152    11186    11219    11256    11301    11364    11442    11522 
   11600    11674    11741    11795    11829    11842    11836    11815 
   11786    11763    11749    11747    11757    11776    11794    11809 
   11828    11848    11862    11870    11869    11859    11848    11841 
   11840    11847    11866    11897    11937    11981    12020    12051 
   12074    12091    12102    12110    12110    12094    12067    12041 
   12021    12004    11984    11957    11928    11899    11861    11821 
   11788    11773    11776    11782    11773    11754    11735    11722 
   11714    11705    11688    11656    11603    11534    11449    11356 
   11264    11174    11086    10994    10900    10817    10748    10692 
   10652    10624    10599    10584    10576    10570    10571    10583 
   10607    10648    10702    10758    10811    10854    10887    10918 
   10945    10964    10974    10974    10965    10951    10936    10913 
   10887    10864    10837    10808    10783    10750    10699    10632 
   10554    10476    10413    10366    10329    10293    10246    10184 
   10112    10042     9981     9930     9887     9858     9842     9837 
    9843     9857     9875     9896     9919     9949     9982    10017 
   10057    10100    10143    10192    10242    10287    10328    10367 
   10407    10444    10478    10513    10551    10594    10644    10698 
   10752    10805    10856    10911    10969    11021    11060    11086 
   11100    11110    11118    11114    11102    11093    11096    11108 
   11126    11142    11150    11150    11145    11144    11154    11177 
   11206    11237    11269    11303    11338    11377    11423    11472 
   11516    11555    11586    11607    11619    11629    11647    11677 
   11711    11748    11786    11822    11851    11876    11903    11933 
   11964    11990    12009    12022    12032    12038    12033    12010 
   11973    11926    11872    11818    11766    11716    11672    11632 
   11593    11552    11505    11452    11404    11358    11316    11275 
   11224    11162    11096    11034    10985    10948    10916    10885 
   10850    10812    10782    10762    10748    10738    10732    10726 
   10718    10712    10713    10716    10713    10702    10682    10658 
   10632    10603    10579    10566    10558    10548    10537    10525 
   10514    10505    10501    10501    10508    10525    10545    10556 
   10561    10574    10603    10645    10692    10734    10761    10775 
   10789    10803    10819    10837    10852    10858    10854    10858 
   10884    10934    10992    11048    11097    11132    11156    11177 
   11197    11221    11250    11282    11314    11331    11327    11309 
   11293    11282    11272    11258    11234    11193    11138    11079 
   11023    10975    10939    10915    10897    10887    10891    10904 
   10931    10972    11016    11054    11078    11088    11094    11108 
   11135    11170    11209    11248    11280    11302    11314    11314 
   11308    11299    11288    11276    11262    11242    11215    11187 
   11158    11126    11094    11063    11028    10986    10932    10864 
   10782    10692    10598    10510    10435    10376    10338    10318 
   10304    10278    10246    10208    10160    10108    10066    10040 
   10032    10037    10060    10099    10149    10207    10270    10332 
   10397    10471    10558    10655    10754    10855    10961    11061 
   11154    11236    11301    11352    11398    11440    11472    11489 
   11494    11490    11480    11463    11438    11409    11377    11343 
   11312    11280    11248    11213    11176    11143    11122    11112 
   11114    11119    11120    11121    11123    11121    11110    11086 
   11049    11003    10954    10912    10883    10874    10887    10919 
   10959    10992    11009    11010    10998    10976    10947    10916 
   10888    10871    10863    10859    10854    10846    10835    10828 
   10826    10832    10845    10858    10871    10889    10910    10922 
   10922    10910    10895    10888    10897    10919    10948    10974 
   10993    11001    11007    11018    11029    11044    11071    11104 
   11135    11163    11185    11193    11184    11158    11122    11086 
   11057    11036    11022    11014    11012    11015    11018    11017 
   11010    11001    10998    11010    11031    11062    11105    11149 
   11186    11214    11228    11222    11201    11168    11132    11099 
   11063    11024    10989    10961    10942    10935    10937    10946 
   10958    10970    10984    10993    10991    10985    10976    10967 
   10966    10978    10998    11028    11073    11127    11181    11228 
   11263    11278    11276    11264    11254    11245    11242    11256 
   11287    11330    11378    11418    11442    11451    11447    11427 
   11392    11341    11289    11247    11216    11195    11187    11195 
   11203    11201    11195    11188    11178    11166    11150    11133 
   11116    11095    11075    11065    11062    11055    11040    11014 
   10973    10920    10861    10807    10763    10733    10718    10716 
   10725    10742    10766    10792    10818    10841    10852    10846 
   10831    10817    10805    10799    10806    10828    10862    10905 
   10952    10998    11041    11080    11111    11134    11148    11162 
   11186    11225    11272    11323    11370    11401    11412    11409 
   11396    11385    11381    11381    11382    11386    11385    11378 
   11369    11362    11361    11369    11384    11404    11418    11417 
   11403    11382    11358    11333    11310    11300    11304    11314 
   11330    11353    11381    11400    11397    11373    11336    11297 
   11265    11245    11230    11213    11195    11171    11136    11090 
   11035    10982    10940    10904    10866    10832    10800    10764 
   10725    10688    10657    10635    10623    10619    10619    10619 
   10618    10612    10592    10559    10520    10481    10452    10435 
   10422    10405    10387    10377    10375    10371    10354    10324 
   10287    10254    10228    10206    10184    10160    10133    10112 
   10097    10083    10074    10077    10088    10105    10125    10140 
   10153    10169    10189    10215    10247    10283    10319    10350 
   10376    10397    10417    10437    10450    10454    10456    10470 
   10497    10532    10571    10613    10656    10700    10747    10792 
   10829    10863    10899    10937    10983    11036    11095    11161 
   11225    11285    11347    11410    11469    11521    11567    11611 
   11656    11702    11753    11807    11856    11894    11920    11939 
   11960    11987    12021    12059    12096    12133    12166    12191 
   12204    12209    12214    12221    12232    12252    12283    12319 
   12350    12369    12371    12352    12316    12272    12233    12204 
   12183    12160    12131    12091    12046    12001    11954    11911 
   11868    11818    11760    11697    11628    11551    11476    11409 
   11348    11293    11247    11201    11145    11082    11020    10957 
   10895    10839    10784    10726    10668    10618    10580    10553 
   10531    10502    10466    10428    10386    10345    10311    10283 
   10253    10216    10174    10133    10097    10064    10038    10021 
   10009    10000     9997    10001    10009    10025    10047    10075 
   10110    10146    10177    10208    10235    10254    10267    10287 
   10320    10361    10405    10449    10488    10523    10563    10609 
   10658    10714    10779    10857    10944    11022    11079    11119 
   11148    11166    11182    11194    11192    11174    11150    11129 
   11109    11096    11090    11081    11070    11065    11062    11059 
   11058    11054    11045    11038    11036    11035    11032    11030 
   11032    11036    11042    11049    11056    11056    11045    11030 
   11020    11021    11029    11045    11065    11085    11109    11136 
   11155    11165    11173    11180    11180    11176    11169    11152 
   11128    11108    11094    11087    11088    11097    11112    11132 
   11157    11186    11218    11247    11264    11270    11272    11270 
   11264    11259    11266    11283    11303    11320    11330    11336 
   11344    11358    11379    11408    11440    11465    11476    11479 
   11481    11479    11475    11469    11457    11442    11428    11416 
   11405    11393    11372    11337    11297    11259    11223    11188 
   11151    11102    11045    10992    10950    10918    10888    10856 
   10830    10808    10788    10767    10741    10711    10686    10674 
   10675    10686    10697    10698    10694    10689    10685    10688 
   10703    10724    10748    10772    10793    10813    10831    10841 
   10848    10861    10878    10896    10913    10922    10921    10910 
   10884    10849    10814    10792    10786    10788    10795    10804 
   10807    10806    10801    10791    10779    10772    10773    10781 
   10791    10801    10805    10801    10800    10804    10809    10808 
   10798    10784    10776    10776    10782    10793    10797    10792 
   10788    10791    10800    10821    10844    10861    10870    10871 
   10867    10855    10831    10797    10762    10733    10711    10690 
   10664    10638    10613    10593    10579    10571    10567    10562 
   10546    10520    10496    10484    10484    10498    10520    10543 
   10563    10580    10602    10627    10652    10677    10702    10730 
   10754    10770    10778    10779    10773    10761    10752    10750 
   10749    10752    10765    10784    10804    10822    10832    10834 
   10839    10853    10876    10906    10948    11001    11059    11120 
   11183    11244    11302    11354    11395    11423    11440    11448 
   11442    11420    11388    11353    11325    11305    11297    11297 
   11303    11314    11329    11344    11366    11400    11445    11491 
   11533    11570    11604    11634    11655    11667    11674    11684 
   11698    11707    11713    11720    11725    11730    11736    11742 
   11743    11746    11754    11766    11776    11776    11765    11744 
   11717    11689    11663    11636    11608    11573    11520    11454 
   11393    11345    11312    11295    11292    11299    11315    11335 
   11354    11368    11374    11377    11375    11364    11346    11324 
   11298    11273    11256    11254    11257    11250    11231    11207 
   11183    11164    11148    11127    11105    11085    11065    11054 
   11058    11070    11088    11107    11122    11131    11138    11139 
   11136    11132    11125    11117    11117    11130    11149    11167 
   11190    11219    11247    11265    11274    11278    11276    11265 
   11244    11219    11189    11148    11095    11036    10980    10932 
   10894    10865    10846    10839    10845    10857    10870    10886 
   10906    10929    10956    10988    11024    11065    11105    11136 
   11156    11168    11171    11164    11150    11128    11097    11057 
   11007    10947    10882    10823    10776    10741    10716    10693 
   10663    10626    10589    10552    10506    10452    10393    10327 
   10261    10203    10157    10124    10105    10097    10095    10092 
   10085    10072    10055    10041    10033    10030    10029    10031 
   10034    10043    10059    10081    10104    10129    10157    10185 
   10211    10231    10242    10245    10246    10253    10271    10300 
   10345    10405    10468    10529    10589    10644    10686    10719 
   10748    10772    10795    10822    10849    10874    10896    10916 
   10936    10954    10970    10989    11012    11035    11058    11086 
   11114    11142    11169    11197    11225    11253    11280    11306 
   11329    11343    11348    11349    11344    11338    11338    11344 
   11347    11351    11360    11368    11369    11362    11343    11318 
   11295    11284    11283    11287    11288    11292    11301    11310 
   11325    11349    11374    11397    11418    11434    11448    11459 
   11469    11484    11500    11519    11540    11561    11577    11581 
   11562    11526    11481    11436    11397    11365    11338    11315 
   11298    11285    11266    11241    11217    11192    11164    11137 
   11112    11087    11062    11038    11011    10975    10937    10900 
   10866    10846    10840    10842    10850    10861    10869    10872 
   10865    10852    10835    10820    10810    10807    10807    10807 
   10804    10798    10791    10785    10791    10812    10842    10876 
   10908    10934    10955    10974    10995    11019    11046    11076 
   11113    11155    11192    11225    11259    11292    11323    11354 
