Origin Time       2024/04/02 04:24:00
Lat.              40.133
Long.             141.712
Depth. (km)       71
Mag.              6.0
Station Code      NIGH03
Station Lat.      38.1327
Station Long.     139.4289
Station Height(m) 6
Record Time       2024/04/02 04:25:22
Sampling Freq(Hz) 100Hz
Duration Time(s)  164
Dir.              6
Scale Factor      3920(gal)/6170801
Max. Acc. (gal)   0.465
Last Correction   2024/04/02 04:25:07
Memo.             
[...]
  -27541   -27558   -27579   -27597   -27600   -27602   -27616   -27620 
  -27620   -27641   -27668   -27686   -27700   -27713   -27722   -27733 
  -27746   -27753   -27763   -27781   -27785   -27776   -27769   -27765 
  -27770   -27779   -27783   -27792   -27808   -27823   -27838   -27861 
  -27889   -27917   -27930   -27928   -27934   -27962   -27988   -28001 
  -28021   -28041   -28055   -28066   -28066   -28057   -28059   -28061 
  -28047   -28026   -28009   -27989   -27965   -27941   -27913   -27888 
  -27874   -27847   -27795   -27743   -27708   -27685   -27662   -27633 
  -27606   -27599   -27610   -27617   -27621   -27631   -27640   -27649 
  -27649   -27629   -27617   -27621   -27607   -27586   -27588   -27602 
  -27607   -27602   -27587   -27571   -27561   -27543   -27517   -27492 
  -27469   -27449   -27442   -27445   -27448   -27460   -27484   -27501 
  -27511   -27523   -27521   -27504   -27489   -27478   -27463   -27453 
  -27444   -27430   -27423   -27416   -27395   -27382   -27382   -27380 
  -27384   -27390   -27393   -27402   -27411   -27402   -27379   -27357 
  -27338   -27324   -27314   -27296   -27274   -27265   -27257   -27242 
  -27237   -27236   -27222   -27209   -27206   -27209   -27227   -27250 
  -27260   -27272   -27297   -27309   -27310   -27316   -27319   -27332 
  -27358   -27367   -27353   -27348   -27347   -27323   -27292   -27279 
  -27275   -27279   -27285   -27283   -27280   -27291   -27303   -27307 
  -27312   -27327   -27352   -27372   -27361   -27334   -27333   -27349 
  -27358   -27366   -27368   -27364   -27361   -27354   -27333   -27308 
  -27290   -27279   -27283   -27294   -27296   -27294   -27297   -27309 
  -27326   -27342   -27366   -27403   -27442   -27473   -27497   -27523 
  -27549   -27572   -27596   -27622   -27645   -27662   -27676   -27687 
  -27693   -27696   -27695   -27689   -27689   -27697   -27715   -27749 
  -27780   -27794   -27798   -27798   -27801   -27802   -27799   -27797 
  -27793   -27782   -27772   -27759   -27742   -27739   -27750   -27755 
  -27752   -27752   -27761   -27765   -27753   -27741   -27741   -27746 
  -27746   -27745   -27749   -27753   -27767   -27787   -27799   -27812 
  -27836   -27859   -27872   -27880   -27885   -27884   -27877   -27860 
  -27841   -27834   -27830   -27809   -27785   -27771   -27757   -27740 
  -27718   -27682   -27654   -27635   -27606   -27576   -27552   -27527 
  -27511   -27513   -27513   -27502   -27495   -27484   -27450   -27412 
  -27393   -27381   -27381   -27399   -27411   -27404   -27405   -27415 
  -27418   -27418   -27421   -27422   -27422   -27433   -27448   -27446 
  -27433   -27426   -27418   -27410   -27413   -27429   -27448   -27463 
  -27473   -27477   -27476   -27470   -27459   -27440   -27417   -27405 
  -27410   -27427   -27448   -27458   -27465   -27486   -27499   -27491 
  -27487   -27488   -27488   -27489   -27483   -27466   -27470   -27500 
  -27519   -27524   -27537   -27546   -27543   -27535   -27537   -27553 
  -27572   -27575   -27567   -27565   -27575   -27586   -27591   -27597 
  -27613   -27629   -27635   -27630   -27621   -27617   -27613   -27604 
  -27600   -27596   -27595   -27611   -27626   -27630   -27634   -27642 
  -27654   -27677   -27697   -27696   -27686   -27686   -27681   -27670 
  -27660   -27645   -27627   -27617   -27603   -27584   -27565   -27546 
  -27529   -27520   -27510   -27491   -27479   -27478   -27475   -27470 
  -27466   -27467   -27478   -27481   -27474   -27475   -27488   -27511 
  -27538   -27559   -27577   -27589   -27593   -27594   -27588   -27588 
  -27604   -27613   -27618   -27641   -27671   -27698   -27724   -27742 
  -27748   -27740   -27725   -27712   -27700   -27702   -27718   -27721 
  -27709   -27694   -27676   -27658   -27645   -27629   -27610   -27606 
  -27611   -27605   -27586   -27566   -27563   -27568   -27560   -27544 
  -27526   -27503   -27487   -27472   -27452   -27429   -27402   -27390 
  -27374   -27341   -27313   -27294   -27281   -27276   -27263   -27253 
  -27248   -27239   -27230   -27216   -27203   -27196   -27191   -27202 
  -27227   -27249   -27271   -27293   -27316   -27343   -27364   -27373 
  -27368   -27356   -27359   -27372   -27383   -27398   -27417   -27432 
  -27446   -27465   -27482   -27495   -27520   -27550   -27560   -27553 
  -27546   -27539   -27535   -27526   -27507   -27496   -27501   -27505 
  -27505   -27513   -27542   -27589   -27634   -27669   -27697   -27728 
  -27759   -27783   -27798   -27804   -27816   -27842   -27865   -27868 
  -27866   -27877   -27883   -27865   -27840   -27821   -27810   -27810 
  -27812   -27806   -27793   -27773   -27745   -27714   -27678   -27643 
  -27625   -27621   -27618   -27621   -27631   -27636   -27625   -27615 
  -27616   -27623   -27629   -27641   -27660   -27679   -27693   -27706 
  -27712   -27707   -27702   -27713   -27733   -27734   -27720   -27706 
  -27697   -27697   -27699   -27689   -27675   -27672   -27674   -27666 
  -27648   -27626   -27609   -27598   -27582   -27563   -27550   -27541 
  -27539   -27542   -27538   -27524   -27504   -27482   -27462   -27447 
  -27429   -27403   -27380   -27367   -27355   -27337   -27317   -27294 
  -27275   -27264   -27253   -27242   -27222   -27193   -27175   -27175 
  -27177   -27174   -27169   -27167   -27164   -27168   -27183   -27198 
  -27205   -27207   -27212   -27222   -27238   -27259   -27278   -27288 
  -27309   -27345   -27376   -27393   -27407   -27424   -27446   -27474 
  -27502   -27528   -27563   -27599   -27620   -27624   -27628   -27637 
  -27645   -27658   -27675   -27679   -27663   -27647   -27638   -27622 
  -27604   -27587   -27564   -27543   -27531   -27516   -27499   -27495 
  -27499   -27504   -27510   -27516   -27522   -27529   -27538   -27546 
  -27556   -27579   -27602   -27605   -27598   -27593   -27580   -27551 
  -27528   -27527   -27534   -27538   -27548   -27561   -27574   -27588 
  -27594   -27586   -27585   -27600   -27617   -27619   -27614   -27616 
  -27621   -27626   -27628   -27626   -27627   -27634   -27646   -27657 
  -27663   -27670   -27683   -27699   -27711   -27719   -27726   -27739 
  -27762   -27784   -27803   -27829   -27861   -27886   -27897   -27905 
  -27908   -27902   -27893   -27882   -27861   -27835   -27821   -27811 
  -27786   -27757   -27737   -27723   -27714   -27713   -27718   -27717 
  -27701   -27686   -27685   -27691   -27698   -27696   -27687   -27686 
  -27690   -27686   -27672   -27655   -27639   -27632   -27633   -27624 
  -27597   -27567   -27544   -27526   -27508   -27486   -27464   -27443 
  -27428   -27420   -27408   -27386   -27376   -27395   -27424   -27445 
  -27453   -27447   -27431   -27414   -27395   -27374   -27355   -27343 
  -27338   -27337   -27335   -27332   -27325   -27311   -27296   -27277 
  -27257   -27238   -27221   -27209   -27200   -27198   -27205   -27205 
  -27201   -27204   -27204   -27207   -27223   -27242   -27254   -27266 
  -27286   -27312   -27343   -27378   -27414   -27446   -27479   -27509 
  -27536   -27560   -27575   -27596   -27624   -27643   -27649   -27652 
  -27652   -27649   -27640   -27623   -27602   -27583   -27569   -27556 
  -27539   -27525   -27514   -27506   -27498   -27489   -27485   -27487 
  -27493   -27499   -27500   -27505   -27527   -27563   -27594   -27613 
  -27634   -27656   -27663   -27668   -27686   -27706   -27724   -27747 
  -27769   -27781   -27790   -27807   -27822   -27820   -27822   -27830 
  -27823   -27809   -27793   -27762   -27726   -27699   -27675   -27644 
  -27611   -27584   -27556   -27526   -27503   -27483   -27458   -27438 
  -27427   -27427   -27431   -27438   -27448   -27455   -27460   -27471 
  -27479   -27477   -27479   -27490   -27501   -27500   -27492   -27485 
  -27475   -27464   -27457   -27443   -27431   -27429   -27419   -27394 
  -27372   -27366   -27368   -27371   -27375   -27377   -27375   -27381 
  -27401   -27423   -27430   -27426   -27425   -27431   -27439   -27444 
  -27443   -27439   -27439   -27453   -27463   -27465   -27473   -27482 
  -27488   -27490   -27482   -27466   -27452   -27447   -27454   -27470 
  -27490   -27507   -27519   -27540   -27570   -27601   -27634   -27668 
  -27693   -27706   -27712   -27718   -27727   -27735   -27744   -27752 
  -27749   -27741   -27740   -27745   -27742   -27733   -27728   -27721 
  -27708   -27697   -27685   -27672   -27674   -27694   -27715   -27723 
  -27721   -27718   -27722   -27731   -27736   -27733   -27735   -27745 
  -27749   -27747   -27755   -27765   -27770   -27776   -27781   -27786 
  -27785   -27771   -27758   -27758   -27759   -27755   -27745   -27736 
  -27729   -27718   -27706   -27695   -27685   -27682   -27676   -27662 
  -27645   -27622   -27592   -27564   -27538   -27514   -27492   -27466 
  -27450   -27458   -27473   -27477   -27487   -27506   -27521   -27535 
  -27545   -27543   -27548   -27562   -27569   -27570   -27569   -27570 
  -27577   -27576   -27559   -27539   -27523   -27515   -27513   -27509 
  -27505   -27503   -27503   -27500   -27492   -27478   -27465   -27450 
  -27435   -27424   -27412   -27399   -27388   -27382   -27372   -27359 
  -27346   -27329   -27322   -27331   -27333   -27322   -27314   -27313 
  -27314   -27309   -27298   -27297   -27302   -27307   -27320   -27327 
  -27323   -27327   -27332   -27324   -27306   -27289   -27277   -27267 
  -27262   -27261   -27256   -27251   -27255   -27261   -27262   -27262 
  -27273   -27291   -27305   -27314   -27320   -27317   -27312   -27316 
  -27322   -27322   -27326   -27340   -27349   -27346   -27339   -27332 
  -27322   -27313   -27305   -27293   -27285   -27289   -27298   -27300 
  -27300   -27302   -27306   -27310   -27314   -27322   -27324   -27323 
  -27332   -27343   -27347   -27355   -27364   -27364   -27365   -27379 
  -27398   -27415   -27430   -27450   -27471   -27479   -27484   -27505 
  -27535   -27557   -27580   -27603   -27612   -27617   -27620   -27621 
  -27632   -27655   -27678   -27688   -27692   -27699   -27708   -27713 
  -27720   -27732   -27741   -27744   -27743   -27742   -27743   -27754 
  -27775   -27797   -27813   -27828   -27842   -27845   -27843   -27849 
  -27856   -27868   -27888   -27907   -27923   -27944   -27963   -27974 
  -27979   -27973   -27970   -27976   -27981   -27978   -27969   -27948 
  -27927   -27921   -27915   -27900   -27888   -27885   -27878   -27867 
  -27860   -27858   -27857   -27862   -27867   -27856   -27837   -27828 
  -27825   -27817   -27808   -27802   -27794   -27783   -27768   -27744 
  -27712   -27699   -27714   -27728   -27725   -27717   -27719   -27719 
  -27712   -27700   -27686   -27674   -27670   -27670   -27666   -27661 
  -27659   -27653   -27640   -27633   -27631   -27627   -27625   -27631 
  -27640   -27651   -27657   -27660   -27668   -27688   -27718   -27749 
  -27770   -27775   -27772   -27772   -27777   -27780   -27780   -27780 
  -27780   -27789   -27801   -27806   -27806   -27801   -27794   -27796 
  -27796   -27795   -27802   -27811   -27812   -27810   -27808   -27801 
  -27793   -27786   -27770   -27744   -27722   -27700   -27666   -27627 
  -27591   -27558   -27528   -27502   -27469   -27424   -27378   -27339 
  -27303   -27268   -27242   -27221   -27193   -27160   -27132   -27111 
  -27087   -27062   -27040   -27015   -26990   -26971   -26947   -26918 
  -26899   -26889   -26875   -26864   -26861   -26860   -26860   -26862 
  -26860   -26870   -26894   -26911   -26918   -26924   -26925   -26917 
  -26910   -26909   -26907   -26914   -26934   -26954   -26969   -26987 
  -27012   -27035   -27058   -27088   -27114   -27133   -27157   -27175 
  -27182   -27190   -27199   -27207   -27220   -27236   -27260   -27289 
  -27307   -27320   -27336   -27343   -27347   -27348   -27343   -27340 
  -27348   -27360   -27366   -27368   -27374   -27386   -27404   -27425 
  -27445   -27460   -27470   -27478   -27486   -27496   -27505   -27521 
  -27544   -27563   -27582   -27606   -27621   -27631   -27652   -27673 
  -27688   -27711   -27741   -27768   -27790   -27811   -27837   -27861 
  -27879   -27903   -27918   -27917   -27909   -27897   -27885   -27869 
  -27850   -27839   -27833   -27832   -27836   -27835   -27836   -27839 
  -27837   -27829   -27814   -27810   -27823   -27827   -27826   -27836 
  -27845   -27853   -27873   -27894   -27910   -27927   -27951   -27973 
  -27983   -27989   -28004   -28026   -28044   -28051   -28056   -28064 
  -28069   -28071   -28069   -28056   -28039   -28028   -28015   -27988 
  -27958   -27943   -27928   -27896   -27858   -27829   -27814   -27805 
  -27801   -27802   -27803   -27807   -27817   -27822   -27823   -27827 
  -27834   -27840   -27834   -27819   -27807   -27795   -27788   -27796 
  -27812   -27823   -27829   -27833   -27838   -27843   -27849   -27858 
  -27872   -27884   -27886   -27875   -27857   -27834   -27810   -27786 
  -27761   -27737   -27714   -27689   -27663   -27637   -27611   -27586 
  -27568   -27554   -27539   -27530   -27527   -27532   -27537   -27532 
  -27518   -27502   -27486   -27467   -27453   -27446   -27434   -27420 
  -27408   -27384   -27351   -27323   -27304   -27299   -27293   -27273 
  -27253   -27235   -27216   -27201   -27195   -27195   -27199   -27198 
  -27184   -27170   -27160   -27154   -27149   -27136   -27122   -27110 
  -27096   -27081   -27062   -27041   -27030   -27027   -27022   -27013 
  -27006   -27006   -27007   -27001   -26992   -26980   -26960   -26944 
  -26939   -26937   -26942   -26953   -26958   -26957   -26951   -26943 
  -26937   -26928   -26912   -26896   -26881   -26860   -26835   -26819 
  -26814   -26815   -26822   -26828   -26833   -26839   -26849   -26855 
  -26863   -26888   -26932   -26977   -27014   -27050   -27084   -27114 
  -27150   -27198   -27245   -27291   -27336   -27377   -27407   -27427 
  -27447   -27474   -27501   -27526   -27553   -27574   -27587   -27602 
  -27618   -27621   -27618   -27629   -27651   -27667   -27678   -27690 
  -27701   -27708   -27711   -27708   -27705   -27709   -27714   -27715 
  -27714   -27712   -27712   -27716   -27720   -27725   -27734   -27745 
  -27754   -27759   -27763   -27768   -27774   -27788   -27808   -27826 
  -27845   -27863   -27880   -27900   -27918   -27934   -27949   -27972 
  -28003   -28029   -28053   -28076   -28088   -28094   -28101   -28110 
  -28118   -28128   -28144   -28159   -28171   -28187   -28205   -28214 
  -28216   -28214   -28216   -28226   -28231   -28229   -28228   -28229 
  -28233   -28240   -28237   -28221   -28206   -28201   -28193   -28184 
  -28183   -28180   -28171   -28157   -28141   -28124   -28110   -28093 
  -28066   -28034   -28008   -27990   -27969   -27941   -27912   -27884 
  -27849   -27811   -27781   -27757   -27729   -27697   -27667   -27637 
  -27606   -27576   -27544   -27510   -27480   -27455   -27428   -27406 
  -27395   -27380   -27358   -27338   -27314   -27286   -27263   -27247 
  -27231   -27211   -27189   -27174   -27163   -27148   -27131   -27118 
  -27105   -27084   -27054   -27028   -27011   -26993   -26975   -26959 
  -26944   -26928   -26914   -26900   -26882   -26869   -26871   -26872 
  -26860   -26853   -26861   -26871   -26877   -26884   -26893   -26908 
  -26933   -26962   -26987   -27017   -27061   -27110   -27154   -27195 
  -27234   -27268   -27297   -27334   -27379   -27410   -27424   -27444 
  -27470   -27486   -27506   -27538   -27571   -27596   -27614   -27636 
  -27666   -27697   -27726   -27752   -27777   -27803   -27837   -27865 
  -27875   -27882   -27897   -27909   -27915   -27921   -27925   -27927 
  -27934   -27938   -27935   -27933   -27935   -27937   -27939   -27935 
  -27928   -27923   -27919   -27906   -27888   -27880   -27880   -27879 
  -27881   -27887   -27889   -27891   -27886   -27872   -27858   -27850 
  -27841   -27825   -27807   -27796   -27785   -27772   -27757   -27741 
  -27727   -27713   -27699   -27687   -27673   -27661   -27651   -27634 
  -27607   -27581   -27558   -27531   -27503   -27478   -27450   -27423 
  -27403   -27383   -27364   -27343   -27316   -27291   -27270   -27251 
  -27234   -27217   -27200   -27194   -27197   -27204   -27214   -27234 
  -27261   -27289   -27318   -27349   -27377   -27401   -27428   -27453 
  -27467   -27476   -27485   -27497   -27511   -27523   -27530   -27534 
  -27536   -27545   -27557   -27564   -27565   -27568   -27570   -27573 
  -27573   -27574   -27580   -27589   -27608   -27632   -27648   -27663 
  -27683   -27697   -27704   -27710   -27719   -27726   -27724   -27725 
  -27731   -27730   -27724   -27718   -27710   -27701   -27689   -27676 
  -27661   -27640   -27616   -27593   -27568   -27549   -27537   -27525 
  -27512   -27499   -27486   -27473   -27463   -27457   -27454   -27450 
  -27455   -27472   -27486   -27488   -27489   -27498   -27506   -27506 
  -27507   -27516   -27527   -27532   -27537   -27537   -27529   -27521 
  -27520   -27524   -27524   -27524   -27534   -27537   -27527   -27519 
  -27520   -27519   -27516   -27522   -27536   -27553   -27568   -27579 
  -27582   -27575   -27572   -27583   -27598   -27604   -27611   -27622 
  -27623   -27614   -27612   -27607   -27593   -27587   -27590   -27583 
  -27567   -27564   -27566   -27551   -27534   -27532   -27539   -27541 
  -27539   -27536   -27522   -27500   -27490   -27482   -27461   -27437 
  -27425   -27418   -27408   -27400   -27395   -27385   -27371   -27359 
  -27351   -27339   -27317   -27301   -27290   -27274   -27260   -27252 
  -27243   -27226   -27211   -27207   -27197   -27182   -27175   -27165 
  -27141   -27128   -27132   -27133   -27119   -27110   -27120   -27129 
  -27122   -27107   -27101   -27103   -27114   -27129   -27135   -27136 
  -27150   -27177   -27199   -27206   -27215   -27241   -27278   -27316 
  -27353   -27388   -27419   -27442   -27460   -27476   -27492   -27513 
  -27537   -27554   -27565   -27580   -27600   -27618   -27637   -27655 
  -27664   -27670   -27677   -27689   -27704   -27711   -27715   -27719 
  -27710   -27700   -27696   -27686   -27679   -27675   -27666   -27658 
  -27648   -27630   -27615   -27601   -27582   -27571   -27577   -27588 
  -27594   -27596   -27599   -27601   -27603   -27603   -27589   -27575 
  -27576   -27576   -27573   -27577   -27583   -27591   -27600   -27592 
  -27580   -27589   -27612   -27636   -27652   -27656   -27669   -27703 
  -27732   -27745   -27759   -27781   -27807   -27821   -27824   -27827 
  -27826   -27838   -27854   -27848   -27840   -27854   -27873   -27885 
  -27886   -27885   -27889   -27895   -27897   -27899   -27904   -27915 
  -27928   -27941   -27949   -27943   -27938   -27934   -27919   -27900 
  -27889   -27878   -27857   -27831   -27809   -27791   -27777   -27766 
  -27753   -27734   -27711   -27705   -27707   -27700   -27693   -27705 
  -27730   -27743   -27741   -27741   -27743   -27731   -27724   -27731 
  -27732   -27729   -27737   -27744   -27741   -27733   -27736   -27751 
  -27763   -27776   -27800   -27817   -27823   -27837   -27851   -27856 
  -27857   -27860   -27875   -27895   -27894   -27880   -27866   -27846 
  -27830   -27820   -27806   -27788   -27774   -27769   -27768   -27761 
  -27746   -27735   -27726   -27710   -27695   -27676   -27634   -27593 
  -27579   -27567   -27539   -27507   -27477   -27441   -27404   -27378 
  -27358   -27335   -27312   -27291   -27278   -27265   -27240   -27226 
  -27221   -27204   -27187   -27185   -27182   -27168   -27151   -27139 
  -27128   -27114   -27102   -27094   -27089   -27081   -27070   -27063 
