Origin Time       2024/04/02 04:24:00
Lat.              40.133
Long.             141.712
Depth. (km)       71
Mag.              6.0
Station Code      NIGH02
Station Lat.      38.2799
Station Long.     139.5486
Station Height(m) 34
Record Time       2024/04/02 04:25:18
Sampling Freq(Hz) 100Hz
Duration Time(s)  204
Dir.              6
Scale Factor      3920(gal)/6170801
Max. Acc. (gal)   0.788
Last Correction   2024/04/02 04:25:03
Memo.             
[...]
  -24390   -24436   -24447   -24462   -24496   -24522   -24539   -24556 
  -24580   -24613   -24636   -24648   -24659   -24664   -24684   -24732 
  -24753   -24734   -24726   -24748   -24790   -24848   -24910   -24963 
  -24976   -24953   -24921   -24867   -24805   -24767   -24721   -24647 
  -24587   -24548   -24474   -24364   -24275   -24222   -24175   -24127 
  -24089   -24060   -24023   -23972   -23920   -23885   -23846   -23778 
  -23731   -23748   -23778   -23781   -23777   -23764   -23739   -23745 
  -23786   -23806   -23798   -23802   -23830   -23866   -23892   -23894 
  -23886   -23884   -23874   -23857   -23853   -23849   -23832   -23804 
  -23763   -23705   -23646   -23597   -23556   -23525   -23506   -23490 
  -23487   -23504   -23509   -23492   -23476   -23472   -23503   -23594 
  -23711   -23801   -23851   -23882   -23912   -23932   -23944   -23963 
  -23978   -23956   -23890   -23824   -23779   -23738   -23721   -23741 
  -23757   -23769   -23810   -23858   -23884   -23910   -23935   -23931 
  -23919   -23934   -23978   -24024   -24072   -24124   -24169   -24223 
  -24303   -24389   -24467   -24523   -24538   -24519   -24500   -24473 
  -24423   -24379   -24359   -24351   -24366   -24406   -24441   -24448 
  -24430   -24401   -24373   -24323   -24248   -24187   -24165   -24164 
  -24172   -24197   -24231   -24250   -24254   -24266   -24280   -24291 
  -24326   -24383   -24428   -24444   -24453   -24468   -24471   -24467 
  -24495   -24554   -24586   -24582   -24567   -24528   -24479   -24474 
  -24492   -24493   -24514   -24574   -24617   -24623   -24633   -24653 
  -24675   -24706   -24736   -24733   -24702   -24687   -24703   -24726 
  -24737   -24738   -24724   -24673   -24593   -24512   -24428   -24331 
  -24239   -24153   -24054   -23954   -23878   -23818   -23755   -23701 
  -23662   -23621   -23574   -23522   -23458   -23397   -23364   -23341 
  -23328   -23352   -23396   -23423   -23437   -23463   -23498   -23515 
  -23528   -23559   -23593   -23620   -23658   -23688   -23689   -23681 
  -23660   -23612   -23589   -23623   -23689   -23753   -23797   -23843 
  -23886   -23885   -23843   -23800   -23789   -23804   -23822   -23849 
  -23897   -23935   -23937   -23927   -23918   -23915   -23933   -23970 
  -24009   -24040   -24055   -24045   -24003   -23960   -23946   -23934 
  -23911   -23916   -23951   -23982   -23994   -23972   -23925   -23901 
  -23911   -23937   -23967   -23990   -23989   -23963   -23935   -23921 
  -23906   -23893   -23912   -23948   -23975   -24024   -24104   -24157 
  -24174   -24196   -24209   -24208   -24241   -24306   -24367   -24413 
  -24438   -24437   -24436   -24460   -24479   -24469   -24440   -24397 
  -24339   -24302   -24312   -24316   -24271   -24204   -24119   -24006 
  -23911   -23862   -23845   -23866   -23925   -23980   -24012   -24039 
  -24068   -24102   -24146   -24206   -24281   -24355   -24394   -24380 
  -24331   -24263   -24180   -24114   -24086   -24076   -24065   -24060 
  -24057   -24045   -24035   -24038   -24033   -24027   -24045   -24080 
  -24108   -24120   -24121   -24126   -24144   -24174   -24227   -24303 
  -24370   -24403   -24417   -24417   -24372   -24294   -24247   -24228 
  -24189   -24156   -24156   -24142   -24109   -24090   -24050   -23971 
  -23917   -23924   -23959   -23989   -24008   -24011   -24013   -24046 
  -24096   -24125   -24130   -24116   -24089   -24060   -24034   -23999 
  -23966   -23956   -23949   -23949   -23987   -24025   -24027   -24040 
  -24077   -24089   -24085   -24110   -24151   -24185   -24236   -24299 
  -24326   -24328   -24363   -24413   -24446   -24501   -24570   -24599 
  -24596   -24588   -24562   -24534   -24543   -24570   -24549   -24483 
  -24410   -24327   -24221   -24107   -24001   -23924   -23890   -23883 
  -23885   -23896   -23915   -23942   -23972   -23996   -24017   -24047 
  -24075   -24076   -24063   -24051   -24015   -23952   -23908   -23894 
  -23883   -23871   -23846   -23786   -23730   -23720   -23729   -23739 
  -23754   -23771   -23785   -23787   -23775   -23770   -23779   -23785 
  -23783   -23795   -23812   -23794   -23759   -23759   -23780   -23777 
  -23757   -23744   -23733   -23737   -23778   -23829   -23851   -23849 
  -23854   -23875   -23916   -23981   -24040   -24053   -24031   -24001 
  -23974   -23951   -23944   -23971   -24005   -24008   -23995   -23992 
  -23998   -24006   -24036   -24097   -24171   -24264   -24372   -24447 
  -24466   -24456   -24441   -24420   -24384   -24325   -24249   -24181 
  -24127   -24081   -24053   -24045   -24045   -24017   -23952   -23896 
  -23869   -23846   -23850   -23920   -23994   -24015   -24038   -24080 
  -24079   -24054   -24066   -24085   -24083   -24109   -24164   -24188 
  -24195   -24225   -24246   -24228   -24222   -24256   -24285   -24290 
  -24300   -24311   -24301   -24277   -24242   -24181   -24095   -24016 
  -23961   -23921   -23885   -23864   -23872   -23877   -23849   -23816 
  -23808   -23830   -23877   -23943   -24005   -24027   -23999   -23955 
  -23937   -23951   -23979   -24016   -24050   -24063   -24048   -24011 
  -23968   -23940   -23949   -24008   -24088   -24158   -24240   -24334 
  -24390   -24410   -24433   -24448   -24452   -24485   -24557   -24618 
  -24629   -24604   -24563   -24515   -24470   -24441   -24436   -24456 
  -24493   -24522   -24524   -24504   -24463   -24419   -24409   -24442 
  -24496   -24573   -24652   -24666   -24608   -24542   -24500   -24485 
  -24496   -24504   -24484   -24439   -24383   -24311   -24231   -24169 
  -24146   -24149   -24155   -24172   -24185   -24165   -24122   -24065 
  -23996   -23934   -23906   -23903   -23885   -23834   -23777   -23719 
  -23654   -23610   -23605   -23616   -23640   -23683   -23707   -23690 
  -23661   -23646   -23634   -23618   -23633   -23685   -23731   -23770 
  -23810   -23808   -23772   -23761   -23782   -23824   -23902   -24006 
  -24104   -24169   -24192   -24183   -24159   -24132   -24114   -24120 
  -24144   -24153   -24141   -24145   -24181   -24221   -24255   -24306 
  -24373   -24436   -24479   -24477   -24431   -24370   -24302   -24221 
  -24147   -24112   -24113   -24120   -24115   -24082   -24019   -23962 
  -23941   -23952   -23973   -23992   -23996   -23984   -23971   -23960 
  -23941   -23922   -23934   -23992   -24053   -24079   -24091   -24108 
  -24142   -24207   -24282   -24346   -24397   -24423   -24424   -24395 
  -24326   -24257   -24217   -24166   -24086   -24029   -24008   -23959 
  -23860   -23751   -23647   -23543   -23464   -23435   -23449   -23492 
  -23542   -23591   -23653   -23690   -23665   -23631   -23640   -23665 
  -23662   -23626   -23575   -23534   -23519   -23518   -23515   -23521 
  -23559   -23604   -23622   -23627   -23634   -23625   -23609   -23619 
  -23650   -23685   -23747   -23847   -23932   -23950   -23921   -23875 
  -23823   -23786   -23771   -23768   -23786   -23834   -23889   -23909 
  -23895   -23884   -23876   -23854   -23835   -23842   -23861   -23881 
  -23918   -23958   -23983   -24020   -24067   -24117   -24194   -24293 
  -24373   -24414   -24446   -24492   -24514   -24500   -24488   -24471 
  -24426   -24375   -24318   -24246   -24192   -24155   -24117   -24107 
  -24129   -24151   -24169   -24189   -24212   -24251   -24296   -24328 
  -24363   -24417   -24470   -24506   -24539   -24562   -24557   -24544 
  -24541   -24536   -24518   -24486   -24430   -24353   -24285   -24249 
  -24251   -24281   -24296   -24279   -24254   -24241   -24241   -24249 
  -24249   -24245   -24268   -24318   -24365   -24409   -24482   -24587 
  -24679   -24727   -24734   -24715   -24705   -24739   -24785   -24800 
  -24799   -24808   -24791   -24710   -24613   -24565   -24552   -24541 
  -24544   -24550   -24518   -24455   -24402   -24380   -24403   -24474 
  -24561   -24633   -24690   -24735   -24782   -24833   -24846   -24815 
  -24774   -24709   -24592   -24470   -24404   -24374   -24320   -24243 
  -24161   -24063   -23962   -23887   -23838   -23801   -23790   -23807 
  -23805   -23756   -23686   -23621   -23579   -23574   -23590   -23593 
  -23583   -23570   -23529   -23471   -23435   -23411   -23389   -23387 
  -23402   -23408   -23399   -23394   -23385   -23359   -23330   -23326 
  -23356   -23405   -23464   -23543   -23630   -23693   -23717   -23732 
  -23769   -23823   -23867   -23902   -23943   -23975   -23977   -23947 
  -23899   -23855   -23825   -23803   -23790   -23797   -23833   -23861 
  -23822   -23729   -23660   -23645   -23645   -23652   -23696   -23735 
  -23718   -23677   -23643   -23611   -23593   -23610   -23655   -23707 
  -23753   -23786   -23816   -23856   -23909   -23981   -24072   -24154 
  -24229   -24340   -24438   -24450   -24441   -24460   -24447   -24405 
  -24402   -24435   -24446   -24442   -24469   -24489   -24440   -24370 
  -24340   -24313   -24274   -24277   -24309   -24307   -24277   -24260 
  -24264   -24261   -24254   -24279   -24351   -24428   -24453   -24424 
  -24376   -24318   -24248   -24181   -24163   -24213   -24292   -24357 
  -24400   -24431   -24453   -24457   -24440   -24410   -24379   -24349 
  -24298   -24210   -24106   -24032   -23978   -23897   -23806   -23752 
  -23722   -23686   -23644   -23606   -23573   -23551   -23534   -23507 
  -23489   -23515   -23578   -23645   -23706   -23754   -23781   -23790 
  -23784   -23776   -23785   -23806   -23826   -23831   -23820   -23802 
  -23783   -23775   -23792   -23823   -23849   -23859   -23842   -23808 
  -23791   -23795   -23780   -23745   -23746   -23793   -23832   -23848 
  -23868   -23877   -23850   -23832   -23863   -23918   -23956   -23961 
  -23945   -23926   -23902   -23902   -23942   -23986   -24032   -24092 
  -24132   -24139   -24163   -24216   -24258   -24281   -24306   -24336 
  -24381   -24447   -24521   -24577   -24625   -24701   -24789   -24847 
  -24879   -24913   -24951   -24978   -24999   -25033   -25089   -25141 
  -25156   -25140   -25121   -25125   -25151   -25174   -25168   -25129 
  -25079   -25042   -24988   -24925   -24906   -24898   -24862   -24832 
  -24819   -24809   -24811   -24817   -24803   -24773   -24758   -24742 
  -24683   -24607   -24582   -24609   -24648   -24690   -24714   -24718 
  -24733   -24744   -24703   -24641   -24611   -24597   -24575   -24560 
  -24533   -24468   -24403   -24350   -24270   -24162   -24069   -23992 
  -23888   -23769   -23664   -23563   -23468   -23389   -23329   -23300 
  -23284   -23265   -23261   -23273   -23271   -23250   -23225   -23206 
  -23203   -23230   -23267   -23295   -23306   -23281   -23235   -23210 
  -23223   -23256   -23280   -23281   -23265   -23235   -23209   -23209 
  -23222   -23227   -23237   -23253   -23262   -23271   -23299   -23343 
  -23386   -23423   -23475   -23526   -23538   -23523   -23499   -23452 
  -23399   -23371   -23359   -23345   -23353   -23395   -23437   -23474 
  -23524   -23557   -23550   -23539   -23540   -23520   -23484   -23469 
  -23462   -23462   -23507   -23567   -23586   -23589   -23616   -23665 
  -23703   -23715   -23717   -23731   -23740   -23724   -23708   -23723 
  -23755   -23799   -23862   -23930   -24008   -24088   -24132   -24136 
  -24144   -24161   -24179   -24212   -24257   -24301   -24346   -24378 
  -24376   -24354   -24340   -24333   -24306   -24260   -24221   -24194 
  -24164   -24133   -24112   -24094   -24065   -24036   -24034   -24052 
  -24069   -24085   -24100   -24109   -24121   -24147   -24170   -24189 
  -24231   -24286   -24323   -24337   -24354   -24380   -24404   -24449 
  -24521   -24584   -24628   -24666   -24696   -24715   -24738   -24773 
  -24815   -24865   -24915   -24959   -25004   -25059   -25119   -25169 
  -25187   -25181   -25187   -25216   -25246   -25275   -25293   -25266 
  -25206   -25151   -25117   -25102   -25086   -25037   -24977   -24940 
  -24905   -24851   -24801   -24769   -24734   -24685   -24630   -24575 
  -24518   -24464   -24423   -24395   -24373   -24359   -24370   -24408 
  -24447   -24452   -24423   -24390   -24364   -24325   -24272   -24219 
  -24149   -24063   -23996   -23944   -23880   -23819   -23786   -23776 
  -23750   -23711   -23696   -23685   -23652   -23621   -23607   -23608 
  -23638   -23694   -23744   -23754   -23721   -23689   -23681   -23671 
  -23655   -23657   -23675   -23708   -23758   -23796   -23801   -23792 
  -23796   -23819   -23857   -23909   -23958   -23975   -23963   -23947 
  -23951   -23976   -24000   -24000   -23983   -23989   -24017   -24033 
  -24053   -24080   -24097   -24128   -24191   -24261   -24297   -24296 
  -24287   -24261   -24207   -24151   -24103   -24058   -24011   -23953 
  -23881   -23787   -23680   -23600   -23574   -23572   -23559   -23567 
  -23595   -23587   -23537   -23486   -23451   -23430   -23433   -23461 
  -23477   -23471   -23455   -23435   -23430   -23437   -23418   -23376 
  -23357   -23364   -23359   -23325   -23285   -23274   -23318   -23401 
  -23478   -23541   -23611   -23668   -23691   -23716   -23767   -23820 
  -23880   -23957   -24017   -24059   -24106   -24126   -24094   -24050 
  -24018   -23965   -23914   -23900   -23887   -23840   -23780   -23741 
  -23714   -23685   -23667   -23670   -23690   -23721   -23734   -23728 
  -23730   -23758   -23812   -23892   -23977   -24055   -24117   -24141 
  -24118   -24080   -24051   -24040   -24047   -24072   -24112   -24155 
  -24201   -24233   -24244   -24270   -24329   -24394   -24447   -24499 
  -24534   -24541   -24556   -24581   -24584   -24600   -24665   -24742 
  -24788   -24835   -24899   -24949   -24985   -25028   -25074   -25133 
  -25215   -25278   -25306   -25323   -25321   -25298   -25285   -25275 
  -25248   -25219   -25201   -25185   -25147   -25077   -24996   -24905 
  -24806   -24750   -24754   -24737   -24658   -24559   -24467   -24366 
  -24266   -24194   -24152   -24127   -24108   -24084   -24051   -24023 
  -24007   -23987   -23973   -23989   -24011   -24016   -24025   -24043 
  -24054   -24055   -24037   -24009   -23998   -24006   -24009   -24003 
  -24014   -24041   -24034   -23986   -23950   -23948   -23965   -23985 
  -24007   -24005   -23963   -23905   -23845   -23778   -23725   -23691 
  -23635   -23565   -23508   -23434   -23340   -23276   -23244   -23218 
  -23215   -23255   -23313   -23345   -23346   -23329   -23322   -23367 
  -23457   -23548   -23623   -23677   -23690   -23667   -23623   -23569 
  -23538   -23541   -23544   -23548   -23573   -23595   -23598   -23602 
  -23610   -23617   -23665   -23773   -23876   -23933   -23969   -23991 
  -23994   -24015   -24062   -24083   -24087   -24127   -24160   -24119 
  -24051   -24013   -23962   -23878   -23833   -23849   -23862   -23852 
  -23845   -23829   -23802   -23795   -23801   -23810   -23843   -23887 
  -23927   -23973   -24029   -24097   -24180   -24261   -24318   -24344 
  -24359   -24371   -24377   -24395   -24418   -24428   -24428   -24411 
  -24380   -24366   -24372   -24370   -24366   -24371   -24382   -24399 
  -24427   -24432   -24382   -24333   -24349   -24397   -24441   -24491 
  -24526   -24533   -24541   -24549   -24538   -24522   -24513   -24500 
  -24477   -24459   -24444   -24420   -24388   -24349   -24321   -24318 
  -24316   -24305   -24290   -24270   -24241   -24190   -24122   -24052 
  -24000   -23989   -23994   -23975   -23952   -23951   -23932   -23887 
  -23859   -23853   -23855   -23891   -23951   -23993   -24023   -24081 
  -24143   -24160   -24140   -24105   -24082   -24100   -24153   -24203 
  -24219   -24198   -24155   -24102   -24049   -24020   -24030   -24056 
  -24069   -24064   -24060   -24060   -24038   -23975   -23905   -23864 
  -23848   -23843   -23841   -23849   -23870   -23894   -23914   -23928 
  -23959   -24037   -24152   -24271   -24393   -24516   -24598   -24641 
  -24689   -24740   -24761   -24762   -24762   -24756   -24752   -24764 
  -24766   -24724   -24653   -24597   -24559   -24515   -24479   -24467 
  -24432   -24357   -24288   -24245   -24204   -24145   -24090   -24059 
  -24042   -24006   -23936   -23849   -23773   -23721   -23685   -23655 
  -23616   -23560   -23498   -23436   -23380   -23333   -23292   -23258 
  -23223   -23193   -23192   -23194   -23162   -23124   -23099   -23072 
  -23041   -23010   -22986   -22983   -22986   -22996   -23037   -23081 
  -23092   -23097   -23118   -23133   -23146   -23204   -23290   -23343 
  -23385   -23461   -23547   -23630   -23726   -23823   -23901   -23979 
  -24069   -24151   -24221   -24288   -24344   -24376   -24403   -24457 
  -24520   -24557   -24570   -24564   -24553   -24566   -24602   -24633 
  -24655   -24691   -24735   -24778   -24827   -24882   -24933   -24991 
  -25051   -25103   -25153   -25187   -25184   -25174   -25189   -25196 
  -25179   -25156   -25125   -25078   -25012   -24941   -24895   -24866 
  -24804   -24722   -24661   -24605   -24527   -24446   -24378   -24320 
  -24277   -24257   -24233   -24191   -24150   -24111   -24056   -24005 
  -23983   -23978   -23963   -23949   -23943   -23936   -23930   -23918 
  -23885   -23850   -23833   -23841   -23869   -23904   -23927   -23911 
  -23872   -23850   -23837   -23814   -23806   -23825   -23850   -23865 
  -23878   -23875   -23849   -23828   -23835   -23865   -23915   -23980 
  -24029   -24034   -24019   -24014   -24002   -23960   -23905   -23860 
  -23815   -23774   -23753   -23738   -23704   -23653   -23617   -23613 
  -23625   -23656   -23703   -23750   -23795   -23851   -23910   -23946 
  -23959   -23979   -24029   -24085   -24109   -24131   -24177   -24197 
  -24186   -24198   -24207   -24157   -24110   -24130   -24153   -24153 
  -24187   -24241   -24260   -24260   -24282   -24315   -24343   -24368 
  -24387   -24399   -24415   -24433   -24436   -24423   -24427   -24455 
  -24478   -24493   -24518   -24558   -24593   -24606   -24596   -24577 
  -24566   -24560   -24539   -24522   -24545   -24592   -24631   -24660 
  -24664   -24622   -24560   -24512   -24475   -24438   -24412   -24395 
  -24356   -24293   -24242   -24210   -24169   -24122   -24085   -24050 
  -24006   -23954   -23887   -23821   -23793   -23774   -23721   -23676 
  -23681   -23697   -23683   -23649   -23613   -23572   -23526   -23477 
  -23436   -23414   -23401   -23381   -23352   -23342   -23359   -23369 
  -23367   -23360   -23354   -23380   -23431   -23455   -23464   -23498 
  -23549   -23590   -23619   -23656   -23692   -23710   -23731   -23766 
  -23787   -23778   -23763   -23751   -23724   -23688   -23668   -23652 
  -23616   -23588   -23596   -23610   -23603   -23595   -23608   -23626 
  -23641   -23664   -23680   -23690   -23725   -23755   -23741   -23717 
  -23702   -23682   -23686   -23718   -23741   -23765   -23809   -23834 
  -23813   -23787   -23786   -23789   -23797   -23822   -23855   -23882 
  -23921   -23983   -24051   -24103   -24148   -24209   -24265   -24293 
  -24296   -24283   -24274   -24276   -24285   -24306   -24344   -24396 
  -24444   -24481   -24524   -24555   -24559   -24555   -24556   -24585 
  -24620   -24601   -24539   -24484   -24433   -24390   -24398   -24456 
  -24501   -24509   -24526   -24551   -24528   -24486   -24486   -24514 
  -24550   -24606   -24651   -24664   -24686   -24727   -24748   -24760 
  -24816   -24901   -24955   -24971   -24965   -24942   -24921   -24922 
  -24931   -24944   -24985   -25024   -25014   -24991   -24987   -24972 
  -24942   -24913   -24865   -24800   -24756   -24728   -24696   -24669 
  -24637   -24585   -24536   -24504   -24474   -24442   -24424   -24416 
