Origin Time       2024/04/02 04:24:00
Lat.              40.133
Long.             141.712
Depth. (km)       71
Mag.              6.0
Station Code      NIGH05
Station Lat.      37.9759
Station Long.     139.2788
Station Height(m) -140
Record Time       2024/04/02 04:26:02
Sampling Freq(Hz) 100Hz
Duration Time(s)  120
Dir.              2
Scale Factor      2942(gal)/8224139
Max. Acc. (gal)   0.286
Last Correction   2024/04/02 04:26:03
Memo.             
[...]
  -13471   -13477   -13487   -13505   -13522   -13544   -13563   -13568 
  -13566   -13559   -13547   -13540   -13544   -13559   -13579   -13606 
  -13635   -13657   -13670   -13678   -13682   -13679   -13678   -13680 
  -13683   -13686   -13689   -13686   -13680   -13678   -13676   -13672 
  -13666   -13662   -13666   -13670   -13671   -13680   -13684   -13680 
  -13678   -13675   -13672   -13663   -13644   -13626   -13606   -13576 
  -13545   -13514   -13479   -13450   -13425   -13410   -13406   -13405 
  -13408   -13417   -13421   -13417   -13419   -13420   -13424   -13435 
  -13448   -13464   -13486   -13506   -13522   -13537   -13548   -13556 
  -13564   -13574   -13583   -13590   -13591   -13593   -13597   -13599 
  -13606   -13613   -13622   -13636   -13659   -13687   -13709   -13725 
  -13740   -13751   -13756   -13757   -13763   -13771   -13779   -13787 
  -13791   -13792   -13788   -13783   -13778   -13776   -13784   -13795 
  -13802   -13809   -13810   -13805   -13799   -13786   -13764   -13741 
  -13721   -13701   -13680   -13656   -13628   -13603   -13579   -13555 
  -13535   -13521   -13510   -13502   -13494   -13486   -13481   -13479 
  -13482   -13487   -13495   -13513   -13529   -13544   -13560   -13571 
  -13578   -13583   -13586   -13587   -13589   -13589   -13594   -13605 
  -13614   -13629   -13651   -13682   -13717   -13752   -13787   -13825 
  -13860   -13890   -13910   -13919   -13913   -13896   -13879   -13859 
  -13834   -13811   -13790   -13770   -13749   -13737   -13732   -13734 
  -13745   -13760   -13772   -13782   -13786   -13784   -13779   -13774 
  -13772   -13776   -13779   -13780   -13786   -13792   -13801   -13807 
  -13814   -13821   -13828   -13832   -13830   -13832   -13834   -13832 
  -13828   -13818   -13799   -13774   -13744   -13713   -13686   -13659 
  -13635   -13614   -13597   -13583   -13578   -13581   -13586   -13593 
  -13599   -13601   -13602   -13606   -13605   -13597   -13589   -13583 
  -13579   -13575   -13572   -13572   -13575   -13579   -13583   -13585 
  -13587   -13591   -13593   -13599   -13606   -13605   -13602   -13603 
  -13605   -13603   -13603   -13609   -13620   -13633   -13652   -13674 
  -13694   -13713   -13732   -13744   -13748   -13743   -13733   -13725 
  -13711   -13693   -13678   -13660   -13641   -13625   -13609   -13601 
  -13597   -13593   -13594   -13603   -13618   -13635   -13657   -13683 
  -13706   -13725   -13740   -13747   -13745   -13743   -13737   -13728 
  -13725   -13726   -13729   -13732   -13730   -13730   -13732   -13728 
  -13722   -13720   -13707   -13690   -13678   -13671   -13663   -13660 
  -13660   -13652   -13637   -13616   -13593   -13574   -13554   -13536 
  -13520   -13502   -13491   -13483   -13471   -13459   -13447   -13439 
  -13435   -13432   -13431   -13437   -13450   -13464   -13486   -13512 
  -13536   -13555   -13570   -13578   -13578   -13575   -13574   -13567 
  -13563   -13563   -13564   -13567   -13567   -13560   -13549   -13539 
  -13535   -13536   -13539   -13545   -13555   -13562   -13568   -13574 
  -13578   -13583   -13593   -13603   -13618   -13629   -13632   -13629 
  -13620   -13605   -13594   -13590   -13587   -13593   -13598   -13597 
  -13601   -13608   -13608   -13603   -13598   -13587   -13574   -13562 
  -13549   -13541   -13541   -13551   -13562   -13576   -13597   -13620 
  -13645   -13675   -13705   -13726   -13740   -13745   -13743   -13734 
  -13728   -13722   -13711   -13694   -13675   -13649   -13626   -13613 
  -13601   -13593   -13593   -13597   -13599   -13602   -13602   -13597 
  -13597   -13601   -13602   -13606   -13614   -13625   -13641   -13657 
  -13672   -13687   -13705   -13724   -13748   -13778   -13807   -13833 
  -13855   -13873   -13883   -13884   -13884   -13884   -13878   -13869 
  -13863   -13861   -13869   -13883   -13903   -13927   -13950   -13971 
  -13988   -14007   -14018   -14023   -14026   -14018   -14000   -13979 
  -13954   -13927   -13896   -13864   -13828   -13791   -13757   -13728 
  -13706   -13689   -13679   -13679   -13680   -13686   -13697   -13705 
  -13706   -13707   -13707   -13706   -13707   -13713   -13717   -13722 
  -13729   -13734   -13737   -13737   -13733   -13730   -13734   -13741 
  -13751   -13767   -13788   -13807   -13819   -13822   -13821   -13821 
  -13818   -13819   -13836   -13853   -13873   -13902   -13919   -13923 
  -13917   -13900   -13884   -13860   -13830   -13805   -13774   -13741 
  -13714   -13687   -13660   -13633   -13612   -13591   -13578   -13576 
  -13582   -13590   -13603   -13610   -13614   -13618   -13618   -13616 
  -13610   -13599   -13593   -13594   -13598   -13594   -13586   -13578 
  -13568   -13554   -13532   -13505   -13479   -13455   -13429   -13396 
  -13365   -13339   -13321   -13311   -13309   -13321   -13340   -13360 
  -13382   -13402   -13419   -13435   -13454   -13475   -13497   -13514 
  -13531   -13547   -13558   -13564   -13570   -13564   -13563   -13572 
  -13585   -13597   -13609   -13618   -13629   -13645   -13666   -13689 
  -13711   -13730   -13741   -13745   -13736   -13716   -13687   -13649 
  -13606   -13567   -13531   -13497   -13468   -13447   -13431   -13417 
  -13413   -13413   -13413   -13410   -13405   -13401   -13402   -13401 
  -13401   -13402   -13402   -13397   -13394   -13393   -13397   -13404 
  -13409   -13419   -13433   -13446   -13456   -13468   -13481   -13491 
  -13501   -13505   -13506   -13512   -13514   -13518   -13532   -13549 
  -13568   -13591   -13616   -13644   -13671   -13694   -13716   -13733 
  -13747   -13763   -13782   -13802   -13822   -13837   -13845   -13856 
  -13869   -13883   -13894   -13905   -13911   -13917   -13927   -13936 
  -13937   -13938   -13941   -13936   -13926   -13921   -13915   -13909 
  -13900   -13884   -13861   -13841   -13819   -13797   -13778   -13761 
  -13753   -13751   -13753   -13763   -13770   -13770   -13765   -13761 
  -13751   -13737   -13732   -13733   -13733   -13733   -13738   -13751 
  -13767   -13790   -13815   -13836   -13853   -13873   -13887   -13892 
  -13894   -13892   -13882   -13861   -13840   -13819   -13802   -13788 
  -13784   -13787   -13788   -13787   -13788   -13797   -13811   -13828 
  -13840   -13852   -13869   -13888   -13913   -13945   -13975   -14003 
  -14030   -14045   -14050   -14046   -14034   -14014   -13990   -13969 
  -13949   -13937   -13929   -13917   -13900   -13878   -13857   -13842 
  -13824   -13807   -13795   -13778   -13759   -13738   -13710   -13675 
  -13630   -13581   -13531   -13486   -13455   -13437   -13435   -13444 
  -13459   -13478   -13500   -13524   -13558   -13601   -13645   -13695 
  -13747   -13784   -13807   -13821   -13824   -13815   -13797   -13770 
  -13740   -13713   -13686   -13659   -13632   -13599   -13560   -13520 
  -13490   -13477   -13474   -13474   -13475   -13477   -13481   -13490 
  -13500   -13506   -13510   -13513   -13514   -13502   -13486   -13470 
  -13450   -13428   -13416   -13416   -13420   -13431   -13443   -13452 
  -13463   -13473   -13473   -13467   -13466   -13464   -13459   -13452 
  -13454   -13451   -13440   -13427   -13412   -13390   -13367   -13344 
  -13323   -13301   -13277   -13254   -13235   -13219   -13209   -13207 
  -13212   -13225   -13242   -13261   -13278   -13294   -13304   -13308 
  -13312   -13316   -13319   -13323   -13333   -13347   -13363   -13383 
  -13405   -13435   -13466   -13491   -13521   -13556   -13593   -13626 
  -13652   -13675   -13697   -13711   -13720   -13724   -13725   -13725 
  -13724   -13725   -13725   -13722   -13720   -13710   -13687   -13666 
  -13645   -13617   -13593   -13578   -13560   -13544   -13536   -13535 
  -13537   -13545   -13564   -13586   -13597   -13599   -13599   -13594 
  -13583   -13571   -13555   -13532   -13510   -13497   -13493   -13493 
  -13494   -13500   -13505   -13509   -13516   -13525   -13543   -13570 
  -13599   -13633   -13671   -13699   -13721   -13743   -13768   -13797 
  -13817   -13829   -13842   -13852   -13857   -13860   -13860   -13857 
  -13853   -13856   -13869   -13888   -13909   -13930   -13948   -13964 
  -13973   -13971   -13961   -13945   -13923   -13905   -13888   -13875 
  -13859   -13844   -13833   -13825   -13825   -13832   -13846   -13867 
  -13887   -13910   -13934   -13953   -13971   -13986   -13988   -13994 
  -14003   -14006   -14008   -14017   -14022   -14023   -14026   -14015 
  -13996   -13977   -13953   -13914   -13869   -13825   -13783   -13753 
  -13741   -13737   -13740   -13751   -13768   -13791   -13819   -13856 
  -13891   -13917   -13936   -13948   -13950   -13948   -13941   -13925 
  -13902   -13875   -13849   -13826   -13805   -13783   -13768   -13761 
  -13764   -13771   -13783   -13806   -13829   -13838   -13844   -13849 
  -13855   -13857   -13860   -13865   -13871   -13873   -13873   -13875 
  -13872   -13857   -13842   -13826   -13809   -13802   -13798   -13795 
  -13795   -13794   -13794   -13797   -13801   -13803   -13803   -13798 
  -13788   -13778   -13767   -13761   -13759   -13755   -13749   -13734 
  -13711   -13682   -13655   -13633   -13614   -13597   -13579   -13563 
  -13547   -13529   -13516   -13506   -13495   -13487   -13482   -13471 
  -13462   -13456   -13448   -13440   -13435   -13427   -13414   -13400 
  -13379   -13359   -13347   -13344   -13354   -13369   -13390   -13417 
  -13436   -13444   -13451   -13446   -13431   -13414   -13394   -13369 
  -13343   -13323   -13313   -13313   -13320   -13329   -13339   -13347 
  -13354   -13365   -13375   -13385   -13392   -13402   -13417   -13435 
  -13446   -13452   -13460   -13458   -13448   -13444   -13447   -13448 
  -13454   -13471   -13493   -13512   -13533   -13562   -13599   -13637 
  -13672   -13702   -13724   -13738   -13752   -13764   -13772   -13778 
  -13783   -13787   -13788   -13794   -13798   -13795   -13786   -13770 
  -13749   -13729   -13702   -13668   -13629   -13587   -13548   -13517 
  -13493   -13474   -13460   -13454   -13448   -13441   -13435   -13424 
  -13410   -13402   -13401   -13408   -13429   -13455   -13482   -13517 
  -13545   -13564   -13579   -13583   -13591   -13610   -13633   -13662 
  -13691   -13713   -13732   -13747   -13760   -13779   -13805   -13829 
  -13852   -13878   -13903   -13923   -13933   -13926   -13910   -13891 
  -13861   -13834   -13821   -13821   -13830   -13848   -13876   -13905 
  -13927   -13950   -13975   -14000   -14021   -14034   -14053   -14075 
  -14092   -14114   -14137   -14158   -14170   -14169   -14152   -14116 
  -14068   -14010   -13953   -13900   -13857   -13824   -13801   -13790 
  -13783   -13778   -13774   -13760   -13737   -13706   -13666   -13621 
  -13586   -13560   -13543   -13529   -13522   -13520   -13514   -13510 
  -13508   -13502   -13497   -13489   -13481   -13470   -13460   -13455 
  -13450   -13440   -13432   -13425   -13421   -13417   -13413   -13408 
  -13405   -13406   -13406   -13402   -13397   -13393   -13394   -13400 
  -13406   -13412   -13409   -13396   -13373   -13351   -13332   -13317 
  -13308   -13302   -13300   -13302   -13305   -13301   -13294   -13286 
  -13274   -13259   -13248   -13247   -13257   -13267   -13288   -13324 
  -13371   -13425   -13490   -13560   -13624   -13676   -13720   -13751 
  -13774   -13782   -13780   -13782   -13778   -13761   -13744   -13724 
  -13699   -13672   -13636   -13598   -13566   -13529   -13491   -13454 
  -13414   -13374   -13342   -13317   -13306   -13312   -13329   -13363 
  -13412   -13467   -13521   -13572   -13612   -13640   -13671   -13707 
  -13747   -13792   -13838   -13875   -13909   -13932   -13940   -13945 
  -13946   -13946   -13946   -13941   -13936   -13934   -13936   -13938 
  -13950   -13967   -13981   -13988   -13984   -13979   -13973   -13961 
  -13944   -13930   -13918   -13909   -13903   -13902   -13895   -13879 
  -13853   -13821   -13783   -13749   -13722   -13702   -13689   -13683 
  -13674   -13659   -13641   -13621   -13597   -13576   -13563   -13555 
  -13554   -13551   -13549   -13549   -13543   -13535   -13529   -13518 
  -13509   -13508   -13504   -13500   -13500   -13495   -13486   -13481 
  -13470   -13454   -13444   -13439   -13437   -13439   -13436   -13437 
  -13436   -13439   -13456   -13485   -13524   -13572   -13626   -13686 
  -13749   -13806   -13856   -13903   -13940   -13960   -13969   -13968 
  -13959   -13942   -13919   -13892   -13863   -13828   -13788   -13751 
  -13707   -13668   -13639   -13612   -13579   -13549   -13518   -13486 
  -13464   -13455   -13454   -13460   -13473   -13489   -13513   -13533 
  -13548   -13564   -13581   -13587   -13589   -13593   -13597   -13595 
  -13591   -13587   -13585   -13576   -13563   -13548   -13543   -13536 
  -13527   -13525   -13531   -13540   -13556   -13570   -13581   -13593 
  -13608   -13620   -13630   -13644   -13649   -13641   -13633   -13629 
  -13621   -13614   -13617   -13629   -13648   -13672   -13695   -13710 
  -13720   -13732   -13738   -13741   -13745   -13748   -13749   -13751 
  -13751   -13748   -13745   -13747   -13748   -13755   -13763   -13770 
  -13775   -13779   -13775   -13763   -13745   -13716   -13674   -13622 
  -13574   -13536   -13504   -13483   -13475   -13470   -13466   -13464 
  -13463   -13463   -13470   -13475   -13483   -13498   -13501   -13498 
  -13508   -13514   -13517   -13521   -13522   -13518   -13517   -13522 
  -13528   -13540   -13559   -13579   -13603   -13632   -13664   -13699 
  -13736   -13775   -13810   -13842   -13869   -13892   -13917   -13936 
  -13952   -13976   -14008   -14048   -14092   -14142   -14189   -14235 
  -14283   -14320   -14350   -14385   -14413   -14435   -14454   -14461 
  -14461   -14455   -14443   -14430   -14413   -14392   -14368   -14341 
  -14308   -14268   -14218   -14161   -14099   -14034   -13973   -13917 
  -13861   -13807   -13751   -13693   -13635   -13576   -13525   -13486 
  -13455   -13435   -13428   -13427   -13423   -13416   -13404   -13381 
  -13352   -13319   -13285   -13259   -13242   -13234   -13231   -13227 
  -13223   -13217   -13209   -13198   -13192   -13185   -13177   -13169 
  -13163   -13162   -13167   -13177   -13189   -13208   -13228   -13254 
  -13290   -13329   -13373   -13420   -13463   -13501   -13547   -13598 
  -13647   -13698   -13752   -13809   -13867   -13926   -13988   -14046 
  -14099   -14142   -14175   -14203   -14229   -14253   -14278   -14311 
  -14343   -14368   -14384   -14386   -14377   -14351   -14305   -14251 
  -14196   -14141   -14085   -14025   -13969   -13918   -13865   -13819 
  -13780   -13748   -13718   -13682   -13636   -13581   -13520   -13458 
  -13405   -13367   -13346   -13331   -13321   -13320   -13329   -13340 
  -13346   -13347   -13346   -13346   -13347   -13354   -13370   -13390 
  -13408   -13424   -13443   -13462   -13475   -13485   -13494   -13506 
  -13512   -13512   -13516   -13524   -13541   -13570   -13598   -13630 
  -13672   -13709   -13740   -13770   -13788   -13797   -13795   -13784 
  -13774   -13767   -13761   -13772   -13795   -13811   -13817   -13819 
  -13826   -13834   -13841   -13846   -13852   -13864   -13879   -13902 
  -13930   -13965   -14010   -14054   -14096   -14133   -14157   -14172 
  -14173   -14161   -14139   -14107   -14073   -14031   -13973   -13907 
  -13840   -13767   -13693   -13628   -13574   -13520   -13460   -13404 
  -13354   -13312   -13282   -13266   -13258   -13247   -13236   -13236 
  -13248   -13261   -13279   -13304   -13329   -13358   -13386   -13409 
  -13436   -13477   -13514   -13549   -13590   -13633   -13675   -13717 
  -13761   -13805   -13838   -13865   -13880   -13879   -13867   -13849 
  -13828   -13807   -13797   -13787   -13772   -13763   -13757   -13745 
  -13734   -13732   -13732   -13726   -13717   -13709   -13695   -13676 
  -13663   -13651   -13641   -13632   -13612   -13599   -13601   -13602 
  -13610   -13625   -13640   -13651   -13659   -13660   -13659   -13652 
  -13643   -13625   -13601   -13570   -13536   -13501   -13460   -13417 
  -13367   -13313   -13266   -13231   -13201   -13182   -13182   -13186 
  -13181   -13170   -13158   -13128   -13086   -13049   -13011   -12987 
  -12984   -12988   -12995   -13008   -13027   -13049   -13072   -13097 
  -13127   -13155   -13182   -13213   -13250   -13285   -13320   -13351 
  -13381   -13416   -13456   -13498   -13551   -13616   -13684   -13744 
  -13792   -13836   -13873   -13910   -13941   -13965   -13990   -14014 
  -14031   -14042   -14044   -14031   -14014   -13992   -13961   -13918 
  -13876   -13833   -13786   -13740   -13698   -13660   -13625   -13593 
  -13564   -13541   -13521   -13505   -13495   -13498   -13513   -13539 
  -13570   -13610   -13653   -13691   -13725   -13752   -13770   -13784 
  -13794   -13799   -13799   -13790   -13778   -13764   -13743   -13722 
  -13705   -13687   -13672   -13660   -13647   -13635   -13621   -13613 
  -13613   -13599   -13571   -13544   -13521   -13504   -13493   -13489 
  -13495   -13505   -13505   -13505   -13509   -13516   -13524   -13532 
  -13540   -13551   -13567   -13589   -13616   -13643   -13674   -13709 
  -13748   -13783   -13818   -13856   -13895   -13930   -13961   -13987 
  -14008   -14026   -14030   -14018   -13995   -13964   -13922   -13888 
  -13868   -13855   -13849   -13848   -13845   -13852   -13861   -13859 
  -13855   -13852   -13842   -13834   -13838   -13844   -13840   -13830 
  -13813   -13788   -13763   -13737   -13721   -13716   -13717   -13726 
  -13745   -13776   -13809   -13834   -13855   -13869   -13886   -13900 
  -13911   -13923   -13933   -13930   -13915   -13898   -13868   -13822 
  -13767   -13706   -13641   -13582   -13532   -13495   -13470   -13452 
  -13440   -13436   -13440   -13446   -13446   -13443   -13441   -13437 
  -13432   -13431   -13435   -13436   -13432   -13423   -13413   -13404 
  -13389   -13378   -13367   -13356   -13354   -13344   -13332   -13327 
  -13316   -13300   -13292   -13286   -13285   -13296   -13320   -13351 
  -13383   -13414   -13454   -13489   -13517   -13555   -13585   -13595 
  -13610   -13628   -13633   -13637   -13647   -13649   -13644   -13630 
  -13612   -13587   -13562   -13547   -13539   -13527   -13528   -13539 
  -13548   -13566   -13594   -13616   -13629   -13645   -13666   -13686 
  -13710   -13737   -13771   -13807   -13838   -13861   -13879   -13895 
  -13909   -13910   -13906   -13900   -13883   -13857   -13833   -13809 
  -13778   -13747   -13724   -13702   -13683   -13676   -13675   -13676 
  -13682   -13686   -13690   -13702   -13717   -13730   -13747   -13763 
  -13783   -13813   -13837   -13856   -13876   -13899   -13925   -13954 
  -13988   -14021   -14045   -14058   -14062   -14065   -14062   -14057 
  -14054   -14049   -14038   -14025   -14008   -13994   -13986   -13977 
  -13969   -13967   -13967   -13968   -13975   -13984   -13992   -13999 
  -13996   -13991   -13986   -13977   -13971   -13961   -13949   -13942 
  -13938   -13925   -13900   -13871   -13834   -13801   -13771   -13736 
  -13705   -13679   -13648   -13610   -13578   -13548   -13521   -13504 
  -13498   -13500   -13520   -13555   -13595   -13639   -13680   -13721 
  -13760   -13792   -13822   -13859   -13899   -13934   -13960   -13969 
  -13960   -13938   -13917   -13895   -13868   -13844   -13825   -13797 
  -13761   -13728   -13690   -13651   -13616   -13586   -13568   -13562 
  -13556   -13551   -13543   -13528   -13513   -13513   -13521   -13531 
  -13547   -13560   -13564   -13566   -13559   -13551   -13544   -13532 
