Origin Time       2024/04/02 04:24:00
Lat.              40.133
Long.             141.712
Depth. (km)       71
Mag.              6.0
Station Code      NIGH05
Station Lat.      37.9759
Station Long.     139.2788
Station Height(m) 7
Record Time       2024/04/02 04:26:02
Sampling Freq(Hz) 100Hz
Duration Time(s)  120
Dir.              5
Scale Factor      7845(gal)/8223790
Max. Acc. (gal)   0.648
Last Correction   2024/04/02 04:26:03
Memo.             
[...]
    8093     8093     8098     8112     8120     8127     8137     8149 
    8151     8140     8120     8093     8055     8008     7977     7971 
    7975     7982     7990     7993     7997     7998     7992     7994 
    8020     8044     8046     8036     8031     8027     8019     8009 
    8004     8000     7996     7981     7969     7969     7970     7966 
    7960     7956     7963     7974     7978     7993     8017     8028 
    8021     8020     8029     8032     8023     8014     8009     8002 
    7997     7993     8001     8023     8031     8012     7986     7969 
    7956     7940     7925     7924     7915     7882     7847     7824 
    7815     7812     7809     7804     7798     7793     7774     7754 
    7753     7769     7776     7774     7778     7782     7771     7750 
    7723     7713     7717     7707     7686     7690     7708     7716 
    7719     7739     7781     7824     7847     7854     7863     7874 
    7866     7847     7839     7838     7824     7805     7796     7803 
    7813     7821     7842     7885     7929     7951     7950     7950 
    7954     7932     7892     7870     7866     7858     7830     7808 
    7820     7850     7877     7901     7940     7993     8023     8014 
    8010     8036     8060     8062     8063     8068     8064     8043 
    8009     7990     7992     7987     7973     7969     7989     8004 
    7996     8000     8029     8059     8066     8050     8043     8047 
    8033     8006     7997     8010     8019     7996     7959     7952 
    7973     7983     7985     8002     8040     8064     8054     8040 
    8047     8055     8039     8009     8000     8004     7990     7963 
    7952     7975     8010     8028     8051     8105     8158     8172 
    8174     8199     8235     8252     8243     8229     8229     8210 
    8160     8124     8122     8129     8114     8082     8067     8068 
    8064     8048     8039     8048     8056     8032     7998     7987 
    7986     7975     7956     7952     7967     7969     7955     7954 
    7967     7974     7974     7982     7994     8002     7996     7973 
    7944     7924     7904     7871     7842     7824     7809     7789 
    7774     7763     7753     7744     7742     7749     7755     7758 
    7766     7782     7807     7839     7870     7892     7906     7921 
    7940     7963     7993     8027     8058     8089     8118     8136 
    8148     8156     8147     8131     8110     8085     8062     8044 
    8037     8041     8047     8058     8067     8073     8086     8097 
    8093     8094     8102     8110     8120     8118     8116     8117 
    8108     8098     8098     8095     8100     8104     8094     8085 
    8075     8056     8037     8027     8013     7989     7950     7908 
    7881     7863     7847     7830     7816     7803     7782     7762 
    7744     7732     7726     7722     7724     7735     7732     7720 
    7726     7747     7765     7774     7778     7786     7796     7800 
    7797     7798     7813     7825     7827     7834     7850     7857 
    7858     7866     7871     7875     7870     7846     7821     7811 
    7793     7766     7755     7770     7792     7804     7807     7817 
    7839     7854     7854     7859     7867     7861     7835     7813 
    7804     7793     7767     7732     7708     7699     7682     7659 
    7653     7669     7686     7689     7692     7711     7730     7732 
    7738     7766     7809     7842     7852     7858     7882     7919 
    7939     7947     7970     7994     7986     7955     7933     7924 
    7921     7932     7955     7989     8028     8056     8082     8120 
    8158     8176     8186     8201     8206     8185     8154     8144 
    8166     8191     8208     8232     8271     8307     8330     8343 
    8360     8386     8394     8376     8356     8347     8333     8313 
    8286     8257     8229     8189     8149     8133     8121     8101 
    8091     8108     8131     8136     8121     8101     8093     8094 
    8079     8058     8063     8079     8081     8075     8073     8082 
    8098     8117     8140     8158     8159     8145     8129     8122 
    8124     8117     8094     8075     8060     8041     8028     8028 
    8037     8039     8023     8005     7994     7993     7994     7993 
    7994     7998     7996     7986     7989     8012     8039     8059 
    8070     8068     8059     8044     8025     8017     8024     8036 
    8044     8050     8058     8059     8059     8058     8059     8062 
    8048     8016     7983     7958     7938     7925     7921     7923 
    7919     7904     7893     7897     7909     7920     7923     7912 
    7892     7865     7835     7812     7793     7781     7774     7771 
    7776     7774     7777     7792     7805     7820     7838     7852 
    7866     7875     7873     7877     7902     7936     7970     8001 
    8020     8035     8043     8048     8067     8078     8071     8064 
    8050     8024     8004     7998     8001     8009     8009     7996 
    7981     7981     7982     7974     7969     7966     7954     7929 
    7904     7889     7884     7882     7879     7871     7855     7839 
    7817     7794     7784     7780     7774     7774     7769     7747 
    7731     7719     7704     7699     7704     7703     7690     7700 
    7728     7749     7765     7785     7798     7803     7794     7785 
    7794     7820     7832     7838     7848     7861     7865     7861 
    7851     7844     7839     7827     7813     7809     7823     7840 
    7858     7884     7909     7919     7908     7892     7881     7865 
    7835     7805     7784     7769     7763     7767     7788     7825 
    7857     7879     7906     7939     7970     7998     8024     8036 
    8024     7983     7929     7884     7861     7848     7839     7839 
    7851     7861     7863     7867     7893     7942     7987     8023 
    8048     8058     8059     8059     8056     8066     8073     8056 
    8035     8023     8012     8002     8001     8014     8039     8056 
    8060     8056     8054     8052     8036     8008     7983     7965 
    7952     7943     7938     7950     7965     7967     7966     7962 
    7947     7928     7921     7935     7952     7955     7954     7965 
    7973     7983     8001     8024     8063     8104     8124     8133 
    8133     8133     8140     8147     8162     8181     8198     8218 
    8239     8259     8289     8321     8341     8355     8365     8372 
    8382     8387     8392     8401     8406     8406     8401     8397 
    8397     8382     8348     8314     8283     8244     8209     8190 
    8176     8166     8156     8141     8124     8102     8086     8085 
    8089     8094     8097     8083     8064     8043     8014     7993 
    7979     7967     7950     7932     7909     7879     7859     7851 
    7842     7825     7796     7767     7744     7712     7677     7654 
    7630     7605     7585     7572     7570     7578     7585     7592 
    7592     7593     7593     7589     7587     7585     7574     7565 
    7566     7585     7612     7643     7684     7730     7767     7786 
    7792     7801     7820     7831     7828     7827     7832     7832 
    7828     7825     7828     7836     7836     7834     7847     7865 
    7886     7924     7960     7979     8000     8014     8014     8024 
    8040     8046     8037     8029     8023     8016     8012     8012 
    8017     8029     8032     8009     7977     7947     7916     7890 
    7874     7852     7831     7819     7813     7817     7831     7851 
    7875     7898     7921     7932     7929     7933     7935     7919 
    7894     7874     7866     7873     7885     7897     7920     7947 
    7963     7973     7994     8029     8075     8125     8166     8187 
    8190     8178     8164     8163     8171     8179     8191     8195 
    8190     8185     8187     8199     8217     8230     8237     8245 
    8259     8283     8306     8321     8329     8320     8287     8237 
    8186     8151     8135     8113     8086     8070     8064     8058 
    8051     8052     8060     8054     8029     7998     7973     7960 
    7956     7958     7960     7958     7958     7963     7974     7998 
    8033     8066     8093     8118     8128     8122     8124     8133 
    8136     8131     8121     8116     8117     8122     8133     8151 
    8171     8172     8149     8117     8075     8029     7992     7959 
    7932     7917     7905     7896     7894     7892     7888     7885 
    7881     7885     7890     7889     7889     7890     7882     7866 
    7857     7861     7877     7897     7915     7928     7944     7956 
    7956     7947     7936     7923     7893     7844     7792     7742 
    7700     7674     7666     7653     7630     7616     7612     7609 
    7614     7624     7638     7654     7663     7665     7658     7658 
    7672     7680     7680     7682     7688     7695     7704     7719 
    7742     7766     7789     7820     7850     7878     7911     7925 
    7917     7909     7900     7886     7888     7911     7946     7985 
    8020     8036     8033     8029     8021     8012     8017     8036 
    8058     8090     8127     8154     8171     8181     8187     8202 
    8226     8262     8303     8337     8365     8391     8401     8409 
    8422     8429     8430     8429     8429     8442     8455     8437 
    8398     8352     8307     8260     8205     8137     8062     8001 
    7954     7901     7855     7825     7807     7798     7797     7793 
    7800     7816     7828     7848     7874     7901     7942     7993 
    8033     8054     8060     8068     8094     8122     8132     8125 
    8118     8112     8097     8073     8056     8056     8056     8040 
    8019     8006     7996     7985     7983     7978     7975     7970 
    7950     7931     7924     7919     7919     7925     7932     7932 
    7919     7908     7915     7912     7888     7865     7851     7834 
    7803     7767     7744     7731     7716     7692     7662     7646 
    7630     7603     7596     7611     7616     7615     7614     7609 
    7615     7623     7619     7619     7631     7628     7615     7616 
    7639     7662     7669     7674     7692     7720     7755     7790 
    7816     7820     7815     7828     7862     7902     7929     7929 
    7932     7973     8032     8085     8139     8194     8225     8224 
    8213     8213     8221     8228     8225     8221     8225     8228 
    8237     8276     8321     8334     8324     8326     8352     8372 
    8378     8361     8330     8299     8272     8252     8233     8197 
    8133     8058     8009     7989     7971     7938     7886     7828 
    7765     7700     7666     7665     7668     7659     7639     7601 
    7561     7526     7488     7458     7420     7365     7318     7290 
    7294     7335     7389     7439     7485     7520     7553     7592 
    7623     7615     7580     7562     7582     7622     7661     7701 
    7766     7858     7948     8000     8024     8059     8116     8168 
    8199     8208     8206     8220     8267     8324     8360     8384 
    8403     8418     8436     8441     8428     8422     8428     8426 
    8413     8382     8355     8355     8375     8398     8403     8388 
    8360     8334     8329     8318     8278     8220     8156     8109 
    8094     8089     8074     8064     8066     8067     8054     8024 
    7993     7973     7954     7933     7906     7861     7813     7789 
    7784     7790     7798     7796     7784     7770     7754     7724 
    7690     7680     7690     7686     7666     7651     7653     7685 
    7726     7771     7835     7897     7943     7982     8009     8027 
    8052     8087     8116     8118     8100     8083     8078     8074 
    8060     8035     8012     8002     8010     8014     8006     7993 
    7982     7971     7960     7951     7932     7929     7956     7989 
    8009     8008     7992     7975     7950     7913     7873     7835 
    7812     7816     7825     7816     7797     7789     7786     7784 
    7773     7754     7738     7738     7736     7722     7705     7692 
    7678     7677     7672     7651     7641     7639     7643     7651 
    7657     7661     7673     7696     7717     7730     7734     7743 
    7755     7770     7789     7803     7817     7844     7862     7862 
    7857     7844     7842     7870     7902     7905     7896     7908 
    7917     7898     7890     7901     7911     7944     8019     8104 
    8170     8224     8291     8367     8406     8411     8424     8448 
    8482     8506     8486     8473     8513     8542     8540     8537 
    8518     8469     8428     8401     8367     8321     8270     8224 
    8186     8141     8075     8010     7981     7971     7955     7948 
    7966     7990     8004     8016     8024     8006     7981     7970 
    7966     7967     7983     7990     7987     7998     8004     7986 
    7977     7989     7989     7969     7969     8001     8028     8039 
    8060     8093     8109     8102     8098     8101     8097     8085 
    8068     8063     8089     8113     8105     8100     8113     8113 
    8102     8118     8171     8235     8272     8282     8287     8284 
    8267     8260     8272     8280     8272     8249     8248     8283 
    8324     8345     8348     8336     8309     8275     8237     8194 
    8131     8064     8012     7951     7871     7800     7749     7704 
    7663     7630     7605     7591     7577     7564     7543     7507 
    7449     7391     7368     7348     7308     7284     7303     7344 
    7371     7385     7415     7456     7479     7483     7493     7512 
    7528     7546     7569     7600     7632     7668     7709     7742 
    7754     7759     7780     7807     7819     7828     7850     7875 
    7902     7920     7920     7924     7938     7940     7931     7917 
    7901     7908     7928     7923     7896     7879     7884     7898 
    7909     7921     7948     7982     8016     8047     8071     8094 
    8114     8116     8112     8105     8085     8071     8093     8122 
    8140     8164     8203     8235     8243     8239     8228     8218 
    8212     8206     8213     8236     8260     8283     8311     8336 
    8356     8379     8399     8413     8413     8395     8368     8340 
    8314     8276     8230     8198     8174     8147     8132     8131 
    8131     8139     8158     8176     8178     8162     8147     8124 
    8079     8036     8000     7966     7947     7931     7911     7898 
    7890     7878     7859     7840     7830     7817     7805     7798 
    7778     7736     7695     7653     7611     7581     7565     7564 
    7570     7581     7603     7642     7688     7728     7757     7789 
    7830     7865     7911     7962     7979     7971     7974     7975 
    7977     7997     8027     8041     8051     8068     8086     8089 
    8086     8097     8116     8129     8117     8091     8090     8094 
    8070     8048     8050     8046     8031     8035     8048     8027 
    7993     8002     8035     8055     8066     8082     8116     8163 
    8194     8202     8202     8195     8187     8163     8120     8058 
    7986     7944     7933     7898     7842     7809     7796     7788 
    7793     7792     7780     7776     7784     7786     7763     7736 
    7742     7763     7789     7811     7819     7835     7869     7885 
    7892     7915     7932     7933     7944     7965     7978     7977 
    7965     7939     7896     7848     7807     7766     7736     7711 
    7680     7662     7646     7635     7668     7730     7773     7784 
    7792     7820     7843     7848     7842     7815     7780     7758 
    7742     7722     7703     7696     7708     7731     7740     7743 
    7755     7770     7777     7770     7759     7744     7723     7722 
    7750     7770     7781     7812     7844     7858     7874     7894 
    7906     7924     7948     7960     7965     7978     7989     7986 
    7993     8010     8010     8014     8032     8039     8033     8021 
    8010     8019     8046     8081     8109     8140     8189     8245 
    8295     8330     8348     8345     8325     8301     8280     8267 
    8264     8268     8272     8271     8266     8263     8264     8255 
    8239     8213     8163     8100     8043     7990     7939     7892 
    7850     7812     7780     7765     7759     7750     7749     7762 
    7773     7776     7777     7785     7803     7832     7867     7900 
    7925     7939     7939     7929     7927     7933     7939     7947 
    7956     7951     7932     7919     7919     7921     7920     7913 
    7904     7901     7912     7927     7940     7951     7958     7963 
    7971     7979     7993     8016     8025     8014     8005     7997 
    7977     7958     7939     7915     7889     7874     7881     7905 
    7936     7983     8040     8083     8116     8141     8162     8178 
    8175     8151     8120     8090     8062     8037     8017     7994 
    7973     7955     7933     7915     7905     7904     7894     7881 
    7877     7882     7890     7901     7908     7912     7909     7911 
    7925     7939     7942     7942     7929     7904     7892     7897 
    7888     7869     7847     7805     7796     7817     7801     7794 
    7824     7840     7846     7834     7805     7807     7835     7859 
    7866     7854     7851     7865     7901     7965     8009     8029 
    8059     8089     8112     8110     8093     8104     8101     8078 
    8098     8110     8081     8086     8118     8125     8121     8128 
    8149     8176     8199     8226     8245     8251     8279     8347 
    8401     8411     8422     8457     8484     8503     8496     8460 
    8446     8440     8394     8348     8318     8279     8235     8193 
    8148     8097     8055     8050     8040     8009     8008     8028 
    8035     8036     8048     8081     8120     8133     8120     8100 
    8082     8063     8028     7983     7946     7911     7875     7854 
    7840     7819     7808     7815     7811     7793     7781     7776 
    7765     7749     7732     7731     7747     7753     7731     7704 
    7681     7657     7639     7635     7639     7654     7670     7680 
    7686     7696     7697     7682     7663     7651     7638     7628 
    7632     7632     7626     7631     7646     7666     7700     7744 
    7789     7824     7846     7862     7877     7896     7917     7935 
    7955     7970     7950     7901     7851     7809     7778     7763 
    7754     7739     7715     7700     7708     7735     7770     7805 
    7840     7870     7879     7886     7904     7908     7896     7893 
    7908     7933     7962     7994     8037     8085     8122     8152 
    8181     8201     8208     8206     8199     8183     8156     8135 
    8124     8121     8129     8147     8162     8159     8133     8106 
    8098     8100     8093     8082     8070     8075     8113     8155 
    8174     8191     8220     8244     8260     8270     8271     8268 
    8252     8235     8232     8228     8220     8222     8224     8220 
    8225     8244     8259     8247     8199     8140     8086     8041 
    7997     7951     7911     7878     7859     7867     7878     7863 
    7855     7875     7896     7901     7897     7885     7869     7858 
    7848     7838     7839     7848     7857     7863     7869     7873 
