Origin Time       2024/04/02 04:24:00
Lat.              40.133
Long.             141.712
Depth. (km)       71
Mag.              6.0
Station Code      NIGH10
Station Lat.      37.5438
Station Long.     139.3648
Station Height(m) 118
Record Time       2024/04/02 04:25:27
Sampling Freq(Hz) 100Hz
Duration Time(s)  120
Dir.              2
Scale Factor      2940(gal)/6170270
Max. Acc. (gal)   0.257
Last Correction   2024/04/02 04:25:12
Memo.             
[...]
  -38842   -38842   -38861   -38893   -38917   -38928   -38942   -38958 
  -38967   -38963   -38945   -38932   -38935   -38941   -38939   -38938 
  -38942   -38950   -38960   -38972   -38986   -38996   -38999   -39001 
  -39002   -39009   -39023   -39034   -39047   -39069   -39093   -39105 
  -39103   -39101   -39106   -39111   -39109   -39102   -39101   -39106 
  -39111   -39104   -39083   -39065   -39063   -39072   -39084   -39098 
  -39111   -39131   -39149   -39153   -39145   -39137   -39133   -39136 
  -39141   -39146   -39158   -39172   -39179   -39181   -39181   -39176 
  -39167   -39160   -39163   -39174   -39184   -39189   -39186   -39185 
  -39190   -39195   -39197   -39200   -39203   -39201   -39191   -39171 
  -39156   -39151   -39150   -39144   -39133   -39128   -39137   -39143 
  -39147   -39157   -39168   -39175   -39176   -39169   -39160   -39153 
  -39145   -39132   -39111   -39090   -39077   -39062   -39046   -39043 
  -39048   -39053   -39054   -39039   -39019   -39017   -39027   -39031 
  -39028   -39030   -39045   -39057   -39054   -39039   -39032   -39037 
  -39045   -39047   -39045   -39049   -39062   -39080   -39090   -39091 
  -39101   -39130   -39157   -39165   -39161   -39161   -39171   -39187 
  -39182   -39158   -39144   -39146   -39147   -39136   -39118   -39108 
  -39116   -39126   -39112   -39076   -39042   -39024   -39017   -39014 
  -39010   -39011   -39019   -39024   -39012   -38990   -38979   -38976 
  -38965   -38939   -38905   -38875   -38860   -38859   -38855   -38850 
  -38857   -38871   -38877   -38872   -38867   -38865   -38868   -38883 
  -38912   -38948   -38991   -39033   -39062   -39085   -39113   -39146 
  -39167   -39167   -39161   -39166   -39186   -39206   -39220   -39233 
  -39247   -39263   -39280   -39292   -39302   -39311   -39313   -39306 
  -39295   -39288   -39290   -39292   -39290   -39288   -39281   -39262 
  -39231   -39195   -39168   -39156   -39155   -39161   -39178   -39206 
  -39232   -39238   -39227   -39212   -39202   -39194   -39182   -39166 
  -39156   -39157   -39157   -39144   -39122   -39098   -39084   -39082 
  -39075   -39060   -39050   -39048   -39045   -39031   -39009   -38991 
  -38983   -38981   -38976   -38964   -38950   -38944   -38945   -38947 
  -38948   -38952   -38954   -38947   -38931   -38913   -38900   -38887 
  -38876   -38878   -38893   -38921   -38950   -38958   -38939   -38911 
  -38890   -38877   -38875   -38883   -38891   -38899   -38905   -38902 
  -38902   -38920   -38940   -38946   -38944   -38941   -38942   -38944 
  -38932   -38910   -38900   -38913   -38933   -38942   -38941   -38942 
  -38957   -38978   -38983   -38978   -38985   -39009   -39033   -39048 
  -39063   -39097   -39138   -39168   -39187   -39208   -39236   -39262 
  -39270   -39269   -39278   -39303   -39323   -39324   -39316   -39322 
  -39347   -39371   -39377   -39372   -39375   -39379   -39366   -39334 
  -39303   -39291   -39295   -39301   -39294   -39282   -39282   -39295 
  -39298   -39279   -39254   -39234   -39218   -39192   -39156   -39129 
  -39123   -39130   -39134   -39135   -39138   -39150   -39166   -39172 
  -39162   -39144   -39125   -39115   -39114   -39118   -39123   -39131 
  -39135   -39126   -39111   -39105   -39107   -39104   -39097   -39086 
  -39076   -39074   -39077   -39080   -39084   -39094   -39110   -39125 
  -39131   -39122   -39100   -39084   -39086   -39092   -39100   -39103 
  -39100   -39097   -39096   -39093   -39090   -39088   -39088   -39083 
  -39065   -39036   -38997   -38956   -38927   -38914   -38908   -38901 
  -38888   -38871   -38854   -38842   -38831   -38816   -38804   -38811 
  -38838   -38862   -38865   -38856   -38851   -38850   -38844   -38825 
  -38802   -38797   -38810   -38826   -38835   -38841   -38864   -38901 
  -38925   -38934   -38939   -38946   -38958   -38964   -38964   -38971 
  -38991   -39009   -39022   -39035   -39045   -39051   -39053   -39045 
  -39032   -39033   -39054   -39075   -39084   -39088   -39090   -39093 
  -39107   -39122   -39128   -39134   -39147   -39160   -39162   -39162 
  -39165   -39171   -39186   -39202   -39205   -39196   -39186   -39181 
  -39183   -39188   -39195   -39206   -39217   -39227   -39231   -39234 
  -39242   -39262   -39291   -39317   -39325   -39323   -39320   -39310 
  -39297   -39283   -39262   -39236   -39213   -39207   -39214   -39221 
  -39218   -39202   -39181   -39173   -39168   -39149   -39130   -39124 
  -39121   -39111   -39091   -39069   -39058   -39054   -39053   -39052 
  -39051   -39058   -39073   -39076   -39052   -39021   -39000   -38988 
  -38975   -38958   -38949   -38955   -38971   -38987   -38999   -39008 
  -39024   -39040   -39034   -39015   -39010   -39014   -39014   -39012 
  -39011   -39022   -39058   -39090   -39091   -39082   -39092   -39114 
  -39125   -39108   -39082   -39081   -39098   -39101   -39086   -39074 
  -39086   -39114   -39125   -39108   -39087   -39079   -39080   -39082 
  -39074   -39069   -39081   -39101   -39114   -39113   -39109   -39109 
  -39109   -39108   -39103   -39101   -39103   -39098   -39086   -39077 
  -39071   -39071   -39081   -39096   -39110   -39111   -39095   -39078 
  -39076   -39084   -39088   -39081   -39068   -39059   -39058   -39052 
  -39030   -39000   -38974   -38960   -38955   -38949   -38941   -38941 
  -38949   -38953   -38945   -38925   -38908   -38903   -38905   -38910 
  -38917   -38920   -38920   -38917   -38911   -38908   -38908   -38912 
  -38921   -38935   -38951   -38968   -38976   -38976   -38985   -39001 
  -39015   -39028   -39043   -39062   -39082   -39101   -39113   -39121 
  -39127   -39128   -39126   -39122   -39122   -39126   -39127   -39126 
  -39129   -39143   -39165   -39187   -39203   -39211   -39209   -39204 
  -39202   -39198   -39186   -39164   -39137   -39117   -39109   -39112 
  -39114   -39105   -39092   -39087   -39085   -39083   -39081   -39078 
  -39076   -39075   -39069   -39062   -39060   -39062   -39064   -39062 
  -39052   -39041   -39040   -39044   -39044   -39037   -39028   -39029 
  -39033   -39028   -39024   -39041   -39078   -39111   -39124   -39131 
  -39150   -39184   -39226   -39257   -39266   -39272   -39292   -39312 
  -39310   -39291   -39278   -39286   -39298   -39296   -39283   -39281 
  -39302   -39332   -39349   -39345   -39343   -39358   -39374   -39372 
  -39362   -39360   -39365   -39362   -39347   -39337   -39345   -39365 
  -39371   -39352   -39329   -39319   -39308   -39281   -39242   -39218 
  -39225   -39241   -39234   -39203   -39168   -39147   -39135   -39114 
  -39090   -39078   -39073   -39064   -39041   -39006   -38972   -38952 
  -38944   -38940   -38933   -38918   -38900   -38881   -38862   -38849 
  -38835   -38811   -38784   -38764   -38749   -38729   -38709   -38694 
  -38687   -38681   -38665   -38641   -38624   -38616   -38613   -38608 
  -38601   -38605   -38623   -38645   -38663   -38678   -38695   -38713 
  -38717   -38708   -38702   -38706   -38721   -38742   -38768   -38798 
  -38825   -38838   -38842   -38848   -38864   -38889   -38897   -38889 
  -38893   -38915   -38934   -38938   -38931   -38936   -38960   -38990 
  -39007   -39006   -38998   -38996   -39004   -39028   -39060   -39083 
  -39098   -39109   -39119   -39132   -39145   -39152   -39150   -39145 
  -39147   -39158   -39167   -39166   -39158   -39164   -39192   -39221 
  -39230   -39222   -39220   -39230   -39241   -39244   -39243   -39248 
  -39263   -39284   -39295   -39300   -39316   -39346   -39373   -39385 
  -39384   -39382   -39385   -39390   -39397   -39409   -39427   -39448 
  -39461   -39460   -39451   -39440   -39428   -39411   -39389   -39368 
  -39349   -39330   -39319   -39322   -39323   -39310   -39288   -39271 
  -39264   -39252   -39230   -39209   -39196   -39187   -39166   -39130 
  -39098   -39089   -39093   -39097   -39092   -39088   -39088   -39082 
  -39061   -39033   -39022   -39033   -39042   -39033   -39021   -39026 
  -39041   -39043   -39022   -38997   -38988   -38989   -38984   -38970 
  -38967   -38991   -39022   -39037   -39036   -39029   -39034   -39047 
  -39045   -39028   -39017   -39019   -39030   -39036   -39032   -39031 
  -39040   -39040   -39020   -38991   -38975   -38980   -38997   -39009 
  -39010   -39008   -39009   -39017   -39027   -39037   -39053   -39072 
  -39081   -39078   -39071   -39066   -39064   -39067   -39075   -39080 
  -39079   -39072   -39059   -39048   -39042   -39048   -39056   -39048 
  -39026   -39008   -39002   -39002   -38999   -38988   -38975   -38973 
  -38977   -38977   -38970   -38965   -38972   -38992   -39025   -39057 
  -39076   -39085   -39097   -39114   -39130   -39129   -39109   -39099 
  -39114   -39133   -39143   -39148   -39153   -39162   -39166   -39146 
  -39111   -39095   -39108   -39130   -39140   -39141   -39161   -39202 
  -39225   -39213   -39197   -39205   -39228   -39237   -39220   -39200 
  -39207   -39231   -39240   -39221   -39203   -39206   -39221   -39227 
  -39216   -39206   -39206   -39204   -39198   -39193   -39196   -39205 
  -39199   -39167   -39127   -39104   -39097   -39083   -39059   -39042 
  -39041   -39041   -39026   -38993   -38964   -38953   -38945   -38928 
  -38906   -38897   -38909   -38915   -38895   -38861   -38838   -38837 
  -38847   -38849   -38842   -38842   -38863   -38892   -38905   -38907 
  -38911   -38922   -38937   -38948   -38945   -38944   -38962   -38985 
  -38987   -38982   -38993   -39017   -39036   -39040   -39039   -39051 
  -39075   -39089   -39082   -39067   -39074   -39100   -39115   -39114 
  -39118   -39132   -39148   -39151   -39129   -39106   -39111   -39132 
  -39136   -39115   -39086   -39069   -39065   -39065   -39064   -39069 
  -39081   -39090   -39092   -39096   -39103   -39099   -39088   -39079 
  -39078   -39087   -39094   -39085   -39068   -39062   -39071   -39071 
  -39053   -39027   -39004   -38990   -38980   -38968   -38965   -38974 
  -38985   -38982   -38970   -38970   -38989   -39008   -39016   -39018 
  -39032   -39063   -39079   -39061   -39042   -39063   -39103   -39120 
  -39109   -39096   -39106   -39130   -39131   -39102   -39081   -39091 
  -39111   -39110   -39090   -39086   -39110   -39133   -39132   -39127 
  -39136   -39153   -39161   -39151   -39142   -39144   -39144   -39128 
  -39103   -39091   -39106   -39127   -39130   -39121   -39122   -39134 
  -39138   -39119   -39085   -39067   -39080   -39105   -39113   -39101 
  -39085   -39074   -39066   -39065   -39067   -39077   -39091   -39095 
  -39091   -39085   -39081   -39075   -39067   -39062   -39068   -39088 
  -39112   -39118   -39115   -39129   -39162   -39188   -39191   -39188 
  -39200   -39220   -39228   -39218   -39215   -39234   -39266   -39283 
  -39284   -39290   -39310   -39318   -39294   -39254   -39230   -39235 
  -39244   -39227   -39198   -39192   -39213   -39225   -39204   -39159 
  -39122   -39105   -39088   -39048   -39003   -38992   -39011   -39027 
  -39018   -38994   -38978   -38983   -38991   -38981   -38951   -38923 
  -38908   -38899   -38887   -38876   -38874   -38881   -38891   -38901 
  -38909   -38913   -38913   -38908   -38909   -38927   -38953   -38966 
  -38968   -38987   -39023   -39049   -39058   -39056   -39061   -39090 
  -39120   -39122   -39105   -39093   -39100   -39115   -39114   -39105 
  -39111   -39137   -39161   -39166   -39159   -39160   -39167   -39168 
  -39163   -39165   -39176   -39186   -39178   -39153   -39137   -39142 
  -39155   -39155   -39148   -39142   -39129   -39111   -39093   -39075 
  -39066   -39061   -39046   -39027   -39021   -39033   -39052   -39055 
  -39042   -39035   -39047   -39068   -39082   -39083   -39083   -39090 
  -39100   -39098   -39081   -39067   -39074   -39089   -39092   -39082 
  -39067   -39059   -39059   -39057   -39048   -39043   -39046   -39050 
  -39047   -39042   -39045   -39054   -39052   -39027   -38994   -38985 
  -39007   -39030   -39031   -39016   -39008   -39014   -39009   -38984 
  -38967   -38984   -39021   -39036   -39025   -39021   -39040   -39063 
  -39069   -39062   -39064   -39081   -39092   -39082   -39071   -39096 
  -39143   -39161   -39144   -39130   -39141   -39160   -39154   -39120 
  -39097   -39112   -39144   -39153   -39130   -39105   -39106   -39112 
  -39092   -39055   -39034   -39048   -39085   -39109   -39114   -39125 
  -39150   -39169   -39163   -39138   -39114   -39106   -39105   -39097 
  -39087   -39082   -39092   -39105   -39103   -39091   -39082   -39074 
  -39063   -39058   -39062   -39072   -39095   -39123   -39138   -39138 
  -39138   -39138   -39138   -39127   -39100   -39067   -39047   -39046 
  -39051   -39047   -39037   -39042   -39067   -39091   -39084   -39053 
  -39029   -39030   -39037   -39021   -38979   -38942   -38939   -38954 
  -38955   -38936   -38916   -38917   -38932   -38932   -38916   -38905 
  -38907   -38907   -38894   -38870   -38859   -38881   -38916   -38925 
  -38911   -38904   -38919   -38945   -38959   -38964   -38980   -39018 
  -39066   -39094   -39093   -39086   -39097   -39127   -39165   -39202 
  -39235   -39269   -39306   -39340   -39366   -39381   -39382   -39375 
  -39374   -39377   -39383   -39395   -39415   -39435   -39451   -39468 
  -39487   -39508   -39524   -39525   -39508   -39481   -39445   -39408 
  -39379   -39365   -39369   -39376   -39375   -39368   -39361   -39346 
  -39313   -39268   -39219   -39180   -39163   -39156   -39149   -39137 
  -39121   -39097   -39059   -39013   -38967   -38925   -38880   -38828 
  -38784   -38758   -38743   -38719   -38683   -38649   -38629   -38615 
  -38589   -38557   -38540   -38545   -38554   -38553   -38552   -38557 
  -38562   -38565   -38571   -38580   -38599   -38627   -38651   -38660 
  -38665   -38677   -38701   -38729   -38750   -38762   -38773   -38791 
  -38822   -38862   -38895   -38931   -38980   -39030   -39070   -39095 
  -39100   -39105   -39131   -39169   -39207   -39238   -39267   -39293 
  -39314   -39327   -39331   -39324   -39320   -39326   -39332   -39336 
  -39339   -39341   -39345   -39344   -39337   -39328   -39312   -39295 
  -39286   -39281   -39271   -39256   -39239   -39221   -39217   -39222 
  -39212   -39180   -39147   -39131   -39129   -39122   -39100   -39085 
  -39093   -39105   -39094   -39064   -39035   -39028   -39036   -39026 
  -39000   -38992   -39015   -39040   -39037   -39012   -38999   -39015 
  -39038   -39041   -39038   -39053   -39077   -39080   -39057   -39035 
  -39041   -39062   -39071   -39067   -39070   -39094   -39122   -39124 
  -39108   -39103   -39117   -39135   -39144   -39153   -39173   -39204 
  -39228   -39237   -39246   -39262   -39272   -39259   -39235   -39218 
  -39215   -39215   -39198   -39174   -39162   -39164   -39167   -39167 
  -39172   -39189   -39211   -39223   -39222   -39218   -39220   -39217 
  -39196   -39167   -39151   -39148   -39144   -39134   -39123   -39119 
  -39121   -39121   -39114   -39094   -39066   -39048   -39047   -39046 
  -39037   -39027   -39024   -39031   -39036   -39023   -38990   -38956 
  -38940   -38937   -38923   -38901   -38894   -38910   -38936   -38951 
  -38946   -38931   -38923   -38923   -38916   -38894   -38872   -38872 
  -38897   -38921   -38921   -38906   -38897   -38904   -38914   -38915 
  -38909   -38909   -38928   -38955   -38976   -38992   -39013   -39038 
  -39061   -39076   -39091   -39113   -39139   -39155   -39162   -39173 
  -39199   -39240   -39281   -39303   -39301   -39286   -39275   -39266 
  -39259   -39260   -39266   -39268   -39263   -39257   -39251   -39240 
  -39225   -39210   -39196   -39190   -39187   -39179   -39161   -39143 
  -39134   -39132   -39130   -39124   -39114   -39110   -39113   -39112 
  -39107   -39098   -39084   -39070   -39061   -39058   -39062   -39071 
  -39075   -39072   -39062   -39057   -39061   -39067   -39056   -39029 
  -39011   -39014   -39026   -39034   -39027   -39010   -39004   -39016 
  -39032   -39036   -39028   -39018   -39022   -39035   -39038   -39026 
  -39016   -39021   -39029   -39025   -39015   -39020   -39041   -39060 
  -39063   -39055   -39050   -39048   -39040   -39028   -39024   -39036 
  -39058   -39073   -39085   -39098   -39106   -39102   -39087   -39076 
  -39087   -39099   -39093   -39070   -39047   -39042   -39051   -39055 
  -39048   -39042   -39043   -39043   -39039   -39031   -39022   -39013 
  -39011   -39025   -39045   -39045   -39024   -39006   -39010   -39035 
  -39056   -39061   -39066   -39086   -39112   -39115   -39095   -39085 
  -39100   -39117   -39113   -39092   -39085   -39110   -39140   -39146 
  -39135   -39141   -39173   -39204   -39209   -39200   -39203   -39226 
  -39247   -39250   -39244   -39247   -39262   -39271   -39261   -39244 
  -39239   -39246   -39254   -39251   -39242   -39245   -39255   -39249 
  -39224   -39198   -39181   -39174   -39170   -39158   -39144   -39143 
  -39150   -39147   -39131   -39109   -39098   -39104   -39110   -39098 
  -39077   -39064   -39061   -39055   -39041   -39028   -39026   -39031 
  -39027   -39005   -38985   -38979   -38979   -38977   -38967   -38961 
  -38966   -38961   -38932   -38899   -38890   -38904   -38913   -38901 
  -38888   -38895   -38918   -38927   -38905   -38876   -38880   -38905 
  -38912   -38888   -38856   -38851   -38874   -38890   -38879   -38858 
  -38852   -38860   -38858   -38839   -38827   -38835   -38855   -38877 
  -38893   -38907   -38923   -38934   -38939   -38945   -38961   -38976 
  -38983   -38988   -39004   -39037   -39066   -39071   -39069   -39082 
  -39109   -39122   -39106   -39082   -39086   -39124   -39158   -39159 
  -39148   -39165   -39203   -39225   -39208   -39184   -39200   -39245 
  -39266   -39248   -39227   -39241   -39284   -39300   -39271   -39244 
  -39255   -39284   -39283   -39243   -39218   -39243   -39282   -39289 
  -39261   -39241   -39257   -39283   -39283   -39262   -39250   -39259 
  -39265   -39244   -39207   -39183   -39183   -39188   -39166   -39127 
  -39106   -39114   -39127   -39116   -39088   -39073   -39080   -39089 
  -39082   -39062   -39050   -39057   -39066   -39067   -39063   -39060 
  -39063   -39059   -39042   -39024   -39019   -39022   -39023   -39016 
  -39009   -39012   -39019   -39015   -38999   -38990   -38990   -38990 
  -38988   -38990   -38997   -39012   -39022   -39014   -38998   -38988 
  -38981   -38976   -38965   -38942   -38926   -38927   -38933   -38930 
  -38914   -38887   -38872   -38883   -38902   -38911   -38914   -38919 
  -38930   -38940   -38937   -38932   -38938   -38956   -38978   -38997 
  -39011   -39027   -39045   -39050   -39038   -39030   -39038   -39050 
  -39061   -39074   -39089   -39119   -39150   -39158   -39155   -39168 
  -39190   -39208   -39212   -39204   -39205   -39229   -39257   -39258 
  -39242   -39248   -39283   -39314   -39312   -39281   -39255   -39256 
  -39266   -39261   -39243   -39239   -39259   -39277   -39266   -39238 
  -39224   -39231   -39238   -39227   -39207   -39194   -39188   -39174 
  -39147   -39121   -39114   -39120   -39124   -39120   -39122   -39133 
  -39142   -39133   -39111   -39100   -39111   -39124   -39117   -39095 
  -39069   -39051   -39043   -39038   -39031   -39023   -39013   -39005 
  -38999   -38989   -38969   -38949   -38937   -38933   -38931   -38926 
  -38918   -38920   -38930   -38934   -38924   -38912   -38910   -38915 
  -38914   -38905   -38898   -38902   -38921   -38938   -38947   -38953 
  -38962   -38973   -38983   -38984   -38987   -39002   -39034   -39068 
