Origin Time       2024/04/02 04:24:00
Lat.              40.133
Long.             141.712
Depth. (km)       71
Mag.              6.0
Station Code      NIGH05
Station Lat.      37.9759
Station Long.     139.2788
Station Height(m) 7
Record Time       2024/04/02 04:26:02
Sampling Freq(Hz) 100Hz
Duration Time(s)  120
Dir.              4
Scale Factor      7845(gal)/8223790
Max. Acc. (gal)   0.636
Last Correction   2024/04/02 04:26:03
Memo.             
[...]
  -24032   -24011   -23997   -23988   -23974   -23951   -23934   -23927 
  -23917   -23899   -23872   -23845   -23824   -23804   -23791   -23791 
  -23795   -23803   -23820   -23855   -23907   -23958   -23997   -24031 
  -24054   -24067   -24081   -24089   -24093   -24096   -24093   -24084 
  -24062   -24042   -24035   -24030   -24023   -24025   -24028   -24031 
  -24036   -24030   -24019   -24008   -23990   -23977   -23967   -23966 
  -23982   -24007   -24028   -24055   -24081   -24097   -24102   -24088 
  -24059   -24023   -23981   -23934   -23882   -23828   -23778   -23738 
  -23711   -23707   -23715   -23728   -23739   -23743   -23742   -23734 
  -23726   -23722   -23718   -23715   -23720   -23727   -23743   -23773 
  -23800   -23823   -23838   -23838   -23847   -23872   -23892   -23913 
  -23938   -23953   -23954   -23944   -23936   -23934   -23931   -23928 
  -23924   -23924   -23927   -23919   -23913   -23927   -23940   -23958 
  -23992   -24031   -24057   -24069   -24075   -24081   -24086   -24088 
  -24082   -24074   -24065   -24052   -24035   -24025   -24034   -24051 
  -24078   -24116   -24151   -24181   -24197   -24194   -24178   -24155 
  -24136   -24119   -24094   -24071   -24043   -24004   -23978   -23961 
  -23942   -23931   -23927   -23927   -23936   -23938   -23928   -23917 
  -23904   -23893   -23886   -23886   -23903   -23935   -23981   -24034 
  -24075   -24108   -24138   -24144   -24140   -24142   -24135   -24127 
  -24133   -24146   -24150   -24142   -24123   -24089   -24040   -23984 
  -23917   -23849   -23799   -23757   -23704   -23666   -23657   -23658 
  -23662   -23669   -23693   -23738   -23785   -23828   -23861   -23880 
  -23889   -23877   -23857   -23850   -23854   -23858   -23865   -23872 
  -23878   -23889   -23907   -23926   -23939   -23938   -23922   -23897 
  -23877   -23868   -23855   -23858   -23888   -23922   -23947   -23962 
  -23969   -23988   -24011   -24021   -24023   -24028   -24036   -24039 
  -24036   -24042   -24051   -24050   -24043   -24034   -24019   -24004 
  -23982   -23955   -23932   -23907   -23880   -23859   -23843   -23834 
  -23830   -23828   -23839   -23863   -23884   -23897   -23907   -23913 
  -23909   -23892   -23866   -23839   -23814   -23795   -23778   -23762 
  -23758   -23747   -23730   -23722   -23712   -23701   -23693   -23673 
  -23657   -23654   -23657   -23681   -23723   -23765   -23814   -23857 
  -23884   -23907   -23928   -23950   -23966   -23974   -23980   -23977 
  -23961   -23950   -23947   -23949   -23959   -23970   -23978   -23992 
  -24004   -24016   -24020   -24017   -24017   -24009   -23990   -23974 
  -23961   -23951   -23942   -23923   -23905   -23885   -23847   -23809 
  -23776   -23745   -23726   -23720   -23728   -23749   -23764   -23777 
  -23788   -23788   -23777   -23755   -23734   -23722   -23707   -23683 
  -23665   -23652   -23630   -23606   -23580   -23565   -23580   -23602 
  -23622   -23656   -23695   -23731   -23764   -23788   -23808   -23824 
  -23841   -23853   -23865   -23895   -23936   -23973   -24007   -24036 
  -24069   -24116   -24165   -24206   -24246   -24259   -24256   -24258 
  -24258   -24254   -24248   -24243   -24246   -24247   -24236   -24220 
  -24193   -24171   -24165   -24155   -24150   -24160   -24174   -24177 
  -24167   -24150   -24135   -24120   -24100   -24075   -24034   -23984 
  -23958   -23949   -23934   -23904   -23857   -23807   -23765   -23738 
  -23718   -23701   -23701   -23719   -23743   -23766   -23785   -23805 
  -23834   -23849   -23853   -23874   -23904   -23944   -23998   -24044 
  -24082   -24128   -24173   -24213   -24244   -24259   -24281   -24312 
  -24328   -24325   -24310   -24290   -24278   -24262   -24229   -24182 
  -24133   -24100   -24082   -24079   -24090   -24113   -24142   -24165 
  -24174   -24177   -24174   -24158   -24129   -24101   -24062   -24015 
  -23974   -23949   -23936   -23931   -23911   -23870   -23815   -23758 
  -23706   -23658   -23623   -23592   -23557   -23538   -23531   -23519 
  -23504   -23491   -23481   -23483   -23488   -23490   -23500   -23522 
  -23550   -23572   -23587   -23606   -23641   -23697   -23757   -23795 
  -23814   -23818   -23820   -23843   -23868   -23876   -23869   -23839 
  -23816   -23835   -23874   -23904   -23916   -23911   -23903   -23900 
  -23896   -23892   -23890   -23870   -23838   -23818   -23803   -23793 
  -23793   -23803   -23814   -23824   -23835   -23846   -23870   -23899 
  -23904   -23886   -23866   -23841   -23831   -23857   -23882   -23893 
  -23899   -23912   -23951   -24001   -24034   -24061   -24088   -24101 
  -24115   -24131   -24146   -24155   -24151   -24140   -24132   -24131 
  -24139   -24159   -24186   -24208   -24204   -24185   -24162   -24123 
  -24086   -24082   -24102   -24127   -24136   -24127   -24115   -24108 
  -24104   -24102   -24086   -24055   -24019   -23969   -23916   -23880 
  -23850   -23818   -23793   -23780   -23772   -23781   -23808   -23838 
  -23859   -23869   -23854   -23822   -23800   -23801   -23808   -23814 
  -23799   -23770   -23754   -23757   -23768   -23770   -23743   -23706 
  -23677   -23658   -23661   -23685   -23719   -23754   -23777   -23799 
  -23835   -23874   -23913   -23957   -23984   -24000   -24017   -24032 
  -24051   -24065   -24063   -24059   -24055   -24054   -24051   -24038 
  -24027   -24021   -24013   -23998   -23988   -23989   -23988   -23966 
  -23939   -23924   -23919   -23922   -23927   -23928   -23931   -23932 
  -23919   -23897   -23868   -23822   -23788   -23776   -23772   -23766 
  -23750   -23724   -23700   -23660   -23610   -23572   -23556   -23556 
  -23556   -23553   -23579   -23630   -23679   -23723   -23761   -23788 
  -23816   -23843   -23858   -23858   -23849   -23842   -23838   -23828 
  -23812   -23797   -23800   -23820   -23841   -23857   -23869   -23869 
  -23870   -23877   -23876   -23869   -23869   -23878   -23885   -23881 
  -23884   -23908   -23936   -23959   -23981   -23997   -24016   -24036 
  -24036   -24034   -24040   -24042   -24042   -24042   -24036   -24024 
  -24013   -24011   -24009   -24009   -24015   -24027   -24048   -24082 
  -24113   -24129   -24131   -24113   -24094   -24092   -24113   -24140 
  -24142   -24124   -24123   -24144   -24166   -24156   -24128   -24116 
  -24108   -24086   -24071   -24061   -24046   -24039   -24036   -24017 
  -23976   -23932   -23917   -23928   -23938   -23930   -23916   -23931 
  -23973   -23986   -23969   -23957   -23940   -23924   -23932   -23940 
  -23932   -23932   -23936   -23928   -23916   -23903   -23874   -23831 
  -23781   -23735   -23699   -23672   -23639   -23599   -23581   -23598 
  -23622   -23639   -23653   -23672   -23695   -23696   -23679   -23660 
  -23654   -23687   -23753   -23795   -23799   -23787   -23773   -23782 
  -23807   -23820   -23835   -23863   -23884   -23889   -23881   -23859 
  -23850   -23878   -23907   -23899   -23900   -23940   -23986   -24021 
  -24052   -24074   -24093   -24109   -24106   -24104   -24106   -24096 
  -24092   -24104   -24115   -24121   -24132   -24150   -24166   -24148 
  -24094   -24051   -24039   -24011   -23947   -23904   -23908   -23919 
  -23915   -23905   -23909   -23930   -23939   -23926   -23912   -23913 
  -23922   -23924   -23919   -23916   -23915   -23907   -23908   -23926 
  -23928   -23912   -23897   -23885   -23873   -23861   -23858   -23865 
  -23862   -23857   -23857   -23847   -23836   -23843   -23853   -23858 
  -23865   -23880   -23899   -23908   -23912   -23913   -23909   -23901 
  -23893   -23877   -23868   -23872   -23872   -23874   -23893   -23922 
  -23949   -23958   -23957   -23961   -23963   -23965   -23978   -23998 
  -24015   -24024   -24031   -24034   -24031   -24023   -24023   -24023 
  -24019   -24019   -24015   -24011   -24012   -24007   -23993   -23992 
  -24009   -24034   -24054   -24071   -24093   -24127   -24169   -24187 
  -24173   -24152   -24142   -24127   -24113   -24105   -24092   -24081 
  -24077   -24073   -24062   -24047   -24040   -24050   -24061   -24061 
  -24046   -24028   -24024   -24020   -24000   -23985   -23989   -23992 
  -23980   -23955   -23924   -23903   -23899   -23895   -23882   -23874 
  -23878   -23889   -23912   -23942   -23967   -23990   -24017   -24044 
  -24061   -24057   -24052   -24066   -24071   -24050   -24012   -23967 
  -23928   -23896   -23854   -23812   -23784   -23774   -23780   -23782 
  -23778   -23770   -23754   -23741   -23742   -23739   -23726   -23727 
  -23738   -23724   -23692   -23685   -23715   -23746   -23768   -23782 
  -23769   -23755   -23776   -23803   -23830   -23874   -23907   -23905 
  -23900   -23908   -23922   -23932   -23954   -23971   -23959   -23934 
  -23927   -23934   -23950   -23967   -23966   -23953   -23953   -23944 
  -23904   -23842   -23784   -23734   -23695   -23669   -23631   -23568 
  -23517   -23494   -23473   -23458   -23450   -23438   -23438   -23469 
  -23502   -23521   -23548   -23587   -23614   -23623   -23635   -23657 
  -23688   -23719   -23742   -23761   -23784   -23808   -23826   -23828 
  -23812   -23795   -23795   -23822   -23863   -23877   -23854   -23824 
  -23805   -23797   -23792   -23774   -23753   -23750   -23788   -23847 
  -23888   -23916   -23971   -24032   -24069   -24086   -24084   -24077 
  -24081   -24082   -24093   -24120   -24142   -24150   -24160   -24183 
  -24213   -24241   -24271   -24274   -24231   -24183   -24162   -24148 
  -24121   -24074   -24025   -24015   -24027   -24036   -24063   -24123 
  -24186   -24220   -24233   -24267   -24305   -24310   -24297   -24273 
  -24247   -24250   -24279   -24305   -24316   -24312   -24309   -24321 
  -24320   -24298   -24263   -24221   -24174   -24108   -24036   -23993 
  -23967   -23939   -23915   -23901   -23908   -23930   -23943   -23939 
  -23936   -23943   -23957   -23969   -23969   -23961   -23966   -23985 
  -23992   -23977   -23963   -23958   -23955   -23963   -23974   -23969 
  -23959   -23943   -23917   -23903   -23904   -23915   -23932   -23940 
  -23936   -23935   -23938   -23942   -23955   -23982   -24021   -24050 
  -24069   -24098   -24136   -24151   -24144   -24131   -24120   -24106 
  -24094   -24077   -24052   -24025   -23996   -23970   -23946   -23904 
  -23845   -23799   -23769   -23741   -23722   -23716   -23715   -23703 
  -23679   -23657   -23646   -23641   -23647   -23660   -23669   -23683 
  -23692   -23691   -23680   -23658   -23645   -23645   -23643   -23646 
  -23665   -23681   -23689   -23691   -23685   -23692   -23715   -23734 
  -23746   -23750   -23753   -23754   -23753   -23762   -23791   -23828 
  -23881   -23940   -23982   -24009   -24032   -24051   -24058   -24048 
  -24038   -24031   -24024   -24024   -24027   -24030   -24040   -24052 
  -24071   -24102   -24128   -24128   -24115   -24102   -24101   -24104 
  -24102   -24098   -24094   -24092   -24089   -24090   -24101   -24117 
  -24113   -24096   -24077   -24051   -24027   -24017   -24007   -23986 
  -23961   -23923   -23892   -23885   -23901   -23924   -23944   -23959 
  -23962   -23951   -23943   -23950   -23944   -23919   -23895   -23880 
  -23858   -23826   -23793   -23770   -23750   -23723   -23711   -23727 
  -23754   -23782   -23820   -23850   -23853   -23842   -23819   -23778 
  -23764   -23776   -23764   -23750   -23782   -23809   -23803   -23809 
  -23823   -23818   -23827   -23841   -23831   -23814   -23801   -23805 
  -23831   -23859   -23895   -23932   -23959   -23974   -23969   -23947 
  -23931   -23912   -23881   -23873   -23899   -23909   -23881   -23866 
  -23895   -23953   -24007   -24017   -24001   -24012   -24043   -24070 
  -24070   -24019   -23959   -23927   -23895   -23861   -23827   -23797 
  -23782   -23766   -23742   -23733   -23735   -23742   -23745   -23734 
  -23726   -23720   -23700   -23679   -23665   -23653   -23650   -23645 
  -23630   -23627   -23642   -23672   -23693   -23704   -23726   -23760 
  -23814   -23877   -23916   -23955   -24020   -24069   -24106   -24165 
  -24220   -24258   -24287   -24312   -24333   -24363   -24395   -24409 
  -24391   -24367   -24344   -24308   -24268   -24227   -24159   -24089 
  -24036   -23994   -23962   -23953   -23947   -23919   -23878   -23849 
  -23832   -23815   -23811   -23815   -23816   -23832   -23855   -23863 
  -23882   -23915   -23934   -23947   -23974   -24016   -24044   -24061 
  -24079   -24097   -24115   -24131   -24128   -24112   -24090   -24063 
  -24052   -24059   -24061   -24066   -24073   -24067   -24062   -24061 
  -24058   -24043   -24005   -23973   -23961   -23955   -23958   -23958 
  -23936   -23915   -23896   -23870   -23847   -23836   -23823   -23800 
  -23768   -23731   -23697   -23672   -23652   -23619   -23571   -23529 
  -23494   -23463   -23454   -23471   -23490   -23503   -23496   -23463 
  -23422   -23390   -23371   -23367   -23373   -23388   -23403   -23430 
  -23471   -23491   -23490   -23499   -23510   -23514   -23522   -23522 
  -23517   -23523   -23535   -23549   -23571   -23598   -23625   -23652 
  -23672   -23668   -23665   -23688   -23716   -23730   -23742   -23768 
  -23797   -23811   -23807   -23801   -23792   -23777   -23762   -23754 
  -23745   -23731   -23726   -23730   -23731   -23735   -23747   -23766 
  -23789   -23816   -23847   -23881   -23927   -23978   -24007   -24023 
  -24042   -24046   -24043   -24048   -24058   -24070   -24081   -24088 
  -24092   -24111   -24144   -24167   -24178   -24196   -24210   -24224 
  -24258   -24301   -24335   -24358   -24362   -24359   -24372   -24402 
  -24433   -24457   -24466   -24463   -24463   -24486   -24529   -24567 
  -24588   -24576   -24525   -24479   -24459   -24436   -24422   -24428 
  -24418   -24397   -24399   -24421   -24439   -24441   -24430   -24412 
  -24399   -24410   -24412   -24386   -24362   -24332   -24291   -24254 
  -24206   -24156   -24136   -24132   -24109   -24077   -24050   -24020 
  -23974   -23931   -23911   -23904   -23909   -23908   -23886   -23862 
  -23861   -23885   -23923   -23943   -23942   -23949   -23970   -23994 
  -24027   -24043   -24020   -23980   -23938   -23903   -23873   -23850 
  -23835   -23819   -23792   -23764   -23739   -23739   -23773   -23811 
  -23823   -23818   -23816   -23835   -23868   -23874   -23841   -23800 
  -23788   -23799   -23804   -23785   -23753   -23730   -23720   -23714 
  -23701   -23704   -23724   -23733   -23712   -23680   -23668   -23696 
  -23739   -23757   -23751   -23738   -23746   -23791   -23835   -23857 
  -23862   -23859   -23854   -23850   -23847   -23857   -23862   -23847 
  -23822   -23800   -23805   -23827   -23838   -23839   -23841   -23861 
  -23899   -23920   -23909   -23892   -23890   -23893   -23890   -23903 
  -23935   -23967   -23981   -23973   -23959   -23965   -23998   -24019 
  -24016   -24004   -23981   -23969   -23971   -23961   -23949   -23953 
  -23955   -23944   -23920   -23900   -23900   -23900   -23895   -23904 
  -23922   -23935   -23936   -23913   -23882   -23854   -23832   -23808 
  -23766   -23724   -23697   -23670   -23650   -23643   -23650   -23674 
  -23699   -23706   -23718   -23746   -23784   -23823   -23842   -23845 
  -23845   -23841   -23836   -23832   -23828   -23830   -23835   -23834 
  -23838   -23861   -23888   -23905   -23922   -23944   -23958   -23957 
  -23951   -23943   -23938   -23950   -23973   -24005   -24039   -24055 
  -24059   -24070   -24078   -24092   -24109   -24116   -24119   -24135 
  -24158   -24175   -24181   -24173   -24159   -24162   -24182   -24197 
  -24202   -24210   -24216   -24220   -24231   -24236   -24235   -24219 
  -24166   -24105   -24066   -24043   -24021   -23985   -23935   -23893 
  -23858   -23838   -23839   -23823   -23782   -23755   -23749   -23757 
  -23772   -23782   -23791   -23799   -23800   -23803   -23818   -23839 
  -23849   -23843   -23831   -23820   -23824   -23834   -23832   -23816 
  -23792   -23778   -23784   -23807   -23839   -23873   -23908   -23947 
  -23986   -24020   -24043   -24042   -24011   -23980   -23977   -23977 
  -23950   -23905   -23862   -23828   -23807   -23792   -23784   -23776 
  -23757   -23745   -23753   -23762   -23762   -23755   -23734   -23695 
  -23665   -23665   -23666   -23649   -23633   -23633   -23653   -23689 
  -23724   -23747   -23764   -23772   -23781   -23796   -23816   -23828 
  -23822   -23797   -23770   -23745   -23733   -23741   -23749   -23742 
  -23731   -23724   -23727   -23735   -23734   -23737   -23743   -23738 
  -23728   -23718   -23711   -23727   -23750   -23755   -23764   -23782 
  -23811   -23843   -23870   -23895   -23920   -23939   -23959   -23974 
  -23997   -24040   -24079   -24101   -24106   -24102   -24090   -24071 
  -24057   -24050   -24032   -23996   -23961   -23932   -23903   -23884 
  -23877   -23873   -23868   -23851   -23842   -23853   -23874   -23924 
  -24003   -24066   -24100   -24139   -24189   -24237   -24278   -24306 
  -24317   -24325   -24339   -24352   -24356   -24345   -24318   -24291 
  -24267   -24233   -24200   -24183   -24182   -24181   -24160   -24123 
  -24090   -24069   -24048   -24019   -23984   -23966   -23981   -24013 
  -24038   -24048   -24051   -24055   -24050   -24034   -24020   -24017 
  -24034   -24062   -24069   -24052   -24046   -24042   -24038   -24039 
  -24032   -24027   -24024   -24016   -24016   -24028   -24032   -24039 
  -24055   -24065   -24065   -24058   -24038   -24013   -23990   -23969 
  -23939   -23907   -23882   -23857   -23815   -23774   -23735   -23701 
  -23677   -23647   -23614   -23591   -23575   -23566   -23557   -23530 
  -23504   -23494   -23492   -23503   -23518   -23537   -23568   -23593 
  -23614   -23633   -23649   -23665   -23685   -23701   -23716   -23727 
  -23738   -23746   -23743   -23730   -23720   -23724   -23751   -23787 
  -23815   -23841   -23857   -23872   -23895   -23913   -23928   -23947 
  -23955   -23954   -23949   -23938   -23928   -23923   -23916   -23904 
  -23885   -23862   -23841   -23823   -23818   -23809   -23789   -23777 
  -23768   -23753   -23749   -23755   -23762   -23787   -23823   -23854 
  -23882   -23920   -23962   -24003   -24044   -24090   -24123   -24139 
  -24150   -24150   -24152   -24177   -24192   -24177   -24159   -24143 
  -24127   -24124   -24120   -24120   -24133   -24150   -24158   -24159 
  -24159   -24148   -24123   -24094   -24057   -24031   -24055   -24079 
  -24077   -24078   -24085   -24094   -24116   -24146   -24159   -24146 
  -24121   -24089   -24063   -24054   -24047   -24054   -24055   -24034 
  -24009   -24007   -24009   -24003   -23994   -23989   -23992   -24003 
  -24001   -23994   -23984   -23949   -23899   -23869   -23847   -23830 
  -23811   -23782   -23754   -23735   -23735   -23758   -23770   -23764 
  -23773   -23803   -23839   -23870   -23895   -23916   -23930   -23940 
  -23958   -23970   -23980   -23993   -23994   -23988   -24003   -24038 
  -24074   -24097   -24096   -24085   -24081   -24082   -24079   -24071 
  -24059   -24061   -24074   -24081   -24071   -24066   -24073   -24074 
  -24059   -24054   -24062   -24077   -24088   -24092   -24093   -24100 
  -24111   -24121   -24120   -24109   -24108   -24105   -24086   -24057 
  -24024   -24011   -24023   -24017   -24000   -24016   -24031   -24023 
  -24030   -24039   -24038   -24046   -24044   -24025   -24020   -24015 
  -23984   -23947   -23930   -23926   -23930   -23944   -23942   -23901 
  -23872   -23866   -23853   -23855   -23865   -23835   -23791   -23753 
  -23712   -23701   -23706   -23676   -23631   -23599   -23573   -23561 
