Origin Time       2024/04/02 04:24:00
Lat.              40.133
Long.             141.712
Depth. (km)       71
Mag.              6.0
Station Code      NMRH02
Station Lat.      43.6772
Station Long.     144.9618
Station Height(m) 165
Record Time       2024/04/02 04:25:51
Sampling Freq(Hz) 100Hz
Duration Time(s)  120
Dir.              6
Scale Factor      3920(gal)/6170801
Max. Acc. (gal)   2.172
Last Correction   2024/04/02 04:25:36
Memo.             
[...]
  -36078   -36056   -36204   -36460   -36769   -37017   -37077   -36940 
  -36716   -36516   -36343   -36140   -35962   -35964   -36175   -36422 
  -36469   -36294   -36189   -36394   -36812   -37193   -37360   -37254 
  -36925   -36505   -36164   -36008   -36037   -36219   -36505   -36740 
  -36733   -36469   -36145   -35972   -36036   -36278   -36539   -36687 
  -36716   -36703   -36673   -36598   -36503   -36438   -36416   -36442 
  -36507   -36522   -36418   -36281   -36295   -36528   -36823   -36919 
  -36710   -36371   -36143   -36089   -36164   -36326   -36532   -36746 
  -36856   -36700   -36303   -35925   -35813   -35985   -36259   -36471 
  -36608   -36718   -36755   -36602   -36310   -36140   -36262   -36586 
  -36867   -36928   -36803   -36609   -36424   -36381   -36555   -36795 
  -36871   -36641   -36157   -35720   -35649   -36018   -36606   -37038 
  -37093   -36860   -36553   -36304   -36162   -36133   -36228   -36469 
  -36794   -37039   -37022   -36653   -36138   -35882   -36017   -36314 
  -36512   -36527   -36454   -36422   -36460   -36548   -36693   -36875 
  -36996   -36926   -36630   -36233   -35942   -35924   -36213   -36641 
  -36931   -36918   -36695   -36509   -36491   -36577   -36643   -36616 
  -36467   -36222   -35936   -35709   -35695   -35958   -36384   -36771 
  -36943   -36905   -36792   -36642   -36395   -36118   -36027   -36235 
  -36564   -36709   -36570   -36317   -36146   -36108   -36171   -36315 
  -36543   -36801   -36933   -36820   -36478   -36041   -35743   -35805 
  -36248   -36835   -37186   -37086   -36699   -36384   -36335   -36477 
  -36599   -36568   -36445   -36353   -36340   -36439   -36644   -36842 
  -36951   -36941   -36752   -36399   -36027   -35787   -35822   -36169 
  -36631   -36882   -36732   -36328   -36057   -36147   -36458   -36743 
  -36861   -36768   -36531   -36314   -36240   -36333   -36551   -36776 
  -36861   -36770   -36612   -36495   -36440   -36421   -36432   -36445 
  -36382   -36280   -36260   -36313   -36358   -36358   -36327   -36366 
  -36584   -36873   -36964   -36780   -36485   -36250   -36196   -36393 
  -36756   -37066   -37134   -36920   -36525   -36054   -35589   -35345 
  -35551   -36136   -36780   -37212   -37316   -37128   -36785   -36429 
  -36183   -36127   -36249   -36461   -36619   -36598   -36455   -36363 
  -36359   -36343   -36294   -36325   -36527   -36832   -37070   -37084 
  -36836   -36467   -36129   -35841   -35670   -35793   -36227   -36729 
  -37001   -36878   -36442   -35999   -35861   -36106   -36515   -36767 
  -36731   -36492   -36226   -36157   -36405   -36792   -36986   -36842 
  -36520   -36286   -36234   -36209   -36087   -36000   -36117   -36411 
  -36685   -36766   -36717   -36721   -36754   -36670   -36464   -36252 
  -36165   -36259   -36435   -36558   -36621   -36641   -36566   -36387 
  -36202   -36152   -36252   -36388   -36548   -36816   -37106   -37188 
  -36932   -36409   -35877   -35662   -35949   -36586   -37139   -37267 
  -36973   -36499   -36114   -35948   -35964   -36112   -36354   -36610 
  -36785   -36788   -36587   -36314   -36161   -36239   -36479   -36614 
  -36496   -36288   -36227   -36398   -36686   -36863   -36824   -36642 
  -36474   -36457   -36558   -36588   -36458   -36340   -36457   -36772 
  -37017   -36962   -36632   -36296   -36158   -36154   -36163   -36234 
  -36480   -36813   -36942   -36701   -36242   -35911   -35968   -36338 
  -36699   -36837   -36782   -36638   -36422   -36114   -35845   -35832 
  -36117   -36561   -36965   -37163   -37125   -36900   -36517   -36042 
  -35624   -35413   -35528   -36003   -36671   -37243   -37519   -37429 
  -36982   -36301   -35634   -35259   -35334   -35823   -36506   -37089 
  -37362   -37312   -37076   -36784   -36494   -36239   -36080   -36059 
  -36128   -36239   -36392   -36556   -36690   -36741   -36607   -36286 
  -35988   -35933   -36189   -36680   -37135   -37219   -36906   -36479 
  -36193   -36085   -36103   -36254   -36564   -36925   -37100   -36939 
  -36507   -36019   -35791   -36031   -36561   -36983   -37092   -36942 
  -36666   -36380   -36147   -36005   -36047   -36334   -36760   -37055 
  -36934   -36344   -35616   -35269   -35580   -36327   -37000   -37262 
  -37148   -36902   -36675   -36433   -36160   -35976   -36043   -36381 
  -36770   -36917   -36763   -36495   -36328   -36326   -36379   -36402 
  -36442   -36575   -36772   -36877   -36747   -36410   -36064   -35941 
  -36129   -36463   -36669   -36648   -36540   -36514   -36569   -36570 
  -36462   -36340   -36316   -36401   -36501   -36571   -36673   -36804 
  -36864   -36769   -36522   -36196   -35918   -35884   -36203   -36723 
  -37110   -37107   -36738   -36287   -36049   -36123   -36388   -36602 
  -36622   -36539   -36496   -36493   -36486   -36452   -36343   -36165 
  -36026   -36026   -36215   -36535   -36791   -36851   -36754   -36563 
  -36392   -36395   -36594   -36810   -36774   -36432   -36029   -35830 
  -35944   -36298   -36635   -36727   -36542   -36210   -35969   -36027 
  -36378   -36817   -37084   -37027   -36715   -36357   -36151   -36188 
  -36403   -36634   -36756   -36727   -36581   -36412   -36325   -36363 
  -36431   -36414   -36367   -36418   -36543   -36608   -36595   -36616 
  -36701   -36694   -36467   -36169   -36094   -36330   -36659   -36786 
  -36621   -36355   -36259   -36371   -36485   -36487   -36503   -36664 
  -36896   -36967   -36712   -36266   -35963   -35957   -36084   -36153 
  -36163   -36182   -36275   -36469   -36614   -36522   -36294   -36273 
  -36632   -37105   -37219   -36840   -36311   -36030   -36126   -36455 
  -36731   -36854   -36960   -37009   -36780   -36278   -35771   -35573 
  -35832   -36343   -36711   -36761   -36634   -36543   -36577   -36609 
  -36436   -36085   -35830   -35921   -36369   -36920   -37212   -37113 
  -36824   -36551   -36298   -36055   -35944   -36106   -36491   -36812 
  -36823   -36586   -36380   -36418   -36637   -36729   -36506   -36184 
  -36118   -36372   -36704   -36844   -36731   -36505   -36297   -36160 
  -36155   -36338   -36652   -36960   -37134   -37058   -36670   -36086 
  -35637   -35656   -36111   -36595   -36726   -36498   -36236   -36255 
  -36526   -36760   -36768   -36633   -36543   -36544   -36544   -36453 
  -36269   -36157   -36287   -36574   -36777   -36736   -36458   -36150 
  -36061   -36220   -36442   -36552   -36533   -36506   -36531   -36528 
  -36450   -36342   -36268   -36296   -36435   -36584   -36665   -36705 
  -36724   -36738   -36782   -36779   -36608   -36328   -36131   -36117 
  -36220   -36323   -36397   -36471   -36530   -36539   -36522   -36534 
  -36573   -36568   -36476   -36351   -36317   -36446   -36597   -36538 
  -36260   -36048   -36193   -36669   -37144   -37265   -36965   -36494 
  -36148   -36019   -36057   -36207   -36387   -36489   -36496   -36488 
  -36507   -36549   -36638   -36772   -36828   -36672   -36363   -36126 
  -36116   -36304   -36533   -36616   -36475   -36247   -36157   -36274 
  -36465   -36581   -36610   -36635   -36718   -36814   -36793   -36612 
  -36368   -36164   -36092   -36212   -36460   -36720   -36905   -36928 
  -36754   -36452   -36128   -35896   -35851   -36011   -36324   -36686 
  -36937   -36916   -36619   -36267   -36155   -36383   -36720   -36796 
  -36502   -36131   -36052   -36338   -36746   -36912   -36678   -36297 
  -36140   -36302   -36588   -36747   -36694   -36537   -36378   -36196 
  -35988   -35853   -35925   -36258   -36721   -37050   -37069   -36799 
  -36404   -36107   -36027   -36105   -36268   -36506   -36775   -36978 
  -37003   -36788   -36428   -36128   -36027   -36137   -36426   -36834 
  -37188   -37233   -36860   -36237   -35702   -35578   -35912   -36379 
  -36599   -36499   -36332   -36405   -36734   -37033   -37062   -36842 
  -36526   -36225   -36025   -36012   -36211   -36550   -36882   -37067 
  -37019   -36719   -36345   -36198   -36368   -36679   -36894   -36862 
  -36617   -36326   -36158   -36210   -36399   -36522   -36498   -36390 
  -36283   -36292   -36475   -36700   -36774   -36625   -36367   -36208 
  -36236   -36339   -36364   -36289   -36268   -36419   -36597   -36594 
  -36444   -36341   -36395   -36495   -36424   -36166   -35988   -36126 
  -36498   -36768   -36685   -36379   -36174   -36257   -36625   -37055 
  -37232   -37050   -36635   -36163   -35848   -35883   -36231   -36636 
  -36845   -36768   -36528   -36339   -36294   -36360   -36475   -36566 
  -36635   -36701   -36658   -36426   -36120   -35906   -35868   -35999 
  -36190   -36343   -36473   -36620   -36767   -36871   -36886   -36793 
  -36617   -36412   -36259   -36251   -36429   -36678   -36785   -36716 
  -36650   -36683   -36745   -36736   -36607   -36414   -36251   -36170 
  -36163   -36158   -36154   -36293   -36635   -36992   -37029   -36581 
  -35976   -35780   -36141   -36659   -36892   -36760   -36476   -36258 
  -36135   -36017   -35903   -35928   -36223   -36684   -36963   -36875 
  -36629   -36510   -36585   -36715   -36690   -36464   -36198   -36072 
  -36193   -36525   -36832   -36904   -36759   -36576   -36507   -36556 
  -36617   -36571   -36362   -36053   -35771   -35597   -35588   -35781 
  -36224   -36934   -37696   -38101   -37876   -37090   -36171   -35666 
  -35812   -36397   -36999   -37273   -37116   -36619   -35939   -35346 
  -35232   -35801   -36764   -37503   -37567   -37042   -36402   -36040 
  -36036   -36262   -36514   -36649   -36662   -36603   -36554   -36595 
  -36666   -36658   -36546   -36333   -36067   -35852   -35745   -35791 
  -36038   -36433   -36899   -37340   -37539   -37397   -37058   -36698 
  -36439   -36361   -36421   -36457   -36374   -36299   -36401   -36602 
  -36655   -36437   -36061   -35779   -35744   -35901   -36079   -36164 
  -36235   -36427   -36636   -36627   -36359   -36066   -36050   -36330 
  -36606   -36648   -36506   -36399   -36544   -36828   -36845   -36497 
  -36160   -36237   -36780   -37410   -37637   -37317   -36700   -36148 
  -35903   -35914   -35946   -35928   -35939   -35977   -36020   -36061 
  -36038   -35924   -35838   -36008   -36630   -37611   -38452   -38624 
  -37991   -36853   -35721   -35006   -34847   -35109   -35572   -36158 
  -36847   -37450   -37702   -37541   -37192   -36916   -36720   -36452 
  -36091   -35787   -35721   -35980   -36425   -36739   -36744   -36559 
  -36391   -36261   -36056   -35834   -35889   -36383   -37064   -37446 
  -37277   -36733   -36189   -35917   -35972   -36220   -36489   -36697 
  -36843   -36956   -37012   -36901   -36605   -36256   -35972   -35875 
  -36080   -36473   -36752   -36796   -36718   -36571   -36330   -36077 
  -35965   -36013   -36079   -36115   -36293   -36715   -37185   -37401 
  -37205   -36677   -36055   -35553   -35243   -35194   -35530   -36223 
  -36931   -37180   -36787   -36104   -35813   -36378   -37558   -38541 
  -38652   -37906   -36927   -36286   -35964   -35627   -35210   -35004 
  -35251   -35796   -36243   -36385   -36334   -36359   -36615   -36897 
  -36828   -36439   -36227   -36496   -36976   -37206   -36990   -36484 
  -36017   -35853   -36039   -36402   -36735   -36992   -37181   -37224 
  -37036   -36647   -36211   -35959   -36065   -36478   -36932   -37129 
  -36853   -36082   -35155   -34653   -34920   -35810   -36875   -37686 
  -38021   -37835   -37260   -36622   -36209   -36126   -36350   -36690 
  -36867   -36765   -36561   -36498   -36505   -36238   -35575   -34861 
  -34688   -35417   -36870   -38429   -39323   -39025   -37651   -35825 
  -34293   -33729   -34380   -35804   -37219   -38054   -38220   -37975 
  -37505   -36786   -35864   -35042   -34738   -35195   -36199   -37210 
  -37796   -37888   -37698   -37411   -36953   -36258   -35637   -35508 
  -35860   -36294   -36429   -36193   -35892   -35916   -36339   -36849 
  -37064   -36916   -36649   -36426   -36169   -35838   -35525   -35298 
  -35244   -35434   -35805   -36302   -36930   -37567   -37925   -37657 
  -36669   -35459   -34827   -35193   -36318   -37540   -38208   -38079 
  -37377   -36476   -35642   -35076   -34908   -35165   -35857   -36864 
  -37791   -38283   -38364   -38202   -37748   -36867   -35664   -34579 
  -34106   -34372   -35076   -35838   -36423   -36707   -36743   -36770 
  -36900   -37033   -37101   -37058   -36896   -36811   -37019   -37453 
  -37814   -37803   -37354   -36705   -36110   -35570   -35027   -34738 
  -35138   -36261   -37554   -38334   -38256   -37362   -36067   -35079 
  -34899   -35433   -36239   -36940   -37393   -37595   -37516   -37135 
  -36540   -35951   -35593   -35479   -35444   -35377   -35327   -35416 
  -35786   -36535   -37495   -38220   -38367   -37997   -37380   -36634 
  -35759   -35072   -35145   -36162   -37608   -38586   -38399   -37118 
  -35625   -34821   -34801   -35066   -35287   -35578   -36125   -36773 
  -37064   -36701   -35971   -35537   -35741   -36386   -37097   -37583 
  -37631   -37160   -36331   -35438   -34834   -34854   -35533   -36616 
  -37749   -38444   -38414   -37911   -37373   -36945   -36526   -36134 
  -35945   -35972   -36077   -36119   -35970   -35609   -35147   -34834 
  -34982   -35651   -36593   -37487   -38055   -38118   -37692   -37004 
  -36366   -35916   -35597   -35406   -35380   -35484   -35704   -36061 
  -36526   -37079   -37670   -38116   -38145   -37629   -36786   -36032 
  -35719   -35972   -36583   -37169   -37484   -37497   -37180   -36528 
  -35835   -35458   -35424   -35586   -35823   -36109   -36557   -37164 
  -37716   -38042   -37993   -37383   -36292   -35205   -34739   -35275 
  -36594   -37855   -38212   -37399   -35727   -33949   -33050   -33631 
  -35421   -37489   -38906   -39301   -38855   -37906   -36786   -35961 
  -35784   -36050   -36223   -35965   -35390   -35013   -35332   -36351 
  -37560   -38339   -38318   -37538   -36464   -35679   -35413   -35494 
  -35654   -35709   -35586   -35374   -35328   -35620   -36072   -36391 
  -36585   -36797   -36860   -36511   -36001   -36024   -36991   -38461 
  -39419   -39174   -37827   -36105   -34811   -34327   -34704   -35708 
  -36750   -37325   -37289   -36728   -35942   -35247   -34782   -34715 
  -35291   -36372   -37365   -37777   -37481   -36677   -35860   -35441 
  -35450   -35799   -36453   -37291   -37987   -38173   -37827   -37239 
  -36546   -35797   -35353   -35594   -36415   -37348   -37949   -38059 
  -37731   -37017   -36145   -35568   -35508   -35877   -36532   -37198 
  -37549   -37462   -37057   -36673   -36641   -36900   -37075   -36839 
  -36139   -35313   -34830   -34844   -35193   -35609   -35918   -36154 
  -36389   -36633   -36949   -37428   -38020   -38468   -38416   -37693 
  -36486   -35221   -34309   -33995   -34242   -34788   -35446   -36157 
  -36852   -37473   -37885   -37893   -37618   -37440   -37550   -37812 
  -37898   -37584   -36949   -36195   -35552   -35158   -34874   -34499 
  -34122   -34099   -34700   -35852   -37187   -38235   -38755   -38826 
  -38458   -37519   -36156   -34885   -34134   -33895   -33995   -34449 
  -35326   -36560   -37991   -39227   -39664   -39030   -37728   -36470 
  -35724   -35484   -35435   -35335   -35208   -35235   -35554   -36176 
  -36970   -37626   -37792   -37364   -36626   -36033   -35870   -36132 
  -36618   -37035   -37115   -36771   -36151   -35550   -35270   -35507 
  -36256   -37192   -37768   -37763   -37504   -37358   -37395   -37490 
  -37396   -36936   -36238   -35594   -35257   -35308   -35555   -35812 
  -36159   -36664   -37078   -36982   -36246   -35241   -34569   -34714 
  -35716   -37015   -37923   -38188   -37899   -37242   -36500   -35996 
  -35914   -36205   -36666   -37043   -37156   -37077   -37048   -37185 
  -37349   -37251   -36723   -35895   -35099   -34678   -34872   -35775 
  -37163   -38451   -39049   -38697   -37503   -35994   -34955   -34767 
  -35069   -35383   -35682   -36075   -36477   -36762   -36898   -36969 
  -37053   -37015   -36616   -35856   -35034   -34575   -34854   -35909 
  -37222   -38015   -37858   -36958   -35924   -35318   -35365   -35871 
  -36421   -36767   -36889   -36811   -36577   -36306   -36150   -36182 
  -36347   -36536   -36671   -36714   -36716   -36753   -36768   -36705 
  -36670   -36798   -37102   -37434   -37585   -37461   -37045   -36344 
  -35491   -34751   -34433   -34726   -35538   -36584   -37604   -38380 
  -38700   -38521   -37993   -37289   -36590   -36044   -35571   -35029 
  -34514   -34284   -34520   -35171   -35976   -36725   -37332   -37717 
  -37829   -37622   -37019   -36162   -35439   -35109   -35130   -35336 
  -35641   -36153   -36967   -37924   -38710   -38973   -38471   -37360 
  -36142   -35213   -34683   -34555   -34868   -35626   -36578   -37329 
  -37749   -37983   -38091   -37888   -37161   -36019   -34929   -34429 
  -34837   -35948   -37049   -37549   -37464   -37215   -37121   -37166 
  -37216   -37290   -37451   -37548   -37211   -36230   -34987   -34250 
  -34489   -35547   -36839   -37743   -37933   -37469   -36648   -35784 
  -35092   -34756   -34939   -35596   -36476   -37344   -38062   -38504 
  -38497   -37927   -36870   -35555   -34303   -33446   -33310   -34136 
  -35813   -37806   -39353   -39749   -38868   -37343   -35904   -34890 
  -34263   -33845   -33739   -34271   -35453   -36919   -38199   -38941 
  -39092   -38740   -37882   -36559   -35115   -34155   -34191   -35192 
  -36491   -37318   -37347   -36742   -35973   -35496   -35463   -35817 
  -36537   -37526   -38465   -38989   -38864   -38013   -36632   -35182 
  -34107   -33702   -34164   -35440   -37074   -38403   -38943   -38635 
  -37786   -36773   -35912   -35491   -35622   -36129   -36713   -37036 
  -36853   -36270   -35630   -35262   -35334   -35766   -36364   -36933 
  -37256   -37248   -37054   -36889   -36891   -37009   -37028   -36834 
  -36465   -36027   -35694   -35600   -35731   -36046   -36534   -37098 
  -37583   -37846   -37744   -37224   -36467   -35804   -35429   -35228 
  -35041   -35015   -35391   -36107   -36799   -37076   -36815   -36283 
  -35952   -36125   -36598   -36871   -36724   -36384   -36207   -36368 
  -36740   -37110   -37395   -37498   -37236   -36585   -35817   -35339 
  -35427   -36070   -36972   -37687   -37843   -37332   -36408   -35522 
  -34935   -34712   -34955   -35621   -36384   -36882   -36986   -36911 
  -37009   -37327   -37592   -37603   -37374   -37044   -36755   -36471 
  -36066   -35650   -35495   -35696   -36100   -36433   -36526   -36534 
  -36731   -37142   -37515   -37534   -37052   -36227   -35415   -34954 
  -34926   -35127   -35374   -35718   -36286   -36981   -37421   -37364 
  -37017   -36749   -36702   -36781   -36788   -36552   -36126   -35802 
  -35805   -36089   -36456   -36753   -36990   -37194   -37195   -36820 
  -36232   -35848   -35944   -36447   -37059   -37470   -37536   -37382 
  -37251   -37214   -37096   -36728   -36223   -35840   -35668   -35609 
  -35568   -35571   -35682   -35913   -36252   -36663   -37025   -37187 
  -37104   -36947   -36958   -37157   -37334   -37286   -36965   -36491 
  -36053   -35798   -35761   -35897   -36205   -36684   -37140   -37211 
  -36661   -35633   -34628   -34137   -34309   -34996   -35913   -36755 
  -37348   -37639   -37642   -37436   -37113   -36780   -36552   -36376 
  -36125   -35835   -35654   -35730   -36178   -36881   -37490   -37730 
  -37615   -37285   -36820   -36314   -35921   -35791   -35959   -36243 
  -36439   -36522   -36531   -36463   -36316   -36128   -36002   -36078 
