Origin Time       2024/04/02 04:24:00
Lat.              40.133
Long.             141.712
Depth. (km)       71
Mag.              6.0
Station Code      NMRH03
Station Lat.      43.5508
Station Long.     144.9665
Station Height(m) -197.5
Record Time       2024/04/02 04:25:49
Sampling Freq(Hz) 100Hz
Duration Time(s)  130
Dir.              3
Scale Factor      2942(gal)/8224139
Max. Acc. (gal)   0.611
Last Correction   2024/04/02 04:25:49
Memo.             
[...]
 -136746  -137056  -137091  -136969  -137091  -137304  -137469  -137497 
 -137304  -137184  -137297  -137220  -136792  -136580  -136888  -137235 
 -137232  -137070  -137097  -137377  -137550  -137467  -137385  -137246 
 -136969  -136831  -136864  -136935  -137150  -137425  -137430  -137211 
 -137151  -137224  -137200  -137166  -137143  -137118  -137204  -137192 
 -136981  -136864  -136900  -137038  -137222  -137295  -137350  -137451 
 -137401  -137215  -137068  -136977  -136972  -137127  -137211  -137019 
 -136977  -137307  -137473  -137254  -137046  -137073  -137191  -137141 
 -136954  -136962  -137112  -137061  -136930  -136985  -137164  -137421 
 -137690  -137721  -137498  -137169  -136877  -136829  -136912  -136858 
 -136854  -137093  -137204  -137030  -136910  -136900  -136911  -136964 
 -137058  -137169  -137127  -136954  -136992  -137236  -137354  -137218 
 -137000  -136960  -137188  -137475  -137559  -137430  -137226  -137042 
 -136933  -136962  -137104  -137146  -137097  -137168  -137273  -137230 
 -137068  -136977  -136989  -136945  -137016  -137293  -137355  -137128 
 -137029  -137168  -137357  -137469  -137365  -137106  -137033  -137215 
 -137442  -137458  -137150  -136887  -136881  -136884  -136910  -137076 
 -137265  -137332  -137234  -137218  -137448  -137505  -137180  -136927 
 -136900  -137018  -137388  -137613  -137327  -137039  -137160  -137358 
 -137273  -136942  -136630  -136674  -137035  -137170  -137043  -137011 
 -136992  -137037  -137215  -137259  -137222  -137180  -137072  -137104 
 -137200  -137097  -137080  -137197  -137080  -137092  -137505  -137716 
 -137546  -137305  -137101  -137083  -137223  -137154  -136911  -136919 
 -137083  -137006  -136763  -136715  -136968  -137146  -137038  -137037 
 -137181  -137108  -137053  -137230  -137254  -137143  -137296  -137473 
 -137376  -137274  -137176  -136991  -137052  -137208  -137007  -136721 
 -136742  -136946  -137146  -137304  -137384  -137363  -137261  -137110 
 -136985  -136976  -136998  -136966  -137022  -137145  -137168  -137168 
 -137177  -137200  -137432  -137709  -137704  -137501  -137258  -137083 
 -136987  -136792  -136615  -136661  -136742  -136803  -137097  -137415 
 -137382  -137231  -137157  -137111  -137228  -137322  -137123  -136980 
 -137096  -137178  -137173  -137273  -137373  -137315  -137312  -137440 
 -137461  -137462  -137529  -137315  -136884  -136821  -137096  -137151 
 -136977  -136958  -137073  -137118  -137139  -137203  -137195  -137126 
 -137116  -137077  -136976  -136956  -136972  -136958  -136991  -137130 
 -137407  -137632  -137447  -137014  -136836  -136961  -137153  -137207 
 -137042  -136911  -137030  -137288  -137570  -137762  -137685  -137284 
 -136884  -136917  -137172  -137154  -136938  -136885  -136991  -136949 
 -136798  -136771  -136790  -136896  -137209  -137454  -137370  -137041 
 -136796  -136888  -137138  -137257  -137197  -137165  -137396  -137712 
 -137678  -137350  -137016  -136723  -136684  -136942  -137095  -137064 
 -137041  -137054  -137062  -137030  -136972  -136899  -136918  -137134 
 -137316  -137242  -137030  -136900  -137042  -137386  -137558  -137451 
 -137370  -137459  -137589  -137550  -137285  -137023  -136841  -136667 
 -136657  -136834  -137060  -137274  -137270  -136998  -136827  -136941 
 -137111  -137184  -137182  -137092  -137018  -137119  -137193  -137061 
 -136983  -137074  -137107  -137035  -137065  -137303  -137639  -137728 
 -137384  -137145  -137373  -137434  -137153  -137137  -137317  -137303 
 -137223  -137119  -136904  -136767  -136879  -137189  -137313  -136979 
 -136655  -136834  -137164  -137135  -136957  -137018  -137114  -137023 
 -137026  -137262  -137579  -137748  -137621  -137366  -137108  -136876 
 -136840  -136906  -136962  -137157  -137323  -137209  -137029  -137101 
 -137346  -137384  -137110  -136854  -136809  -136845  -136894  -136985 
 -137096  -137097  -137026  -137150  -137385  -137398  -137328  -137419 
 -137502  -137401  -137204  -136962  -136740  -136749  -136892  -136973 
 -137218  -137502  -137409  -137242  -137324  -137390  -137263  -137122 
 -137173  -137232  -137039  -136891  -137003  -137091  -137153  -137335 
 -137357  -137236  -137311  -137369  -137288  -137343  -137344  -137034 
 -136787  -136914  -137137  -137185  -137204  -137334  -137390  -137182 
 -136923  -136873  -136941  -137041  -137170  -137209  -137110  -136992 
 -136968  -137007  -137160  -137376  -137355  -137176  -137115  -137195 
 -137344  -137370  -137277  -137301  -137386  -137373  -137269  -137216 
 -137268  -137165  -136818  -136594  -136719  -136891  -136923  -137056 
 -137293  -137373  -137173  -136950  -137011  -137083  -136972  -136914 
 -136896  -136921  -137096  -137228  -137177  -137218  -137400  -137370 
 -137274  -137327  -137296  -137146  -136896  -136682  -136730  -136831 
 -136845  -136871  -137037  -137440  -137682  -137481  -137332  -137500 
 -137498  -137099  -136799  -136837  -136845  -136776  -136896  -137130 
 -137238  -137203  -137153  -137127  -137131  -137230  -137358  -137299 
 -137083  -136935  -136852  -136861  -136995  -137030  -137145  -137505 
 -137694  -137582  -137338  -137131  -137142  -137145  -136985  -136935 
 -137085  -137188  -136993  -136703  -136648  -136773  -137047  -137270 
 -137118  -136971  -137220  -137479  -137473  -137380  -137330  -137320 
 -137228  -137093  -137147  -137270  -137165  -136922  -136844  -136985 
 -137150  -137226  -137231  -137249  -137349  -137320  -137106  -136961 
 -136875  -136818  -136792  -136621  -136510  -136767  -137122  -137292 
 -137382  -137419  -137432  -137643  -137759  -137432  -137112  -137056 
 -137023  -137020  -137084  -137165  -137209  -137112  -137064  -137134 
 -137092  -137115  -137288  -137299  -137226  -137227  -137062  -136694 
 -136571  -136922  -137304  -137404  -137407  -137412  -137459  -137532 
 -137412  -137111  -136888  -136822  -136993  -137378  -137567  -137396 
 -137162  -137076  -137046  -136979  -137025  -137193  -137238  -137155 
 -137134  -137204  -137168  -136929  -136814  -136939  -137073  -137284 
 -137570  -137619  -137405  -137061  -136744  -136722  -136908  -136981 
 -136925  -136931  -137128  -137365  -137393  -137324  -137259  -137054 
 -136885  -136950  -136948  -136790  -136861  -137130  -137208  -137230 
 -137343  -137153  -136825  -137027  -137462  -137505  -137335  -137173 
 -136998  -136995  -137093  -137002  -136921  -137115  -137335  -137308 
 -137224  -137300  -137312  -137124  -136937  -136776  -136714  -136965 
 -137242  -137227  -137197  -137280  -137226  -137081  -137068  -137124 
 -137158  -137278  -137469  -137442  -137166  -137046  -137151  -137209 
 -137292  -137346  -137181  -137112  -137182  -137050  -136977  -137191 
 -137250  -137083  -137142  -137355  -137339  -137126  -136966  -137057 
 -137254  -137292  -137265  -137222  -137219  -137385  -137403  -137107 
 -136923  -136973  -136964  -137026  -137403  -137655  -137540  -137388 
 -137165  -136906  -136919  -136938  -136775  -136930  -137347  -137444 
 -137286  -137087  -136937  -137076  -137272  -137300  -137392  -137490 
 -137465  -137277  -136976  -136906  -137057  -137054  -136975  -137060 
 -137201  -137288  -137408  -137405  -137091  -136875  -136933  -136761 
 -136563  -136942  -137349  -137191  -137007  -137151  -137281  -137259 
 -137189  -137092  -137056  -137147  -137157  -136958  -136811  -136912 
 -137161  -137363  -137323  -137115  -137025  -137064  -137253  -137621 
 -137690  -137245  -136831  -136796  -136914  -136927  -136887  -137000 
 -137305  -137573  -137648  -137644  -137543  -137299  -137123  -136991 
 -136757  -136591  -136598  -136769  -137000  -137045  -137003  -137135 
 -137281  -137350  -137578  -137891  -137926  -137481  -136799  -136422 
 -136329  -136258  -136567  -137239  -137609  -137633  -137544  -137258 
 -137050  -137119  -137089  -136939  -136876  -136850  -136964  -137085 
 -136946  -136802  -136810  -136833  -136935  -137185  -137525  -137826 
 -137727  -137222  -136888  -136788  -136626  -136694  -137122  -137436 
 -137436  -137363  -137317  -137193  -137029  -136934  -136829  -136792 
 -137069  -137362  -137400  -137519  -137616  -137355  -136983  -136723 
 -136695  -136954  -137133  -137084  -137066  -137104  -137195  -137346 
 -137292  -137049  -136976  -137049  -136977  -136895  -137060  -137230 
 -137204  -137164  -137193  -137212  -137118  -137080  -137369  -137629 
 -137454  -137168  -137029  -136891  -136841  -136927  -136900  -136861 
 -137008  -137197  -137382  -137508  -137481  -137421  -137308  -137072 
 -136953  -137085  -137219  -137160  -137112  -137245  -137377  -137304 
 -136971  -136671  -136787  -137133  -137363  -137551  -137721  -137679 
 -137501  -137370  -137199  -137027  -136980  -136945  -136898  -136952 
 -137145  -137255  -137107  -137070  -137282  -137262  -137030  -137076 
 -137469  -137943  -138140  -137741  -137000  -136599  -136572  -136516 
 -136566  -136904  -137223  -137324  -137385  -137523  -137563  -137343 
 -137088  -137127  -137188  -136883  -136628  -136791  -137064  -137189 
 -137066  -136813  -136668  -136530  -136552  -137054  -137681  -137941 
 -137814  -137423  -136921  -136703  -136912  -137112  -137169  -137220 
 -137142  -137178  -137462  -137478  -137342  -137475  -137474  -137214 
 -137107  -137066  -137047  -137139  -136915  -136513  -136593  -136845 
 -136917  -137197  -137489  -137295  -136917  -136809  -137100  -137725 
 -138233  -138156  -137675  -137188  -136674  -136202  -136123  -136397 
 -136745  -137181  -137691  -137945  -137766  -137336  -136968  -136929 
 -137143  -137288  -137199  -136934  -136782  -136890  -137002  -136992 
 -136961  -137041  -137378  -137797  -137847  -137312  -136602  -136486 
 -136954  -137266  -137150  -136884  -136833  -137060  -137138  -136981 
 -137033  -137185  -137011  -136660  -136564  -136856  -137120  -136863 
 -136532  -136934  -137774  -138180  -138113  -138059  -137899  -137450 
 -137118  -136845  -136425  -136398  -136945  -137519  -137608  -137278 
 -137169  -137392  -137390  -137134  -136872  -136533  -136364  -136544 
 -136607  -136499  -136625  -136872  -136995  -137108  -137208  -137243 
 -137274  -137101  -136804  -136834  -136991  -137033  -137165  -137331 
 -137585  -137844  -137485  -136842  -136784  -137147  -137565  -137751 
 -137316  -136672  -136459  -136620  -136979  -137394  -137535  -137442 
 -137424  -137301  -136868  -136543  -136760  -137250  -137470  -137286 
 -136939  -136825  -137004  -137172  -137268  -137284  -137297  -137551 
 -137751  -137608  -137390  -137273  -137251  -137236  -137056  -136765 
 -136796  -137436  -138040  -137808  -137204  -137114  -137245  -136900 
 -136389  -136401  -136930  -137425  -137539  -137494  -137443  -137180 
 -136779  -136556  -136687  -137127  -137532  -137598  -137478  -137455 
 -137555  -137637  -137397  -136715  -136264  -136537  -137023  -137220 
 -137187  -137142  -137020  -136570  -136312  -136911  -137667  -137721 
 -137586  -137821  -137897  -137552  -137380  -137504  -137529  -137450 
 -137344  -137062  -136694  -136464  -136491  -136838  -137165  -137212 
 -137353  -137447  -136992  -136418  -136240  -136282  -136453  -136782 
 -137029  -136929  -136660  -136736  -137230  -137770  -138130  -138379 
 -138451  -138098  -137511  -137014  -136513  -136112  -136058  -136293 
 -136653  -136776  -136611  -136838  -137358  -137398  -137312  -137574 
 -137625  -137303  -137174  -137351  -137405  -137107  -136760  -136872 
 -137415  -137848  -137917  -137674  -137226  -136954  -136952  -136815 
 -136655  -136726  -136773  -136907  -137226  -137342  -137569  -138261 
 -138744  -138576  -138168  -137961  -137868  -137388  -136439  -135712 
 -135538  -135576  -135888  -136524  -137058  -137486  -137772  -137636 
 -137411  -137305  -136961  -136564  -136671  -137004  -137027  -136938 
 -136788  -136567  -136863  -137546  -137799  -137548  -137274  -137170 
 -137022  -136819  -136877  -137184  -137458  -137570  -137455  -137261 
 -137381  -137646  -137685  -137878  -138157  -137862  -137344  -137176 
 -137157  -137107  -136849  -136251  -135905  -136266  -136880  -137239 
 -137276  -137250  -137346  -137265  -136868  -136513  -136406  -136494 
 -136732  -136966  -136980  -136717  -136333  -136181  -136580  -137354 
 -137893  -137890  -137616  -137435  -137435  -137493  -137452  -137338 
 -137270  -137301  -137394  -137350  -137243  -137488  -137957  -138148 
 -137965  -137647  -137328  -136890  -136289  -135841  -135707  -135681 
 -135870  -136417  -136857  -137130  -137609  -137994  -137910  -137442 
 -136906  -136718  -136794  -136806  -136769  -136699  -136699  -137002 
 -137404  -137612  -137830  -138084  -137995  -137678  -137563  -137651 
 -137531  -137034  -136703  -136786  -136875  -136836  -136811  -137026 
 -137408  -137407  -136987  -136707  -136850  -137222  -137486  -137478 
 -137128  -136809  -136840  -136867  -136887  -136996  -137043  -137431 
 -138055  -138200  -137999  -137818  -137590  -137452  -137425  -137354 
 -137569  -137984  -137883  -137295  -136624  -136078  -135969  -136175 
 -136254  -136251  -136491  -137046  -137679  -137902  -137560  -137300 
 -137344  -137211  -136985  -136814  -136443  -136115  -136186  -136478 
 -136853  -137377  -137855  -137921  -137685  -137617  -137759  -137675 
 -137079  -136258  -135820  -135955  -136329  -136474  -136336  -136534 
 -137289  -137876  -137984  -137938  -137756  -137574  -137662  -137647 
 -137454  -137527  -137605  -137397  -137263  -137354  -137411  -137212 
 -136923  -136771  -136756  -136989  -137324  -137353  -137161  -137191 
 -137394  -137363  -137259  -137111  -136333  -135430  -135432  -136048 
 -136637  -137227  -137907  -138365  -138470  -138581  -138596  -138256 
 -137859  -137263  -136321  -135892  -136323  -136892  -137181  -137241 
 -137230  -137293  -137351  -137343  -137238  -136938  -136684  -136790 
 -137034  -137029  -136877  -136817  -136867  -136996  -136958  -136779 
 -136981  -137485  -137709  -137517  -137122  -136822  -136852  -137120 
 -137328  -137278  -137010  -136969  -137440  -137835  -137662  -137270 
 -136945  -136726  -136730  -136844  -136950  -137101  -137184  -137327 
 -137662  -137550  -136867  -136487  -136540  -136618  -136875  -137263 
 -137373  -137421  -137817  -138034  -137501  -136771  -136645  -137253 
 -138076  -138321  -137789  -137178  -137070  -137106  -136617  -135878 
 -135805  -136394  -137010  -137548  -137743  -137299  -136844  -136786 
 -136840  -137012  -137269  -137272  -137112  -137081  -137083  -136966 
 -136831  -136883  -137169  -137346  -137128  -136784  -136701  -136844 
 -137019  -137230  -137326  -137011  -136640  -136887  -137452  -137413 
 -136977  -137092  -137497  -137539  -137502  -137408  -136912  -136385 
 -136289  -136525  -136929  -137440  -137731  -137558  -137250  -137211 
 -137529  -137909  -137897  -137593  -137473  -137679  -137899  -137772 
 -137324  -136783  -136445  -136432  -136491  -136698  -137188  -137548 
 -137562  -137498  -137438  -137308  -137266  -137295  -137130  -136844 
 -136632  -136561  -136637  -136823  -137015  -136971  -136871  -137169 
 -137659  -137875  -137682  -137249  -136844  -136575  -136490  -136593 
 -136804  -137245  -137918  -138400  -138619  -138686  -138177  -137336 
 -136888  -136478  -136084  -136444  -137114  -137332  -137313  -137238 
 -136895  -136456  -136331  -136387  -136512  -136846  -136988  -136749 
 -136507  -136323  -136372  -136779  -137185  -137547  -137848  -137872 
 -137933  -138187  -138138  -137845  -137565  -136935  -136247  -136128 
 -136413  -136864  -137154  -137041  -136971  -137216  -137671  -138037 
 -137822  -137326  -137230  -137257  -137008  -136810  -136768  -136624 
 -136416  -136262  -136289  -136652  -137072  -137191  -137126  -137124 
 -137166  -137191  -137239  -137404  -137789  -138106  -137903  -137457 
 -137241  -137227  -137307  -137315  -137123  -137018  -137235  -137586 
 -137675  -137336  -137010  -137153  -137412  -137231  -136903  -136892 
 -136991  -137093  -137250  -137257  -137261  -137363  -137209  -136895 
 -136814  -136934  -137104  -137317  -137435  -137365  -137305  -137371 
 -137505  -137515  -137272  -137061  -137077  -137178  -137265  -137257 
 -137076  -136746  -136478  -136530  -136860  -137157  -137187  -136954 
 -136661  -136518  -136437  -136233  -136104  -136363  -136919  -137357 
 -137505  -137664  -137972  -138098  -137809  -137431  -137308  -137166 
 -136861  -136772  -137030  -137319  -137319  -137223  -137316  -137133 
 -136653  -136568  -136626  -136514  -136640  -136944  -137220  -137461 
 -137477  -137423  -137486  -137270  -136864  -136888  -137153  -137292 
 -137501  -137631  -137532  -137467  -137326  -136976  -136728  -136742 
 -136891  -136944  -136679  -136402  -136755  -137454  -137695  -137543 
 -137425  -137401  -137403  -137322  -137097  -136799  -136601  -136625 
 -136683  -136684  -136773  -136883  -136908  -136935  -137011  -137130 
 -137301  -137442  -137371  -137162  -137192  -137461  -137579  -137658 
 -137934  -138046  -137799  -137581  -137569  -137617  -137635  -137396 
 -136953  -136872  -137219  -137566  -137592  -137143  -136571  -136289 
 -136254  -136290  -136273  -136337  -136614  -136900  -137060  -137188 
 -137409  -137583  -137640  -137779  -137837  -137659  -137550  -137547 
 -137373  -137096  -137085  -137296  -137363  -137308  -137276  -137199 
 -137016  -136753  -136603  -136683  -136829  -136942  -137026  -137054 
 -137052  -137092  -137119  -137053  -137045  -137134  -137243  -137400 
 -137384  -137158  -137130  -137235  -137120  -136992  -137130  -137205 
 -136961  -136750  -136757  -136773  -136792  -136896  -136975  -136988 
 -137060  -137327  -137725  -137909  -137864  -137791  -137633  -137536 
 -137542  -137335  -137026  -136869  -136854  -136968  -137064  -137076 
 -137154  -137245  -137081  -136721  -136603  -136792  -136996  -137133 
 -137182  -137189  -137292  -137501  -137686  -137700  -137508  -137134 
 -136776  -136711  -136760  -136757  -137007  -137394  -137484  -137373 
 -137339  -137477  -137740  -137835  -137722  -137674  -137512  -137056 
 -136674  -136553  -136545  -136541  -136487  -136475  -136497  -136358 
 -136152  -136197  -136487  -136657  -136709  -136996  -137401  -137673 
 -137903  -138083  -138098  -137940  -137724  -137662  -137697  -137529 
 -137184  -136921  -136840  -136906  -136961  -136837  -136660  -136674 
 -136811  -136917  -137020  -137006  -136841  -136988  -137424  -137451 
 -137096  -136914  -137038  -137425  -137817  -137889  -137887  -137926 
 -137605  -136995  -136426  -135936  -135716  -135812  -136015  -136345 
 -136661  -136787  -137035  -137479  -137749  -137785  -137714  -137633 
 -137835  -138314  -138381  -137768  -137165  -137000  -137020  -136953 
 -136821  -136906  -137207  -137331  -137205  -137053  -137030  -137133 
 -137110  -136895  -136733  -136690  -136665  -136765  -137150  -137563 
 -137687  -137679  -137631  -137450  -137351  -137424  -137390  -137313 
 -137389  -137344  -137115  -137018  -137042  -137011  -136898  -136821 
 -136836  -136750  -136674  -136800  -136873  -136842  -137008  -137261 
 -137270  -137193  -137322  -137536  -137685  -137705  -137529  -137336 
 -137238  -137069  -136883  -136930  -137108  -137157  -137214  -137394 
 -137400  -137173  -136950  -136695  -136401  -136231  -136183  -136308 
 -136687  -137169  -137546  -137716  -137690  -137602  -137623  -137693 
 -137710  -137767  -137810  -137689  -137366  -136881  -136553  -136552 
