Origin Time       2024/04/02 04:24:00
Lat.              40.133
Long.             141.712
Depth. (km)       71
Mag.              6.0
Station Code      NMRH02
Station Lat.      43.6772
Station Long.     144.9618
Station Height(m) 62
Record Time       2024/04/02 04:25:51
Sampling Freq(Hz) 100Hz
Duration Time(s)  120
Dir.              3
Scale Factor      2940(gal)/6170270
Max. Acc. (gal)   0.545
Last Correction   2024/04/02 04:25:36
Memo.             
[...]
  -24921   -24918   -24958   -24958   -24941   -24969   -25025   -25033 
  -24977   -24968   -25038   -25095   -25123   -25112   -25067   -25060 
  -25032   -24941   -24926   -24997   -25028   -24998   -24963   -24964 
  -25003   -25047   -25083   -25102   -25079   -25043   -25032   -25025 
  -25015   -25014   -24994   -24964   -24984   -25043   -25111   -25151 
  -25093   -25019   -25037   -25075   -25064   -25038   -24998   -24956 
  -24963   -25005   -25034   -25064   -25086   -25063   -25029   -25045 
  -25087   -25102   -25090   -25068   -25049   -25027   -24994   -24985 
  -25029   -25091   -25127   -25134   -25121   -25086   -25016   -24910 
  -24813   -24811   -24912   -25017   -25040   -25022   -25051   -25103 
  -25130   -25126   -25044   -24931   -24874   -24819   -24777   -24836 
  -24921   -24908   -24839   -24846   -24954   -25091   -25173   -25169 
  -25131   -25062   -24924   -24822   -24866   -24989   -25078   -25079 
  -24981   -24871   -24868   -24944   -25004   -25015   -25023   -25044 
  -25021   -25011   -25141   -25283   -25242   -25129   -25090   -25044 
  -24952   -24883   -24857   -24892   -24977   -25037   -25032   -24988 
  -24968   -25026   -25111   -25163   -25207   -25220   -25161   -25093 
  -25055   -25002   -24972   -25021   -25037   -24952   -24913   -24974 
  -25016   -25026   -25072   -25093   -25009   -24911   -24927   -25006 
  -25035   -25024   -25026   -25033   -25075   -25147   -25134   -25055 
  -25033   -25028   -24992   -25037   -25180   -25248   -25180   -25096 
  -25064   -25035   -24964   -24881   -24843   -24902   -25029   -25107 
  -25097   -25079   -25084   -25056   -24982   -24979   -25083   -25150 
  -25114   -25054   -25030   -25038   -25052   -25049   -25014   -24960 
  -24944   -24980   -25039   -25129   -25185   -25125   -25005   -24897 
  -24825   -24840   -24953   -25057   -25088   -25079   -25047   -24992 
  -24946   -24936   -24972   -25011   -25005   -24956   -24881   -24859 
  -24981   -25157   -25208   -25104   -24973   -24913   -24915   -24938 
  -24947   -24932   -24915   -24905   -24899   -24882   -24880   -24953 
  -25052   -25103   -25120   -25094   -25035   -24983   -24911   -24830 
  -24836   -24937   -25022   -25033   -25041   -25121   -25200   -25163 
  -25067   -25056   -25093   -25049   -24977   -24986   -25031   -25043 
  -25048   -25078   -25127   -25150   -25109   -25040   -25004   -24990 
  -24967   -24959   -24980   -24996   -24986   -24980   -25002   -25043 
  -25077   -25070   -25040   -25036   -25017   -24964   -24928   -24940 
  -24978   -24986   -24991   -25070   -25169   -25195   -25162   -25133 
  -25122   -25088   -25037   -24997   -24971   -24976   -24992   -25017 
  -25070   -25084   -25043   -25041   -25120   -25230   -25256   -25146 
  -25022   -24976   -24953   -24927   -24931   -24971   -25017   -25049 
  -25077   -25092   -25051   -24987   -24973   -24983   -24976   -24976 
  -25006   -25042   -25038   -24980   -24915   -24899   -24937   -24993 
  -25048   -25065   -25008   -24970   -24999   -24986   -24901   -24847 
  -24865   -24916   -24976   -25016   -25004   -24980   -25004   -25026 
  -25004   -24996   -25008   -25009   -24989   -24945   -24947   -25019 
  -25057   -25051   -25058   -25018   -24912   -24863   -24900   -24939 
  -24973   -25008   -25017   -25019   -25052   -25103   -25112   -25061 
  -25024   -25049   -25093   -25098   -25083   -25071   -25039   -25002 
  -25020   -25080   -25108   -25081   -25046   -25040   -25039   -25014 
  -25008   -25041   -25043   -24998   -24964   -24972   -25009   -25039 
  -25045   -25057   -25078   -25078   -25041   -24997   -24980   -24982 
  -24990   -24999   -25005   -25015   -25026   -25054   -25095   -25082 
  -25014   -24985   -24982   -24947   -24945   -24994   -25014   -25007 
  -25010   -25012   -25004   -24996   -25017   -25060   -25058   -24988 
  -24944   -24978   -25020   -25016   -25033   -25112   -25147   -25120 
  -25097   -25033   -24952   -24942   -24988   -25051   -25095   -25107 
  -25075   -24994   -24942   -24988   -25098   -25191   -25190   -25140 
  -25122   -25096   -25041   -25025   -25021   -24954   -24889   -24906 
  -24968   -25065   -25194   -25232   -25137   -25004   -24889   -24855 
  -24921   -24991   -25029   -25048   -25030   -24968   -24916   -24944 
  -25003   -24994   -24953   -24940   -24917   -24871   -24876   -24975 
  -25056   -25016   -24946   -24957   -25033   -25114   -25142   -25109 
  -25049   -24982   -24927   -24907   -24925   -24977   -25017   -24984 
  -24936   -24961   -25006   -25011   -25061   -25151   -25152   -25113 
  -25115   -25083   -24997   -24976   -25056   -25094   -25009   -24920 
  -24951   -25061   -25101   -25037   -24987   -25001   -25017   -25023 
  -25033   -25030   -25053   -25128   -25180   -25169   -25117   -25007 
  -24867   -24823   -24898   -24955   -24959   -24969   -24970   -25004 
  -25103   -25138   -25054   -24962   -24942   -24983   -25030   -25003 
  -24915   -24879   -24917   -24963   -25001   -25034   -25070   -25106 
  -25108   -25086   -25049   -24994   -24974   -25008   -25039   -25029 
  -24980   -24954   -25009   -25090   -25097   -25033   -24983   -24963 
  -24927   -24904   -24934   -24985   -25070   -25185   -25205   -25111 
  -25032   -25027   -25067   -25099   -25081   -25037   -25009   -25008 
  -25048   -25097   -25049   -24897   -24802   -24850   -24930   -24988 
  -25058   -25089   -25040   -24960   -24924   -24995   -25100   -25102 
  -25059   -25089   -25110   -25024   -24929   -24940   -25038   -25146 
  -25177   -25095   -25008   -25022   -25060   -25023   -24963   -24928 
  -24911   -24910   -24914   -24962   -25043   -25052   -25024   -25038 
  -25061   -25081   -25100   -25091   -25068   -25048   -25009   -24950 
  -24916   -24925   -24931   -24889   -24856   -24897   -24973   -25036 
  -25099   -25136   -25112   -25087   -25095   -25093   -25076   -25054 
  -24993   -24931   -24969   -25079   -25121   -25046   -24956   -24968 
  -25019   -25000   -24972   -24985   -25002   -25018   -25029   -25026 
  -25051   -25114   -25153   -25103   -24991   -24909   -24901   -24953 
  -25041   -25118   -25108   -24999   -24919   -24969   -25052   -25078 
  -25106   -25118   -25038   -24938   -24902   -24904   -24925   -24997 
  -25066   -25040   -24982   -25012   -25104   -25176   -25203   -25193 
  -25150   -25078   -25028   -25039   -25037   -24991   -24961   -24943 
  -24934   -25010   -25126   -25150   -25103   -25070   -25063   -25059 
  -24999   -24893   -24857   -24935   -25037   -25034   -24949   -24907 
  -24910   -24922   -24965   -25020   -25065   -25089   -25074   -25009 
  -24929   -24935   -25074   -25215   -25211   -25081   -24960   -24939 
  -24991   -25058   -25093   -25057   -24964   -24882   -24893   -25002 
  -25087   -25068   -25024   -25014   -25002   -24968   -24953   -24979 
  -24974   -24893   -24867   -24978   -25053   -25007   -24980   -25001 
  -24983   -24972   -25054   -25171   -25206   -25114   -24974   -24905 
  -24946   -25011   -24983   -24926   -24966   -25024   -25033   -25048 
  -25008   -24887   -24872   -25002   -25085   -25058   -25031   -25086 
  -25164   -25149   -25066   -25026   -25017   -25001   -24999   -25023 
  -25080   -25143   -25136   -25074   -25046   -25035   -24991   -24987 
  -25063   -25124   -25107   -25026   -24968   -24979   -24983   -24978 
  -25066   -25218   -25286   -25242   -25172   -25110   -25063   -25060 
  -25061   -24996   -24908   -24884   -24938   -25046   -25157   -25192 
  -25135   -25064   -25020   -24973   -24946   -24956   -24957   -24937 
  -24917   -24896   -24842   -24796   -24876   -25028   -25046   -24962 
  -24959   -24986   -24960   -25021   -25196   -25279   -25218   -25121 
  -25011   -24907   -24884   -24932   -24979   -24978   -24893   -24782 
  -24770   -24865   -24977   -25039   -25048   -25069   -25107   -25122 
  -25140   -25149   -25074   -24928   -24807   -24756   -24760   -24828 
  -24949   -25054   -25117   -25172   -25215   -25192   -25090   -24989 
  -24968   -25012   -25034   -25003   -24974   -24942   -24910   -24973 
  -25117   -25213   -25215   -25155   -25103   -25095   -25080   -25050 
  -25036   -25018   -24971   -24890   -24831   -24893   -25057   -25167 
  -25156   -25126   -25129   -25085   -24993   -24956   -24961   -24918 
  -24868   -24913   -25010   -25027   -25003   -25042   -25093   -25111 
  -25136   -25124   -25047   -24985   -24962   -24941   -24953   -24996 
  -24952   -24818   -24738   -24742   -24803   -24936   -25063   -25099 
  -25073   -25002   -24919   -24905   -24965   -25057   -25160   -25222 
  -25234   -25247   -25267   -25253   -25194   -25126   -25082   -25036 
  -24993   -25001   -24989   -24860   -24741   -24821   -25016   -25115 
  -25109   -25126   -25201   -25257   -25224   -25151   -25099   -24995 
  -24851   -24819   -24882   -24950   -25054   -25149   -25130   -25047 
  -25025   -25067   -25121   -25183   -25229   -25207   -25152   -25123 
  -25095   -25065   -25069   -25069   -25055   -25065   -25058   -24989 
  -24908   -24903   -24982   -25053   -25073   -25088   -25091   -25038 
  -24966   -24926   -24904   -24869   -24857   -24926   -25030   -25081 
  -25048   -24980   -25006   -25117   -25099   -24937   -24824   -24772 
  -24752   -24894   -25126   -25220   -25179   -25109   -25026   -24945 
  -24911   -24965   -25036   -24971   -24781   -24655   -24660   -24700 
  -24767   -24866   -24910   -24943   -25069   -25207   -25213   -25087 
  -24981   -25011   -25102   -25148   -25177   -25198   -25154   -25092 
  -25131   -25218   -25195   -25095   -25027   -24945   -24841   -24800 
  -24845   -24944   -25047   -25111   -25160   -25214   -25233   -25174 
  -25061   -24944   -24821   -24692   -24641   -24711   -24792   -24807 
  -24857   -25032   -25227   -25298   -25252   -25196   -25204   -25257 
  -25288   -25306   -25344   -25351   -25266   -25088   -24866   -24634 
  -24463   -24472   -24613   -24778   -24993   -25220   -25334   -25340 
  -25335   -25335   -25245   -25077   -24970   -24956   -24914   -24773 
  -24642   -24669   -24778   -24787   -24765   -24890   -25070   -25140 
  -25123   -25108   -25158   -25242   -25281   -25272   -25211   -25065 
  -24879   -24764   -24828   -24999   -25084   -25077   -25067   -25038 
  -24987   -24959   -24905   -24746   -24581   -24562   -24687   -24902 
  -25117   -25165   -25058   -24998   -25012   -25002   -25015   -25112 
  -25229   -25322   -25423   -25490   -25394   -25132   -24869   -24712 
  -24623   -24577   -24612   -24738   -24934   -25154   -25317   -25350 
  -25287   -25203   -25072   -24901   -24824   -24887   -25011   -25160 
  -25262   -25197   -25007   -24862   -24840   -24913   -25024   -25133 
  -25239   -25317   -25305   -25220   -25128   -25008   -24851   -24782 
  -24777   -24647   -24531   -24747   -25154   -25364   -25345   -25296 
  -25244   -25093   -24893   -24772   -24746   -24780   -24913   -25148 
  -25315   -25248   -25056   -24976   -25004   -24982   -24913   -24896 
  -24974   -25174   -25426   -25547   -25517   -25457   -25352   -25161 
  -24977   -24906   -25005   -25254   -25476   -25457   -25218   -24977 
  -24842   -24756   -24692   -24653   -24612   -24610   -24763   -25040 
  -25206   -25161   -25075   -25003   -24840   -24665   -24632   -24707 
  -24824   -25027   -25273   -25350   -25124   -24743   -24500   -24507 
  -24641   -24808   -24984   -25096   -25110   -25145   -25287   -25447 
  -25489   -25311   -24895   -24443   -24207   -24209   -24368   -24644 
  -24915   -25080   -25224   -25385   -25431   -25329   -25223   -25233 
  -25346   -25445   -25417   -25266   -25046   -24737   -24433   -24363 
  -24501   -24623   -24697   -24783   -24911   -25137   -25423   -25632 
  -25779   -25939   -25990   -25825   -25557   -25245   -24864   -24511 
  -24330   -24351   -24466   -24620   -24879   -25163   -25310   -25338 
  -25289   -25169   -25072   -25066   -25141   -25245   -25195   -24936 
  -24775   -24944   -25272   -25503   -25551   -25472   -25365   -25212 
  -24921   -24585   -24421   -24428   -24386   -24274   -24355   -24744 
  -25227   -25553   -25666   -25598   -25338   -24911   -24521   -24380 
  -24467   -24657   -24924   -25263   -25570   -25680   -25515   -25206 
  -24957   -24871   -24958   -25102   -25151   -25065   -24871   -24652 
  -24506   -24434   -24428   -24527   -24749   -25039   -25260   -25366 
  -25478   -25553   -25338   -24855   -24513   -24532   -24705   -24850 
  -24999   -25192   -25362   -25387   -25265   -25107   -24962   -24875 
  -24931   -25078   -25177   -25215   -25237   -25227   -25179   -25104 
  -24968   -24774   -24565   -24409   -24436   -24654   -24880   -24990 
  -24987   -24863   -24718   -24706   -24796   -24916   -25081   -25281 
  -25421   -25418   -25374   -25414   -25510   -25582   -25557   -25471 
  -25369   -25173   -24996   -25040   -25099   -24959   -24875   -24960 
  -24927   -24753   -24716   -24817   -24897   -24955   -24940   -24791 
  -24722   -24852   -24942   -24893   -24895   -25078   -25400   -25659 
  -25746   -25786   -25769   -25600   -25382   -25140   -24829   -24566 
  -24422   -24386   -24503   -24721   -24895   -25021   -25160   -25231 
  -25192   -25153   -25141   -25090   -25069   -25085   -24937   -24697 
  -24679   -24831   -24877   -24832   -24846   -24869   -24856   -24904 
  -24996   -25040   -25011   -24946   -24964   -25065   -25089   -24980 
  -24833   -24761   -24791   -24854   -24919   -25017   -25131   -25215 
  -25271   -25248   -25042   -24663   -24245   -23969   -23916   -24052 
  -24420   -25044   -25721   -26146   -26164   -25915   -25617   -25297 
  -24967   -24746   -24673   -24720   -24842   -24869   -24749   -24688 
  -24701   -24647   -24638   -24774   -24945   -25139   -25369   -25487 
  -25450   -25335   -25164   -25018   -24991   -25062   -25195   -25399 
  -25651   -25840   -25867   -25720   -25448   -25149   -24913   -24782 
  -24856   -25147   -25413   -25496   -25496   -25419   -25197   -24917 
  -24672   -24477   -24371   -24450   -24688   -24877   -24978   -25118 
  -25283   -25365   -25242   -24939   -24665   -24531   -24588   -24811 
  -24962   -24995   -25102   -25277   -25374   -25388   -25376   -25218 
  -24911   -24826   -24999   -25079   -25039   -25009   -24957   -24887 
  -24870   -24916   -24973   -25033   -25099   -25135   -25137   -25100 
  -25015   -24869   -24567   -24151   -23936   -24007   -24132   -24320 
  -24647   -24921   -25054   -25146   -25223   -25301   -25380   -25417 
  -25471   -25547   -25478   -25188   -24885   -24787   -24795   -24684 
  -24505   -24450   -24546   -24735   -24992   -25232   -25356   -25406 
  -25464   -25531   -25633   -25720   -25589   -25239   -24880   -24578 
  -24365   -24307   -24340   -24437   -24634   -24874   -25117   -25324 
  -25463   -25624   -25785   -25747   -25499   -25293   -25268   -25244 
  -25074   -24905   -24858   -24889   -24972   -25104   -25178   -25071 
  -24837   -24633   -24548   -24571   -24653   -24815   -25054   -25224 
  -25289   -25360   -25411   -25348   -25231   -25163   -25150   -25208 
  -25351   -25467   -25435   -25293   -25127   -24992   -24975   -25073 
  -25085   -24919   -24764   -24701   -24615   -24544   -24635   -24864 
  -25103   -25253   -25297   -25341   -25433   -25432   -25268   -25044 
  -24818   -24647   -24609   -24658   -24710   -24744   -24766   -24860 
  -25044   -25122   -25020   -24915   -24818   -24651   -24594   -24744 
  -24835   -24736   -24667   -24745   -24833   -24890   -24989   -25080 
  -25148   -25287   -25404   -25347   -25181   -24986   -24840   -24859 
  -24922   -24940   -25062   -25215   -25194   -25061   -24990   -25045 
  -25154   -25224   -25293   -25389   -25418   -25342   -25225   -25046 
  -24808   -24663   -24667   -24737   -24852   -24988   -25077   -25135 
  -25180   -25210   -25294   -25377   -25307   -25150   -25061   -25020 
  -24946   -24837   -24753   -24759   -24772   -24692   -24609   -24594 
  -24599   -24647   -24788   -24973   -25115   -25154   -25074   -24968 
  -24951   -25000   -24987   -24880   -24874   -25115   -25439   -25654 
  -25753   -25787   -25719   -25492   -25221   -25062   -24938   -24727 
  -24513   -24416   -24465   -24667   -24940   -25148   -25309   -25502 
  -25666   -25685   -25580   -25470   -25380   -25257   -25084   -24906 
  -24834   -24915   -25096   -25303   -25410   -25347   -25243   -25161 
  -25022   -24872   -24802   -24800   -24846   -24891   -24929   -25043 
  -25171   -25125   -24886   -24607   -24456   -24458   -24523   -24568 
  -24538   -24527   -24669   -24901   -25160   -25371   -25336   -25104 
  -24917   -24846   -24871   -24873   -24729   -24584   -24614   -24768 
  -24935   -25034   -25041   -25060   -25128   -25096   -24953   -24852 
  -24771   -24652   -24619   -24730   -24908   -25120   -25302   -25389 
  -25455   -25530   -25527   -25414   -25235   -25044   -24853   -24698 
  -24696   -24812   -24839   -24793   -24831   -24926   -25039   -25215 
  -25402   -25485   -25514   -25612   -25663   -25515   -25250   -24996 
  -24799   -24641   -24562   -24649   -24819   -24962   -25132   -25328 
  -25435   -25454   -25418   -25275   -25111   -25022   -24959   -24943 
  -24974   -24913   -24730   -24596   -24638   -24770   -24890   -25062 
  -25265   -25332   -25304   -25325   -25318   -25218   -25127   -25070 
  -24981   -24884   -24846   -24819   -24747   -24716   -24785   -24882 
  -24948   -24978   -24974   -24966   -24990   -25054   -25146   -25232 
  -25237   -25123   -24946   -24808   -24770   -24813   -24886   -24919 
  -24895   -24866   -24824   -24806   -24841   -24802   -24739   -24904 
  -25254   -25477   -25467   -25361   -25238   -25116   -25019   -24893 
  -24771   -24793   -24913   -24982   -25030   -25140   -25253   -25264 
  -25194   -25174   -25182   -25086   -24969   -24995   -25103   -25134 
  -25055   -24939   -24832   -24758   -24762   -24807   -24777   -24685 
  -24666   -24785   -24964   -25099   -25206   -25306   -25331   -25237 
  -25107   -25026   -24934   -24798   -24749   -24797   -24815   -24817 
  -24889   -25040   -25239   -25399   -25434   -25379   -25340   -25290 
  -25106   -24858   -24711   -24638   -24577   -24620   -24812   -25040 
  -25175   -25223   -25247   -25213   -25119   -25050   -25052   -25113 
  -25174   -25225   -25332   -25459   -25518   -25555   -25637   -25686 
  -25585   -25393   -25236   -25077   -24845   -24617   -24492   -24469 
  -24509   -24594   -24731   -24911   -25040   -25017   -24923   -24938 
  -25023   -25058   -25113   -25170   -25121   -25071   -25104   -25100 
  -25040   -25024   -25015   -24929   -24794   -24676   -24592   -24543 
  -24529   -24535   -24628   -24875   -25152   -25348   -25462   -25440 
  -25282   -25130   -25074   -25058   -24974   -24838   -24779   -24814 
  -24849   -24879   -24941   -25020   -25082   -25088   -25068   -25087 
  -25095   -25048   -25033   -25098   -25178   -25197   -25180   -25207 
  -25285   -25354   -25324   -25171   -25012   -24947   -24926   -24870 
  -24811   -24790   -24760   -24678   -24633   -24721   -24816   -24854 
  -24993   -25169   -25186   -25165   -25218   -25220   -25167   -25115 
  -25030   -24985   -25078   -25233   -25309   -25221   -25046   -24957 
  -24916   -24800   -24745   -24848   -24935   -24928   -24925   -24944 
  -25005   -25158   -25308   -25334   -25282   -25235   -25218   -25213 
  -25167   -25052   -24960   -24974   -25031   -25054   -25068   -25086 
