Origin Time       2024/04/02 04:24:00
Lat.              40.133
Long.             141.712
Depth. (km)       71
Mag.              6.0
Station Code      NMRH02
Station Lat.      43.6772
Station Long.     144.9618
Station Height(m) 62
Record Time       2024/04/02 04:25:51
Sampling Freq(Hz) 100Hz
Duration Time(s)  120
Dir.              1
Scale Factor      2940(gal)/6170270
Max. Acc. (gal)   0.773
Last Correction   2024/04/02 04:25:36
Memo.             
[...]
  138278   138309   138321   138293   138290   138349   138419   138445 
  138432   138434   138482   138518   138490   138464   138514   138571 
  138565   138519   138467   138424   138385   138344   138301   138254 
  138223   138243   138323   138434   138490   138448   138395   138430 
  138517   138535   138471   138424   138437   138460   138477   138514 
  138540   138502   138425   138369   138346   138332   138315   138324 
  138360   138381   138391   138445   138528   138573   138553   138513 
  138508   138534   138557   138552   138498   138444   138459   138499 
  138469   138390   138365   138406   138421   138415   138479   138571 
  138578   138524   138487   138447   138377   138344   138396   138476 
  138506   138483   138446   138414   138403   138426   138466   138500 
  138509   138497   138483   138458   138414   138381   138385   138404 
  138429   138462   138480   138477   138489   138510   138493   138457 
  138455   138474   138465   138445   138474   138524   138489   138386 
  138354   138422   138479   138467   138472   138538   138583   138573 
  138547   138513   138463   138404   138359   138353   138371   138368 
  138336   138325   138361   138396   138386   138371   138419   138534 
  138640   138659   138594   138499   138392   138307   138286   138291 
  138323   138450   138623   138703   138682   138660   138628   138515 
  138364   138269   138271   138329   138384   138417   138402   138351 
  138352   138421   138477   138500   138524   138528   138469   138371 
  138309   138329   138376   138357   138304   138315   138406   138529 
  138622   138666   138676   138635   138537   138433   138353   138305 
  138318   138377   138435   138494   138549   138573   138575   138541 
  138475   138425   138411   138424   138448   138480   138520   138502 
  138422   138404   138464   138480   138423   138377   138402   138452 
  138451   138449   138545   138652   138629   138540   138531   138589 
  138589   138511   138452   138469   138498   138471   138425   138424 
  138418   138356   138336   138412   138445   138365   138313   138370 
  138432   138423   138419   138479   138533   138528   138504   138494 
  138488   138458   138389   138336   138350   138399   138449   138478 
  138455   138399   138386   138450   138522   138532   138488   138416 
  138339   138290   138276   138307   138390   138475   138514   138517 
  138486   138440   138425   138442   138460   138452   138415   138363 
  138355   138412   138464   138480   138486   138466   138401   138334 
  138331   138395   138461   138479   138461   138462   138505   138527 
  138485   138442   138433   138401   138347   138338   138361   138353 
  138317   138314   138351   138409   138477   138526   138539   138530 
  138493   138419   138355   138361   138432   138512   138574   138618 
  138617   138581   138556   138538   138504   138478   138458   138408 
  138338   138293   138290   138336   138427   138515   138523   138459 
  138421   138434   138420   138379   138400   138475   138500   138443 
  138381   138359   138359   138395   138496   138616   138650   138572 
  138485   138445   138419   138409   138448   138521   138543   138473 
  138430   138498   138578   138588   138544   138496   138456   138405 
  138359   138332   138304   138303   138349   138414   138484   138548 
  138577   138529   138420   138341   138374   138521   138648   138595 
  138406   138300   138365   138451   138448   138462   138571   138657 
  138628   138599   138677   138747   138665   138493   138406   138441 
  138451   138347   138250   138284   138385   138464   138507   138482 
  138384   138289   138279   138346   138405   138421   138392   138345 
  138348   138405   138438   138443   138505   138652   138776   138778 
  138673   138542   138432   138374   138381   138385   138346   138322 
  138353   138389   138358   138297   138307   138387   138457   138491 
  138548   138602   138534   138405   138381   138449   138495   138489 
  138510   138578   138571   138455   138338   138297   138334   138382 
  138364   138328   138373   138455   138471   138437   138420   138411 
  138365   138301   138279   138294   138304   138303   138303   138331 
  138408   138502   138556   138559   138547   138559   138593   138598 
  138552   138499   138464   138417   138375   138394   138450   138474 
  138451   138421   138442   138528   138604   138593   138503   138422 
  138405   138411   138400   138406   138435   138445   138447   138477 
  138504   138484   138440   138400   138337   138275   138281   138339 
  138376   138381   138403   138467   138566   138669   138702   138620 
  138487   138390   138354   138372   138449   138527   138506   138410 
  138361   138396   138440   138447   138470   138536   138537   138425 
  138341   138366   138432   138463   138438   138391   138370   138389 
  138401   138362   138327   138346   138396   138438   138448   138449 
  138492   138538   138530   138516   138564   138607   138553   138462 
  138451   138515   138561   138536   138467   138410   138386   138388 
  138371   138304   138259   138319   138419   138447   138429   138446 
  138477   138448   138363   138311   138361   138492   138625   138685 
  138651   138557   138466   138413   138401   138390   138349   138349 
  138448   138541   138539   138519   138545   138546   138498   138483 
  138489   138448   138409   138441   138491   138475   138396   138337 
  138365   138437   138459   138430   138405   138381   138346   138348 
  138416   138503   138555   138563   138529   138488   138472   138471 
  138470   138436   138345   138261   138277   138379   138459   138471 
  138461   138467   138464   138421   138387   138423   138520   138633 
  138683   138627   138542   138513   138521   138516   138478   138413 
  138360   138356   138400   138443   138432   138390   138357   138330 
  138329   138384   138461   138530   138582   138586   138536   138457 
  138381   138357   138393   138435   138468   138510   138552   138559 
  138511   138458   138462   138501   138526   138534   138528   138485 
  138422   138398   138422   138436   138403   138369   138368   138354 
  138339   138368   138398   138391   138397   138447   138475   138436 
  138399   138417   138428   138385   138355   138407   138493   138544 
  138559   138573   138589   138591   138579   138532   138449   138385 
  138373   138378   138351   138325   138341   138344   138320   138319 
  138323   138317   138345   138400   138446   138497   138560   138617 
  138640   138589   138487   138404   138366   138350   138332   138330 
  138365   138411   138443   138472   138496   138488   138433   138373 
  138357   138378   138388   138377   138391   138436   138463   138469 
  138500   138552   138543   138461   138410   138434   138483   138508 
  138490   138453   138419   138393   138387   138403   138438   138477 
  138490   138496   138504   138470   138414   138399   138410   138401 
  138387   138391   138398   138395   138389   138412   138502   138602 
  138632   138623   138607   138557   138499   138481   138485   138483 
  138483   138511   138548   138528   138474   138472   138490   138445 
  138381   138393   138445   138443   138404   138415   138463   138464 
  138421   138397   138411   138445   138468   138466   138445   138398 
  138355   138398   138500   138511   138410   138362   138423   138481 
  138486   138507   138584   138630   138589   138548   138563   138558 
  138481   138420   138435   138447   138391   138340   138374   138418 
  138401   138417   138522   138619   138617   138522   138406   138356 
  138380   138406   138391   138383   138415   138411   138339   138285 
  138286   138288   138322   138426   138487   138456   138426   138424 
  138425   138437   138429   138393   138422   138538   138593   138507 
  138399   138394   138426   138367   138274   138295   138395   138455 
  138491   138563   138640   138658   138614   138583   138612   138622 
  138543   138440   138408   138423   138422   138400   138392   138417 
  138445   138429   138383   138361   138373   138392   138412   138450 
  138496   138500   138458   138421   138409   138400   138398   138438 
  138505   138542   138527   138454   138363   138352   138446   138527 
  138483   138424   138512   138664   138690   138573   138460   138468 
  138506   138412   138265   138247   138350   138444   138466   138444 
  138440   138489   138563   138598   138569   138507   138438   138374 
  138371   138460   138539   138520   138493   138517   138515   138484 
  138481   138493   138488   138465   138429   138389   138369   138408 
  138466   138458   138417   138414   138401   138328   138283   138339 
  138428   138491   138519   138470   138364   138340   138432   138525 
  138544   138497   138411   138340   138291   138228   138201   138268 
  138367   138423   138461   138518   138544   138490   138432   138435 
  138449   138424   138401   138408   138413   138427   138492   138569 
  138572   138509   138456   138460   138516   138562   138488   138308 
  138211   138265   138350   138406   138463   138518   138547   138529 
  138487   138484   138520   138518   138435   138321   138267   138325 
  138426   138470   138465   138491   138556   138618   138625   138544 
  138420   138351   138366   138408   138445   138474   138475   138446 
  138421   138427   138446   138466   138507   138526   138477   138426 
  138410   138388   138339   138278   138236   138242   138295   138395 
  138511   138550   138493   138462   138528   138598   138564   138439 
  138351   138394   138502   138558   138523   138455   138438   138467 
  138474   138462   138467   138479   138466   138425   138376   138336 
  138332   138404   138506   138519   138443   138386   138397   138447 
  138488   138508   138519   138496   138415   138336   138331   138360 
  138362   138342   138313   138324   138429   138588   138704   138725 
  138701   138683   138614   138471   138340   138298   138341   138380 
  138339   138276   138271   138302   138328   138354   138377   138378 
  138373   138398   138456   138480   138426   138370   138426   138552 
  138596   138539   138485   138482   138500   138511   138524   138533 
  138501   138451   138450   138511   138604   138679   138672   138576 
  138487   138465   138430   138341   138278   138232   138156   138137 
  138243   138406   138543   138633   138680   138680   138627   138545 
  138434   138305   138221   138202   138227   138324   138497   138681 
  138844   139012   139142   139119   138943   138743   138578   138407 
  138236   138157   138191   138217   138198   138220   138300   138388 
  138447   138454   138416   138336   138240   138161   138100   138070 
  138120   138270   138431   138487   138492   138590   138745   138808 
  138751   138661   138619   138617   138601   138566   138522   138451 
  138358   138298   138280   138303   138433   138636   138743   138701 
  138588   138432   138250   138097   138000   137941   137938   138069 
  138320   138501   138515   138497   138574   138720   138852   138885 
  138814   138698   138515   138290   138206   138352   138564   138674 
  138681   138647   138597   138548   138492   138415   138355   138346 
  138337   138280   138198   138161   138178   138180   138183   138321 
  138571   138731   138728   138656   138573   138495   138443   138390 
  138299   138207   138180   138285   138535   138811   138929   138827 
  138627   138468   138354   138280   138323   138479   138604   138569 
  138441   138426   138542   138596   138550   138536   138539   138438 
  138247   138085   138024   138073   138232   138435   138519   138413 
  138275   138266   138351   138404   138399   138434   138579   138746 
  138804   138738   138642   138581   138548   138527   138498   138432 
  138352   138304   138271   138235   138242   138306   138385   138459 
  138504   138498   138440   138355   138332   138392   138426   138397 
  138374   138362   138338   138364   138478   138604   138621   138461 
  138181   137916   137817   137955   138223   138458   138654   138907 
  139204   139361   139220   138823   138377   138088   138002   138013 
  138060   138154   138220   138185   138171   138335   138595   138753 
  138824   138937   139005   138865   138611   138471   138477   138490 
  138422   138284   138069   137771   137528   137551   137880   138275 
  138461   138465   138447   138390   138238   138093   138113   138334 
  138666   139033   139368   139535   139465   139283   139153   139037 
  138810   138504   138264   138193   138278   138408   138534   138665 
  138698   138578   138442   138366   138240   137994   137782   137820 
  138145   138600   138935   138974   138713   138250   137783   137560 
  137703   138085   138457   138707   138883   138988   138959   138787 
  138567   138439   138476   138619   138686   138571   138495   138705 
  138991   138985   138710   138447   138343   138405   138604   138841 
  138943   138816   138587   138457   138420   138345   138220   138145 
  138154   138149   138065   137954   137875   137909   138073   138251 
  138393   138539   138643   138616   138454   138265   138192   138264 
  138365   138409   138447   138558   138738   138923   139081   139193 
  139168   138951   138686   138537   138425   138192   137951   137974 
  138206   138283   138080   137868   137840   137882   137859   137814 
  137825   137903   138040   138194   138242   138072   137742   137475 
  137425   137532   137779   138304   139094   139803   140071   139948 
  139711   139462   139185   138855   138450   138058   137732   137426 
  137248   137379   137795   138356   138974   139501   139717   139647 
  139578   139552   139289   138724   138174   137899   137783   137629 
  137592   137903   138383   138672   138732   138800   138966   139040 
  138927   138800   138742   138612   138354   138147   138194   138443 
  138643   138766   139042   139453   139626   139333   138757   138212 
  137812   137519   137351   137377   137580   137842   138104   138412 
  138779   139122   139338   139364   139229   139063   138962   138867 
  138683   138439   138230   138080   137968   137962   138120   138309 
  138337   138132   137746   137424   137505   137985   138455   138627 
  138575   138443   138339   138412   138647   138757   138512   137995 
  137446   137041   136936   137227   137764   138294   138740   139148 
  139426   139336   138838   138270   138015   138147   138394   138410 
  138202   138097   138179   138211   138156   138288   138714   139132 
  139200   138952   138659   138416   138110   137736   137501   137540 
  137787   138149   138566   138952   139243   139439   139512   139364 
  138971   138491   138143   137960   137857   137962   138421   138932 
  139070   138857   138590   138438   138424   138550   138771   138983 
  139110   139108   138957   138753   138566   138322   138063   137996 
  138191   138490   138727   138892   138995   138982   138849   138713 
  138688   138691   138518   138233   138201   138556   138961   139100 
  138972   138708   138502   138455   138423   138294   138204   138288 
  138461   138543   138458   138278   138147   138094   138024   137963 
  138044   138304   138661   138925   138925   138712   138440   138192 
  138023   137968   137941   137872   137805   137750   137738   137865 
  138110   138347   138478   138484   138459   138521   138670   138824 
  138952   138997   138826   138483   138279   138314   138297   138084 
  137984   138240   138571   138613   138443   138238   137928   137546 
  137343   137410   137607   137846   138148   138397   138359   138140 
  138222   138755   139332   139580   139490   139179   138719   138241 
  137940   137891   138040   138295   138505   138596   138734   139019 
  139234   139198   139128   139298   139587   139685   139551   139335 
  139009   138453   137825   137499   137594   137845   137997   137954 
  137736   137578   137674   137835   137855   137907   138203   138626 
  138897   138945   138963   139027   138949   138705   138568   138623 
  138646   138522   138425   138534   138779   139010   139184   139273 
  139160   138839   138589   138639   138857   138995   138945   138782 
  138651   138620   138668   138649   138479   138355   138405   138468 
  138388   138140   137835   137670   137714   137859   137971   138041 
  138163   138310   138371   138401   138511   138709   138976   139230 
  139296   139050   138607   138231   137960   137640   137339   137326 
  137637   137962   138077   138098   138162   138260   138411   138598 
  138701   138680   138590   138432   138183   137957   137919   137993 
  137969   137902   138009   138235   138338   138287   138295   138456 
  138602   138583   138468   138386   138389   138462   138581   138789 
  139094   139300   139200   138814   138383   138173   138175   138111 
  137886   137725   137807   138099   138491   138915   139278   139363 
  139160   139002   138989   138847   138463   138027   137778   137798 
  137998   138294   138661   138989   139146   139159   139091   138889 
  138531   138170   137996   138018   138080   138161   138425   138843 
  139096   139018   138816   138695   138573   138414   138396   138497 
  138498   138419   138459   138611   138705   138713   138737   138738 
  138642   138529   138440   138298   138140   138095   138187   138297 
  138283   138164   138081   138066   138063   138066   138085   138139 
  138242   138326   138351   138402   138550   138734   138807   138743 
  138689   138705   138759   138893   139044   138981   138656   138316 
  138202   138296   138416   138495   138612   138744   138767   138675 
  138525   138368   138258   138155   138005   137878   137870   138011 
  138215   138337   138395   138503   138587   138456   138168   138038 
  138162   138317   138364   138361   138364   138385   138433   138499 
  138524   138466   138419   138519   138683   138695   138573   138458 
  138353   138278   138256   138192   138122   138187   138321   138412 
  138494   138605   138696   138681   138548   138433   138366   138219 
  138051   138017   138040   137997   137984   138146   138390   138501 
  138548   138773   139079   139164   139076   139056   139065   138906 
  138560   138177   137889   137704   137643   137853   138348   138903 
  139336   139617   139689   139518   139202   138852   138481   138100 
  137852   137863   138021   138158   138236   138209   138072   137975 
  137996   138049   138078   138142   138287   138461   138595   138702 
  138862   139095   139294   139308   139125   138948   138895   138870 
  138835   138818   138806   138791   138723   138587   138476   138390 
  138272   138149   138002   137827   137736   137736   137778   137901 
  138063   138170   138294   138551   138833   138863   138581   138314 
  138264   138205   138010   137907   138002   138086   138083   138214 
  138543   138857   139022   139104   139150   139112   138977   138787 
  138610   138520   138443   138296   138189   138201   138226   138159 
  138052   138032   138102   138147   138188   138323   138470   138498 
  138513   138640   138725   138583   138330   138202   138159   138068 
  138062   138264   138551   138744   138800   138816   138816   138735 
  138651   138600   138431   138123   137863   137770   137820   137962 
