Origin Time       2024/04/02 04:24:00
Lat.              40.133
Long.             141.712
Depth. (km)       71
Mag.              6.0
Station Code      NMRH05
Station Lat.      43.3900
Station Long.     144.8021
Station Height(m) 92
Record Time       2024/04/02 04:25:41
Sampling Freq(Hz) 100Hz
Duration Time(s)  120
Dir.              4
Scale Factor      7845(gal)/8223790
Max. Acc. (gal)   6.359
Last Correction   2024/04/02 04:25:41
Memo.             
[...]
   18715    18697    18766    18814    18851    18902    18968    19008 
   18976    18860    18696    18592    18624    18760    18912    18968 
   18823    18509    18277    18343    18642    18978    19215    19242 
   19037    18763    18647    18763    19002    19214    19291    19176 
   18937    18739    18650    18635    18666    18709    18742    18731 
   18625    18485    18447    18566    18825    19143    19368    19354 
   19076    18669    18314    18208    18463    18909    19245    19323 
   19171    18894    18666    18667    18891    19101    19129    19003 
   18767    18484    18319    18388    18627    18823    18847    18779 
   18721    18689    18682    18713    18770    18793    18743    18715 
   18824    18993    19010    18786    18490    18361    18488    18809 
   19155    19325    19242    18970    18675    18578    18747    18991 
   19093    19040    18939    18829    18727    18662    18632    18608 
   18634    18810    19159    19487    19519    19218    18762    18334 
   18119    18218    18493    18709    18793    18831    18854    18868 
   18940    19001    18914    18742    18634    18688    18867    19030 
   19090    18974    18689    18449    18446    18648    18891    19043 
   19089    19016    18840    18715    18713    18698    18601    18522 
   18561    18735    18975    19134    19132    19026    18894    18797 
   18816    18932    18998    18916    18719    18546    18513    18592 
   18679    18755    18793    18754    18666    18638    18736    18852 
   18843    18755    18775    18983    19217    19278    19164    18964 
   18729    18520    18470    18615    18779    18862    18900    18882 
   18848    18901    19020    19076    18974    18740    18485    18292 
   18233    18377    18736    19136    19341    19349    19276    19126 
   18937    18836    18859    18901    18844    18674    18453    18310 
   18360    18569    18825    19098    19334    19379    19129    18700 
   18338    18180    18216    18414    18739    19094    19282    19209 
   18990    18829    18836    18916    18913    18839    18796    18774 
   18723    18663    18654    18685    18705    18693    18692    18731 
   18801    18887    18937    18935    18951    18985    18959    18847 
   18671    18461    18283    18218    18314    18570    18928    19244 
   19396    19365    19180    18913    18673    18563    18631    18738 
   18713    18619    18612    18655    18636    18624    18766    19052 
   19359    19526    19442    19148    18790    18482    18280    18223 
   18307    18446    18562    18682    18862    19076    19249    19311 
   19271    19140    18944    18802    18816    18904    18871    18685 
   18527    18446    18339    18339    18611    19032    19352    19408 
   19214    18863    18407    18025    18034    18461    18981    19306 
   19350    19132    18765    18447    18353    18559    18951    19230 
   19203    18933    18654    18623    18843    19078    19188    19183 
   19072    18886    18716    18639    18711    18917    19068    18989 
   18740    18482    18330    18360    18580    18854    19024    19062 
   18920    18532    18080    17901    18117    18586    19111    19510 
   19658    19531    19116    18547    18196    18250    18539    18832 
   19053    19191    19186    19090    19120    19264    19267    19036 
   18682    18334    18061    17923    18037    18423    18952    19388 
   19514    19329    18989    18628    18420    18484    18766    19082 
   19242    19197    18994    18723    18534    18482    18509    18630 
   18833    18964    18976    18971    18970    18918    18790    18608 
   18473    18414    18373    18407    18613    18937    19198    19257 
   19143    18997    18883    18840    18979    19252    19410    19357 
   19192    18935    18589    18357    18381    18517    18639    18800 
   18985    19076    19045    18931    18798    18684    18512    18272 
   18153    18306    18586    18744    18766    18819    18905    18962 
   19028    19087    19022    18812    18658    18787    19128    19413 
   19468    19280    18922    18489    18193    18262    18605    18908 
   19008    18989    18978    18982    18962    18897    18774    18638 
   18581    18635    18708    18715    18674    18588    18482    18482 
   18642    18873    19030    19018    18914    18877    18889    18828 
   18731    18719    18740    18702    18690    18800    18945    19017 
   19066    19155    19172    19016    18758    18511    18316    18254 
   18436    18832    19236    19417    19290    18999    18735    18540 
   18468    18582    18800    19018    19210    19282    19143    18881 
   18625    18412    18284    18311    18495    18790    19070    19122 
   18890    18567    18405    18515    18748    18885    18878    18728 
   18490    18426    18667    19006    19203    19192    19052    18879 
   18751    18778    18982    19219    19332    19264    19067    18796 
   18481    18256    18274    18549    18981    19354    19383    18983 
   18376    17894    17807    18162    18769    19365    19693    19606 
   19246    18891    18673    18616    18706    18846    18906    18881 
   18878    18918    18887    18773    18651    18563    18554    18597 
   18547    18384    18247    18273    18547    18976    19323    19406 
   19133    18669    18380    18443    18760    19095    19265    19242 
   19051    18821    18733    18786    18937    19101    19078    18831 
   18542    18408    18500    18705    18891    18982    18916    18767 
   18700    18777    18943    19052    19055    19051    19006    18819 
   18586    18477    18546    18736    18910    18967    18879    18692 
   18513    18424    18465    18643    18912    19164    19244    19045 
   18696    18428    18361    18499    18767    19001    19064    18920 
   18616    18343    18381    18792    19271    19522    19481    19164 
   18671    18203    18019    18318    18922    19485    19804    19674 
   19045    18312    17950    18104    18593    19152    19560    19619 
   19298    18731    18114    17788    17973    18408    18751    18960 
   19070    19037    18885    18775    18848    19047    19226    19286 
   19206    19064    18895    18711    18623    18628    18608    18584 
   18571    18536    18544    18611    18711    18894    19066    19032 
   18886    18797    18662    18438    18377    18655    19120    19426 
   19406    19306    19357    19387    19179    18794    18507    18493 
   18598    18681    18802    18963    19039    18885    18582    18470 
   18589    18647    18586    18582    18754    19024    19143    19036 
   18847    18661    18538    18547    18670    18794    18824    18831 
   18935    19101    19211    19149    18916    18662    18499    18499 
   18723    18995    19040    18866    18674    18588    18621    18721 
   18819    18878    18837    18696    18611    18694    18885    19075 
   19145    18978    18636    18422    18497    18678    18806    18970 
   19178    19279    19210    19078    18986    18928    18852    18770 
   18808    18952    18947    18720    18508    18458    18527    18631 
   18733    18805    18728    18503    18362    18517    18885    19197 
   19322    19203    18840    18546    18603    18862    19036    18990 
   18755    18495    18358    18389    18553    18767    18916    18879 
   18694    18561    18534    18492    18369    18253    18327    18639 
   19026    19325    19390    19172    18860    18711    18810    18972 
   18949    18783    18702    18809    18999    19151    19240    19167 
   18824    18405    18258    18478    18813    19016    19094    19072 
   18924    18735    18605    18617    18805    19013    19059    18951 
   18833    18808    18840    18852    18850    18856    18839    18727 
   18519    18345    18334    18458    18609    18770    18979    19183 
   19206    18954    18585    18307    18289    18659    19197    19471 
   19329    18940    18531    18270    18315    18717    19206    19444 
   19349    19044    18728    18520    18370    18311    18515    18927 
   19299    19438    19276    18949    18688    18550    18509    18589 
   18720    18684    18457    18349    18577    19029    19441    19593 
   19456    19143    18835    18689    18669    18607    18486    18526 
   18832    19164    19307    19336    19300    19120    18858    18705 
   18642    18532    18391    18237    18156    18364    18850    19287 
   19363    19044    18604    18400    18573    18978    19383    19564 
   19391    18967    18524    18277    18349    18638    18917    19071 
   19097    18998    18804    18571    18370    18347    18635    19093 
   19377    19273    18800    18203    17923    18233    18887    19435 
   19627    19368    18813    18376    18293    18513    18870    19125 
   19068    18713    18304    18080    18157    18511    18932    19198 
   19265    19155    18910    18682    18581    18620    18758    18890 
   18964    18990    18924    18773    18609    18517    18570    18766 
   19028    19225    19194    18949    18717    18673    18796    18912 
   18886    18765    18615    18481    18482    18700    18985    19071 
   18885    18586    18424    18571    18981    19352    19410    19191 
   18925    18715    18544    18441    18458    18611    18844    19052 
   19121    19012    18855    18825    18910    18998    19016    18931 
   18731    18439    18214    18253    18540    18885    19047    18902 
   18636    18508    18520    18581    18736    18978    19138    19129 
   18970    18709    18490    18458    18630    18943    19302    19562 
   19538    19156    18619    18265    18265    18524    18806    18966 
   19026    19001    18871    18711    18651    18728    18809    18819 
   18821    18744    18511    18341    18381    18503    18612    18719 
   18783    18766    18769    18918    19111    19199    19246    19210 
   18993    18820    18868    19022    19190    19286    19224    18994 
   18593    18229    18212    18422    18559    18624    18706    18755 
   18662    18490    18469    18638    18792    18840    18891    19006 
   19083    19021    18814    18511    18307    18449    18856    19255 
   19500    19529    19269    18763    18295    18223    18522    18823 
   18927    18862    18674    18358    18017    17926    18188    18646 
   19184    19665    19921    19934    19727    19346    18909    18516 
   18227    18072    18057    18179    18466    18998    19623    19970 
   19958    19749    19414    19014    18671    18461    18304    18145 
   18108    18235    18451    18751    19043    19219    19311    19354 
   19363    19267    18970    18619    18400    18218    18076    18191 
   18534    18798    18866    18918    19064    19140    19126    19191 
   19267    19165    18831    18384    18088    18117    18504    19099 
   19519    19511    19116    18561    18198    18192    18446    18918 
   19534    19936    19881    19568    19241    18816    18192    17717 
   17793    18225    18534    18517    18250    17898    17624    17570 
   17845    18372    18912    19383    19826    20131    20255    20360 
   20479    20432    20029    19263    18391    17717    17510    17909 
   18624    19322    19882    19990    19396    18391    17570    17273 
   17313    17555    18077    18661    19071    19310    19329    19130 
   18886    18827    18967    19048    18993    18958    19053    19318 
   19597    19630    19271    18536    17755    17385    17689    18621 
   19703    20356    20366    19731    18696    17707    16977    16551 
   16456    16623    17161    18239    19561    20596    21108    21087 
   20528    19535    18500    17774    17442    17676    18608    19863 
   20856    21134    20578    19623    18808    18256    17805    17263 
   16627    16225    16474    17547    19165    20808    22110    22756 
   22500    21508    20092    18442    16854    15782    15699    16619 
   17849    18760    19203    19113    18492    17697    17227    17230 
   17616    18306    18987    19236    18817    17663    16210    15507 
   16380    18663    21334    23338    24079    23471    22026    20520 
   19456    18922    18592    18133    17786    17991    18746    19656 
   20255    20164    19311    18150    17300    16868    16579    16339 
   16216    16322    16853    17803    18789    19431    19743    19993 
   20248    20283    20028    19630    19040    18216    17643    17829 
   18646    19614    20395    20929    21204    21042    20272    18932 
   17278    15723    14675    14477    15160    16225    17201    18092 
   19090    20321    21682    22686    22782    21811    20139    18399 
   17216    17082    18038    19626    21298    22481    22599    21531 
   19743    17892    16447    15633    15531    16044    16926    17875 
   18590    18898    18661    17729    16410    15496    15597    16777 
   18616    20557    22148    22960    22867    22223    21427    20603 
   19716    18856    18389    18621    19530    20804    21888    22260 
   21675    20159    18067    16019    14455    13405    12815    12896 
   13824    15473    17556    19469    20428    20131    18945    17608 
   16745    16576    17136    18393    20109    21956    23577    24651 
   24950    24289    22751    20792    18933    17595    16957    16880 
   17200    17832    18630    19388    19834    19673    18840    17659 
   16594    15938    15936    16837    18418    19936    20740    20510 
   19201    17197    15345    14458    14778    15992    17683    19619 
   21686    23638    25014    25475    24844    22940    20098    17227 
   14972    13464    12675    12600    13213    14450    16337    18696 
   20908    22422    23001    22524    21208    19726    18708    18307 
   18401    18900    19588    20187    20691    21109    21203    20888 
   20378    19923    19670    19472    19040    18296    17234    15865 
   14508    13743    13909    14829    16181    17771    19341    20549 
   21196    21303    21041    20532    19769    18777    17716    16831 
   16445    16903    18403    20780    23299    24865    24754    22977 
   20035    16669    13783    12199    12143    13247    15180    17655 
   20002    21543    22108    21894    21146    20027    18754    17832 
   17714    18377    19535    20776    21586    21790    21566    21055 
   20329    19516    18779    18158    17612    17185    17124    17558 
   17990    17799    17174    16715    16600    16825    17520    18671 
   19885    20644    20772    20515    20198    19872    19425    18937 
   18480    17940    17405    17176    17440    18281    19637    21115 
   21980    21587    19897    17485    15249    14050    14278    15816 
   18210    20703    22380    22639    21652    20135    18701    17782 
   17707    18342    18936    18852    18215    17613    17520    18198 
   19657    21405    22542    22383    20892    18612    16366    14970 
   15014    16424    18334    19923    20923    21259    20935    20193 
   19487    19047    18569    17811    17012    16426    16081    16047 
   16495    17471    18773    20016    20794    20920    20479    19588 
   18400    17336    16819    16807    16991    17247    17699    18422 
   19224    19863    20247    20409    20390    20001    19145    18200 
   17556    17370    17745    18678    19809    20266    19534    18168 
   16860    16029    16293    17936    20425    22833    24476    25208 
   25019    23715    21429    18962    17288    16822    17284    18125 
   18862    19030    18296    16842    15410    14670    14758    15561 
   16926    18306    19040    18985    18388    17643    17153    17099 
   17529    18269    18875    19287    19778    20298    20758    21315 
   21859    22046    21748    20980    19809    18546    17587    17120 
   17145    17582    18430    19646    20880    21679    21814    21273 
   20275    19187    18337    17956    18023    18137    17740    16696 
   15614    15291    15812    16644    17433    18061    18401    18557 
   18852    19429    20073    20434    20299    19650    18628    17408 
   16173    15338    15421    16564    18555    20965    23161    24502 
   24480    23029    20717    18279    16339    15476    16004    17778 
   20119    22000    22742    22254    20565    17783    14698    12611 
   12275    13540    15826    18416    20590    21845    22108    21629 
   20621    19380    18441    18145    18465    19197    20065    20844 
   21212    20830    19974    19186    18509    17876    17544    17721 
   18243    18712    18859    18634    17969    16978    16178    16139 
   17000    18405    19884    21103    21793    21799    21166    20209 
   19430    18952    18570    18422    18671    18975    18954    18638 
   18306    18110    17917    17629    17363    17193    17123    17216 
   17539    18011    18409    18604    18654    18632    18539    18411 
   18295    18153    18111    18513    19396    20372    21058    21227 
   20888    20290    19693    19326    19210    19080    18820    18451 
   17998    17788    18154    18918    19703    20236    20317    19799 
   18706    17475    16633    16328    16490    17039    17909    19002 
   20025    20688    20884    20544    19674    18551    17721    17633 
   18233    19147    20005    20437    20301    19842    19338    18900 
   18490    17999    17406    16830    16440    16416    16876    17699 
   18434    18828    19182    19719    20293    20745    20858    20326 
   19136    17737    16796    16681    17304    18361    19444    20228 
   20690    20881    20807    20501    19920    19060    18176    17548 
   17230    17200    17442    17914    18604    19386    19903    19849 
   19234    18391    17795    17703    18040    18657    19302    19514 
   18967    17872    16910    16717    17467    18951    20742    22172 
   22565    21722    20069    18324    17072    16633    17104    18176 
   19267    20048    20515    20719    20609    20113    19379    18647 
   18026    17529    17127    16910    17069    17554    18134    18696 
   19255    19890    20615    21193    21232    20536    19202    17548 
   16006    14991    14901    15892    17552    19272    20699    21618 
   21763    20983    19561    18129    17161    16816    16964    17280 
   17535    17761    18188    19106    20540    22037    22893    22573 
   21076    18998    17219    16429    16831    18081    19464    20293 
   20217    19179    17496    15921    15126    15226    16048    17359 
   18675    19500    19826    19899    19954    20299    20952    21469 
   21466    20833    19668    18306    17212    16723    16934    17675 
   18650    19670    20592    21126    20992    20227    19215    18261 
   17320    16448    15955    15994    16514    17429    18639    19888 
   20790    21217    21261    20811    19823    18663    17695    16946 
   16429    16335    16776    17602    18522    19295    19819    20032 
   19854    19353    18879    18771    19062    19508    19801    19791 
   19468    18904    18422    18330    18551    18856    19049    19036 
   18885    18624    18249    17878    17667    17779    18312    19161 
   20055    20638    20633    20044    19126    18117    17192    16590 
   16514    17012    18006    19288    20518    21261    21163    20347 
   19346    18574    18148    18009    17991    18022    18127    18308 
   18468    18384    18027    17678    17593    17853    18446    19296 
