Origin Time       2024/04/02 04:24:00
Lat.              40.133
Long.             141.712
Depth. (km)       71
Mag.              6.0
Station Code      NMRH01
Station Lat.      43.7850
Station Long.     145.0246
Station Height(m) 80
Record Time       2024/04/02 04:26:29
Sampling Freq(Hz) 100Hz
Duration Time(s)  120
Dir.              4
Scale Factor      7845(gal)/8223790
Max. Acc. (gal)   1.564
Last Correction   2024/04/02 04:26:29
Memo.             
[...]
  -15723   -15808   -15913   -15989   -15998   -15943   -15861   -15792 
  -15766   -15801   -15880   -15948   -15955   -15896   -15807   -15716 
  -15646   -15637   -15708   -15820   -15911   -15947   -15936   -15884 
  -15809   -15753   -15735   -15751   -15792   -15836   -15857   -15839 
  -15807   -15785   -15780   -15786   -15804   -15819   -15819   -15807 
  -15807   -15840   -15885   -15904   -15886   -15832   -15753   -15678 
  -15660   -15715   -15807   -15893   -15947   -15944   -15882   -15790 
  -15708   -15655   -15645   -15684   -15774   -15876   -15925   -15897 
  -15822   -15746   -15704   -15714   -15763   -15827   -15878   -15889 
  -15843   -15759   -15681   -15649   -15680   -15750   -15817   -15867 
  -15900   -15900   -15843   -15743   -15657   -15637   -15682   -15746 
  -15785   -15792   -15769   -15732   -15714   -15734   -15776   -15813 
  -15838   -15847   -15824   -15776   -15743   -15765   -15828   -15885 
  -15913   -15915   -15888   -15813   -15709   -15645   -15672   -15773 
  -15896   -15993   -16023   -15962   -15827   -15676   -15588   -15600 
  -15695   -15834   -15966   -16024   -15957   -15796   -15631   -15534 
  -15512   -15574   -15716   -15882   -15988   -15993   -15917   -15819 
  -15743   -15726   -15770   -15851   -15942   -16001   -16000   -15930 
  -15813   -15707   -15653   -15666   -15735   -15838   -15948   -16029 
  -16039   -15961   -15822   -15689   -15616   -15628   -15712   -15822 
  -15908   -15940   -15917   -15851   -15777   -15742   -15757   -15785 
  -15800   -15784   -15738   -15691   -15674   -15701   -15768   -15853 
  -15923   -15947   -15904   -15816   -15718   -15631   -15601   -15658 
  -15759   -15850   -15905   -15911   -15859   -15776   -15709   -15693 
  -15736   -15815   -15892   -15940   -15938   -15884   -15812   -15747 
  -15684   -15637   -15634   -15687   -15773   -15859   -15912   -15911 
  -15854   -15763   -15689   -15661   -15696   -15786   -15897   -15975 
  -15974   -15881   -15741   -15619   -15560   -15570   -15654   -15786 
  -15908   -15952   -15905   -15797   -15676   -15597   -15612   -15722 
  -15863   -15967   -16001   -15957   -15850   -15732   -15669   -15692 
  -15796   -15927   -16012   -16005   -15913   -15784   -15665   -15593 
  -15592   -15658   -15773   -15890   -15963   -15957   -15877   -15769 
  -15678   -15626   -15622   -15673   -15762   -15866   -15942   -15952 
  -15900   -15828   -15770   -15738   -15732   -15743   -15765   -15793 
  -15809   -15809   -15807   -15813   -15832   -15857   -15861   -15842 
  -15819   -15796   -15770   -15746   -15719   -15685   -15665   -15677 
  -15726   -15803   -15886   -15935   -15928   -15890   -15844   -15799 
  -15766   -15768   -15793   -15807   -15796   -15778   -15765   -15759 
  -15782   -15834   -15871   -15863   -15820   -15778   -15749   -15728 
  -15730   -15758   -15788   -15782   -15741   -15678   -15622   -15612 
  -15687   -15816   -15930   -15979   -15950   -15857   -15742   -15666 
  -15676   -15777   -15919   -16025   -16046   -15984   -15884   -15780 
  -15715   -15712   -15749   -15799   -15861   -15911   -15916   -15859 
  -15765   -15696   -15682   -15703   -15746   -15803   -15847   -15858 
  -15830   -15786   -15745   -15715   -15719   -15754   -15784   -15785 
  -15789   -15827   -15886   -15930   -15928   -15896   -15865   -15842 
  -15811   -15763   -15734   -15745   -15773   -15785   -15785   -15788 
  -15793   -15799   -15803   -15792   -15772   -15777   -15803   -15813 
  -15796   -15763   -15734   -15722   -15735   -15777   -15828   -15867 
  -15881   -15858   -15805   -15757   -15735   -15745   -15777   -15822 
  -15863   -15878   -15858   -15824   -15801   -15792   -15796   -15819 
  -15849   -15870   -15861   -15809   -15741   -15693   -15692   -15724 
  -15781   -15855   -15917   -15939   -15921   -15881   -15819   -15745 
  -15693   -15687   -15705   -15724   -15743   -15755   -15758   -15770 
  -15792   -15803   -15804   -15801   -15792   -15765   -15735   -15735 
  -15774   -15830   -15886   -15931   -15957   -15957   -15930   -15877 
  -15812   -15749   -15709   -15730   -15797   -15849   -15839   -15782 
  -15718   -15672   -15650   -15664   -15714   -15786   -15855   -15882 
  -15854   -15804   -15766   -15734   -15700   -15680   -15680   -15693 
  -15723   -15759   -15788   -15804   -15808   -15790   -15750   -15705 
  -15681   -15693   -15746   -15820   -15881   -15908   -15896   -15843 
  -15780   -15750   -15757   -15768   -15763   -15763   -15774   -15774 
  -15759   -15754   -15778   -15817   -15850   -15870   -15873   -15846 
  -15807   -15792   -15796   -15789   -15770   -15755   -15739   -15701 
  -15658   -15653   -15714   -15812   -15901   -15965   -16000   -15994 
  -15928   -15816   -15711   -15662   -15681   -15749   -15819   -15854 
  -15843   -15792   -15732   -15711   -15726   -15751   -15780   -15813 
  -15823   -15786   -15749   -15757   -15795   -15822   -15850   -15897 
  -15950   -15961   -15921   -15857   -15781   -15714   -15693   -15728 
  -15785   -15834   -15862   -15874   -15869   -15836   -15788   -15738 
  -15701   -15689   -15700   -15730   -15777   -15823   -15844   -15839 
  -15815   -15788   -15784   -15817   -15882   -15935   -15942   -15900 
  -15830   -15759   -15715   -15716   -15782   -15897   -15998   -16024 
  -15955   -15840   -15749   -15701   -15695   -15741   -15822   -15900 
  -15940   -15928   -15876   -15807   -15742   -15697   -15692   -15741 
  -15831   -15915   -15942   -15901   -15805   -15688   -15604   -15587 
  -15639   -15734   -15822   -15862   -15857   -15831   -15805   -15789 
  -15785   -15799   -15830   -15859   -15866   -15854   -15831   -15800 
  -15757   -15716   -15697   -15709   -15747   -15801   -15851   -15873 
  -15865   -15842   -15811   -15778   -15759   -15755   -15770   -15782 
  -15790   -15826   -15886   -15921   -15913   -15873   -15811   -15755 
  -15738   -15773   -15849   -15924   -15947   -15889   -15776   -15665 
  -15607   -15634   -15742   -15869   -15951   -15959   -15901   -15803 
  -15701   -15645   -15658   -15730   -15827   -15921   -15977   -15959 
  -15869   -15741   -15646   -15641   -15728   -15863   -15986   -16042 
  -15994   -15862   -15712   -15615   -15612   -15677   -15758   -15820 
  -15851   -15839   -15796   -15762   -15762   -15790   -15820   -15838 
  -15850   -15846   -15820   -15792   -15785   -15800   -15828   -15849 
  -15835   -15789   -15732   -15681   -15657   -15692   -15784   -15869 
  -15893   -15865   -15812   -15742   -15668   -15630   -15643   -15678 
  -15708   -15738   -15776   -15809   -15839   -15884   -15936   -15962 
  -15940   -15889   -15827   -15750   -15672   -15612   -15593   -15631 
  -15719   -15824   -15912   -15951   -15925   -15854   -15781   -15742 
  -15749   -15797   -15865   -15919   -15928   -15876   -15799   -15750 
  -15750   -15780   -15824   -15878   -15915   -15911   -15874   -15820 
  -15761   -15700   -15657   -15662   -15693   -15715   -15759   -15857 
  -15966   -16019   -15992   -15904   -15765   -15597   -15477   -15481 
  -15618   -15815   -15986   -16077   -16065   -15951   -15785   -15653 
  -15592   -15580   -15581   -15597   -15637   -15699   -15770   -15853 
  -15936   -15977   -15942   -15854   -15766   -15701   -15666   -15677 
  -15734   -15812   -15878   -15916   -15927   -15909   -15866   -15812 
  -15755   -15701   -15673   -15676   -15689   -15701   -15726   -15785 
  -15877   -15965   -16032   -16078   -16086   -16039   -15952   -15876 
  -15836   -15819   -15808   -15800   -15769   -15703   -15641   -15630 
  -15678   -15759   -15843   -15919   -15952   -15911   -15796   -15655 
  -15558   -15552   -15641   -15820   -16028   -16150   -16113   -15932 
  -15660   -15372   -15174   -15175   -15395   -15711   -15961   -16038 
  -15923   -15704   -15519   -15483   -15638   -15928   -16227   -16390 
  -16332   -16062   -15692   -15379   -15261   -15390   -15695   -16038 
  -16289   -16362   -16247   -16005   -15742   -15554   -15504   -15593 
  -15757   -15897   -15958   -15952   -15919   -15885   -15846   -15797 
  -15749   -15699   -15615   -15480   -15331   -15233   -15238   -15373 
  -15622   -15923   -16201   -16393   -16452   -16375   -16202   -16011 
  -15855   -15727   -15595   -15461   -15361   -15348   -15453   -15643 
  -15844   -15985   -16019   -15947   -15820   -15705   -15682   -15785 
  -15969   -16141   -16204   -16079   -15797   -15477   -15257   -15213 
  -15334   -15566   -15836   -16048   -16105   -15997   -15813   -15633 
  -15491   -15426   -15485   -15685   -16001   -16368   -16675   -16780 
  -16587   -16133   -15601   -15205   -15082   -15242   -15597   -16023 
  -16387   -16588   -16576   -16375   -16062   -15709   -15365   -15080 
  -14913   -14895   -15024   -15250   -15496   -15720   -15915   -16058 
  -16112   -16074   -15989   -15912   -15884   -15946   -16085   -16220 
  -16248   -16131   -15900   -15618   -15365   -15232   -15276   -15471 
  -15718   -15917   -16004   -15974   -15857   -15681   -15526   -15492 
  -15618   -15839   -16060   -16231   -16324   -16306   -16152   -15897 
  -15615   -15381   -15256   -15261   -15371   -15550   -15804   -16123 
  -16426   -16623   -16667   -16533   -16209   -15720   -15195   -14818 
  -14739   -15012   -15566   -16193   -16644   -16758   -16511   -16013 
  -15489   -15171   -15188   -15499   -15909   -16218   -16286   -16071 
  -15681   -15336   -15210   -15329   -15623   -15971   -16225   -16305 
  -16229   -16058   -15874   -15776   -15801   -15890   -15959   -15954 
  -15866   -15734   -15606   -15519   -15525   -15624   -15743   -15816 
  -15830   -15768   -15650   -15587   -15649   -15808   -15979   -16047 
  -15934   -15661   -15306   -14960   -14763   -14854   -15272   -15886 
  -16463   -16795   -16812   -16555   -16104   -15612   -15286   -15252 
  -15520   -15967   -16367   -16507   -16295   -15797   -15252   -14924 
  -14941   -15307   -15897   -16449   -16696   -16546   -16083   -15539 
  -15180   -15121   -15315   -15665   -16016   -16213   -16235   -16131 
  -15942   -15754   -15687   -15805   -16081   -16374   -16498   -16345 
  -15924   -15331   -14771   -14494   -14642   -15178   -15911   -16530 
  -16771   -16552   -15978   -15304   -14851   -14794   -15086   -15574 
  -16058   -16325   -16251   -15890   -15479   -15319   -15550   -16048 
  -16582   -16939   -16984   -16719   -16255   -15759   -15445   -15441 
  -15641   -15813   -15813   -15630   -15342   -15118   -15124   -15411 
  -15903   -16384   -16600   -16434   -15986   -15461   -15118   -15152 
  -15527   -16028   -16406   -16482   -16252   -15862   -15457   -15168 
  -15155   -15433   -15781   -15970   -15936   -15724   -15435   -15214 
  -15183   -15396   -15793   -16213   -16513   -16638   -16584   -16357 
  -16002   -15624   -15319   -15132   -15122   -15368   -15831   -16293 
  -16513   -16403   -16066   -15678   -15417   -15394   -15593   -15885 
  -16108   -16133   -15930   -15604   -15349   -15326   -15585   -16017 
  -16406   -16552   -16359   -15874   -15255   -14720   -14473   -14619 
  -15091   -15685   -16167   -16371   -16271   -16024   -15873   -15943 
  -16198   -16486   -16609   -16463   -16112   -15684   -15310   -15082 
  -15039   -15183   -15465   -15734   -15855   -15865   -15849   -15813 
  -15769   -15772   -15863   -16025   -16173   -16202   -16104   -15966 
  -15900   -15969   -16114   -16227   -16270   -16254   -16168   -16035 
  -15894   -15714   -15461   -15241   -15192   -15327   -15595   -15990 
  -16505   -16995   -17242   -17180   -16903   -16472   -15930   -15404 
  -15051   -14926   -15025   -15287   -15595   -15811   -15822   -15597 
  -15264   -15016   -14943   -15007   -15169   -15372   -15529   -15624 
  -15709   -15811   -15947   -16139   -16357   -16573   -16750   -16784 
  -16561   -16085   -15450   -14817   -14392   -14328   -14620   -15138 
  -15712   -16174   -16374   -16232   -15842   -15439   -15213   -15199 
  -15402   -15801   -16235   -16490   -16517   -16383   -16137   -15838 
  -15580   -15406   -15252   -15048   -14852   -14829   -15053   -15437 
  -15888   -16337   -16619   -16571   -16281   -15986   -15851   -15967 
  -16344   -16831   -17205   -17267   -16930   -16303   -15637   -15153 
  -15007   -15223   -15631   -16019   -16249   -16181   -15736   -15111 
  -14635   -14489   -14708   -15236   -15892   -16424   -16632   -16464 
  -16039   -15573   -15232   -15099   -15188   -15414   -15676   -15912 
  -16092   -16222   -16343   -16418   -16384   -16286   -16220   -16185 
  -16154   -16120   -16075   -16024   -15936   -15758   -15519   -15288 
  -15103   -15018   -15067   -15194   -15387   -15695   -16082   -16463 
  -16779   -16926   -16791   -16386   -15785   -15095   -14567   -14450 
  -14760   -15325   -15928   -16349   -16449   -16278   -15997   -15777 
  -15751   -15931   -16168   -16266   -16129   -15801   -15418   -15138 
  -15095   -15381   -15919   -16398   -16534   -16303   -15817   -15209 
  -14712   -14562   -14767   -15129   -15454   -15676   -15792   -15844 
  -15939   -16174   -16491   -16679   -16553   -16108   -15471   -14836 
  -14438   -14416   -14694   -15084   -15464   -15755   -15893   -15888 
  -15894   -16087   -16449   -16791   -16954   -16915   -16729   -16451 
  -16171   -16028   -16079   -16237   -16351   -16289   -16002   -15573 
  -15159   -14912   -14908   -15126   -15483   -15866   -16140   -16200 
  -16060   -15876   -15820   -15944   -16163   -16341   -16353   -16133 
  -15750   -15383   -15217   -15349   -15743   -16236   -16592   -16584 
  -16116   -15340   -14584   -14158   -14218   -14710   -15421   -16058 
  -16371   -16302   -16029   -15815   -15823   -16114   -16610   -17053 
  -17154   -16804   -16108   -15284   -14589   -14238   -14338   -14824 
  -15487   -16090   -16457   -16475   -16150   -15677   -15313   -15195 
  -15350   -15715   -16094   -16252   -16125   -15835   -15565   -15483 
  -15670   -16040   -16424   -16656   -16626   -16384   -16098   -15855 
  -15687   -15643   -15703   -15754   -15735   -15637   -15472   -15300 
  -15172   -15124   -15222   -15453   -15678   -15836   -15975   -16101 
  -16170   -16173   -16132   -16074   -15982   -15823   -15651   -15592 
  -15666   -15800   -15950   -16070   -16075   -15969   -15858   -15859 
  -15988   -16113   -16104   -15969   -15762   -15514   -15349   -15434 
  -15769   -16170   -16420   -16401   -16159   -15822   -15488   -15264 
  -15272   -15515   -15855   -16167   -16357   -16337   -16129   -15832 
  -15518   -15284   -15225   -15313   -15457   -15606   -15750   -15909 
  -16119   -16364   -16598   -16749   -16715   -16441   -16002   -15527 
  -15128   -14955   -15057   -15276   -15460   -15601   -15703   -15754 
  -15792   -15843   -15885   -15862   -15681   -15350   -15033   -14881 
  -14972   -15337   -15865   -16308   -16498   -16441   -16213   -15920 
  -15728   -15738   -15897   -16054   -16069   -15923   -15708   -15531 
  -15499   -15687   -16021   -16317   -16420   -16254   -15804   -15165 
  -14565   -14246   -14361   -14894   -15641   -16326   -16752   -16834 
  -16602   -16209   -15869   -15700   -15673   -15662   -15554   -15352 
  -15183   -15176   -15385   -15789   -16251   -16575   -16649   -16491 
  -16191   -15874   -15634   -15493   -15434   -15458   -15592   -15823 
  -16106   -16395   -16614   -16663   -16515   -16243   -15905   -15529 
  -15178   -14966   -14983   -15228   -15608   -16023   -16387   -16632 
  -16676   -16498   -16208   -15981   -15882   -15831   -15741   -15607 
  -15475   -15392   -15437   -15657   -15969   -16177   -16132   -15817 
  -15314   -14790   -14463   -14482   -14835   -15356   -15846   -16189 
  -16363   -16417   -16433   -16463   -16470   -16380   -16175   -15912 
  -15655   -15423   -15267   -15256   -15356   -15476   -15593   -15716 
  -15819   -15876   -15890   -15870   -15822   -15788   -15849   -15996 
  -16120   -16151   -16121   -16077   -16024   -15981   -16015   -16117 
  -16160   -16042   -15786   -15491   -15232   -15067   -15034   -15130 
  -15336   -15618   -15905   -16146   -16320   -16382   -16276   -16015 
  -15673   -15379   -15282   -15429   -15763   -16175   -16515   -16649 
  -16514   -16133   -15606   -15080   -14716   -14627   -14804   -15141 
  -15549   -15939   -16210   -16314   -16278   -16159   -16029   -15946 
  -15903   -15840   -15718   -15547   -15350   -15148   -15022   -15074 
  -15306   -15628   -15954   -16231   -16430   -16536   -16515   -16356 
  -16133   -15963   -15876   -15843   -15853   -15909   -16023   -16182 
  -16322   -16348   -16206   -15892   -15431   -14939   -14634   -14704 
  -15160   -15851   -16536   -16958   -16972   -16644   -16168   -15712 
  -15398   -15338   -15537   -15823   -16016   -16052   -15935   -15705 
  -15456   -15295   -15288   -15417   -15573   -15653   -15584   -15349 
  -15036   -14813   -14828   -15110   -15569   -16042   -16355   -16405 
  -16183   -15768   -15346   -15148   -15256   -15588   -16011   -16391 
  -16605   -16600   -16461   -16317   -16233   -16197   -16146   -16027 
  -15859   -15696   -15596   -15614   -15751   -15947   -16127   -16239 
  -16249   -16163   -16038   -15916   -15817   -15792   -15866   -15963 
  -15996   -15939   -15797   -15604   -15465   -15488   -15685   -15961 
  -16137   -16058   -15724   -15269   -14856   -14670   -14852   -15330 
  -15866   -16276   -16472   -16426   -16216   -15944   -15672   -15473 
  -15398   -15412   -15511   -15715   -15958   -16152   -16266   -16279 
  -16189   -16021   -15784   -15499   -15265   -15165   -15190   -15317 
  -15547   -15815   -16040   -16182   -16202   -16109   -15992   -15934 
  -15955   -16042   -16123   -16114   -15996   -15786   -15539   -15356 
  -15338   -15493   -15753   -16011   -16140   -16067   -15828   -15500 
  -15184   -15020   -15051   -15214   -15472   -15763   -15934   -15900 
  -15718   -15487   -15327   -15348   -15553   -15897   -16286   -16551 
  -16571   -16375   -16035   -15661   -15418   -15394   -15546   -15804 
  -16071   -16202   -16125   -15920   -15696   -15547   -15579   -15796 
  -16106   -16387   -16501   -16371   -16066   -15693   -15341   -15126 
  -15110   -15222   -15390   -15580   -15743   -15869   -16012   -16179 
  -16320   -16405   -16406   -16287   -16055   -15759   -15457   -15226 
  -15151   -15237   -15434   -15700   -15978   -16178   -16209   -16031 
  -15712   -15395   -15202   -15180   -15348   -15658   -15996   -16256 
  -16399   -16420   -16313   -16137   -15990   -15936   -15978   -16082 
  -16216   -16340   -16355   -16182   -15862   -15512   -15232   -15099 
  -15174   -15431   -15758   -16048   -16236   -16301   -16279   -16210 
  -16102   -15961   -15817   -15719   -15682   -15678   -15700   -15777 
  -15894   -15998   -16056   -16086   -16096   -16059   -15974   -15866 
  -15730   -15558   -15407   -15330   -15321   -15361   -15453   -15574 
  -15664   -15673   -15606   -15493   -15371   -15300   -15325   -15448 
  -15641   -15843   -15971   -15979   -15878   -15703   -15506   -15369 
  -15380   -15535   -15753   -15962   -16113   -16158   -16102   -16015 
  -15952   -15923   -15903   -15882   -15853   -15813   -15809   -15886 
  -16008   -16117   -16187   -16168   -16006   -15742   -15496   -15361 
  -15383   -15570   -15858   -16106   -16185   -16054   -15797   -15547 
  -15412   -15471   -15716   -16009   -16168   -16106   -15867   -15556 
  -15299   -15217   -15331   -15554   -15795   -15984   -16039   -15931 
