Origin Time       2024/04/02 04:24:00
Lat.              40.133
Long.             141.712
Depth. (km)       71
Mag.              6.0
Station Code      NMRH05
Station Lat.      43.3900
Station Long.     144.8021
Station Height(m) 92
Record Time       2024/04/02 04:25:41
Sampling Freq(Hz) 100Hz
Duration Time(s)  120
Dir.              5
Scale Factor      7845(gal)/8223790
Max. Acc. (gal)   5.809
Last Correction   2024/04/02 04:25:41
Memo.             
[...]
  -11210   -11199   -11056   -10836   -10702   -10735   -10902   -11103 
  -11249   -11300   -11199   -10940   -10712   -10656   -10662   -10655 
  -10743   -10925   -11102   -11260   -11416   -11511   -11445   -11164 
  -10752   -10436   -10350   -10436   -10616   -10858   -11117   -11340 
  -11456   -11404   -11171   -10839   -10605   -10612   -10827   -11128 
  -11371   -11387   -11125   -10782   -10601   -10644   -10844   -11076 
  -11202   -11191   -11134   -11117   -11160   -11233   -11268   -11200 
  -11026   -10852   -10832   -10982   -11121   -11134   -11114   -11105 
  -11029   -10883   -10768   -10747   -10794   -10852   -10929   -11056 
  -11115   -10948   -10627   -10366   -10319   -10557   -11007   -11496 
  -11826   -11823   -11491   -11026   -10629   -10450   -10547   -10809 
  -11094   -11308   -11375   -11276   -11091   -10871   -10674   -10659 
  -10893   -11241   -11553   -11653   -11383   -10844   -10362   -10166 
  -10320   -10748   -11195   -11415   -11319   -10975   -10628   -10565 
  -10828   -11236   -11551   -11597   -11352   -11006   -10790   -10778 
  -10908   -11071   -11205   -11259   -11156   -10926   -10697   -10509 
  -10399   -10494   -10844   -11303   -11639   -11670   -11373   -10903 
  -10513   -10416   -10658   -11059   -11348   -11337   -11043   -10704 
  -10613   -10836   -11161   -11392   -11472   -11346   -11041   -10737 
  -10594   -10631   -10762   -10916   -11111   -11331   -11476   -11492 
  -11381   -11183   -10959   -10771   -10692   -10762   -10921   -11021 
  -10999   -10963   -11022   -11130   -11188   -11199   -11198   -11159 
  -11076   -11016   -11006   -10989   -10895   -10759   -10682   -10686 
  -10712   -10732   -10755   -10747   -10714   -10755   -10893   -11052 
  -11159   -11130   -10937   -10693   -10590   -10724   -10997   -11256 
  -11443   -11542   -11514   -11392   -11280   -11141   -10932   -10750 
  -10642   -10609   -10696   -10879   -11045   -11105   -11070   -10987 
  -10866   -10758   -10751   -10864   -11009   -11095   -11111   -11048 
  -10935   -10899   -10982   -11092   -11179   -11215   -11163   -11059 
  -11014   -11067   -11148   -11167   -11117   -11052   -10960   -10809 
  -10667   -10612   -10639   -10719   -10814   -10928   -11040   -11053 
  -10963   -10906   -10905   -10868   -10797   -10746   -10729   -10791 
  -10983   -11195   -11310   -11418   -11584   -11630   -11449   -11188 
  -10991   -10851   -10773   -10813   -10932   -11020   -11044   -11049 
  -11032   -10928   -10786   -10751   -10881   -11103   -11269   -11279 
  -11145   -10933   -10727   -10616   -10652   -10774   -10908   -11082 
  -11259   -11275   -11133   -11025   -10984   -10909   -10870   -10979 
  -11097   -11091   -11036   -10948   -10764   -10584   -10594   -10798 
  -11033   -11179   -11211   -11128   -10959   -10821   -10843   -11061 
  -11323   -11381   -11186   -10910   -10701   -10597   -10646   -10882 
  -11211   -11460   -11529   -11475   -11379   -11168   -10797   -10500 
  -10500   -10671   -10832   -11003   -11209   -11372   -11423   -11357 
  -11218   -11041   -10867   -10750   -10696   -10693   -10750   -10839 
  -10883   -10930   -11067   -11210   -11292   -11412   -11515   -11389 
  -11049   -10731   -10588   -10582   -10654   -10827   -11080   -11237 
  -11206   -11133   -11086   -10953   -10739   -10611   -10674   -10837 
  -10995   -11173   -11304   -11200   -10913   -10725   -10708   -10758 
  -10889   -11094   -11241   -11264   -11237   -11207   -11119   -10951 
  -10794   -10712   -10694   -10754   -10912   -11119   -11272   -11315 
  -11288   -11195   -11009   -10829   -10802   -10883   -10912   -10912 
  -11030   -11200   -11250   -11164   -10993   -10794   -10702   -10790 
  -10929   -11011   -11078   -11083   -10959   -10793   -10673   -10621 
  -10671   -10833   -11079   -11279   -11276   -11137   -11051   -11025 
  -11003   -11082   -11248   -11331   -11265   -11064   -10800   -10651 
  -10673   -10748   -10836   -10916   -10890   -10741   -10613   -10682 
  -10970   -11292   -11423   -11321   -11113   -10901   -10683   -10550 
  -10709   -11152   -11551   -11696   -11669   -11493   -11097   -10642 
  -10427   -10515   -10732   -10916   -11045   -11164   -11207   -11080 
  -10886   -10813   -10845   -10889   -10956   -11106   -11307   -11403 
  -11300   -11094   -10926   -10882   -10930   -10979   -10982   -10947 
  -10883   -10774   -10721   -10912   -11222   -11357   -11306   -11198 
  -11043   -10859   -10817   -10975   -11079   -10925   -10631   -10424 
  -10440   -10700   -11122   -11523   -11691   -11554   -11215   -10859 
  -10665   -10666   -10750   -10816   -10848   -10879   -10957   -11102 
  -11261   -11360   -11306   -11053   -10759   -10620   -10616   -10686 
  -10829   -10967   -11016   -11020   -11043   -11076   -11126   -11217 
  -11265   -11188   -11049   -10951   -10894   -10866   -10936   -11087 
  -11161   -11122   -11097   -11083   -10966   -10768   -10640   -10631 
  -10681   -10768   -10982   -11318   -11516   -11392   -11090   -10777 
  -10517   -10477   -10798   -11315   -11685   -11678   -11317   -10893 
  -10701   -10804   -11167   -11616   -11774   -11533   -11132   -10682 
  -10268   -10157   -10408   -10787   -11173   -11507   -11589   -11314 
  -10828   -10389   -10230   -10408   -10848   -11442   -11920   -11924 
  -11433   -10785   -10268   -10004   -10079   -10469   -11049   -11615 
  -11927   -11913   -11635   -11176   -10736   -10488   -10438   -10579 
  -10822   -10905   -10743   -10505   -10320   -10354   -10752   -11335 
  -11743   -11688   -11137   -10490   -10219   -10385   -10808   -11345 
  -11763   -11799   -11503   -11142   -10874   -10760   -10821   -11036 
  -11330   -11530   -11565   -11461   -11164   -10728   -10422   -10408 
  -10620   -10970   -11326   -11457   -11232   -10809   -10480   -10408 
  -10598   -10990   -11430   -11626   -11484   -11210   -10906   -10586 
  -10450   -10584   -10751   -10839   -10956   -11125   -11291   -11402 
  -11380   -11209   -10899   -10507   -10254   -10328   -10608   -10903 
  -11160   -11296   -11257   -11107   -10926   -10841   -10944   -11090 
  -11106   -11061   -11032   -10966   -10922   -10964   -10997   -10999 
  -11021   -11045   -11118   -11283   -11426   -11429   -11323   -11175 
  -10970   -10727   -10575   -10624   -10755   -10833   -10957   -11195 
  -11422   -11502   -11344   -10993   -10692   -10589   -10665   -10933 
  -11327   -11569   -11495   -11180   -10735   -10326   -10168   -10336 
  -10760   -11276   -11600   -11547   -11223   -10845   -10585   -10489 
  -10513   -10678   -10967   -11152   -11094   -10932   -10820   -10790 
  -10800   -10855   -11048   -11344   -11534   -11516   -11346   -11173 
  -11132   -11149   -11079   -10959   -10841   -10679   -10567   -10754 
  -11188   -11473   -11475   -11357   -11090   -10602   -10187   -10185 
  -10542   -10967   -11304   -11470   -11361   -10997   -10584   -10373 
  -10503   -10917   -11429   -11827   -11920   -11654   -11191   -10770 
  -10588   -10721   -10999   -11171   -11145   -10986   -10783   -10654 
  -10733   -11044   -11385   -11537   -11457   -11206   -10794   -10336 
  -10126   -10247   -10503   -10795   -11141   -11442   -11551   -11391 
  -11060   -10787   -10701   -10781   -10976   -11164   -11191   -11088 
  -11010   -11043   -11128   -11130   -11010   -10856   -10733   -10666 
  -10717   -10914   -11190   -11430   -11601   -11704   -11693   -11520 
  -11132   -10601   -10157    -9987   -10228   -10870   -11560   -11902 
  -11793   -11360   -10831   -10446   -10380   -10608   -10894   -11028 
  -11009   -10952   -10943   -10982   -11006   -10941   -10805   -10705 
  -10735   -10902   -11148   -11373   -11462   -11398   -11252   -11087 
  -10959   -10924   -10945   -10898   -10760   -10629   -10534   -10488 
  -10573   -10789   -11067   -11319   -11431   -11307   -11011   -10736 
  -10571   -10524   -10660   -10936   -11184   -11342   -11388   -11275 
  -11049   -10879   -10883   -11014   -11140   -11134   -11016   -10947 
  -10995   -11059   -11084   -11094   -11047   -10903   -10739   -10647 
  -10666   -10813   -11029   -11184   -11206   -11136   -11040   -10895 
  -10712   -10629   -10687   -10804   -10971   -11234   -11545   -11745 
  -11696   -11362   -10908   -10601   -10523   -10606   -10810   -11061 
  -11236   -11269   -11205   -11091   -10968   -10871   -10766   -10706 
  -10855   -11199   -11506   -11607   -11506   -11229   -10832   -10505 
  -10409   -10542   -10794   -11092   -11388   -11537   -11422   -11095 
  -10701   -10405   -10326   -10449   -10667   -10890   -11087   -11257 
  -11391   -11441   -11338   -11057   -10677   -10426   -10482   -10789 
  -11248   -11726   -11892   -11618   -11191   -10858   -10674   -10663 
  -10728   -10733   -10741   -10818   -10897   -10957   -10959   -10841 
  -10787   -10962   -11223   -11375   -11318   -11044   -10720   -10567 
  -10682   -11029   -11357   -11387   -11183   -10963   -10835   -10916 
  -11183   -11346   -11223   -10974   -10806   -10725   -10687   -10773 
  -11003   -11196   -11202   -11117   -11016   -10771   -10444   -10326 
  -10508   -10882   -11364   -11824   -12042   -11875   -11362   -10697 
  -10191   -10073   -10323   -10762   -11222   -11576   -11701   -11561 
  -11308   -11142   -11029   -10831   -10621   -10534   -10519   -10536 
  -10602   -10716   -10962   -11389   -11803   -11966   -11801   -11349 
  -10817   -10494   -10489   -10771   -11225   -11566   -11603   -11381 
  -10964   -10486   -10258   -10378   -10615   -10813   -10971   -11034 
  -10993   -10968   -11007   -10998   -10868   -10670   -10531   -10559 
  -10785   -11167   -11580   -11836   -11776   -11400   -10925   -10600 
  -10505   -10600   -10818   -11038   -11130   -11124   -11111   -11043 
  -10894   -10820   -10870   -10882   -10771   -10642   -10606   -10690 
  -10887   -11125   -11253   -11268   -11306   -11364   -11338   -11300 
  -11383   -11485   -11476   -11406   -11284   -11041   -10717   -10389 
  -10116   -10065   -10358   -10897   -11468   -11811   -11623   -10870 
   -9991    -9570    -9806   -10462   -11259   -11992   -12361   -12145 
  -11479   -10733   -10227   -10104   -10408   -11052   -11716   -11994 
  -11769   -11267   -10746   -10342   -10129   -10139   -10376   -10777 
  -11225   -11581   -11658   -11356   -10771   -10141    -9810   -10019 
  -10693   -11542   -12216   -12414   -12117   -11631   -11205   -10840 
  -10543   -10435   -10543   -10709   -10876   -11167   -11496   -11634 
  -11601   -11481   -11194   -10816   -10555   -10411   -10353   -10431 
  -10593   -10791   -11043   -11271   -11400   -11466   -11443   -11281 
  -11105   -11026   -10982   -10947   -10921   -10841   -10762   -10754 
  -10766   -10814   -10952   -11095   -11168   -11153   -11045   -10858 
  -10575   -10247   -10035   -10048   -10280   -10692   -11160   -11472 
  -11507   -11344   -11082   -10746   -10316    -9829    -9524    -9718 
  -10440   -11398   -12301   -12919   -13020   -12571   -11784   -10974 
  -10431   -10237   -10358   -10774   -11264   -11538   -11591   -11543 
  -11344   -10962   -10624   -10527   -10623   -10789   -10970   -11157 
  -11323   -11388   -11276   -11038   -10913   -11007   -11111   -11070 
  -11080   -11364   -11755   -12032   -12244   -12280   -11871   -11165 
  -10582   -10373   -10501   -10728   -10883   -10983   -10986   -10758 
  -10276    -9684    -9184    -8864    -8727    -8995    -9926   -11298 
  -12550   -13266   -13212   -12307   -10774    -9235    -8437    -8638 
   -9605   -11030   -12584   -13744   -14022   -13478   -12540   -11458 
  -10393    -9651    -9458    -9675   -10037   -10523   -11018   -11173 
  -11010   -10837   -10709   -10551   -10488   -10713   -11163   -11612 
  -11954   -12047   -11766   -11214   -10588   -10125   -10089   -10534 
  -11233   -11847   -12135   -12202   -12275   -12293   -12143   -11896 
  -11619   -11325   -11102   -11094   -11292   -11423   -11268   -10920 
  -10474    -9929    -9393    -8950    -8603    -8533    -8995    -9922 
  -10951   -11799   -12371   -12638   -12521   -11850   -10600    -9181 
   -8217    -8112    -8939   -10447   -12020   -12997   -13049   -12293 
  -11191   -10212    -9718    -9950   -10743   -11600   -12195   -12393 
  -12029   -11113   -10071    -9410    -9300    -9622   -10149   -10756 
  -11385   -11917   -12325   -12591   -12569   -12214   -11628   -10960 
  -10458   -10378   -10800   -11637   -12698   -13635   -14103   -13956 
  -13207   -11974   -10552    -9456    -9140    -9666   -10733   -11859 
  -12394   -11875   -10469    -8784    -7338    -6434    -6268    -6867 
   -8110    -9810   -11604   -13041   -13792   -13668   -12785   -11780 
  -11265   -11271   -11546   -11908   -12131   -12093   -12023   -12166 
  -12276   -11816   -10662    -9211    -8002    -7484    -7857    -9166 
  -11217   -13324   -14661   -14848   -13950   -12177    -9891    -7809 
   -6743    -7079    -8623   -10859   -13139   -14762   -15144   -14181 
  -12401   -10542    -9096    -8333    -8451    -9467   -11048   -12683 
  -13971   -14608   -14355   -13084   -10925    -8523    -6635    -5628 
   -5769    -7244    -9671   -12191   -14010   -14702   -14218   -12846 
  -11040    -9193    -7700    -7059    -7554    -8964   -10773   -12537 
  -13917   -14705   -15070   -15338   -15417   -15017   -14079   -12641 
  -10920    -9491    -8932    -9320   -10103   -10484   -10080    -9154 
   -8248    -7866    -8291    -9387   -10697   -11813   -12422   -12233 
  -11175    -9456    -7466    -5853    -5341    -6239    -8330   -11128 
  -13946   -16077   -17081   -16960   -16085   -15009   -14153   -13513 
  -12795   -11828   -10729    -9807    -9294    -9220    -9413    -9553 
   -9510    -9413    -9377    -9532    -9949   -10395   -10628   -10650 
  -10466   -10073    -9641    -9416    -9591   -10227   -11260   -12618 
  -14050   -15049   -15179   -14233   -12290    -9973    -8239    -7715 
   -8388    -9768   -11256   -12302   -12429   -11568   -10224    -9020 
   -8348    -8451    -9354   -10670   -11907   -12788   -13066   -12405 
  -10948    -9574    -9124    -9883   -11646   -13706   -15105   -15134 
  -13713   -11461    -9350    -8174    -8245    -9356   -10890   -12109 
  -12653   -12625   -12201   -11404   -10269    -9073    -8181    -7682 
   -7580    -8036    -9146   -10675   -12191   -13331   -13865   -13714 
  -12904   -11630   -10488   -10165   -10704   -11603   -12550   -13446 
  -13933   -13668   -12826   -11857   -11115   -10764   -10646   -10462 
  -10083    -9463    -8642    -7947    -7767    -8186    -9108   -10397 
  -11770   -12804   -13155   -12819   -11985   -10728    -9270    -8151 
   -7848    -8384    -9462   -10891   -12521   -13890   -14415   -14011 
  -13117   -12071   -10966   -10054    -9663    -9849   -10432   -11072 
  -11415   -11380   -11163   -10994   -10922   -10930   -11101   -11502 
  -12028   -12395   -12353   -11923   -11268   -10611   -10215   -10127 
  -10210   -10292   -10038    -9234    -8290    -7889    -8390    -9791 
  -11711   -13464   -14476   -14388   -13150   -11264    -9536    -8544 
   -8521    -9350   -10504   -11354   -11587   -11265   -10717   -10409 
  -10724   -11666   -12857   -13640   -13358   -11973   -10224    -8923 
   -8370    -8600    -9661   -11226   -12591   -13359   -13616   -13468 
  -12852   -11813   -10806   -10336   -10419   -10725   -11087   -11416 
  -11480   -11070   -10251    -9362    -8772    -8691    -9283   -10548 
  -12081   -13331   -13895   -13536   -12290   -10633    -9221    -8500 
   -8633    -9528   -11013   -12787   -14131   -14457   -13846   -12599 
  -10952    -9262    -7983    -7488    -7952    -9207   -10670   -11788 
  -12352   -12336   -11865   -11178   -10538   -10243   -10377   -10743 
  -11183   -11547   -11470   -10670    -9475    -8591    -8491    -9391 
  -11223   -13466   -15354   -16197   -15700   -14077   -11772    -9305 
   -7322    -6330    -6426    -7376    -8789   -10120   -10903   -11055 
  -10833   -10701   -11063   -11830   -12506   -12775   -12584   -11844 
  -10586    -9301    -8664    -9011   -10184   -11784   -13441   -14681 
  -14948   -14218   -13039   -11927   -11138   -10790   -10693   -10368 
   -9626    -8841    -8446    -8498    -8838    -9470   -10457   -11542 
  -12294   -12559   -12467   -12067   -11290   -10269    -9290    -8529 
   -8129    -8191    -8695    -9679   -11148   -12904   -14708   -16198 
  -16799   -16110   -14170   -11476    -8847    -6999    -6304    -6809 
   -8168    -9724   -10881   -11456   -11576   -11442   -11317   -11585 
  -12510   -13798   -14760   -14840   -13697   -11461    -8986    -7217 
   -6596    -7157    -8746   -10885   -12783   -13873   -14049   -13328 
  -11898   -10291    -9146    -8878    -9475   -10617   -11873   -12692 
  -12681   -11983   -11068   -10273    -9697    -9336    -9306    -9786 
  -10654   -11545   -12249   -12626   -12314   -11078    -9274    -7678 
   -6833    -6789    -7433    -8750   -10525   -12193   -13374   -14088 
  -14316   -14071   -13659   -13301   -13014   -12877   -12919   -12869 
  -12376   -11318    -9925    -8684    -8068    -8364    -9613   -11345 
  -12702   -13103   -12492   -11194    -9813    -8995    -9022    -9614 
  -10122   -10112    -9687    -9180    -8918    -9228   -10230   -11662 
  -13027   -13960   -14376   -14266   -13641   -12729   -11843   -11105 
  -10540   -10210   -10125   -10193   -10278   -10355   -10442   -10420 
  -10274   -10231   -10305   -10157    -9661    -9185    -9215    -9990 
  -11345   -12802   -13853   -14107   -13446   -12245   -11115   -10369 
  -10027   -10211   -11016   -12046   -12604   -12324   -11234    -9556 
   -7788    -6617    -6507    -7558    -9582   -12005   -14021   -15032 
  -14812   -13351   -11064    -8869    -7593    -7592    -8781   -10640 
  -12501   -13994   -14925   -14980   -14007   -12344   -10620    -9474 
   -9290    -9948   -11005   -11996   -12407   -11947   -10859    -9657 
   -8814    -8684    -9319   -10332   -11176   -11570   -11488   -10929 
   -9984    -9055    -8665    -9000    -9828   -10820   -11739   -12305 
  -12353   -12087   -11878   -11936   -12241   -12636   -12907   -12854 
  -12360   -11429   -10193    -8970    -8139    -7927    -8469    -9810 
  -11674   -13510   -14855   -15371   -14770   -12997   -10465    -8068 
   -6664    -6597    -7857   -10023   -12205   -13609   -13898   -13111 
  -11732   -10532    -9917    -9872   -10404   -11364   -12276   -12737 
  -12579   -11804   -10562    -9188    -8163    -7929    -8602    -9859 
  -11126   -11875   -11898   -11360   -10597   -10044   -10120   -10777 
  -11456   -11704   -11491   -11045   -10658   -10569   -10890   -11522 
  -12174   -12572   -12576   -12091   -11206   -10304    -9752    -9609 
   -9787   -10216   -10690   -10948   -11043   -11202   -11460   -11673 
  -11750   -11685   -11541   -11460   -11497   -11564   -11604   -11610 
  -11561   -11466   -11327   -11122   -10903   -10806   -10825   -10764 
  -10505   -10107    -9684    -9340    -9209    -9526   -10336   -11252 
  -11923   -12366   -12672   -12796   -12722   -12575   -12415   -12128 
  -11549   -10690    -9798    -9077    -8571    -8398    -8721    -9462 
  -10314   -10986   -11389   -11587   -11665   -11759   -11985   -12326 
  -12633   -12618   -12081   -11157   -10035    -8814    -7832    -7549 
   -8120    -9354   -10902   -12447   -13680   -14300   -14189   -13552 
  -12680   -11619   -10264    -8775    -7584    -7076    -7474    -8791 
