Origin Time       2024/04/02 04:24:00
Lat.              40.133
Long.             141.712
Depth. (km)       71
Mag.              6.0
Station Code      NMRH03
Station Lat.      43.5508
Station Long.     144.9665
Station Height(m) 30
Record Time       2024/04/02 04:25:49
Sampling Freq(Hz) 100Hz
Duration Time(s)  130
Dir.              4
Scale Factor      7845(gal)/8223790
Max. Acc. (gal)   7.380
Last Correction   2024/04/02 04:25:49
Memo.             
[...]
  -17479   -17539   -17628   -17676   -17705   -17770   -17832   -17818 
  -17766   -17702   -17608   -17531   -17512   -17529   -17563   -17621 
  -17718   -17857   -17980   -17994   -17855   -17597   -17308   -17089 
  -17051   -17304   -17778   -18184   -18326   -18234   -17982   -17644 
  -17367   -17274   -17338   -17469   -17633   -17774   -17801   -17726 
  -17637   -17577   -17532   -17489   -17483   -17559   -17674   -17697 
  -17550   -17338   -17257   -17342   -17466   -17558   -17652   -17730 
  -17705   -17617   -17616   -17712   -17799   -17848   -17864   -17799 
  -17668   -17574   -17609   -17770   -17902   -17855   -17678   -17544 
  -17543   -17605   -17643   -17666   -17651   -17575   -17502   -17466 
  -17460   -17508   -17614   -17766   -17922   -18033   -18015   -17811 
  -17491   -17216   -17091   -17131   -17316   -17558   -17712   -17725 
  -17641   -17506   -17378   -17358   -17504   -17707   -17807   -17805 
  -17780   -17749   -17739   -17764   -17772   -17744   -17691   -17602 
  -17521   -17491   -17481   -17475   -17494   -17539   -17624   -17757 
  -17880   -17887   -17752   -17550   -17390   -17396   -17585   -17806 
  -17925   -17950   -17934   -17874   -17749   -17587   -17469   -17489 
  -17652   -17848   -17957   -17942   -17865   -17787   -17695   -17583 
  -17494   -17439   -17392   -17377   -17454   -17610   -17764   -17855 
  -17867   -17798   -17626   -17389   -17197   -17149   -17262   -17527 
  -17852   -18027   -17942   -17713   -17505   -17405   -17446   -17585 
  -17725   -17830   -17925   -17999   -17976   -17825   -17617   -17462 
  -17451   -17574   -17687   -17659   -17528   -17393   -17293   -17275 
  -17379   -17544   -17667   -17675   -17570   -17446   -17381   -17373 
  -17416   -17504   -17572   -17548   -17447   -17366   -17382   -17514 
  -17717   -17849   -17815   -17680   -17608   -17656   -17710   -17671 
  -17631   -17689   -17768   -17786   -17778   -17759   -17679   -17566 
  -17525   -17577   -17658   -17732   -17798   -17821   -17774   -17702 
  -17662   -17664   -17689   -17697   -17672   -17648   -17635   -17617 
  -17599   -17613   -17664   -17737   -17803   -17824   -17786   -17713 
  -17633   -17572   -17544   -17547   -17595   -17667   -17691   -17666 
  -17648   -17655   -17680   -17743   -17807   -17783   -17656   -17529 
  -17486   -17516   -17555   -17562   -17578   -17632   -17663   -17643 
  -17636   -17652   -17666   -17695   -17709   -17622   -17486   -17437 
  -17478   -17485   -17431   -17412   -17493   -17640   -17787   -17851 
  -17787   -17679   -17621   -17621   -17659   -17698   -17710   -17724 
  -17740   -17680   -17535   -17412   -17390   -17446   -17514   -17552 
  -17570   -17616   -17680   -17698   -17668   -17636   -17606   -17562 
  -17498   -17487   -17593   -17718   -17721   -17645   -17625   -17674 
  -17743   -17840   -17955   -18013   -17963   -17817   -17649   -17571 
  -17609   -17637   -17551   -17397   -17282   -17226   -17242   -17394 
  -17643   -17837   -17891   -17809   -17636   -17458   -17394   -17447 
  -17504   -17571   -17752   -18006   -18165   -18117   -17879   -17541 
  -17231   -17068   -17112   -17328   -17593   -17757   -17790   -17752 
  -17674   -17562   -17482   -17524   -17682   -17880   -18042   -18085 
  -17987   -17791   -17574   -17427   -17410   -17512   -17666   -17809 
  -17882   -17847   -17728   -17593   -17529   -17598   -17695   -17707 
  -17668   -17624   -17559   -17489   -17452   -17429   -17377   -17354 
  -17459   -17636   -17741   -17745   -17674   -17529   -17379   -17348 
  -17487   -17674   -17736   -17643   -17510   -17429   -17419   -17490 
  -17635   -17797   -17886   -17832   -17641   -17382   -17163   -17130 
  -17307   -17575   -17801   -17902   -17898   -17861   -17794   -17658 
  -17508   -17470   -17581   -17736   -17852   -17911   -17884   -17784 
  -17689   -17622   -17574   -17556   -17575   -17604   -17639   -17701 
  -17760   -17757   -17698   -17656   -17676   -17718   -17676   -17524 
  -17397   -17375   -17385   -17401   -17462   -17560   -17679   -17794 
  -17834   -17764   -17656   -17589   -17527   -17459   -17508   -17717 
  -17913   -17948   -17876   -17788   -17706   -17641   -17583   -17469 
  -17335   -17352   -17552   -17797   -17990   -18092   -18033   -17798 
  -17521   -17351   -17343   -17497   -17702   -17787   -17749   -17713 
  -17699   -17689   -17717   -17779   -17825   -17818   -17685   -17416 
  -17131   -16972   -17045   -17332   -17628   -17778   -17845   -17910 
  -17906   -17763   -17571   -17450   -17420   -17478   -17620   -17780 
  -17874   -17849   -17755   -17690   -17641   -17564   -17513   -17513 
  -17518   -17556   -17658   -17728   -17691   -17622   -17629   -17682 
  -17653   -17545   -17473   -17437   -17413   -17455   -17512   -17498 
  -17474   -17524   -17594   -17629   -17672   -17721   -17695   -17649 
  -17683   -17748   -17797   -17842   -17799   -17656   -17628   -17799 
  -17942   -17902   -17764   -17633   -17531   -17481   -17486   -17497 
  -17489   -17555   -17753   -17952   -17972   -17841   -17726   -17666 
  -17587   -17516   -17506   -17528   -17568   -17644   -17718   -17767 
  -17786   -17740   -17639   -17570   -17523   -17416   -17304   -17323 
  -17479   -17637   -17710   -17705   -17622   -17494   -17406   -17421 
  -17525   -17678   -17828   -17902   -17861   -17745   -17626   -17593 
  -17694   -17868   -17988   -17923   -17662   -17352   -17151   -17146 
  -17375   -17756   -18077   -18184   -18110   -17938   -17656   -17304 
  -17062   -17038   -17181   -17442   -17757   -17971   -17998   -17894 
  -17722   -17529   -17452   -17598   -17842   -17975   -17929   -17774 
  -17637   -17610   -17666   -17733   -17759   -17693   -17571   -17477 
  -17436   -17466   -17563   -17680   -17768   -17782   -17682   -17504 
  -17359   -17340   -17444   -17589   -17709   -17794   -17805   -17720 
  -17626   -17568   -17513   -17500   -17540   -17558   -17578   -17668 
  -17766   -17759   -17664   -17581   -17566   -17606   -17633   -17618 
  -17616   -17601   -17517   -17452   -17496   -17567   -17594   -17660 
  -17805   -17937   -17990   -17938   -17764   -17514   -17323   -17319 
  -17460   -17602   -17709   -17798   -17811   -17706   -17559   -17483 
  -17527   -17653   -17744   -17714   -17632   -17614   -17690   -17763 
  -17761   -17682   -17510   -17273   -17089   -17092   -17258   -17406 
  -17482   -17572   -17686   -17780   -17837   -17817   -17713   -17581 
  -17443   -17338   -17379   -17594   -17793   -17811   -17729   -17676 
  -17628   -17585   -17640   -17725   -17710   -17635   -17568   -17518 
  -17531   -17659   -17838   -17987   -18069   -18048   -17903   -17666 
  -17451   -17371   -17406   -17551   -17801   -17975   -17899   -17664 
  -17486   -17405   -17378   -17464   -17652   -17790   -17798   -17734 
  -17664   -17595   -17544   -17525   -17527   -17552   -17614   -17725 
  -17844   -17882   -17815   -17718   -17675   -17662   -17604   -17521 
  -17496   -17560   -17628   -17614   -17567   -17533   -17491   -17508 
  -17647   -17856   -18019   -18060   -17963   -17771   -17533   -17286 
  -17118   -17113   -17208   -17339   -17556   -17832   -17988   -17915 
  -17707   -17539   -17489   -17532   -17586   -17591   -17595   -17651 
  -17714   -17737   -17732   -17725   -17729   -17751   -17766   -17733 
  -17678   -17653   -17625   -17529   -17435   -17437   -17498   -17524 
  -17536   -17551   -17486   -17401   -17452   -17598   -17680   -17697 
  -17714   -17736   -17734   -17726   -17712   -17682   -17636   -17567 
  -17486   -17443   -17497   -17660   -17872   -18019   -18006   -17887 
  -17794   -17760   -17739   -17666   -17518   -17416   -17454   -17555 
  -17644   -17732   -17780   -17739   -17671   -17631   -17577   -17514 
  -17500   -17524   -17558   -17597   -17624   -17604   -17560   -17570 
  -17641   -17712   -17764   -17811   -17788   -17606   -17344   -17254 
  -17398   -17591   -17743   -17863   -17859   -17722   -17629   -17660 
  -17697   -17660   -17625   -17622   -17613   -17631   -17722   -17757 
  -17587   -17343   -17231   -17292   -17467   -17675   -17802   -17787 
  -17672   -17524   -17356   -17209   -17173   -17286   -17498   -17702 
  -17783   -17721   -17608   -17527   -17489   -17497   -17606   -17801 
  -17950   -17964   -17872   -17728   -17582   -17493   -17513   -17680 
  -17907   -18006   -17930   -17775   -17617   -17539   -17613   -17741 
  -17783   -17756   -17722   -17693   -17672   -17625   -17498   -17339 
  -17305   -17460   -17668   -17760   -17706   -17616   -17581   -17537 
  -17444   -17419   -17543   -17756   -17955   -18041   -17963   -17766 
  -17558   -17389   -17288   -17292   -17370   -17462   -17567   -17648 
  -17641   -17597   -17606   -17643   -17647   -17625   -17597   -17583 
  -17599   -17614   -17628   -17697   -17830   -17941   -17948   -17856 
  -17756   -17693   -17625   -17582   -17635   -17718   -17718   -17648 
  -17570   -17505   -17462   -17464   -17527   -17649   -17774   -17795 
  -17709   -17632   -17617   -17640   -17687   -17743   -17734   -17632 
  -17502   -17417   -17412   -17478   -17589   -17761   -17983   -18145 
  -18157   -18002   -17748   -17537   -17485   -17574   -17698   -17763 
  -17722   -17598   -17459   -17365   -17350   -17393   -17469   -17570 
  -17620   -17590   -17599   -17714   -17844   -17882   -17840   -17806 
  -17790   -17744   -17662   -17567   -17463   -17373   -17388   -17533 
  -17686   -17722   -17632   -17500   -17390   -17332   -17375   -17541 
  -17784   -18027   -18164   -18099   -17856   -17548   -17239   -16973 
  -16879   -17008   -17238   -17455   -17647   -17739   -17640   -17489 
  -17568   -17876   -18122   -18207   -18254   -18241   -18096   -17929 
  -17853   -17811   -17662   -17356   -16987   -16681   -16567   -16758 
  -17216   -17724   -18139   -18438   -18558   -18474   -18254   -17976 
  -17778   -17764   -17826   -17799   -17691   -17589   -17454   -17224 
  -17023   -17039   -17281   -17640   -18033   -18373   -18531   -18423 
  -18080   -17632   -17184   -16815   -16683   -16868   -17177   -17342 
  -17324   -17274   -17282   -17324   -17371   -17464   -17620   -17772 
  -17822   -17740   -17651   -17691   -17802   -17856   -17845   -17830 
  -17838   -17833   -17761   -17609   -17431   -17339   -17416   -17608 
  -17761   -17818   -17814   -17714   -17491   -17298   -17350   -17662 
  -18002   -18063   -17729   -17226   -16930   -16973   -17247   -17678 
  -18150   -18400   -18276   -17891   -17417   -16962   -16698   -16737 
  -16987   -17375   -17957   -18596   -18927   -18750   -18241   -17705 
  -17331   -17204   -17339   -17614   -17780   -17668   -17346   -16983 
  -16696   -16587   -16719   -17023   -17396   -17811   -18239   -18580 
  -18702   -18449   -17766   -16937   -16330   -15982   -15788   -15901 
  -16526   -17517   -18562   -19468   -20133   -20493   -20493   -20097 
  -19353   -18504   -17847   -17439   -17193   -17115   -17109   -16942 
  -16591   -16322   -16352   -16717   -17335   -18022   -18519   -18621 
  -18330   -17826   -17239   -16686   -16451   -16677   -17128   -17510 
  -17702   -17656   -17398   -17080   -16849   -16812   -17055   -17514 
  -17983   -18335   -18509   -18453   -18235   -18006   -17787   -17590 
  -17577   -17883   -18369   -18756   -18836   -18524   -17882   -17107 
  -16457   -16190   -16468   -17170   -17946   -18489   -18625   -18334 
  -17768   -17058   -16325   -15900   -16071   -16704   -17420   -17984 
  -18333   -18431   -18304   -18010   -17598   -17177   -16908   -16869 
  -16988   -17176   -17421   -17729   -18096   -18401   -18385   -17991 
  -17504   -17180   -17080   -17269   -17805   -18482   -18912   -18868 
  -18416   -17788   -17235   -16988   -17170   -17575   -17753   -17502 
  -17037   -16630   -16405   -16482   -16995   -17841   -18679   -19214 
  -19348   -19113   -18550   -17813   -17316   -17339   -17706   -18139 
  -18436   -18414   -18111   -17830   -17761   -17856   -17979   -18038 
  -17961   -17678   -17242   -16806   -16487   -16413   -16671   -17147 
  -17653   -18057   -18171   -17930   -17533   -17240   -17185   -17288 
  -17374   -17420   -17459   -17319   -16818   -16156   -15820   -16132 
  -17101   -18441   -19553   -19889   -19413   -18484   -17443   -16495 
  -15809   -15546   -15871   -16887   -18266   -19379   -19950   -20074 
  -19793   -19198   -18478   -17718   -17031   -16686   -16883   -17682 
  -18917   -19980   -20200   -19425   -17940   -16259   -15029   -14733 
  -15452   -16768   -17996   -18623   -18414   -17574   -16829   -16718 
  -17228   -18169   -19233   -19890   -19737   -18774   -17305   -15819 
  -14874   -14670   -14816   -14802   -14592   -14422   -14558   -15384 
  -17042   -19035   -20649   -21439   -21141   -19776   -17914   -16301 
  -15381   -15379   -16228   -17541   -18900   -19818   -19854   -19183 
  -18235   -17207   -16445   -16447   -17255   -18403   -19453   -20201 
  -20421   -20005   -19083   -17842   -16561   -15628   -15345   -15750 
  -16622   -17668   -18617   -19226   -19260   -18553   -17234   -15766 
  -14719   -14601   -15682   -17695   -19820   -21138   -21060   -19422 
  -16664   -13818   -11940   -11696   -13238   -16019   -18898   -20827 
  -21309   -20316   -18455   -16815   -16071   -16272   -17352   -19086 
  -20715   -21398   -20931   -19714   -18443   -17751   -17863   -18499 
  -19053   -19203   -19114   -18821   -18252   -17813   -17859   -17986 
  -17713   -17028   -16069   -15214   -15051   -15745   -17045   -18621 
  -20016   -20544   -19507   -16795   -13344   -10663    -9894   -11271 
  -14088   -17226   -19693   -20721   -20013   -18087   -16019   -14913 
  -15344   -17077   -19333   -21080   -21411   -20274   -18420   -16627 
  -15676   -16264   -18006   -19584   -20376   -20591   -20228   -19333 
  -18415   -17838   -17556   -17559   -17841   -18069   -17860   -17170 
  -16287   -15743   -16031   -17219   -18885   -20324   -20881   -20291 
  -18754   -16742   -14874   -13745   -13585   -14180   -15152   -16177 
  -17046   -17730   -18439   -19248   -19897   -20245   -20331   -20089 
  -19561   -18971   -18469   -18068   -17678   -17159   -16514   -15894 
  -15452   -15354   -15712   -16359   -17045   -17749   -18407   -18690 
  -18490   -18176   -18154   -18531   -19155   -19704   -19830   -19404 
  -18588   -17682   -17057   -17096   -17919   -19126   -20027   -20083 
  -19111   -17410   -15657   -14465   -14343   -15647   -18068   -20675 
  -22458   -22651   -21190   -18713   -15881   -13282   -11619   -11202 
  -11704   -12771   -14283   -15943   -17289   -18065   -18354   -18366 
  -18150   -17815   -17822   -18407   -19160   -19560   -19383   -18550 
  -17128   -15568   -14512   -14373   -15238   -16904   -18841   -20456 
  -21358   -21297   -20164   -18212   -16106   -14592   -14068   -14534 
  -15812   -17541   -19105   -19984   -20046   -19460   -18636   -18068 
  -17996   -18207   -18331   -18339   -18387   -18427   -18254   -17694 
  -16756   -15826   -15390   -15573   -16343   -17756   -19433   -20533 
  -20630   -19970   -18920   -17779   -16800   -16092   -15817   -16224 
  -17142   -18049   -18639   -18812   -18446   -17513   -16245   -15211 
  -15079   -16152   -18125   -20236   -21690   -21960   -20923   -19030 
  -17207   -16212   -16200   -16870   -17710   -18171   -17959   -17211 
  -16449   -16321   -17064   -18241   -19165   -19477   -19160   -18319 
  -17212   -16255   -15832   -16054   -16634   -17230   -17602   -17577 
  -17269   -16960   -16695   -16434   -16218   -16086   -16028   -16033 
  -16141   -16447   -17024   -17817   -18651   -19322   -19737   -20048 
  -20410   -20649   -20460   -19754   -18673   -17444   -16352   -15666 
  -15437   -15553   -15947   -16447   -16594   -16108   -15429   -15136 
  -15276   -15762   -16586   -17516   -18198   -18516   -18585   -18527 
  -18528   -18779   -19122   -19183   -18720   -17763   -16694   -15974 
  -15822   -16326   -17424   -18702   -19654   -20112   -20143   -19728 
  -18897   -17933   -17228   -17014   -17170   -17388   -17532   -17682 
  -17857   -17857   -17582   -17311   -17240   -17180   -16997   -16812 
  -16632   -16291   -15766   -15406   -15819   -17348   -19592   -21606 
  -22611   -22400   -21163   -19221   -17099   -15531   -15093   -15855 
  -17284   -18531   -19002   -18547   -17489   -16568   -16364   -16860 
  -17655   -18268   -18376   -17925   -17070   -16100   -15375   -15292 
  -16015   -17119   -17888   -17986   -17631   -17199   -16981   -17258 
  -18169   -19440   -20386   -20414   -19556   -18289   -17139   -16578 
  -16740   -17271   -17699   -17728   -17259   -16507   -15923   -15799 
  -16221   -17138   -18129   -18617   -18438   -17863   -17309   -17093 
  -17388   -18198   -19168   -19705   -19410   -18384   -17182   -16305 
  -15954   -16247   -17097   -18084   -18759   -18848   -18355   -17658 
  -17215   -17261   -17756   -18389   -18708   -18454   -17726   -16843 
  -16143   -15842   -15977   -16395   -16831   -17131   -17300   -17335 
  -17334   -17509   -17802   -17899   -17683   -17312   -17018   -16968 
  -17221   -17724   -18404   -19159   -19677   -19695   -19317   -18678 
  -17730   -16633   -15789   -15462   -15708   -16551   -17786   -18967 
  -19789   -20025   -19450   -18202   -16692   -15279   -14324   -14200 
  -14987   -16306   -17551   -18374   -18855   -19075   -18912   -18343 
  -17685   -17263   -17043   -16902   -17003   -17473   -18133   -18798 
  -19356   -19545   -19114   -18125   -16977   -16152   -15965   -16506 
  -17656   -19043   -20093   -20320   -19693   -18593   -17423   -16555 
  -16376   -16895   -17639   -18117   -18014   -17300   -16476   -16272 
  -16822   -17691   -18623   -19437   -19674   -19059   -17782   -16237 
  -14949   -14455   -14987   -16443   -18439   -20256   -21168   -20943 
  -19803   -18156   -16590   -15766   -15890   -16541   -17269   -17929 
  -18307   -18168   -17635   -17015   -16571   -16453   -16613   -16976 
  -17537   -18166   -18721   -19192   -19458   -19327   -18828   -18108 
  -17347   -16838   -16769   -17037   -17524   -18165   -18661   -18706 
  -18350   -17764   -17115   -16596   -16295   -16135   -16050   -16204 
  -16769   -17525   -18192   -18725   -18954   -18538   -17342   -15643 
  -14031   -13182   -13602   -15291   -17698   -20055   -21645   -21906 
  -20690   -18565   -16536   -15357   -15314   -16206   -17369   -18234 
  -18675   -18735   -18585   -18489   -18481   -18458   -18469   -18573 
  -18559   -18192   -17633   -17205   -16953   -16764   -16561   -16186 
  -15587   -15103   -15147   -15782   -16873   -18184   -19368   -20089 
  -20220   -19980   -19716   -19542   -19386   -19132   -18594   -17761 
  -16916   -16370   -16316   -16761   -17389   -17805   -17826   -17348 
  -16402   -15454   -15155   -15732   -16895   -18158   -19121   -19399 
  -18809   -17698   -16625   -16009   -16159   -17101   -18446   -19646 
  -20189   -19720   -18361   -16719   -15465   -15028   -15556   -16969 
  -18859   -20441   -21018   -20436   -19018   -17348   -16048   -15550 
  -15946   -16969   -18137   -18958   -19113   -18636   -17902   -17289 
  -16976   -16992   -17147   -17128   -16897   -16636   -16390   -16225 
  -16376   -16999   -17925   -18831   -19512   -19808   -19562   -18898 
  -18114   -17355   -16714   -16390   -16559   -17132   -17805   -18279 
  -18389   -18154   -17747   -17406   -17294   -17436   -17874   -18598 
