Origin Time       2024/04/02 04:24:00
Lat.              40.133
Long.             141.712
Depth. (km)       71
Mag.              6.0
Station Code      NMRH01
Station Lat.      43.7850
Station Long.     145.0246
Station Height(m) -30.5
Record Time       2024/04/02 04:26:29
Sampling Freq(Hz) 100Hz
Duration Time(s)  120
Dir.              3
Scale Factor      2942(gal)/8224139
Max. Acc. (gal)   0.303
Last Correction   2024/04/02 04:26:29
Memo.             
[...]
  151534   151592   151637   151622   151569   151586   151661   151665 
  151633   151679   151767   151825   151839   151807   151773   151775 
  151761   151725   151722   151746   151753   151723   151672   151676 
  151741   151777   151800   151837   151830   151773   151704   151672 
  151707   151735   151668   151592   151618   151686   151721   151734 
  151731   151718   151691   151675   151700   151723   151696   151668 
  151677   151684   151676   151675   151680   151699   151737   151767 
  151767   151738   151692   151636   151619   151675   151711   151679 
  151660   151710   151756   151746   151711   151679   151676   151717 
  151714   151629   151573   151606   151664   151694   151681   151673 
  151761   151895   151922   151846   151787   151767   151733   151706 
  151749   151811   151784   151680   151590   151569   151615   151668 
  151688   151715   151765   151794   151771   151702   151629   151603 
  151632   151660   151656   151622   151567   151522   151506   151521 
  151575   151634   151654   151649   151650   151610   151515   151490 
  151568   151630   151627   151625   151613   151555   151514   151536 
  151571   151590   151595   151571   151511   151463   151475   151526 
  151592   151694   151791   151825   151781   151661   151515   151447 
  151482   151556   151618   151659   151673   151664   151640   151596 
  151571   151615   151702   151740   151698   151633   151611   151607 
  151569   151564   151659   151768   151799   151767   151710   151696 
  151733   151740   151713   151699   151718   151731   151698   151677 
  151703   151686   151644   151683   151761   151754   151672   151611 
  151595   151598   151607   151625   151679   151780   151843   151787 
  151706   151702   151714   151683   151646   151654   151687   151684 
  151667   151691   151731   151748   151744   151742   151779   151842 
  151853   151798   151731   151652   151571   151544   151548   151576 
  151657   151733   151772   151802   151796   151754   151708   151638 
  151587   151618   151649   151614   151606   151675   151725   151725 
  151735   151749   151727   151694   151686   151695   151713   151753 
  151787   151787   151775   151767   151769   151779   151737   151680 
  151713   151760   151729   151714   151744   151730   151686   151688 
  151722   151730   151700   151648   151638   151669   151645   151602 
  151659   151748   151731   151663   151619   151603   151632   151681 
  151711   151737   151738   151704   151706   151750   151760   151704 
  151649   151626   151645   151717   151761   151727   151711   151756 
  151783   151741   151684   151696   151756   151735   151619   151564 
  151656   151784   151841   151831   151767   151702   151690   151657 
  151584   151587   151690   151783   151777   151710   151669   151672 
  151680   151672   151610   151492   151428   151475   151551   151640 
  151760   151822   151814   151784   151715   151652   151673   151713 
  151683   151637   151634   151629   151600   151609   151668   151700 
  151694   151687   151636   151541   151487   151491   151529   151557 
  151534   151501   151528   151594   151622   151619   151632   151652 
  151673   151694   151700   151707   151707   151708   151742   151721 
  151633   151634   151694   151679   151675   151737   151804   151872 
  151904   151864   151810   151768   151738   151735   151744   151764 
  151788   151783   151756   151713   151646   151605   151648   151725 
  151737   151676   151605   151586   151653   151748   151792   151810 
  151796   151717   151634   151644   151711   151726   151683   151672 
  151698   151686   151625   151564   151534   151559   151595   151580 
  151591   151704   151814   151835   151796   151719   151637   151584 
  151560   151538   151551   151615   151669   151721   151785   151788 
  151727   151681   151675   151691   151686   151659   151696   151779 
  151780   151742   151756   151779   151796   151826   151827   151794 
  151756   151714   151652   151586   151555   151590   151691   151767 
  151771   151757   151753   151787   151808   151707   151555   151479 
  151486   151563   151657   151650   151580   151578   151606   151571 
  151524   151545   151615   151663   151653   151579   151461   151398 
  151444   151530   151603   151654   151657   151634   151637   151661 
  151690   151704   151721   151768   151787   151734   151673   151652 
  151690   151765   151754   151645   151575   151583   151630   151700 
  151765   151812   151841   151835   151803   151768   151711   151617 
  151567   151619   151684   151692   151683   151684   151707   151750 
  151771   151748   151726   151711   151671   151649   151652   151634 
  151629   151672   151711   151692   151640   151606   151619   151665 
  151690   151699   151729   151730   151699   151668   151591   151533 
  151611   151722   151722   151649   151587   151537   151490   151525 
  151668   151799   151838   151795   151692   151619   151640   151688 
  151744   151800   151754   151633   151609   151723   151857   151875 
  151802   151758   151744   151731   151715   151657   151634   151700 
  151717   151667   151667   151677   151698   151767   151780   151730 
  151710   151717   151749   151777   151719   151632   151640   151719 
  151783   151775   151731   151762   151816   151808   151795   151756 
  151649   151568   151559   151564   151579   151633   151691   151711 
  151719   151695   151625   151587   151588   151596   151649   151706 
  151680   151633   151649   151686   151683   151638   151595   151617 
  151684   151711   151668   151629   151669   151758   151799   151754 
  151699   151699   151707   151667   151622   151610   151615   151644 
  151703   151750   151717   151623   151588   151654   151695   151659 
  151677   151787   151860   151837   151754   151681   151681   151756 
  151821   151814   151773   151735   151684   151679   151714   151708 
  151710   151740   151715   151664   151621   151598   151656   151753 
  151798   151792   151768   151753   151745   151699   151636   151629 
  151671   151708   151737   151741   151708   151729   151825   151864 
  151779   151653   151569   151529   151507   151537   151634   151707 
  151715   151726   151746   151729   151679   151615   151569   151586 
  151622   151587   151510   151511   151560   151557   151548   151587 
  151619   151640   151695   151699   151607   151542   151557   151622 
  151699   151692   151582   151488   151478   151474   151463   151528 
  151679   151815   151821   151742   151723   151768   151776   151699 
  151583   151522   151503   151479   151507   151605   151704   151777 
  151791   151741   151711   151703   151676   151676   151675   151622 
  151587   151623   151694   151752   151773   151764   151767   151796 
  151804   151756   151699   151681   151663   151613   151573   151603 
  151708   151815   151843   151816   151780   151742   151726   151715 
  151687   151688   151710   151687   151642   151629   151633   151600 
  151565   151629   151764   151821   151745   151600   151464   151448 
  151537   151573   151575   151667   151757   151722   151656   151668 
  151737   151822   151848   151764   151698   151725   151731   151677 
  151660   151706   151734   151725   151706   151668   151614   151553 
  151519   151545   151629   151702   151700   151653   151634   151703 
  151838   151892   151845   151816   151799   151730   151665   151657 
  151687   151744   151802   151823   151829   151848   151868   151850 
  151777   151692   151625   151560   151545   151626   151729   151784 
  151815   151834   151803   151744   151722   151714   151645   151561 
  151557   151576   151565   151588   151634   151669   151695   151665 
  151611   151634   151696   151691   151615   151559   151556   151563 
  151573   151619   151687   151746   151783   151749   151642   151578 
  151630   151742   151833   151842   151771   151706   151661   151579 
  151519   151564   151638   151660   151684   151756   151808   151787 
  151745   151748   151752   151725   151695   151679   151723   151802 
  151821   151787   151771   151802   151856   151862   151784   151699 
  151667   151634   151610   151633   151661   151664   151649   151614 
  151559   151494   151459   151499   151588   151653   151657   151611 
  151538   151484   151501   151548   151553   151537   151537   151482 
  151364   151324   151382   151457   151534   151594   151596   151571 
  151611   151711   151715   151629   151592   151598   151580   151557 
  151599   151737   151866   151887   151846   151803   151794   151852 
  151907   151903   151860   151760   151649   151625   151667   151746 
  151838   151887   151914   151943   151926   151856   151812   151827 
  151807   151708   151618   151545   151468   151497   151668   151834 
  151908   151915   151884   151880   151876   151783   151687   151660 
  151613   151545   151524   151549   151618   151713   151825   151945 
  151985   151907   151796   151695   151586   151488   151463   151514 
  151534   151498   151534   151629   151652   151602   151557   151576 
  151614   151586   151541   151578   151696   151795   151821   151829 
  151827   151772   151675   151584   151526   151538   151636   151718 
  151745   151812   151897   151869   151769   151721   151700   151668 
  151667   151653   151605   151605   151640   151667   151704   151717 
  151706   151708   151741   151818   151858   151846   151843   151788 
  151650   151519   151457   151476   151534   151559   151573   151609 
  151619   151618   151652   151718   151783   151745   151588   151498 
  151553   151599   151538   151502   151615   151752   151777   151723 
  151626   151533   151503   151501   151463   151456   151544   151625 
  151657   151727   151802   151791   151703   151619   151596   151618 
  151656   151725   151807   151860   151869   151795   151634   151536 
  151590   151753   151930   152055   152136   152151   151999   151713 
  151505   151484   151565   151663   151722   151764   151881   152005 
  152011   151931   151864   151806   151690   151533   151397   151375 
  151526   151727   151841   151868   151838   151791   151750   151696 
  151598   151459   151329   151295   151401   151590   151796   151939 
  151964   151900   151749   151610   151653   151795   151845   151783 
  151656   151544   151498   151474   151521   151679   151757   151615 
  151389   151282   151325   151359   151357   151532   151869   152068 
  151965   151667   151433   151430   151517   151538   151560   151569 
  151495   151470   151595   151783   152018   152236   152215   151943 
  151638   151374   151181   151189   151371   151548   151703   151862 
  151964   152031   152037   151934   151843   151777   151646   151546 
  151551   151600   151656   151642   151567   151596   151744   151843 
  151861   151865   151868   151857   151761   151609   151579   151673 
  151729   151733   151745   151779   151862   151981   152026   151960 
  151873   151821   151768   151675   151548   151479   151586   151831 
  152001   151964   151831   151727   151576   151383   151279   151236 
  151232   151376   151594   151710   151714   151644   151541   151519 
  151572   151571   151510   151502   151590   151684   151704   151684 
  151735   151903   152050   152047   151900   151668   151428   151237 
  151201   151367   151546   151590   151572   151552   151563   151657 
  151777   151830   151872   151920   151821   151546   151281   151173 
  151259   151452   151641   151830   152023   152136   152166   152127 
  152020   151929   151829   151642   151453   151353   151308   151274 
  151335   151610   151966   152116   152089   152065   151973   151807 
  151727   151676   151588   151599   151688   151741   151810   151891 
  151834   151645   151579   151726   151795   151632   151429   151363 
  151488   151735   151875   151785   151636   151614   151696   151804 
  151879   151833   151687   151538   151465   151536   151653   151607 
  151482   151552   151767   151810   151659   151548   151483   151374 
  151289   151286   151386   151627   151891   152000   152003   152030 
  152091   152107   151995   151768   151596   151644   151858   152010 
  151899   151572   151335   151387   151582   151710   151740   151691 
  151654   151761   151945   152066   152053   151906   151787   151761 
  151668   151537   151606   151833   151964   151954   151956   151970 
  151843   151627   151525   151509   151484   151521   151621   151645 
  151605   151564   151416   151224   151205   151224   151163   151214 
  151455   151806   152166   152377   152263   151838   151444   151317 
  151266   151152   151102   151148   151227   151343   151437   151495 
  151659   151918   152109   152150   152093   152097   152194   152211 
  152039   151686   151244   150982   151036   151162   151227   151393 
  151683   151965   152149   152199   152122   151931   151692   151476 
  151312   151262   151343   151517   151738   151926   152035   152080 
  152043   151875   151661   151615   151730   151780   151702   151642 
  151713   151849   151907   151830   151772   151897   152007   151854 
  151615   151506   151486   151486   151529   151665   151842   151937 
  151939   151893   151860   151893   151857   151729   151729   151843 
  151883   151818   151699   151586   151498   151422   151383   151433 
  151578   151717   151800   151907   152000   151978   151885   151688 
  151321   150961   150834   151013   151374   151663   151710   151568 
  151487   151641   151827   151750   151561   151499   151437   151309 
  151210   151190   151341   151626   151857   152001   152085   152088 
  152082   152070   151960   151814   151767   151831   151942   151911 
  151611   151337   151417   151692   151891   151991   151968   151803 
  151648   151591   151571   151648   151885   152119   152257   152356 
  152334   152134   151924   151812   151800   151866   151831   151578 
  151326   151276   151336   151349   151268   151167   151127   151110 
  151059   151070   151275   151575   151789   151875   151868   151869 
  151961   152031   151991   151926   151880   151803   151714   151699 
  151823   151976   151962   151845   151769   151669   151563   151584 
  151603   151444   151205   151036   151100   151470   151856   151965 
  151888   151826   151827   151735   151542   151594   151924   152100 
  152001   151892   151823   151669   151505   151522   151691   151775 
  151667   151602   151754   151849   151652   151378   151264   151321 
  151467   151551   151506   151497   151623   151722   151698   151719 
  151831   151821   151652   151569   151656   151741   151758   151781 
  151842   151920   151888   151671   151513   151526   151487   151417 
  151471   151559   151611   151660   151702   151775   151896   151981 
  152018   152072   152042   151816   151561   151505   151600   151671 
  151664   151700   151872   152016   151918   151660   151425   151235 
  151116   151137   151258   151345   151380   151492   151642   151656 
  151649   151831   152054   152077   151929   151729   151569   151526 
  151567   151622   151700   151777   151822   151902   151974   151842 
  151565   151375   151302   151340   151453   151515   151587   151738 
  151829   151849   151938   152081   152190   152177   151999   151827 
  151850   151927   151868   151758   151722   151708   151661   151603 
  151568   151524   151425   151382   151503   151640   151675   151711 
  151749   151687   151555   151418   151335   151389   151560   151738 
  151802   151663   151451   151417   151518   151559   151596   151683 
  151690   151625   151582   151560   151596   151679   151707   151692 
  151715   151783   151825   151753   151606   151501   151471   151480 
  151505   151524   151567   151711   151887   151954   151953   151976 
  152031   152042   151899   151636   151429   151355   151363   151475 
  151711   151977   152224   152346   152209   152004   151942   151911 
  151839   151841   151927   151987   151906   151687   151470   151344 
  151314   151394   151572   151826   152012   151896   151560   151312 
  151194   151081   151042   151156   151289   151325   151340   151426 
  151602   151791   151881   151889   151884   151819   151644   151391 
  151178   151133   151251   151461   151752   151987   152051   152074 
  152074   151920   151729   151663   151661   151680   151707   151664 
  151587   151569   151567   151555   151613   151726   151794   151768 
  151694   151615   151529   151418   151332   151359   151511   151687 
  151765   151780   151875   152016   152022   151875   151675   151461 
  151314   151376   151615   151816   151865   151839   151830   151802 
  151761   151818   151912   151902   151857   151869   151896   151876 
  151791   151718   151740   151785   151803   151856   151904   151868 
  151789   151661   151478   151409   151528   151691   151807   151927 
  152038   152058   151997   151941   151862   151654   151420   151312 
  151276   151299   151411   151482   151509   151675   151923   152020 
  152020   152081   152127   152111   152122   152118   152054   151988 
  151896   151762   151654   151590   151529   151429   151290   151225 
  151313   151475   151629   151715   151765   151873   151927   151810 
  151688   151652   151671   151798   151956   151983   151912   151838 
  151769   151761   151814   151779   151610   151488   151515   151595 
  151595   151506   151463   151509   151557   151569   151518   151445 
  151464   151573   151691   151746   151704   151598   151478   151424 
  151509   151684   151881   152030   152027   151875   151679   151587 
  151671   151749   151660   151546   151521   151521   151592   151731 
  151776   151722   151703   151721   151722   151735   151802   151879 
  151862   151734   151641   151707   151825   151792   151629   151479 
  151384   151328   151282   151249   151317   151471   151555   151584 
  151686   151821   151856   151777   151692   151644   151626   151683 
  151748   151667   151490   151357   151303   151326   151356   151366 
  151426   151529   151665   151834   151900   151831   151738   151667 
  151627   151657   151744   151785   151733   151680   151686   151717 
  151706   151603   151460   151345   151276   151272   151328   151436 
  151573   151677   151796   151997   152096   151989   151902   151903 
  151833   151676   151529   151437   151341   151181   151062   151158 
  151424   151615   151664   151731   151877   152004   152050   152030 
  152012   151962   151771   151559   151537   151625   151641   151642 
  151686   151672   151615   151622   151696   151787   151825   151772 
  151668   151560   151474   151428   151426   151451   151514   151634 
  151796   151941   151951   151795   151629   151545   151505   151556 
  151703   151812   151875   151968   152084   152200   152267   152278 
  152274   152200   152027   151891   151852   151842   151865   151946 
  151976   151896   151783   151676   151592   151584   151650   151700 
  151690   151677   151704   151761   151843   151893   151873   151879 
  151872   151671   151349   151158   151206   151410   151595   151723 
  151854   151908   151796   151606   151499   151524   151595   151660 
  151748   151835   151815   151657   151467   151386   151430   151495 
