Origin Time       2024/04/02 04:24:00
Lat.              40.133
Long.             141.712
Depth. (km)       71
Mag.              6.0
Station Code      NMRH01
Station Lat.      43.7850
Station Long.     145.0246
Station Height(m) 80
Record Time       2024/04/02 04:26:29
Sampling Freq(Hz) 100Hz
Duration Time(s)  120
Dir.              6
Scale Factor      7845(gal)/8223790
Max. Acc. (gal)   0.863
Last Correction   2024/04/02 04:26:29
Memo.             
[...]
   17246    17385    17456    17377    17280    17344    17504    17541 
   17432    17352    17378    17410    17371    17331    17367    17406 
   17354    17273    17271    17351    17416    17381    17305    17344 
   17490    17556    17448    17257    17139    17181    17301    17377 
   17405    17442    17504    17562    17551    17452    17334    17258 
   17248    17335    17454    17463    17370    17350    17419    17435 
   17382    17335    17308    17309    17350    17381    17398    17463 
   17532    17510    17450    17447    17479    17467    17367    17262 
   17296    17412    17416    17319    17257    17262    17328    17415 
   17447    17435    17444    17442    17383    17334    17336    17354 
   17385    17420    17389    17325    17327    17356    17358    17359 
   17381    17397    17390    17379    17419    17494    17477    17316 
   17176    17221    17425    17610    17593    17404    17324    17482 
   17640    17558    17319    17188    17285    17433    17401    17240 
   17230    17429    17583    17494    17258    17134    17244    17390 
   17329    17212    17317    17571    17671    17523    17323    17278 
   17366    17421    17342    17196    17169    17331    17508    17547 
   17510    17471    17405    17311    17244    17263    17356    17419 
   17363    17274    17265    17292    17285    17270    17275    17308 
   17394    17498    17490    17331    17197    17247    17396    17436 
   17315    17199    17263    17470    17579    17443    17215    17166 
   17336    17518    17541    17431    17359    17436    17554    17506 
   17323    17258    17375    17454    17408    17373    17413    17470 
   17486    17420    17304    17257    17328    17424    17442    17419 
   17433    17451    17402    17311    17230    17212    17324    17486 
   17498    17354    17269    17363    17524    17572    17481    17371 
   17338    17344    17344    17370    17421    17419    17365    17370 
   17447    17458    17338    17178    17108    17180    17323    17382 
   17319    17323    17493    17655    17629    17446    17265    17200 
   17242    17313    17369    17389    17393    17452    17562    17577 
   17423    17253    17230    17301    17350    17379    17443    17521 
   17533    17451    17370    17371    17424    17477    17512    17514 
   17489    17442    17346    17197    17093    17140    17315    17456 
   17452    17386    17397    17481    17502    17361    17149    17066 
   17184    17389    17493    17401    17230    17196    17311    17371 
   17311    17277    17354    17467    17510    17416    17234    17136 
   17213    17354    17416    17377    17323    17335    17410    17487 
   17516    17460    17363    17340    17421    17491    17479    17427 
   17409    17452    17482    17400    17255    17196    17286    17439 
   17512    17475    17433    17444    17448    17375    17244    17149 
   17169    17292    17408    17429    17392    17377    17402    17442 
   17451    17410    17365    17352    17382    17452    17497    17433 
   17321    17305    17367    17375    17308    17258    17288    17385 
   17469    17466    17401    17338    17304    17274    17215    17220 
   17405    17643    17662    17439    17234    17213    17305    17397 
   17443    17436    17415    17412    17383    17319    17269    17263 
   17313    17392    17401    17334    17348    17510    17639    17555 
   17342    17255    17385    17556    17551    17350    17192    17284 
   17470    17466    17288    17158    17227    17440    17551    17460 
   17378    17436    17536    17528    17363    17194    17230    17427 
   17563    17516    17389    17374    17464    17483    17394    17285 
   17189    17157    17216    17284    17329    17389    17421    17404 
   17392    17381    17344    17320    17334    17375    17456    17541 
   17513    17367    17265    17302    17379    17354    17277    17300 
   17448    17577    17535    17358    17253    17324    17451    17467 
   17381    17319    17336    17382    17388    17336    17289    17323 
   17431    17504    17442    17302    17255    17338    17397    17358 
   17359    17491    17604    17541    17365    17242    17280    17440 
   17558    17487    17327    17280    17359    17435    17427    17366 
   17331    17332    17320    17305    17301    17307    17370    17483 
   17548    17551    17528    17459    17367    17323    17317    17317 
   17365    17467    17540    17518    17420    17361    17421    17463 
   17323    17099    17024    17142    17301    17397    17425    17379 
   17317    17363    17490    17518    17394    17238    17190    17311 
   17483    17496    17315    17173    17228    17342    17361    17336 
   17340    17377    17455    17500    17405    17262    17243    17358 
   17470    17439    17280    17153    17174    17285    17343    17324 
   17361    17525    17637    17535    17366    17344    17401    17352 
   17220    17169    17244    17351    17409    17416    17432    17497 
   17523    17410    17277    17288    17397    17478    17443    17296 
   17217    17347    17556    17620    17497    17354    17377    17539 
   17616    17479    17285    17247    17336    17365    17278    17199 
   17259    17417    17471    17362    17262    17296    17389    17396 
   17285    17217    17329    17489    17462    17281    17200    17286 
   17390    17459    17551    17625    17568    17377    17208    17235 
   17398    17459    17344    17269    17386    17540    17527    17361 
   17226    17267    17398    17397    17274    17266    17400    17462 
   17366    17273    17327    17454    17477    17356    17243    17267 
   17369    17420    17415    17394    17375    17367    17355    17371 
   17478    17581    17554    17467    17435    17428    17397    17339 
   17284    17304    17423    17531    17521    17437    17409    17450 
   17423    17294    17197    17196    17273    17401    17491    17473 
   17412    17393    17396    17369    17328    17320    17319    17317 
   17363    17421    17405    17355    17342    17361    17393    17389 
   17336    17324    17393    17443    17402    17336    17311    17307 
   17335    17419    17477    17462    17442    17409    17311    17217 
   17246    17383    17500    17479    17374    17335    17377    17367 
   17280    17239    17312    17401    17431    17452    17487    17486 
   17455    17432    17406    17397    17428    17455    17460    17486 
   17493    17420    17339    17350    17409    17402    17312    17247 
   17254    17262    17257    17300    17370    17409    17420    17392 
   17300    17176    17103    17142    17281    17431    17487    17397 
   17243    17185    17270    17410    17474    17413    17308    17238 
   17200    17193    17213    17248    17328    17428    17466    17456 
   17513    17610    17578    17398    17244    17236    17336    17416 
   17425    17458    17543    17572    17521    17444    17402    17460 
   17568    17550    17383    17211    17139    17200    17332    17421 
   17431    17405    17420    17496    17551    17514    17450    17448 
   17466    17401    17281    17173    17100    17167    17432    17691 
   17730    17610    17505    17502    17537    17467    17307    17201 
   17204    17265    17317    17289    17194    17178    17338    17545 
   17593    17442    17242    17132    17132    17170    17215    17292 
   17371    17424    17513    17618    17579    17371    17200    17223 
   17381    17487    17452    17386    17455    17622    17678    17548 
   17361    17234    17208    17235    17196    17119    17203    17464 
   17643    17612    17518    17440    17338    17275    17331    17443 
   17521    17498    17382    17301    17311    17313    17231    17140 
   17170    17334    17540    17686    17672    17517    17374    17305 
   17235    17128    17072    17172    17363    17471    17469    17442 
   17406    17354    17319    17338    17385    17373    17235    17093 
   17150    17338    17393    17323    17367    17539    17635    17536 
   17302    17118    17169    17375    17462    17358    17281    17355 
   17460    17458    17389    17365    17375    17366    17377    17435 
   17477    17477    17486    17523    17548    17491    17307    17138 
   17199    17478    17756    17840    17771    17712    17590    17285 
   17010    17001    17182    17352    17401    17392    17501    17702 
   17707    17415    17070    16919    16949    17019    17078    17212 
   17502    17803    17876    17707    17493    17406    17424    17362 
   17166    17010    17043    17265    17543    17703    17707    17622 
   17489    17335    17165    17022    17080    17363    17583    17540 
   17390    17327    17300    17185    17066    17163    17416    17460 
   17196    16964    17049    17300    17427    17446    17554    17710 
   17670    17381    17134    17242    17537    17543    17227    17047 
   17207    17448    17524    17458    17505    17798    18018    17791 
   17277    16893    16811    16951    17109    17153    17216    17446 
   17718    17849    17776    17543    17316    17251    17288    17301 
   17285    17275    17301    17328    17320    17381    17570    17728 
   17749    17698    17626    17547    17425    17261    17230    17424 
   17558    17383    17095    17016    17207    17448    17514    17415 
   17386    17577    17787    17685    17239    16811    16773    17107 
   17419    17415    17250    17239    17355    17383    17315    17231 
   17182    17286    17545    17741    17734    17598    17471    17427 
   17378    17234    17109    17123    17246    17396    17454    17350 
   17267    17392    17556    17477    17150    16861    16903    17223 
   17462    17443    17347    17350    17448    17558    17598    17560 
   17510    17512    17613    17699    17536    17165    16903    16934 
   17192    17436    17437    17302    17358    17614    17741    17543 
   17274    17316    17606    17709    17466    17184    17132    17232 
   17321    17406    17518    17575    17593    17693    17772    17620 
   17300    17088    17099    17196    17185    17061    17047    17273 
   17527    17595    17589    17644    17594    17288    16953    16926 
   17234    17586    17674    17487    17347    17448    17517    17267 
   16934    16934    17290    17676    17818    17699    17454    17142 
   16883    16965    17396    17722    17672    17487    17451    17543 
   17571    17352    16985    16888    17253    17712    17811    17560 
   17313    17281    17348    17332    17308    17496    17811    17841 
   17393    16846    16784    17242    17614    17523    17254    17188 
   17388    17718    17917    17811    17594    17577    17737    17705 
   17288    16856    16849    17149    17305    17178    17049    17149 
   17344    17397    17289    17178    17219    17454    17658    17529 
   17224    17173    17339    17336    17147    17038    17111    17361 
   17698    17964    18069    17955    17541    16983    16702    16881 
   17154    17162    17095    17292    17679    17848    17571    17118 
   16962    17217    17558    17655    17552    17585    17837    17938 
   17604    17012    16552    16501    16829    17221    17459    17601 
   17718    17713    17558    17424    17397    17355    17265    17280 
   17439    17558    17473    17247    17084    17097    17220    17328 
   17388    17471    17618    17784    17868    17725    17320    16927 
   16937    17389    17891    18030    17813    17590    17540    17493 
   17332    17192    17226    17423    17618    17610    17385    17119 
   16991    17038    17201    17343    17348    17305    17394    17563 
   17604    17424    17122    16926    17031    17382    17667    17636 
   17363    17173    17284    17535    17535    17169    16800    16794 
   17062    17274    17328    17421    17676    17898    17844    17575 
   17398    17470    17548    17315    16915    16769    16906    17018 
   17000    17011    17186    17464    17658    17740    17825    17879 
   17747    17405    17136    17311    17806    18114    18067    17856 
   17629    17481    17451    17443    17373    17274    17185    17173 
   17311    17425    17254    16930    16862    17151    17505    17614 
   17429    17207    17247    17498    17655    17560    17293    17064 
   17050    17182    17251    17212    17146    17109    17173    17363 
   17510    17478    17437    17572    17730    17659    17352    17127 
   17239    17513    17643    17566    17375    17244    17307    17412 
   17363    17243    17190    17194    17242    17373    17581    17759 
   17718    17447    17213    17240    17466    17670    17693    17570 
   17447    17370    17290    17108    16868    16873    17227    17563 
   17649    17616    17518    17254    16929    16900    17289    17713 
   17744    17509    17452    17590    17539    17167    16781    16760 
   17113    17432    17410    17253    17298    17536    17662    17513 
   17290    17246    17350    17460    17527    17544    17594    17712 
   17732    17532    17213    16927    16804    16888    17101    17392 
   17718    17890    17807    17653    17601    17613    17577    17433 
   17274    17231    17216    17105    17076    17261    17459    17491 
   17467    17544    17678    17668    17416    17068    16862    16951 
   17277    17552    17612    17599    17653    17689    17547    17231 
   17003    17070    17232    17170    16942    16799    16831    17026 
   17281    17423    17451    17554    17832    18154    18280    18087 
   17747    17572    17629    17674    17525    17226    16910    16773 
   16862    16951    16946    17012    17138    17122    16985    16985 
   17234    17514    17527    17319    17265    17520    17784    17767 
   17585    17535    17706    17925    17971    17811    17668    17693 
   17664    17343    16934    16791    16926    17093    17130    17092 
   17126    17235    17304    17294    17231    17154    17145    17220 
   17296    17344    17371    17347    17288    17267    17329    17487 
   17680    17761    17670    17496    17382    17402    17459    17412 
   17263    17161    17238    17451    17585    17517    17408    17435 
   17525    17518    17346    17085    16993    17196    17432    17458 
   17420    17548    17767    17811    17631    17455    17409    17374 
   17257    17155    17226    17455    17617    17566    17413    17312 
   17271    17261    17331    17489    17585    17416    17022    16768 
   16845    16993    17050    17188    17443    17608    17563    17404 
   17321    17404    17533    17554    17446    17315    17282    17324 
   17321    17285    17298    17334    17334    17331    17370    17419 
   17389    17251    17159    17275    17539    17751    17788    17695 
   17604    17537    17396    17207    17169    17370    17641    17722 
   17508    17217    17172    17323    17367    17261    17180    17203 
   17261    17275    17286    17348    17401    17398    17354    17290 
   17316    17497    17675    17675    17510    17296    17149    17107 
   17104    17130    17270    17496    17649    17653    17583    17543 
   17521    17466    17429    17446    17458    17452    17435    17356 
   17270    17308    17439    17517    17508    17456    17369    17296 
   17348    17486    17532    17462    17406    17427    17466    17432 
   17289    17153    17143    17178    17120    17068    17182    17339 
   17336    17230    17246    17533    17955    18145    18000    17799 
   17726    17655    17443    17182    17103    17240    17392    17373 
   17224    17209    17455    17686    17610    17325    17088    16970 
   16939    16978    17061    17158    17239    17267    17293    17415 
   17604    17699    17635    17510    17420    17336    17254    17211 
   17193    17205    17332    17570    17745    17734    17604    17464 
   17339    17250    17267    17385    17464    17437    17396    17444 
   17567    17683    17741    17697    17579    17469    17350    17161 
   16970    16841    16773    16852    17105    17385    17593    17710 
   17672    17537    17451    17390    17285    17203    17184    17189 
   17189    17190    17227    17301    17301    17136    16947    16980 
   17236    17482    17500    17359    17392    17679    17853    17679 
   17419    17421    17633    17744    17660    17512    17390    17344 
   17302    17120    16910    16893    17030    17196    17319    17340 
   17329    17396    17502    17502    17334    17182    17263    17458 
   17516    17423    17312    17274    17343    17428    17369    17184 
   17059    17092    17236    17389    17452    17427    17375    17316 
   17247    17240    17379    17566    17621    17631    17805    18011 
   17882    17401    16970    16907    17118    17247    17158    17130 
   17367    17587    17485    17221    17112    17186    17296    17340 
   17344    17415    17544    17605    17572    17513    17402    17246 
   17143    17162    17325    17536    17590    17479    17386    17375 
   17394    17379    17301    17235    17294    17448    17601    17699 
   17706    17660    17652    17645    17543    17371    17253    17250 
   17323    17363    17328    17288    17294    17315    17294    17257 
   17302    17431    17528    17571    17598    17582    17533    17518 
   17524    17506    17485    17496    17563    17667    17730    17675 
   17504    17307    17199    17231    17332    17378    17331    17269 
   17219    17123    17001    16972    17081    17255    17389    17417 
   17370    17307    17192    17005    16900    17028    17312    17520 
   17551    17491    17440    17388    17307    17223    17207    17298 
   17405    17388    17321    17374    17524    17622    17564    17389 
   17304    17427    17586    17613    17545    17462    17420    17444 
   17464    17425    17393    17436    17510    17498    17350    17159 
   17069    17108    17196    17259    17300    17369    17504    17645 
   17685    17583    17427    17338    17329    17292    17188    17126 
   17185    17332    17473    17506    17442    17383    17363    17374 
   17459    17552    17527    17454    17493    17595    17585    17423 
   17243    17203    17293    17355    17313    17263    17342    17536 
   17641    17525    17329    17261    17324    17408    17456    17433 
   17342    17294    17325    17284    17149    17070    17104    17203 
   17323    17436    17547    17674    17752    17709    17602    17490 
   17339    17184    17130    17143    17165    17247    17328    17300 
   17250    17257    17301    17386    17431    17354    17261    17211 
   17150    17108    17135    17226    17371    17512    17564    17527 
   17477    17475    17470    17382    17259    17196    17193    17188 
   17176    17265    17466    17574    17437    17201    17085    17109 
   17173    17239    17331    17489    17728    17906    17806    17535 
   17420    17485    17490    17367    17220    17126    17119    17190 
   17277    17362    17478    17579    17548    17421    17381    17469 
   17548    17528    17458    17451    17540    17604    17545    17452 
   17404    17354    17294    17274    17280    17269    17234    17208 
   17250    17348    17416    17420    17392    17382    17451    17560 
   17572    17489    17479    17572    17599    17504    17385    17347 
