Origin Time       2024/04/02 04:24:00
Lat.              40.133
Long.             141.712
Depth. (km)       71
Mag.              6.0
Station Code      NMRH01
Station Lat.      43.7850
Station Long.     145.0246
Station Height(m) -30.5
Record Time       2024/04/02 04:26:29
Sampling Freq(Hz) 100Hz
Duration Time(s)  120
Dir.              2
Scale Factor      2942(gal)/8224139
Max. Acc. (gal)   0.607
Last Correction   2024/04/02 04:26:29
Memo.             
[...]
   63849    63913    64007    64038    64006    63936    63883    63890 
   63910    63938    63983    64000    64034    64085    64069    64007 
   63961    63944    63964    63945    63845    63802    63868    63929 
   63931    63915    63900    63900    63894    63838    63759    63722 
   63755    63828    63853    63814    63811    63868    63914    63937 
   63936    63930    63971    64007    64011    64056    64111    64112 
   64089    64042    63991    63996    64014    64012    64021    64003 
   63969    63961    63934    63887    63855    63855    63906    63954 
   63968    63963    63919    63896    63944    63977    63949    63914 
   63902    63876    63822    63759    63742    63787    63788    63732 
   63728    63776    63836    63945    64050    64015    63890    63863 
   63942    63954    63909    63949    64025    64018    64002    64007 
   63956    63910    63931    63945    63965    64039    64044    63946 
   63940    64018    63977    63863    63864    63945    63987    63976 
   63961    63950    63913    63875    63891    63925    63937    63925 
   63880    63840    63867    63922    63931    63944    64008    64049 
   64007    63938    63936    63998    64000    63910    63869    63931 
   63961    63919    63890    63890    63915    63954    63936    63904 
   63954    64034    64065    64039    64002    64019    64050    63971 
   63849    63888    64014    64002    63925    63926    63941    63917 
   63886    63846    63803    63792    63822    63860    63903    63963 
   63967    63903    63868    63877    63873    63882    63896    63890 
   63927    63979    63973    63996    64068    64098    64103    64141 
   64170    64127    64039    63976    63963    63930    63849    63799 
   63819    63849    63860    63863    63853    63877    63929    63919 
   63869    63849    63850    63884    63926    63931    63945    63976 
   63980    63992    64008    63954    63902    63965    64061    64069 
   64000    63940    63927    63922    63914    63926    63937    63957 
   63992    63977    63907    63838    63784    63752    63772    63821 
   63848    63859    63896    63944    63942    63892    63846    63859 
   63922    63933    63836    63736    63759    63849    63877    63848 
   63872    63956    63979    63903    63848    63865    63888    63882 
   63868    63853    63838    63832    63882    64008    64106    64087 
   64018    63981    63981    63976    63934    63871    63841    63861 
   63864    63855    63914    63994    63965    63891    63906    63961 
   63987    64018    64026    63965    63895    63856    63822    63822 
   63868    63896    63869    63821    63819    63880    63942    63967 
   63942    63873    63823    63855    63948    64018    64049    64054 
   63994    63933    63941    63925    63903    63949    63980    63963 
   63941    63936    63968    63990    63933    63872    63872    63898 
   63952    64031    64064    64018    63964    63969    63980    63934 
   63915    63984    64023    63984    63990    64037    64017    63991 
   64019    64042    64046    64052    64050    64037    63995    63926 
   63860    63864    63927    63933    63877    63865    63883    63869 
   63868    63890    63888    63869    63841    63828    63857    63913 
   63973    64014    64012    64004    64017    64027    64026    64029 
   64053    64080    64044    63948    63892    63915    63936    63879 
   63798    63780    63809    63832    63834    63865    63956    64017 
   63984    63937    63925    63895    63841    63823    63871    63944 
   63968    63944    63927    63933    63942    63945    63938    63964 
   64015    63971    63867    63880    63990    64017    63930    63888 
   63958    63979    63914    63909    63931    63900    63867    63856 
   63888    63984    64027    63946    63867    63937    64087    64137 
   64077    64003    63930    63875    63832    63757    63694    63707 
   63776    63822    63844    63891    63930    63926    63931    63957 
   63964    63954    63957    63957    63929    63941    64030    64080 
   64022    63961    63968    63983    63945    63892    63894    63930 
   63933    63933    63979    64037    64065    64042    64004    63979 
   63899    63822    63887    64006    64021    63953    63913    63956 
   64025    64002    63911    63883    63917    63929    63898    63853 
   63856    63888    63892    63860    63795    63792    63906    63977 
   63938    63919    63954    63976    63948    63863    63822    63921 
   64021    63999    63953    63952    63971    63964    63911    63876 
   63875    63856    63841    63863    63884    63887    63899    63944 
   63967    63923    63860    63837    63856    63873    63836    63760 
   63748    63826    63907    63922    63875    63834    63875    63950 
   63977    63952    63903    63869    63863    63891    63950    63948 
   63849    63805    63882    63946    63909    63856    63882    63940 
   63999    64054    64022    63917    63894    63933    63907    63855 
   63867    63926    63979    63981    63938    63921    63963    63999 
   63984    63964    63979    64022    64096    64150    64143    64139 
   64142    64112    64081    64015    63927    63922    63971    63998 
   63977    63915    63857    63833    63818    63826    63913    64008 
   64039    64054    64031    63940    63860    63815    63806    63829 
   63849    63872    63904    63933    63927    63846    63803    63907 
   64003    63953    63886    63880    63844    63805    63863    63931 
   63888    63818    63834    63887    63917    63945    63961    63963 
   63984    64023    64025    63985    63979    63972    63903    63886 
   63984    64057    64014    63953    63964    64031    64056    64002 
   63964    63944    63869    63809    63807    63819    63833    63829 
   63778    63768    63871    63937    63892    63899    63987    63992 
   63933    63914    63914    63941    63969    63926    63863    63838 
   63802    63771    63794    63836    63856    63853    63894    64045 
   64174    64143    64029    63953    63952    63990    64021    64025 
   63987    63949    63984    64048    64041    63981    63952    63969 
   63990    63957    63872    63798    63779    63799    63838    63876 
   63910    63976    64050    64071    64088    64131    64127    64080 
   64038    63996    63968    63956    63896    63837    63869    63930 
   63910    63846    63828    63848    63844    63817    63798    63782 
   63786    63846    63922    63961    64012    64118    64211    64193 
   64100    64062    64042    63934    63806    63687    63618    63682 
   63811    63952    64104    64180    64143    64060    63973    63927 
   63961    64012    63973    63875    63806    63794    63829    63871 
   63936    64048    64122    64153    64220    64237    64111    63972 
   63877    63753    63629    63591    63648    63747    63848    63975 
   64084    64052    63957    63956    63965    63882    63753    63644 
   63639    63730    63779    63775    63833    63923    63950    63953 
   64018    64075    63985    63837    63803    63775    63613    63479 
   63555    63755    63944    64095    64195    64235    64297    64389 
   64405    64265    64002    63790    63756    63757    63679    63663 
   63791    63944    64072    64211    64269    64216    64196    64206 
   64158    64107    64061    63968    63834    63693    63605    63626 
   63757    63934    64027    63991    63890    63774    63652    63555 
   63551    63666    63807    63877    63900    63923    63940    63963 
   64034    64130    64247    64395    64424    64258    64068    63911 
   63715    63556    63483    63462    63593    63903    64154    64153 
   64015    64029    64216    64266    64093    63886    63710    63610 
   63648    63682    63651    63709    63823    63845    63823    63834 
   63849    63876    63942    64022    64062    64031    64019    64134 
   64238    64188    64120    64156    64181    64048    63798    63651 
   63672    63720    63774    63975    64245    64299    64114    63931 
   63886    63904    63875    63795    63752    63787    63890    64018 
   64068    63981    63871    63902    64075    64207    64149    63983 
   63888    63913    63933    63829    63764    63946    64119    63968 
   63729    63732    63855    63849    63726    63613    63582    63633 
   63695    63714    63730    63799    63984    64261    64401    64280 
   64057    63923    63965    64065    63981    63741    63655    63855 
   64107    64141    63980    63852    63856    63913    63911    63819 
   63763    63826    63925    64023    64199    64397    64453    64369 
   64300    64226    64033    63818    63774    63902    64039    64093 
   64066    63957    63832    63850    63981    64007    63861    63605 
   63236    62907    62947    63373    63755    63772    63618    63695 
   64031    64324    64409    64363    64274    64218    64245    64192 
   63917    63634    63686    64084    64469    64539    64415    64416 
   64559    64534    64362    64446    64705    64669    64261    63765 
   63440    63374    63417    63348    63131    62957    62910    62777 
   62580    62704    63108    63402    63678    64123    64503    64686 
   64739    64578    64231    64081    64324    64601    64550    64301 
   64164    64104    63929    63776    63850    64054    64177    64106 
   63969    63961    64058    64168    64210    64079    63855    63726 
   63603    63320    63088    63151    63397    63660    63782    63559 
   63170    63101    63428    63769    63938    64111    64353    64477 
   64390    64165    63971    64049    64355    64488    64318    64092 
   63937    63819    63651    63400    63293    63516    63837    63964 
   63879    63711    63687    64060    64589    64620    64133    63726 
   63680    63767    63699    63568    63698    64139    64700    65098 
   65010    64527    64246    64389    64388    63850    63255    63178 
   63478    63597    63320    63036    63269    63936    64473    64606 
   64504    64354    64206    64060    63923    63794    63686    63594 
   63625    63937    64304    64392    64318    64253    64133    64068 
   64260    64550    64570    64220    63775    63543    63539    63501 
   63297    63219    63591    64149    64314    64048    63801    63763 
   63784    63805    63868    63894    63764    63634    63780    64046 
   64061    63883    63829    63938    63949    63747    63571    63555 
   63498    63425    63617    63972    64119    64015    63998    64349 
   64793    64723    64210    63992    64295    64589    64461    63999 
   63548    63375    63405    63481    63674    64045    64426    64554 
   64350    63958    63549    63262    63248    63617    64191    64509 
   64485    64489    64606    64546    64085    63397    62999    63128 
   63458    63603    63506    63339    63223    63194    63282    63428 
   63541    63711    64110    64582    64696    64436    64326    64516 
   64550    64160    63639    63402    63614    64098    64419    64377 
   64309    64555    64908    64935    64633    64388    64349    64219 
   63841    63547    63660    63930    63836    63489    63483    63733 
   63757    63648    63657    63725    63767    63769    63701    63645 
   63705    63791    63747    63612    63643    64008    64508    64793 
   64735    64434    64103    63879    63705    63598    63630    63678 
   63657    63742    63953    63971    63678    63460    63630    64006 
   64199    64000    63520    63192    63409    63875    63915    63568 
   63462    63688    63840    63863    63963    64134    64346    64609 
   64721    64554    64345    64264    64143    63838    63412    63224 
   63742    64624    64939    64674    64477    64385    64111    63738 
   63518    63483    63478    63404    63310    63369    63659    63949 
   63973    63832    63720    63575    63355    63221    63225    63331 
   63645    64173    64570    64525    64287    64295    64482    64471 
   64141    63838    64035    64650    64972    64620    64118    63942 
   63796    63470    63258    63389    63815    64289    64447    64176 
   63737    63406    63239    63216    63354    63626    63871    63931 
   63898    63903    63904    63891    63873    63757    63629    63726 
   63960    64177    64476    64768    64886    64889    64740    64517 
   64451    64331    63926    63547    63543    63822    63983    63865 
   63761    63796    63790    63814    64030    64251    64234    63945 
   63599    63482    63451    63134    62770    62977    63691    64268 
   64496    64656    64817    64790    64582    64303    63948    63612 
   63420    63325    63360    63560    63783    63973    64107    64216 
   64478    64732    64532    63940    63483    63394    63427    63258 
   62958    62976    63370    63667    63733    63855    64053    64160 
   64214    64315    64381    64309    64114    63809    63493    63408 
   63626    63979    64274    64339    64207    64224    64413    64350 
   64010    63769    63783    63933    63996    63909    63913    64126 
   64281    64230    64164    64091    63859    63675    63757    63864 
   63794    63599    63358    63327    63626    63949    64176    64415 
   64605    64677    64573    64285    64064    63957    63667    63297 
   63274    63479    63437    63157    63076    63327    63589    63634 
   63489    63317    63444    63828    64033    64116    64395    64678 
   64728    64632    64463    64214    63911    63660    63597    63725 
   63968    64349    64870    65376    65626    65437    65017    64724 
   64407    63929    63567    63250    62710    62248    62263    62595 
   62977    63452    63915    64066    64012    64054    63995    63605 
   63298    63429    63703    63826    63825    63802    63996    64466 
   64683    64377    64147    64404    64698    64566    64072    63487 
   63158    63309    63734    64088    64368    64696    64827    64534 
   64134    63922    63768    63460    62970    62645    62861    63337 
   63547    63559    63806    64359    64872    64991    64679    64315 
   64335    64606    64500    63918    63578    63841    64150    64002 
   63548    63208    63259    63563    63687    63512    63320    63333 
   63605    63971    64050    63927    64042    64373    64624    64573 
   64197    63842    63714    63645    63576    63614    63763    63911 
   63926    63752    63493    63358    63474    63657    63645    63687 
   64077    64476    64535    64453    64449    64467    64454    64342 
   64045    63775    63775    63918    63976    63840    63563    63385 
   63414    63489    63472    63423    63439    63562    63760    64023 
   64297    64345    64116    63945    63946    63913    63855    63907 
   64017    64137    64266    64339    64365    64470    64650    64727 
   64586    64280    63937    63695    63624    63666    63776    63958 
   64122    64127    64003    63899    63799    63633    63574    63751 
   63902    63775    63539    63427    63385    63300    63232    63375 
   63795    64204    64288    64188    64180    64193    64123    64087 
   64088    64064    64180    64423    64428    64145    64037    64311 
   64620    64654    64374    63931    63648    63775    64207    64498 
   64328    63934    63748    63817    63859    63678    63374    63208 
   63325    63566    63720    63882    64172    64376    64400    64561 
   64864    64885    64569    64158    63767    63526    63525    63609 
   63585    63531    63590    63605    63571    63825    64237    64301 
   64002    63633    63427    63559    63902    64161    64289    64323 
   64223    64046    63975    64046    64133    64257    64470    64652 
   64712    64658    64538    64420    64314    64173    64057    64042 
   64039    63917    63709    63482    63180    62797    62503    62438 
   62610    62968    63363    63616    63784    63995    64085    63941 
   63803    63791    63759    63732    63730    63572    63387    63452 
   63621    63660    63644    63753    64002    64203    64315    64466 
   64594    64594    64424    64114    63940    64019    64083    64003 
   63945    64023    64152    64184    64139    64077    63979    63896 
   63840    63702    63587    63711    64003    64261    64450    64524 
   64440    64250    63964    63674    63522    63506    63585    63632 
   63583    63706    64019    64158    64139    64250    64399    64351 
   64156    64026    64048    64023    63802    63567    63493    63533 
   63653    63822    63934    64026    64212    64365    64251    63868 
   63445    63274    63423    63659    63796    63910    64141    64466 
   64737    64824    64640    64203    63740    63455    63373    63405 
   63436    63483    63670    63971    64233    64370    64417    64440 
   64395    64161    63823    63580    63429    63352    63437    63570 
   63593    63633    63863    64207    64405    64296    64034    63872 
   63803    63705    63583    63510    63574    63822    64157    64462 
   64725    64902    64905    64798    64704    64530    64146    63742 
   63582    63575    63516    63490    63636    63830    63913    63917 
   63903    63883    63821    63616    63301    63154    63188    63138 
   63112    63232    63282    63331    63525    63664    63752    63999 
   64250    64304    64307    64338    64309    64257    64200    64108 
   64080    64112    64085    64095    64257    64415    64431    64363 
   64319    64308    64249    64189    64211    64150    63896    63617 
   63486    63528    63632    63605    63432    63346    63502    63755 
   63810    63697    63769    64053    64160    64029    63942    63950 
   63872    63699    63674    63887    64177    64440    64586    64516 
   64366    64335    64453    64593    64601    64557    64613    64660 
   64512    64162    63807    63657    63653    63616    63531    63478 
   63477    63429    63281    63135    63127    63279    63429    63401 
   63329    63416    63549    63564    63491    63444    63483    63603 
   63756    63856    63842    63801    63814    63788    63678    63605 
   63648    63794    63969    64002    63883    63872    64031    64149 
   64141    64084    64099    64201    64264    64276    64341    64450 
   64511    64476    64395    64358    64354    64280    64116    63980 
   63927    63902    63845    63698    63472    63366    63502    63710 
   63763    63687    63680    63801    63907    63900    63822    63753 
   63792    63991    64233    64381    64431    64396    64257    64126 
   64147    64204    64183    64181    64185    64134    64091    64003 
   63868    63879    64091    64376    64509    64350    64092    64026 
   64103    64083    63976    63942    63890    63715    63586    63560 
   63525    63494    63501    63502    63556    63668    63690    63601 
   63576    63683    63807    63931    64157    64372    64404    64378 
   64362    64235    64084    64057    64087    63998    63784    63660 
   63755    63930    64000    63967    63957    64007    63990    63855 
   63805    63914    63979    63936    63875    63840    63833    63840 
   63863    63883    63823    63733    63736    63859    64044    64177 
   64176    64062    63926    63886    63911    63864    63829    63925 
   64050    64150    64191    64142    64130    64160    64093    63995 
   63940    63894    63883    63883    63837    63817    63906    64072 
