Origin Time       2024/04/02 04:24:00
Lat.              40.133
Long.             141.712
Depth. (km)       71
Mag.              6.0
Station Code      NMRH04
Station Lat.      43.3978
Station Long.     145.1224
Station Height(m) 30
Record Time       2024/04/02 04:25:38
Sampling Freq(Hz) 100Hz
Duration Time(s)  145
Dir.              6
Scale Factor      7845(gal)/8223790
Max. Acc. (gal)   2.496
Last Correction   2024/04/02 04:25:38
Memo.             
[...]
    8567     8766     8862     8662     8186     7796     7843     8329 
    8756     8726     8594     8552     8347     8233     8364     8311 
    8112     8156     8391     8584     8586     8344     8071     7963 
    7975     8170     8463     8438     8220     8353     8715     8829 
    8741     8661     8525     8245     7875     7713     8047     8542 
    8641     8401     8214     8128     8089     8291     8629     8831 
    8893     8596     7986     7684     7859     8424     9205     9293 
    8402     7793     8077     8387     8294     8214     8368     8642 
    8808     8735     8556     8402     8275     8187     8243     8413 
    8488     8479     8465     8334     8237     8445     8586     8329 
    8172     8264     8209     8232     8479     8610     8658     8557 
    8160     7992     8294     8622     8629     8324     8113     8174 
    8144     7973     7850     7948     8469     8877     8590     8158 
    8109     8182     8201     8295     8629     9027     8901     8299 
    7890     7889     8094     8359     8644     8756     8367     7684 
    7522     8167     8804     8842     8650     8457     8263     8279 
    8333     8283     8441     8536     8224     8002     8098     8353 
    8729     8716     8145     7777     8118     8918     9283     8710 
    8106     8046     7935     7789     8062     8702     9319     9177 
    8359     8087     8500     8660     8309     7782     7541     7771 
    8214     8687     8942     8696     8280     8187     8455     8656 
    8379     8109     8413     8694     8413     8166     8456     8631 
    8102     7523     7673     8345     8945     8993     8330     7680 
    7919     8708     9093     8811     8367     8147     8019     8006 
    8243     8542     8680     8453     8064     8083     8305     8195 
    8087     8286     8505     8657     8650     8378     8329     8641 
    8611     8151     7989     8302     8533     8419     8264     8256 
    8230     8095     8050     8392     9013     9076     8221     7686 
    8271     8920     8850     8411     8063     8127     8492     8781 
    8845     8679     8397     8206     8193     8210     8252     8418 
    8442     8274     8218     8301     8486     8668     8554     8205 
    8004     8187     8503     8542     8467     8469     8322     8159 
    8306     8455     8255     8002     8218     8792     8814     8181 
    7975     8322     8486     8262     7923     8105     8789     9019 
    8571     7971     7696     8029     8418     8212     8046     8509 
    8910     8569     7865     7738     8482     9112     8860     8314 
    8066     8039     8094     8178     8357     8498     8390     8245 
    8241     8325     8457     8483     8348     8287     8349     8370 
    8491     8766     8758     8314     7867     7913     8475     8861 
    8506     7894     7886     8522     8943     8568     7998     8067 
    8567     8710     8357     8120     8321     8556     8453     8293 
    8448     8703     8680     8388     8051     7965     8160     8287 
    8348     8502     8573     8536     8392     8174     8176     8413 
    8564     8495     8251     7950     7817     8027     8397     8610 
    8758     8955     8850     8344     7904     7825     7951     8162 
    8565     8930     8793     8337     8009     7874     7986     8248 
    8422     8611     8677     8390     8078     8113     8594     9202 
    9242     8560     7776     7533     7915     8451     8839     9051 
    8937     8652     8370     8019     7865     8016     8137     8116 
    8118     8372     8783     8811     8316     7993     8309     8775 
    8865     8522     7920     7631     8083     8680     8762     8688 
    8812     8642     7917     7371     7672     8511     9192     9404 
    9103     8293     7516     7553     8141     8361     8224     8411 
    8787     8730     8352     8136     8213     8337     8314     8382 
    8525     8361     8152     8251     8212     7936     8203     9013 
    9267     8629     7885     7603     7774     8216     8581     8662 
    8699     8729     8506     8317     8390     8262     7966     8012 
    8224     8257     8248     8320     8464     8544     8302     8031 
    8286     8610     8370     8154     8424     8550     8260     8191 
    8571     8806     8638     8353     8027     7838     8175     8756 
    9015     8883     8502     8077     7798     7744     8081     8725 
    8937     8437     8037     8128     8332     8397     8289     8324 
    8657     8847     8658     8106     7584     7761     8232     8434 
    8698     8895     8591     8020     7678     7943     8661     9028 
    8683     8191     8095     8365     8563     8392     8190     8248 
    8367     8295     8067     8041     8324     8526     8538     8456 
    8280     8313     8644     8808     8541     8082     7939     8237 
    8445     8364     8271     8093     7927     8213     8738     8928 
    8661     8294     8162     8164     8198     8320     8572     8729 
    8341     7879     8087     8434     8402     8353     8499     8672 
    8549     8220     8208     8372     8527     8835     8838     8422 
    8075     7830     7816     8158     8526     8857     9185     9163 
    8591     7819     7358     7420     7978     8748     9092     8802 
    8552     8611     8475     8176     8073     8209     8706     9105 
    8677     8005     7865     8005     8217     8471     8460     8222 
    8175     8316     8326     8351     8580     8729     8644     8375 
    7947     7742     8112     8708     8880     8510     8302     8654 
    8966     8851     8449     7951     7776     7935     8001     8097 
    8492     8942     8974     8417     7858     7955     8418     8594 
    8394     8190     8294     8542     8518     8287     8175     8187 
    8324     8556     8598     8419     8278     8206     8075     7971 
    8230     8792     9057     8866     8568     8290     8056     8028 
    8302     8694     8683     8166     7858     8023     8079     8035 
    8309     8606     8561     8363     8313     8627     8969     8638 
    7898     7726     8275     8787     8788     8495     8147     8010 
    8453     9139     9201     8433     7573     7399     7900     8522 
    8818     8752     8519     8217     7970     7944     8125     8434 
    8579     8311     8097     8282     8602     8773     8483     7884 
    7728     8106     8429     8511     8480     8390     8271     8014 
    7750     7981     8565     8730     8433     8329     8548     8599 
    8305     8133     8440     8895     8911     8392     7902     7927 
    8189     8181     8081     8333     8712     8677     8245     8046 
    8360     8515     8224     8318     8887     8896     8248     7925 
    8276     8684     8591     8195     8100     8417     8653     8433 
    8009     7985     8419     8671     8461     8240     8411     8695 
    8455     8016     8280     8881     8869     8374     7952     7758 
    7850     8271     8758     8835     8445     8116     8187     8468 
    8688     8689     8490     8391     8446     8311     8120     8247 
    8455     8460     8399     8324     8360     8519     8275     7805 
    8004     8733     9115     8799     8129     7796     8140     8696 
    8795     8510     8383     8280     7869     7813     8463     8986 
    8988     8529     7851     7866     8471     8672     8634     8550 
    8073     7695     7929     8444     8839     8773     8239     8013 
    8326     8351     7969     7919     8361     8807     8729     8260 
    8154     8426     8472     8436     8587     8594     8465     8374 
    8160     8006     8106     8352     8549     8382     8127     8187 
    8100     7824     7966     8556     9211     9309     8586     7759 
    7484     7832     8484     8777     8696     8788     8843     8384 
    7742     7460     7682     8212     8595     8704     8742     8590 
    8302     8394     8721     8590     8334     8553     8529     7838 
    7506     8110     8989     9252     8727     8156     8002     7996 
    8135     8437     8448     8212     8194     8338     8467     8607 
    8843     8999     8480     7589     7412     7948     8496     8627 
    8271     8025     8287     8586     8507     8220     8167     8387 
    8510     8499     8487     8490     8496     8313     7952     7889 
    8451     9194     9167     8286     7535     7518     8193     9100 
    9294     8667     8019     7623     7688     8513     9244     9038 
    8579     8468     8295     7978     7967     8336     8600     8452 
    8202     8055     8006     8301     8816     9128     9050     8564 
    8166     8220     8239     8104     8268     8537     8357     7839 
    7626     7911     8248     8361     8456     8739     8946     8657 
    8213     8118     8118     8167     8500     8721     8604     8492 
    8449     8372     8266     8201     8303     8352     8175     8095 
    8186     8355     8683     8858     8662     8394     8249     8263 
    8349     8329     8257     8171     7969     7852     8063     8402 
    8671     8834     8689     8394     8432     8645     8622     8459 
    8318     8197     8085     7882     7781     8251     8904     8857 
    8333     8037     7947     7987     8325     8723     8818     8544 
    8113     7846     7840     8175     8851     9317     9188     8765 
    8320     8063     8235     8549     8437     7917     7514     7635 
    8337     9003     8829     8000     7423     7735     8588     8912 
    8486     8125     8316     8687     8581     8133     7900     7784 
    7699     8029     8823     9462     9207     8271     7716     7955 
    8521     9019     9212     8729     7770     7400     7958     8637 
    8978     9038     8853     8521     8237     8302     8568     8268 
    7434     7279     8182     9171     9540     9221     8483     7665 
    6951     6967     8078     9235     9373     8800     8230     7825 
    7730     8186     8972     9478     9116     7946     6974     7142 
    8244     9128     9062     8483     8048     7932     8071     8301 
    8550     8797     8961     9016     8688     7977     7593     7692 
    7809     8166     8951     9512     9418     8877     8275     7979 
    7982     8047     8109     8024     7869     8141     8750     8978 
    8510     7852     7867     8459     8646     8364     8463     9163 
    9568     8789     7589     7524     8495     9043     8324     7196 
    7202     8147     8618     8414     8374     8903     9483     9186 
    8174     7819     8519     9012     8536     7908     7755     7612 
    7360     7415     7782     8379     9055     9400     9471     9321 
    8677     7969     7736     8008     8510     8328     7300     6964 
    8010     9139     9090     8230     7978     8729     9400     9381 
    9128     8770     8027     7249     7072     7693     8779     9346 
    8654     7501     7254     7931     8738     9385     9607     9165 
    8405     7711     7408     7844     8641     9107     9242     9271 
    8949     8228     7631     7416     7425     7695     8253     8845 
    9250     9220     8446     7319     6833     7342     8266     8675 
    8341     8220     8775     9352     9374     8648     7738     7473 
    7669     7843     8063     8567     9251     9431     8783     8008 
    7858     8341     8829     8799     8257     7465     7200     8023 
    8903     8641     7770     7491     8024     8837     9643    10305 
   10125     8919     7950     7936     8245     8303     7960     7543 
    7522     7885     8656     9544     9649     9003     8370     7879 
    7601     7777     8186     8559     8735     8529     8230     8220 
    8148     7744     7469     7658     8330     9235     9447     8617 
    7776     7550     7564     7619     7851     8241     8503     8618 
    8935     9158     8877     8594     8573     8676     8970     8942 
    8236     7688     7743     8091     8607     8972     9035     8893 
    8299     7410     6885     7271     8475     9394     9424     9180 
    8887     8387     8052     8194     8602     8784     8452     7919 
    7788     8309     9030     9269     8857     8046     7408     7476 
    7998     8452     8410     7653     6930     6979     7546     8104 
    8191     8077     8452     8915     8905     8703     8567     8672 
    8978     9101     9193     9468     9497     8968     7955     6880 
    6606     7420     8710     9679     9760     9277     8857     8311 
    7530     7075     7303     7874     8202     8218     8232     8388 
    8681     8883     8610     8228     8572     9312     9458     8916 
    8152     7618     7510     7636     7839     8025     7920     7615 
    7824     8756     9477     9121     8093     7441     7587     8168 
    8591     8487     7978     7597     7879     8796     9660     9848 
    9312     8244     7246     7244     7951     8212     7998     7924 
    7933     7847     8079     9058    10245    10624     9975     8880 
    8078     7924     8140     8303     8430     8530     8224     7627 
    7399     7777     8611     9371     9275     8459     7707     7265 
    7423     8467     9637    10064     9579     8532     7731     7240 
    6548     6258     7022     8297     9540    10416    10265     9047 
    7815     7462     7600     7427     7146     7427     8139     8626 
    8835     9135     9159     8503     7870     7771     7716     7657 
    8239     9397    10332    10643    10458     9742     8321     6613 
    5744     6448     7997     8842     8476     8058     8523     8962 
    8446     7749     7726     8070     8059     7665     7778     8881 
   10162    10539     9755     8444     7418     6984     7082     7635 
    8397     8964     9236     9196     8565     7577     7130     7542 
    8145     8291     8249     8760     9699     9998     9248     8361 
    8214     8602     8714     8191     7534     7339     7734     8446 
    8835     8857     9178     9560     9382     8808     8000     7103 
    6648     7029     7974     8602     8473     7950     7423     7272 
    7776     8568     9005     8931     8596     8186     7854     7944 
    8357     8210     7565     7898     9379    10224     9489     8224 
    7890     8719     9823    10335     9987     9231     8731     8345 
    7730     7445     7793     8001     7674     7334     7302     7371 
    7493     7882     8361     8486     8266     7939     7705     8056 
    9023     9826     9861     9039     7942     7408     7454     7981 
    9013     9653     9286     8726     8687     8706     8220     7595 
    7368     7607     8073     8299     8149     7896     7634     7311 
    7040     7156     7812     8696     9180     8949     8611     8810 
    9220     9184     8772     8706     9153     9285     8617     7738 
    7335     7557     8095     8401     8364     8386     8519     8568 
    8549     8513     8518     8579     8584     8621     8800     8792 
    8348     7915     7955     8316     8837     9271     8939     7994 
    7483     7789     8407     8754     8973     9329     9277     8577 
    7869     7603     7704     7798     7622     7493     7917     8719 
    8964     8268     7372     6882     6943     7611     8550     9377 
    9995    10153     9649     8915     8453     8203     8060     7921 
    7626     7507     7732     8081     8421     8407     8194     8468 
    8920     8648     7977     8066     8961     9822    10239    10118 
    9572     8824     7823     6979     6936     7393     8063     9076 
    9715     9185     7857     6693     6299     6544     7176     8140 
    8939     9194     9251     9251     8958     8479     8193     8262 
    8436     8552     8815     9193     9351     9070     8276     7399 
    7207     7646     7978     8035     8082     8091     8029     7997 
    8032     8009     7781     7695     8187     8992     9518     9570 
    9441     9313     9049     8846     8997     9032     8553     8009 
    7722     7639     7888     8333     8600     8757     8820     8452 
    7778     7268     7119     7322     7743     8294     8910     9281 
    9140     8607     8116     8024     8154     8110     7923     7774 
    7595     7472     7763     8252     8467     8781     9408     9533 
    8955     8667     8950     8915     8186     7398     7052     7083 
    7442     8181     9018     9524     9626     9543     9333     8804 
    7940     7240     7236     7746     8121     8208     8414     8756 
    8785     8433     8090     8066     8384     8841     9174     9297 
    9088     8437     7862     7844     8073     8252     8293     8060 
    7728     7458     7246     7272     7601     8102     8665     8954 
    8725     8434     8746     9427     9501     8865     8461     8572 
    8654     8467     8139     7808     7658     7870     8365     8815 
    8988     8776     8212     7820     8033     8548     8819     8577 
    8109     7933     8014     8147     8502     9000     9189     8957 
    8695     8764     8919     8752     8488     8214     7550     6840 
    6739     7111     7574     8017     8419     8706     8760     8492 
    8021     7908     8568     9601    10309    10408     9991     9275 
    8446     7601     6853     6512     6828     7402     7788     8259 
    8865     9150     9089     8964     8854     8766     8723     8619 
    8279     7875     7790     7893     7938     8064     8345     8739 
    8923     8428     7676     7369     7511     8101     9121     9910 
    9944     9512     8927     8202     7537     7272     7425     7639 
    7749     8036     8733     9564     9913     9505     8661     7866 
    7460     7447     7555     7647     7785     8012     8210     8055 
    7649     7704     8326     9053     9720    10180    10220     9744 
    8808     7851     7361     7462     7924     8345     8548     8452 
    7986     7724     8162     8629     8563     8353     8282     8112 
    7686     7315     7381     7785     8105     8293     8668     9196 
    9653     9918     9697     9040     8409     8010     7944     8151 
    8212     8021     8005     8232     8314     8213     8388     9009 
    9371     8959     8382     8135     7983     7897     7979     8098 
    8213     8154     7873     7770     7854     7816     7794     8031 
    8522     9047     9292     9294     9215     8777     8035     7730 
    7928     8025     7952     7898     7828     7794     7982     8426 
    8803     8827     8699     8721     8970     9270     9225     8945 
    8858     8752     8343     7807     7383     7304     7464     7585 
    7993     8722     8874     8240     7657     7576     7819     8089 
    8313     8592     8800     8824     8733     8579     8586     8788 
    8811     8623     8499     8506     8559     8461     8189     8040 
    8012     7770     7631     8197     9063     9375     8964     8316 
    8071     8260     8272     8004     7912     7940     7839     7921 
    8428     9049     9231     8731     8104     8059     8492     8716 
    8361     7832     7796     8286     8781     8989     9011     9024 
    9019     8812     8545     8440     8141     7458     7021     7308 
    8078     8700     8602     8159     8179     8580     8861     8723 
    8403     8594     9123     9182     8807     8554     8444     7985 
    7105     6583     6974     7861     8567     8754     8559     8309 
