Origin Time       2024/04/02 04:24:00
Lat.              40.133
Long.             141.712
Depth. (km)       71
Mag.              6.0
Station Code      OSMH01
Station Lat.      41.5977
Station Long.     140.4207
Station Height(m) 5
Record Time       2024/04/02 04:25:06
Sampling Freq(Hz) 100Hz
Duration Time(s)  160
Dir.              5
Scale Factor      7845(gal)/8223790
Max. Acc. (gal)   4.082
Last Correction   2024/04/02 04:25:07
Memo.             
[...]
     324      535      760      936     1035     1039      950      792 
     583      349      148       52      112      328      621      878 
    1047     1132     1170     1210     1310     1490     1684     1804 
    1814     1730     1599     1485     1455     1498     1516     1451 
    1336     1202     1038      828      587      369      233      198 
     268      419      589      707      723      635      517      467 
     518      629      724      768      758      714      707      847 
    1162     1529     1777     1821     1723     1595     1493     1405 
    1312     1201     1071      926      781      653      538      436 
     360      328      344      363      282       40     -302     -604 
    -747     -707     -526     -265       13      249      405      487 
     533      580      627      652      677      746      851      931 
     934      862      766      731      828     1031     1236     1348 
    1336     1242     1150     1134     1212     1332     1421     1452 
    1459     1498     1582     1680     1728     1665     1514     1352 
    1250     1243     1300     1354     1336     1224     1070      947 
     874      835      791      703      595      507      442      384 
     311      203       68      -74     -221     -368     -511     -637 
    -707     -675     -541     -348     -170      -54       13       33 
       5      -62     -141     -183     -124       47      284      525 
     723      841      882      907      959     1017     1050     1067 
    1108     1193     1294     1358     1354     1313     1310     1394 
    1545     1692     1768     1722     1545     1279      976      665 
     378      160       51       59      152      236      213       90 
     -33      -60       56      287      541      729      823      857 
     888      945     1005     1034     1035     1043     1088     1171 
    1252     1278     1248     1194     1146     1109     1058      976 
     876      774      685      630      615      639      702      796 
     896      974     1013     1009      953      850      726      629 
     622      733      922     1097     1185     1166     1086     1016 
     999      986      924      819      700      577      465      369 
     290      232      220      274      373      467      519      531 
     525      521      521      515      494      453      407      376 
     364      371      391      425      499      630      785      911 
     963      913      773      592      411      247      114       37 
      37      133      329      616      943     1244     1486     1642 
    1702     1699     1683     1676     1656     1584     1463     1348 
    1323     1444     1661     1833     1854     1713     1463     1177 
     895      627      380      189       99      112      168      195 
     140       28      -33       68      348      685      922      988 
     930      866      889      994     1134     1246     1291     1289 
    1255     1182     1084      967      820      666      565      548 
     596      657      664      589      460      342      287      272 
     228      114      -29     -147     -203     -191     -139     -106 
    -126     -156     -117       17      194      345      422      421 
     400      465      676      986     1273     1424     1413     1302 
    1183     1109     1082     1051      978      895      834      792 
     762      746      737      745      803      911     1036     1144 
    1202     1209     1200     1212     1256     1293     1278     1213 
    1112      981      839      731      677      679      724      788 
     831      839      823      805      785      754      710      675 
     658      643      599      500      360      240      202      276 
     445      629      741      758      710      642      595      587 
     637      758      908     1008      992      847      650      527 
     562      727      901      958      850      623      405      321 
     391      529      634      657      600      525      492      519 
     592      695      815      919      981      966      853      672 
     513      465      554      697      780      756      639      487 
     369      351      453      642      846      997     1070     1077 
    1042     1000      963      920      859      781      685      592 
     541      567      689      909     1190     1466     1661     1748 
    1741     1675     1580     1474     1352     1189      957      692 
     465      342      342      396      418      373      317      330 
     467      716     1005     1224     1290     1225     1129     1119 
    1237     1432     1613     1715     1750     1783     1850     1948 
    2030     2043     1996     1962     1975     1957     1798     1425 
     857      230     -268     -564     -718     -827     -970    -1166 
   -1329    -1355    -1212     -920     -534     -137      206      463 
     638      760      853      924      978      999      999     1017 
    1071     1138     1189     1205     1162     1034      819      552 
     305      137       55       21       -6      -70     -174     -268 
    -305     -256     -125       39      167      225      209      145 
      93      109      222      399      562      656      697      743 
     872     1144     1545     1998     2430     2781     2991     3040 
    2949     2756     2492     2219     2003     1844     1705     1540 
    1306     1016      724      475      264       68     -122     -288 
    -409     -483     -526     -552     -579     -610     -619     -567 
    -421     -170      148      468      764     1038     1270     1432 
    1532     1599     1636     1637     1607     1552     1483     1426 
    1397     1358     1239     1023      761      508      319      205 
     132       90       79       99      171      301      456      604 
     724      805      834      803      715      565      345       74 
    -207     -440     -544     -479     -294      -81      109      255 
     342      372      353      292      216      163      167      234 
     351      488      639      808      990     1161     1271     1277 
    1196     1084      959      816      660      496      330      195 
     143      217      438      781     1158     1476     1691     1796 
    1809     1756     1682     1613     1556     1520     1503     1497 
    1507     1570     1698     1864     2022     2134     2170     2124 
    2041     1960     1879     1780     1648     1470     1274     1132 
    1098     1163     1302     1489     1680     1845     1969     2033 
    2000     1840     1557     1221      912      665      459      240 
     -27     -306     -526     -629     -603     -519     -491     -595 
    -842    -1161    -1422    -1529    -1447    -1216     -915     -612 
    -369     -230     -182     -195     -268     -410     -638     -958 
   -1332    -1676    -1903    -1954    -1822    -1536    -1167     -776 
    -379       36      465      868     1213     1513     1804     2107 
    2408     2636     2685     2533     2268     2015     1880     1873 
    1892     1807     1553     1175      796      504      292      102 
    -105     -334     -538     -661     -687     -629     -492     -283 
     -16      279      583      882     1155     1402     1656     1966 
    2342     2708     2947     2998     2893     2740     2654     2674 
    2748     2806     2797     2667     2377     1921     1336      679 
      14     -575    -1004    -1189    -1082     -714     -206      286 
     673      958     1212     1487     1768     1989     2068     1952 
    1696     1425     1225     1121     1125     1233     1436     1744 
    2139     2540     2867     3036     2972     2663     2153     1543 
     962      522      287      271      425      657      905     1171 
    1431     1606     1599     1308      724        0     -670    -1179 
   -1513    -1713    -1848    -1934    -1899    -1684    -1313     -886 
    -541     -361     -326     -369     -423     -426     -353     -220 
     -21      265      654     1165     1773     2400     2988     3511 
    3912     4147     4167     3904     3302     2376     1198      -91 
   -1297    -2234    -2794    -2961    -2772    -2299    -1652     -922 
    -171      549     1202     1737     2066     2133     1944     1584 
    1204      942      868      966     1185     1460     1773     2137 
    2531     2866     3021     2907     2525     1984     1426      942 
     568      319      193      175      286      575     1050     1636 
    2199     2571     2598     2197     1409      383     -653    -1463 
   -1879    -1861    -1507     -970     -364      248      808     1225 
    1422     1371     1138      849      591      367      157      -44 
    -256     -473     -639     -692     -657     -639     -687     -739 
    -708     -560     -337     -155     -126     -271     -502     -676 
    -733     -679     -511     -257       60      465      923     1379 
    1815     2196     2493     2691     2778     2760     2651     2423 
    2046     1556     1057      702      637      922     1487     2147 
    2717     3071     3134     2891     2359     1593      715     -101 
    -687     -919     -831     -623     -515     -639    -1005    -1521 
   -2060    -2515    -2813    -2894    -2725    -2305    -1659     -851 
      32      931     1813     2664     3458     4136     4606     4774 
    4610     4163     3543     2887     2278     1729     1217      711 
     191     -337     -834    -1229    -1443    -1395    -1058     -515 
      87      602      895      900      677      378      136       41 
     132      388      774     1242     1717     2101     2274     2153 
    1791     1356     1048     1009     1252     1651     2060     2412 
    2700     2947     3179     3364     3426     3303     2953     2371 
    1625      830       94     -487     -838     -918     -742     -391 
      28      411      685      801      764      638      496      342 
     139     -133     -436     -677     -727     -479       63      792 
    1529     2087     2361     2358     2110     1641     1005      275 
    -453    -1062    -1486    -1741    -1865    -1884    -1818    -1686 
   -1512    -1351    -1254    -1223    -1247    -1331    -1482    -1713 
   -2019    -2327    -2542    -2606    -2494    -2220    -1840    -1417 
   -1003     -608     -216      228      791     1489     2253     2952 
    3450     3653     3562     3257     2852     2461     2199     2139 
    2281     2570     2953     3361     3700     3879     3821     3496 
    2932     2182     1344      560      -36     -369     -419     -221 
     160      616     1024     1306     1464     1537     1540     1463 
    1296     1046      765      522      388      427      656     1038 
    1501     1933     2243     2416     2479     2465     2367     2135 
    1728     1193      634      159     -149     -263     -236     -155 
     -72       20      167      417      746     1050     1194     1092 
     741      232     -305     -776    -1135    -1360    -1416    -1242 
    -828     -228      452     1061     1490     1765     1980     2223 
    2528     2821     2964     2870     2560     2133     1679     1262 
     882      523      205        6       22      270      649     1000 
    1196     1178      977      681      378      122      -41      -82 
      21      256      573      907     1190     1345     1323     1109 
     737      260     -220     -599     -818     -881     -818     -660 
    -413      -74      364      882     1422     1948     2439     2853 
    3145     3288     3302     3229     3100     2889     2535     1999 
    1306      589       22     -309     -437     -445     -430     -432 
    -388     -233       -8      186      283      251      110      -47 
    -101       55      465     1055     1661     2133     2390     2448 
    2359     2162     1852     1398      814      197     -292     -534 
    -515     -324      -98       51      102      103      126      222 
     380      545      676      773      892     1112     1507     2085 
    2741     3291     3574     3549     3264     2814     2309     1837 
    1444     1165     1011      947      907      838      720      564 
     384      175      -58     -278     -454     -587     -669     -702 
    -697     -657     -545     -334      -27      359      784     1193 
    1555     1850     2050     2138     2110     1938     1584     1066 
     486      -14     -326     -465     -560     -731    -1000    -1285 
   -1466    -1503    -1476    -1506    -1665    -1934    -2165    -2180 
   -1903    -1405     -842     -399     -199     -229     -367     -487 
    -548     -568     -577     -558     -457     -255       17      294 
     519      649      687      703      781      954     1204     1506 
    1842     2192     2535     2859     3127     3285     3288     3137 
    2866     2570     2377     2350     2442     2574     2690     2763 
    2781     2745     2667     2552     2376     2100     1710     1250 
     803      486      380      479      696      942     1154     1314 
    1425     1458     1355     1085      685      240     -174     -508 
    -766     -986    -1188    -1324    -1316    -1105     -699     -207 
     214      521      754      955     1148     1348     1555     1779 
    2049     2351     2614     2770     2774     2606     2281     1849 
    1371      866      322     -275     -945    -1672    -2380    -2976 
   -3383    -3537    -3419    -3063    -2538    -1926    -1293     -656 
     -13      595     1124     1553     1891     2164     2384     2523 
    2531     2407     2193     1926     1634     1372     1181     1073 
    1013      923      745      515      341      292      363      492 
     602      670      765      963     1298     1737     2196     2590 
    2874     3068     3210     3298     3303     3195     2959     2637 
    2295     1966     1653     1336      982      599      241      -20 
    -157     -193     -160      -90      -14       40       83      148 
     238      326      360      295      144      -32     -183     -287 
    -349     -407     -495     -631     -828    -1093    -1432    -1814 
   -2153    -2358    -2369    -2195    -1937    -1741    -1698    -1806 
   -1984    -2118    -2118    -1989    -1794    -1564    -1306    -1011 
    -665     -276      122      492      815     1119     1447     1819 
    2211     2574     2889     3187     3519     3892     4232     4457 
    4504     4330     3966     3553     3271     3181     3217     3292 
    3350     3331     3202     2992     2770     2579     2451     2369 
    2277     2153     2000     1825     1637     1464     1343     1306 
    1368     1490     1613     1669     1607     1440     1242     1102 
    1093     1206     1360     1451     1371     1082      658      225 
    -135     -415     -649     -853     -994    -1044     -999     -891 
    -791     -742     -722     -677     -561     -351      -98       93 
     171      172      195      322      565      857     1093     1212 
    1229     1190     1120     1026      886      675      394       95 
    -152     -322     -434     -503     -515     -444     -256       68 
     503      974     1399     1725     1942     2069     2107     2064 
    1958     1813     1641     1464     1293     1138     1030     1001 
    1063     1202     1375     1513     1564     1507     1359     1165 
     974      812      696      646      670      739      796      784 
     692      565      475      498      645      843     1003     1086 
    1109     1105     1094     1066     1000      901      814      761 
     718      638      491      291       86      -64     -149     -218 
    -342     -541     -777     -986    -1094    -1038     -820     -517 
    -194      118      400      626      780      864      895      885 
     834      726      531      238     -101     -400     -577     -612 
    -554     -490     -498     -622     -826    -1026    -1155    -1182 
   -1123    -1023     -880     -654     -341       18      390      745 
    1057     1328     1598     1890     2174     2407     2566     2678 
    2809     2990     3142     3136     2894     2442     1894     1390 
    1023      808      696      631      594      585      602      643 
     706      777      862      980     1147     1359     1579     1757 
    1865     1891     1825     1667     1433     1147      868      665 
     580      615      737      873      949      928      853      801 
     819      893      970     1005     1023     1090     1263     1522 
    1792     1999     2080     2002     1791     1529     1302     1127 
     949      722      432       86     -271     -584     -822     -989 
   -1096    -1108     -982     -720     -361       37      427      804 
    1194     1606     1999     2288     2393     2289     2008     1620 
    1182      707      186     -344     -816    -1181    -1417    -1544 
   -1641    -1772    -1918    -2011    -1991    -1846    -1647    -1486 
   -1377    -1250    -1024     -658     -171      359      849     1264 
    1599     1833     1953     1968     1918     1877     1881     1910 
    1921     1888     1853     1895     2058     2327     2640     2928 
    3126     3215     3223     3204     3180     3132     3033     2890 
    2712     2523     2361     2232     2116     2004     1910     1856 
    1872     1946     2014     2003     1888     1676     1371      996 
     585      171     -226     -580     -853    -1036    -1148    -1210 
   -1233    -1205    -1125    -1030     -953     -942    -1044    -1242 
   -1468    -1667    -1775    -1742    -1595    -1413    -1263    -1169 
   -1123    -1108    -1108    -1121    -1138    -1124    -1030     -857 
    -669     -527     -450     -410     -336     -176       68      364 
     639      834      918      899      818      742      724      774 
     858      927      959      993     1094     1312     1633     1980 
    2262     2425     2466     2438     2403     2405     2465     2560 
    2683     2821     2957     3095     3222     3306     3302     3190 
    2975     2677     2331     2008     1755     1574     1429     1300 
    1182     1082     1023     1043     1162     1348     1536     1659 
    1684     1605     1447     1243     1004      749      521      341 
     218      168      159      124       32     -117     -302     -499 
    -711     -969    -1275    -1584    -1829    -1937    -1879    -1682 
   -1404    -1117     -859     -604     -309       31      368      634 
     780      820      805      783      761      731      680      583 
     415      175     -120     -400     -567     -565     -419     -202 
      -4      114      140      110       70       62      136      317 
     611     1009     1474     1949     2396     2779     3076     3300 
    3477     3619     3724     3774     3751     3647     3473     3253 
    3015     2767     2496     2205     1922     1664     1426     1189 
     911      576      224      -81     -294     -380     -307      -74 
     286      737     1231     1706     2110     2420     2641     2767 
    2760     2579     2235     1803     1358      936      549      170 
    -240     -683    -1117    -1485    -1734    -1858    -1895    -1892 
   -1900    -1938    -1973    -1946    -1829    -1624    -1347    -1020 
