Origin Time       2024/04/02 04:24:00
Lat.              40.133
Long.             141.712
Depth. (km)       71
Mag.              6.0
Station Code      OSMH01
Station Lat.      41.5977
Station Long.     140.4207
Station Height(m) 5
Record Time       2024/04/02 04:25:06
Sampling Freq(Hz) 100Hz
Duration Time(s)  160
Dir.              6
Scale Factor      7845(gal)/8223790
Max. Acc. (gal)   2.298
Last Correction   2024/04/02 04:25:07
Memo.             
[...]
    4495     4403     4394     4459     4556     4608     4644     4739 
    4877     4996     5088     5159     5194     5161     5104     5150 
    5289     5348     5244     5094     5042     5063     5043     4965 
    4860     4772     4764     4781     4737     4723     4823     4953 
    5031     5046     5013     4997     5040     5085     5034     4903 
    4864     5035     5294     5417     5301     4993     4622     4359 
    4293     4309     4288     4326     4494     4683     4876     5121 
    5296     5287     5224     5244     5282     5238     5082     4850 
    4687     4684     4688     4549     4383     4342     4391     4469 
    4590     4718     4795     4831     4833     4814     4845     4939 
    5031     5097     5139     5127     5069     5038     5046     4989 
    4839     4683     4533     4342     4148     4023     4005     4104 
    4256     4368     4448     4585     4773     4911     4965     5028 
    5197     5444     5620     5609     5476     5364     5329     5285 
    5101     4822     4649     4685     4882     5108     5197     5093 
    4936     4881     4884     4807     4631     4465     4386     4410 
    4548     4703     4702     4569     4487     4476     4471     4486 
    4504     4534     4669     4866     4978     5016     5081     5181 
    5293     5420     5512     5470     5296     5134     5092     5119 
    5144     5155     5125     5107     5213     5387     5404     5190 
    4893     4644     4463     4334     4233     4153     4131     4180 
    4275     4367     4441     4519     4581     4594     4635     4757 
    4857     4893     4959     5093     5223     5265     5219     5117 
    4955     4770     4666     4652     4658     4688     4742     4722 
    4583     4461     4486     4583     4648     4680     4711     4762 
    4837     4918     5003     5094     5182     5231     5200     5120 
    5086     5061     4951     4837     4820     4850     4810     4641 
    4402     4287     4403     4635     4849     5028     5163     5220 
    5202     5121     5005     4919     4872     4818     4777     4787 
    4768     4654     4538     4519     4603     4770     4970     5100 
    5109     5078     5117     5204     5250     5278     5358     5470 
    5571     5645     5680     5663     5580     5445     5294     5124 
    4942     4776     4629     4529     4511     4500     4417     4347 
    4386     4472     4491     4471     4546     4731     4931     5086 
    5143     5066     4977     5032     5163     5162     5003     4847 
    4769     4710     4680     4741     4861     4938     4905     4789 
    4688     4656     4671     4731     4823     4854     4801     4749 
    4734     4723     4702     4689     4704     4772     4908     5062 
    5161     5220     5281     5266     5105     4900     4750     4639 
    4565     4534     4503     4491     4615     4884     5117     5181 
    5127     5078     5108     5159     5081     4878     4715     4608 
    4473     4341     4301     4411     4656     4904     4996     4851 
    4571     4359     4257     4175     4164     4272     4398     4482 
    4537     4565     4600     4662     4731     4808     4884     4946 
    5003     5051     5105     5173     5220     5256     5314     5367 
    5400     5414     5366     5277     5275     5402     5541     5593 
    5552     5445     5297     5166     5127     5211     5320     5289 
    5078     4841     4684     4492     4178     3888     3762     3761 
    3834     3974     4155     4345     4510     4627     4770     5019 
    5298     5498     5624     5726     5840     5958     6008     5911 
    5683     5412     5184     5020     4892     4741     4514     4267 
    4102     4016     3964     4016     4194     4359     4448     4584 
    4850     5150     5305     5243     5135     5138     5169     5116 
    4990     4812     4645     4573     4614     4689     4689     4610 
    4573     4644     4746     4796     4820     4899     5023     5073 
    4961     4746     4534     4328     4122     4021     4086     4252 
    4411     4542     4734     5005     5206     5233     5154     5100 
    5113     5123     5069     5000     4990     5080     5198     5197 
    5063     4914     4762     4603     4518     4523     4475     4295 
    4113     4074     4126     4152     4172     4286     4483     4715 
    4976     5239     5428     5486     5409     5250     5084     4965 
    4868     4711     4553     4571     4785     5073     5336     5491 
    5512     5470     5440     5413     5327     5158     4911     4625 
    4430     4401     4460     4565     4677     4688     4617     4607 
    4699     4800     4847     4881     4977     5128     5258     5278 
    5159     4982     4905     5008     5167     5200     5055     4792 
    4499     4299     4268     4374     4549     4752     4976     5189 
    5324     5373     5409     5459     5463     5397     5301     5208 
    5113     4995     4827     4622     4442     4347     4329     4328 
    4288     4237     4253     4365     4530     4706     4876     5017 
    5074     5017     4928     4930     5030     5152     5228     5190 
    5085     5027     5019     5055     5166     5250     5190     5065 
    5009     5061     5151     5174     5127     5115     5115     5034 
    4909     4785     4633     4504     4445     4410     4392     4423 
    4525     4719     4970     5192     5374     5560     5755     5915 
    5976     5853     5591     5359     5260     5263     5298     5297 
    5201     5046     4950     4972     5028     5058     5144     5321 
    5429     5340     5090     4788     4538     4375     4245     4155 
    4159     4186     4120     3990     3913     3931     4002     4071 
    4148     4297     4527     4779     5022     5221     5335     5386 
    5406     5367     5263     5124     4934     4666     4367     4156 
    4136     4286     4495     4661     4779     4901     5034     5108 
    5093     5036     4997     4996     5016     4986     4918     4930 
    5030     5119     5208     5313     5328     5221     5098     4992 
    4851     4704     4642     4685     4750     4757     4710     4638 
    4576     4580     4675     4835     5026     5189     5279     5300 
    5285     5240     5105     4835     4531     4361     4359     4423 
    4449     4386     4287     4278     4409     4583     4676     4676 
    4633     4610     4679     4851     5003     5017     4988     5027 
    5077     5107     5197     5340     5436     5451     5418     5395 
    5404     5383     5262     5043     4795     4592     4464     4392 
    4364     4336     4282     4270     4376     4546     4689     4842 
    5023     5163     5277     5400     5435     5333     5148     4905 
    4623     4367     4163     3997     3871     3823     3863     3933 
    3997     4054     4064     4008     3939     3893     3856     3873 
    4021     4286     4565     4797     4992     5144     5204     5177 
    5174     5247     5306     5297     5254     5185     5076     4999 
    5015     5093     5179     5225     5205     5162     5147     5127 
    5069     5001     4951     4889     4761     4549     4286     4051 
    3947     3985     4067     4128     4226     4442     4743     5036 
    5312     5597     5852     5987     5934     5726     5482     5327 
    5265     5204     5082     4915     4761     4680     4665     4673 
    4716     4800     4860     4864     4846     4827     4823     4882 
    5027     5212     5351     5412     5404     5286     5023     4738 
    4588     4565     4583     4591     4603     4661     4742     4769 
    4725     4626     4484     4318     4136     3987     3956     4005 
    4044     4090     4199     4367     4577     4828     5036     5097 
    5111     5246     5422     5493     5524     5593     5632     5611 
    5564     5489     5382     5215     4923     4544     4232     4070 
    4028     4094     4251     4403     4498     4564     4612     4629 
    4610     4565     4530     4546     4615     4765     4995     5192 
    5267     5285     5348     5498     5660     5703     5622     5524 
    5483     5498     5506     5422     5215     4972     4824     4773 
    4693     4530     4348     4255     4344     4584     4808     4928 
    5001     5078     5152     5204     5178     5066     4941     4865 
    4899     5107     5435     5737     5922     5987     5960     5840 
    5624     5381     5175     5020     4912     4827     4735     4680 
    4727     4843     4941     4926     4739     4455     4216     4044 
    3912     3844     3855     3956     4178     4464     4679     4731 
    4637     4538     4569     4688     4735     4608     4383     4257 
    4298     4398     4492     4606     4770     4993     5231     5394 
    5406     5262     5067     4939     4862     4779     4706     4657 
    4580     4479     4437     4510     4683     4861     4931     4943 
    5038     5150     5071     4796     4500     4310     4268     4329 
    4359     4320     4305     4380     4537     4729     4895     5027 
    5138     5179     5124     5043     5012     5032     5093     5185 
    5293     5408     5514     5576     5578     5524     5424     5265 
    4999     4618     4229     3944     3823     3842     3910     3967 
    4005     3975     3808     3539     3288     3179     3281     3551 
    3824     3978     4043     4113     4255     4465     4692     4936 
    5233     5501     5636     5688     5771     5908     6057     6168 
    6228     6239     6156     5975     5755     5513     5313     5279 
    5343     5328     5254     5258     5346     5431     5481     5505 
    5544     5638     5733     5717     5549     5254     4905     4623 
    4465     4417     4507     4712     4909     5040     5108     5113 
    5181     5427     5744     5981     6127     6208     6251     6261 
    6205     6092     5968     5787     5489     5178     4992     4905 
    4795     4611     4396     4214     4059     3866     3626     3437 
    3420     3631     3978     4301     4540     4738     4919     5053 
    5085     5000     4878     4816     4792     4712     4567     4457 
    4425     4402     4402     4495     4660     4824     4943     4972 
    4924     4855     4783     4664     4494     4363     4360     4477 
    4656     4826     4968     5088     5165     5165     5116     5076 
    5059     5044     5058     5157     5279     5258     5065     4895 
    4926     5140     5368     5489     5522     5526     5506     5447 
    5356     5265     5177     5042     4820     4540     4303     4170 
    4058     3920     3838     3840     3901     4060     4344     4677 
    4953     5124     5235     5346     5441     5474     5472     5510 
    5584     5636     5647     5614     5497     5275     4993     4726 
    4507     4334     4186     4028     3921     3948     4040     4152 
    4284     4336     4347     4490     4698     4776     4719     4596 
    4425     4229     4025     3851     3747     3694     3705     3824 
    4006     4137     4182     4244     4378     4488     4506     4483 
    4511     4680     4997     5317     5491     5549     5602     5670 
    5705     5664     5532     5308     5023     4772     4585     4364 
    4068     3827     3780     4000     4426     4851     5179     5533 
    5933     6166     6093     5829     5555     5398     5414     5547 
    5655     5671     5663     5676     5680     5644     5539     5363 
    5193     5059     4884     4652     4496     4492     4561     4646 
    4788     5039     5421     5829     6081     6156     6146     6075 
    5954     5792     5472     4972     4477     4118     3829     3524 
    3215     3013     3036     3272     3593     3927     4290     4656 
    4976     5287     5595     5745     5630     5393     5220     5082 
    4874     4657     4577     4668     4791     4800     4703     4550 
    4294     3940     3591     3318     3160     3181     3396     3726 
    4036     4187     4152     4094     4187     4469     4899     5350 
    5680     5922     6162     6320     6285     6080     5815     5601 
    5451     5286     5113     5040     5062     5082     5081     5098 
    5159     5182     5055     4837     4675     4575     4491     4459 
    4502     4591     4716     4873     5030     5159     5217     5182 
    5097     5000     4861     4714     4664     4738     4887     5078 
    5305     5526     5698     5800     5814     5733     5595     5435 
    5232     4968     4689     4440     4225     4099     4110     4202 
    4352     4603     4855     4955     4926     4838     4680     4460 
    4239     4064     3962     3947     4035     4209     4432     4711 
    5077     5471     5800     5975     5937     5760     5593     5472 
    5321     5082     4788     4511     4352     4364     4463     4511 
    4498     4494     4526     4546     4498     4418     4365     4311 
    4216     4093     4009     4085     4349     4590     4571     4318 
    4055     3956     3977     3942     3769     3557     3462     3597 
    3969     4448     4928     5417     5930     6420     6840     7133 
    7236     7159     6944     6612     6235     5927     5705     5487 
    5215     4887     4572     4376     4309     4251     4149     4118 
    4264     4542     4837     5101     5359     5591     5741     5775 
    5741     5719     5722     5749     5833     5923     5922     5857 
    5799     5680     5406     5022     4638     4320     4068     3836 
    3586     3292     2947     2625     2446     2457     2598     2731 
    2793     2866     3002     3190     3442     3750     4020     4186 
    4313     4495     4704     4876     4989     5058     5143     5296 
    5481     5648     5809     6002     6222     6378     6384     6276 
    6158     6045     5904     5734     5536     5314     5088     4905 
    4799     4711     4565     4415     4334     4328     4418     4604 
    4781     4895     5028     5251     5529     5799     6042     6278 
    6480     6550     6447     6259     6119     6084     6072     5921 
    5552     5108     4789     4610     4429     4187     3894     3574 
    3346     3288     3303     3334     3470     3746     4094     4472 
    4833     5104     5273     5375     5390     5293     5173     5097 
    5036     4999     5046     5128     5119     5001     4877     4781 
    4649     4464     4303     4217     4190     4170     4071     3913 
    3874     4063     4383     4712     5020     5285     5479     5587 
    5564     5389     5128     4861     4579     4297     4126     4112 
    4186     4361     4693     5085     5416     5740     6141     6524 
    6751     6821     6812     6717     6474     6123     5779     5436 
    5034     4580     4145     3828     3651     3512     3379     3350 
    3442     3619     3896     4247     4627     5040     5452     5794 
    6037     6157     6168     6147     6120     5987     5686     5282 
    4845     4392     3929     3476     3080     2808     2683     2691 
    2818     3115     3581     4037     4329     4538     4789     5042 
    5204     5258     5224     5138     5042     4946     4815     4646 
    4472     4276     4023     3716     3387     3086     2905     2874 
    2959     3184     3564     3977     4301     4564     4843     5121 
    5344     5547     5796     6062     6232     6265     6254     6273 
    6246     6066     5757     5466     5323     5319     5331     5275 
    5162     5054     5015     5070     5251     5543     5840     6021 
    6073     6077     6076     5985     5751     5495     5348     5251 
    5093     4882     4696     4583     4545     4556     4608     4714 
    4847     4949     4977     4918     4777     4595     4396     4176 
    4009     4031     4259     4580     4923     5263     5544     5738 
    5868     5915     5826     5589     5269     4957     4671     4334 
    3924     3580     3454     3510     3618     3736     3859     3951 
    4052     4237     4457     4642     4853     5167     5533     5827 
    5967     5971     5948     5973     6003     5953     5859     5818 
    5792     5660     5416     5163     5003     4963     4982     4972 
    4911     4823     4739     4652     4531     4399     4314     4310 
    4348     4330     4224     4135     4156     4245     4338     4449 
    4602     4723     4706     4595     4554     4649     4812     4963 
    5073     5166     5232     5209     5138     5104     5094     5108 
    5193     5292     5319     5273     5146     4945     4739     4556 
    4369     4163     3897     3574     3302     3190     3252     3422 
    3619     3824     4070     4369     4672     4907     5050     5138 
    5227     5323     5405     5474     5494     5424     5312     5247 
    5265     5352     5470     5571     5647     5732     5830     5902 
    5930     5884     5711     5475     5308     5215     5147     5132 
    5216     5366     5494     5586     5676     5701     5587     5435 
    5339     5258     5144     5019     4931     4942     5049     5158 
    5192     5184     5202     5256     5225     4992     4607     4232 
    3966     3819     3720     3605     3539     3612     3754     3854 
    3890     3875     3843     3852     3902     3920     3848     3716 
    3615     3626     3753     3932     4064     4112     4159     4241 
    4252     4144     4004     3906     3890     3997     4166     4275 
    4315     4401     4594     4835     5046     5209     5346     5475 
    5628     5810     5964     6023     5994     5915     5837     5795 
    5782     5730     5598     5401     5174     4996     4939     4995 
    5089     5200     5364     5568     5714     5753     5733     5714 
    5726     5719     5621     5452     5290     5128     4916     4673 
    4488     4382     4303     4253     4266     4307     4336     4409 
    4608     4887     5063     5030     4885     4785     4747     4691 
    4576     4460     4394     4361     4342     4374     4464     4569 
    4649     4693     4703     4649     4503     4294     4083     3940 
    3900     3920     3991     4149     4325     4399     4415     4488 
    4604     4672     4665     4649     4654     4626     4560     4558 
    4672     4845     5024     5173     5252     5270     5244     5175 
    5092     5028     4936     4772     4614     4573     4612     4668 
    4784     5017     5344     5695     5971     6084     6007     5834 
    5702     5624     5516     5368     5224     5073     4895     4738 
    4684     4719     4758     4776     4774     4739     4725     4855 
    5143     5447     5648     5755     5850     5980     6112     6166 
    6120     6030     5942     5861     5755     5533     5113     4549 
    4032     3708     3549     3461     3414     3469     3676     3944 
    4158     4329     4473     4575     4681     4799     4897     4996 
    5112     5227     5344     5455     5501     5475     5454     5481 
    5522     5530     5494     5414     5296     5148     4965     4731 
    4471     4220     3979     3781     3697     3697     3705     3778 
    3998     4278     4499     4653     4764     4828     4878     4947 
    4999     5012     5050     5186     5402     5603     5736     5823 
    5892     5948     5981     5957     5845     5651     5390     5111 
    4866     4656     4463     4347     4367     4490     4656     4850 
