Origin Time       2024/04/02 04:24:00
Lat.              40.133
Long.             141.712
Depth. (km)       71
Mag.              6.0
Station Code      OSMH01
Station Lat.      41.5977
Station Long.     140.4207
Station Height(m) 5
Record Time       2024/04/02 04:25:06
Sampling Freq(Hz) 100Hz
Duration Time(s)  160
Dir.              4
Scale Factor      7845(gal)/8223790
Max. Acc. (gal)   5.175
Last Correction   2024/04/02 04:25:07
Memo.             
[...]
   -2776    -2911    -3095    -3296    -3481    -3634    -3736    -3773 
   -3736    -3657    -3596    -3562    -3473    -3254    -2949    -2652 
   -2404    -2214    -2062    -1939    -1871    -1868    -1884    -1858 
   -1752    -1561    -1337    -1143    -1001     -911     -880     -915 
   -1021    -1201    -1420    -1622    -1803    -1956    -2026    -1989 
   -1896    -1804    -1750    -1768    -1861    -2018    -2219    -2405 
   -2482    -2388    -2130    -1799    -1549    -1475    -1524    -1584 
   -1602    -1615    -1698    -1873    -2119    -2384    -2629    -2840 
   -3009    -3141    -3252    -3350    -3441    -3505    -3545    -3580 
   -3605    -3589    -3510    -3346    -3064    -2671    -2239    -1818 
   -1406    -1019     -685     -442     -330     -324     -344     -359 
    -406     -544     -785    -1086    -1360    -1512    -1510    -1424 
   -1368    -1443    -1660    -1942    -2214    -2451    -2664    -2876 
   -3105    -3343    -3574    -3792    -3982    -4131    -4222    -4198 
   -4013    -3712    -3396    -3121    -2864    -2598    -2350    -2174 
   -2103    -2123    -2184    -2232    -2250    -2247    -2280    -2403 
   -2627    -2934    -3253    -3468    -3522    -3466    -3373    -3267 
   -3114    -2910    -2706    -2569    -2513    -2482    -2398    -2269 
   -2165    -2122    -2084    -1952    -1665    -1256     -811     -418 
     -95      171      373      463      396      175     -149     -510 
    -834    -1085    -1300    -1522    -1759    -2003    -2238    -2420 
   -2532    -2605    -2686    -2797    -2943    -3083    -3152    -3133 
   -3072    -3013    -2978    -2979    -3009    -3019    -2970    -2844 
   -2631    -2358    -2118    -1993    -1972    -1973    -1923    -1830 
   -1768    -1825    -2008    -2247    -2451    -2566    -2573    -2473 
   -2299    -2103    -1949    -1894    -1966    -2147    -2371    -2555 
   -2655    -2681    -2671    -2655    -2663    -2716    -2803    -2911 
   -3022    -3095    -3079    -2947    -2722    -2496    -2359    -2339 
   -2376    -2377    -2297    -2177    -2103    -2115    -2168    -2172 
   -2072    -1876    -1679    -1578    -1598    -1705    -1856    -2026 
   -2234    -2502    -2770    -2934    -2956    -2874    -2752    -2639 
   -2512    -2319    -2066    -1838    -1695    -1634    -1605    -1544 
   -1447    -1371    -1356    -1381    -1431    -1525    -1663    -1802 
   -1880    -1880    -1849    -1865    -1977    -2150    -2292    -2346 
   -2334    -2313    -2332    -2400    -2482    -2523    -2497    -2428 
   -2334    -2216    -2080    -1930    -1786    -1698    -1694    -1763 
   -1868    -1962    -2025    -2088    -2184    -2278    -2317    -2290 
   -2231    -2188    -2193    -2258    -2350    -2431    -2517    -2658 
   -2857    -3078    -3244    -3289    -3207    -3072    -2988    -3001 
   -3038    -2990    -2824    -2644    -2590    -2709    -2926    -3105 
   -3150    -3061    -2890    -2668    -2428    -2215    -2014    -1784 
   -1526    -1256    -1015     -872     -843     -862     -855     -803 
    -745     -764     -934    -1289    -1738    -2093    -2219    -2153 
   -2083    -2174    -2424    -2677    -2776    -2713    -2574    -2408 
   -2196    -1933    -1674    -1497    -1420    -1378    -1278    -1102 
    -938     -896    -1017    -1252    -1517    -1725    -1845    -1921 
   -2015    -2139    -2262    -2367    -2482    -2647    -2866    -3092 
   -3273    -3370    -3393    -3419    -3530    -3715    -3889    -3966 
   -3910    -3735    -3484    -3188    -2853    -2504    -2203    -1972 
   -1769    -1580    -1433    -1359    -1375    -1466    -1583    -1713 
   -1861    -2025    -2174    -2285    -2350    -2370    -2378    -2417 
   -2494    -2583    -2644    -2663    -2695    -2795    -2932    -3006 
   -2925    -2681    -2370    -2114    -1958    -1876    -1809    -1740 
   -1696    -1694    -1707    -1707    -1679    -1636    -1649    -1780 
   -2006    -2241    -2420    -2513    -2501    -2421    -2343    -2288 
   -2255    -2257    -2284    -2295    -2278    -2303    -2430    -2600 
   -2691    -2628    -2428    -2189    -2022    -1945    -1908    -1890 
   -1933    -2074    -2265    -2412    -2463    -2439    -2427    -2485 
   -2569    -2579    -2459    -2238    -2012    -1880    -1906    -2079 
   -2303    -2482    -2593    -2659    -2698    -2712    -2698    -2636 
   -2474    -2204    -1876    -1556    -1328    -1255    -1296    -1343 
   -1320    -1225    -1143    -1200    -1470    -1873    -2235    -2446 
   -2517    -2525    -2559    -2650    -2747    -2782    -2755    -2704 
   -2631    -2540    -2482    -2482    -2509    -2509    -2417    -2191 
   -1887    -1642    -1525    -1499    -1498    -1482    -1471    -1521 
   -1665    -1891    -2166    -2451    -2709    -2930    -3117    -3267 
   -3387    -3488    -3549    -3503    -3333    -3113    -2943    -2866 
   -2859    -2863    -2809    -2681    -2551    -2509    -2577    -2668 
   -2663    -2506    -2254    -2029    -1903    -1854    -1821    -1780 
   -1757    -1759    -1763    -1780    -1841    -1933    -2014    -2068 
   -2099    -2120    -2157    -2195    -2189    -2143    -2107    -2099 
   -2088    -2033    -1903    -1706    -1499    -1356    -1287    -1244 
   -1170    -1048     -932     -897     -990    -1170    -1337    -1448 
   -1551    -1718    -1945    -2188    -2400    -2566    -2701    -2798 
   -2813    -2744    -2654    -2594    -2575    -2555    -2485    -2353 
   -2192    -2045    -1918    -1792    -1701    -1690    -1759    -1854 
   -1931    -1977    -2010    -2057    -2116    -2158    -2173    -2199 
   -2273    -2381    -2442    -2392    -2247    -2096    -2033    -2087 
   -2191    -2227    -2120    -1912    -1721    -1632    -1690    -1891 
   -2149    -2373    -2521    -2600    -2651    -2728    -2859    -3033 
   -3202    -3306    -3333    -3312    -3289    -3291    -3285    -3199 
   -2998    -2717    -2439    -2232    -2074    -1891    -1640    -1360 
   -1159    -1111    -1179    -1285    -1345    -1325    -1277    -1262 
   -1298    -1381    -1483    -1590    -1702    -1800    -1863    -1898 
   -1966    -2151    -2520    -3038    -3542    -3847    -3898    -3816 
   -3770    -3836    -3951    -3971    -3811    -3516    -3194    -2891 
   -2610    -2354    -2130    -1958    -1852    -1807    -1809    -1852 
   -1922    -1983    -2008    -2020    -2077    -2226    -2478    -2798 
   -3083    -3237    -3246    -3167    -3053    -2963    -2928    -2902 
   -2808    -2636    -2454    -2324    -2269    -2255    -2226    -2137 
   -1966    -1718    -1429    -1155     -928     -743     -584     -481 
    -484     -603     -824    -1123    -1452    -1764    -2047    -2308 
   -2546    -2737    -2833    -2818    -2741    -2650    -2544    -2386 
   -2150    -1850    -1536    -1237     -973     -765     -631     -585 
    -630     -711     -754     -761     -819    -1038    -1444    -1942 
   -2400    -2724    -2889    -2944    -2970    -3009    -3071    -3150 
   -3210    -3190    -3069    -2906    -2793    -2782    -2843    -2898 
   -2889    -2828    -2785    -2783    -2778    -2714    -2581    -2408 
   -2238    -2107    -2035    -2023    -2046    -2087    -2145    -2216 
   -2320    -2479    -2637    -2694    -2620    -2500    -2434    -2435 
   -2435    -2350    -2170    -1989    -1906    -1919    -1968    -1984 
   -1954    -1919    -1895    -1872    -1836    -1750    -1614    -1498 
   -1478    -1570    -1753    -2003    -2290    -2597    -2920    -3208 
   -3370    -3345    -3165    -2943    -2763    -2619    -2444    -2231 
   -2053    -1984    -2038    -2180    -2344    -2494    -2641    -2793 
   -2917    -2998    -3034    -3015    -2938    -2825    -2724    -2685 
   -2712    -2766    -2793    -2745    -2608    -2424    -2266    -2193 
   -2220    -2292    -2311    -2193    -1930    -1602    -1332    -1198 
   -1213    -1313    -1387    -1358    -1219    -1042     -966    -1074 
   -1291    -1459    -1470    -1336    -1156    -1031     -996    -1036 
   -1125    -1270    -1505    -1833    -2180    -2465    -2648    -2748 
   -2809    -2848    -2855    -2844    -2856    -2916    -2987    -2998 
   -2909    -2764    -2670    -2705    -2876    -3096    -3245    -3273 
   -3195    -3040    -2845    -2651    -2479    -2336    -2227    -2141 
   -2052    -1944    -1800    -1599    -1377    -1220    -1215    -1398 
   -1701    -1981    -2131    -2143    -2068    -1953    -1836    -1755 
   -1769    -1929    -2218    -2550    -2812    -2940    -2948    -2903 
   -2862    -2825    -2748    -2582    -2313    -1981    -1678    -1499 
   -1487    -1602    -1761    -1875    -1888    -1815    -1692    -1548 
   -1398    -1254    -1121    -1031    -1036    -1163    -1374    -1590 
   -1755    -1884    -2037    -2231    -2439    -2620    -2743    -2793 
   -2781    -2739    -2695    -2656    -2620    -2593    -2570    -2502 
   -2369    -2201    -2045    -1935    -1892    -1885    -1877    -1863 
   -1846    -1833    -1830    -1872    -2016    -2285    -2621    -2937 
   -3161    -3283    -3329    -3310    -3210    -3051    -2894    -2782 
   -2716    -2691    -2718    -2803    -2952    -3154    -3383    -3572 
   -3639    -3553    -3335    -3037    -2724    -2446    -2197    -1950 
   -1706    -1491    -1343    -1297    -1354    -1471    -1598    -1701 
   -1779    -1842    -1922    -2054    -2232    -2390    -2494    -2582 
   -2698    -2841    -3003    -3167    -3298    -3372    -3357    -3202 
   -2901    -2513    -2116    -1765    -1467    -1206     -976     -778 
    -653     -639     -720     -831     -927    -1008    -1124    -1339 
   -1651    -1983    -2282    -2574    -2899    -3261    -3626    -3947 
   -4197    -4380    -4522    -4633    -4668    -4548    -4220    -3730 
   -3200    -2758    -2457    -2266    -2089    -1852    -1564    -1293 
   -1101    -1008     -994    -1036    -1124    -1273    -1525    -1906 
   -2417    -3019    -3627    -4163    -4604    -4941    -5159    -5259 
   -5231    -5071    -4812    -4506    -4197    -3893    -3592    -3299 
   -3037    -2814    -2608    -2354    -2006    -1582    -1155     -799 
    -552     -384     -255     -175     -186     -321     -573     -886 
   -1212    -1541    -1829    -1998    -2030    -1977    -1914    -1869 
   -1795    -1641    -1420    -1183     -981     -861     -847     -932 
   -1092    -1302    -1503    -1613    -1594    -1483    -1351    -1263 
   -1258    -1312    -1364    -1370    -1340    -1304    -1260    -1206 
   -1170    -1178    -1194    -1151    -1003     -745     -456     -257 
    -211     -313     -556     -899    -1266    -1624    -1960    -2257 
   -2502    -2677    -2751    -2714    -2600    -2434    -2232    -2012 
   -1783    -1556    -1387    -1318    -1323    -1329    -1283    -1165 
   -1021     -932     -922     -962    -1021    -1102    -1224    -1390 
   -1576    -1737    -1848    -1912    -1954    -1983    -2011    -2049 
   -2120    -2254    -2452    -2654    -2770    -2785    -2760    -2798 
   -2944    -3150    -3337    -3435    -3435    -3402    -3388    -3383 
   -3357    -3304    -3249    -3217    -3206    -3196    -3190    -3215 
   -3311    -3466    -3635    -3761    -3797    -3744    -3627    -3466 
   -3280    -3087    -2925    -2852    -2932    -3190    -3577    -3959 
   -4207    -4287    -4257    -4201    -4151    -4068    -3898    -3632 
   -3330    -3071    -2898    -2785    -2683    -2558    -2430    -2344 
   -2282    -2187    -2033    -1823    -1586    -1351    -1112     -846 
    -546     -248        1      183      317      415      491      569 
     637      625      472      190     -159     -499     -804    -1089 
   -1379    -1664    -1918    -2112    -2249    -2335    -2367    -2350 
   -2323    -2349    -2432    -2506    -2485    -2343    -2162    -2065 
   -2097    -2196    -2265    -2246    -2143    -2023    -1979    -2080 
   -2307    -2562    -2754    -2890    -3034    -3215    -3383    -3447 
   -3391    -3284    -3200    -3164    -3153    -3121    -3052    -2990 
   -2976    -2999    -2999    -2930    -2786    -2593    -2380    -2146 
   -1888    -1641    -1470    -1397    -1405    -1468    -1588    -1782 
   -2056    -2367    -2646    -2812    -2803    -2632    -2362    -2056 
   -1769    -1559    -1436    -1382    -1372    -1399    -1479    -1617 
   -1813    -2060    -2319    -2529    -2662    -2728    -2770    -2826 
   -2889    -2890    -2741    -2436    -2093    -1871    -1850    -1992 
   -2173    -2315    -2430    -2560    -2721    -2890    -3033    -3141 
   -3244    -3366    -3496    -3599    -3638    -3611    -3557    -3500 
   -3422    -3314    -3179    -3040    -2928    -2826    -2674    -2442 
   -2182    -1991    -1944    -2029    -2135    -2170    -2146    -2143 
   -2231    -2425    -2664    -2853    -2901    -2749    -2423    -2041 
   -1760    -1678    -1819    -2158    -2637    -3192    -3740    -4178 
   -4388    -4297    -3909    -3298    -2556    -1806    -1173     -765 
    -607     -610     -672     -757     -877    -1062    -1294    -1451 
   -1418    -1215     -939     -695     -561     -561     -652     -778 
    -905    -1040    -1224    -1487    -1815    -2155    -2457    -2678 
   -2799    -2836    -2829    -2845    -2957    -3195    -3511    -3794 
   -3924    -3850    -3620    -3338    -3088    -2913    -2803    -2740 
   -2702    -2690    -2705    -2725    -2756    -2851    -3098    -3589 
   -4336    -5189    -5923    -6385    -6531    -6355    -5846    -5019 
   -3944    -2752    -1594     -554      400     1332     2207     2886 
    3208     3137     2810     2405     2019     1620     1113      506 
     -87     -567     -927    -1273    -1730    -2353    -3075    -3742 
   -4228    -4526    -4706    -4811    -4843    -4750    -4444    -3886 
   -3072    -2049     -945       99      958     1547     1861     1960 
    1890     1655     1233      645      -62     -814    -1498    -2029 
   -2394    -2643    -2843    -3053    -3279    -3507    -3769    -4126 
   -4626    -5259    -5923    -6450    -6652    -6407    -5728    -4758 
   -3684    -2678    -1848    -1215     -757     -434     -159      149 
     481      714      687      322     -299     -981    -1529    -1877 
   -2089    -2277    -2511    -2821    -3249    -3829    -4536    -5246 
   -5802    -6085    -6064    -5787    -5337    -4799    -4230    -3682 
   -3196    -2752    -2263    -1667    -1000     -391      -25      -17 
    -341     -869    -1426    -1858    -2106    -2192    -2169    -2080 
   -1964    -1868    -1838    -1902    -2054    -2296    -2606    -2945 
   -3275    -3545    -3723    -3798    -3732    -3457    -2944    -2224 
   -1418     -692     -145      257      573      791      823      580 
      79     -503     -951    -1140    -1085     -920     -781     -695 
    -621     -535     -452     -384     -330     -299     -317     -406 
    -564     -760     -943    -1027     -919     -596     -159      198 
     278      -16     -660    -1533    -2490    -3431    -4342    -5206 
   -5945    -6455    -6682    -6642    -6412    -6089    -5753    -5459 
   -5204    -4958    -4723    -4548    -4441    -4357    -4230    -4033 
   -3778    -3495    -3194    -2872    -2543    -2245    -2012    -1848 
   -1772    -1817    -1965    -2176    -2384    -2523    -2550    -2463 
   -2290    -2076    -1877    -1768    -1788    -1904    -2042    -2146 
   -2230    -2350    -2520    -2651    -2585    -2197    -1503     -661 
     105      621      838      842      738      521      103     -554 
   -1363    -2147    -2737    -3053    -3114    -3007    -2820    -2587 
   -2273    -1809    -1159     -407      256      665      783      673 
     399      -21     -611    -1372    -2226    -3048    -3748    -4298 
   -4711    -5031    -5304    -5574    -5860    -6129    -6315    -6351 
   -6207    -5938    -5645    -5385    -5140    -4855    -4483    -4014 
   -3470    -2870    -2262    -1719    -1281     -945     -733     -711 
    -918    -1297    -1725    -2092    -2384    -2646    -2880    -3021 
   -3002    -2820    -2548    -2284    -2068    -1867    -1625    -1332 
   -1019     -727     -484     -290     -117       63      253      422 
     546      615      629      606      580      549      465      305 
      89     -156     -405     -637     -865    -1135    -1491    -1931 
   -2381    -2724    -2884    -2879    -2857    -3017    -3451    -4075 
   -4675    -5080    -5266    -5283    -5182    -5013    -4799    -4534 
   -4207    -3811    -3350    -2870    -2428    -2076    -1818    -1636 
   -1517    -1486    -1563    -1702    -1798    -1764    -1602    -1378 
   -1159     -990     -865     -739     -602     -491     -448     -481 
    -568     -675     -785     -905    -1097    -1444    -1965    -2593 
   -3214    -3728    -4079    -4294    -4449    -4606    -4746    -4797 
   -4662    -4260    -3573    -2679    -1733     -886     -226      220 
     480      657      846     1039     1134     1007      580     -109 
    -931    -1750    -2513    -3227    -3906    -4526    -5047    -5443 
   -5744    -5996    -6193    -6296    -6282    -6169    -5949    -5579 
   -5047    -4419    -3808    -3327    -3026    -2839    -2627    -2282 
   -1800    -1291     -900     -715     -742     -909    -1143    -1381 
   -1567    -1683    -1779    -1917    -2118    -2353    -2555    -2666 
   -2671    -2600    -2523    -2531    -2667    -2879    -3041    -3049 
   -2897    -2655    -2394    -2154    -1960    -1815    -1723    -1707 
   -1783    -1926    -2062    -2095    -1949    -1624    -1204     -823 
    -562     -411     -349     -375     -492     -673     -866    -1061 
   -1293    -1597    -1984    -2378    -2610    -2609    -2485    -2405 
   -2446    -2543    -2592    -2581    -2571    -2590    -2614    -2581 
   -2438    -2182    -1836    -1439    -1074     -810     -626     -460 
    -274     -106      -37     -112     -291     -494     -650     -738 
    -800     -915    -1134    -1445    -1794    -2104    -2326    -2436 
   -2428    -2334    -2219    -2128    -2054    -1965    -1863    -1763 
   -1661    -1583    -1584    -1715    -1941    -2176    -2378    -2562 
   -2717    -2809    -2810    -2739    -2706    -2841    -3127    -3424 
   -3592    -3591    -3503    -3437    -3414    -3391    -3356    -3352 
   -3411    -3527    -3661    -3777    -3869    -3935    -3950    -3889 
   -3743    -3507    -3207    -2917    -2704    -2585    -2535    -2533 
   -2563    -2597    -2610    -2602    -2554    -2428    -2212    -1934 
   -1648    -1401    -1201    -1051     -980    -1011    -1135    -1286 
   -1367    -1359    -1370    -1518    -1849    -2312    -2798    -3230 
   -3599    -3901    -4112    -4225    -4264    -4249    -4205    -4136 
   -4031    -3913    -3836    -3816    -3802    -3699    -3439    -3037 
   -2548    -2022    -1506    -1055     -687     -396     -170        0 
      72       -4     -216     -491     -753     -961    -1147    -1367 
   -1626    -1868    -2038    -2146    -2269    -2474    -2718    -2870 
   -2841    -2639    -2330    -1984    -1633    -1293    -1007     -814 
    -722     -685     -637     -554     -492     -523     -673     -935 
   -1308    -1783    -2327    -2901    -3469    -3994    -4433    -4756 
   -4943    -5005    -4974    -4854    -4612    -4245    -3789    -3308 
   -2871    -2500    -2181    -1899    -1638    -1410    -1259    -1213 
   -1231    -1228    -1181    -1147    -1202    -1385    -1652    -1919 
