Origin Time       2024/04/02 04:24:00
Lat.              40.133
Long.             141.712
Depth. (km)       71
Mag.              6.0
Station Code      SBSH07
Station Lat.      42.7630
Station Long.     140.8084
Station Height(m) 228
Record Time       2024/04/02 04:25:20
Sampling Freq(Hz) 100Hz
Duration Time(s)  160
Dir.              4
Scale Factor      7845(gal)/8223790
Max. Acc. (gal)   2.826
Last Correction   2024/04/02 04:25:21
Memo.             
[...]
    3535     3584     3622     3631     3620     3607     3595     3573 
    3524     3449     3364     3296     3246     3180     3084     2968 
    2851     2760     2698     2643     2582     2529     2511     2559 
    2670     2803     2929     3026     3069     3064     3038     3021 
    3025     3055     3105     3140     3121     3051     2974     2925 
    2924     2965     3015     3049     3080     3122     3187     3276 
    3370     3456     3537     3609     3657     3667     3642     3566 
    3434     3269     3109     2986     2916     2895     2911     2951 
    2999     3037     3045     3030     3028     3060     3136     3257 
    3410     3568     3717     3850     3936     3952     3902     3811 
    3720     3655     3609     3565     3512     3450     3360     3221 
    3048     2857     2664     2506     2405     2358     2346     2335 
    2288     2205     2133     2110     2166     2334     2606     2907 
    3154     3306     3345     3280     3171     3091     3090     3161 
    3271     3354     3361     3285     3152     3006     2911     2899 
    2947     3017     3068     3057     2986     2905     2851     2844 
    2893     2984     3086     3184     3279     3366     3431     3460 
    3464     3454     3429     3397     3389     3408     3445     3492 
    3545     3589     3601     3555     3457     3346     3261     3210 
    3195     3206     3203     3140     2997     2810     2652     2585 
    2636     2797     2999     3149     3196     3168     3130     3137 
    3200     3315     3456     3561     3581     3523     3415     3281 
    3173     3141     3180     3218     3196     3109     2970     2805 
    2637     2473     2328     2232     2193     2218     2317     2465 
    2623     2786     2945     3084     3200     3283     3326     3350 
    3377     3419     3465     3462     3379     3241     3103     3007 
    2963     2943     2899     2816     2722     2662     2656     2710 
    2813     2943     3088     3229     3335     3384     3357     3268 
    3179     3154     3203     3289     3366     3396     3368     3287 
    3163     3021     2898     2828     2829     2887     2964     3015 
    3009     2984     3018     3110     3192     3230     3218     3167 
    3130     3156     3215     3260     3257     3194     3090     2988 
    2901     2798     2678     2583     2548     2566     2605     2640 
    2666     2702     2772     2874     2975     3049     3110     3194 
    3321     3468     3588     3636     3605     3551     3550     3620 
    3747     3901     4020     4060     4035     3946     3782     3569 
    3381     3273     3237     3235     3219     3136     2992     2844 
    2724     2644     2620     2637     2675     2733     2803     2853 
    2874     2901     2976     3121     3331     3569     3755     3832 
    3819     3774     3726     3666     3601     3530     3453     3361 
    3238     3069     2878     2718     2613     2563     2559     2574 
    2581     2575     2560     2528     2498     2496     2516     2571 
    2681     2822     2941     3006     3019     3003     2975     2947 
    2945     2997     3084     3177     3241     3249     3198     3099 
    2988     2914     2907     2975     3092     3207     3272     3269 
    3217     3146     3091     3063     3044     3003     2902     2736 
    2569     2462     2454     2559     2736     2905     3025     3098 
    3149     3200     3267     3354     3454     3561     3665     3726 
    3709     3616     3483     3354     3254     3180     3121     3063 
    2994     2918     2857     2808     2760     2741     2758     2776 
    2803     2882     3021     3192     3375     3542     3663     3712 
    3693     3655     3645     3663     3677     3634     3495     3294 
    3099     2974     2940     2959     2979     2994     3007     3011 
    3010     3019     3053     3119     3199     3275     3352     3429 
    3492     3541     3580     3597     3565     3468     3312     3138 
    2983     2868     2803     2763     2713     2652     2589     2525 
    2473     2458     2512     2646     2818     2970     3045     3029 
    2961     2916     2932     2997     3073     3118     3098     3015 
    2920     2871     2899     2994     3113     3211     3250     3200 
    3075     2937     2855     2863     2964     3106     3231     3306 
    3321     3303     3308     3365     3446     3524     3580     3591 
    3551     3478     3399     3354     3384     3473     3564     3586 
    3493     3302     3092     2930     2843     2793     2727     2656 
    2627     2651     2708     2791     2902     3034     3176     3314 
    3429     3495     3534     3589     3673     3767     3839     3854 
    3797     3680     3538     3396     3254     3110     2965     2826 
    2709     2632     2593     2573     2574     2609     2677     2756 
    2816     2828     2797     2763     2758     2779     2813     2851 
    2870     2874     2891     2922     2957     2991     3005     2980 
    2934     2875     2814     2789     2832     2928     3040     3142 
    3213     3234     3208     3160     3129     3145     3195     3248 
    3298     3337     3331     3262     3148     3037     2967     2947 
    2975     3037     3090     3110     3099     3082     3083     3099 
    3125     3175     3245     3316     3373     3412     3424     3402 
    3360     3338     3349     3381     3424     3476     3518     3512 
    3446     3334     3191     3046     2949     2936     2975     3018 
    3056     3086     3075     3013     2948     2903     2862     2836 
    2852     2901     2943     2940     2886     2814     2749     2704 
    2697     2736     2793     2844     2893     2940     2980     3011 
    3059     3156     3303     3453     3564     3620     3631     3605 
    3558     3501     3437     3368     3304     3249     3204     3167 
    3132     3110     3113     3118     3121     3114     3096     3086 
    3084     3076     3051     3011     2980     2980     3022     3102 
    3210     3314     3406     3493     3578     3636     3654     3630 
    3546     3407     3260     3144     3076     3076     3140     3215 
    3229     3141     2965     2776     2647     2619     2698     2851 
    2986     3033     2990     2894     2782     2702     2691     2739 
    2809     2886     2971     3059     3127     3165     3164     3129 
    3064     3006     3007     3060     3095     3076     2994     2845 
    2674     2532     2444     2412     2420     2458     2523     2610 
    2701     2772     2825     2871     2936     3042     3195     3391 
    3622     3832     3947     3946     3856     3728     3603     3511 
    3465     3431     3366     3265     3156     3045     2934     2866 
    2849     2843     2829     2839     2867     2874     2849     2833 
    2848     2871     2890     2901     2897     2895     2928     2988 
    3046     3057     3002     2895     2779     2691     2635     2594 
    2573     2571     2565     2525     2470     2427     2420     2485 
    2644     2867     3090     3275     3429     3581     3754     3944 
    4110     4194     4180     4118     4067     4025     3956     3852 
    3728     3593     3454     3307     3125     2883     2583     2280 
    2050     1938     1942     2029     2153     2273     2377     2467 
    2567     2704     2918     3245     3626     3971     4225     4359 
    4386     4368     4341     4282     4159     3985     3819     3707 
    3623     3507     3329     3111     2926     2851     2902     3028 
    3161     3271     3353     3407     3435     3442     3414     3348 
    3277     3235     3218     3184     3088     2920     2712     2508 
    2355     2295     2327     2430     2574     2729     2866     2974 
    3076     3198     3353     3539     3707     3777     3720     3568 
    3360     3146     2971     2860     2798     2745     2693     2667 
    2674     2702     2778     2906     3055     3208     3357     3485 
    3578     3636     3681     3708     3674     3566     3422     3273 
    3140     3045     2992     2960     2913     2829     2709     2573 
    2461     2431     2512     2668     2860     3048     3184     3260 
    3314     3380     3462     3532     3553     3489     3341     3138 
    2936     2785     2700     2658     2656     2693     2736     2787 
    2868     2961     3051     3169     3329     3495     3643     3793 
    3947     4075     4159     4216     4224     4135     3950     3711 
    3451     3206     3013     2883     2795     2739     2702     2654 
    2569     2461     2346     2230     2142     2084     2027     1953 
    1879     1813     1777     1813     1935     2133     2384     2682 
    3021     3368     3670     3893     4045     4159     4234     4228 
    4077     3767     3342     2893     2528     2308     2235     2276 
    2357     2393     2358     2286     2230     2242     2384     2705 
    3202     3784     4329     4760     5031     5127     5074     4931 
    4743     4519     4260     3979     3670     3323     2955     2582 
    2236     1977     1849     1834     1877     1938     2002     2060 
    2120     2228     2407     2646     2943     3294     3676     4033 
    4302     4442     4459     4415     4384     4367     4318     4205 
    3987     3655     3265     2890     2567     2315     2168     2124 
    2119     2091     2030     1968     1964     2080     2322     2631 
    2920     3141     3310     3478     3686     3919     4122     4248 
    4276     4232     4128     3951     3728     3530     3414     3368 
    3310     3117     2720     2178     1653     1309     1219     1308 
    1452     1587     1702     1813     1937     2069     2189     2311 
    2489     2770     3150     3574     3969     4253     4352     4257 
    4039     3788     3605     3568     3666     3808     3874     3774 
    3507     3169     2867     2681     2631     2668     2735     2793 
    2820     2794     2708     2577     2451     2413     2532     2791 
    3100     3330     3393     3304     3153     3032     2986     3019 
    3137     3318     3492     3580     3545     3408     3240     3115 
    3069     3110     3221     3368     3519     3630     3661     3604 
    3497     3408     3380     3400     3422     3392     3280     3078 
    2836     2636     2511     2470     2533     2691     2894     3110 
    3316     3473     3542     3534     3503     3514     3622     3839 
    4106     4317     4387     4288     4044     3712     3375     3132 
    3053     3144     3334     3519     3586     3466     3159     2759 
    2405     2216     2273     2567     2980     3330     3457     3311 
    2995     2675     2484     2486     2671     2970     3318     3654 
    3875     3906     3769     3532     3275     3072     2984     3003 
    3068     3111     3061     2878     2570     2204     1896     1740 
    1763     1941     2215     2508     2745     2887     2934     2910 
    2837     2747     2683     2708     2843     3044     3265     3485 
    3676     3819     3954     4131     4360     4634     4915     5113 
    5121     4900     4495     3989     3469     3028     2718     2528 
    2420     2378     2389     2401     2367     2263     2084     1868 
    1699     1647     1722     1890     2103     2323     2521     2675 
    2806     2971     3200     3488     3794     4028     4089     3944 
    3657     3368     3196     3175     3273     3434     3561     3549 
    3356     3015     2612     2272     2143     2278     2579     2901 
    3142     3273     3312     3285     3204     3060     2866     2659 
    2463     2273     2076     1888     1764     1744     1865     2145 
    2536     2925     3198     3298     3248     3107     2959     2894 
    2956     3130     3364     3595     3765     3829     3784     3681 
    3584     3524     3496     3478     3493     3557     3630     3673 
    3699     3732     3794     3892     4013     4109     4082     3886 
    3599     3342     3154     3013     2875     2724     2578     2484 
    2484     2587     2755     2930     3088     3233     3372     3510 
    3661     3846     4044     4207     4295     4272     4140     3973 
    3838     3775     3766     3730     3581     3261     2720     2003 
    1259      643      274      217      476      966     1501     1903 
    2138     2285     2470     2790     3271     3848     4417     4896 
    5243     5406     5337     5031     4550     4006     3519     3171 
    2982     2880     2749     2544     2315     2120     2002     1992 
    2126     2396     2747     3102     3407     3651     3828     3936 
    4012     4102     4222     4338     4396     4371     4229     3928 
    3485     3003     2600     2351     2284     2336     2393     2377 
    2319     2311     2409     2601     2810     2955     3032     3118 
    3276     3501     3746     3956     4102     4153     4066     3829 
    3487     3113     2790     2590     2535     2571     2621     2637 
    2617     2558     2461     2371     2340     2353     2394     2536 
    2840     3292     3819     4310     4642     4756     4673     4467 
    4218     4017     3920     3928     3977     3958     3775     3388 
    2833     2212     1655     1242     1007      967     1105     1360 
    1640     1840     1888     1802     1652     1540     1561     1768 
    2165     2714     3348     3985     4529     4888     5026     4990 
    4870     4742     4644     4561     4417     4093     3541     2808 
    1996     1239      648      276      143      236      502      841 
    1161     1441     1714     2034     2448     2994     3640     4279 
    4814     5201     5417     5445     5308     5034     4656     4257 
    3948     3790     3731     3672     3543     3292     2910     2469 
    2088     1887     1921     2174     2563     2951     3206     3292 
    3269     3235     3265     3373     3518     3634     3676     3666 
    3632     3574     3470     3319     3145     2983     2876     2851 
    2903     3028     3219     3435     3588     3591     3427     3161 
    2895     2744     2760     2901     3067     3157     3109     2932 
    2682     2436     2289     2296     2455     2721     3022     3276 
    3462     3634     3823     4013     4155     4198     4124     3960 
    3761     3543     3287     2982     2683     2489     2482     2683 
    3038     3441     3785     4010     4113     4116     4056     3989 
    3963     4025     4186     4386     4521     4496     4275     3882 
    3381     2845     2343     1931     1653     1544     1599     1777 
    2011     2228     2390     2525     2685     2878     3084     3298 
    3504     3663     3734     3696     3531     3238     2880     2555 
    2324     2188     2096     1991     1840     1655     1485     1379 
    1385     1517     1741     2041     2419     2857     3307     3716 
    4074     4386     4625     4761     4795     4710     4491     4171 
    3793     3380     2941     2515     2169     1953     1872     1930 
    2134     2457     2852     3268     3642     3939     4160     4301 
    4384     4464     4544     4554     4438     4198     3881     3535 
    3203     2905     2617     2322     2019     1736     1543     1475 
    1497     1621     1858     2150     2462     2802     3148     3445 
    3659     3789     3844     3807     3670     3485     3342     3315 
    3408     3532     3564     3407     3060     2616     2181     1852 
    1718     1811     2083     2432     2732     2867     2789     2544 
    2250     2025     1938     2020     2251     2555     2876     3179 
    3404     3534     3595     3639     3743     3959     4275     4615 
    4889     5028     5001     4845     4622     4390     4187     4033 
    3923     3851     3788     3661     3412     3059     2677     2367 
    2188     2139     2214     2388     2623     2874     3102     3252 
    3276     3214     3130     3076     3111     3279     3535     3792 
    3956     3954     3790     3508     3154     2822     2569     2397 
    2324     2328     2366     2417     2482     2547     2604     2664 
    2743     2856     3042     3345     3734     4091     4293     4301 
    4126     3829     3520     3272     3102     3002     2926     2818 
    2636     2359     2043     1787     1665     1717     1944     2322 
    2768     3188     3518     3717     3778     3759     3755     3842 
    4044     4325     4625     4881     5036     5053     4935     4738 
    4480     4132     3696     3238     2851     2573     2346     2107 
    1853     1603     1408     1366     1536     1823     2080     2235 
    2295     2305     2320     2370     2477     2628     2762     2813 
    2767     2633     2440     2261     2185     2231     2357     2470 
    2490     2408     2245     2008     1757     1584     1588     1813 
    2195     2624     2978     3130     3092     3002     2988     3087 
    3264     3507     3812     4106     4305     4348     4230     4002 
    3685     3345     3114     3042     3099     3229     3337     3331 
    3204     3033     2925     2945     3086     3311     3595     3892 
    4137     4315     4461     4600     4710     4729     4633     4471 
    4307     4144     3943     3680     3368     3059     2806     2621 
    2492     2404     2336     2281     2247     2254     2355     2575 
    2864     3175     3468     3681     3809     3883     3894     3859 
    3829     3827     3862     3915     3879     3659     3300     2934 
    2640     2454     2435     2573     2741     2821     2768     2641 
    2524     2466     2511     2664     2848     3010     3168     3327 
    3468     3535     3491     3379     3295     3276     3281     3323 
    3418     3505     3530     3489     3408     3357     3402     3528 
    3663     3708     3639     3489     3260     2976     2735     2600 
    2573     2641     2759     2855     2924     2982     3030     3102 
    3215     3341     3464     3577     3654     3674     3628     3503 
    3307     3099     2945     2871     2878     2964     3096     3210 
    3260     3211     3049     2803     2546     2362     2297     2362 
    2532     2741     2906     2979     2967     2913     2875     2890 
    2933     2978     2990     2893     2650     2342     2085     1935 
    1910     1998     2120     2172     2119     2031     1984     2014 
    2137     2376     2760     3246     3705     4055     4268     4322 
    4234     4081     3944     3846     3750     3647     3527     3349 
    3069     2695     2281     1904     1626     1459     1421     1520 
    1680     1853     2022     2182     2361     2566     2810     3114 
    3431     3723     3996     4237     4413     4482     4448     4333 
    4148     3940     3763     3630     3515     3365     3118     2756 
    2332     1952     1703     1625     1706     1902     2160     2458 
    2776     3098     3430     3790     4189     4591     4927     5158 
    5297     5373     5404     5378     5251     5000     4661     4305 
    3978     3721     3566     3472     3348     3127     2839     2547 
    2313     2195     2201     2300     2465     2641     2764     2801 
    2763     2698     2643     2612     2624     2651     2662     2704 
    2793     2872     2938     2999     3036     3042     3038     3032 
    3009     2953     2887     2851     2844     2857     2895     2940 
