Origin Time       2024/04/02 04:24:00
Lat.              40.133
Long.             141.712
Depth. (km)       71
Mag.              6.0
Station Code      SBSH08
Station Lat.      42.7680
Station Long.     140.9766
Station Height(m) 185
Record Time       2024/04/02 04:25:20
Sampling Freq(Hz) 100Hz
Duration Time(s)  120
Dir.              2
Scale Factor      2942(gal)/8224139
Max. Acc. (gal)   0.235
Last Correction   2024/04/02 04:25:21
Memo.             
[...]
   65500    65477    65439    65433    65439    65427    65407    65404 
   65407    65394    65384    65381    65361    65337    65330    65321 
   65287    65264    65265    65259    65245    65227    65205    65191 
   65186    65188    65213    65246    65269    65272    65273    65299 
   65338    65356    65348    65340    65352    65375    65379    65379 
   65408    65426    65394    65357    65329    65296    65299    65315 
   65303    65288    65286    65306    65331    65329    65341    65391 
   65419    65426    65445    65442    65396    65358    65381    65439 
   65468    65448    65426    65446    65470    65454    65438    65426 
   65396    65380    65387    65395    65387    65373    65360    65330 
   65314    65323    65321    65322    65360    65379    65354    65327 
   65333    65360    65371    65364    65353    65345    65349    65341 
   65333    65362    65385    65364    65365    65400    65404    65394 
   65396    65385    65383    65407    65415    65389    65380    65415 
   65446    65435    65430    65441    65433    65419    65411    65407 
   65408    65396    65380    65387    65404    65404    65392    65406 
   65435    65443    65438    65419    65400    65416    65445    65448 
   65433    65414    65410    65437    65448    65425    65406    65385 
   65358    65350    65348    65323    65299    65323    65361    65360 
   65367    65389    65398    65391    65375    65376    65392    65381 
   65356    65356    65376    65383    65361    65353    65379    65383 
   65356    65349    65352    65342    65329    65307    65299    65326 
   65330    65313    65330    65358    65373    65383    65383    65387 
   65388    65388    65408    65412    65406    65449    65480    65449 
   65434    65442    65414    65403    65423    65410    65392    65406 
   65408    65398    65399    65406    65406    65411    65435    65453 
   65442    65426    65414    65403    65400    65410    65411    65402 
   65414    65456    65461    65423    65411    65429    65429    65396 
   65364    65350    65333    65323    65344    65357    65369    65381 
   65369    65362    65369    65373    65352    65299    65286    65306 
   65295    65277    65277    65286    65298    65300    65296    65299 
   65318    65346    65357    65337    65303    65281    65286    65306 
   65318    65326    65318    65286    65283    65325    65334    65299 
   65277    65276    65277    65291    65314    65323    65321    65327 
   65352    65375    65380    65375    65365    65357    65369    65387 
   65391    65389    65379    65379    65396    65383    65348    65334 
   65352    65384    65395    65372    65345    65338    65345    65337 
   65313    65317    65362    65404    65414    65400    65400    65410 
   65407    65406    65412    65411    65418    65449    65462    65450 
   65441    65433    65407    65364    65323    65315    65330    65342 
   65350    65354    65345    65337    65352    65379    65392    65375 
   65353    65362    65379    65375    65369    65385    65398    65402 
   65429    65462    65475    65475    65470    65473    65495    65508 
   65493    65485    65500    65496    65484    65484    65468    65446 
   65446    65452    65448    65448    65469    65489    65489    65502 
   65510    65487    65469    65454    65441    65433    65407    65377 
   65380    65408    65416    65385    65368    65376    65368    65341 
   65337    65353    65346    65330    65329    65326    65322    65323 
   65327    65341    65357    65358    65357    65361    65353    65323 
   65288    65267    65264    65268    65269    65283    65330    65377 
   65365    65344    65383    65419    65398    65360    65348    65357 
   65373    65395    65425    65443    65434    65398    65361    65353 
   65364    65365    65350    65329    65325    65341    65333    65296 
   65273    65275    65288    65295    65287    65287    65311    65341 
   65365    65379    65379    65364    65338    65317    65304    65315 
   65345    65350    65317    65310    65340    65341    65294    65249 
   65252    65288    65294    65263    65256    65286    65304    65296 
   65288    65314    65342    65346    65350    65362    65376    65396 
   65419    65439    65445    65458    65481    65461    65439    65452 
   65456    65437    65433    65457    65473    65466    65465    65487 
   65496    65480    65485    65496    65485    65480    65466    65443 
   65427    65396    65365    65362    65361    65349    65356    65373 
   65372    65350    65322    65306    65298    65260    65225    65225 
   65233    65261    65295    65292    65290    65318    65340    65357 
   65376    65381    65357    65327    65341    65377    65389    65404 
   65437    65449    65426    65411    65421    65421    65407    65406 
   65402    65391    65398    65400    65379    65369    65391    65423 
   65457    65469    65458    65462    65477    65479    65466    65462 
   65479    65495    65483    65475    65502    65512    65491    65475 
   65450    65433    65442    65435    65429    65450    65446    65421 
   65408    65392    65389    65385    65341    65308    65329    65361 
   65372    65367    65350    65314    65284    65275    65271    65275 
   65294    65307    65302    65299    65335    65368    65349    65338 
   65360    65361    65334    65329    65365    65383    65360    65356 
   65372    65369    65345    65321    65325    65338    65330    65322 
   65325    65337    65375    65403    65406    65418    65435    65445 
   65473    65492    65473    65457    65454    65461    65479    65475 
   65442    65400    65361    65364    65380    65360    65329    65322 
   65345    65361    65345    65317    65314    65342    65368    65365 
   65361    65379    65396    65400    65394    65384    65380    65391 
   65406    65422    65442    65427    65376    65362    65389    65391 
   65346    65299    65288    65304    65313    65310    65306    65317 
   65357    65389    65372    65349    65350    65369    65403    65416 
   65414    65438    65443    65403    65372    65352    65334    65342 
   65360    65357    65342    65342    65353    65345    65340    65365 
   65371    65330    65298    65325    65379    65404    65406    65402 
   65388    65376    65379    65387    65396    65404    65400    65403 
   65408    65396    65387    65387    65375    65345    65315    65306 
   65307    65308    65331    65368    65380    65362    65358    65379 
   65407    65423    65411    65392    65381    65385    65402    65392 
   65361    65354    65350    65338    65352    65372    65367    65361 
   65368    65348    65308    65303    65330    65368    65398    65388 
   65345    65323    65337    65342    65325    65322    65335    65321 
   65287    65267    65267    65294    65331    65342    65340    65346 
   65344    65340    65362    65389    65387    65375    65369    65376 
   65389    65379    65353    65369    65406    65402    65375    65383 
   65408    65431    65470    65508    65516    65514    65523    65553 
   65580    65543    65472    65446    65453    65450    65419    65372 
   65361    65391    65414    65406    65392    65394    65406    65414 
   65396    65364    65350    65354    65335    65313    65317    65302 
   65276    65298    65310    65277    65265    65295    65331    65357 
   65383    65394    65373    65376    65403    65395    65367    65371 
   65379    65353    65327    65311    65295    65304    65334    65360 
   65387    65404    65412    65433    65445    65446    65439    65400 
   65349    65321    65317    65342    65361    65369    65395    65404 
   65396    65399    65380    65375    65406    65408    65385    65381 
   65396    65402    65384    65379    65387    65380    65376    65394 
   65399    65385    65368    65354    65341    65330    65345    65384 
   65404    65414    65442    65460    65443    65422    65410    65394 
   65371    65357    65360    65362    65362    65369    65368    65371 
   65387    65375    65340    65342    65391    65412    65383    65369 
   65385    65387    65379    65379    65384    65388    65389    65394 
   65383    65357    65357    65369    65349    65330    65357    65392 
   65380    65361    65381    65395    65371    65369    65402    65407 
   65380    65364    65369    65364    65334    65325    65350    65362 
   65349    65360    65384    65389    65395    65403    65412    65408 
   65394    65421    65464    65470    65461    65453    65453    65454 
   65439    65433    65423    65403    65422    65450    65445    65430 
   65423    65426    65422    65399    65375    65335    65287    65302 
   65349    65362    65375    65389    65388    65373    65354    65364 
   65377    65349    65315    65300    65288    65284    65290    65296 
   65298    65315    65346    65353    65342    65338    65333    65313 
   65287    65267    65250    65248    65283    65334    65348    65334 
   65330    65323    65299    65277    65288    65306    65298    65287 
   65290    65299    65323    65357    65349    65326    65352    65383 
   65380    65376    65394    65443    65491    65504    65510    65510 
   65520    65545    65535    65529    65546    65538    65519    65512 
   65506    65493    65454    65419    65415    65426    65441    65443 
   65437    65431    65412    65387    65360    65346    65362    65379 
   65379    65381    65396    65423    65439    65425    65418    65423 
   65398    65362    65362    65368    65340    65300    65296    65311 
   65308    65318    65335    65329    65327    65331    65325    65330 
   65330    65313    65306    65310    65314    65318    65325    65340 
   65369    65394    65406    65429    65450    65450    65452    65450 
   65437    65412    65380    65372    65369    65341    65346    65387 
   65403    65414    65418    65380    65341    65361    65408    65419 
   65402    65400    65418    65410    65375    65344    65352    65391 
   65407    65399    65403    65415    65416    65407    65408    65433 
   65454    65434    65403    65411    65412    65369    65331    65331 
   65335    65335    65342    65340    65329    65342    65360    65341 
   65325    65368    65435    65439    65384    65367    65376    65340 
   65308    65340    65369    65349    65323    65329    65345    65349 
   65335    65335    65350    65340    65323    65326    65329    65317 
   65295    65304    65349    65377    65377    65360    65337    65354 
   65383    65358    65326    65340    65364    65361    65341    65333 
   65329    65321    65315    65319    65334    65350    65357    65376 
   65411    65418    65422    65458    65479    65487    65526    65553 
   65529    65495    65480    65477    65470    65437    65414    65430 
   65448    65453    65453    65452    65445    65434    65434    65441 
   65454    65479    65485    65462    65425    65411    65419    65418 
   65411    65400    65379    65362    65357    65354    65335    65315 
   65315    65302    65264    65242    65252    65300    65340    65338 
   65350    65389    65395    65371    65348    65335    65335    65322 
   65275    65253    65299    65362    65389    65391    65403    65434 
   65443    65425    65423    65448    65491    65523    65514    65500 
   65504    65503    65493    65469    65441    65435    65448    65446 
   65433    65431    65448    65441    65414    65416    65450    65483 
   65500    65503    65500    65507    65526    65542    65534    65515 
   65524    65556    65574    65560    65516    65491    65487    65446 
   65391    65367    65331    65298    65319    65360    65388    65414 
   65421    65402    65364    65346    65348    65321    65295    65303 
   65306    65302    65321    65358    65389    65402    65399    65381 
   65379    65407    65423    65423    65438    65462    65475    65470 
   65460    65430    65373    65330    65315    65306    65277    65236 
   65211    65206    65175    65124    65124    65169    65200    65221 
   65283    65356    65381    65380    65377    65384    65395    65388 
   65364    65364    65377    65365    65350    65360    65360    65325 
   65264    65205    65200    65246    65257    65215    65187    65218 
   65276    65300    65300    65317    65338    65341    65322    65277 
   65233    65245    65294    65313    65298    65294    65307    65292 
   65241    65237    65295    65315    65306    65353    65435    65458 
   65419    65402    65427    65439    65439    65446    65416    65377 
   65404    65473    65508    65523    65565    65588    65543    65479 
   65433    65407    65394    65383    65368    65341    65340    65376 
   65383    65380    65446    65535    65591    65623    65651    65680 
   65676    65643    65604    65534    65454    65395    65329    65286 
   65323    65384    65377    65338    65340    65337    65295    65284 
   65317    65338    65352    65369    65388    65396    65371    65344 
   65375    65446    65533    65638    65705    65701    65678    65647 
   65585    65506    65445    65438    65461    65457    65462    65507 
   65542    65522    65443    65384    65387    65371    65326    65345 
   65422    65506    65566    65588    65607    65638    65627    65597 
   65620    65664    65659    65624    65605    65600    65569    65507 
   65441    65388    65333    65291    65283    65260    65206    65173 
   65167    65155    65132    65106    65090    65065    65029    64984 
   64913    64858    64845    64821    64787    64782    64775    64748 
   64721    64727    64775    64827    64886    64982    65041    65041 
   65055    65074    65028    64953    64956    65020    65067    65117 
   65153    65142    65133    65119    65045    64963    64940    64968 
   65033    65117    65167    65178    65176    65167    65183    65225 
   65230    65218    65227    65265    65344    65435    65488    65487 
   65464    65462    65480    65473    65446    65435    65421    65369 
   65300    65249    65221    65210    65234    65299    65395    65458 
   65434    65387    65335    65248    65182    65187    65248    65337 
   65458    65620    65735    65774    65826    65886    65861    65736 
   65605    65553    65539    65495    65439    65423    65446    65469 
   65488    65545    65584    65557    65550    65581    65604    65610 
   65597    65574    65543    65527    65568    65650    65720    65765 
   65804    65831    65819    65789    65772    65769    65782    65803 
   65828    65853    65843    65789    65707    65612    65533    65439 
   65310    65196    65109    65056    65094    65172    65200    65183 
   65159    65160    65146    65103    65128    65198    65194    65142 
   65122    65130    65142    65172    65244    65298    65315    65360 
   65377    65337    65318    65308    65265    65240    65268    65323 
   65337    65283    65245    65287    65345    65330    65300    65330 
   65373    65448    65583    65658    65642    65659    65743    65762 
   65662    65614    65704    65800    65804    65739    65685    65649 
   65561    65465    65427    65434    65464    65503    65556    65603 
   65601    65614    65665    65661    65599    65524    65414    65263 
   65140    65111    65132    65111    65090    65125    65156    65137 
   65106    65080    65065    65115    65196    65180    65092    65082 
   65140    65148    65090    65048    65084    65141    65159    65194 
   65253    65261    65234    65261    65326    65369    65380    65358 
   65333    65338    65346    65315    65248    65206    65236    65257 
   65203    65171    65248    65379    65461    65458    65437    65441 
   65408    65338    65319    65357    65369    65372    65442    65526 
   65551    65611    65723    65769    65772    65793    65774    65734 
   65746    65761    65709    65615    65562    65565    65549    65488 
   65450    65479    65515    65491    65452    65423    65337    65213 
   65138    65117    65121    65167    65252    65299    65299    65341 
   65412    65435    65445    65480    65483    65441    65380    65340 
   65381    65423    65383    65368    65399    65387    65350    65344 
   65389    65466    65480    65442    65483    65516    65418    65346 
   65388    65414    65385    65350    65325    65340    65389    65387 
   65317    65290    65345    65396    65411    65410    65461    65622 
   65740    65670    65569    65591    65599    65491    65402    65402 
   65434    65468    65506    65577    65601    65537    65538    65623 
   65632    65554    65497    65497    65508    65479    65437    65435 
   65461    65497    65523    65491    65406    65311    65256    65246 
   65269    65322    65391    65450    65491    65502    65461    65391 
   65329    65300    65317    65313    65229    65138    65141    65198 
   65199    65195    65273    65325    65326    65372    65404    65419 
   65507    65568    65510    65430    65407    65399    65344    65291 
   65304    65306    65268    65281    65349    65425    65523    65623 
   65676    65637    65504    65429    65470    65485    65452    65438 
   65419    65373    65306    65213    65086    64962    64922    64984 
   65087    65175    65261    65387    65489    65507    65492    65476 
   65457    65411    65340    65335    65346    65272    65237    65263 
   65242    65226    65233    65214    65229    65272    65264    65240 
   65246    65272    65318    65321    65246    65211    65261    65304 
   65321    65318    65290    65319    65419    65483    65487    65457 
   65442    65483    65491    65399    65318    65345    65383    65323 
   65276    65333    65389    65368    65299    65295    65415    65515 
   65506    65506    65566    65599    65562    65538    65564    65539 
   65502    65503    65418    65252    65133    65080    65094    65155 
   65191    65202    65210    65207    65187    65157    65171    65195 
   65157    65149    65172    65129    65111    65155    65156    65130 
   65114    65107    65114    65126    65175    65236    65237    65209 
   65195    65200    65217    65227    65236    65214    65145    65138 
   65218    65263    65279    65313    65306    65299    65362    65438 
   65457    65452    65481    65527    65546    65545    65526    65499 
   65489    65489    65468    65426    65376    65345    65396    65503 
   65557    65542    65557    65677    65778    65726    65674    65749 
   65785    65695    65623    65637    65670    65718    65761    65754 
   65732    65724    65722    65734    65749    65765    65761    65684 
   65607    65619    65623    65539    65466    65491    65510    65443 
   65384    65400    65443    65483    65484    65449    65475    65504 
   65408    65291    65288    65361    65384    65342    65329    65327 
   65306    65353    65426    65427    65416    65407    65354    65300 
   65276    65265    65261    65242    65176    65091    65078    65129 
   65129    65070    65051    65080    65105    65126    65134    65118 
   65140    65187    65230    65273    65273    65268    65326    65345 
   65265    65211    65242    65250    65190    65124    65083    65103 
   65202    65248    65195    65184    65219    65217    65182    65142 
   65132    65145    65167    65215    65248    65269    65354    65438 
   65439    65445    65476    65439    65356    65331    65356    65321 
   65237    65196    65176    65171    65206    65276    65368    65399 
