Origin Time       2024/04/02 04:24:00
Lat.              40.133
Long.             141.712
Depth. (km)       71
Mag.              6.0
Station Code      SBSH08
Station Lat.      42.7680
Station Long.     140.9766
Station Height(m) 185
Record Time       2024/04/02 04:25:20
Sampling Freq(Hz) 100Hz
Duration Time(s)  120
Dir.              3
Scale Factor      2942(gal)/8224139
Max. Acc. (gal)   0.141
Last Correction   2024/04/02 04:25:21
Memo.             
[...]
  101727   101725   101727   101731   101730   101727   101727   101729 
  101730   101731   101730   101726   101729   101731   101731   101731 
  101731   101731   101733   101730   101727   101729   101729   101729 
  101731   101729   101726   101725   101726   101727   101727   101726 
  101727   101730   101733   101731   101729   101730   101729   101726 
  101726   101726   101727   101727   101727   101730   101729   101723 
  101726   101729   101726   101726   101730   101730   101726   101726 
  101726   101721   101723   101729   101727   101725   101727   101729 
  101727   101725   101726   101727   101725   101726   101730   101729 
  101727   101730   101727   101725   101726   101726   101726   101727 
  101727   101726   101727   101729   101730   101730   101731   101730 
  101729   101729   101729   101730   101730   101730   101726   101726 
  101727   101727   101729   101730   101729   101725   101725   101726 
  101727   101727   101727   101726   101725   101727   101727   101727 
  101730   101729   101729   101730   101727   101726   101729   101730 
  101730   101729   101729   101729   101726   101727   101727   101725 
  101725   101726   101725   101725   101726   101726   101723   101725 
  101729   101729   101726   101727   101730   101731   101730   101729 
  101729   101727   101725   101726   101729   101729   101729   101729 
  101727   101729   101727   101727   101729   101729   101729   101729 
  101726   101726   101726   101725   101726   101727   101726   101729 
  101730   101729   101726   101725   101727   101727   101725   101725 
  101729   101729   101726   101727   101729   101727   101727   101730 
  101731   101731   101731   101733   101731   101730   101729   101731 
  101733   101729   101727   101727   101726   101727   101729   101725 
  101725   101727   101727   101729   101729   101727   101727   101730 
  101729   101727   101727   101727   101726   101726   101729   101729 
  101727   101726   101729   101730   101729   101725   101725   101727 
  101727   101727   101729   101729   101727   101726   101725   101727 
  101729   101727   101727   101729   101729   101726   101726   101727 
  101727   101726   101726   101727   101726   101727   101731   101729 
  101725   101726   101729   101730   101731   101731   101731   101731 
  101727   101725   101725   101725   101723   101722   101725   101727 
  101725   101726   101727   101725   101725   101726   101727   101729 
  101729   101730   101730   101726   101725   101723   101723   101726 
  101727   101727   101729   101729   101727   101727   101729   101727 
  101727   101727   101726   101726   101726   101727   101726   101727 
  101729   101730   101727   101726   101727   101727   101726   101725 
  101726   101729   101729   101729   101729   101730   101730   101729 
  101731   101730   101727   101727   101729   101729   101729   101726 
  101726   101727   101726   101725   101726   101726   101725   101727 
  101730   101727   101726   101729   101729   101726   101727   101730 
  101729   101725   101726   101729   101727   101725   101727   101729 
  101727   101727   101727   101727   101730   101733   101731   101730 
  101730   101730   101731   101734   101731   101727   101727   101727 
  101727   101727   101727   101727   101725   101725   101727   101727 
  101726   101726   101726   101726   101727   101726   101725   101726 
  101725   101726   101727   101726   101726   101727   101729   101727 
  101725   101725   101729   101729   101727   101729   101727   101725 
  101726   101727   101730   101730   101727   101727   101729   101730 
  101730   101731   101730   101730   101731   101731   101730   101730 
  101730   101730   101731   101733   101730   101729   101729   101726 
  101727   101731   101730   101731   101731   101730   101730   101730 
  101727   101727   101727   101729   101731   101733   101733   101733 
  101731   101730   101729   101726   101725   101726   101726   101726 
  101729   101733   101731   101730   101731   101733   101733   101729 
  101725   101727   101730   101729   101731   101731   101727   101729 
  101730   101726   101725   101726   101726   101726   101726   101727 
  101729   101727   101726   101727   101725   101722   101723   101727 
  101729   101730   101730   101730   101733   101730   101726   101726 
  101729   101726   101725   101727   101726   101725   101727   101729 
  101725   101725   101727   101729   101727   101725   101725   101729 
  101727   101727   101730   101733   101731   101730   101734   101734 
  101731   101727   101726   101726   101726   101726   101727   101727 
  101727   101726   101725   101729   101730   101731   101730   101730 
  101731   101731   101729   101729   101731   101730   101731   101731 
  101730   101727   101726   101726   101727   101726   101725   101727 
  101727   101729   101729   101727   101729   101729   101729   101730 
  101730   101727   101726   101727   101726   101725   101726   101725 
  101725   101726   101726   101727   101726   101723   101726   101729 
  101727   101727   101726   101726   101726   101726   101727   101727 
  101727   101727   101726   101729   101729   101726   101726   101725 
  101726   101727   101725   101723   101725   101727   101729   101730 
  101731   101730   101729   101729   101729   101729   101729   101727 
  101726   101727   101729   101727   101726   101726   101726   101727 
  101727   101726   101725   101727   101729   101730   101730   101729 
  101730   101734   101731   101727   101729   101730   101727   101729 
  101731   101729   101729   101731   101733   101731   101731   101730 
  101730   101731   101729   101726   101726   101730   101730   101730 
  101729   101727   101726   101726   101729   101729   101726   101725 
  101727   101727   101727   101726   101726   101727   101727   101726 
  101725   101723   101726   101726   101727   101733   101731   101729 
  101729   101727   101726   101729   101731   101729   101730   101731 
  101730   101730   101730   101730   101729   101727   101725   101725 
  101723   101725   101726   101725   101726   101727   101726   101729 
  101730   101727   101727   101731   101729   101725   101727   101731 
  101733   101733   101729   101729   101729   101726   101729   101731 
  101730   101730   101731   101727   101729   101730   101727   101729 
  101729   101726   101727   101729   101730   101730   101730   101730 
  101729   101729   101731   101734   101731   101730   101729   101726 
  101725   101726   101726   101727   101731   101729   101727   101729 
  101727   101726   101726   101727   101730   101731   101729   101726 
  101730   101734   101733   101729   101726   101727   101729   101727 
  101726   101729   101731   101730   101726   101725   101727   101727 
  101727   101727   101727   101729   101730   101729   101727   101727 
  101725   101725   101729   101729   101729   101731   101729   101726 
  101727   101729   101729   101733   101733   101727   101730   101730 
  101725   101726   101729   101727   101727   101730   101730   101729 
  101730   101733   101733   101729   101727   101726   101726   101726 
  101729   101730   101729   101727   101730   101731   101730   101731 
  101734   101731   101727   101726   101729   101727   101726   101727 
  101727   101726   101723   101725   101727   101727   101729   101730 
  101730   101730   101729   101727   101730   101729   101726   101729 
  101727   101726   101727   101727   101726   101726   101725   101726 
  101727   101729   101733   101733   101727   101729   101733   101729 
  101729   101731   101727   101727   101730   101725   101729   101736 
  101733   101730   101729   101727   101729   101729   101729   101727 
  101725   101725   101730   101733   101731   101727   101727   101727 
  101723   101723   101726   101729   101730   101727   101725   101727 
  101729   101727   101727   101729   101726   101725   101726   101726 
  101726   101727   101727   101727   101726   101726   101727   101727 
  101725   101725   101726   101725   101726   101727   101726   101726 
  101727   101727   101727   101729   101727   101727   101729   101729 
  101727   101727   101727   101727   101729   101731   101729   101726 
  101729   101729   101726   101729   101731   101729   101727   101729 
  101731   101729   101725   101727   101731   101730   101727   101730 
  101727   101726   101729   101730   101731   101730   101730   101730 
  101727   101727   101729   101730   101730   101727   101729   101731 
  101729   101726   101729   101729   101727   101729   101730   101730 
  101730   101733   101734   101734   101730   101725   101725   101727 
  101727   101729   101731   101731   101731   101731   101731   101731 
  101731   101727   101726   101730   101734   101734   101733   101734 
  101733   101730   101730   101730   101729   101730   101731   101731 
  101730   101726   101726   101729   101727   101729   101730   101729 
  101726   101726   101729   101731   101730   101727   101727   101727 
  101729   101730   101731   101730   101727   101727   101727   101726 
  101729   101729   101726   101727   101727   101726   101727   101726 
  101727   101729   101727   101726   101726   101729   101727   101725 
  101729   101730   101727   101730   101731   101729   101726   101727 
  101727   101727   101727   101729   101727   101726   101730   101730 
  101725   101725   101729   101729   101727   101726   101726   101730 
  101733   101729   101730   101731   101727   101727   101730   101730 
  101730   101727   101727   101729   101727   101725   101725   101723 
  101726   101726   101726   101730   101727   101725   101726   101726 
  101726   101725   101722   101721   101722   101722   101722   101722 
  101722   101726   101726   101722   101721   101722   101721   101722 
  101722   101722   101721   101719   101718   101717   101717   101715 
  101710   101706   101706   101703   101700   101698   101691   101686 
  101686   101682   101679   101680   101680   101677   101677   101680 
  101682   101684   101690   101690   101688   101692   101695   101694 
  101694   101695   101696   101698   101696   101696   101698   101694 
  101692   101696   101696   101692   101694   101696   101698   101702 
  101704   101700   101698   101702   101703   101704   101711   101717 
  101714   101714   101715   101714   101715   101717   101719   101727 
  101730   101725   101721   101718   101709   101694   101686   101679 
  101673   101665   101657   101659   101661   101665   101671   101677 
  101683   101692   101702   101713   101723   101729   101729   101731 
  101738   101742   101746   101756   101771   101783   101788   101787 
  101783   101779   101777   101780   101783   101788   101800   101821 
  101845   101865   101881   101891   101891   101881   101865   101845 
  101827   101818   101812   101807   101802   101795   101795   101811 
  101838   101857   101862   101858   101852   101854   101861   101865 
  101861   101844   101826   101823   101833   101853   101869   101868 
  101854   101837   101815   101788   101761   101752   101756   101765 
  101781   101807   101833   101850   101856   101856   101852   101842 
  101839   101846   101852   101858   101856   101834   101803   101773 
  101763   101784   101827   101866   101887   101879   101839   101790 
  101744   101711   101695   101686   101663   101641   101636   101648 
  101663   101653   101610   101544   101480   101445   101439   101448 
  101449   101428   101403   101403   101428   101463   101490   101501 
  101494   101471   101457   101479   101530   101594   101650   101686 
  101707   101719   101731   101744   101734   101700   101664   101646 
  101659   101706   101758   101780   101758   101717   101668   101623 
  101601   101606   101615   101628   101655   101686   101706   101723 
  101738   101745   101745   101746   101758   101787   101817   101831 
  101831   101829   101835   101848   101846   101829   101817   101818 
  101834   101862   101889   101911   101914   101902   101904   101930 
  101962   101991   102020   102049   102055   102028   101991   101952 
  101918   101899   101876   101835   101785   101730   101671   101622 
  101595   101580   101572   101564   101538   101501   101466   101441 
  101436   101461   101526   101609   101665   101686   101684   101679 
  101687   101719   101765   101794   101779   101736   101690   101655 
  101638   101626   101578   101517   101484   101461   101439   101456 
  101529   101618   101688   101731   101756   101758   101758   101772 
  101790   101791   101769   101737   101715   101719   101729   101714 
  101671   101630   101613   101610   101607   101614   101630   101646 
  101692   101771   101845   101903   101933   101919   101880   101848 
  101853   101899   101945   101979   101997   101966   101892   101818 
  101758   101715   101699   101691   101650   101583   101549   101561 
  101590   101637   101687   101684   101661   101680   101725   101754 
  101773   101794   101795   101784   101790   101804   101811   101796 
  101753   101702   101649   101584   101538   101534   101560   101602 
  101650   101699   101746   101794   101825   101807   101736   101650 
  101592   101591   101655   101761   101856   101883   101852   101806 
  101754   101695   101645   101630   101664   101730   101810   101876 
  101880   101829   101760   101691   101644   101615   101584   101569 
  101575   101599   101677   101806   101945   102064   102122   102104 
  102030   101933   101861   101827   101798   101761   101725   101702 
  101729   101804   101876   101891   101818   101683   101559   101491 
  101497   101545   101578   101582   101601   101649   101718   101795 
  101846   101852   101814   101738   101653   101607   101603   101603 
  101618   101672   101718   101719   101686   101644   101618   101606 
  101587   101574   101595   101659   101736   101800   101834   101829 
  101808   101815   101846   101873   101872   101833   101758   101672 
  101619   101630   101698   101765   101777   101719   101625   101544 
  101517   101544   101576   101587   101611   101667   101726   101775 
  101799   101795   101784   101779   101804   101857   101889   101895 
  101881   101848   101846   101891   101939   101984   102010   101997 
  101964   101925   101875   101803   101738   101704   101692   101696 
  101706   101715   101731   101744   101749   101760   101775   101784 
  101772   101753   101760   101792   101852   101931   101979   101956 
  101881   101810   101775   101754   101745   101764   101777   101760 
  101731   101704   101680   101648   101576   101480   101412   101367 
  101340   101359   101436   101551   101673   101779   101844   101864 
  101850   101819   101795   101787   101784   101776   101765   101731 
  101655   101583   101560   101541   101511   101502   101506   101484 
  101432   101403   101439   101526   101632   101723   101773   101763 
  101702   101645   101637   101667   101686   101682   101687   101703 
  101702   101687   101698   101738   101760   101741   101696   101659 
  101660   101704   101756   101784   101779   101748   101713   101709 
  101748   101787   101800   101788   101753   101710   101656   101609 
  101601   101601   101580   101559   101557   101601   101695   101821 
  101953   102055   102095   102092   102066   102027   102007   101997 
  101969   101947   101964   102016   102049   101997   101885   101738 
  101580   101486   101464   101471   101491   101526   101575   101614 
  101617   101618   101628   101615   101622   101677   101731   101761 
  101790   101826   101871   101908   101915   101912   101919   101929 
  101938   101943   101931   101907   101871   101812   101752   101698 
  101632   101548   101479   101455   101468   101506   101557   101596 
  101609   101601   101598   101626   101679   101740   101807   101835 
  101798   101756   101742   101726   101730   101742   101707   101633 
  101578   101579   101621   101676   101760   101846   101879   101865 
  101848   101830   101808   101792   101765   101714   101663   101634 
  101634   101661   101696   101729   101753   101771   101803   101848 
  101868   101860   101823   101760   101694   101648   101645   101684 
  101719   101745   101769   101761   101715   101667   101628   101609 
  101626   101671   101721   101758   101772   101769   101758   101763 
  101779   101769   101753   101767   101808   101846   101862   101864 
  101844   101788   101718   101675   101655   101632   101610   101601 
  101607   101623   101638   101641   101623   101613   101633   101671 
  101718   101761   101777   101769   101760   101779   101811   101834 
  101852   101853   101831   101796   101760   101730   101694   101660 
  101642   101619   101611   101648   101694   101722   101738   101729 
  101717   101725   101730   101726   101726   101713   101696   101727 
  101806   101858   101844   101806   101785   101777   101791   101841 
  101880   101881   101888   101912   101943   101973   101960   101902 
  101841   101769   101686   101637   101642   101680   101709   101692 
  101656   101632   101609   101592   101601   101628   101645   101652 
  101672   101713   101765   101808   101830   101844   101852   101846 
  101834   101850   101881   101877   101852   101829   101773   101686 
  101621   101595   101595   101596   101572   101541   101520   101480 
  101436   101439   101490   101547   101580   101601   101613   101598 
  101579   101599   101649   101719   101779   101792   101787   101791 
  101798   101815   101849   101862   101841   101808   101777   101756 
  101760   101768   101753   101733   101715   101696   101688   101691 
  101692   101694   101702   101704   101690   101669   101663   101672 
  101679   101679   101687   101707   101721   101723   101725   101717 
  101690   101655   101632   101626   101621   101609   101614   101649 
  101688   101730   101781   101829   101869   101902   101925   101942 
  101947   101937   101926   101926   101938   101953   101954   101939 
  101933   101941   101926   101871   101802   101742   101703   101706 
  101734   101750   101749   101738   101715   101675   101652   101664 
  101683   101688   101677   101652   101636   101646   101692   101740 
  101748   101748   101765   101773   101776   101795   101795   101753 
  101702   101669   101657   101655   101645   101623   101603   101598 
  101592   101580   101582   101602   101637   101671   101676   101661 
  101636   101595   101569   101567   101590   101650   101734   101807 
  101853   101865   101854   101838   101812   101771   101733   101713 
  101700   101691   101668   101628   101579   101536   101522   101536 
  101549   101565   101568   101547   101556   101602   101626   101648 
  101702   101756   101804   101853   101899   101934   101947   101979 
  102022   102031   102024   102014   101979   101947   101926   101904 
  101884   101844   101779   101730   101710   101715   101741   101760 
  101754   101730   101711   101710   101719   101737   101760   101788 
  101826   101850   101839   101811   101769   101727   101709   101711 
  101721   101725   101714   101694   101672   101667   101669   101656 
  101628   101599   101580   101584   101614   101650   101667   101664 
