Origin Time       2024/04/02 04:24:00
Lat.              40.133
Long.             141.712
Depth. (km)       71
Mag.              6.0
Station Code      SBSH06
Station Lat.      42.8309
Station Long.     140.4831
Station Height(m) -91
Record Time       2024/04/02 04:25:22
Sampling Freq(Hz) 100Hz
Duration Time(s)  140
Dir.              1
Scale Factor      2940(gal)/6170270
Max. Acc. (gal)   0.501
Last Correction   2024/04/02 04:25:07
Memo.             
[...]
  179965   179981   179967   179946   179925   179907   179895   179886 
  179870   179853   179850   179847   179838   179845   179858   179848 
  179839   179850   179845   179829   179830   179824   179802   179790 
  179783   179770   179761   179743   179690   179642   179652   179675 
  179696   179734   179751   179775   179809   179820   179833   179836 
  179835   179851   179854   179852   179865   179874   179888   179916 
  179932   179943   179953   179936   179907   179879   179839   179796 
  179766   179752   179743   179732   179726   179721   179708   179683 
  179658   179657   179660   179646   179650   179666   179662   179633 
  179601   179591   179564   179544   179568   179557   179567   179684 
  179752   179647   179598   179777   179821   179679   179741   179794 
  179736   179809   179853   179855   179914   179941   179959   179997 
  180029   180052   180059   180050   180040   180023   179974   179916 
  179885   179862   179836   179828   179831   179849   179895   179947 
  179988   180024   180062   180102   180137   180171   180202   180223 
  180242   180253   180250   180229   180188   180145   180115   180092 
  180068   180044   180029   180023   180022   180029   180039   180048 
  180067   180097   180123   180146   180167   180177   180175   180170 
  180151   180126   180106   180088   180069   180052   180038   180026 
  180019   180017   180022   180031   180052   180087   180121   180152 
  180177   180190   180195   180206   180222   180230   180228   180213 
  180184   180153   180130   180129   180146   180157   180164   180178 
  180185   180183   180169   180141   180119   180105   180095   180090 
  180085   180080   180084   180095   180102   180100   180097   180092 
  180071   180044   180035   180032   180027   180025   180017   179999 
  179991   180002   180019   180033   180048   180065   180077   180086 
  180097   180094   180082   180071   180056   180042   180026   180006 
  179998   180008   180028   180052   180082   180126   180167   180179 
  180161   180118   180069   180024   179981   179940   179898   179859 
  179832   179808   179776   179737   179704   179680   179656   179639 
  179641   179653   179675   179708   179743   179780   179817   179836 
  179839   179841   179845   179842   179838   179833   179828   179822 
  179812   179798   179781   179765   179756   179754   179759   179775 
  179799   179831   179876   179918   179951   179975   179997   180014 
  180021   180013   179989   179949   179894   179829   179758   179683 
  179614   179568   179545   179551   179590   179656   179747   179839 
  179910   179965   180011   180048   180075   180091   180097   180096 
  180088   180065   180030   179983   179938   179908   179877   179839 
  179800   179763   179737   179724   179714   179717   179728   179742 
  179773   179823   179884   179942   179978   179987   179970   179916 
  179829   179741   179669   179619   179595   179589   179594   179615 
  179644   179671   179679   179670   179659   179654   179656   179665 
  179683   179710   179740   179770   179793   179803   179809   179803 
  179782   179762   179751   179758   179785   179820   179858   179893 
  179929   179970   180005   180026   180038   180049   180064   180076 
  180082   180085   180083   180069   180047   180026   180007   179987 
  179974   179963   179942   179925   179924   179924   179931   179956 
  179983   180005   180029   180056   180090   180127   180165   180214 
  180271   180326   180370   180386   180372   180337   180296   180270 
  180271   180289   180315   180354   180394   180422   180432   180430 
  180420   180394   180357   180333   180329   180336   180343   180338 
  180324   180311   180303   180294   180278   180237   180162   180057 
  179934   179816   179728   179685   179685   179717   179787   179890 
  180003   180115   180214   180283   180331   180362   180365   180350 
  180328   180283   180225   180173   180129   180095   180084   180100 
  180134   180160   180171   180179   180181   180186   180208   180235 
  180246   180234   180197   180140   180065   179990   179936   179898 
  179874   179865   179863   179867   179847   179784   179707   179641 
  179601   179604   179644   179708   179791   179872   179936   179994 
  180053   180104   180140   180150   180123   180080   180045   180021 
  180001   179981   179950   179905   179859   179821   179802   179800 
  179809   179821   179820   179811   179814   179812   179782   179728 
  179668   179617   179587   179579   179587   179618   179682   179764 
  179835   179883   179905   179899   179878   179855   179841   179853 
  179887   179923   179963   180009   180058   180121   180186   180234 
  180260   180272   180272   180249   180204   180150   180082   180001 
  179921   179849   179792   179762   179756   179758   179776   179810 
  179846   179887   179914   179906   179883   179859   179836   179827 
  179841   179871   179902   179928   179937   179920   179885   179838 
  179790   179751   179725   179722   179740   179771   179810   179846 
  179887   179943   179994   180021   180033   180027   179998   179960 
  179919   179872   179826   179787   179749   179723   179711   179681 
  179633   179605   179608   179612   179603   179596   179596   179616 
  179668   179736   179822   179907   179963   180005   180041   180061 
  180082   180098   180099   180086   180052   180013   179992   179978 
  179986   180025   180069   180116   180163   180201   180229   180229 
  180197   180161   180133   180114   180121   180139   180153   180184 
  180228   180257   180259   180229   180172   180101   180007   179897 
  179804   179736   179695   179688   179712   179758   179805   179829 
  179820   179790   179763   179759   179797   179874   179960   180037 
  180104   180155   180184   180195   180196   180175   180139   180103 
  180063   180029   180009   179986   179952   179919   179891   179876 
  179883   179908   179944   179992   180037   180065   180082   180081 
  180058   180022   179989   179980   179977   179960   179950   179954 
  179946   179929   179960   179998   179942   179863   179799   179696 
  179618   179584   179579   179648   179742   179836   179916   179932 
  179951   179964   179902   179854   179821   179734   179674   179674 
  179675   179688   179756   179822   179844   179899   179960   179960 
  179959   179948   179874   179775   179687   179633   179623   179652 
  179727   179790   179789   179769   179795   179863   179912   179940 
  179962   179945   179927   179957   179955   179914   179921   179926 
  179901   179929   179978   179998   180022   180029   179973   179883 
  179809   179747   179709   179726   179789   179883   179997   180101 
  180164   180199   180211   180193   180141   180062   179974   179895 
  179836   179828   179866   179840   179740   179771   179920   179932 
  179928   180042   180086   180092   180119   180112   180122   180095 
  180045   180038   180026   180018   180013   180004   180008   179998 
  179977   179963   179947   179926   179902   179899   179932   179981 
  180036   180093   180134   180161   180180   180196   180205   180198 
  180193   180195   180184   180159   180140   180130   180126   180122 
  180126   180146   180174   180216   180277   180331   180358   180359 
  180336   180317   180323   180327   180307   180282   180268   180269 
  180273   180261   180228   180186   180163   180163   180137   180087 
  180085   180116   180118   180126   180201   180290   180318   180352 
  180398   180353   180294   180289   180251   180193   180170   180142 
  180101   180089   180097   180084   180067   180053   180016   179970 
  179930   179907   179894   179873   179863   179873   179892   179935 
  180014   180104   180193   180284   180353   180378   180375   180355 
  180324   180295   180262   180214   180169   180158   180150   180082 
  180024   180059   180093   180078   180082   180091   180071   180057 
  180060   180056   180049   180066   180098   180120   180129   180131 
  180126   180120   180113   180099   180088   180066   180011   179966 
  179953   179927   179911   179932   179953   179983   180035   180088 
  180131   180149   180127   180073   179991   179880   179775   179711 
  179677   179653   179626   179582   179544   179532   179539   179568 
  179606   179626   179622   179589   179517   179433   179368   179330 
  179320   179342   179390   179436   179456   179471   179484   179477 
  179473   179476   179466   179465   179485   179507   179526   179533 
  179530   179534   179538   179549   179584   179636   179690   179743 
  179787   179803   179786   179763   179755   179764   179780   179796 
  179813   179839   179869   179904   179954   180009   180052   180077 
  180090   180093   180082   180065   180048   180026   180004   179997 
  180005   180026   180068   180120   180158   180176   180161   180109 
  180059   180033   180021   180009   179984   179948   179918   179893 
  179875   179881   179896   179886   179846   179795   179751   179724 
  179721   179743   179782   179833   179898   179976   180058   180140 
  180220   180296   180350   180370   180371   180370   180360   180342 
  180320   180277   180214   180153   180111   180086   180073   180061 
  180033   179998   179971   179941   179909   179891   179907   179960 
  180035   180114   180189   180262   180346   180445   180538   180604 
  180636   180629   180597   180562   180527   180484   180430   180377 
  180336   180308   180293   180271   180240   180222   180229   180259 
  180302   180335   180333   180301   180255   180203   180155   180117 
  180098   180095   180084   180044   179981   179923   179870   179807 
  179733   179651   179585   179560   179569   179593   179634   179690 
  179751   179813   179871   179918   179947   179948   179927   179912 
  179907   179898   179908   179930   179927   179940   179979   179972 
  179935   179906   179876   179864   179873   179886   179890   179871 
  179845   179837   179849   179869   179888   179911   179931   179929 
  179911   179914   179938   179940   179930   179928   179913   179925 
  179974   180014   180059   180106   180141   180171   180178   180161 
  180143   180120   180079   180011   179917   179822   179762   179733 
  179708   179691   179684   179672   179638   179589   179539   179490 
  179442   179412   179408   179427   179470   179543   179617   179663 
  179683   179689   179689   179681   179645   179585   179545   179545 
  179571   179610   179646   179680   179728   179789   179859   179931 
  179975   179983   179964   179919   179866   179823   179791   179765 
  179750   179757   179782   179821   179875   179936   179988   180022 
  180040   180063   180098   180141   180190   180233   180253   180258 
  180269   180293   180322   180343   180336   180295   180241   180207 
  180198   180196   180193   180198   180208   180224   180253   180278 
  180284   180291   180307   180306   180272   180228   180193   180153 
  180094   180027   179963   179905   179860   179827   179799   179775 
  179775   179799   179829   179861   179902   179945   179981   180007 
  180024   180030   180019   179987   179949   179913   179888   179877 
  179876   179883   179894   179905   179913   179935   179976   180024 
  180064   180097   180134   180175   180203   180220   180229   180233 
  180241   180247   180248   180258   180281   180295   180278   180236 
  180176   180116   180080   180072   180081   180101   180125   180160 
  180209   180262   180314   180369   180413   180431   180412   180362 
  180299   180230   180163   180117   180097   180095   180104   180114 
  180120   180124   180108   180060   179998   179939   179890   179860 
  179852   179855   179869   179894   179929   179981   180042   180090 
  180117   180109   180068   180018   179970   179937   179924   179922 
  179924   179928   179935   179948   179965   179980   179991   179989 
  179982   179976   179963   179937   179915   179912   179925   179947 
  179979   180015   180054   180094   180120   180120   180094   180056 
  180015   179966   179919   179878   179835   179800   179790   179791 
  179795   179820   179862   179891   179905   179909   179894   179872 
  179847   179809   179764   179732   179726   179710   179689   179701 
  179732   179759   179796   179844   179897   179941   179948   179911 
  179851   179782   179709   179638   179582   179575   179636   179710 
  179770   179840   179882   179899   179928   179920   179871   179818 
  179756   179699   179667   179649   179649   179685   179752   179824 
  179905   179989   180053   180098   180111   180100   180095   180078 
  180045   180012   179982   179967   179967   179978   180017   180101 
  180220   180345   180450   180501   180483   180422   180339   180239 
  180130   180029   179953   179927   179942   179966   179981   179973 
  179935   179874   179795   179712   179651   179606   179563   179535 
  179537   179559   179581   179596   179598   179580   179552   179528 
  179504   179476   179441   179392   179344   179322   179315   179302 
  179293   179292   179284   179278   179285   179297   179309   179336 
  179383   179417   179430   179445   179458   179475   179506   179526 
  179527   179539   179583   179661   179753   179836   179912   179990 
  180062   180128   180179   180224   180274   180317   180345   180364 
  180388   180435   180507   180582   180653   180723   180780   180826 
  180874   180913   180945   180983   181011   181006   180970   180906 
  180821   180743   180683   180626   180566   180506   180454   180426 
  180418   180413   180419   180438   180459   180486   180529   180575 
  180614   180648   180668   180669   180666   180673   180681   180683 
  180668   180620   180550   180482   180416   180345   180271   180197 
  180141   180114   180107   180111   180110   180091   180066   180050 
  180045   180045   180044   180033   180021   180029   180053   180075 
  180087   180077   180044   180006   179974   179949   179930   179918 
  179912   179901   179880   179858   179846   179850   179859   179862 
  179868   179894   179932   179963   179984   179989   179965   179925 
  179891   179859   179831   179819   179808   179801   179809   179823 
  179830   179826   179814   179801   179789   179777   179766   179755 
  179745   179745   179752   179758   179761   179769   179773   179770 
  179774   179791   179811   179829   179860   179898   179929   179951 
  179964   179965   179959   179953   179950   179950   179939   179924 
  179911   179902   179902   179905   179899   179893   179903   179919 
  179928   179923   179897   179864   179851   179855   179856   179847 
  179834   179817   179788   179752   179707   179665   179645   179644 
  179653   179670   179693   179718   179745   179773   179801   179839 
  179897   179965   180021   180049   180045   180023   179996   179970 
  179940   179886   179828   179795   179772   179756   179751   179749 
  179759   179781   179806   179826   179842   179859   179874   179878 
  179882   179911   179961   180009   180053   180093   180118   180120 
  180101   180063   180010   179955   179904   179866   179837   179811 
  179797   179802   179816   179827   179830   179831   179830   179809 
  179765   179717   179675   179637   179612   179601   179606   179637 
  179677   179704   179715   179718   179724   179742   179770   179791 
  179800   179799   179786   179772   179783   179807   179836   179880 
  179923   179957   179993   180022   180045   180066   180072   180060 
  180036   180011   179993   179981   179986   180007   180035   180068 
  180104   180145   180184   180194   180167   180127   180095   180088 
  180112   180147   180176   180204   180222   180232   180244   180258 
  180278   180322   180379   180418   180428   180423   180419   180388 
  180334   180312   180326   180329   180316   180305   180285   180259 
  180249   180252   180270   180309   180350   180389   180415   180417 
  180407   180389   180357   180314   180264   180216   180183   180163 
  180156   180157   180152   180152   180164   180173   180180   180184 
  180183   180179   180161   180144   180145   180156   180175   180195 
  180209   180218   180227   180231   180223   180201   180160   180097 
  180025   179964   179911   179867   179845   179833   179826   179827 
  179815   179820   179867   179899   179904   179911   179905   179888 
  179867   179839   179818   179792   179762   179749   179744   179739 
  179739   179731   179705   179667   179634   179621   179621   179625 
  179622   179614   179607   179588   179562   179552   179554   179566 
  179603   179663   179717   179747   179770   179792   179812   179823 
  179812   179793   179785   179798   179835   179881   179932   179980 
  180017   180055   180096   180122   180130   180131   180126   180110 
  180102   180106   180115   180138   180172   180190   180185   180173 
  180164   180155   180159   180192   180217   180216   180216   180215 
  180206   180185   180129   180056   180007   179983   179972   179962 
  179943   179921   179896   179865   179834   179796   179749   179710 
  179690   179694   179732   179789   179852   179909   179957   180006 
  180053   180082   180088   180071   180042   180022   180008   179992 
  179981   179982   179993   180010   180020   180026   180033   180033 
  180024   180011   180002   180003   180006   180009   180013   180016 
  180013   179998   179980   179972   179976   179992   180023   180064 
  180103   180135   180159   180167   180160   180142   180107   180072 
  180072   180103   180145   180194   180243   180280   180302   180294 
  180255   180194   180115   180035   179968   179911   179856   179797 
  179740   179689   179645   179618   179612   179617   179623   179625 
  179612   179584   179552   179517   179490   179480   179481   179501 
  179543   179588   179622   179652   179666   179656   179644   179641 
  179644   179649   179656   179671   179684   179701   179736   179774 
  179817   179876   179938   179990   180024   180046   180062   180054 
  180025   179992   179953   179919   179903   179903   179914   179930 
  179954   179984   179988   179973   179976   179968   179943   179948 
  179963   179975   179996   180012   180025   180037   180049   180071 
  180091   180102   180117   180144   180175   180194   180207   180229 
  180246   180260   180283   180302   180312   180319   180314   180293 
  180260   180220   180182   180155   180124   180090   180065   180031 
  179979   179924   179865   179815   179793   179788   179790   179797 
  179807   179825   179849   179873   179902   179926   179941   179958 
  179976   179988   179996   179996   179986   179985   180005   180023 
  180023   180018   180013   180014   180029   180036   180022   180003 
  179982   179960   179946   179940   179941   179949   179969   179996 
  180010   180013   180017   180015   180009   180001   179992   179992 
  180015   180055   180094   180127   180150   180138   180105   180086 
  180075   180061   180058   180062   180068   180078   180081   180074 
  180069   180066   180053   180031   180003   179978   179969   179982 
  180012   180061   180116   180154   180168   180157   180133   180108 
  180082   180058   180038   180010   179989   179977   179960   179948 
