Origin Time       2024/04/02 04:24:00
Lat.              40.133
Long.             141.712
Depth. (km)       71
Mag.              6.0
Station Code      SBSH07
Station Lat.      42.7630
Station Long.     140.8084
Station Height(m) 128
Record Time       2024/04/02 04:25:20
Sampling Freq(Hz) 100Hz
Duration Time(s)  160
Dir.              1
Scale Factor      3923(gal)/8224838
Max. Acc. (gal)   0.533
Last Correction   2024/04/02 04:25:21
Memo.             
[...]
    8966     8938     8928     8935     8954     8968     8978     8993 
    9015     9036     9050     9043     9018     8993     8993     9016 
    9047     9076     9101     9124     9144     9166     9185     9209 
    9244     9285     9325     9363     9379     9367     9342     9309 
    9274     9246     9234     9238     9251     9277     9317     9355 
    9383     9401     9400     9393     9406     9428     9433     9428 
    9427     9443     9474     9509     9537     9560     9582     9605 
    9613     9603     9597     9594     9599     9614     9624     9617 
    9603     9590     9571     9547     9522     9493     9451     9423 
    9428     9447     9459     9460     9456     9450     9441     9432 
    9421     9416     9428     9455     9481     9493     9491     9475 
    9451     9424     9396     9358     9302     9240     9196     9173 
    9163     9169     9186     9200     9208     9219     9225     9234 
    9242     9238     9225     9224     9242     9267     9289     9309 
    9323     9327     9329     9344     9359     9364     9351     9328 
    9300     9269     9244     9247     9267     9278     9262     9221 
    9177     9147     9124     9103     9104     9132     9178     9240 
    9306     9350     9369     9390     9432     9474     9494     9502 
    9514     9528     9544     9552     9547     9532     9508     9471 
    9429     9397     9382     9374     9360     9359     9379     9420 
    9470     9513     9539     9562     9575     9575     9580     9593 
    9595     9591     9593     9593     9574     9536     9493     9450 
    9408     9367     9332     9296     9244     9184     9148     9138 
    9130     9120     9115     9121     9142     9163     9177     9194 
    9223     9248     9267     9289     9304     9304     9304     9306 
    9309     9312     9304     9279     9254     9242     9224     9197 
    9173     9144     9119     9104     9097     9089     9076     9058 
    9038     9018     9004     9007     9032     9073     9120     9177 
    9227     9262     9285     9298     9300     9301     9317     9337 
    9363     9401     9443     9477     9491     9479     9452     9417 
    9386     9377     9386     9404     9428     9459     9495     9517 
    9518     9518     9525     9512     9482     9460     9440     9401 
    9351     9323     9327     9346     9348     9325     9298     9273 
    9240     9227     9256     9298     9324     9344     9371     9408 
    9452     9486     9499     9508     9510     9497     9475     9464 
    9459     9436     9390     9342     9304     9269     9236     9220 
    9223     9223     9201     9182     9186     9205     9234     9270 
    9309     9346     9381     9420     9458     9482     9487     9483 
    9486     9487     9474     9463     9474     9502     9545     9605 
    9660     9687     9693     9686     9660     9626     9598     9574 
    9552     9533     9508     9470     9424     9382     9355     9342 
    9327     9308     9279     9238     9196     9169     9148     9115 
    9066     9024     8999     8985     8981     8991     9007     9020 
    9024     9038     9066     9094     9107     9112     9128     9161 
    9202     9244     9273     9290     9313     9350     9387     9409 
    9410     9398     9369     9325     9286     9255     9229     9205 
    9190     9190     9197     9198     9201     9215     9234     9256 
    9283     9305     9313     9316     9321     9325     9309     9267 
    9215     9169     9134     9108     9086     9057     9019     8985 
    8954     8923     8892     8864     8846     8843     8866     8914 
    8969     9032     9094     9131     9147     9165     9181     9209 
    9265     9337     9418     9489     9529     9551     9559     9545 
    9522     9497     9459     9404     9328     9244     9180     9128 
    9070     9024     9000     8988     8981     8978     8973     8961 
    8946     8924     8920     8949     8997     9051     9120     9212 
    9317     9410     9472     9498     9501     9487     9471     9462 
    9467     9478     9485     9490     9505     9541     9613     9717 
    9834     9954    10071    10160    10201    10204    10184    10139 
   10077    10002     9910     9806     9707     9617     9543     9483 
    9416     9332     9254     9184     9117     9057     9004     8977 
    8991     9036     9084     9130     9196     9288     9391     9487 
    9552     9586     9602     9616     9633     9656     9684     9726 
    9772     9814     9834     9829     9803     9764     9714     9659 
    9598     9536     9483     9440     9400     9351     9306     9282 
    9279     9288     9297     9319     9356     9393     9427     9455 
    9456     9435     9416     9398     9374     9351     9331     9310 
    9275     9219     9146     9055     8961     8901     8896     8945 
    9028     9119     9196     9266     9332     9398     9471     9541 
    9589     9595     9562     9508     9463     9441     9448     9486 
    9545     9607     9663     9698     9694     9670     9641     9591 
    9517     9439     9366     9328     9339     9381     9433     9481 
    9506     9509     9495     9459     9386     9282     9157     9024 
    8914     8850     8838     8857     8874     8889     8901     8888 
    8843     8799     8775     8758     8756     8802     8907     9054 
    9220     9362     9456     9510     9518     9486     9445     9406 
    9369     9324     9255     9174     9120     9101     9109     9132 
    9165     9208     9263     9306     9327     9331     9337     9351 
    9370     9394     9421     9440     9437     9396     9323     9247 
    9177     9107     9045     9003     8968     8908     8847     8850 
    8931     9046     9167     9294     9414     9510     9594     9661 
    9707     9745     9767     9759     9730     9693     9657     9632 
    9589     9526     9462     9393     9319     9250     9204     9184 
    9173     9165     9181     9232     9302     9359     9401     9448 
    9512     9574     9622     9666     9709     9753     9783     9795 
    9806     9798     9732     9601     9421     9231     9078     8984 
    8926     8877     8837     8818     8830     8880     8954     9042 
    9132     9205     9247     9251     9231     9215     9231     9289 
    9375     9460     9524     9559     9570     9555     9495     9382 
    9224     9046     8883     8772     8727     8757     8854     8965 
    9047     9123     9205     9277     9337     9404     9478     9552 
    9612     9649     9661     9653     9643     9643     9640     9617 
    9559     9455     9312     9159     9015     8881     8768     8672 
    8587     8521     8472     8434     8418     8428     8463     8530 
    8623     8735     8868     9012     9169     9336     9499     9633 
    9724     9778     9814     9848     9880     9921     9960     9964 
    9907     9784     9603     9393     9184     9012     8897     8829 
    8795     8788     8788     8791     8810     8857     8957     9108 
    9267     9413     9540     9633     9709     9792     9861     9884 
    9879     9879     9890     9894     9883     9868     9863     9861 
    9845     9795     9715     9657     9659     9698     9747     9806 
    9859     9872     9852     9825     9814     9815     9817     9836 
    9883     9929     9927     9869     9779     9688     9620     9582 
    9562     9532     9479     9413     9337     9259     9200     9165 
    9138     9109     9113     9161     9220     9271     9324     9358 
    9339     9293     9265     9251     9248     9273     9320     9386 
    9452     9483     9468     9429     9396     9386     9417     9491 
    9587     9670     9709     9702     9661     9595     9498     9387 
    9279     9181     9104     9054     9008     8962     8947     8976 
    9034     9109     9185     9239     9248     9209     9140     9076 
    9032     8999     8968     8957     8988     9049     9120     9182 
    9213     9211     9205     9220     9270     9363     9483     9579 
    9617     9594     9521     9416     9329     9286     9261     9238 
    9213     9180     9148     9123     9090     9062     9057     9046 
    9001     8915     8793     8650     8514     8415     8390     8429 
    8505     8607     8719     8814     8887     8951     9011     9077 
    9170     9281     9381     9450     9487     9502     9509     9518 
    9536     9564     9602     9634     9647     9648     9668     9703 
    9713     9668     9590     9506     9445     9423     9425     9418 
    9386     9332     9269     9194     9108     9015     8914     8824 
    8775     8791     8869     8961     9019     9031     9013     9011 
    9051     9121     9192     9252     9320     9427     9574     9710 
    9791     9817     9803     9767     9751     9767     9780     9757 
    9707     9647     9572     9482     9389     9321     9304     9313 
    9309     9288     9269     9261     9250     9234     9219     9216 
    9227     9247     9281     9333     9405     9489     9590     9720 
    9845     9915     9925     9903     9861     9799     9748     9721 
    9693     9640     9558     9464     9391     9371     9414     9491 
    9540     9543     9535     9532     9518     9522     9576     9666 
    9753     9828     9869     9856     9794     9690     9568     9475 
    9414     9358     9296     9236     9174     9111     9065     9046 
    9047     9050     9038     9032     9082     9182     9281     9352 
    9408     9483     9585     9674     9728     9748     9741     9726 
    9717     9691     9622     9512     9378     9232     9082     8934 
    8793     8677     8606     8598     8672     8818     8997     9174 
    9327     9429     9483     9510     9533     9566     9603     9641 
    9687     9737     9772     9782     9761     9703     9598     9471 
    9354     9239     9112     8970     8831     8716     8638     8613 
    8669     8787     8895     8964     9012     9078     9162     9251 
    9340     9425     9501     9586     9687     9787     9864     9894 
    9873     9825     9760     9670     9560     9472     9427     9409 
    9390     9354     9297     9216     9116     9003     8880     8745 
    8590     8442     8353     8338     8368     8407     8433     8461 
    8517     8590     8671     8770     8899     9042     9157     9212 
    9216     9196     9165     9108     9020     8927     8858     8812 
    8784     8781     8795     8818     8854     8896     8924     8949 
    8974     8996     9038     9111     9197     9277     9333     9370 
    9416     9487     9562     9620     9675     9737     9784     9791 
    9755     9684     9595     9516     9463     9421     9379     9319 
    9244     9201     9232     9327     9427     9479     9486     9485 
    9501     9522     9549     9598     9653     9679     9670     9647 
    9632     9621     9606     9594     9574     9525     9431     9308 
    9227     9238     9306     9400     9504     9590     9652     9694 
    9713     9713     9733     9792     9860     9910     9965    10039 
   10122    10179    10191    10172    10125    10037     9934     9846 
    9775     9724     9705     9703     9697     9666     9612     9567 
    9543     9539     9562     9590     9585     9562     9560     9570 
    9586     9625     9690     9749     9780     9775     9738     9660 
    9544     9421     9315     9234     9182     9142     9094     9046 
    9004     8957     8903     8854     8812     8773     8730     8685 
    8652     8645     8662     8687     8721     8766     8791     8762 
    8708     8685     8716     8797     8897     8978     9034     9081 
    9151     9246     9335     9391     9424     9431     9404     9344 
    9258     9165     9103     9073     9032     8974     8932     8922 
    8939     8984     9046     9126     9213     9288     9352     9408 
    9447     9486     9559     9656     9736     9786     9809     9794 
    9733     9655     9587     9532     9479     9406     9294     9155 
    9005     8850     8711     8629     8608     8629     8675     8745 
    8845     8969     9099     9238     9370     9459     9472     9427 
    9373     9343     9332     9313     9261     9180     9107     9059 
    9031     9016     9013     9004     8969     8908     8831     8753 
    8703     8712     8780     8897     9066     9277     9491     9678 
    9823     9918     9945     9911     9852     9807     9798     9817 
    9848     9873     9873     9834     9767     9691     9624     9583 
    9585     9633     9714     9795     9849     9872     9872     9856 
    9829     9798     9767     9741     9755     9825     9917     9981 
   10000     9976     9917     9841     9775     9726     9679     9607 
    9497     9339     9153     8984     8866     8812     8806     8818 
    8833     8850     8878     8923     8966     8988     9000     9027 
    9094     9213     9360     9487     9575     9641     9693     9733 
    9775     9805     9802     9771     9734     9691     9626     9537 
    9451     9382     9328     9285     9248     9225     9224     9227 
    9223     9215     9194     9155     9130     9139     9178     9234 
    9296     9359     9418     9471     9516     9545     9552     9525 
    9470     9406     9344     9288     9242     9232     9274     9348 
    9423     9472     9483     9445     9377     9306     9246     9193 
    9142     9088     9031     8972     8897     8804     8715     8653 
    8608     8565     8513     8440     8343     8253     8214     8224 
    8255     8282     8290     8313     8387     8500     8629     8752 
    8831     8857     8870     8905     8961     9027     9089     9142 
    9185     9235     9312     9402     9460     9472     9459     9437 
    9432     9459     9514     9567     9576     9537     9481     9432 
    9405     9396     9374     9329     9281     9224     9151     9082 
    9043     9034     9050     9090     9138     9188     9243     9302 
    9375     9468     9571     9686     9814     9941    10050    10134 
   10200    10245    10262    10266    10268    10261    10238    10189 
   10126    10087    10089    10108    10103    10062     9998     9922 
    9849     9795     9764     9747     9740     9736     9713     9668 
    9632     9620     9610     9585     9545     9494     9444     9421 
    9417     9417     9433     9470     9509     9533     9543     9551 
    9574     9621     9691     9760     9817     9863     9888     9884 
    9861     9833     9802     9768     9742     9714     9663     9594 
    9516     9424     9323     9238     9185     9157     9147     9142 
    9127     9127     9158     9202     9235     9234     9196     9140 
    9101     9088     9069     9028     8968     8900     8862     8883 
    8938     8982     9016     9055     9086     9112     9143     9171 
    9189     9198     9197     9188     9182     9173     9132     9058 
    8980     8916     8883     8876     8884     8901     8927     8965 
    9009     9049     9073     9084     9090     9094     9081     9061 
    9058     9076     9093     9089     9057     9016     8986     8969 
    8959     8955     8954     8957     8955     8939     8901     8846 
    8795     8764     8758     8785     8837     8888     8916     8920 
    8923     8951     9003     9054     9096     9124     9142     9161 
    9178     9189     9197     9197     9190     9184     9173     9151 
    9120     9085     9054     9049     9074     9116     9157     9173 
    9166     9155     9165     9201     9256     9301     9319     9325 
    9347     9381     9424     9464     9505     9551     9591     9616 
    9618     9585     9529     9482     9456     9459     9477     9490 
    9498     9528     9603     9697     9763     9798     9817     9825 
    9821     9801     9765     9737     9738     9774     9830     9892 
    9944     9981    10006    10025    10026     9996     9942     9880 
    9813     9759     9732     9728     9737     9755     9769     9765 
    9745     9720     9679     9613     9529     9450     9381     9315 
    9262     9224     9188     9165     9159     9151     9142     9117 
    9032     8887     8731     8613     8546     8522     8526     8561 
    8625     8700     8779     8850     8914     8978     9049     9123 
    9216     9332     9450     9547     9616     9649     9645     9629 
    9633     9640     9621     9583     9548     9531     9525     9506 
    9463     9416     9374     9347     9342     9351     9362     9371 
    9386     9409     9443     9493     9539     9556     9558     9579 
    9639     9715     9772     9798     9814     9825     9826     9811 
    9778     9733     9680     9622     9572     9543     9537     9549 
    9563     9566     9563     9570     9585     9597     9595     9575 
    9522     9447     9394     9374     9360     9339     9305     9271 
    9248     9234     9225     9227     9225     9205     9151     9080 
    9032     9020     9035     9050     9050     9046     9043     9049 
    9063     9070     9063     9051     9024     8985     8954     8947 
    8965     8995     9019     9023     9007     8985     8970     8972 
    8997     9013     8996     8964     8922     8860     8806     8780 
    8768     8764     8779     8811     8851     8893     8927     8949 
    8965     8972     8964     8964     8999     9055     9120     9188 
    9244     9275     9275     9256     9225     9184     9143     9123 
    9130     9146     9151     9155     9174     9204     9243     9301 
    9366     9428     9498     9586     9678     9744     9771     9783 
    9796     9809     9806     9796     9794     9794     9795     9802 
    9811     9811     9796     9759     9721     9722     9768     9846 
    9940    10023    10084    10122    10143    10156    10143    10089 
   10000     9899     9801     9729     9698     9691     9680     9648 
    9591     9518     9439     9364     9324     9328     9362     9404 
    9450     9509     9580     9641     9660     9657     9653     9651 
    9657     9672     9682     9693     9701     9690     9644     9582 
    9524     9467     9408     9342     9269     9201     9154     9127 
    9103     9055     8982     8916     8877     8854     8834     8819 
    8804     8783     8758     8731     8694     8649     8607     8584 
    8580     8579     8575     8575     8581     8602     8629     8641 
    8631     8622     8626     8641     8664     8698     8742     8787 
    8827     8866     8897     8924     8958     9004     9055     9103 
    9139     9173     9200     9201     9175     9159     9169     9170 
    9135     9088     9054     9038     9045     9066     9078     9082 
    9090     9103     9120     9154     9196     9236     9290     9354 
    9405     9440     9474     9517     9566     9612     9651     9670 
    9674     9679     9675     9647     9597     9540     9486     9454 
    9452     9471     9494     9506     9504     9499     9491     9482 
    9471     9470     9487     9516     9548     9580     9602     9605 
    9605     9630     9678     9709     9714     9703     9675     9633 
    9594     9564     9551     9551     9544     9528     9520     9531 
    9555     9597     9656     9728     9802     9865     9903     9915 
    9913     9900     9891     9884     9876     9872     9877     9871 
