Origin Time       2024/04/02 04:24:00
Lat.              40.133
Long.             141.712
Depth. (km)       71
Mag.              6.0
Station Code      SBSH07
Station Lat.      42.7630
Station Long.     140.8084
Station Height(m) 128
Record Time       2024/04/02 04:25:20
Sampling Freq(Hz) 100Hz
Duration Time(s)  160
Dir.              2
Scale Factor      3923(gal)/8224838
Max. Acc. (gal)   0.771
Last Correction   2024/04/02 04:25:21
Memo.             
[...]
   -8784    -8797    -8846    -8896    -8930    -8943    -8937    -8932 
   -8935    -8942    -8958    -8980    -8982    -8973    -8968    -8973 
   -8995    -9030    -9069    -9100    -9109    -9094    -9076    -9076 
   -9093    -9120    -9155    -9186    -9215    -9240    -9250    -9244 
   -9247    -9267    -9293    -9317    -9336    -9351    -9351    -9331 
   -9292    -9246    -9208    -9171    -9127    -9092    -9069    -9057 
   -9066    -9093    -9124    -9155    -9181    -9186    -9177    -9162 
   -9155    -9161    -9180    -9212    -9251    -9266    -9250    -9235 
   -9238    -9247    -9258    -9259    -9246    -9216    -9171    -9121 
   -9078    -9049    -9035    -9038    -9039    -9026    -9004    -8991 
   -8977    -8964    -8964    -8977    -8988    -8995    -8993    -8982 
   -8961    -8931    -8908    -8896    -8891    -8892    -8897    -8912 
   -8938    -8969    -8997    -9024    -9040    -9039    -9026    -9011 
   -9003    -9011    -9042    -9082    -9113    -9135    -9155    -9169 
   -9174    -9186    -9211    -9223    -9207    -9169    -9131    -9093 
   -9070    -9078    -9100    -9094    -9047    -8989    -8951    -8930 
   -8918    -8915    -8912    -8911    -8919    -8932    -8947    -8964 
   -8977    -8988    -8991    -8982    -8970    -8953    -8935    -8923 
   -8908    -8885    -8862    -8845    -8842    -8853    -8861    -8857 
   -8854    -8854    -8850    -8856    -8865    -8870    -8869    -8860 
   -8854    -8858    -8861    -8862    -8864    -8853    -8830    -8802 
   -8765    -8727    -8698    -8684    -8684    -8699    -8731    -8777 
   -8829    -8870    -8891    -8887    -8870    -8856    -8849    -8854 
   -8868    -8880    -8897    -8927    -8968    -9005    -9026    -9030 
   -9015    -8982    -8947    -8907    -8864    -8829    -8807    -8799 
   -8800    -8800    -8808    -8827    -8845    -8877    -8924    -8968 
   -9001    -9027    -9046    -9057    -9073    -9113    -9181    -9266 
   -9359    -9441    -9495    -9522    -9531    -9532    -9526    -9517 
   -9517    -9525    -9529    -9514    -9478    -9431    -9386    -9352 
   -9320    -9285    -9247    -9205    -9171    -9150    -9136    -9135 
   -9154    -9180    -9189    -9186    -9184    -9174    -9150    -9124 
   -9104    -9077    -9043    -9018    -9001    -8993    -8993    -8999 
   -9008    -9023    -9035    -9036    -9032    -9035    -9055    -9086 
   -9113    -9126    -9124    -9120    -9124    -9142    -9162    -9170 
   -9163    -9154    -9144    -9131    -9111    -9090    -9072    -9036 
   -8982    -8916    -8858    -8820    -8802    -8802    -8820    -8847 
   -8880    -8924    -8973    -9019    -9058    -9089    -9112    -9124 
   -9124    -9119    -9121    -9136    -9155    -9167    -9165    -9146 
   -9117    -9084    -9050    -9035    -9043    -9053    -9042    -9016 
   -8978    -8924    -8862    -8819    -8806    -8799    -8780    -8761 
   -8745    -8727    -8710    -8698    -8696    -8716    -8761    -8818 
   -8856    -8866    -8872    -8887    -8899    -8897    -8900    -8914 
   -8924    -8935    -8943    -8931    -8904    -8873    -8845    -8833 
   -8833    -8834    -8842    -8869    -8896    -8905    -8897    -8887 
   -8891    -8911    -8928    -8938    -8958    -8981    -8988    -8977 
   -8955    -8942    -8953    -8974    -8992    -9013    -9027    -9032 
   -9036    -9039    -9046    -9062    -9096    -9146    -9196    -9234 
   -9263    -9275    -9265    -9243    -9221    -9197    -9173    -9167 
   -9165    -9154    -9154    -9171    -9185    -9186    -9174    -9154 
   -9136    -9127    -9119    -9115    -9109    -9104    -9097    -9082 
   -9062    -9047    -9023    -8980    -8928    -8881    -8847    -8837 
   -8847    -8866    -8878    -8891    -8910    -8914    -8889    -8858 
   -8834    -8819    -8807    -8807    -8826    -8850    -8860    -8862 
   -8880    -8915    -8950    -8985    -9043    -9120    -9200    -9270 
   -9317    -9340    -9355    -9356    -9335    -9298    -9255    -9217 
   -9188    -9151    -9117    -9097    -9086    -9080    -9080    -9096 
   -9121    -9155    -9190    -9208    -9209    -9198    -9177    -9147 
   -9113    -9084    -9058    -9019    -8968    -8930    -8903    -8888 
   -8900    -8937    -8968    -8985    -8993    -8995    -8999    -9008 
   -9020    -9023    -9009    -8984    -8964    -8970    -9000    -9032 
   -9047    -9042    -9028    -9023    -9026    -9028    -9028    -9032 
   -9050    -9084    -9119    -9143    -9158    -9163    -9159    -9154 
   -9157    -9167    -9182    -9198    -9201    -9190    -9189    -9205 
   -9240    -9279    -9309    -9312    -9281    -9220    -9150    -9082 
   -9019    -8968    -8930    -8891    -8849    -8819    -8808    -8804 
   -8795    -8783    -8780    -8787    -8806    -8834    -8856    -8866 
   -8880    -8908    -8955    -9009    -9046    -9058    -9069    -9084 
   -9088    -9081    -9073    -9059    -9034    -9007    -8976    -8935 
   -8893    -8860    -8838    -8827    -8820    -8816    -8814    -8807 
   -8811    -8824    -8835    -8838    -8824    -8799    -8779    -8769 
   -8768    -8785    -8818    -8847    -8873    -8908    -8943    -8966 
   -8978    -8980    -8972    -8955    -8932    -8916    -8926    -8953 
   -8973    -8991    -9022    -9059    -9076    -9080    -9088    -9103 
   -9113    -9124    -9142    -9161    -9170    -9161    -9139    -9123 
   -9119    -9121    -9117    -9089    -9043    -8997    -8957    -8915 
   -8878    -8860    -8865    -8877    -8884    -8895    -8915    -8939 
   -8962    -8984    -9001    -9008    -9004    -8995    -9003    -9038 
   -9094    -9146    -9171    -9178    -9178    -9180    -9167    -9128 
   -9080    -9034    -8974    -8923    -8901    -8895    -8895    -8904 
   -8911    -8904    -8897    -8893    -8889    -8901    -8946    -9011 
   -9072    -9124    -9173    -9209    -9215    -9202    -9198    -9204 
   -9216    -9229    -9231    -9221    -9200    -9171    -9148    -9131 
   -9119    -9123    -9140    -9144    -9131    -9116    -9103    -9089 
   -9081    -9082    -9092    -9099    -9107    -9128    -9144    -9138 
   -9127    -9128    -9123    -9105    -9099    -9127    -9178    -9223 
   -9247    -9262    -9267    -9263    -9255    -9243    -9229    -9216 
   -9186    -9148    -9109    -9076    -9057    -9045    -9034    -9027 
   -9028    -9040    -9055    -9057    -9049    -9035    -9012    -8991 
   -8973    -8953    -8935    -8935    -8945    -8945    -8931    -8918 
   -8910    -8914    -8923    -8939    -8961    -8982    -8992    -8982 
   -8957    -8923    -8895    -8880    -8878    -8885    -8891    -8885 
   -8881    -8887    -8897    -8916    -8946    -8973    -8986    -8978 
   -8961    -8950    -8953    -8962    -8970    -8973    -8961    -8939 
   -8916    -8884    -8842    -8808    -8796    -8806    -8829    -8851 
   -8870    -8907    -8953    -8988    -9016    -9055    -9099    -9136 
   -9166    -9178    -9162    -9115    -9050    -8982    -8932    -8905 
   -8889    -8869    -8847    -8849    -8878    -8905    -8912    -8905 
   -8896    -8883    -8860    -8839    -8839    -8860    -8887    -8905 
   -8903    -8881    -8860    -8835    -8797    -8752    -8702    -8646 
   -8595    -8553    -8511    -8465    -8425    -8395    -8382    -8387 
   -8407    -8442    -8500    -8588    -8685    -8760    -8797    -8819 
   -8831    -8842    -8877    -8941    -9003    -9050    -9078    -9089 
   -9093    -9101    -9111    -9119    -9127    -9135    -9134    -9124 
   -9111    -9101    -9097    -9094    -9099    -9117    -9131    -9135 
   -9140    -9144    -9142    -9135    -9123    -9111    -9108    -9108 
   -9101    -9094    -9107    -9127    -9148    -9166    -9169    -9154 
   -9142    -9143    -9163    -9202    -9247    -9297    -9347    -9389 
   -9435    -9489    -9537    -9571    -9591    -9593    -9583    -9572 
   -9563    -9559    -9555    -9532    -9479    -9400    -9323    -9261 
   -9204    -9151    -9109    -9070    -9032    -9003    -8977    -8951 
   -8932    -8931    -8947    -8988    -9058    -9140    -9211    -9251 
   -9269    -9271    -9267    -9274    -9286    -9292    -9297    -9306 
   -9325    -9354    -9373    -9371    -9355    -9343    -9348    -9369 
   -9393    -9417    -9435    -9448    -9467    -9483    -9497    -9517 
   -9531    -9522    -9501    -9472    -9429    -9370    -9294    -9220 
   -9157    -9103    -9062    -9034    -9015    -9000    -8984    -8959 
   -8927    -8888    -8843    -8803    -8789    -8804    -8833    -8877 
   -8939    -8996    -9040    -9092    -9154    -9211    -9248    -9267 
   -9269    -9254    -9219    -9167    -9108    -9038    -8962    -8896 
   -8831    -8750    -8652    -8527    -8395    -8294    -8240    -8216 
   -8209    -8224    -8278    -8353    -8417    -8471    -8533    -8581 
   -8596    -8590    -8575    -8545    -8514    -8510    -8532    -8579 
   -8654    -8743    -8830    -8891    -8914    -8915    -8910    -8884 
   -8838    -8800    -8785    -8793    -8831    -8893    -8954    -9001 
   -9058    -9128    -9174    -9171    -9134    -9081    -9036    -9018 
   -9015    -9013    -9000    -8985    -8972    -8959    -8949    -8946 
   -8958    -8965    -8941    -8889    -8819    -8727    -8645    -8608 
   -8611    -8638    -8684    -8748    -8826    -8915    -9004    -9082 
   -9140    -9190    -9263    -9364    -9475    -9579    -9666    -9734 
   -9784    -9799    -9775    -9732    -9687    -9639    -9593    -9564 
   -9563    -9564    -9551    -9536    -9529    -9522    -9501    -9467 
   -9436    -9405    -9356    -9302    -9255    -9212    -9184    -9163 
   -9138    -9119    -9128    -9161    -9188    -9188    -9154    -9090 
   -9016    -8946    -8888    -8845    -8816    -8796    -8783    -8783 
   -8784    -8781    -8779    -8789    -8806    -8811    -8819    -8847 
   -8908    -9008    -9121    -9224    -9300    -9340    -9356    -9348 
   -9313    -9259    -9200    -9148    -9100    -9034    -8958    -8916 
   -8914    -8930    -8957    -8984    -8993    -8973    -8928    -8884 
   -8850    -8815    -8766    -8716    -8684    -8675    -8683    -8694 
   -8695    -8692    -8696    -8702    -8707    -8733    -8792    -8872 
   -8962    -9069    -9196    -9321    -9431    -9524    -9597    -9634 
   -9628    -9598    -9587    -9617    -9663    -9670    -9598    -9472 
   -9346    -9227    -9099    -8970    -8835    -8669    -8494    -8351 
   -8267    -8230    -8201    -8172    -8168    -8193    -8239    -8303 
   -8356    -8371    -8360    -8356    -8368    -8405    -8471    -8537 
   -8573    -8594    -8598    -8564    -8510    -8483    -8494    -8533 
   -8594    -8675    -8762    -8838    -8900    -8965    -9032    -9092 
   -9142    -9185    -9208    -9193    -9153    -9103    -9034    -8939 
   -8850    -8785    -8745    -8719    -8685    -8625    -8556    -8478 
   -8372    -8251    -8160    -8140    -8183    -8278    -8417    -8588 
   -8761    -8920    -9070    -9216    -9347    -9441    -9483    -9493 
   -9501    -9529    -9585    -9660    -9736    -9783    -9771    -9687 
   -9556    -9421    -9317    -9256    -9228    -9239    -9306    -9409 
   -9501    -9572    -9622    -9640    -9607    -9521    -9423    -9369 
   -9379    -9444    -9545    -9645    -9705    -9714    -9686    -9640 
   -9574    -9487    -9409    -9342    -9250    -9147    -9062    -8985 
   -8919    -8893    -8930    -9016    -9124    -9248    -9390    -9526 
   -9628    -9674    -9680    -9694    -9726    -9778    -9850    -9923 
   -9972    -9988    -9968    -9918    -9849    -9756    -9618    -9435 
   -9229    -9009    -8788    -8611    -8517    -8514    -8576    -8650 
   -8710    -8752    -8768    -8761    -8757    -8769    -8802    -8864 
   -8943    -9003    -9015    -8985    -8926    -8843    -8739    -8646 
   -8586    -8525    -8430    -8321    -8232    -8174    -8136    -8101 
   -8058    -8019    -8010    -8033    -8046    -8044    -8074    -8147 
   -8247    -8375    -8509    -8596    -8626    -8614    -8550    -8417 
   -8248    -8081    -7912    -7739    -7595    -7522    -7534    -7601 
   -7677    -7734    -7774    -7817    -7890    -8000    -8145    -8299 
   -8432    -8542    -8646    -8764    -8904    -9049    -9170    -9263 
   -9317    -9321    -9278    -9212    -9147    -9103    -9090    -9109 
   -9158    -9207    -9216    -9207    -9243    -9339    -9440    -9521 
   -9587    -9648    -9707    -9761    -9809    -9869    -9938   -10000 
  -10048   -10064   -10039   -10003    -9973    -9937    -9865    -9760 
   -9640    -9528    -9444    -9397    -9397    -9467    -9580    -9664 
   -9705    -9725    -9722    -9713    -9741    -9819    -9926   -10037 
  -10123   -10161   -10134   -10061    -9960    -9849    -9753    -9678 
   -9614    -9560    -9517    -9485    -9454    -9410    -9356    -9306 
   -9266    -9243    -9228    -9211    -9205    -9251    -9358    -9487 
   -9593    -9647    -9644    -9610    -9593    -9602    -9633    -9697 
   -9779    -9853    -9902    -9921    -9914    -9877    -9790    -9656 
   -9486    -9279    -9072    -8900    -8773    -8695    -8654    -8621 
   -8581    -8563    -8569    -8577    -8603    -8687    -8819    -8955 
   -9070    -9167    -9262    -9364    -9451    -9495    -9498    -9455 
   -9346    -9175    -8982    -8814    -8700    -8625    -8553    -8475 
   -8379    -8256    -8143    -8075    -8056    -8056    -8044    -8005 
   -7952    -7900    -7857    -7821    -7811    -7865    -7987    -8131 
   -8247    -8320    -8343    -8318    -8256    -8190    -8140    -8083 
   -8002    -7896    -7771    -7643    -7520    -7437    -7408    -7406 
   -7419    -7479    -7604    -7770    -7936    -8083    -8214    -8324 
   -8402    -8445    -8459    -8444    -8406    -8375    -8379    -8422 
   -8483    -8534    -8572    -8602    -8622    -8637    -8661    -8687 
   -8687    -8654    -8640    -8680    -8765    -8870    -8980    -9082 
   -9162    -9224    -9298    -9404    -9524    -9634    -9726    -9799 
   -9845    -9857    -9850    -9846    -9864    -9907    -9942    -9952 
   -9949    -9937    -9900    -9852    -9809    -9767    -9710    -9647 
   -9605    -9607    -9672    -9801    -9945   -10061   -10142   -10180 
  -10160   -10103   -10018    -9909    -9790    -9670    -9570    -9524 
   -9510    -9494    -9458    -9396    -9331    -9310    -9331    -9351 
   -9360    -9354    -9328    -9296    -9290    -9351    -9463    -9582 
   -9680    -9745    -9782    -9780    -9737    -9674    -9617    -9563 
   -9490    -9387    -9282    -9220    -9219    -9262    -9312    -9316 
   -9243    -9111    -8950    -8788    -8650    -8554    -8515    -8530 
   -8584    -8629    -8630    -8604    -8583    -8586    -8619    -8689 
   -8776    -8834    -8854    -8881    -8957    -9051    -9123    -9173 
   -9200    -9178    -9119    -9066    -9050    -9074    -9121    -9167 
   -9166    -9105    -9001    -8880    -8789    -8766    -8791    -8818 
   -8853    -8924    -9028    -9124    -9175    -9166    -9101    -9009 
   -8910    -8811    -8726    -8667    -8640    -8642    -8648    -8637 
   -8626    -8621    -8608    -8576    -8521    -8467    -8434    -8424 
   -8440    -8483    -8546    -8641    -8776    -8941    -9089    -9189 
   -9251    -9285    -9300    -9305    -9289    -9234    -9151    -9065 
   -8981    -8876    -8749    -8630    -8549    -8506    -8492    -8491 
   -8465    -8397    -8321    -8293    -8351    -8476    -8595    -8673 
   -8729    -8776    -8815    -8866    -8939    -9011    -9045    -9051 
   -9057    -9053    -9024    -9003    -9011    -9042    -9080    -9124 
   -9161    -9161    -9108    -9018    -8891    -8738    -8591    -8478 
   -8417    -8406    -8414    -8430    -8465    -8514    -8546    -8534 
   -8494    -8488    -8548    -8648    -8748    -8830    -8908    -8999 
   -9090    -9155    -9170    -9140    -9105    -9092    -9096    -9117 
   -9144    -9157    -9170    -9216    -9293    -9389    -9499    -9597 
   -9634    -9614    -9583    -9562    -9548    -9560    -9587    -9593 
   -9571    -9548    -9560    -9618    -9698    -9782    -9872    -9952 
   -9984    -9954    -9884    -9807    -9733    -9661    -9597    -9558 
   -9551    -9578    -9629    -9684    -9724    -9736    -9726    -9710 
   -9720    -9767    -9825    -9865    -9875    -9842    -9749    -9594 
   -9408    -9238    -9105    -9004    -8922    -8865    -8847    -8861 
   -8872    -8868    -8843    -8787    -8706    -8635    -8591    -8576 
   -8603    -8665    -8733    -8788    -8814    -8806    -8792    -8795 
   -8806    -8811    -8800    -8776    -8737    -8681    -8629    -8602 
   -8599    -8598    -8586    -8568    -8533    -8463    -8397    -8386 
   -8433    -8494    -8540    -8568    -8595    -8638    -8708    -8797 
   -8878    -8920    -8908    -8846    -8757    -8688    -8650    -8618 
   -8577    -8552    -8569    -8631    -8707    -8754    -8769    -8789 
   -8838    -8893    -8914    -8892    -8861    -8850    -8873    -8931 
   -9008    -9084    -9139    -9155    -9131    -9099    -9090    -9104 
   -9111    -9109    -9115    -9127    -9139    -9159    -9175    -9163 
   -9132    -9111    -9100    -9094    -9099    -9096    -9081    -9080 
   -9104    -9144    -9202    -9266    -9312    -9329    -9333    -9351 
   -9379    -9404    -9423    -9440    -9456    -9462    -9470    -9502 
   -9535    -9517    -9456    -9389    -9347    -9352    -9378    -9360 
   -9298    -9231    -9177    -9146    -9131    -9117    -9094    -9063 
   -9042    -9039    -9036    -9007    -8955    -8907    -8878    -8860 
   -8835    -8807    -8770    -8743    -8758    -8804    -8829    -8803 
   -8754    -8715    -8696    -8694    -8703    -8718    -8711    -8660 
   -8567    -8464    -8390    -8370    -8406    -8475    -8541    -8587 
   -8600    -8586    -8560    -8536    -8517    -8507    -8522    -8572 
   -8635    -8700    -8753    -8768    -8737    -8684    -8634    -8591 
   -8550    -8522    -8517    -8517    -8518    -8537    -8581    -8638 
   -8681    -8696    -8704    -8718    -8739    -8772    -8816    -8883 
   -8972    -9077    -9193    -9298    -9369    -9402    -9402    -9373 
   -9327    -9292    -9290    -9319    -9366    -9435    -9533    -9643 
   -9733    -9809    -9891    -9983   -10079   -10181   -10280   -10334 
  -10320   -10255   -10174   -10100   -10042    -9999    -9968    -9948 
   -9927    -9884    -9803    -9697    -9576    -9458    -9358    -9285 
   -9238    -9219    -9227    -9255    -9283    -9300    -9316    -9332 
   -9335    -9324    -9301    -9267    -9234    -9209    -9186    -9147 
   -9089    -9036    -8997    -8964    -8915    -8842    -8776    -8749 
   -8731    -8680    -8610    -8567    -8568    -8602    -8634    -8640 
   -8625    -8596    -8561    -8536    -8537    -8563    -8590    -8617 
   -8658    -8719    -8779    -8818    -8837    -8833    -8800    -8743 
   -8685    -8646    -8626    -8615    -8608    -8613    -8625    -8631 
   -8622    -8591    -8545    -8507    -8483    -8471    -8459    -8430 
   -8386    -8337    -8294    -8262    -8253    -8282    -8340    -8407 
   -8469    -8511    -8540    -8580    -8633    -8671    -8676    -8645 
   -8602    -8573    -8567    -8579    -8604    -8645    -8716    -8818 
   -8931    -9038    -9112    -9147    -9158    -9162    -9167    -9166 
   -9151    -9124    -9077    -9015    -8953    -8901    -8858    -8814 
   -8757    -8712    -8708    -8727    -8738    -8748    -8772    -8807 
