Origin Time       2024/04/02 04:24:00
Lat.              40.133
Long.             141.712
Depth. (km)       71
Mag.              6.0
Station Code      SBSH02
Station Lat.      43.0527
Station Long.     140.5017
Station Height(m) -75
Record Time       2024/04/02 04:25:25
Sampling Freq(Hz) 100Hz
Duration Time(s)  120
Dir.              1
Scale Factor      2940(gal)/6170270
Max. Acc. (gal)   0.183
Last Correction   2024/04/02 04:25:10
Memo.             
[...]
   42463    42458    42451    42441    42433    42425    42417    42413 
   42413    42413    42412    42412    42410    42407    42403    42398 
   42395    42393    42389    42387    42387    42386    42383    42383 
   42384    42388    42396    42410    42419    42419    42417    42418 
   42416    42414    42411    42402    42390    42385    42385    42385 
   42387    42393    42401    42411    42422    42430    42432    42430 
   42429    42431    42432    42433    42435    42437    42439    42446 
   42458    42468    42481    42496    42508    42517    42526    42533 
   42535    42536    42537    42539    42538    42536    42531    42527 
   42524    42520    42516    42511    42503    42496    42491    42486 
   42484    42484    42482    42477    42473    42467    42457    42447 
   42437    42425    42413    42405    42401    42400    42404    42408 
   42412    42417    42421    42422    42417    42412    42408    42402 
   42397    42394    42396    42403    42411    42415    42419    42423 
   42423    42422    42421    42423    42431    42437    42437    42437 
   42439    42440    42439    42435    42429    42428    42433    42436 
   42437    42438    42440    42445    42449    42447    42447    42447 
   42445    42444    42447    42451    42456    42467    42482    42492 
   42499    42508    42515    42524    42536    42545    42552    42560 
   42566    42569    42575    42574    42567    42561    42555    42549 
   42541    42530    42520    42509    42497    42485    42475    42469 
   42462    42454    42451    42451    42448    42445    42444    42443 
   42445    42450    42453    42454    42453    42453    42455    42450 
   42445    42446    42449    42449    42449    42448    42447    42449 
   42447    42441    42440    42437    42432    42433    42437    42439 
   42438    42433    42432    42430    42430    42433    42435    42435 
   42435    42433    42432    42432    42433    42434    42434    42435 
   42439    42441    42438    42437    42440    42442    42442    42442 
   42441    42440    42440    42438    42442    42450    42455    42456 
   42457    42454    42449    42445    42441    42438    42436    42435 
   42434    42435    42438    42440    42440    42442    42445    42445 
   42443    42437    42431    42426    42424    42423    42421    42423 
   42430    42434    42432    42430    42428    42424    42425    42429 
   42429    42429    42430    42434    42435    42436    42441    42445 
   42443    42436    42427    42419    42418    42424    42428    42431 
   42438    42447    42454    42458    42461    42462    42462    42462 
   42462    42464    42468    42474    42480    42483    42488    42493 
   42494    42494    42497    42503    42511    42520    42531    42539 
   42539    42539    42539    42534    42532    42529    42520    42510 
   42501    42495    42498    42505    42510    42510    42510    42511 
   42507    42500    42494    42489    42483    42477    42468    42460 
   42460    42466    42474    42479    42480    42481    42479    42478 
   42481    42480    42477    42477    42479    42479    42483    42491 
   42497    42502    42504    42501    42500    42502    42500    42494 
   42494    42500    42498    42489    42480    42469    42454    42438 
   42423    42411    42401    42393    42389    42387    42389    42391 
   42393    42396    42399    42399    42395    42389    42383    42377 
   42375    42376    42376    42375    42374    42376    42384    42394 
   42404    42413    42416    42417    42420    42419    42415    42416 
   42414    42407    42402    42398    42393    42394    42402    42404 
   42401    42402    42407    42413    42423    42432    42436    42440 
   42446    42450    42450    42449    42443    42439    42436    42427 
   42419    42421    42425    42427    42431    42437    42439    42442 
   42449    42454    42454    42453    42456    42457    42462    42468 
   42469    42468    42470    42470    42469    42471    42473    42472 
   42468    42461    42454    42450    42449    42449    42451    42451 
   42452    42454    42455    42454    42448    42446    42448    42448 
   42449    42448    42446    42451    42457    42457    42460    42466 
   42466    42462    42462    42464    42466    42468    42470    42469 
   42467    42466    42463    42462    42463    42464    42464    42465 
   42470    42477    42479    42477    42476    42478    42477    42472 
   42469    42465    42458    42453    42449    42446    42448    42446 
   42441    42441    42441    42436    42430    42426    42424    42424 
   42428    42437    42446    42452    42458    42466    42472    42478 
   42485    42491    42495    42496    42501    42513    42525    42539 
   42559    42577    42590    42604    42614    42613    42608    42600 
   42585    42566    42546    42528    42513    42508    42506    42502 
   42495    42490    42485    42478    42470    42463    42456    42446 
   42432    42416    42406    42400    42392    42384    42378    42370 
   42359    42352    42348    42344    42339    42334    42337    42345 
   42350    42357    42371    42384    42394    42400    42403    42405 
   42410    42419    42428    42440    42450    42452    42449    42448 
   42445    42438    42428    42419    42412    42408    42406    42403 
   42400    42404    42411    42419    42429    42444    42460    42471 
   42476    42476    42471    42462    42457    42451    42444    42441 
   42443    42443    42447    42455    42460    42463    42467    42467 
   42466    42468    42467    42466    42467    42467    42470    42473 
   42473    42474    42474    42470    42466    42463    42460    42456 
   42457    42463    42464    42464    42469    42473    42472    42470 
   42467    42462    42458    42456    42455    42450    42446    42445 
   42445    42442    42436    42436    42440    42437    42429    42425 
   42429    42433    42434    42438    42445    42450    42454    42458 
   42463    42473    42479    42481    42484    42486    42484    42480 
   42472    42464    42458    42450    42444    42443    42439    42435 
   42433    42432    42435    42439    42440    42441    42440    42435 
   42431    42429    42424    42425    42430    42436    42441    42447 
   42452    42455    42458    42463    42467    42466    42465    42467 
   42472    42473    42472    42478    42483    42478    42471    42468 
   42471    42478    42478    42478    42479    42478    42474    42471 
   42465    42461    42460    42455    42452    42455    42455    42453 
   42453    42453    42451    42453    42458    42463    42467    42470 
   42470    42467    42462    42460    42461    42467    42476    42481 
   42483    42485    42487    42489    42490    42487    42481    42475 
   42472    42473    42476    42481    42483    42483    42482    42480 
   42475    42469    42466    42466    42468    42470    42476    42484 
   42493    42502    42510    42513    42518    42521    42518    42511 
   42499    42483    42470    42457    42443    42433    42426    42417 
   42405    42391    42378    42371    42367    42361    42359    42359 
   42358    42358    42357    42355    42357    42358    42358    42360 
   42362    42369    42382    42392    42395    42404    42412    42410 
   42406    42403    42404    42411    42421    42428    42434    42441 
   42447    42452    42457    42463    42463    42461    42465    42467 
   42462    42457    42456    42454    42453    42451    42439    42427 
   42426    42429    42432    42436    42441    42448    42457    42461 
   42458    42452    42446    42440    42434    42430    42424    42415 
   42409    42408    42409    42411    42414    42420    42425    42428 
   42430    42433    42435    42440    42448    42453    42455    42462 
   42479    42493    42503    42511    42513    42508    42498    42495 
   42496    42496    42496    42497    42499    42502    42505    42507 
   42503    42498    42498    42501    42503    42503    42500    42494 
   42487    42481    42479    42475    42473    42474    42473    42473 
   42473    42471    42475    42479    42474    42468    42465    42468 
   42475    42480    42477    42474    42477    42480    42484    42488 
   42487    42483    42479    42476    42474    42476    42482    42485 
   42485    42485    42478    42468    42462    42455    42444    42435 
   42432    42434    42434    42431    42429    42425    42419    42414 
   42409    42406    42408    42413    42416    42421    42433    42444 
   42451    42463    42474    42476    42478    42479    42478    42476 
   42474    42472    42466    42458    42457    42459    42457    42459 
   42463    42463    42464    42468    42469    42469    42467    42464 
   42465    42469    42474    42475    42473    42470    42470    42469 
   42469    42472    42475    42481    42493    42504    42512    42515 
   42511    42506    42505    42500    42488    42478    42473    42469 
   42468    42468    42467    42468    42469    42469    42469    42465 
   42461    42459    42454    42446    42443    42438    42433    42429 
   42424    42422    42425    42428    42429    42433    42442    42451 
   42453    42452    42453    42458    42461    42460    42458    42458 
   42457    42455    42451    42447    42449    42456    42457    42456 
   42453    42445    42436    42431    42424    42415    42406    42397 
   42389    42391    42398    42395    42384    42377    42369    42358 
   42354    42354    42357    42359    42362    42368    42375    42382 
   42392    42399    42401    42401    42399    42399    42404    42410 
   42413    42417    42420    42417    42415    42419    42422    42420 
   42416    42416    42418    42422    42426    42431    42435    42439 
   42440    42443    42448    42451    42455    42461    42466    42471 
   42475    42479    42479    42479    42482    42485    42483    42479 
   42478    42478    42477    42479    42483    42482    42476    42474 
   42478    42480    42480    42479    42478    42481    42486    42496 
   42510    42523    42534    42545    42550    42552    42555    42557 
   42555    42555    42558    42560    42559    42554    42552    42552 
   42548    42539    42533    42532    42529    42527    42526    42523 
   42521    42521    42521    42520    42523    42526    42525    42523 
   42522    42522    42521    42516    42504    42491    42482    42472 
   42456    42442    42433    42428    42425    42426    42431    42436 
   42442    42442    42441    42443    42441    42439    42441    42439 
   42433    42427    42423    42421    42414    42406    42403    42401 
   42398    42398    42397    42397    42399    42400    42397    42390 
   42381    42375    42369    42366    42368    42374    42380    42385 
   42388    42388    42389    42392    42392    42395    42402    42408 
   42415    42421    42424    42429    42437    42437    42434    42436 
   42436    42431    42429    42428    42426    42428    42432    42429 
   42428    42431    42432    42433    42438    42439    42435    42431 
   42427    42424    42419    42415    42411    42404    42398    42395 
   42392    42387    42379    42370    42361    42350    42340    42334 
   42329    42321    42317    42313    42310    42308    42307    42304 
   42299    42295    42295    42299    42306    42316    42326    42333 
   42338    42337    42337    42344    42355    42368    42386    42404 
   42424    42443    42456    42466    42476    42481    42485    42491 
   42497    42500    42501    42502    42500    42499    42499    42491 
   42479    42468    42458    42449    42441    42436    42433    42430 
   42431    42433    42428    42426    42429    42431    42434    42440 
   42443    42445    42447    42450    42454    42461    42464    42463 
   42464    42465    42461    42455    42454    42456    42454    42458 
   42466    42462    42457    42459    42462    42460    42451    42440 
   42437    42436    42430    42421    42415    42409    42402    42398 
   42395    42391    42386    42388    42393    42401    42412    42421 
   42430    42441    42449    42453    42460    42466    42474    42485 
   42496    42505    42517    42529    42536    42546    42555    42563 
   42572    42578    42581    42589    42596    42599    42603    42605 
   42603    42603    42605    42604    42602    42606    42611    42612 
   42616    42622    42625    42626    42627    42628    42627    42621 
   42616    42613    42608    42604    42601    42597    42594    42589 
   42582    42576    42573    42571    42570    42569    42563    42555 
   42549    42542    42537    42536    42537    42537    42537    42535 
   42533    42530    42525    42515    42499    42485    42474    42467 
   42462    42460    42457    42454    42454    42457    42459    42461 
   42458    42453    42452    42450    42447    42446    42444    42443 
   42442    42438    42437    42439    42439    42438    42443    42455 
   42468    42482    42498    42515    42532    42548    42563    42577 
   42589    42599    42611    42622    42629    42635    42647    42660 
   42665    42668    42671    42675    42678    42677    42672    42661 
   42647    42635    42622    42609    42598    42587    42576    42565 
   42554    42543    42530    42516    42504    42492    42478    42466 
   42455    42444    42432    42417    42403    42386    42367    42348 
   42329    42311    42293    42274    42252    42228    42208    42194 
   42178    42163    42154    42143    42130    42119    42106    42096 
   42086    42077    42072    42069    42072    42081    42090    42095 
   42103    42118    42134    42149    42164    42183    42205    42230 
   42254    42281    42314    42347    42376    42408    42442    42474 
   42506    42537    42559    42576    42593    42608    42621    42631 
   42640    42652    42660    42663    42668    42670    42668    42664 
   42659    42654    42649    42643    42636    42628    42617    42603 
   42586    42568    42554    42545    42536    42528    42525    42521 
   42515    42508    42495    42477    42456    42438    42424    42413 
   42405    42397    42390    42383    42372    42360    42348    42338 
   42331    42328    42328    42329    42329    42328    42329    42331 
   42331    42328    42323    42321    42322    42321    42318    42315 
   42316    42321    42328    42333    42339    42344    42349    42358 
   42368    42375    42382    42393    42405    42419    42435    42446 
   42458    42470    42479    42485    42489    42491    42494    42496 
   42497    42501    42505    42511    42518    42524    42526    42526 
   42528    42532    42534    42532    42532    42530    42526    42519 
   42510    42504    42501    42495    42490    42484    42476    42469 
   42464    42459    42452    42443    42436    42430    42428    42426 
   42419    42412    42408    42403    42398    42393    42389    42385 
   42379    42373    42367    42356    42342    42332    42329    42330 
   42329    42330    42337    42347    42355    42361    42368    42377 
   42387    42398    42409    42416    42421    42425    42431    42438 
   42443    42447    42451    42456    42463    42472    42477    42476 
   42474    42473    42472    42472    42472    42465    42457    42449 
   42439    42429    42423    42420    42419    42420    42424    42431 
   42442    42457    42470    42481    42491    42493    42490    42488 
   42486    42482    42477    42469    42457    42448    42442    42432 
   42418    42407    42398    42390    42388    42389    42394    42400 
   42402    42404    42411    42420    42425    42431    42439    42444 
   42450    42458    42460    42458    42458    42458    42460    42465 
   42467    42471    42481    42494    42506    42517    42529    42537 
   42543    42552    42561    42567    42574    42586    42592    42593 
   42593    42590    42584    42583    42581    42574    42566    42555 
   42536    42516    42502    42491    42476    42467    42460    42448 
   42438    42433    42429    42424    42419    42414    42409    42404 
   42400    42400    42403    42406    42411    42418    42425    42432 
   42439    42450    42464    42474    42483    42496    42507    42516 
   42523    42527    42527    42526    42524    42520    42515    42510 
   42505    42503    42501    42499    42498    42493    42485    42476 
   42467    42455    42443    42432    42422    42416    42415    42414 
   42414    42413    42412    42416    42425    42435    42445    42453 
   42456    42455    42455    42452    42444    42434    42426    42418 
   42411    42406    42406    42404    42403    42404    42400    42392 
   42383    42370    42356    42343    42329    42315    42307    42307 
   42306    42307    42308    42310    42314    42321    42331    42346 
   42362    42374    42381    42386    42396    42410    42424    42441 
   42466    42493    42520    42541    42559    42575    42586    42595 
   42602    42605    42612    42622    42631    42635    42632    42623 
   42613    42603    42588    42574    42564    42561    42565    42567 
   42567    42570    42567    42557    42551    42551    42552    42556 
   42557    42554    42553    42559    42571    42587    42604    42618 
   42622    42620    42619    42620    42622    42623    42622    42620 
   42619    42614    42604    42594    42588    42583    42574    42562 
   42550    42541    42535    42528    42521    42513    42501    42487 
   42473    42465    42461    42456    42455    42458    42455    42447 
   42437    42432    42431    42434    42440    42443    42441    42442 
   42447    42448    42449    42452    42450    42443    42435    42427 
   42420    42409    42397    42389    42381    42370    42366    42368 
   42369    42370    42367    42361    42354    42343    42329    42317 
   42309    42308    42313    42320    42326    42329    42333    42340 
   42345    42350    42357    42358    42354    42350    42346    42345 
   42348    42350    42352    42357    42363    42364    42363    42361 
   42360    42357    42354    42353    42356    42359    42362    42366 
   42370    42370    42369    42365    42361    42362    42364    42362 
   42360    42364    42374    42390    42406    42420    42434    42441 
   42442    42444    42448    42452    42461    42469    42474    42478 
   42482    42483    42479    42469    42457    42443    42424    42404 
   42386    42369    42355    42348    42346    42347    42355    42366 
   42373    42378    42382    42385    42387    42388    42388    42394 
   42405    42418    42433    42448    42461    42472    42478    42481 
   42485    42490    42492    42496    42502    42505    42501    42495 
   42489    42489    42490    42484    42476    42469    42462    42451 
   42439    42432    42427    42421    42419    42420    42424    42426 
   42429    42440    42447    42450    42455    42461    42463    42466 
   42473    42477    42479    42483    42490    42494    42494    42493 
   42495    42497    42503    42514    42525    42536    42550    42564 
   42577    42590    42596    42594    42587    42579    42573    42568 
   42567    42565    42558    42555    42554    42550    42545    42537 
   42530    42526    42518    42509    42505    42502    42501    42504 
   42507    42514    42523    42528    42529    42532    42533    42536 
   42542    42548    42554    42561    42566    42562    42552    42540 
