Origin Time       2024/04/02 04:24:00
Lat.              40.133
Long.             141.712
Depth. (km)       71
Mag.              6.0
Station Code      SBSH02
Station Lat.      43.0527
Station Long.     140.5017
Station Height(m) 25
Record Time       2024/04/02 04:25:25
Sampling Freq(Hz) 100Hz
Duration Time(s)  120
Dir.              6
Scale Factor      3920(gal)/6170801
Max. Acc. (gal)   0.323
Last Correction   2024/04/02 04:25:10
Memo.             
[...]
  -32987   -32995   -33008   -33000   -32979   -32973   -32982   -32993 
  -32999   -32996   -32992   -32993   -32984   -32970   -32978   -32998 
  -33010   -33005   -32987   -32975   -32981   -32989   -32982   -32982 
  -33000   -33008   -32992   -32975   -32976   -32990   -32999   -32992 
  -32985   -32990   -32988   -32979   -32986   -33005   -33009   -32996 
  -32977   -32967   -32984   -33014   -33009   -32980   -32964   -32975 
  -32998   -33009   -32998   -32980   -32983   -33006   -33006   -32979 
  -32967   -32981   -32998   -32998   -32990   -32999   -33003   -32980 
  -32968   -32980   -32985   -32995   -33012   -33009   -32993   -32981 
  -32956   -32946   -32984   -33032   -33037   -33001   -32965   -32964 
  -32988   -32990   -32969   -32977   -33010   -33022   -33015   -32995 
  -32967   -32961   -32972   -32984   -32997   -33000   -32994   -33011 
  -33023   -32991   -32956   -32943   -32947   -32986   -33041   -33053 
  -33010   -32965   -32960   -32976   -32977   -32972   -32989   -33010 
  -33022   -33017   -32980   -32946   -32958   -32990   -33005   -33011 
  -33016   -33003   -32973   -32963   -32974   -32978   -32988   -33006 
  -33011   -33002   -32987   -32971   -32966   -32979   -33000   -33010 
  -32996   -32978   -32988   -32998   -32983   -32978   -32993   -32997 
  -32992   -32990   -32982   -32987   -33007   -33005   -32977   -32965 
  -32990   -33015   -32997   -32973   -32981   -32994   -32997   -32990 
  -32980   -32989   -32995   -32983   -32981   -32993   -33007   -33009 
  -32988   -32964   -32967   -32979   -32978   -32988   -33018   -33020 
  -32987   -32973   -32981   -32986   -32997   -32990   -32964   -32972 
  -33007   -33023   -33009   -32982   -32970   -32983   -32995   -32981 
  -32964   -32984   -33017   -33023   -33007   -32979   -32953   -32954 
  -32986   -33023   -33025   -33000   -32984   -32967   -32964   -32987 
  -33001   -33006   -33012   -32998   -32980   -32984   -32985   -32981 
  -32994   -32997   -32979   -32979   -33003   -33034   -33029   -32976 
  -32940   -32961   -32991   -33007   -33009   -32991   -32976   -32989 
  -33012   -33017   -32991   -32952   -32945   -32985   -33029   -33040 
  -33020   -32973   -32935   -32955   -33000   -33011   -33006   -33007 
  -32999   -32990   -32979   -32973   -32988   -32997   -32990   -32994 
  -32999   -32993   -32991   -32994   -32988   -32984   -32983   -32977 
  -32983   -32999   -33002   -32998   -32999   -32996   -32976   -32966 
  -32984   -33000   -33004   -33005   -32998   -32983   -32968   -32970 
  -32993   -33003   -32989   -32987   -33007   -33019   -32994   -32952 
  -32952   -32991   -33012   -32999   -32985   -32991   -33005   -32997 
  -32969   -32967   -32992   -33001   -33001   -33006   -32998   -32979 
  -32965   -32961   -32978   -33021   -33041   -32999   -32946   -32959 
  -33008   -33015   -32976   -32957   -32987   -33030   -33035   -32992 
  -32947   -32942   -32971   -33006   -33027   -33024   -32999   -32971 
  -32965   -32985   -32996   -32976   -32964   -32994   -33034   -33027 
  -32975   -32945   -32964   -32992   -33005   -33005   -32991   -32982 
  -32992   -33002   -32994   -32970   -32956   -32969   -32993   -33014 
  -33031   -33020   -32972   -32935   -32946   -32992   -33020   -33009 
  -32996   -32997   -32990   -32978   -32973   -32963   -32959   -32992 
  -33036   -33040   -33010   -32970   -32934   -32933   -32986   -33051 
  -33051   -32989   -32955   -32970   -32986   -32988   -32984   -32984 
  -33005   -33027   -33003   -32965   -32966   -32981   -32986   -32999 
  -33010   -33000   -32976   -32978   -33004   -33003   -32982   -32978 
  -32989   -32995   -32994   -32994   -33001   -33001   -32983   -32976 
  -32989   -32993   -32978   -32971   -33005   -33038   -33006   -32949 
  -32949   -32998   -33034   -33017   -32968   -32951   -32982   -33007 
  -33007   -33013   -33011   -32971   -32939   -32970   -33016   -33017 
  -32996   -32995   -33000   -32982   -32962   -32965   -32992   -33013 
  -32993   -32970   -33001   -33028   -32987   -32944   -32965   -33002 
  -33003   -32988   -32997   -33009   -32990   -32961   -32962   -32988 
  -33007   -33003   -32994   -32994   -32987   -32974   -32972   -32993 
  -33014   -33005   -32971   -32961   -32988   -33004   -32991   -32990 
  -33001   -32986   -32963   -32970   -32997   -33005   -32991   -32982 
  -32998   -33013   -32987   -32948   -32954   -32997   -33020   -33009 
  -33004   -33006   -32978   -32938   -32945   -33000   -33037   -33011 
  -32968   -32979   -33010   -32994   -32963   -32971   -33005   -33015 
  -32996   -32979   -32979   -32973   -32965   -32986   -33026   -33036 
  -33003   -32962   -32947   -32961   -32986   -33000   -33010   -33017 
  -33002   -32975   -32973   -32989   -32983   -32968   -32980   -33014 
  -33027   -33002   -32972   -32975   -32990   -32986   -32975   -32986 
  -33006   -33006   -32991   -32989   -32991   -32977   -32976   -32998 
  -33015   -33003   -32965   -32950   -32985   -33020   -33015   -33000 
  -32995   -32979   -32963   -32974   -32996   -33000   -32986   -32982 
  -33002   -33013   -32985   -32957   -32962   -32990   -33008   -32991 
  -32979   -33004   -33019   -32992   -32967   -32971   -32980   -32978 
  -32980   -33001   -33022   -33016   -32995   -32976   -32963   -32964 
  -32979   -33002   -33021   -33017   -32990   -32973   -32985   -32991 
  -32961   -32940   -32974   -33033   -33053   -33020   -32980   -32969 
  -32968   -32965   -32966   -32975   -33005   -33038   -33037   -33004 
  -32972   -32959   -32966   -32970   -32978   -33004   -33024   -33017 
  -32993   -32977   -32987   -32989   -32962   -32954   -32997   -33032 
  -33010   -32979   -32983   -33006   -33019   -32990   -32941   -32942 
  -32986   -33013   -33027   -33037   -33011   -32958   -32941   -32978 
  -33013   -33007   -32982   -32977   -32999   -33008   -32983   -32970 
  -32992   -33010   -32996   -32971   -32981   -33015   -33010   -32970 
  -32964   -32997   -33018   -33001   -32968   -32968   -32998   -33004 
  -32985   -32990   -33015   -33013   -32981   -32964   -32976   -32992 
  -32998   -33001   -33009   -33011   -32987   -32954   -32954   -32988 
  -33016   -33015   -33002   -32996   -32990   -32979   -32978   -32985 
  -32988   -32997   -33007   -33004   -32987   -32971   -32976   -32995 
  -33001   -32997   -32992   -32983   -32982   -32991   -32998   -33002 
  -32988   -32967   -32980   -33004   -33004   -33000   -32994   -32975 
  -32971   -32989   -33003   -33000   -32988   -32980   -32987   -32998 
  -32998   -32985   -32978   -32992   -33000   -32986   -32970   -32979 
  -33008   -33023   -33007   -32971   -32948   -32960   -32989   -33018 
  -33031   -33012   -32975   -32959   -32980   -32997   -32978   -32964 
  -32998   -33033   -33023   -32984   -32949   -32954   -32995   -33007 
  -32981   -32983   -33007   -33009   -32988   -32964   -32959   -32973 
  -32987   -33003   -33017   -33012   -32987   -32956   -32947   -32978 
  -33011   -33014   -33003   -32994   -32982   -32963   -32952   -32980 
  -33028   -33035   -33000   -32963   -32954   -32983   -33001   -32985 
  -32982   -33000   -33005   -32995   -32981   -32977   -32989   -32997 
  -32991   -32984   -32983   -32990   -32999   -33004   -32994   -32967 
  -32952   -32972   -33013   -33037   -33021   -32981   -32952   -32957 
  -32983   -33004   -33008   -33002   -32997   -32996   -32988   -32977 
  -32976   -32974   -32977   -33002   -33019   -33012   -32989   -32962 
  -32960   -32988   -33009   -33004   -32998   -32998   -32985   -32960 
  -32958   -32990   -33027   -33022   -32985   -32972   -32985   -32981 
  -32976   -32995   -33009   -33001   -32988   -32979   -32977   -32984 
  -32985   -32985   -33003   -33017   -33002   -32971   -32958   -32985 
  -33012   -32996   -32973   -32984   -33009   -33010   -32982   -32962 
  -32977   -33006   -33016   -33007   -32988   -32967   -32967   -32990 
  -33015   -33021   -32990   -32946   -32950   -33003   -33039   -33022 
  -32980   -32962   -32975   -32986   -32983   -32986   -33000   -33015 
  -33010   -32983   -32966   -32975   -32986   -32986   -32995   -33012 
  -33019   -33003   -32973   -32958   -32978   -33000   -32995   -32995 
  -33009   -33004   -32980   -32968   -32979   -32995   -32994   -32986 
  -32994   -33011   -33006   -32970   -32949   -32981   -33026   -33034 
  -33007   -32972   -32950   -32958   -32990   -33018   -33023   -33004 
  -32975   -32971   -32996   -33008   -32979   -32953   -32979   -33024 
  -33034   -33007   -32962   -32950   -32992   -33025   -33000   -32964 
  -32968   -32999   -33021   -33014   -32984   -32963   -32969   -32989 
  -33001   -33003   -33003   -32996   -32984   -32984   -32991   -32984 
  -32977   -32983   -32994   -33005   -33014   -33008   -32983   -32964 
  -32970   -32984   -32990   -32999   -33010   -33015   -33008   -32989 
  -32974   -32967   -32977   -33005   -33013   -32989   -32984   -33006 
  -33003   -32971   -32963   -33000   -33032   -33014   -32972   -32956 
  -32975   -32992   -32997   -33007   -33016   -33013   -32990   -32957 
  -32953   -32982   -33003   -33008   -33013   -33013   -32988   -32959 
  -32968   -33002   -33019   -33000   -32969   -32965   -32990   -33010 
  -33007   -32989   -32978   -32985   -32997   -32995   -32984   -32985 
  -32995   -32991   -32985   -32985   -32986   -33007   -33027   -33003 
  -32966   -32965   -32980   -32986   -32998   -33016   -33010   -32990 
  -32988   -32993   -32984   -32977   -32987   -32999   -32997   -32988 
  -32986   -32991   -32996   -32995   -32987   -32986   -32995   -33009 
  -33012   -33003   -33005   -33015   -33016   -33012   -33010   -33013 
  -33018   -33015   -33008   -33005   -32999   -32991   -32985   -32984 
  -32998   -33006   -32997   -32994   -33006   -33014   -32997   -32974 
  -32978   -33010   -33040   -33037   -33007   -32982   -32982   -32997 
  -33013   -33020   -33009   -32989   -32987   -33006   -33015   -33002 
  -32985   -32987   -33008   -33018   -33005   -32997   -33001   -32993 
  -32975   -32979   -33014   -33041   -33037   -33025   -33015   -32997 
  -32992   -33010   -33032   -33053   -33074   -33077   -33057   -33042 
  -33041   -33032   -33015   -33023   -33049   -33056   -33051   -33041 
  -33013   -32983   -32975   -32987   -33004   -33011   -33012   -33017 
  -33020   -33014   -33002   -32978   -32943   -32929   -32965   -33020 
  -33034   -32999   -32943   -32907   -32919   -32951   -32964   -32970 
  -32979   -32966   -32942   -32930   -32925   -32932   -32947   -32958 
  -32963   -32961   -32956   -32954   -32953   -32951   -32953   -32971 
  -33003   -33027   -33023   -32991   -32963   -32966   -32986   -33003 
  -33004   -32992   -32981   -32969   -32961   -32968   -32969   -32955 
  -32952   -32956   -32953   -32946   -32928   -32891   -32868   -32878 
  -32892   -32903   -32930   -32964   -32962   -32926   -32909   -32922 
  -32953   -32991   -32998   -32964   -32915   -32877   -32858   -32843 
  -32820   -32799   -32784   -32772   -32756   -32732   -32724   -32757 
  -32827   -32909   -32965   -32986   -32999   -33009   -32999   -32977 
  -32975   -32995   -33020   -33050   -33075   -33069   -33046   -33027 
  -33000   -32974   -32979   -32993   -32977   -32929   -32854   -32767 
  -32715   -32709   -32728   -32760   -32784   -32804   -32844   -32911 
  -32974   -32990   -32978   -33001   -33053   -33083   -33057   -32992 
  -32946   -32952   -32993   -33043   -33077   -33098   -33123   -33138 
  -33139   -33131   -33103   -33071   -33070   -33075   -33050   -32997 
  -32955   -32966   -32998   -33006   -33001   -32984   -32959   -32954 
  -32966   -32980   -32999   -33046   -33109   -33159   -33199   -33228 
  -33222   -33187   -33160   -33158   -33166   -33165   -33169   -33164 
  -33116   -33041   -32986   -32957   -32953   -32973   -32997   -33017 
  -33022   -33008   -32982   -32921   -32851   -32848   -32924   -33031 
  -33115   -33157   -33180   -33182   -33161   -33144   -33141   -33138 
  -33118   -33075   -33054   -33106   -33207   -33297   -33364   -33406 
  -33389   -33306   -33200   -33126   -33107   -33108   -33085   -33046 
  -33016   -32985   -32934   -32880   -32861   -32898   -32980   -33051 
  -33078   -33078   -33060   -33029   -33002   -32988   -32998   -33029 
  -33041   -33017   -32975   -32944   -32951   -33006   -33090   -33158 
  -33151   -33063   -32953   -32861   -32774   -32686   -32624   -32635 
  -32720   -32835   -32940   -33014   -33067   -33132   -33208   -33246 
  -33219   -33160   -33129   -33143   -33153   -33134   -33103   -33071 
  -33051   -33033   -32976   -32863   -32756   -32731   -32764   -32790 
  -32813   -32852   -32895   -32941   -32975   -32976   -32968   -32982 
  -32985   -32946   -32883   -32839   -32829   -32830   -32808   -32763 
  -32726   -32726   -32754   -32777   -32766   -32733   -32718   -32752 
  -32838   -32915   -32919   -32883   -32879   -32902   -32915   -32923 
  -32957   -33017   -33062   -33059   -33030   -33021   -33034   -33042 
  -33025   -32986   -32945   -32907   -32860   -32794   -32732   -32708 
  -32713   -32717   -32730   -32754   -32793   -32857   -32931   -32962 
  -32917   -32821   -32750   -32738   -32750   -32763   -32802   -32889 
  -33017   -33137   -33180   -33149   -33107   -33105   -33142   -33169 
  -33171   -33190   -33244   -33299   -33304   -33226   -33090   -32969 
  -32889   -32827   -32774   -32748   -32768   -32841   -32946   -33028 
  -33039   -33018   -33041   -33124   -33238   -33325   -33361   -33401 
  -33462   -33498   -33493   -33444   -33358   -33261   -33149   -33010 
  -32864   -32742   -32671   -32675   -32742   -32824   -32875   -32884 
  -32883   -32906   -32963   -33044   -33119   -33165   -33185   -33182 
  -33157   -33149   -33188   -33251   -33312   -33350   -33344   -33300 
  -33239   -33164   -33091   -33042   -33018   -33007   -32968   -32870 
  -32751   -32668   -32630   -32622   -32635   -32669   -32749   -32871 
  -32962   -32965   -32918   -32881   -32871   -32885   -32932   -32984 
  -32981   -32927   -32882   -32886   -32945   -33032   -33124   -33219 
  -33302   -33322   -33240   -33087   -32955   -32897   -32888   -32880 
  -32866   -32863   -32863   -32835   -32772   -32713   -32685   -32689 
  -32748   -32876   -33022   -33123   -33157   -33151   -33158   -33204 
  -33258   -33272   -33241   -33203   -33185   -33188   -33213   -33255 
  -33284   -33264   -33195   -33107   -33023   -32963   -32929   -32897 
  -32866   -32857   -32823   -32729   -32671   -32700   -32764   -32846 
  -32939   -33027   -33124   -33206   -33237   -33226   -33220   -33254 
  -33312   -33361   -33372   -33316   -33189   -33036   -32908   -32820 
  -32771   -32737   -32720   -32761   -32831   -32878   -32915   -32946 
  -32945   -32927   -32914   -32897   -32873   -32849   -32825   -32818 
  -32845   -32886   -32909   -32898   -32876   -32914   -33033   -33126 
  -33086   -32966   -32878   -32875   -32950   -33033   -33059   -33054 
  -33046   -33017   -32962   -32871   -32784   -32801   -32923   -33018 
  -32996   -32882   -32770   -32749   -32827   -32926   -32971   -32941 
  -32885   -32874   -32907   -32924   -32896   -32852   -32852   -32928 
  -33036   -33106   -33108   -33083   -33097   -33119   -33083   -32996 
  -32904   -32842   -32821   -32815   -32792   -32756   -32742   -32759 
  -32819   -32909   -32944   -32908   -32895   -32956   -33055   -33134 
  -33173   -33189   -33198   -33201   -33183   -33117   -33035   -33011 
  -33056   -33109   -33117   -33073   -32984   -32874   -32810   -32833 
  -32906   -32980   -33022   -33021   -33012   -33018   -33017   -33012 
  -33022   -33047   -33090   -33129   -33131   -33092   -33025   -32955 
  -32946   -33029   -33145   -33210   -33206   -33163   -33098   -33019 
  -32947   -32920   -32970   -33061   -33126   -33133   -33095   -33057 
  -33033   -33005   -32997   -33020   -33041   -33037   -33026   -33014 
  -32983   -32927   -32861   -32828   -32868   -32952   -33031   -33083 
  -33109   -33125   -33127   -33118   -33118   -33112   -33088   -33063 
  -33037   -33003   -32969   -32925   -32880   -32864   -32879   -32901 
  -32906   -32889   -32882   -32890   -32897   -32921   -32968   -33028 
  -33092   -33139   -33142   -33101   -33063   -33083   -33157   -33244 
  -33285   -33236   -33129   -33030   -32983   -32996   -33023   -33018 
  -32985   -32970   -32994   -33014   -32988   -32925   -32877   -32885 
  -32937   -32995   -33036   -33056   -33069   -33066   -33032   -32956 
  -32850   -32781   -32800   -32858   -32865   -32818   -32779   -32793 
  -32852   -32917   -32944   -32916   -32875   -32889   -32958   -33013 
  -33019   -33018   -33042   -33075   -33092   -33081   -33057   -33046 
  -33046   -33025   -32984   -32953   -32951   -32980   -33017   -33020 
  -33002   -33003   -33016   -33031   -33053   -33057   -33019   -32964 
  -32936   -32935   -32923   -32889   -32868   -32883   -32908   -32929 
  -32954   -32951   -32923   -32913   -32923   -32939   -32968   -32991 
  -32985   -32951   -32902   -32854   -32829   -32857   -32923   -32962 
  -32967   -32979   -32986   -32964   -32926   -32884   -32843   -32840 
  -32886   -32947   -32992   -33003   -32963   -32915   -32911   -32952 
  -33014   -33071   -33114   -33154   -33167   -33137   -33118   -33153 
  -33216   -33255   -33227   -33148   -33078   -33024   -32954   -32899 
  -32899   -32921   -32925   -32906   -32896   -32917   -32941   -32947 
  -32946   -32947   -32964   -32998   -33009   -32983   -32960   -32954 
  -32946   -32935   -32929   -32936   -32944   -32934   -32932   -32957 
  -32987   -33002   -33006   -33010   -33001   -32966   -32926   -32903 
  -32910   -32963   -33039   -33087   -33088   -33047   -32981   -32917 
  -32878   -32899   -33005   -33125   -33157   -33097   -33007   -32932 
  -32901   -32915   -32959   -33022   -33069   -33079   -33059   -33007 
  -32925   -32851   -32831   -32883   -32984   -33072   -33083   -33048 
  -33046   -33069   -33069   -33055   -33060   -33083   -33091   -33050 
  -32986   -32948   -32930   -32918   -32924   -32931   -32901   -32855 
  -32838   -32855   -32895   -32942   -32963   -32982   -33030   -33065 
  -33046   -32993   -32947   -32959   -33038   -33114   -33125   -33094 
  -33052   -33011   -32983   -32982   -33006   -33037   -33058   -33073 
  -33074   -33046   -33012   -33000   -33005   -33017   -33042   -33061 
  -33046   -33013   -32982   -32934   -32884   -32871   -32895   -32929 
  -32965   -32995   -32997   -32985   -32981   -32982   -33000   -33051 
  -33106   -33138   -33142   -33123   -33094   -33060   -33025   -32973 
  -32922   -32920   -32961   -33006   -33025   -32995   -32955   -32961 
  -33003   -33037   -33032   -33014   -33017   -33016   -33001   -32997 
  -32995   -32998   -33036   -33088   -33099   -33072   -33056   -33074 
  -33110   -33126   -33099   -33050   -33021   -33014   -33004   -32994 
  -32983   -32963   -32959   -32950   -32919   -32917   -32949   -32973 
  -32995   -33011   -32997   -32978   -32972   -32955   -32919   -32888 
  -32891   -32920   -32939   -32946   -32948   -32914   -32857   -32852 
  -32900   -32945   -32993   -33057   -33118   -33170   -33196   -33183 
  -33150   -33108   -33076   -33071   -33061   -33027   -33000   -32984 
  -32969   -32975   -32997   -33004   -32999   -32975   -32920   -32871 
  -32853   -32857   -32882   -32932   -32990   -33016   -33001   -32995 
