Origin Time       2024/04/02 04:24:00
Lat.              40.133
Long.             141.712
Depth. (km)       71
Mag.              6.0
Station Code      SBSH06
Station Lat.      42.8309
Station Long.     140.4831
Station Height(m) 39
Record Time       2024/04/02 04:25:22
Sampling Freq(Hz) 100Hz
Duration Time(s)  140
Dir.              6
Scale Factor      3920(gal)/6170801
Max. Acc. (gal)   0.503
Last Correction   2024/04/02 04:25:07
Memo.             
[...]
   14091    14085    14087    14092    14090    14085    14086    14092 
   14094    14089    14088    14089    14088    14089    14091    14088 
   14088    14089    14088    14087    14087    14090    14091    14085 
   14086    14091    14088    14086    14089    14092    14090    14087 
   14088    14088    14088    14089    14088    14086    14087    14089 
   14091    14087    14084    14090    14091    14087    14090    14090 
   14084    14085    14092    14092    14087    14086    14088    14088 
   14089    14092    14089    14084    14087    14090    14087    14087 
   14088    14087    14087    14088    14087    14089    14088    14085 
   14089    14091    14087    14086    14090    14088    14086    14089 
   14092    14087    14085    14090    14092    14089    14090    14091 
   14088    14090    14092    14088    14086    14090    14094    14090 
   14085    14089    14095    14090    14088    14093    14092    14089 
   14090    14088    14089    14093    14091    14087    14089    14089 
   14088    14092    14095    14092    14091    14088    14088    14094 
   14096    14092    14087    14086    14091    14093    14093    14093 
   14093    14091    14088    14090    14092    14091    14093    14095 
   14093    14089    14090    14093    14093    14090    14090    14093 
   14094    14091    14092    14093    14092    14092    14092    14092 
   14092    14089    14088    14093    14095    14093    14091    14091 
   14092    14092    14092    14094    14092    14088    14090    14096 
   14095    14090    14089    14091    14091    14091    14094    14092 
   14090    14092    14091    14091    14092    14093    14092    14091 
   14091    14092    14092    14090    14088    14092    14093    14089 
   14090    14094    14094    14090    14090    14092    14091    14089 
   14091    14092    14091    14091    14090    14091    14093    14090 
   14088    14089    14090    14090    14091    14091    14090    14088 
   14088    14088    14089    14090    14091    14089    14089    14090 
   14089    14089    14090    14090    14091    14090    14089    14093 
   14093    14088    14088    14090    14091    14091    14091    14089 
   14085    14087    14093    14092    14089    14089    14089    14089 
   14089    14088    14087    14088    14091    14090    14087    14088 
   14090    14089    14088    14089    14090    14090    14089    14087 
   14089    14091    14090    14092    14091    14088    14090    14093 
   14088    14086    14090    14090    14090    14089    14088    14090 
   14090    14087    14087    14088    14088    14089    14088    14086 
   14088    14092    14091    14089    14092    14090    14086    14090 
   14090    14086    14088    14090    14089    14088    14092    14091 
   14089    14090    14091    14088    14089    14091    14090    14087 
   14086    14089    14092    14088    14087    14090    14091    14087 
   14087    14089    14086    14084    14091    14093    14086    14085 
   14088    14089    14089    14089    14088    14087    14089    14089 
   14087    14086    14087    14090    14089    14087    14087    14088 
   14090    14088    14084    14088    14090    14085    14085    14088 
   14088    14086    14085    14087    14086    14084    14087    14088 
   14086    14087    14089    14089    14086    14086    14086    14084 
   14085    14088    14089    14089    14086    14084    14090    14091 
   14088    14085    14085    14089    14090    14087    14088    14091 
   14087    14086    14089    14086    14086    14090    14091    14086 
   14086    14091    14092    14089    14088    14089    14091    14091 
   14087    14088    14092    14090    14090    14092    14089    14088 
   14090    14090    14092    14093    14092    14090    14091    14092 
   14090    14089    14095    14095    14090    14089    14090    14091 
   14091    14089    14090    14095    14092    14087    14091    14094 
   14090    14090    14092    14090    14088    14090    14091    14090 
   14090    14090    14091    14089    14089    14091    14092    14092 
   14093    14092    14089    14090    14093    14093    14090    14090 
   14092    14092    14090    14090    14093    14094    14092    14090 
   14090    14092    14092    14090    14091    14094    14093    14090 
   14091    14092    14090    14091    14093    14090    14090    14092 
   14092    14093    14091    14090    14096    14095    14089    14093 
   14094    14089    14089    14093    14092    14093    14093    14092 
   14090    14089    14091    14093    14091    14093    14093    14089 
   14089    14092    14092    14092    14090    14087    14089    14091 
   14090    14090    14093    14093    14092    14091    14090    14089 
   14089    14088    14088    14091    14091    14087    14088    14091 
   14088    14087    14093    14092    14089    14090    14089    14087 
   14088    14088    14090    14090    14089    14091    14091    14089 
   14089    14088    14088    14089    14087    14087    14090    14089 
   14089    14090    14090    14090    14089    14088    14091    14093 
   14091    14087    14087    14092    14091    14088    14090    14091 
   14087    14085    14090    14092    14087    14083    14089    14094 
   14089    14086    14089    14088    14086    14088    14089    14089 
   14088    14089    14087    14085    14087    14088    14086    14088 
   14089    14088    14087    14088    14088    14084    14086    14091 
   14089    14086    14088    14089    14091    14091    14088    14087 
   14089    14089    14087    14088    14089    14088    14088    14088 
   14089    14092    14093    14087    14084    14089    14090    14087 
   14088    14091    14088    14086    14089    14090    14090    14090 
   14087    14088    14092    14090    14088    14092    14092    14089 
   14090    14090    14087    14088    14092    14092    14089    14088 
   14088    14091    14093    14090    14086    14088    14093    14094 
   14089    14087    14089    14090    14091    14092    14090    14087 
   14087    14091    14093    14089    14087    14090    14093    14093 
   14090    14087    14090    14094    14092    14089    14090    14092 
   14093    14093    14089    14090    14094    14093    14089    14088 
   14091    14091    14090    14095    14093    14089    14091    14094 
   14094    14091    14090    14092    14091    14090    14091    14091 
   14091    14092    14093    14093    14093    14093    14090    14090 
   14093    14092    14088    14090    14095    14094    14090    14086 
   14088    14092    14092    14089    14091    14092    14089    14090 
   14091    14088    14088    14093    14092    14091    14090    14089 
   14093    14093    14089    14091    14092    14090    14092    14089 
   14087    14091    14090    14089    14094    14092    14088    14091 
   14093    14091    14087    14087    14090    14091    14088    14086 
   14088    14090    14090    14091    14091    14091    14090    14089 
   14089    14091    14090    14091    14090    14090    14090    14089 
   14090    14091    14091    14089    14089    14089    14089    14088 
   14088    14089    14090    14092    14090    14088    14088    14090 
   14091    14090    14088    14089    14090    14091    14090    14088 
   14088    14088    14083    14084    14091    14091    14088    14090 
   14088    14088    14090    14089    14090    14091    14087    14086 
   14090    14091    14090    14090    14089    14087    14087    14092 
   14093    14087    14085    14089    14093    14089    14086    14088 
   14088    14087    14090    14090    14088    14088    14090    14091 
   14088    14087    14090    14091    14088    14087    14089    14087 
   14087    14091    14091    14088    14089    14090    14089    14089 
   14088    14089    14090    14088    14089    14091    14089    14088 
   14092    14091    14086    14086    14088    14090    14091    14088 
   14088    14089    14089    14089    14092    14092    14092    14090 
   14087    14088    14092    14091    14088    14089    14091    14092 
   14091    14089    14092    14092    14088    14090    14091    14090 
   14092    14091    14090    14093    14092    14093    14096    14092 
   14089    14092    14094    14091    14089    14094    14095    14090 
   14092    14096    14091    14090    14093    14093    14093    14091 
   14087    14090    14092    14093    14092    14089    14090    14093 
   14090    14089    14091    14089    14088    14091    14092    14090 
   14088    14088    14091    14090    14090    14091    14089    14089 
   14091    14089    14090    14089    14088    14093    14093    14088 
   14091    14090    14088    14092    14092    14086    14087    14090 
   14089    14090    14091    14090    14091    14091    14091    14088 
   14086    14091    14090    14087    14087    14089    14092    14089 
   14086    14090    14091    14090    14093    14090    14086    14091 
   14091    14087    14089    14090    14088    14090    14091    14089 
   14090    14091    14089    14087    14088    14088    14088    14091 
   14090    14085    14089    14093    14089    14088    14090    14086 
   14087    14093    14090    14087    14089    14091    14091    14091 
   14089    14088    14089    14088    14090    14091    14088    14089 
   14089    14087    14090    14092    14089    14089    14092    14090 
   14087    14086    14089    14091    14089    14089    14090    14088 
   14088    14088    14090    14091    14088    14088    14089    14087 
   14090    14093    14089    14088    14091    14091    14088    14086 
   14087    14091    14094    14090    14087    14089    14087    14087 
   14092    14093    14088    14086    14091    14091    14088    14090 
   14090    14087    14086    14088    14092    14092    14092    14090 
   14086    14090    14092    14088    14089    14089    14086    14088 
   14090    14086    14086    14091    14090    14089    14093    14090 
   14085    14087    14090    14089    14089    14089    14088    14090 
   14093    14088    14087    14090    14090    14089    14086    14087 
   14093    14090    14086    14087    14089    14089    14087    14088 
   14090    14087    14086    14090    14088    14086    14089    14088 
   14083    14086    14089    14089    14085    14085    14090    14087 
   14084    14089    14088    14085    14085    14082    14082    14085 
   14083    14079    14078    14079    14079    14078    14079    14080 
   14078    14076    14075    14075    14075    14074    14067    14062 
   14063    14063    14060    14055    14053    14054    14051    14049 
   14051    14051    14053    14058    14057    14057    14055    14055 
   14056    14052    14051    14050    14040    14030    14029    14031 
   14022    14013    14016    14020    14021    14025    14026    14026 
   14036    14044    14042    14046    14053    14052    14053    14059 
   14060    14054    14051    14049    14044    14042    14042    14042 
   14046    14055    14066    14077    14088    14095    14101    14107 
   14110    14110    14109    14103    14095    14091    14087    14080 
   14075    14070    14070    14087    14107    14119    14128    14131 
   14124    14105    14080    14057    14037    14026    14023    14025 
   14042    14064    14081    14104    14134    14153    14166    14175 
   14178    14178    14168    14145    14119    14101    14089    14082 
   14091    14108    14125    14145    14166    14177    14171    14146 
   14120    14108    14119    14154    14200    14246    14296    14356 
   14419    14471    14509    14523    14512    14488    14461    14430 
   14394    14358    14340    14337    14340    14334    14309    14279 
   14254    14230    14207    14184    14159    14145    14150    14174 
   14205    14230    14250    14269    14283    14284    14265    14233 
   14207    14196    14192    14187    14184    14178    14151    14097 
   14025    13953    13881    13811    13772    13762    13767    13780 
   13782    13763    13740    13737    13772    13839    13910    13972 
   14032    14083    14108    14111    14097    14073    14058    14057 
   14063    14074    14088    14113    14140    14149    14139    14099 
   14039    13990    13966    13976    14012    14057    14116    14181 
   14210    14178    14100    14026    13988    13988    14024    14075 
   14102    14094    14083    14093    14111    14120    14124    14130 
   14114    14053    13966    13896    13867    13888    13948    13996 
   13992    13940    13854    13775    13749    13782    13850    13939 
   14033    14111    14156    14178    14200    14213    14189    14130 
   14051    13985    13968    13991    14025    14063    14103    14143 
   14171    14160    14102    14014    13924    13853    13812    13808 
   13833    13879    13939    13992    14023    14044    14039    13997 
   13959    13966    14010    14037    14004    13915    13805    13729 
   13723    13756    13787    13821    13860    13895    13928    13955 
   13961    13941    13900    13850    13814    13799    13798    13798 
   13790    13797    13839    13894    13948    13998    14038    14078 
   14132    14202    14270    14309    14303    14261    14207    14158 
   14119    14113    14157    14237    14320    14388    14435    14452 
   14445    14440    14444    14442    14438    14432    14423    14426 
   14435    14433    14425    14406    14349    14243    14122    14052 
   14062    14137    14230    14281    14263    14192    14093    13998 
   13940    13947    14041    14208    14413    14625    14800    14881 
   14846    14730    14592    14485    14431    14394    14333    14258 
   14196    14159    14132    14107    14102    14120    14122    14093 
   14067    14059    14052    14055    14081    14137    14235    14363 
   14488    14576    14609    14593    14535    14431    14299    14172 
   14077    14026    14016    14019    13985    13897    13800    13748 
   13754    13803    13864    13899    13893    13870    13861    13836 
   13751    13639    13575    13575    13603    13631    13661    13683 
   13694    13708    13735    13776    13837    13915    14011    14116 
   14206    14276    14342    14391    14410    14410    14394    14354 
   14304    14251    14185    14101    14012    13940    13922    13961 
   14014    14052    14073    14065    14027    13973    13921    13901 
   13945    14037    14122    14174    14220    14257    14246    14180 
   14100    14048    14054    14109    14146    14104    14003    13901 
   13835    13804    13787    13750    13686    13631    13627    13696 
   13818    13941    14030    14095    14142    14167    14165    14143 
   14119    14105    14101    14111    14133    14176    14262    14383 
   14493    14542    14510    14406    14266    14123    13990    13880 
   13809    13769    13732    13667    13584    13531    13530    13586 
   13705    13824    13860    13832    13818    13853    13926    14010 
   14080    14119    14139    14163    14179    14157    14097    14027 
   13968    13939    13959    14000    14020    14017    14019    14037 
   14067    14081    14052    13975    13879    13810    13798    13836 
   13908    14004    14100    14186    14269    14341    14396    14431 
   14433    14415    14421    14474    14552    14596    14583    14540 
   14503    14483    14470    14441    14391    14335    14277    14216 
   14177    14158    14125    14078    14034    13991    13939    13903 
   13932    14017    14111    14202    14298    14389    14476    14570 
   14654    14714    14756    14774    14757    14712    14646    14555 
   14440    14331    14237    14125    14010    13944    13920    13904 
   13881    13844    13791    13744    13741    13793    13848    13861 
   13842    13826    13841    13885    13957    14053    14140    14187 
   14189    14160    14117    14080    14065    14067    14066    14046 
   13985    13852    13690    13593    13597    13672    13786    13890 
   13937    13934    13910    13894    13931    14044    14194    14309 
   14360    14375    14383    14380    14351    14308    14261    14207 
   14154    14112    14066    14004    13954    13947    13987    14059 
   14135    14181    14188    14178    14173    14181    14191    14180 
   14155    14150    14163    14163    14141    14118    14118    14142 
   14183    14241    14303    14343    14345    14321    14292    14270 
   14242    14179    14080    13981    13904    13864    13871    13911 
   13955    13993    14023    14049    14066    14058    14030    14003 
   13992    14013    14055    14089    14104    14110    14110    14091 
   14057    14029    14018    14017    14023    14041    14058    14051 
   14012    13973    13973    13998    13991    13916    13783    13652 
   13582    13574    13588    13599    13619    13677    13773    13869 
   13938    13992    14037    14067    14079    14081    14081    14093 
   14121    14158    14212    14286    14353    14378    14355    14308 
   14274    14282    14318    14336    14320    14289    14242    14174 
   14096    14008    13914    13829    13772    13752    13770    13828 
   13914    14008    14093    14161    14209    14229    14234    14262 
   14321    14395    14451    14471    14485    14518    14550    14555 
   14511    14416    14293    14158    14030    13920    13816    13712 
   13626    13576    13563    13582    13627    13702    13800    13905 
   13998    14069    14122    14176    14244    14322    14410    14496 
   14547    14530    14453    14358    14269    14191    14141    14127 
   14111    14059    13969    13856    13744    13668    13652    13669 
   13675    13683    13728    13810    13901    13987    14064    14144 
   14227    14291    14339    14398    14474    14535    14542    14484 
   14380    14266    14185    14151    14145    14144    14130    14117 
   14130    14153    14153    14121    14058    13983    13920    13861 
   13800    13769    13781    13808    13811    13782    13743    13714 
   13700    13698    13701    13708    13747    13848    13990    14121 
   14215    14295    14375    14442    14484    14511    14537    14566 
   14599    14625    14626    14588    14510    14418    14332    14244 
   14164    14115    14082    14044    13996    13934    13860    13802 
   13785    13803    13831    13865    13920    13993    14057    14097 
   14115    14135    14200    14308    14404    14458    14467    14438 
   14390    14342    14302    14270    14245    14218    14177    14122 
   14070    14058    14108    14196    14277    14335    14367    14368 
   14335    14278    14217    14172    14159    14177    14198    14212 
   14228    14230    14185    14102    14013    13925    13838    13762 
   13706    13684    13698    13733    13785    13855    13916    13938 
   13922    13886    13859    13861    13893    13957    14039    14120 
   14187    14218    14208    14179    14151    14137    14148    14174 
   14198    14210    14199    14160    14109    14076    14074    14101 
   14133    14150    14139    14097    14036    13976    13930    13894 
   13853    13795    13729    13700    13735    13818    13914    13985 
   14019    14047    14095    14153    14218    14301    14385    14427 
   14429    14425    14428    14420    14387    14328    14261    14198 
   14128    14044    13947    13853    13795    13769    13740    13700 
