Origin Time       2024/04/02 04:24:00
Lat.              40.133
Long.             141.712
Depth. (km)       71
Mag.              6.0
Station Code      SBSH07
Station Lat.      42.7630
Station Long.     140.8084
Station Height(m) 228
Record Time       2024/04/02 04:25:20
Sampling Freq(Hz) 100Hz
Duration Time(s)  160
Dir.              6
Scale Factor      7845(gal)/8223790
Max. Acc. (gal)   1.173
Last Correction   2024/04/02 04:25:21
Memo.             
[...]
   -2762    -2825    -2806    -2749    -2716    -2727    -2767    -2813 
   -2840    -2814    -2735    -2655    -2628    -2670    -2749    -2802 
   -2782    -2724    -2666    -2596    -2519    -2469    -2447    -2435 
   -2427    -2423    -2428    -2434    -2420    -2392    -2377    -2393 
   -2432    -2488    -2544    -2592    -2632    -2639    -2598    -2542 
   -2494    -2466    -2448    -2411    -2365    -2336    -2330    -2350 
   -2393    -2423    -2431    -2440    -2488    -2556    -2585    -2562 
   -2539    -2551    -2604    -2654    -2647    -2587    -2527    -2511 
   -2550    -2629    -2714    -2763    -2763    -2743    -2735    -2758 
   -2795    -2812    -2799    -2754    -2679    -2605    -2551    -2552 
   -2612    -2673    -2702    -2727    -2764    -2826    -2901    -2938 
   -2914    -2870    -2836    -2798    -2747    -2694    -2624    -2539 
   -2494    -2531    -2654    -2814    -2929    -2941    -2851    -2697 
   -2535    -2424    -2397    -2425    -2439    -2427    -2424    -2452 
   -2494    -2515    -2505    -2478    -2447    -2430    -2439    -2466 
   -2471    -2408    -2301    -2239    -2258    -2330    -2435    -2552 
   -2637    -2678    -2687    -2675    -2651    -2629    -2602    -2562 
   -2511    -2446    -2367    -2296    -2245    -2215    -2204    -2212 
   -2226    -2231    -2236    -2250    -2266    -2282    -2297    -2309 
   -2332    -2357    -2373    -2378    -2371    -2361    -2381    -2457 
   -2578    -2701    -2794    -2856    -2895    -2922    -2926    -2894 
   -2837    -2776    -2729    -2700    -2670    -2613    -2532    -2465 
   -2463    -2544    -2678    -2799    -2856    -2847    -2801    -2763 
   -2772    -2837    -2902    -2906    -2839    -2727    -2627    -2587 
   -2597    -2598    -2560    -2485    -2390    -2313    -2300    -2351 
   -2430    -2497    -2520    -2489    -2412    -2308    -2230    -2227 
   -2305    -2413    -2471    -2448    -2390    -2350    -2336    -2354 
   -2403    -2439    -2430    -2388    -2362    -2404    -2505    -2612 
   -2673    -2660    -2583    -2505    -2479    -2519    -2617    -2724 
   -2754    -2685    -2573    -2485    -2457    -2474    -2504    -2535 
   -2570    -2598    -2619    -2635    -2637    -2616    -2578    -2536 
   -2505    -2527    -2620    -2736    -2801    -2797    -2758    -2731 
   -2751    -2826    -2910    -2944    -2914    -2848    -2787    -2758 
   -2751    -2756    -2786    -2817    -2808    -2772    -2751    -2743 
   -2725    -2690    -2654    -2639    -2643    -2646    -2643    -2636 
   -2631    -2637    -2654    -2667    -2660    -2592    -2482    -2404 
   -2396    -2452    -2540    -2624    -2706    -2785    -2837    -2857 
   -2875    -2914    -2947    -2925    -2851    -2776    -2731    -2697 
   -2659    -2639    -2663    -2720    -2776    -2812    -2816    -2802 
   -2781    -2748    -2722    -2731    -2776    -2833    -2866    -2867 
   -2835    -2758    -2651    -2569    -2556    -2587    -2614    -2592 
   -2496    -2369    -2280    -2261    -2322    -2425    -2492    -2461 
   -2353    -2258    -2242    -2304    -2417    -2527    -2544    -2459 
   -2327    -2207    -2161    -2193    -2234    -2235    -2203    -2161 
   -2155    -2203    -2285    -2407    -2552    -2663    -2698    -2662 
   -2567    -2430    -2284    -2161    -2088    -2084    -2128    -2203 
   -2297    -2377    -2428    -2475    -2527    -2550    -2521    -2451 
   -2358    -2277    -2254    -2303    -2396    -2498    -2575    -2610 
   -2596    -2548    -2532    -2562    -2609    -2667    -2722    -2754 
   -2772    -2790    -2806    -2816    -2799    -2743    -2682    -2631 
   -2563    -2479    -2430    -2462    -2590    -2763    -2901    -2979 
   -3026    -3048    -3052    -3045    -3002    -2911    -2824    -2778 
   -2764    -2749    -2710    -2641    -2560    -2512    -2512    -2538 
   -2573    -2612    -2639    -2644    -2624    -2571    -2496    -2434 
   -2393    -2361    -2351    -2384    -2451    -2533    -2616    -2683 
   -2718    -2718    -2713    -2714    -2697    -2662    -2648    -2667 
   -2693    -2721    -2758    -2789    -2797    -2771    -2686    -2538 
   -2390    -2295    -2268    -2303    -2373    -2455    -2529    -2563 
   -2566    -2566    -2558    -2525    -2478    -2432    -2419    -2458 
   -2536    -2616    -2685    -2752    -2817    -2859    -2860    -2808 
   -2700    -2533    -2317    -2115    -1981    -1914    -1900    -1929 
   -1984    -2080    -2220    -2373    -2529    -2710    -2905    -3096 
   -3294    -3480    -3586    -3568    -3480    -3389    -3294    -3172 
   -3007    -2781    -2524    -2285    -2095    -1987    -1964    -1984 
   -2011    -2041    -2087    -2184    -2336    -2505    -2655    -2778 
   -2876    -2940    -2947    -2906    -2835    -2720    -2570    -2448 
   -2417    -2461    -2519    -2574    -2629    -2682    -2722    -2728 
   -2731    -2799    -2903    -2968    -2949    -2830    -2633    -2407 
   -2209    -2085    -2034    -2020    -2007    -1972    -1942    -1944 
   -1999    -2123    -2300    -2490    -2656    -2751    -2779    -2793 
   -2812    -2824    -2803    -2721    -2600    -2492    -2416    -2389 
   -2424    -2478    -2469    -2373    -2262    -2209    -2250    -2373 
   -2525    -2663    -2740    -2729    -2663    -2619    -2666    -2803 
   -2938    -2995    -2944    -2793    -2592    -2431    -2390    -2470 
   -2569    -2569    -2452    -2303    -2199    -2170    -2212    -2288 
   -2362    -2416    -2435    -2412    -2366    -2331    -2340    -2415 
   -2528    -2620    -2671    -2714    -2783    -2853    -2880    -2852 
   -2782    -2717    -2709    -2744    -2764    -2745    -2702    -2636 
   -2555    -2548    -2691    -2940    -3179    -3304    -3267    -3106 
   -2902    -2722    -2598    -2525    -2463    -2377    -2249    -2103 
   -1989    -1931    -1934    -1995    -2112    -2278    -2484    -2702 
   -2893    -3032    -3100    -3118    -3140    -3171    -3183    -3167 
   -3106    -2982    -2794    -2560    -2331    -2147    -2010    -1899 
   -1813    -1760    -1771    -1857    -1984    -2135    -2311    -2482 
   -2625    -2755    -2875    -2983    -3087    -3183    -3267    -3318 
   -3323    -3288    -3208    -3072    -2894    -2686    -2461    -2245 
   -2053    -1906    -1841    -1873    -2004    -2203    -2400    -2547 
   -2637    -2673    -2674    -2670    -2643    -2600    -2571    -2548 
   -2528    -2552    -2619    -2667    -2668    -2617    -2536    -2490 
   -2512    -2574    -2656    -2735    -2775    -2803    -2889    -3041 
   -3222    -3370    -3435    -3406    -3318    -3192    -3055    -2948 
   -2872    -2782    -2660    -2528    -2413    -2340    -2319    -2349 
   -2420    -2520    -2617    -2668    -2671    -2644    -2575    -2474 
   -2373    -2276    -2184    -2099    -1995    -1876    -1790    -1767 
   -1826    -1972    -2142    -2278    -2392    -2489    -2552    -2613 
   -2713    -2853    -3045    -3258    -3422    -3492    -3461    -3341 
   -3157    -2925    -2679    -2450    -2246    -2093    -2004    -1964 
   -1965    -1992    -2016    -2020    -1998    -1968    -1934    -1887 
   -1837    -1790    -1759    -1773    -1840    -1944    -2116    -2366 
   -2662    -2978    -3285    -3541    -3700    -3735    -3657    -3535 
   -3416    -3271    -3068    -2806    -2515    -2270    -2151    -2154 
   -2251    -2401    -2520    -2556    -2547    -2542    -2567    -2614 
   -2640    -2640    -2635    -2605    -2540    -2458    -2378    -2331 
   -2354    -2455    -2589    -2677    -2673    -2627    -2608    -2631 
   -2670    -2694    -2689    -2655    -2613    -2605    -2674    -2801 
   -2926    -3006    -3019    -2997    -2979    -2968    -2924    -2818 
   -2654    -2469    -2322    -2253    -2218    -2160    -2061    -1946 
   -1888    -1969    -2197    -2500    -2751    -2841    -2781    -2654 
   -2554    -2565    -2683    -2818    -2887    -2860    -2748    -2579 
   -2398    -2253    -2165    -2127    -2131    -2193    -2334    -2531 
   -2764    -3019    -3256    -3450    -3603    -3669    -3599    -3416 
   -3191    -2982    -2801    -2610    -2380    -2146    -1984    -1953 
   -2057    -2243    -2390    -2405    -2326    -2272    -2284    -2319 
   -2324    -2281    -2187    -2046    -1914    -1876    -1969    -2145 
   -2328    -2436    -2403    -2266    -2135    -2097    -2205    -2427 
   -2648    -2802    -2863    -2845    -2812    -2809    -2836    -2863 
   -2836    -2741    -2629    -2551    -2531    -2550    -2552    -2517 
   -2442    -2357    -2322    -2350    -2403    -2428    -2376    -2250 
   -2145    -2153    -2273    -2451    -2654    -2876    -3086    -3230 
   -3277    -3238    -3126    -2944    -2729    -2531    -2365    -2249 
   -2177    -2127    -2096    -2100    -2172    -2303    -2450    -2562 
   -2612    -2605    -2577    -2581    -2651    -2755    -2833    -2848 
   -2803    -2755    -2736    -2749    -2803    -2874    -2929    -2949 
   -2916    -2857    -2863    -2902    -2874    -2756    -2629    -2563 
   -2575    -2609    -2587    -2474    -2326    -2261    -2361    -2609 
   -2911    -3115    -3114    -2965    -2812    -2743    -2785    -2903 
   -3022    -3079    -3067    -3007    -2956    -2937    -2924    -2901 
   -2855    -2760    -2650    -2569    -2533    -2543    -2565    -2573 
   -2585    -2609    -2616    -2592    -2535    -2459    -2382    -2311 
   -2263    -2255    -2282    -2358    -2500    -2691    -2901    -3079 
   -3137    -3030    -2820    -2593    -2389    -2212    -2049    -1876 
   -1696    -1547    -1447    -1389    -1390    -1490    -1692    -1949 
   -2185    -2365    -2502    -2606    -2674    -2722    -2782    -2859 
   -2938    -2999    -3033    -3028    -3013    -3017    -3006    -2932 
   -2799    -2637    -2463    -2293    -2137    -2000    -1890    -1825 
   -1811    -1827    -1867    -1950    -2096    -2295    -2493    -2637 
   -2735    -2783    -2779    -2783    -2853    -2979    -3090    -3103 
   -2999    -2841    -2710    -2612    -2512    -2408    -2330    -2270 
   -2227    -2234    -2311    -2439    -2592    -2740    -2872    -2992 
   -3088    -3115    -3063    -2982    -2940    -2957    -3013    -3072 
   -3109    -3096    -3026    -2926    -2829    -2736    -2651    -2608 
   -2609    -2610    -2573    -2496    -2404    -2324    -2277    -2292 
   -2409    -2617    -2868    -3119    -3315    -3441    -3527    -3580 
   -3588    -3541    -3415    -3191    -2879    -2566    -2361    -2276 
   -2254    -2265    -2286    -2296    -2290    -2258    -2184    -2100 
   -2049    -2012    -1950    -1864    -1777    -1701    -1622    -1555 
   -1530    -1553    -1613    -1707    -1802    -1872    -1948    -2068 
   -2215    -2346    -2459    -2579    -2695    -2770    -2778    -2716 
   -2608    -2490    -2396    -2363    -2421    -2546    -2663    -2737 
   -2791    -2832    -2848    -2856    -2832    -2758    -2706    -2732 
   -2818    -2937    -3006    -2963    -2876    -2848    -2880    -2940 
   -3002    -3048    -3095    -3148    -3152    -3084    -2987    -2887 
   -2816    -2789    -2781    -2775    -2758    -2687    -2569    -2442 
   -2343    -2327    -2415    -2531    -2609    -2646    -2670    -2722 
   -2835    -3011    -3211    -3349    -3348    -3203    -2991    -2803 
   -2712    -2739    -2798    -2790    -2695    -2551    -2407    -2300 
   -2231    -2191    -2181    -2185    -2162    -2092    -2014    -1983 
   -2016    -2091    -2127    -2077    -1987    -1925    -1925    -1979 
   -2046    -2118    -2195    -2253    -2290    -2326    -2384    -2451 
   -2478    -2466    -2446    -2435    -2446    -2482    -2539    -2593 
   -2623    -2637    -2650    -2632    -2552    -2424    -2278    -2173 
   -2162    -2207    -2228    -2228    -2243    -2292    -2381    -2501 
   -2606    -2686    -2735    -2736    -2743    -2816    -2932    -3040 
   -3103    -3095    -3013    -2893    -2812    -2813    -2874    -2953 
   -3015    -3034    -3036    -3071    -3161    -3245    -3246    -3176 
   -3099    -3053    -3057    -3086    -3111    -3129    -3114    -3059 
   -2967    -2835    -2695    -2600    -2566    -2574    -2589    -2583 
   -2560    -2540    -2528    -2488    -2389    -2288    -2245    -2236 
   -2236    -2250    -2259    -2262    -2293    -2363    -2461    -2569 
   -2658    -2679    -2587    -2378    -2099    -1842    -1719    -1763 
   -1861    -1881    -1810    -1742    -1752    -1856    -2025    -2185 
   -2292    -2358    -2415    -2485    -2558    -2612    -2644    -2656 
   -2662    -2671    -2686    -2721    -2771    -2793    -2752    -2658 
   -2560    -2485    -2401    -2315    -2274    -2307    -2440    -2635 
   -2820    -2963    -3036    -3057    -3098    -3163    -3211    -3221 
   -3177    -3091    -2980    -2848    -2736    -2704    -2751    -2839 
   -2945    -3048    -3103    -3126    -3180    -3275    -3342    -3339 
   -3283    -3194    -3126    -3145    -3244    -3343    -3377    -3318 
   -3181    -3018    -2860    -2718    -2592    -2479    -2382    -2262 
   -2070    -1838    -1641    -1528    -1524    -1602    -1715    -1875 
   -2066    -2223    -2311    -2355    -2401    -2475    -2512    -2421 
   -2208    -1980    -1846    -1829    -1876    -1938    -1976    -1991 
   -2010    -2045    -2124    -2262    -2401    -2486    -2494    -2436 
   -2392    -2431    -2536    -2656    -2749    -2774    -2728    -2641 
   -2525    -2392    -2280    -2219    -2145    -1980    -1783    -1648 
   -1607    -1663    -1818    -2047    -2303    -2519    -2664    -2755 
   -2870    -3075    -3346    -3607    -3775    -3805    -3721    -3600 
   -3492    -3427    -3380    -3280    -3098    -2852    -2612    -2478 
   -2492    -2594    -2701    -2770    -2809    -2864    -2978    -3100 
   -3146    -3123    -3092    -3098    -3119    -3106    -3032    -2905 
   -2767    -2660    -2589    -2544    -2527    -2547    -2594    -2617 
   -2600    -2592    -2594    -2565    -2484    -2340    -2162    -2035 
   -2003    -2033    -2070    -2064    -2037    -2068    -2184    -2363 
   -2548    -2648    -2623    -2525    -2421    -2338    -2311    -2366 
   -2444    -2478    -2469    -2443    -2424    -2425    -2425    -2403 
   -2371    -2354    -2350    -2353    -2344    -2317    -2282    -2245 
   -2219    -2227    -2255    -2313    -2435    -2619    -2824    -2972 
   -3002    -2922    -2779    -2633    -2554    -2558    -2604    -2621 
   -2592    -2558    -2558    -2617    -2721    -2814    -2894    -2943 
   -2894    -2766    -2648    -2592    -2587    -2613    -2651    -2679 
   -2693    -2712    -2740    -2767    -2799    -2840    -2886    -2907 
   -2867    -2782    -2670    -2565    -2554    -2648    -2759    -2817 
   -2813    -2755    -2685    -2670    -2731    -2821    -2872    -2824 
   -2678    -2506    -2376    -2319    -2317    -2326    -2323    -2328 
   -2353    -2416    -2533    -2682    -2821    -2920    -2949    -2918 
   -2866    -2824    -2789    -2724    -2639    -2544    -2431    -2336 
   -2317    -2374    -2467    -2528    -2506    -2412    -2278    -2166 
   -2137    -2200    -2323    -2467    -2573    -2567    -2455    -2323 
   -2238    -2227    -2278    -2328    -2316    -2224    -2079    -1961 
   -1945    -2019    -2110    -2116    -2026    -1915    -1848    -1860 
   -1933    -1999    -2019    -2011    -2020    -2119    -2331    -2602 
   -2856    -3036    -3113    -3114    -3094    -3111    -3176    -3245 
   -3280    -3268    -3222    -3187    -3175    -3196    -3242    -3254 
   -3207    -3125    -3030    -2959    -2913    -2878    -2853    -2801 
   -2694    -2585    -2520    -2496    -2482    -2470    -2502    -2629 
   -2821    -2990    -3073    -3069    -3025    -2988    -2948    -2880 
   -2766    -2592    -2425    -2349    -2351    -2397    -2450    -2463 
   -2432    -2401    -2416    -2509    -2668    -2843    -2956    -2971 
   -2906    -2822    -2774    -2758    -2714    -2633    -2527    -2409 
   -2322    -2272    -2255    -2274    -2297    -2296    -2263    -2196 
   -2118    -2052    -2006    -1999    -2041    -2097    -2147    -2187 
   -2218    -2258    -2323    -2409    -2486    -2524    -2498    -2419 
   -2363    -2381    -2425    -2442    -2424    -2381    -2326    -2263 
   -2218    -2220    -2249    -2238    -2162    -2066    -2030    -2119 
   -2326    -2574    -2778    -2899    -2965    -3026    -3107    -3208 
   -3304    -3350    -3298    -3148    -2945    -2756    -2629    -2579 
   -2583    -2596    -2594    -2596    -2602    -2613    -2633    -2679 
   -2779    -2940    -3103    -3219    -3260    -3240    -3206    -3191 
   -3223    -3289    -3315    -3254    -3136    -3015    -2943    -2910 
   -2871    -2793    -2679    -2559    -2470    -2440    -2440    -2411 
   -2336    -2227    -2112    -2047    -2037    -2023    -1972    -1898 
   -1819    -1753    -1726    -1773    -1879    -1993    -2119    -2277 
   -2454    -2617    -2755    -2864    -2936    -2951    -2889    -2741 
   -2548    -2369    -2228    -2126    -2062    -2025    -2002    -2003 
   -2033    -2079    -2150    -2272    -2434    -2593    -2702    -2748 
   -2756    -2762    -2786    -2814    -2809    -2745    -2637    -2515 
   -2416    -2376    -2396    -2466    -2575    -2705    -2822    -2876 
   -2836    -2748    -2681    -2666    -2708    -2779    -2848    -2899 
   -2921    -2936    -2972    -3007    -3002    -2970    -2944    -2940 
   -2955    -2987    -3029    -3057    -3038    -2951    -2825    -2717 
   -2655    -2631    -2620    -2614    -2628    -2658    -2689    -2724 
   -2741    -2705    -2602    -2457    -2335    -2301    -2349    -2419 
   -2446    -2411    -2335    -2262    -2228    -2235    -2258    -2273 
   -2270    -2273    -2320    -2408    -2481    -2484    -2397    -2257 
   -2128    -2072    -2097    -2173    -2243    -2284    -2317    -2378 
   -2469    -2544    -2551    -2485    -2396    -2315    -2259    -2255 
   -2270    -2254    -2219    -2177    -2149    -2212    -2367    -2520 
   -2624    -2682    -2689    -2651    -2596    -2546    -2527    -2528 
   -2511    -2475    -2461    -2486    -2555    -2655    -2764    -2883 
   -3032    -3188    -3327    -3435    -3491    -3488    -3450    -3414 
   -3389    -3362    -3319    -3237    -3102    -2957    -2868    -2851 
   -2890    -2951    -2982    -2963    -2932    -2910    -2871    -2813 
   -2741    -2651    -2563    -2506    -2485    -2490    -2494    -2490 
   -2488    -2473    -2440    -2408    -2392    -2401    -2430    -2459 
   -2461    -2427    -2392    -2384    -2405    -2438    -2465    -2473 
   -2451    -2381    -2258    -2108    -1977    -1911    -1907    -1919 
   -1918    -1885    -1819    -1757    -1753    -1813    -1877    -1898 
   -1868    -1821    -1803    -1857    -1964    -2073    -2164    -2242 
   -2323    -2419    -2524    -2617    -2683    -2728    -2760    -2778 
   -2772    -2755    -2733    -2717    -2709    -2694    -2670    -2664 
   -2705    -2772    -2849    -2920    -2945    -2921    -2890    -2887 
   -2924    -2997    -3084    -3156    -3184    -3150    -3067    -2988 
   -2955    -2948    -2945    -2947    -2947    -2941    -2940    -2938 
   -2932    -2937    -2948    -2936    -2902    -2863    -2826    -2808 
   -2803    -2781    -2736    -2710    -2735    -2802    -2894    -2959 
   -2936    -2824    -2666    -2517    -2427    -2403    -2403    -2384 
   -2343    -2286    -2220    -2176    -2181    -2227    -2277    -2304 
