Origin Time       2024/04/02 04:24:00
Lat.              40.133
Long.             141.712
Depth. (km)       71
Mag.              6.0
Station Code      SBSH02
Station Lat.      43.0527
Station Long.     140.5017
Station Height(m) 25
Record Time       2024/04/02 04:25:25
Sampling Freq(Hz) 100Hz
Duration Time(s)  120
Dir.              4
Scale Factor      3920(gal)/6170801
Max. Acc. (gal)   0.665
Last Correction   2024/04/02 04:25:10
Memo.             
[...]
  -18128   -18117   -18168   -18202   -18182   -18168   -18194   -18243 
  -18250   -18175   -18112   -18135   -18184   -18200   -18191   -18177 
  -18165   -18161   -18173   -18193   -18195   -18178   -18169   -18174 
  -18190   -18195   -18154   -18110   -18133   -18219   -18281   -18229 
  -18117   -18093   -18160   -18208   -18207   -18182   -18137   -18129 
  -18206   -18268   -18237   -18176   -18121   -18077   -18115   -18230 
  -18294   -18246   -18156   -18113   -18145   -18197   -18204   -18167 
  -18151   -18175   -18190   -18179   -18170   -18174   -18178   -18178 
  -18192   -18215   -18205   -18172   -18153   -18137   -18124   -18152 
  -18191   -18190   -18180   -18196   -18213   -18205   -18173   -18129 
  -18125   -18177   -18204   -18173   -18154   -18169   -18165   -18173 
  -18229   -18228   -18153   -18137   -18161   -18150   -18161   -18194 
  -18200   -18195   -18200   -18204   -18181   -18144   -18148   -18183 
  -18196   -18198   -18194   -18172   -18160   -18158   -18160   -18181 
  -18195   -18180   -18160   -18156   -18183   -18207   -18190   -18145 
  -18121   -18152   -18187   -18178   -18172   -18184   -18180   -18174 
  -18171   -18161   -18168   -18193   -18218   -18222   -18194   -18159 
  -18129   -18117   -18155   -18220   -18243   -18190   -18157   -18211 
  -18232   -18165   -18126   -18129   -18145   -18207   -18258   -18223 
  -18150   -18121   -18151   -18189   -18197   -18183   -18164   -18166 
  -18206   -18229   -18197   -18155   -18127   -18135   -18205   -18245 
  -18179   -18123   -18160   -18222   -18238   -18185   -18110   -18113 
  -18198   -18264   -18247   -18151   -18060   -18086   -18210   -18294 
  -18267   -18178   -18110   -18125   -18212   -18283   -18239   -18098 
  -18017   -18101   -18258   -18307   -18214   -18127   -18125   -18164 
  -18202   -18193   -18138   -18122   -18177   -18246   -18261   -18198 
  -18118   -18079   -18094   -18182   -18255   -18211   -18136   -18137 
  -18204   -18268   -18236   -18115   -18045   -18108   -18217   -18250 
  -18222   -18179   -18138   -18154   -18211   -18239   -18236   -18178 
  -18101   -18117   -18175   -18196   -18214   -18190   -18114   -18104 
  -18187   -18252   -18226   -18159   -18138   -18161   -18182   -18211 
  -18223   -18160   -18087   -18109   -18189   -18233   -18230   -18210 
  -18168   -18153   -18219   -18246   -18140   -18065   -18137   -18216 
  -18229   -18248   -18212   -18084   -18061   -18180   -18231   -18182 
  -18138   -18125   -18171   -18273   -18322   -18228   -18083   -18068 
  -18163   -18226   -18228   -18173   -18108   -18155   -18250   -18248 
  -18176   -18115   -18102   -18158   -18252   -18274   -18191   -18107 
  -18101   -18167   -18254   -18253   -18151   -18090   -18137   -18205 
  -18232   -18202   -18130   -18112   -18184   -18256   -18239   -18149 
  -18084   -18102   -18183   -18259   -18251   -18154   -18063   -18087 
  -18222   -18299   -18251   -18177   -18115   -18101   -18179   -18244 
  -18199   -18128   -18131   -18177   -18210   -18225   -18200   -18137 
  -18118   -18174   -18247   -18252   -18162   -18085   -18113   -18186 
  -18219   -18208   -18161   -18122   -18163   -18229   -18231   -18196 
  -18159   -18126   -18135   -18181   -18207   -18191   -18155   -18148 
  -18191   -18229   -18219   -18182   -18141   -18115   -18144   -18204 
  -18204   -18150   -18142   -18201   -18252   -18228   -18143   -18095 
  -18135   -18195   -18201   -18181   -18178   -18182   -18190   -18225 
  -18242   -18183   -18096   -18073   -18132   -18227   -18265   -18209 
  -18145   -18135   -18153   -18188   -18221   -18203   -18159   -18151 
  -18183   -18208   -18187   -18125   -18090   -18140   -18236   -18268 
  -18220   -18175   -18164   -18166   -18165   -18148   -18135   -18145 
  -18165   -18209   -18252   -18228   -18148   -18098   -18136   -18200 
  -18210   -18191   -18192   -18205   -18198   -18158   -18138   -18169 
  -18188   -18171   -18167   -18178   -18184   -18185   -18195   -18225 
  -18227   -18167   -18102   -18111   -18174   -18210   -18201   -18193 
  -18205   -18199   -18156   -18125   -18146   -18190   -18193   -18165 
  -18175   -18196   -18168   -18144   -18190   -18247   -18226   -18165 
  -18149   -18183   -18205   -18171   -18125   -18140   -18199   -18236 
  -18213   -18167   -18155   -18160   -18165   -18193   -18212   -18181 
  -18136   -18126   -18157   -18190   -18184   -18174   -18215   -18249 
  -18205   -18149   -18144   -18148   -18146   -18173   -18204   -18192 
  -18149   -18130   -18173   -18234   -18221   -18155   -18134   -18171 
  -18205   -18187   -18142   -18149   -18206   -18230   -18196   -18153 
  -18136   -18138   -18174   -18237   -18246   -18190   -18141   -18135 
  -18164   -18202   -18202   -18170   -18167   -18199   -18210   -18183 
  -18150   -18140   -18164   -18205   -18223   -18193   -18142   -18113 
  -18129   -18198   -18254   -18207   -18133   -18153   -18206   -18197 
  -18154   -18128   -18131   -18154   -18201   -18246   -18229   -18163 
  -18135   -18173   -18218   -18198   -18127   -18087   -18124   -18190 
  -18227   -18227   -18204   -18171   -18168   -18200   -18211   -18171 
  -18127   -18127   -18163   -18202   -18208   -18174   -18145   -18169 
  -18217   -18222   -18180   -18142   -18130   -18141   -18166   -18188 
  -18188   -18165   -18167   -18219   -18251   -18205   -18125   -18087 
  -18117   -18180   -18217   -18208   -18167   -18132   -18152   -18222 
  -18260   -18218   -18152   -18135   -18159   -18181   -18186   -18166 
  -18131   -18146   -18207   -18227   -18216   -18216   -18204   -18178 
  -18162   -18141   -18093   -18067   -18124   -18223   -18275   -18254 
  -18204   -18172   -18162   -18163   -18152   -18104   -18074   -18138 
  -18240   -18276   -18228   -18170   -18167   -18198   -18198   -18148 
  -18094   -18099   -18166   -18239   -18261   -18224   -18158   -18117 
  -18141   -18199   -18241   -18240   -18181   -18117   -18141   -18189 
  -18157   -18114   -18141   -18200   -18234   -18243   -18226   -18168 
  -18117   -18127   -18181   -18219   -18171   -18090   -18121   -18220 
  -18249   -18205   -18164   -18159   -18174   -18191   -18192   -18151 
  -18111   -18138   -18210   -18257   -18245   -18184   -18133   -18137 
  -18158   -18174   -18183   -18163   -18156   -18195   -18218   -18204 
  -18183   -18156   -18161   -18213   -18217   -18143   -18096   -18127 
  -18185   -18238   -18242   -18167   -18110   -18159   -18241   -18254 
  -18184   -18113   -18114   -18145   -18178   -18214   -18216   -18190 
  -18190   -18209   -18209   -18177   -18131   -18115   -18139   -18170 
  -18191   -18211   -18218   -18196   -18166   -18162   -18166   -18157 
  -18167   -18201   -18223   -18213   -18163   -18107   -18118   -18179 
  -18203   -18194   -18195   -18202   -18211   -18219   -18200   -18161 
  -18136   -18135   -18149   -18167   -18174   -18170   -18199   -18256 
  -18257   -18177   -18089   -18069   -18141   -18232   -18238   -18182 
  -18155   -18174   -18198   -18187   -18142   -18113   -18152   -18224 
  -18251   -18223   -18165   -18108   -18112   -18174   -18213   -18201 
  -18186   -18195   -18213   -18208   -18167   -18116   -18102   -18144 
  -18203   -18211   -18172   -18147   -18157   -18196   -18239   -18237 
  -18182   -18119   -18110   -18172   -18218   -18185   -18133   -18130 
  -18176   -18235   -18251   -18195   -18114   -18101   -18160   -18214 
  -18222   -18194   -18166   -18170   -18179   -18172   -18164   -18156 
  -18165   -18211   -18243   -18215   -18139   -18067   -18091   -18208 
  -18279   -18242   -18170   -18128   -18133   -18180   -18218   -18198 
  -18136   -18118   -18185   -18246   -18216   -18134   -18108   -18173 
  -18243   -18247   -18176   -18091   -18095   -18189   -18257   -18248 
  -18189   -18126   -18115   -18162   -18201   -18172   -18109   -18125 
  -18239   -18314   -18255   -18127   -18054   -18094   -18199   -18263 
  -18222   -18138   -18112   -18156   -18216   -18246   -18212   -18138 
  -18121   -18188   -18233   -18187   -18121   -18113   -18155   -18212 
  -18248   -18229   -18166   -18124   -18154   -18222   -18234   -18169 
  -18105   -18095   -18148   -18224   -18243   -18208   -18189   -18187 
  -18175   -18172   -18172   -18155   -18150   -18175   -18203   -18201 
  -18177   -18151   -18132   -18145   -18202   -18250   -18240   -18191 
  -18138   -18098   -18110   -18175   -18223   -18217   -18179   -18162 
  -18200   -18231   -18196   -18144   -18136   -18146   -18158   -18190 
  -18204   -18170   -18154   -18189   -18226   -18219   -18156   -18087 
  -18101   -18187   -18248   -18234   -18171   -18133   -18157   -18201 
  -18210   -18165   -18119   -18151   -18218   -18226   -18174   -18117 
  -18098   -18147   -18238   -18287   -18231   -18124   -18085   -18150 
  -18238   -18232   -18127   -18073   -18152   -18246   -18259   -18208 
  -18122   -18081   -18136   -18217   -18247   -18213   -18153   -18144 
  -18191   -18210   -18165   -18116   -18117   -18165   -18223   -18250 
  -18226   -18175   -18133   -18128   -18166   -18210   -18205   -18153 
  -18134   -18190   -18233   -18199   -18142   -18119   -18138   -18190 
  -18230   -18218   -18156   -18112   -18150   -18223   -18238   -18189 
  -18141   -18143   -18173   -18180   -18164   -18148   -18134   -18144 
  -18203   -18257   -18235   -18165   -18126   -18155   -18202   -18188 
  -18140   -18131   -18168   -18217   -18245   -18247   -18198   -18117 
  -18099   -18157   -18202   -18193   -18160   -18158   -18189   -18204 
  -18185   -18149   -18118   -18129   -18196   -18246   -18229   -18183 
  -18141   -18133   -18171   -18201   -18192   -18165   -18146   -18157 
  -18174   -18176   -18197   -18220   -18197   -18179   -18195   -18187 
  -18156   -18151   -18165   -18188   -18232   -18240   -18181   -18129 
  -18138   -18175   -18198   -18195   -18180   -18169   -18184   -18224 
  -18234   -18190   -18147   -18153   -18180   -18176   -18150   -18161 
  -18201   -18214   -18200   -18191   -18179   -18167   -18179   -18209 
  -18201   -18151   -18145   -18197   -18237   -18235   -18210   -18181 
  -18157   -18152   -18179   -18210   -18225   -18222   -18202   -18177 
  -18176   -18211   -18226   -18193   -18180   -18196   -18194   -18195 
  -18215   -18204   -18161   -18161   -18216   -18238   -18191   -18157 
  -18172   -18187   -18189   -18196   -18201   -18207   -18211   -18204 
  -18194   -18182   -18177   -18184   -18188   -18191   -18208   -18209 
  -18163   -18145   -18201   -18240   -18220   -18193   -18170   -18150 
  -18155   -18178   -18193   -18215   -18257   -18262   -18218   -18194 
  -18181   -18144   -18138   -18187   -18237   -18257   -18240   -18197 
  -18173   -18172   -18158   -18160   -18192   -18213   -18227   -18249 
  -18249   -18206   -18140   -18104   -18131   -18183   -18195   -18177 
  -18164   -18153   -18142   -18131   -18125   -18125   -18127   -18144 
  -18170   -18179   -18184   -18186   -18167   -18134   -18117   -18125 
  -18133   -18140   -18163   -18170   -18150   -18142   -18155   -18168 
  -18172   -18181   -18178   -18131   -18080   -18078   -18101   -18108 
  -18099   -18108   -18133   -18129   -18122   -18162   -18188   -18169 
  -18170   -18186   -18179   -18190   -18207   -18168   -18098   -18068 
  -18073   -18080   -18080   -18073   -18085   -18124   -18155   -18155 
  -18150   -18141   -18121   -18107   -18087   -18040   -18003   -17995 
  -17977   -17963   -17972   -17991   -18058   -18169   -18241   -18261 
  -18244   -18211   -18212   -18229   -18188   -18105   -18044   -18017 
  -18035   -18086   -18095   -18047   -18028   -18103   -18217   -18273 
  -18276   -18272   -18255   -18230   -18213   -18172   -18088   -18014 
  -18002   -18013   -18025   -18090   -18171   -18214   -18277   -18350 
  -18332   -18226   -18130   -18077   -18056   -18056   -18041   -18004 
  -17985   -17999   -18043   -18115   -18190   -18271   -18385   -18496 
  -18537   -18503   -18400   -18271   -18201   -18191   -18184   -18171 
  -18169   -18162   -18139   -18143   -18168   -18165   -18170   -18230 
  -18325   -18412   -18437   -18378   -18300   -18254   -18182   -18059 
  -17973   -17995   -18075   -18157   -18240   -18301   -18324   -18356 
  -18415   -18452   -18433   -18373   -18299   -18193   -18055   -17927 
  -17816   -17724   -17729   -17899   -18159   -18391   -18573   -18717 
  -18777   -18734   -18639   -18500   -18322   -18161   -18033   -17916 
  -17842   -17856   -17944   -18103   -18339   -18561   -18669   -18693 
  -18688   -18649   -18565   -18432   -18230   -17989   -17812   -17748 
  -17780   -17893   -18073   -18280   -18489   -18692   -18842   -18893 
  -18857   -18738   -18523   -18254   -17980   -17721   -17554   -17556 
  -17688   -17875   -18074   -18232   -18333   -18412   -18459   -18422 
  -18343   -18278   -18175   -18043   -17971   -17941   -17922   -17957 
  -18047   -18168   -18323   -18476   -18600   -18704   -18748   -18687 
  -18531   -18304   -18049   -17810   -17588   -17426   -17394   -17467 
  -17603   -17813   -18080   -18334   -18531   -18682   -18780   -18758 
  -18608   -18403   -18197   -18014   -17855   -17707   -17601   -17619 
  -17780   -18008   -18228   -18402   -18497   -18497   -18401   -18228 
  -18003   -17728   -17445   -17278   -17272   -17360   -17509   -17716 
  -17954   -18214   -18482   -18701   -18792   -18735   -18623   -18533 
  -18435   -18284   -18084   -17876   -17728   -17688   -17749   -17860 
  -17967   -18066   -18227   -18465   -18665   -18705   -18588   -18366 
  -18065   -17749   -17477   -17247   -17130   -17258   -17624   -18065 
  -18463   -18786   -18990   -19064   -19019   -18807   -18450   -18074 
  -17774   -17641   -17708   -17833   -17889   -17935   -18065   -18241 
  -18363   -18414   -18428   -18401   -18341   -18299   -18246   -18117 
  -17952   -17865   -17914   -18023   -18101   -18185   -18341   -18556 
  -18758   -18864   -18853   -18768   -18663   -18587   -18511   -18337 
  -18071   -17821   -17648   -17582   -17641   -17752   -17855   -18018 
  -18265   -18453   -18483   -18391   -18239   -18107   -18059   -18082 
  -18117   -18154   -18235   -18343   -18426   -18452   -18365   -18210 
  -18143   -18217   -18334   -18380   -18303   -18146   -18012   -17940 
  -17880   -17809   -17801   -17916   -18101   -18292   -18426   -18444 
  -18371   -18269   -18166   -18099   -18098   -18146   -18239   -18376 
  -18504   -18547   -18496   -18428   -18378   -18300   -18196   -18085 
  -17960   -17879   -17873   -17873   -17849   -17850   -17887   -17944 
  -18053   -18234   -18406   -18491   -18470   -18345   -18186   -18091 
  -18061   -18077   -18154   -18259   -18340   -18395   -18452   -18513 
  -18550   -18555   -18528   -18459   -18379   -18304   -18188   -18027 
  -17874   -17779   -17750   -17765   -17817   -17899   -18018   -18206 
  -18421   -18570   -18655   -18721   -18716   -18580   -18390   -18184 
  -17944   -17774   -17792   -17951   -18125   -18266   -18379   -18458 
  -18504   -18516   -18442   -18283   -18136   -18057   -18006   -17932 
  -17798   -17650   -17613   -17708   -17842   -17995   -18178   -18349 
  -18489   -18566   -18526   -18413   -18298   -18189   -18085   -17999 
  -17918   -17856   -17874   -17992   -18149   -18270   -18304   -18245 
  -18161   -18094   -18007   -17904   -17852   -17875   -17927   -17941 
  -17899   -17841   -17820   -17861   -17941   -18064   -18235   -18382 
  -18443   -18449   -18435   -18378   -18253   -18087   -17952   -17916 
  -17960   -17956   -17873   -17858   -18001   -18224   -18431   -18565 
  -18593   -18557   -18536   -18511   -18397   -18166   -17896   -17719 
  -17708   -17836   -18032   -18233   -18404   -18536   -18599   -18545 
  -18407   -18271   -18178   -18138   -18143   -18123   -18052   -18016 
  -18072   -18164   -18232   -18291   -18360   -18429   -18444   -18357 
  -18189   -18016   -17948   -18052   -18258   -18440   -18534   -18535 
  -18474   -18393   -18280   -18095   -17895   -17795   -17834   -17964 
  -18118   -18256   -18394   -18509   -18543   -18481   -18309   -18026 
  -17778   -17746   -17879   -18020   -18136   -18230   -18305   -18432 
  -18592   -18641   -18537   -18382   -18253   -18130   -17976   -17801 
  -17658   -17624   -17743   -17949   -18132   -18259   -18353   -18443 
  -18501   -18457   -18301   -18102   -17964   -17957   -18044   -18142 
  -18208   -18234   -18244   -18259   -18243   -18172   -18101   -18098 
  -18160   -18230   -18265   -18249   -18186   -18121   -18086   -18077 
  -18093   -18102   -18073   -18046   -18080   -18154   -18219   -18295 
  -18375   -18395   -18347   -18254   -18150   -18104   -18136   -18197 
  -18236   -18238   -18220   -18207   -18246   -18354   -18461   -18515 
  -18539   -18556   -18533   -18410   -18210   -18009   -17837   -17717 
  -17673   -17673   -17711   -17849   -18086   -18330   -18521   -18617 
  -18564   -18430   -18332   -18255   -18161   -18118   -18165   -18233 
  -18261   -18241   -18167   -18060   -17993   -17995   -18025   -18045 
  -18046   -18043   -18061   -18086   -18068   -17977   -17837   -17729 
  -17727   -17820   -17951   -18084   -18222   -18361   -18462   -18469 
  -18364   -18239   -18191   -18184   -18168   -18161   -18156   -18156 
  -18184   -18212   -18197   -18140   -18070   -18020   -18010   -18019 
  -18022   -18014   -18017   -18078   -18192   -18292   -18325   -18332 
  -18375   -18406   -18361   -18264   -18159   -18072   -18013   -18005 
  -18077   -18193   -18295   -18376   -18411   -18372   -18305   -18267 
  -18255   -18231   -18174   -18117   -18093   -18073   -18046   -18045 
  -18063   -18066   -18070   -18094   -18140   -18200   -18250   -18239 
  -18161   -18100   -18108   -18157   -18217   -18264   -18273   -18216 
  -18135   -18130   -18210   -18301   -18350   -18350   -18338   -18307 
  -18195   -18036   -17933   -17917   -17952   -17968   -17959   -18009 
  -18134   -18250   -18338   -18403   -18400   -18339   -18302   -18315 
  -18329   -18301   -18235   -18177   -18167   -18206   -18249   -18225 
  -18138   -18113   -18188   -18255   -18251   -18210   -18172   -18135 
  -18088   -18040   -18003   -17998   -18064   -18191   -18318   -18414 
  -18453   -18420   -18363   -18348   -18368   -18358   -18307   -18292 
  -18339   -18384   -18353   -18249   -18148   -18109   -18133   -18188 
  -18239   -18254   -18224   -18183   -18177   -18192   -18192   -18194 
  -18208   -18203   -18207   -18243   -18236   -18151   -18097   -18146 
  -18213   -18219   -18194   -18158   -18105   -18083   -18131   -18212 
  -18295   -18383   -18433   -18414   -18347   -18253   -18135   -18021 
  -17974   -18010   -18056   -18061   -18077   -18126   -18161   -18171 
  -18159   -18084   -17965   -17895   -17880   -17849   -17816   -17856 
  -17965   -18069   -18139   -18180   -18169   -18128   -18135   -18196 
  -18203   -18103   -17985   -17936   -17965   -18031   -18042   -17966 
  -17880   -17859   -17923   -18026   -18099   -18188   -18341   -18468 
  -18501   -18474   -18396   -18279   -18192   -18172   -18175   -18131 
  -18061   -18044   -18106   -18243   -18408   -18466   -18408   -18373 
  -18397   -18383   -18286   -18149   -18015   -17926   -17956   -18062 
  -18095   -18064   -18105   -18231   -18405   -18564   -18592   -18505 
  -18426   -18388   -18379   -18325   -18138   -17925   -17878   -17980 
  -18102   -18212   -18292   -18328   -18373   -18445   -18460   -18386 
