Origin Time       2024/04/02 04:24:00
Lat.              40.133
Long.             141.712
Depth. (km)       71
Mag.              6.0
Station Code      SITH07
Station Lat.      35.9118
Station Long.     139.1485
Station Height(m) 340
Record Time       2024/04/02 04:26:09
Sampling Freq(Hz) 100Hz
Duration Time(s)  120
Dir.              4
Scale Factor      7845(gal)/8223790
Max. Acc. (gal)   0.477
Last Correction   2024/04/02 04:26:11
Memo.             
[...]
   -3562    -3541    -3507    -3487    -3499    -3519    -3527    -3526 
   -3526    -3535    -3543    -3528    -3495    -3464    -3439    -3424 
   -3434    -3470    -3510    -3537    -3541    -3515    -3495    -3500 
   -3519    -3535    -3528    -3501    -3493    -3522    -3565    -3592 
   -3584    -3542    -3488    -3451    -3454    -3495    -3551    -3595 
   -3613    -3597    -3550    -3507    -3491    -3487    -3488    -3495 
   -3495    -3507    -3534    -3550    -3547    -3535    -3508    -3473 
   -3451    -3461    -3488    -3504    -3508    -3508    -3504    -3497 
   -3507    -3523    -3527    -3524    -3519    -3512    -3516    -3531 
   -3535    -3523    -3500    -3469    -3441    -3424    -3429    -3457 
   -3510    -3550    -3546    -3501    -3449    -3419    -3443    -3505 
   -3557    -3581    -3577    -3550    -3526    -3526    -3545    -3566 
   -3570    -3565    -3570    -3574    -3562    -3541    -3518    -3504 
   -3504    -3512    -3518    -3520    -3530    -3542    -3545    -3537 
   -3524    -3523    -3527    -3518    -3497    -3483    -3480    -3499 
   -3514    -3505    -3503    -3510    -3505    -3487    -3462    -3450 
   -3458    -3478    -3499    -3518    -3532    -3541    -3531    -3507 
   -3481    -3461    -3454    -3473    -3515    -3565    -3600    -3605 
   -3578    -3532    -3504    -3512    -3535    -3546    -3531    -3505 
   -3491    -3492    -3495    -3492    -3491    -3493    -3496    -3512 
   -3535    -3545    -3551    -3568    -3570    -3547    -3518    -3501 
   -3510    -3530    -3545    -3557    -3566    -3555    -3526    -3500 
   -3488    -3492    -3520    -3559    -3582    -3597    -3599    -3565 
   -3512    -3466    -3451    -3470    -3500    -3527    -3535    -3496 
   -3418    -3352    -3339    -3399    -3496    -3572    -3596    -3572 
   -3516    -3457    -3424    -3435    -3474    -3503    -3489    -3451 
   -3430    -3446    -3499    -3561    -3596    -3581    -3520    -3449 
   -3424    -3457    -3503    -3532    -3524    -3481    -3439    -3427 
   -3445    -3476    -3501    -3519    -3524    -3519    -3516    -3511 
   -3493    -3470    -3469    -3503    -3550    -3578    -3570    -3524 
   -3483    -3473    -3480    -3493    -3505    -3501    -3496    -3504 
   -3515    -3531    -3538    -3516    -3484    -3462    -3457    -3466 
   -3481    -3495    -3510    -3532    -3564    -3592    -3601    -3585 
   -3555    -3531    -3510    -3493    -3497    -3512    -3522    -3526 
   -3532    -3539    -3535    -3511    -3501    -3524    -3568    -3607 
   -3615    -3582    -3538    -3505    -3489    -3495    -3523    -3555 
   -3577    -3591    -3582    -3546    -3505    -3492    -3500    -3507 
   -3501    -3507    -3543    -3591    -3611    -3589    -3545    -3505 
   -3480    -3470    -3483    -3510    -3534    -3538    -3522    -3507 
   -3508    -3520    -3527    -3519    -3504    -3495    -3481    -3449 
   -3412    -3404    -3446    -3505    -3542    -3545    -3523    -3495 
   -3469    -3449    -3453    -3483    -3508    -3515    -3511    -3523 
   -3557    -3569    -3534    -3478    -3431    -3410    -3438    -3518 
   -3585    -3592    -3551    -3496    -3449    -3435    -3458    -3492 
   -3505    -3501    -3499    -3505    -3515    -3539    -3584    -3630 
   -3646    -3620    -3564    -3491    -3438    -3439    -3478    -3522 
   -3554    -3565    -3550    -3515    -3481    -3474    -3499    -3538 
   -3566    -3559    -3530    -3495    -3454    -3424    -3431    -3480 
   -3549    -3607    -3634    -3622    -3591    -3559    -3519    -3473 
   -3457    -3466    -3488    -3520    -3558    -3588    -3589    -3557 
   -3507    -3461    -3433    -3435    -3465    -3505    -3543    -3555 
   -3530    -3487    -3456    -3445    -3456    -3485    -3499    -3477 
   -3458    -3453    -3457    -3491    -3545    -3572    -3546    -3470 
   -3392    -3376    -3437    -3534    -3612    -3622    -3569    -3489 
   -3407    -3361    -3384    -3461    -3543    -3591    -3593    -3569 
   -3537    -3504    -3480    -3472    -3474    -3493    -3530    -3547 
   -3534    -3508    -3497    -3501    -3503    -3505    -3535    -3588 
   -3626    -3624    -3586    -3534    -3487    -3457    -3450    -3469 
   -3508    -3551    -3586    -3605    -3608    -3607    -3599    -3572 
   -3530    -3469    -3397    -3364    -3396    -3465    -3539    -3595 
   -3599    -3543    -3451    -3366    -3338    -3375    -3429    -3458 
   -3468    -3469    -3468    -3478    -3504    -3523    -3523    -3500 
   -3470    -3470    -3510    -3555    -3586    -3600    -3592    -3561 
   -3510    -3461    -3438    -3441    -3460    -3489    -3524    -3553 
   -3557    -3531    -3485    -3438    -3414    -3418    -3437    -3464 
   -3496    -3523    -3547    -3572    -3595    -3608    -3600    -3570 
   -3546    -3554    -3584    -3596    -3578    -3555    -3537    -3515 
   -3505    -3526    -3566    -3597    -3596    -3562    -3522    -3499 
   -3492    -3503    -3510    -3493    -3481    -3500    -3532    -3546 
   -3522    -3473    -3438    -3446    -3503    -3577    -3609    -3584 
   -3535    -3487    -3462    -3485    -3534    -3565    -3561    -3531 
   -3501    -3497    -3520    -3541    -3543    -3531    -3503    -3476 
   -3469    -3474    -3481    -3489    -3497    -3523    -3558    -3569 
   -3549    -3518    -3504    -3503    -3493    -3476    -3465    -3470 
   -3487    -3510    -3522    -3516    -3505    -3508    -3526    -3557 
   -3576    -3561    -3526    -3487    -3447    -3446    -3491    -3535 
   -3553    -3538    -3504    -3488    -3503    -3524    -3537    -3543 
   -3541    -3534    -3542    -3561    -3555    -3527    -3488    -3437 
   -3393    -3388    -3424    -3499    -3574    -3596    -3561    -3497 
   -3430    -3389    -3404    -3469    -3547    -3592    -3588    -3561 
   -3545    -3555    -3573    -3562    -3515    -3466    -3443    -3454 
   -3504    -3558    -3574    -3561    -3534    -3493    -3458    -3438 
   -3424    -3419    -3426    -3456    -3501    -3522    -3508    -3489 
   -3480    -3493    -3516    -3519    -3504    -3478    -3462    -3478 
   -3519    -3553    -3551    -3511    -3464    -3449    -3480    -3532 
   -3569    -3555    -3493    -3429    -3410    -3454    -3530    -3577 
   -3578    -3566    -3559    -3555    -3553    -3547    -3549    -3568 
   -3577    -3569    -3564    -3562    -3564    -3565    -3546    -3515 
   -3499    -3503    -3511    -3512    -3503    -3514    -3569    -3628 
   -3630    -3592    -3539    -3484    -3458    -3469    -3495    -3532 
   -3568    -3581    -3568    -3537    -3508    -3514    -3565    -3626 
   -3620    -3531    -3410    -3325    -3327    -3416    -3541    -3618 
   -3601    -3507    -3393    -3331    -3370    -3485    -3601    -3650 
   -3607    -3510    -3435    -3431    -3485    -3559    -3623    -3643 
   -3586    -3481    -3384    -3350    -3408    -3505    -3557    -3543 
   -3491    -3443    -3442    -3477    -3515    -3534    -3503    -3418 
   -3327    -3303    -3366    -3469    -3555    -3605    -3600    -3559 
   -3526    -3523    -3554    -3593    -3603    -3572    -3508    -3433 
   -3397    -3439    -3539    -3631    -3659    -3611    -3512    -3429 
   -3406    -3434    -3487    -3541    -3553    -3499    -3420    -3396 
   -3458    -3558    -3630    -3645    -3620    -3582    -3551    -3534 
   -3528    -3524    -3516    -3493    -3453    -3419    -3423    -3469 
   -3535    -3573    -3551    -3500    -3450    -3424    -3454    -3557 
   -3686    -3748    -3684    -3535    -3403    -3365    -3426    -3530 
   -3622    -3655    -3627    -3566    -3501    -3466    -3485    -3541 
   -3586    -3577    -3510    -3435    -3383    -3365    -3406    -3488 
   -3564    -3591    -3562    -3516    -3501    -3526    -3569    -3592 
   -3570    -3523    -3477    -3449    -3438    -3433    -3430    -3447 
   -3500    -3577    -3639    -3643    -3577    -3488    -3424    -3422 
   -3495    -3576    -3564    -3456    -3329    -3269    -3345    -3507 
   -3631    -3657    -3586    -3481    -3434    -3470    -3542    -3608 
   -3620    -3532    -3392    -3314    -3361    -3495    -3624    -3673 
   -3622    -3507    -3375    -3299    -3342    -3487    -3642    -3708 
   -3654    -3532    -3410    -3361    -3447    -3627    -3777    -3805 
   -3686    -3495    -3365    -3383    -3531    -3684    -3704    -3578 
   -3389    -3250    -3257    -3391    -3566    -3704    -3727    -3620 
   -3466    -3366    -3357    -3412    -3476    -3515    -3547    -3572 
   -3561    -3524    -3508    -3545    -3605    -3628    -3581    -3484 
   -3380    -3323    -3348    -3423    -3514    -3592    -3627    -3611 
   -3566    -3512    -3464    -3400    -3315    -3269    -3323    -3473 
   -3666    -3811    -3836    -3746    -3582    -3404    -3304    -3348 
   -3485    -3612    -3647    -3584    -3497    -3464    -3491    -3541 
   -3574    -3572    -3537    -3491    -3481    -3526    -3584    -3616 
   -3612    -3558    -3469    -3384    -3345    -3383    -3476    -3553 
   -3565    -3505    -3414    -3352    -3369    -3469    -3570    -3597 
   -3543    -3449    -3370    -3370    -3461    -3596    -3707    -3735 
   -3684    -3591    -3488    -3415    -3395    -3406    -3411    -3404 
   -3396    -3395    -3415    -3457    -3508    -3586    -3694    -3767 
   -3739    -3601    -3426    -3307    -3291    -3373    -3499    -3597 
   -3651    -3650    -3595    -3519    -3443    -3385    -3362    -3358 
   -3368    -3429    -3535    -3638    -3693    -3694    -3694    -3740 
   -3784    -3744    -3619    -3461    -3330    -3267    -3268    -3334 
   -3460    -3593    -3659    -3634    -3558    -3499    -3477    -3469 
   -3450    -3410    -3369    -3376    -3456    -3603    -3785    -3910 
   -3908    -3788    -3608    -3439    -3346    -3327    -3333    -3358 
   -3424    -3523    -3639    -3739    -3740    -3596    -3380    -3223 
   -3214    -3345    -3524    -3670    -3747    -3731    -3624    -3487 
   -3385    -3349    -3377    -3461    -3566    -3635    -3626    -3543 
   -3441    -3388    -3412    -3505    -3627    -3699    -3653    -3510 
   -3350    -3271    -3311    -3422    -3516    -3549    -3550    -3585 
   -3663    -3732    -3721    -3603    -3426    -3275    -3235    -3319 
   -3441    -3550    -3645    -3685    -3626    -3478    -3318    -3240 
   -3291    -3412    -3512    -3566    -3589    -3600    -3605    -3595 
   -3574    -3577    -3580    -3534    -3439    -3364    -3387    -3504 
   -3603    -3609    -3549    -3458    -3379    -3348    -3368    -3429 
   -3510    -3568    -3564    -3510    -3460    -3453    -3489    -3538 
   -3561    -3549    -3530    -3515    -3495    -3472    -3477    -3530 
   -3591    -3607    -3577    -3546    -3532    -3516    -3484    -3450 
   -3435    -3464    -3547    -3658    -3717    -3658    -3500    -3334 
   -3241    -3261    -3408    -3630    -3820    -3902    -3852    -3703 
   -3541    -3415    -3312    -3240    -3219    -3248    -3338    -3511 
   -3708    -3827    -3808    -3655    -3457    -3338    -3341    -3416 
   -3503    -3549    -3539    -3476    -3406    -3420    -3558    -3731 
   -3813    -3739    -3543    -3321    -3156    -3115    -3217    -3411 
   -3616    -3735    -3709    -3576    -3423    -3334    -3338    -3407 
   -3491    -3531    -3508    -3477    -3499    -3568    -3624    -3599 
   -3485    -3349    -3254    -3240    -3323    -3477    -3647    -3785 
   -3816    -3689    -3504    -3416    -3449    -3523    -3561    -3505 
   -3385    -3289    -3296    -3433    -3646    -3820    -3874    -3794 
   -3635    -3478    -3379    -3353    -3400    -3519    -3669    -3769 
   -3739    -3584    -3406    -3314    -3343    -3453    -3586    -3692 
   -3740    -3717    -3592    -3383    -3213    -3217    -3404    -3642 
   -3766    -3713    -3546    -3392    -3358    -3481    -3672    -3771 
   -3713    -3566    -3464    -3493    -3620    -3723    -3686    -3477 
   -3210    -3064    -3145    -3433    -3771    -3967    -3917    -3651 
   -3325    -3138    -3159    -3304    -3483    -3613    -3639    -3561 
   -3424    -3308    -3291    -3384    -3516    -3626    -3689    -3696 
   -3663    -3632    -3588    -3478    -3327    -3233    -3303    -3549 
   -3835    -4002    -3985    -3794    -3497    -3210    -3064    -3092 
   -3227    -3406    -3578    -3699    -3746    -3720    -3611    -3426 
   -3237    -3152    -3230    -3397    -3516    -3534    -3510    -3530 
   -3596    -3634    -3604    -3542    -3503    -3481    -3437    -3381 
   -3364    -3391    -3439    -3503    -3588    -3692    -3753    -3685 
   -3501    -3321    -3276    -3412    -3634    -3773    -3739    -3574 
   -3391    -3287    -3319    -3464    -3622    -3716    -3716    -3635 
   -3527    -3453    -3439    -3477    -3543    -3592    -3599    -3573 
   -3532    -3510    -3537    -3616    -3703    -3743    -3716    -3634 
   -3514    -3379    -3280    -3262    -3310    -3369    -3414    -3466 
   -3557    -3663    -3743    -3759    -3700    -3605    -3508    -3423 
   -3381    -3366    -3329    -3291    -3327    -3461    -3619    -3676 
   -3578    -3416    -3335    -3379    -3496    -3611    -3634    -3523 
   -3335    -3191    -3215    -3424    -3693    -3877    -3889    -3735 
   -3532    -3429    -3454    -3542    -3604    -3616    -3620    -3645 
   -3667    -3659    -3601    -3492    -3381    -3339    -3364    -3420 
   -3507    -3601    -3638    -3564    -3427    -3365    -3443    -3607 
   -3755    -3790    -3649    -3376    -3129    -3064    -3231    -3543 
   -3842    -4012    -4012    -3858    -3618    -3411    -3335    -3376 
   -3446    -3487    -3514    -3554    -3592    -3596    -3557    -3483 
   -3424    -3451    -3570    -3697    -3731    -3646    -3493    -3348 
   -3267    -3292    -3442    -3670    -3861    -3916    -3812    -3599 
   -3361    -3188    -3119    -3133    -3192    -3262    -3306    -3333 
   -3407    -3553    -3696    -3765    -3769    -3734    -3649    -3528 
   -3410    -3333    -3335    -3407    -3507    -3604    -3680    -3711 
   -3663    -3524    -3330    -3187    -3187    -3312    -3473    -3605 
   -3686    -3720    -3709    -3672    -3627    -3555    -3427    -3269 
   -3156    -3159    -3306    -3538    -3747    -3865    -3885    -3801 
   -3597    -3321    -3095    -3019    -3087    -3241    -3437    -3620 
   -3724    -3708    -3591    -3449    -3372    -3366    -3368    -3334 
   -3285    -3289    -3396    -3580    -3774    -3904    -3889    -3713 
   -3451    -3230    -3181    -3339    -3557    -3667    -3627    -3500 
   -3389    -3353    -3385    -3453    -3520    -3543    -3468    -3300 
   -3167    -3188    -3354    -3561    -3700    -3720    -3655    -3576 
   -3507    -3466    -3466    -3477    -3489    -3501    -3484    -3464 
   -3492    -3537    -3547    -3542    -3539    -3558    -3600    -3630 
   -3615    -3592    -3600    -3603    -3573    -3569    -3655    -3801 
   -3883    -3812    -3615    -3408    -3304    -3329    -3423    -3527 
   -3618    -3650    -3585    -3462    -3377    -3435    -3634    -3809 
   -3807    -3616    -3345    -3142    -3113    -3246    -3487    -3761 
   -3952    -3966    -3817    -3608    -3443    -3395    -3472    -3593 
   -3638    -3554    -3411    -3307    -3300    -3391    -3516    -3612 
   -3661    -3676    -3680    -3674    -3627    -3511    -3361    -3245 
   -3231    -3318    -3445    -3553    -3609    -3578    -3449    -3294 
   -3221    -3280    -3424    -3566    -3642    -3635    -3586    -3531 
   -3468    -3414    -3391    -3419    -3489    -3547    -3564    -3562 
   -3580    -3609    -3615    -3577    -3510    -3427    -3353    -3288 
   -3240    -3261    -3365    -3491    -3576    -3593    -3550    -3501 
   -3503    -3559    -3630    -3661    -3627    -3547    -3491    -3476 
   -3458    -3420    -3377    -3348    -3372    -3470    -3608    -3750 
   -3843    -3829    -3709    -3515    -3302    -3163    -3152    -3254 
   -3439    -3650    -3801    -3835    -3738    -3543    -3360    -3300 
   -3404    -3622    -3815    -3847    -3708    -3487    -3322    -3321 
   -3472    -3654    -3728    -3634    -3453    -3331    -3358    -3510 
   -3662    -3681    -3541    -3333    -3194    -3206    -3354    -3566 
   -3740    -3789    -3697    -3514    -3338    -3254    -3265    -3337 
   -3437    -3493    -3465    -3387    -3325    -3312    -3349    -3443 
   -3582    -3694    -3708    -3632    -3539    -3510    -3543    -3561 
   -3526    -3465    -3437    -3489    -3613    -3755    -3855    -3854 
   -3724    -3519    -3354    -3318    -3422    -3597    -3746    -3801 
   -3740    -3600    -3450    -3360    -3369    -3465    -3569    -3638 
   -3684    -3701    -3661    -3561    -3441    -3356    -3335    -3381 
   -3461    -3532    -3584    -3631    -3666    -3663    -3611    -3532 
   -3472    -3443    -3431    -3435    -3461    -3518    -3593    -3618 
   -3528    -3383    -3308    -3364    -3477    -3557    -3585    -3591 
   -3576    -3545    -3531    -3565    -3601    -3566    -3456    -3337 
   -3280    -3316    -3416    -3516    -3569    -3566    -3496    -3384 
   -3314    -3354    -3481    -3608    -3647    -3596    -3530    -3519 
   -3564    -3624    -3657    -3659    -3650    -3619    -3549    -3473 
   -3447    -3465    -3484    -3503    -3530    -3551    -3580    -3631 
   -3689    -3739    -3747    -3661    -3500    -3354    -3302    -3372 
   -3522    -3654    -3677    -3562    -3364    -3192    -3152    -3256 
   -3437    -3597    -3636    -3535    -3370    -3229    -3180    -3250 
   -3388    -3535    -3654    -3701    -3665    -3574    -3465    -3372 
   -3330    -3365    -3458    -3566    -3639    -3631    -3526    -3366 
   -3233    -3203    -3311    -3508    -3681    -3740    -3682    -3569 
   -3470    -3442    -3481    -3535    -3554    -3516    -3429    -3361 
   -3385    -3501    -3642    -3715    -3663    -3527    -3396    -3343 
   -3388    -3501    -3626    -3697    -3674    -3566    -3434    -3361 
   -3379    -3442    -3497    -3526    -3550    -3586    -3613    -3615 
   -3574    -3504    -3481    -3555    -3661    -3717    -3700    -3615 
   -3503    -3408    -3375    -3439    -3572    -3681    -3703    -3627 
   -3484    -3369    -3379    -3495    -3616    -3690    -3709    -3663 
   -3547    -3397    -3312    -3360    -3492    -3605    -3627    -3574 
   -3519    -3508    -3549    -3605    -3631    -3600    -3535    -3488 
   -3493    -3527    -3550    -3531    -3483    -3456    -3492    -3572 
   -3640    -3659    -3622    -3553    -3477    -3437    -3470    -3577 
   -3693    -3711    -3588    -3424    -3329    -3308    -3323    -3350 
   -3400    -3477    -3535    -3538    -3535    -3576    -3620    -3609 
   -3539    -3457    -3411    -3443    -3562    -3689    -3707    -3564 
   -3327    -3152    -3145    -3277    -3445    -3559    -3545    -3395 
   -3230    -3191    -3326    -3562    -3731    -3707    -3526    -3326 
   -3225    -3267    -3393    -3503    -3535    -3476    -3343    -3223 
   -3211    -3327    -3512    -3677    -3742    -3686    -3586    -3523 
   -3511    -3535    -3565    -3546    -3468    -3368    -3289    -3276 
   -3339    -3450    -3562    -3618    -3572    -3458    -3397    -3466 
   -3611    -3716    -3721    -3632    -3493    -3380    -3376    -3499 
   -3655    -3744    -3743    -3681    -3608    -3573    -3600    -3681 
   -3771    -3817    -3786    -3697    -3596    -3515    -3485    -3530 
