Origin Time       2024/04/02 04:24:00
Lat.              40.133
Long.             141.712
Depth. (km)       71
Mag.              6.0
Station Code      SITH07
Station Lat.      35.9118
Station Long.     139.1485
Station Height(m) 340
Record Time       2024/04/02 04:26:09
Sampling Freq(Hz) 100Hz
Duration Time(s)  120
Dir.              6
Scale Factor      7845(gal)/8223790
Max. Acc. (gal)   0.193
Last Correction   2024/04/02 04:26:11
Memo.             
[...]
    4591     4614     4653     4637     4612     4612     4623     4631 
    4629     4631     4629     4617     4612     4610     4607     4610 
    4612     4637     4671     4671     4664     4668     4668     4671 
    4679     4693     4696     4669     4652     4665     4683     4673 
    4627     4599     4611     4618     4612     4608     4621     4642 
    4619     4587     4606     4641     4653     4639     4614     4610 
    4625     4634     4645     4638     4617     4614     4626     4612 
    4577     4587     4658     4699     4665     4627     4633     4654 
    4660     4668     4699     4700     4654     4603     4579     4619 
    4704     4743     4715     4669     4649     4652     4641     4648 
    4688     4689     4642     4635     4689     4712     4656     4618 
    4650     4676     4664     4646     4639     4634     4614     4630 
    4683     4677     4633     4641     4676     4664     4607     4571 
    4583     4604     4619     4642     4650     4625     4591     4590 
    4619     4629     4611     4614     4639     4649     4618     4604 
    4653     4677     4635     4615     4652     4681     4671     4656 
    4664     4662     4633     4603     4596     4608     4618     4619 
    4650     4699     4720     4688     4621     4590     4612     4639 
    4657     4666     4653     4630     4621     4638     4657     4657 
    4658     4649     4603     4568     4585     4642     4673     4639 
    4606     4603     4603     4610     4619     4639     4680     4692 
    4681     4684     4665     4641     4635     4618     4614     4642 
    4658     4653     4646     4665     4680     4639     4588     4592 
    4629     4633     4623     4654     4685     4657     4621     4631 
    4660     4664     4646     4653     4680     4680     4665     4644 
    4600     4580     4606     4641     4634     4588     4583     4637 
    4662     4638     4617     4622     4634     4612     4579     4584 
    4627     4669     4662     4641     4650     4635     4598     4599 
    4617     4623     4630     4621     4615     4637     4665     4671 
    4641     4618     4646     4684     4675     4642     4642     4671 
    4675     4675     4696     4700     4660     4599     4565     4588 
    4627     4652     4680     4699     4692     4646     4581     4576 
    4627     4673     4683     4664     4671     4689     4669     4650 
    4650     4648     4661     4673     4673     4675     4656     4633 
    4625     4619     4641     4672     4672     4644     4590     4550 
    4567     4617     4673     4712     4700     4645     4604     4606 
    4618     4622     4645     4673     4665     4639     4625     4617 
    4606     4618     4662     4676     4637     4608     4618     4627 
    4610     4594     4630     4679     4671     4629     4596     4587 
    4595     4612     4641     4654     4645     4642     4642     4642 
    4642     4629     4633     4654     4661     4666     4673     4665 
    4658     4665     4687     4710     4689     4641     4630     4652 
    4656     4639     4644     4672     4679     4648     4617     4617 
    4627     4631     4654     4673     4635     4594     4600     4625 
    4631     4621     4618     4627     4619     4599     4612     4656 
    4677     4635     4588     4607     4633     4604     4573     4598 
    4679     4716     4639     4581     4627     4664     4619     4568 
    4598     4672     4689     4646     4619     4635     4658     4654 
    4639     4639     4653     4661     4654     4650     4644     4615 
    4596     4599     4604     4627     4662     4673     4653     4602 
    4563     4576     4606     4639     4673     4660     4627     4621 
    4633     4665     4684     4668     4642     4619     4627     4661 
    4656     4630     4630     4635     4631     4642     4672     4695 
    4679     4654     4658     4669     4661     4654     4680     4703 
    4680     4638     4614     4637     4704     4727     4700     4693 
    4692     4683     4681     4661     4629     4604     4591     4596 
    4603     4617     4646     4660     4644     4614     4604     4611 
    4598     4600     4637     4656     4626     4569     4545     4591 
    4642     4648     4625     4619     4637     4629     4592     4608 
    4666     4687     4657     4637     4660     4669     4626     4599 
    4625     4664     4679     4666     4660     4646     4611     4610 
    4656     4673     4645     4641     4664     4634     4557     4530 
    4572     4627     4645     4638     4658     4661     4600     4558 
    4576     4604     4611     4590     4585     4629     4684     4708 
    4687     4649     4645     4657     4662     4687     4695     4662 
    4623     4599     4602     4622     4625     4635     4675     4710 
    4704     4639     4573     4581     4635     4662     4635     4598 
    4610     4633     4615     4599     4637     4696     4715     4688 
    4680     4698     4673     4607     4573     4603     4644     4656 
    4653     4641     4627     4622     4617     4634     4676     4689 
    4668     4648     4637     4626     4627     4664     4702     4687 
    4622     4556     4537     4592     4665     4695     4681     4660 
    4645     4614     4580     4585     4604     4608     4614     4638 
    4664     4650     4611     4614     4646     4660     4668     4683 
    4688     4658     4612     4617     4641     4622     4611     4635 
    4665     4692     4700     4703     4699     4649     4595     4599 
    4619     4611     4610     4635     4654     4653     4644     4631 
    4630     4646     4666     4689     4702     4672     4639     4625 
    4612     4612     4590     4561     4608     4656     4607     4549 
    4575     4646     4666     4642     4666     4725     4726     4664 
    4618     4650     4703     4692     4634     4594     4606     4644 
    4676     4723     4741     4687     4645     4650     4658     4652 
    4639     4669     4707     4662     4596     4587     4621     4676 
    4700     4689     4684     4637     4549     4511     4557     4656 
    4727     4719     4680     4649     4611     4563     4549     4619 
    4700     4692     4633     4626     4680     4691     4608     4545 
    4567     4619     4660     4664     4648     4644     4635     4610 
    4590     4591     4618     4646     4679     4706     4671     4603 
    4575     4564     4544     4558     4635     4716     4741     4722 
    4673     4600     4569     4610     4669     4699     4692     4675 
    4650     4629     4619     4602     4594     4637     4675     4650 
    4608     4596     4626     4656     4653     4656     4666     4649 
    4615     4608     4644     4662     4642     4646     4650     4611 
    4590     4612     4635     4648     4657     4668     4639     4572 
    4558     4619     4680     4710     4725     4725     4677     4600 
    4576     4611     4637     4629     4622     4629     4611     4573 
    4579     4614     4649     4683     4693     4683     4656     4617 
    4606     4607     4610     4642     4671     4676     4683     4671 
    4652     4630     4572     4525     4548     4608     4646     4635 
    4606     4608     4637     4666     4675     4664     4649     4634 
    4634     4646     4623     4590     4598     4622     4610     4587 
    4614     4654     4650     4648     4644     4581     4515     4522 
    4558     4568     4567     4595     4649     4673     4652     4638 
    4668     4685     4638     4598     4615     4642     4662     4716 
    4792     4816     4733     4612     4607     4696     4725     4692 
    4716     4791     4776     4652     4587     4661     4739     4720 
    4680     4707     4726     4652     4579     4604     4677     4715 
    4726     4756     4754     4673     4596     4572     4569     4584 
    4614     4635     4617     4583     4602     4634     4615     4594 
    4625     4666     4650     4608     4641     4726     4739     4673 
    4608     4595     4637     4679     4665     4645     4691     4743 
    4693     4592     4602     4687     4691     4622     4595     4625 
    4608     4549     4567     4657     4699     4665     4654     4711 
    4742     4680     4606     4607     4664     4693     4672     4639 
    4612     4594     4580     4564     4572     4599     4599     4598 
    4621     4612     4576     4568     4588     4600     4596     4608 
    4649     4654     4607     4567     4583     4639     4660     4653 
    4661     4645     4603     4583     4565     4560     4581     4603 
    4639     4706     4766     4766     4698     4631     4630     4650 
    4615     4545     4534     4603     4666     4675     4656     4650 
    4648     4629     4646     4698     4683     4607     4591     4649 
    4675     4631     4600     4639     4698     4734     4738     4685 
    4614     4595     4631     4679     4688     4662     4639     4626 
    4615     4588     4561     4588     4653     4668     4619     4581 
    4596     4621     4623     4662     4741     4733     4600     4500 
    4544     4639     4676     4676     4692     4710     4680     4618 
    4611     4646     4645     4625     4596     4545     4525     4572 
    4653     4718     4719     4658     4604     4617     4672     4689 
    4671     4696     4731     4719     4675     4626     4615     4645 
    4671     4699     4710     4672     4615     4579     4599     4656 
    4677     4648     4629     4665     4708     4696     4662     4656 
    4633     4580     4575     4639     4685     4662     4642     4680 
    4727     4723     4680     4642     4617     4591     4591     4623 
    4644     4649     4665     4691     4699     4653     4592     4602 
    4648     4650     4641     4671     4671     4592     4540     4596 
    4677     4691     4654     4618     4599     4587     4608     4669 
    4693     4664     4637     4622     4614     4617     4627     4635 
    4612     4580     4587     4614     4615     4604     4615     4658 
    4720     4774     4784     4719     4650     4633     4635     4648 
    4665     4671     4666     4635     4591     4577     4607     4679 
    4741     4715     4645     4587     4514     4449     4446     4523 
    4618     4649     4631     4631     4645     4639     4615     4626 
    4685     4706     4672     4649     4653     4677     4703     4712 
    4723     4715     4666     4625     4631     4660     4654     4625 
    4600     4577     4560     4587     4649     4684     4642     4572 
    4591     4693     4773     4776     4734     4696     4645     4556 
    4511     4552     4618     4646     4626     4635     4688     4692 
    4658     4648     4652     4639     4592     4554     4568     4587 
    4591     4610     4646     4662     4633     4598     4599     4627 
    4645     4629     4611     4606     4575     4553     4614     4700 
    4727     4693     4646     4608     4558     4517     4548     4615 
    4649     4657     4658     4653     4626     4579     4550     4552 
    4561     4577     4612     4672     4731     4766     4743     4634 
    4518     4510     4590     4662     4712     4742     4733     4676 
    4599     4565     4615     4699     4716     4649     4598     4611 
    4621     4603     4626     4710     4753     4676     4583     4594 
    4660     4669     4631     4623     4654     4666     4669     4714 
    4752     4712     4627     4584     4592     4606     4637     4693 
    4730     4718     4657     4594     4590     4633     4676     4679 
    4639     4606     4584     4552     4563     4642     4723     4764 
    4752     4703     4661     4629     4599     4579     4575     4592 
    4610     4619     4649     4692     4716     4716     4702     4675 
    4646     4652     4672     4657     4633     4646     4679     4679 
    4645     4645     4693     4683     4596     4553     4572     4595 
    4617     4677     4780     4816     4750     4685     4654     4610 
    4572     4587     4627     4642     4645     4675     4706     4700 
    4671     4658     4669     4648     4587     4554     4584     4660 
    4725     4723     4685     4656     4629     4611     4625     4656 
    4660     4603     4548     4545     4567     4615     4683     4708 
    4700     4699     4680     4623     4576     4610     4699     4719 
    4648     4594     4608     4618     4583     4587     4656     4707 
    4708     4692     4677     4664     4646     4639     4650     4646 
    4629     4617     4618     4629     4619     4579     4556     4581 
    4607     4591     4575     4590     4608     4622     4638     4644 
    4638     4629     4652     4720     4735     4666     4623     4623 
    4618     4614     4621     4665     4718     4699     4623     4544 
    4482     4456     4469     4546     4661     4687     4595     4515 
    4550     4618     4607     4588     4631     4645     4576     4510 
    4522     4561     4544     4533     4592     4646     4657     4669 
    4691     4685     4635     4579     4573     4607     4649     4687 
    4699     4685     4644     4584     4548     4556     4617     4695 
    4719     4679     4602     4545     4561     4615     4644     4625 
    4598     4602     4618     4622     4617     4602     4604     4625 
    4625     4611     4614     4637     4657     4638     4595     4594 
    4649     4702     4700     4687     4710     4711     4661     4652 
    4707     4758     4745     4676     4633     4635     4635     4633 
    4634     4639     4688     4768     4828     4842     4806     4754 
    4710     4664     4634     4622     4596     4587     4633     4689 
    4681     4626     4600     4607     4621     4638     4656     4669 
    4676     4672     4669     4675     4685     4699     4684     4650 
    4627     4614     4622     4638     4635     4637     4649     4635 
    4603     4602     4634     4639     4635     4680     4731     4725 
    4675     4633     4619     4630     4664     4719     4734     4683 
    4644     4656     4683     4669     4641     4676     4729     4707 
    4661     4662     4693     4696     4633     4563     4542     4545 
    4572     4637     4708     4746     4714     4639     4603     4607 
    4625     4668     4718     4739     4737     4723     4687     4621 
    4577     4563     4552     4577     4645     4691     4676     4635 
    4625     4642     4654     4642     4607     4585     4587     4569 
    4556     4581     4619     4644     4641     4603     4569     4564 
    4579     4590     4590     4604     4627     4615     4572     4546 
    4567     4594     4576     4565     4591     4602     4612     4671 
    4722     4700     4629     4592     4603     4611     4617     4645 
    4687     4710     4677     4635     4664     4726     4734     4683 
    4649     4681     4704     4650     4590     4600     4635     4630 
    4621     4664     4684     4629     4571     4556     4573     4590 
    4587     4592     4588     4549     4530     4546     4563     4575 
    4596     4625     4638     4625     4614     4621     4629     4614 
    4590     4592     4606     4608     4611     4603     4614     4666 
    4693     4660     4621     4604     4607     4626     4658     4684 
    4668     4646     4665     4681     4669     4671     4696     4712 
    4695     4683     4715     4739     4687     4606     4611     4706 
    4761     4719     4668     4673     4710     4725     4716     4712 
    4706     4685     4672     4676     4696     4722     4716     4692 
    4672     4658     4652     4646     4644     4665     4695     4716 
    4714     4672     4635     4642     4668     4660     4602     4571 
    4600     4614     4600     4611     4637     4649     4623     4599 
    4618     4638     4645     4673     4683     4653     4634     4653 
    4676     4672     4650     4633     4619     4614     4604     4579 
    4556     4563     4603     4635     4626     4595     4564     4548 
    4558     4572     4572     4579     4592     4594     4608     4671 
    4737     4720     4644     4612     4633     4627     4575     4534 
    4563     4618     4629     4607     4602     4634     4662     4646 
    4650     4696     4700     4656     4623     4635     4662     4653 
    4629     4619     4602     4584     4573     4564     4568     4579 
    4598     4633     4652     4642     4627     4618     4631     4645 
    4639     4637     4653     4665     4652     4637     4653     4675 
    4679     4665     4646     4645     4660     4676     4706     4726 
    4719     4714     4708     4683     4639     4618     4661     4722 
    4727     4684     4621     4560     4542     4564     4610     4671 
    4702     4702     4693     4684     4685     4692     4703     4714 
    4693     4638     4575     4554     4603     4656     4672     4677 
    4673     4646     4625     4653     4727     4762     4731     4696 
    4657     4615     4587     4568     4569     4568     4533     4529 
    4573     4617     4633     4619     4614     4618     4590     4561 
    4583     4626     4625     4580     4583     4658     4718     4718 
    4693     4669     4642     4611     4617     4650     4645     4606 
    4602     4642     4666     4634     4594     4595     4615     4630 
    4641     4654     4660     4626     4592     4611     4629     4603 
    4572     4572     4612     4642     4639     4634     4612     4576 
    4567     4595     4642     4664     4649     4629     4641     4685 
    4710     4689     4687     4715     4738     4733     4684     4619 
    4594     4617     4672     4712     4702     4680     4672     4671 
    4687     4689     4671     4669     4656     4617     4587     4585 
    4617     4648     4658     4661     4656     4639     4614     4600 
    4634     4679     4673     4630     4594     4612     4677     4695 
    4656     4637     4658     4680     4656     4604     4598     4637 
    4642     4604     4604     4672     4703     4645     4577     4581 
    4622     4625     4603     4596     4583     4560     4565     4603 
    4648     4642     4602     4595     4602     4587     4565     4538 
    4522     4533     4544     4554     4557     4553     4583     4626 
    4650     4662     4654     4617     4573     4560     4608     4662 
    4662     4648     4668     4710     4726     4714     4715     4715 
    4684     4650     4650     4675     4689     4673     4661     4668 
    4669     4653     4634     4626     4623     4614     4623     4641 
    4639     4650     4687     4698     4661     4635     4673     4723 
    4712     4679     4679     4693     4684     4652     4649     4677 
    4687     4679     4669     4638     4596     4573     4584     4612 
    4623     4615     4600     4557     4491     4463     4506     4569 
    4584     4575     4595     4631     4639     4625     4635     4680 
    4691     4666     4657     4675     4695     4692     4668     4654 
    4656     4656     4646     4631     4635     4649     4639     4618 
    4595     4583     4611     4639     4654     4684     4703     4685 
    4658     4676     4729     4719     4653     4642     4687     4712 
    4708     4722     4761     4758     4695     4639     4642     4668 
    4662     4664     4720     4749     4693     4633     4618     4618 
    4621     4641     4680     4700     4684     4662     4658     4668 
