Origin Time       2024/04/02 04:24:00
Lat.              40.133
Long.             141.712
Depth. (km)       71
Mag.              6.0
Station Code      SITH07
Station Lat.      35.9118
Station Long.     139.1485
Station Height(m) 238
Record Time       2024/04/02 04:26:09
Sampling Freq(Hz) 100Hz
Duration Time(s)  120
Dir.              2
Scale Factor      2942(gal)/8224139
Max. Acc. (gal)   0.152
Last Correction   2024/04/02 04:26:11
Memo.             
[...]
  100697   100718   100726   100714   100714   100731   100737   100720 
  100685   100637   100607   100608   100612   100611   100635   100680 
  100723   100772   100796   100776   100750   100743   100735   100711 
  100681   100651   100623   100615   100657   100727   100770   100766 
  100766   100801   100849   100881   100884   100847   100778   100704 
  100661   100656   100681   100735   100791   100822   100819   100777 
  100718   100669   100630   100604   100607   100622   100620   100591 
  100549   100516   100523   100584   100662   100703   100697   100664 
  100626   100611   100603   100580   100549   100495   100438   100453 
  100548   100639   100693   100742   100780   100770   100714   100642 
  100579   100545   100560   100608   100666   100719   100742   100737 
  100742   100770   100784   100768   100761   100761   100728   100680 
  100639   100595   100560   100553   100572   100595   100615   100645 
  100672   100669   100653   100670   100719   100757   100749   100691 
  100630   100597   100587   100585   100584   100562   100521   100506 
  100543   100600   100626   100614   100576   100533   100523   100553 
  100588   100616   100634   100627   100616   100604   100566   100519 
  100477   100452   100469   100503   100512   100537   100606   100664 
  100653   100587   100506   100457   100473   100531   100584   100631 
  100657   100634   100606   100618   100647   100661   100631   100560 
  100507   100512   100553   100614   100693   100742   100730   100683 
  100630   100584   100570   100603   100649   100689   100715   100710 
  100699   100689   100697   100759   100818   100812   100788   100768 
  100745   100766   100822   100866   100896   100904   100880   100820 
  100735   100651   100577   100508   100481   100515   100581   100658 
  100739   100795   100801   100764   100695   100624   100607   100645 
  100687   100704   100703   100688   100691   100720   100745   100746 
  100730   100683   100595   100525   100525   100581   100647   100696 
  100737   100776   100785   100770   100764   100749   100715   100704 
  100720   100714   100670   100619   100573   100531   100518   100526 
  100541   100583   100634   100658   100672   100689   100707   100735 
  100759   100766   100773   100773   100738   100697   100724   100811 
  100880   100894   100858   100792   100735   100688   100623   100552 
  100510   100511   100556   100612   100642   100662   100685   100672 
  100616   100552   100492   100465   100485   100545   100642   100727 
  100765   100796   100842   100855   100834   100812   100778   100728 
  100674   100616   100539   100476   100516   100639   100747   100816 
  100851   100822   100739   100646   100576   100552   100569   100591 
  100606   100638   100666   100681   100695   100685   100645   100608 
  100576   100560   100589   100654   100722   100788   100838   100831 
  100789   100768   100755   100710   100630   100549   100508   100518 
  100542   100573   100630   100695   100728   100723   100683   100633 
  100611   100629   100641   100629   100634   100664   100689   100720 
  100747   100743   100710   100665   100637   100647   100660   100637 
  100607   100596   100610   100650   100707   100741   100738   100715 
  100683   100646   100627   100623   100611   100607   100611   100599 
  100584   100603   100639   100672   100695   100680   100624   100572 
  100546   100543   100541   100519   100494   100491   100515   100516 
  100487   100462   100426   100375   100352   100367   100414   100462 
  100476   100476   100473   100465   100483   100522   100556   100583 
  100580   100558   100562   100592   100612   100608   100570   100531 
  100526   100534   100530   100519   100518   100539   100587   100631 
  100641   100626   100607   100583   100564   100561   100564   100575 
  100611   100673   100745   100804   100831   100835   100834   100815 
  100788   100782   100791   100780   100743   100699   100666   100660 
  100677   100708   100758   100836   100915   100953   100938   100893 
  100850   100831   100824   100803   100768   100742   100723   100703 
  100723   100795   100859   100889   100901   100911   100932   100961 
  100966   100932   100881   100832   100788   100757   100753   100762 
  100785   100816   100823   100791   100739   100703   100692   100680 
  100646   100610   100579   100553   100550   100568   100575   100558 
  100542   100529   100518   100507   100503   100504   100502   100496 
  100515   100557   100585   100602   100643   100685   100691   100677 
  100656   100639   100630   100593   100552   100538   100525   100527 
  100584   100656   100685   100670   100637   100588   100542   100530 
  100531   100527   100549   100577   100561   100521   100494   100489 
  100504   100533   100560   100572   100568   100566   100565   100541 
  100508   100499   100504   100522   100587   100680   100730   100710 
  100660   100618   100589   100591   100641   100705   100746   100761 
  100751   100743   100761   100782   100796   100808   100820   100840 
  100874   100897   100894   100876   100840   100808   100796   100778 
  100762   100776   100804   100820   100811   100769   100701   100637 
  100616   100651   100697   100722   100739   100758   100762   100747 
  100724   100707   100695   100691   100700   100692   100643   100583 
  100539   100525   100535   100553   100552   100550   100570   100589 
  100596   100596   100588   100580   100587   100591   100587   100589 
  100584   100564   100556   100577   100608   100642   100674   100664 
  100616   100581   100561   100539   100535   100554   100583   100616 
  100658   100693   100704   100692   100662   100626   100615   100638 
  100668   100688   100714   100719   100678   100631   100606   100591 
  100593   100614   100624   100620   100616   100622   100630   100634 
  100653   100695   100732   100738   100707   100653   100595   100541 
  100484   100427   100407   100434   100483   100534   100577   100588 
  100546   100483   100452   100460   100480   100503   100503   100464 
  100429   100427   100444   100471   100510   100533   100539   100533 
  100503   100480   100479   100481   100491   100496   100484   100489 
  100539   100610   100678   100714   100719   100734   100755   100784 
  100831   100863   100858   100828   100799   100782   100770   100745 
  100710   100687   100688   100701   100739   100804   100866   100890 
  100892   100892   100877   100839   100800   100776   100766   100774 
  100815   100873   100924   100969   101004   101004   100967   100909 
  100847   100818   100826   100834   100830   100824   100805   100781 
  100772   100769   100757   100741   100719   100684   100651   100647 
  100651   100641   100633   100626   100610   100604   100611   100607 
  100610   100630   100645   100661   100674   100678   100678   100674 
  100665   100645   100611   100588   100587   100612   100666   100718 
  100742   100755   100757   100764   100782   100778   100745   100697 
  100642   100616   100627   100635   100653   100687   100693   100666 
  100631   100600   100614   100687   100773   100830   100854   100836 
  100778   100715   100677   100660   100657   100668   100651   100612 
  100600   100614   100604   100570   100541   100519   100503   100498 
  100506   100521   100541   100576   100624   100653   100639   100603 
  100579   100570   100556   100534   100492   100426   100391   100415 
  100471   100538   100591   100593   100548   100476   100410   100361 
  100336   100336   100334   100327   100344   100383   100437   100491 
  100511   100502   100488   100469   100458   100481   100522   100534 
  100518   100514   100537   100588   100683   100777   100800   100769 
  100745   100738   100739   100738   100720   100692   100687   100711 
  100758   100811   100846   100855   100834   100776   100723   100697 
  100674   100658   100685   100730   100747   100738   100723   100714 
  100700   100696   100724   100753   100755   100753   100749   100743 
  100754   100773   100792   100807   100808   100803   100811   100832 
  100849   100838   100799   100764   100757   100784   100828   100862 
  100877   100858   100796   100731   100695   100689   100726   100782 
  100819   100828   100828   100831   100832   100838   100846   100832 
  100792   100749   100712   100685   100676   100688   100711   100719 
  100712   100711   100711   100701   100684   100657   100624   100591 
  100565   100560   100557   100550   100558   100564   100539   100502 
  100483   100488   100491   100481   100480   100480   100465   100446 
  100430   100415   100410   100417   100442   100510   100599   100657 
  100656   100611   100558   100522   100503   100491   100469   100437 
  100418   100423   100444   100475   100537   100612   100662   100683 
  100687   100662   100602   100548   100530   100538   100568   100603 
  100614   100616   100656   100728   100781   100780   100742   100700 
  100660   100620   100591   100570   100558   100553   100561   100583 
  100608   100634   100666   100683   100674   100656   100637   100638 
  100672   100716   100750   100772   100784   100796   100819   100840 
  100842   100816   100766   100692   100614   100560   100557   100588 
  100622   100650   100660   100650   100657   100677   100677   100669 
  100678   100711   100742   100743   100726   100697   100672   100666 
  100680   100707   100745   100785   100811   100801   100769   100734 
  100705   100691   100681   100674   100673   100665   100666   100699 
  100739   100764   100773   100772   100772   100788   100799   100796 
  100805   100828   100855   100881   100889   100885   100882   100878 
  100876   100876   100870   100857   100834   100811   100784   100746 
  100711   100691   100692   100703   100700   100680   100637   100576 
  100522   100489   100481   100483   100468   100438   100404   100367 
  100352   100360   100375   100427   100502   100527   100511   100492 
  100472   100438   100413   100408   100414   100408   100394   100373 
  100359   100361   100381   100406   100430   100461   100489   100504 
  100500   100483   100479   100499   100526   100548   100556   100558 
  100560   100562   100575   100607   100656   100704   100742   100750 
  100723   100683   100646   100630   100651   100704   100749   100774 
  100792   100799   100807   100823   100838   100846   100846   100827 
  100816   100827   100835   100839   100851   100863   100872   100876 
  100877   100874   100854   100818   100774   100739   100734   100757 
  100773   100772   100761   100753   100751   100750   100747   100745 
  100743   100757   100778   100781   100776   100778   100782   100766 
  100718   100669   100643   100627   100611   100599   100600   100599 
  100577   100560   100561   100566   100570   100575   100575   100564 
  100552   100533   100496   100457   100435   100425   100419   100429 
  100453   100481   100510   100525   100526   100529   100519   100502 
  100514   100539   100545   100546   100548   100538   100527   100530 
  100541   100538   100526   100534   100550   100560   100576   100597 
  100606   100608   100612   100624   100645   100654   100645   100645 
  100658   100664   100658   100661   100670   100688   100724   100764 
  100776   100776   100778   100776   100768   100755   100746   100754 
  100770   100786   100788   100766   100746   100754   100785   100822 
  100847   100867   100889   100900   100897   100896   100897   100890 
  100874   100863   100843   100809   100797   100812   100824   100823 
  100830   100845   100855   100858   100855   100849   100827   100805 
  100795   100784   100766   100754   100737   100712   100693   100681 
  100658   100623   100606   100619   100633   100634   100629   100626 
  100635   100658   100669   100643   100591   100538   100487   100450 
  100449   100465   100469   100471   100461   100421   100380   100365 
  100353   100338   100329   100310   100291   100294   100315   100336 
  100350   100367   100398   100438   100460   100460   100464   100457 
  100431   100415   100426   100442   100448   100454   100475   100496 
  100510   100511   100512   100526   100546   100557   100566   100589 
  100618   100637   100665   100696   100716   100737   100759   100762 
  100747   100732   100720   100714   100719   100735   100764   100797 
  100822   100832   100832   100832   100846   100851   100835   100812 
  100782   100751   100734   100727   100732   100749   100759   100758 
  100747   100727   100708   100701   100708   100712   100722   100755 
  100796   100826   100839   100845   100857   100882   100904   100904 
  100892   100877   100845   100803   100782   100786   100791   100795 
  100804   100797   100789   100805   100826   100835   100840   100826 
  100796   100777   100759   100737   100715   100696   100692   100688 
  100658   100633   100633   100631   100620   100615   100603   100585 
  100562   100550   100565   100588   100602   100612   100618   100611 
  100587   100548   100496   100454   100429   100404   100380   100368 
  100364   100359   100361   100363   100352   100336   100321   100307 
  100298   100306   100356   100426   100475   100484   100472   100472 
  100485   100503   100521   100512   100496   100511   100552   100595 
  100620   100624   100630   100626   100619   100637   100668   100695 
  100727   100776   100827   100870   100913   100957   100994   101036 
  101070   101079   101078   101071   101059   101051   101046   101034 
  101009   100981   100957   100938   100921   100911   100913   100924 
  100934   100938   100944   100957   100958   100926   100876   100828 
  100785   100746   100714   100693   100681   100668   100657   100638 
  100607   100565   100530   100507   100495   100481   100467   100446 
  100421   100398   100387   100377   100354   100318   100299   100307 
  100327   100349   100376   100406   100429   100442   100461   100496 
  100534   100554   100546   100530   100537   100548   100557   100577 
  100588   100583   100579   100580   100595   100615   100611   100585 
  100561   100549   100561   100593   100633   100677   100718   100741 
  100755   100768   100770   100769   100766   100747   100711   100699 
  100715   100727   100727   100722   100715   100708   100704   100712 
  100739   100774   100792   100789   100784   100766   100730   100701 
  100699   100708   100718   100716   100700   100689   100688   100693 
  100719   100753   100765   100757   100739   100724   100732   100750 
  100746   100747   100761   100762   100754   100739   100707   100668 
  100637   100608   100584   100580   100591   100608   100634   100646 
  100633   100600   100566   100553   100561   100561   100542   100521 
  100504   100495   100496   100511   100523   100529   100529   100512 
  100494   100492   100494   100479   100457   100441   100431   100430 
  100437   100454   100471   100480   100503   100537   100556   100564 
  100575   100584   100591   100599   100604   100607   100611   100614 
  100612   100616   100623   100630   100643   100669   100697   100723 
  100742   100751   100762   100778   100791   100805   100828   100846 
  100857   100876   100892   100896   100896   100897   100896   100894 
  100897   100899   100900   100900   100897   100903   100913   100924 
  100928   100909   100859   100805   100774   100770   100776   100770 
  100754   100737   100719   100693   100660   100611   100553   100507 
  100499   100518   100533   100541   100545   100542   100537   100535 
  100534   100521   100495   100472   100446   100418   100402   100402 
  100414   100426   100431   100445   100462   100476   100498   100521 
  100533   100541   100553   100570   100595   100616   100634   100643 
  100631   100623   100630   100642   100654   100668   100684   100704 
  100716   100707   100691   100681   100685   100697   100704   100701 
  100695   100680   100658   100635   100624   100622   100610   100597 
  100596   100604   100623   100634   100629   100622   100624   100642 
  100670   100687   100688   100688   100695   100704   100716   100734 
  100749   100757   100773   100795   100805   100805   100793   100777 
  100773   100778   100795   100818   100823   100818   100823   100838 
  100857   100877   100884   100876   100861   100838   100819   100809 
  100795   100772   100751   100739   100734   100742   100753   100746 
  100727   100712   100705   100707   100710   100701   100680   100657 
  100645   100645   100654   100664   100672   100681   100695   100699 
  100685   100660   100634   100610   100591   100569   100545   100529 
  100519   100514   100512   100518   100525   100525   100516   100512 
  100519   100534   100542   100535   100523   100510   100494   100475 
  100457   100444   100433   100425   100418   100419   100431   100442 
  100440   100427   100421   100435   100468   100494   100502   100504 
  100507   100519   100546   100569   100587   100618   100662   100705 
  100738   100754   100757   100753   100743   100742   100750   100747 
  100730   100707   100685   100670   100676   100704   100732   100747 
  100762   100766   100746   100712   100689   100685   100689   100681 
  100665   100647   100633   100631   100646   100658   100654   100642 
  100629   100627   100643   100676   100714   100735   100746   100757 
  100764   100761   100764   100766   100759   100746   100726   100693 
  100660   100637   100626   100622   100610   100587   100580   100602 
  100634   100660   100662   100651   100637   100623   100623   100630 
  100629   100622   100615   100606   100602   100599   100587   100581 
  100591   100600   100600   100604   100612   100618   100623   100634 
  100650   100677   100718   100753   100776   100792   100799   100799 
  100792   100770   100751   100745   100732   100720   100737   100765 
  100789   100813   100840   100869   100905   100953   100990   101005 
  101000   100982   100954   100936   100936   100932   100915   100893 
  100878   100873   100863   100842   100813   100781   100745   100720 
  100703   100676   100646   100619   100589   100553   100518   100494 
  100476   100458   100445   100435   100431   100429   100426   100418 
  100407   100406   100403   100392   100388   100402   100418   100433 
  100450   100458   100448   100430   100421   100425   100448   100488 
  100537   100585   100629   100658   100678   100696   100703   100699 
  100693   100680   100654   100643   100658   100688   100719   100749 
  100768   100769   100758   100737   100705   100684   100678   100668 
  100653   100641   100627   100619   100622   100627   100630   100635 
  100645   100649   100642   100629   100615   100606   100606   100612 
  100614   100593   100565   100542   100519   100503   100507   100523 
  100534   100537   100538   100533   100514   100485   100467   100469 
  100476   100479   100487   100495   100491   100488   100495   100503 
  100515   100533   100542   100538   100535   100542   100557   100568 
  100568   100568   100581   100603   100620   100631   100633   100630 
  100639   100660   100687   100715   100739   100758   100765   100753 
  100741   100747   100759   100778   100813   100850   100866   100874 
  100886   100897   100915   100936   100946   100939   100923   100908 
