Origin Time       2024/04/02 04:24:00
Lat.              40.133
Long.             141.712
Depth. (km)       71
Mag.              6.0
Station Code      SRCH07
Station Lat.      43.2300
Station Long.     141.8978
Station Height(m) -125
Record Time       2024/04/02 04:26:09
Sampling Freq(Hz) 100Hz
Duration Time(s)  120
Dir.              3
Scale Factor      2942(gal)/8224139
Max. Acc. (gal)   0.190
Last Correction   2024/04/02 04:26:09
Memo.             
[...]
   43780    43806    43811    43802    43794    43791    43780    43753 
   43704    43660    43665    43702    43714    43688    43661    43644 
   43602    43515    43434    43405    43433    43510    43595    43640 
   43629    43591    43578    43599    43637    43664    43665    43654 
   43641    43622    43600    43586    43586    43600    43638    43691 
   43722    43711    43665    43596    43532    43491    43467    43451 
   43460    43497    43530    43548    43560    43598    43672    43745 
   43776    43767    43737    43704    43679    43656    43626    43600 
   43602    43618    43599    43530    43453    43417    43436    43488 
   43537    43559    43560    43556    43552    43534    43492    43429 
   43370    43347    43362    43398    43445    43495    43548    43599 
   43649    43684    43676    43619    43551    43498    43482    43506 
   43545    43590    43654    43733    43787    43799    43777    43752 
   43735    43718    43681    43640    43611    43606    43633    43676 
   43696    43684    43663    43650    43644    43638    43642    43661 
   43687    43703    43714    43715    43702    43686    43681    43673 
   43637    43583    43545    43528    43513    43506    43522    43557 
   43595    43622    43641    43672    43723    43783    43834    43865 
   43860    43831    43811    43787    43730    43661    43603    43548 
   43511    43529    43587    43645    43700    43745    43756    43738 
   43718    43708    43704    43687    43654    43619    43609    43626 
   43641    43652    43679    43707    43714    43703    43684    43679 
   43692    43706    43717    43725    43725    43721    43725    43729 
   43703    43648    43594    43555    43517    43471    43428    43416 
   43428    43438    43465    43525    43571    43565    43556    43600 
   43675    43718    43717    43698    43688    43700    43719    43730 
   43734    43735    43733    43718    43707    43717    43723    43714 
   43707    43687    43637    43587    43567    43587    43633    43667 
   43667    43648    43637    43645    43657    43661    43661    43669 
   43710    43783    43854    43904    43935    43950    43949    43929 
   43888    43838    43798    43775    43776    43791    43787    43746 
   43690    43644    43610    43587    43588    43609    43609    43573 
   43538    43521    43511    43522    43564    43632    43714    43796 
   43853    43875    43866    43841    43804    43753    43676    43579 
   43488    43410    43339    43282    43249    43222    43182    43144 
   43129    43136    43164    43224    43309    43405    43507    43605 
   43679    43735    43777    43789    43769    43745    43730    43703 
   43652    43598    43564    43571    43607    43653    43691    43711 
   43713    43721    43749    43769    43768    43785    43837    43902 
   43954    43978    43970    43919    43826    43725    43654    43622 
   43605    43590    43594    43632    43679    43703    43713    43729 
   43726    43677    43613    43567    43532    43510    43502    43510 
   43534    43565    43598    43642    43679    43681    43680    43699 
   43707    43700    43691    43676    43657    43646    43656    43692 
   43744    43806    43864    43902    43924    43937    43927    43896 
   43862    43835    43811    43781    43741    43704    43676    43640 
   43588    43528    43470    43429    43406    43382    43347    43316 
   43309    43337    43394    43456    43501    43522    43529    43522 
   43511    43509    43532    43578    43625    43657    43683    43718 
   43758    43788    43798    43784    43749    43699    43659    43642 
   43626    43607    43602    43594    43548    43472    43397    43339 
   43318    43353    43437    43533    43599    43629    43640    43634 
   43615    43599    43600    43615    43633    43641    43641    43652 
   43692    43753    43807    43841    43846    43821    43779    43726 
   43664    43606    43564    43541    43538    43552    43573    43592 
   43595    43594    43602    43617    43638    43667    43691    43698 
   43690    43683    43703    43753    43796    43799    43769    43741 
   43721    43694    43661    43653    43675    43694    43676    43626 
   43571    43537    43536    43556    43572    43568    43557    43557 
   43571    43591    43605    43598    43580    43571    43572    43573 
   43569    43569    43606    43684    43772    43835    43864    43869 
   43873    43884    43883    43861    43822    43773    43734    43714 
   43721    43753    43781    43789    43787    43775    43750    43717 
   43687    43664    43648    43646    43653    43656    43652    43654 
   43665    43694    43742    43773    43761    43730    43694    43644 
   43591    43552    43530    43528    43542    43572    43622    43679 
   43721    43749    43787    43846    43900    43922    43912    43895 
   43866    43835    43821    43829    43857    43881    43866    43819 
   43779    43760    43754    43753    43756    43756    43740    43702 
   43645    43569    43488    43430    43402    43394    43409    43444 
   43488    43551    43625    43684    43718    43722    43710    43700 
   43686    43657    43640    43644    43652    43650    43626    43575 
   43528    43511    43507    43492    43471    43438    43409    43417 
   43457    43495    43532    43575    43610    43632    43644    43640 
   43611    43583    43580    43596    43583    43514    43428    43379 
   43363    43347    43313    43267    43218    43183    43175    43209 
   43286    43382    43461    43519    43579    43663    43761    43860 
   43942    43988    43989    43956    43902    43849    43816    43811 
   43838    43883    43930    43968    43976    43961    43939    43920 
   43896    43864    43819    43781    43771    43787    43799    43780 
   43734    43687    43656    43634    43607    43578    43559    43559 
   43584    43615    43629    43615    43598    43580    43540    43470 
   43382    43297    43229    43194    43197    43240    43317    43406 
   43486    43555    43595    43595    43571    43546    43533    43518 
   43506    43510    43529    43549    43559    43553    43541    43515 
   43472    43421    43384    43383    43409    43436    43470    43518 
   43571    43625    43683    43735    43764    43773    43776    43776 
   43775    43775    43775    43776    43775    43773    43764    43746 
   43729    43708    43671    43629    43606    43598    43596    43600 
   43611    43630    43667    43703    43717    43717    43731    43752 
   43760    43756    43745    43730    43722    43727    43731    43725 
   43700    43665    43641    43640    43649    43660    43671    43679 
   43677    43672    43676    43692    43725    43779    43838    43887 
   43912    43916    43915    43922    43920    43887    43811    43706 
   43595    43505    43444    43406    43390    43387    43386    43389 
   43413    43457    43502    43540    43567    43595    43644    43688 
   43708    43725    43756    43803    43853    43881    43868    43829 
   43796    43776    43756    43731    43710    43683    43650    43629 
   43613    43576    43522    43490    43492    43513    43532    43561 
   43610    43656    43675    43675    43661    43629    43569    43498 
   43436    43387    43360    43364    43384    43403    43421    43443 
   43476    43530    43595    43652    43690    43710    43722    43733 
   43744    43749    43738    43722    43713    43700    43677    43644 
   43606    43568    43537    43510    43483    43463    43467    43501 
   43548    43592    43629    43665    43699    43711    43699    43681 
   43691    43740    43789    43807    43802    43788    43768    43750 
   43742    43742    43740    43729    43714    43695    43672    43649 
   43629    43617    43613    43607    43587    43556    43526    43505 
   43499    43522    43556    43579    43582    43573    43576    43586 
   43586    43590    43613    43656    43715    43767    43799    43835 
   43873    43899    43902    43868    43799    43729    43673    43641 
   43626    43619    43619    43622    43630    43646    43663    43675 
   43704    43750    43785    43800    43799    43779    43749    43730 
   43731    43741    43757    43780    43802    43821    43837    43853 
   43858    43843    43815    43772    43711    43653    43622    43615 
   43609    43607    43640    43704    43784    43869    43949    44003 
   44020    43997    43945    43875    43796    43717    43640    43573 
   43514    43459    43433    43447    43463    43459    43445    43429 
   43418    43424    43445    43470    43472    43447    43411    43387 
   43379    43382    43402    43440    43471    43486    43507    43534 
   43556    43586    43626    43656    43660    43637    43609    43603 
   43610    43609    43588    43546    43501    43468    43456    43459 
   43482    43519    43540    43536    43540    43564    43592    43623 
   43654    43684    43713    43738    43775    43833    43896    43942 
   43964    43960    43923    43861    43788    43713    43645    43606 
   43586    43572    43572    43588    43600    43586    43533    43467 
   43420    43405    43422    43464    43513    43560    43609    43661 
   43714    43749    43767    43779    43780    43767    43742    43726 
   43722    43715    43702    43686    43664    43642    43629    43629 
   43636    43638    43633    43622    43615    43609    43592    43565 
   43541    43517    43492    43478    43483    43506    43541    43591 
   43650    43694    43704    43692    43672    43649    43618    43586 
   43565    43557    43559    43569    43603    43650    43699    43752 
   43800    43830    43839    43835    43834    43838    43831    43811 
   43794    43791    43808    43843    43885    43919    43934    43930 
   43923    43942    43981    44016    44037    44042    44035    44011 
   43973    43931    43881    43822    43764    43707    43642    43572 
   43513    43482    43480    43490    43492    43491    43490    43475 
   43451    43453    43492    43549    43599    43632    43650    43654 
   43636    43607    43580    43549    43514    43487    43460    43420 
   43375    43348    43341    43345    43347    43329    43297    43270 
   43264    43275    43294    43316    43329    43333    43347    43375 
   43407    43441    43486    43526    43544    43546    43545    43544 
   43534    43515    43494    43476    43464    43464    43476    43490 
   43494    43495    43498    43497    43487    43465    43440    43433 
   43455    43505    43575    43645    43700    43744    43780    43800 
   43798    43784    43780    43775    43753    43737    43745    43754 
   43748    43723    43695    43650    43588    43526    43471    43421 
   43387    43382    43410    43478    43571    43657    43718    43764 
   43789    43788    43765    43730    43675    43613    43578    43580 
   43606    43644    43692    43742    43781    43804    43814    43812 
   43807    43796    43776    43738    43684    43638    43621    43638 
   43680    43741    43799    43845    43893    43943    43980    43987 
   43968    43933    43897    43865    43841    43833    43827    43807 
   43773    43722    43657    43615    43619    43649    43684    43718 
   43746    43762    43764    43758    43761    43769    43781    43796 
   43812    43835    43873    43929    43999    44054    44072    44055 
   44018    43966    43904    43830    43757    43695    43632    43573 
   43538    43518    43505    43503    43519    43545    43579    43611 
   43634    43649    43664    43683    43703    43717    43718    43704 
   43680    43648    43610    43569    43544    43538    43542    43546 
   43545    43536    43529    43530    43534    43530    43506    43472 
   43457    43467    43472    43457    43443    43437    43434    43421 
   43393    43366    43359    43368    43379    43391    43413    43438 
   43464    43490    43530    43594    43667    43740    43807    43850 
   43852    43833    43810    43779    43741    43702    43660    43617 
   43582    43571    43592    43629    43664    43699    43738    43762 
   43764    43753    43742    43735    43730    43725    43725    43733 
   43749    43780    43815    43841    43856    43860    43849    43826 
   43794    43762    43738    43717    43702    43694    43690    43684 
   43684    43696    43710    43713    43710    43714    43733    43760 
   43781    43792    43796    43798    43798    43791    43768    43744 
   43742    43769    43804    43829    43833    43822    43804    43779 
   43753    43737    43718    43679    43627    43580    43541    43510 
   43490    43491    43509    43530    43542    43538    43518    43498 
   43491    43509    43544    43588    43633    43668    43694    43725 
   43767    43812    43860    43910    43945    43951    43935    43900 
   43841    43765    43694    43642    43611    43592    43575    43557 
   43540    43517    43479    43422    43360    43308    43276    43263 
   43263    43266    43275    43303    43349    43401    43448    43487 
   43517    43537    43552    43564    43567    43557    43548    43533 
   43509    43476    43449    43428    43411    43397    43390    43394 
   43410    43438    43479    43525    43559    43571    43573    43573 
   43572    43578    43584    43590    43595    43610    43626    43630 
   43622    43609    43596    43595    43598    43598    43614    43660 
   43726    43803    43885    43964    44024    44070    44115    44155 
   44176    44174    44163    44149    44128    44115    44107    44086 
   44053    44014    43970    43931    43887    43833    43780    43740 
   43696    43641    43588    43551    43518    43483    43449    43422 
   43403    43403    43421    43449    43479    43507    43532    43551 
   43556    43546    43533    43517    43494    43463    43426    43390 
   43362    43347    43345    43348    43352    43364    43383    43410 
   43447    43478    43492    43501    43514    43538    43569    43598 
   43617    43632    43648    43659    43659    43657    43661    43664 
   43657    43646    43637    43634    43636    43638    43637    43632 
   43629    43636    43641    43640    43632    43623    43626    43640 
   43663    43698    43735    43771    43808    43857    43911    43968 
   44010    44023    44016    44003    43985    43964    43946    43931 
   43914    43896    43870    43831    43789    43746    43700    43660 
   43626    43592    43571    43560    43551    43538    43528    43522 
   43522    43522    43511    43498    43490    43492    43499    43505 
   43505    43499    43491    43486    43487    43487    43476    43456 
   43437    43418    43399    43387    43383    43389    43409    43451 
   43506    43553    43583    43591    43580    43560    43542    43544 
   43559    43573    43586    43606    43641    43679    43718    43761 
   43798    43814    43819    43816    43808    43796    43780    43771 
   43765    43756    43745    43740    43731    43721    43710    43692 
   43672    43654    43646    43652    43667    43673    43673    43680 
   43694    43707    43719    43727    43726    43718    43706    43683 
   43652    43626    43613    43611    43618    43621    43609    43588 
   43573    43565    43563    43565    43569    43579    43590    43590 
   43580    43572    43560    43548    43546    43548    43541    43532 
   43530    43545    43565    43573    43572    43578    43587    43598 
   43617    43636    43644    43640    43632    43632    43636    43641 
   43645    43644    43644    43654    43677    43702    43723    43749 
   43779    43796    43792    43769    43741    43717    43695    43667 
   43642    43636    43641    43649    43654    43653    43644    43626 
   43603    43572    43540    43511    43478    43444    43425    43424 
   43436    43471    43528    43582    43625    43663    43694    43708 
   43717    43718    43706    43686    43668    43650    43629    43609 
   43598    43592    43594    43602    43611    43627    43645    43657 
   43669    43690    43706    43718    43735    43761    43780    43791 
   43800    43806    43800    43784    43756    43719    43687    43657 
   43630    43606    43591    43583    43573    43571    43579    43595 
   43614    43632    43644    43657    43671    43687    43714    43742 
   43761    43767    43771    43775    43773    43767    43768    43773 
   43768    43762    43753    43735    43713    43692    43669    43653 
   43648    43636    43610    43584    43569    43569    43584    43605 
   43630    43659    43686    43702    43702    43698    43699    43700 
   43687    43663    43636    43611    43600    43598    43598    43596 
   43591    43580    43567    43551    43538    43524    43501    43484 
   43479    43479    43484    43497    43522    43564    43609    43638 
   43650    43644    43622    43602    43582    43560    43537    43528 
   43536    43553    43571    43599    43633    43660    43681    43700 
   43710    43706    43696    43694    43696    43692    43681    43677 
   43679    43681    43681    43676    43667    43659    43645    43623 
   43596    43578    43568    43563    43563    43567    43571    43583 
   43607    43633    43652    43663    43664    43661    43660    43656 
   43649    43641    43621    43590    43557    43519    43476    43432 
   43394    43364    43348    43344    43341    43351    43382    43420 
   43448    43470    43486    43495    43505    43524    43546    43561 
   43571    43587    43602    43617    43634    43649    43656    43656 
   43648    43640    43634    43632    43630    43634    43646    43669 
   43695    43721    43748    43773    43800    43830    43856    43875 
   43885    43889    43892    43895    43897    43906    43915    43918 
   43918    43916    43904    43884    43862    43838    43810    43787 
   43773    43762    43742    43713    43683    43660    43636    43606 
   43576    43544    43513    43492    43484    43476    43468    43465 
   43475    43492    43518    43542    43560    43567    43563    43555 
   43541    43528    43528    43534    43533    43528    43528    43532 
   43542    43553    43553    43545    43536    43528    43525    43530 
   43545    43575    43614    43648    43676    43700    43718    43733 
   43745    43750    43752    43754    43762    43773    43780    43780 
   43773    43765    43761    43762    43765    43773    43785    43800 
   43807    43798    43787    43791    43812    43848    43889    43926 
   43946    43957    43965    43957    43922    43865    43807    43752 
   43694    43633    43588    43571    43556    43534    43507    43478 
   43463    43468    43483    43499    43514    43522    43521    43522 
   43536    43542    43536    43533    43530    43524    43515    43511 
   43521    43546    43573    43598    43619    43627    43619    43614 
   43617    43629    43653    43681    43711    43741    43767    43784 
   43792    43794    43796    43796    43784    43762    43741    43727 
   43723    43726    43737    43749    43762    43775    43789    43804 
   43815    43819    43814    43802    43789    43771    43748    43731 
   43727    43726    43722    43717    43707    43692    43665    43630 
   43592    43559    43533    43521    43518    43525    43536    43545 
   43546    43549    43557    43564    43575    43598    43622    43636 
