Origin Time       2024/04/02 04:24:00
Lat.              40.133
Long.             141.712
Depth. (km)       71
Mag.              6.0
Station Code      SRCH06
Station Lat.      43.6948
Station Long.     142.0776
Station Height(m) -67.3
Record Time       2024/04/02 04:26:15
Sampling Freq(Hz) 100Hz
Duration Time(s)  120
Dir.              3
Scale Factor      3923(gal)/8224838
Max. Acc. (gal)   0.168
Last Correction   2024/04/02 04:26:16
Memo.             
[...]
  -10073   -10084   -10087   -10087   -10085   -10081   -10083   -10087 
  -10092   -10098   -10098   -10100   -10104   -10100   -10099   -10100 
  -10092   -10081   -10069   -10052   -10037   -10034   -10030   -10027 
  -10029   -10035   -10045   -10053   -10060   -10076   -10095   -10112 
  -10131   -10147   -10161   -10180   -10197   -10215   -10235   -10250 
  -10260   -10270   -10278   -10287   -10295   -10303   -10312   -10322 
  -10332   -10346   -10355   -10363   -10376   -10384   -10386   -10397 
  -10411   -10417   -10431   -10451   -10462   -10473   -10489   -10503 
  -10507   -10508   -10509   -10507   -10497   -10486   -10481   -10482 
  -10477   -10469   -10462   -10455   -10446   -10431   -10419   -10405 
  -10388   -10373   -10361   -10349   -10336   -10328   -10323   -10320 
  -10319   -10318   -10318   -10318   -10319   -10318   -10309   -10305 
  -10305   -10307   -10307   -10307   -10308   -10312   -10314   -10314 
  -10316   -10323   -10328   -10332   -10334   -10331   -10330   -10332 
  -10334   -10338   -10341   -10335   -10334   -10330   -10318   -10309 
  -10305   -10299   -10289   -10284   -10280   -10276   -10273   -10270 
  -10266   -10257   -10249   -10242   -10242   -10247   -10251   -10255 
  -10265   -10274   -10285   -10297   -10304   -10307   -10312   -10316 
  -10314   -10315   -10316   -10314   -10311   -10311   -10309   -10304 
  -10295   -10287   -10278   -10262   -10250   -10245   -10239   -10234 
  -10233   -10234   -10241   -10247   -10251   -10262   -10277   -10285 
  -10292   -10303   -10315   -10328   -10331   -10331   -10335   -10335 
  -10332   -10336   -10341   -10342   -10353   -10359   -10357   -10357 
  -10357   -10349   -10342   -10334   -10324   -10316   -10311   -10304 
  -10297   -10292   -10285   -10278   -10274   -10272   -10269   -10268 
  -10265   -10264   -10262   -10257   -10251   -10246   -10241   -10241 
  -10241   -10228   -10216   -10214   -10212   -10212   -10219   -10218 
  -10215   -10212   -10207   -10200   -10193   -10193   -10193   -10187 
  -10183   -10187   -10188   -10184   -10188   -10199   -10207   -10215 
  -10226   -10238   -10247   -10261   -10276   -10282   -10293   -10301 
  -10303   -10309   -10314   -10309   -10307   -10307   -10304   -10305 
  -10308   -10307   -10304   -10300   -10297   -10295   -10296   -10300 
  -10304   -10309   -10311   -10309   -10316   -10318   -10315   -10322 
  -10331   -10338   -10345   -10346   -10345   -10339   -10334   -10324 
  -10312   -10303   -10299   -10289   -10280   -10273   -10261   -10246 
  -10237   -10219   -10204   -10191   -10176   -10162   -10147   -10134 
  -10123   -10111   -10102   -10098   -10088   -10080   -10079   -10084 
  -10092   -10098   -10096   -10093   -10096   -10099   -10104   -10110 
  -10119   -10130   -10134   -10141   -10153   -10164   -10177   -10192 
  -10200   -10204   -10211   -10220   -10231   -10243   -10257   -10268 
  -10281   -10296   -10304   -10311   -10323   -10331   -10334   -10343 
  -10351   -10355   -10362   -10369   -10366   -10365   -10368   -10368 
  -10368   -10373   -10378   -10380   -10380   -10377   -10373   -10376 
  -10381   -10380   -10374   -10368   -10359   -10354   -10349   -10342 
  -10335   -10326   -10308   -10292   -10280   -10269   -10266   -10269 
  -10269   -10272   -10276   -10272   -10266   -10260   -10246   -10237 
  -10233   -10228   -10220   -10210   -10200   -10193   -10188   -10185 
  -10185   -10188   -10196   -10203   -10200   -10192   -10189   -10192 
  -10200   -10215   -10227   -10238   -10247   -10250   -10250   -10255 
  -10264   -10277   -10293   -10309   -10322   -10322   -10320   -10328 
  -10338   -10345   -10354   -10358   -10358   -10354   -10347   -10346 
  -10343   -10334   -10324   -10314   -10301   -10289   -10284   -10280 
  -10273   -10268   -10265   -10261   -10258   -10255   -10249   -10239 
  -10230   -10218   -10208   -10200   -10192   -10188   -10188   -10189 
  -10187   -10179   -10176   -10174   -10179   -10188   -10192   -10192 
  -10189   -10184   -10183   -10184   -10184   -10184   -10184   -10185 
  -10189   -10199   -10210   -10218   -10224   -10230   -10241   -10253 
  -10264   -10277   -10289   -10299   -10305   -10311   -10318   -10326 
  -10335   -10345   -10355   -10368   -10380   -10390   -10397   -10405 
  -10416   -10423   -10428   -10432   -10432   -10435   -10439   -10439 
  -10444   -10450   -10454   -10461   -10465   -10463   -10463   -10458 
  -10449   -10443   -10440   -10434   -10424   -10419   -10416   -10409 
  -10399   -10395   -10392   -10388   -10386   -10386   -10386   -10388 
  -10382   -10378   -10374   -10365   -10357   -10346   -10331   -10320 
  -10305   -10287   -10272   -10257   -10243   -10235   -10228   -10222 
  -10212   -10203   -10195   -10189   -10188   -10187   -10181   -10180 
  -10187   -10189   -10188   -10187   -10187   -10181   -10177   -10179 
  -10180   -10181   -10184   -10188   -10196   -10204   -10208   -10219 
  -10231   -10242   -10250   -10258   -10269   -10278   -10291   -10303 
  -10309   -10320   -10331   -10336   -10343   -10349   -10349   -10350 
  -10351   -10350   -10347   -10347   -10346   -10343   -10334   -10324 
  -10316   -10308   -10301   -10295   -10288   -10282   -10276   -10269 
  -10266   -10265   -10262   -10264   -10266   -10264   -10260   -10261 
  -10260   -10249   -10241   -10238   -10228   -10219   -10220   -10226 
  -10227   -10227   -10231   -10233   -10227   -10219   -10215   -10211 
  -10204   -10199   -10195   -10184   -10173   -10166   -10158   -10150 
  -10146   -10139   -10133   -10133   -10133   -10134   -10134   -10131 
  -10134   -10141   -10145   -10150   -10153   -10164   -10170   -10170 
  -10180   -10191   -10193   -10199   -10210   -10218   -10224   -10230 
  -10239   -10250   -10257   -10264   -10268   -10277   -10291   -10293 
  -10295   -10301   -10308   -10316   -10319   -10316   -10316   -10316 
  -10305   -10293   -10282   -10269   -10257   -10246   -10231   -10216 
  -10208   -10203   -10197   -10193   -10189   -10187   -10189   -10192 
  -10197   -10201   -10200   -10196   -10196   -10196   -10196   -10197 
  -10199   -10199   -10199   -10197   -10199   -10201   -10204   -10208 
  -10216   -10215   -10208   -10208   -10208   -10210   -10211   -10210 
  -10204   -10197   -10195   -10197   -10200   -10203   -10207   -10210 
  -10218   -10226   -10230   -10237   -10251   -10264   -10269   -10273 
  -10278   -10284   -10289   -10297   -10308   -10318   -10322   -10327 
  -10335   -10336   -10341   -10350   -10354   -10351   -10351   -10354 
  -10354   -10351   -10355   -10357   -10357   -10362   -10363   -10359 
  -10359   -10358   -10354   -10349   -10343   -10339   -10332   -10327 
  -10324   -10314   -10299   -10288   -10277   -10268   -10255   -10241 
  -10231   -10222   -10211   -10207   -10203   -10196   -10191   -10193 
  -10201   -10206   -10210   -10218   -10223   -10228   -10237   -10250 
  -10262   -10274   -10292   -10311   -10326   -10339   -10346   -10349 
  -10355   -10366   -10374   -10380   -10385   -10384   -10384   -10390 
  -10400   -10413   -10424   -10432   -10439   -10447   -10454   -10459 
  -10465   -10470   -10473   -10474   -10477   -10481   -10481   -10478 
  -10470   -10462   -10457   -10451   -10443   -10435   -10427   -10419 
  -10413   -10409   -10408   -10405   -10399   -10395   -10395   -10397 
  -10396   -10397   -10400   -10400   -10400   -10397   -10396   -10397 
  -10397   -10395   -10393   -10388   -10382   -10380   -10380   -10380 
  -10381   -10381   -10381   -10381   -10376   -10370   -10369   -10358 
  -10346   -10341   -10326   -10311   -10300   -10292   -10291   -10288 
  -10281   -10276   -10270   -10265   -10261   -10257   -10253   -10243 
  -10233   -10230   -10230   -10231   -10231   -10227   -10219   -10208 
  -10201   -10200   -10203   -10206   -10204   -10200   -10199   -10200 
  -10203   -10208   -10214   -10208   -10197   -10191   -10184   -10177 
  -10172   -10160   -10143   -10133   -10123   -10116   -10114   -10115 
  -10111   -10102   -10099   -10099   -10096   -10098   -10104   -10107 
  -10107   -10114   -10120   -10129   -10139   -10152   -10161   -10168 
  -10168   -10169   -10180   -10195   -10211   -10226   -10237   -10241 
  -10243   -10251   -10270   -10288   -10299   -10305   -10311   -10305 
  -10303   -10314   -10316   -10311   -10311   -10311   -10303   -10296 
  -10295   -10291   -10282   -10276   -10273   -10270   -10266   -10268 
  -10270   -10273   -10276   -10277   -10274   -10270   -10272   -10280 
  -10281   -10281   -10284   -10287   -10288   -10291   -10297   -10305 
  -10311   -10316   -10319   -10316   -10316   -10315   -10315   -10318 
  -10316   -10312   -10312   -10309   -10300   -10295   -10291   -10284 
  -10276   -10273   -10270   -10262   -10253   -10249   -10246   -10238 
  -10231   -10224   -10219   -10220   -10220   -10219   -10215   -10214 
  -10218   -10222   -10227   -10237   -10245   -10251   -10260   -10264 
  -10265   -10276   -10291   -10299   -10304   -10312   -10315   -10316 
  -10320   -10324   -10324   -10326   -10323   -10319   -10316   -10315 
  -10315   -10314   -10309   -10305   -10301   -10297   -10289   -10284 
  -10281   -10274   -10273   -10274   -10269   -10264   -10264   -10258 
  -10255   -10258   -10255   -10253   -10255   -10253   -10251   -10258 
  -10264   -10270   -10276   -10274   -10276   -10278   -10276   -10268 
  -10261   -10258   -10250   -10241   -10239   -10234   -10226   -10219 
  -10215   -10212   -10207   -10199   -10195   -10192   -10185   -10183 
  -10183   -10181   -10180   -10176   -10173   -10169   -10166   -10165 
  -10158   -10152   -10152   -10153   -10150   -10149   -10152   -10156 
  -10160   -10164   -10172   -10177   -10188   -10200   -10211   -10223 
  -10234   -10245   -10257   -10269   -10281   -10297   -10311   -10320 
  -10331   -10342   -10351   -10359   -10368   -10376   -10388   -10397 
  -10400   -10401   -10403   -10407   -10412   -10415   -10419   -10417 
  -10415   -10416   -10415   -10413   -10411   -10408   -10403   -10395 
  -10388   -10382   -10369   -10351   -10341   -10331   -10319   -10305 
  -10289   -10278   -10268   -10254   -10243   -10235   -10226   -10216 
  -10206   -10203   -10206   -10206   -10204   -10207   -10210   -10210 
  -10215   -10224   -10234   -10237   -10239   -10242   -10241   -10235 
  -10233   -10235   -10239   -10241   -10241   -10242   -10242   -10239 
  -10241   -10241   -10241   -10238   -10234   -10233   -10228   -10227 
  -10230   -10230   -10228   -10223   -10214   -10210   -10204   -10196 
  -10197   -10201   -10195   -10192   -10196   -10196   -10199   -10204 
  -10203   -10206   -10208   -10208   -10216   -10224   -10231   -10242 
  -10250   -10254   -10261   -10269   -10276   -10284   -10299   -10309 
  -10318   -10330   -10342   -10354   -10368   -10380   -10389   -10397 
  -10409   -10419   -10424   -10432   -10438   -10443   -10455   -10463 
  -10470   -10486   -10494   -10496   -10505   -10515   -10521   -10530 
  -10534   -10538   -10542   -10546   -10546   -10546   -10546   -10546 
  -10544   -10538   -10528   -10524   -10517   -10508   -10500   -10489 
  -10476   -10470   -10465   -10453   -10440   -10428   -10417   -10409 
  -10395   -10380   -10368   -10355   -10342   -10326   -10311   -10293 
  -10277   -10262   -10250   -10235   -10219   -10204   -10192   -10177 
  -10162   -10149   -10135   -10123   -10111   -10100   -10098   -10092 
  -10080   -10072   -10071   -10065   -10062   -10060   -10056   -10057 
  -10064   -10065   -10062   -10065   -10068   -10066   -10064   -10064 
  -10062   -10062   -10061   -10058   -10058   -10058   -10058   -10062 
  -10068   -10069   -10076   -10088   -10099   -10108   -10118   -10127 
  -10134   -10141   -10154   -10164   -10172   -10187   -10197   -10204 
  -10216   -10227   -10239   -10251   -10264   -10274   -10284   -10293 
  -10301   -10309   -10320   -10326   -10324   -10326   -10330   -10334 
  -10331   -10331   -10336   -10335   -10331   -10331   -10331   -10331 
  -10331   -10331   -10327   -10322   -10316   -10315   -10312   -10307 
  -10301   -10299   -10295   -10289   -10284   -10276   -10265   -10258 
  -10254   -10245   -10235   -10230   -10226   -10219   -10215   -10212 
  -10210   -10200   -10192   -10189   -10187   -10180   -10176   -10173 
  -10168   -10165   -10165   -10164   -10165   -10168   -10170   -10174 
  -10177   -10177   -10179   -10184   -10185   -10189   -10196   -10204 
  -10210   -10219   -10230   -10239   -10247   -10258   -10266   -10272 
  -10280   -10285   -10289   -10296   -10304   -10314   -10322   -10332 
  -10345   -10355   -10363   -10369   -10369   -10373   -10378   -10377 
  -10376   -10374   -10370   -10370   -10374   -10374   -10376   -10377 
  -10373   -10368   -10368   -10366   -10358   -10354   -10350   -10343 
  -10342   -10342   -10335   -10332   -10335   -10335   -10336   -10346 
  -10354   -10358   -10365   -10376   -10385   -10395   -10404   -10413 
  -10423   -10427   -10434   -10442   -10446   -10457   -10467   -10471 
  -10481   -10492   -10498   -10508   -10520   -10528   -10532   -10534 
  -10532   -10534   -10531   -10528   -10527   -10525   -10523   -10519 
  -10513   -10508   -10505   -10498   -10493   -10488   -10476   -10463 
  -10451   -10440   -10426   -10405   -10389   -10373   -10353   -10335 
  -10320   -10301   -10282   -10266   -10243   -10216   -10196   -10176 
  -10149   -10125   -10100   -10075   -10054   -10035   -10018    -9999 
   -9981    -9972    -9964    -9953    -9946    -9942    -9941    -9937 
   -9933    -9927    -9922    -9923    -9925    -9925    -9927    -9929 
   -9929    -9931    -9936    -9941    -9944    -9944    -9949    -9953 
   -9958    -9969    -9981    -9991    -9998   -10004   -10012   -10021 
  -10030   -10044   -10050   -10057   -10069   -10076   -10080   -10089 
  -10099   -10107   -10115   -10125   -10131   -10138   -10145   -10153 
  -10158   -10158   -10156   -10161   -10168   -10170   -10174   -10181 
  -10187   -10195   -10203   -10211   -10220   -10230   -10242   -10251 
  -10258   -10270   -10284   -10296   -10307   -10315   -10323   -10335 
  -10349   -10357   -10363   -10373   -10385   -10396   -10411   -10428 
  -10443   -10457   -10467   -10478   -10494   -10508   -10517   -10530 
  -10542   -10554   -10566   -10571   -10581   -10593   -10598   -10600 
  -10604   -10608   -10606   -10602   -10596   -10589   -10582   -10577 
  -10573   -10567   -10561   -10554   -10544   -10530   -10519   -10511 
  -10501   -10492   -10484   -10471   -10461   -10454   -10446   -10435 
  -10428   -10423   -10416   -10408   -10401   -10396   -10390   -10381 
  -10374   -10370   -10366   -10361   -10359   -10363   -10361   -10358 
  -10361   -10361   -10357   -10359   -10361   -10357   -10354   -10353 
  -10349   -10350   -10354   -10350   -10347   -10349   -10343   -10342 
  -10345   -10346   -10346   -10349   -10347   -10345   -10343   -10338 
  -10334   -10334   -10324   -10312   -10307   -10297   -10285   -10274 
  -10264   -10253   -10242   -10234   -10228   -10222   -10210   -10203 
  -10200   -10189   -10177   -10172   -10164   -10150   -10141   -10134 
  -10125   -10118   -10111   -10103   -10095   -10088   -10079   -10069 
  -10062   -10054   -10049   -10045   -10039   -10034   -10030   -10026 
  -10030   -10035   -10031   -10034   -10044   -10048   -10053   -10060 
  -10065   -10073   -10083   -10091   -10102   -10112   -10123   -10137 
  -10150   -10162   -10177   -10192   -10204   -10222   -10239   -10249 
  -10264   -10281   -10289   -10296   -10308   -10318   -10320   -10326 
  -10332   -10336   -10339   -10341   -10345   -10346   -10346   -10346 
  -10345   -10345   -10343   -10341   -10338   -10336   -10335   -10334 
  -10332   -10332   -10334   -10336   -10342   -10346   -10347   -10347 
  -10349   -10343   -10336   -10334   -10335   -10335   -10332   -10326 
  -10323   -10326   -10330   -10331   -10331   -10331   -10332   -10334 
  -10335   -10331   -10332   -10334   -10332   -10332   -10331   -10326 
  -10327   -10330   -10330   -10330   -10327   -10324   -10330   -10335 
  -10336   -10339   -10341   -10339   -10338   -10338   -10338   -10335 
  -10332   -10334   -10334   -10330   -10327   -10322   -10316   -10314 
  -10308   -10297   -10289   -10282   -10272   -10262   -10253   -10242 
  -10237   -10228   -10215   -10208   -10199   -10187   -10181   -10173 
  -10162   -10152   -10142   -10138   -10137   -10134   -10133   -10131 
  -10129   -10125   -10125   -10125   -10125   -10127   -10133   -10135 
  -10134   -10137   -10142   -10149   -10156   -10161   -10164   -10165 
  -10172   -10179   -10176   -10177   -10180   -10184   -10189   -10191 
  -10195   -10200   -10200   -10203   -10207   -10208   -10212   -10218 
  -10222   -10226   -10233   -10237   -10241   -10246   -10249   -10250 
  -10255   -10260   -10261   -10265   -10272   -10280   -10288   -10295 
  -10300   -10305   -10308   -10312   -10315   -10315   -10318   -10320 
  -10320   -10320   -10322   -10319   -10315   -10316   -10312   -10303 
  -10301   -10297   -10289   -10284   -10281   -10273   -10265   -10264 
  -10258   -10249   -10242   -10235   -10227   -10224   -10226   -10228 
  -10230   -10224   -10222   -10223   -10224   -10223   -10220   -10220 
  -10222   -10222   -10224   -10226   -10226   -10231   -10239   -10241 
  -10243   -10247   -10247   -10251   -10260   -10260   -10255   -10255 
  -10258   -10258   -10258   -10261   -10261   -10262   -10269   -10270 
  -10273   -10276   -10273   -10278   -10288   -10292   -10296   -10304 
  -10312   -10319   -10328   -10338   -10346   -10353   -10358   -10368 
  -10380   -10386   -10392   -10399   -10403   -10403   -10404   -10412 
  -10423   -10424   -10424   -10428   -10431   -10430   -10428   -10426 
  -10428   -10432   -10431   -10424   -10417   -10411   -10407   -10399 
  -10395   -10392   -10385   -10380   -10377   -10369   -10365   -10366 
  -10361   -10354   -10354   -10353   -10349   -10346   -10345   -10347 
  -10350   -10350   -10347   -10345   -10345   -10346   -10351   -10353 
  -10354   -10358   -10359   -10354   -10349   -10349   -10354   -10355 
  -10350   -10350   -10355   -10355   -10347   -10342   -10341   -10338 
  -10335   -10334   -10327   -10324   -10322   -10319   -10320   -10318 
  -10312   -10308   -10305   -10299   -10296   -10296   -10295   -10292 
  -10291   -10287   -10281   -10280   -10281   -10278   -10276   -10274 
  -10270   -10262   -10258   -10255   -10246   -10235   -10230   -10230 
  -10222   -10214   -10208   -10204   -10201   -10197   -10197   -10197 
  -10191   -10188   -10193   -10191   -10185   -10185   -10185   -10184 
  -10183   -10177   -10173   -10170   -10170   -10169   -10166   -10162 
  -10164   -10164   -10164   -10164   -10168   -10172   -10173   -10180 
  -10188   -10192   -10195   -10201   -10206   -10208   -10212   -10220 
  -10226   -10231   -10243   -10251   -10255   -10266   -10276   -10282 
  -10288   -10293   -10300   -10308   -10308   -10304   -10308   -10315 
  -10319   -10324   -10331   -10335   -10339   -10343   -10346   -10349 
  -10351   -10353   -10350   -10342   -10342   -10342   -10339   -10339 
  -10338   -10336   -10338   -10336   -10334   -10339   -10345   -10343 
  -10345   -10347   -10350   -10346   -10343   -10345   -10342   -10335 
  -10331   -10330   -10324   -10323   -10323   -10318   -10307   -10301 
  -10295   -10287   -10277   -10269   -10262   -10250   -10242   -10238 
