Origin Time       2024/04/02 04:24:00
Lat.              40.133
Long.             141.712
Depth. (km)       71
Mag.              6.0
Station Code      SRCH06
Station Lat.      43.6948
Station Long.     142.0776
Station Height(m) -67.3
Record Time       2024/04/02 04:26:15
Sampling Freq(Hz) 100Hz
Duration Time(s)  120
Dir.              2
Scale Factor      3923(gal)/8224838
Max. Acc. (gal)   0.174
Last Correction   2024/04/02 04:26:16
Memo.             
[...]
   14273    14256    14230    14199    14169    14141    14116    14095 
   14081    14076    14076    14079    14091    14106    14116    14127 
   14126    14116    14104    14088    14067    14050    14041    14035 
   14038    14048    14065    14083    14096    14108    14114    14112 
   14108    14103    14102    14108    14123    14141    14162    14187 
   14206    14216    14219    14215    14204    14188    14169    14149 
   14135    14127    14123    14119    14119    14125    14133    14142 
   14157    14169    14172    14173    14179    14180    14179    14181 
   14189    14197    14206    14216    14230    14242    14260    14277 
   14288    14295    14301    14307    14307    14310    14315    14318 
   14318    14318    14319    14318    14312    14301    14281    14251 
   14216    14180    14146    14118    14099    14081    14067    14057 
   14050    14048    14049    14053    14062    14079    14103    14131 
   14162    14193    14220    14238    14243    14249    14254    14257 
   14266    14276    14283    14289    14291    14277    14254    14231 
   14206    14172    14142    14118    14094    14069    14048    14030 
   14019    14022    14033    14046    14064    14081    14096    14106 
   14111    14112    14115    14121    14126    14131    14135    14137 
   14139    14148    14157    14165    14176    14187    14196    14207 
   14216    14224    14235    14247    14257    14264    14268    14269 
   14265    14253    14238    14222    14200    14179    14162    14146 
   14133    14126    14121    14119    14129    14148    14166    14185 
   14204    14218    14224    14223    14215    14202    14188    14179 
   14175    14179    14185    14199    14218    14234    14246    14254 
   14251    14238    14220    14203    14185    14169    14161    14154 
   14149    14149    14153    14152    14153    14158    14160    14156 
   14148    14130    14112    14095    14076    14068    14062    14054 
   14053    14057    14053    14045    14038    14023    14003    13986 
   13975    13971    13981    14003    14029    14062    14103    14141 
   14180    14212    14230    14241    14245    14237    14218    14196 
   14181    14176    14170    14168    14170    14169    14161    14149 
   14138    14129    14111    14099    14096    14091    14088    14099 
   14116    14134    14154    14180    14208    14234    14257    14281 
   14299    14308    14314    14315    14315    14314    14311    14315 
   14330    14345    14358    14372    14381    14391    14395    14393 
   14389    14385    14374    14366    14364    14355    14347    14339 
   14327    14318    14311    14303    14292    14277    14264    14251 
   14237    14223    14212    14202    14196    14197    14197    14196 
   14196    14204    14215    14216    14210    14197    14176    14139 
   14100    14058    14011    13975    13944    13915    13900    13895 
   13896    13906    13914    13926    13944    13956    13975    14003 
   14025    14042    14060    14069    14073    14072    14068    14067 
   14057    14049    14045    14041    14040    14038    14038    14044 
   14052    14068    14092    14122    14157    14191    14219    14242 
   14258    14266    14269    14270    14268    14265    14258    14243 
   14231    14223    14214    14206    14202    14196    14191    14189 
   14192    14199    14214    14235    14256    14276    14288    14293 
   14295    14288    14276    14262    14245    14229    14215    14202 
   14187    14179    14176    14175    14179    14189    14203    14212 
   14223    14235    14243    14253    14261    14260    14260    14261 
   14258    14253    14246    14237    14231    14227    14222    14216 
   14212    14204    14188    14170    14153    14127    14103    14080 
   14056    14038    14022    14010    14008    14010    14014    14026 
   14045    14067    14085    14103    14114    14119    14121    14115 
   14106    14089    14069    14053    14038    14025    14015    14006 
   13994    13988    13987    13987    13992    13995    14000    14013 
   14021    14027    14046    14065    14079    14091    14102    14108 
   14118    14123    14121    14116    14114    14112    14110    14114 
   14122    14137    14162    14192    14222    14256    14284    14300 
   14314    14319    14310    14295    14280    14266    14262    14258 
   14256    14261    14274    14285    14293    14301    14310    14307 
   14300    14288    14268    14243    14219    14196    14179    14168 
   14164    14172    14188    14208    14234    14264    14292    14314 
   14331    14342    14347    14353    14359    14362    14370    14380 
   14381    14378    14373    14358    14334    14295    14249    14202 
   14152    14108    14075    14045    14029    14030    14033    14035 
   14049    14067    14081    14099    14118    14126    14130    14138 
   14139    14137    14133    14130    14127    14127    14122    14111 
   14102    14092    14077    14058    14044    14031    14022    14018 
   14017    14013    14013    14014    14014    14015    14017    14025 
   14037    14048    14065    14084    14107    14134    14160    14187 
   14218    14249    14280    14307    14331    14357    14376    14391 
   14400    14400    14391    14372    14346    14320    14293    14269 
   14247    14235    14234    14237    14243    14256    14264    14273 
   14283    14283    14276    14273    14270    14272    14276    14284 
   14292    14296    14299    14300    14303    14305    14307    14312 
   14327    14343    14359    14385    14411    14428    14443    14453 
   14455    14453    14434    14405    14376    14341    14300    14265 
   14233    14202    14180    14169    14169    14177    14193    14222 
   14250    14284    14320    14346    14370    14393    14411    14427 
   14445    14459    14469    14474    14467    14451    14426    14388 
   14342    14297    14253    14211    14175    14145    14125    14111 
   14100    14095    14095    14098    14098    14095    14091    14081 
   14065    14048    14030    14011    13991    13971    13956    13942 
   13926    13919    13917    13914    13915    13918    13922    13926 
   13925    13922    13918    13909    13899    13894    13887    13882 
   13883    13888    13898    13913    13927    13946    13969    13984 
   13991    13994    13990    13984    13976    13963    13953    13949 
   13946    13945    13949    13957    13965    13973    13983    13988 
   13991    13991    13987    13983    13977    13969    13961    13961 
   13963    13971    13987    14004    14022    14037    14050    14064 
   14073    14077    14085    14096    14112    14135    14160    14184 
   14214    14245    14270    14292    14308    14322    14331    14330 
   14327    14327    14320    14316    14315    14304    14295    14288 
   14277    14269    14265    14262    14258    14247    14237    14224 
   14207    14196    14192    14189    14195    14207    14220    14235 
   14246    14262    14277    14284    14288    14288    14284    14281 
   14273    14266    14269    14274    14280    14292    14305    14316 
   14328    14335    14332    14328    14320    14310    14296    14278 
   14261    14246    14234    14226    14219    14215    14214    14208 
   14196    14179    14153    14121    14088    14058    14035    14025 
   14022    14026    14041    14058    14079    14098    14115    14138 
   14158    14169    14180    14188    14183    14177    14176    14173 
   14175    14176    14177    14179    14179    14173    14162    14146 
   14131    14118    14103    14092    14080    14065    14052    14042 
   14038    14038    14045    14064    14083    14098    14114    14122 
   14122    14119    14112    14102    14094    14094    14098    14110 
   14130    14153    14185    14219    14256    14295    14327    14350 
   14365    14374    14377    14374    14368    14361    14349    14330 
   14315    14301    14285    14272    14264    14254    14247    14243 
   14239    14241    14243    14246    14247    14250    14251    14250 
   14250    14251    14247    14241    14234    14227    14218    14211 
   14204    14197    14191    14181    14176    14172    14162    14152 
   14146    14137    14123    14108    14099    14092    14085    14083 
   14081    14076    14072    14067    14060    14060    14061    14065 
   14077    14089    14102    14118    14134    14146    14154    14160 
   14169    14177    14184    14193    14206    14215    14222    14226 
   14230    14237    14247    14260    14274    14292    14310    14322 
   14330    14337    14339    14337    14337    14339    14342    14346 
   14347    14347    14345    14341    14332    14323    14314    14303 
   14292    14280    14269    14258    14239    14220    14206    14185 
   14169    14154    14141    14133    14134    14138    14139    14145 
   14152    14156    14160    14164    14165    14169    14173    14170 
   14168    14169    14165    14162    14162    14161    14158    14160 
   14164    14169    14176    14185    14195    14202    14206    14211 
   14219    14223    14227    14231    14237    14235    14230    14224 
   14216    14207    14193    14181    14172    14158    14145    14138 
   14133    14129    14127    14134    14149    14161    14175    14195 
   14211    14226    14238    14247    14257    14266    14274    14281 
   14288    14292    14287    14274    14264    14250    14229    14204 
   14183    14158    14130    14104    14076    14044    14019    14002 
   13984    13973    13971    13971    13973    13977    13975    13969 
   13971    13967    13965    13971    13977    13984    13996    14011 
   14025    14037    14050    14064    14079    14092    14107    14121 
   14130    14139    14153    14166    14172    14177    14189    14199 
   14199    14202    14204    14207    14211    14211    14211    14216 
   14223    14231    14241    14253    14265    14274    14287    14297 
   14303    14310    14318    14323    14331    14345    14361    14376 
   14386    14392    14397    14399    14388    14370    14350    14324 
   14296    14265    14235    14211    14193    14180    14170    14161 
   14148    14137    14126    14110    14092    14076    14060    14049 
   14045    14044    14048    14052    14053    14053    14054    14057 
   14062    14069    14080    14091    14100    14112    14127    14142 
   14160    14175    14192    14210    14227    14242    14249    14250 
   14246    14239    14230    14216    14203    14195    14189    14179 
   14165    14156    14149    14141    14133    14126    14119    14119 
   14126    14135    14150    14170    14188    14204    14219    14233 
   14245    14250    14251    14260    14268    14272    14273    14272 
   14269    14264    14254    14242    14229    14212    14196    14173 
   14146    14121    14094    14067    14042    14017    13994    13976 
   13964    13957    13959    13967    13979    13995    14013    14027 
   14038    14045    14050    14054    14050    14046    14045    14044 
   14040    14031    14023    14017    14006    13991    13975    13956 
   13940    13932    13932    13937    13945    13959    13977    13994 
   14008    14023    14040    14054    14067    14081    14095    14108 
   14123    14135    14150    14170    14187    14200    14218    14229 
   14235    14243    14250    14254    14256    14256    14258    14258 
   14256    14247    14239    14230    14223    14219    14218    14219 
   14219    14212    14203    14193    14185    14180    14172    14164 
   14166    14173    14175    14176    14181    14183    14185    14192 
   14196    14197    14203    14212    14218    14223    14233    14243 
   14256    14274    14293    14307    14319    14326    14324    14319 
   14312    14299    14288    14280    14266    14254    14245    14234 
   14219    14211    14204    14196    14185    14179    14175    14170 
   14170    14170    14169    14166    14162    14154    14150    14150 
   14152    14157    14165    14172    14179    14187    14195    14199 
   14207    14215    14219    14231    14249    14268    14283    14296 
   14310    14318    14319    14319    14315    14304    14291    14280 
   14274    14273    14265    14262    14262    14246    14226    14216 
   14200    14180    14170    14169    14164    14161    14164    14169 
   14176    14191    14207    14222    14243    14262    14278    14299 
   14315    14328    14341    14345    14339    14338    14334    14327 
   14324    14315    14304    14301    14297    14287    14277    14272 
   14265    14257    14254    14257    14264    14273    14285    14300 
   14312    14316    14319    14323    14320    14314    14308    14301 
   14296    14289    14276    14264    14250    14234    14220    14206 
   14193    14188    14181    14180    14180    14173    14162    14153 
   14149    14141    14134    14138    14142    14146    14165    14184 
   14197    14218    14235    14253    14272    14280    14288    14295 
   14291    14285    14277    14266    14260    14247    14230    14215 
   14196    14173    14152    14125    14102    14084    14069    14064 
   14064    14062    14067    14075    14079    14081    14084    14087 
   14089    14098    14111    14125    14143    14162    14177    14193 
   14214    14227    14235    14243    14242    14233    14222    14206 
   14181    14150    14118    14083    14046    14013    13981    13952 
   13927    13905    13880    13859    13840    13825    13815    13811 
   13811    13817    13824    13830    13840    13851    13859    13864 
   13873    13882    13884    13887    13890    13894    13906    13922 
   13944    13968    13992    14018    14044    14061    14071    14079 
   14085    14089    14089    14089    14095    14102    14106    14114 
   14126    14137    14143    14149    14156    14157    14156    14160 
   14164    14166    14175    14192    14208    14224    14242    14260 
   14272    14278    14283    14281    14280    14277    14273    14265 
   14261    14257    14251    14245    14246    14250    14253    14260 
   14268    14273    14276    14277    14280    14284    14287    14287 
   14289    14295    14300    14303    14305    14307    14297    14285 
   14266    14241    14218    14195    14172    14160    14153    14153 
   14161    14175    14192    14210    14227    14249    14264    14273 
   14280    14281    14281    14285    14288    14289    14293    14299 
   14305    14311    14320    14334    14342    14343    14351    14359 
   14359    14361    14361    14350    14337    14324    14305    14285 
   14268    14247    14230    14218    14197    14183    14177    14166 
   14157    14158    14161    14165    14177    14189    14195    14196 
   14196    14193    14184    14173    14161    14148    14137    14126 
   14114    14100    14088    14083    14077    14071    14065    14060 
   14054    14048    14041    14040    14038    14033    14031    14027 
   14017    14008    14000    13990    13979    13965    13950    13941 
   13932    13921    13914    13909    13907    13915    13929    13940 
   13953    13969    13980    13987    13992    13996    14004    14014 
   14018    14031    14042    14042    14046    14050    14046    14046 
   14046    14045    14046    14052    14057    14067    14081    14099 
   14112    14131    14154    14175    14193    14215    14233    14249 
   14266    14277    14287    14297    14303    14304    14301    14299 
   14297    14289    14278    14270    14262    14250    14238    14231 
   14226    14223    14229    14235    14241    14245    14254    14265 
   14274    14284    14296    14312    14327    14339    14349    14359 
   14369    14374    14376    14376    14374    14368    14361    14351 
   14338    14324    14310    14296    14287    14278    14270    14265 
   14260    14253    14249    14242    14237    14234    14230    14233 
   14241    14250    14258    14269    14274    14276    14280    14284 
   14291    14301    14318    14339    14366    14388    14407    14423 
   14436    14446    14443    14435    14430    14413    14391    14372 
   14354    14335    14322    14311    14305    14303    14303    14305 
   14305    14301    14296    14292    14285    14272    14254    14237 
   14215    14192    14166    14146    14131    14112    14096    14087 
   14080    14072    14068    14069    14077    14084    14092    14106 
   14118    14123    14130    14137    14142    14152    14160    14157 
   14157    14158    14152    14145    14139    14126    14110    14092 
   14077    14064    14052    14044    14038    14033    14034    14037 
   14035    14030    14027    14026    14021    14019    14019    14017 
   14017    14017    14017    14022    14029    14034    14048    14060 
   14062    14072    14085    14091    14092    14099    14108    14116 
   14129    14141    14149    14161    14177    14188    14200    14210 
   14216    14220    14224    14224    14226    14224    14222    14223 
   14226    14224    14227    14234    14238    14242    14243    14249 
   14258    14265    14264    14261    14258    14251    14246    14242 
   14239    14237    14238    14242    14243    14239    14242    14243 
   14238    14237    14238    14237    14238    14238    14233    14226 
   14219    14207    14195    14181    14165    14152    14139    14123 
   14107    14091    14075    14058    14044    14029    14017    14010 
   14006    14002    14004    14013    14017    14021    14027    14030 
   14030    14034    14041    14045    14048    14056    14058    14061 
   14069    14075    14077    14088    14102    14111    14121    14131 
   14137    14146    14153    14156    14162    14166    14169    14180 
   14192    14204    14215    14230    14245    14254    14260    14264 
   14264    14258    14249    14242    14234    14219    14212    14207 
   14193    14181    14169    14152    14137    14127    14114    14104 
   14102    14102    14107    14121    14134    14152    14168    14184 
   14200    14208    14216    14222    14222    14226    14227    14226 
   14226    14229    14231    14230    14231    14234    14231    14223 
   14218    14216    14214    14208    14202    14195    14189    14183 
   14172    14165    14160    14150    14143    14137    14129    14121 
   14107    14096    14088    14077    14064    14052    14038    14027 
   14018    14010    14003    13994    13980    13971    13964    13960 
   13960    13963    13964    13963    13969    13980    13986    13991 
   14003    14019    14029    14038    14052    14060    14064    14071 
   14073    14076    14079    14076    14077    14084    14085    14087 
   14094    14098    14099    14104    14112    14123    14135    14143 
   14148    14154    14162    14169    14176    14185    14197    14210 
   14226    14243    14256    14270    14287    14296    14301    14312 
   14324    14328    14324    14320    14315    14303    14289    14277 
   14265    14250    14233    14216    14200    14187    14176    14164 
   14152    14142    14133    14122    14116    14107    14099    14098 
   14100    14100    14104    14114    14127    14146    14164    14177 
   14191    14199    14206    14215    14220    14222    14220    14223 
   14227    14229    14229    14229    14229    14234    14239    14246 
   14251    14253    14254    14256    14254    14257    14264    14269 
