Origin Time       2024/04/02 04:24:00
Lat.              40.133
Long.             141.712
Depth. (km)       71
Mag.              6.0
Station Code      SRCH08
Station Lat.      43.5138
Station Long.     141.9090
Station Height(m) -92
Record Time       2024/04/02 04:26:07
Sampling Freq(Hz) 100Hz
Duration Time(s)  120
Dir.              1
Scale Factor      2940(gal)/6170270
Max. Acc. (gal)   0.240
Last Correction   2024/04/02 04:25:52
Memo.             
[...]
  137371   137351   137337   137323   137303   137290   137289   137295 
  137307   137326   137347   137364   137372   137372   137368   137357 
  137331   137290   137239   137193   137162   137150   137154   137163 
  137172   137186   137199   137206   137213   137226   137242   137257 
  137267   137274   137285   137298   137311   137329   137346   137356 
  137355   137340   137317   137290   137256   137226   137205   137187 
  137180   137185   137191   137201   137217   137231   137239   137235 
  137220   137213   137220   137229   137231   137238   137257   137278 
  137297   137317   137334   137345   137353   137356   137352   137341 
  137328   137310   137290   137270   137253   137242   137236   137241 
  137257   137279   137302   137321   137330   137335   137337   137335 
  137332   137324   137312   137301   137297   137294   137284   137269 
  137258   137252   137241   137226   137212   137198   137182   137162 
  137148   137145   137149   137153   137157   137167   137183   137206 
  137239   137270   137286   137287   137281   137272   137265   137256 
  137246   137239   137235   137228   137209   137182   137161   137144 
  137129   137123   137123   137126   137134   137147   137165   137180 
  137195   137217   137243   137263   137277   137281   137276   137278 
  137286   137292   137296   137303   137313   137321   137324   137320 
  137310   137297   137279   137258   137232   137205   137190   137185 
  137172   137147   137126   137123   137131   137138   137151   137180 
  137209   137227   137234   137234   137229   137219   137210   137209 
  137219   137228   137227   137221   137216   137216   137215   137208 
  137206   137217   137231   137235   137235   137247   137261   137263 
  137260   137267   137280   137293   137299   137301   137301   137291 
  137276   137266   137253   137238   137231   137236   137242   137239 
  137233   137234   137232   137220   137209   137208   137215   137235 
  137265   137295   137320   137332   137332   137331   137326   137317 
  137313   137316   137319   137318   137312   137301   137290   137287 
  137294   137304   137315   137330   137342   137345   137334   137319 
  137305   137287   137267   137252   137239   137229   137226   137232 
  137240   137248   137263   137284   137303   137309   137305   137303 
  137306   137300   137286   137270   137254   137240   137230   137221 
  137216   137215   137224   137243   137264   137284   137300   137312 
  137321   137328   137334   137339   137343   137343   137330   137302 
  137273   137250   137232   137222   137224   137229   137232   137239 
  137252   137271   137289   137302   137310   137312   137306   137295 
  137286   137283   137276   137254   137223   137196   137180   137174 
  137174   137181   137203   137235   137265   137288   137305   137312 
  137309   137303   137299   137292   137283   137278   137279   137278 
  137276   137275   137274   137270   137269   137273   137282   137294 
  137302   137297   137282   137260   137231   137203   137178   137154 
  137142   137151   137168   137182   137188   137188   137192   137205 
  137225   137245   137261   137281   137298   137297   137281   137261 
  137246   137242   137243   137243   137244   137244   137235   137218 
  137200   137188   137189   137201   137215   137229   137243   137262 
  137288   137311   137326   137329   137325   137318   137301   137278 
  137259   137248   137238   137231   137232   137244   137259   137273 
  137281   137285   137295   137304   137302   137292   137288   137294 
  137300   137295   137278   137259   137244   137232   137220   137209 
  137197   137189   137188   137192   137195   137203   137217   137229 
  137235   137239   137240   137233   137222   137221   137227   137229 
  137230   137234   137237   137242   137252   137271   137297   137317 
  137331   137338   137332   137320   137313   137316   137321   137316 
  137298   137277   137259   137242   137228   137222   137225   137233 
  137235   137235   137237   137236   137231   137234   137244   137254 
  137258   137257   137255   137252   137254   137258   137255   137243 
  137225   137207   137191   137176   137167   137169   137181   137197 
  137214   137230   137244   137253   137259   137263   137266   137273 
  137286   137297   137299   137299   137302   137307   137317   137332 
  137341   137337   137323   137296   137262   137234   137212   137197 
  137187   137177   137165   137151   137139   137138   137140   137140 
  137138   137135   137135   137146   137166   137194   137232   137264 
  137276   137273   137263   137245   137221   137194   137163   137139 
  137124   137115   137110   137106   137099   137098   137106   137113 
  137119   137137   137167   137201   137227   137243   137255   137265 
  137267   137266   137272   137279   137281   137283   137283   137276 
  137268   137272   137287   137299   137301   137295   137288   137281 
  137265   137242   137219   137204   137197   137195   137201   137225 
  137259   137290   137317   137336   137348   137360   137367   137363 
  137356   137355   137369   137391   137410   137418   137415   137399 
  137368   137334   137310   137298   137293   137293   137290   137285 
  137278   137274   137271   137260   137247   137240   137237   137232 
  137228   137229   137228   137221   137210   137198   137188   137179 
  137174   137170   137160   137141   137120   137106   137102   137106 
  137123   137158   137202   137243   137285   137329   137372   137405 
  137422   137428   137431   137431   137426   137423   137425   137429 
  137431   137428   137422   137417   137414   137416   137426   137437 
  137434   137415   137381   137333   137285   137254   137233   137211 
  137187   137170   137160   137150   137147   137162   137189   137218 
  137247   137270   137276   137263   137240   137209   137166   137115 
  137062   137009   136962   136919   136888   136877   136886   136910 
  136946   136993   137048   137104   137158   137219   137284   137345 
  137393   137421   137425   137404   137363   137314   137264   137216 
  137176   137154   137147   137151   137167   137199   137246   137305 
  137367   137433   137493   137533   137550   137547   137525   137493 
  137461   137433   137412   137397   137382   137369   137355   137342 
  137337   137344   137355   137361   137363   137363   137358   137345 
  137317   137272   137219   137168   137125   137093   137084   137105 
  137138   137164   137185   137206   137220   137225   137224   137223 
  137220   137206   137179   137147   137115   137085   137063   137062 
  137076   137095   137115   137139   137155   137160   137164   137172 
  137184   137203   137231   137272   137325   137380   137425   137454 
  137469   137479   137481   137481   137494   137520   137547   137561 
  137554   137529   137491   137434   137366   137303   137257   137233 
  137224   137221   137224   137244   137281   137322   137362   137403 
  137443   137472   137483   137476   137450   137408   137352   137280 
  137201   137134   137087   137045   137003   136964   136933   136907 
  136886   136878   136888   136916   136959   137011   137065   137116 
  137156   137185   137208   137224   137240   137267   137298   137323 
  137340   137350   137357   137363   137369   137380   137400   137431 
  137474   137517   137543   137544   137523   137489   137453   137427 
  137420   137431   137442   137439   137427   137422   137433   137454 
  137481   137508   137522   137525   137519   137506   137499   137494 
  137478   137450   137414   137370   137321   137272   137227   137175 
  137106   137020   136932   136854   136796   136768   136779   136831 
  136910   136998   137080   137143   137190   137229   137262   137282 
  137291   137298   137310   137314   137289   137237   137183   137136 
  137092   137062   137052   137056   137072   137094   137116   137139 
  137172   137228   137308   137394   137466   137523   137575   137619 
  137641   137642   137632   137616   137598   137576   137546   137511 
  137481   137454   137424   137392   137357   137312   137267   137230 
  137198   137167   137140   137120   137109   137108   137119   137140 
  137165   137184   137194   137197   137194   137186   137175   137169 
  137173   137185   137193   137194   137187   137170   137142   137110 
  137072   137025   136980   136953   136943   136952   136992   137070 
  137177   137289   137379   137445   137497   137538   137567   137585 
  137594   137593   137576   137541   137502   137460   137417   137372 
  137324   137270   137219   137183   137161   137147   137140   137140 
  137150   137160   137156   137144   137134   137129   137138   137168 
  137213   137263   137309   137348   137374   137381   137365   137333 
  137289   137237   137183   137141   137114   137093   137072   137058 
  137052   137048   137044   137046   137050   137053   137056   137070 
  137097   137137   137191   137255   137312   137345   137350   137334 
  137302   137257   137202   137146   137101   137071   137053   137037 
  137021   137007   137001   137006   137018   137028   137034   137044 
  137058   137072   137095   137134   137186   137243   137303   137357 
  137406   137455   137496   137521   137525   137509   137486   137456 
  137408   137348   137287   137224   137164   137113   137075   137058 
  137068   137099   137144   137199   137251   137292   137326   137351 
  137358   137355   137346   137330   137302   137259   137206   137152 
  137096   137041   136999   136976   136971   136986   137026   137085 
  137157   137232   137297   137347   137383   137413   137446   137486 
  137526   137553   137564   137567   137563   137546   137516   137490 
  137471   137450   137428   137404   137375   137342   137308   137273 
  137239   137207   137181   137161   137151   137151   137171   137209 
  137249   137278   137300   137316   137328   137349   137384   137415 
  137429   137420   137388   137339   137287   137241   137205   137184 
  137180   137193   137210   137219   137225   137242   137270   137300 
  137326   137350   137367   137375   137369   137353   137334   137316 
  137300   137283   137263   137239   137209   137173   137136   137101 
  137066   137031   137002   136979   136974   136992   137028   137071 
  137109   137127   137115   137082   137045   137030   137046   137091 
  137160   137240   137322   137405   137482   137537   137563   137561 
  137532   137487   137437   137389   137349   137323   137309   137306 
  137311   137321   137337   137351   137351   137343   137334   137321 
  137308   137302   137304   137310   137311   137299   137273   137234 
  137188   137145   137112   137080   137043   137006   136981   136972 
  136968   136968   136972   136973   136967   136963   136957   136946 
  136933   136921   136916   136922   136941   136968   137004   137053 
  137114   137181   137252   137330   137408   137470   137505   137520 
  137519   137498   137454   137396   137341   137302   137288   137294 
  137313   137336   137355   137369   137379   137379   137364   137341 
  137315   137289   137264   137245   137233   137219   137198   137173 
  137156   137154   137168   137194   137227   137264   137309   137358 
  137402   137437   137461   137467   137451   137419   137377   137332 
  137289   137253   137230   137225   137231   137241   137259   137289 
  137327   137362   137383   137389   137382   137370   137359   137363 
  137388   137425   137462   137491   137502   137493   137466   137425 
  137380   137327   137276   137237   137208   137183   137160   137143 
  137137   137137   137138   137140   137146   137160   137187   137229 
  137277   137328   137377   137420   137458   137491   137518   137533 
  137540   137536   137520   137487   137442   137386   137324   137261 
  137205   137163   137134   137117   137101   137089   137086   137083 
  137075   137067   137066   137070   137080   137100   137127   137156 
  137179   137186   137183   137177   137177   137186   137196   137199 
  137199   137195   137186   137175   137167   137163   137165   137180 
  137200   137217   137236   137251   137254   137254   137252   137245 
  137232   137216   137199   137190   137194   137203   137212   137223 
  137244   137272   137301   137329   137354   137371   137378   137371 
  137355   137338   137326   137316   137310   137310   137309   137302 
  137294   137284   137275   137280   137305   137335   137362   137385 
  137405   137421   137432   137445   137465   137485   137497   137496 
  137484   137468   137453   137435   137414   137399   137393   137391 
  137394   137396   137392   137382   137364   137346   137341   137343 
  137349   137353   137348   137342   137344   137344   137332   137315 
  137301   137294   137284   137266   137244   137222   137205   137206 
  137232   137268   137301   137334   137369   137397   137406   137398 
  137381   137358   137325   137278   137227   137182   137153   137144 
  137148   137159   137177   137196   137204   137198   137179   137154 
  137128   137110   137103   137105   137115   137130   137148   137173 
  137204   137246   137291   137320   137325   137309   137276   137231 
  137184   137152   137147   137156   137171   137189   137204   137206 
  137195   137175   137155   137143   137136   137130   137123   137116 
  137116   137126   137143   137162   137181   137198   137210   137212 
  137196   137163   137114   137053   136985   136912   136843   136790 
  136758   136753   136773   136808   136856   136910   136963   137016 
  137069   137128   137194   137260   137325   137385   137428   137453 
  137462   137450   137415   137364   137313   137280   137274   137290 
  137319   137353   137386   137410   137423   137423   137411   137392 
  137374   137360   137341   137312   137284   137262   137253   137258 
  137271   137278   137279   137273   137261   137248   137233   137223 
  137224   137234   137247   137265   137285   137301   137312   137311 
  137292   137255   137207   137163   137133   137120   137131   137167 
  137223   137297   137381   137459   137520   137561   137584   137592 
  137587   137571   137546   137513   137470   137414   137349   137285 
  137227   137168   137112   137065   137023   136988   136964   136948 
  136940   136936   136936   136951   136985   137033   137093   137156 
  137217   137275   137331   137379   137418   137452   137481   137501 
  137511   137513   137508   137500   137488   137469   137439   137400 
  137352   137300   137257   137225   137207   137203   137208   137218 
  137228   137247   137279   137313   137338   137345   137332   137302 
  137259   137205   137147   137096   137058   137033   137017   137002 
  136990   136985   136987   136990   136998   137010   137025   137045 
  137063   137080   137099   137113   137116   137110   137099   137089 
  137085   137092   137105   137122   137141   137162   137184   137211 
  137241   137274   137303   137322   137333   137340   137348   137356 
  137367   137381   137391   137393   137394   137399   137406   137408 
  137407   137405   137397   137377   137347   137314   137287   137273 
  137268   137270   137282   137293   137297   137298   137296   137291 
  137279   137259   137235   137209   137185   137168   137166   137184 
  137211   137237   137263   137291   137314   137332   137344   137361 
  137384   137402   137416   137425   137423   137412   137390   137351 
  137300   137249   137202   137158   137127   137113   137113   137125 
  137149   137179   137215   137254   137284   137299   137296   137278 
  137249   137212   137180   137171   137186   137221   137268   137319 
  137369   137423   137479   137525   137555   137565   137556   137530 
  137485   137436   137395   137367   137352   137351   137348   137343 
  137346   137354   137367   137382   137397   137411   137412   137396 
  137372   137336   137287   137227   137163   137102   137048   137000 
  136962   136939   136932   136940   136961   136996   137042   137100 
  137168   137239   137302   137350   137384   137403   137404   137389 
  137362   137322   137262   137183   137097   137014   136935   136863 
  136812   136792   136811   136868   136949   137043   137136   137211 
  137267   137302   137311   137300   137276   137241   137203   137173 
  137149   137131   137117   137108   137103   137109   137129   137166 
  137218   137277   137334   137384   137422   137448   137468   137487 
  137501   137504   137497   137485   137472   137463   137459   137454 
  137448   137437   137418   137388   137349   137306   137270   137242 
  137221   137207   137201   137204   137216   137228   137236   137241 
  137245   137246   137244   137248   137270   137309   137354   137399 
  137435   137453   137456   137445   137421   137390   137360   137330 
  137299   137270   137248   137231   137218   137213   137223   137247 
  137279   137313   137349   137383   137411   137429   137443   137450 
  137448   137437   137420   137397   137366   137328   137285   137248 
  137221   137203   137190   137181   137180   137189   137213   137254 
  137307   137367   137427   137480   137518   137543   137557   137557 
  137538   137511   137478   137435   137383   137328   137273   137221 
  137180   137153   137138   137133   137142   137158   137177   137203 
  137234   137264   137287   137302   137306   137297   137277   137257 
  137243   137235   137229   137227   137229   137235   137244   137250 
  137253   137251   137242   137222   137192   137158   137126   137101 
  137087   137082   137083   137089   137095   137099   137106   137119 
  137141   137164   137183   137203   137234   137270   137303   137331 
  137356   137380   137405   137427   137448   137470   137481   137479 
  137471   137454   137428   137396   137364   137335   137305   137278 
  137256   137234   137211   137189   137177   137180   137190   137196 
  137204   137215   137227   137240   137254   137264   137271   137272 
  137267   137256   137237   137213   137186   137154   137118   137080 
  137044   137013   136989   136976   136975   136986   137010   137047 
  137097   137153   137206   137256   137297   137325   137341   137348 
  137346   137337   137329   137327   137330   137343   137366   137396 
  137428   137455   137480   137499   137498   137477   137446   137415 
  137387   137361   137337   137315   137293   137269   137251   137236 
  137222   137212   137207   137198   137180   137157   137136   137117 
  137100   137085   137074   137069   137064   137050   137028   137007 
  136989   136976   136968   136964   136969   136987   137009   137031 
  137058   137078   137089   137105   137127   137151   137178   137205 
  137225   137239   137247   137253   137254   137250   137249   137252 
  137250   137243   137235   137226   137218   137207   137195   137182 
  137168   137152   137147   137160   137184   137210   137238   137270 
  137299   137324   137349   137373   137392   137404   137404   137392 
  137369   137341   137313   137286   137258   137228   137199   137172 
  137146   137131   137130   137136   137138   137132   137122   137115 
  137107   137091   137073   137057   137045   137039   137042   137055 
  137069   137084   137103   137120   137129   137136   137146   137151 
  137149   137141   137131   137117   137099   137079   137060   137044 
