Origin Time       2024/04/02 04:24:00
Lat.              40.133
Long.             141.712
Depth. (km)       71
Mag.              6.0
Station Code      SRCH08
Station Lat.      43.5138
Station Long.     141.9090
Station Height(m) 30
Record Time       2024/04/02 04:26:07
Sampling Freq(Hz) 100Hz
Duration Time(s)  120
Dir.              5
Scale Factor      3920(gal)/6170801
Max. Acc. (gal)   0.773
Last Correction   2024/04/02 04:25:52
Memo.             
[...]
    1881     1943     1979     1975     1936     1866     1776     1684 
    1608     1559     1542     1548     1569     1602     1635     1660 
    1682     1707     1726     1737     1747     1750     1739     1730 
    1734     1752     1791     1852     1920     1963     1964     1918 
    1829     1718     1612     1527     1479     1471     1487     1520 
    1562     1601     1638     1681     1735     1798     1860     1912 
    1945     1944     1906     1843     1769     1704     1661     1645 
    1656     1687     1713     1718     1697     1652     1601     1573 
    1579     1615     1673     1734     1781     1798     1775     1721 
    1657     1599     1558     1541     1551     1581     1622     1675 
    1740     1802     1846     1868     1870     1856     1830     1791 
    1739     1682     1625     1575     1548     1562     1624     1724 
    1829     1903     1927     1897     1825     1745     1689     1674 
    1697     1739     1775     1791     1777     1732     1663     1585 
    1526     1502     1513     1556     1618     1683     1732     1761 
    1776     1782     1783     1783     1777     1756     1724     1688 
    1653     1634     1641     1672     1718     1764     1792     1789 
    1755     1705     1656     1631     1643     1693     1763     1830 
    1872     1872     1839     1795     1759     1744     1750     1760 
    1764     1750     1706     1652     1611     1596     1620     1681 
    1751     1808     1836     1825     1782     1723     1665     1623 
    1607     1620     1658     1711     1770     1818     1842     1844 
    1819     1767     1697     1623     1562     1529     1532     1563 
    1614     1676     1736     1787     1818     1826     1810     1768 
    1712     1660     1615     1576     1551     1536     1533     1550 
    1591     1650     1717     1768     1783     1760     1700     1616 
    1541     1500     1499     1544     1635     1742     1845     1929 
    1978     1984     1959     1907     1834     1755     1687     1635 
    1608     1612     1637     1679     1735     1790     1836     1867 
    1879     1875     1849     1807     1758     1708     1662     1628 
    1605     1602     1632     1695     1781     1875     1950     1981 
    1953     1865     1738     1598     1474     1388     1344     1334 
    1344     1365     1403     1451     1510     1591     1698     1814 
    1926     2011     2043     2022     1958     1862     1760     1672 
    1605     1562     1546     1554     1581     1617     1651     1682 
    1710     1732     1744     1739     1718     1689     1661     1647 
    1656     1680     1716     1763     1807     1840     1861     1870 
    1862     1840     1806     1761     1713     1673     1641     1621 
    1623     1643     1671     1694     1701     1684     1644     1594 
    1550     1519     1517     1553     1618     1706     1806     1897 
    1965     2004     2009     1979     1926     1863     1789     1712 
    1637     1561     1492     1449     1440     1474     1552     1651 
    1749     1831     1875     1879     1852     1800     1737     1682 
    1648     1647     1677     1729     1786     1827     1843     1833 
    1792     1733     1672     1608     1547     1502     1473     1457 
    1458     1475     1501     1533     1582     1647     1719     1793 
    1861     1903     1912     1895     1858     1820     1800     1792 
    1782     1767     1740     1692     1630     1573     1533     1523 
    1545     1591     1652     1724     1801     1869     1919     1950 
    1957     1940     1915     1884     1838     1780     1708     1626 
    1549     1485     1439     1425     1453     1516     1604     1699 
    1783     1836     1854     1839     1800     1754     1712     1683 
    1675     1680     1684     1683     1677     1669     1669     1693 
    1743     1807     1867     1900     1889     1833     1742     1633 
    1536     1475     1459     1491     1563     1657     1748     1816 
    1854     1869     1869     1859     1848     1831     1803     1763 
    1713     1660     1612     1583     1581     1599     1629     1655 
    1667     1666     1660     1654     1658     1680     1715     1760 
    1798     1810     1790     1741     1657     1556     1457     1373 
    1323     1318     1355     1431     1543     1672     1795     1894 
    1957     1974     1949     1895     1825     1741     1651     1563 
    1490     1445     1433     1455     1513     1608     1730     1858 
    1969     2046     2081     2079     2057     2025     1984     1934 
    1868     1783     1705     1655     1635     1655     1709     1761 
    1793     1802     1782     1737     1677     1613     1555     1514 
    1504     1535     1608     1721     1867     2020     2152     2233 
    2236     2162     2026     1858     1701     1587     1525     1512 
    1537     1584     1639     1684     1712     1719     1703     1667 
    1612     1547     1492     1456     1442     1456     1494     1536 
    1577     1621     1657     1689     1727     1762     1781     1785 
    1764     1714     1654     1601     1562     1539     1532     1536 
    1538     1537     1544     1565     1609     1682     1770     1854 
    1924     1968     1986     1983     1955     1905     1842     1772 
    1707     1659     1631     1614     1599     1589     1588     1592 
    1610     1646     1692     1744     1791     1815     1820     1820 
    1823     1833     1859     1887     1898     1883     1837     1757 
    1668     1597     1561     1572     1628     1709     1787     1830 
    1822     1773     1698     1621     1565     1543     1555     1582 
    1605     1617     1618     1619     1643     1696     1766     1843 
    1921     1973     1984     1946     1864     1759     1661     1589 
    1550     1556     1609     1686     1763     1822     1844     1826 
    1785     1743     1711     1703     1727     1766     1801     1823 
    1821     1800     1777     1766     1767     1784     1815     1840 
    1845     1826     1775     1698     1619     1557     1521     1511 
    1514     1509     1493     1475     1461     1465     1503     1578 
    1675     1774     1851     1885     1872     1820     1746     1674 
    1622     1599     1604     1629     1669     1720     1777     1827 
    1861     1874     1861     1827     1777     1715     1653     1598 
    1551     1522     1525     1560     1616     1681     1740     1788 
    1814     1808     1786     1769     1759     1758     1764     1769 
    1768     1749     1710     1658     1605     1564     1545     1552 
    1591     1652     1717     1780     1840     1883     1903     1898 
    1862     1803     1734     1657     1582     1529     1509     1527 
    1588     1684     1788     1878     1932     1931     1874     1783 
    1681     1592     1542     1537     1567     1617     1670     1713 
    1740     1750     1743     1719     1677     1633     1593     1565 
    1560     1578     1613     1665     1723     1778     1829     1879 
    1920     1943     1939     1900     1827     1737     1645     1566 
    1511     1484     1489     1523     1572     1614     1642     1654 
    1654     1650     1655     1661     1659     1652     1640     1633 
    1643     1675     1735     1821     1915     1990     2020     1998 
    1934     1851     1768     1704     1667     1654     1654     1658 
    1664     1677     1696     1721     1750     1778     1801     1822 
    1850     1896     1964     2051     2140     2209     2240     2222 
    2154     2046     1906     1746     1594     1467     1375     1327 
    1329     1375     1456     1561     1668     1758     1818     1837 
    1814     1766     1722     1702     1708     1727     1746     1755 
    1741     1701     1650     1606     1578     1565     1552     1533 
    1499     1442     1381     1335     1303     1296     1319     1369 
    1441     1515     1579     1641     1698     1754     1809     1856 
    1888     1902     1896     1878     1853     1813     1756     1686 
    1592     1481     1379     1307     1286     1333     1439     1567 
    1690     1788     1848     1876     1893     1911     1933     1957 
    1975     1976     1951     1909     1859     1815     1798     1811 
    1845     1886     1918     1924     1905     1870     1823     1776 
    1740     1713     1691     1675     1661     1647     1627     1599 
    1561     1514     1470     1447     1448     1475     1523     1586 
    1660     1737     1803     1850     1872     1869     1862     1869 
    1904     1970     2055     2136     2187     2182     2106     1967 
    1786     1596     1417     1274     1187     1157     1170     1225 
    1322     1451     1603     1768     1931     2075     2188     2271 
    2318     2327     2302     2244     2151     2031     1893     1746 
    1602     1466     1337     1223     1129     1061     1030     1046 
    1097     1175     1271     1371     1470     1568     1665     1761 
    1868     1992     2114     2226     2320     2367     2346     2257 
    2111     1923     1717     1524     1360     1229     1143     1101 
    1100     1138     1208     1299     1404     1518     1631     1740 
    1836     1907     1948     1967     1967     1953     1950     1967 
    1993     2011     2000     1939     1831     1689     1531     1384 
    1280     1237     1254     1333     1461     1609     1758     1900 
    2026     2125     2198     2235     2223     2159     2046     1897 
    1735     1585     1467     1407     1413     1470     1558     1651 
    1723     1746     1705     1617     1515     1429     1386     1389 
    1417     1457     1480     1462     1402     1312     1214     1145 
    1139     1212     1365     1568     1767     1917     1997     2005 
    1955     1875     1798     1749     1742     1778     1855     1958 
    2065     2160     2217     2207     2117     1942     1687     1386 
    1094      863      743      767      925     1180     1490     1794 
    2035     2193     2263     2254     2208     2162     2125     2118 
    2153     2209     2264     2301     2283     2187     2013     1770 
    1484     1205      983      853      839      948     1159     1433 
    1730     2009     2231     2360     2380     2287     2103     1871 
    1642     1476     1424     1498     1680     1919     2150     2310 
    2362     2293     2111     1842     1530     1219      957      793 
     749      826     1005     1245     1494     1720     1901     2021 
    2083     2113     2124     2122     2121     2130     2146     2174 
    2216     2259     2281     2250     2144     1958     1715     1460 
    1236     1090     1061     1151     1333     1573     1819     2022 
    2149     2181     2112     1960     1760     1549     1369     1258 
    1238     1313     1472     1681     1900     2090     2220     2258 
    2187     2015     1765     1470     1178      944      811      803 
     916     1103     1312     1491     1593     1604     1544     1447 
    1351     1296     1308     1396     1544     1720     1883     2005 
    2074     2083     2028     1914     1752     1554     1347     1161 
    1020      959     1009     1168     1407     1684     1950     2153 
    2259     2269     2203     2090     1969     1880     1846     1882 
    1988     2133     2272     2368     2387     2308     2148     1936 
    1703     1487     1307     1158     1045      972      943      968 
    1055     1196     1377     1579     1776     1954     2102     2219 
    2314     2387     2428     2437     2406     2331     2221     2087 
    1942     1797     1665     1554     1477     1442     1440     1463 
    1496     1524     1549     1573     1596     1617     1634     1642 
    1641     1643     1659     1696     1762     1858     1967     2078 
    2177     2246     2280     2278     2235     2155     2053     1944 
    1837     1738     1650     1571     1510     1474     1465     1488 
    1554     1657     1781     1912     2043     2161     2251     2301 
    2297     2228     2093     1903     1681     1465     1282     1137 
    1040     1005     1025     1094     1221     1395     1594     1801 
    1989     2127     2196     2187     2099     1946     1762     1578 
    1417     1304     1248     1235     1252     1282     1308     1336 
    1391     1481     1608     1772     1949     2101     2207     2256 
    2247     2190     2101     1999     1898     1809     1737     1685 
    1652     1623     1586     1540     1481     1410     1338     1284 
    1260     1272     1326     1429     1571     1743     1934     2116 
    2264     2360     2388     2353     2264     2134     1979     1818 
    1667     1531     1415     1316     1218     1111     1013      933 
     884      891      963     1092     1268     1476     1690     1889 
    2059     2184     2254     2274     2252     2206     2154     2115 
    2102     2118     2151     2188     2212     2202     2134     1997 
    1804     1573     1330     1112      958      895      929     1041 
    1200     1373     1533     1665     1771     1861     1945     2031 
    2116     2190     2236     2229     2160     2037     1867     1675 
    1497     1349     1231     1149     1101     1077     1088     1145 
    1245     1385     1559     1740     1898     2009     2058     2051 
    2007     1951     1909     1903     1936     2001     2084     2163 
    2210     2211     2159     2047     1868     1630     1349     1050 
     781      585      493      528      693      966     1301     1651 
    1976     2229     2383     2438     2396     2281     2137     2002 
    1899     1849     1846     1865     1879     1860     1793     1694 
    1591     1513     1485     1514     1586     1668     1735     1774 
    1783     1779     1786     1810     1847     1891     1926     1934 
    1916     1879     1831     1784     1748     1724     1707     1692 
    1663     1613     1547     1473     1410     1380     1396     1459 
    1567     1702     1846     1980     2091     2165     2186     2150 
    2063     1928     1768     1613     1484     1394     1355     1372 
    1439     1562     1739     1938     2126     2274     2345     2322 
    2215     2043     1836     1642     1496     1413     1402     1458 
    1557     1672     1781     1857     1878     1835     1733     1587 
    1427     1291     1201     1171     1213     1316     1462     1636 
    1805     1942     2038     2080     2061     1990     1887     1769 
    1653     1559     1492     1436     1378     1313     1240     1172 
    1132     1135     1195     1322     1509     1732     1963     2175 
    2339     2444     2481     2450     2364     2231     2065     1893 
    1739     1619     1552     1535     1557     1606     1664     1711 
    1731     1716     1664     1588     1504     1425     1359     1308 
    1275     1266     1279     1324     1411     1524     1640     1751 
    1839     1887     1896     1879     1849     1829     1838     1872 
    1911     1936     1925     1863     1759     1646     1545     1477 
    1448     1443     1441     1437     1426     1418     1433     1474 
    1537     1611     1684     1748     1799     1839     1887     1951 
    2023     2103     2185     2249     2286     2290     2251     2167 
    2042     1876     1689     1506     1338     1196     1104     1074 
    1105     1193     1320     1454     1573     1664     1716     1729 
    1713     1674     1625     1586     1571     1590     1641     1716 
    1803     1889     1971     2037     2069     2059     1998     1879 
    1718     1543     1379     1255     1195     1205     1273     1376 
    1494     1611     1720     1822     1916     1999     2071     2123 
    2151     2157     2141     2092     2007     1879     1703     1492 
    1273     1068      911      834      850      953     1128     1349 
    1578     1789     1957     2065     2117     2128     2106     2058 
    1991     1909     1812     1710     1613     1533     1486     1493 
    1547     1623     1699     1749     1754     1711     1640     1571 
    1531     1528     1557     1601     1642     1669     1682     1699 
    1732     1783     1854     1935     2004     2042     2038     1994 
    1928     1868     1827     1811     1826     1865     1908     1949 
    1982     1997     1996     1988     1970     1935     1890     1840 
    1792     1758     1742     1746     1768     1800     1832     1852 
    1850     1822     1771     1706     1637     1573     1518     1477 
    1448     1438     1451     1479     1502     1512     1515     1516 
    1523     1549     1588     1631     1676     1712     1718     1684 
    1622     1543     1467     1418     1405     1423     1474     1551 
    1649     1757     1861     1947     2004     2026     2007     1951 
    1877     1805     1747     1726     1747     1797     1863     1933 
    1988     2009     2000     1966     1910     1855     1826     1831 
    1882     1983     2105     2212     2274     2258     2142     1946 
    1704     1460     1269     1174     1190     1310     1517     1776 
    2042     2282     2471     2581     2611     2571     2466     2318 
    2155     1994     1855     1754     1685     1639     1607     1571 
    1514     1436     1337     1220     1094      984      913      897 
     949     1068     1239     1441     1654     1840     1972     2044 
    2048     1987     1888     1768     1645     1540     1463     1416 
    1397     1392     1376     1332     1268     1192     1125     1099 
    1146     1273     1475     1729     1991     2215     2379     2469 
    2484     2437     2357     2268     2187     2124     2081     2054 
    2049     2062     2083     2103     2098     2045     1937     1778 
    1586     1398     1255     1183     1196     1300     1473     1673 
    1857     1987     2033     1993     1889     1744     1581     1430 
    1312     1225     1165     1119     1067     1005      937      872 
     830      828      873      959     1081     1229     1386     1535 
    1670     1788     1887     1964     2003     2001     1961     1884 
    1781     1681     1610     1570     1562     1587     1622     1640 
    1641     1627     1604     1587     1593     1625     1688     1777 
    1880     1985     2080     2149     2178     2168     2116     2033 
    1941     1856     1792     1755     1743     1742     1739     1735 
    1732     1732     1737     1744     1742     1727     1699     1653 
    1591     1526     1475     1449     1458     1503     1567     1631 
    1682     1713     1726     1736     1758     1800     1871     1971 
    2081     2172     2215     2192     2096     1934     1732     1522 
    1336     1207     1155     1179     1277     1433     1628     1848 
    2066     2254     2389     2446     2412     2294     2116     1911 
    1710     1550     1453     1422     1453     1531     1636     1750 
    1860     1948     2005     2032     2023     1981     1921     1854 
    1783     1727     1698     1700     1737     1806     1886     1970 
    2056     2134     2189     2220     2214     2154     2041     1886 
    1702     1511     1342     1211     1125     1088     1095     1143 
    1235     1365     1515     1671     1822     1945     2022     2052 
    2040     1995     1940     1899     1877     1877     1901     1929 
