Origin Time       2024/04/02 04:24:00
Lat.              40.133
Long.             141.712
Depth. (km)       71
Mag.              6.0
Station Code      SRCH10
Station Lat.      42.9930
Station Long.     142.0085
Station Height(m) -5
Record Time       2024/04/02 04:25:23
Sampling Freq(Hz) 100Hz
Duration Time(s)  120
Dir.              1
Scale Factor      2940(gal)/6170270
Max. Acc. (gal)   0.255
Last Correction   2024/04/02 04:25:08
Memo.             
[...]
  -39823   -39834   -39835   -39821   -39804   -39795   -39791   -39794 
  -39802   -39805   -39802   -39789   -39764   -39736   -39716   -39708 
  -39709   -39716   -39733   -39754   -39774   -39789   -39797   -39803 
  -39814   -39823   -39817   -39799   -39778   -39758   -39741   -39727 
  -39713   -39699   -39682   -39666   -39656   -39653   -39651   -39647 
  -39644   -39654   -39681   -39725   -39771   -39807   -39831   -39848 
  -39860   -39862   -39849   -39823   -39789   -39747   -39705   -39672 
  -39647   -39631   -39620   -39615   -39628   -39662   -39697   -39723 
  -39742   -39749   -39757   -39775   -39792   -39800   -39801   -39803 
  -39810   -39821   -39830   -39833   -39824   -39798   -39761   -39726 
  -39702   -39685   -39668   -39649   -39627   -39609   -39603   -39613 
  -39636   -39669   -39706   -39742   -39770   -39795   -39827   -39860 
  -39881   -39886   -39882   -39875   -39867   -39856   -39837   -39809 
  -39772   -39732   -39696   -39672   -39664   -39676   -39699   -39714 
  -39715   -39712   -39711   -39709   -39707   -39702   -39693   -39685 
  -39688   -39704   -39731   -39763   -39792   -39815   -39831   -39835 
  -39826   -39799   -39761   -39721   -39681   -39649   -39629   -39623 
  -39632   -39650   -39668   -39689   -39714   -39734   -39744   -39749 
  -39759   -39773   -39784   -39779   -39759   -39738   -39728   -39732 
  -39745   -39755   -39756   -39748   -39725   -39696   -39681   -39686 
  -39707   -39737   -39767   -39787   -39795   -39798   -39796   -39790 
  -39782   -39775   -39771   -39774   -39781   -39787   -39790   -39791 
  -39789   -39777   -39754   -39732   -39719   -39715   -39720   -39725 
  -39730   -39739   -39755   -39777   -39796   -39806   -39812   -39817 
  -39814   -39801   -39781   -39756   -39732   -39712   -39700   -39698 
  -39701   -39699   -39693   -39682   -39675   -39677   -39679   -39679 
  -39681   -39689   -39700   -39713   -39736   -39765   -39784   -39789 
  -39785   -39777   -39771   -39775   -39784   -39791   -39785   -39766 
  -39746   -39739   -39747   -39763   -39773   -39768   -39752   -39736 
  -39721   -39703   -39682   -39662   -39648   -39642   -39643   -39651 
  -39664   -39673   -39678   -39685   -39698   -39712   -39723   -39734 
  -39753   -39778   -39795   -39800   -39793   -39779   -39765   -39755 
  -39747   -39744   -39750   -39763   -39776   -39776   -39764   -39751 
  -39742   -39735   -39730   -39730   -39735   -39745   -39763   -39784 
  -39795   -39802   -39812   -39818   -39811   -39795   -39780   -39769 
  -39761   -39759   -39768   -39783   -39795   -39803   -39804   -39792 
  -39772   -39743   -39709   -39680   -39663   -39661   -39674   -39695 
  -39711   -39719   -39725   -39730   -39733   -39735   -39736   -39730 
  -39712   -39684   -39655   -39629   -39608   -39596   -39598   -39619 
  -39654   -39687   -39707   -39713   -39715   -39719   -39723   -39729 
  -39735   -39740   -39747   -39755   -39760   -39763   -39763   -39767 
  -39773   -39777   -39779   -39774   -39757   -39732   -39713   -39709 
  -39721   -39741   -39761   -39777   -39781   -39769   -39745   -39716 
  -39688   -39674   -39680   -39703   -39731   -39752   -39766   -39771 
  -39768   -39763   -39757   -39747   -39734   -39717   -39696   -39677 
  -39664   -39657   -39652   -39650   -39658   -39675   -39693   -39707 
  -39717   -39721   -39717   -39711   -39709   -39710   -39712   -39709 
  -39703   -39697   -39693   -39695   -39700   -39703   -39706   -39711 
  -39713   -39709   -39703   -39700   -39697   -39691   -39685   -39680 
  -39673   -39664   -39659   -39659   -39666   -39680   -39700   -39725 
  -39750   -39767   -39776   -39783   -39790   -39794   -39794   -39785 
  -39765   -39744   -39723   -39704   -39687   -39678   -39681   -39698 
  -39724   -39753   -39785   -39815   -39837   -39848   -39854   -39859 
  -39860   -39850   -39832   -39812   -39796   -39784   -39780   -39784 
  -39794   -39810   -39832   -39849   -39858   -39865   -39870   -39873 
  -39875   -39877   -39875   -39861   -39838   -39812   -39787   -39767 
  -39760   -39769   -39781   -39785   -39783   -39780   -39781   -39783 
  -39782   -39775   -39758   -39734   -39714   -39705   -39710   -39725 
  -39742   -39755   -39764   -39771   -39774   -39775   -39774   -39770 
  -39760   -39745   -39732   -39724   -39717   -39714   -39719   -39721 
  -39713   -39703   -39698   -39707   -39727   -39745   -39750   -39746 
  -39746   -39757   -39771   -39776   -39770   -39764   -39760   -39755 
  -39745   -39728   -39711   -39704   -39707   -39721   -39744   -39766 
  -39774   -39774   -39771   -39770   -39773   -39777   -39780   -39783 
  -39787   -39788   -39783   -39768   -39744   -39720   -39706   -39700 
  -39700   -39705   -39709   -39706   -39697   -39687   -39681   -39684 
  -39694   -39707   -39715   -39714   -39710   -39709   -39709   -39704 
  -39689   -39667   -39648   -39641   -39640   -39643   -39645   -39637 
  -39624   -39607   -39592   -39589   -39600   -39617   -39635   -39647 
  -39652   -39656   -39670   -39693   -39710   -39719   -39723   -39737 
  -39767   -39800   -39812   -39799   -39778   -39762   -39754   -39752 
  -39751   -39744   -39732   -39723   -39715   -39711   -39707   -39700 
  -39695   -39694   -39692   -39691   -39695   -39704   -39710   -39717 
  -39731   -39750   -39771   -39794   -39816   -39833   -39839   -39838 
  -39836   -39831   -39814   -39782   -39743   -39710   -39693   -39686 
  -39682   -39679   -39679   -39685   -39697   -39714   -39736   -39761 
  -39778   -39782   -39774   -39757   -39737   -39721   -39706   -39688 
  -39680   -39690   -39706   -39719   -39724   -39727   -39734   -39739 
  -39736   -39728   -39719   -39715   -39725   -39745   -39771   -39802 
  -39828   -39848   -39868   -39885   -39887   -39869   -39838   -39799 
  -39761   -39727   -39696   -39668   -39649   -39645   -39657   -39678 
  -39698   -39716   -39735   -39754   -39772   -39788   -39800   -39806 
  -39808   -39806   -39805   -39803   -39799   -39795   -39790   -39786 
  -39785   -39786   -39785   -39774   -39750   -39721   -39697   -39684 
  -39681   -39682   -39691   -39706   -39718   -39731   -39748   -39768 
  -39785   -39796   -39802   -39812   -39825   -39837   -39839   -39824 
  -39796   -39767   -39744   -39730   -39728   -39731   -39730   -39714 
  -39689   -39667   -39653   -39649   -39660   -39680   -39697   -39706 
  -39715   -39723   -39725   -39722   -39719   -39716   -39716   -39720 
  -39727   -39737   -39745   -39747   -39740   -39732   -39731   -39734 
  -39739   -39738   -39725   -39707   -39696   -39697   -39707   -39721 
  -39737   -39757   -39782   -39807   -39823   -39825   -39811   -39789 
  -39770   -39761   -39760   -39755   -39745   -39726   -39699   -39676 
  -39669   -39674   -39692   -39715   -39732   -39741   -39744   -39745 
  -39745   -39745   -39751   -39764   -39784   -39810   -39831   -39842 
  -39849   -39851   -39846   -39835   -39820   -39806   -39797   -39784 
  -39761   -39734   -39710   -39692   -39674   -39661   -39658   -39662 
  -39661   -39657   -39653   -39653   -39656   -39665   -39678   -39692 
  -39703   -39707   -39710   -39720   -39737   -39755   -39766   -39770 
  -39770   -39768   -39765   -39758   -39745   -39731   -39722   -39712 
  -39700   -39691   -39688   -39688   -39692   -39705   -39726   -39745 
  -39759   -39769   -39778   -39788   -39796   -39794   -39785   -39773 
  -39758   -39743   -39735   -39730   -39723   -39719   -39720   -39724 
  -39732   -39741   -39750   -39756   -39754   -39739   -39715   -39687 
  -39667   -39659   -39661   -39668   -39671   -39673   -39677   -39679 
  -39680   -39684   -39689   -39689   -39682   -39674   -39675   -39684 
  -39692   -39697   -39704   -39716   -39736   -39753   -39760   -39762 
  -39763   -39757   -39748   -39739   -39727   -39712   -39703   -39707 
  -39719   -39740   -39764   -39780   -39784   -39785   -39788   -39791 
  -39789   -39781   -39769   -39761   -39757   -39757   -39762   -39776 
  -39793   -39799   -39797   -39799   -39808   -39819   -39827   -39822 
  -39804   -39779   -39757   -39743   -39733   -39724   -39719   -39719 
  -39727   -39741   -39758   -39780   -39805   -39825   -39832   -39821 
  -39799   -39780   -39766   -39753   -39739   -39729   -39721   -39716 
  -39715   -39716   -39721   -39726   -39728   -39734   -39745   -39760 
  -39776   -39790   -39798   -39798   -39790   -39775   -39761   -39753 
  -39756   -39771   -39786   -39782   -39755   -39718   -39691   -39685 
  -39692   -39705   -39719   -39723   -39718   -39711   -39706   -39707 
  -39712   -39718   -39722   -39727   -39734   -39746   -39762   -39778 
  -39787   -39786   -39776   -39760   -39742   -39731   -39721   -39707 
  -39685   -39658   -39629   -39607   -39603   -39615   -39639   -39666 
  -39687   -39702   -39716   -39730   -39736   -39732   -39722   -39712 
  -39707   -39705   -39703   -39700   -39696   -39697   -39704   -39716 
  -39731   -39745   -39755   -39754   -39740   -39720   -39693   -39663 
  -39641   -39639   -39658   -39691   -39727   -39753   -39764   -39765 
  -39764   -39768   -39777   -39788   -39793   -39790   -39782   -39775 
  -39770   -39762   -39747   -39729   -39714   -39707   -39711   -39722 
  -39734   -39750   -39770   -39784   -39790   -39800   -39815   -39825 
  -39828   -39821   -39798   -39765   -39733   -39713   -39711   -39722 
  -39729   -39728   -39728   -39723   -39710   -39701   -39696   -39694 
  -39696   -39704   -39716   -39730   -39748   -39768   -39784   -39795 
  -39798   -39788   -39770   -39749   -39729   -39720   -39718   -39717 
  -39718   -39722   -39726   -39727   -39725   -39723   -39724   -39725 
  -39725   -39719   -39714   -39713   -39716   -39723   -39733   -39744 
  -39752   -39760   -39776   -39802   -39828   -39842   -39836   -39813 
  -39789   -39773   -39764   -39760   -39759   -39752   -39738   -39726 
  -39726   -39739   -39755   -39762   -39758   -39744   -39729   -39719 
  -39718   -39724   -39725   -39719   -39714   -39715   -39713   -39704 
  -39687   -39667   -39656   -39658   -39669   -39686   -39706   -39734 
  -39773   -39812   -39845   -39867   -39870   -39854   -39826   -39798 
  -39776   -39760   -39746   -39731   -39711   -39691   -39682   -39678 
  -39678   -39683   -39687   -39688   -39684   -39675   -39670   -39681 
  -39707   -39742   -39780   -39820   -39862   -39899   -39923   -39932 
  -39922   -39890   -39841   -39789   -39748   -39725   -39713   -39702 
  -39691   -39683   -39672   -39662   -39664   -39676   -39692   -39712 
  -39730   -39743   -39756   -39772   -39787   -39804   -39822   -39837 
  -39849   -39858   -39860   -39849   -39831   -39814   -39798   -39783 
  -39774   -39769   -39765   -39767   -39769   -39763   -39758   -39758 
  -39761   -39775   -39805   -39841   -39871   -39885   -39881   -39866 
  -39844   -39816   -39783   -39752   -39728   -39710   -39699   -39692 
  -39685   -39677   -39667   -39652   -39639   -39632   -39636   -39649 
  -39666   -39691   -39734   -39798   -39873   -39951   -40026   -40083 
  -40112   -40117   -40093   -40047   -39986   -39918   -39850   -39794 
  -39765   -39763   -39778   -39808   -39848   -39886   -39916   -39945 
  -39971   -39994   -40019   -40051   -40086   -40124   -40151   -40147 
  -40107   -40035   -39942   -39842   -39753   -39682   -39630   -39591 
  -39567   -39557   -39551   -39538   -39515   -39486   -39454   -39428 
  -39415   -39417   -39437   -39477   -39546   -39641   -39744   -39836 
  -39900   -39925   -39911   -39865   -39793   -39705   -39613   -39528 
  -39454   -39391   -39349   -39328   -39315   -39302   -39292   -39290 
  -39298   -39312   -39333   -39359   -39390   -39426   -39474   -39546 
  -39630   -39709   -39775   -39823   -39848   -39850   -39827   -39789 
  -39746   -39704   -39669   -39648   -39647   -39670   -39708   -39751 
  -39786   -39806   -39805   -39777   -39731   -39684   -39649   -39632 
  -39637   -39667   -39716   -39766   -39803   -39824   -39832   -39833 
  -39832   -39825   -39810   -39788   -39769   -39757   -39757   -39762 
  -39768   -39771   -39769   -39764   -39753   -39724   -39669   -39590 
  -39506   -39440   -39410   -39419   -39464   -39535   -39610   -39666 
  -39696   -39709   -39718   -39733   -39753   -39778   -39811   -39844 
  -39869   -39877   -39865   -39836   -39803   -39773   -39750   -39721 
  -39677   -39635   -39611   -39599   -39594   -39602   -39621   -39648 
  -39680   -39720   -39772   -39824   -39856   -39863   -39840   -39790 
  -39724   -39653   -39591   -39548   -39537   -39559   -39606   -39668 
  -39729   -39771   -39782   -39763   -39731   -39701   -39682   -39675 
  -39668   -39653   -39632   -39616   -39612   -39623   -39645   -39669 
  -39693   -39723   -39762   -39807   -39852   -39893   -39925   -39946 
  -39960   -39968   -39963   -39942   -39901   -39843   -39778   -39709 
  -39633   -39555   -39481   -39428   -39412   -39441   -39505   -39589 
  -39679   -39760   -39825   -39872   -39888   -39869   -39830   -39796 
  -39785   -39803   -39834   -39857   -39863   -39854   -39840   -39832 
  -39827   -39817   -39802   -39780   -39743   -39690   -39632   -39585 
  -39560   -39559   -39580   -39620   -39674   -39738   -39795   -39835 
  -39850   -39843   -39827   -39825   -39847   -39885   -39923   -39943 
  -39936   -39905   -39864   -39829   -39806   -39797   -39801   -39812 
  -39818   -39807   -39777   -39729   -39661   -39585   -39521   -39481 
  -39472   -39498   -39558   -39651   -39770   -39902   -40038   -40157 
  -40238   -40274   -40262   -40211   -40133   -40033   -39920   -39812 
  -39726   -39667   -39628   -39602   -39582   -39559   -39531   -39496 
  -39464   -39440   -39427   -39426   -39444   -39483   -39546   -39635 
  -39750   -39876   -39990   -40068   -40094   -40060   -39984   -39888 
  -39784   -39682   -39595   -39530   -39488   -39470   -39473   -39489 
  -39512   -39536   -39557   -39580   -39608   -39650   -39709   -39765 
  -39798   -39808   -39793   -39761   -39727   -39709   -39717   -39754 
  -39808   -39860   -39893   -39900   -39877   -39826   -39760   -39699 
  -39661   -39655   -39667   -39680   -39684   -39672   -39649   -39626 
  -39608   -39598   -39595   -39593   -39592   -39591   -39590   -39595 
  -39609   -39624   -39631   -39629   -39621   -39616   -39624   -39653 
  -39695   -39733   -39763   -39787   -39808   -39827   -39845   -39864 
  -39884   -39894   -39896   -39888   -39865   -39832   -39797   -39754 
  -39706   -39672   -39668   -39689   -39729   -39775   -39814   -39833 
  -39825   -39805   -39789   -39785   -39791   -39800   -39814   -39829 
  -39845   -39862   -39877   -39892   -39908   -39922   -39933   -39936 
  -39930   -39921   -39910   -39890   -39860   -39829   -39795   -39756 
  -39711   -39665   -39626   -39601   -39587   -39580   -39579   -39587 
  -39601   -39616   -39636   -39668   -39704   -39739   -39766   -39776 
  -39773   -39761   -39744   -39728   -39719   -39716   -39720   -39724 
  -39720   -39707   -39696   -39692   -39692   -39687   -39678   -39676 
  -39701   -39756   -39838   -39935   -40030   -40107   -40153   -40161 
  -40132   -40076   -40014   -39962   -39924   -39901   -39900   -39918 
  -39942   -39959   -39966   -39961   -39942   -39914   -39888   -39870 
  -39863   -39868   -39881   -39893   -39909   -39927   -39941   -39954 
  -39960   -39959   -39959   -39958   -39956   -39943   -39915   -39881 
  -39850   -39824   -39794   -39748   -39686   -39618   -39551   -39485 
  -39432   -39401   -39383   -39369   -39359   -39362   -39386   -39429 
  -39477   -39521   -39559   -39596   -39641   -39691   -39742   -39783 
  -39809   -39830   -39851   -39864   -39865   -39849   -39813   -39767 
  -39722   -39681   -39648   -39626   -39614   -39609   -39605   -39605 
  -39616   -39647   -39695   -39756   -39817   -39873   -39922   -39956 
  -39971   -39971   -39959   -39935   -39900   -39860   -39819   -39783 
  -39755   -39737   -39731   -39743   -39774   -39816   -39862   -39899 
  -39928   -39954   -39969   -39964   -39939   -39903   -39860   -39818 
  -39784   -39755   -39727   -39703   -39684   -39666   -39647   -39621 
  -39579   -39511   -39428   -39358   -39311   -39280   -39264   -39267 
  -39290   -39336   -39405   -39488   -39573   -39646   -39691   -39698 
  -39671   -39626   -39582   -39555   -39548   -39562   -39593   -39629 
  -39658   -39669   -39657   -39631   -39605   -39587   -39584   -39595 
  -39616   -39641   -39662   -39677   -39698   -39730   -39762   -39782 
  -39787   -39772   -39739   -39695   -39647   -39602   -39572   -39556 
  -39544   -39528   -39512   -39504   -39514   -39543   -39590   -39651 
  -39724   -39799   -39862   -39913   -39949   -39968   -39976   -39975 
  -39964   -39947   -39928   -39909   -39890   -39871   -39843   -39813 
  -39789   -39774   -39764   -39743   -39697   -39631   -39567   -39530 
  -39523   -39547   -39600   -39670   -39746   -39817   -39865   -39877 
  -39856   -39814   -39760   -39697   -39624   -39546   -39475   -39426 
  -39405   -39409   -39432   -39471   -39517   -39567   -39621   -39681 
  -39735   -39775   -39796   -39794   -39761   -39705   -39642   -39586 
  -39548   -39533   -39541   -39572   -39627   -39698   -39771   -39830 
  -39869   -39884   -39879   -39866   -39854   -39849   -39850   -39856 
  -39870   -39897   -39935   -39974   -40005   -40028   -40036   -40013 
  -39954   -39865   -39753   -39641   -39549   -39492   -39478   -39507 
  -39574   -39668   -39779   -39898   -40011   -40111   -40189   -40235 
  -40246   -40223   -40172   -40107   -40041   -39975   -39911   -39853 
  -39804   -39763   -39728   -39694   -39650   -39593   -39526   -39458 
  -39403   -39368   -39353   -39361   -39395   -39449   -39515   -39586 
  -39652   -39704   -39744   -39776   -39801   -39818   -39821   -39805 
  -39776   -39749   -39741   -39754   -39776   -39792   -39792   -39784 
  -39774   -39763   -39753   -39750   -39753   -39759   -39769   -39772 
  -39763   -39747   -39726   -39705   -39691   -39684   -39690   -39709 
  -39740   -39779   -39820   -39860   -39897   -39927   -39947   -39958 
  -39965   -39968   -39964   -39947   -39911   -39863   -39824   -39801 
  -39797   -39800   -39800   -39797   -39797   -39796   -39795   -39802 
  -39813   -39835   -39870   -39911   -39956   -40007   -40053   -40084 
  -40092   -40077   -40046   -40005   -39961   -39926   -39904   -39886 
  -39860   -39827   -39804   -39794   -39792   -39794   -39787   -39760 
  -39709   -39641   -39566   -39497   -39441   -39401   -39378   -39378 
  -39405   -39460   -39544   -39648   -39759   -39860   -39929   -39960 
  -39961   -39944   -39924   -39901   -39860   -39793   -39704   -39608 
  -39518   -39448   -39405   -39381   -39360   -39335   -39311   -39294 
  -39288   -39300   -39337   -39400   -39491   -39607   -39739   -39872 
  -39990   -40081   -40132   -40128   -40065   -39958   -39831   -39704 
  -39591   -39496   -39419   -39372   -39369   -39408   -39479   -39564 
  -39646   -39716   -39763   -39790   -39811   -39834   -39858   -39880 
  -39901   -39918   -39929   -39931   -39925   -39913   -39907   -39903 
  -39894   -39877   -39858   -39837   -39815   -39787   -39753   -39719 
  -39687   -39657   -39631   -39609   -39591   -39583   -39585   -39596 
  -39614   -39626   -39626   -39615   -39599   -39587   -39576   -39563 
  -39557   -39574   -39626   -39717   -39831   -39941   -40032   -40090 
