Origin Time       2024/04/02 04:24:00
Lat.              40.133
Long.             141.712
Depth. (km)       71
Mag.              6.0
Station Code      SRCH07
Station Lat.      43.2300
Station Long.     141.8978
Station Height(m) -125
Record Time       2024/04/02 04:26:09
Sampling Freq(Hz) 100Hz
Duration Time(s)  120
Dir.              1
Scale Factor      2942(gal)/8224139
Max. Acc. (gal)   0.171
Last Correction   2024/04/02 04:26:09
Memo.             
   66950    66955    66953    66923    66885    66868    66881    66904 
   66895    66843    66792    66772    66779    66783    66769    66745 
   66729    66733    66756    66784    66803    66799    66772    66750 
   66752    66771    66791    66811    66823    66819    66808    66808 
   66816    66826    66818    66799    66803    66845    66895    66918 
   66912    66897    66893    66914    66941    66949    66928    66892 
   66856    66833    66825    66823    66827    66823    66804    66793 
   66800    66807    66812    66815    66820    66834    66845    66849 
   66864    66879    66866    66833    66804    66800    66818    66834 
   66849    66877    66915    66935    66926    66889    66852    66835 
   66839    66852    66856    66843    66820    66800    66808    66856 
   66911    66933    66914    66884    66873    66872    66864    66846 
   66818    66780    66756    66765    66793    66796    66773    66757 
   66761    66781    66793    66780    66761    66772    66808    66849 
   66883    66895    66873    66831    66811    66822    66847    66861 
   66861    66856    66852    66854    66865    66874    66869    66847 
   66822    66811    66826    66843    66835    66808    66789    66788 
   66800    66806    66806    66807    66808    66806    66793    66779 
   66773    66783    66789    66781    66766    66757    66733    66681 
   66634    66631    66665    66692    66694    66691    66704    66727 
   66737    66730    66725    66741    66793    66868    66931    66960 
   66961    66946    66928    66915    66910    66904    66887    66854 
   66819    66796    66780    66754    66719    66691    66691    66717 
   66742    66744    66725    66707    66691    66673    66646    66626 
   66649    66718    66784    66808    66806    66810    66811    66788 
   66753    66738    66753    66776    66788    66788    66791    66793 
   66781    66756    66741    66746    66757    66762    66776    66811 
   66856    66901    66941    66955    66943    66915    66881    66850 
   66819    66798    66789    66779    66756    66735    66718    66708 
   66711    66719    66733    66757    66783    66798    66808    66825 
   66826    66807    66804    66833    66876    66915    66924    66896 
   66856    66830    66822    66820    66823    66830    66839    66856 
   66868    66869    66869    66874    66877    66869    66852    66838 
   66831    66819    66795    66773    66766    66756    66733    66714 
   66708    66721    66745    66777    66819    66870    66914    66938 
   66947    66942    66933    66941    66969    66993    67008    67009 
   66992    66960    66915    66865    66831    66826    66829    66820 
   66815    66820    66822    66810    66792    66775    66760    66761 
   66772    66772    66762    66754    66756    66761    66765    66765 
   66757    66737    66718    66721    66738    66750    66758    66777 
   66804    66841    66879    66899    66896    66883    66866    66854 
   66854    66862    66864    66850    66837    66830    66819    66800 
   66779    66758    66754    66773    66799    66810    66808    66806 
   66816    66839    66853    66846    66847    66877    66915    66922 
   66901    66877    66849    66819    66796    66787    66789    66785 
   66752    66704    66683    66692    66718    66757    66791    66806 
   66818    66812    66784    66760    66746    66745    66757    66784 
   66820    66856    66879    66885    66876    66862    66854    66838 
   66814    66803    66806    66798    66771    66735    66702    66680 
   66671    66672    66696    66737    66787    66830    66852    66849 
   66831    66804    66771    66745    66749    66779    66810    66831 
   66849    66868    66873    66850    66814    66785    66784    66806 
   66831    66846    66856    66858    66854    66842    66833    66839 
   66858    66876    66885    66883    66872    66856    66835    66823 
   66811    66793    66775    66760    66739    66719    66710    66712 
   66725    66746    66777    66814    66852    66876    66865    66837 
   66835    66858    66864    66846    66830    66827    66835    66837 
   66811    66780    66768    66768    66764    66757    66762    66773 
   66773    66771    66772    66785    66810    66830    66831    66826 
   66815    66808    66820    66843    66861    66866    66870    66876 
   66873    66860    66847    66853    66879    66904    66910    66895 
   66874    66861    66849    66835    66825    66823    66825    66819 
   66811    66808    66815    66820    66827    66850    66889    66928 
   66937    66910    66880    66869    66869    66862    66842    66819 
   66808    66804    66808    66815    66810    66785    66758    66749 
   66764    66771    66756    66742    66742    66754    66781    66815 
   66852    66893    66919    66907    66865    66818    66791    66795 
   66820    66841    66825    66787    66768    66771    66768    66752 
   66748    66762    66776    66783    66788    66802    66820    66820 
   66799    66785    66798    66814    66818    66812    66812    66826 
   66839    66835    66814    66788    66768    66752    66737    66727 
   66731    66749    66766    66776    66771    66753    66733    66726 
   66744    66783    66812    66812    66795    66783    66781    66777 
   66761    66739    66726    66719    66704    66675    66636    66602 
   66595    66611    66633    66653    66660    66645    66637    66652 
   66661    66650    66636    66629    66636    66653    66684    66719 
   66748    66758    66761    66765    66766    66760    66745    66722 
   66704    66694    66684    66681    66694    66708    66727    66754 
   66777    66773    66744    66719    66712    66711    66694    66679 
   66703    66756    66795    66806    66800    66792    66796    66796 
   66777    66761    66775    66800    66819    66819    66803    66788 
   66781    66780    66796    66830    66856    66862    66858    66856 
   66856    66850    66830    66807    66807    66830    66858    66874 
   66873    66864    66841    66796    66737    66692    66677    66677 
   66684    66698    66708    66723    66757    66804    66841    66856 
   66849    66826    66788    66741    66703    66687    66703    66756 
   66829    66904    66970    67004    67011    67015    67015    66999 
   66958    66904    66850    66804    66769    66734    66707    66710 
   66722    66706    66661    66610    66575    66561    66572    66615 
   66677    66742    66806    66865    66919    66970    67004    67019 
   67019    67005    66981    66946    66887    66807    66726    66676 
   66665    66672    66679    66684    66688    66695    66711    66738 
   66783    66834    66876    66907    66941    66999    67072    67127 
   67142    67115    67063    67020    66988    66958    66928    66896 
   66856    66815    66780    66754    66733    66719    66730    66771 
   66826    66884    66928    66954    66970    66992    67020    67053 
   67082    67099    67088    67057    67009    66943    66865    66784 
   66706    66656    66671    66746    66842    66910    66927    66920 
   66928    66950    66950    66920    66877    66846    66839    66847 
   66847    66829    66789    66729    66664    66622    66619    66658 
   66729    66804    66870    66915    66911    66861    66815    66807 
   66826    66857    66892    66924    66946    66961    66984    67023 
   67057    67061    67014    66922    66826    66758    66729    66731 
   66762    66814    66869    66922    66978    67024    67023    66950 
   66826    66702    66626    66615    66650    66703    66752    66779 
   66772    66753    66735    66721    66712    66718    66733    66760 
   66807    66865    66911    66945    66970    66982    66976    66949 
   66901    66841    66793    66784    66810    66845    66866    66870 
   66858    66834    66826    66845    66862    66846    66796    66735 
   66690    66654    66618    66572    66541    66555    66607    66664 
   66703    66731    66758    66772    66766    66750    66721    66679 
   66648    66645    66658    66672    66673    66672    66703    66776 
   66864    66947    67035    67123    67185    67196    67159    67097 
   67045    67023    67024    67024    67012    66984    66939    66870 
   66777    66665    66564    66511    66519    66568    66638    66718 
   66798    66870    66927    66964    66985    66995    66993    66981 
   66961    66930    66885    66833    66777    66744    66762    66833 
   66904    66941    66949    66955    66980    67014    67034    67030 
   67005    66981    66955    66900    66820    66760    66730    66725 
   66738    66754    66738    66694    66660    66663    66721    66823 
   66935    67023    67077    67095    67086    67080    67089    67100 
   67078    67018    66942    66864    66775    66658    66526    66418 
   66367    66357    66360    66372    66409    66469    66542    66622 
   66704    66788    66872    66938    66972    66999    67049    67103 
   67140    67173    67196    67185    67128    67034    66912    66784 
   66679    66623    66614    66625    66634    66634    66617    66592 
   66575    66571    66579    66603    66650    66719    66796    66869 
   66924    66933    66885    66808    66730    66676    66657    66663 
   66677    66692    66706    66718    66725    66738    66773    66846 
   66951    67053    67109    67117    67099    67080    67063    67041 
   67020    66993    66938    66868    66826    66838    66891    66946 
   66969    66950    66912    66872    66823    66769    66725    66698 
   66684    66685    66712    66760    66793    66776    66715    66648 
   66590    66532    66471    66425    66426    66491    66591    66677 
   66737    66762    66754    66731    66707    66694    66710    66750 
   66799    66838    66860    66865    66850    66802    66721    66629 
   66572    66575    66614    66642    66640    66626    66622    66622 
   66633    66665    66708    66746    66764    66753    66731    66717 
   66707    66687    66653    66625    66609    66602    66610    66640 
   66684    66738    66800    66866    66922    66961    66977    66974 
   66981    67008    67036    67032    67001    66970    66951    66933 
   66884    66803    66722    66668    66642    66648    66696    66783 
   66888    66987    67059    67090    67058    66970    66870    66784 
   66711    66649    66598    66553    66528    66519    66503    66487 
   66505    66542    66563    66571    66599    66668    66773    66887 
   66984    67065    67131    67171    67176    67146    67089    67009 
   66911    66800    66698    66629    66600    66606    66623    66622 
   66600    66584    66603    66668    66772    66899    67022    67113 
   67159    67155    67103    67018    66939    66895    66874    66877 
   66901    66938    66972    66984    66958    66889    66787    66671 
   66572    66515    66517    66564    66627    66690    66750    66799 
   66835    66868    66906    66953    67003    67055    67099    67122 
   67131    67138    67151    67171    67190    67190    67154    67089 
   67020    66955    66895    66823    66734    66636    66556    66502 
   66465    66432    66410    66429    66499    66595    66669    66692 
   66677    66652    66626    66599    66582    66595    66633    66680 
   66726    66757    66771    66777    66784    66796    66819    66839 
   66849    66849    66858    66891    66950    67022    67078    67100 
   67088    67042    66978    66918    66880    66870    66874    66869 
   66842    66808    66796    66803    66810    66816    66820    66814 
   66803    66789    66776    66779    66811    66868    66920    66949 
   66957    66950    66922    66883    66856    66843    66839    66839 
   66820    66777    66727    66680    66636    66598    66575    66564 
   66582    66640    66726    66819    66908    66980    67027    67045 
   67022    66954    66873    66815    66793    66787    66762    66717 
   66661    66611    66583    66584    66611    66644    66657    66640 
   66609    66595    66604    66626    66660    66719    66800    66900 
   67004    67077    67101    67088    67059    67041    67051    67084 
   67111    67104    67062    67009    66960    66923    66908    66900 
   66872    66829    66799    66780    66753    66721    66688    66665 
   66656    66668    66696    66735    66800    66901    67030    67159 
   67255    67289    67263    67200    67116    67030    66951    66883 
   66812    66730    66645    66577    66538    66517    66503    66502 
   66537    66630    66764    66895    66995    67063    67096    67081 
   67030    66980    66957    66951    66946    66935    66910    66843 
   66737    66619    66529    66471    66425    66380    66363    66395 
   66472    66569    66672    66780    66891    67005    67103    67158 
   67171    67169    67158    67126    67076    67030    66991    66954 
   66922    66883    66830    66765    66688    66625    66588    66571 
   66573    66614    66710    66845    66969    67043    67085    67126 
   67150    67124    67042    66934    66839    66780    66735    66688 
   66641    66602    66571    66549    66540    66546    66559    66565 
   66557    66546    66567    66626    66688    66717    66715    66719 
   66746    66783    66822    66860    66897    66942    66987    67016 
   67036    67055    67066    67035    66949    66833    66712    66615 
   66555    66532    66532    66533    66538    66568    66621    66681 
   66738    66787    66835    66887    66933    66973    67015    67059 
   67095    67101    67074    67022    66960    66892    66814    66719 
   66638    66604    66625    66672    66725    66780    66847    66920 
   66968    66982    66969    66928    66864    66795    66744    66727 
   66737    66744    66734    66717    66695    66669    66646    66633 
   66627    66631    66641    66665    66717    66783    66852    66915 
   66955    66965    66950    66919    66885    66861    66850    66858 
   66885    66920    66935    66926    66906    66884    66856    66810 
   66748    66692    66665    66660    66653    66638    66622    66607 
   66611    66648    66699    66752    66800    66845    66892    66938 
   66953    66919    66854    66806    66799    66820    66847    66873 
   66906    66949    66991    67008    67007    67003    66997    66985 
   66969    66954    66942    66922    66887    66841    66793    66760 
   66746    66752    66766    66773    66764    66744    66707    66653 
   66602    66571    66560    66573    66618    66691    66769    66818 
   66814    66783    66761    66748    66731    66719    66733    66788 
   66873    66957    67020    67055    67066    67045    66984    66901 
   66826    66765    66703    66634    66577    66553    66553    66552 
   66538    66534    66552    66583    66623    66658    66679    66690 
   66703    66719    66726    66703    66652    66602    66583    66594 
   66613    66627    66649    66691    66737    66761    66760    66746 
   66726    66707    66681    66648    66621    66603    66592    66592 
   66603    66626    66668    66726    66791    66850    66895    66926 
   66951    66977    66996    66995    66977    66951    66919    66880 
   66850    66843    66843    66822    66777    66731    66700    66685 
   66683    66699    66745    66808    66860    66888    66900    66896 
   66881    66877    66897    66942    66999    67049    67070    67059 
   67020    66969    66920    66877    66843    66820    66818    66837 
   66874    66911    66930    66931    66919    66896    66876    66874 
   66892    66926    66960    66982    66999    67019    67035    67023 
   66984    66933    66877    66826    66792    66772    66750    66718 
   66685    66667    66677    66718    66771    66811    66842    66866 
   66884    66900    66912    66918    66915    66903    66868    66803 
   66733    66680    66645    66618    66590    66565    66563    66586 
   66626    66680    66739    66791    66831    66858    66865    66872 
   66888    66910    66928    66927    66906    66885    66856    66808 
   66748    66681    66623    66582    66560    66565    66596    66646 
   66708    66779    66852    66923    66978    67001    67001    67011 
   67041    67068    67080    67073    67050    67014    66955    66861 
   66749    66654    66600    66583    66592    66613    66637    66665 
   66691    66708    66710    66690    66661    66644    66660    66704 
   66761    66818    66857    66866    66870    66892    66928    66969 
   67015    67065    67109    67135    67140    67128    67109    67081 
   67027    66953    66876    66804    66742    66684    66650    66671 
   66731    66791    66829    66854    66874    66889    66879    66838 
   66800    66785    66795    66812    66823    66818    66798    66775 
   66762    66760    66762    66777    66811    66868    66934    66977 
   66992    66988    66968    66943    66926    66901    66856    66806 
   66781    66791    66834    66896    66957    67004    67031    67032 
   67011    66965    66896    66823    66764    66727    66715    66710 
   66704    66700    66699    66703    66714    66723    66722    66708 
   66700    66718    66762    66820    66883    66937    66977    67007 
   67024    67020    66985    66926    66866    66826    66814    66819 
   66829    66846    66870    66887    66884    66861    66826    66799 
   66788    66791    66800    66800    66779    66731    66665    66603 
   66563    66548    66556    66586    66626    66660    66681    66688 
   66673    66645    66614    66594    66598    66636    66695    66750 
   66789    66815    66833    66838    66827    66800    66780    66779 
   66789    66806    66827    66846    66862    66873    66873    66868 
   66870    66881    66885    66881    66884    66904    66939    66972 
   66985    66981    66972    66966    66965    66951    66920    66877 
   66827    66761    66679    66596    66548    66546    66568    66588 
   66604    66617    66622    66621    66603    66579    66563    66557 
   66560    66580    66626    66688    66754    66814    66858    66895 
   66918    66915    66893    66870    66850    66827    66808    66796 
   66792    66791    66783    66761    66741    66733    66725    66715 
   66722    66744    66773    66807    66833    66847    66853    66853 
   66841    66807    66762    66718    66668    66614    66568    66538 
   66533    66549    66576    66606    66649    66707    66775    66854 
   66945    67028    67090    67134    67155    67169    67196    67238 
   67270    67266    67230    67178    67128    67089    67053    67000 
   66930    66857    66795    66745    66703    66664    66625    66583 
   66545    66517    66501    66498    66499    66505    66519    66545 
   66590    66641    66685    66725    66757    66785    66815    66831 
   66825    66792    66746    66717    66710    66717    66730    66741 
   66750    66760    66761    66758    66762    66773    66779    66768 
   66742    66715    66707    66711    66718    66731    66745    66745 
   66741    66737    66721    66687    66630    66565    66521    66494 
   66465    66441    66440    66461    66494    66523    66550    66586 
   66634    66692    66745    66793    66835    66864    66880    66893 
   66912    66941    66976    67020    67073    67128    67171    67192 
