Origin Time       2024/04/02 04:24:00
Lat.              40.133
Long.             141.712
Depth. (km)       71
Mag.              6.0
Station Code      SRCH10
Station Lat.      42.9930
Station Long.     142.0085
Station Height(m) 195
Record Time       2024/04/02 04:25:23
Sampling Freq(Hz) 100Hz
Duration Time(s)  120
Dir.              6
Scale Factor      3920(gal)/6170801
Max. Acc. (gal)   0.279
Last Correction   2024/04/02 04:25:08
Memo.             
[...]
  -16950   -16950   -16951   -16951   -16951   -16950   -16948   -16948 
  -16949   -16949   -16949   -16949   -16949   -16950   -16949   -16949 
  -16951   -16951   -16949   -16949   -16950   -16949   -16949   -16950 
  -16951   -16951   -16950   -16949   -16947   -16949   -16949   -16949 
  -16950   -16949   -16948   -16950   -16951   -16951   -16952   -16951 
  -16950   -16949   -16948   -16949   -16951   -16951   -16949   -16948 
  -16949   -16950   -16949   -16949   -16950   -16949   -16949   -16948 
  -16949   -16950   -16949   -16950   -16952   -16949   -16948   -16950 
  -16951   -16950   -16948   -16949   -16949   -16949   -16949   -16949 
  -16948   -16950   -16950   -16948   -16950   -16950   -16948   -16949 
  -16950   -16949   -16950   -16950   -16949   -16950   -16949   -16948 
  -16950   -16950   -16950   -16951   -16950   -16949   -16950   -16950 
  -16950   -16949   -16948   -16949   -16947   -16949   -16952   -16951 
  -16949   -16951   -16951   -16950   -16949   -16949   -16948   -16948 
  -16949   -16949   -16949   -16949   -16948   -16947   -16949   -16950 
  -16950   -16951   -16951   -16949   -16948   -16949   -16950   -16949 
  -16947   -16948   -16949   -16949   -16949   -16949   -16949   -16950 
  -16949   -16947   -16949   -16951   -16949   -16947   -16948   -16948 
  -16948   -16950   -16951   -16950   -16950   -16952   -16951   -16947 
  -16947   -16948   -16949   -16949   -16949   -16949   -16949   -16948 
  -16949   -16950   -16950   -16948   -16947   -16950   -16950   -16947 
  -16949   -16950   -16951   -16952   -16951   -16950   -16950   -16950 
  -16951   -16952   -16949   -16948   -16950   -16950   -16950   -16950 
  -16949   -16950   -16951   -16950   -16951   -16950   -16948   -16949 
  -16950   -16952   -16952   -16949   -16948   -16949   -16950   -16950 
  -16950   -16952   -16950   -16949   -16950   -16950   -16950   -16949 
  -16948   -16948   -16948   -16947   -16949   -16950   -16949   -16948 
  -16950   -16950   -16948   -16947   -16949   -16950   -16949   -16949 
  -16949   -16949   -16950   -16950   -16949   -16950   -16951   -16951 
  -16951   -16950   -16948   -16951   -16952   -16951   -16950   -16950 
  -16949   -16951   -16950   -16949   -16949   -16948   -16948   -16949 
  -16949   -16949   -16950   -16950   -16949   -16949   -16951   -16952 
  -16949   -16947   -16948   -16951   -16952   -16951   -16950   -16950 
  -16951   -16951   -16950   -16950   -16950   -16949   -16949   -16951 
  -16950   -16949   -16949   -16950   -16949   -16949   -16950   -16949 
  -16948   -16950   -16950   -16949   -16950   -16950   -16950   -16949 
  -16947   -16949   -16951   -16951   -16951   -16950   -16947   -16948 
  -16950   -16950   -16949   -16948   -16950   -16952   -16951   -16950 
  -16950   -16949   -16949   -16949   -16949   -16951   -16951   -16949 
  -16948   -16949   -16950   -16950   -16949   -16950   -16950   -16949 
  -16950   -16950   -16948   -16948   -16950   -16949   -16948   -16950 
  -16950   -16948   -16948   -16949   -16949   -16948   -16948   -16950 
  -16949   -16950   -16951   -16948   -16947   -16948   -16948   -16948 
  -16949   -16950   -16948   -16947   -16948   -16949   -16950   -16948 
  -16947   -16950   -16951   -16948   -16947   -16948   -16948   -16949 
  -16950   -16949   -16948   -16949   -16949   -16949   -16950   -16949 
  -16948   -16948   -16949   -16948   -16949   -16950   -16950   -16948 
  -16947   -16949   -16951   -16948   -16947   -16948   -16948   -16949 
  -16950   -16949   -16948   -16948   -16949   -16950   -16950   -16950 
  -16950   -16950   -16951   -16949   -16945   -16947   -16952   -16950 
  -16947   -16950   -16951   -16948   -16947   -16949   -16951   -16950 
  -16948   -16948   -16950   -16949   -16948   -16950   -16950   -16948 
  -16948   -16950   -16948   -16947   -16949   -16949   -16947   -16948 
  -16950   -16949   -16948   -16949   -16950   -16951   -16950   -16949 
  -16948   -16950   -16951   -16948   -16947   -16949   -16949   -16949 
  -16950   -16951   -16950   -16949   -16950   -16951   -16950   -16949 
  -16950   -16949   -16947   -16948   -16950   -16950   -16949   -16949 
  -16949   -16948   -16948   -16949   -16950   -16950   -16950   -16951 
  -16950   -16950   -16950   -16949   -16950   -16950   -16951   -16951 
  -16950   -16950   -16951   -16950   -16949   -16950   -16948   -16947 
  -16948   -16950   -16951   -16949   -16949   -16952   -16951   -16950 
  -16951   -16950   -16949   -16951   -16948   -16949   -16952   -16950 
  -16948   -16949   -16951   -16951   -16949   -16947   -16947   -16949 
  -16950   -16949   -16947   -16949   -16951   -16948   -16948   -16950 
  -16950   -16950   -16950   -16950   -16950   -16950   -16948   -16947 
  -16946   -16948   -16949   -16950   -16949   -16948   -16948   -16950 
  -16950   -16948   -16949   -16949   -16948   -16949   -16948   -16948 
  -16951   -16950   -16947   -16947   -16948   -16948   -16947   -16947 
  -16951   -16952   -16949   -16948   -16949   -16948   -16947   -16950 
  -16951   -16948   -16948   -16950   -16950   -16949   -16948   -16947 
  -16947   -16949   -16950   -16951   -16951   -16951   -16950   -16950 
  -16951   -16950   -16949   -16950   -16950   -16949   -16949   -16949 
  -16949   -16949   -16949   -16950   -16951   -16950   -16951   -16950 
  -16949   -16950   -16950   -16949   -16949   -16949   -16950   -16950 
  -16950   -16949   -16949   -16950   -16948   -16948   -16950   -16949 
  -16948   -16949   -16950   -16949   -16949   -16947   -16949   -16950 
  -16948   -16949   -16950   -16949   -16948   -16948   -16949   -16950 
  -16949   -16947   -16948   -16950   -16949   -16947   -16949   -16950 
  -16949   -16949   -16949   -16950   -16949   -16948   -16948   -16949 
  -16951   -16950   -16949   -16950   -16948   -16947   -16951   -16951 
  -16945   -16945   -16948   -16949   -16949   -16947   -16947   -16948 
  -16948   -16947   -16948   -16947   -16949   -16951   -16949   -16947 
  -16948   -16950   -16950   -16949   -16949   -16948   -16948   -16950 
  -16951   -16949   -16948   -16949   -16950   -16949   -16947   -16947 
  -16948   -16948   -16948   -16948   -16949   -16951   -16949   -16948 
  -16949   -16949   -16950   -16949   -16948   -16949   -16950   -16949 
  -16948   -16948   -16949   -16951   -16950   -16949   -16949   -16949 
  -16949   -16950   -16948   -16947   -16948   -16949   -16949   -16948 
  -16949   -16950   -16949   -16951   -16952   -16949   -16948   -16948 
  -16950   -16949   -16948   -16948   -16948   -16947   -16948   -16947 
  -16948   -16950   -16949   -16948   -16948   -16948   -16949   -16949 
  -16948   -16949   -16951   -16950   -16948   -16949   -16948   -16947 
  -16950   -16949   -16948   -16949   -16950   -16949   -16948   -16948 
  -16949   -16948   -16947   -16948   -16948   -16948   -16950   -16950 
  -16950   -16949   -16948   -16949   -16949   -16948   -16947   -16948 
  -16949   -16950   -16948   -16947   -16949   -16948   -16947   -16947 
  -16947   -16947   -16948   -16949   -16948   -16948   -16949   -16946 
  -16946   -16949   -16950   -16947   -16946   -16948   -16950   -16950 
  -16950   -16949   -16947   -16948   -16949   -16947   -16947   -16951 
  -16952   -16949   -16946   -16946   -16948   -16949   -16947   -16946 
  -16948   -16948   -16948   -16949   -16949   -16947   -16948   -16949 
  -16949   -16951   -16951   -16949   -16948   -16949   -16950   -16951 
  -16949   -16948   -16948   -16947   -16947   -16948   -16950   -16950 
  -16948   -16950   -16951   -16949   -16950   -16949   -16947   -16949 
  -16950   -16949   -16949   -16950   -16948   -16948   -16950   -16949 
  -16947   -16947   -16948   -16949   -16949   -16948   -16948   -16949 
  -16948   -16948   -16947   -16947   -16948   -16947   -16946   -16947 
  -16949   -16949   -16949   -16948   -16947   -16948   -16949   -16949 
  -16949   -16949   -16948   -16948   -16948   -16949   -16948   -16947 
  -16949   -16950   -16949   -16947   -16948   -16947   -16948   -16950 
  -16950   -16947   -16948   -16949   -16948   -16949   -16950   -16950 
  -16950   -16949   -16948   -16948   -16949   -16951   -16950   -16947 
  -16948   -16949   -16949   -16949   -16948   -16948   -16949   -16949 
  -16947   -16947   -16949   -16949   -16949   -16949   -16947   -16948 
  -16948   -16947   -16948   -16949   -16948   -16948   -16948   -16949 
  -16949   -16948   -16950   -16950   -16947   -16948   -16950   -16949 
  -16949   -16948   -16946   -16948   -16949   -16949   -16950   -16950 
  -16949   -16948   -16948   -16949   -16949   -16948   -16948   -16947 
  -16947   -16948   -16948   -16949   -16949   -16950   -16951   -16951 
  -16949   -16950   -16950   -16950   -16950   -16950   -16949   -16948 
  -16948   -16948   -16947   -16948   -16949   -16948   -16949   -16951 
  -16951   -16949   -16949   -16949   -16949   -16949   -16949   -16947 
  -16948   -16950   -16948   -16948   -16950   -16950   -16949   -16948 
  -16947   -16949   -16949   -16947   -16947   -16950   -16950   -16948 
  -16946   -16946   -16948   -16949   -16948   -16947   -16948   -16947 
  -16949   -16950   -16947   -16948   -16949   -16949   -16950   -16950 
  -16948   -16947   -16948   -16949   -16947   -16948   -16950   -16949 
  -16947   -16948   -16947   -16946   -16948   -16949   -16947   -16947 
  -16950   -16950   -16948   -16948   -16949   -16949   -16949   -16949 
  -16949   -16948   -16948   -16949   -16948   -16947   -16947   -16948 
  -16948   -16948   -16950   -16951   -16949   -16949   -16949   -16948 
  -16950   -16950   -16948   -16948   -16949   -16949   -16949   -16949 
  -16949   -16949   -16949   -16948   -16948   -16950   -16949   -16947 
  -16949   -16950   -16947   -16948   -16950   -16948   -16948   -16948 
  -16949   -16950   -16951   -16950   -16950   -16949   -16949   -16950 
  -16950   -16950   -16950   -16950   -16949   -16949   -16950   -16949 
  -16948   -16949   -16950   -16951   -16950   -16949   -16949   -16949 
  -16951   -16951   -16951   -16950   -16949   -16949   -16948   -16948 
  -16949   -16950   -16950   -16950   -16949   -16948   -16949   -16950 
  -16948   -16947   -16952   -16952   -16947   -16948   -16950   -16949 
  -16948   -16950   -16950   -16948   -16947   -16947   -16948   -16950 
  -16950   -16948   -16949   -16950   -16948   -16947   -16949   -16949 
  -16948   -16948   -16948   -16949   -16948   -16947   -16947   -16948 
  -16949   -16949   -16948   -16949   -16950   -16950   -16950   -16951 
  -16950   -16949   -16949   -16950   -16952   -16952   -16950   -16949 
  -16949   -16948   -16949   -16950   -16949   -16949   -16951   -16951 
  -16952   -16952   -16951   -16952   -16952   -16952   -16953   -16953 
  -16952   -16951   -16952   -16951   -16950   -16952   -16954   -16953 
  -16952   -16952   -16952   -16953   -16954   -16953   -16953   -16955 
  -16955   -16953   -16954   -16955   -16955   -16955   -16955   -16955 
  -16955   -16956   -16958   -16958   -16957   -16956   -16959   -16961 
  -16960   -16959   -16962   -16961   -16958   -16958   -16959   -16959 
  -16961   -16962   -16959   -16959   -16960   -16959   -16961   -16963 
  -16964   -16963   -16964   -16964   -16962   -16962   -16961   -16960 
  -16960   -16960   -16960   -16959   -16959   -16961   -16960   -16960 
  -16961   -16963   -16965   -16966   -16968   -16969   -16967   -16967 
  -16968   -16969   -16972   -16972   -16969   -16969   -16969   -16970 
  -16973   -16973   -16971   -16972   -16973   -16975   -16976   -16975 
  -16975   -16975   -16971   -16968   -16968   -16966   -16965   -16964 
  -16958   -16951   -16942   -16934   -16933   -16938   -16943   -16945 
  -16947   -16953   -16966   -16981   -16993   -16998   -17001   -16999 
  -16991   -16979   -16961   -16937   -16911   -16884   -16858   -16832 
  -16803   -16774   -16753   -16748   -16761   -16782   -16802   -16828 
  -16866   -16911   -16958   -17007   -17046   -17070   -17084   -17091 
  -17091   -17074   -17043   -17005   -16961   -16914   -16877   -16862 
  -16869   -16893   -16920   -16941   -16951   -16943   -16922   -16905 
  -16900   -16893   -16866   -16831   -16820   -16843   -16885   -16938 
  -17002   -17067   -17106   -17107   -17086   -17063   -17027   -16963 
  -16883   -16814   -16765   -16732   -16719   -16739   -16789   -16840 
  -16867   -16884   -16911   -16933   -16904   -16809   -16699   -16638 
  -16639   -16681   -16737   -16790   -16834   -16873   -16902   -16925 
  -16949   -16957   -16934   -16901   -16890   -16910   -16934   -16942 
  -16955   -17012   -17116   -17223   -17271   -17250   -17203   -17164 
  -17135   -17099   -17054   -17014   -16982   -16968   -17000   -17084 
  -17181   -17246   -17253   -17189   -17071   -16947   -16853   -16787 
  -16724   -16674   -16691   -16792   -16918   -17000   -17028   -17027 
  -17019   -17009   -16992   -16968   -16927   -16855   -16784   -16773 
  -16837   -16923   -16980   -17008   -17035   -17063   -17082   -17080 
  -17043   -16983   -16925   -16888   -16885   -16892   -16881   -16891 
  -16970   -17077   -17140   -17145   -17119   -17050   -16928   -16804 
  -16760   -16808   -16878   -16906   -16898   -16881   -16859   -16834 
  -16805   -16790   -16817   -16881   -16949   -16994   -16986   -16914 
  -16843   -16845   -16922   -17018   -17069   -17045   -16994   -16981 
  -17001   -17005   -16988   -16976   -16956   -16910   -16870   -16871 
  -16899   -16927   -16959   -16995   -16984   -16904   -16827   -16811 
  -16818   -16834   -16907   -17013   -17064   -17039   -16986   -16944 
  -16940   -17003   -17139   -17297   -17389   -17362   -17266   -17203 
  -17216   -17243   -17227   -17188   -17164   -17146   -17100   -17033 
  -16976   -16937   -16912   -16907   -16917   -16920   -16903   -16874 
  -16846   -16843   -16893   -16970   -17013   -16997   -16946   -16917 
  -16938   -16987   -17018   -17009   -16984   -16989   -17037   -17091 
  -17103   -17058   -16981   -16916   -16899   -16928   -16972   -16990 
  -16954   -16859   -16748   -16698   -16746   -16834   -16868   -16839 
  -16807   -16813   -16842   -16849   -16811   -16775   -16797   -16863 
  -16915   -16917   -16893   -16877   -16853   -16799   -16762   -16804 
  -16894   -16963   -16992   -16996   -16993   -16984   -16959   -16922 
  -16885   -16855   -16852   -16908   -17018   -17115   -17129   -17056 
  -16983   -16990   -17034   -17030   -16990   -16960   -16942   -16921 
  -16889   -16835   -16776   -16761   -16811   -16871   -16894   -16897 
  -16912   -16925   -16899   -16840   -16810   -16843   -16915   -16993 
  -17056   -17068   -17023   -16947   -16867   -16820   -16826   -16861 
  -16898   -16952   -17043   -17147   -17214   -17222   -17199   -17167 
  -17112   -17039   -16979   -16940   -16920   -16926   -16932   -16903 
  -16865   -16871   -16911   -16928   -16908   -16893   -16918   -16966 
  -17002   -17009   -16973   -16907   -16868   -16878   -16897   -16899 
  -16898   -16904   -16896   -16854   -16803   -16776   -16782   -16822 
  -16876   -16899   -16889   -16902   -16960   -16999   -16964   -16888 
  -16827   -16811   -16849   -16920   -16979   -17019   -17060   -17073 
  -17028   -16971   -16946   -16937   -16920   -16907   -16905   -16895 
  -16872   -16844   -16821   -16829   -16877   -16923   -16938   -16944 
  -16981   -17037   -17076   -17106   -17162   -17228   -17254   -17220 
  -17149   -17100   -17107   -17137   -17141   -17104   -17026   -16937 
  -16871   -16829   -16810   -16828   -16887   -16954   -16997   -17009 
  -17014   -17027   -17035   -17020   -16986   -16963   -16965   -16977 
  -16985   -16981   -16964   -16939   -16915   -16892   -16887   -16904 
  -16912   -16899   -16885   -16864   -16832   -16810   -16810   -16814 
  -16809   -16814   -16836   -16865   -16907   -16972   -17039   -17084 
  -17093   -17050   -16958   -16862   -16810   -16813   -16842   -16878 
  -16933   -17013   -17077   -17085   -17051   -17021   -17027   -17054 
  -17063   -17047   -17028   -17024   -17029   -17024   -17003   -16974 
  -16934   -16880   -16847   -16859   -16885   -16893   -16882   -16864 
  -16858   -16876   -16916   -16959   -16981   -16971   -16956   -16974 
  -17033   -17090   -17101   -17065   -17015   -16983   -16965   -16926 
  -16860   -16824   -16869   -16955   -16995   -16975   -16966   -17008 
  -17060   -17078   -17058   -17020   -17002   -17024   -17038   -17001 
  -16938   -16885   -16852   -16855   -16887   -16918   -16936   -16939 
  -16932   -16924   -16905   -16867   -16831   -16835   -16877   -16918 
  -16927   -16918   -16925   -16963   -17013   -17040   -17019   -16952 
  -16875   -16834   -16849   -16897   -16946   -16984   -17020   -17050 
  -17067   -17060   -17001   -16895   -16812   -16802   -16837   -16867 
  -16875   -16862   -16833   -16812   -16827   -16873   -16923   -16957 
  -16971   -16988   -17015   -17047   -17079   -17098   -17083   -17048 
  -17025   -17035   -17061   -17051   -16987   -16913   -16874   -16868 
  -16882   -16918   -16961   -16972   -16942   -16913   -16922   -16947 
  -16950   -16944   -16972   -17029   -17074   -17080   -17037   -16976 
  -16943   -16932   -16927   -16935   -16951   -16962   -16967   -16979 
  -17002   -17013   -16994   -16962   -16934   -16904   -16888   -16904 
  -16930   -16952   -16992   -17044   -17074   -17085   -17094   -17081 
  -17007   -16886   -16787   -16758   -16782   -16823   -16863   -16880 
  -16861   -16836   -16843   -16883   -16928   -16954   -16966   -16995 
  -17039   -17061   -17045   -17015   -16991   -16958   -16903   -16827 
  -16773   -16791   -16876   -16978   -17056   -17078   -17012   -16884 
  -16789   -16794   -16862   -16914   -16917   -16896   -16898   -16948 
  -17022   -17060   -17033   -16967   -16909   -16886   -16878   -16869 
  -16857   -16824   -16772   -16741   -16764   -16825   -16888   -16928 
  -16936   -16915   -16886   -16859   -16837   -16829   -16842   -16865 
  -16878   -16888   -16936   -17031   -17116   -17134   -17093   -17046 
  -17022   -17005   -16972   -16933   -16906   -16891   -16881   -16868 
  -16843   -16813   -16810   -16866   -16970   -17053   -17071   -17071 
  -17099   -17129   -17121   -17077   -17025   -16992   -16988   -16999 
  -17012   -17040   -17093   -17142   -17141   -17096   -17064   -17070 
  -17096   -17120   -17116   -17054   -16937   -16826   -16764   -16740 
  -16752   -16798   -16843   -16871   -16894   -16914   -16943   -17002 
  -17090   -17160   -17162   -17095   -17001   -16923   -16898   -16928 
  -16967   -16970   -16950   -16936   -16935   -16956   -17004   -17029 
  -16982   -16897   -16851   -16861   -16889   -16913   -16927   -16926 
  -16917   -16938   -17002   -17062   -17078   -17051   -17003   -16979 
  -16999   -17024   -17014   -16979   -16944   -16928   -16938   -16954 
  -16931   -16865   -16803   -16783   -16811   -16878   -16962   -17036 
  -17087   -17117   -17133   -17141   -17134   -17101   -17051   -17007 
  -16992   -17008   -17021   -16999   -16945   -16895   -16885   -16908 
  -16929   -16930   -16909   -16888   -16902   -16929   -16919   -16873 
  -16834   -16828   -16850   -16880   -16910   -16936   -16939   -16906 
  -16859   -16833   -16856   -16910   -16938   -16910   -16858   -16847 
  -16905   -16977   -17002   -16983   -16970   -16985   -16996   -16984 
  -16968   -16978   -17011   -17034   -17032   -17006   -16958   -16903 
  -16861   -16843   -16837   -16828   -16808   -16772   -16732   -16724 
