Origin Time       2024/04/02 04:24:00
Lat.              40.133
Long.             141.712
Depth. (km)       71
Mag.              6.0
Station Code      SRCH08
Station Lat.      43.5138
Station Long.     141.9090
Station Height(m) -92
Record Time       2024/04/02 04:26:07
Sampling Freq(Hz) 100Hz
Duration Time(s)  120
Dir.              2
Scale Factor      2940(gal)/6170270
Max. Acc. (gal)   0.245
Last Correction   2024/04/02 04:25:52
Memo.             
[...]
   36662    36662    36655    36646    36639    36638    36642    36650 
   36658    36659    36646    36617    36582    36545    36506    36469 
   36436    36408    36396    36411    36447    36494    36548    36608 
   36661    36695    36708    36707    36696    36684    36674    36665 
   36654    36642    36631    36620    36608    36595    36588    36579 
   36567    36569    36588    36608    36620    36628    36636    36642 
   36639    36628    36610    36578    36530    36477    36436    36412 
   36402    36407    36427    36457    36490    36518    36538    36549 
   36547    36538    36526    36515    36512    36519    36534    36561 
   36600    36645    36684    36713    36736    36754    36757    36736 
   36692    36637    36577    36512    36455    36416    36392    36385 
   36398    36423    36458    36500    36538    36570    36594    36613 
   36632    36650    36665    36673    36673    36664    36651    36638 
   36624    36608    36593    36579    36560    36537    36518    36502 
   36490    36496    36525    36571    36627    36687    36736    36761 
   36757    36735    36701    36662    36632    36617    36616    36619 
   36624    36638    36658    36681    36715    36749    36764    36751 
   36713    36667    36621    36579    36541    36509    36486    36473 
   36473    36482    36492    36507    36535    36574    36621    36680 
   36749    36816    36871    36905    36923    36926    36910    36869 
   36806    36732    36665    36608    36568    36558    36575    36604 
   36636    36664    36687    36709    36733    36753    36762    36765 
   36767    36758    36738    36719    36709    36704    36698    36690 
   36685    36685    36682    36681    36687    36697    36703    36699 
   36678    36640    36593    36548    36514    36486    36456    36425 
   36400    36384    36385    36400    36426    36462    36499    36525 
   36546    36562    36572    36572    36563    36554    36545    36527 
   36497    36462    36426    36392    36369    36368    36386    36415 
   36452    36488    36517    36541    36562    36581    36595    36599 
   36599    36596    36587    36585    36596    36612    36627    36636 
   36645    36656    36662    36663    36655    36623    36569    36500 
   36420    36340    36281    36250    36236    36232    36239    36259 
   36286    36316    36346    36382    36426    36477    36533    36598 
   36669    36740    36806    36862    36909    36945    36962    36966 
   36970    36973    36963    36934    36892    36837    36775    36721 
   36681    36654    36639    36633    36639    36656    36683    36722 
   36763    36796    36827    36855    36872    36869    36842    36796 
   36736    36664    36587    36519    36473    36446    36432    36431 
   36450    36494    36556    36622    36684    36736    36772    36800 
   36828    36853    36871    36886    36894    36886    36863    36834 
   36810    36796    36795    36807    36817    36803    36761    36702 
   36633    36563    36507    36464    36438    36432    36440    36461 
   36497    36537    36570    36596    36614    36624    36634    36638 
   36634    36629    36625    36612    36593    36573    36554    36540 
   36540    36551    36569    36599    36637    36672    36704    36737 
   36769    36800    36831    36856    36859    36829    36767    36684 
   36597    36532    36500    36491    36489    36492    36498    36513 
   36543    36588    36650    36710    36743    36746    36730    36701 
   36665    36625    36584    36541    36496    36452    36410    36372 
   36344    36324    36311    36312    36334    36375    36429    36494 
   36569    36642    36699    36732    36751    36760    36758    36748 
   36737    36735    36748    36769    36797    36832    36865    36888 
   36896    36885    36856    36807    36739    36666    36599    36548 
   36512    36489    36482    36492    36507    36520    36529    36535 
   36539    36536    36523    36507    36491    36474    36458    36438 
   36416    36396    36383    36380    36386    36406    36440    36481 
   36519    36557    36599    36643    36686    36721    36745    36757 
   36753    36744    36746    36757    36768    36776    36777    36767 
   36749    36731    36713    36687    36661    36637    36610    36576 
   36537    36498    36465    36435    36407    36386    36367    36348 
   36335    36332    36341    36370    36422    36486    36551    36613 
   36659    36677    36668    36646    36616    36581    36550    36531 
   36515    36499    36485    36475    36473    36480    36496    36519 
   36546    36571    36594    36612    36624    36635    36651    36670 
   36686    36703    36726    36744    36750    36743    36724    36694 
   36652    36609    36574    36546    36524    36515    36522    36538 
   36556    36572    36586    36604    36631    36667    36709    36751 
   36791    36821    36833    36834    36827    36813    36800    36786 
   36772    36761    36758    36760    36765    36773    36788    36805 
   36813    36809    36797    36778    36756    36738    36726    36720 
   36713    36700    36687    36675    36665    36662    36664    36666 
   36657    36638    36613    36589    36567    36545    36523    36502 
   36482    36464    36460    36482    36526    36568    36597    36616 
   36636    36660    36678    36683    36676    36657    36623    36576 
   36523    36469    36421    36393    36389    36405    36435    36476 
   36524    36577    36629    36677    36722    36763    36794    36816 
   36827    36818    36792    36754    36710    36665    36620    36580 
   36555    36543    36540    36545    36550    36545    36534    36518 
   36494    36463    36426    36389    36360    36344    36341    36354 
   36375    36396    36417    36429    36433    36438    36439    36434 
   36435    36438    36445    36463    36487    36513    36542    36572 
   36603    36634    36665    36695    36715    36719    36711    36701 
   36695    36696    36705    36711    36706    36700    36694    36682 
   36674    36672    36681    36707    36748    36795    36843    36885 
   36909    36910    36892    36850    36789    36728    36676    36632 
   36595    36565    36540    36523    36514    36511    36518    36537 
   36560    36580    36591    36597    36601    36595    36582    36568 
   36548    36523    36498    36477    36462    36455    36453    36459 
   36475    36495    36519    36546    36568    36586    36598    36600 
   36600    36600    36602    36613    36635    36666    36697    36722 
   36741    36754    36758    36756    36747    36724    36686    36641 
   36593    36548    36514    36482    36448    36412    36376    36345 
   36329    36333    36357    36388    36413    36435    36457    36479 
   36506    36538    36568    36588    36598    36594    36579    36556 
   36530    36504    36490    36492    36512    36546    36587    36632 
   36671    36698    36712    36714    36709    36700    36690    36676 
   36652    36619    36580    36536    36485    36440    36407    36383 
   36365    36359    36366    36381    36406    36443    36485    36528 
   36571    36616    36663    36704    36731    36747    36749    36735 
   36715    36702    36695    36692    36694    36699    36700    36695 
   36688    36683    36685    36700    36725    36750    36763    36761 
   36754    36751    36752    36756    36762    36760    36742    36709 
   36668    36629    36599    36584    36583    36590    36598    36607 
   36626    36652    36672    36683    36688    36683    36670    36652 
   36641    36644    36657    36668    36674    36674    36672    36669 
   36667    36667    36665    36661    36659    36650    36633    36616 
   36599    36581    36567    36561    36569    36590    36614    36639 
   36674    36711    36748    36786    36820    36846    36852    36827 
   36781    36729    36678    36633    36607    36599    36607    36630 
   36657    36679    36700    36728    36768    36815    36855    36881 
   36891    36880    36851    36815    36776    36736    36694    36651 
   36613    36585    36567    36557    36552    36549    36540    36529 
   36525    36533    36550    36569    36586    36602    36615    36631 
   36654    36680    36704    36723    36729    36722    36703    36672 
   36630    36585    36542    36506    36474    36445    36424    36421 
   36436    36463    36497    36539    36585    36633    36687    36741 
   36787    36827    36858    36869    36866    36855    36835    36809 
   36777    36739    36698    36662    36636    36622    36617    36616 
   36616    36620    36631    36644    36663    36682    36694    36699 
   36703    36695    36671    36638    36599    36549    36494    36446 
   36407    36374    36351    36343    36352    36378    36410    36433 
   36444    36447    36441    36430    36420    36412    36405    36395 
   36377    36362    36355    36356    36368    36393    36425    36459 
   36491    36523    36556    36592    36627    36653    36670    36684 
   36693    36695    36695    36699    36702    36695    36681    36669 
   36656    36636    36617    36609    36609    36610    36614    36619 
   36622    36624    36626    36632    36630    36613    36588    36558 
   36522    36485    36451    36419    36389    36363    36341    36322 
   36310    36304    36296    36284    36270    36252    36237    36231 
   36233    36247    36282    36337    36401    36471    36545    36621 
   36693    36753    36797    36832    36856    36865    36855    36832 
   36800    36761    36721    36689    36676    36682    36708    36752 
   36812    36874    36929    36974    37006    37022    37018    36988 
   36932    36863    36783    36701    36626    36564    36517    36480 
   36453    36439    36434    36438    36447    36457    36469    36491 
   36523    36555    36582    36607    36632    36654    36672    36689 
   36711    36740    36776    36817    36857    36891    36915    36924 
   36916    36898    36877    36850    36824    36800    36775    36748 
   36721    36695    36675    36659    36652    36659    36677    36697 
   36716    36727    36731    36734    36743    36756    36766    36773 
   36778    36778    36767    36742    36705    36658    36609    36565 
   36533    36518    36520    36538    36566    36599    36635    36675 
   36720    36768    36819    36874    36928    36974    37004    37011 
   36996    36960    36902    36831    36761    36698    36641    36589 
   36546    36514    36483    36450    36415    36379    36346    36319 
   36302    36303    36316    36336    36357    36378    36394    36405 
   36407    36400    36382    36356    36326    36293    36259    36231 
   36217    36217    36227    36249    36283    36320    36359    36406 
   36461    36523    36587    36650    36708    36762    36804    36832 
   36847    36846    36833    36813    36786    36745    36696    36646 
   36596    36550    36514    36484    36458    36440    36435    36437 
   36441    36443    36440    36437    36434    36428    36425    36424 
   36420    36416    36413    36411    36412    36416    36420    36422 
   36423    36424    36421    36408    36389    36370    36348    36326 
   36306    36295    36297    36317    36354    36402    36460    36529 
   36606    36678    36735    36771    36785    36786    36781    36773 
   36768    36763    36757    36755    36753    36749    36744    36732 
   36710    36684    36656    36622    36589    36563    36543    36528 
   36517    36506    36502    36509    36528    36563    36604    36645 
   36687    36729    36774    36819    36864    36902    36927    36937 
   36937    36927    36911    36889    36861    36827    36798    36781 
   36774    36774    36785    36804    36824    36844    36865    36889 
   36910    36923    36932    36935    36926    36904    36873    36836 
   36790    36732    36672    36619    36575    36540    36515    36496 
   36479    36464    36457    36461    36480    36510    36551    36602 
   36659    36720    36779    36829    36867    36895    36906    36894 
   36862    36815    36754    36686    36618    36550    36483    36424 
   36375    36341    36331    36344    36369    36402    36442    36484 
   36525    36562    36597    36625    36646    36657    36662    36657 
   36637    36607    36569    36520    36466    36422    36389    36369 
   36367    36385    36423    36475    36533    36597    36658    36705 
   36736    36746    36732    36706    36672    36635    36599    36567 
   36544    36532    36531    36540    36558    36579    36605    36633 
   36655    36667    36671    36665    36649    36625    36597    36576 
   36566    36567    36580    36605    36636    36664    36684    36694 
   36697    36692    36682    36669    36648    36623    36596    36563 
   36528    36497    36465    36435    36415    36407    36412    36432 
   36461    36492    36525    36555    36578    36596    36607    36609 
   36604    36595    36579    36556    36528    36496    36461    36431 
   36408    36389    36382    36392    36412    36433    36458    36485 
   36516    36556    36607    36661    36704    36731    36743    36744 
   36735    36720    36706    36689    36664    36636    36609    36579 
   36549    36528    36514    36502    36496    36498    36508    36517 
   36524    36530    36532    36530    36529    36532    36536    36539 
   36540    36538    36534    36528    36526    36530    36535    36539 
   36545    36553    36562    36581    36614    36658    36715    36782 
   36859    36941    37014    37068    37105    37125    37126    37110 
   37082    37050    37014    36973    36928    36884    36842    36803 
   36768    36740    36719    36706    36703    36703    36704    36708 
   36712    36712    36706    36695    36677    36654    36635    36621 
   36611    36606    36609    36613    36612    36611    36608    36602 
   36597    36595    36599    36612    36636    36667    36697    36724 
   36746    36763    36775    36783    36788    36790    36788    36782 
   36765    36736    36702    36661    36611    36565    36521    36478 
   36441    36411    36385    36367    36361    36365    36374    36386 
   36405    36421    36427    36430    36433    36436    36437    36441 
   36448    36454    36457    36460    36471    36492    36526    36564 
   36600    36635    36668    36698    36726    36751    36773    36793 
   36807    36821    36838    36856    36866    36867    36856    36830 
   36792    36744    36693    36646    36602    36557    36518    36487 
   36462    36447    36445    36449    36462    36482    36503    36523 
   36542    36559    36573    36581    36582    36576    36562    36544 
   36522    36494    36465    36442    36427    36417    36411    36417 
   36437    36462    36491    36523    36546    36563    36587    36613 
   36633    36644    36650    36650    36644    36629    36611    36590 
   36566    36542    36519    36503    36491    36480    36473    36470 
   36469    36475    36488    36503    36522    36543    36559    36571 
   36576    36571    36567    36566    36564    36570    36590    36620 
   36660    36701    36734    36762    36787    36812    36838    36862 
   36878    36885    36879    36862    36836    36806    36771    36731 
   36687    36644    36598    36551    36506    36469    36442    36423 
   36414    36411    36410    36413    36417    36417    36415    36415 
   36420    36432    36450    36470    36491    36510    36521    36528 
   36535    36545    36561    36581    36597    36607    36613    36618 
   36624    36631    36638    36649    36667    36690    36713    36740 
   36767    36793    36818    36844    36866    36880    36879    36867 
   36846    36818    36785    36747    36706    36671    36644    36623 
   36613    36614    36619    36628    36641    36657    36673    36687 
   36700    36713    36725    36733    36740    36745    36748    36751 
   36750    36745    36734    36718    36699    36674    36644    36618 
   36600    36587    36579    36580    36590    36604    36613    36619 
   36625    36624    36619    36611    36597    36580    36562    36544 
   36529    36520    36521    36528    36537    36548    36561    36572 
   36581    36591    36601    36611    36618    36626    36643    36664 
   36681    36697    36708    36712    36710    36704    36696    36690 
   36683    36676    36668    36658    36655    36661    36673    36685 
   36697    36710    36718    36716    36712    36714    36710    36697 
   36682    36666    36649    36633    36618    36601    36578    36554 
   36538    36526    36514    36505    36498    36487    36469    36449 
   36426    36405    36389    36376    36371    36378    36387    36400 
   36420    36441    36456    36468    36478    36484    36488    36493 
   36491    36482    36469    36450    36425    36398    36369    36343 
   36324    36308    36297    36289    36282    36281    36286    36298 
   36316    36336    36355    36375    36394    36413    36432    36449 
   36464    36480    36498    36516    36533    36554    36579    36604 
   36626    36646    36660    36664    36661    36656    36651    36650 
   36653    36662    36682    36712    36742    36778    36817    36852 
   36886    36916    36934    36943    36953    36964    36968    36965 
   36955    36939    36919    36896    36866    36833    36801    36771 
   36747    36730    36716    36700    36682    36665    36650    36637 
   36628    36616    36602    36595    36594    36594    36593    36594 
   36597    36604    36610    36618    36628    36633    36629    36616 
   36596    36574    36558    36550    36554    36567    36589    36619 
   36653    36688    36725    36763    36793    36817    36838    36852 
   36857    36856    36849    36834    36812    36786    36758    36723 
   36680    36634    36585    36534    36490    36456    36435    36427 
   36435    36453    36483    36524    36570    36614    36653    36683 
   36705    36721    36730    36729    36724    36712    36692    36669 
   36646    36620    36594    36569    36547    36531    36520    36519 
   36528    36545    36567    36591    36617    36642    36664    36684 
   36698    36704    36704    36699    36690    36681    36669    36654 
   36640    36620    36595    36573    36553    36540    36536    36535 
   36538    36543    36552    36565    36582    36598    36609    36617 
   36622    36621    36617    36620    36626    36633    36639    36645 
   36652    36657    36658    36657    36656    36655    36653    36648 
   36640    36631    36619    36608    36598    36595    36598    36606 
   36612    36610    36608    36607    36597    36580    36559    36536 
   36513    36491    36473    36460    36451    36443    36437    36432 
   36428    36429    36434    36442    36446    36450    36456    36462 
   36468    36476    36486    36498    36510    36524    36541    36560 
   36577    36595    36610    36616    36619    36624    36629    36630 
   36635    36646    36656    36661    36664    36662    36653    36639 
   36625    36610    36595    36577    36560    36544    36523    36505 
   36495    36490    36489    36498    36517    36537    36561    36590 
   36617    36640    36667    36694    36715    36729    36740    36744 
   36743    36743    36744    36742    36738    36735    36732    36725 
   36718    36712    36708    36704    36700    36696    36693    36688 
