Origin Time       2024/04/02 04:24:00
Lat.              40.133
Long.             141.712
Depth. (km)       71
Mag.              6.0
Station Code      SRCH08
Station Lat.      43.5138
Station Long.     141.9090
Station Height(m) 30
Record Time       2024/04/02 04:26:07
Sampling Freq(Hz) 100Hz
Duration Time(s)  120
Dir.              6
Scale Factor      3920(gal)/6170801
Max. Acc. (gal)   0.341
Last Correction   2024/04/02 04:25:52
Memo.             
[...]
   12055    12065    12065    12046    12001    11944    11909    11915 
   11931    11910    11852    11812    11818    11859    11918    11972 
   11993    11978    11953    11948    11955    11941    11901    11878 
   11906    11960    11989    11978    11943    11898    11847    11814 
   11824    11882    11952    11983    11964    11923    11897    11906 
   11954    12014    12042    12016    11935    11832    11766    11768 
   11823    11903    11976    12010    11985    11922    11861    11839 
   11866    11911    11935    11940    11937    11920    11892    11866 
   11863    11896    11958    12023    12060    12059    12037    12020 
   12019    12041    12068    12057    12005    11952    11924    11925 
   11944    11955    11944    11920    11891    11857    11831    11813 
   11797    11798    11823    11846    11836    11798    11763    11752 
   11768    11812    11866    11893    11871    11821    11791    11801 
   11837    11869    11886    11900    11917    11923    11900    11854 
   11819    11820    11854    11904    11957    11997    12024    12045 
   12049    12025    11988    11955    11926    11906    11899    11904 
   11911    11919    11929    11938    11944    11960    12004    12069 
   12112    12089    12000    11896    11828    11809    11820    11841 
   11863    11887    11900    11883    11836    11777    11727    11712 
   11754    11855    11975    12060    12091    12077    12035    11976 
   11914    11865    11843    11846    11851    11834    11803    11781 
   11773    11783    11809    11843    11880    11921    11959    11984 
   11985    11971    11959    11942    11914    11886    11881    11908 
   11941    11957    11961    11965    11973    11983    11984    11956 
   11914    11891    11900    11935    11984    12026    12042    12028 
   12000    11993    12022    12067    12080    12038    11959    11874 
   11810    11792    11822    11875    11920    11928    11901    11864 
   11836    11827    11845    11895    11953    11985    11983    11970 
   11964    11965    11958    11940    11919    11910    11911    11917 
   11936    11971    12008    12028    12015    11963    11890    11820 
   11770    11752    11765    11785    11788    11783    11790    11802 
   11819    11850    11895    11944    11978    11969    11926    11883 
   11863    11873    11912    11974    12031    12056    12040    11990 
   11919    11839    11768    11737    11760    11817    11878    11911 
   11914    11900    11870    11834    11816    11831    11871    11914 
   11936    11931    11909    11888    11886    11912    11948    11969 
   11962    11932    11890    11853    11830    11812    11797    11792 
   11787    11773    11766    11787    11852    11947    12024    12044 
   12016    11972    11933    11916    11930    11961    11989    12015 
   12044    12075    12100    12107    12088    12055    12023    11999 
   11974    11949    11928    11912    11894    11866    11820    11770 
   11733    11705    11679    11668    11704    11792    11902    11996 
   12045    12052    12052    12072    12112    12154    12177    12172 
   12142    12089    12014    11932    11869    11834    11825    11841 
   11869    11883    11871    11840    11817    11822    11864    11929 
   11991    12030    12038    12024    12009    12010    12026    12049 
   12066    12063    12036    11994    11940    11884    11846    11839 
   11858    11884    11895    11865    11798    11730    11686    11678 
   11701    11737    11767    11779    11780    11796    11854    11946 
   12031    12078    12086    12065    12020    11968    11926    11912 
   11934    11986    12039    12054    12006    11902    11790    11728 
   11732    11775    11830    11881    11892    11841    11760    11702 
   11699    11755    11839    11914    11957    11959    11922    11884 
   11885    11928    11971    11977    11939    11865    11782    11722 
   11704    11739    11822    11919    11982    12000    11987    11960 
   11935    11919    11930    11984    12051    12080    12055    11995 
   11940    11925    11971    12058    12121    12118    12055    11964 
   11882    11818    11759    11708    11685    11706    11764    11830 
   11879    11901    11905    11920    11957    12016    12086    12141 
   12159    12145    12115    12084    12067    12061    12055    12036 
   12000    11953    11920    11924    11966    12015    12049    12070 
   12083    12090    12094    12085    12042    11969    11892    11818 
   11734    11645    11567    11523    11527    11574    11645    11717 
   11761    11778    11805    11854    11909    11954    11982    11986 
   11963    11920    11877    11856    11871    11906    11932    11935 
   11921    11884    11824    11756    11696    11651    11641    11670 
   11718    11759    11789    11812    11832    11851    11871    11907 
   11965    12019    12035    12018    11991    11960    11922    11886 
   11853    11819    11786    11768    11781    11832    11898    11929 
   11914    11899    11914    11959    12017    12063    12091    12106 
   12100    12068    12028    12000    11987    11985    11993    12008 
   12016    12009    11990    11962    11935    11923    11919    11906 
   11873    11836    11814    11828    11871    11913    11921    11896 
   11855    11820    11817    11849    11892    11929    11957    11971 
   11967    11958    11949    11945    11956    11977    11993    11992 
   11967    11914    11859    11840    11870    11937    12005    12032 
   12010    11968    11934    11917    11930    11971    12015    12036 
   12033    12016    11986    11936    11880    11852    11860    11885 
   11912    11935    11955    11964    11961    11958    11973    12006 
   12045    12070    12070    12040    11979    11900    11845    11833 
   11833    11809    11760    11718    11717    11757    11813    11866 
   11906    11933    11950    11956    11951    11943    11946    11973 
   12019    12053    12053    12018    11960    11900    11855    11832 
   11821    11812    11792    11749    11689    11638    11619    11638 
   11682    11729    11767    11801    11840    11890    11950    12002 
   12022    12001    11958    11918    11895    11895    11905    11900 
   11866    11799    11697    11595    11550    11584    11668    11763 
   11848    11913    11960    12003    12054    12106    12140    12138 
   12088    11998    11892    11801    11749    11741    11768    11825 
   11908    12002    12086    12143    12164    12157    12139    12122 
   12115    12130    12165    12196    12200    12174    12120    12046 
   11966    11907    11885    11903    11956    12023    12068    12072 
   12047    12026    12032    12056    12085    12126    12169    12180 
   12136    12037    11910    11800    11736    11721    11739    11762 
   11765    11739    11706    11683    11667    11662    11689    11758 
   11849    11936    11996    12020    12021    12015    12014    12016 
   12007    11973    11904    11801    11689    11598    11538    11506 
   11496    11513    11567    11660    11773    11880    11958    11997 
   12016    12034    12057    12079    12098    12102    12079    12043 
   12003    11947    11877    11823    11806    11821    11841    11830 
   11771    11684    11605    11568    11589    11644    11696    11737 
   11783    11838    11897    11955    11995    12002    11984    11956 
   11918    11880    11863    11878    11916    11965    12010    12044 
   12065    12069    12053    12033    12023    12019    12021    12029 
   12032    12024    12014    12003    11990    11984    11977    11957 
   11925    11891    11872    11884    11916    11948    11972    11998 
   12029    12064    12103    12138    12150    12122    12061    11990 
   11926    11878    11843    11812    11778    11734    11682    11651 
   11666    11724    11799    11885    11978    12065    12141    12209 
   12270    12318    12341    12327    12274    12189    12089    11984 
   11880    11782    11698    11636    11610    11631    11689    11752 
   11787    11783    11771    11786    11837    11922    12039    12166 
   12267    12313    12286    12197    12075    11960    11873    11815 
   11773    11730    11678    11630    11595    11574    11574    11601 
   11646    11696    11741    11776    11807    11850    11912    11979 
   12030    12039    11990    11896    11802    11747    11737    11754 
   11773    11780    11778    11782    11810    11872    11952    12013 
   12033    12027    12023    12029    12047    12075    12094    12078 
   12022    11945    11867    11797    11726    11656    11615    11629 
   11704    11829    11972    12089    12163    12204    12230    12249 
   12251    12215    12144    12066    12001    11940    11880    11835 
   11821    11841    11881    11914    11921    11901    11853    11790 
   11740    11707    11695    11727    11811    11923    12031    12105 
   12125    12094    12041    12002    11990    11999    12011    12001 
   11947    11859    11756    11662    11604    11592    11613    11657 
   11710    11749    11772    11791    11811    11841    11899    11989 
   12098    12212    12310    12365    12368    12331    12272    12199 
   12111    12011    11914    11850    11837    11862    11915    11988 
   12058    12101    12116    12116    12102    12069    12023    11985 
   11970    11964    11939    11883    11811    11748    11706    11693 
   11697    11701    11701    11705    11719    11748    11797    11850 
   11880    11874    11831    11768    11716    11693    11700    11734 
   11776    11804    11800    11772    11738    11708    11685    11675 
   11673    11675    11680    11683    11684    11694    11712    11730 
   11749    11778    11822    11878    11932    11966    11966    11935 
   11897    11881    11901    11937    11969    11988    12000    12017 
   12042    12076    12116    12162    12208    12241    12253    12241 
   12215    12184    12160    12146    12133    12118    12117    12131 
   12149    12164    12177    12190    12195    12182    12159    12131 
   12102    12065    12011    11949    11893    11848    11826    11827 
   11832    11819    11789    11749    11717    11712    11743    11801 
   11873    11946    11999    12029    12051    12065    12058    12020 
   11961    11891    11825    11767    11713    11669    11653    11672 
   11724    11803    11890    11960    11999    12011    11998    11959 
   11905    11855    11822    11808    11821    11855    11898    11942 
   11987    12032    12058    12039    11974    11895    11838    11820 
   11838    11869    11883    11872    11847    11828    11836    11874 
   11917    11944    11955    11949    11920    11873    11828    11793 
   11769    11760    11766    11785    11816    11842    11840    11817 
   11787    11756    11722    11693    11687    11710    11747    11786 
   11825    11870    11914    11946    11964    11979    11985    11970 
   11943    11928    11930    11940    11949    11947    11935    11908 
   11852    11773    11704    11666    11664    11697    11757    11826 
   11900    11983    12071    12147    12199    12227    12230    12209 
   12169    12116    12056    11989    11910    11828    11768    11751 
   11781    11841    11897    11921    11912    11883    11843    11818 
   11827    11864    11911    11951    11962    11941    11913    11907 
   11937    11998    12077    12150    12194    12204    12183    12134 
   12068    12001    11936    11873    11824    11795    11789    11811 
   11845    11882    11929    11986    12044    12110    12186    12257 
   12307    12319    12289    12221    12129    12025    11922    11830 
   11756    11692    11632    11587    11573    11603    11660    11716 
   11764    11816    11882    11966    12062    12151    12203    12195 
   12124    12019    11922    11870    11869    11901    11932    11927 
   11869    11779    11696    11645    11633    11657    11702    11744 
   11772    11786    11788    11788    11798    11820    11856    11906 
   11954    11980    11969    11919    11837    11755    11709    11703 
   11726    11770    11821    11858    11865    11846    11815    11799 
   11812    11837    11858    11874    11884    11894    11912    11935 
   11952    11953    11939    11920    11910    11918    11936    11960 
   11995    12042    12085    12114    12124    12113    12088    12058 
   12031    12004    11965    11909    11846    11790    11757    11751 
   11769    11794    11813    11829    11859    11901    11946    11994 
   12035    12057    12063    12060    12055    12059    12084    12127 
   12171    12206    12222    12205    12147    12054    11946    11853 
   11795    11772    11778    11808    11848    11876    11887    11883 
   11874    11861    11838    11801    11768    11756    11770    11813 
   11875    11934    11967    11961    11919    11852    11774    11702 
   11648    11615    11602    11607    11631    11679    11747    11834 
   11937    12042    12134    12206    12257    12281    12267    12216 
   12144    12069    12010    11968    11935    11909    11889    11860 
   11804    11723    11640    11574    11534    11525    11547    11593 
   11648    11700    11747    11803    11871    11941    12012    12084 
   12138    12150    12120    12068    12016    11971    11935    11904 
   11876    11853    11829    11792    11744    11705    11685    11692 
   11731    11798    11880    11975    12082    12190    12289    12375 
   12431    12449    12434    12389    12317    12231    12140    12055 
   11998    11965    11940    11922    11907    11887    11868    11850 
   11828    11815    11822    11848    11884    11912    11923    11928 
   11947    11983    12024    12061    12093    12111    12102    12065 
   12017    11970    11934    11905    11880    11860    11841    11820 
   11797    11773    11751    11741    11754    11798    11871    11955 
   12030    12075    12083    12068    12051    12046    12061    12092 
   12124    12140    12123    12065    11984    11911    11858    11829 
   11820    11809    11782    11743    11710    11704    11736    11798 
   11874    11960    12047    12117    12155    12164    12148    12101 
   12030    11959    11897    11848    11821    11817    11829    11853 
   11875    11885    11878    11851    11804    11742    11685    11656 
   11670    11725    11800    11868    11906    11910    11881    11841 
   11810    11794    11791    11798    11805    11802    11788    11764 
   11728    11686    11654    11630    11616    11624    11648    11675 
   11700    11706    11683    11658    11656    11678    11716    11767 
   11819    11863    11896    11900    11872    11832    11796    11769 
   11757    11766    11798    11845    11891    11918    11923    11913 
   11896    11879    11873    11875    11880    11892    11915    11942 
   11965    11976    11968    11947    11939    11964    12022    12087 
   12136    12167    12193    12226    12267    12304    12316    12289 
   12226    12144    12073    12022    11988    11968    11962    11969 
   11991    12028    12068    12094    12101    12084    12046    12003 
   11969    11941    11926    11930    11942    11948    11939    11916 
   11894    11883    11881    11883    11891    11893    11879    11844 
   11799    11764    11748    11749    11768    11810    11872    11943 
   12005    12045    12069    12095    12134    12186    12243    12287 
   12287    12240    12160    12069    11986    11924    11882    11856 
   11843    11835    11832    11844    11869    11904    11954    12008 
   12063    12119    12162    12176    12162    12121    12059    11996 
   11947    11912    11890    11885    11894    11906    11913    11904 
   11868    11820    11782    11749    11726    11728    11747    11763 
   11764    11745    11714    11688    11665    11643    11630    11630 
   11634    11640    11659    11693    11728    11754    11764    11758 
   11741    11719    11693    11677    11678    11683    11686    11696 
   11704    11693    11664    11630    11614    11632    11679    11732 
   11770    11796    11824    11855    11885    11920    11961    11996 
   12018    12025    12017    12000    11970    11921    11857    11788 
   11718    11669    11659    11680    11721    11770    11811    11839 
   11854    11861    11868    11887    11925    11973    12025    12088 
   12155    12214    12252    12259    12235    12197    12156    12118 
   12084    12051    12018    11986    11967    11970    11988    12013 
   12044    12081    12123    12162    12190    12206    12218    12234 
   12254    12284    12324    12363    12390    12389    12346    12268 
   12176    12089    12020    11975    11951    11930    11906    11885 
   11862    11843    11842    11857    11878    11898    11907    11904 
   11893    11879    11860    11837    11813    11789    11766    11754 
   11762    11782    11801    11812    11820    11831    11850    11871 
   11887    11892    11880    11854    11826    11806    11799    11802 
   11812    11825    11837    11848    11855    11856    11856    11860 
   11874    11896    11923    11946    11956    11952    11936    11905 
   11869    11845    11846    11875    11919    11961    11979    11962 
   11908    11825    11735    11661    11617    11612    11646    11699 
   11753    11801    11827    11837    11850    11873    11909    11955 
   11994    12013    12012    11999    11980    11958    11943    11944 
   11956    11970    11976    11963    11928    11880    11828    11785 
   11766    11783    11836    11917    12000    12050    12052    12023 
   11982    11945    11929    11932    11943    11953    11953    11937 
   11918    11902    11889    11884    11892    11901    11906    11911 
   11916    11922    11935    11952    11970    11990    12015    12034 
   12027    11995    11955    11927    11925    11942    11962    11981 
   11999    12008    12009    12003    11987    11962    11936    11922 
   11927    11952    11990    12030    12060    12074    12071    12055 
   12038    12021    11996    11960    11916    11868    11825    11797 
   11782    11784    11813    11865    11922    11972    12008    12018 
   12004    11974    11930    11882    11842    11803    11763    11739 
   11737    11741    11746    11760    11783    11799    11797    11776 
   11745    11729    11739    11773    11827    11889    11932    11948 
   11949    11939    11932    11938    11948    11948    11936    11915 
   11882    11853    11847    11864    11881    11882    11864    11836 
   11813    11809    11820    11843    11872    11895    11908    11919 
   11925    11927    11928    11931    11936    11935    11917    11884 
   11851    11832    11838    11872    11929    11993    12043    12072 
   12084    12078    12057    12031    12003    11976    11959    11942 
   11907    11855    11799    11744    11703    11690    11704    11743 
   11805    11878    11941    11984    12007    12016    12028    12048 
   12062    12063    12049    12022    11984    11943    11898    11850 
   11808    11774    11737    11697    11663    11636    11629    11663 
   11740    11847    11963    12068    12143    12191    12229    12257 
   12263    12251    12232    12205    12172    12125    12064    12002 
   11944    11888    11850    11842    11859    11884    11908    11926 
