Origin Time       2024/04/02 04:24:00
Lat.              40.133
Long.             141.712
Depth. (km)       71
Mag.              6.0
Station Code      SRCH06
Station Lat.      43.6948
Station Long.     142.0776
Station Height(m) -67.3
Record Time       2024/04/02 04:26:15
Sampling Freq(Hz) 100Hz
Duration Time(s)  120
Dir.              1
Scale Factor      3923(gal)/8224838
Max. Acc. (gal)   0.197
Last Correction   2024/04/02 04:26:16
Memo.             
[...]
   18569    18558    18546    18538    18527    18512    18500    18489 
   18486    18490    18496    18501    18505    18504    18507    18512 
   18515    18522    18534    18549    18562    18574    18588    18597 
   18603    18609    18611    18600    18586    18571    18551    18524 
   18500    18476    18458    18449    18442    18436    18435    18435 
   18441    18453    18468    18485    18508    18535    18563    18589 
   18612    18631    18639    18638    18636    18632    18627    18630 
   18632    18632    18632    18628    18615    18597    18570    18536 
   18501    18462    18424    18391    18362    18342    18324    18307 
   18293    18284    18273    18264    18253    18246    18250    18261 
   18277    18300    18331    18366    18400    18430    18458    18481 
   18497    18509    18517    18527    18539    18553    18563    18571 
   18580    18588    18594    18604    18615    18627    18640    18647 
   18651    18657    18658    18655    18652    18648    18644    18644 
   18650    18662    18671    18669    18665    18655    18638    18623 
   18611    18597    18588    18584    18584    18592    18603    18611 
   18621    18635    18644    18652    18659    18657    18650    18643 
   18634    18625    18612    18592    18578    18563    18543    18528 
   18523    18520    18526    18538    18551    18567    18585    18601 
   18617    18628    18640    18655    18666    18671    18667    18659 
   18644    18624    18605    18586    18567    18554    18543    18535 
   18530    18522    18512    18503    18486    18470    18462    18453 
   18441    18436    18441    18441    18443    18453    18461    18466 
   18477    18488    18495    18501    18509    18516    18524    18536 
   18547    18559    18570    18574    18580    18588    18586    18576 
   18561    18544    18522    18500    18484    18466    18454    18446 
   18439    18439    18443    18447    18461    18478    18492    18509 
   18528    18544    18563    18586    18611    18636    18662    18684 
   18706    18727    18743    18763    18783    18797    18810    18824 
   18829    18827    18819    18809    18794    18775    18758    18740 
   18723    18711    18700    18690    18682    18671    18654    18639 
   18627    18609    18593    18581    18571    18566    18562    18562 
   18565    18563    18569    18574    18574    18573    18571    18569 
   18566    18557    18549    18544    18540    18538    18543    18551 
   18561    18574    18592    18607    18613    18617    18620    18617 
   18612    18607    18597    18584    18574    18567    18561    18562 
   18569    18573    18580    18589    18597    18607    18615    18624 
   18636    18647    18648    18647    18650    18651    18644    18635 
   18627    18615    18600    18589    18578    18566    18558    18550 
   18542    18532    18523    18517    18515    18511    18507    18511 
   18519    18522    18523    18528    18526    18524    18531    18534 
   18536    18538    18534    18527    18520    18507    18490    18473 
   18455    18438    18420    18407    18399    18392    18388    18389 
   18391    18396    18405    18416    18428    18438    18438    18432 
   18426    18415    18400    18384    18366    18347    18328    18312 
   18299    18289    18287    18292    18308    18333    18365    18401 
   18438    18478    18515    18543    18565    18581    18586    18582 
   18574    18563    18553    18546    18543    18542    18546    18549 
   18544    18536    18526    18508    18490    18478    18468    18454 
   18446    18446    18445    18447    18457    18470    18486    18499 
   18509    18516    18511    18504    18499    18484    18473    18476 
   18485    18503    18530    18555    18580    18601    18615    18621 
   18623    18623    18624    18625    18632    18643    18651    18659 
   18671    18684    18694    18711    18728    18738    18742    18751 
   18758    18754    18748    18743    18732    18717    18704    18692 
   18681    18673    18674    18678    18685    18694    18704    18716 
   18732    18752    18778    18805    18828    18850    18868    18879 
   18881    18877    18866    18848    18829    18812    18793    18766 
   18740    18720    18700    18678    18655    18638    18615    18586 
   18559    18534    18507    18486    18470    18458    18454    18458 
   18468    18482    18503    18519    18538    18559    18573    18582 
   18593    18605    18615    18619    18617    18619    18616    18607 
   18594    18580    18562    18538    18507    18480    18454    18430 
   18409    18392    18380    18380    18382    18384    18393    18408 
   18416    18422    18423    18419    18411    18404    18396    18382 
   18374    18372    18369    18365    18361    18360    18360    18361 
   18364    18369    18376    18380    18374    18372    18368    18357 
   18350    18347    18347    18355    18370    18387    18403    18422 
   18441    18459    18480    18499    18517    18530    18535    18536 
   18531    18523    18517    18513    18512    18516    18524    18532 
   18542    18551    18559    18563    18561    18551    18543    18535 
   18516    18497    18488    18476    18462    18459    18457    18453 
   18451    18451    18450    18449    18442    18436    18436    18436 
   18439    18450    18468    18485    18508    18531    18544    18555 
   18563    18562    18558    18553    18546    18540    18538    18535 
   18542    18558    18571    18581    18598    18615    18623    18630 
   18640    18644    18643    18646    18642    18635    18635    18631 
   18631    18640    18652    18667    18685    18705    18721    18736 
   18751    18765    18770    18775    18783    18789    18792    18794 
   18794    18794    18793    18787    18778    18762    18746    18724 
   18700    18675    18651    18631    18624    18620    18624    18640 
   18665    18692    18719    18743    18762    18778    18787    18787 
   18781    18773    18758    18736    18716    18693    18667    18643 
   18621    18603    18582    18557    18534    18509    18484    18463 
   18445    18431    18428    18431    18434    18438    18443    18450 
   18450    18446    18446    18436    18422    18414    18408    18400 
   18399    18403    18407    18407    18412    18419    18427    18439 
   18454    18468    18485    18499    18505    18509    18511    18509 
   18508    18503    18497    18500    18503    18501    18507    18512 
   18515    18520    18530    18540    18554    18573    18593    18615 
   18639    18659    18677    18692    18697    18697    18696    18692 
   18685    18675    18667    18659    18650    18646    18643    18636 
   18635    18632    18623    18617    18616    18608    18605    18609 
   18616    18621    18630    18638    18639    18640    18642    18638 
   18628    18616    18600    18582    18565    18544    18526    18508 
   18489    18476    18465    18453    18445    18438    18430    18426 
   18420    18415    18408    18408    18414    18426    18445    18468 
   18489    18508    18527    18542    18554    18559    18557    18550 
   18543    18531    18519    18511    18499    18489    18489    18492 
   18493    18499    18507    18519    18532    18543    18547    18550 
   18549    18546    18539    18532    18524    18520    18519    18520 
   18526    18530    18532    18538    18547    18557    18567    18584 
   18600    18616    18635    18651    18666    18675    18679    18679 
   18677    18669    18659    18646    18635    18625    18613    18607 
   18601    18588    18574    18562    18555    18554    18550    18550 
   18551    18550    18547    18544    18540    18536    18528    18519 
   18509    18499    18485    18472    18461    18450    18443    18434 
   18431    18436    18442    18447    18459    18472    18488    18504 
   18515    18526    18536    18544    18557    18569    18577    18584 
   18593    18598    18607    18616    18625    18631    18638    18640 
   18642    18640    18638    18636    18636    18636    18638    18639 
   18646    18650    18651    18655    18661    18667    18671    18670 
   18671    18669    18658    18646    18636    18620    18605    18603 
   18597    18588    18582    18581    18574    18563    18554    18540 
   18523    18512    18505    18496    18484    18472    18458    18447 
   18432    18415    18404    18404    18404    18409    18419    18426 
   18434    18439    18441    18446    18453    18451    18451    18461 
   18473    18480    18489    18499    18512    18526    18535    18543 
   18550    18558    18569    18578    18588    18601    18616    18631 
   18640    18650    18663    18670    18671    18671    18666    18662 
   18658    18650    18638    18625    18615    18600    18581    18566 
   18555    18547    18546    18544    18542    18542    18542    18539 
   18534    18522    18505    18496    18488    18470    18457    18454 
   18445    18439    18441    18442    18445    18451    18453    18450 
   18453    18455    18457    18457    18453    18447    18446    18446 
   18450    18462    18476    18490    18508    18526    18536    18544 
   18550    18553    18549    18538    18527    18517    18505    18495 
   18482    18473    18469    18468    18472    18480    18489    18497 
   18508    18519    18532    18550    18566    18586    18609    18630 
   18651    18673    18690    18709    18725    18738    18751    18760 
   18765    18766    18767    18767    18765    18762    18762    18758 
   18750    18746    18742    18732    18724    18716    18700    18685 
   18669    18647    18623    18604    18588    18576    18573    18576 
   18577    18581    18584    18585    18585    18581    18576    18574 
   18574    18570    18567    18566    18563    18561    18558    18555 
   18553    18549    18547    18551    18558    18569    18585    18604 
   18617    18627    18639    18646    18642    18638    18632    18621 
   18611    18605    18601    18596    18597    18605    18608    18611 
   18616    18617    18613    18615    18619    18628    18639    18651 
   18665    18679    18692    18700    18706    18709    18709    18708 
   18705    18704    18697    18686    18673    18655    18634    18612 
   18588    18563    18543    18522    18503    18484    18466    18449 
   18436    18430    18426    18428    18432    18434    18438    18446 
   18451    18457    18465    18474    18482    18495    18515    18535 
   18550    18563    18574    18581    18581    18578    18578    18578 
   18570    18567    18566    18555    18547    18550    18551    18553 
   18559    18566    18570    18576    18578    18581    18586    18589 
   18590    18594    18596    18598    18604    18598    18589    18586 
   18584    18581    18584    18588    18590    18589    18581    18569 
   18558    18543    18523    18503    18489    18481    18473    18470 
   18472    18473    18474    18473    18470    18472    18469    18466 
   18468    18470    18468    18466    18462    18462    18466    18469 
   18472    18472    18470    18472    18473    18473    18478    18486 
   18492    18497    18499    18499    18492    18477    18461    18443 
   18424    18411    18401    18393    18389    18391    18397    18408 
   18416    18426    18435    18443    18450    18458    18463    18466 
   18468    18470    18472    18473    18476    18476    18472    18468 
   18463    18457    18446    18436    18434    18432    18431    18434 
   18436    18439    18449    18455    18461    18473    18486    18496 
   18512    18531    18550    18570    18594    18621    18650    18677 
   18704    18728    18752    18770    18781    18792    18798    18798 
   18800    18802    18797    18793    18787    18771    18755    18743 
   18724    18702    18681    18655    18634    18617    18603    18592 
   18586    18585    18589    18597    18607    18616    18623    18628 
   18632    18635    18639    18644    18650    18654    18655    18652 
   18644    18640    18638    18632    18624    18623    18620    18609 
   18597    18585    18567    18553    18542    18530    18523    18524 
   18527    18531    18538    18544    18553    18555    18555    18557 
   18555    18549    18544    18539    18530    18528    18532    18534 
   18538    18546    18550    18547    18542    18530    18509    18488 
   18463    18435    18408    18384    18360    18342    18330    18322 
   18320    18322    18326    18334    18345    18354    18358    18361 
   18366    18372    18377    18384    18392    18405    18420    18435 
   18449    18462    18472    18478    18489    18497    18501    18504 
   18505    18505    18505    18508    18508    18501    18495    18486 
   18473    18463    18454    18438    18426    18422    18418    18414 
   18418    18431    18443    18451    18461    18476    18490    18499 
   18500    18500    18501    18500    18495    18489    18484    18478 
   18470    18465    18461    18454    18454    18459    18455    18458 
   18468    18470    18476    18485    18489    18495    18503    18507 
   18511    18520    18528    18530    18534    18540    18542    18543 
   18550    18559    18574    18588    18607    18634    18662    18688 
   18719    18743    18760    18777    18793    18802    18810    18816 
   18819    18819    18824    18829    18832    18836    18843    18844 
   18850    18855    18856    18862    18866    18867    18875    18885 
   18894    18904    18910    18918    18924    18932    18941    18949 
   18960    18966    18964    18967    18971    18968    18960    18947 
   18929    18914    18897    18874    18851    18827    18804    18781 
   18755    18729    18708    18688    18669    18651    18636    18631 
   18630    18627    18630    18636    18640    18646    18650    18648 
   18644    18643    18638    18630    18621    18613    18598    18585 
   18571    18555    18542    18527    18509    18503    18501    18503 
   18507    18513    18522    18534    18540    18547    18555    18558 
   18559    18558    18547    18532    18517    18499    18478    18458 
   18439    18419    18400    18385    18369    18350    18334    18318 
   18310    18300    18288    18279    18272    18265    18253    18245 
   18242    18241    18241    18243    18246    18256    18266    18274 
   18287    18297    18306    18315    18323    18333    18343    18351 
   18351    18350    18350    18347    18346    18345    18342    18341 
   18345    18347    18349    18354    18358    18366    18377    18385 
   18399    18416    18435    18458    18480    18497    18511    18520 
   18530    18535    18540    18542    18543    18542    18538    18538 
   18539    18539    18539    18540    18540    18542    18543    18544 
   18547    18551    18558    18566    18569    18570    18573    18576 
   18580    18582    18584    18585    18584    18580    18578    18574 
   18565    18557    18549    18539    18530    18520    18511    18504 
   18501    18496    18492    18493    18500    18511    18520    18532 
   18551    18569    18585    18601    18616    18632    18643    18646 
   18648    18657    18661    18667    18677    18685    18690    18697 
   18704    18706    18708    18706    18705    18702    18700    18697 
   18692    18686    18682    18674    18667    18661    18654    18651 
   18648    18642    18634    18631    18624    18620    18625    18627 
   18625    18632    18634    18638    18648    18652    18654    18654 
   18647    18643    18643    18636    18630    18623    18616    18609 
   18603    18597    18592    18581    18570    18558    18547    18534 
   18523    18516    18511    18503    18490    18477    18472    18466 
   18455    18442    18430    18415    18401    18385    18372    18361 
   18351    18349    18347    18346    18351    18357    18362    18372 
   18378    18387    18401    18412    18420    18431    18443    18451 
   18458    18462    18462    18461    18458    18451    18447    18450 
   18447    18443    18449    18455    18459    18472    18490    18501 
   18512    18528    18547    18567    18585    18604    18624    18639 
   18655    18667    18677    18689    18697    18702    18708    18711 
   18713    18713    18711    18708    18704    18701    18696    18694 
   18693    18689    18686    18688    18688    18685    18681    18677 
   18671    18666    18663    18661    18655    18650    18644    18640 
   18639    18634    18627    18617    18603    18585    18574    18561 
   18542    18528    18519    18511    18511    18519    18531    18546 
   18561    18573    18585    18594    18597    18600    18604    18607 
   18611    18616    18620    18623    18631    18642    18650    18658 
   18665    18669    18667    18665    18659    18654    18647    18631 
   18615    18608    18596    18582    18573    18558    18544    18535 
   18522    18515    18515    18515    18520    18531    18534    18544 
   18565    18574    18582    18597    18608    18612    18615    18615 
   18612    18605    18598    18589    18574    18555    18538    18524 
   18511    18503    18496    18489    18482    18476    18472    18472 
   18470    18470    18472    18473    18477    18478    18482    18488 
   18486    18489    18499    18500    18499    18501    18500    18496 
   18499    18500    18497    18499    18501    18497    18489    18486 
   18486    18480    18477    18480    18480    18484    18497    18511 
   18520    18532    18549    18561    18570    18585    18604    18620 
   18632    18647    18663    18673    18681    18690    18694    18694 
   18697    18694    18692    18694    18692    18686    18685    18684 
   18679    18671    18665    18657    18646    18635    18625    18613 
   18604    18597    18589    18581    18581    18584    18586    18590 
   18598    18603    18608    18619    18627    18635    18644    18648 
   18654    18662    18666    18670    18675    18678    18682    18689 
   18689    18688    18692    18692    18686    18682    18671    18661 
   18652    18640    18625    18611    18597    18581    18566    18554 
   18536    18519    18513    18505    18496    18496    18500    18496 
   18495    18500    18499    18497    18499    18496    18489    18480 
   18469    18461    18454    18445    18438    18435    18431    18430 
   18432    18430    18424    18420    18414    18405    18400    18387 
   18373    18362    18353    18346    18341    18338    18338    18343 
   18351    18361    18376    18392    18403    18415    18430    18445 
   18458    18476    18489    18496    18504    18511    18512    18511 
   18511    18511    18511    18515    18523    18528    18532    18536 
   18543    18554    18565    18571    18577    18584    18590    18600 
   18613    18623    18632    18650    18663    18670    18678    18685 
   18682    18675    18673    18665    18655    18648    18643    18640 
   18636    18635    18636    18630    18620    18617    18612    18597 
   18585    18577    18562    18547    18539    18534    18527    18519 
   18513    18508    18500    18493    18485    18474    18465    18459 
   18454    18449    18446    18449    18453    18453    18453    18458 
   18459    18461    18466    18468    18472    18481    18488    18493 
   18501    18504    18507    18509    18511    18509    18508    18507 
   18507    18504    18503    18500    18499    18501    18501    18500 
