Origin Time       2024/04/02 04:24:00
Lat.              40.133
Long.             141.712
Depth. (km)       71
Mag.              6.0
Station Code      SRCH07
Station Lat.      43.2300
Station Long.     141.8978
Station Height(m) 75
Record Time       2024/04/02 04:26:09
Sampling Freq(Hz) 100Hz
Duration Time(s)  120
Dir.              5
Scale Factor      7845(gal)/8223790
Max. Acc. (gal)   0.972
Last Correction   2024/04/02 04:26:09
Memo.             
  -19738   -19695   -19645   -19602   -19579   -19569   -19556   -19533 
  -19507   -19495   -19494   -19496   -19504   -19523   -19548   -19570 
  -19595   -19629   -19657   -19664   -19643   -19604   -19566   -19539 
  -19525   -19519   -19516   -19521   -19531   -19546   -19570   -19608 
  -19650   -19691   -19723   -19742   -19745   -19743   -19746   -19745 
  -19727   -19695   -19646   -19596   -19560   -19538   -19531   -19543 
  -19564   -19584   -19607   -19622   -19630   -19639   -19643   -19637 
  -19619   -19607   -19607   -19606   -19593   -19581   -19577   -19585 
  -19599   -19610   -19608   -19588   -19553   -19516   -19498   -19499 
  -19515   -19539   -19558   -19561   -19560   -19566   -19573   -19588 
  -19611   -19627   -19633   -19624   -19602   -19568   -19523   -19475 
  -19422   -19384   -19386   -19429   -19502   -19585   -19661   -19718 
  -19747   -19751   -19739   -19726   -19707   -19677   -19631   -19581 
  -19537   -19499   -19476   -19472   -19479   -19495   -19526   -19572 
  -19630   -19676   -19696   -19689   -19658   -19614   -19568   -19530 
  -19514   -19521   -19550   -19595   -19638   -19676   -19707   -19730 
  -19743   -19738   -19707   -19656   -19595   -19538   -19496   -19477 
  -19488   -19521   -19557   -19580   -19584   -19579   -19572   -19568 
  -19566   -19562   -19549   -19526   -19495   -19467   -19450   -19452 
  -19471   -19502   -19538   -19577   -19610   -19634   -19649   -19646 
  -19635   -19629   -19633   -19656   -19683   -19693   -19674   -19622 
  -19564   -19531   -19531   -19553   -19573   -19584   -19587   -19581 
  -19579   -19581   -19591   -19612   -19637   -19650   -19654   -19649 
  -19647   -19647   -19630   -19592   -19537   -19472   -19417   -19383 
  -19376   -19395   -19442   -19516   -19595   -19664   -19712   -19742 
  -19761   -19766   -19754   -19737   -19719   -19701   -19680   -19646 
  -19611   -19595   -19600   -19608   -19604   -19588   -19572   -19557 
  -19538   -19521   -19512   -19506   -19494   -19483   -19488   -19507 
  -19533   -19569   -19612   -19662   -19715   -19758   -19784   -19795 
  -19793   -19785   -19773   -19757   -19734   -19701   -19653   -19596 
  -19542   -19495   -19452   -19419   -19413   -19433   -19462   -19487 
  -19506   -19525   -19554   -19589   -19620   -19638   -19643   -19637 
  -19620   -19604   -19587   -19562   -19529   -19492   -19461   -19448 
  -19460   -19491   -19530   -19568   -19595   -19602   -19596   -19591 
  -19587   -19592   -19614   -19641   -19658   -19669   -19669   -19661 
  -19647   -19624   -19591   -19557   -19539   -19539   -19541   -19534 
  -19519   -19506   -19506   -19525   -19560   -19611   -19670   -19723 
  -19747   -19731   -19689   -19641   -19597   -19575   -19558   -19542 
  -19530   -19523   -19523   -19527   -19534   -19552   -19573   -19591 
  -19611   -19631   -19646   -19662   -19680   -19689   -19689   -19683 
  -19674   -19673   -19681   -19687   -19677   -19657   -19626   -19584 
  -19535   -19484   -19437   -19407   -19394   -19396   -19415   -19450 
  -19495   -19550   -19603   -19645   -19677   -19705   -19723   -19723 
  -19716   -19712   -19715   -19724   -19731   -19734   -19728   -19707 
  -19670   -19615   -19548   -19499   -19477   -19471   -19472   -19472 
  -19469   -19465   -19468   -19485   -19516   -19549   -19573   -19580 
  -19572   -19560   -19565   -19600   -19662   -19731   -19788   -19826 
  -19849   -19850   -19824   -19769   -19678   -19558   -19441   -19349 
  -19291   -19272   -19279   -19296   -19326   -19381   -19461   -19557 
  -19650   -19728   -19782   -19807   -19797   -19764   -19716   -19660 
  -19610   -19575   -19562   -19570   -19591   -19607   -19627   -19642 
  -19638   -19626   -19611   -19604   -19610   -19624   -19650   -19674 
  -19685   -19687   -19676   -19650   -19629   -19608   -19583   -19548 
  -19499   -19446   -19410   -19388   -19390   -19417   -19461   -19521 
  -19587   -19649   -19696   -19724   -19738   -19737   -19715   -19676 
  -19618   -19548   -19491   -19452   -19425   -19408   -19403   -19415 
  -19452   -19518   -19606   -19691   -19762   -19799   -19793   -19766 
  -19730   -19683   -19634   -19591   -19552   -19516   -19485   -19464 
  -19462   -19488   -19535   -19585   -19620   -19634   -19629   -19603 
  -19558   -19514   -19498   -19510   -19541   -19566   -19580   -19592 
  -19603   -19610   -19623   -19641   -19656   -19666   -19656   -19616 
  -19560   -19489   -19429   -19390   -19376   -19398   -19458   -19537 
  -19608   -19646   -19649   -19633   -19610   -19591   -19580   -19568 
  -19556   -19539   -19516   -19492   -19489   -19530   -19599   -19665 
  -19714   -19738   -19742   -19731   -19704   -19665   -19626   -19593 
  -19573   -19554   -19539   -19545   -19564   -19573   -19569   -19560 
  -19552   -19556   -19575   -19595   -19599   -19593   -19588   -19599 
  -19637   -19691   -19743   -19781   -19789   -19766   -19712   -19642 
  -19583   -19543   -19523   -19521   -19522   -19523   -19527   -19535 
  -19552   -19570   -19573   -19561   -19538   -19508   -19475   -19446 
  -19438   -19461   -19506   -19558   -19612   -19661   -19704   -19730 
  -19728   -19708   -19668   -19614   -19560   -19510   -19487   -19502 
  -19546   -19599   -19634   -19647   -19657   -19666   -19672   -19666 
  -19649   -19620   -19583   -19560   -19570   -19602   -19643   -19685 
  -19703   -19691   -19656   -19608   -19562   -19523   -19503   -19507 
  -19531   -19569   -19607   -19637   -19653   -19647   -19619   -19575 
  -19518   -19465   -19431   -19421   -19427   -19448   -19477   -19515 
  -19561   -19600   -19619   -19610   -19583   -19549   -19527   -19534 
  -19575   -19647   -19739   -19824   -19882   -19901   -19892   -19878 
  -19862   -19845   -19826   -19781   -19704   -19603   -19494   -19408 
  -19372   -19391   -19456   -19543   -19634   -19712   -19755   -19750 
  -19704   -19639   -19577   -19537   -19521   -19530   -19556   -19588 
  -19610   -19620   -19631   -19650   -19670   -19684   -19685   -19672 
  -19646   -19611   -19588   -19585   -19599   -19618   -19631   -19633 
  -19618   -19588   -19560   -19537   -19514   -19498   -19487   -19481 
  -19485   -19491   -19498   -19504   -19506   -19502   -19494   -19494 
  -19519   -19565   -19614   -19653   -19668   -19654   -19626   -19597 
  -19581   -19579   -19588   -19593   -19589   -19581   -19577   -19584 
  -19608   -19637   -19656   -19653   -19626   -19589   -19554   -19526 
  -19511   -19511   -19522   -19545   -19580   -19618   -19646   -19654 
  -19635   -19576   -19487   -19391   -19314   -19271   -19259   -19280 
  -19348   -19450   -19561   -19654   -19715   -19750   -19773   -19786 
  -19789   -19774   -19750   -19726   -19701   -19680   -19665   -19651 
  -19642   -19639   -19634   -19626   -19615   -19610   -19622   -19651 
  -19685   -19718   -19745   -19765   -19764   -19741   -19705   -19662 
  -19619   -19591   -19570   -19557   -19545   -19534   -19527   -19534 
  -19553   -19568   -19560   -19523   -19456   -19367   -19279   -19219 
  -19197   -19215   -19272   -19364   -19484   -19602   -19695   -19754 
  -19776   -19753   -19692   -19603   -19500   -19413   -19367   -19367 
  -19399   -19468   -19558   -19649   -19739   -19826   -19885   -19900 
  -19861   -19772   -19647   -19518   -19422   -19373   -19371   -19407 
  -19464   -19519   -19554   -19565   -19561   -19556   -19562   -19584 
  -19619   -19676   -19759   -19861   -19963   -20050   -20104   -20120 
  -20094   -20027   -19924   -19788   -19634   -19484   -19352   -19251 
  -19174   -19113   -19083   -19101   -19179   -19313   -19477   -19645 
  -19800   -19939   -20056   -20143   -20194   -20205   -20167   -20085 
  -19958   -19791   -19611   -19452   -19325   -19237   -19183   -19145 
  -19113   -19084   -19063   -19057   -19074   -19109   -19168   -19256 
  -19360   -19473   -19588   -19680   -19738   -19781   -19823   -19862 
  -19888   -19890   -19878   -19865   -19849   -19845   -19866   -19892 
  -19897   -19865   -19791   -19687   -19575   -19476   -19391   -19325 
  -19280   -19261   -19271   -19318   -19406   -19534   -19688   -19839 
  -19957   -20024   -20051   -20058   -20066   -20093   -20133   -20163 
  -20148   -20067   -19927   -19743   -19541   -19354   -19210   -19129 
  -19111   -19130   -19168   -19221   -19282   -19345   -19411   -19465 
  -19495   -19503   -19496   -19508   -19554   -19622   -19693   -19738 
  -19738   -19696   -19630   -19557   -19492   -19448   -19438   -19449 
  -19461   -19462   -19446   -19429   -19429   -19446   -19481   -19518 
  -19554   -19588   -19607   -19606   -19592   -19569   -19560   -19581 
  -19619   -19654   -19668   -19658   -19615   -19537   -19442   -19342 
  -19257   -19198   -19163   -19155   -19165   -19186   -19224   -19287 
  -19376   -19494   -19626   -19753   -19847   -19893   -19897   -19862 
  -19799   -19727   -19661   -19610   -19581   -19573   -19589   -19623 
  -19657   -19680   -19670   -19633   -19587   -19538   -19496   -19462 
  -19438   -19433   -19457   -19503   -19569   -19650   -19735   -19811 
  -19863   -19890   -19896   -19877   -19845   -19811   -19770   -19722 
  -19670   -19623   -19579   -19530   -19483   -19450   -19445   -19481 
  -19548   -19608   -19639   -19635   -19610   -19593   -19622   -19703 
  -19813   -19920   -20001   -20036   -20019   -19955   -19863   -19777 
  -19719   -19691   -19674   -19642   -19572   -19461   -19329   -19225 
  -19197   -19259   -19386   -19514   -19575   -19543   -19444   -19337 
  -19284   -19300   -19371   -19471   -19577   -19674   -19757   -19824 
  -19874   -19892   -19874   -19816   -19711   -19577   -19444   -19354 
  -19346   -19434   -19595   -19780   -19939   -20039   -20074   -20052 
  -19980   -19865   -19727   -19584   -19460   -19369   -19305   -19260 
  -19233   -19228   -19257   -19334   -19462   -19618   -19759   -19840 
  -19835   -19747   -19602   -19431   -19280   -19190   -19171   -19215 
  -19306   -19421   -19539   -19658   -19764   -19830   -19834   -19759 
  -19631   -19498   -19404   -19388   -19446   -19548   -19638   -19670 
  -19637   -19558   -19469   -19403   -19371   -19365   -19390   -19448 
  -19529   -19616   -19693   -19755   -19811   -19866   -19926   -19981 
  -20023   -20031   -19984   -19870   -19704   -19510   -19318   -19157 
  -19051   -19012   -19024   -19080   -19161   -19248   -19349   -19458 
  -19561   -19658   -19753   -19836   -19894   -19920   -19911   -19880 
  -19859   -19876   -19932   -20012   -20077   -20082   -20012   -19877 
  -19699   -19506   -19329   -19192   -19094   -19014   -18948   -18905 
  -18895   -18939   -19053   -19228   -19435   -19647   -19840   -19984 
  -20054   -20054   -19986   -19859   -19700   -19529   -19377   -19290 
  -19273   -19323   -19414   -19499   -19556   -19561   -19507   -19423 
  -19341   -19280   -19236   -19191   -19147   -19110   -19110   -19182 
  -19334   -19546   -19774   -19978   -20137   -20239   -20278   -20267 
  -20216   -20140   -20047   -19947   -19847   -19757   -19684   -19624 
  -19577   -19539   -19504   -19465   -19422   -19380   -19354   -19367 
  -19418   -19495   -19589   -19699   -19822   -19954   -20101   -20260 
  -20416   -20537   -20610   -20609   -20515   -20341   -20104   -19816 
  -19507   -19202   -18937   -18752   -18666   -18678   -18774   -18920 
  -19080   -19234   -19375   -19504   -19622   -19726   -19812   -19892 
  -19974   -20050   -20098   -20100   -20044   -19931   -19781   -19624 
  -19489   -19387   -19306   -19226   -19125   -18999   -18875   -18787 
  -18767   -18828   -18963   -19151   -19363   -19566   -19742   -19881 
  -19982   -20056   -20110   -20139   -20133   -20092   -20008   -19873 
  -19701   -19516   -19341   -19197   -19093   -19030   -19016   -19048 
  -19124   -19238   -19375   -19510   -19619   -19696   -19742   -19765 
  -19777   -19772   -19753   -19741   -19747   -19786   -19866   -19958 
  -20028   -20062   -20048   -19989   -19899   -19785   -19661   -19534 
  -19419   -19334   -19291   -19299   -19354   -19440   -19531   -19618 
  -19688   -19741   -19774   -19777   -19731   -19627   -19477   -19322 
  -19202   -19129   -19093   -19082   -19097   -19143   -19228   -19352 
  -19507   -19678   -19836   -19957   -20023   -20034   -19998   -19932 
  -19861   -19796   -19738   -19695   -19676   -19681   -19703   -19724 
  -19739   -19745   -19739   -19728   -19716   -19685   -19620   -19529 
  -19425   -19341   -19299   -19306   -19364   -19464   -19591   -19730 
  -19858   -19951   -19989   -19966   -19884   -19755   -19602   -19458 
  -19352   -19296   -19296   -19327   -19371   -19415   -19457   -19500 
  -19549   -19606   -19676   -19742   -19780   -19785   -19765   -19741 
  -19737   -19757   -19793   -19832   -19872   -19900   -19905   -19884 
  -19830   -19738   -19620   -19492   -19365   -19259   -19180   -19133 
  -19109   -19093   -19078   -19076   -19093   -19125   -19167   -19213 
  -19255   -19294   -19345   -19419   -19514   -19607   -19674   -19719 
  -19753   -19778   -19800   -19818   -19828   -19827   -19803   -19759 
  -19711   -19662   -19626   -19608   -19599   -19593   -19584   -19564 
  -19535   -19504   -19480   -19473   -19484   -19510   -19550   -19615 
  -19703   -19791   -19857   -19885   -19866   -19813   -19747   -19703 
  -19704   -19749   -19804   -19839   -19840   -19822   -19805   -19809 
  -19827   -19840   -19842   -19826   -19786   -19732   -19674   -19614 
  -19548   -19469   -19388   -19334   -19334   -19391   -19483   -19576 
  -19656   -19719   -19755   -19764   -19741   -19678   -19585   -19481 
  -19380   -19291   -19232   -19214   -19232   -19272   -19321   -19357 
  -19387   -19423   -19468   -19523   -19581   -19622   -19649   -19668 
  -19684   -19693   -19677   -19627   -19552   -19461   -19377   -19323 
  -19329   -19403   -19527   -19676   -19826   -19950   -20038   -20081 
  -20071   -20009   -19904   -19776   -19643   -19529   -19446   -19391 
  -19350   -19317   -19287   -19265   -19255   -19255   -19269   -19299 
  -19356   -19456   -19596   -19768   -19961   -20140   -20268   -20343 
  -20364   -20335   -20262   -20140   -19965   -19741   -19495   -19263 
  -19076   -18948   -18867   -18819   -18793   -18779   -18783   -18812 
  -18858   -18914   -18987   -19078   -19195   -19348   -19534   -19737 
  -19931   -20100   -20221   -20277   -20267   -20198   -20089   -19977 
  -19892   -19834   -19791   -19734   -19638   -19508   -19359   -19210 
  -19091   -19028   -19026   -19071   -19155   -19276   -19426   -19593 
  -19772   -19946   -20098   -20212   -20272   -20283   -20254   -20206 
  -20142   -20052   -19944   -19822   -19696   -19588   -19503   -19444 
  -19399   -19367   -19363   -19383   -19413   -19445   -19461   -19452 
  -19423   -19387   -19348   -19319   -19321   -19360   -19433   -19531 
  -19642   -19742   -19836   -19931   -20019   -20088   -20101   -20036 
  -19901   -19715   -19512   -19334   -19203   -19121   -19075   -19043 
  -19010   -18985   -18986   -19035   -19133   -19264   -19419   -19595 
  -19770   -19923   -20031   -20082   -20079   -20031   -19954   -19873 
  -19809   -19773   -19764   -19772   -19769   -19723   -19620   -19477 
  -19326   -19190   -19084   -19029   -19030   -19087   -19198   -19349 
  -19519   -19681   -19815   -19919   -20001   -20069   -20128   -20171 
  -20193   -20169   -20085   -19957   -19801   -19647   -19519   -19417 
  -19334   -19264   -19195   -19125   -19066   -19026   -19022   -19063 
  -19149   -19279   -19442   -19635   -19831   -19996   -20125   -20216 
  -20254   -20227   -20137   -20002   -19835   -19650   -19469   -19303 
  -19165   -19078   -19033   -19016   -19012   -19014   -19032   -19071 
  -19132   -19210   -19298   -19390   -19488   -19591   -19697   -19804 
  -19916   -20038   -20167   -20301   -20424   -20499   -20493   -20387 
  -20191   -19954   -19724   -19533   -19390   -19288   -19225   -19186 
  -19161   -19147   -19141   -19161   -19214   -19279   -19353   -19437 
  -19515   -19587   -19649   -19697   -19738   -19773   -19797   -19809 
  -19801   -19778   -19751   -19719   -19695   -19695   -19716   -19747 
  -19776   -19792   -19785   -19751   -19704   -19668   -19645   -19641 
  -19647   -19650   -19639   -19610   -19572   -19542   -19519   -19498 
  -19465   -19417   -19363   -19311   -19275   -19264   -19288   -19357 
  -19462   -19584   -19710   -19824   -19908   -19965   -20001   -20021 
  -20028   -20016   -19980   -19909   -19805   -19678   -19531   -19376 
  -19221   -19074   -18954   -18878   -18848   -18878   -18972   -19122 
  -19311   -19506   -19683   -19842   -19975   -20083   -20160   -20191 
  -20171   -20088   -19934   -19737   -19537   -19376   -19288   -19272 
  -19300   -19352   -19413   -19465   -19499   -19522   -19541   -19553 
  -19562   -19556   -19533   -19512   -19512   -19531   -19565   -19602 
  -19634   -19646   -19647   -19653   -19666   -19684   -19693   -19681 
  -19660   -19638   -19619   -19608   -19597   -19570   -19527   -19465 
  -19395   -19338   -19313   -19322   -19361   -19422   -19492   -19570 
  -19656   -19732   -19772   -19766   -19723   -19656   -19587   -19535 
  -19512   -19522   -19552   -19599   -19664   -19741   -19827   -19915 
  -19985   -20027   -20027   -19984   -19901   -19784   -19642   -19489 
  -19341   -19219   -19130   -19086   -19089   -19137   -19237   -19379 
  -19548   -19724   -19884   -20000   -20056   -20043   -19967   -19850 
  -19710   -19575   -19476   -19437   -19468   -19552   -19666   -19791 
  -19890   -19947   -19954   -19923   -19863   -19784   -19688   -19580 
  -19471   -19384   -19342   -19348   -19395   -19462   -19525   -19565 
  -19575   -19570   -19575   -19589   -19616   -19643   -19658   -19656 
  -19634   -19600   -19558   -19512   -19472   -19444   -19430   -19437 
  -19454   -19471   -19484   -19495   -19507   -19527   -19565   -19619 
  -19680   -19739   -19797   -19855   -19917   -19982   -20032   -20054 
  -20032   -19965   -19859   -19728   -19584   -19442   -19309   -19191 
  -19099   -19049   -19052   -19106   -19192   -19295   -19400   -19499 
  -19589   -19662   -19708   -19720   -19700   -19669   -19643   -19641 
  -19672   -19734   -19815   -19893   -19953   -19978   -19953   -19876 
  -19758   -19611   -19449   -19298   -19165   -19059   -18975   -18910 
  -18873   -18874   -18918   -19014   -19147   -19295   -19445   -19589 
  -19726   -19857   -19978   -20071   -20109   -20078   -19986   -19855 
  -19714   -19589   -19508   -19476   -19479   -19499   -19514   -19512 
  -19503   -19479   -19448   -19423   -19398   -19381   -19381   -19387 
  -19398   -19422   -19448   -19483   -19527   -19579   -19631   -19677 
  -19708   -19727   -19738   -19739   -19730   -19707   -19683   -19660 
  -19647   -19656   -19700   -19789   -19904   -20012   -20089   -20121 
  -20119   -20092   -20042   -19973   -19886   -19781   -19666   -19552 
  -19456   -19392   -19363   -19365   -19402   -19460   -19533   -19622 
  -19714   -19803   -19878   -19920   -19921   -19886   -19828   -19757 
  -19683   -19615   -19554   -19504   -19471   -19456   -19457   -19464 
  -19462   -19453   -19433   -19396   -19350   -19309   -19278   -19259 
  -19245   -19240   -19244   -19259   -19291   -19341   -19400   -19457 
  -19512   -19573   -19639   -19708   -19777   -19832   -19867   -19881 
  -19886   -19893   -19904   -19919   -19931   -19920   -19872   -19781 
