Origin Time       2024/04/02 04:24:00
Lat.              40.133
Long.             141.712
Depth. (km)       71
Mag.              6.0
Station Code      SRCH06
Station Lat.      43.6948
Station Long.     142.0776
Station Height(m) 80
Record Time       2024/04/02 04:26:15
Sampling Freq(Hz) 100Hz
Duration Time(s)  120
Dir.              6
Scale Factor      7845(gal)/8223790
Max. Acc. (gal)   0.209
Last Correction   2024/04/02 04:26:16
Memo.             
[...]
   16854    16841    16829    16818    16808    16808    16816    16829 
   16849    16870    16883    16892    16893    16884    16873    16862 
   16849    16838    16830    16827    16831    16833    16830    16830 
   16831    16834    16842    16861    16883    16896    16904    16904 
   16896    16889    16888    16893    16906    16918    16927    16935 
   16934    16923    16912    16902    16889    16876    16862    16852 
   16843    16837    16831    16823    16812    16802    16798    16803 
   16819    16843    16865    16876    16875    16870    16866    16864 
   16864    16869    16873    16873    16883    16892    16893    16895 
   16892    16880    16875    16877    16881    16892    16895    16895 
   16896    16887    16875    16864    16850    16839    16833    16826 
   16826    16827    16823    16818    16816    16815    16806    16789 
   16771    16754    16744    16744    16746    16750    16758    16765 
   16776    16787    16796    16804    16810    16815    16825    16831 
   16841    16852    16857    16862    16866    16864    16865    16865 
   16865    16873    16884    16896    16906    16902    16891    16880 
   16865    16849    16835    16819    16802    16789    16785    16788 
   16794    16803    16814    16818    16825    16830    16830    16822 
   16807    16789    16775    16765    16764    16764    16760    16756 
   16756    16753    16752    16753    16749    16740    16731    16731 
   16737    16742    16754    16767    16776    16787    16802    16815 
   16830    16845    16858    16869    16877    16885    16893    16893 
   16887    16880    16883    16892    16897    16904    16906    16899 
   16892    16880    16864    16849    16835    16827    16833    16848 
   16866    16885    16899    16908    16915    16919    16920    16916 
   16914    16915    16919    16933    16949    16961    16966    16964 
   16956    16950    16946    16938    16918    16893    16879    16868 
   16865    16872    16881    16893    16906    16912    16915    16914 
   16910    16906    16895    16885    16881    16877    16877    16877 
   16876    16877    16881    16884    16884    16875    16861    16843 
   16822    16803    16794    16792    16798    16806    16815    16827 
   16835    16842    16845    16841    16841    16846    16853    16860 
   16860    16858    16853    16839    16822    16811    16807    16807 
   16807    16798    16784    16764    16741    16718    16703    16700 
   16703    16708    16715    16717    16715    16721    16726    16725 
   16723    16723    16726    16734    16749    16767    16784    16795 
   16802    16803    16802    16806    16811    16821    16830    16833 
   16831    16827    16819    16815    16815    16818    16822    16822 
   16823    16830    16839    16852    16868    16883    16902    16923 
   16945    16962    16972    16970    16964    16950    16934    16916 
   16897    16880    16858    16831    16808    16794    16785    16783 
   16787    16799    16811    16822    16837    16852    16860    16865 
   16868    16875    16892    16910    16929    16945    16949    16949 
   16946    16945    16942    16935    16931    16934    16934    16938 
   16943    16946    16939    16916    16888    16865    16850    16848 
   16854    16861    16870    16880    16887    16888    16887    16884 
   16883    16881    16880    16879    16875    16868    16860    16852 
   16848    16842    16838    16839    16837    16833    16831    16823 
   16814    16804    16795    16781    16771    16773    16781    16794 
   16814    16826    16829    16835    16842    16854    16870    16881 
   16889    16895    16892    16885    16872    16857    16843    16829 
   16814    16796    16776    16764    16760    16760    16769    16784 
   16800    16822    16846    16870    16889    16899    16908    16920 
   16930    16938    16954    16969    16972    16966    16956    16934 
   16910    16885    16858    16839    16831    16825    16826    16838 
   16853    16864    16865    16858    16841    16818    16794    16771 
   16753    16748    16761    16781    16803    16830    16860    16889 
   16914    16927    16931    16926    16910    16887    16858    16830 
   16804    16780    16765    16757    16756    16756    16754    16749 
   16737    16730    16733    16740    16749    16761    16779    16802 
   16823    16838    16849    16858    16868    16870    16869    16864 
   16854    16841    16831    16826    16819    16815    16810    16799 
   16794    16794    16792    16795    16800    16807    16816    16827 
   16846    16868    16889    16911    16930    16942    16951    16957 
   16956    16950    16939    16927    16916    16910    16908    16907 
   16906    16907    16914    16927    16943    16953    16961    16970 
   16978    16983    16985    16983    16976    16966    16958    16951 
   16937    16919    16903    16879    16846    16812    16779    16756 
   16741    16733    16740    16756    16771    16783    16798    16808 
   16804    16791    16779    16769    16761    16760    16765    16777 
   16789    16796    16800    16802    16800    16796    16785    16779 
   16773    16767    16760    16756    16749    16745    16748    16760 
   16783    16810    16838    16866    16893    16916    16935    16951 
   16964    16964    16961    16957    16953    16950    16950    16945 
   16943    16941    16937    16935    16927    16912    16896    16885 
   16884    16885    16884    16891    16904    16911    16914    16910 
   16899    16889    16872    16856    16846    16841    16830    16821 
   16821    16827    16833    16846    16861    16872    16884    16895 
   16900    16900    16891    16875    16862    16854    16854    16861 
   16866    16868    16862    16852    16842    16826    16799    16769 
   16741    16713    16694    16684    16691    16708    16731    16762 
   16804    16846    16880    16906    16922    16924    16915    16902 
   16885    16869    16853    16837    16823    16818    16812    16808 
   16808    16807    16810    16819    16837    16858    16880    16897 
   16911    16916    16915    16910    16900    16884    16861    16837 
   16819    16804    16794    16791    16791    16795    16798    16800 
   16807    16814    16823    16835    16837    16830    16821    16807 
   16788    16771    16760    16757    16764    16779    16799    16822 
   16845    16868    16887    16899    16908    16915    16918    16920 
   16926    16935    16943    16945    16941    16927    16914    16900 
   16885    16875    16864    16856    16857    16857    16856    16860 
   16865    16876    16889    16896    16897    16889    16873    16853 
   16827    16799    16773    16753    16744    16738    16738    16740 
   16735    16727    16722    16715    16717    16726    16733    16744 
   16762    16785    16810    16834    16857    16872    16881    16889 
   16889    16881    16869    16854    16838    16827    16818    16810 
   16800    16791    16788    16791    16795    16804    16815    16826 
   16842    16862    16881    16902    16911    16916    16919    16919 
   16919    16911    16891    16868    16850    16833    16815    16799 
   16784    16769    16762    16764    16769    16779    16791    16802 
   16812    16822    16834    16852    16869    16881    16892    16902 
   16915    16939    16965    16980    16993    17007    17014    17018 
   17018    17005    16977    16945    16911    16877    16843    16816 
   16796    16779    16760    16741    16726    16717    16714    16715 
   16715    16721    16731    16748    16771    16791    16804    16815 
   16819    16819    16819    16822    16827    16834    16843    16856 
   16868    16877    16889    16899    16896    16884    16866    16853 
   16845    16834    16827    16823    16818    16819    16830    16842 
   16853    16858    16866    16877    16884    16889    16891    16883 
   16872    16856    16839    16823    16808    16800    16802    16800 
   16804    16821    16837    16850    16866    16881    16891    16900 
   16919    16937    16949    16964    16980    16991    16997    16999 
   16992    16977    16958    16939    16919    16895    16873    16854 
   16837    16827    16826    16829    16835    16841    16846    16857 
   16869    16883    16895    16906    16912    16918    16919    16907 
   16889    16870    16845    16811    16780    16752    16731    16719 
   16713    16713    16719    16725    16729    16733    16738    16748 
   16757    16761    16761    16761    16764    16765    16765    16769 
   16773    16777    16783    16788    16796    16804    16811    16816 
   16816    16812    16811    16812    16811    16811    16815    16825 
   16839    16860    16884    16903    16910    16914    16911    16904 
   16900    16889    16875    16865    16862    16869    16879    16892 
   16914    16935    16957    16976    16989    16997    17001    17003 
   17004    17003    17004    17008    17012    17014    17011    17008 
   17004    16996    16988    16980    16970    16965    16964    16962 
   16964    16965    16957    16951    16945    16933    16916    16895 
   16868    16845    16829    16816    16810    16808    16804    16800 
   16799    16804    16808    16811    16818    16823    16827    16831 
   16831    16825    16814    16798    16781    16775    16773    16777 
   16785    16794    16800    16806    16808    16810    16816    16825 
   16829    16826    16822    16816    16810    16807    16807    16807 
   16807    16803    16799    16795    16792    16789    16780    16769 
   16756    16738    16726    16718    16710    16708    16708    16708 
   16714    16717    16717    16717    16714    16711    16717    16725 
   16734    16744    16757    16776    16792    16807    16816    16822 
   16829    16833    16833    16831    16829    16825    16818    16811 
   16807    16800    16792    16784    16779    16781    16787    16792 
   16799    16810    16819    16829    16841    16854    16868    16880 
   16888    16897    16904    16907    16908    16903    16895    16884 
   16875    16873    16873    16870    16869    16873    16880    16885 
   16893    16902    16907    16912    16918    16920    16923    16931 
   16938    16945    16954    16961    16970    16981    16985    16989 
   16988    16984    16989    16996    16996    16988    16973    16957 
   16943    16930    16919    16912    16907    16902    16896    16893 
   16892    16888    16879    16862    16845    16837    16831    16826 
   16818    16806    16791    16776    16760    16752    16752    16752 
   16754    16761    16768    16771    16773    16776    16775    16771 
   16769    16769    16767    16765    16764    16764    16769    16781 
   16796    16810    16821    16834    16848    16850    16849    16850 
   16853    16856    16860    16866    16870    16872    16877    16881 
   16883    16884    16884    16880    16872    16861    16854    16845 
   16830    16822    16818    16818    16827    16846    16866    16884 
   16893    16902    16907    16906    16907    16908    16910    16912 
   16912    16915    16920    16919    16910    16893    16876    16860 
   16842    16830    16815    16803    16802    16803    16799    16800 
   16806    16811    16819    16827    16834    16837    16834    16827 
   16819    16803    16784    16767    16746    16730    16721    16711 
   16704    16706    16713    16721    16722    16729    16735    16740 
   16742    16742    16741    16744    16745    16748    16757    16764 
   16769    16779    16789    16806    16826    16845    16861    16876 
   16889    16902    16911    16920    16930    16926    16915    16906 
   16899    16899    16899    16893    16888    16883    16881    16884 
   16888    16889    16887    16887    16892    16902    16918    16927 
   16927    16927    16924    16919    16915    16903    16885    16872 
   16860    16846    16839    16833    16825    16823    16827    16837 
   16849    16856    16862    16865    16865    16862    16854    16843 
   16831    16816    16800    16791    16789    16787    16787    16796 
   16807    16819    16838    16858    16870    16880    16888    16897 
   16906    16912    16916    16912    16904    16896    16883    16866 
   16853    16835    16821    16807    16789    16776    16768    16762 
   16765    16773    16789    16812    16837    16865    16895    16915 
   16935    16953    16960    16964    16962    16957    16950    16939 
   16931    16930    16926    16923    16922    16920    16924    16929 
   16929    16930    16924    16916    16910    16900    16895    16892 
   16887    16881    16876    16870    16873    16873    16870    16873 
   16879    16880    16880    16883    16885    16881    16875    16869 
   16862    16857    16852    16843    16838    16834    16829    16827 
   16829    16835    16842    16849    16858    16869    16879    16895 
   16906    16907    16911    16914    16914    16916    16918    16918 
   16916    16910    16910    16914    16916    16922    16924    16926 
   16922    16908    16893    16880    16862    16841    16821    16804 
   16791    16779    16772    16769    16765    16761    16764    16771 
   16776    16780    16784    16788    16791    16792    16794    16794 
   16788    16780    16772    16767    16760    16752    16750    16752 
   16760    16772    16785    16798    16808    16812    16814    16815 
   16812    16807    16799    16785    16769    16748    16726    16706 
   16688    16669    16652    16641    16638    16633    16629    16629 
   16629    16634    16645    16664    16690    16717    16745    16775 
   16803    16830    16856    16876    16896    16912    16919    16926 
   16931    16929    16926    16924    16919    16911    16907    16906 
   16900    16897    16899    16897    16893    16895    16900    16911 
   16919    16919    16920    16916    16903    16892    16883    16873 
   16866    16866    16870    16879    16895    16911    16922    16926 
   16929    16929    16927    16929    16926    16918    16910    16900 
   16895    16885    16873    16865    16857    16850    16846    16842 
   16833    16823    16810    16803    16803    16804    16807    16814 
   16826    16838    16850    16858    16868    16876    16879    16879 
   16881    16880    16875    16873    16868    16854    16850    16852 
   16849    16850    16856    16864    16872    16880    16885    16888 
   16885    16884    16883    16879    16879    16876    16866    16857 
   16845    16831    16821    16812    16806    16802    16798    16799 
   16807    16814    16816    16821    16827    16831    16834    16838 
   16839    16838    16839    16838    16833    16830    16830    16830 
   16834    16834    16829    16821    16811    16802    16795    16789 
   16783    16775    16771    16771    16771    16771    16772    16771 
   16771    16768    16769    16775    16781    16791    16802    16815 
   16829    16841    16854    16876    16899    16918    16942    16969 
   16992    17014    17032    17045    17053    17055    17055    17057 
   17061    17059    17051    17045    17032    17022    17018    17016 
   17012    17012    17012    17008    17007    17001    16997    16991 
   16977    16966    16958    16943    16934    16926    16908    16897 
   16887    16869    16853    16841    16830    16821    16812    16808 
   16803    16798    16792    16783    16776    16772    16769    16769 
   16769    16772    16780    16785    16788    16791    16791    16788 
   16781    16769    16757    16748    16734    16717    16707    16696 
   16681    16671    16661    16653    16652    16654    16660    16667 
   16679    16688    16694    16702    16710    16717    16727    16740 
   16753    16767    16779    16789    16799    16806    16811    16814 
   16815    16818    16818    16819    16821    16821    16825    16833 
   16845    16856    16861    16866    16868    16864    16866    16870 
   16873    16881    16885    16889    16896    16902    16904    16906 
   16904    16907    16906    16900    16896    16893    16884    16869 
   16852    16831    16811    16794    16780    16768    16754    16748 
   16749    16757    16765    16777    16794    16808    16818    16829 
   16834    16830    16823    16815    16806    16794    16779    16764 
   16749    16731    16718    16713    16710    16713    16718    16730 
   16749    16773    16803    16835    16862    16889    16918    16939 
   16953    16960    16958    16957    16957    16951    16945    16947 
   16946    16939    16937    16937    16931    16924    16924    16924 
   16922    16920    16918    16914    16906    16899    16897    16897 
   16897    16895    16892    16893    16889    16887    16888    16887 
   16884    16887    16892    16895    16900    16903    16904    16904 
   16902    16897    16895    16892    16889    16887    16887    16888 
   16885    16877    16866    16856    16845    16831    16812    16796 
   16785    16772    16762    16757    16749    16742    16741    16742 
   16740    16737    16741    16748    16752    16758    16762    16762 
   16767    16773    16779    16785    16794    16803    16810    16811 
   16814    16816    16814    16814    16811    16810    16812    16818 
   16831    16848    16860    16870    16876    16883    16892    16899 
   16903    16897    16892    16892    16889    16889    16891    16888 
   16885    16885    16884    16891    16899    16903    16908    16912 
   16919    16934    16949    16968    16987    17000    17012    17023 
   17032    17041    17039    17035    17035    17032    17026    17022 
   17015    17003    16992    16987    16978    16966    16956    16946 
   16934    16927    16922    16910    16900    16892    16883    16876 
   16869    16860    16853    16852    16854    16853    16850    16849 
   16845    16845    16852    16856    16858    16861    16862    16865 
   16864    16860    16857    16850    16843    16846    16848    16846 
   16845    16843    16837    16825    16812    16802    16788    16773 
   16761    16754    16744    16734    16727    16723    16719    16722 
   16726    16730    16733    16734    16735    16735    16734    16731 
   16730    16727    16721    16717    16717    16717    16719    16722 
   16723    16730    16738    16744    16749    16757    16762    16764 
   16764    16764    16762    16762    16771    16781    16794    16806 
   16821    16837    16850    16865    16883    16895    16900    16906 
   16906    16902    16892    16880    16869    16853    16838    16827 
   16818    16812    16808    16807    16811    16816    16822    16829 
   16833    16838    16845    16846    16850    16856    16857    16857 
   16856    16852    16846    16837    16826    16816    16807    16803 
   16806    16810    16815    16822    16831    16845    16857    16868 
   16880    16888    16895    16900    16906    16914    16920    16920 
   16920    16920    16919    16918    16908    16895    16884    16879 
   16877    16869    16862    16861    16858    16854    16853    16850 
   16848    16846    16841    16841    16846    16854    16861    16862 
   16864    16868    16875    16880    16884    16889    16897    16906 
   16914    16919    16920    16922    16922    16918    16915    16916 
   16918    16920    16924    16927    16929    16929    16927    16923 
