Origin Time       2024/04/02 04:24:00
Lat.              40.133
Long.             141.712
Depth. (km)       71
Mag.              6.0
Station Code      SRCH10
Station Lat.      42.9930
Station Long.     142.0085
Station Height(m) -5
Record Time       2024/04/02 04:25:23
Sampling Freq(Hz) 100Hz
Duration Time(s)  120
Dir.              3
Scale Factor      2940(gal)/6170270
Max. Acc. (gal)   0.186
Last Correction   2024/04/02 04:25:08
Memo.             
[...]
   54266    54266    54265    54267    54268    54268    54267    54265 
   54266    54267    54266    54265    54265    54265    54267    54268 
   54266    54265    54266    54266    54266    54267    54268    54268 
   54266    54263    54266    54271    54270    54265    54264    54269 
   54269    54265    54264    54264    54265    54265    54264    54268 
   54267    54264    54266    54267    54266    54264    54265    54268 
   54266    54263    54266    54270    54268    54264    54266    54270 
   54268    54266    54268    54268    54267    54265    54266    54271 
   54270    54265    54266    54268    54267    54265    54269    54271 
   54267    54262    54265    54267    54267    54268    54266    54266 
   54267    54263    54266    54271    54267    54265    54264    54264 
   54270    54270    54264    54264    54266    54265    54269    54271 
   54265    54264    54269    54267    54264    54265    54265    54267 
   54270    54267    54265    54265    54263    54266    54267    54261 
   54263    54268    54264    54266    54268    54263    54262    54266 
   54268    54266    54263    54264    54267    54266    54266    54268 
   54268    54267    54263    54263    54269    54272    54268    54266 
   54269    54268    54265    54266    54268    54267    54264    54264 
   54268    54270    54266    54267    54268    54264    54264    54269 
   54265    54264    54270    54269    54266    54268    54267    54265 
   54269    54273    54268    54265    54267    54267    54265    54269 
   54270    54265    54266    54266    54263    54267    54269    54264 
   54265    54267    54265    54266    54268    54266    54269    54270 
   54266    54267    54267    54262    54266    54271    54268    54268 
   54268    54264    54265    54266    54266    54267    54268    54268 
   54264    54263    54270    54268    54263    54268    54268    54264 
   54269    54272    54265    54263    54267    54269    54266    54263 
   54271    54271    54260    54262    54271    54266    54262    54269 
   54269    54265    54267    54267    54266    54269    54270    54266 
   54266    54270    54268    54263    54263    54267    54268    54266 
   54265    54268    54269    54266    54267    54267    54264    54262 
   54265    54267    54266    54266    54264    54266    54268    54264 
   54263    54267    54269    54266    54264    54265    54266    54268 
   54272    54267    54266    54270    54265    54260    54266    54267 
   54266    54269    54266    54263    54268    54268    54265    54268 
   54264    54262    54268    54269    54266    54265    54263    54265 
   54269    54267    54263    54264    54268    54267    54266    54267 
   54268    54267    54267    54265    54262    54263    54266    54266 
   54267    54267    54265    54265    54266    54268    54268    54265 
   54267    54271    54269    54264    54265    54268    54269    54269 
   54268    54266    54267    54269    54266    54263    54267    54269 
   54266    54268    54268    54263    54269    54272    54264    54264 
   54268    54268    54268    54268    54266    54265    54264    54264 
   54267    54269    54268    54266    54266    54267    54268    54267 
   54266    54266    54264    54265    54266    54265    54267    54269 
   54267    54266    54266    54267    54268    54267    54267    54265 
   54264    54267    54269    54267    54267    54269    54267    54263 
   54262    54264    54266    54267    54267    54269    54266    54262 
   54266    54270    54266    54265    54270    54269    54268    54269 
   54266    54266    54269    54267    54266    54269    54270    54267 
   54268    54269    54267    54265    54267    54267    54265    54263 
   54265    54268    54270    54268    54264    54265    54266    54266 
   54267    54269    54269    54265    54267    54271    54268    54266 
   54267    54266    54268    54269    54267    54265    54264    54265 
   54266    54266    54267    54266    54263    54265    54270    54270 
   54267    54265    54264    54267    54270    54266    54267    54269 
   54266    54269    54270    54264    54266    54268    54267    54268 
   54267    54266    54268    54265    54263    54266    54266    54264 
   54267    54269    54265    54263    54266    54266    54264    54266 
   54267    54267    54269    54267    54264    54268    54268    54264 
   54267    54269    54265    54264    54266    54265    54263    54267 
   54273    54267    54263    54269    54269    54266    54269    54269 
   54265    54263    54265    54267    54266    54262    54265    54271 
   54269    54267    54267    54266    54266    54265    54265    54267 
   54268    54267    54264    54264    54268    54269    54267    54263 
   54262    54264    54265    54264    54264    54265    54267    54267 
   54267    54268    54268    54264    54266    54267    54264    54266 
   54269    54265    54263    54265    54267    54267    54266    54265 
   54263    54265    54270    54267    54261    54263    54268    54268 
   54268    54268    54268    54268    54267    54267    54268    54266 
   54265    54266    54265    54265    54265    54264    54268    54270 
   54268    54267    54267    54267    54268    54265    54264    54268 
   54268    54266    54266    54263    54265    54271    54270    54264 
   54266    54269    54266    54266    54268    54263    54263    54268 
   54265    54261    54264    54269    54269    54269    54268    54265 
   54267    54266    54265    54268    54267    54265    54267    54266 
   54266    54268    54265    54263    54266    54269    54266    54263 
   54265    54268    54268    54266    54264    54266    54267    54266 
   54267    54265    54264    54268    54267    54266    54269    54266 
   54261    54265    54270    54268    54267    54268    54268    54265 
   54263    54267    54270    54266    54266    54269    54267    54265 
   54266    54266    54267    54267    54264    54266    54272    54269 
   54264    54268    54271    54268    54267    54267    54266    54268 
   54269    54264    54266    54273    54270    54265    54269    54267 
   54265    54269    54270    54269    54269    54267    54267    54268 
   54268    54268    54267    54267    54269    54270    54266    54263 
   54263    54267    54269    54267    54267    54267    54266    54268 
   54269    54265    54265    54268    54268    54266    54268    54267 
   54267    54265    54262    54264    54268    54266    54266    54272 
   54271    54266    54266    54266    54265    54265    54266    54268 
   54268    54267    54269    54268    54263    54265    54268    54266 
   54264    54267    54269    54269    54269    54265    54265    54269 
   54268    54265    54268    54268    54268    54269    54265    54264 
   54267    54268    54266    54267    54267    54264    54266    54269 
   54265    54262    54266    54268    54263    54264    54268    54269 
   54266    54267    54269    54266    54266    54268    54266    54266 
   54266    54266    54267    54267    54264    54266    54270    54268 
   54266    54268    54266    54265    54268    54270    54269    54265 
   54266    54267    54268    54269    54267    54266    54264    54263 
   54268    54270    54268    54268    54267    54265    54265    54267 
   54268    54267    54267    54271    54267    54262    54269    54270 
   54263    54264    54266    54264    54266    54271    54270    54265 
   54263    54265    54268    54268    54267    54265    54265    54269 
   54269    54265    54265    54267    54266    54265    54265    54266 
   54269    54270    54268    54266    54268    54269    54265    54263 
   54262    54262    54267    54269    54265    54266    54268    54267 
   54266    54266    54267    54267    54266    54267    54266    54265 
   54267    54269    54266    54264    54265    54268    54267    54264 
   54265    54268    54266    54266    54267    54265    54265    54269 
   54268    54264    54266    54268    54267    54269    54270    54267 
   54267    54270    54267    54265    54267    54267    54269    54271 
   54265    54263    54269    54268    54265    54269    54271    54265 
   54263    54267    54268    54265    54266    54265    54266    54269 
   54266    54264    54267    54266    54266    54269    54268    54267 
   54267    54265    54262    54263    54264    54264    54264    54265 
   54267    54267    54265    54267    54269    54265    54262    54265 
   54268    54263    54262    54266    54265    54267    54270    54267 
   54262    54265    54266    54264    54266    54265    54263    54266 
   54269    54266    54265    54264    54265    54267    54266    54265 
   54267    54266    54264    54263    54265    54266    54265    54267 
   54269    54267    54267    54266    54264    54266    54268    54267 
   54265    54267    54265    54264    54268    54268    54266    54267 
   54268    54266    54264    54268    54269    54265    54266    54268 
   54265    54265    54269    54267    54264    54267    54267    54264 
   54267    54268    54265    54267    54266    54263    54266    54267 
   54265    54265    54267    54267    54268    54268    54267    54266 
   54265    54263    54265    54268    54267    54266    54267    54264 
   54262    54265    54265    54264    54265    54263    54262    54266 
   54268    54265    54263    54265    54265    54265    54264    54262 
   54266    54268    54267    54269    54266    54263    54266    54265 
   54263    54267    54268    54265    54267    54266    54264    54266 
   54267    54266    54266    54266    54269    54269    54266    54266 
   54266    54265    54267    54268    54264    54266    54268    54265 
   54265    54265    54266    54267    54265    54265    54269    54269 
   54266    54265    54266    54267    54267    54268    54266    54265 
   54266    54266    54267    54266    54266    54268    54268    54265 
   54266    54266    54264    54266    54267    54265    54267    54269 
   54268    54265    54266    54268    54268    54268    54267    54268 
   54270    54267    54264    54267    54270    54268    54267    54265 
   54266    54269    54267    54265    54266    54268    54267    54266 
   54266    54265    54266    54267    54264    54263    54264    54264 
   54264    54270    54269    54262    54265    54268    54264    54265 
   54265    54264    54265    54263    54265    54270    54265    54263 
   54267    54266    54266    54271    54267    54264    54266    54266 
   54266    54266    54265    54264    54265    54267    54267    54266 
   54267    54268    54268    54267    54268    54267    54265    54267 
   54266    54264    54266    54263    54261    54268    54266    54264 
   54269    54267    54266    54267    54262    54265    54270    54267 
   54266    54265    54264    54267    54267    54267    54266    54263 
   54264    54267    54266    54264    54263    54265    54268    54267 
   54264    54265    54267    54267    54265    54263    54265    54266 
   54268    54269    54267    54268    54268    54264    54265    54269 
   54268    54265    54265    54263    54262    54265    54268    54269 
   54268    54266    54264    54266    54269    54268    54265    54266 
   54267    54266    54266    54268    54268    54265    54264    54265 
   54266    54267    54265    54264    54267    54265    54265    54269 
   54268    54264    54264    54266    54266    54265    54265    54267 
   54266    54264    54268    54268    54263    54264    54265    54263 
   54264    54266    54267    54267    54265    54265    54266    54262 
   54262    54265    54264    54262    54264    54265    54264    54265 
   54264    54260    54259    54263    54264    54261    54261    54263 
   54263    54261    54261    54262    54260    54259    54256    54255 
   54260    54261    54258    54258    54256    54256    54261    54261 
   54257    54256    54255    54254    54256    54254    54250    54252 
   54256    54255    54254    54254    54254    54255    54252    54249 
   54251    54253    54250    54249    54251    54250    54252    54253 
   54251    54250    54250    54249    54249    54248    54248    54249 
   54249    54251    54248    54244    54247    54248    54244    54245 
   54245    54245    54245    54242    54240    54245    54246    54243 
   54240    54242    54241    54240    54241    54238    54236    54237 
   54231    54229    54237    54237    54234    54237    54239    54240 
   54240    54237    54239    54246    54253    54256    54257    54255 
   54253    54257    54258    54253    54247    54239    54232    54230 
   54233    54239    54244    54249    54257    54272    54289    54304 
   54317    54329    54340    54357    54371    54372    54368    54364 
   54359    54354    54342    54325    54309    54294    54286    54289 
   54291    54294    54298    54302    54303    54311    54325    54331 
   54319    54299    54273    54245    54219    54197    54186    54197 
   54225    54253    54279    54311    54345    54369    54368    54345 
   54313    54268    54217    54190    54192    54208    54226    54243 
   54278    54336    54386    54410    54419    54416    54386    54332 
   54286    54259    54244    54246    54259    54292    54359    54446 
   54523    54572    54575    54538    54487    54441    54408    54377 
   54342    54330    54348    54387    54445    54495    54508    54486 
   54442    54392    54337    54264    54184    54121    54094    54109 
   54143    54170    54191    54201    54192    54181    54172    54141 
   54077    53988    53909    53876    53890    53952    54055    54166 
   54263    54342    54401    54425    54381    54269    54142    54052 
   54022    54047    54106    54181    54267    54352    54430    54499 
   54513    54452    54368    54301    54260    54239    54218    54190 
   54173    54187    54243    54324    54391    54408    54376    54336 
   54302    54258    54193    54125    54084    54081    54120    54200 
   54299    54373    54390    54371    54348    54324    54297    54268 
   54246    54250    54270    54295    54319    54331    54328    54321 
   54325    54346    54358    54336    54285    54248    54253    54283 
   54293    54261    54208    54183    54208    54269    54333    54369 
   54358    54316    54283    54276    54270    54246    54233    54257 
   54301    54346    54384    54394    54367    54314    54264    54236 
   54224    54224    54243    54253    54207    54116    54048    54030 
   54031    54028    54033    54048    54069    54092    54098    54082 
   54058    54028    54003    54013    54040    54047    54048    54065 
   54101    54146    54182    54193    54183    54178    54198    54238 
   54284    54309    54298    54281    54280    54293    54317    54320 
   54274    54211    54180    54195    54240    54274    54267    54228 
   54190    54190    54235    54297    54339    54341    54314    54296 
   54307    54329    54342    54336    54324    54331    54368    54419 
   54452    54450    54425    54407    54412    54428    54454    54486 
   54488    54466    54449    54420    54369    54313    54270    54257 
   54271    54299    54339    54372    54367    54314    54231    54162 
   54151    54182    54207    54212    54214    54234    54268    54287 
   54283    54271    54266    54284    54327    54364    54364    54337 
   54311    54280    54256    54271    54312    54357    54389    54394 
   54375    54332    54277    54240    54245    54291    54343    54375 
   54389    54386    54355    54292    54208    54120    54063    54059 
   54093    54147    54211    54271    54316    54330    54315    54282 
   54239    54208    54192    54171    54159    54173    54206    54237 
   54241    54230    54227    54231    54244    54268    54288    54290 
   54290    54304    54325    54345    54359    54356    54345    54347 
   54363    54373    54367    54351    54328    54292    54250    54238 
   54281    54360    54430    54458    54437    54384    54332    54291 
   54259    54244    54250    54269    54301    54341    54379    54390 
   54360    54318    54289    54275    54273    54272    54264    54263 
   54272    54275    54256    54225    54203    54187    54165    54145 
   54132    54136    54151    54149    54134    54126    54124    54131 
   54151    54178    54196    54196    54189    54180    54164    54156 
   54152    54140    54137    54155    54191    54243    54287    54312 
   54327    54324    54298    54270    54254    54246    54242    54239 
   54250    54275    54304    54327    54334    54328    54322    54315 
   54305    54301    54305    54308    54304    54297    54291    54279 
   54258    54250    54276    54321    54369    54410    54423    54408 
   54385    54355    54298    54226    54171    54153    54173    54217 
   54262    54294    54297    54276    54252    54229    54201    54166 
   54137    54137    54172    54223    54261    54266    54249    54245 
   54251    54252    54243    54223    54199    54195    54225    54274 
   54312    54316    54297    54283    54293    54313    54313    54290 
   54266    54260    54274    54283    54258    54211    54170    54149 
   54148    54160    54175    54190    54210    54245    54277    54277 
   54246    54218    54224    54256    54282    54282    54262    54244 
   54252    54279    54294    54289    54282    54294    54322    54344 
   54353    54350    54340    54332    54317    54289    54257    54239 
   54248    54288    54339    54370    54358    54320    54284    54251 
   54221    54198    54171    54152    54180    54262    54349    54394 
   54388    54344    54303    54297    54308    54313    54306    54295 
   54294    54310    54332    54339    54324    54294    54266    54254 
   54262    54281    54285    54257    54219    54192    54189    54205 
   54213    54204    54189    54173    54165    54185    54226    54253 
   54249    54242    54260    54274    54255    54211    54164    54140 
   54158    54214    54281    54332    54351    54343    54324    54307 
   54285    54251    54215    54191    54189    54208    54240    54277 
   54298    54297    54286    54263    54222    54180    54156    54149 
   54159    54191    54246    54313    54358    54362    54348    54330 
   54301    54269    54258    54270    54281    54285    54303    54334 
   54352    54331    54280    54234    54217    54234    54274    54319 
   54363    54401    54417    54403    54355    54287    54223    54179 
   54184    54243    54303    54338    54362    54379    54392    54390 
   54338    54255    54190    54170    54208    54278    54332    54348 
   54341    54341    54362    54390    54403    54387    54335    54272 
   54243    54257    54289    54317    54340    54358    54378    54400 
   54410    54403    54390    54368    54327    54271    54228    54223 
   54242    54265    54285    54296    54307    54324    54331    54320 
   54300    54274    54256    54261    54271    54261    54240    54225 
   54217    54220    54219    54208    54217    54236    54246    54258 
   54257    54224    54174    54126    54087    54067    54067    54084 
   54106    54119    54127    54137    54155    54189    54241    54295 
   54330    54339    54328    54301    54262    54208    54151    54116 
   54111    54123    54151    54190    54240    54296    54345    54376 
   54373    54341    54310    54284    54256    54228    54195    54165 
