Origin Time       2024/04/02 04:24:00
Lat.              40.133
Long.             141.712
Depth. (km)       71
Mag.              6.0
Station Code      SRCH06
Station Lat.      43.6948
Station Long.     142.0776
Station Height(m) 80
Record Time       2024/04/02 04:26:15
Sampling Freq(Hz) 100Hz
Duration Time(s)  120
Dir.              4
Scale Factor      7845(gal)/8223790
Max. Acc. (gal)   0.496
Last Correction   2024/04/02 04:26:16
Memo.             
[...]
     957      951      942      934      927      918      912      918 
     924      935      949      961      978      999     1013     1030 
    1044     1058     1078     1100     1121     1136     1136     1128 
    1119     1113     1111     1100     1089     1084     1078     1081 
    1089     1092     1094     1096     1094     1089     1078     1065 
    1053     1040     1032     1026     1015     1000      985      977 
     982      993     1008     1026     1036     1047     1063     1077 
    1088     1098     1116     1143     1156     1154     1151     1142 
    1128     1115     1100     1086     1063     1027      996      969 
     947      934      922      918      923      936      959      984 
    1008     1043     1075     1102     1127     1138     1142     1142 
    1142     1142     1131     1113     1098     1080     1061     1044 
    1027     1017     1015     1012     1013     1017     1020     1024 
    1021     1013     1012     1007     1001      996      989      992 
    1004     1016     1030     1043     1057     1075     1097     1117 
    1129     1135     1136     1129     1121     1109     1089     1071 
    1063     1054     1044     1026      992      966      950      935 
     926      919      920      934      953      981     1012     1043 
    1074     1093     1102     1105     1096     1082     1065     1042 
    1019      992      970      969      977      985      996     1008 
    1024     1036     1042     1048     1055     1062     1078     1089 
    1089     1085     1071     1057     1053     1057     1058     1055 
    1051     1047     1035     1027     1023     1019     1026     1036 
    1042     1042     1031     1019     1015     1012     1011     1017 
    1023     1028     1026     1019     1017     1017     1021     1035 
    1047     1051     1055     1058     1051     1038     1031     1032 
    1028     1023     1019     1011     1007     1004      996      990 
     988      988      989      986      986      990      992     1004 
    1026     1044     1067     1089     1102     1115     1119     1117 
    1116     1116     1112     1098     1075     1050     1017      985 
     959      936      923      920      920      932      957      982 
    1003     1019     1032     1048     1070     1098     1123     1135 
    1144     1152     1150     1146     1143     1132     1115     1100 
    1086     1070     1047     1023      996      974      958      949 
     949      954      962      982     1004     1020     1036     1051 
    1070     1096     1112     1121     1127     1125     1116     1094 
    1071     1055     1040     1034     1035     1034     1032     1031 
    1030     1036     1040     1047     1062     1067     1069     1075 
    1081     1085     1084     1071     1055     1040     1026     1008 
     992      984      984      988     1003     1021     1036     1050 
    1058     1061     1061     1053     1043     1031     1017     1005 
     990      974      958      939      926      927      939      961 
     988     1013     1043     1069     1092     1109     1123     1136 
    1143     1142     1138     1129     1117     1112     1107     1097 
    1086     1070     1057     1047     1035     1028     1026     1024 
    1031     1040     1047     1058     1065     1066     1069     1071 
    1078     1080     1069     1057     1051     1051     1057     1062 
    1071     1082     1088     1094     1101     1111     1125     1139 
    1147     1147     1135     1116     1100     1084     1070     1061 
    1058     1063     1062     1054     1044     1034     1030     1027 
    1019     1011     1001      989      980      974      980      994 
    1005     1007     1003     1001     1008     1013     1021     1038 
    1058     1088     1117     1127     1119     1098     1081     1069 
    1044     1004      966      934      915      904      892      881 
     878      880      893      913      935      954      967      985 
    1004     1016     1028     1038     1046     1059     1075     1096 
    1124     1148     1169     1182     1189     1188     1174     1147 
    1115     1080     1039      994      947      907      876      861 
     858      864      876      893      915      940      972     1004 
    1043     1081     1108     1135     1158     1169     1170     1165 
    1161     1154     1144     1135     1120     1104     1089     1063 
    1034     1011      982      961      959      970      985     1000 
    1013     1028     1043     1055     1062     1058     1053     1040 
    1024     1013      994      976      969      962      958      962 
     959      961      970      973      976      981      980      981 
     996     1019     1043     1063     1074     1078     1080     1081 
    1080     1075     1075     1070     1054     1034     1015     1007 
    1004     1004     1009     1015     1026     1047     1071     1097 
    1121     1142     1163     1181     1188     1192     1194     1194 
    1186     1171     1151     1129     1100     1067     1044     1030 
    1019     1009      997      980      965      961      965      978 
    1008     1047     1089     1135     1175     1204     1221     1223 
    1217     1205     1179     1146     1112     1080     1050     1026 
    1009      996      982      972      966      966      974      984 
     989      996     1003     1005     1001      993      986      982 
     984      993     1001     1001      997      993      990      989 
     992      997      994      990      989      982      978      981 
     984      986      984      978      967      957      959      976 
     989     1004     1021     1034     1047     1054     1054     1066 
    1085     1102     1120     1128     1124     1109     1082     1053 
    1024      997      980      970      963      963      967      977 
     990     1004     1016     1032     1048     1067     1088     1104 
    1121     1140     1155     1156     1148     1140     1136     1135 
    1131     1125     1117     1108     1094     1081     1063     1040 
    1020     1005     1000     1005     1011     1016     1034     1051 
    1070     1094     1121     1144     1155     1154     1150     1134 
    1104     1069     1026      985      957      936      928      924 
     926      928      936      953      969      980      986      989 
     989      994      996     1000     1012     1023     1036     1051 
    1059     1065     1062     1055     1051     1042     1024     1011 
     997      990      993     1000     1012     1028     1047     1065 
    1078     1093     1105     1116     1131     1140     1140     1136 
    1129     1120     1108     1089     1062     1038     1011      984 
     963      949      939      934      936      951      966      977 
     988      997     1008     1020     1030     1039     1048     1059 
    1071     1075     1078     1081     1077     1071     1071     1075 
    1086     1092     1088     1085     1075     1065     1061     1057 
    1055     1057     1050     1040     1028     1009      993      984 
     981      977      970      973      984     1001     1026     1042 
    1053     1065     1073     1081     1089     1090     1090     1090 
    1093     1096     1090     1086     1081     1073     1071     1070 
    1063     1058     1050     1047     1054     1054     1050     1053 
    1055     1057     1059     1058     1055     1044     1028     1015 
    1005      997      992      986      986      996     1005     1026 
    1051     1077     1104     1123     1123     1115     1096     1070 
    1047     1034     1021     1008      994      980      965      951 
     936      920      908      903      908      923      946      978 
    1012     1034     1053     1065     1069     1075     1082     1085 
    1093     1102     1101     1086     1063     1039     1021     1016 
    1016     1012     1008     1004      996      985      969      953 
     945      939      938      943      950      958      970      978 
     989     1004     1011     1013     1024     1040     1059     1077 
    1089     1100     1105     1107     1104     1093     1080     1067 
    1059     1058     1058     1057     1058     1062     1065     1065 
    1063     1062     1063     1066     1074     1086     1100     1112 
    1120     1129     1138     1143     1151     1155     1152     1150 
    1144     1129     1104     1074     1046     1021     1008     1000 
     993      990      993      994     1001     1013     1026     1040 
    1051     1059     1070     1081     1092     1097     1098     1102 
    1101     1094     1089     1081     1073     1073     1066     1053 
    1040     1026     1011      997      989      988      985      981 
     989      993      999     1013     1027     1042     1061     1075 
    1082     1088     1097     1104     1102     1102     1111     1121 
    1128     1128     1119     1105     1092     1075     1067     1059 
    1051     1050     1048     1043     1035     1024     1009      999 
     994      992      986      974      954      938      935      934 
     938      958      974      988     1008     1024     1043     1070 
    1094     1115     1134     1144     1147     1144     1135     1116 
    1093     1075     1055     1036     1027     1023     1019     1016 
    1011     1008     1011     1008     1003      996      981      958 
     931      903      886      882      885      901      927      963 
    1004     1047     1085     1112     1136     1159     1174     1183 
    1188     1179     1170     1161     1143     1120     1088     1051 
    1020      985      950      923      899      886      891      901 
     918      936      951      967      984     1000     1019     1034 
    1042     1044     1046     1048     1043     1034     1026     1015 
    1009     1011     1011     1013     1017     1027     1046     1063 
    1080     1101     1119     1129     1142     1152     1155     1144 
    1120     1088     1050     1019      994      980      985      997 
    1005     1012     1016     1021     1030     1035     1038     1038 
    1028     1016     1003      988      969      951      943      942 
     939      943      950      951      963      981      997     1017 
    1035     1055     1082     1101     1121     1142     1156     1163 
    1156     1135     1107     1071     1032      996      963      942 
     926      908      895      885      877      873      876      882 
     893      907      920      931      943      955      962      973 
     989      994      997     1001      997      990      989      988 
     986      985      989      996     1001     1011     1023     1040 
    1073     1111     1140     1166     1186     1194     1193     1182 
    1167     1154     1144     1135     1127     1120     1113     1108 
    1109     1111     1108     1111     1115     1112     1113     1117 
    1123     1136     1150     1163     1182     1198     1215     1233 
    1240     1240     1235     1212     1181     1150     1117     1084 
    1054     1032     1016      996      976      955      931      913 
     900      888      888      896      912      936      963      994 
    1028     1055     1077     1093     1102     1108     1107     1092 
    1062     1027      997      965      940      932      935      953 
     988     1021     1053     1081     1102     1124     1146     1173 
    1206     1240     1269     1286     1291     1291     1281     1264 
    1246     1215     1181     1155     1129     1104     1085     1069 
    1065     1071     1086     1108     1123     1127     1123     1111 
    1096     1082     1065     1051     1046     1048     1058     1071 
    1088     1096     1086     1071     1050     1016      981      947 
     916      896      885      882      882      881      881      878 
     878      884      892      904      927      950      982     1017 
    1044     1069     1085     1086     1080     1065     1038     1008 
     978      951      931      920      924      943      969     1007 
    1051     1093     1129     1151     1162     1169     1169     1165 
    1159     1161     1174     1188     1196     1206     1216     1225 
    1232     1231     1228     1223     1215     1210     1210     1212 
    1212     1202     1181     1144     1092     1028      961      907 
     877      859      859      874      896      923      954      990 
    1034     1077     1117     1154     1178     1186     1182     1162 
    1132     1092     1050     1013      972      923      872      820 
     785      774      777      797      837      885      936      978 
    1008     1031     1043     1050     1063     1078     1088     1096 
    1100     1100     1100     1102     1102     1096     1090     1081 
    1067     1050     1019      980      940      901      862      826 
     793      770      756      750      756      769      788      816 
     851      899      953     1007     1059     1100     1129     1148 
    1146     1128     1105     1073     1039     1011      981      961 
     940      916      900      889      888      903      923      949 
     976      999     1019     1038     1055     1080     1111     1147 
    1192     1233     1269     1291     1297     1286     1262     1221 
    1173     1124     1078     1042     1011      981      957      940 
     943      965     1005     1063     1127     1193     1264     1336 
    1404     1464     1513     1549     1561     1548     1510     1440 
    1344     1232     1111     1001      904      824      769      734 
     722      734      749      770      801      826      847      868 
     882      897      903      907      924      953      990     1034 
    1078     1124     1165     1194     1215     1220     1205     1178 
    1143     1101     1051     1007      976      949      932      930 
     924      911      896      877      870      886      912      946 
     982     1020     1055     1081     1100     1120     1140     1154 
    1162     1165     1158     1136     1107     1073     1028      985 
     950      912      874      845      820      803      792      788 
     788      793      807      824      843      865      885      907 
     927      947      970      996     1013     1026     1035     1030 
    1008      974      930      886      850      827      816      815 
     832      861      895      938      992     1046     1098     1146 
    1182     1210     1227     1228     1213     1185     1154     1124 
    1105     1097     1092     1089     1093     1092     1092     1088 
    1077     1067     1061     1061     1066     1069     1071     1075 
    1074     1073     1069     1058     1047     1038     1038     1044 
    1048     1055     1070     1081     1092     1102     1107     1102 
    1092     1075     1053     1016      970      913      851      804 
     768      743      742      761      789      828      870      920 
     974     1031     1100     1177     1247     1309     1355     1381 
    1385     1362     1317     1254     1171     1084      994      916 
     857      815      795      797      818      861      924     1001 
    1090     1173     1247     1308     1348     1371     1375     1356 
    1323     1279     1225     1169     1105     1042      982      924 
     877      841      812      795      793      808      847      903 
     967     1038     1102     1162     1223     1278     1328     1372 
    1406     1429     1439     1428     1398     1348     1290     1225 
    1154     1086     1019      951      892      831      784      758 
     738      730      739      754      783      827      872      920 
     969     1017     1071     1116     1151     1179     1193     1201 
    1208     1206     1202     1196     1194     1198     1206     1216 
    1220     1224     1229     1229     1229     1220     1198     1165 
    1125     1077     1020      965      907      849      796      750 
     716      703      710      733      772      826      885      942 
     994     1035     1063     1093     1120     1138     1148     1156 
    1151     1136     1119     1100     1080     1069     1066     1073 
    1088     1100     1105     1109     1108     1100     1104     1108 
    1107     1112     1116     1115     1115     1112     1107     1101 
    1097     1100     1109     1117     1127     1136     1144     1147 
    1143     1135     1116     1090     1077     1077     1081     1088 
    1092     1094     1098     1107     1121     1138     1158     1183 
    1204     1220     1229     1220     1194     1152     1098     1039 
     974      907      845      789      743      708      679      658 
     650      649      660      677      706      745      783      826 
     872      916      967     1020     1073     1124     1170     1209 
    1242     1255     1248     1231     1205     1175     1135     1086 
    1042     1001      963      932      904      888      884      889 
     907      936      969      999     1026     1051     1078     1097 
    1109     1120     1129     1143     1161     1175     1192     1208 
    1221     1236     1246     1252     1251     1244     1235     1217 
    1194     1170     1136     1101     1077     1053     1030     1019 
    1011     1004      994      981      969      955      947      940 
     930      920      905      880      850      815      781      753 
     727      715      716      723      739      769      805      850 
     904      970     1035     1092     1146     1194     1231     1255 
    1260     1248     1228     1197     1165     1144     1132     1129 
    1140     1161     1190     1217     1239     1252     1255     1244 
    1223     1182     1123     1051      982      923      876      851 
     851      869      905      958     1012     1070     1128     1179 
    1224     1262     1294     1321     1336     1343     1339     1320 
    1297     1264     1219     1170     1115     1051      990      932 
     877      834      800      774      761      754      760      774 
     795      823      849      870      892      907      915      922 
     931      947      965      984     1005     1016     1026     1044 
    1059     1075     1090     1092     1086     1080     1066     1058 
    1057     1057     1062     1078     1111     1146     1175     1200 
    1212     1212     1206     1189     1159     1124     1092     1063 
    1036     1009      982      954      927      913      909      915 
     926      936      953      974      997     1024     1044     1054 
    1059     1059     1055     1048     1034     1013      992      966 
     946      931      916      904      897      901      919      945 
     974     1000     1019     1035     1043     1042     1027     1001 
     973      943      913      891      876      866      866      884 
     916      949      977     1000     1019     1044     1078     1107 
    1127     1139     1143     1148     1155     1143     1116     1081 
    1036      990      950      913      886      870      869      888 
     924      966     1005     1042     1082     1119     1151     1179 
    1183     1171     1155     1135     1120     1115     1113     1112 
    1113     1117     1117     1111     1097     1070     1039     1012 
