Origin Time       2024/04/02 04:24:00
Lat.              40.133
Long.             141.712
Depth. (km)       71
Mag.              6.0
Station Code      SRCH08
Station Lat.      43.5138
Station Long.     141.9090
Station Height(m) -92
Record Time       2024/04/02 04:26:07
Sampling Freq(Hz) 100Hz
Duration Time(s)  120
Dir.              3
Scale Factor      2940(gal)/6170270
Max. Acc. (gal)   0.209
Last Correction   2024/04/02 04:25:52
Memo.             
[...]
   93382    93342    93305    93286    93289    93305    93320    93332 
   93351    93384    93421    93445    93445    93424    93400    93384 
   93378    93374    93368    93373    93388    93403    93417    93431 
   93440    93445    93445    93439    93431    93429    93437    93451 
   93464    93469    93466    93459    93453    93450    93452    93454 
   93456    93464    93484    93517    93556    93588    93607    93620 
   93628    93628    93618    93594    93553    93501    93446    93398 
   93364    93348    93343    93347    93359    93365    93359    93360 
   93377    93396    93412    93429    93451    93484    93528    93572 
   93609    93630    93636    93637    93635    93623    93603    93584 
   93565    93535    93496    93456    93420    93402    93410    93431 
   93450    93460    93462    93461    93460    93449    93423    93391 
   93367    93358    93363    93364    93355    93341    93327    93318 
   93313    93307    93302    93314    93342    93372    93392    93395 
   93379    93355    93333    93315    93296    93277    93270    93283 
   93310    93334    93343    93334    93314    93300    93299    93304 
   93310    93319    93331    93345    93364    93385    93398    93402 
   93393    93376    93360    93352    93353    93367    93388    93405 
   93416    93429    93446    93453    93445    93422    93389    93360 
   93355    93380    93432    93489    93533    93564    93583    93591 
   93582    93551    93501    93448    93412    93398    93403    93421 
   93447    93482    93519    93552    93577    93585    93572    93551 
   93524    93485    93441    93398    93370    93361    93365    93373 
   93379    93374    93361    93351    93349    93343    93329    93313 
   93304    93309    93326    93348    93371    93390    93405    93419 
   93433    93449    93467    93484    93500    93511    93517    93526 
   93535    93543    93550    93555    93560    93564    93570    93579 
   93584    93573    93547    93518    93491    93472    93462    93458 
   93456    93453    93451    93452    93460    93466    93471    93480 
   93499    93522    93539    93540    93526    93505    93481    93455 
   93435    93414    93388    93363    93349    93344    93345    93348 
   93346    93336    93318    93288    93259    93238    93224    93214 
   93207    93202    93201    93205    93214    93224    93231    93230 
   93220    93207    93194    93178    93161    93146    93133    93127 
   93131    93145    93171    93208    93243    93276    93300    93306 
   93301    93299    93303    93313    93328    93347    93370    93398 
   93429    93462    93490    93513    93533    93549    93565    93580 
   93589    93601    93622    93655    93699    93745    93784    93813 
   93827    93820    93791    93745    93689    93632    93580    93541 
   93519    93515    93524    93544    93562    93573    93575    93567 
   93554    93534    93502    93471    93447    93433    93431    93435 
   93439    93448    93461    93472    93483    93498    93510    93515 
   93513    93508    93498    93481    93453    93418    93383    93363 
   93367    93388    93410    93428    93440    93448    93454    93457 
   93453    93440    93422    93403    93386    93376    93370    93362 
   93359    93361    93367    93376    93384    93390    93397    93405 
   93407    93397    93377    93349    93320    93303    93299    93304 
   93318    93336    93357    93385    93408    93418    93414    93402 
   93387    93368    93347    93331    93323    93321    93328    93342 
   93357    93371    93373    93360    93336    93305    93271    93240 
   93215    93204    93205    93216    93237    93261    93280    93289 
   93293    93295    93298    93309    93326    93344    93363    93380 
   93388    93383    93362    93329    93297    93273    93259    93259 
   93279    93316    93359    93402    93434    93451    93458    93465 
   93470    93469    93467    93475    93488    93494    93501    93510 
   93523    93542    93561    93569    93571    93568    93564    93562 
   93557    93552    93545    93537    93527    93512    93493    93477 
   93468    93464    93461    93464    93468    93471    93472    93463 
   93448    93438    93435    93440    93457    93484    93514    93540 
   93555    93559    93557    93547    93526    93497    93473    93460 
   93457    93457    93457    93463    93473    93486    93504    93523 
   93543    93561    93573    93578    93585    93593    93594    93582 
   93553    93508    93458    93415    93383    93366    93360    93352 
   93341    93325    93304    93287    93287    93306    93338    93376 
   93416    93455    93492    93523    93542    93546    93534    93511 
   93485    93459    93428    93395    93365    93340    93318    93299 
   93285    93273    93259    93241    93218    93195    93178    93168 
   93160    93154    93155    93167    93194    93228    93259    93287 
   93318    93349    93369    93373    93360    93339    93317    93303 
   93296    93290    93284    93284    93292    93301    93303    93297 
   93294    93307    93336    93378    93427    93471    93509    93540 
   93560    93563    93550    93524    93494    93473    93461    93457 
   93465    93479    93494    93512    93527    93538    93543    93532 
   93511    93489    93470    93461    93467    93482    93507    93541 
   93579    93607    93623    93634    93639    93632    93611    93583 
   93552    93522    93496    93477    93462    93449    93434    93420 
   93410    93405    93404    93409    93414    93417    93415    93408 
   93397    93383    93366    93346    93336    93339    93346    93352 
   93360    93364    93363    93361    93357    93353    93344    93332 
   93324    93322    93327    93341    93366    93395    93419    93437 
   93448    93452    93449    93440    93419    93391    93365    93349 
   93341    93336    93333    93337    93339    93336    93336    93338 
   93330    93317    93307    93303    93305    93312    93322    93339 
   93362    93383    93394    93395    93391    93385    93380    93380 
   93387    93400    93421    93444    93461    93473    93481    93481 
   93477    93473    93469    93466    93473    93491    93515    93540 
   93561    93575    93591    93613    93636    93656    93668    93668 
   93659    93650    93640    93620    93595    93574    93556    93536 
   93519    93500    93477    93457    93439    93420    93396    93364 
   93333    93314    93303    93295    93293    93305    93330    93361 
   93395    93429    93459    93487    93509    93521    93522    93517 
   93509    93499    93489    93484    93484    93489    93500    93511 
   93513    93504    93487    93470    93457    93455    93458    93466 
   93487    93515    93542    93564    93576    93573    93557    93530 
   93499    93466    93435    93411    93397    93397    93410    93422 
   93429    93434    93439    93442    93444    93447    93449    93445 
   93438    93430    93422    93416    93413    93416    93423    93428 
   93430    93435    93445    93459    93472    93476    93472    93460 
   93449    93442    93430    93411    93388    93361    93333    93304 
   93273    93245    93219    93200    93194    93198    93211    93233 
   93255    93272    93280    93269    93243    93211    93182    93161 
   93145    93134    93128    93126    93130    93140    93150    93164 
   93183    93203    93223    93239    93253    93269    93288    93308 
   93329    93349    93362    93364    93360    93351    93340    93323 
   93298    93273    93257    93256    93266    93286    93317    93358 
   93411    93462    93501    93525    93539    93547    93554    93557 
   93551    93534    93519    93518    93534    93558    93582    93596 
   93602    93602    93599    93590    93568    93537    93507    93483 
   93468    93469    93485    93508    93533    93556    93582    93611 
   93635    93652    93662    93666    93664    93654    93637    93613 
   93585    93553    93520    93488    93459    93438    93424    93409 
   93397    93389    93380    93369    93355    93339    93326    93321 
   93323    93333    93352    93378    93407    93440    93474    93504 
   93528    93542    93554    93570    93582    93586    93580    93566 
   93548    93530    93515    93506    93505    93509    93519    93537 
   93561    93589    93611    93617    93612    93601    93588    93577 
   93568    93557    93547    93545    93554    93571    93586    93587 
   93571    93540    93500    93456    93411    93368    93330    93296 
   93264    93230    93193    93159    93127    93095    93073    93063 
   93064    93076    93099    93133    93172    93209    93237    93255 
   93266    93267    93256    93238    93221    93204    93189    93186 
   93192    93203    93214    93215    93206    93194    93177    93154 
   93131    93108    93096    93102    93118    93143    93176    93210 
   93244    93275    93302    93326    93348    93357    93352    93340 
   93324    93308    93303    93319    93349    93383    93414    93439 
   93458    93465    93459    93448    93433    93415    93401    93398 
   93409    93431    93457    93484    93509    93531    93549    93558 
   93560    93558    93555    93559    93579    93612    93648    93679 
   93703    93723    93741    93755    93755    93741    93717    93685 
   93650    93624    93605    93598    93604    93615    93631    93650 
   93663    93668    93669    93667    93659    93645    93634    93631 
   93640    93655    93670    93685    93702    93711    93702    93675 
   93634    93580    93522    93468    93422    93378    93339    93313 
   93305    93313    93329    93342    93351    93356    93357    93363 
   93375    93388    93398    93404    93406    93406    93398    93381 
   93359    93334    93305    93275    93254    93238    93221    93207 
   93198    93195    93198    93203    93210    93219    93231    93243 
   93248    93242    93235    93233    93234    93244    93264    93294 
   93332    93372    93412    93448    93476    93495    93508    93511 
   93506    93496    93477    93452    93430    93411    93393    93377 
   93367    93358    93350    93348    93346    93338    93327    93321 
   93319    93323    93340    93369    93403    93438    93474    93509 
   93539    93564    93580    93590    93597    93584    93550    93511 
   93473    93437    93403    93368    93331    93299    93276    93268 
   93273    93290    93315    93344    93377    93416    93455    93491 
   93525    93553    93574    93589    93595    93594    93586    93572 
   93552    93523    93487    93458    93437    93419    93402    93384 
   93365    93353    93355    93369    93384    93396    93412    93436 
   93464    93493    93524    93554    93581    93599    93607    93606 
   93595    93574    93550    93528    93505    93484    93468    93459 
   93450    93436    93417    93400    93388    93378    93366    93349 
   93331    93316    93308    93307    93310    93318    93333    93355 
   93380    93403    93413    93414    93415    93412    93400    93379 
   93349    93322    93307    93303    93319    93348    93372    93392 
   93409    93416    93413    93404    93387    93367    93352    93338 
   93323    93313    93312    93324    93346    93370    93385    93397 
   93409    93420    93426    93426    93419    93407    93393    93382 
   93375    93369    93363    93360    93361    93366    93367    93366 
   93364    93365    93369    93382    93401    93417    93427    93430 
   93428    93426    93421    93413    93405    93398    93397    93406 
   93420    93434    93446    93453    93453    93444    93426    93400 
   93369    93338    93311    93286    93261    93239    93226    93226 
   93239    93259    93285    93318    93353    93387    93421    93454 
   93481    93507    93536    93563    93588    93609    93624    93637 
   93645    93648    93649    93644    93629    93606    93578    93549 
   93520    93486    93451    93421    93399    93380    93367    93362 
   93364    93373    93391    93417    93448    93481    93514    93543 
   93562    93566    93562    93553    93544    93537    93536    93533 
   93528    93518    93502    93485    93466    93442    93419    93403 
   93394    93392    93392    93393    93395    93397    93402    93409 
   93411    93403    93384    93358    93323    93281    93235    93191 
   93153    93123    93102    93088    93080    93080    93088    93097 
   93104    93105    93102    93105    93118    93139    93167    93198 
   93228    93262    93290    93308    93321    93327    93323    93315 
   93307    93295    93284    93277    93277    93284    93293    93299 
   93309    93319    93329    93337    93342    93349    93359    93371 
   93387    93408    93425    93439    93459    93483    93505    93526 
   93548    93570    93590    93606    93621    93635    93650    93668 
   93679    93682    93683    93685    93688    93695    93700    93697 
   93686    93672    93655    93635    93617    93606    93603    93613 
   93636    93660    93681    93706    93731    93749    93760    93765 
   93768    93770    93763    93745    93722    93699    93676    93653 
   93629    93602    93575    93553    93539    93528    93516    93503 
   93493    93486    93477    93464    93448    93429    93413    93407 
   93408    93409    93408    93404    93397    93390    93382    93366 
   93340    93308    93271    93231    93192    93161    93134    93106 
   93081    93061    93042    93021    93002    92990    92982    92981 
   92992    93016    93051    93087    93119    93151    93180    93207 
   93233    93257    93281    93302    93317    93328    93335    93338 
   93340    93346    93355    93364    93372    93378    93385    93397 
   93413    93432    93453    93477    93506    93537    93572    93609 
   93640    93665    93682    93693    93701    93710    93716    93717 
   93716    93715    93709    93700    93688    93671    93653    93642 
   93642    93648    93659    93669    93674    93675    93671    93661 
   93650    93639    93626    93608    93588    93569    93555    93546 
   93540    93535    93528    93520    93513    93505    93491    93474 
   93459    93451    93456    93467    93478    93487    93493    93495 
   93494    93491    93481    93462    93438    93414    93391    93369 
   93346    93322    93299    93272    93247    93231    93223    93218 
   93216    93219    93226    93233    93239    93245    93251    93255 
   93262    93268    93272    93278    93283    93287    93289    93285 
   93278    93269    93260    93249    93239    93229    93219    93211 
   93206    93201    93196    93191    93184    93177    93168    93156 
   93150    93149    93148    93145    93146    93153    93169    93190 
   93215    93238    93255    93268    93280    93294    93308    93326 
   93345    93364    93385    93406    93428    93453    93473    93489 
   93500    93507    93515    93522    93527    93535    93546    93556 
   93569    93585    93602    93619    93639    93656    93668    93677 
   93678    93677    93676    93668    93656    93642    93622    93598 
   93574    93550    93526    93506    93493    93484    93479    93480 
   93482    93484    93488    93495    93501    93503    93506    93512 
   93519    93525    93531    93532    93527    93518    93505    93490 
   93477    93468    93457    93441    93421    93407    93398    93392 
   93390    93388    93380    93372    93368    93368    93367    93361 
   93350    93342    93336    93331    93328    93326    93321    93321 
   93329    93340    93351    93363    93372    93377    93378    93376 
   93367    93350    93329    93306    93278    93245    93212    93183 
   93160    93144    93134    93131    93133    93143    93154    93164 
   93175    93184    93191    93199    93204    93212    93226    93238 
   93253    93273    93289    93301    93314    93323    93326    93322 
   93312    93304    93300    93298    93299    93307    93318    93333 
   93350    93361    93365    93362    93363    93371    93384    93405 
   93432    93463    93498    93536    93578    93620    93653    93677 
   93692    93701    93711    93717    93714    93710    93709    93711 
   93722    93740    93758    93775    93790    93802    93812    93812 
   93800    93777    93748    93720    93699    93684    93674    93668 
   93664    93661    93656    93648    93638    93625    93606    93585 
   93562    93546    93537    93532    93532    93535    93533    93529 
   93521    93507    93487    93463    93435    93408    93381    93355 
   93333    93318    93312    93307    93301    93297    93299    93302 
   93307    93309    93306    93304    93299    93290    93281    93274 
   93264    93248    93239    93233    93229    93234    93244    93255 
   93269    93281    93283    93277    93269    93269    93275    93283 
   93293    93308    93322    93338    93355    93367    93370    93372 
   93374    93374    93379    93387    93392    93390    93388    93388 
   93383    93373    93366    93356    93343    93328    93312    93300 
   93293    93285    93276    93269    93261    93253    93246    93236 
   93226    93224    93231    93242    93260    93281    93298    93310 
   93317    93318    93314    93305    93295    93291    93291    93291 
   93295    93305    93318    93333    93349    93363    93380    93398 
   93414    93433    93457    93479    93502    93532    93564    93593 
   93617    93638    93657    93667    93665    93653    93637    93619 
   93605    93592    93575    93553    93530    93506    93483    93465 
   93448    93432    93422    93424    93437    93455    93474    93495 
   93518    93538    93557    93572    93579    93582    93586    93587 
   93585    93580    93573    93564    93556    93551    93548    93542 
   93529    93513    93497    93482    93467    93456    93454    93461 
   93479    93499    93517    93536    93559    93582    93602    93616 
   93618    93607    93589    93567    93543    93521    93502    93489 
   93477    93464    93453    93442    93430    93418    93404    93386 
   93371    93358    93349    93347    93349    93355    93365    93374 
   93386    93400    93415    93431    93446    93460    93471    93476 
   93476    93472    93462    93449    93438    93430    93420    93410 
   93403    93397    93392    93390    93389    93386    93387    93394 
   93405    93420    93435    93449    93462    93470    93473    93476 
   93479    93474    93462    93447    93432    93415    93401    93391 
   93386    93384    93379    93375    93374    93371    93371    93372 
   93373    93374    93377    93379    93381    93387    93391    93389 
   93384    93372    93350    93327    93305    93280    93256    93232 
   93210    93192    93181    93176    93174    93172    93174    93181 
   93190    93201    93211    93223    93240    93257    93277    93302 
   93325    93344    93358    93370    93384    93397    93403    93406 
   93406    93407    93413    93422    93429    93435    93442    93451 
   93465    93479    93495    93513    93534    93554    93572    93587 
   93595    93594    93591    93584    93576    93568    93553    93534 
   93519    93509    93499    93487    93471    93456    93440    93422 
   93399    93373    93352    93340    93333    93332    93336    93340 
