Origin Time       2024/04/02 04:24:00
Lat.              40.133
Long.             141.712
Depth. (km)       71
Mag.              6.0
Station Code      SRCH06
Station Lat.      43.6948
Station Long.     142.0776
Station Height(m) 80
Record Time       2024/04/02 04:26:15
Sampling Freq(Hz) 100Hz
Duration Time(s)  120
Dir.              5
Scale Factor      7845(gal)/8223790
Max. Acc. (gal)   0.395
Last Correction   2024/04/02 04:26:16
Memo.             
[...]
     203      207      217      224      232      234      222      203 
     180      163      153      152      163      182      202      229 
     263      297      329      352      367      371      361      344 
     318      290      264      245      237      244      259      286 
     318      346      380      417      446      473      498      518 
     533      538      542      540      527      506      477      445 
     413      375      338      305      275      264      265      275 
     298      321      344      368      382      392      405      400 
     394      390      376      365      357      345      328      306 
     280      253      226      213      209      202      206      214 
     222      241      264      287      310      326      333      326 
     310      288      260      226      197      170      153      151 
     152      166      186      203      226      255      283      311 
     337      355      360      355      342      324      299      271 
     240      213      193      170      152      144      136      141 
     156      175      210      256      301      342      369      383 
     386      373      360      346      333      318      299      287 
     280      275      275      280      288      302      311      318 
     325      326      326      329      328      330      334      337 
     345      351      357      375      388      396      403      403 
     400      391      373      356      336      317      301      279 
     260      244      225      211      199      182      163      139 
     110       85       67       71       87      113      159      216 
     268      317      349      368      383      394      399      394 
     375      351      314      268      230      198      170      153 
     145      148      157      172      195      221      256      301 
     340      379      421      448      465      472      454      419 
     375      319      261      203      152      110       74       51 
      35       25       31       45       64       98      135      172 
     211      247      279      314      348      382      409      429 
     444      452      453      449      437      422      402      375 
     356      344      329      313      298      279      261      248 
     247      251      261      288      321      359      398      427 
     450      465      468      477      487      488      499      510 
     521      533      537      530      515      490      469      446 
     422      407      400      396      395      391      383      369 
     351      329      301      276      259      240      218      199 
     180      170      171      178      189      199      213      228 
     236      241      248      244      236      229      218      207 
     191      171      156      148      149      156      164      180 
     194      206      226      237      241      249      256      268 
     288      303      314      322      329      340      346      351 
     359      355      344      338      333      326      317      315 
     324      330      342      361      372      379      380      371 
     357      332      303      282      260      238      225      207 
     193      187      183      189      201      205      207      207 
     205      203      202      207      213      217      228      245 
     270      307      351      392      432      460      481      491 
     488      477      459      432      402      367      333      303 
     274      253      249      251      259      271      284      302 
     322      344      361      376      388      390      387      384 
     372      352      333      315      303      295      292      297 
     299      301      307      309      309      317      317      318 
     318      305      282      255      220      180      143      113 
      89       72       78       94      117      152      189      224 
     259      284      309      332      344      355      361      359 
     349      326      299      282      263      244      234      234 
     241      251      264      282      302      328      364      396 
     421      442      460      473      483      479      463      433 
     391      353      317      282      253      229      213      210 
     216      234      263      294      330      368      399      413 
     409      400      386      360      333      301      268      243 
     222      209      202      190      176      163      149      143 
     136      129      129      136      155      182      210      247 
     279      306      332      351      355      345      325      303 
     276      244      217      189      163      147      136      130 
     130      129      132      143      155      174      197      214 
     230      244      255      264      274      284      294      303 
     317      329      344      364      383      405      434      464 
     496      523      542      562      577      579      573      553 
     518      477      427      376      321      259      203      160 
     128      112      110      133      174      216      275      346 
     415      486      553      612      661      691      702      691 
     654      604      542      464      386      311      247      199 
     162      139      133      137      148      166      186      211 
     229      234      240      233      218      201      179      157 
     133      109       95       85       74       72       76       86 
      94       98      101       94       83       70       54       45 
      43       41       59       87      121      172      229      279 
     334      388      444      504      556      598      630      645 
     646      627      587      531      464      388      313      241 
     182      135       98       79       75       93      125      162 
     214      276      334      398      460      514      561      596 
     616      622      607      576      529      468      406      337 
     270      209      151      103       76       66       71       93 
     122      163      214      268      322      376      425      464 
     492      510      513      498      468      425      372      314 
     248      176      102       25      -33      -72      -99     -109 
     -95      -60       -6       56      130      209      284      357 
     427      494      549      583      598      602      588      554 
     507      446      380      315      256      210      171      140 
     122      109      109      125      141      164      189      197 
     203      209      205      198      186      176      174      175 
     186      202      221      244      267      294      328      349 
     360      364      360      356      352      341      329      315 
     303      292      275      259      244      221      203      194 
     184      182      186      201      236      280      332      388 
     442      495      537      564      580      576      549      508 
     450      390      332      275      234      210      199      207 
     226      247      270      292      315      334      348      364 
     379      392      414      438      460      477      484      484 
     480      465      442      409      367      322      275      225 
     184      144      106       79       59       45       40       40 
      48       59       76      105      135      170      213      257 
     306      348      382      410      425      432      436      426 
     414      395      367      341      307      268      234      193 
     151      122       98       89       93       99      118      143 
     174      218      261      303      345      375      403      429 
     438      436      426      409      388      359      324      288 
     255      226      205      191      193      205      229      272 
     329      392      457      511      557      592      614      630 
     635      626      606      577      546      507      457      410 
     361      311      275      241      214      202      197      198 
     210      232      264      299      332      368      402      430 
     453      461      464      468      461      460      463      459 
     456      450      442      438      429      415      400      376 
     351      325      302      286      270      259      264      274 
     287      311      340      371      403      429      449      456 
     448      427      391      349      303      245      190      139 
      89       47       18       -2      -13      -13        0       20 
      44       74      101      122      147      160      166      172 
     178      183      193      203      220      236      249      267 
     279      292      307      311      311      303      286      272 
     256      232      211      189      163      141      121      103 
      89       75       68       67       68       74       78       87 
     106      128      156      186      213      240      264      283 
     302      313      314      310      301      295      286      275 
     268      259      248      247      247      251      259      263 
     270      280      287      297      301      299      298      292 
     284      278      265      259      253      245      245      251 
     260      276      295      318      345      371      394      414 
     429      437      437      434      436      429      422      415 
     405      395      395      395      402      415      430      450 
     467      477      486      486      483      476      459      440 
     418      395      379      355      330      306      275      247 
     217      179      143      109       82       67       62       66 
      79       98      133      176      225      280      330      375 
     411      429      429      417      386      342      295      248 
     207      174      148      133      124      125      139      157 
     179      210      243      276      305      324      334      330 
     321      306      287      272      257      248      251      255 
     263      283      301      319      345      369      392      413 
     425      434      434      429      418      398      380      361 
     336      314      292      263      241      222      209      205 
     207      221      240      260      287      315      342      371 
     392      411      432      442      454      471      476      477 
     473      461      442      414      380      345      310      283 
     259      237      229      224      221      233      248      264 
     287      310      332      349      363      371      364      351 
     336      314      290      263      229      191      160      132 
     112       99       99      110      124      143      174      203 
     233      261      280      298      311      314      311      307 
     302      298      294      294      295      291      287      284 
     279      278      274      274      276      276      282      291 
     297      307      309      302      309      314      317      333 
     345      360      378      391      411      427      433      442 
     450      454      454      445      426      402      373      346 
     318      290      261      234      220      211      206      213 
     225      236      256      282      310      336      360      386 
     405      413      417      410      383      352      319      290 
     268      247      229      221      218      225      234      247 
     263      278      298      322      340      360      375      386 
     399      407      411      417      419      421      422      422 
     422      417      407      400      394      383      373      365 
     357      355      352      349      344      336      321      302 
     287      275      253      234      221      199      182      172 
     163      155      143      129      124      117      116      114 
     106      112      128      141      166      189      206      228 
     240      245      249      244      236      220      198      182 
     167      149      136      128      126      137      156      187 
     217      244      279      309      333      359      369      379 
     398      409      425      445      452      460      468      476 
     486      483      476      471      459      450      442      430 
     417      391      365      349      325      298      272      240 
     211      187      162      147      135      126      130      141 
     162      191      217      244      275      305      329      344 
     360      371      367      356      338      306      271      237 
     198      168      147      135      137      147      170      205 
     245      288      336      376      413      440      450      457 
     457      444      422      399      373      349      325      306 
     294      288      291      303      326      353      386      426 
     463      491      519      537      541      531      506      475 
     433      375      317      259      199      149      103       66 
      48       47       62       91      133      190      251      313 
     375      425      461      487      495      491      475      438 
     394      341      271      199      136       75       17      -36 
     -78     -106     -120     -118     -110      -90      -56      -18 
      28       78      120      159      195      222      243      252 
     252      248      238      228      216      202      193      183 
     174      172      178      189      206      228      257      298 
     340      387      432      467      498      514      518      518 
     499      469      433      384      337      294      253      222 
     202      194      201      206      209      221      240      264 
     288      306      318      334      353      364      365      360 
     349      333      324      315      306      301      291      286 
     286      284      282      278      271      263      259      260 
     272      288      301      311      326      342      355      357 
     359      365      367      372      378      375      376      384 
     390      396      400      400      399      398      396      396 
     396      394      386      383      383      376      372      367 
     353      338      325      317      314      313      311      306 
     299      301      298      292      290      283      276      271 
     261      249      238      228      220      211      205      198 
     189      184      186      187      191      197      195      197 
     199      209      225      240      265      299      337      382 
     425      460      488      504      511      511      499      476 
     444      403      367      338      315      297      284      282 
     290      299      307      318      330      344      360      380 
     399      411      419      426      434      444      450      452 
     449      445      440      437      426      409      387      361 
     332      302      271      241      213      189      175      171 
     175      193      209      228      253      276      305      333 
     352      371      386      392      387      371      351      324 
     294      274      253      230      213      198      190      194 
     202      214      222      230      249      267      278      292 
     297      295      298      297      294      298      301      310 
     324      341      368      391      413      440      461      477 
     494      506      513      508      502      494      471      445 
     415      372      326      283      240      199      163      130 
     110       98       94       97      101      110      125      147 
     176      205      229      253      271      282      287      288 
     284      270      251      234      214      190      170      148 
     129      121      117      112      110      106      106      106 
     103      106      109      114      128      143      156      166 
     167      170      172      171      170      166      163      166 
     167      172      180      184      194      211      229      248 
     270      298      326      351      376      391      396      402 
     400      391      379      359      336      317      297      279 
     263      247      234      229      233      247      261      279 
     305      326      345      360      367      376      384      380 
     373      361      348      338      325      309      292      278 
     270      260      256      265      274      284      309      329 
     346      367      386      398      403      409      413      407 
     402      399      391      384      378      375      373      365 
     359      357      352      356      364      363      364      365 
     368      373      380      391      403      409      419      430 
     434      434      433      425      413      396      384      372 
     353      333      311      290      276      261      245      236 
     224      213      206      195      184      178      168      167 
     170      174      182      193      213      240      264      287 
     314      338      360      373      380      386      382      376 
     364      341      315      286      245      210      179      152 
     136      125      121      126      132      147      166      180 
     197      206      209      216      214      205      199      189 
     175      159      137      121      106       94       90       87 
      94      112      124      145      174      195      220      249 
     272      291      307      317      319      315      305      288 
     267      249      230      216      209      199      193      194 
     195      202      213      222      238      257      278      305 
     333      359      384      407      430      449      464      475 
     479      483      484      480      481      480      471      465 
     457      444      434      425      413      403      394      390 
     387      384      386      382      376      378      372      364 
     357      345      336      330      324      324      325      324 
     324      325      334      348      356      364      373      383 
     398      411      417      419      415      413      409      398 
     390      386      378      375      375      373      375      378 
     383      392      405      418      426      434      442      438 
     437      437      423      411      396      375      360      349 
     338      332      324      318      317      310      309      310 
     305      301      299      294      292      283      270      263 
     253      244      238      233      230      230      230      234 
     241      245      252      260      265      271      275      274 
     272      267      256      237      217      202      183      166 
     157      147      141      144      139      139      141      141 
     148      156      164      176      176      176      182      186 
     191      197      199      210      217      229      253      271 
