Origin Time       2024/04/02 04:24:00
Lat.              40.133
Long.             141.712
Depth. (km)       71
Mag.              6.0
Station Code      SRCH10
Station Lat.      42.9930
Station Long.     142.0085
Station Height(m) -5
Record Time       2024/04/02 04:25:23
Sampling Freq(Hz) 100Hz
Duration Time(s)  120
Dir.              2
Scale Factor      2940(gal)/6170270
Max. Acc. (gal)   0.289
Last Correction   2024/04/02 04:25:08
Memo.             
[...]
   41745    41741    41747    41756    41773    41801    41833    41859 
   41881    41902    41917    41923    41929    41940    41956    41973 
   41988    41997    41999    41991    41966    41933    41906    41887 
   41883    41895    41917    41930    41928    41914    41891    41871 
   41865    41872    41889    41919    41954    41987    42015    42024 
   42003    41968    41941    41925    41918    41917    41916    41920 
   41927    41932    41933    41937    41950    41964    41968    41973 
   41988    42006    42023    42026    42007    41978    41954    41939 
   41934    41940    41954    41965    41961    41944    41920    41903 
   41896    41895    41893    41888    41891    41905    41921    41931 
   41938    41947    41954    41956    41960    41970    41991    42016 
   42034    42036    42024    42005    41991    41984    41981    41982 
   41991    42001    42002    41991    41978    41972    41977    41989 
   41996    41991    41986    41983    41973    41956    41940    41937 
   41953    41972    41974    41961    41948    41947    41953    41963 
   41981    42002    42017    42023    42020    42012    42006    42002 
   41994    41973    41947    41924    41903    41879    41851    41830 
   41822    41827    41839    41857    41886    41927    41973    42013 
   42040    42049    42048    42038    42017    41995    41977    41963 
   41954    41953    41950    41941    41929    41913    41887    41853 
   41821    41798    41780    41767    41777    41812    41858    41904 
   41943    41966    41970    41964    41954    41948    41946    41946 
   41944    41941    41934    41926    41921    41915    41902    41885 
   41865    41843    41821    41804    41803    41808    41816    41837 
   41875    41917    41950    41970    41980    41989    42005    42033 
   42065    42078    42055    42012    41974    41947    41921    41896 
   41881    41875    41875    41884    41893    41900    41900    41896 
   41894    41897    41905    41919    41933    41938    41937    41939 
   41947    41955    41954    41942    41924    41905    41891    41886 
   41893    41901    41902    41901    41907    41914    41922    41933 
   41952    41977    42004    42032    42054    42060    42048    42024 
   41992    41957    41931    41917    41906    41889    41868    41854 
   41856    41872    41889    41905    41922    41942    41961    41970 
   41968    41971    41984    42002    42018    42037    42062    42083 
   42087    42074    42051    42023    41993    41962    41938    41924 
   41917    41919    41929    41936    41933    41933    41945    41966 
   41988    42017    42041    42044    42020    41981    41945    41927 
   41919    41911    41907    41913    41929    41950    41970    41989 
   42004    42016    42020    42005    41975    41941    41909    41884 
   41869    41863    41867    41880    41895    41913    41938    41961 
   41969    41966    41962    41957    41947    41931    41914    41906 
   41914    41934    41956    41978    41996    42005    42002    41991 
   41980    41976    41975    41959    41927    41892    41863    41837 
   41813    41797    41795    41814    41849    41893    41933    41964 
   41986    41999    41999    41999    42002    42005    41997    41978 
   41960    41946    41925    41897    41869    41854    41858    41870 
   41883    41902    41923    41938    41945    41948    41951    41957 
   41958    41958    41961    41963    41960    41959    41968    41984 
   42001    42007    41995    41968    41935    41905    41885    41876 
   41874    41875    41881    41892    41905    41914    41916    41919 
   41937    41961    41982    42000    42016    42032    42042    42040 
   42021    41987    41944    41909    41886    41871    41868    41876 
   41887    41897    41902    41903    41907    41917    41928    41941 
   41955    41965    41963    41950    41933    41921    41911    41905 
   41907    41913    41916    41918    41929    41947    41966    41979 
   41979    41969    41955    41935    41911    41889    41875    41879 
   41901    41927    41942    41939    41921    41896    41873    41861 
   41867    41886    41915    41945    41964    41967    41952    41928 
   41912    41915    41934    41963    41994    42022    42031    42018 
   41995    41974    41957    41945    41938    41936    41936    41936 
   41937    41940    41948    41957    41962    41960    41959    41962 
   41970    41984    42002    42013    42010    42008    42012    42013 
   42008    41999    41990    41984    41971    41948    41922    41903 
   41898    41906    41917    41926    41931    41934    41939    41945 
   41946    41934    41915    41894    41877    41870    41875    41889 
   41911    41937    41956    41966    41964    41955    41951    41955 
   41971    41996    42013    42014    41996    41962    41925    41893 
   41867    41846    41830    41820    41815    41814    41817    41828 
   41842    41850    41860    41875    41882    41884    41894    41916 
   41945    41977    42007    42030    42041    42038    42024    42001 
   41977    41965    41967    41979    41992    42000    41995    41968 
   41924    41882    41849    41832    41832    41849    41877    41906 
   41921    41921    41910    41898    41890    41887    41890    41898 
   41908    41922    41932    41920    41882    41838    41808    41794 
   41789    41798    41830    41878    41921    41946    41961    41967 
   41964    41964    41978    42002    42028    42052    42070    42070 
   42047    42013    41985    41972    41970    41968    41956    41935 
   41914    41899    41887    41874    41859    41847    41853    41881 
   41926    41985    42046    42087    42100    42097    42089    42073 
   42048    42024    42009    42006    42005    42000    41993    41978 
   41953    41933    41930    41938    41942    41941    41948    41961 
   41962    41944    41918    41906    41913    41925    41942    41980 
   42027    42055    42050    42023    41993    41969    41945    41923 
   41914    41917    41922    41927    41929    41928    41928    41932 
   41937    41935    41930    41935    41945    41953    41957    41959 
   41968    41981    41982    41979    41976    41974    41982    41993 
   41995    41989    41985    41985    41986    41974    41951    41933 
   41922    41922    41934    41947    41955    41953    41936    41914 
   41898    41886    41882    41893    41914    41937    41953    41957 
   41950    41941    41937    41938    41943    41945    41939    41930 
   41927    41928    41930    41937    41947    41948    41932    41903 
   41874    41851    41830    41816    41819    41831    41844    41862 
   41883    41900    41915    41926    41939    41955    41969    41979 
   41981    41972    41961    41952    41940    41928    41916    41900 
   41880    41867    41864    41874    41890    41900    41901    41904 
   41916    41933    41949    41957    41956    41955    41954    41947 
   41935    41924    41919    41917    41917    41919    41920    41914 
   41903    41897    41897    41898    41902    41915    41934    41954 
   41974    41987    41983    41968    41958    41960    41969    41976 
   41977    41972    41974    41987    42004    42016    42011    41985 
   41947    41911    41883    41866    41863    41869    41876    41878 
   41876    41874    41875    41885    41904    41928    41953    41980 
   42013    42038    42046    42037    42018    41993    41969    41950 
   41941    41949    41973    41998    42008    42003    41986    41964 
   41941    41927    41925    41932    41939    41943    41945    41950 
   41959    41972    41990    42005    42017    42023    42022    42015 
   42006    41991    41969    41935    41898    41867    41849    41846 
   41855    41872    41893    41911    41922    41932    41944    41955 
   41960    41958    41954    41953    41952    41951    41944    41931 
   41919    41910    41908    41915    41926    41931    41928    41918 
   41901    41882    41864    41848    41845    41854    41871    41892 
   41910    41921    41930    41940    41948    41957    41975    42004 
   42037    42062    42071    42062    42035    41996    41958    41927 
   41908    41909    41921    41928    41930    41931    41930    41930 
   41933    41938    41950    41959    41961    41960    41965    41971 
   41973    41968    41961    41955    41951    41950    41956    41973 
   41993    41996    41981    41957    41940    41942    41965    42000 
   42032    42058    42078    42089    42088    42072    42046    42022 
   42000    41978    41966    41964    41961    41952    41942    41937 
   41934    41938    41952    41971    41990    42005    42013    42012 
   42001    41978    41949    41926    41921    41928    41927    41918 
   41905    41895    41888    41882    41886    41904    41925    41939 
   41947    41949    41949    41953    41961    41977    41998    42019 
   42034    42042    42042    42032    42018    41997    41961    41918 
   41882    41859    41851    41861    41883    41913    41946    41968 
   41974    41969    41959    41947    41936    41931    41932    41944 
   41962    41972    41969    41959    41942    41921    41899    41885 
   41887    41898    41911    41919    41918    41912    41907    41911 
   41927    41951    41974    41995    42012    42019    42007    41976 
   41936    41904    41881    41856    41832    41821    41818    41816 
   41814    41816    41824    41840    41863    41891    41925    41955 
   41970    41975    41984    41996    42006    42009    42005    41995 
   41981    41959    41932    41914    41905    41897    41885    41879 
   41891    41915    41943    41963    41971    41970    41959    41941 
   41916    41888    41866    41853    41853    41867    41888    41917 
   41940    41943    41931    41905    41867    41833    41810    41793 
   41782    41781    41791    41807    41825    41848    41875    41904 
   41934    41953    41959    41957    41942    41912    41883    41868 
   41866    41872    41882    41888    41883    41875    41869    41864 
   41864    41868    41873    41889    41917    41948    41978    42000 
   42010    42006    41993    41980    41976    41981    41993    42007 
   42016    42018    42019    42012    41992    41966    41938    41909 
   41881    41856    41832    41814    41810    41822    41843    41868 
   41892    41914    41936    41954    41960    41947    41923    41897 
   41877    41875    41884    41892    41900    41909    41909    41898 
   41880    41852    41803    41743    41697    41684    41707    41764 
   41847    41939    42019    42069    42093    42108    42123    42135 
   42134    42118    42091    42055    42006    41952    41909    41892 
   41896    41900    41882    41846    41803    41763    41738    41735 
   41764    41813    41864    41920    41990    42072    42156    42241 
   42318    42379    42413    42414    42379    42313    42232    42152 
   42088    42045    42021    42003    41980    41950    41912    41866 
   41812    41751    41697    41665    41671    41722    41810    41915 
   42018    42102    42161    42198    42213    42199    42165    42122 
   42078    42039    42007    41975    41940    41905    41874    41847 
   41821    41799    41784    41769    41749    41729    41719    41729 
   41758    41800    41848    41891    41924    41951    41978    42009 
   42035    42046    42038    42016    41981    41938    41889    41839 
   41794    41759    41736    41721    41717    41738    41777    41817 
   41844    41853    41851    41847    41844    41848    41869    41908 
   41967    42028    42066    42076    42062    42027    41993    41978 
   41980    41981    41965    41934    41886    41818    41744    41689 
   41664    41671    41707    41772    41852    41935    42014    42088 
   42153    42199    42217    42208    42172    42121    42071    42028 
   41993    41968    41952    41949    41959    41984    42023    42056 
   42058    42016    41947    41883    41852    41864    41906    41961 
   42023    42083    42132    42169    42198    42208    42199    42185 
   42172    42156    42133    42097    42046    41978    41886    41780 
   41681    41612    41584    41592    41624    41666    41712    41763 
   41819    41872    41916    41949    41963    41956    41938    41927 
   41930    41946    41968    41996    42022    42029    42009    41974 
   41930    41884    41841    41804    41774    41751    41741    41748 
   41770    41807    41852    41896    41936    41979    42021    42052 
   42060    42035    41978    41903    41831    41776    41754    41762 
   41788    41820    41855    41889    41917    41936    41947    41958 
   41979    42013    42058    42106    42158    42205    42232    42227 
   42189    42127    42063    42007    41960    41923    41896    41876 
   41856    41834    41821    41821    41825    41821    41804    41782 
   41771    41775    41793    41824    41857    41885    41906    41931 
   41971    42027    42086    42130    42145    42130    42088    42030 
   41974    41935    41915    41914    41926    41936    41938    41933 
   41916    41879    41832    41786    41735    41677    41631    41613 
   41637    41706    41805    41918    42029    42119    42186    42231 
   42247    42227    42182    42120    42049    41976    41906    41849 
   41821    41829    41866    41909    41939    41951    41943    41912 
   41868    41826    41798    41785    41787    41809    41865    41961 
   42090    42229    42360    42463    42526    42545    42520    42452 
   42347    42221    42097    41995    41921    41869    41833    41809 
   41789    41770    41758    41758    41782    41837    41914    41991 
   42055    42102    42135    42161    42187    42222    42272    42330 
   42379    42408    42407    42373    42309    42225    42122    42003 
   41878    41758    41662    41601    41571    41572    41593    41616 
   41636    41651    41662    41676    41703    41747    41804    41864 
   41924    41979    42023    42055    42077    42088    42101    42124 
   42155    42184    42206    42211    42186    42128    42042    41940 
   41846    41775    41733    41726    41751    41799    41858    41914 
   41967    42012    42035    42034    42019    41997    41970    41938 
   41905    41875    41851    41833    41822    41827    41848    41888 
   41944    41996    42011    41978    41911    41831    41755    41698 
   41675    41689    41737    41812    41899    41984    42056    42102 
   42119    42115    42102    42090    42072    42038    41986    41912 
   41819    41717    41630    41579    41569    41597    41655    41725 
   41782    41814    41828    41834    41845    41862    41880    41889 
   41891    41887    41875    41866    41870    41898    41949    42013 
   42074    42119    42145    42157    42160    42154    42132    42089 
   42032    41982    41957    41964    41991    42021    42039    42040 
   42035    42037    42046    42046    42021    41970    41911    41853 
   41803    41772    41769    41795    41848    41921    41996    42052 
   42072    42055    42013    41967    41939    41937    41952    41981 
   42016    42045    42055    42040    42007    41974    41954    41945 
   41951    41976    42011    42037    42047    42042    42028    42011 
   41987    41959    41931    41910    41899    41899    41913    41939 
   41966    41989    42007    42016    42006    41965    41878    41748 
   41615    41525    41497    41533    41615    41719    41815    41893 
   41955    41996    42007    41993    41964    41935    41919    41911 
   41907    41908    41913    41918    41914    41905    41897    41892 
   41890    41887    41875    41858    41840    41827    41821    41820 
   41821    41826    41835    41843    41854    41871    41895    41918 
   41927    41925    41923    41928    41943    41970    41991    42001 
   42003    41990    41965    41945    41948    41981    42030    42091 
   42151    42196    42225    42235    42219    42173    42097    41998 
   41902    41829    41790    41778    41780    41787    41796    41808 
   41827    41847    41856    41854    41838    41802    41755    41708 
   41670    41651    41655    41676    41711    41761    41813    41861 
   41901    41924    41922    41886    41815    41735    41675    41652 
   41675    41739    41836    41950    42057    42136    42187    42214 
   42216    42191    42138    42065    41987    41916    41857    41814 
   41792    41793    41821    41868    41917    41961    41995    42017 
   42027    42022    41995    41945    41881    41824    41786    41774 
   41793    41846    41935    42044    42149    42237    42294    42312 
   42292    42240    42165    42084    42008    41945    41902    41889 
   41908    41955    42017    42081    42137    42177    42190    42165 
   42106    42028    41939    41850    41784    41752    41745    41755 
   41774    41792    41816    41846    41870    41892    41922    41959 
   41999    42035    42059    42076    42094    42103    42097    42079 
   42064    42058    42056    42044    42016    41976    41927    41872 
   41816    41779    41773    41793    41828    41866    41889    41889 
   41869    41841    41817    41798    41790    41795    41810    41831 
   41858    41891    41923    41956    41989    42016    42038    42052 
   42053    42034    41993    41940    41885    41831    41785    41752 
   41731    41734    41761    41799    41844    41896    41950    41999 
   42043    42085    42129    42171    42205    42227    42240    42245 
   42237    42214    42184    42156    42136    42132    42145    42157 
   42149    42111    42049    41983    41929    41889    41857    41834 
   41826    41836    41868    41922    41996    42075    42147    42208 
   42253    42279    42283    42270    42248    42219    42180    42134 
   42087    42038    41982    41922    41858    41793    41734    41682 
   41636    41611    41609    41624    41658    41716    41791    41879 
   41973    42063    42141    42204    42254    42292    42310    42301 
   42263    42195    42101    41997    41903    41827    41771    41731 
   41703    41676    41643    41614    41597    41594    41608    41642 
   41693    41754    41814    41869    41917    41957    41997    42047 
   42105    42163    42210    42238    42244    42227    42181    42111 
   42032    41961    41906    41867    41845    41839    41850    41867 
   41889    41918    41952    41985    42011    42026    42028    42015 
   41989    41957    41925    41902    41902    41923    41951    41977 
   41988    41989    41995    42008    42022    42025    42005    41958 
   41891    41817    41757    41716    41694    41692    41712    41760 
   41837    41924    41996    42037    42038    42009    41962    41907 
   41850    41797    41755    41727    41709    41697    41697    41722 
   41775    41850    41929    41988    42010    41981    41912    41830 
   41759    41712    41689    41690    41714    41758    41813    41868 
   41910    41936    41948    41949    41944    41934    41912    41876 
   41835    41799    41777    41779    41807    41854    41916    41985 
   42046    42084    42099    42095    42082    42063    42048    42038 
   42030    42029    42033    42043    42064    42095    42121    42129 
   42116    42086    42045    41999    41954    41912    41874    41853 
