Origin Time       2024/04/02 04:24:00
Lat.              40.133
Long.             141.712
Depth. (km)       71
Mag.              6.0
Station Code      TCGH06
Station Lat.      36.4458
Station Long.     139.9509
Station Height(m) -1577.98
Record Time       2024/04/02 04:26:20
Sampling Freq(Hz) 100Hz
Duration Time(s)  120
Dir.              2
Scale Factor      7845(gal)/6170801
Max. Acc. (gal)   0.383
Last Correction   2024/04/02 04:26:05
Memo.             
[...]
    5823     5816     5816     5794     5789     5817     5834     5842 
    5834     5804     5806     5834     5821     5810     5829     5808 
    5774     5792     5812     5799     5790     5804     5811     5799 
    5782     5771     5776     5801     5814     5798     5781     5781 
    5776     5786     5830     5855     5855     5856     5842     5829 
    5831     5838     5859     5869     5844     5840     5850     5831 
    5824     5827     5819     5827     5813     5771     5773     5788 
    5778     5787     5807     5816     5818     5809     5800     5804 
    5806     5806     5818     5827     5810     5789     5799     5807 
    5808     5833     5843     5818     5824     5841     5816     5788 
    5777     5774     5802     5836     5852     5858     5847     5828 
    5818     5825     5832     5823     5817     5829     5828     5801 
    5780     5776     5770     5778     5796     5798     5795     5799 
    5796     5800     5817     5822     5836     5854     5832     5808 
    5823     5827     5800     5789     5804     5817     5828     5844 
    5852     5844     5836     5838     5835     5830     5837     5831 
    5812     5802     5808     5823     5822     5807     5810     5815 
    5795     5776     5787     5807     5812     5821     5831     5818 
    5807     5812     5804     5787     5782     5786     5785     5772 
    5771     5778     5770     5757     5758     5781     5812     5806 
    5786     5795     5810     5802     5784     5789     5824     5844 
    5826     5796     5777     5773     5785     5812     5832     5842 
    5837     5807     5788     5790     5789     5799     5819     5823 
    5821     5822     5819     5808     5818     5837     5819     5803 
    5816     5822     5826     5828     5816     5814     5818     5816 
    5824     5829     5811     5795     5796     5804     5797     5784 
    5797     5804     5790     5807     5815     5777     5771     5802 
    5805     5804     5822     5822     5816     5813     5802     5799 
    5797     5788     5793     5797     5798     5818     5814     5784 
    5789     5804     5784     5775     5805     5820     5809     5817 
    5845     5847     5829     5829     5833     5821     5813     5813 
    5807     5814     5829     5818     5802     5813     5816     5802 
    5804     5804     5805     5834     5850     5842     5846     5837 
    5813     5814     5827     5842     5850     5832     5822     5837 
    5846     5849     5853     5857     5862     5856     5833     5818 
    5823     5813     5788     5785     5804     5804     5784     5794 
    5831     5840     5826     5831     5848     5843     5830     5827 
    5833     5834     5821     5819     5824     5807     5798     5797 
    5787     5794     5797     5771     5765     5781     5768     5745 
    5756     5778     5778     5781     5777     5753     5750     5769 
    5783     5794     5795     5798     5807     5805     5795     5812 
    5842     5839     5826     5839     5843     5832     5823     5813 
    5812     5804     5774     5762     5774     5793     5806     5796 
    5805     5842     5840     5821     5807     5788     5780     5776 
    5784     5806     5803     5801     5813     5804     5813     5855 
    5864     5860     5869     5844     5815     5821     5821     5801 
    5808     5829     5805     5772     5786     5804     5801     5801 
    5821     5837     5813     5794     5811     5818     5809     5810 
    5815     5811     5806     5819     5839     5848     5848     5835 
    5811     5788     5791     5816     5828     5827     5819     5809 
    5808     5802     5796     5805     5818     5836     5833     5811 
    5808     5811     5806     5809     5823     5826     5820     5835 
    5829     5784     5782     5806     5795     5791     5800     5803 
    5816     5827     5829     5826     5815     5814     5810     5812 
    5845     5851     5823     5837     5853     5831     5826     5834 
    5824     5817     5834     5840     5816     5806     5808     5790 
    5785     5802     5802     5785     5774     5773     5783     5801 
    5802     5778     5754     5751     5765     5779     5781     5789 
    5804     5806     5794     5775     5771     5793     5818     5823 
    5813     5796     5787     5791     5786     5769     5770     5793 
    5811     5804     5804     5819     5810     5784     5782     5797 
    5812     5820     5812     5813     5840     5848     5822     5802 
    5819     5849     5865     5860     5828     5806     5813     5823 
    5828     5821     5826     5844     5817     5793     5808     5818 
    5828     5808     5768     5777     5783     5761     5783     5811 
    5805     5807     5808     5795     5804     5825     5834     5846 
    5850     5829     5809     5799     5794     5806     5813     5811 
    5822     5810     5781     5796     5825     5826     5821     5819 
    5822     5831     5830     5825     5831     5823     5806     5815 
    5837     5840     5821     5802     5807     5819     5826     5836 
    5833     5806     5795     5799     5791     5807     5836     5833 
    5844     5873     5850     5814     5813     5819     5818     5807 
    5784     5773     5780     5789     5803     5808     5789     5794 
    5816     5798     5784     5806     5811     5807     5810     5794 
    5784     5796     5807     5810     5809     5808     5791     5770 
    5767     5775     5784     5787     5795     5809     5797     5787 
    5806     5808     5788     5780     5795     5823     5845     5860 
    5857     5841     5848     5863     5863     5856     5852     5844 
    5834     5830     5832     5825     5817     5823     5825     5823 
    5834     5828     5797     5790     5794     5784     5792     5809 
    5814     5830     5830     5803     5787     5784     5797     5816 
    5816     5816     5816     5804     5810     5817     5800     5796 
    5808     5802     5804     5813     5801     5797     5793     5778 
    5792     5806     5779     5770     5808     5835     5823     5810 
    5809     5817     5839     5842     5828     5841     5852     5843 
    5838     5833     5830     5824     5818     5839     5855     5849 
    5839     5807     5775     5772     5773     5762     5753     5767 
    5779     5769     5778     5797     5795     5796     5799     5786 
    5776     5773     5766     5775     5794     5784     5770     5782 
    5795     5808     5813     5786     5760     5768     5787     5792 
    5800     5817     5817     5804     5812     5822     5796     5779 
    5809     5822     5807     5811     5814     5806     5796     5791 
    5794     5787     5798     5833     5828     5816     5846     5861 
    5837     5821     5826     5830     5827     5838     5859     5853 
    5840     5844     5853     5868     5860     5845     5865     5868 
    5835     5805     5790     5794     5807     5814     5833     5846 
    5837     5829     5816     5797     5789     5792     5806     5822 
    5821     5820     5840     5844     5828     5836     5852     5845 
    5851     5875     5868     5829     5798     5802     5822     5817 
    5800     5807     5816     5834     5880     5882     5844     5847 
    5851     5825     5808     5790     5791     5820     5821     5807 
    5816     5823     5807     5787     5789     5798     5807     5820 
    5825     5831     5846     5846     5832     5832     5840     5830 
    5820     5819     5799     5781     5776     5765     5761     5762 
    5778     5804     5801     5788     5795     5807     5815     5822 
    5826     5825     5835     5838     5823     5808     5786     5775 
    5779     5761     5752     5767     5763     5767     5777     5762 
    5770     5795     5775     5759     5788     5805     5797     5797 
    5797     5788     5773     5745     5723     5730     5750     5756 
    5745     5752     5774     5778     5793     5828     5850     5858 
    5864     5877     5873     5839     5825     5833     5830     5823 
    5821     5838     5857     5828     5796     5804     5798     5761 
    5747     5769     5794     5818     5832     5837     5866     5889 
    5868     5842     5824     5816     5819     5802     5780     5770 
    5773     5795     5789     5765     5790     5823     5822     5815 
    5806     5804     5815     5814     5819     5840     5849     5838 
    5800     5745     5722     5724     5725     5726     5720     5713 
    5719     5736     5759     5782     5804     5825     5856     5886 
    5890     5884     5891     5888     5854     5821     5819     5824 
    5820     5810     5794     5793     5799     5806     5805     5764 
    5754     5815     5836     5821     5861     5903     5894     5874 
    5866     5866     5867     5864     5854     5843     5825     5791 
    5760     5753     5764     5788     5811     5823     5821     5806 
    5783     5775     5815     5868     5862     5826     5821     5823 
    5794     5775     5793     5792     5764     5780     5814     5805 
    5790     5787     5763     5760     5798     5831     5842     5818 
    5792     5807     5826     5834     5849     5865     5868     5848 
    5800     5744     5712     5710     5728     5761     5800     5828 
    5823     5799     5775     5760     5771     5800     5868     5955 
    5978     5956     5918     5852     5819     5824     5806     5793 
    5821     5862     5845     5768     5736     5760     5763     5777 
    5827     5859     5876     5890     5885     5864     5853     5847 
    5813     5777     5770     5777     5808     5827     5787     5736 
    5701     5679     5727     5844     5907     5893     5874     5823 
    5755     5736     5731     5740     5803     5866     5872     5823 
    5740     5695     5732     5786     5834     5887     5867     5783 
    5727     5700     5711     5767     5810     5832     5861     5869 
    5848     5841     5826     5784     5785     5817     5824     5833 
    5834     5797     5784     5820     5847     5836     5821     5826 
    5823     5790     5772     5785     5803     5815     5801     5786 
    5797     5812     5833     5858     5841     5802     5780     5769 
    5808     5882     5874     5812     5800     5781     5732     5747 
    5807     5814     5796     5816     5852     5877     5884     5873 
    5856     5837     5833     5814     5761     5755     5795     5789 
    5773     5818     5873     5864     5795     5739     5745     5768 
    5763     5753     5764     5776     5794     5839     5875     5868 
    5843     5802     5756     5757     5781     5772     5764     5786 
    5797     5789     5787     5774     5764     5771     5775     5799 
    5820     5777     5751     5803     5843     5821     5779     5757 
    5767     5803     5828     5807     5769     5731     5694     5725 
    5807     5852     5878     5897     5869     5811     5788     5812 
    5843     5891     5917     5836     5741     5769     5836     5826 
    5808     5842     5862     5828     5791     5786     5789     5769 
    5744     5741     5759     5794     5846     5885     5919     5980 
    5974     5883     5829     5809     5808     5869     5916     5886 
    5829     5775     5730     5723     5755     5789     5837     5884 
    5875     5855     5867     5849     5802     5802     5850     5855 
    5806     5802     5857     5888     5861     5809     5804     5856 
    5866     5833     5849     5869     5838     5833     5868     5862 
    5824     5818     5837     5852     5862     5843     5803     5807 
    5818     5756     5723     5774     5782     5743     5786     5875 
    5873     5839     5850     5810     5775     5843     5878     5866 
    5900     5871     5771     5775     5817     5757     5745     5830 
    5820     5722     5662     5641     5643     5676     5743     5843 
    5920     5938     5922     5888     5853     5831     5821     5804 
    5765     5768     5831     5830     5789     5816     5801     5718 
    5717     5762     5799     5866     5869     5787     5751     5744 
    5720     5734     5757     5739     5744     5787     5801     5772 
    5764     5827     5852     5762     5701     5753     5817     5832 
    5801     5752     5765     5825     5838     5815     5833     5863 
    5835     5812     5848     5873     5857     5842     5862     5879 
    5834     5808     5855     5871     5832     5803     5795     5785 
    5757     5691     5609     5619     5713     5791     5841     5866 
    5881     5930     5966     5956     5921     5893     5903     5862 
    5758     5778     5899     5920     5887     5920     5936     5891 
    5893     5900     5779     5680     5738     5754     5683     5705 
    5779     5811     5833     5834     5820     5800     5814     5916 
    5962     5888     5844     5806     5723     5703     5733     5775 
    5843     5831     5777     5836     5901     5838     5744     5702 
    5688     5711     5744     5729     5735     5799     5845     5901 
    5972     5974     5950     5977     5955     5826     5736     5741 
    5759     5788     5789     5748     5774     5824     5820     5805 
    5785     5760     5746     5746     5806     5880     5850     5818 
    5913     5973     5911     5867     5840     5802     5817     5817 
    5782     5797     5817     5825     5874     5852     5719     5655 
    5718     5786     5784     5737     5702     5713     5708     5616 
    5524     5509     5546     5657     5785     5823     5863     5943 
    5958     5935     5903     5802     5721     5766     5828     5869 
    5945     5922     5810     5751     5679     5664     5779     5839 
    5866     5926     5891     5804     5777     5791     5825     5878 
    5947     5978     5889     5779     5770     5776     5777     5842 
    5884     5886     5915     5893     5804     5748     5722     5722 
    5772     5819     5858     5908     5902     5853     5845     5865 
    5839     5774     5749     5777     5825     5865     5861     5848 
    5887     5936     5922     5838     5778     5811     5840     5861 
    5932     5932     5872     5879     5818     5670     5644     5668 
    5650     5739     5884     5921     5900     5851     5751     5695 
    5682     5648     5693     5806     5844     5851     5861     5809 
    5739     5730     5776     5790     5793     5853     5833     5725 
    5729     5781     5760     5763     5816     5832     5848     5892 
    5877     5834     5796     5728     5741     5816     5787     5747 
    5769     5750     5725     5746     5756     5786     5855     5903 
    5897     5823     5763     5777     5791     5829     5900     5917 
    5880     5825     5819     5843     5803     5765     5777     5788 
    5806     5775     5689     5696     5778     5807     5817     5821 
    5799     5835     5863     5774     5744     5860     5908     5831 
    5795     5825     5810     5761     5760     5762     5774     5838 
    5828     5785     5834     5865     5870     5888     5823     5743 
    5742     5758     5792     5830     5778     5681     5704     5820 
    5839     5765     5729     5713     5693     5732     5792     5843 
    5946     6031     5990     5891     5854     5887     5940     6003 
    6039     5992     5880     5772     5718     5734     5782     5800 
    5793     5829     5866     5857     5858     5847     5781     5731 
    5752     5801     5803     5763     5758     5776     5762     5770 
    5821     5858     5877     5872     5816     5758     5744     5727 
    5714     5772     5868     5910     5895     5882     5875     5832 
    5748     5684     5720     5787     5761     5717     5769     5869 
    5887     5819     5836     5918     5882     5804     5775     5723 
    5693     5776     5892     5899     5853     5880     5890     5825 
    5784     5790     5812     5820     5786     5790     5855     5840 
    5763     5769     5801     5800     5828     5835     5773     5733 
    5744     5767     5758     5752     5833     5877     5813     5810 
    5879     5902     5843     5774     5763     5749     5723     5756 
    5753     5669     5683     5794     5831     5861     5906     5842 
    5807     5846     5813     5791     5819     5812     5837     5897 
    5931     5979     5966     5802     5683     5712     5701     5692 
    5813     5900     5894     5881     5837     5813     5849     5852 
    5794     5754     5756     5747     5718     5695     5739     5866 
    5890     5791     5804     5832     5718     5663     5714     5784 
    5907     5987     5968     5935     5873     5784     5764     5819 
    5839     5801     5804     5804     5740     5733     5797     5805 
    5745     5717     5737     5746     5766     5837     5913     5959 
    5969     5926     5879     5836     5737     5688     5752     5789 
    5829     5936     5948     5830     5750     5759     5781     5778 
    5767     5774     5802     5857     5930     5929     5837     5838 
    5917     5881     5822     5846     5842     5828     5857     5848 
    5826     5843     5843     5846     5849     5781     5722     5723 
    5716     5718     5770     5844     5839     5728     5654     5677 
    5700     5680     5696     5751     5771     5773     5766     5762 
    5796     5785     5708     5698     5767     5818     5885     5932 
    5821     5705     5776     5833     5748     5705     5749     5760 
    5761     5797     5812     5798     5825     5891     5922     5918 
    5912     5857     5791     5791     5828     5866     5870     5844 
    5850     5858     5808     5739     5735     5800     5855     5878 
    5878     5825     5771     5774     5795     5834     5858     5834 
    5867     5923     5909     5932     5962     5900     5866     5853 
    5791     5779     5788     5734     5701     5746     5812     5840 
    5856     5900     5912     5863     5815     5781     5766     5790 
    5824     5863     5868     5813     5809     5855     5835     5810 
    5851     5897     5911     5882     5845     5842     5843     5837 
    5830     5820     5813     5800     5795     5796     5804     5817 
    5768     5759     5870     5886     5798     5795     5803     5801 
    5879     5947     5954     5945     5895     5833     5838     5864 
    5861     5878     5906     5859     5762     5717     5709     5705 
    5743     5808     5867     5867     5783     5737     5740     5721 
    5732     5756     5737     5728     5733     5737     5758     5757 
    5747     5789     5816     5790     5751     5716     5727     5767 
    5766     5750     5752     5766     5808     5849     5834     5813 
    5821     5820     5820     5842     5888     5959     5960     5846 
    5769     5775     5734     5686     5744     5810     5789     5774 
    5823     5866     5854     5813     5770     5761     5790     5793 
    5788     5812     5796     5770     5792     5787     5784     5815 
    5771     5714     5718     5696     5687     5734     5775     5790 
    5768     5771     5828     5831     5779     5779     5813     5804 
    5780     5774     5791     5839     5850     5790     5715     5665 
    5677     5716     5734     5795     5871     5881     5832     5762 
    5756     5787     5771     5757     5756     5782     5826     5785 
