Origin Time       2024/04/02 04:24:00
Lat.              40.133
Long.             141.712
Depth. (km)       71
Mag.              6.0
Station Code      TCGH13
Station Lat.      36.7342
Station Long.     140.1781
Station Height(m) 135
Record Time       2024/04/02 04:25:32
Sampling Freq(Hz) 100Hz
Duration Time(s)  123
Dir.              5
Scale Factor      7845(gal)/8223790
Max. Acc. (gal)   3.922
Last Correction   2024/04/02 04:25:32
Memo.             
[...]
   -9568    -9671    -9790    -9971   -10156   -10258   -10228   -10038 
   -9765    -9571    -9471    -9306    -9034    -8851    -8830    -8843 
   -8939    -9217    -9513    -9703    -9860    -9952    -9926    -9879 
   -9899   -10008   -10080    -9992    -9888    -9840    -9699    -9514 
   -9479    -9597    -9680    -9594    -9432    -9319    -9215    -9181 
   -9331    -9482    -9506    -9556    -9597    -9505    -9436    -9494 
   -9632    -9877   -10106   -10065    -9865    -9752    -9703    -9676 
   -9655    -9572    -9490    -9429    -9319    -9234    -9282    -9405 
   -9543    -9709    -9819    -9792    -9732    -9711    -9633    -9528 
   -9552    -9634    -9606    -9555    -9613    -9699    -9782    -9925 
  -10007    -9894    -9683    -9535    -9487    -9428    -9266    -9151 
   -9159    -9096    -8973    -9066    -9381    -9634    -9745    -9900 
  -10115   -10224   -10255   -10227   -10058    -9882    -9778    -9601 
   -9360    -9207    -9177    -9196    -9216    -9289    -9418    -9505 
   -9489    -9381    -9285    -9331    -9479    -9605    -9640    -9613 
   -9660    -9778    -9755    -9626    -9633    -9764    -9826    -9734 
   -9589    -9470    -9297    -9115    -9105    -9216    -9317    -9405 
   -9501    -9629    -9757    -9817    -9822    -9852    -9942    -9977 
   -9852    -9721    -9703    -9643    -9501    -9464    -9528    -9478 
   -9319    -9312    -9486    -9594    -9621    -9705    -9780    -9801 
   -9849    -9945    -9994    -9896    -9721    -9636    -9678    -9730 
   -9617    -9327    -9107    -9073    -9113    -9175    -9261    -9402 
   -9626    -9819    -9895    -9909    -9958   -10071   -10102    -9956 
   -9840    -9886    -9886    -9695    -9440    -9274    -9219    -9216 
   -9229    -9283    -9374    -9445    -9478    -9528    -9610    -9647 
   -9688    -9825    -9914    -9888    -9856    -9825    -9809    -9801 
   -9714    -9637    -9644    -9605    -9428    -9204    -9119    -9182 
   -9200    -9161    -9207    -9344    -9478    -9566    -9674    -9845 
   -9960    -9987   -10045   -10069    -9954    -9787    -9644    -9513 
   -9401    -9332    -9300    -9273    -9296    -9410    -9524    -9595 
   -9718    -9832    -9799    -9764    -9886   -10008    -9963    -9799 
   -9613    -9441    -9279    -9126    -9031    -9034    -9116    -9190 
   -9175    -9178    -9332    -9555    -9713    -9790    -9852    -9965 
  -10093   -10164   -10206   -10237   -10204   -10092    -9930    -9764 
   -9587    -9335    -9063    -8922    -8957    -9067    -9059    -8941 
   -8969    -9151    -9313    -9517    -9803   -10088   -10312   -10345 
  -10191   -10083   -10018    -9846    -9605    -9366    -9193    -9123 
   -9043    -8947    -8981    -9198    -9463    -9593    -9656    -9849 
  -10068   -10125   -10092   -10075   -10050    -9990    -9882    -9745 
   -9645    -9626    -9586    -9417    -9231    -9207    -9325    -9420 
   -9482    -9625    -9769    -9788    -9718    -9613    -9537    -9558 
   -9601    -9614    -9684    -9768    -9734    -9633    -9574    -9551 
   -9468    -9321    -9309    -9477    -9551    -9448    -9358    -9397 
   -9601    -9863    -9963    -9927    -9936    -9944    -9864    -9718 
   -9526    -9391    -9386    -9370    -9259    -9189    -9240    -9289 
   -9263    -9281    -9412    -9589    -9741    -9871   -10031   -10176 
  -10166   -10034    -9903    -9828    -9782    -9660    -9479    -9420 
   -9493    -9471    -9266    -9093    -9155    -9364    -9491    -9455 
   -9387    -9409    -9455    -9412    -9331    -9379    -9610    -9818 
   -9829    -9833   -10042   -10284   -10338   -10242   -10079    -9856 
   -9621    -9387    -9082    -8835    -8891    -9097    -9162    -9182 
   -9319    -9495    -9625    -9698    -9775    -9929   -10088   -10135 
  -10031    -9784    -9532    -9400    -9324    -9281    -9324    -9423 
   -9536    -9618    -9625    -9587    -9540    -9529    -9563    -9548 
   -9512    -9562    -9624    -9591    -9487    -9374    -9366    -9518 
   -9695    -9782    -9809    -9825    -9838    -9802    -9672    -9541 
   -9537    -9618    -9664    -9686    -9672    -9520    -9302    -9219 
   -9283    -9378    -9471    -9563    -9585    -9547    -9566    -9649 
   -9748    -9894   -10057   -10098   -10019    -9958    -9877    -9666 
   -9452    -9391    -9444    -9522    -9520    -9383    -9256    -9269 
   -9373    -9456    -9463    -9474    -9599    -9765    -9864    -9965 
  -10049   -10022   -10003   -10014    -9891    -9733    -9756    -9836 
   -9720    -9520    -9528    -9625    -9560    -9402    -9244    -9094 
   -9046    -9117    -9217    -9290    -9362    -9516    -9705    -9752 
   -9676    -9652    -9726    -9907   -10142   -10189    -9972    -9765 
   -9724    -9613    -9313    -9162    -9356    -9521    -9414    -9234 
   -9080    -8982    -9103    -9423    -9721    -9895    -9985    -9999 
   -9940    -9880    -9899    -9909    -9782    -9630    -9533    -9377 
   -9209    -9148    -9113    -9109    -9262    -9489    -9560    -9482 
   -9471    -9621    -9817    -9950   -10060   -10152   -10154   -10065 
   -9904    -9710    -9567    -9471    -9327    -9089    -8870    -8878 
   -9078    -9204    -9234    -9336    -9547    -9822   -10019   -10054 
  -10110   -10245   -10272   -10087    -9756    -9502    -9439    -9398 
   -9300    -9192    -9062    -8999    -9080    -9188    -9255    -9363 
   -9540    -9738    -9914   -10031   -10072   -10015    -9895    -9791 
   -9702    -9586    -9452    -9343    -9270    -9213    -9228    -9383 
   -9562    -9648    -9674    -9684    -9710    -9751    -9772    -9791 
   -9813    -9834    -9848    -9792    -9684    -9605    -9526    -9440 
   -9409    -9462    -9545    -9551    -9477    -9489    -9603    -9668 
   -9663    -9613    -9521    -9462    -9435    -9404    -9452    -9585 
   -9698    -9740    -9718    -9767    -9961   -10081   -10002    -9900 
   -9846    -9756    -9585    -9375    -9212    -9174    -9258    -9321 
   -9294    -9350    -9578    -9786    -9819    -9753    -9734    -9786 
   -9801    -9753    -9718    -9729    -9780    -9811    -9745    -9649 
   -9572    -9448    -9332    -9335    -9377    -9405    -9497    -9603 
   -9614    -9560    -9525    -9525    -9560    -9645    -9733    -9753 
   -9761    -9807    -9786    -9678    -9570    -9468    -9423    -9471 
   -9468    -9398    -9397    -9398    -9385    -9483    -9612    -9628 
   -9572    -9502    -9486    -9583    -9709    -9769    -9774    -9776 
   -9786    -9780    -9796    -9806    -9757    -9672    -9528    -9412 
   -9459    -9532    -9513    -9470    -9409    -9344    -9347    -9425 
   -9570    -9715    -9782    -9794    -9787    -9732    -9639    -9567 
   -9559    -9601    -9613    -9540    -9371    -9167    -9051    -9081 
   -9189    -9317    -9516    -9737    -9799    -9774    -9852    -9961 
   -9991    -9933    -9822    -9778    -9772    -9639    -9414    -9238 
   -9112    -9016    -8981    -9054    -9231    -9383    -9464    -9587 
   -9774    -9911    -9937    -9910    -9937    -9999    -9961    -9823 
   -9680    -9525    -9369    -9313    -9383    -9493    -9587    -9649 
   -9655    -9607    -9555    -9549    -9564    -9602    -9720    -9821 
   -9805    -9737    -9693    -9679    -9702    -9714    -9660    -9613 
   -9683    -9738    -9610    -9485    -9531    -9576    -9510    -9443 
   -9451    -9463    -9418    -9400    -9409    -9356    -9328    -9367 
   -9373    -9431    -9661    -9884    -9876    -9751    -9707    -9702 
   -9661    -9661    -9710    -9732    -9725    -9668    -9487    -9225 
   -9027    -8981    -9046    -9138    -9265    -9455    -9639    -9740 
   -9796    -9904   -10039   -10077   -10058   -10135   -10242   -10191 
   -9965    -9674    -9436    -9309    -9248    -9220    -9259    -9352 
   -9452    -9491    -9402    -9324    -9468    -9710    -9868   -10064 
  -10264   -10210    -9950    -9742    -9593    -9404    -9243    -9246 
   -9350    -9435    -9520    -9618    -9710    -9819    -9872    -9834 
   -9891   -10075   -10199   -10214   -10146    -9915    -9543    -9178 
   -8908    -8769    -8772    -8843    -8910    -9030    -9224    -9371 
   -9495    -9732   -10037   -10282   -10466   -10609   -10601   -10400 
  -10169   -10026    -9938    -9802    -9552    -9294    -9184    -9154 
   -8992    -8683    -8487    -8550    -8742    -8919    -9099    -9312 
   -9472    -9571    -9763   -10064   -10292   -10363   -10361   -10327 
  -10168    -9875    -9535    -9135    -8781    -8694    -8783    -8826 
   -8939    -9270    -9702   -10115   -10389   -10331   -10019    -9798 
   -9752    -9656    -9427    -9213    -9201    -9351    -9406    -9316 
   -9282    -9404    -9699   -10108   -10395   -10458   -10417   -10251 
   -9798    -9173    -8834    -8968    -9235    -9485    -9860   -10172 
  -10169    -9942    -9621    -9336    -9317    -9498    -9539    -9398 
   -9313    -9355    -9436    -9532    -9715    -9995   -10272   -10458 
  -10463   -10246    -9903    -9574    -9302    -9082    -8901    -8823 
   -8951    -9166    -9273    -9373    -9605    -9805    -9761    -9582 
   -9491    -9454    -9325    -9128    -8974    -9031    -9397    -9852 
  -10162   -10455   -10797   -10948   -10748   -10311    -9876    -9529 
   -9177    -8888    -8787    -8784    -8787    -8856    -9005    -9158 
   -9386    -9767   -10056   -10072   -10049   -10103   -10089   -10039 
  -10021    -9995   -10052   -10166   -10110    -9852    -9525    -9180 
   -8919    -8860    -8961    -9005    -8799    -8550    -8608    -8947 
   -9455   -10154   -10906   -11480   -11753   -11724   -11483   -10987 
  -10153    -9256    -8707    -8461    -8222    -7967    -7889    -8005 
   -8210    -8530    -9015    -9628   -10223   -10536   -10466   -10226 
  -10037    -9809    -9383    -9028    -9139    -9521    -9767    -9887 
  -10026   -10143   -10146    -9950    -9599    -9315    -9300    -9462 
   -9433    -9130    -8854    -8646    -8418    -8415    -8702    -9023 
   -9316    -9664   -10000   -10126   -10017    -9903    -9869    -9863 
   -9963   -10081   -10021    -9968   -10077   -10084    -9917    -9846 
   -9880    -9788    -9574    -9386    -9252    -9078    -8858    -8726 
   -8741    -8887    -9124    -9359    -9601    -9869    -9990    -9927 
   -9904   -10027   -10165   -10277   -10504   -10759   -10755   -10454 
   -9987    -9509    -9254    -9251    -9289    -9308    -9433    -9652 
   -9734    -9648    -9655    -9817    -9877    -9757    -9687    -9668 
   -9456    -9173    -9013    -8812    -8657    -8883    -9386    -9815 
   -9983    -9934    -9906    -9985   -10006    -9900    -9711    -9513 
   -9474    -9521    -9462    -9444    -9501    -9441    -9474    -9819 
  -10149   -10061    -9622    -9182    -8806    -8341    -7963    -7982 
   -8326    -8586    -8623    -8874    -9562   -10114   -10154   -10196 
  -10623   -11088   -11225   -11057   -10812   -10567   -10116    -9369 
   -8695    -8492    -8703    -8946    -8991    -9016    -9135    -9069 
   -8808    -8699    -8718    -8754    -9119    -9860   -10481   -10723 
  -10764   -10768   -10740   -10671   -10606   -10606   -10644   -10519 
  -10010    -9294    -8725    -8218    -7646    -7253    -7218    -7561 
   -8295    -9119    -9613    -9882   -10319   -10818   -11007   -11071 
  -11313   -11519   -11578   -11553   -11144   -10270    -9406    -8891 
   -8581    -8282    -8209    -8550    -8889    -8918    -8800    -8703 
   -8822    -9298    -9914   -10330   -10408   -10378   -10484   -10517 
  -10395   -10407   -10577   -10671   -10540   -10158    -9707    -9258 
   -8708    -8194    -7971    -8336    -9266    -9930    -9846    -9680 
   -9795    -9753    -9443    -9263    -9493    -9869    -9975    -9898 
   -9751    -9404    -9111    -9146    -9463   -10061   -10662   -10795 
  -10504   -10072    -9567    -9031    -8675    -8710    -8989    -9046 
   -8758    -8484    -8417    -8514    -8850    -9486   -10293   -10944 
  -11052   -10677   -10281    -9980    -9668    -9494    -9474    -9397 
   -9240    -9065    -8878    -8873    -9294    -9942   -10254   -10061 
   -9668    -9238    -8780    -8413    -8218    -8287    -8698    -9142 
   -9247    -9333    -9803   -10273   -10374   -10366   -10443   -10520 
  -10501   -10270    -9744    -9127    -8973    -9267    -9279    -9076 
   -9328    -9742    -9751    -9597    -9543    -9402    -9032    -8552 
   -8232    -8163    -8306    -8777    -9536   -10343   -11130   -11844 
  -12324   -12471   -12237   -11558   -10427    -9154    -8255    -7820 
   -7597    -7487    -7479    -7673    -8247    -9135    -9969   -10490 
  -10910   -11396   -11653   -11480   -11003   -10473   -10038    -9639 
   -9347    -9258    -9054    -8679    -8526    -8707    -9045    -9261 
   -9150    -8915    -8868    -9031    -9244    -9391    -9509    -9755 
  -10173   -10574   -10887   -11160   -11223   -10928   -10336    -9560 
   -8780    -8239    -8052    -8091    -8171    -8390    -8807    -9159 
   -9448    -9887   -10384   -10859   -11138   -10847   -10272    -9991 
   -9942    -9958    -9919    -9626    -9342    -9250    -9167    -9225 
   -9448    -9647    -9940   -10212   -10160    -9774    -9096    -8487 
   -8536    -9050    -9401    -9490    -9537    -9607    -9625    -9651 
   -9853   -10203   -10683   -11013   -10600    -9860    -9655    -9690 
   -9491    -9424    -9722   -10003    -9984    -9790    -9464    -8888 
   -8212    -7817    -7839    -8125    -8554    -9194   -10084   -10944 
  -11380   -11385   -11267   -11188   -11149   -11105   -10875   -10280 
   -9274    -8005    -6836    -5967    -5481    -5857    -7284    -8910 
   -9937   -10482   -10935   -11385   -11626   -11547   -11489   -11654 
  -11475   -10444    -9124    -8388    -8195    -8000    -7781    -7828 
   -8156    -8579    -8851    -8842    -8766    -8914    -9396   -10207 
  -11249   -12191   -12310   -11345   -10156    -9454    -9135    -9072 
   -9285    -9764   -10226   -10130    -9463    -8766    -8370    -8352 
   -8649    -8935    -9111    -9522   -10039    -9911    -9352    -9567 
  -10590   -11358   -11572   -11596   -11439   -10836    -9841    -8937 
   -8540    -8703    -9104    -9073    -8370    -7722    -7645    -7847 
   -8190    -8780    -9474   -10188   -10964   -11527   -11377   -10531 
   -9641    -9216    -9258    -9568    -9958   -10357   -10644   -10617 
  -10373   -10214   -10203   -10069    -9621    -9042    -8411    -7703 
   -7137    -6910    -7118    -7758    -8638    -9657   -10631   -11065 
  -10939   -10944   -11376   -11727   -11518   -10856   -10216    -9747 
   -9231    -8764    -8679    -9016    -9505    -9871   -10143   -10493 
  -10692   -10426    -9891    -9273    -8419    -7638    -7501    -7878 
   -8383    -9074    -9832   -10203   -10299   -10669   -11200   -11318 
  -11109   -10991   -10790   -10212    -9432    -8615    -7958    -8056 
   -8834    -9259    -9161    -9190    -9339    -9462    -9876   -10463 
  -10644   -10346    -9940    -9481    -8780    -8006    -7560    -7461 
   -7506    -7848    -8618    -9402    -9925   -10369   -10702   -10808 
  -10844   -10782   -10635   -10674   -10710   -10343    -9761    -9294 
   -8787    -8137    -7865    -8266    -8708    -8748    -8773    -9024 
   -9190    -9196    -9410    -9975   -10478   -10486   -10130    -9958 
  -10096   -10169   -10054   -10018   -10327   -10714   -10496    -9602 
   -8779    -8506    -8406    -8017    -7685    -8108    -9188   -10002 
  -10147   -10338   -11028   -11709   -11873   -11483   -10984   -10901 
  -10874   -10282    -9452    -8858    -8441    -8199    -8081    -7924 
   -7967    -8394    -8877    -9116    -9386   -10196   -11268   -11681 
  -11222   -10559   -10100    -9593    -8914    -8371    -8144    -8306 
   -8949    -9641    -9937   -10150   -10419   -10431   -10430   -10671 
  -10656   -10044    -9216    -8676    -8434    -8176    -7879    -7672 
   -7523    -7690    -8398    -9170    -9768   -10511   -11329   -12058 
  -12621   -12606   -11939   -11022   -10176    -9512    -8688    -7508 
   -6724    -6852    -7437    -8125    -8772    -9278    -9972   -10655 
  -10625   -10312   -10520   -10836   -10697   -10443   -10399   -10342 
  -10112    -9914    -9950    -9985    -9666    -9297    -9394    -9591 
   -9279    -8756    -8657    -8831    -8695    -8414    -8533    -8945 
   -9444   -10056   -10519   -10825   -11331   -11766   -11568   -10986 
  -10582   -10158    -9279    -8255    -7685    -7651    -7734    -7707 
   -7798    -8028    -8199    -8492    -9084    -9828   -10651   -11377 
  -11709   -11635   -11210   -10615   -10249   -10115    -9944    -9821 
   -9900    -9987    -9730    -9143    -8637    -8367    -8332    -8634 
   -8881    -8700    -8542    -8716    -8899    -8938    -9107    -9614 
  -10262   -10786   -11206   -11541   -11616   -11273   -10578    -9868 
   -9410    -9169    -9128    -9279    -9329    -9116    -8945    -9111 
   -9567    -9934    -9868    -9547    -9386    -9421    -9315    -8892 
   -8471    -8384    -8691    -9375   -10080   -10397   -10559   -10790 
  -10876   -10660   -10099    -9383    -9001    -9065    -9043    -8534 
   -8041    -8295    -9047    -9556    -9801   -10224   -10790   -11045 
  -10731   -10092    -9621    -9386    -9185    -9094    -9066    -8946 
   -8970    -9023    -8600    -7994    -7983    -8652    -9367    -9641 
   -9707    -9988   -10492   -10989   -11229   -11072   -10723   -10482 
  -10389   -10238    -9846    -9370    -9117    -9035    -8919    -8899 
   -8972    -8760    -8388    -8402    -8667    -8843    -9181    -9722 
  -10150   -10552   -11020   -11288   -11294   -11125   -10739   -10146 
   -9458    -8873    -8611    -8698    -8753    -8363    -7905    -8068 
   -8727    -9286    -9552    -9747   -10143   -10710   -11049   -11029 
  -10980   -10875   -10307    -9572    -9374    -9626    -9711    -9342 
   -8849    -8776    -9072    -9244    -9234    -9192    -9104    -9104 
   -9240    -9300    -9269    -9320    -9428    -9487    -9572    -9867 
  -10363   -10768   -10901   -10905   -10851   -10602   -10071    -9309 
   -8575    -8178    -8110    -8120    -8203    -8634    -9406   -10176 
  -10671   -10860   -10902   -10862   -10593   -10226    -9990    -9691 
   -9229    -8715    -8213    -7997    -8124    -8364    -8792    -9227 
   -9278    -9254    -9485    -9742    -9906   -10125   -10543   -11010 
  -11025   -10547   -10188   -10220   -10215    -9813    -9262    -8920 
   -8820    -8846    -8667    -8187    -7935    -8047    -8117    -8189 
   -8564    -9153    -9715   -10323   -11114   -11762   -11966   -11942 
  -11767   -11427   -11097   -10401    -9205    -8495    -8565    -8680 
   -8719    -8796    -8830    -8946    -9036    -9001    -9100    -9387 
   -9756   -10000    -9903    -9929   -10435   -10706   -10299    -9737 
   -9418    -9308    -9285    -9269    -9363    -9616    -9936   -10241 
  -10358   -10176    -9828    -9622    -9683    -9610    -9124    -8521 
   -8112    -7955    -7983    -8190    -8733    -9490    -9952   -10002 
  -10096   -10439   -10741   -10841   -10801   -10551    -9927    -9015 
   -8310    -8329    -8914    -9296    -9215    -9186    -9362    -9486 
   -9539    -9470    -9329    -9436    -9801   -10099   -10098    -9828 
   -9632    -9757   -10083   -10428   -10631   -10571   -10324    -9964 
   -9575    -9391    -9444    -9386    -9067    -8823    -8849    -9000 
   -9128    -9089    -9089    -9614   -10389   -10732   -10692   -10640 
