Origin Time       2024/04/02 04:24:00
Lat.              40.133
Long.             141.712
Depth. (km)       71
Mag.              6.0
Station Code      TCGH15
Station Lat.      36.5595
Station Long.     139.8637
Station Height(m) -175
Record Time       2024/04/02 04:25:35
Sampling Freq(Hz) 100Hz
Duration Time(s)  139
Dir.              3
Scale Factor      3923(gal)/8224838
Max. Acc. (gal)   0.292
Last Correction   2024/04/02 04:25:35
Memo.             
[...]
    1836     1815     1798     1740     1655     1594     1602     1672 
    1726     1711     1671     1649     1633     1621     1630     1651 
    1669     1719     1814     1896     1904     1854     1861     1944 
    1991     1987     1979     1964     1969     1981     1929     1875 
    1911     1969     1957     1907     1842     1759     1711     1732 
    1776     1810     1814     1792     1765     1740     1734     1771 
    1817     1852     1917     1989     1964     1858     1799     1794 
    1804     1823     1786     1699     1678     1715     1696     1659 
    1683     1713     1742     1827     1883     1818     1688     1601 
    1552     1493     1487     1590     1710     1775     1750     1651 
    1607     1680     1803     1890     1873     1858     1923     1934 
    1872     1796     1694     1684     1791     1845     1834     1822 
    1798     1807     1841     1776     1660     1660     1753     1814 
    1840     1858     1838     1791     1775     1794     1802     1755 
    1680     1672     1721     1741     1726     1703     1663     1614 
    1613     1659     1667     1613     1575     1621     1710     1750 
    1722     1691     1695     1715     1725     1718     1669     1548 
    1443     1462     1570     1651     1665     1665     1691     1773 
    1879     1907     1883     1871     1836     1769     1715     1706 
    1742     1803     1868     1890     1854     1823     1786     1675 
    1532     1431     1420     1517     1625     1664     1680     1687 
    1669     1664     1690     1780     1883     1881     1840     1825 
    1740     1610     1557     1561     1607     1711     1763     1698 
    1621     1655     1791     1880     1872     1837     1768     1680 
    1671     1734     1742     1660     1629     1690     1719     1701 
    1663     1647     1695     1729     1728     1768     1763     1695 
    1726     1840     1900     1895     1818     1706     1661     1679 
    1672     1645     1655     1706     1790     1854     1792     1674 
    1652     1692     1717     1723     1757     1833     1802     1652 
    1572     1536     1482     1483     1564     1682     1721     1656 
    1602     1567     1514     1517     1633     1813     1957     2057 
    2133     2147     2085     2012     1984     1969     1923     1836 
    1705     1620     1655     1690     1632     1586     1614     1678 
    1765     1810     1776     1755     1722     1621     1595     1719 
    1856     1899     1891     1881     1867     1871     1942     2011 
    2012     1964     1849     1699     1615     1597     1597     1603 
    1557     1467     1476     1620     1709     1659     1584     1574 
    1659     1803     1948     2066     2104     2061     1993     1922 
    1849     1761     1657     1580     1591     1686     1749     1730 
    1683     1609     1574     1684     1850     1877     1822     1853 
    1921     1938     1938     1975     2064     2103     2047     1985 
    1938     1912     1922     1873     1756     1706     1763     1794 
    1768     1799     1852     1836     1852     1925     1937     1918 
    1922     1904     1883     1834     1711     1606     1588     1632 
    1638     1582     1675     1880     1877     1717     1587     1505 
    1561     1760     1896     1884     1815     1795     1791     1721 
    1659     1676     1703     1707     1674     1549     1431     1462 
    1572     1559     1432     1397     1463     1541     1641     1665 
    1649     1764     1869     1845     1783     1679     1570     1626 
    1852     2050     2083     2023     2003     1966     1836     1755 
    1788     1772     1692     1676     1698     1701     1719     1787 
    1833     1804     1742     1667     1614     1688     1818     1795 
    1660     1630     1695     1738     1782     1815     1782     1718 
    1665     1584     1512     1528     1561     1560     1602     1682 
    1773     1860     1837     1767     1792     1863     1921     1937 
    1830     1696     1668     1688     1728     1779     1756     1691 
    1679     1674     1649     1605     1534     1564     1684     1655 
    1506     1499     1594     1657     1740     1792     1726     1651 
    1622     1568     1522     1521     1490     1458     1489     1553 
    1607     1642     1661     1657     1634     1620     1588     1543 
    1556     1593     1584     1629     1714     1691     1645     1653 
    1625     1642     1744     1765     1723     1761     1856     1939 
    1972     1946     1911     1925     1993     2037     2014     1979 
    1937     1880     1861     1910     1973     1999     1964     1902 
    1894     1919     1946     2025     2068     2006     1999     2088 
    2095     1993     1933     1931     1953     2026     2114     2177 
    2191     2116     2046     2045     2023     1958     1895     1857 
    1877     1925     1918     1817     1686     1629     1664     1777 
    1941     2014     1912     1734     1597     1509     1433     1445 
    1545     1591     1634     1760     1765     1606     1541     1617 
    1675     1664     1601     1499     1437     1452     1468     1445 
    1435     1467     1534     1611     1664     1644     1544     1493 
    1518     1498     1460     1513     1603     1629     1613     1594 
    1518     1410     1444     1622     1730     1694     1633     1644 
    1701     1737     1767     1784     1741     1703     1714     1734 
    1799     1925     1983     1917     1844     1813     1764     1741 
    1752     1686     1642     1730     1765     1688     1669     1699 
    1702     1742     1837     1917     1961     1971     1945     1904 
    1846     1840     1915     1941     1873     1837     1929     2045 
    2016     1900     1815     1772     1782     1799     1780     1786 
    1849     1903     1834     1732     1783     1926     2011     2010 
    1949     1890     1825     1723     1634     1599     1614     1637 
    1671     1783     1885     1830     1701     1661     1687     1683 
    1664     1656     1647     1647     1648     1594     1479     1402 
    1455     1533     1495     1440     1502     1613     1687     1672 
    1540     1459     1555     1648     1628     1615     1610     1605 
    1713     1840     1861     1849     1822     1756     1701     1660 
    1630     1611     1521     1385     1412     1559     1587     1544 
    1541     1475     1378     1417     1505     1518     1572     1688 
    1775     1834     1802     1679     1665     1775     1819     1779 
    1707     1626     1603     1630     1633     1617     1636     1733 
    1823     1807     1768     1757     1730     1721     1749     1775 
    1827     1973     2153     2235     2224     2180     2084     1957 
    1864     1854     1918     1934     1858     1803     1810     1822 
    1768     1667     1611     1614     1686     1840     1948     1931 
    1869     1838     1833     1864     1942     1953     1846     1738 
    1669     1652     1726     1852     1957     1934     1794     1732 
    1736     1709     1749     1879     1977     2003     1979     1966 
    1975     1875     1665     1540     1545     1564     1578     1607 
    1628     1632     1633     1672     1782     1888     1879     1806 
    1795     1821     1811     1765     1734     1800     1912     1944 
    1927     1931     1914     1853     1779     1732     1733     1749 
    1767     1846     1952     1949     1877     1838     1798     1713 
    1629     1629     1709     1765     1769     1750     1717     1707 
    1749     1796     1779     1726     1696     1702     1749     1802 
    1823     1887     1948     1891     1796     1780     1819     1852 
    1845     1826     1842     1860     1819     1734     1667     1659 
    1715     1794     1846     1841     1794     1750     1696     1622 
    1597     1609     1618     1665     1737     1769     1736     1664 
    1629     1622     1603     1638     1699     1651     1553     1540 
    1582     1617     1645     1629     1597     1624     1665     1659 
    1626     1606     1603     1638     1736     1803     1779     1814 
    1944     1977     1884     1792     1764     1840     1957     1953 
    1844     1775     1755     1732     1709     1691     1649     1599 
    1584     1540     1487     1551     1606     1544     1529     1603 
    1647     1682     1760     1767     1641     1578     1675     1750 
    1767     1823     1872     1910     1950     1917     1838     1765 
    1683     1659     1678     1566     1379     1359     1474     1588 
    1698     1750     1725     1691     1691     1773     1852     1771 
    1628     1590     1624     1692     1767     1777     1772     1759 
    1690     1649     1655     1663     1694     1742     1811     1884 
    1914     1912     1879     1810     1729     1652     1656     1732 
    1784     1830     1868     1833     1779     1786     1810     1813 
    1849     1945     2020     2018     1969     1927     1941     2008 
    2019     1944     1888     1830     1741     1719     1745     1736 
    1723     1742     1780     1806     1790     1761     1794     1815 
    1734     1642     1599     1598     1695     1826     1857     1837 
    1848     1826     1746     1661     1591     1582     1651     1723 
    1802     1877     1898     1888     1876     1868     1848     1755 
    1686     1753     1815     1813     1833     1826     1760     1710 
    1675     1625     1595     1571     1505     1460     1507     1556 
    1545     1533     1539     1537     1555     1557     1521     1566 
    1713     1825     1894     1952     1935     1854     1804     1817 
    1811     1749     1730     1769     1779     1759     1732     1714 
    1729     1730     1690     1664     1696     1746     1772     1810 
    1829     1761     1683     1667     1667     1691     1798     1912 
    1890     1773     1722     1719     1692     1682     1676     1638 
    1624     1656     1725     1819     1879     1876     1845     1798 
    1792     1869     1925     1894     1856     1842     1810     1786 
    1814     1856     1906     1980     1985     1891     1764     1664 
    1651     1665     1636     1591     1539     1525     1584     1586 
    1525     1578     1687     1703     1682     1676     1682     1728 
    1765     1730     1668     1633     1617     1593     1541     1512 
    1544     1572     1583     1641     1659     1584     1574     1605 
    1547     1506     1575     1651     1675     1744     1898     2012 
    2023     1962     1887     1871     1911     1937     1934     1937 
    1930     1850     1733     1698     1728     1709     1656     1680 
    1783     1836     1802     1811     1900     1939     1885     1827 
    1827     1841     1838     1860     1922     1969     1934     1838 
    1786     1775     1728     1675     1687     1709     1691     1664 
    1638     1634     1671     1699     1746     1853     1938     1979 
    1991     1956     1930     1930     1912     1888     1863     1852 
    1836     1782     1776     1791     1734     1705     1768     1829 
    1827     1788     1783     1822     1818     1787     1844     1941 
    1969     1958     1954     1888     1775     1728     1709     1664 
    1695     1798     1848     1825     1748     1661     1644     1688 
    1744     1809     1876     1900     1881     1826     1737     1692 
    1706     1692     1676     1655     1587     1548     1533     1522 
    1557     1571     1545     1555     1551     1543     1602     1652 
    1644     1614     1574     1586     1678     1729     1695     1647 
    1593     1521     1510     1536     1498     1475     1552     1609 
    1559     1499     1532     1617     1665     1652     1637     1652 
    1614     1525     1507     1561     1605     1636     1641     1630 
    1641     1664     1692     1719     1719     1721     1738     1736 
    1721     1742     1776     1733     1621     1557     1593     1675 
    1738     1753     1733     1730     1768     1776     1745     1755 
    1760     1717     1709     1752     1788     1842     1914     1941 
    1954     1998     1992     1929     1910     1965     2027     2023 
    1983     1961     1953     2022     2134     2133     2080     2096 
    2127     2126     2108     2089     2062     2012     1988     1984 
    1938     1887     1902     1981     2045     2046     2041     2015 
    1912     1846     1850     1786     1684     1683     1742     1777 
    1813     1876     1930     1958     1958     1917     1888     1910 
    1911     1867     1852     1896     1935     1917     1858     1783 
    1717     1705     1732     1715     1632     1552     1526     1540 
    1572     1587     1557     1528     1545     1575     1571     1557 
    1559     1544     1525     1561     1647     1714     1767     1827 
    1826     1736     1671     1699     1705     1648     1659     1695 
    1648     1590     1559     1526     1520     1540     1568     1582 
    1530     1425     1355     1352     1370     1385     1406     1448 
    1522     1557     1516     1471     1441     1413     1435     1499 
    1529     1491     1444     1470     1505     1462     1432     1453 
    1463     1475     1529     1618     1692     1721     1737     1728 
    1682     1692     1756     1790     1818     1838     1792     1748 
    1765     1777     1771     1800     1825     1825     1863     1925 
    1942     1898     1848     1864     1917     1941     1962     1992 
    1981     1962     2010     2079     2118     2181     2292     2357 
    2331     2273     2187     2091     2089     2118     2093     2074 
    2070     2034     1989     1981     1976     1908     1823     1787 
    1776     1763     1748     1734     1699     1647     1642     1680 
    1705     1715     1701     1665     1678     1748     1780     1738 
    1663     1575     1525     1551     1566     1551     1561     1572 
    1586     1625     1645     1633     1602     1560     1521     1493 
    1502     1549     1598     1661     1718     1714     1692     1695 
    1686     1669     1649     1618     1591     1561     1530     1494 
    1445     1402     1393     1402     1397     1413     1475     1491 
    1432     1414     1509     1625     1663     1647     1649     1674 
    1679     1692     1749     1771     1722     1730     1811     1853 
    1857     1844     1800     1788     1831     1907     1993     2045 
    2061     2069     2066     2039     2007     2018     2060     2049 
    2004     2012     2039     2000     1934     1890     1868     1899 
    1956     1999     2016     2006     2016     2045     2033     1981 
    1927     1906     1906     1867     1834     1849     1853     1846 
    1865     1884     1876     1833     1783     1755     1745     1773 
    1807     1791     1729     1609     1463     1428     1493     1514 
    1483     1464     1447     1432     1463     1516     1529     1501 
    1476     1493     1536     1574     1582     1541     1462     1426 
    1445     1421     1399     1466     1536     1541     1501     1440 
    1404     1398     1401     1409     1418     1441     1474     1491 
    1529     1617     1695     1732     1768     1784     1744     1701 
    1709     1745     1779     1803     1830     1863     1875     1887 
    1915     1938     1953     1939     1933     1964     1960     1921 
    1933     1977     1989     2007     2103     2193     2177     2157 
    2185     2166     2110     2057     1999     1991     2026     2034 
    2039     2037     1979     1930     1935     1957     1992     2011 
    1971     1930     1930     1930     1948     1980     1952     1880 
    1846     1856     1852     1831     1827     1799     1744     1730 
    1757     1773     1772     1771     1765     1736     1692     1679 
    1699     1742     1831     1903     1902     1888     1885     1845 
    1790     1741     1696     1688     1701     1648     1551     1522 
    1559     1568     1541     1516     1499     1483     1476     1512 
    1555     1537     1518     1544     1540     1498     1485     1491 
    1502     1526     1524     1494     1494     1499     1471     1439 
    1453     1516     1568     1568     1557     1584     1593     1561 
    1559     1572     1566     1552     1502     1459     1476     1510 
    1537     1539     1510     1528     1598     1645     1674     1682 
    1659     1632     1625     1657     1728     1802     1833     1819 
    1815     1836     1854     1854     1842     1858     1904     1965 
    2035     2038     1945     1908     1985     2031     1996     1969 
    1938     1883     1849     1821     1791     1790     1777     1768 
    1788     1809     1844     1846     1784     1763     1780     1769 
    1756     1759     1777     1806     1829     1833     1795     1775 
    1837     1895     1887     1865     1853     1883     1956     1976 
    1953     1985     2061     2083     1999     1894     1844     1780 
    1698     1718     1799     1836     1850     1827     1776     1791 
    1807     1746     1705     1698     1668     1633     1610     1622 
    1694     1760     1764     1728     1667     1622     1622     1617 
    1591     1579     1593     1615     1591     1540     1560     1628 
    1672     1683     1665     1632     1591     1567     1587     1586 
    1556     1591     1618     1564     1568     1668     1730     1737 
    1782     1815     1760     1706     1692     1676     1703     1768 
    1804     1810     1798     1769     1734     1692     1674     1729 
    1809     1823     1806     1848     1898     1861     1780     1737 
    1737     1752     1753     1745     1756     1765     1752     1717 
    1695     1745     1818     1825     1806     1777     1711     1651 
    1610     1595     1618     1648     1686     1713     1705     1714 
    1745     1759     1768     1795     1829     1854     1863     1846 
    1822     1852     1941     1996     1971     1914     1880     1875 
    1869     1853     1833     1784     1734     1740     1768     1764 
    1734     1728     1749     1753     1737     1730     1728     1718 
    1737     1795     1838     1864     1891     1885     1861     1850 
    1817     1771     1737     1692     1661     1661     1659     1648 
    1638     1634     1641     1634     1611     1628     1710     1775 
    1745     1691     1695     1713     1694     1659     1651     1694 
    1759     1776     1742     1718     1722     1717     1686     1652 
    1641     1647     1668     1694     1663     1598     1587     1613 
    1629     1675     1733     1755     1779     1829     1860     1867 
    1896     1956     1980     1960     1961     1980     1962     1939 
    1939     1918     1888     1884     1877     1853     1834     1844 
    1854     1836     1836     1861     1867     1871     1872     1849 
    1822     1818     1846     1887     1906     1885     1844     1819 
    1809     1795     1790     1782     1756     1756     1791     1823 
    1848     1846     1813     1784     1753     1692     1652     1668 
    1680     1652     1633     1641     1649     1645     1617     1599 
    1653     1696     1647     1591     1579     1595     1656     1694 
    1664     1660     1711     1742     1725     1701     1713     1750 
    1771     1765     1753     1728     1703     1723     1757     1757 
