Origin Time       2024/04/02 04:24:00
Lat.              40.133
Long.             141.712
Depth. (km)       71
Mag.              6.0
Station Code      TCGH06
Station Lat.      36.4458
Station Long.     139.9509
Station Height(m) 70
Record Time       2024/04/02 04:26:20
Sampling Freq(Hz) 100Hz
Duration Time(s)  120
Dir.              4
Scale Factor      3920(gal)/6170801
Max. Acc. (gal)   1.317
Last Correction   2024/04/02 04:26:05
Memo.             
[...]
    7546     7557     7632     7805     8013     8089     8026     7944 
    7887     7821     7705     7631     7663     7663     7653     7761 
    7848     7805     7731     7665     7608     7554     7493     7496 
    7551     7594     7652     7711     7742     7763     7715     7601 
    7571     7624     7626     7619     7721     7848     7880     7886 
    7887     7795     7681     7671     7697     7685     7707     7753 
    7719     7684     7719     7710     7702     7756     7713     7639 
    7677     7669     7589     7586     7592     7537     7501     7522 
    7580     7666     7767     7819     7780     7712     7696     7715 
    7710     7686     7647     7530     7404     7402     7441     7477 
    7590     7722     7818     7882     7837     7741     7725     7718 
    7678     7681     7701     7719     7748     7718     7641     7598 
    7520     7414     7424     7508     7571     7655     7733     7765 
    7779     7740     7682     7638     7531     7432     7431     7508 
    7681     7867     8005     8171     8254     8179     8084     7959 
    7817     7789     7793     7747     7760     7794     7706     7608 
    7630     7662     7686     7800     7919     7955     7964     7940 
    7889     7867     7821     7746     7712     7706     7711     7696 
    7661     7696     7718     7694     7790     7882     7867     7901 
    7875     7714     7614     7547     7442     7407     7468     7592 
    7699     7724     7719     7690     7579     7432     7366     7403 
    7445     7484     7568     7613     7626     7687     7668     7575 
    7565     7520     7435     7496     7600     7647     7725     7783 
    7745     7683     7665     7652     7600     7580     7637     7731 
    7812     7805     7747     7726     7700     7629     7537     7484 
    7552     7668     7704     7765     7880     7843     7704     7702 
    7731     7670     7666     7729     7744     7743     7768     7814 
    7860     7840     7754     7668     7630     7630     7611     7595 
    7639     7664     7631     7656     7736     7790     7857     7936 
    7973     7972     7898     7805     7764     7710     7664     7673 
    7665     7660     7688     7727     7871     8079     8151     8152 
    8192     8142     8016     7946     7907     7890     7872     7803 
    7800     7893     7918     7916     8023     8151     8175     8127 
    8057     7997     7962     7925     7877     7812     7772     7818 
    7837     7758     7716     7687     7618     7621     7640     7623 
    7680     7700     7601     7542     7514     7464     7490     7567 
    7621     7674     7686     7651     7617     7526     7404     7398 
    7459     7458     7408     7342     7263     7231     7294     7400 
    7487     7544     7558     7540     7512     7459     7383     7305 
    7273     7287     7283     7323     7436     7458     7431     7493 
    7490     7399     7424     7549     7679     7825     7953     8025 
    8027     7967     7896     7837     7834     7857     7798     7789 
    7911     7942     7918     7983     7971     7911     7934     7893 
    7814     7830     7839     7834     7877     7881     7867     7906 
    7930     7960     8039     8014     7862     7724     7609     7534 
    7493     7447     7537     7734     7787     7766     7797     7723 
    7579     7541     7521     7489     7521     7500     7444     7532 
    7597     7503     7499     7590     7584     7599     7660     7636 
    7642     7693     7662     7709     7873     7909     7854     7857 
    7810     7683     7569     7440     7359     7405     7415     7380 
    7488     7634     7661     7663     7688     7671     7606     7604 
    7738     7893     7991     8068     8084     8075     8071     7953 
    7796     7787     7830     7807     7787     7775     7709     7583 
    7455     7417     7469     7514     7515     7506     7515     7529 
    7519     7503     7484     7482     7536     7560     7557     7639 
    7729     7784     7819     7752     7720     7791     7811     7896 
    8066     8109     8099     8090     8034     7974     7858     7769 
    7784     7736     7704     7775     7812     7897     8002     7934 
    7882     7989     8031     7973     7960     7966     7949     7940 
    7891     7800     7783     7805     7779     7791     7831     7823 
    7784     7697     7628     7638     7630     7661     7766     7774 
    7717     7708     7711     7718     7723     7680     7635     7676 
    7762     7769     7737     7711     7653     7626     7605     7539 
    7577     7670     7645     7638     7725     7743     7708     7708 
    7708     7712     7688     7583     7484     7431     7386     7384 
    7422     7485     7602     7680     7658     7646     7630     7553 
    7508     7486     7447     7453     7444     7414     7497     7593 
    7603     7679     7781     7801     7835     7882     7894     7903 
    7835     7688     7606     7556     7488     7488     7539     7604 
    7685     7721     7743     7765     7744     7761     7806     7751 
    7675     7692     7742     7812     7935     7999     7944     7891 
    7870     7818     7767     7759     7778     7813     7859     7909 
    7954     7941     7861     7809     7819     7842     7844     7828 
    7820     7800     7762     7746     7712     7657     7658     7673 
    7653     7660     7692     7663     7573     7522     7517     7503 
    7492     7487     7492     7538     7588     7600     7609     7643 
    7650     7599     7568     7571     7550     7531     7527     7526 
    7564     7632     7683     7669     7580     7481     7418     7421 
    7511     7600     7615     7648     7749     7797     7760     7734 
    7689     7589     7506     7456     7448     7518     7626     7759 
    7892     7932     7912     7915     7887     7830     7817     7823 
    7822     7860     7942     7975     7874     7743     7659     7563 
    7517     7566     7635     7740     7846     7888     7940     7988 
    7983     7994     8009     8002     8029     8020     7948     7931 
    7950     7984     8003     7877     7721     7621     7441     7371 
    7514     7572     7589     7691     7701     7699     7787     7762 
    7626     7536     7442     7303     7212     7212     7278     7379 
    7492     7592     7619     7600     7592     7521     7472     7586 
    7650     7639     7813     7952     7831     7729     7643     7418 
    7302     7335     7351     7495     7741     7845     7847     7849 
    7846     7867     7868     7831     7862     7932     7969     8023 
    8032     7899     7745     7685     7649     7605     7613     7722 
    7920     8067     8059     8005     8011     7971     7814     7748 
    7794     7717     7649     7738     7794     7845     7966     8040 
    8133     8247     8268     8295     8333     8192     7870     7567 
    7402     7314     7291     7380     7521     7640     7639     7472 
    7352     7405     7505     7647     7845     7989     8052     8048 
    7929     7712     7507     7413     7444     7543     7643     7707 
    7781     7891     7933     7879     7832     7787     7692     7643 
    7686     7604     7365     7270     7275     7225     7378     7694 
    7879     8027     8081     7874     7639     7453     7243     7156 
    7190     7268     7389     7451     7443     7397     7296     7330 
    7570     7768     7879     8007     8063     8001     7870     7605 
    7196     6850     6732     6846     7173     7595     7915     8082 
    8137     8127     8024     7806     7642     7534     7346     7200 
    7165     7214     7427     7694     7910     8178     8393     8413 
    8329     8194     7963     7679     7438     7271     7198     7342 
    7688     7987     8157     8309     8436     8505     8567     8601 
    8510     8282     7999     7731     7498     7332     7294     7398 
    7608     7894     8133     8239     8249     8119     7905     7785 
    7708     7672     7806     7936     7936     7943     7934     7844 
    7785     7768     7710     7635     7588     7553     7557     7597 
    7632     7747     7937     8014     8060     8164     8081     7854 
    7775     7747     7630     7582     7669     7720     7640     7471 
    7249     7034     6872     6835     7013     7277     7479     7692 
    7921     8065     8128     8167     8177     8044     7750     7485 
    7317     7211     7264     7376     7386     7429     7488     7448 
    7465     7586     7780     8085     8339     8429     8383     8101 
    7626     7240     7087     7097     7191     7382     7616     7751 
    7750     7661     7559     7532     7590     7703     7867     8019 
    8106     8135     8063     7951     7955     8039     8098     8145 
    8158     8081     7919     7737     7521     7230     7081     7240 
    7524     7819     8097     8201     8167     8082     7886     7716 
    7723     7796     7849     7904     7969     7979     7787     7443 
    7216     7162     7167     7275     7500     7720     7939     8163 
    8283     8310     8288     8179     8067     7984     7781     7498 
    7275     7087     6968     6986     7080     7218     7333     7360 
    7392     7454     7496     7523     7471     7329     7226     7195 
    7242     7442     7741     8038     8273     8287     8008     7665 
    7381     7056     6812     6785     6862     7016     7221     7407 
    7705     8102     8386     8585     8647     8410     8102     7919 
    7856     7991     8069     7877     7714     7584     7306     7171 
    7288     7465     7729     7947     7999     8158     8347     8252 
    8061     7900     7691     7613     7694     7817     7999     8030 
    7811     7642     7630     7662     7695     7721     7787     7797 
    7556     7239     7055     6955     7126     7648     8132     8425 
    8601     8551     8489     8615     8484     8008     7687     7515 
    7310     7219     7172     7032     6944     6917     6887     7045 
    7445     7861     8193     8411     8428     8293     8138     8016 
    7935     7935     7977     7859     7580     7403     7343     7318 
    7377     7429     7482     7612     7631     7616     7822     8051 
    8164     8246     8155     7935     7850     7886     7929     7920 
    7707     7320     7054     6955     6929     7131     7513     7821 
    8064     8129     7949     7866     7885     7823     7790     7731 
    7684     7755     7618     7266     7143     7219     7360     7734 
    8201     8451     8517     8396     7983     7547     7277     6980 
    6904     7255     7481     7472     7616     7699     7618     7703 
    7924     8094     8220     8282     8202     8031     7930     7872 
    7738     7582     7485     7456     7391     7237     7200     7293 
    7379     7588     7773     7688     7588     7498     7265     7110 
    7057     7003     7037     7172     7489     7970     8286     8367 
    8417     8455     8413     8300     8130     7931     7721     7471 
    7194     6933     6787     6883     7156     7494     7934     8359 
    8562     8556     8348     7925     7469     7126     6940     6899 
    6905     7021     7288     7529     7711     7834     7879     7983 
    8041     7903     7759     7656     7571     7682     7993     8384 
    8718     8775     8626     8398     7915     7302     6945     6858 
    6997     7400     7837     8162     8423     8417     8067     7764 
    7641     7500     7367     7289     7254     7269     7189     7030 
    6982     7074     7270     7517     7776     8004     7994     7755 
    7604     7584     7496     7396     7507     7746     7783     7581 
    7340     7119     6895     6712     6704     6946     7255     7443 
    7546     7624     7634     7529     7401     7407     7495     7473 
    7300     7084     6937     6824     6720     6887     7360     7792 
    8194     8657     8832     8634     8379     8172     7986     7839 
    7758     7922     8344     8703     8854     8882     8813     8617 
    8316     8163     8253     8196     7960     7963     8094     8060 
    7963     7900     7937     8079     8140     8137     8148     8062 
    7903     7764     7676     7742     8021     8411     8744     8920 
    8874     8509     7862     7207     6917     7171     7743     8335 
    8926     9388     9419     9037     8469     7823     7233     6870 
    6880     7280     7764     8012     8024     7875     7628     7399 
    7208     7097     7152     7212     7089     6829     6506     6349 
    6649     7322     8125     8872     9299     9311     9069     8713 
    8265     7717     7147     6756     6634     6655     6836     7315 
    7848     8145     8337     8471     8407     8215     8010     7771 
    7473     7196     7012     6832     6664     6727     7080     7520 
    7822     7919     7965     8171     8469     8636     8732     8802 
    8604     8110     7522     6886     6321     6134     6428     6973 
    7581     8227     8679     8717     8597     8460     8152     7848 
    7669     7414     7178     7017     6747     6592     6774     7163 
    7806     8584     9019     8949     8617     8189     7621     7003 
    6633     6519     6524     6745     7113     7474     7866     8101 
    8089     8135     8257     8272     8183     7959     7626     7311 
    6946     6495     6156     5977     5924     6123     6538     7053 
    7789     8644     9194     9288     8988     8274     7276     6292 
    5651     5635     6098     6731     7502     8215     8614     8772 
    8726     8570     8540     8558     8465     8298     7984     7490 
    7022     6692     6500     6509     6738     7164     7799     8495 
    8882     8794     8521     8255     7826     7300     6976     6898 
    7040     7342     7645     7989     8396     8684     8815     8779 
    8498     8162     7929     7710     7623     7699     7599     7259 
    6903     6603     6482     6682     7014     7311     7633     7887 
    8009     8196     8466     8627     8665     8617     8431     8077 
    7617     7242     7037     6910     6940     7199     7533     7922 
    8279     8304     8070     7744     7282     6939     6964     7239 
    7681     8088     8256     8314     8152     7635     7196     7022 
    6908     7001     7320     7530     7645     7713     7581     7449 
    7423     7261     7105     7235     7503     7731     7900     7983 
    8122     8369     8433     8390     8571     8700     8558     8444 
    8320     7972     7501     7076     6899     6950     6957     7060 
    7444     7853     8302     8914     9311     9362     9336     9172 
    8788     8384     7948     7439     7114     7043     7017     6999 
    7076     7264     7509     7697     7909     8249     8463     8510 
    8656     8774     8718     8558     8205     7835     7702     7532 
    7238     7069     6954     6846     6871     7005     7278     7664 
    8002     8288     8421     8250     7977     7763     7579     7561 
    7714     7824     7890     7934     7750     7369     7116     7059 
    7017     7016     7218     7552     7780     7850     7873     7811 
    7637     7465     7224     6873     6659     6648     6769     7109 
    7584     7947     8150     8195     8058     7848     7641     7423 
    7275     7242     7290     7401     7524     7575     7403     7047 
    6900     7133     7533     7981     8455     8828     8891     8508 
    7832     7155     6704     6613     6827     7246     7736     8029 
    8202     8542     8860     8947     9013     9041     8792     8337 
    7907     7596     7346     7104     6968     7044     7302     7616 
    7864     8056     8201     8219     8211     8337     8459     8382 
    8201     8054     7826     7421     7077     7053     7257     7465 
    7623     7722     7680     7530     7445     7541     7725     7758 
    7563     7358     7306     7302     7265     7269     7359     7517 
    7713     7830     7762     7512     7136     6789     6621     6602 
    6663     6804     7038     7355     7670     7919     8106     8176 
    8101     8003     8042     8182     8219     8120     7995     7829 
    7555     7219     7022     7136     7448     7789     8129     8352 
    8329     8086     7701     7324     7164     7203     7294     7518 
    7958     8356     8492     8440     8250     7946     7588     7224 
    7022     7026     7147     7520     8031     8264     8247     8139 
    7897     7649     7459     7322     7417     7678     7865     7940 
    7900     7807     7742     7644     7541     7439     7365     7594 
    8051     8342     8527     8700     8608     8258     7868     7475 
    7136     7028     7172     7411     7634     7782     7889     8059 
    8195     8171     8101     8012     7872     7824     7860     7850 
    7840     7813     7774     7857     7868     7593     7301     7150 
    7079     7184     7415     7649     7948     8163     8075     7836 
    7584     7272     7049     7119     7460     7968     8417     8587 
    8625     8585     8257     7802     7503     7289     7155     7169 
    7249     7444     7723     7787     7617     7417     7191     7066 
    7237     7542     7859     8212     8365     8187     7910     7712 
    7656     7755     7951     8238     8504     8609     8694     8744 
    8504     8077     7761     7621     7571     7522     7495     7564 
    7673     7703     7749     7976     8216     8298     8393     8486 
    8359     8146     8042     8034     8147     8314     8394     8374 
    8215     7874     7440     7071     6870     6800     6892     7258 
    7760     8096     8136     8048     7948     7717     7430     7265 
    7141     7063     7049     6887     6690     6689     6716     6739 
    6929     7164     7327     7505     7741     7997     8166     8208 
    8229     8166     7930     7679     7444     7158     6958     6921 
    7083     7467     7848     8099     8255     8167     7770     7266 
    6864     6648     6633     6850     7275     7821     8393     8734 
    8678     8485     8301     7990     7646     7421     7259     7095 
    6950     7023     7362     7667     7928     8378     8843     9060 
    9039     8784     8325     7865     7512     7246     7163     7238 
    7206     7060     7053     7196     7332     7421     7490     7602 
    7786     7943     8016     8042     8024     7980     7965     7956 
    7831     7589     7441     7462     7545     7638     7709     7822 
    8028     8109     7962     7758     7531     7303     7284     7549 
    7926     8224     8361     8307     8031     7623     7264     6992 
    6840     6867     6969     7163     7489     7675     7629     7538 
    7373     7088     6899     6985     7273     7596     7863     8002 
    8029     8121     8280     8320     8281     8255     8149     7982 
    7880     7813     7771     7799     7788     7661     7505     7302 
    7044     6893     6888     7010     7323     7654     7848     7982 
    7952     7690     7421     7220     7035     7021     7274     7630 
    7894     7961     7809     7563     7459     7571     7816     8129 
    8367     8433     8377     8134     7705     7289     6970     6857 
    7062     7369     7605     7797     7887     7936     8042     8084 
    8074     8116     8123     8097     8098     8030     7857     7631 
