Origin Time       2024/04/02 04:24:00
Lat.              40.133
Long.             141.712
Depth. (km)       71
Mag.              6.0
Station Code      TCGH17
Station Lat.      36.9853
Station Long.     139.6922
Station Height(m) 635
Record Time       2024/04/02 04:25:53
Sampling Freq(Hz) 100Hz
Duration Time(s)  120
Dir.              6
Scale Factor      3920(gal)/6170801
Max. Acc. (gal)   0.163
Last Correction   2024/04/02 04:25:38
Memo.             
[...]
   12689    12673    12659    12640    12623    12622    12633    12626 
   12602    12594    12602    12590    12576    12582    12584    12581 
   12568    12550    12550    12549    12545    12544    12537    12552 
   12573    12572    12584    12602    12597    12598    12613    12626 
   12637    12644    12643    12633    12627    12623    12602    12578 
   12573    12584    12598    12596    12596    12616    12632    12643 
   12658    12655    12641    12628    12628    12639    12627    12596 
   12575    12562    12549    12535    12528    12537    12556    12576 
   12574    12555    12550    12561    12568    12575    12602    12637 
   12650    12651    12651    12648    12655    12653    12649    12666 
   12671    12667    12677    12677    12672    12674    12671    12671 
   12665    12648    12643    12628    12591    12568    12564    12551 
   12544    12562    12576    12573    12570    12592    12617    12608 
   12596    12597    12585    12585    12594    12581    12578    12573 
   12549    12554    12561    12534    12529    12559    12574    12578 
   12586    12592    12599    12594    12572    12564    12555    12529 
   12513    12511    12507    12515    12538    12553    12562    12583 
   12613    12627    12625    12619    12612    12608    12600    12577 
   12549    12531    12532    12539    12540    12549    12566    12566 
   12566    12577    12578    12590    12621    12644    12651    12647 
   12646    12653    12636    12612    12624    12649    12651    12647 
   12641    12630    12637    12641    12617    12620    12660    12675 
   12666    12665    12660    12661    12671    12661    12643    12643 
   12649    12655    12659    12640    12613    12604    12591    12573 
   12569    12573    12570    12566    12576    12580    12563    12559 
   12568    12556    12539    12548    12565    12565    12558    12564 
   12577    12580    12577    12577    12579    12579    12578    12584 
   12586    12570    12555    12551    12544    12535    12525    12524 
   12548    12574    12579    12576    12585    12588    12572    12578 
   12607    12618    12619    12629    12642    12642    12636    12645 
   12661    12671    12681    12689    12692    12693    12687    12675 
   12666    12654    12634    12622    12614    12599    12587    12576 
   12567    12575    12589    12603    12618    12625    12617    12602 
   12600    12603    12584    12582    12609    12611    12592    12594 
   12597    12592    12598    12605    12596    12591    12589    12576 
   12569    12575    12582    12590    12598    12594    12581    12575 
   12573    12564    12558    12553    12544    12553    12570    12567 
   12564    12578    12585    12575    12572    12593    12621    12617 
   12584    12560    12551    12547    12549    12563    12580    12579 
   12573    12583    12586    12559    12530    12537    12560    12578 
   12591    12596    12609    12636    12654    12663    12665    12653 
   12643    12646    12642    12623    12619    12633    12631    12614 
   12606    12599    12588    12583    12580    12579    12579    12581 
   12586    12579    12575    12580    12576    12576    12590    12606 
   12625    12630    12627    12638    12643    12637    12637    12624 
   12606    12604    12595    12579    12564    12541    12527    12528 
   12542    12573    12589    12579    12575    12579    12574    12569 
   12572    12576    12581    12582    12571    12568    12574    12565 
   12561    12578    12590    12584    12593    12619    12622    12606 
   12608    12619    12626    12626    12616    12602    12587    12595 
   12613    12594    12578    12598    12611    12612    12617    12607 
   12597    12603    12608    12612    12624    12632    12635    12643 
   12652    12665    12680    12677    12675    12686    12681    12663 
   12638    12614    12610    12617    12627    12635    12623    12597 
   12574    12574    12590    12585    12580    12604    12622    12619 
   12615    12613    12599    12583    12591    12606    12606    12605 
   12613    12613    12605    12610    12614    12594    12569    12559 
   12553    12550    12549    12544    12550    12572    12593    12599 
   12598    12593    12570    12547    12542    12536    12528    12525 
   12530    12533    12526    12521    12539    12569    12588    12605 
   12631    12649    12657    12663    12672    12676    12653    12630 
   12638    12642    12628    12619    12616    12612    12603    12586 
   12577    12586    12592    12593    12600    12597    12593    12611 
   12623    12621    12627    12630    12623    12609    12593    12587 
   12589    12593    12585    12566    12564    12576    12575    12571 
   12580    12581    12566    12568    12581    12563    12552    12567 
   12554    12534    12543    12554    12557    12564    12574    12582 
   12587    12596    12599    12584    12575    12573    12569    12569 
   12562    12552    12564    12578    12571    12565    12582    12605 
   12610    12597    12587    12589    12589    12589    12593    12587 
   12586    12602    12604    12607    12634    12649    12656    12671 
   12670    12660    12646    12630    12640    12652    12632    12617 
   12614    12590    12561    12550    12537    12511    12508    12533 
   12548    12555    12570    12576    12578    12583    12598    12629 
   12657    12676    12688    12685    12681    12677    12666    12666 
   12663    12656    12669    12677    12667    12659    12648    12629 
   12616    12616    12614    12614    12623    12613    12585    12592 
   12615    12600    12572    12566    12566    12563    12573    12584 
   12577    12576    12591    12601    12585    12552    12548    12573 
   12596    12612    12624    12637    12657    12670    12659    12646 
   12652    12649    12634    12630    12619    12609    12621    12620 
   12615    12625    12612    12593    12588    12572    12557    12552 
   12540    12525    12516    12506    12502    12507    12511    12523 
   12545    12567    12581    12598    12617    12639    12663    12665 
   12660    12676    12674    12656    12657    12650    12633    12630 
   12621    12606    12605    12601    12604    12631    12629    12593 
   12587    12597    12591    12585    12583    12585    12595    12593 
   12581    12583    12588    12575    12554    12540    12531    12517 
   12507    12506    12499    12488    12475    12455    12454    12456 
   12435    12434    12469    12491    12502    12524    12541    12544 
   12553    12586    12615    12614    12619    12642    12659    12672 
   12676    12676    12671    12643    12623    12613    12584    12577 
   12590    12582    12593    12625    12629    12643    12671    12680 
   12693    12699    12686    12689    12694    12677    12661    12656 
   12637    12599    12569    12549    12519    12490    12484    12493 
   12499    12505    12528    12555    12583    12625    12656    12671 
   12685    12679    12663    12659    12638    12609    12597    12582 
   12567    12566    12561    12555    12561    12572    12581    12583 
   12575    12573    12590    12611    12611    12593    12598    12627 
   12650    12661    12649    12623    12620    12631    12635    12641 
   12649    12648    12636    12635    12649    12641    12616    12616 
   12624    12626    12633    12635    12642    12631    12594    12583 
   12589    12586    12589    12583    12579    12594    12605    12607 
   12617    12627    12631    12628    12619    12610    12601    12605 
   12623    12624    12611    12611    12612    12612    12619    12620 
   12610    12602    12605    12602    12583    12571    12566    12548 
   12527    12519    12522    12532    12542    12537    12527    12538 
   12553    12551    12548    12560    12580    12584    12580    12590 
   12595    12589    12597    12613    12619    12618    12617    12605 
   12573    12554    12556    12552    12542    12536    12539    12555 
   12566    12576    12586    12577    12570    12587    12600    12599 
   12600    12608    12615    12607    12597    12606    12613    12609 
   12615    12620    12618    12634    12653    12651    12651    12666 
   12692    12714    12717    12725    12731    12706    12689    12691 
   12679    12656    12641    12634    12632    12620    12616    12627 
   12631    12638    12645    12627    12604    12588    12574    12587 
   12590    12539    12504    12528    12523    12482    12488    12517 
   12508    12497    12517    12548    12562    12555    12548    12550 
   12541    12533    12545    12555    12532    12515    12542    12557 
   12533    12532    12551    12555    12569    12598    12610    12613 
   12621    12635    12660    12677    12682    12688    12689    12677 
   12657    12654    12664    12647    12621    12624    12631    12616 
   12600    12595    12594    12586    12572    12574    12570    12551 
   12544    12548    12562    12590    12599    12593    12602    12609 
   12598    12591    12604    12619    12622    12633    12651    12651 
   12644    12631    12602    12590    12597    12597    12595    12581 
   12547    12533    12539    12525    12510    12523    12531    12509 
   12490    12505    12529    12530    12522    12526    12535    12551 
   12561    12561    12573    12585    12579    12576    12569    12560 
   12573    12581    12565    12558    12569    12575    12582    12594 
   12613    12642    12653    12647    12654    12651    12630    12621 
   12625    12634    12644    12644    12638    12629    12624    12626 
   12633    12630    12620    12623    12627    12612    12610    12622 
   12636    12657    12668    12650    12639    12655    12657    12653 
   12676    12689    12690    12693    12677    12673    12689    12681 
   12672    12677    12669    12658    12645    12629    12609    12587 
   12577    12563    12552    12562    12564    12560    12574    12590 
   12594    12585    12581    12590    12592    12569    12534    12522 
   12534    12540    12537    12541    12549    12548    12543    12554 
   12555    12535    12541    12575    12583    12570    12573    12585 
   12568    12553    12567    12558    12526    12526    12546    12552 
   12543    12545    12570    12591    12593    12592    12598    12611 
   12625    12626    12618    12617    12610    12607    12630    12646 
   12653    12678    12698    12707    12699    12667    12647    12640 
   12623    12617    12614    12594    12576    12554    12536    12533 
   12520    12519    12540    12554    12569    12569    12544    12534 
   12533    12529    12548    12570    12589    12612    12633    12652 
   12652    12640    12630    12610    12593    12583    12569    12553 
   12538    12526    12524    12533    12550    12560    12565    12576 
   12577    12582    12597    12595    12582    12577    12570    12563 
   12560    12557    12562    12569    12587    12625    12661    12669 
   12662    12657    12657    12665    12662    12646    12628    12606 
   12595    12595    12578    12572    12582    12574    12571    12575 
   12575    12587    12594    12591    12601    12615    12628    12649 
   12676    12684    12665    12658    12655    12623    12595    12592 
   12577    12554    12545    12542    12541    12538    12538    12552 
   12558    12550    12560    12577    12566    12550    12541    12528 
   12526    12534    12547    12571    12579    12570    12570    12584 
   12597    12596    12601    12620    12630    12643    12660    12662 
   12664    12673    12690    12707    12702    12688    12691    12692 
   12674    12673    12681    12668    12650    12642    12633    12622 
   12611    12599    12586    12579    12583    12575    12567    12575 
   12584    12596    12610    12614    12624    12629    12617    12612 
   12619    12625    12636    12632    12617    12623    12631    12626 
   12636    12649    12647    12631    12593    12567    12579    12581 
   12574    12593    12609    12610    12606    12596    12598    12595 
   12574    12583    12609    12592    12571    12571    12560    12550 
   12547    12545    12555    12552    12533    12531    12531    12520 
   12525    12543    12557    12558    12545    12547    12564    12562 
   12552    12561    12562    12558    12573    12574    12564    12569 
   12563    12553    12560    12565    12567    12576    12590    12607 
   12617    12622    12621    12625    12636    12641    12656    12666 
   12659    12664    12651    12624    12637    12650    12639    12641 
   12642    12647    12665    12660    12630    12604    12590    12587 
   12600    12606    12599    12605    12611    12606    12598    12587 
   12577    12571    12585    12617    12625    12612    12601    12592 
   12594    12595    12589    12595    12598    12584    12561    12549 
   12561    12569    12561    12550    12547    12565    12588    12603 
   12613    12619    12625    12634    12640    12643    12642    12650 
   12666    12674    12677    12683    12687    12697    12702    12694 
   12697    12698    12681    12682    12696    12691    12698    12723 
   12717    12706    12715    12714    12707    12701    12690    12688 
   12682    12654    12646    12658    12642    12618    12627    12639 
   12612    12579    12565    12545    12528    12534    12537    12527 
   12521    12519    12518    12525    12529    12519    12504    12491 
   12484    12477    12463    12452    12436    12422    12419    12409 
   12386    12371    12363    12362    12364    12356    12340    12341 
   12352    12357    12368    12394    12411    12415    12423    12439 
   12459    12480    12509    12544    12570    12590    12608    12615 
   12613    12627    12658    12666    12647    12640    12637    12611 
   12593    12600    12596    12587    12604    12616    12626    12653 
   12665    12659    12665    12683    12692    12689    12700    12731 
   12742    12730    12736    12763    12773    12771    12774    12777 
   12793    12813    12790    12759    12751    12725    12701    12698 
   12681    12661    12652    12638    12627    12630    12624    12611 
   12621    12628    12617    12623    12628    12612    12610    12622 
   12626    12627    12635    12651    12670    12677    12671    12667 
   12658    12625    12612    12625    12616    12600    12611    12624 
   12620    12618    12639    12674    12700    12718    12726    12731 
   12731    12712    12682    12660    12640    12607    12574    12547 
   12518    12499    12479    12448    12438    12451    12454    12459 
   12471    12475    12482    12495    12497    12501    12511    12522 
   12530    12530    12525    12530    12542    12540    12523    12513 
   12504    12493    12480    12476    12482    12474    12475    12508 
   12529    12531    12564    12612    12626    12628    12644    12650 
   12649    12655    12648    12639    12650    12660    12638    12602 
   12589    12576    12545    12539    12541    12516    12498    12490 
   12486    12486    12483    12493    12513    12526    12552    12585 
   12603    12622    12647    12673    12698    12708    12703    12710 
   12730    12738    12741    12755    12767    12768    12768    12781 
   12782    12768    12775    12792    12778    12754    12755    12758 
   12735    12702    12683    12672    12647    12635    12639    12614 
   12599    12619    12608    12574    12553    12531    12509    12491 
   12476    12465    12449    12420    12402    12399    12387    12382 
   12398    12402    12401    12406    12400    12407    12441    12474 
   12500    12526    12558    12595    12615    12625    12648    12666 
   12682    12712    12728    12723    12723    12730    12720    12687 
   12663    12642    12613    12596    12581    12574    12598    12617 
   12624    12645    12640    12618    12624    12627    12616    12629 
   12629    12597    12579    12573    12543    12509    12497    12497 
   12508    12507    12495    12509    12525    12531    12543    12539 
   12539    12551    12546    12558    12582    12585    12591    12611 
   12629    12631    12631    12639    12645    12656    12673    12683 
   12683    12675    12681    12682    12648    12624    12618    12601 
   12596    12595    12586    12590    12601    12606    12596    12589 
   12607    12625    12630    12643    12663    12660    12639    12634 
   12636    12622    12605    12589    12578    12576    12573    12569 
   12558    12539    12522    12513    12519    12525    12528    12542 
   12550    12551    12563    12586    12612    12618    12601    12595 
   12600    12599    12585    12564    12554    12548    12544    12549 
   12554    12576    12604    12615    12638    12671    12689    12690 
   12683    12673    12648    12633    12634    12616    12599    12588 
   12578    12590    12603    12610    12631    12644    12641    12647 
   12664    12685    12703    12711    12702    12691    12682    12670 
   12678    12701    12700    12686    12690    12707    12711    12698 
   12691    12681    12651    12632    12638    12638    12630    12633 
   12644    12652    12650    12651    12662    12668    12654    12642 
   12642    12635    12629    12612    12568    12553    12552    12520 
   12502    12507    12499    12480    12472    12478    12481    12493 
   12511    12505    12497    12498    12499    12510    12520    12522 
   12518    12499    12483    12482    12472    12458    12452    12445 
   12439    12438    12436    12425    12418    12421    12427    12443 
   12466    12495    12530    12554    12575    12597    12612    12626 
   12629    12610    12606    12617    12615    12612    12621    12615 
   12603    12615    12617    12610    12624    12635    12625    12614 
   12611    12597    12573    12576    12608    12627    12623    12622 
   12640    12654    12644    12644    12654    12651    12654    12661 
   12665    12671    12656    12638    12640    12639    12637    12657 
   12672    12658    12638    12632    12633    12636    12652    12670 
   12689    12704    12706    12711    12710    12700    12706    12708 
   12687    12675    12676    12668    12663    12668    12659    12633 
   12613    12605    12598    12598    12609    12602    12586    12589 
   12594    12597    12603    12595    12590    12583    12566    12563 
   12555    12541    12537    12525    12522    12526    12515    12513 
   12512    12501    12507    12525    12528    12529    12546    12553 
   12528    12490    12462    12449    12448    12451    12461    12485 
   12503    12504    12508    12519    12536    12564    12585    12601 
   12627    12636    12620    12617    12631    12642    12639    12635 
   12639    12626    12609    12618    12613    12593    12600    12595 
   12578    12592    12605    12609    12617    12607    12595    12599 
   12610    12628    12636    12639    12663    12676    12661    12654 
   12661    12666    12680    12700    12702    12698    12703    12705 
   12705    12722    12746    12747    12736    12740    12753    12754 
   12746    12749    12766    12775    12757    12730    12719    12711 
   12694    12689    12689    12679    12671    12661    12633    12617 
   12628    12635    12627    12616    12617    12620    12602    12582 
   12577    12573    12574    12569    12556    12553    12543    12524 
