Origin Time       2024/04/02 04:24:00
Lat.              40.133
Long.             141.712
Depth. (km)       71
Mag.              6.0
Station Code      TCGH06
Station Lat.      36.4458
Station Long.     139.9509
Station Height(m) 70
Record Time       2024/04/02 04:26:20
Sampling Freq(Hz) 100Hz
Duration Time(s)  120
Dir.              5
Scale Factor      3920(gal)/6170801
Max. Acc. (gal)   1.229
Last Correction   2024/04/02 04:26:05
Memo.             
[...]
    1941     1997     2066     2086     2070     2017     1927     1883 
    1925     1995     2036     2084     2192     2175     2008     1986 
    2013     1952     2053     2259     2383     2481     2503     2426 
    2314     2166     2071     2031     1981     2041     2169     2243 
    2355     2429     2362     2307     2280     2182     2112     2129 
    2184     2276     2369     2445     2517     2504     2428     2365 
    2249     2141     2121     2060     2005     2092     2182     2152 
    2063     2022     2058     2035     1948     2002     2169     2230 
    2213     2230     2231     2205     2153     2029     1931     1943 
    2016     2081     2127     2216     2253     2125     2034     2042 
    1981     1929     1951     1923     1873     1902     1991     2016 
    1928     1873     1916     1940     1912     1867     1825     1859 
    1954     2008     2052     2101     2065     1974     1953     1973 
    1948     1957     2053     2128     2125     2066     1966     1880 
    1868     1944     2070     2203     2297     2316     2343     2395 
    2326     2176     2083     1964     1836     1855     1942     1966 
    2020     2202     2363     2362     2319     2303     2237     2175 
    2145     2108     2120     2193     2257     2305     2334     2352 
    2387     2352     2236     2186     2187     2186     2268     2326 
    2270     2272     2324     2287     2186     2103     2102     2163 
    2208     2239     2277     2324     2344     2272     2231     2319 
    2297     2158     2200     2250     2127     2158     2333     2321 
    2257     2300     2268     2156     2106     2073     2029     2056 
    2139     2164     2124     2141     2196     2164     2074     2018 
    2004     2027     2053     1996     1927     2010     2127     2141 
    2158     2133     2035     2068     2100     1884     1689     1691 
    1711     1810     2025     2176     2273     2328     2283     2186 
    2081     2036     2081     2128     2175     2218     2187     2096 
    1957     1852     1900     1978     2039     2171     2216     2155 
    2191     2247     2255     2309     2358     2377     2389     2358 
    2321     2283     2256     2335     2414     2344     2240     2151 
    1986     1886     1975     2090     2194     2372     2461     2389 
    2367     2382     2254     2117     2116     2118     2085     2074 
    2061     2091     2128     2088     2033     1927     1788     1730 
    1674     1676     1863     2039     2112     2228     2331     2285 
    2144     2026     2004     2017     2012     2062     2095     2051 
    2062     2070     2030     2088     2176     2205     2246     2241 
    2193     2202     2193     2172     2202     2159     2082     2074 
    2036     2049     2205     2301     2317     2405     2481     2460 
    2394     2283     2216     2308     2390     2303     2195     2192 
    2197     2141     2122     2172     2184     2169     2182     2140 
    2039     1977     1917     1826     1834     1930     1964     1959 
    1963     1972     2055     2122     2064     2030     2072     2054 
    1973     1902     1831     1756     1731     1768     1824     1908 
    2024     2061     2016     2045     2075     1994     1963     1975 
    1855     1773     1904     2050     2140     2300     2391     2305 
    2267     2259     2064     1901     1990     2140     2264     2410 
    2499     2509     2514     2517     2433     2329     2414     2567 
    2535     2463     2457     2390     2298     2192     2064     2070 
    2104     2058     2137     2251     2270     2375     2439     2344 
    2341     2382     2280     2157     2113     2121     2098     2043 
    2141     2295     2289     2324     2420     2338     2257     2256 
    2087     1971     2101     2095     1930     1977     2118     2091 
    2001     1953     1908     1851     1760     1672     1738     1890 
    1946     2028     2158     2097     1974     2011     2029     1979 
    2038     2100     2036     1996     2017     1960     1892     1946 
    1989     1929     1900     1893     1838     1855     1960     2021 
    2019     2004     2003     2046     2102     2122     2139     2227 
    2339     2350     2293     2269     2253     2253     2265     2237 
    2196     2135     2027     1984     2079     2237     2351     2382 
    2411     2440     2336     2218     2268     2342     2367     2425 
    2445     2425     2426     2351     2198     2162     2267     2294 
    2254     2302     2304     2286     2385     2367     2285     2363 
    2406     2373     2282     2117     2118     2134     2035     2146 
    2266     2218     2304     2335     2189     2180     2210     2167 
    2161     2092     1972     1915     1907     1961     1987     1941 
    2000     2094     2044     1978     1968     1981     2063     2123 
    2117     2180     2236     2156     2102     2153     2165     2132 
    2121     2074     1968     1907     1902     1858     1868     1996 
    2031     1992     2083     2183     2176     2164     2178     2196 
    2166     2088     2096     2155     2143     2117     2078     2006 
    1975     1918     1823     1868     2003     2039     2019     2002 
    1999     2041     2050     2063     2165     2211     2158     2096 
    2014     1963     2026     2126     2231     2334     2326     2284 
    2274     2169     2068     2108     2191     2259     2294     2294 
    2330     2374     2291     2175     2168     2132     2091     2191 
    2235     2193     2266     2358     2373     2329     2199     2078 
    2022     1999     2078     2243     2354     2404     2430     2409 
    2370     2352     2337     2316     2329     2418     2497     2475 
    2447     2443     2349     2211     2159     2165     2188     2264 
    2341     2346     2345     2378     2366     2296     2239     2164 
    2042     2002     2037     2015     2042     2132     2104     2026 
    1972     1884     1853     1902     1951     1998     2022     1982 
    1908     1940     2094     2127     2008     1997     2038     1943 
    1876     1912     1886     1876     2001     2072     2027     2036 
    2090     2064     2038     2075     2025     1872     1804     1817 
    1799     1813     1898     2011     2154     2254     2280     2353 
    2436     2387     2290     2273     2259     2201     2185     2224 
    2223     2156     2065     1948     1840     1830     1885     1948 
    2038     2138     2212     2230     2246     2341     2410     2416 
    2469     2466     2337     2239     2143     2000     1915     1816 
    1726     1788     1802     1763     1881     1926     1896     2067 
    2206     2228     2341     2433     2459     2490     2477     2442 
    2377     2314     2301     2159     1947     1851     1645     1412 
    1492     1637     1743     2063     2338     2433     2628     2735 
    2616     2627     2710     2565     2372     2270     2102     1878 
    1764     1760     1738     1720     1753     1757     1757     1794 
    1786     1793     1957     2215     2484     2721     2809     2763 
    2693     2542     2250     1895     1589     1379     1256     1279 
    1445     1595     1746     2053     2384     2557     2688     2801 
    2738     2629     2576     2407     2292     2403     2438     2357 
    2309     2155     1893     1657     1416     1128      904      912 
    1081     1277     1587     1934     2152     2376     2642     2810 
    2923     2989     2896     2669     2381     2068     1828     1705 
    1649     1653     1752     1879     1881     1770     1719     1767 
    1864     2044     2264     2458     2713     2956     2990     2922 
    2817     2528     2186     1984     1797     1624     1582     1602 
    1656     1684     1631     1678     1869     2120     2436     2713 
    2860     2852     2634     2385     2238     2063     1977     2123 
    2230     2161     2078     2011     1917     1853     1878     1964 
    2082     2232     2293     2200     2177     2338     2507     2653 
    2854     3018     3085     3094     2954     2702     2566     2449 
    2166     1884     1739     1700     1716     1683     1653     1755 
    1914     2054     2214     2415     2627     2756     2751     2662 
    2567     2541     2540     2466     2294     2052     1780     1449 
    1167     1175     1388     1573     1653     1656     1722     1923 
    2163     2366     2548     2704     2704     2547     2485     2514 
    2412     2234     2035     1721     1391     1258     1345     1492 
    1651     1859     1979     2010     2099     2212     2406     2707 
    2915     2999     2884     2483     2123     2006     1956     1922 
    1891     1766     1644     1641     1655     1644     1727     1954 
    2233     2393     2392     2364     2326     2200     2034     1992 
    2169     2350     2358     2434     2543     2401     2264     2325 
    2340     2309     2306     2169     1890     1627     1489     1539 
    1768     2171     2692     3011     2937     2665     2305     1912 
    1673     1605     1622     1678     1724     1829     2036     2262 
    2504     2736     2887     2966     2869     2529     2140     1883 
    1837     2025     2370     2730     2860     2631     2248     1894 
    1547     1273     1236     1463     1889     2469     3028     3257 
    3140     2890     2451     1842     1387     1176     1214     1554 
    1919     2097     2189     2118     1886     1822     2030     2415 
    2845     3037     2998     2818     2384     2011     1982     1997 
    2003     2156     2279     2289     2260     2169     2085     2049 
    1995     1934     1863     1792     1774     1749     1776     1988 
    2207     2359     2626     2829     2731     2356     1708     1058 
     759      805     1206     1891     2526     2972     3211     3110 
    2634     2099     1888     1861     1772     1796     1956     2090 
    2186     2131     1995     2019     2047     1954     1839     1658 
    1503     1431     1434     1762     2232     2523     2917     3311 
    3314     3180     3042     2756     2566     2509     2367     2286 
    2294     2200     2031     1792     1512     1337     1277     1367 
    1619     1826     2023     2284     2399     2527     2787     2779 
    2616     2573     2345     2033     1922     1740     1560     1735 
    2049     2284     2495     2564     2408     2155     1981     1964 
    2036     2185     2411     2614     2763     2797     2602     2307 
    2042     1700     1360     1235     1222     1265     1585     2034 
    2217     2228     2286     2307     2344     2430     2388     2255 
    2084     1895     1938     2174     2363     2519     2479     2121 
    1740     1454     1302     1393     1491     1561     1868     2123 
    2052     2084     2388     2661     2895     2998     2729     2295 
    1881     1493     1322     1342     1430     1723     2126     2417 
    2641     2787     2768     2671     2507     2251     2093     2202 
    2425     2464     2315     2136     1863     1557     1386     1378 
    1585     1809     1849     1967     2175     2220     2318     2628 
    2823     2759     2668     2535     2186     1840     1754     1914 
    2294     2700     2860     2829     2632     2222     1830     1623 
    1611     1770     1996     2292     2521     2521     2505     2498 
    2335     2071     1789     1676     1789     1840     1843     2046 
    2354     2515     2462     2363     2432     2587     2695     2853 
    2956     2845     2690     2512     2278     2240     2357     2405 
    2427     2360     2217     2202     2135     1891     1669     1395 
    1069      934      944     1072     1463     2118     2932     3617 
    3960     3996     3597     2742     1836     1183      901      996 
    1196     1414     1842     2367     2722     2836     2688     2343 
    1859     1242      718      448      440      892     1741     2592 
    3282     3622     3445     3016     2502     1895     1464     1368 
    1434     1515     1523     1480     1480     1478     1574     1916 
    2263     2375     2323     2156     1859     1532     1355     1442 
    1744     2142     2508     2721     2751     2570     2158     1780 
    1629     1492     1374     1568     1989     2315     2500     2647 
    2687     2544     2280     1930     1664     1669     1712     1588 
    1530     1608     1684     1817     2022     2290     2617     2783 
    2748     2630     2390     2139     1985     1877     1945     2156 
    2341     2635     2881     2762     2527     2270     1880     1694 
    1729     1780     2110     2655     3046     3286     3340     3218 
    3116     2879     2391     1937     1629     1433     1314     1164 
    1128     1415     1950     2558     3050     3315     3333     3013 
    2403     1814     1554     1620     1806     2137     2641     2926 
    2799     2517     2188     1856     1679     1666     1737     1806 
    1833     1873     1939     2054     2223     2366     2559     2803 
    2862     2788     2771     2646     2327     1899     1400     1075 
    1103     1383     1894     2630     3406     3884     3877     3558 
    2989     2140     1404     1154     1260     1602     2206     2803 
    3070     2916     2303     1478      936      780      802      969 
    1410     1964     2264     2484     2861     3005     2839     2707 
    2557     2350     2338     2467     2507     2499     2442     2149 
    1673     1131      573      279      261      200      301      810 
    1359     1789     2259     2613     2835     3113     3128     2674 
    2233     2011     1711     1364     1359     1753     2127     2333 
    2458     2266     1848     1604     1466     1414     1647     2032 
    2346     2544     2625     2555     2348     2197     2198     2162 
    2086     2135     2157     1979     1657     1263     1032     1208 
    1577     1903     2361     2964     3394     3545     3450     3082 
    2608     2265     2078     2033     2157     2367     2504     2503 
    2429     2382     2364     2295     2109     1866     1726     1779 
    1898     1887     1859     2081     2437     2672     2834     3047 
    3188     3124     2924     2675     2544     2592     2530     2402 
    2498     2616     2633     2699     2710     2623     2565     2514 
    2467     2486     2483     2352     2104     1758     1393     1137 
    1061     1215     1538     1830     1949     1895     1891     2107 
    2343     2379     2322     2281     2091     1708     1409     1422 
    1752     2313     2859     3130     3142     2930     2507     2093 
    1767     1517     1523     1773     2068     2268     2303     2273 
    2160     1901     1842     2038     2042     1874     1776     1575 
    1294     1206     1272     1498     1984     2528     2974     3240 
    3109     2708     2455     2373     2223     2009     1867     1723 
    1516     1426     1543     1730     1891     2053     2276     2533 
    2742     2812     2665     2510     2521     2375     2106     2211 
    2528     2647     2692     2687     2501     2314     2232     2106 
    1892     1678     1610     1668     1697     1827     2058     2056 
    1879     1789     1737     1686     1690     1708     1755     1868 
    1956     2035     2181     2296     2440     2635     2536     2190 
    1991     1863     1767     1926     2160     2231     2190     2025 
    1856     1839     1817     1733     1709     1791     2032     2310 
    2446     2536     2652     2759     2834     2797     2686     2607 
    2527     2426     2296     2054     1790     1691     1638     1562 
    1625     1680     1583     1583     1733     1944     2279     2614 
    2771     2828     2861     2820     2660     2395     2141     1945 
    1634     1240     1065     1159     1437     1823     2103     2290 
    2406     2269     2139     2258     2371     2506     2793     2964 
    2904     2739     2520     2320     2166     2003     1893     1913 
    2044     2137     2120     2183     2231     2012     1787     1745 
    1678     1543     1440     1390     1402     1586     1939     2108 
    1931     1683     1443     1171     1115     1345     1607     1783 
    1938     2152     2358     2375     2295     2346     2461     2555 
    2625     2501     2145     1777     1560     1562     1723     1883 
    2056     2390     2790     2899     2694     2582     2673     2726 
    2751     2845     2887     2820     2716     2552     2361     2317 
    2475     2810     3269     3612     3666     3415     2831     2094 
    1515     1283     1429     1737     1947     1873     1433      972 
     920     1184     1539     2029     2605     3023     3204     3203 
    3002     2703     2499     2278     1917     1665     1626     1588 
    1513     1559     1751     1905     1971     1989     1793     1451 
    1208      967      828     1061     1560     2269     3036     3382 
    3306     3085     2712     2319     2056     1931     2029     2183 
    2220     2241     2100     1850     1797     1755     1696     1917 
    2187     2296     2381     2444     2528     2650     2738     2833 
    2796     2568     2319     1963     1550     1346     1332     1509 
    1909     2348     2740     2967     2830     2445     2004     1616 
    1396     1361     1580     2040     2435     2689     2861     2722 
    2327     1995     1717     1547     1558     1519     1484     1655 
    1892     2139     2374     2433     2418     2440     2353     2216 
    2171     2170     2243     2447     2624     2598     2443     2267 
    1979     1635     1458     1424     1420     1448     1504     1674 
    2009     2301     2404     2401     2373     2377     2357     2266 
    2268     2409     2664     2969     3050     2907     2694     2306 
    1841     1522     1353     1460     1885     2288     2505     2623 
    2570     2330     2084     1903     1721     1555     1485     1416 
    1327     1464     1823     2149     2473     2806     2844     2513 
    2135     1837     1507     1286     1383     1594     1722     1925 
    2204     2382     2474     2515     2397     2102     1738     1324 
     955      955     1369     1928     2501     2907     2947     2710 
    2333     1914     1630     1626     2006     2581     2923     3021 
    3044     2893     2626     2419     2262     2154     2046     1919 
    1939     2044     2017     1974     2091     2391     2838     3239 
    3402     3280     2944     2617     2395     2236     2139     1952 
    1671     1522     1432     1424     1760     2329     2890     3243 
    3169     2798     2359     1907     1691     1921     2292     2451 
    2486     2568     2631     2553     2374     2198     1917     1458 
    1105     1055     1243     1670     2318     2983     3388     3359 
    2903     2178     1485     1064      866      810      996     1356 
    1731     2205     2645     2729     2580     2359     1995     1669 
    1553     1503     1444     1437     1497     1576     1666     1874 
    2141     2328     2597     2877     2736     2299     1913     1507 
    1132      915      811      900     1204     1611     2024     2356 
    2630     2823     2790     2584     2333     2101     2007     1972 
    1914     2025     2180     2135     2057     1969     1813     1746 
