Origin Time       2024/04/02 04:24:00
Lat.              40.133
Long.             141.712
Depth. (km)       71
Mag.              6.0
Station Code      TCGH11
Station Lat.      36.7084
Station Long.     139.7694
Station Height(m) 90
Record Time       2024/04/02 04:26:19
Sampling Freq(Hz) 100Hz
Duration Time(s)  120
Dir.              1
Scale Factor      2942(gal)/8224139
Max. Acc. (gal)   0.241
Last Correction   2024/04/02 04:26:19
Memo.             
[...]
  169026   169048   169067   169068   169086   169087   169060   169061 
  169060   168995   168974   169076   169153   169102   169032   169032 
  169067   169088   169074   169047   169088   169177   169156   169048 
  169074   169199   169169   169021   169017   169133   169134   169042 
  169047   169102   169074   169041   169074   169094   169074   169049 
  169025   169022   169056   169086   169074   169059   169099   169136 
  169080   169006   169034   169110   169106   169024   168976   169028 
  169122   169161   169101   169010   169002   169041   169034   169030 
  169092   169137   169105   169079   169074   169013   168971   169051 
  169117   169075   169060   169128   169133   169063   169063   169109 
  169072   169036   169098   169133   169075   169052   169095   169109 
  169117   169179   169199   169134   169105   169122   169074   169003 
  169044   169123   169083   168990   169009   169076   169079   169079 
  169125   169123   169078   169094   169133   169113   169117   169199 
  169258   169227   169175   169159   169145   169103   169087   169109 
  169121   169129   169148   169129   169083   169088   169146   169199 
  169213   169190   169159   169146   169155   169190   169221   169203 
  169169   169149   169114   169071   169075   169117   169129   169086 
  169025   168983   168975   168993   168966   168871   168833   168916 
  168980   168936   168879   168907   168945   168933   168968   169067 
  169079   168987   168934   168956   168974   168997   169033   168984 
  168885   168905   169002   168982   168880   168872   168897   168822 
  168785   168882   168918   168855   168895   168995   168955   168870 
  168917   168984   168949   168926   169010   169069   169037   169044 
  169107   169106   169065   169096   169152   169157   169148   169140 
  169105   169083   169111   169146   169150   169140   169132   169118 
  169126   169179   169248   169277   169242   169195   169191   169215 
  169244   169271   169273   169231   169161   169123   169144   169175 
  169187   169184   169171   169163   169141   169071   169007   169032 
  169105   169149   169153   169123   169082   169074   169105   169121 
  169079   169029   169033   169047   169025   169033   169059   169003 
  168948   169036   169119   169056   169029   169114   169117   169036 
  169075   169171   169128   169065   169146   169192   169098   169088 
  169203   169198   169075   169042   169087   169086   169074   169095 
  169069   169007   169015   169044   169003   168987   169067   169099 
  169018   168976   169038   169094   169080   169061   169078   169099 
  169092   169048   168995   168980   169003   169029   169071   169094 
  169029   168959   168983   169014   168979   168978   169036   169029 
  168974   169007   169067   169018   168960   168998   169030   169006 
  169006   169011   168959   168933   168978   168983   168926   168940 
  169006   168987   168929   168945   168974   168939   168917   168953 
  168968   168924   168898   168930   168974   168994   169002   169029 
  169075   169090   169055   169044   169090   169113   169088   169078 
  169091   169090   169064   169033   169017   169030   169076   169123 
  169114   169071   169101   169214   169285   169260   169233   169275 
  169303   169264   169237   169272   169302   169298   169315   169318 
  169237   169163   169179   169195   169160   169168   169238   169275 
  169256   169209   169133   169076   169099   169128   169095   169103 
  169188   169214   169137   169068   169047   169034   169055   169115 
  169114   169038   169015   169056   169042   168979   168945   168949 
  168988   169049   169047   168953   168902   168956   168982   168913 
  168894   168960   168955   168867   168837   168858   168863   168901 
  168966   168956   168907   168909   168925   168936   168979   168988 
  168936   168940   169017   169033   168959   168920   168966   169029 
  169075   169094   169052   168983   168966   168986   168993   169001 
  169029   169040   168995   168971   169030   169107   169128   169123 
  169129   169128   169129   169140   169119   169065   169025   169049 
  169114   169159   169168   169146   169092   169061   169118   169194 
  169163   169087   169117   169182   169134   169057   169057   169083 
  169072   169049   169063   169111   169149   169145   169123   169148 
  169209   169210   169157   169141   169123   169056   169045   169107 
  169082   168974   168975   169075   169088   169014   168990   169011 
  168997   168995   169052   169059   168997   168994   169038   169045 
  169074   169130   169083   168966   168979   169082   169063   168978 
  169025   169118   169092   169051   169136   169236   169223   169167 
  169121   169048   169021   169103   169133   169010   168955   169078 
  169123   169002   168964   169052   169047   168957   168982   169079 
  169078   169014   169037   169123   169171   169149   169103   169117 
  169194   169217   169128   169028   169021   169061   169075   169064 
  169063   169072   169075   169051   169006   168990   169055   169153 
  169167   169101   169090   169150   169138   169029   168975   169021 
  169055   169038   169042   169047   169013   169026   169113   169111 
  168997   168941   168957   168925   168912   168999   169055   169020 
  169026   169101   169121   169067   169048   169080   169067   169018 
  169033   169084   169088   169061   169068   169106   169160   169213 
  169210   169136   169060   169060   169099   169092   169079   169103 
  169071   168956   168932   169030   169059   168990   168978   169024 
  169025   169013   169038   169007   168905   168907   169018   169020 
  168899   168868   168953   169014   169020   169013   168993   168982 
  169015   169033   168995   169001   169059   169038   168940   168903 
  168947   168972   168976   169001   169001   168979   169024   169117 
  169119   169047   169068   169163   169149   169079   169105   169165 
  169165   169156   169136   169028   168928   168966   169038   168984 
  168893   168925   169015   169022   168995   169063   169164   169161 
  169113   169157   169240   169219   169169   169221   169240   169103 
  169010   169109   169198   169119   169036   169084   169129   169065 
  169007   169005   168978   168972   169044   169072   169018   169002 
  169041   169052   169040   169059   169107   169150   169165   169136 
  169082   169064   169098   169106   169059   169021   169024   169037 
  169034   169033   169060   169080   169048   168995   168988   169022 
  169014   168978   168994   169013   168983   169006   169110   169182 
  169142   169068   169084   169183   169252   169233   169165   169132 
  169190   169288   169327   169299   169285   169298   169252   169129 
  169041   169063   169115   169115   169107   169148   169191   169187 
  169180   169206   169226   169234   169271   169318   169335   169299 
  169231   169214   169237   169215   169137   169074   169071   169068 
  169026   169018   169048   169053   169030   169024   169036   169015 
  168990   169025   169042   168968   168913   168951   168986   168956 
  168955   169042   169106   169055   168976   168988   169057   169088 
  169048   168967   168932   168970   169005   168999   168998   169041 
  169121   169155   169136   169157   169182   169129   169082   169117 
  169171   169171   169126   169098   169142   169252   169338   169349 
  169327   169327   169323   169258   169172   169168   169227   169241 
  169183   169145   169190   169241   169207   169117   169059   169083 
  169129   169098   168999   168929   168933   168995   169037   169033 
  169064   169102   169042   168971   169009   169068   169033   168968 
  168971   168987   168964   168961   169002   168980   168855   168758 
  168777   168813   168775   168731   168721   168697   168687   168743 
  168783   168772   168808   168894   168928   168929   168972   169006 
  168974   168984   169102   169179   169150   169118   169095   169028 
  168968   168980   169005   168982   168929   168886   168856   168848 
  168906   168998   169041   169037   169057   169132   169209   169230 
  169236   169248   169230   169211   169229   169231   169219   169237 
  169206   169080   169001   169060   169140   169126   169055   168988 
  168952   168945   168921   168871   168890   168976   169003   168980 
  169020   169098   169119   169072   169033   169032   169022   169009 
  169024   169052   169079   169092   169057   169021   169065   169148 
  169159   169125   169172   169268   169252   169150   169144   169204 
  169179   169101   169101   169159   169159   169091   169051   169061 
  169063   169067   169107   169122   169060   168955   168897   168953 
  169068   169122   169105   169071   169069   169110   169130   169067 
  168952   168907   169001   169103   169101   169075   169041   168905 
  168799   168891   169014   168967   168872   168933   169059   169048 
  168982   169011   168995   168840   168799   168980   169092   169029 
  169040   169168   169223   169250   169360   169385   169231   169101 
  169099   169087   169007   168975   169034   169096   169125   169199 
  169326   169368   169273   169169   169137   169142   169191   169288 
  169333   169283   169295   169398   169371   169176   169052   169049 
  169009   168964   169102   169306   169292   169163   169207   169303 
  169207   169090   169155   169217   169101   169002   169095   169180 
  169094   169053   169187   169254   169155   169105   169140   169106 
  169037   169013   168976   168953   169017   169098   169136   169182 
  169225   169177   169060   169005   169014   168974   168910   168913 
  168925   168887   168872   168910   168917   168883   168886   168921 
  168893   168812   168782   168795   168791   168793   168824   168858 
  168913   168998   169010   168891   168758   168724   168741   168767 
  168858   168949   168914   168828   168845   168895   168837   168754 
  168747   168767   168791   168813   168794   168783   168829   168848 
  168786   168762   168859   168972   168995   168953   168920   168959 
  169065   169146   169149   169152   169227   169276   169167   168999 
  168968   169055   169118   169138   169160   169163   169180   169258 
  169299   169260   169233   169218   169176   169187   169290   169354 
  169304   169276   169338   169356   169273   169221   169246   169271 
  169261   169283   169350   169365   169299   169231   169206   169207 
  169179   169076   168991   169033   169109   169075   169015   169064 
  169129   169069   168993   169056   169148   169095   168971   168924 
  168949   168988   169056   169114   169030   168853   168821   168937 
  168952   168874   168918   168974   168839   168723   168825   168903 
  168777   168713   168876   168983   168878   168799   168878   168929 
  168862   168870   169048   169165   169068   168974   169047   169117 
  169095   169088   169075   169015   169033   169142   169176   169107 
  169065   169075   169071   169083   169149   169188   169164   169150 
  169172   169190   169211   169227   169183   169084   169048   169134 
  169257   169314   169283   169246   169296   169385   169445   169489 
  169479   169379   169319   169348   169338   169327   169454   169566 
  169473   169354   169345   169227   168995   168982   169173   169229 
  169167   169267   169427   169375   169246   169283   169348   169315 
  169354   169441   169362   169241   169315   169427   169358   169269 
  169338   169433   169429   169373   169244   169013   168871   168934 
  168983   168885   168831   168894   168872   168710   168623   168720 
  168813   168820   168895   169020   168987   168852   168858   168982 
  168999   168940   168982   169053   169010   168964   168999   168995 
  168949   168998   169064   168990   168891   168974   169069   168940 
  168768   168778   168837   168867   168968   169088   169072   168926 
  168813   168787   168814   168934   169038   168933   168790   168847 
  168953   168959   169011   169184   169310   169277   169164   169084 
  169038   168966   168883   168874   168951   169053   169119   169133 
  169113   169138   169246   169302   169214   169114   169122   169183 
  169218   169219   169141   168947   168831   169010   169281   169319 
  169238   169246   169236   169111   168951   168843   168833   168914 
  169015   169063   169067   169047   168967   168889   168939   169075 
  169148   169175   169263   169315   169184   169040   169084   169107 
  168971   168956   169144   169202   169068   169060   169260   169387 
  169312   169221   169160   168964   168754   168821   169041   169067 
  168948   168972   169106   169133   169092   169072   169020   169021 
  169133   169146   169003   168990   169145   169103   168817   168737 
  168974   169157   169192   169260   169290   169140   168968   168943 
  168922   168766   168625   168627   168608   168494   168454   168540 
  168631   168728   168925   169126   169128   168936   168772   168768 
  168828   168826   168781   168767   168824   168907   168934   168951 
  169061   169155   169049   168859   168852   168978   168953   168817 
  168868   169078   169130   168993   168895   168916   169020   169191 
  169295   169198   169056   169075   169150   169128   169106   169198 
  169234   169118   169107   169334   169503   169384   169199   169182 
  169177   169005   168817   168822   168890   168806   168729   168890 
  169074   169011   168929   169086   169254   169227   169227   169356 
  169372   169290   169380   169523   169457   169393   169580   169739 
  169609   169435   169453   169477   169331   169183   169231   169391 
  169433   169325   169283   169369   169404   169375   169373   169306 
  169086   168860   168829   168983   169140   169211   169213   169138 
  169076   169125   169144   168997   168862   168903   168990   168979 
  168939   168961   168986   168929   168828   168752   168778   168912 
  168967   168841   168700   168714   168843   168849   168658   168509 
  168515   168532   168550   168658   168767   168716   168605   168689 
  168920   169034   169010   169017   169103   169180   169198   169195 
  169234   169292   169269   169164   169045   168922   168829   168806 
  168867   169051   169238   169164   168883   168744   168828   168916 
  168921   168998   169180   169265   169176   169064   169030   169063 
  169137   169223   169248   169222   169284   169407   169360   169175 
  169191   169442   169553   169416   169333   169354   169217   169003 
  169014   169086   168980   168959   169192   169356   169203   168955 
  168890   168914   168893   168967   169136   169159   169145   169312 
  169375   169107   168939   169223   169549   169454   169215   169237 
  169329   169195   169052   169167   169350   169402   169454   169512 
  169414   169221   169098   169011   168885   168828   168980   169203 
  169240   169078   168855   168694   168698   168785   168764   168691 
  168745   168905   169032   169030   168866   168655   168647   168844 
  168951   168903   168951   169123   169145   168953   168810   168781 
  168716   168674   168748   168833   168874   168956   169101   169137 
  168986   168897   168988   169032   168993   169114   169345   169383 
  169258   169217   169206   169155   169215   169346   169338   169252 
  169284   169345   169169   168872   168852   169056   169183   169280 
  169346   169203   169002   168995   169078   169061   169015   169061 
  169096   169005   168940   169061   169233   169280   169253   169222 
  169160   169091   169117   169263   169352   169241   169071   168963 
  168862   168799   168910   169149   169335   169414   169396   169267 
  169168   169283   169460   169420   169230   169179   169284   169264 
  169092   169030   169061   169007   168997   169176   169350   169338 
  169317   169364   169229   168972   168963   169132   169190   169191 
  169258   169260   169096   168971   169020   169057   168995   168879 
  168656   168455   168512   168686   168713   168701   168812   168887 
  168844   168805   168760   168694   168737   168831   168798   168741 
  168835   168909   168794   168736   168894   168952   168777   168740 
  168961   169034   168947   169114   169337   169167   168899   168944 
  169051   169006   169042   169169   169128   169024   169091   169159 
  169068   169013   169063   169059   169064   169214   169349   169277 
  169126   169177   169384   169422   169283   169203   169210   169223 
  169240   169191   169018   168880   168933   169024   168988   168916 
  168847   168743   168747   168936   169086   169049   168995   169028 
  168991   168825   168733   168813   168894   168912   168976   169037 
  169015   169036   169123   169153   169119   169075   169083   169156 
  169119   168991   169065   169238   169145   169002   169175   169361 
  169219   169044   169125   169265   169291   169292   169298   169222 
  169125   169203   169422   169558   169561   169452   169231   169095 
  169250   169524   169578   169427   169377   169520   169589   169473 
  169385   169404   169415   169423   169439   169371   169203   169099 
  169167   169240   169188   169137   169146   169091   168937   168840 
  168880   168880   168755   168760   168987   169109   169026   169002 
  169044   168987   168941   169007   168998   168886   168879   168961 
  168983   168936   168851   168783   168860   169022   169011   168851 
  168868   169024   168963   168774   168805   168990   169060   169080 
  169167   169113   168856   168721   168809   168813   168658   168625 
  168797   168929   168872   168756   168733   168812   168889   168898 
  168922   169015   169076   169037   169014   169118   169240   169244 
  169177   169057   168912   168907   169059   169222   169253   169053 
  168790   168797   169048   169121   168905   168804   168939   168968 
  168863   168886   168966   168863   168745   168902   169133   169134 
  169094   169204   169261   169169   169090   169084   169083   169052 
  169040   169096   169188   169254   169306   169342   169268   169142 
  169192   169364   169383   169263   169183   169082   168918   168914 
  169065   169094   169032   169088   169168   169074   168921   168966 
  169140   169191   169184   169260   169200   168936   168855   169086 
  169207   169036   168867   168851   168790   168631   168635   168882 
  169075   169059   169057   169142   169049   168798   168735   168874 
  168974   169022   169096   169117   169079   169125   169210   169122 
  168982   169107   169360   169376   169299   169380   169350   169101 
  169038   169202   169226   169153   169253   169371   169248   169103 
  169171   169248   169186   169123   169118   169109   169117   169136 
  169075   168988   169024   169117   169134   169115   169118   169059 
  168898   168820   168926   169024   168986   169007   169202   169348 
  169268   169030   168818   168795   168903   168953   168957   169006 
  169001   168837   168697   168799   168944   168871   168804   168959 
  169121   169106   169041   169021   168988   169013   169165   169253 
  169184   169182   169280   169240   169107   169186   169356   169260 
  169057   169113   169210   169063   168956   169071   169063   168862 
  168928   169287   169388   169180   169145   169280   169180   168929 
  168940   169146   169226   169227   169260   169198   169029   168945 
