Origin Time       2024/04/02 04:24:00
Lat.              40.133
Long.             141.712
Depth. (km)       71
Mag.              6.0
Station Code      TCGH11
Station Lat.      36.7084
Station Long.     139.7694
Station Height(m) 290
Record Time       2024/04/02 04:26:19
Sampling Freq(Hz) 100Hz
Duration Time(s)  120
Dir.              6
Scale Factor      7845(gal)/8223790
Max. Acc. (gal)   0.883
Last Correction   2024/04/02 04:26:19
Memo.             
[...]
    -615     -459     -504     -546     -452     -506     -664     -606 
    -406     -314     -338     -425     -612     -816     -756     -459 
    -303     -378     -464     -531     -629     -604     -446     -349 
    -328     -338     -438     -591     -679     -638     -522     -484 
    -498     -394     -313     -426     -552     -631     -783     -778 
    -503     -298     -280     -325     -471     -637     -589     -417 
    -399     -519     -533     -427     -473     -664     -645     -449 
    -398     -453     -521     -646     -679     -544     -369     -284 
    -394     -596     -664     -637     -635     -549     -317     -234 
    -469     -648     -546     -395     -363     -484     -648     -633 
    -479     -368     -338     -371     -473     -569     -561     -519 
    -522     -500     -442     -398     -410     -480     -441     -319 
    -403     -603     -568     -368     -338     -449     -449     -463 
    -638     -723     -575     -418     -418     -429     -334     -303 
    -405     -510     -616     -691     -633     -502     -368     -280 
    -332     -452     -526     -600     -708     -712     -580     -459 
    -396     -400     -473     -533     -635     -761     -704     -504 
    -368     -341     -346     -406     -587     -726     -673     -552 
    -411     -282     -352     -589     -669     -545     -441     -371 
    -364     -603     -861     -757     -461     -292     -256     -353 
    -579     -746     -747     -646     -503     -409     -405     -392 
    -407     -537     -622     -577     -521     -479     -436     -415 
    -383     -361     -383     -457     -606     -657     -503     -369 
    -376     -454     -577     -664     -653     -573     -503     -525 
    -546     -460     -415     -490     -496     -418     -406     -426 
    -445     -537     -625     -549     -349     -232     -292     -425 
    -507     -552     -548     -438     -356     -423     -481     -494 
    -585     -653     -600     -537     -546     -576     -517     -467 
    -604     -731     -645     -522     -438     -319     -270     -357 
    -487     -583     -635     -587     -444     -382     -433     -498 
    -568     -531     -406     -429     -517     -522     -556     -594 
    -540     -464     -444     -473     -535     -562     -467     -364 
    -422     -527     -553     -577     -619     -591     -494     -429 
    -457     -483     -472     -556     -656     -552     -363     -322 
    -379     -453     -568     -629     -577     -518     -535     -558 
    -471     -378     -419     -503     -573     -645     -629     -540 
    -472     -445     -441     -465     -579     -714     -669     -488 
    -426     -525     -596     -569     -544     -484     -398     -446 
    -534     -552     -612     -600     -398     -216     -236     -406 
    -561     -567     -463     -361     -287     -276     -419     -592 
    -554     -376     -286     -311     -360     -444     -600     -662 
    -527     -380     -348     -396     -488     -557     -557     -499 
    -440     -413     -322     -288     -467     -549     -446     -414 
    -375     -340     -498     -661     -627     -506     -410     -340 
    -342     -490     -645     -615     -484     -432     -499     -650 
    -750     -712     -642     -568     -442     -402     -531     -672 
    -646     -499     -490     -623     -594     -438     -421     -467 
    -457     -502     -560     -446     -317     -453     -634     -548 
    -400     -403     -487     -591     -676     -747     -719     -467 
    -288     -441     -641     -708     -739     -687     -515     -388 
    -429     -526     -549     -581     -631     -553     -402     -373 
    -475     -523     -473     -499     -561     -471     -375     -464 
    -577     -610     -612     -499     -259     -108     -209     -492 
    -715     -708     -553     -444     -433     -457     -522     -639 
    -699     -589     -388     -307     -411     -567     -660     -654 
    -535     -369     -302     -415     -560     -542     -467     -477 
    -450     -407     -500     -572     -560     -630     -661     -499 
    -310     -270     -361     -468     -537     -541     -460     -372 
    -369     -473     -635     -687     -583     -468     -384     -392 
    -577     -764     -739     -554     -356     -301     -472     -668 
    -699     -642     -521     -415     -456     -449     -340     -386 
    -530     -527     -426     -419     -522     -527     -334     -230 
    -386     -498     -490     -621     -761     -645     -437     -349 
    -342     -378     -503     -633     -626     -508     -445     -487 
    -473     -387     -479     -654     -571     -365     -356     -465 
    -510     -519     -565     -521     -334     -240     -333     -471 
    -591     -679     -634     -422     -282     -454     -654     -588 
    -530     -599     -519     -357     -405     -629     -754     -649 
    -467     -364     -342     -434     -607     -661     -523     -367 
    -329     -346     -382     -506     -630     -569     -356     -274 
    -508     -743     -689     -572     -496     -352     -286     -399 
    -531     -542     -504     -508     -508     -529     -581     -546 
    -459     -452     -546     -634     -546     -427     -488     -527 
    -479     -560     -652     -562     -496     -575     -553     -402 
    -410     -592     -668     -556     -492     -554     -537     -459 
    -433     -441     -558     -670     -572     -437     -410     -453 
    -614     -730     -638     -542     -546     -556     -546     -511 
    -522     -552     -476     -433     -481     -487     -541     -684 
    -706     -522     -309     -294     -456     -584     -603     -585 
    -526     -403     -359     -419     -413     -422     -606     -715 
    -572     -469     -544     -541     -464     -513     -540     -452 
    -454     -568     -577     -418     -307     -382     -467     -464 
    -450     -467     -529     -546     -490     -448     -390     -417 
    -576     -614     -527     -540     -621     -631     -550     -471 
    -440     -406     -411     -496     -534     -490     -506     -569 
    -496     -345     -346     -500     -622     -554     -376     -330 
    -413     -427     -383     -461     -649     -706     -600     -477 
    -418     -461     -498     -476     -530     -614     -619     -511 
    -310     -191     -214     -314     -472     -556     -465     -306 
    -263     -386     -480     -448     -407     -413     -448     -459 
    -444     -490     -519     -372     -209     -311     -580     -756 
    -805     -707     -492     -386     -430     -469     -514     -588 
    -558     -456     -438     -453     -448     -446     -437     -473 
    -565     -611     -573     -486     -414     -369     -311     -338 
    -472     -552     -579     -568     -504     -558     -610     -436 
    -317     -378     -337     -295     -492     -665     -556     -442 
    -541     -600     -507     -477     -469     -369     -305     -352 
    -508     -638     -592     -522     -479     -398     -427     -584 
    -652     -561     -452     -418     -473     -627     -687     -549 
    -508     -623     -637     -575     -530     -473     -445     -540 
    -704     -700     -473     -288     -307     -448     -569     -638 
    -683     -649     -585     -679     -808     -681     -487     -488 
    -477     -396     -492     -691     -692     -490     -318     -282 
    -352     -480     -535     -540     -594     -569     -472     -476 
    -486     -459     -471     -410     -299     -313     -457     -641 
    -707     -665     -697     -691     -545     -430     -399     -422 
    -444     -396     -378     -444     -492     -491     -549     -699 
    -784     -715     -525     -278     -175     -297     -453     -567 
    -691     -780     -754     -622     -473     -355     -315     -430 
    -565     -552     -392     -126       28     -132     -444     -664 
    -702     -633     -545     -383     -271     -430     -639     -656 
    -641     -589     -388     -301     -440     -556     -604     -637 
    -584     -471     -359     -290     -299     -340     -380     -440 
    -453     -432     -476     -535     -610     -715     -614     -319 
    -195     -301     -413     -472     -519     -504     -432     -417 
    -494     -583     -612     -541     -357     -175     -221     -506 
    -731     -751     -729     -645     -390     -282     -548     -773 
    -664     -496     -490     -495     -430     -468     -596     -594 
    -518     -508     -445     -348     -426     -558     -476     -338 
    -472     -712     -681     -487     -441     -541     -639     -629 
    -494     -379     -391     -504     -607     -577     -440     -326 
    -340     -526     -761     -788     -557     -315     -206     -163 
    -225     -407     -540     -510     -376     -287     -394     -562 
    -526     -378     -321     -363     -471     -579     -606     -544 
    -400     -305     -367     -477     -592     -707     -696     -596 
    -434     -183     -133     -407     -695     -873     -963     -830 
    -507     -297     -280     -330     -488     -662     -565     -341 
    -355     -584     -765     -753     -612     -454     -406     -542 
    -639     -588     -526     -427     -341     -444     -634     -749 
    -804     -785     -572     -305     -267     -303     -297     -403 
    -456     -409     -477     -541     -575     -675     -637     -468 
    -449     -576     -643     -535     -363     -280     -272     -384 
    -616     -684     -577     -603     -606     -367     -244     -436 
    -631     -648     -565     -541     -591     -571     -475     -459 
    -595     -776     -843     -762     -583     -419     -382     -414 
    -453     -552     -727     -842     -743     -468     -220     -209 
    -452     -716     -787     -679     -457     -211     -179     -387 
    -596     -689     -664     -481     -236     -155     -322     -534 
    -579     -473     -267      -72     -121     -365     -602     -731 
    -665     -525     -510     -491     -371     -388     -600     -742 
    -787     -865     -746     -324      -99     -311     -580     -760 
    -873     -712     -425     -344     -378     -410     -510     -646 
    -727     -681     -614     -661     -638     -378     -184     -341 
    -572     -576     -549     -583     -507     -437     -491     -523 
    -504     -500     -504     -500     -479     -460     -433     -402 
    -452     -540     -616     -697     -664     -533     -479     -454 
    -368     -257     -202     -207     -197     -332     -623     -681 
    -548     -449     -276     -170     -349     -583     -562     -303 
     -55       -1     -225     -666    -1024    -1066     -820     -479 
    -197      -62     -205     -445     -413     -319     -452     -622 
    -672     -556     -425     -537     -660     -592     -584     -627 
    -558     -452     -395     -414     -463     -480     -548     -697 
    -789     -715     -487     -170       48      -83     -504     -783 
    -699     -515     -465     -530     -639     -712     -753     -716 
    -460     -249     -371     -557     -587     -504     -376     -372 
    -527     -692     -830     -834     -569     -301     -295     -348 
    -345     -386     -355     -279     -429     -729     -877     -800 
    -625     -502     -444     -375     -314     -340     -477     -741 
    -955     -819     -484     -345     -314     -268     -432     -611 
    -511     -440     -548     -619     -625     -550     -422     -330 
    -282     -365     -611     -812     -810     -657     -517     -446 
    -433     -507     -579     -525     -383     -261     -292     -390 
    -359     -460     -804     -905     -700     -510     -275       -1 
     -10     -355     -652     -635     -475     -367     -295     -313 
    -483     -684     -745     -646     -521     -359     -163     -237 
    -510     -562     -442     -346     -276     -380     -666     -803 
    -696     -475     -162      -60     -349     -527     -427     -452 
    -562     -530     -500     -569     -672     -784     -695     -306 
       9       -2     -263     -641     -884     -822     -637     -594 
    -712     -785     -689     -514     -363     -295     -379     -649 
    -992    -1131     -934     -572     -271     -156     -253     -468 
    -630     -580     -398     -341     -382     -371     -432     -629 
    -735     -611     -471     -496     -531     -484     -464     -496 
    -533     -557     -579     -612     -604     -514     -383     -249 
    -233     -450     -673     -572     -288     -194     -318     -519 
    -799    -1090    -1129     -785     -334      -99     -126     -351 
    -579     -576     -459     -475     -427     -162     -117     -453 
    -697     -675     -583     -341       28       45     -365     -803 
   -1105    -1105     -714     -407     -494     -720     -935    -1051 
    -812     -279       60      -85     -481     -757     -757     -460 
     -62       95     -128     -525     -700     -611     -503     -315 
    -117     -232     -481     -666     -919     -939     -472      -20 
      35     -137     -386     -649     -773     -687     -517     -386 
    -319     -346     -426     -430     -287     -145     -280     -571 
    -618     -473     -368     -240     -118     -199     -432     -589 
    -685     -738     -606     -513     -656     -608     -240       18 
      41     -197     -818    -1422    -1417     -912     -473     -282 
    -292     -630     -978     -764     -311     -274     -463     -545 
    -672     -711     -390     -164     -409     -687     -804     -899 
    -777     -400     -176     -287     -463     -558     -716     -862 
    -789     -621     -587     -621     -588     -542     -542     -538 
    -449     -383     -557     -853     -943     -827     -681     -515 
    -319     -260     -382     -413     -341     -514     -807     -784 
    -529     -437     -504     -394     -183     -234     -398     -442 
    -557     -676     -514     -268     -313     -469     -425     -406 
    -531     -492     -359     -321     -198      -99     -252     -433 
    -530     -569     -433     -286     -315     -276     -106     -225 
    -652     -797     -535     -317     -278     -247     -305     -552 
    -739     -719     -710     -760     -695     -612     -658     -656 
    -498     -332     -302     -363     -303     -216     -330     -384 
    -292     -461     -716     -611     -504     -760     -882     -549 
    -222     -209     -352     -691    -1143    -1154     -684     -305 
    -183     -183     -387     -693     -746     -522     -264     -117 
    -209     -549     -837     -760     -475     -365     -392     -426 
    -579     -700     -619     -527     -457     -360     -468     -841 
   -1089     -896     -446     -160     -237     -552     -731     -567 
    -330     -283     -407     -665     -926     -993     -841     -511 
    -145       20      -47     -201     -382     -594     -758     -774 
    -634     -371      -78       32     -109     -357     -630     -838 
    -766     -434     -238     -448     -793     -857     -666     -545 
    -541     -514     -580     -777     -739     -417     -295     -488 
    -614     -606     -687     -634     -168      148     -149     -525 
    -634     -685     -700     -695     -602     -364     -336     -538 
    -585     -592     -737     -792     -706     -575     -423     -402 
    -513     -503     -445     -546     -658     -661     -529     -260 
    -170     -349     -441     -382     -351     -406     -515     -553 
    -492     -398     -292     -319     -487     -580     -598     -526 
    -268     -125     -278     -386     -446     -633     -650     -526 
    -665     -812     -518      -58      130       52     -193     -596 
    -908     -781     -405     -217     -207     -301     -583     -769 
    -604     -480     -553     -471     -367     -479     -548     -508 
    -499     -561     -695     -747     -706     -643     -476     -301 
    -260     -348     -557     -795     -889     -758     -475     -245 
    -195     -330     -476     -471     -502     -633     -606     -446 
    -384     -463     -572     -553     -476     -480     -400     -282 
    -483     -816     -807     -562     -461     -527     -533     -396 
    -243     -211     -399     -687     -780     -638     -498     -463 
    -441     -415     -515     -716     -822     -814     -720     -507 
    -355     -363     -372     -433     -681     -877     -710     -349 
    -203     -319     -418     -429     -523     -630     -531     -351 
    -325     -427     -486     -396     -326     -422     -432     -325 
    -395     -500     -413     -341     -409     -456     -491     -658 
    -778     -630     -421     -297     -199     -263     -436     -556 
    -708     -792     -681     -579     -599     -621     -585     -562 
    -504     -313     -191     -302     -491     -670     -853     -913 
    -797     -691     -681     -615     -459     -422     -492     -382 
    -137     -118     -345     -553     -768    -1080    -1152     -818 
    -437     -275     -373     -619     -643     -368     -166     -197 
    -378     -677     -951     -930     -599     -302     -261     -291 
    -228     -272     -544     -696     -456     -187     -321     -646 
    -770     -734     -611     -315     -112     -274     -504     -463 
    -294     -201      -72       17     -164     -398     -484     -565 
    -608     -666     -849     -909     -683     -307       14       60 
    -206     -568     -846     -980     -908     -712     -557     -433 
    -341     -376     -538     -645     -517     -375     -483     -606 
    -612     -692     -729     -592     -441     -325     -326     -562 
    -816     -826     -608     -338     -287     -513     -692     -652 
    -553     -411     -252     -388     -735     -801     -576     -423 
    -446     -438     -295     -257     -507     -819     -888     -704 
    -392      -66       21     -114     -184     -313     -603     -722 
    -630     -541     -398     -210     -243     -444     -468     -440 
    -677     -853     -615     -318     -290     -382     -418     -506 
    -708     -816     -769     -699     -531     -256     -147     -279 
    -460     -568     -639     -768     -787     -530     -329     -380 
    -441     -459     -534     -550     -459     -433     -525     -623 
    -723     -784     -684     -537     -494     -457     -329     -233 
    -330     -518     -534     -410     -459     -639     -606     -453 
    -399     -336     -367     -587     -708     -634     -475     -302 
    -238     -294     -426     -625     -749     -747     -691     -581 
    -491     -457     -361     -328     -603     -909     -834     -594 
    -499     -421     -325     -371     -534     -672     -680     -630 
    -665     -606     -305     -167     -484     -827     -885     -897 
    -870     -514       -5      141      -86     -263     -383     -679 
    -789     -473     -224     -280     -359     -414     -515     -537 
    -507     -529     -535     -513     -473     -450     -608     -884 
    -930     -652     -310     -125     -156     -363     -549     -529 
    -433     -480     -580     -529     -392     -403     -483     -421 
