Origin Time       2024/04/02 04:24:00
Lat.              40.133
Long.             141.712
Depth. (km)       71
Mag.              6.0
Station Code      TCGH12
Station Lat.      36.6959
Station Long.     139.9842
Station Height(m) 162
Record Time       2024/04/02 04:25:33
Sampling Freq(Hz) 100Hz
Duration Time(s)  197
Dir.              4
Scale Factor      7845(gal)/8223790
Max. Acc. (gal)   2.138
Last Correction   2024/04/02 04:25:34
Memo.             
[...]
   16532    16633    16831    16999    17065    17023    16907    16771 
   16636    16502    16424    16440    16515    16614    16710    16771 
   16731    16576    16397    16290    16289    16401    16578    16752 
   16854    16843    16764    16686    16642    16644    16646    16630 
   16629    16652    16675    16690    16690    16657    16588    16511 
   16467    16480    16560    16676    16769    16776    16692    16563 
   16420    16318    16360    16555    16784    16958    17057    17058 
   16964    16814    16644    16488    16395    16389    16460    16556 
   16622    16645    16611    16541    16470    16410    16378    16387 
   16449    16592    16777    16906    16953    16904    16741    16532 
   16375    16345    16472    16686    16895    17030    17037    16945 
   16819    16692    16632    16699    16834    16954    17031    17043 
   16960    16798    16605    16432    16330    16349    16499    16696 
   16846    16899    16848    16727    16609    16552    16571    16638 
   16745    16907    17055    17132    17157    17099    16943    16775 
   16663    16625    16652    16702    16745    16746    16673    16569 
   16484    16414    16374    16406    16499    16587    16626    16652 
   16671    16646    16598    16561    16533    16525    16557    16621 
   16684    16706    16661    16564    16482    16480    16541    16611 
   16668    16700    16699    16652    16575    16544    16615    16753 
   16892    16991    16989    16897    16825    16776    16707    16659 
   16630    16594    16619    16757    16954    17138    17240    17216 
   17081    16906    16779    16769    16895    17080    17199    17185 
   17066    16926    16850    16850    16883    16904    16861    16777 
   16742    16750    16746    16725    16652    16513    16370    16279 
   16270    16366    16506    16594    16591    16506    16407    16394 
   16484    16622    16749    16815    16792    16711    16640    16633 
   16675    16706    16703    16684    16668    16673    16684    16671 
   16638    16595    16541    16517    16544    16584    16610    16629 
   16641    16640    16627    16605    16567    16530    16517    16545 
   16619    16713    16789    16842    16841    16775    16713    16695 
   16700    16730    16762    16749    16719    16742    16821    16897 
   16902    16821    16723    16698    16750    16822    16896    16953 
   16923    16842    16787    16748    16737    16769    16799    16798 
   16764    16730    16746    16831    16949    17037    17041    16968 
   16869    16803    16802    16833    16854    16848    16800    16746 
   16740    16781    16834    16843    16804    16764    16742    16730 
   16696    16623    16553    16518    16503    16514    16564    16649 
   16742    16808    16843    16841    16761    16603    16436    16337 
   16322    16366    16445    16544    16640    16691    16652    16544 
   16456    16429    16428    16432    16451    16436    16374    16329 
   16343    16380    16407    16413    16403    16395    16409    16455 
   16521    16602    16680    16713    16663    16548    16438    16406 
   16479    16615    16729    16754    16688    16588    16528    16509 
   16503    16524    16552    16583    16676    16814    16915    16972 
   16977    16896    16784    16733    16746    16829    16961    17041 
   17010    16891    16749    16652    16646    16748    16887    16980 
   17004    16953    16872    16834    16841    16881    16939    16953 
   16906    16839    16796    16816    16899    16983    17012    16996 
   16977    16980    16995    16977    16891    16761    16637    16579 
   16627    16733    16804    16795    16688    16513    16371    16362 
   16470    16629    16754    16761    16650    16490    16353    16302 
   16339    16418    16515    16614    16711    16796    16831    16788 
   16669    16506    16375    16355    16449    16609    16768    16856 
   16861    16822    16725    16572    16434    16366    16355    16395 
   16497    16640    16781    16877    16876    16773    16649    16572 
   16575    16696    16873    16957    16934    16868    16758    16672 
   16675    16704    16740    16794    16789    16727    16708    16754 
   16819    16861    16827    16722    16609    16541    16548    16602 
   16645    16645    16602    16553    16528    16530    16569    16649 
   16744    16834    16895    16865    16748    16632    16555    16507 
   16484    16499    16584    16735    16880    16956    16911    16753 
   16579    16488    16544    16762    17049    17240    17244    17084 
   16868    16696    16598    16559    16538    16514    16505    16528 
   16580    16648    16668    16607    16534    16511    16545    16644 
   16785    16889    16899    16835    16749    16665    16634    16687 
   16748    16742    16707    16667    16607    16571    16579    16580 
   16540    16478    16421    16390    16430    16545    16648    16673 
   16645    16609    16584    16594    16659    16748    16811    16853 
   16884    16904    16923    16949    16956    16899    16764    16617 
   16533    16537    16602    16673    16718    16748    16780    16825 
   16911    17019    17100    17151    17165    17142    17119    17111 
   17093    17030    16891    16698    16495    16349    16321    16418 
   16583    16713    16741    16672    16545    16433    16416    16510 
   16653    16791    16906    16991    17039    17042    16966    16802 
   16600    16429    16316    16268    16303    16382    16449    16487 
   16505    16505    16497    16511    16552    16615    16715    16834 
   16924    16942    16827    16610    16395    16233    16185    16294 
   16487    16664    16737    16645    16430    16190    15988    15885 
   15946    16173    16495    16833    17080    17154    17039    16777 
   16490    16314    16281    16335    16420    16498    16561    16634 
   16711    16748    16735    16684    16595    16530    16584    16740 
   16893    16987    16984    16888    16779    16703    16695    16816 
   17027    17215    17366    17447    17378    17176    16912    16640 
   16418    16349    16497    16802    17159    17452    17551    17401 
   17051    16611    16232    16046    16097    16357    16729    17066 
   17275    17348    17286    17147    17030    16938    16880    16902 
   16977    17080    17184    17226    17162    16965    16694    16460 
   16339    16407    16664    16983    17203    17196    16926    16503 
   16093    15853    15892    16160    16497    16777    16945    16973 
   16891    16768    16642    16536    16513    16602    16725    16783 
   16738    16626    16506    16426    16440    16568    16791    17047 
   17235    17297    17199    16918    16561    16276    16158    16254 
   16483    16734    16983    17174    17257    17269    17238    17143 
   16965    16692    16349    16028    15867    15974    16333    16831 
   17275    17470    17358    16989    16505    16113    15942    16000 
   16232    16532    16776    16868    16768    16551    16356    16270 
   16345    16548    16734    16810    16773    16646    16502    16407 
   16376    16436    16629    16933    17226    17363    17262    16954 
   16605    16353    16262    16333    16528    16765    16976    17091 
   17054    16866    16596    16312    16101    16065    16227    16549 
   16947    17265    17374    17236    16868    16406    16078    16019 
   16235    16609    16934    17077    17007    16772    16514    16325 
   16195    16154    16248    16457    16730    16997    17154    17134 
   16958    16722    16559    16545    16696    16989    17261    17317 
   17124    16771    16409    16182    16147    16297    16576    16883 
   17100    17147    17000    16704    16390    16205    16212    16414 
   16753    17058    17173    17084    16825    16452    16123    15981 
   16044    16274    16561    16738    16730    16582    16401    16293 
   16306    16426    16602    16737    16745    16648    16538    16467 
   16467    16590    16823    17074    17266    17383    17374    17182 
   16875    16590    16398    16303    16301    16344    16375    16402 
   16474    16607    16746    16802    16744    16561    16295    16110 
   16136    16340    16613    16850    16951    16830    16549    16271 
   16073    15990    16074    16275    16518    16760    16927    16969 
   16884    16729    16638    16668    16737    16760    16683    16505 
   16325    16286    16448    16740    17030    17257    17401    17412 
   17342    17342    17428    17535    17620    17608    17448    17172 
   16870    16654    16518    16407    16395    16579    16916    17292 
   17539    17493    17135    16578    16013    15676    15728    16166 
   16839    17512    17973    18126    17980    17589    17035    16429 
   15932    15653    15631    15915    16443    16991    17377    17505 
   17347    17012    16668    16421    16333    16429    16648    16896 
   17123    17253    17174    16880    16459    16070    15935    16113 
   16510    17031    17474    17626    17473    17107    16680    16345 
   16191    16268    16499    16695    16769    16742    16614    16447 
   16347    16376    16511    16656    16737    16713    16533    16171 
   15726    15458    15565    16050    16835    17683    18238    18319 
   17932    17180    16287    15498    15012    14976    15415    16220 
   17174    17941    18219    17949    17259    16351    15522    15075 
   15145    15688    16484    17219    17670    17740    17446    16983 
   16582    16339    16278    16394    16617    16821    16875    16744 
   16513    16318    16272    16402    16656    16919    17072    17065 
   16924    16741    16637    16696    16872    17003    17019    16951 
   16854    16794    16794    16800    16730    16553    16332    16183 
   16221    16461    16781    17045    17157    17100    16926    16676 
   16387    16159    16055    16033    16070    16171    16293    16397 
   16494    16576    16652    16776    16924    17041    17111    17077 
   16891    16638    16451    16372    16368    16397    16429    16429 
   16421    16471    16630    16873    17116    17290    17329    17188 
   16943    16668    16410    16297    16362    16511    16698    16897 
   17062    17184    17262    17282    17267    17239    17153    17008 
   16865    16726    16621    16641    16814    17088    17379    17599 
   17644    17454    17059    16575    16132    15827    15719    15813 
   16004    16124    16141    16143    16183    16309    16575    16916 
   17196    17363    17417    17340    17173    16999    16869    16794 
   16718    16606    16530    16538    16619    16762    16876    16853 
   16680    16406    16136    15981    16002    16208    16506    16791 
   17019    17145    17146    17037    16841    16600    16362    16201 
   16202    16416    16814    17223    17432    17390    17146    16800 
   16494    16309    16266    16339    16463    16572    16641    16688 
   16731    16754    16744    16700    16629    16572    16576    16596 
   16587    16576    16584    16607    16638    16675    16757    16872 
   16931    16915    16854    16731    16565    16463    16544    16816 
   17172    17493    17651    17490    17000    16359    15808    15527 
   15633    16125    16804    17385    17655    17550    17146    16614 
   16194    16035    16129    16426    16788    17037    17088    16902 
   16514    16097    15826    15790    16009    16426    16914    17307 
   17469    17392    17146    16804    16526    16501    16744    17158 
   17613    17901    17848    17446    16816    16150    15649    15519 
   15871    16561    17259    17676    17655    17176    16440    15808 
   15530    15615    15958    16434    16897    17223    17347    17184 
   16756    16216    15691    15342    15309    15595    16171    16885 
   17505    17890    17983    17799    17417    16931    16465    16075 
   15795    15726    15931    16339    16798    17132    17239    17095 
   16785    16533    16503    16610    16731    16835    16916    17011 
   17126    17176    17059    16757    16384    16106    16006    16116 
   16433    16831    17115    17215    17151    16907    16509    16082 
   15758    15603    15623    15807    16092    16366    16571    16696 
   16798    16989    17254    17431    17425    17196    16707    16077 
   15545    15275    15345    15782    16490    17266    17856    18034 
   17743    17069    16209    15499    15252    15477    15973    16568 
   17091    17358    17332    17167    17031    17007    17078    17139 
   17089    16884    16551    16227    16086    16166    16371    16634 
   16895    17037    17054    17068    17095    17082    17074    17119 
   17231    17389    17528    17609    17583    17396    17104    16854 
   16753    16791    16906    16970    16822    16492    16163    15955 
   15971    16222    16565    16903    17207    17400    17451    17386 
   17244    17088    16937    16792    16708    16721    16866    17132 
   17363    17424    17335    17167    16970    16764    16567    16425 
   16390    16472    16664    16938    17232    17483    17578    17400 
   17019    16602    16316    16318    16625    17080    17442    17463 
   17070    16379    15541    14816    14497    14650    15142    15828 
   16564    17216    17667    17886    17868    17524    16870    16093 
   15372    14913    14914    15403    16271    17278    18063    18347 
   18049    17251    16225    15387    15098    15465    16318    17309 
   17996    18045    17415    16347    15242    14513    14454    15136 
   16317    17532    18326    18434    17878    16947    16029    15411 
   15267    15664    16437    17257    17859    18072    17807    17178 
   16422    15807    15568    15747    16241    16902    17474    17732 
   17687    17458    17155    16895    16713    16621    16665    16784 
   16858    16849    16713    16440    16194    16175    16434    16933 
   17567    18117    18326    18091    17525    16808    16159    15884 
   16105    16637    17172    17446    17375    17078    16664    16248 
   15955    15763    15661    15743    15996    16329    16683    16946 
   17018    16916    16750    16665    16745    16960    17250    17524 
   17624    17455    17058    16509    15925    15472    15283    15448 
   15954    16654    17338    17779    17857    17610    17108    16483 
   16019    15863    15907    16011    16043    15927    15785    15774 
   15962    16349    16846    17340    17707    17810    17624    17231 
   16752    16351    16197    16375    16821    17354    17810    18058 
   18037    17787    17400    17008    16717    16514    16405    16433 
   16578    16757    16857    16789    16582    16351    16200    16213 
   16424    16749    17085    17362    17436    17209    16791    16374 
   16090    16047    16317    16815    17316    17705    17952    17907 
   17490    16819    16052    15377    15036    15117    15496    16000 
   16486    16850    17028    16946    16625    16239    15979    15948 
   16143    16501    16877    17082    17045    16804    16429    16019 
   15684    15485    15456    15627    16013    16505    16860    16924 
   16725    16353    15971    15801    15985    16495    17157    17705 
   17910    17693    17146    16528    16163    16233    16684    17267 
   17670    17721    17466    17058    16677    16464    16429    16511 
   16700    16980    17273    17487    17506    17261    16822    16363 
   16023    15858    15853    15971    16159    16317    16382    16348 
   16266    16258    16356    16474    16578    16665    16681    16638 
   16600    16572    16552    16607    16753    16926    17053    17018 
   16750    16362    16028    15850    15916    16224    16622    17011 
   17334    17444    17265    16866    16378    15962    15746    15777 
   16109    16673    17201    17477    17436    17089    16557    16062 
   15776    15784    16075    16537    17007    17359    17510    17404 
   17091    16758    16605    16715    16992    17244    17332    17207 
   16916    16594    16353    16229    16236    16410    16735    17123 
   17451    17599    17516    17248    16885    16534    16310    16275 
   16432    16730    17084    17386    17550    17586    17496    17228 
   16893    16657    16556    16602    16821    17140    17446    17582 
   17432    17028    16518    16074    15871    16029    16449    16903 
   17234    17297    17011    16528    16075    15805    15827    16135 
   16611    17113    17459    17482    17208    16789    16387    16189 
   16287    16602    16993    17313    17450    17404    17254    17132 
   17122    17196    17336    17512    17609    17516    17207    16733 
   16227    15797    15543    15633    16065    16613    17112    17454 
   17489    17186    16664    16098    15634    15385    15418    15689 
   16102    16560    16920    17061    16923    16546    16063    15655 
   15515    15711    16156    16710    17157    17328    17212    16834 
   16339    15971    15867    16027    16394    16829    17177    17386 
   17408    17178    16725    16177    15703    15495    15677    16190 
   16835    17382    17641    17544    17162    16657    16205    15962 
   16019    16352    16864    17401    17790    17899    17694    17265 
   16802    16491    16390    16422    16538    16722    16888    16946 
   16831    16521    16131    15832    15755    16004    16507    17005 
   17297    17296    16991    16518    16051    15689    15562    15790 
   16281    16806    17204    17361    17212    16885    16599    16475 
   16526    16713    16958    17170    17275    17285    17263    17226 
   17140    17004    16835    16634    16422    16264    16208    16240 
   16305    16333    16328    16333    16402    16614    16965    17313 
   17540    17617    17533    17304    16999    16698    16452    16291 
   16247    16324    16505    16784    17123    17389    17483    17451 
   17371    17285    17217    17134    16961    16683    16395    16241 
   16263    16383    16576    16816    16992    17042    17003    16926 
   16811    16654    16548    16569    16695    16919    17215    17451 
   17512    17346    16957    16474    16089    15940    16033    16348 
   16835    17269    17416    17286    16997    16644    16330    16175 
   16248    16522    16934    17409    17782    17860    17604    17108 
   16502    15920    15527    15498    15878    16488    17086    17493 
   17571    17304    16816    16302    15975    15951    16195    16600 
   16997    17223    17193    16912    16482    16013    15634    15507 
   15637    15888    16159    16356    16425    16398    16362    16366 
   16407    16433    16367    16183    15913    15584    15306    15261 
   15538    16070    16669    17115    17293    17205    16930    16629 
   16436    16364    16426    16621    16838    16977    17016    16954 
   16818    16664    16553    16541    16640    16796    16904    16897 
   16771    16533    16308    16229    16263    16337    16474    16671 
   16891    17115    17319    17450    17440    17261    16983    16750 
   16681    16830    17122    17348    17361    17157    16830    16542 
   16463    16602    16854    17131    17365    17471    17443    17362 
   17275    17184    17135    17136    17069    16887    16680    16484 
   16298    16222    16348    16630    17000    17332    17436    17263 
