Origin Time       2024/04/02 04:24:00
Lat.              40.133
Long.             141.712
Depth. (km)       71
Mag.              6.0
Station Code      TCGH12
Station Lat.      36.6959
Station Long.     139.9842
Station Height(m) 162
Record Time       2024/04/02 04:25:33
Sampling Freq(Hz) 100Hz
Duration Time(s)  197
Dir.              5
Scale Factor      7845(gal)/8223790
Max. Acc. (gal)   1.855
Last Correction   2024/04/02 04:25:34
Memo.             
[...]
   23588    23440    23307    23215    23167    23187    23321    23541 
   23738    23841    23881    23877    23814    23715    23654    23669 
   23707    23727    23761    23804    23805    23766    23707    23630 
   23531    23457    23473    23552    23618    23664    23681    23633 
   23517    23396    23334    23359    23442    23530    23596    23653 
   23708    23737    23692    23589    23507    23468    23440    23458 
   23537    23626    23718    23764    23707    23612    23549    23534 
   23573    23622    23639    23639    23591    23457    23301    23184 
   23110    23083    23117    23211    23376    23541    23616    23583 
   23452    23282    23145    23060    23068    23187    23332    23477 
   23652    23797    23853    23830    23780    23716    23631    23568 
   23576    23620    23672    23747    23834    23868    23805    23688 
   23598    23575    23598    23630    23633    23598    23553    23521 
   23535    23607    23654    23649    23615    23531    23445    23418 
   23434    23494    23583    23679    23781    23854    23872    23863 
   23832    23761    23685    23676    23737    23828    23940    24020 
   24012    23946    23839    23668    23477    23352    23375    23542 
   23719    23815    23841    23791    23701    23623    23545    23469 
   23434    23446    23472    23484    23481    23450    23394    23383 
   23449    23523    23589    23674    23718    23680    23603    23522 
   23480    23502    23576    23668    23718    23677    23539    23357 
   23226    23193    23256    23386    23545    23716    23832    23819 
   23692    23522    23372    23309    23371    23519    23679    23758 
   23699    23581    23492    23425    23413    23471    23533    23553 
   23507    23436    23418    23419    23429    23485    23564    23637 
   23673    23650    23629    23591    23484    23380    23344    23394 
   23541    23691    23782    23828    23814    23742    23639    23525 
   23434    23367    23341    23407    23511    23576    23580    23546 
   23511    23450    23406    23492    23660    23785    23835    23818 
   23737    23587    23423    23355    23384    23471    23576    23656 
   23693    23679    23610    23544    23500    23469    23461    23504 
   23625    23777    23880    23892    23845    23765    23654    23584 
   23620    23693    23753    23796    23795    23753    23664    23511 
   23356    23261    23249    23344    23514    23638    23646    23557 
   23387    23194    23089    23116    23249    23469    23685    23758 
   23695    23579    23431    23317    23321    23437    23620    23788 
   23827    23743    23610    23468    23372    23388    23522    23697 
   23814    23828    23773    23672    23517    23365    23355    23506 
   23734    23958    24073    24008    23812    23576    23398    23326 
   23379    23550    23723    23807    23816    23758    23650    23573 
   23592    23688    23765    23766    23738    23668    23510    23355 
   23323    23411    23537    23633    23691    23719    23699    23653 
   23630    23660    23719    23728    23658    23587    23533    23473 
   23438    23437    23491    23600    23681    23692    23642    23544 
   23469    23484    23588    23728    23811    23776    23631    23440 
   23303    23283    23380    23579    23799    23927    23942    23873 
   23743    23604    23494    23437    23480    23625    23795    23912 
   23940    23859    23669    23453    23334    23359    23523    23766 
   23947    24017    23993    23880    23723    23571    23463    23452 
   23506    23548    23556    23546    23549    23569    23602    23650 
   23691    23712    23719    23674    23579    23476    23395    23357 
   23361    23398    23450    23464    23414    23340    23286    23283 
   23367    23533    23728    23901    23961    23850    23658    23512 
   23426    23391    23427    23523    23627    23692    23683    23588 
   23445    23305    23188    23149    23229    23371    23500    23592 
   23633    23606    23503    23348    23218    23147    23133    23221 
   23375    23487    23531    23539    23537    23568    23665    23772 
   23838    23863    23842    23809    23843    23916    23940    23901 
   23886    23958    24055    24077    23996    23820    23577    23365 
   23314    23429    23588    23704    23749    23696    23580    23490 
   23452    23438    23477    23554    23587    23584    23592    23568 
   23488    23382    23321    23384    23519    23616    23669    23688 
   23612    23449    23310    23275    23328    23396    23463    23554 
   23635    23611    23465    23311    23242    23241    23328    23510 
   23670    23710    23631    23503    23414    23361    23325    23359 
   23495    23670    23769    23780    23784    23777    23707    23598 
   23535    23587    23679    23707    23691    23664    23639    23672 
   23754    23826    23877    23853    23739    23622    23500    23345 
   23209    23097    23016    22991    23025    23191    23481    23758 
   23981    24135    24173    24086    23884    23635    23467    23433 
   23527    23664    23777    23859    23849    23712    23544    23409 
   23341    23396    23566    23769    23895    23824    23587    23311 
   23079    22977    23053    23268    23538    23727    23811    23880 
   23861    23680    23422    23209    23128    23190    23337    23527 
   23656    23664    23649    23643    23592    23488    23364    23248 
   23141    23071    23085    23126    23129    23124    23114    23136 
   23256    23403    23508    23585    23610    23569    23517    23507 
   23557    23622    23685    23787    23896    23951    23913    23760 
   23512    23245    23055    22995    23035    23167    23384    23615 
   23834    24040    24187    24235    24194    24092    23951    23795 
   23625    23479    23399    23367    23398    23483    23565    23689 
   23873    24017    24090    24096    24015    23885    23768    23662 
   23515    23356    23291    23323    23390    23511    23670    23765 
   23772    23704    23595    23521    23511    23565    23645    23680 
   23662    23638    23666    23764    23877    24008    24162    24297 
   24368    24293    24040    23691    23328    23089    23066    23188 
   23388    23588    23680    23669    23592    23487    23410    23350 
   23332    23411    23550    23658    23661    23598    23549    23502 
   23500    23599    23714    23766    23718    23576    23444    23377 
   23372    23404    23436    23479    23534    23568    23611    23652 
   23672    23749    23845    23862    23841    23805    23714    23514 
   23234    22993    22860    22878    23068    23363    23704    24071 
   24364    24489    24410    24158    23838    23587    23472    23457 
   23464    23461    23483    23533    23573    23603    23679    23793 
   23893    23965    23947    23805    23622    23411    23188    23094 
   23180    23359    23533    23656    23693    23649    23554    23425 
   23340    23383    23452    23430    23333    23178    23047    23066 
   23226    23495    23847    24156    24321    24335    24200    23943 
   23620    23319    23145    23118    23193    23336    23498    23637 
   23723    23731    23704    23696    23689    23629    23504    23349 
   23166    23006    22967    23024    23134    23356    23664    23993 
   24300    24453    24313    23878    23284    22729    22369    22302 
   22589    23163    23787    24228    24387    24278    23992    23696 
   23541    23587    23777    23955    23974    23731    23241    22724 
   22366    22250    22496    23047    23641    24084    24286    24231 
   23957    23557    23229    23132    23265    23565    23936    24227 
   24322    24241    24093    23977    23938    23922    23824    23608 
   23338    23093    22941    22906    22960    23139    23453    23820 
   24216    24588    24760    24599    24143    23511    22874    22437 
   22306    22516    23037    23691    24309    24807    25033    24881 
   24475    24027    23677    23499    23537    23720    23881    23926 
   23911    23888    23845    23795    23777    23812    23845    23766 
   23589    23418    23274    23160    23121    23182    23344    23529 
   23634    23699    23749    23724    23653    23620    23634    23645 
   23619    23589    23550    23422    23234    23116    23118    23220 
   23380    23566    23715    23739    23679    23606    23445    23174 
   22941    22914    23110    23388    23664    23905    24001    23953 
   23899    23912    24001    24066    23993    23782    23380    22804 
   22279    22005    22099    22577    23274    24011    24610    24861 
   24713    24291    23797    23373    23097    23039    23194    23460 
   23722    23897    23981    23989    23916    23809    23731    23691 
   23679    23622    23431    23163    23001    23014    23171    23454 
   23777    23996    24016    23846    23599    23357    23128    22999 
   23095    23344    23572    23739    23824    23739    23514    23295 
   23209    23303    23523    23718    23796    23738    23546    23323 
   23245    23336    23471    23554    23542    23476    23494    23616 
   23754    23924    24121    24216    24177    24038    23801    23530 
   23326    23264    23353    23542    23797    24075    24283    24360 
   24264    24005    23735    23577    23510    23552    23712    23901 
   24085    24309    24538    24655    24556    24227    23791    23386 
   23103    23066    23290    23634    23967    24166    24150    23967 
   23684    23357    23114    23072    23244    23521    23757    23862 
   23781    23491    23099    22860    22963    23346    23809    24185 
   24344    24225    23868    23427    23094    22900    22835    22936 
   23068    23068    22935    22734    22569    22539    22674    22982 
   23399    23781    24025    24038    23814    23517    23302    23229 
   23279    23341    23383    23437    23454    23425    23399    23390 
   23386    23377    23368    23365    23359    23306    23205    23151 
   23256    23487    23739    23926    23981    23935    23824    23627 
   23437    23364    23338    23275    23161    23031    22987    23068 
   23244    23514    23770    23893    23877    23704    23425    23206 
   23097    23035    23005    23010    23017    23016    23051    23168 
   23329    23494    23699    23919    24039    23984    23753    23421 
   23056    22698    22500    22619    23012    23510    23940    24178 
   24204    24082    23900    23723    23584    23496    23503    23598 
   23654    23626    23615    23647    23715    23861    24071    24298 
   24475    24497    24356    24089    23701    23315    23067    22981 
   23048    23272    23589    23859    24025    24119    24090    23955 
   23863    23882    23950    24009    24048    24062    24030    23943 
   23845    23805    23808    23700    23464    23283    23248    23318 
   23436    23553    23625    23569    23419    23299    23259    23314 
   23448    23598    23707    23687    23503    23290    23215    23325 
   23564    23878    24190    24325    24156    23714    23172    22816 
   22777    22960    23307    23751    24123    24283    24217    23992 
   23662    23334    23170    23205    23400    23707    23985    24166 
   24318    24436    24433    24237    23849    23409    23094    23024 
   23282    23795    24258    24430    24345    24075    23641    23240 
   23141    23407    23904    24424    24732    24696    24347    23796 
   23211    22843    22864    23222    23683    23989    23962    23595 
   23074    22708    22744    23171    23858    24637    25151    25087 
   24516    23734    22993    22508    22422    22639    22928    23174 
   23338    23413    23442    23485    23611    23814    23974    24028 
   23965    23749    23409    23103    23022    23182    23400    23465 
   23255    22839    22457    22342    22644    23309    24052    24609 
   24838    24672    24098    23274    22530    22137    22202    22711 
   23496    24236    24552    24275    23612    22963    22648    22743 
   23122    23623    23988    23988    23668    23205    22785    22630 
   22823    23261    23722    23947    23784    23267    22655    22272 
   22234    22497    22972    23458    23723    23674    23450    23295 
   23340    23585    23988    24471    24857    24904    24533    23905 
   23238    22731    22546    22748    23222    23670    23847    23789 
   23701    23727    23949    24363    24779    25012    24996    24646 
   24057    23518    23178    23143    23498    23988    24260    24286 
   24205    24089    23947    23857    23901    24034    24142    24104 
   23858    23506    23183    23040    23224    23695    24300    24840 
   25076    24929    24514    23992    23561    23344    23321    23431 
   23592    23777    23998    24213    24421    24617    24750    24763 
   24529    23996    23325    22723    22378    22480    23008    23719 
   24318    24607    24528    24111    23537    23086    22956    23191 
   23645    24052    24224    24011    23384    22619    22054    21864 
   22087    22628    23257    23723    23908    23826    23575    23302 
   23086    22940    22898    22936    22968    22958    22886    22778 
   22739    22792    22870    22987    23143    23191    23075    22887 
   22729    22681    22742    22844    23040    23391    23764    24011 
   24081    23931    23618    23309    23143    23194    23422    23672 
   23822    23815    23657    23387    23067    22867    22931    23247 
   23791    24447    25010    25385    25524    25332    24857    24275 
   23733    23310    23028    22885    22905    23072    23330    23700 
   24182    24586    24687    24445    23971    23427    22999    22852 
   23022    23398    23819    24123    24131    23788    23264    22802 
   22621    22827    23283    23722    23950    23876    23498    22940 
   22455    22316    22597    23180    23923    24607    24952    24879 
   24476    23858    23225    22765    22574    22680    22993    23410 
   23854    24190    24347    24304    24073    23743    23419    23203 
   23126    23120    23209    23396    23538    23602    23669    23733 
   23711    23599    23502    23445    23359    23263    23217    23210 
   23278    23503    23855    24216    24456    24462    24243    23926 
   23603    23396    23386    23531    23780    24019    24097    23946 
   23548    22968    22404    22080    22113    22478    23079    23795 
   24412    24738    24791    24655    24343    23900    23456    23172 
   23107    23195    23404    23668    23855    23930    23911    23803 
   23633    23465    23434    23619    23939    24262    24483    24533 
   24376    24028    23622    23330    23214    23251    23418    23612 
   23642    23454    23148    22810    22578    22619    22964    23484 
   23965    24243    24227    23884    23360    22921    22770    22958 
   23355    23741    23919    23787    23417    22991    22646    22532 
   22750    23190    23674    24066    24246    24189    23946    23664 
   23512    23483    23468    23409    23314    23230    23179    23241 
   23504    23853    24119    24221    24105    23796    23404    23093 
   23076    23382    23797    24152    24360    24364    24159    23827 
   23560    23490    23548    23658    23766    23778    23637    23340 
   23001    22815    22859    23107    23463    23746    23792    23571 
   23238    23068    23203    23587    24071    24467    24637    24509 
   24073    23464    22847    22331    22090    22230    22662    23206 
   23672    23959    24081    24050    23973    24039    24252    24472 
   24568    24468    24224    23889    23508    23184    22950    22817 
   22854    23056    23417    23911    24390    24700    24822    24798 
   24621    24268    23816    23375    23017    22800    22758    22956 
   23403    23892    24202    24327    24258    23955    23546    23224 
   23098    23182    23371    23592    23801    23849    23689    23510 
   23481    23599    23781    23976    24081    23961    23604    23129 
   22705    22482    22474    22685    23110    23599    23973    24108 
   23903    23471    23091    22932    22997    23182    23373    23479 
   23394    23174    22955    22805    22881    23276    23866    24541 
   25118    25323    25068    24507    23955    23643    23550    23593 
   23769    24005    24112    24034    23915    23781    23592    23426 
   23302    23183    23094    23032    23037    23209    23468    23669 
   23757    23646    23328    22948    22647    22573    22835    23318 
   23782    24044    24015    23706    23202    22712    22465    22495 
   22715    23047    23364    23512    23409    23164    22982    22968 
   23205    23633    23988    24106    23982    23652    23215    22855 
   22740    22864    23089    23292    23353    23217    22967    22707 
   22553    22612    22897    23294    23639    23909    24159    24316 
   24363    24441    24536    24475    24220    23865    23529    23292 
   23157    23183    23404    23680    23881    24030    24175    24313 
   24403    24468    24563    24663    24705    24661    24532    24349 
   24156    24021    24007    24119    24275    24344    24270    24102 
   23903    23689    23502    23402    23341    23256    23236    23363 
   23596    23878    24178    24417    24433    24148    23685    23224 
   22856    22681    22767    23006    23237    23383    23340    23101 
   22867    22785    22889    23213    23688    24148    24456    24522 
   24340    24012    23668    23415    23334    23406    23521    23620 
   23699    23687    23571    23388    23170    23013    22974    23017 
   23114    23210    23242    23245    23279    23364    23498    23699 
   23935    24096    24139    24086    23959    23839    23754    23674 
   23670    23743    23781    23782    23791    23799    23845    23957 
   24063    24090    24023    23861    23620    23409    23319    23356 
   23510    23733    23907    23935    23770    23458    23176    23114 
   23294    23579    23878    24119    24196    24046    23681    23242 
   22917    22739    22701    22866    23203    23600    23982    24281 
   24381    24152    23606    22955    22408    22080    22087    22489 
   23160    23839    24301    24456    24286    23842    23340    22975 
   22813    22882    23055    23107    22998    22828    22756    22921 
   23317    23866    24408    24694    24615    24198    23546    22863 
   22369    22237    22499    22964    23411    23664    23669    23602 
   23598    23673    23859    24065    24116    23916    23512    23110 
   22847    22779    22987    23375    23749    23981    23947    23649 
   23278    23001    22923    23103    23477    23804    23855    23652 
   23383    23226    23313    23664    24165    24628    24841    24719 
   24327    23770    23220    22878    22833    23067    23490    23897 
   24106    24140    24128    24142    24232    24395    24514    24457 
   24177    23739    23325    23117    23206    23589    24148    24664 
   24954    24942    24649    24173    23673    23340    23279    23472 
   23816    24132    24225    24007    23565    23097    22808    22889 
   23352    23982    24532    24795    24664    24250    23765    23377 
   23186    23207    23392    23608    23700    23680    23634    23512 
   23371    23410    23656    23963    24192    24192    23892    23382 
