Origin Time       2024/04/02 04:24:00
Lat.              40.133
Long.             141.712
Depth. (km)       71
Mag.              6.0
Station Code      TCGH11
Station Lat.      36.7084
Station Long.     139.7694
Station Height(m) 290
Record Time       2024/04/02 04:26:19
Sampling Freq(Hz) 100Hz
Duration Time(s)  120
Dir.              5
Scale Factor      7845(gal)/8223790
Max. Acc. (gal)   1.569
Last Correction   2024/04/02 04:26:19
Memo.             
[...]
    2257     2334     2442     2389     2195     2058     2077     2188 
    2328     2412     2361     2297     2362     2462     2473     2382 
    2247     2181     2238     2336     2394     2384     2313     2289 
    2366     2413     2396     2385     2308     2161     2080     2084 
    2133     2204     2245     2259     2270     2276     2326     2385 
    2376     2361     2370     2342     2327     2403     2473     2442 
    2407     2416     2419     2435     2436     2370     2339     2344 
    2316     2335     2357     2236     2108     2126     2222     2334 
    2394     2316     2218     2223     2224     2164     2133     2174 
    2312     2532     2666     2565     2303     2079     2031     2130 
    2249     2342     2404     2398     2363     2358     2332     2257 
    2209     2235     2286     2289     2246     2222     2223     2241 
    2285     2317     2339     2378     2384     2335     2297     2300 
    2328     2355     2370     2351     2274     2209     2284     2458 
    2498     2362     2253     2223     2230     2295     2344     2313 
    2277     2270     2263     2255     2226     2170     2151     2189 
    2276     2403     2477     2404     2245     2103     2023     2033 
    2122     2239     2335     2390     2397     2331     2261     2319 
    2471     2574     2560     2457     2312     2170     2092     2120 
    2162     2214     2328     2344     2209     2149     2235     2361 
    2461     2431     2261     2170     2285     2461     2511     2405 
    2246     2150     2151     2214     2307     2388     2390     2335 
    2296     2277     2301     2404     2513     2577     2601     2523 
    2392     2353     2355     2351     2451     2546     2397     2151 
    2116     2247     2363     2432     2393     2246     2147     2150 
    2236     2365     2392     2323     2292     2299     2332     2401 
    2389     2295     2277     2316     2285     2236     2254     2257 
    2208     2178     2162     2131     2104     2077     2103     2224 
    2331     2350     2277     2107     2007     2131     2292     2280 
    2160     2056     2068     2272     2535     2593     2430     2259 
    2222     2322     2457     2492     2396     2226     2065     2008 
    2057     2127     2182     2212     2187     2169     2270     2419 
    2484     2517     2542     2448     2304     2234     2184     2200 
    2396     2610     2670     2619     2519     2428     2416     2440 
    2416     2332     2185     2018     1948     2011     2123     2219 
    2246     2201     2254     2475     2655     2673     2601     2430 
    2228     2209     2319     2376     2371     2290     2196     2270 
    2396     2380     2343     2340     2276     2204     2158     2087 
    2060     2116     2207     2332     2420     2413     2396     2362 
    2277     2269     2335     2297     2203     2185     2168     2115 
    2114     2178     2277     2377     2454     2551     2655     2682 
    2628     2501     2303     2141     2104     2151     2174     2131 
    2139     2307     2542     2674     2651     2560     2448     2326 
    2270     2278     2277     2303     2301     2160     2011     2002 
    2054     2118     2203     2241     2209     2211     2327     2529 
    2687     2681     2544     2400     2311     2320     2454     2631 
    2749     2737     2579     2397     2301     2258     2215     2134 
    2053     2074     2162     2189     2162     2188     2290     2400 
    2461     2435     2290     2087     1945     1930     2018     2119 
    2184     2214     2174     2146     2272     2427     2446     2415 
    2371     2285     2251     2259     2180     2089     2135     2289 
    2407     2378     2261     2150     2074     2101     2224     2316 
    2355     2346     2289     2324     2462     2528     2478     2358 
    2258     2292     2365     2362     2311     2199     2084     2057 
    2023     1980     2083     2274     2376     2392     2386     2401 
    2513     2663     2674     2529     2404     2425     2498     2434 
    2280     2204     2161     2050     1933     1880     1899     2003 
    2116     2060     1858     1775     1894     2062     2196     2343 
    2529     2695     2770     2755     2690     2637     2679     2791 
    2783     2578     2365     2254     2181     2180     2241     2207 
    2087     1981     1883     1827     1880     1969     2027     2056 
    2039     2035     2119     2218     2288     2374     2459     2527 
    2566     2509     2404     2347     2312     2276     2250     2215 
    2199     2255     2301     2255     2170     2060     1935     1898 
    1965     2083     2216     2300     2309     2322     2389     2470 
    2543     2587     2569     2559     2643     2763     2836     2809 
    2666     2502     2398     2297     2191     2172     2205     2164 
    2066     2034     2151     2385     2533     2502     2471     2517 
    2496     2388     2272     2157     2093     2095     2103     2166 
    2313     2490     2716     2932     2982     2862     2659     2432 
    2241     2064     1863     1701     1656     1730     1836     1937 
    2107     2309     2451     2570     2610     2475     2346     2347 
    2332     2286     2301     2312     2332     2440     2577     2647 
    2620     2481     2327     2292     2296     2239     2191     2153 
    2106     2158     2308     2428     2509     2569     2560     2575 
    2660     2570     2259     2069     2112     2247     2408     2461 
    2365     2343     2484     2612     2586     2405     2188     2076 
    2047     1995     1922     1852     1753     1729     1923     2195 
    2354     2465     2548     2488     2353     2269     2199     2151 
    2174     2180     2106     2077     2197     2407     2624     2781 
    2817     2778     2695     2501     2227     1988     1826     1840 
    2037     2247     2397     2477     2484     2554     2675     2629 
    2413     2154     1890     1733     1773     1884     1962     2062 
    2231     2496     2810     3001     2986     2783     2413     2042 
    1827     1713     1667     1737     1895     2077     2231     2289 
    2239     2205     2324     2521     2631     2554     2265     1935 
    1811     1884     2020     2151     2265     2421     2616     2735 
    2725     2605     2407     2177     1858     1449     1225     1335 
    1625     1985     2293     2382     2335     2309     2336     2415 
    2492     2516     2533     2506     2392     2328     2384     2506 
    2633     2547     2208     1926     1864     1954     2154     2320 
    2303     2188     2130     2185     2371     2636     2864     2941 
    2797     2535     2415     2519     2695     2816     2786     2585 
    2415     2419     2425     2340     2301     2272     2157     2095 
    2191     2335     2447     2550     2640     2650     2578     2517 
    2486     2452     2508     2739     2943     2902     2725     2578 
    2458     2374     2312     2133     1846     1701     1814     2019 
    2107     2011     1803     1707     1949     2444     2852     2949 
    2795     2519     2178     1910     1845     1911     2003     2091 
    2149     2235     2412     2574     2628     2555     2393     2258 
    2192     2170     2243     2381     2478     2508     2448     2299 
    2112     1941     1898     2029     2174     2215     2164     2093 
    2195     2562     2926     2992     2802     2509     2241     2123 
    2101     2004     1863     1825     1983     2326     2685     2853 
    2762     2532     2384     2320     2173     1939     1718     1634 
    1822     2235     2664     2960     3083     3060     2964     2830 
    2606     2358     2238     2176     2073     1972     1836     1706 
    1714     1757     1840     2168     2604     2887     2953     2727 
    2301     2018     2003     2149     2355     2519     2614     2667 
    2597     2415     2247     2165     2204     2335     2454     2463 
    2311     2095     1972     1944     1992     2130     2214     2157 
    2072     1976     1854     1849     1987     2122     2230     2343 
    2339     2195     2116     2238     2498     2763     2837     2616 
    2288     2122     2153     2273     2425     2578     2677     2713 
    2718     2724     2762     2805     2754     2560     2301     2054 
    1829     1645     1517     1428     1433     1541     1640     1737 
    1962     2274     2581     2970     3334     3311     2889     2436 
    2161     2118     2316     2466     2247     1806     1482     1439 
    1719     2168     2532     2763     2837     2701     2485     2263 
    1999     1827     1807     1788     1814     1964     2041     2088 
    2443     3007     3385     3450     3196     2705     2269     2031 
    1911     1840     1752     1665     1734     1998     2320     2597 
    2752     2689     2424     2080     1756     1555     1536     1593 
    1775     2247     2824     3222     3361     3176     2797     2581 
    2597     2567     2311     1883     1533     1555     1899     2245 
    2403     2398     2408     2555     2737     2789     2616     2242 
    1895     1755     1784     1954     2223     2493     2735     2855 
    2803     2717     2586     2394     2316     2363     2393     2376 
    2296     2178     2176     2331     2532     2675     2570     2123 
    1656     1480     1545     1696     1838     1957     2205     2668 
    3171     3476     3364     2786     2115     1728     1584     1615 
    1810     2003     2153     2340     2535     2770     3002     2938 
    2554     2153     1934     1999     2250     2293     2020     1752 
    1644     1667     1831     2045     2226     2463     2766     2947 
    2825     2465     2182     2120     2058     1898     1784     1750 
    1887     2307     2673     2641     2454     2316     2222     2303 
    2539     2662     2516     2161     1884     1937     2189     2413 
    2548     2511     2328     2253     2362     2475     2516     2513 
    2448     2378     2342     2303     2452     2909     3358     3545 
    3396     2849     2215     1961     2025     2068     2004     1836 
    1522     1206     1185     1591     2212     2654     2722     2552 
    2292     2033     1971     2150     2394     2578     2605     2490 
    2512     2821     3188     3381     3292     2872     2396     2188 
    2133     2137     2313     2548     2643     2559     2227     1763 
    1505     1489     1556     1690     1856     2095     2490     2848 
    2972     2961     2907     2801     2725     2709     2559     2178 
    1733     1382     1189     1194     1382     1703     2123     2496 
    2695     2754     2679     2477     2262     2080     1921     1836 
    1821     1826     1840     1850     1899     2077     2295     2328 
    2200     2128     2192     2311     2408     2443     2452     2512 
    2625     2749     2845     2862     2767     2600     2366     2030 
    1702     1618     1896     2430     2963     3200     3075     2772 
    2438     2151     2047     2149     2262     2238     2115     1929 
    1746     1800     2143     2551     2921     3219     3258     3009 
    2732     2586     2566     2646     2643     2338     1813     1414 
    1429     1899     2474     2598     2149     1584     1447     1883 
    2486     2722     2470     1969     1513     1331     1444     1740 
    2262     2974     3497     3608     3364     2820     2293     2158 
    2228     2176     2026     1825     1687     1854     2187     2285 
    2099     1858     1803     2103     2656     3130     3330     3195 
    2681     1989     1458     1273     1498     1953     2277     2439 
    2648     2913     3122     3181     2871     2195     1729     1884 
    2241     2257     1856     1233      870     1174     1894     2539 
    2921     3068     3150     3327     3484     3339     2709     1773 
    1036      784      911     1305     1837     2234     2450     2629 
    2718     2679     2693     2809     2909     2922     2844     2694 
    2635     2803     3037     3118     3133     3164     3017     2633 
    2284     2100     1957     1802     1687     1638     1657     1764 
    1949     2196     2546     2949     3223     3256     3049     2740 
    2600     2637     2546     2208     1799     1497     1435     1714 
    2207     2605     2724     2542     2058     1497     1283     1547 
    2015     2404     2590     2555     2416     2367     2384     2266 
    2058     1987     2045     2085     2046     1958     1968     2135 
    2305     2407     2504     2590     2686     2794     2712     2324 
    1865     1621     1699     2045     2474     2797     2866     2620 
    2242     2012     1930     1850     1780     1775     1813     1822 
    1811     1871     1991     2135     2253     2158     1918     1944 
    2340     2776     3015     3065     2955     2724     2560     2690 
    3007     3192     3125     2809     2346     2047     2022     1984 
    1780     1572     1563     1892     2528     3150     3391     3150 
    2552     1777     1217     1313     1895     2359     2451     2304 
    2103     2103     2434     2835     2921     2571     1993     1566 
    1513     1729     2004     2281     2587     2928     3150     3019 
    2635     2342     2178     2018     1873     1694     1414     1270 
    1551     2134     2624     2790     2636     2394     2392     2666 
    3028     3375     3547     3333     2766     2088     1640     1644 
    1841     1780     1374      855      654     1105     1923     2470 
    2558     2465     2458     2701     3172     3577     3647     3354 
    2816     2251     1914     1885     2034     2223     2380     2362 
    2154     1973     1918     2046     2489     2903     2802     2428 
    2251     2299     2466     2625     2667     2754     2964     3067 
    2978     2768     2465     2203     1979     1597     1182     1023 
    1178     1714     2492     2971     2907     2560     2192     1979 
    1988     2022     1871     1644     1621     1813     2029     2228 
    2342     2261     2235     2451     2632     2633     2531     2293 
    2019     1888     1894     2039     2311     2600     2868     3001 
    2872     2718     2686     2519     2285     2312     2473     2592 
    2664     2481     1999     1518     1254     1318     1761     2373 
    2764     2725     2454     2274     2277     2477     2883     3303 
    3439     3159     2613     2158     2026     2112     2235     2304 
    2230     1977     1687     1568     1726     2087     2403     2474 
    2343     2122     1941     2004     2257     2471     2623     2702 
    2646     2528     2436     2353     2305     2340     2409     2427 
    2344     2137     1898     1790     1881     2185     2585     2836 
    2894     2808     2515     2149     1958     1976     2127     2276 
    2236     2092     2093     2226     2284     2230     2172     2207 
    2319     2396     2450     2602     2860     3096     3025     2485 
    1796     1352     1270     1532     1899     2084     2177     2301 
    2342     2292     2251     2187     2095     2061     2025     1896 
    1791     1917     2331     2806     3045     3026     2891     2713 
    2647     2768     2786     2416     1783     1259     1155     1487 
    1985     2421     2741     2945     3078     3086     2802     2265 
    1788     1601     1659     1792     1848     1795     1844     2288 
    3040     3627     3723     3352     2763     2381     2386     2367 
    1953     1389     1071     1154     1668     2446     3180     3685 
    3759     3244     2409     1791     1664     1904     2141     2052 
    1705     1480     1591     2007     2554     2894     2948     3015 
    3064     2722     2011     1359     1085     1170     1443     1792 
    2176     2624     3069     3279     3235     3134     2994     2809 
    2624     2376     2111     1957     1868     1831     1863     1858 
    1898     2087     2231     2268     2359     2458     2404     2261 
    2197     2281     2500     2801     3028     3028     2875     2693 
    2434     2080     1725     1460     1378     1406     1410     1545 
    1976     2501     2870     3026     2947     2709     2461     2176 
    1923     1999     2331     2494     2411     2222     1973     1900 
    2158     2465     2635     2702     2612     2490     2509     2470 
    2308     2277     2407     2559     2718     2816     2752     2691 
    2743     2673     2404     2150     1965     1872     1989     2162 
    2182     2142     2134     2112     2091     2189     2349     2281 
    1957     1721     1777     2037     2307     2484     2655     2824 
    2776     2466     2128     1992     2127     2378     2471     2344 
    2177     2107     2158     2278     2317     2242     2160     2072 
    1981     1953     1939     1933     1972     1949     1898     2118 
    2625     3072     3291     3208     2737     2238     2149     2274 
    2299     2196     1962     1756     1830     2137     2458     2739 
    3045     3330     3352     2953     2230     1498     1202     1466 
    1853     2004     1995     1921     1842     1935     2247     2624 
    2870     2809     2515     2285     2232     2320     2548     2785 
    2934     3168     3377     3154     2538     1922     1552     1521 
    1741     2027     2250     2220     1956     1858     2065     2327 
    2594     2837     2825     2667     2668     2704     2550     2312 
    2182     2253     2417     2388     2095     1804     1722     1844 
    2060     2207     2199     2095     1996     2018     2184     2340 
    2365     2324     2324     2396     2500     2577     2604     2494 
    2166     1845     1884     2270     2650     2771     2668     2452 
    2199     2069     2187     2442     2647     2668     2440     2099 
    1954     2130     2420     2470     2050     1408     1067     1197 
    1583     2006     2317     2463     2555     2751     3038     3208 
    3084     2729     2338     2106     2118     2253     2354     2417 
    2448     2420     2367     2290     2164     2095     2139     2180 
    2122     1962     1792     1863     2313     2871     3138     3005 
    2655     2386     2436     2705     2716     2296     1841     1605 
    1624     2031     2628     2940     2925     2772     2462     1992 
    1548     1297     1291     1563     2045     2443     2562     2662 
    3059     3572     3765     3501     2967     2401     2047     1972 
    1911     1710     1572     1594     1682     1892     2246     2548 
    2648     2481     2023     1464     1177     1370     1877     2332 
    2527     2508     2467     2494     2462     2353     2353     2432 
    2354     2119     1977     2106     2506     3051     3503     3600 
    3215     2524     1973     1906     2250     2670     2809     2482 
    1939     1576     1443     1526     1850     2172     2308     2386 
    2466     2532     2637     2716     2627     2361     2006     1717 
    1661     1861     2204     2570     2802     2729     2367     1965 
    1883     2316     2902     2995     2481     1810     1358     1237 
    1404     1691     1942     2118     2320     2648     3061     3473 
    3701     3496     2968     2466     2073     1764     1594     1537 
    1637     2023     2598     3111     3357     3204     2732     2172 
