Origin Time       2024/04/02 04:24:00
Lat.              40.133
Long.             141.712
Depth. (km)       71
Mag.              6.0
Station Code      TCGH14
Station Lat.      36.5509
Station Long.     139.6154
Station Height(m) 180
Record Time       2024/04/02 04:25:58
Sampling Freq(Hz) 100Hz
Duration Time(s)  120
Dir.              5
Scale Factor      7845(gal)/8223790
Max. Acc. (gal)   2.219
Last Correction   2024/04/02 04:25:59
Memo.             
[...]
    4078     4077     4041     3998     4017     4139     4226     4190 
    4102     3978     3870     3912     4055     4178     4229     4140 
    3983     3940     4047     4202     4264     4203     4136     4099 
    4058     4045     4077     4085     4041     4008     4033     4122 
    4245     4309     4234     4039     3821     3804     4055     4307 
    4374     4314     4118     3800     3623     3796     4170     4457 
    4536     4391     4066     3766     3689     3832     4097     4291 
    4294     4224     4160     4037     3947     4005     4112     4152 
    4152     4194     4322     4429     4298     3966     3747     3750 
    3854     4070     4369     4545     4434     4064     3720     3665 
    3807     4005     4252     4445     4429     4245     4102     4064 
    4052     4083     4137     4129     4098     4128     4213     4243 
    4116     3870     3674     3755     4113     4457     4572     4457 
    4198     3928     3804     3851     3990     4193     4318     4251 
    4193     4179     4005     3848     3920     4021     4059     4176 
    4357     4441     4295     3997     3793     3743     3801     4059 
    4419     4577     4483     4299     4116     3928     3769     3777 
    4009     4310     4448     4378     4279     4198     4014     3831 
    3844     4020     4209     4329     4383     4405     4315     4031 
    3758     3763     3973     4117     4124     4155     4251     4194 
    3983     3909     4001     4058     4055     4104     4213     4255 
    4190     4122     4082     4062     4109     4174     4207     4217 
    4108     3920     3924     4106     4170     4052     3979     4027 
    4040     4006     4050     4121     4136     4085     3933     3847 
    4008     4172     4133     4104     4159     4086     3896     3839 
    3970     4132     4232     4239     4160     4089     4075     4071 
    4043     4040     4072     4102     4129     4197     4351     4450 
    4275     4000     3888     3858     3854     3983     4207     4341 
    4305     4214     4149     4078     4047     4081     4110     4141 
    4234     4374     4375     4168     3951     3789     3701     3854 
    4145     4315     4349     4275     4087     3898     3813     3862 
    4037     4243     4326     4253     4166     4105     3921     3690 
    3700     4004     4372     4572     4585     4525     4369     4013 
    3608     3520     3836     4240     4492     4585     4452     4093 
    3770     3661     3719     3962     4410     4774     4738     4446 
    4185     3959     3744     3650     3751     4000     4243     4349 
    4307     4176     4020     3928     3956     4044     4144     4220 
    4172     4039     4006     4060     4005     3820     3717     3829 
    4055     4267     4396     4338     4148     4005     3905     3804 
    3781     3888     4094     4334     4490     4495     4445     4391 
    4232     3978     3797     3809     4028     4311     4426     4369 
    4402     4484     4276     3924     3881     4071     4186     4209 
    4199     4171     4099     3893     3595     3477     3761     4290 
    4684     4776     4611     4133     3445     3083     3365     3997 
    4571     4889     4868     4475     3854     3414     3397     3551 
    3716     4078     4545     4707     4442     4021     3709     3564 
    3584     3862     4398     4926     5089     4734     4102     3650 
    3512     3564     3840     4341     4712     4662     4363     4116 
    3986     3960     4071     4232     4287     4229     4140     4070 
    4082     4228     4414     4472     4378     4244     4094     3892 
    3785     3820     3815     3848     4099     4372     4471     4398 
    4172     3919     3774     3762     3915     4202     4430     4388 
    4054     3649     3376     3370     3813     4558     5085     5071 
    4525     3689     3061     2987     3397     4050     4671     5004 
    4949     4599     4106     3634     3381     3420     3705     4202 
    4668     4731     4402     3889     3396     3316     3801     4494 
    5035     5192     4862     4245     3623     3234     3254     3577 
    3981     4391     4631     4538     4279     4021     3766     3601 
    3655     3950     4355     4619     4650     4502     4126     3665 
    3433     3524     3875     4302     4511     4471     4388     4290 
    4077     3859     3801     3902     4077     4225     4334     4419 
    4334     4037     3751     3647     3734     3955     4180     4356 
    4482     4382     4008     3696     3692     3879     4116     4395 
    4645     4634     4284     3888     3731     3780     3921     4160 
    4441     4617     4567     4290     3933     3654     3618     3915 
    4329     4617     4785     4737     4355     3924     3754     3788 
    3947     4237     4488     4506     4357     4191     3982     3709 
    3554     3615     3758     3929     4186     4414     4494     4453 
    4221     3798     3515     3596     3964     4438     4746     4695 
    4303     3726     3253     3191     3613     4280     4878     5162 
    4970     4413     3786     3346     3273     3545     4035     4648 
    5055     5007     4595     3937     3361     3256     3584     4171 
    4822     5175     5015     4401     3611     3105     3149     3738 
    4742     5647     5802     5167     4116     3061     2581     2963 
    3873     4823     5317     5061     4380     3686     3164     3053 
    3407     4008     4604     4885     4645     4063     3427     2994 
    3064     3622     4305     4833     5047     4889     4430     3709 
    2932     2567     2839     3611     4587     5238     5252     4774 
    3908     2957     2639     3198     4105     4808     5104     4984 
    4464     3811     3512     3574     3696     3963     4484     5022 
    5282     5069     4425     3634     3053     2947     3410     4448 
    5628     6029     5346     4212     3252     2787     3021     3802 
    4754     5398     5194     4295     3491     3192     3449     4222 
    5074     5444     5117     4360     3690     3229     2932     3137 
    3939     4845     5383     5340     4727     3890     3204     2835 
    3030     3862     4699     4972     4776     4342     3885     3549 
    3330     3478     4063     4571     4764     4779     4554     4036 
    3339     2766     2798     3535     4425     4993     5227     5054 
    4293     3346     2947     3190     3690     4205     4673     5026 
    4992     4413     3578     2917     2759     3277     4295     5379 
    5957     5563     4351     3011     2219     2262     2980     4117 
    5296     5810     5463     4720     3767     2893     2667     3088 
    3924     4946     5520     5319     4617     3703     2899     2513 
    2747     3707     4842     5356     5265     4761     3715     2648 
    2461     3125     4013     4746     5136     5175     4896     4213 
    3446     3161     3388     3888     4368     4523     4455     4249 
    3840     3592     3727     3931     4091     4236     4214     4152 
    4205     4170     4060     4054     4005     3915     4005     4174 
    4197     4012     3789     3897     4348     4629     4434     4012 
    3632     3404     3500     3898     4303     4573     4676     4560 
    4444     4504     4457     4110     3831     3869     3909     3871 
    4147     4699     5031     4953     4579     3985     3399     3156 
    3321     3866     4703     5329     5269     4685     4020     3474 
    3183     3388     4068     4806     5227     5113     4438     3630 
    3175     3136     3462     4136     4939     5416     5202     4518 
    3800     3095     2555     2706     3667     4874     5584     5547 
    5047     4284     3458     3033     3244     3943     4784     5305 
    5194     4418     3319     2532     2446     3069     4240     5420 
    5999     5879     5150     3969     2913     2425     2496     3258 
    4657     5803     6062     5643     4683     3456     2701     2686 
    3138     3937     4753     4965     4510     3821     3183     2833 
    3002     3700     4700     5422     5471     5073     4324     3253 
    2488     2469     2941     3650     4364     4801     4861     4550 
    3971     3395     3198     3626     4383     4855     4776     4286 
    3658     3160     3052     3564     4496     5231     5329     4734 
    3755     3019     2812     2972     3501     4342     5055     5389 
    5339     4796     4035     3622     3561     3553     3694     4168 
    4769     5127     5053     4498     3605     2903     2968     3816 
    4914     5584     5455     4730     3862     3246     3284     3993 
    4770     5042     4737     4221     3936     3943     4055     4163 
    4221     4144     3951     3933     4263     4584     4556     4272 
    3900     3651     3726     4020     4390     4629     4359     3686 
    3275     3503     4094     4483     4399     4032     3748     3786 
    4070     4386     4568     4394     3852     3407     3453     3897 
    4433     4799     4788     4341     3707     3249     3161     3451 
    3793     3775     3630     3767     4083     4533     5055     5090 
    4463     3744     3422     3682     4499     5228     4949     3805 
    2911     2728     3006     3727     4723     5323     5200     4692 
    4122     3592     3241     3218     3547     4102     4671     5000 
    4861     4390     3987     3794     3766     3955     4368     4781 
    4930     4737     4135     3171     2444     2597     3461     4469 
    5304     5757     5624     4877     3811     2999     2856     3246 
    3923     4726     5192     5069     4569     3847     3271     3299 
    3831     4538     5161     5455     5296     4564     3458     2737 
    2801     3423     4430     5439     5814     5348     4197     2909 
    2362     2743     3503     4376     5233     5580     5155     4259 
    3299     2660     2633     3065     3773     4608     4943     4581 
    4153     3784     3318     3200     3784     4734     5161     4666 
    3966     3385     2786     2844     3802     4807     5410     5497 
    4866     3936     3306     3088     3262     3750     4337     4846 
    5062     4811     4182     3532     3325     3758     4588     5354 
    5595     5031     3924     2863     2222     2323     3235     4391 
    5277     5753     5609     4970     4314     3767     3285     2959 
    3005     3704     4811     5514     5382     4560     3431     2620 
    2587     3240     4251     5215     5618     5278     4503     3647 
    2963     2786     3312     4226     4955     5298     5378     5161 
    4584     3937     3485     3292     3487     3877     4137     4429 
    4700     4608     4261     3889     3667     3780     3951     3983 
    4163     4375     4272     4031     3900     3809     3647     3620 
    4116     4854     5067     4741     4288     3781     3364     3186 
    3150     3385     3987     4608     4954     4985     4621     3909 
    3260     3071     3356     3890     4382     4633     4716     4633 
    4214     3662     3376     3362     3507     3917     4526     4973 
    4997     4621     4012     3370     3040     3329     4074     4839 
    5224     4957     4210     3465     3095     3348     4035     4602 
    4842     4706     4193     3775     3743     3844     3956     4135 
    4271     4182     3936     3873     4108     4356     4363     4206 
    4178     4371     4509     4382     4135     3942     3802     3715 
    3901     4507     5043     4839     3994     3200     2876     3045 
    3647     4472     4984     4811     4179     3562     3302     3516 
    4081     4693     4961     4712     4164     3699     3591     3786 
    4018     4140     4170     4257     4449     4473     4201     3836 
    3538     3384     3512     3987     4525     4673     4498     4348 
    4212     4051     3966     3909     3882     4014     4271     4484 
    4544     4338     3921     3611     3634     4027     4660     5093 
    4981     4510     3985     3462     3146     3437     4221     4834 
    5005     4936     4598     3962     3393     3199     3343     3667 
    3986     4229     4403     4411     4249     4085     4016     4126 
    4479     4891     4976     4612     4124     3673     3254     3213 
    3636     4027     4220     4386     4418     4182     3827     3574 
    3484     3628     4099     4549     4600     4456     4229     3825 
    3581     3762     4128     4465     4610     4401     4037     3773 
    3531     3376     3638     4225     4639     4726     4619     4345 
    3921     3524     3420     3645     3996     4284     4386     4274 
    4010     3731     3709     4156     4842     5229     4996     4229 
    3393     3040     3253     3751     4367     4837     4784     4367 
    4040     3878     3759     3646     3761     4336     4916     4943 
    4669     4338     3765     3137     2992     3523     4405     5061 
    5097     4623     4052     3662     3492     3542     3817     4212 
    4527     4689     4784     4693     4251     3731     3439     3327 
    3410     3834     4507     5015     5055     4708     4041     3279 
    2994     3310     3983     4881     5520     5417     4743     3839 
    2994     2648     3109     4201     5305     5850     5699     4947 
    3802     2722     2309     2855     4033     5255     6002     5861 
    4912     3717     2733     2335     2813     3962     5119     5633 
    5328     4403     3210     2373     2297     2826     3848     5105 
    5879     5819     5016     3649     2336     1779     2247     3616 
    5090     5844     5840     5097     3784     2782     2619     3086 
    3913     4654     4924     4772     4228     3528     3194     3206 
    3377     3890     4548     4915     5080     5035     4402     3485 
    3041     3088     3407     4108     4936     5312     4947     4113 
    3500     3530     3923     4284     4546     4683     4556     4185 
    3882     3807     3762     3701     3827     4077     4234     4337 
    4297     4023     3873     4016     4195     4437     4804     4853 
    4394     3859     3558     3500     3716     4117     4499     4733 
    4626     4213     3848     3650     3665     3997     4448     4777 
    4868     4538     3793     3129     3165     3828     4594     5228 
    5428     4861     3875     3140     2965     3287     3858     4503 
    5013     5092     4715     4089     3416     2980     3053     3694 
    4634     5391     5613     5182     4193     3029     2232     2205 
    3017     4364     5599     6003     5437     4414     3422     2779 
    2791     3460     4482     5404     5714     5305     4487     3508 
    2745     2691     3271     4067     4897     5447     5323     4615 
    3708     2917     2614     3096     4194     5254     5745     5634 
    4884     3651     2837     2911     3372     4002     4773     5223 
    5116     4522     3686     3171     3192     3581     4139     4449 
    4469     4494     4303     3896     3707     3615     3442     3585 
    4101     4519     4625     4364     3726     3053     2786     3191 
    4244     5189     5347     4973     4291     3410     2951     3075 
    3472     4218     4986     5115     4761     4353     3897     3411 
    3157     3392     3962     4369     4563     4730     4641     4230 
    3862     3588     3402     3669     4294     4723     4889     4857 
    4477     3912     3487     3377     3661     4085     4414     4681 
    4618     4087     3631     3626     3865     4232     4638     4750 
    4461     4041     3816     3874     4018     4151     4311     4421 
    4498     4611     4645     4415     3848     3223     3065     3542 
    4371     5105     5279     4768     3998     3472     3333     3530 
    4017     4603     4996     5121     5028     4618     3919     3272 
    2995     3217     3902     4742     5304     5344     4803     3771 
    2732     2432     3133     4295     5274     5728     5443     4486 
    3380     2770     2936     3608     4333     4841     4932     4615 
    4160     3696     3233     3017     3284     3862     4482     5003 
    5147     4654     3812     3253     3254     3658     4306     5049 
    5366     4820     3780     2933     2666     3030     3784     4530 
    4954     4942     4565     3974     3484     3364     3456     3586 
    3804     4152     4654     4997     4783     4193     3559     3165 
    3415     4164     4770     4942     4671     4028     3333     2997 
    3221     3813     4379     4766     4915     4726     4365     4036 
    3720     3511     3609     3975     4347     4540     4548     4415 
    4124     3742     3531     3601     3823     4116     4357     4367 
    4243     4193     4066     3754     3585     3732     3997     4251 
    4472     4642     4641     4329     3905     3666     3649     3883 
    4367     4811     4972     4807     4371     3927     3735     3744 
    3827     3982     4189     4398     4615     4814     4789     4410 
    3916     3626     3615     3809     4118     4433     4585     4521 
    4351     4051     3609     3392     3694     4212     4577     4807 
    4826     4436     3812     3370     3330     3680     4195     4471 
    4401     4294     4205     3935     3609     3547     3742     3913 
    3912     3906     4124     4411     4463     4252     3852     3370 
    3199     3636     4479     5225     5381     4758     3742     2937 
    2671     3010     3823     4683     5155     5112     4656     3986 
    3354     2972     2998     3510     4353     5101     5374     5128 
    4519     3763     3204     3133     3493     4071     4685     5057 
    4958     4496     3955     3557     3437     3627     4045     4406 
    4513     4545     4549     4313     3912     3611     3485     3599 
    3979     4421     4680     4619     4234     3770     3530     3597 
    3948     4472     4791     4693     4434     4172     3835     3576 
    3634     3897     4098     4194     4321     4453     4352     4013 
    3804     3921     4110     4220     4360     4390     4187     4025 
    3991     3890     3808     3890     3996     4063     4232     4460 
    4544     4406     4031     3528     3238     3420     3958     4422 
    4526     4442     4299     3969     3640     3708     4041     4233 
    4333     4513     4538     4334     4205     4151     3947     3767 
    3946     4394     4746     4830     4708     4406     3962     3647 
    3646     3847     4175     4517     4576     4334     4094     4023 
    4058     4059     4010     3991     3954     3859     3809     3848 
    3969     4106     4136     4095     4126     4202     4222     4149 
    4006     3856     3797     3888     4059     4225     4301     4187 
    3956     3790     3800     3924     4006     4009     3952     3871 
    3897     4083     4301     4375     4271     4198     4230     4185 
    4162     4347     4483     4347     4122     4020     4032     4075 
    4152     4266     4352     4392     4394     4355     4297     4216 
    4086     3962     3958     4125     4361     4546     4642     4537 
    4175     3786     3601     3663     3943     4332     4639     4698 
    4476     4106     3780     3673     3784     3892     3950     4151 
    4461     4531     4209     3712     3206     2825     2949     3732 
    4745     5370     5238     4513     3705     3199     3207     3727 
