Origin Time       2024/04/02 04:24:00
Lat.              40.133
Long.             141.712
Depth. (km)       71
Mag.              6.0
Station Code      TCGH09
Station Lat.      36.8625
Station Long.     139.8364
Station Height(m) 461
Record Time       2024/04/02 04:25:59
Sampling Freq(Hz) 100Hz
Duration Time(s)  120
Dir.              3
Scale Factor      2942(gal)/8224139
Max. Acc. (gal)   0.287
Last Correction   2024/04/02 04:26:00
Memo.             
[...]
 -106458  -106469  -106439  -106432  -106469  -106492  -106502  -106548 
 -106604  -106613  -106621  -106679  -106735  -106755  -106786  -106844 
 -106888  -106906  -106933  -106965  -106968  -106955  -106932  -106901 
 -106872  -106825  -106751  -106685  -106617  -106550  -106524  -106519 
 -106482  -106459  -106475  -106486  -106501  -106502  -106417  -106293 
 -106213  -106162  -106141  -106146  -106137  -106118  -106087  -106007 
 -105929  -105915  -105900  -105837  -105794  -105796  -105814  -105862 
 -105941  -105989  -105996  -106012  -106050  -106072  -106085  -106088 
 -106076  -106087  -106126  -106157  -106180  -106216  -106290  -106374 
 -106413  -106409  -106402  -106413  -106438  -106459  -106462  -106452 
 -106455  -106492  -106551  -106618  -106672  -106683  -106667  -106647 
 -106625  -106613  -106645  -106710  -106756  -106763  -106752  -106774 
 -106824  -106826  -106759  -106674  -106608  -106577  -106577  -106586 
 -106577  -106536  -106474  -106412  -106377  -106363  -106326  -106258 
 -106199  -106165  -106137  -106119  -106100  -106035  -105965  -105943 
 -105934  -105918  -105946  -105984  -105968  -105931  -105931  -105948 
 -105950  -105945  -105935  -105914  -105867  -105838  -105880  -105934 
 -105923  -105904  -105935  -105964  -105975  -105980  -105958  -105956 
 -106016  -106089  -106127  -106138  -106149  -106165  -106169  -106188 
 -106219  -106227  -106220  -106215  -106211  -106232  -106278  -106321 
 -106355  -106378  -106390  -106415  -106444  -106461  -106456  -106429 
 -106402  -106398  -106401  -106394  -106398  -106413  -106405  -106385 
 -106358  -106313  -106300  -106319  -106303  -106285  -106307  -106317 
 -106315  -106332  -106350  -106347  -106347  -106350  -106355  -106386 
 -106407  -106351  -106254  -106205  -106192  -106185  -106211  -106246 
 -106254  -106263  -106285  -106309  -106339  -106378  -106409  -106443 
 -106493  -106536  -106547  -106532  -106524  -106540  -106578  -106609 
 -106627  -106636  -106632  -106606  -106552  -106481  -106438  -106427 
 -106402  -106363  -106335  -106311  -106281  -106263  -106245  -106204 
 -106158  -106135  -106128  -106128  -106143  -106178  -106219  -106245 
 -106261  -106277  -106289  -106332  -106400  -106443  -106459  -106450 
 -106419  -106419  -106452  -106485  -106506  -106523  -106531  -106573 
 -106675  -106764  -106793  -106806  -106797  -106756  -106736  -106714 
 -106632  -106548  -106516  -106492  -106458  -106456  -106477  -106490 
 -106486  -106454  -106404  -106359  -106327  -106308  -106293  -106270 
 -106267  -106286  -106282  -106273  -106300  -106316  -106286  -106262 
 -106255  -106227  -106193  -106159  -106119  -106120  -106137  -106118 
 -106107  -106111  -106085  -106043  -106022  -106024  -106045  -106081 
 -106107  -106122  -106150  -106172  -106166  -106153  -106135  -106128 
 -106143  -106150  -106143  -106143  -106135  -106130  -106168  -106228 
 -106262  -106269  -106277  -106270  -106265  -106299  -106319  -106294 
 -106296  -106331  -106339  -106328  -106350  -106370  -106351  -106331 
 -106346  -106385  -106411  -106411  -106411  -106420  -106420  -106401 
 -106408  -106452  -106471  -106469  -106494  -106501  -106477  -106488 
 -106516  -106509  -106497  -106510  -106529  -106531  -106509  -106451 
 -106382  -106385  -106459  -106523  -106571  -106620  -106629  -106616 
 -106606  -106575  -106498  -106419  -106398  -106404  -106385  -106390 
 -106436  -106456  -106447  -106450  -106451  -106427  -106397  -106381 
 -106394  -106438  -106482  -106509  -106510  -106478  -106439  -106442 
 -106474  -106486  -106500  -106531  -106535  -106494  -106465  -106446 
 -106397  -106354  -106351  -106350  -106317  -106273  -106218  -106150 
 -106091  -106060  -106061  -106058  -106038  -106042  -106076  -106077 
 -106034  -105997  -105979  -105949  -105916  -105918  -105948  -105984 
 -106007  -106000  -105985  -105989  -106008  -106023  -106030  -106026 
 -106026  -106046  -106078  -106107  -106143  -106186  -106220  -106262 
 -106312  -106362  -106397  -106407  -106409  -106412  -106413  -106446 
 -106494  -106493  -106473  -106467  -106440  -106421  -106454  -106473 
 -106447  -106436  -106428  -106392  -106353  -106339  -106353  -106384 
 -106411  -106421  -106412  -106384  -106358  -106343  -106336  -106323 
 -106282  -106257  -106285  -106334  -106370  -106384  -106365  -106332 
 -106324  -106350  -106390  -106420  -106421  -106388  -106336  -106313 
 -106315  -106300  -106281  -106277  -106270  -106251  -106227  -106211 
 -106215  -106235  -106265  -106282  -106288  -106278  -106228  -106164 
 -106149  -106174  -106205  -106247  -106301  -106332  -106323  -106305 
 -106305  -106305  -106300  -106303  -106315  -106338  -106366  -106375 
 -106359  -106338  -106331  -106330  -106315  -106290  -106267  -106234 
 -106197  -106181  -106181  -106180  -106169  -106157  -106155  -106164 
 -106185  -106224  -106272  -106297  -106286  -106276  -106296  -106319 
 -106334  -106346  -106348  -106350  -106371  -106402  -106397  -106371 
 -106380  -106420  -106465  -106504  -106543  -106579  -106591  -106567 
 -106543  -106533  -106508  -106483  -106493  -106494  -106461  -106425 
 -106393  -106353  -106330  -106338  -106351  -106348  -106330  -106297 
 -106266  -106262  -106277  -106292  -106301  -106288  -106255  -106242 
 -106255  -106284  -106309  -106326  -106343  -106338  -106296  -106269 
 -106272  -106265  -106251  -106255  -106270  -106261  -106249  -106285 
 -106315  -106294  -106284  -106305  -106326  -106350  -106392  -106419 
 -106440  -106494  -106560  -106598  -106621  -106648  -106668  -106686 
 -106698  -106705  -106735  -106783  -106812  -106801  -106776  -106775 
 -106791  -106830  -106878  -106884  -106849  -106801  -106720  -106633 
 -106590  -106574  -106559  -106552  -106524  -106471  -106431  -106409 
 -106382  -106324  -106262  -106227  -106199  -106180  -106168  -106126 
 -106087  -106066  -106016  -105965  -105950  -105956  -105981  -106007 
 -106023  -106053  -106072  -106062  -106053  -106050  -106045  -106058 
 -106074  -106060  -106035  -106012  -105983  -105973  -106002  -106020 
 -106026  -106054  -106093  -106128  -106184  -106234  -106236  -106235 
 -106274  -106317  -106339  -106362  -106405  -106447  -106482  -106536 
 -106573  -106543  -106501  -106492  -106469  -106432  -106423  -106427 
 -106428  -106424  -106409  -106392  -106389  -106382  -106355  -106336 
 -106334  -106323  -106309  -106278  -106228  -106220  -106249  -106257 
 -106254  -106238  -106193  -106162  -106162  -106174  -106204  -106236 
 -106238  -106222  -106205  -106170  -106127  -106095  -106049  -105999 
 -105989  -106018  -106050  -106080  -106100  -106104  -106115  -106135 
 -106146  -106157  -106188  -106227  -106236  -106239  -106278  -106304 
 -106297  -106328  -106369  -106382  -106405  -106435  -106444  -106454 
 -106474  -106473  -106456  -106450  -106454  -106471  -106478  -106454 
 -106443  -106444  -106423  -106389  -106358  -106331  -106307  -106277 
 -106253  -106240  -106226  -106218  -106219  -106209  -106196  -106196 
 -106201  -106218  -106228  -106209  -106176  -106164  -106181  -106222 
 -106262  -106299  -106338  -106362  -106373  -106398  -106423  -106419 
 -106398  -106385  -106374  -106380  -106412  -106454  -106483  -106473 
 -106434  -106402  -106385  -106369  -106355  -106332  -106301  -106300 
 -106319  -106328  -106351  -106385  -106402  -106394  -106357  -106323 
 -106327  -106338  -106357  -106400  -106432  -106455  -106478  -106459 
 -106424  -106431  -106467  -106510  -106552  -106574  -106577  -106566 
 -106546  -106516  -106485  -106482  -106496  -106500  -106501  -106508 
 -106525  -106558  -106578  -106564  -106550  -106573  -106598  -106597 
 -106617  -106658  -106667  -106651  -106645  -106658  -106664  -106663 
 -106674  -106698  -106716  -106714  -106693  -106660  -106632  -106593 
 -106556  -106564  -106581  -106532  -106463  -106442  -106429  -106386 
 -106348  -106336  -106327  -106319  -106313  -106272  -106218  -106188 
 -106172  -106176  -106177  -106134  -106087  -106061  -106029  -105996 
 -105969  -105938  -105927  -105938  -105946  -105949  -105956  -105985 
 -106026  -106041  -106042  -106062  -106089  -106099  -106097  -106092 
 -106088  -106100  -106115  -106124  -106157  -106204  -106224  -106219 
 -106216  -106205  -106185  -106199  -106247  -106278  -106263  -106227 
 -106196  -106191  -106204  -106224  -106235  -106213  -106189  -106188 
 -106188  -106200  -106230  -106249  -106253  -106262  -106267  -106254 
 -106245  -106259  -106289  -106294  -106272  -106253  -106243  -106230 
 -106234  -106266  -106294  -106305  -106328  -106367  -106385  -106384 
 -106411  -106454  -106473  -106470  -106451  -106415  -106381  -106351 
 -106332  -106350  -106370  -106362  -106334  -106305  -106285  -106277 
 -106282  -106293  -106294  -106296  -106312  -106324  -106330  -106342 
 -106344  -106330  -106312  -106304  -106307  -106311  -106300  -106274 
 -106255  -106245  -106232  -106224  -106219  -106201  -106191  -106191 
 -106182  -106199  -106258  -106300  -106317  -106324  -106276  -106222 
 -106236  -106282  -106328  -106384  -106425  -106435  -106447  -106494 
 -106524  -106513  -106506  -106498  -106471  -106461  -106474  -106493 
 -106489  -106461  -106440  -106425  -106408  -106413  -106428  -106417 
 -106407  -106402  -106363  -106300  -106265  -106250  -106230  -106215 
 -106219  -106240  -106251  -106227  -106215  -106238  -106227  -106188 
 -106207  -106267  -106282  -106258  -106235  -106213  -106203  -106207 
 -106222  -106258  -106315  -106357  -106355  -106343  -106358  -106386 
 -106415  -106462  -106516  -106543  -106550  -106555  -106569  -106582 
 -106585  -106597  -106635  -106666  -106674  -106668  -106651  -106628 
 -106627  -106645  -106635  -106609  -106602  -106609  -106616  -106596 
 -106562  -106544  -106527  -106515  -106502  -106486  -106483  -106479 
 -106465  -106452  -106419  -106370  -106355  -106355  -106342  -106332 
 -106330  -106344  -106366  -106346  -106294  -106265  -106251  -106223 
 -106192  -106170  -106149  -106138  -106131  -106112  -106108  -106124 
 -106150  -106166  -106143  -106105  -106077  -106054  -106047  -106077 
 -106119  -106108  -106073  -106068  -106051  -106027  -106043  -106066 
 -106088  -106123  -106137  -106145  -106180  -106211  -106208  -106189 
 -106177  -106178  -106209  -106258  -106263  -106243  -106250  -106243 
 -106207  -106193  -106196  -106180  -106169  -106181  -106197  -106227 
 -106269  -106284  -106280  -106292  -106304  -106296  -106294  -106316 
 -106324  -106299  -106284  -106312  -106347  -106367  -106382  -106381 
 -106362  -106369  -106392  -106389  -106390  -106431  -106459  -106448 
 -106448  -106461  -106444  -106402  -106361  -106334  -106335  -106366 
 -106401  -106419  -106412  -106386  -106362  -106363  -106378  -106378 
 -106371  -106365  -106354  -106340  -106311  -106266  -106240  -106240 
 -106247  -106250  -106261  -106286  -106312  -106323  -106296  -106235 
 -106188  -106164  -106146  -106137  -106120  -106114  -106141  -106154 
 -106128  -106111  -106118  -106120  -106134  -106177  -106213  -106222 
 -106218  -106224  -106224  -106226  -106251  -106285  -106317  -106369 
 -106424  -106452  -106450  -106432  -106411  -106412  -106462  -106517 
 -106533  -106531  -106535  -106550  -106567  -106583  -106602  -106610 
 -106591  -106581  -106597  -106620  -106648  -106686  -106726  -106759 
 -106772  -106780  -106793  -106801  -106790  -106771  -106771  -106775 
 -106751  -106713  -106695  -106697  -106690  -106663  -106639  -106631 
 -106598  -106542  -106508  -106478  -106436  -106405  -106389  -106366 
 -106342  -106336  -106339  -106321  -106288  -106246  -106203  -106177 
 -106154  -106119  -106078  -106054  -106050  -106035  -106027  -106042 
 -106023  -105975  -105961  -105945  -105899  -105880  -105898  -105906 
 -105912  -105934  -105954  -105970  -105992  -106000  -106000  -106033 
 -106056  -106053  -106091  -106141  -106150  -106181  -106236  -106266 
 -106293  -106334  -106347  -106336  -106346  -106378  -106405  -106435 
 -106482  -106528  -106544  -106536  -106547  -106566  -106554  -106531 
 -106533  -106547  -106555  -106574  -106596  -106583  -106546  -106520 
 -106509  -106505  -106509  -106517  -106528  -106536  -106535  -106528 
 -106520  -106517  -106510  -106489  -106452  -106421  -106409  -106404 
 -106388  -106354  -106319  -106297  -106282  -106270  -106261  -106232 
 -106191  -106176  -106180  -106176  -106170  -106153  -106114  -106070 
 -106024  -105984  -105977  -105988  -106008  -106033  -106041  -106033 
 -106018  -106002  -105977  -105931  -105910  -105938  -105960  -105983 
 -106043  -106105  -106143  -106164  -106173  -106177  -106182  -106192 
 -106197  -106197  -106208  -106220  -106230  -106240  -106251  -106280 
 -106330  -106371  -106369  -106335  -106330  -106344  -106355  -106377 
 -106386  -106380  -106396  -106412  -106417  -106446  -106483  -106504 
 -106504  -106504  -106519  -106539  -106564  -106606  -106666  -106699 
 -106704  -106721  -106732  -106728  -106752  -106799  -106830  -106839 
 -106843  -106852  -106851  -106841  -106841  -106828  -106799  -106798 
 -106826  -106847  -106855  -106866  -106851  -106790  -106733  -106716 
 -106697  -106648  -106587  -106523  -106461  -106402  -106351  -106312 
 -106282  -106255  -106239  -106219  -106182  -106155  -106153  -106145 
 -106116  -106070  -106008  -105954  -105939  -105933  -105904  -105881 
 -105868  -105848  -105819  -105788  -105759  -105714  -105667  -105629 
 -105591  -105555  -105530  -105525  -105534  -105548  -105564  -105565 
 -105548  -105543  -105557  -105578  -105603  -105642  -105676  -105700 
 -105729  -105764  -105781  -105800  -105862  -105939  -105984  -106015 
 -106096  -106182  -106196  -106195  -106224  -106255  -106300  -106359 
 -106404  -106439  -106486  -106539  -106577  -106590  -106600  -106617 
 -106631  -106641  -106660  -106675  -106674  -106678  -106691  -106679 
 -106645  -106639  -106662  -106685  -106694  -106685  -106664  -106658 
 -106668  -106690  -106722  -106744  -106729  -106709  -106702  -106701 
 -106713  -106722  -106717  -106709  -106710  -106731  -106745  -106751 
 -106771  -106767  -106737  -106728  -106720  -106690  -106651  -106616 
 -106583  -106540  -106513  -106513  -106501  -106475  -106465  -106466 
 -106473  -106485  -106485  -106461  -106415  -106374  -106342  -106312 
 -106285  -106245  -106189  -106151  -106138  -106143  -106165  -106186 
 -106201  -106224  -106240  -106234  -106239  -106270  -106290  -106297 
 -106307  -106305  -106305  -106317  -106321  -106308  -106293  -106293 
 -106304  -106315  -106324  -106331  -106326  -106324  -106357  -106402 
 -106428  -106435  -106436  -106436  -106435  -106431  -106421  -106412 
 -106408  -106404  -106404  -106428  -106446  -106427  -106400  -106388 
 -106385  -106386  -106381  -106369  -106354  -106335  -106309  -106285 
 -106269  -106251  -106223  -106204  -106188  -106161  -106149  -106142 
 -106124  -106123  -106138  -106150  -106155  -106147  -106141  -106150 
 -106159  -106153  -106143  -106138  -106145  -106172  -106212  -106251 
 -106276  -106273  -106272  -106305  -106361  -106398  -106415  -106421 
 -106421  -106421  -106435  -106456  -106474  -106477  -106462  -106443 
 -106432  -106413  -106378  -106355  -106355  -106350  -106339  -106343 
 -106342  -106338  -106344  -106335  -106321  -106311  -106280  -106235 
 -106205  -106181  -106161  -106158  -106159  -106143  -106119  -106104 
 -106089  -106070  -106061  -106068  -106069  -106064  -106058  -106050 
 -106049  -106060  -106074  -106093  -106123  -106158  -106185  -106224 
 -106265  -106280  -106284  -106286  -106281  -106273  -106253  -106242 
 -106281  -106327  -106335  -106335  -106334  -106328  -106348  -106375 
 -106384  -106401  -106421  -106415  -106405  -106394  -106370  -106354 
 -106357  -106362  -106362  -106373  -106400  -106434  -106462  -106470 
 -106465  -106456  -106435  -106413  -106409  -106434  -106477  -106509 
 -106531  -106560  -106590  -106602  -106602  -106601  -106596  -106591 
 -106586  -106575  -106571  -106569  -106551  -106528  -106515  -106488 
 -106467  -106481  -106497  -106488  -106474  -106474  -106466  -106443 
 -106428  -106423  -106419  -106405  -106378  -106351  -106330  -106307 
 -106290  -106284  -106263  -106243  -106227  -106189  -106146  -106134 
 -106132  -106111  -106093  -106095  -106089  -106069  -106054  -106043 
 -106039  -106038  -106043  -106066  -106073  -106050  -106037  -106024 
 -105996  -105976  -105981  -106006  -106026  -106047  -106093  -106132 
 -106151  -106146  -106105  -106081  -106091  -106089  -106092  -106115 
 -106132  -106151  -106199  -106246  -106263  -106288  -106323  -106343 
 -106363  -106397  -106424  -106443  -106469  -106490  -106498  -106509 
 -106527  -106544  -106566  -106586  -106601  -106614  -106612  -106593 
 -106590  -106601  -106598  -106594  -106590  -106570  -106533  -106498 
 -106475  -106455  -106421  -106377  -106339  -106300  -106272  -106289 
 -106326  -106338  -106336  -106346  -106354  -106339  -106315  -106313 
 -106327  -106321  -106326  -106361  -106390  -106404  -106416  -106409 
 -106396  -106397  -106398  -106408  -106434  -106461  -106493  -106517 
 -106517  -106519  -106515  -106493  -106478  -106485  -106501  -106510 
 -106515  -106500  -106477  -106478  -106488  -106474  -106458  -106446 
 -106452  -106470  -106466  -106466  -106477  -106470  -106452  -106428 
 -106393  -106362  -106327  -106288  -106259  -106251  -106254  -106238 
 -106211  -106203  -106209  -106228  -106246  -106227  -106203  -106219 
 -106239  -106232  -106226  -106211  -106203  -106211  -106189  -106162 
 -106162  -106165  -106162  -106146  -106131  -106146  -106155  -106145 
 -106138  -106130  -106122  -106134  -106153  -106176  -106193  -106199 
 -106205  -106208  -106200  -106207  -106234  -106250  -106263  -106292 
 -106321  -106354  -106394  -106421  -106419  -106419  -106435  -106444 
 -106461  -106493  -106504  -106485  -106475  -106489  -106502  -106509 
 -106525  -106539  -106547  -106558  -106563  -106566  -106569  -106564 
 -106540  -106500  -106483  -106496  -106488  -106461  -106429  -106398 
 -106381  -106378  -106378  -106366  -106339  -106311  -106290  -106276 
 -106251  -106230  -106230  -106226  -106211  -106215  -106232  -106238 
 -106230  -106213  -106189  -106158  -106153  -106184  -106209  -106213 
 -106208  -106193  -106164  -106142  -106142  -106142  -106142  -106154 
 -106155  -106124  -106107  -106132  -106145  -106123  -106107  -106104 
 -106111  -106138  -106158  -106165  -106161  -106153  -106146  -106114 
 -106069  -106066  -106091  -106110  -106135  -106154  -106142  -106122 
 -106126  -106149  -106188  -106230  -106247  -106250  -106258  -106267 
 -106278  -106297  -106317  -106317  -106301  -106293  -106309  -106339 
 -106353  -106347  -106355  -106389  -106419  -106436  -106466  -106492 
 -106496  -106521  -106573  -106601  -106606  -106620  -106627  -106623 
 -106624  -106617  -106604  -106597  -106596  -106596  -106604  -106617 
 -106624  -106633  -106650  -106641  -106616  -106594  -106571  -106540 
 -106506  -106466  -106438  -106440  -106435  -106401  -106371  -106342 
 -106289  -106222  -106150  -106097  -106097  -106123  -106142  -106170 
 -106193  -106178  -106174  -106192  -106188  -106165  -106154  -106154 
 -106151  -106159  -106188  -106211  -106218  -106232  -106257  -106276 
