Origin Time       2024/04/02 04:24:00
Lat.              40.133
Long.             141.712
Depth. (km)       71
Mag.              6.0
Station Code      TCGH15
Station Lat.      36.5595
Station Long.     139.8637
Station Height(m) 125
Record Time       2024/04/02 04:25:35
Sampling Freq(Hz) 100Hz
Duration Time(s)  139
Dir.              4
Scale Factor      7845(gal)/8223790
Max. Acc. (gal)   1.616
Last Correction   2024/04/02 04:25:35
Memo.             
[...]
    1343     1351     1332     1298     1283     1309     1375     1472 
    1587     1671     1706     1725     1711     1642     1588     1572 
    1518     1412     1309     1248     1286     1426     1580     1680 
    1745     1804     1852     1837     1734     1578     1449     1414 
    1479     1568     1579     1525     1474     1422     1368     1351 
    1386     1464     1561     1638     1665     1621     1532     1464 
    1449     1452     1444     1422     1409     1429     1455     1436 
    1385     1347     1333     1359     1459     1584     1641     1664 
    1711     1713     1618     1478     1347     1274     1298     1404 
    1528     1624     1717     1818     1879     1887     1868     1837 
    1818     1822     1800     1741     1675     1607     1544     1503 
    1487     1495     1518     1525     1522     1571     1652     1675 
    1637     1564     1441     1318     1260     1240     1242     1289 
    1387     1498     1566     1567     1522     1463     1435     1467 
    1539     1618     1678     1699     1678     1613     1532     1460 
    1420     1414     1422     1417     1397     1394     1437     1502 
    1553     1576     1534     1441     1387     1412     1476     1551 
    1618     1640     1609     1561     1509     1429     1362     1341 
    1344     1377     1460     1521     1510     1493     1516     1557 
    1609     1664     1687     1668     1638     1617     1609     1644 
    1715     1767     1772     1742     1679     1606     1570     1540 
    1483     1455     1485     1541     1606     1663     1679     1648 
    1605     1583     1591     1610     1640     1695     1736     1703 
    1607     1483     1364     1314     1367     1467     1574     1695 
    1791     1817     1794     1736     1633     1524     1483     1525 
    1566     1568     1576     1587     1603     1629     1618     1549 
    1471     1413     1385     1416     1497     1567     1610     1632 
    1584     1456     1314     1216     1174     1204     1328     1487 
    1590     1638     1656     1633     1605     1609     1618     1633 
    1652     1641     1599     1553     1502     1468     1487     1528 
    1537     1540     1575     1626     1669     1686     1647     1572 
    1525     1516     1499     1449     1381     1317     1282     1296 
    1355     1418     1463     1520     1586     1614     1611     1598 
    1571     1549     1560     1597     1625     1637     1651     1645 
    1598     1539     1482     1426     1385     1358     1366     1428 
    1494     1518     1506     1478     1451     1440     1455     1479 
    1487     1471     1455     1460     1467     1449     1435     1459 
    1509     1560     1622     1688     1721     1723     1723     1705 
    1660     1629     1597     1536     1499     1505     1490     1429 
    1366     1331     1344     1420     1544     1672     1759     1791 
    1765     1675     1576     1529     1532     1593     1723     1858 
    1910     1887     1846     1809     1782     1777     1771     1730 
    1669     1636     1648     1656     1615     1526     1398     1262 
    1200     1233     1296     1358     1447     1539     1580     1584 
    1560     1497     1428     1395     1393     1414     1453     1482 
    1495     1549     1657     1744     1763     1730     1655     1563 
    1516     1524     1544     1547     1520     1470     1420     1372 
    1316     1291     1337     1428     1514     1564     1561     1512 
    1447     1412     1432     1490     1553     1582     1561     1516 
    1486     1506     1578     1653     1669     1618     1530     1464 
    1458     1497     1570     1661     1740     1779     1741     1624 
    1517     1470     1459     1479     1510     1532     1551     1571 
    1590     1571     1497     1436     1459     1528     1594     1640 
    1653     1629     1595     1576     1572     1575     1572     1572 
    1597     1626     1640     1628     1580     1522     1486     1456 
    1408     1350     1329     1368     1437     1501     1561     1605 
    1605     1593     1570     1505     1443     1431     1439     1429 
    1413     1421     1460     1545     1663     1695     1606     1526 
    1525     1545     1566     1588     1609     1618     1607     1564 
    1474     1362     1308     1358     1455     1525     1563     1605 
    1663     1701     1713     1706     1649     1564     1501     1441 
    1385     1393     1462     1539     1626     1718     1764     1768 
    1773     1756     1702     1647     1597     1541     1501     1486 
    1466     1432     1444     1520     1586     1613     1613     1593 
    1587     1628     1669     1657     1564     1421     1316     1289 
    1325     1404     1502     1610     1702     1730     1698     1630 
    1551     1529     1571     1603     1593     1553     1521     1514 
    1507     1482     1462     1497     1594     1675     1688     1672 
    1653     1647     1687     1764     1804     1775     1695     1593 
    1483     1410     1391     1401     1436     1505     1582     1630 
    1611     1520     1418     1372     1416     1526     1611     1618 
    1583     1566     1559     1510     1429     1390     1413     1458 
    1489     1487     1466     1453     1468     1498     1506     1487 
    1507     1582     1633     1620     1549     1435     1327     1281 
    1287     1318     1377     1452     1530     1626     1701     1702 
    1675     1657     1614     1557     1533     1521     1516     1526 
    1513     1470     1456     1486     1516     1547     1605     1669 
    1715     1745     1741     1678     1580     1498     1452     1436 
    1463     1559     1663     1687     1657     1617     1559     1521 
    1533     1556     1579     1634     1702     1728     1695     1625 
    1526     1441     1417     1428     1445     1485     1534     1556 
    1533     1491     1460     1468     1528     1614     1692     1718 
    1659     1570     1510     1435     1323     1247     1244     1282 
    1340     1397     1435     1480     1544     1595     1613     1607 
    1582     1547     1514     1485     1466     1482     1514     1528 
    1539     1570     1574     1509     1435     1414     1452     1530 
    1606     1624     1595     1594     1620     1613     1590     1602 
    1630     1641     1642     1615     1517     1394     1351     1397 
    1497     1636     1740     1746     1719     1707     1661     1570 
    1493     1494     1559     1605     1588     1559     1539     1505 
    1485     1513     1567     1607     1624     1602     1545     1471 
    1404     1362     1385     1487     1617     1722     1757     1718 
    1648     1576     1528     1518     1541     1597     1661     1684 
    1645     1571     1512     1489     1459     1401     1370     1379 
    1370     1333     1340     1397     1475     1595     1713     1728 
    1651     1545     1453     1425     1471     1548     1615     1653 
    1675     1705     1709     1667     1615     1588     1591     1642 
    1734     1788     1740     1605     1440     1290     1193     1159 
    1181     1274     1435     1601     1682     1657     1571     1472 
    1408     1410     1459     1498     1507     1512     1512     1474 
    1395     1309     1254     1267     1341     1420     1478     1522 
    1555     1584     1637     1713     1763     1771     1773     1756 
    1676     1570     1468     1354     1256     1243     1275     1308 
    1372     1462     1539     1630     1757     1871     1908     1867 
    1776     1647     1498     1382     1331     1362     1478     1618 
    1707     1741     1775     1829     1852     1779     1613     1429 
    1298     1264     1366     1557     1718     1831     1960     2052 
    2045     1968     1825     1620     1426     1271     1131     1069 
    1139     1289     1503     1786     2014     2108     2137     2135 
    2065     1931     1788     1671     1586     1536     1512     1462 
    1375     1294     1255     1270     1356     1526     1741     1922 
    2018     2011     1895     1687     1452     1243     1101     1073 
    1144     1274     1467     1678     1802     1814     1742     1609 
    1486     1436     1439     1468     1551     1678     1763     1749 
    1651     1466     1244     1097     1069     1144     1314     1506 
    1598     1539     1372     1188     1069     1063     1162     1324 
    1497     1625     1665     1644     1622     1641     1723     1846 
    1931     1927     1840     1672     1417     1142      950      908 
    1040     1312     1584     1761     1840     1833     1768     1702 
    1668     1622     1517     1401     1355     1375     1436     1516 
    1567     1567     1526     1470     1429     1428     1452     1487 
    1502     1480     1470     1493     1497     1445     1386     1385 
    1443     1547     1699     1829     1831     1701     1516     1333 
    1190     1134     1178     1298     1453     1584     1618     1513 
    1301     1092     1009     1097     1325     1578     1713     1717 
    1694     1675     1656     1671     1718     1748     1703     1557 
    1325     1031      747      657      870     1291     1749     2122 
    2365     2500     2506     2336     2050     1772     1586     1528 
    1580     1661     1694     1682     1667     1636     1537     1360 
    1162     1001      942     1024     1190     1360     1532     1692 
    1800     1861     1890     1871     1834     1856     1956     2099 
    2235     2262     2103     1795     1459     1221     1150     1247 
    1480     1779     2029     2164     2168     2006     1674     1297 
    1017      880      888     1046     1360     1787     2189     2420 
    2417     2192     1833     1494     1290     1219     1250     1395 
    1638     1898     2077     2101     1988     1837     1687     1520 
    1355     1267     1324     1486     1655     1768     1748     1552 
    1333     1239     1250     1354     1557     1737     1777     1701 
    1545     1363     1242     1210     1223     1231     1215     1171 
    1101     1035     1054     1196     1406     1640     1822     1818 
    1617     1359     1132     1024     1142     1428     1713     1881 
    1895     1746     1499     1306     1267     1370     1555     1696 
    1642     1386     1073      877      877      986     1080     1159 
    1286     1425     1530     1629     1740     1873     2026     2119 
    2072     1863     1540     1225     1019      945      997     1152 
    1410     1761     2088     2226     2111     1837     1568     1421 
    1404     1444     1462     1386     1213     1069     1058     1138 
    1250     1412     1652     1927     2116     2150     2081     1966 
    1850     1753     1610     1389     1159      996      895      832 
     850     1019     1325     1659     1896     1966     1879     1687 
    1422     1124      891      820      935     1183     1501     1800 
    2010     2182     2350     2415     2359     2249     2041     1706 
    1363     1116      936      811      768      778      839      996 
    1221     1448     1672     1927     2212     2466     2605     2556 
    2276     1823     1343      972      803      874     1134     1464 
    1745     1885     1856     1722     1601     1572     1659     1806 
    1910     1912     1834     1726     1632     1560     1495     1456 
    1512     1648     1725     1676     1606     1607     1657     1750 
    1922     2111     2188     2111     1898     1601     1327     1135 
    1020     1007     1119     1318     1549     1799     1992     2012 
    1873     1695     1571     1541     1575     1579     1510     1431 
    1416     1445     1489     1599     1779     1908     1948     1926 
    1796     1559     1321     1190     1198     1314     1489     1671 
    1740     1609     1339     1044      835      815     1000     1310 
    1641     1891     1988     1922     1783     1692     1703     1772 
    1840     1860     1741     1374      815      332      217      537 
    1082     1583     1898     1977     1837     1609     1463     1487 
    1652     1896     2177     2377     2330     2006     1513     1070 
     919     1101     1444     1800     2150     2471     2671     2654 
    2403     2008     1620     1340     1194     1171     1252     1385 
    1516     1603     1571     1436     1333     1316     1360     1507 
    1725     1883     1960     2012     2027     2010     1980     1865 
    1594     1204      799      492      400      572      923     1310 
    1714     2135     2403     2374     2079     1602     1092      741 
     587      565      689      957     1247     1468     1649     1811 
    1890     1845     1730     1594     1468     1390     1343     1305 
    1294     1313     1350     1362     1310     1254     1291     1459 
    1664     1788     1815     1810     1827     1856     1815     1705 
    1615     1553     1466     1341     1143      897      722      691 
     807     1043     1321     1552     1734     1911     2016     1907 
    1679     1617     1763     1926     2000     1962     1800     1597 
    1455     1337     1169     1019      958      939      936      972 
    1028     1113     1239     1354     1421     1513     1648     1769 
    1890     2060     2247     2346     2245     1941     1572     1286 
    1129     1089     1148     1323     1584     1807     1892     1895 
    1919     1993     2069     2061     1880     1525     1101      765 
     668      845     1228     1772     2394     2934     3238     3149 
    2602     1827     1174      791      641      576      426      252 
     282      622     1175     1736     2135     2396     2624     2782 
    2694     2259     1566      878      457      314      309      402 
     612      935     1375     1858     2212     2354     2350     2276 
    2177     2012     1682     1296     1098     1113     1181     1181 
    1116     1135     1378     1768     2077     2188     2185     2170 
    2141     2083     2037     2012     2007     2006     1911     1634 
    1193      710      417      494      885     1452     2084     2628 
    2924     2921     2700     2346     1969     1715     1637     1691 
    1815     1852     1629     1212      874      810     1042     1493 
    1996     2365     2488     2355     2007     1580     1287     1269 
    1478     1717     1779     1583     1208      859      737      915 
    1381     2002     2519     2706     2469     1827      978      264 
     -20      186      723     1340     1817     2097     2227     2187 
    1983     1741     1572     1483     1416     1314     1178     1026 
     911      935     1127     1391     1629     1756     1717     1571 
    1426     1332     1327     1428     1530     1503     1350     1158 
    1000      955     1057     1221     1393     1568     1655     1541 
    1296     1089     1005     1046     1182     1294     1282     1170 
    1027      928      967     1144     1395     1674     1902     1996 
    1960     1804     1514     1178      993     1048     1244     1435 
    1479     1274      938      739      788     1031     1414     1836 
    2145     2288     2315     2204     1933     1655     1506     1421 
    1352     1297     1174      970      851      988     1413     2006 
    2592     3033     3175     2945     2469     1918     1431     1119 
    1069     1290     1669     1980     2035     1842     1544     1321 
    1350     1665     2133     2581     2822     2683     2164     1439 
     712      189       79      446     1096     1709     2072     2188 
    2214     2216     2168     2126     2083     1927     1719     1559 
    1354     1089      936      942     1043     1256     1480     1518 
    1414     1317     1258     1260     1389     1637     1945     2208 
    2316     2209     1938     1615     1302     1063      997     1136 
    1431     1763     1975     2002     1944     1917     1937     1952 
    1907     1798     1665     1571     1541     1555     1544     1462 
    1343     1274     1313     1421     1510     1560     1632     1725 
    1721     1590     1462     1401     1355     1283     1171     1062 
    1048     1193     1456     1713     1849     1865     1791     1634 
    1448     1320     1305     1418     1640     1896     2130     2317 
    2347     2112     1752     1498     1390     1366     1428     1536 
    1621     1669     1674     1605     1532     1570     1690     1763 
    1699     1487     1248     1150     1210     1332     1456     1590 
    1706     1753     1709     1611     1541     1543     1578     1614 
    1672     1705     1609     1422     1286     1252     1271     1287 
    1320     1413     1524     1539     1463     1424     1467     1455 
    1233      858      535      417      479      587      723     1013 
    1425     1760     1894     1853     1765     1738     1776     1809 
    1795     1783     1780     1703     1529     1328     1201     1181 
    1209     1237     1252     1290     1389     1517     1637     1773 
    1939     2107     2235     2266     2182     2016     1752     1413 
    1159     1096     1134     1138     1075      976      927     1019 
    1206     1372     1464     1487     1441     1306     1088      868 
     738      768     1019     1462     1925     2238     2328     2193 
    1861     1387      908      627      660      928     1242     1448 
    1559     1678     1818     1911     1953     1957     1923     1888 
    1884     1868     1790     1687     1659     1750     1946     2177 
    2273     2124     1854     1648     1537     1491     1501     1557 
    1638     1753     1911     2029     2058     2085     2155     2214 
    2185     2022     1748     1451     1223     1112     1088     1119 
    1244     1478     1752     1966     2069     2066     1992     1842 
    1588     1283     1059     1000     1071     1167     1251     1402 
    1642     1923     2219     2450     2504     2400     2234     2057 
    1869     1657     1405     1131      913      797      764      804 
     945     1198     1528     1846     2047     2088     2033     1957 
    1861     1748     1687     1696     1715     1721     1686     1560 
    1394     1229     1078     1000     1026     1128     1281     1421 
    1509     1595     1733     1900     2007     1958     1744     1463 
    1240     1163     1239     1378     1498     1601     1738     1945 
    2130     2092     1750     1333     1077      974      966      978 
    1013     1166     1360     1507     1615     1625     1601     1651 
    1736     1902     2127     2208     2058     1749     1459     1335 
    1316     1210      905      526      349      598     1225     1881 
    2309     2520     2454     2000     1352      865      743      973 
    1371     1769     2077     2226     2199     2045     1817     1591 
    1443     1397     1439     1510     1495     1395     1335     1274 
    1040      643      336      398      872     1510     2012     2255 
    2278     2115     1742     1228      804      660      772      966 
    1090     1115     1074     1011      993     1057     1209     1439 
    1686     1885     2027     2126     2151     2034     1784     1476 
    1183     1019     1004     1036     1089     1197     1343     1572 
    1910     2149     2084     1821     1582     1409     1220     1044 
