Origin Time       2024/04/02 04:24:00
Lat.              40.133
Long.             141.712
Depth. (km)       71
Mag.              6.0
Station Code      TCGH14
Station Lat.      36.5509
Station Long.     139.6154
Station Height(m) 80
Record Time       2024/04/02 04:25:58
Sampling Freq(Hz) 100Hz
Duration Time(s)  120
Dir.              1
Scale Factor      2942(gal)/8224139
Max. Acc. (gal)   0.289
Last Correction   2024/04/02 04:25:59
Memo.             
[...]
   10493    10511    10523    10534    10546    10527    10467    10434 
   10422    10378    10336    10347    10384    10438    10505    10525 
   10497    10465    10436    10395    10350    10336    10354    10355 
   10350    10363    10401    10476    10527    10516    10494    10501 
   10524    10512    10454    10420    10413    10403    10431    10497 
   10551    10584    10584    10548    10517    10525    10552    10575 
   10592    10592    10592    10616    10633    10620    10621    10650 
   10663    10660    10656    10647    10625    10609    10621    10623 
   10605    10617    10631    10605    10602    10611    10579    10571 
   10601    10608    10589    10574    10559    10559    10605    10646 
   10628    10585    10566    10590    10625    10625    10600    10571 
   10550    10563    10598    10615    10597    10546    10494    10492 
   10511    10485    10430    10432    10486    10511    10505    10494 
   10466    10450    10477    10498    10473    10438    10432    10424 
   10428    10467    10480    10461    10467    10481    10486    10497 
   10497    10482    10477    10466    10440    10432    10447    10463 
   10478    10488    10493    10497    10500    10494    10484    10466 
   10466    10493    10516    10517    10521    10536    10554    10571 
   10590    10597    10602    10636    10674    10673    10636    10597 
   10555    10540    10570    10588    10579    10589    10612    10602 
   10569    10563    10569    10551    10552    10581    10596    10588 
   10561    10530    10530    10550    10567    10581    10589    10592 
   10584    10551    10517    10494    10470    10463    10477    10494 
   10513    10532    10527    10498    10494    10548    10596    10584 
   10571    10578    10569    10561    10542    10505    10498    10515 
   10517    10512    10492    10462    10446    10439    10424    10403 
   10403    10432    10466    10470    10455    10467    10500    10516 
   10540    10573    10582    10592    10616    10627    10629    10643 
   10652    10654    10651    10648    10643    10646    10669    10686 
   10673    10662    10654    10621    10602    10615    10616    10592 
   10559    10542    10544    10557    10584    10598    10570    10530 
   10497    10467    10463    10455    10411    10382    10384    10374 
   10361    10372    10404    10431    10443    10447    10446    10451 
   10453    10435    10430    10438    10439    10434    10432    10446 
   10465    10463    10462    10474    10482    10477    10458    10444 
   10451    10470    10489    10494    10501    10519    10535    10546 
   10539    10519    10504    10497    10488    10481    10473    10466 
   10473    10504    10547    10557    10523    10503    10524    10555 
   10573    10557    10498    10474    10519    10554    10550    10571 
   10615    10617    10589    10565    10520    10480    10482    10478 
   10444    10435    10458    10481    10490    10489    10508    10540 
   10557    10582    10605    10588    10585    10620    10619    10573 
   10551    10571    10597    10620    10648    10642    10592    10566 
   10561    10543    10554    10585    10569    10535    10524    10535 
   10574    10619    10628    10628    10648    10656    10640    10617 
   10594    10592    10625    10638    10619    10628    10651    10659 
   10678    10681    10643    10606    10582    10550    10544    10566 
   10552    10520    10544    10608    10639    10629    10602    10571 
   10563    10575    10573    10548    10519    10503    10512    10520 
   10512    10519    10539    10552    10550    10508    10457    10447 
   10459    10470    10484    10471    10436    10424    10447    10470 
   10469    10465    10470    10473    10477    10489    10482    10436 
   10401    10401    10422    10451    10471    10466    10462    10480 
   10501    10505    10492    10470    10440    10427    10458    10496 
   10494    10453    10392    10358    10392    10458    10490    10474 
   10443    10424    10416    10409    10416    10430    10436    10449 
   10453    10449    10477    10523    10550    10573    10581    10569 
   10578    10600    10601    10592    10575    10566    10575    10586 
   10596    10588    10550    10520    10524    10547    10557    10528 
   10521    10566    10571    10523    10488    10457    10427    10424 
   10428    10434    10443    10463    10484    10489    10505    10528 
   10521    10531    10569    10584    10590    10594    10577    10563 
   10570    10590    10625    10639    10627    10624    10612    10598 
   10609    10597    10584    10623    10648    10621    10596    10569 
   10528    10509    10531    10557    10554    10538    10542    10554 
   10558    10563    10554    10534    10547    10590    10628    10635 
   10617    10625    10648    10624    10593    10596    10596    10592 
   10597    10592    10578    10592    10611    10569    10503    10498 
   10531    10538    10504    10462    10463    10507    10547    10577 
   10598    10602    10582    10543    10504    10485    10484    10473 
   10461    10461    10458    10462    10480    10480    10466    10450 
   10434    10444    10476    10492    10482    10453    10443    10481 
   10523    10540    10561    10575    10570    10551    10534    10540 
   10540    10504    10503    10546    10557    10531    10512    10504 
   10505    10513    10507    10496    10513    10535    10536    10528 
   10509    10486    10473    10473    10498    10513    10490    10482 
   10515    10547    10574    10584    10558    10544    10567    10588 
   10597    10602    10613    10616    10589    10575    10598    10605 
   10586    10567    10552    10562    10581    10552    10528    10552 
   10557    10525    10504    10494    10489    10490    10503    10521 
   10531    10516    10484    10465    10477    10505    10528    10519 
   10480    10466    10494    10507    10486    10471    10462    10467 
   10485    10474    10451    10455    10455    10459    10496    10513 
   10497    10497    10532    10559    10555    10546    10532    10524 
   10543    10566    10588    10604    10570    10504    10466    10471 
   10482    10467    10457    10476    10489    10490    10492    10494 
   10493    10481    10476    10504    10544    10557    10554    10567 
   10578    10566    10561    10570    10571    10563    10547    10527 
   10528    10544    10552    10544    10527    10534    10565    10562 
   10535    10534    10532    10512    10503    10503    10505    10516 
   10519    10511    10504    10521    10551    10544    10517    10509 
   10489    10471    10493    10509    10489    10463    10451    10457 
   10476    10482    10478    10485    10501    10536    10582    10585 
   10547    10536    10557    10565    10565    10569    10555    10538 
   10536    10538    10523    10515    10551    10581    10548    10521 
   10552    10566    10530    10511    10530    10546    10574    10616 
   10606    10570    10557    10550    10535    10515    10478    10439 
   10436    10480    10528    10547    10532    10503    10497    10508 
   10509    10497    10481    10501    10544    10534    10490    10465 
   10449    10453    10471    10477    10481    10480    10467    10465 
   10485    10521    10532    10513    10500    10500    10494    10469 
   10435    10417    10423    10440    10457    10471    10489    10508 
   10519    10498    10474    10482    10507    10521    10516    10512 
   10528    10546    10554    10563    10550    10527    10536    10557 
   10561    10551    10538    10530    10536    10531    10498    10490 
   10515    10519    10507    10511    10511    10511    10543    10598 
   10644    10647    10613    10592    10605    10635    10663    10675 
   10666    10638    10588    10548    10528    10505    10507    10534 
   10527    10498    10494    10505    10509    10521    10551    10567 
   10546    10507    10485    10498    10513    10517    10542    10577 
   10592    10597    10593    10570    10565    10582    10584    10588 
   10643    10702    10701    10665    10648    10640    10623    10592 
   10552    10532    10558    10593    10602    10596    10582    10575 
   10588    10593    10558    10534    10555    10551    10515    10516 
   10527    10508    10524    10562    10555    10540    10534    10490 
   10440    10439    10458    10447    10446    10473    10476    10476 
   10505    10531    10578    10644    10654    10633    10624    10604 
   10578    10565    10559    10561    10555    10543    10565    10629 
   10674    10681    10665    10631    10596    10588    10601    10612 
   10619    10623    10605    10600    10624    10639    10638    10644 
   10687    10773    10809    10767    10739    10741    10721    10725 
   10771    10775    10740    10727    10705    10633    10569    10554 
   10558    10567    10578    10548    10498    10508    10554    10548 
   10511    10485    10432    10353    10312    10316    10299    10255 
   10253    10291    10299    10278    10273    10250    10204    10204 
   10238    10245    10239    10251    10242    10212    10234    10281 
   10284    10268    10268    10295    10359    10401    10388    10376 
   10365    10336    10336    10376    10419    10451    10486    10515 
   10507    10500    10527    10540    10532    10555    10581    10573 
   10531    10463    10420    10450    10521    10594    10663    10709 
   10725    10721    10697    10656    10624    10624    10651    10682 
   10706    10712    10686    10642    10616    10611    10604    10604 
   10600    10547    10480    10422    10355    10320    10346    10382 
   10409    10447    10471    10478    10512    10562    10592    10592 
   10551    10478    10411    10374    10378    10400    10428    10463 
   10474    10444    10401    10381    10388    10385    10385    10416 
   10440    10438    10454    10492    10527    10544    10544    10577 
   10665    10746    10771    10750    10697    10651    10633    10612 
   10593    10619    10690    10752    10764    10754    10720    10656 
   10643    10683    10706    10719    10729    10731    10724    10705 
   10696    10696    10675    10700    10787    10829    10797    10736 
   10660    10584    10552    10562    10570    10571    10566    10557 
   10555    10534    10486    10443    10404    10403    10455    10496 
   10494    10482    10458    10424    10438    10501    10555    10579 
   10578    10558    10550    10551    10531    10525    10558    10579 
   10601    10656    10669    10616    10592    10606    10574    10507 
   10494    10540    10575    10593    10619    10651    10687    10687 
   10629    10592    10624    10697    10733    10677    10593    10552 
   10505    10457    10476    10516    10528    10542    10569    10612 
   10670    10667    10546    10374    10253    10223    10258    10305 
   10328    10349    10400    10449    10458    10462    10461    10417 
   10368    10361    10355    10307    10265    10250    10238    10260 
   10351    10426    10417    10405    10427    10426    10416    10412 
   10351    10268    10265    10342    10397    10404    10412    10403 
   10345    10334    10397    10442    10457    10466    10436    10390 
   10390    10435    10486    10527    10562    10608    10635    10600 
   10513    10435    10403    10400    10411    10430    10439    10450 
   10478    10494    10492    10497    10525    10569    10608    10615 
   10585    10569    10588    10592    10569    10585    10640    10662 
   10628    10573    10504    10462    10485    10524    10557    10598 
   10638    10652    10636    10633    10675    10666    10589    10550 
   10531    10489    10458    10461    10523    10621    10698    10747 
   10748    10712    10687    10651    10617    10642    10644    10581 
   10531    10512    10507    10511    10503    10512    10551    10547 
   10484    10411    10347    10308    10311    10343    10363    10341 
   10316    10370    10461    10484    10428    10330    10250    10243 
   10223    10120    10054    10138    10315    10458    10548    10627 
   10659    10624    10557    10488    10459    10480    10488    10474 
   10477    10508    10562    10590    10563    10551    10555    10532 
   10519    10511    10485    10504    10589    10685    10719    10638 
   10528    10539    10625    10673    10692    10697    10708    10751 
   10786    10810    10835    10836    10845    10858    10831    10793 
   10735    10644    10586    10570    10586    10623    10598    10520 
   10504    10532    10532    10532    10561    10586    10590    10557 
   10477    10401    10377    10392    10447    10575    10694    10669 
   10548    10476    10482    10509    10504    10478    10465    10423 
   10323    10243    10247    10308    10373    10416    10446    10471 
   10444    10334    10234    10250    10336    10401    10412    10400 
   10442    10536    10611    10658    10693    10706    10736    10770 
   10743    10697    10705    10709    10677    10721    10886    11049 
   11117    11092    11065    11075    11030    10926    10874    10868 
   10840    10809    10832    10890    10967    11101    11242    11281 
   11227    11110    10912    10710    10608    10605    10639    10627 
   10569    10540    10558    10535    10424    10338    10362    10411 
   10413    10388    10338    10257    10156    10095    10129    10211 
   10246    10233    10257    10261    10170    10088    10044     9929 
    9792     9729     9721     9803     9973    10079    10096    10166 
   10278    10330    10374    10419    10386    10369    10415    10404 
   10377    10430    10494    10528    10559    10592    10582    10520 
   10494    10542    10593    10589    10546    10523    10535    10569 
   10669    10854    10993    10966    10890    10899    10936    10964 
   10986    10960    10956    11020    11020    10916    10827    10812 
   10817    10841    10945    11037    11002    10924    10813    10616 
   10482    10511    10608    10710    10774    10721    10542    10328 
   10230    10253    10284    10295    10312    10372    10484    10555 
   10524    10442    10392    10427    10517    10575    10544    10431 
   10318    10273    10255    10238    10242    10280    10331    10341 
   10307    10251    10126    10004    10049    10191    10253    10241 
   10203    10134    10099    10102    10056    10018    10096    10254 
   10426    10536    10484    10326    10250    10266    10273    10299 
   10389    10544    10752    10890    10864    10771    10702    10621 
   10531    10524    10569    10562    10525    10467    10412    10449 
   10538    10582    10588    10609    10658    10689    10677    10632 
   10594    10579    10540    10470    10458    10544    10655    10666 
   10551    10449    10443    10482    10563    10729    10933    11040 
   11001    10930    10897    10839    10760    10704    10646    10574 
   10512    10501    10577    10700    10739    10600    10411    10373 
   10484    10627    10717    10731    10697    10608    10477    10393 
   10396    10453    10521    10611    10705    10717    10650    10605 
   10578    10523    10498    10505    10490    10513    10579    10613 
   10608    10578    10550    10543    10528    10552    10652    10690 
   10628    10611    10632    10569    10443    10355    10300    10278 
   10334    10424    10465    10451    10419    10408    10436    10488 
   10498    10455    10449    10470    10463    10492    10546    10574 
   10635    10673    10627    10565    10470    10353    10327    10372 
   10412    10449    10443    10397    10388    10409    10401    10404 
   10463    10484    10409    10389    10513    10665    10740    10754 
   10723    10677    10662    10673    10623    10508    10458    10492 
   10492    10463    10439    10382    10328    10320    10350    10392 
   10342    10200    10141    10199    10303    10459    10579    10586 
   10601    10673    10665    10543    10440    10462    10539    10600 
   10698    10791    10773    10666    10521    10432    10494    10562 
   10493    10427    10432    10424    10415    10451    10501    10561 
   10631    10666    10689    10723    10716    10700    10701    10659 
   10604    10658    10829    10971    10976    10925    10866    10733 
   10617    10611    10575    10496    10507    10552    10521    10450 
   10416    10451    10509    10498    10435    10447    10546    10590 
   10542    10507    10536    10593    10687    10817    10859    10827 
   10832    10808    10673    10523    10426    10373    10358    10385 
   10471    10540    10511    10463    10415    10305    10219    10242 
   10330    10417    10462    10440    10384    10328    10288    10278 
   10342    10505    10674    10732    10697    10619    10484    10314 
   10146    10000     9957    10083    10277    10345    10258    10184 
   10195    10237    10291    10336    10362    10396    10409    10388 
   10361    10299    10255    10343    10486    10577    10681    10786 
   10767    10681    10669    10663    10600    10620    10764    10854 
   10841    10851    10862    10837    10827    10790    10692    10643 
   10673    10692    10700    10723    10694    10631    10611    10586 
   10555    10602    10687    10755    10825    10822    10682    10538 
   10496    10465    10415    10407    10381    10332    10346    10351 
   10331    10365    10422    10507    10635    10693    10656    10619 
   10584    10550    10574    10648    10685    10663    10686    10771 
   10785    10692    10647    10697    10689    10593    10504    10434 
   10409    10471    10606    10755    10775    10679    10639    10620 
   10558    10513    10466    10428    10440    10442    10462    10575 
   10693    10694    10627    10605    10632    10673    10694    10621 
   10485    10384    10322    10291    10322    10390    10401    10363 
   10358    10373    10374    10324    10183    10071    10116    10220 
   10265    10251    10227    10266    10417    10592    10674    10635 
   10503    10390    10396    10446    10432    10397    10381    10355 
   10357    10397    10449    10538    10629    10639    10593    10527 
   10415    10316    10336    10462    10559    10536    10471    10484 
   10539    10543    10521    10561    10598    10548    10488    10496 
   10546    10601    10629    10625    10606    10565    10519    10535 
   10615    10687    10732    10754    10694    10598    10611    10686 
   10701    10675    10631    10573    10566    10615    10621    10567 
   10528    10534    10543    10516    10477    10467    10503    10536 
   10492    10395    10323    10280    10270    10308    10358    10431 
   10511    10496    10392    10280    10201    10223    10342    10435 
   10457    10443    10416    10388    10358    10345    10376    10422 
   10446    10494    10575    10640    10648    10619    10604    10648 
   10751    10835    10833    10791    10775    10766    10747    10773 
   10871    10987    11043    11032    10949    10806    10677    10612 
   10627    10728    10849    10894    10833    10735    10685    10689 
   10686    10643    10597    10565    10561    10592    10581    10515 
   10520    10573    10543    10446    10342    10280    10316    10435 
   10577    10667    10671    10635    10577    10489    10482    10588 
