Origin Time       2024/04/02 04:24:00
Lat.              40.133
Long.             141.712
Depth. (km)       71
Mag.              6.0
Station Code      TCGH14
Station Lat.      36.5509
Station Long.     139.6154
Station Height(m) 180
Record Time       2024/04/02 04:25:58
Sampling Freq(Hz) 100Hz
Duration Time(s)  120
Dir.              4
Scale Factor      7845(gal)/8223790
Max. Acc. (gal)   1.984
Last Correction   2024/04/02 04:25:59
Memo.             
[...]
   -3165    -2974    -2895    -3010    -3157    -3196    -3109    -2937 
   -2836    -2902    -2991    -2997    -3045    -3180    -3265    -3267 
   -3202    -3059    -2897    -2797    -2826    -2984    -3172    -3298 
   -3260    -3036    -2822    -2793    -2925    -3160    -3397    -3491 
   -3426    -3231    -2883    -2558    -2571    -2921    -3306    -3507 
   -3516    -3348    -3010    -2749    -2781    -2984    -3161    -3221 
   -3180    -3095    -3022    -3014    -2987    -2933    -2980    -3122 
   -3299    -3392    -3262    -3068    -2994    -2957    -2948    -2994 
   -3025    -3111    -3227    -3156    -3007    -3048    -3169    -3194 
   -3138    -3060    -3060    -3156    -3198    -3175    -3171    -3130 
   -3026    -2953    -3003    -3103    -3099    -3052    -3060    -3082 
   -3118    -3127    -3069    -2967    -2855    -2867    -3025    -3141 
   -3177    -3130    -2971    -2905    -3025    -3105    -3045    -2991 
   -3034    -3127    -3204    -3281    -3273    -3073    -2906    -2936 
   -2984    -3036    -3134    -3192    -3198    -3111    -3006    -3087 
   -3213    -3171    -3033    -2943    -3006    -3160    -3195    -3033 
   -2782    -2685    -2857    -3129    -3325    -3334    -3114    -2863 
   -2801    -2922    -3107    -3183    -3060    -2914    -2959    -3129 
   -3221    -3153    -3033    -2987    -2947    -2899    -3002    -3175 
   -3253    -3258    -3138    -2917    -2813    -2924    -3126    -3156 
   -2980    -2893    -2991    -3096    -3082    -3003    -3006    -3041 
   -3037    -3083    -3113    -3056    -3014    -2975    -2980    -3072 
   -3082    -3038    -3040    -3002    -3005    -3126    -3257    -3298 
   -3161    -2947    -2886    -2948    -3036    -3133    -3157    -3129 
   -3064    -2901    -2797    -2905    -3144    -3381    -3476    -3361 
   -3110    -2916    -2930    -3032    -3079    -3129    -3183    -3191 
   -3164    -3115    -3026    -2878    -2812    -2933    -3075    -3181 
   -3254    -3146    -2983    -2991    -3029    -2959    -2926    -3028 
   -3156    -3233    -3276    -3231    -3060    -2916    -2884    -2907 
   -3019    -3225    -3352    -3262    -3067    -2944    -2918    -2921 
   -2952    -3078    -3219    -3237    -3202    -3122    -2963    -2874 
   -2868    -2934    -3103    -3217    -3198    -3088    -2957    -2914 
   -2911    -2886    -2968    -3176    -3296    -3223    -3100    -3040 
   -3007    -2980    -2943    -2886    -2926    -3086    -3171    -3148 
   -3145    -3167    -3190    -3211    -3188    -3122    -3025    -2918 
   -2903    -3007    -3079    -3061    -3049    -3052    -3041    -3033 
   -3069    -3183    -3265    -3240    -3173    -3117    -3094    -3067 
   -2987    -2967    -3028    -3094    -3165    -3142    -2980    -2879 
   -2941    -3038    -3087    -3091    -3033    -2997    -3059    -3105 
   -3102    -3092    -3021    -2971    -3052    -3191    -3298    -3277 
   -3130    -2997    -2972    -3034    -3069    -3030    -3006    -3013 
   -3090    -3175    -3084    -2959    -2953    -2959    -2991    -3053 
   -3090    -3129    -3096    -3003    -2984    -3090    -3231    -3202 
   -3096    -3125    -3069    -2921    -2914    -2947    -3038    -3250 
   -3312    -3175    -3003    -2901    -2961    -3060    -3064    -3063 
   -3079    -3134    -3214    -3180    -3037    -2903    -2902    -3059 
   -3204    -3246    -3208    -3113    -3013    -2937    -2928    -2992 
   -3088    -3210    -3271    -3196    -3034    -2863    -2853    -2972 
   -3041    -3157    -3271    -3167    -3002    -2972    -2984    -2956 
   -2960    -3100    -3260    -3264    -3141    -2937    -2805    -2967 
   -3235    -3295    -3146    -2949    -2851    -2876    -3010    -3156 
   -3109    -3006    -3087    -3145    -3067    -3045    -3111    -3198 
   -3244    -3157    -2991    -2884    -2928    -3044    -3082    -3163 
   -3311    -3231    -3005    -2884    -2816    -2824    -2979    -3213 
   -3447    -3492    -3258    -2979    -2855    -2884    -2976    -3071 
   -3165    -3222    -3188    -3055    -2893    -2844    -2910    -3068 
   -3331    -3501    -3450    -3306    -3056    -2716    -2551    -2656 
   -2894    -3168    -3388    -3456    -3358    -3161    -2933    -2752 
   -2747    -2899    -3078    -3223    -3308    -3334    -3181    -2820 
   -2674    -2875    -3102    -3307    -3397    -3258    -3121    -2992 
   -2825    -2824    -2910    -2965    -3098    -3227    -3184    -3021 
   -2929    -2978    -3026    -2984    -2943    -3026    -3181    -3146 
   -2918    -2828    -2980    -3194    -3285    -3257    -3262    -3252 
   -3091    -2906    -2862    -2932    -3021    -3041    -2971    -2986 
   -3157    -3190    -3056    -3090    -3187    -3096    -3017    -3021 
   -2941    -2866    -2914    -3036    -3149    -3194    -3181    -3068 
   -2853    -2748    -2802    -2936    -3150    -3268    -3207    -3159 
   -3117    -3034    -3033    -3100    -3111    -3055    -2984    -2955 
   -3002    -3102    -3130    -3033    -2979    -3094    -3183    -3051 
   -2866    -2897    -3103    -3214    -3149    -3099    -3106    -3091 
   -3087    -3087    -3119    -3246    -3294    -3138    -2967    -2934 
   -2938    -2849    -2795    -2909    -3075    -3184    -3132    -2943 
   -2943    -3168    -3276    -3181    -3065    -3067    -3079    -2941 
   -2778    -2745    -2844    -3013    -3181    -3294    -3244    -3068 
   -2992    -3015    -2987    -2913    -2839    -2808    -2852    -2951 
   -3095    -3184    -3075    -2859    -2806    -2991    -3175    -3133 
   -2945    -2868    -2983    -3076    -3003    -2964    -3145    -3327 
   -3291    -3206    -3231    -3300    -3277    -3057    -2782    -2712 
   -2925    -3250    -3387    -3316    -3230    -3137    -3032    -2961 
   -2997    -3208    -3466    -3568    -3433    -3223    -3215    -3288 
   -3113    -2836    -2830    -3102    -3354    -3408    -3292    -3055 
   -2841    -2817    -2876    -2945    -3110    -3256    -3227    -3095 
   -3019    -3109    -3203    -3114    -3084    -3230    -3261    -3199 
   -3191    -3049    -2871    -2872    -2849    -2805    -2972    -3215 
   -3271    -3099    -2918    -2960    -3079    -3056    -2926    -2683 
   -2485    -2685    -3142    -3369    -3300    -3244    -3267    -3122 
   -2852    -2817    -3082    -3335    -3316    -3103    -2957    -2955 
   -2991    -2937    -2841    -2984    -3395    -3667    -3557    -3253 
   -2983    -2822    -2766    -2714    -2668    -2802    -3129    -3462 
   -3607    -3450    -3145    -2956    -2882    -2857    -3034    -3376 
   -3504    -3275    -2913    -2616    -2569    -2830    -3163    -3403 
   -3564    -3559    -3341    -3001    -2717    -2629    -2610    -2560 
   -2691    -3030    -3248    -3191    -3061    -3056    -3200    -3350 
   -3275    -2992    -2803    -2805    -2855    -2878    -2893    -2979 
   -3107    -3115    -3021    -2988    -3021    -3005    -2918    -2880 
   -2952    -3072    -3186    -3136    -2879    -2729    -2814    -3025 
   -3343    -3561    -3485    -3206    -2829    -2623    -2786    -3024 
   -3111    -3214    -3349    -3403    -3388    -3261    -2960    -2678 
   -2623    -2735    -2949    -3258    -3435    -3333    -3110    -2878 
   -2717    -2778    -2932    -3068    -3311    -3485    -3384    -3167 
   -2866    -2540    -2543    -2855    -3148    -3412    -3635    -3624 
   -3395    -3002    -2559    -2388    -2502    -2716    -3030    -3283 
   -3314    -3227    -2975    -2624    -2598    -2945    -3395    -3788 
   -3905    -3638    -3144    -2659    -2439    -2544    -2848    -3202 
   -3345    -3200    -3067    -3130    -3233    -3199    -3055    -2979 
   -3148    -3474    -3555    -3258    -2890    -2582    -2474    -2808 
   -3334    -3701    -3820    -3537    -3030    -2860    -3088    -3257 
   -3154    -2979    -2895    -2855    -2857    -3003    -3223    -3307 
   -3269    -3280    -3249    -3099    -3006    -2967    -2940    -3091 
   -3349    -3397    -3113    -2700    -2494    -2640    -3087    -3680 
   -4043    -3861    -3198    -2346    -1790    -1961    -2710    -3500 
   -3971    -4079    -3920    -3445    -2689    -2154    -2201    -2689 
   -3402    -4014    -4093    -3549    -2675    -1903    -1688    -2276 
   -3307    -4016    -4108    -3843    -3357    -2678    -2043    -1817 
   -2205    -3018    -3825    -4297    -4259    -3728    -2925    -2176 
   -1876    -2173    -2798    -3424    -3692    -3400    -2967    -2743 
   -2569    -2596    -2988    -3311    -3424    -3527    -3437    -3094 
   -2667    -2280    -2220    -2521    -2899    -3306    -3635    -3712 
   -3655    -3492    -3152    -2839    -2712    -2748    -2965    -3257 
   -3465    -3618    -3608    -3256    -2808    -2582    -2729    -3271 
   -3778    -3821    -3487    -2929    -2339    -2069    -2251    -2905 
   -3892    -4576    -4500    -3840    -2880    -2046    -1800    -1996 
   -2430    -3200    -3846    -3888    -3622    -3223    -2685    -2338 
   -2463    -3071    -3796    -4079    -3785    -3092    -2324    -2035 
   -2339    -2760    -3099    -3473    -3711    -3503    -3021    -2718 
   -2566    -2450    -2664    -3132    -3408    -3442    -3291    -2974 
   -2706    -2612    -2658    -2717    -2766    -3102    -3542    -3507 
   -3221    -3061    -2852    -2735    -2945    -3234    -3379    -3377 
   -3325    -3349    -3358    -3079    -2524    -2168    -2336    -2859 
   -3453    -3847    -3879    -3516    -2786    -2215    -2359    -2995 
   -3619    -3888    -3740    -3369    -2758    -2093    -1983    -2593 
   -3623    -4471    -4455    -3774    -3034    -2238    -1660    -1933 
   -2860    -3765    -4288    -4284    -3835    -3164    -2409    -1826 
   -1822    -2438    -3222    -3748    -3820    -3414    -2749    -2110 
   -1826    -2205    -2988    -3708    -4190    -4097    -3323    -2486 
   -2003    -1831    -1876    -2088    -2666    -3491    -3937    -3908 
   -3612    -3049    -2532    -2307    -2261    -2470    -2839    -3003 
   -3018    -3137    -3319    -3396    -3272    -3049    -3037    -3242 
   -3399    -3545    -3657    -3501    -3171    -2713    -2185    -2182 
   -2694    -3123    -3740    -4487    -4455    -3753    -2976    -2322 
   -2223    -2598    -2941    -3461    -4124    -4267    -3839    -3211 
   -2647    -2608    -3153    -3684    -3981    -4001    -3345    -2289 
   -1723    -1873    -2392    -3033    -3619    -3883    -3708    -3287 
   -2890    -2641    -2567    -2731    -3157    -3551    -3487    -3019 
   -2624    -2640    -3041    -3472    -3558    -3357    -3198    -3092 
   -2771    -2276    -2006    -2178    -2685    -3233    -3434    -3190 
   -2806    -2512    -2461    -2828    -3322    -3430    -3210    -3045 
   -3064    -3069    -2821    -2505    -2478    -2747    -3204    -3742 
   -4140    -4108    -3431    -2521    -2064    -2143    -2619    -3258 
   -3604    -3707    -3815    -3685    -3252    -2814    -2556    -2465 
   -2446    -2627    -3092    -3415    -3302    -3048    -3005    -3300 
   -3708    -3809    -3666    -3640    -3531    -3094    -2763    -2749 
   -2709    -2725    -3028    -3384    -3611    -3678    -3454    -3096 
   -3032    -3285    -3376    -3094    -2824    -2740    -2756    -3024 
   -3360    -3312    -3132    -3345    -3696    -3577    -3014    -2477 
   -2286    -2478    -2856    -3222    -3264    -2710    -2172    -2425 
   -3026    -3372    -3711    -4031    -3997    -3688    -3161    -2532 
   -2200    -2328    -2791    -3292    -3484    -3407    -3192    -2739 
   -2277    -2290    -2708    -3121    -3495    -3812    -3790    -3406 
   -2785    -2178    -2188    -2938    -3662    -3650    -3102    -2671 
   -2466    -2295    -2332    -2736    -3294    -3595    -3569    -3561 
   -3551    -3277    -2817    -2423    -2586    -3416    -3983    -3751 
   -3204    -2627    -2157    -2207    -2759    -3361    -3744    -3782 
   -3375    -2739    -2361    -2332    -2412    -2762    -3465    -3975 
   -3836    -3218    -2631    -2336    -2297    -2727    -3559    -4024 
   -3867    -3500    -2994    -2467    -2253    -2351    -2631    -3002 
   -3485    -3939    -3744    -3005    -2639    -2694    -2901    -3460 
   -3966    -3801    -3222    -2776    -2592    -2532    -2625    -2957 
   -3375    -3676    -3689    -3299    -2756    -2463    -2501    -2717 
   -2955    -3126    -3219    -3256    -3254    -3172    -3056    -3164 
   -3496    -3682    -3588    -3329    -2933    -2546    -2496    -2743 
   -2957    -3175    -3414    -3366    -3014    -2623    -2419    -2403 
   -2470    -2817    -3404    -3728    -3711    -3588    -3342    -3103 
   -3137    -3217    -3007    -2853    -3096    -3393    -3472    -3334 
   -2999    -2801    -2897    -3045    -3287    -3532    -3307    -2693 
   -2126    -1795    -2033    -2856    -3574    -3855    -3973    -3974 
   -3519    -2616    -2026    -2204    -2786    -3404    -3775    -3828 
   -3786    -3385    -2632    -2459    -2956    -3186    -2982    -2737 
   -2631    -2767    -2870    -2668    -2502    -2529    -2586    -2922 
   -3555    -3819    -3451    -2934    -2644    -2663    -2894    -3109 
   -3321    -3528    -3496    -3474    -3661    -3468    -2934    -2695 
   -2651    -2683    -2843    -2886    -2953    -3159    -3215    -3159 
   -2979    -2716    -2868    -3272    -3329    -3044    -2546    -2207 
   -2527    -3165    -3703    -4112    -4060    -3663    -3461    -3126 
   -2467    -2172    -2386    -2821    -3422    -3859    -3769    -3249 
   -2616    -2268    -2450    -3046    -3828    -4394    -4301    -3615 
   -2639    -1551     -985    -1618    -3107    -4513    -5143    -4811 
   -3850    -2724    -1976    -2069    -2717    -3419    -4121    -4495 
   -4102    -3230    -2307    -1540    -1432    -2161    -3150    -3971 
   -4347    -4008    -3300    -2655    -2104    -1884    -2165    -2749 
   -3526    -4101    -3973    -3473    -2988    -2444    -2074    -2119 
   -2558    -3272    -3758    -3686    -3307    -2736    -2133    -2029 
   -2516    -3294    -3979    -3991    -3492    -3187    -2951    -2621 
   -2608    -2880    -3136    -3267    -3196    -3045    -2998    -3018 
   -3090    -3245    -3406    -3407    -3148    -2887    -3033    -3337 
   -3248    -2938    -2822    -2829    -2824    -2814    -2826    -2914 
   -3082    -3225    -3199    -3045    -2963    -2883    -2629    -2516 
   -2910    -3369    -3333    -3152    -3177    -3061    -2845    -2988 
   -3314    -3377    -3150    -2841    -2660    -2678    -2860    -3160 
   -3423    -3532    -3462    -3103    -2721    -2832    -3115    -3011 
   -2920    -3150    -3179    -2876    -2756    -2866    -2951    -3113 
   -3430    -3758    -3955    -3781    -3117    -2381    -2251    -2759 
   -3260    -3522    -3739    -3699    -3214    -2759    -2770    -3111 
   -3453    -3543    -3240    -2677    -2313    -2307    -2358    -2575 
   -3244    -3869    -3990    -3896    -3636    -3019    -2509    -2531 
   -2909    -3424    -3726    -3423    -2756    -2234    -2019    -2262 
   -3169    -4282    -4580    -3813    -2812    -2236    -2139    -2404 
   -2851    -3348    -3724    -3759    -3550    -3273    -2898    -2577 
   -2617    -2991    -3264    -3121    -2732    -2389    -2373    -2836 
   -3354    -3462    -3226    -2972    -3019    -3289    -3419    -3350 
   -3100    -2702    -2515    -2747    -3059    -3145    -3164    -3329 
   -3499    -3392    -3117    -2980    -2872    -2755    -2884    -3078 
   -3177    -3414    -3524    -3169    -2752    -2717    -2980    -3307 
   -3611    -3785    -3530    -2934    -2623    -2745    -2917    -3021 
   -3145    -3242    -3250    -3204    -3080    -2880    -2816    -2945 
   -3096    -3211    -3172    -2897    -2725    -2801    -2812    -2775 
   -2932    -3057    -2929    -2848    -3069    -3364    -3339    -2943 
   -2461    -2111    -2133    -2732    -3489    -3800    -3693    -3460 
   -3091    -2527    -2142    -2309    -2910    -3732    -4345    -4120 
   -3245    -2513    -2258    -2477    -3086    -3603    -3527    -3007 
   -2532    -2434    -2763    -3180    -3376    -3516    -3701    -3599 
   -3088    -2577    -2434    -2613    -3005    -3496    -3747    -3508 
   -2907    -2344    -2286    -2806    -3573    -4158    -4116    -3430 
   -2617    -2089    -1980    -2343    -3057    -3649    -3773    -3613 
   -3341    -2968    -2651    -2431    -2342    -2627    -3377    -4233 
   -4425    -3613    -2439    -1706    -1709    -2393    -3485    -4455 
   -4664    -3970    -2922    -2119    -1861    -2172    -2709    -3142 
   -3473    -3688    -3639    -3338    -2999    -2843    -2932    -3032 
   -2883    -2779    -3028    -3173    -3011    -2955    -2924    -2863 
   -3163    -3581    -3661    -3537    -3316    -3021    -2775    -2578 
   -2475    -2444    -2424    -2650    -3090    -3464    -3765    -3863 
   -3631    -3267    -2809    -2440    -2627    -3154    -3532    -3758 
   -3669    -3157    -2627    -2373    -2586    -3230    -3697    -3777 
   -3777    -3632    -3284    -2940    -2648    -2640    -3121    -3520 
   -3441    -3288    -3109    -2694    -2538    -2852    -3154    -3353 
   -3460    -3307    -3183    -3115    -2724    -2382    -2559    -2884 
   -3094    -3345    -3551    -3615    -3593    -3258    -2716    -2632 
   -2982    -3094    -2868    -2659    -2658    -2822    -3005    -3204 
   -3456    -3516    -3265    -3036    -2957    -2743    -2438    -2413 
   -2718    -3126    -3442    -3511    -3200    -2735    -2528    -2608 
   -2863    -3211    -3407    -3419    -3361    -3172    -2906    -2714 
   -2729    -2988    -3231    -3272    -3245    -3329    -3465    -3261 
   -2704    -2381    -2475    -2801    -3358    -3879    -3954    -3608 
   -3057    -2461    -2052    -2030    -2436    -3186    -3979    -4399 
   -4287    -3650    -2619    -1881    -1989    -2583    -3223    -3762 
   -3943    -3700    -3204    -2668    -2417    -2486    -2706    -3257 
   -4005    -4291    -4018    -3422    -2465    -1688    -1769    -2386 
   -3141    -3921    -4351    -4299    -3750    -2629    -1611    -1432 
   -2074    -3268    -4260    -4303    -3715    -2960    -2239    -2092 
   -2492    -2894    -3361    -3848    -3993    -3874    -3414    -2550 
   -1875    -1719    -2130    -3130    -4095    -4399    -4132    -3416 
   -2407    -1730    -1738    -2122    -2767    -3588    -4036    -3865 
   -3364    -2997    -2930    -2690    -2378    -2573    -2821    -2893 
   -3248    -3480    -3377    -3361    -3092    -2569    -2573    -2953 
   -3084    -3211    -3569    -3750    -3511    -2995    -2617    -2713 
   -2937    -3067    -3348    -3458    -3203    -3046    -2866    -2497 
   -2459    -2826    -3288    -3757    -3970    -3717    -3181    -2569 
   -2192    -2423    -3029    -3387    -3304    -3033    -2822    -2812 
   -3003    -3199    -3234    -3260    -3427    -3487    -3271    -3060 
   -2917    -2609    -2390    -2592    -2960    -3272    -3462    -3379 
   -3159    -2961    -2713    -2494    -2525    -2930    -3481    -3701 
   -3470    -3046    -2785    -2897    -3184    -3434    -3682    -3815 
   -3622    -3202    -2851    -2646    -2470    -2420    -2662    -3088 
   -3550    -3784    -3539    -3181    -3056    -2893    -2674    -2731 
   -3014    -3294    -3514    -3636    -3527    -3163    -2821    -2728 
   -2656    -2593    -2894    -3307    -3447    -3522    -3361    -2762 
   -2424    -2636    -2905    -3206    -3562    -3645    -3476    -3165 
