Origin Time       2024/04/02 04:24:00
Lat.              40.133
Long.             141.712
Depth. (km)       71
Mag.              6.0
Station Code      TCGH14
Station Lat.      36.5509
Station Long.     139.6154
Station Height(m) 80
Record Time       2024/04/02 04:25:58
Sampling Freq(Hz) 100Hz
Duration Time(s)  120
Dir.              2
Scale Factor      2942(gal)/8224139
Max. Acc. (gal)   0.242
Last Correction   2024/04/02 04:25:59
Memo.             
[...]
  -87273   -87280   -87232   -87207   -87197   -87204   -87219   -87197 
  -87181   -87201   -87246   -87288   -87239   -87173   -87183   -87187 
  -87188   -87205   -87191   -87168   -87158   -87153   -87135   -87088 
  -87072   -87108   -87127   -87138   -87162   -87173   -87157   -87081 
  -87042   -87112   -87135   -87100   -87100   -87100   -87097   -87106 
  -87106   -87107   -87095   -87089   -87103   -87122   -87153   -87178 
  -87160   -87108   -87085   -87114   -87139   -87158   -87204   -87235 
  -87210   -87177   -87181   -87193   -87183   -87185   -87199   -87207 
  -87231   -87245   -87219   -87207   -87214   -87204   -87197   -87204 
  -87184   -87142   -87130   -87166   -87219   -87214   -87183   -87200 
  -87199   -87205   -87281   -87304   -87250   -87210   -87203   -87226 
  -87268   -87309   -87309   -87307   -87326   -87295   -87277   -87313 
  -87316   -87308   -87324   -87304   -87254   -87215   -87203   -87220 
  -87216   -87169   -87162   -87204   -87228   -87220   -87191   -87177 
  -87177   -87174   -87216   -87249   -87211   -87172   -87166   -87166 
  -87170   -87184   -87180   -87147   -87135   -87161   -87184   -87205 
  -87223   -87195   -87146   -87112   -87104   -87123   -87137   -87143 
  -87151   -87153   -87173   -87168   -87150   -87185   -87204   -87216 
  -87262   -87243   -87193   -87205   -87204   -87164   -87162   -87185 
  -87178   -87177   -87191   -87184   -87174   -87197   -87201   -87149 
  -87096   -87097   -87119   -87139   -87172   -87166   -87116   -87119 
  -87151   -87145   -87147   -87170   -87185   -87195   -87185   -87164 
  -87138   -87102   -87115   -87172   -87176   -87130   -87124   -87203 
  -87257   -87191   -87147   -87178   -87187   -87204   -87210   -87147 
  -87107   -87110   -87114   -87133   -87142   -87145   -87151   -87122 
  -87087   -87077   -87083   -87104   -87116   -87129   -87180   -87210 
  -87207   -87223   -87235   -87259   -87320   -87345   -87300   -87250 
  -87224   -87201   -87189   -87216   -87242   -87222   -87191   -87208 
  -87265   -87284   -87250   -87235   -87242   -87230   -87216   -87220 
  -87238   -87277   -87315   -87339   -87351   -87322   -87292   -87300 
  -87293   -87284   -87293   -87257   -87200   -87216   -87259   -87237 
  -87205   -87223   -87239   -87238   -87212   -87173   -87166   -87162 
  -87154   -87162   -87178   -87211   -87211   -87130   -87076   -87083 
  -87089   -87122   -87158   -87142   -87104   -87081   -87076   -87066 
  -87049   -87037   -87048   -87070   -87095   -87149   -87204   -87212 
  -87201   -87181   -87161   -87135   -87119   -87145   -87160   -87161 
  -87185   -87216   -87246   -87266   -87280   -87274   -87228   -87212 
  -87242   -87259   -87257   -87227   -87192   -87189   -87211   -87243 
  -87258   -87264   -87289   -87268   -87188   -87161   -87188   -87193 
  -87184   -87172   -87185   -87215   -87195   -87187   -87241   -87265 
  -87274   -87297   -87276   -87241   -87238   -87245   -87259   -87266 
  -87231   -87208   -87223   -87219   -87207   -87214   -87224   -87238 
  -87259   -87237   -87189   -87166   -87107   -87039   -87072   -87122 
  -87122   -87145   -87164   -87123   -87102   -87126   -87104   -87070 
  -87104   -87131   -87106   -87093   -87116   -87120   -87104   -87097 
  -87057   -87021   -87054   -87062   -87029   -87038   -87046   -87018 
  -87031   -87060   -87052   -87058   -87085   -87111   -87145   -87166 
  -87181   -87189   -87184   -87218   -87257   -87232   -87215   -87249 
  -87241   -87196   -87192   -87216   -87254   -87254   -87203   -87215 
  -87257   -87265   -87309   -87304   -87232   -87245   -87273   -87280 
  -87319   -87308   -87265   -87265   -87270   -87258   -87235   -87230 
  -87243   -87226   -87197   -87173   -87168   -87187   -87197   -87219 
  -87239   -87218   -87188   -87168   -87166   -87197   -87219   -87216 
  -87228   -87247   -87237   -87224   -87230   -87227   -87231   -87278 
  -87288   -87219   -87192   -87218   -87219   -87231   -87259   -87241 
  -87204   -87201   -87216   -87245   -87268   -87227   -87169   -87149 
  -87153   -87153   -87135   -87139   -87189   -87220   -87215   -87188 
  -87149   -87185   -87235   -87201   -87170   -87173   -87185   -87220 
  -87232   -87215   -87226   -87247   -87255   -87285   -87282   -87230 
  -87210   -87187   -87135   -87147   -87195   -87195   -87150   -87116 
  -87133   -87138   -87108   -87114   -87157   -87195   -87200   -87180 
  -87195   -87207   -87199   -87230   -87208   -87138   -87161   -87224 
  -87220   -87181   -87168   -87169   -87173   -87192   -87181   -87134 
  -87129   -87170   -87219   -87232   -87195   -87173   -87185   -87178 
  -87181   -87203   -87208   -87208   -87191   -87129   -87075   -87096 
  -87141   -87143   -87122   -87115   -87103   -87069   -87054   -87062 
  -87061   -87085   -87129   -87135   -87129   -87133   -87119   -87111 
  -87118   -87115   -87142   -87205   -87259   -87274   -87208   -87129 
  -87162   -87230   -87218   -87188   -87208   -87239   -87232   -87214 
  -87220   -87220   -87207   -87205   -87183   -87146   -87154   -87166 
  -87153   -87157   -87161   -87161   -87203   -87238   -87201   -87180 
  -87239   -87270   -87261   -87305   -87323   -87285   -87286   -87312 
  -87331   -87343   -87351   -87367   -87347   -87309   -87331   -87353 
  -87349   -87380   -87373   -87297   -87264   -87273   -87280   -87299 
  -87318   -87312   -87296   -87246   -87137   -87076   -87129   -87185 
  -87195   -87192   -87195   -87210   -87197   -87146   -87118   -87131 
  -87164   -87177   -87139   -87106   -87107   -87097   -87107   -87124 
  -87106   -87084   -87076   -87089   -87112   -87150   -87212   -87188 
  -87116   -87158   -87239   -87249   -87207   -87157   -87173   -87246 
  -87277   -87285   -87300   -87278   -87258   -87264   -87247   -87243 
  -87280   -87291   -87262   -87227   -87178   -87120   -87091   -87084 
  -87060   -87052   -87112   -87191   -87223   -87218   -87195   -87168 
  -87151   -87153   -87166   -87178   -87165   -87103   -87056   -87079 
  -87097   -87084   -87106   -87137   -87112   -87118   -87210   -87257 
  -87197   -87157   -87176   -87164   -87150   -87174   -87183   -87207 
  -87273   -87307   -87305   -87334   -87367   -87389   -87439   -87447 
  -87384   -87365   -87367   -87300   -87220   -87224   -87324   -87427 
  -87455   -87458   -87423   -87342   -87265   -87146   -87046   -87043 
  -87038   -87029   -87070   -87119   -87157   -87133   -87056   -87030 
  -86999   -86933   -86930   -86935   -86910   -86931   -86958   -86975 
  -87052   -87138   -87183   -87212   -87205   -87162   -87166   -87195 
  -87147   -87077   -87099   -87174   -87249   -87339   -87392   -87353 
  -87331   -87353   -87328   -87312   -87362   -87359   -87278   -87254 
  -87334   -87385   -87358   -87359   -87381   -87354   -87322   -87293 
  -87254   -87239   -87223   -87195   -87204   -87222   -87204   -87183 
  -87184   -87177   -87143   -87114   -87110   -87114   -87115   -87103 
  -87049   -86973   -86934   -86914   -86881   -86918   -86996   -87006 
  -86975   -86933   -86895   -86903   -86925   -86961   -87031   -87076 
  -87096   -87120   -87134   -87160   -87169   -87130   -87110   -87137 
  -87187   -87251   -87295   -87296   -87276   -87257   -87251   -87251 
  -87278   -87326   -87297   -87235   -87249   -87257   -87239   -87280 
  -87304   -87338   -87426   -87440   -87405   -87369   -87307   -87311 
  -87335   -87285   -87232   -87180   -87131   -87184   -87278   -87309 
  -87318   -87334   -87300   -87230   -87224   -87211   -87107   -87056 
  -87075   -87073   -87091   -87133   -87176   -87205   -87211   -87235 
  -87249   -87172   -87100   -87149   -87224   -87216   -87151   -87089 
  -87103   -87215   -87307   -87316   -87330   -87340   -87284   -87230 
  -87224   -87223   -87238   -87250   -87250   -87305   -87359   -87316 
  -87216   -87120   -87056   -87070   -87157   -87235   -87239   -87224 
  -87255   -87278   -87309   -87365   -87319   -87212   -87180   -87191 
  -87201   -87239   -87295   -87345   -87346   -87308   -87273   -87204 
  -87116   -87107   -87174   -87246   -87291   -87281   -87205   -87120 
  -87060   -87006   -86987   -87015   -87064   -87106   -87088   -87029 
  -86991   -86969   -86987   -87034   -87038   -87038   -87065   -87016 
  -86929   -86896   -86890   -86937   -87004   -87033   -87064   -87076 
  -87100   -87160   -87195   -87228   -87258   -87261   -87293   -87335 
  -87357   -87382   -87366   -87318   -87327   -87381   -87399   -87394 
  -87370   -87300   -87251   -87230   -87181   -87139   -87142   -87173 
  -87232   -87328   -87367   -87300   -87238   -87204   -87108   -87008 
  -86992   -87049   -87134   -87169   -87119   -87026   -86934   -86880 
  -86865   -86873   -86919   -86999   -87087   -87137   -87122   -87050 
  -86954   -86895   -86857   -86823   -86886   -86987   -86984   -86962 
  -86961   -86892   -86810   -86834   -86950   -87048   -87115   -87169 
  -87168   -87147   -87160   -87219   -87350   -87494   -87589   -87623 
  -87579   -87523   -87523   -87488   -87405   -87392   -87409   -87455 
  -87624   -87744   -87674   -87543   -87438   -87399   -87424   -87455 
  -87508   -87561   -87570   -87546   -87484   -87382   -87311   -87318 
  -87350   -87374   -87347   -87227   -87102   -87039   -87061   -87127 
  -87131   -87099   -87099   -87058   -86937   -86795   -86717   -86728 
  -86771   -86796   -86853   -86914   -86872   -86800   -86819   -86865 
  -86896   -86952   -87030   -87089   -87054   -86946   -86872   -86826 
  -86786   -86799   -86865   -86915   -86979   -87099   -87168   -87114 
  -87010   -86896   -86782   -86760   -86867   -86979   -87033   -87073 
  -87143   -87270   -87388   -87363   -87257   -87211   -87164   -87142 
  -87259   -87366   -87326   -87280   -87303   -87343   -87382   -87388 
  -87345   -87338   -87359   -87322   -87281   -87285   -87274   -87281 
  -87390   -87535   -87563   -87463   -87350   -87276   -87238   -87265 
  -87313   -87345   -87400   -87462   -87453   -87366   -87250   -87108 
  -87004   -87058   -87199   -87338   -87489   -87577   -87525   -87427 
  -87394   -87382   -87320   -87278   -87278   -87238   -87169   -87124 
  -87120   -87181   -87281   -87339   -87339   -87286   -87184   -87141 
  -87220   -87326   -87345   -87273   -87238   -87323   -87397   -87434 
  -87559   -87643   -87565   -87463   -87399   -87335   -87312   -87345 
  -87370   -87351   -87336   -87342   -87323   -87297   -87299   -87326 
  -87365   -87382   -87345   -87301   -87301   -87293   -87281   -87326 
  -87354   -87334   -87367   -87412   -87389   -87357   -87353   -87336 
  -87273   -87208   -87220   -87255   -87289   -87318   -87261   -87205 
  -87219   -87238   -87319   -87430   -87466   -87447   -87346   -87168 
  -87062   -87041   -87025   -87029   -87054   -87057   -87019   -86972 
  -86906   -86783   -86709   -86751   -86814   -86863   -86911   -86929 
  -86918   -86891   -86834   -86802   -86875   -86992   -87042   -87002 
  -86930   -86914   -86950   -86946   -86934   -86960   -86983   -87022 
  -87027   -86917   -86848   -86888   -86890   -86915   -87049   -87110 
  -87104   -87188   -87286   -87332   -87353   -87300   -87169   -87053 
  -87031   -87045   -86977   -86910   -86960   -87050   -87130   -87208 
  -87200   -87139   -87158   -87203   -87166   -87135   -87185   -87170 
  -87035   -86940   -86973   -87091   -87201   -87276   -87265   -87137 
  -87015   -86948   -86869   -86810   -86815   -86872   -86946   -87016 
  -87122   -87245   -87288   -87332   -87447   -87492   -87478   -87535 
  -87596   -87552   -87392   -87228   -87193   -87232   -87272   -87384 
  -87552   -87660   -87682   -87652   -87600   -87562   -87538   -87516 
  -87513   -87544   -87558   -87555   -87609   -87654   -87644   -87697 
  -87767   -87679   -87478   -87296   -87157   -87118   -87228   -87409 
  -87569   -87651   -87610   -87493   -87369   -87272   -87203   -87129 
  -87077   -87099   -87118   -87060   -86985   -86980   -87046   -87118 
  -87153   -87106   -86961   -86803   -86733   -86792   -86922   -86994 
  -86954   -86859   -86830   -86907   -86965   -86898   -86752   -86656 
  -86656   -86742   -86880   -86958   -86977   -86981   -86895   -86740 
  -86620   -86583   -86653   -86786   -86886   -86945   -86998   -87002 
  -86972   -87034   -87153   -87247   -87328   -87335   -87293   -87264 
  -87170   -87058   -87037   -87111   -87277   -87474   -87570   -87511 
  -87351   -87214   -87208   -87331   -87431   -87412   -87397   -87394 
  -87328   -87288   -87270   -87265   -87407   -87620   -87675   -87579 
  -87507   -87489   -87505   -87588   -87631   -87559   -87471   -87366 
  -87253   -87204   -87158   -87157   -87251   -87295   -87308   -87400 
  -87438   -87389   -87382   -87345   -87197   -87039   -86946   -86999 
  -87177   -87304   -87382   -87484   -87520   -87473   -87400   -87273 
  -87107   -86977   -86937   -86961   -86991   -86992   -86964   -86969 
  -87075   -87192   -87238   -87293   -87353   -87322   -87211   -87060 
  -87000   -87119   -87184   -87092   -87053   -87087   -87088   -87104 
  -87147   -87138   -87053   -87018   -87079   -87080   -86996   -86954 
  -86969   -86933   -86826   -86744   -86706   -86737   -86857   -86918 
  -86886   -86927   -87029   -87016   -86910   -86891   -86976   -87015 
  -86980   -86927   -86865   -86886   -87027   -87147   -87210   -87304 
  -87416   -87467   -87448   -87412   -87389   -87380   -87434   -87565 
  -87646   -87612   -87531   -87459   -87432   -87459   -87527   -87644 
  -87795   -87870   -87754   -87511   -87295   -87193   -87203   -87257 
  -87350   -87439   -87409   -87320   -87262   -87185   -87138   -87212 
  -87300   -87304   -87231   -87089   -86927   -86794   -86717   -86733 
  -86832   -87003   -87172   -87187   -87110   -87065   -87021   -86992 
  -87033   -87127   -87187   -87138   -87065   -87037   -87057   -87129 
  -87195   -87251   -87258   -87160   -87089   -87081   -87048   -86992 
  -86945   -86967   -87068   -87165   -87253   -87343   -87394   -87388 
  -87346   -87265   -87149   -87099   -87146   -87165   -87096   -87006 
  -86913   -86795   -86711   -86729   -86799   -86887   -87015   -87107 
  -87061   -86957   -86914   -86908   -86927   -86988   -87065   -87168 
  -87296   -87359   -87331   -87280   -87268   -87264   -87234   -87203 
  -87193   -87211   -87192   -87137   -87158   -87218   -87234   -87305 
  -87453   -87451   -87273   -87183   -87255   -87351   -87426   -87492 
  -87539   -87570   -87536   -87426   -87367   -87428   -87478   -87403 
  -87278   -87239   -87259   -87269   -87303   -87376   -87384   -87284 
  -87204   -87192   -87142   -87137   -87282   -87388   -87367   -87363 
  -87355   -87303   -87254   -87214   -87174   -87137   -87091   -87039 
  -87038   -87123   -87204   -87172   -87110   -87149   -87196   -87183 
  -87200   -87237   -87239   -87239   -87220   -87174   -87091   -87033 
  -87096   -87158   -87149   -87168   -87169   -87139   -87177   -87191 
  -87079   -86937   -86891   -86979   -87127   -87227   -87249   -87235 
  -87230   -87238   -87280   -87370   -87419   -87390   -87385   -87436 
  -87454   -87388   -87308   -87280   -87281   -87281   -87277   -87262 
  -87237   -87220   -87266   -87339   -87328   -87257   -87205   -87183 
  -87216   -87292   -87282   -87169   -87108   -87181   -87257   -87281 
  -87289   -87247   -87204   -87242   -87291   -87284   -87242   -87172 
  -87102   -87089   -87110   -87115   -87081   -87011   -86967   -86958 
  -86945   -86949   -86956   -86961   -87023   -87084   -87007   -86841 
  -86823   -86948   -86999   -87041   -87149   -87196   -87207   -87250 
  -87232   -87177   -87205   -87285   -87315   -87299   -87245   -87100 
  -86969   -86989   -87073   -87115   -87123   -87108   -87126   -87169 
  -87158   -87123   -87127   -87157   -87147   -87129   -87210   -87338 
  -87411   -87462   -87521   -87536   -87473   -87392   -87367   -87363 
  -87323   -87293   -87300   -87274   -87253   -87318   -87351   -87305 
  -87323   -87382   -87367   -87308   -87255   -87220   -87232   -87247 
  -87226   -87274   -87366   -87363   -87292   -87249   -87273   -87308 
  -87315   -87349   -87316   -87169   -87100   -87146   -87166   -87177 
  -87224   -87265   -87300   -87328   -87303   -87231   -87146   -87056 
  -86954   -86863   -86850   -86985   -87166   -87218   -87166   -87111 
  -87056   -87011   -87016   -87079   -87191   -87270   -87245   -87205 
  -87203   -87102   -86977   -87022   -87116   -87141   -87168   -87193 
  -87191   -87156   -87126   -87173   -87199   -87134   -87084   -87076 
  -87080   -87088   -87102   -87135   -87176   -87187   -87142   -87111 
  -87147   -87187   -87196   -87183   -87151   -87154   -87160   -87133 
  -87139   -87138   -87077   -87008   -86914   -86792   -86756   -86845 
  -86975   -87049   -87053   -87010   -86945   -86900   -86884   -86876 
  -86883   -86894   -86934   -87033   -87112   -87133   -87168   -87238 
  -87289   -87319   -87338   -87286   -87180   -87149   -87231   -87330 
  -87361   -87431   -87617   -87698   -87632   -87605   -87574   -87509 
  -87490   -87430   -87315   -87296   -87362   -87380   -87411   -87521 
  -87565   -87555   -87636   -87700   -87629   -87546   -87534   -87497 
  -87389   -87351   -87386   -87349   -87300   -87312   -87324   -87320 
  -87265   -87196   -87216   -87304   -87338   -87265   -87218   -87226 
  -87138   -87062   -87102   -87091   -87056   -87058   -87012   -86961 
  -86946   -86921   -86952   -87056   -87142   -87208   -87274   -87295 
  -87246   -87147   -87049   -86968   -86925   -86937   -86989   -87079 
  -87145   -87180   -87268   -87343   -87274   -87139   -87056   -87004 
  -87004   -87064   -87064   -87006   -87004   -87054   -87080   -87062 
  -87077   -87142   -87149   -87123   -87135   -87081   -86988   -86985 
  -86981   -86923   -86925   -86992   -87048   -87093   -87142   -87164 
  -87160   -87160   -87187   -87218   -87214   -87185   -87151   -87127 
  -87131   -87150   -87188   -87269   -87372   -87430   -87420   -87369 
  -87266   -87106   -86979   -86981   -87088   -87193   -87235   -87268 
  -87300   -87276   -87220   -87153   -87092   -87112   -87150   -87120 
  -87111   -87124   -87066   -87007   -87025   -87064   -87111   -87146 
  -87099   -87064   -87107   -87131   -87137   -87114   -87015   -86957 
  -87033   -87112   -87084   -87030   -87025   -87022   -87002   -87012 
  -87056   -87065   -87041   -87069   -87122   -87130   -87161   -87232 
  -87289   -87320   -87320   -87296   -87281   -87327   -87421   -87463 
  -87466   -87493   -87480   -87436   -87466   -87538   -87558   -87519 
  -87507   -87516   -87436   -87359   -87421   -87519   -87563   -87602 
  -87600   -87461   -87296   -87266   -87295   -87288   -87285   -87319 
  -87367   -87351   -87299   -87299   -87334   -87370   -87365   -87286 
  -87247   -87278   -87262   -87178   -87079   -87033   -87088   -87176 
  -87207   -87162   -87129   -87170   -87168   -87085   -87065   -87079 
  -87038   -87038   -87122   -87210   -87247   -87232   -87205   -87173 
  -87111   -87073   -87058   -87037   -87048   -87021   -86953   -86957 
  -86946   -86926   -87000   -87041   -86989   -86968   -87010   -87041 
  -86980   -86891   -86883   -86937   -87007   -87068   -87068   -87002 
  -86934   -86925   -86948   -86935   -86880   -86867   -86923   -86968 
  -87008   -87065   -87023   -86942   -86998   -87048   -86991   -87019 
