Origin Time       2024/04/02 04:24:00
Lat.              40.133
Long.             141.712
Depth. (km)       71
Mag.              6.0
Station Code      TCGH09
Station Lat.      36.8625
Station Long.     139.8364
Station Height(m) 564
Record Time       2024/04/02 04:25:59
Sampling Freq(Hz) 100Hz
Duration Time(s)  120
Dir.              6
Scale Factor      7845(gal)/8223790
Max. Acc. (gal)   0.388
Last Correction   2024/04/02 04:26:00
Memo.             
[...]
  -26657   -26646   -26644   -26696   -26766   -26739   -26700   -26744 
  -26840   -26921   -26950   -26967   -26978   -26925   -26859   -26832 
  -26866   -26920   -26871   -26789   -26769   -26720   -26681   -26734 
  -26773   -26751   -26740   -26786   -26831   -26789   -26752   -26829 
  -26954   -27031   -27079   -27136   -27101   -26987   -27004   -27043 
  -26946   -26902   -26927   -26863   -26819   -26865   -26881   -26798 
  -26725   -26769   -26823   -26793   -26761   -26763   -26766   -26757 
  -26762   -26781   -26762   -26774   -26848   -26848   -26779   -26725 
  -26669   -26623   -26597   -26601   -26650   -26666   -26639   -26628 
  -26601   -26536   -26466   -26441   -26497   -26588   -26661   -26704 
  -26734   -26750   -26688   -26592   -26592   -26630   -26612   -26588 
  -26597   -26585   -26508   -26481   -26546   -26541   -26509   -26590 
  -26677   -26717   -26800   -26902   -26901   -26767   -26684   -26731 
  -26723   -26636   -26634   -26724   -26789   -26732   -26619   -26566 
  -26545   -26532   -26576   -26636   -26653   -26674   -26781   -26852 
  -26730   -26603   -26662   -26725   -26688   -26742   -26920   -26971 
  -26866   -26851   -26881   -26804   -26785   -26844   -26802   -26743 
  -26805   -26874   -26835   -26809   -26896   -26928   -26856   -26838 
  -26850   -26790   -26689   -26638   -26701   -26771   -26763   -26773 
  -26816   -26828   -26820   -26817   -26806   -26766   -26754   -26775 
  -26684   -26562   -26619   -26711   -26692   -26684   -26720   -26684 
  -26558   -26497   -26580   -26680   -26723   -26721   -26666   -26611 
  -26597   -26581   -26585   -26681   -26820   -26848   -26773   -26721 
  -26674   -26601   -26581   -26627   -26707   -26754   -26747   -26775 
  -26821   -26838   -26870   -26873   -26797   -26747   -26788   -26840 
  -26823   -26790   -26788   -26731   -26655   -26667   -26697   -26674 
  -26659   -26689   -26703   -26640   -26595   -26631   -26649   -26643 
  -26685   -26715   -26688   -26688   -26800   -26896   -26842   -26813 
  -26878   -26811   -26628   -26584   -26676   -26713   -26716   -26752 
  -26667   -26503   -26543   -26709   -26816   -26947   -27068   -27047 
  -26921   -26808   -26748   -26701   -26703   -26798   -26878   -26901 
  -26893   -26809   -26692   -26626   -26626   -26680   -26732   -26750 
  -26731   -26685   -26665   -26693   -26751   -26806   -26815   -26824 
  -26879   -26910   -26873   -26804   -26748   -26690   -26635   -26676 
  -26738   -26693   -26674   -26712   -26689   -26712   -26817   -26839 
  -26819   -26882   -26950   -26914   -26859   -26850   -26800   -26720 
  -26700   -26690   -26677   -26717   -26781   -26808   -26796   -26773 
  -26731   -26659   -26628   -26640   -26667   -26743   -26798   -26761 
  -26686   -26631   -26597   -26589   -26644   -26761   -26808   -26769 
  -26707   -26578   -26472   -26516   -26616   -26700   -26789   -26827 
  -26765   -26659   -26605   -26601   -26619   -26681   -26730   -26747 
  -26785   -26763   -26694   -26704   -26746   -26763   -26796   -26844 
  -26889   -26908   -26909   -26905   -26874   -26851   -26858   -26851 
  -26819   -26778   -26774   -26793   -26769   -26747   -26725   -26669 
  -26636   -26624   -26627   -26728   -26843   -26850   -26828   -26851 
  -26825   -26725   -26700   -26743   -26720   -26707   -26763   -26761 
  -26682   -26626   -26623   -26661   -26719   -26782   -26785   -26715 
  -26663   -26631   -26616   -26655   -26655   -26597   -26570   -26565 
  -26566   -26562   -26541   -26580   -26676   -26754   -26833   -26897 
  -26898   -26881   -26900   -26890   -26763   -26620   -26596   -26642 
  -26689   -26738   -26805   -26878   -26874   -26785   -26698   -26620 
  -26569   -26592   -26643   -26654   -26624   -26620   -26612   -26561 
  -26588   -26692   -26698   -26650   -26647   -26666   -26673   -26653 
  -26644   -26671   -26715   -26817   -26894   -26821   -26711   -26653 
  -26604   -26593   -26682   -26781   -26762   -26717   -26754   -26744 
  -26654   -26612   -26655   -26731   -26775   -26777   -26761   -26708 
  -26674   -26738   -26819   -26838   -26800   -26743   -26707   -26682 
  -26742   -26931   -27076   -27075   -27052   -27090   -27125   -27082 
  -27012   -26964   -26920   -26944   -26990   -26924   -26850   -26838 
  -26811   -26788   -26794   -26854   -26951   -26948   -26862   -26825 
  -26815   -26808   -26847   -26883   -26829   -26736   -26703   -26684 
  -26698   -26793   -26825   -26775   -26809   -26869   -26788   -26640 
  -26593   -26622   -26623   -26659   -26744   -26732   -26657   -26662 
  -26704   -26631   -26442   -26383   -26524   -26615   -26593   -26615 
  -26663   -26622   -26555   -26631   -26728   -26673   -26631   -26671 
  -26657   -26646   -26666   -26640   -26651   -26742   -26796   -26771 
  -26721   -26678   -26658   -26707   -26765   -26721   -26638   -26597 
  -26589   -26612   -26642   -26684   -26739   -26728   -26724   -26782 
  -26770   -26727   -26750   -26742   -26708   -26757   -26812   -26767 
  -26719   -26738   -26712   -26634   -26593   -26588   -26677   -26839 
  -26877   -26788   -26716   -26705   -26751   -26819   -26855   -26889 
  -26970   -27039   -26963   -26836   -26840   -26889   -26906   -26943 
  -26910   -26781   -26682   -26654   -26658   -26662   -26697   -26748 
  -26735   -26694   -26680   -26643   -26589   -26581   -26696   -26858 
  -26885   -26874   -26917   -26856   -26777   -26831   -26836   -26717 
  -26653   -26669   -26647   -26626   -26665   -26643   -26570   -26577 
  -26588   -26565   -26604   -26678   -26762   -26851   -26882   -26882 
  -26871   -26773   -26640   -26655   -26775   -26763   -26694   -26777 
  -26825   -26716   -26669   -26725   -26743   -26709   -26703   -26751 
  -26777   -26723   -26623   -26551   -26559   -26592   -26580   -26572 
  -26577   -26577   -26558   -26523   -26534   -26555   -26550   -26647 
  -26792   -26804   -26755   -26754   -26744   -26721   -26750   -26779 
  -26738   -26701   -26686   -26639   -26682   -26778   -26712   -26601 
  -26603   -26661   -26754   -26838   -26859   -26865   -26847   -26784 
  -26731   -26728   -26746   -26755   -26819   -26919   -26910   -26828 
  -26806   -26839   -26873   -26866   -26815   -26746   -26662   -26607 
  -26643   -26724   -26798   -26862   -26878   -26779   -26653   -26654 
  -26690   -26669   -26712   -26761   -26700   -26653   -26681   -26712 
  -26719   -26770   -26871   -26870   -26806   -26894   -27001   -26954 
  -26929   -26997   -27000   -26937   -26940   -26971   -26923   -26851 
  -26832   -26802   -26743   -26713   -26736   -26762   -26742   -26720 
  -26728   -26723   -26704   -26711   -26765   -26840   -26870   -26875 
  -26829   -26686   -26636   -26738   -26774   -26766   -26811   -26755 
  -26558   -26465   -26558   -26605   -26597   -26712   -26797   -26701 
  -26572   -26526   -26585   -26682   -26754   -26838   -26866   -26793 
  -26694   -26580   -26495   -26503   -26554   -26609   -26626   -26595 
  -26592   -26651   -26746   -26820   -26811   -26734   -26655   -26665 
  -26747   -26798   -26856   -26982   -27056   -26995   -26867   -26819 
  -26871   -26859   -26778   -26786   -26809   -26732   -26643   -26644 
  -26666   -26605   -26603   -26759   -26865   -26831   -26793   -26781 
  -26754   -26735   -26775   -26806   -26725   -26667   -26712   -26721 
  -26663   -26611   -26607   -26659   -26692   -26688   -26705   -26784 
  -26931   -27055   -27082   -27032   -26866   -26673   -26658   -26770 
  -26846   -26898   -26933   -26844   -26684   -26619   -26619   -26603 
  -26609   -26608   -26597   -26630   -26636   -26605   -26636   -26677 
  -26638   -26582   -26608   -26644   -26585   -26558   -26662   -26735 
  -26743   -26788   -26785   -26673   -26584   -26573   -26534   -26487 
  -26554   -26639   -26627   -26630   -26688   -26717   -26697   -26639 
  -26595   -26588   -26590   -26638   -26725   -26802   -26850   -26824 
  -26767   -26761   -26769   -26770   -26796   -26854   -26898   -26874 
  -26817   -26747   -26684   -26739   -26847   -26850   -26800   -26762 
  -26730   -26709   -26689   -26689   -26682   -26626   -26616   -26680 
  -26649   -26518   -26508   -26639   -26694   -26681   -26697   -26644 
  -26550   -26554   -26595   -26612   -26632   -26665   -26719   -26758 
  -26759   -26763   -26796   -26882   -26973   -26990   -26971   -26932 
  -26881   -26881   -26952   -27051   -27071   -26983   -26882   -26786 
  -26725   -26766   -26790   -26752   -26740   -26728   -26713   -26715 
  -26680   -26626   -26636   -26728   -26820   -26867   -26921   -26932 
  -26856   -26809   -26790   -26735   -26680   -26650   -26654   -26684 
  -26684   -26649   -26639   -26689   -26727   -26723   -26750   -26738 
  -26644   -26626   -26681   -26734   -26856   -26997   -27009   -26916 
  -26843   -26827   -26805   -26775   -26765   -26762   -26789   -26809 
  -26785   -26801   -26840   -26806   -26727   -26685   -26704   -26698 
  -26659   -26707   -26831   -26927   -26944   -26874   -26809   -26781 
  -26690   -26595   -26605   -26678   -26725   -26731   -26742   -26751 
  -26739   -26734   -26731   -26754   -26790   -26720   -26616   -26647 
  -26742   -26805   -26852   -26865   -26823   -26761   -26770   -26801 
  -26762   -26758   -26825   -26811   -26727   -26724   -26793   -26777 
  -26689   -26721   -26802   -26739   -26667   -26739   -26833   -26847 
  -26835   -26844   -26794   -26677   -26639   -26654   -26577   -26472 
  -26470   -26541   -26572   -26554   -26546   -26535   -26497   -26469 
  -26474   -26550   -26661   -26736   -26804   -26843   -26796   -26717 
  -26690   -26751   -26855   -26909   -26900   -26852   -26786   -26738 
  -26694   -26704   -26781   -26793   -26696   -26581   -26535   -26585 
  -26615   -26596   -26666   -26813   -26878   -26839   -26797   -26731 
  -26586   -26518   -26601   -26649   -26640   -26704   -26767   -26701 
  -26570   -26569   -26665   -26666   -26654   -26711   -26697   -26661 
  -26696   -26694   -26639   -26665   -26801   -26878   -26813   -26740 
  -26700   -26657   -26663   -26704   -26725   -26744   -26763   -26796 
  -26838   -26842   -26782   -26673   -26616   -26638   -26634   -26647 
  -26748   -26798   -26744   -26705   -26713   -26678   -26623   -26671 
  -26769   -26793   -26793   -26798   -26796   -26806   -26794   -26778 
  -26809   -26817   -26779   -26755   -26748   -26707   -26657   -26680 
  -26694   -26676   -26744   -26805   -26744   -26725   -26770   -26732 
  -26678   -26743   -26798   -26666   -26538   -26623   -26725   -26697 
  -26684   -26769   -26844   -26793   -26700   -26703   -26779   -26897 
  -27021   -27094   -27136   -27102   -26947   -26784   -26669   -26636 
  -26725   -26838   -26910   -26970   -26998   -26979   -26906   -26773 
  -26646   -26635   -26744   -26836   -26875   -26914   -26882   -26801 
  -26789   -26793   -26761   -26752   -26793   -26838   -26808   -26721 
  -26673   -26669   -26715   -26775   -26757   -26700   -26694   -26725 
  -26765   -26796   -26813   -26782   -26703   -26682   -26694   -26657 
  -26677   -26752   -26734   -26678   -26724   -26763   -26700   -26711 
  -26823   -26819   -26778   -26856   -26892   -26836   -26828   -26836 
  -26794   -26757   -26774   -26848   -26973   -27082   -27037   -26905 
  -26838   -26767   -26686   -26709   -26740   -26707   -26685   -26677 
  -26642   -26592   -26576   -26593   -26586   -26603   -26647   -26609 
  -26500   -26427   -26449   -26501   -26509   -26536   -26559   -26534 
  -26593   -26709   -26719   -26673   -26655   -26651   -26644   -26647 
  -26690   -26732   -26744   -26743   -26704   -26684   -26736   -26773 
  -26806   -26881   -26896   -26797   -26651   -26565   -26568   -26584 
  -26626   -26721   -26786   -26767   -26693   -26626   -26574   -26526 
  -26573   -26727   -26802   -26744   -26682   -26689   -26690   -26657 
  -26725   -26879   -26929   -26902   -26905   -26898   -26878   -26909 
  -26948   -26881   -26778   -26778   -26777   -26709   -26732   -26844 
  -26887   -26821   -26777   -26863   -26947   -26886   -26761   -26682 
  -26677   -26688   -26677   -26704   -26725   -26694   -26734   -26817 
  -26816   -26785   -26794   -26789   -26743   -26724   -26703   -26599 
  -26555   -26624   -26600   -26509   -26520   -26580   -26595   -26578 
  -26590   -26631   -26655   -26711   -26817   -26878   -26852   -26798 
  -26766   -26736   -26740   -26820   -26832   -26696   -26607   -26589 
  -26515   -26466   -26538   -26628   -26654   -26667   -26676   -26599 
  -26563   -26700   -26823   -26855   -26912   -26898   -26742   -26619 
  -26655   -26736   -26757   -26815   -26900   -26854   -26761   -26732 
  -26716   -26724   -26757   -26750   -26727   -26709   -26684   -26665 
  -26694   -26771   -26786   -26744   -26765   -26793   -26750   -26705 
  -26705   -26708   -26707   -26736   -26746   -26688   -26688   -26763 
  -26786   -26797   -26839   -26817   -26727   -26673   -26688   -26705 
  -26709   -26721   -26724   -26786   -26902   -26886   -26766   -26697 
  -26655   -26655   -26705   -26727   -26728   -26738   -26751   -26785 
  -26816   -26842   -26850   -26850   -26887   -26905   -26867   -26846 
  -26833   -26813   -26828   -26855   -26852   -26862   -26912   -26908 
  -26843   -26859   -26905   -26855   -26815   -26827   -26808   -26777 
  -26762   -26739   -26704   -26671   -26632   -26569   -26581   -26735 
  -26896   -26975   -26970   -26904   -26875   -26852   -26769   -26754 
  -26831   -26815   -26692   -26654   -26734   -26697   -26553   -26561 
  -26663   -26669   -26624   -26547   -26407   -26330   -26422   -26554 
  -26578   -26577   -26593   -26558   -26550   -26586   -26600   -26635 
  -26636   -26558   -26558   -26623   -26605   -26565   -26620   -26739 
  -26819   -26867   -26927   -26914   -26796   -26685   -26684   -26739 
  -26728   -26730   -26825   -26815   -26658   -26595   -26659   -26715 
  -26771   -26866   -26839   -26643   -26549   -26642   -26719   -26778 
  -26889   -26962   -26948   -26866   -26770   -26723   -26746   -26827 
  -26859   -26801   -26789   -26829   -26824   -26754   -26663   -26665 
  -26761   -26806   -26793   -26800   -26817   -26816   -26832   -26838 
  -26747   -26678   -26778   -26909   -26928   -26887   -26825   -26740 
  -26642   -26550   -26511   -26524   -26581   -26655   -26657   -26607 
  -26604   -26623   -26630   -26650   -26720   -26809   -26828   -26802 
  -26775   -26723   -26671   -26651   -26688   -26827   -26940   -26927 
  -26885   -26855   -26779   -26688   -26647   -26636   -26634   -26690 
  -26759   -26754   -26758   -26767   -26690   -26643   -26701   -26766 
  -26824   -26883   -26912   -26914   -26913   -26869   -26758   -26736 
  -26886   -26991   -26936   -26847   -26816   -26797   -26747   -26748 
  -26819   -26816   -26769   -26800   -26846   -26809   -26703   -26623 
  -26622   -26655   -26728   -26835   -26900   -26924   -26937   -26933 
  -26897   -26798   -26677   -26595   -26553   -26558   -26581   -26622 
  -26720   -26813   -26854   -26827   -26713   -26615   -26608   -26634 
  -26669   -26704   -26725   -26723   -26653   -26604   -26651   -26657 
  -26619   -26653   -26700   -26663   -26626   -26654   -26615   -26535 
  -26635   -26773   -26731   -26669   -26688   -26678   -26639   -26681 
  -26778   -26766   -26676   -26659   -26667   -26650   -26659   -26655 
  -26632   -26631   -26643   -26682   -26728   -26735   -26720   -26731 
  -26769   -26770   -26744   -26738   -26673   -26599   -26673   -26798 
  -26816   -26774   -26770   -26781   -26747   -26736   -26793   -26812 
  -26805   -26852   -26921   -26958   -26917   -26828   -26805   -26833 
  -26829   -26811   -26833   -26856   -26804   -26763   -26802   -26775 
  -26690   -26689   -26709   -26646   -26558   -26563   -26639   -26650 
  -26635   -26670   -26647   -26577   -26608   -26688   -26678   -26617 
  -26620   -26624   -26592   -26666   -26781   -26740   -26669   -26747 
  -26835   -26813   -26827   -26967   -27045   -26985   -26900   -26778 
  -26655   -26684   -26819   -26927   -26955   -26892   -26802   -26720 
  -26643   -26666   -26789   -26844   -26779   -26738   -26763   -26742 
  -26705   -26716   -26696   -26676   -26727   -26747   -26681   -26623 
  -26626   -26616   -26582   -26663   -26774   -26719   -26653   -26698 
  -26649   -26523   -26563   -26712   -26747   -26724   -26781   -26811 
  -26747   -26727   -26762   -26778   -26775   -26757   -26746   -26752 
  -26750   -26748   -26746   -26744   -26746   -26740   -26774   -26824 
  -26825   -26808   -26793   -26797   -26823   -26806   -26757   -26720 
  -26703   -26744   -26798   -26797   -26784   -26757   -26680   -26566 
  -26485   -26508   -26599   -26651   -26628   -26565   -26566   -26619 
  -26608   -26578   -26607   -26651   -26685   -26670   -26638   -26654 
  -26673   -26688   -26758   -26827   -26798   -26703   -26636   -26585 
  -26530   -26566   -26670   -26746   -26819   -26847   -26802   -26779 
  -26779   -26774   -26809   -26866   -26878   -26846   -26829   -26824 
  -26779   -26770   -26831   -26842   -26769   -26677   -26620   -26638 
  -26694   -26732   -26716   -26649   -26577   -26518   -26514   -26599 
  -26686   -26747   -26811   -26821   -26796   -26804   -26829   -26851 
  -26873   -26897   -26898   -26883   -26896   -26875   -26852   -26956 
  -27060   -27018   -26983   -27040   -27036   -26958   -26975   -27055 
  -27014   -26933   -26936   -26935   -26928   -26943   -26919   -26874 
  -26813   -26709   -26643   -26642   -26638   -26620   -26640   -26680 
  -26674   -26688   -26778   -26827   -26792   -26717   -26596   -26523 
  -26558   -26601   -26627   -26653   -26653   -26634   -26596   -26555 
  -26559   -26592   -26605   -26599   -26612   -26622   -26586   -26584 
  -26627   -26632   -26642   -26715   -26800   -26819   -26751   -26682 
  -26640   -26605   -26619   -26657   -26690   -26765   -26873   -26950 
  -26917   -26800   -26739   -26744   -26762   -26813   -26875   -26914 
  -26933   -26917   -26860   -26773   -26723   -26790   -26904   -26950 
  -26921   -26913   -26968   -26973   -26887   -26844   -26844   -26833 
  -26856   -26917   -26923   -26833   -26747   -26734   -26704   -26636 
  -26608   -26595   -26600   -26646   -26658   -26589   -26501   -26501 
  -26592   -26653   -26659   -26640   -26599   -26561   -26539   -26585 
  -26689   -26708   -26685   -26711   -26659   -26532   -26500   -26547 
  -26559   -26588   -26671   -26673   -26585   -26574   -26604   -26588 
  -26603   -26666   -26712   -26678   -26585   -26545   -26574   -26639 
  -26735   -26800   -26805   -26784   -26754   -26748   -26734   -26693 
  -26708   -26770   -26802   -26773   -26685   -26624   -26638   -26685 
  -26739   -26798   -26846   -26852   -26806   -26770   -26769   -26785 
  -26813   -26827   -26825   -26835   -26811   -26767   -26751   -26717 
  -26670   -26684   -26731   -26715   -26665   -26694   -26743   -26720 
  -26719   -26759   -26743   -26667   -26589   -26580   -26639   -26682 
  -26688   -26654   -26600   -26604   -26655   -26685   -26721   -26819 
  -26917   -26923   -26890   -26908   -26900   -26879   -26928   -26967 
  -26956   -26940   -26894   -26811   -26755   -26769   -26824   -26860 
  -26894   -26913   -26850   -26711   -26554   -26481   -26539   -26616 
  -26655   -26696   -26705   -26655   -26577   -26541   -26562   -26595 
  -26630   -26651   -26632   -26630   -26639   -26634   -26662   -26721 
