Origin Time       2024/04/02 04:24:00
Lat.              40.133
Long.             141.712
Depth. (km)       71
Mag.              6.0
Station Code      TCGH09
Station Lat.      36.8625
Station Long.     139.8364
Station Height(m) 564
Record Time       2024/04/02 04:25:59
Sampling Freq(Hz) 100Hz
Duration Time(s)  120
Dir.              4
Scale Factor      7845(gal)/8223790
Max. Acc. (gal)   0.596
Last Correction   2024/04/02 04:26:00
Memo.             
[...]
   -4132    -4186    -4263    -4328    -4394    -4469    -4511    -4469 
   -4333    -4186    -4099    -4032    -3975    -3987    -4066    -4168 
   -4249    -4288    -4311    -4301    -4243    -4174    -4122    -4131 
   -4199    -4261    -4286    -4266    -4212    -4147    -4102    -4122 
   -4218    -4313    -4337    -4307    -4252    -4176    -4120    -4125 
   -4170    -4224    -4266    -4266    -4225    -4201    -4226    -4260 
   -4261    -4267    -4305    -4287    -4185    -4140    -4189    -4240 
   -4297    -4351    -4333    -4303    -4338    -4364    -4328    -4297 
   -4314    -4353    -4387    -4396    -4376    -4325    -4249    -4191 
   -4180    -4225    -4317    -4449    -4602    -4698    -4664    -4572 
   -4498    -4415    -4326    -4239    -4162    -4155    -4237    -4367 
   -4499    -4596    -4646    -4621    -4509    -4374    -4239    -4079 
   -3950    -3885    -3840    -3823    -3892    -3993    -4017    -4020 
   -4047    -4027    -3978    -3978    -4013    -4056    -4079    -4035 
   -3943    -3863    -3842    -3897    -4009    -4131    -4217    -4274 
   -4302    -4294    -4268    -4268    -4305    -4337    -4310    -4232 
   -4183    -4232    -4379    -4550    -4669    -4733    -4725    -4606 
   -4446    -4347    -4275    -4186    -4148    -4190    -4237    -4282 
   -4351    -4406    -4432    -4417    -4345    -4268    -4225    -4180 
   -4149    -4191    -4257    -4252    -4212    -4207    -4189    -4145 
   -4147    -4175    -4201    -4214    -4171    -4086    -4037    -4020 
   -4012    -4074    -4190    -4251    -4259    -4270    -4263    -4221 
   -4186    -4194    -4220    -4203    -4162    -4172    -4210    -4203 
   -4198    -4214    -4190    -4106    -4010    -3998    -4114    -4256 
   -4317    -4297    -4218    -4098    -3994    -3982    -4048    -4140 
   -4213    -4218    -4170    -4125    -4113    -4124    -4141    -4158 
   -4143    -4054    -3916    -3823    -3852    -4035    -4303    -4531 
   -4633    -4568    -4352    -4087    -3896    -3839    -3913    -4068 
   -4270    -4446    -4506    -4437    -4326    -4268    -4244    -4174 
   -4091    -4074    -4086    -4110    -4180    -4291    -4418    -4504 
   -4475    -4344    -4205    -4099    -4018    -4008    -4153    -4383 
   -4502    -4467    -4367    -4226    -4044    -3901    -3883    -3969 
   -4105    -4251    -4372    -4441    -4438    -4371    -4271    -4183 
   -4133    -4079    -4005    -3973    -4000    -4087    -4226    -4367 
   -4495    -4608    -4644    -4621    -4567    -4432    -4282    -4260 
   -4328    -4353    -4361    -4419    -4486    -4538    -4577    -4564 
   -4507    -4445    -4378    -4318    -4284    -4253    -4199    -4180 
   -4256    -4352    -4413    -4477    -4541    -4585    -4596    -4459 
   -4197    -4016    -3982    -4044    -4197    -4360    -4429    -4433 
   -4456    -4499    -4525    -4496    -4364    -4159    -4033    -4036 
   -4074    -4141    -4280    -4421    -4463    -4394    -4263    -4140 
   -4043    -3944    -3869    -3840    -3842    -3885    -3994    -4118 
   -4189    -4234    -4249    -4156    -3982    -3829    -3739    -3707 
   -3754    -3904    -4075    -4139    -4091    -4021    -4001    -4060 
   -4166    -4261    -4307    -4299    -4249    -4172    -4098    -4039 
   -4014    -4050    -4101    -4129    -4168    -4209    -4228    -4251 
   -4284    -4272    -4183    -4060    -3959    -3877    -3840    -3881 
   -3954    -4048    -4201    -4345    -4409    -4413    -4390    -4360 
   -4330    -4257    -4139    -4067    -4091    -4164    -4267    -4401 
   -4491    -4499    -4475    -4419    -4333    -4264    -4253    -4309 
   -4399    -4475    -4517    -4518    -4483    -4434    -4411    -4432 
   -4463    -4482    -4487    -4482    -4467    -4407    -4302    -4240 
   -4220    -4160    -4087    -4066    -4083    -4098    -4121    -4170 
   -4186    -4153    -4167    -4216    -4214    -4183    -4135    -4045 
   -3990    -4031    -4129    -4270    -4415    -4475    -4445    -4382 
   -4279    -4143    -4043    -3997    -3994    -4062    -4166    -4236 
   -4310    -4421    -4463    -4351    -4185    -4089    -4047    -4014 
   -3986    -3963    -3962    -3989    -4063    -4207    -4337    -4337 
   -4245    -4151    -4086    -4052    -4067    -4156    -4303    -4403 
   -4378    -4284    -4193    -4109    -4074    -4090    -4099    -4090 
   -4091    -4095    -4108    -4132    -4131    -4120    -4141    -4174 
   -4195    -4247    -4333    -4367    -4276    -4120    -4021    -4025 
   -4102    -4248    -4469    -4671    -4706    -4560    -4363    -4229 
   -4178    -4216    -4332    -4429    -4402    -4267    -4139    -4094 
   -4094    -4116    -4201    -4325    -4413    -4450    -4456    -4422 
   -4369    -4324    -4257    -4175    -4144    -4167    -4198    -4255 
   -4349    -4418    -4409    -4340    -4272    -4210    -4159    -4186 
   -4251    -4230    -4151    -4099    -4106    -4202    -4382    -4540 
   -4560    -4409    -4172    -3983    -3950    -4082    -4271    -4401 
   -4417    -4315    -4166    -4041    -3982    -4023    -4140    -4261 
   -4345    -4371    -4328    -4244    -4174    -4129    -4085    -4052 
   -4067    -4086    -4064    -4081    -4166    -4214    -4195    -4168 
   -4158    -4176    -4259    -4417    -4542    -4494    -4305    -4156 
   -4159    -4249    -4305    -4318    -4341    -4365    -4349    -4293 
   -4244    -4234    -4257    -4261    -4182    -4048    -3964    -3982 
   -4070    -4151    -4168    -4166    -4185    -4210    -4247    -4272 
   -4239    -4202    -4212    -4180    -4087    -4031    -4039    -4089 
   -4186    -4294    -4353    -4357    -4352    -4401    -4498    -4540 
   -4469    -4371    -4318    -4282    -4213    -4128    -4094    -4178 
   -4333    -4415    -4375    -4307    -4268    -4209    -4122    -4097 
   -4175    -4298    -4396    -4401    -4295    -4172    -4098    -4074 
   -4141    -4286    -4409    -4498    -4563    -4531    -4365    -4158 
   -4059    -4133    -4326    -4515    -4584    -4541    -4429    -4260 
   -4131    -4083    -4077    -4141    -4279    -4379    -4368    -4295 
   -4268    -4278    -4264    -4264    -4260    -4162    -4016    -3937 
   -3948    -4039    -4180    -4291    -4315    -4286    -4257    -4233 
   -4174    -4072    -4021    -4091    -4201    -4263    -4291    -4291 
   -4230    -4135    -4074    -4055    -4027    -4001    -4078    -4275 
   -4471    -4514    -4356    -4132    -3994    -3959    -4010    -4126 
   -4247    -4336    -4382    -4364    -4287    -4194    -4132    -4098 
   -4071    -4054    -4055    -4106    -4210    -4268    -4205    -4094 
   -4043    -4036    -4036    -4079    -4170    -4239    -4253    -4236 
   -4189    -4072    -3890    -3782    -3844    -3977    -4098    -4217 
   -4257    -4175    -4058    -3998    -4033    -4136    -4212    -4212 
   -4201    -4233    -4284    -4348    -4440    -4514    -4518    -4456 
   -4374    -4306    -4253    -4251    -4334    -4461    -4554    -4596 
   -4587    -4515    -4361    -4151    -3975    -3925    -4024    -4220 
   -4438    -4619    -4700    -4673    -4606    -4529    -4434    -4360 
   -4342    -4364    -4418    -4499    -4545    -4558    -4585    -4568 
   -4444    -4264    -4081    -3917    -3820    -3793    -3823    -3935 
   -4093    -4193    -4233    -4270    -4220    -4043    -3913    -3929 
   -3975    -4004    -4083    -4203    -4298    -4325    -4276    -4214 
   -4193    -4187    -4171    -4171    -4224    -4320    -4392    -4357 
   -4220    -4099    -4098    -4198    -4322    -4437    -4503    -4471 
   -4386    -4352    -4345    -4270    -4145    -4032    -3944    -3916 
   -3959    -4005    -4028    -4091    -4170    -4158    -4074    -4006 
   -3971    -3932    -3867    -3825    -3898    -4056    -4212    -4353 
   -4434    -4396    -4309    -4244    -4170    -4066    -3998    -4025 
   -4131    -4287    -4479    -4595    -4514    -4307    -4171    -4164 
   -4191    -4195    -4179    -4162    -4162    -4176    -4213    -4313 
   -4441    -4506    -4487    -4437    -4394    -4336    -4253    -4209 
   -4226    -4241    -4251    -4333    -4488    -4581    -4525    -4367 
   -4191    -4041    -3929    -3890    -3997    -4214    -4411    -4519 
   -4521    -4418    -4270    -4149    -4105    -4153    -4287    -4428 
   -4461    -4356    -4202    -4097    -4037    -3993    -4023    -4182 
   -4324    -4311    -4232    -4172    -4137    -4163    -4225    -4213 
   -4117    -4051    -4090    -4183    -4266    -4329    -4367    -4380 
   -4386    -4351    -4272    -4221    -4209    -4174    -4110    -4064 
   -4039    -4047    -4099    -4155    -4203    -4256    -4278    -4225 
   -4116    -4054    -4109    -4220    -4318    -4384    -4383    -4288 
   -4126    -3979    -3963    -4079    -4222    -4357    -4461    -4453 
   -4357    -4302    -4294    -4271    -4247    -4233    -4228    -4268 
   -4338    -4376    -4405    -4452    -4468    -4419    -4386    -4426 
   -4438    -4342    -4245    -4226    -4209    -4156    -4137    -4182 
   -4232    -4239    -4229    -4266    -4338    -4351    -4245    -4099 
   -4033    -4063    -4148    -4260    -4352    -4360    -4286    -4199 
   -4131    -4058    -4006    -4027    -4090    -4120    -4114    -4126 
   -4183    -4252    -4293    -4270    -4190    -4066    -3927    -3859 
   -3916    -4027    -4141    -4264    -4351    -4321    -4162    -4001 
   -3967    -4029    -4106    -4176    -4217    -4167    -4056    -4009 
   -4067    -4167    -4259    -4297    -4259    -4207    -4206    -4256 
   -4314    -4337    -4332    -4325    -4307    -4282    -4261    -4240 
   -4216    -4205    -4249    -4330    -4360    -4344    -4365    -4396 
   -4369    -4318    -4261    -4164    -4068    -4051    -4083    -4108 
   -4147    -4212    -4221    -4143    -4029    -3936    -3932    -4052 
   -4239    -4382    -4406    -4315    -4194    -4126    -4113    -4116 
   -4140    -4207    -4315    -4411    -4401    -4313    -4280    -4282 
   -4209    -4106    -4077    -4104    -4122    -4147    -4170    -4166 
   -4190    -4259    -4299    -4267    -4162    -4043    -3989    -4037 
   -4163    -4283    -4357    -4445    -4558    -4600    -4511    -4342 
   -4190    -4105    -4090    -4149    -4243    -4325    -4403    -4457 
   -4434    -4329    -4251    -4293    -4360    -4345    -4303    -4287 
   -4287    -4317    -4365    -4371    -4328    -4275    -4226    -4205 
   -4232    -4249    -4210    -4191    -4247    -4318    -4340    -4295 
   -4224    -4199    -4209    -4168    -4114    -4151    -4249    -4328 
   -4391    -4419    -4375    -4315    -4276    -4232    -4203    -4190 
   -4153    -4113    -4112    -4152    -4197    -4225    -4251    -4244 
   -4126    -3913    -3747    -3771    -3964    -4191    -4365    -4426 
   -4313    -4086    -3902    -3893    -4068    -4310    -4472    -4521 
   -4504    -4453    -4333    -4185    -4129    -4179    -4222    -4201 
   -4159    -4158    -4221    -4325    -4417    -4450    -4419    -4318 
   -4135    -3956    -3900    -3974    -4118    -4286    -4438    -4548 
   -4585    -4531    -4395    -4232    -4090    -4000    -4009    -4113 
   -4259    -4411    -4527    -4571    -4540    -4506    -4540    -4572 
   -4496    -4352    -4226    -4172    -4230    -4383    -4544    -4650 
   -4687    -4637    -4490    -4295    -4145    -4063    -4048    -4112 
   -4213    -4297    -4299    -4203    -4129    -4158    -4182    -4149 
   -4148    -4199    -4252    -4291    -4302    -4287    -4268    -4214 
   -4124    -4098    -4163    -4212    -4168    -4108    -4093    -4074 
   -4068    -4151    -4249    -4264    -4221    -4144    -4035    -3981 
   -4005    -4028    -4048    -4122    -4229    -4309    -4342    -4307 
   -4186    -4047    -3974    -3962    -3989    -4047    -4113    -4198 
   -4297    -4356    -4352    -4284    -4144    -3973    -3867    -3843 
   -3852    -3896    -3989    -4063    -4058    -4041    -4078    -4085 
   -4001    -3923    -3927    -3974    -4039    -4118    -4197    -4272 
   -4317    -4301    -4283    -4336    -4411    -4434    -4405    -4338 
   -4275    -4255    -4236    -4206    -4230    -4278    -4276    -4302 
   -4422    -4519    -4475    -4364    -4306    -4288    -4271    -4272 
   -4283    -4278    -4230    -4144    -4121    -4218    -4330    -4374 
   -4364    -4305    -4210    -4095    -3973    -3874    -3850    -3931 
   -4075    -4216    -4349    -4448    -4444    -4349    -4234    -4156 
   -4170    -4280    -4378    -4353    -4286    -4299    -4355    -4428 
   -4545    -4633    -4590    -4429    -4271    -4217    -4256    -4329 
   -4387    -4419    -4440    -4414    -4341    -4299    -4298    -4317 
   -4359    -4336    -4197    -4047    -3975    -4001    -4122    -4293 
   -4396    -4382    -4329    -4295    -4256    -4236    -4303    -4449 
   -4584    -4639    -4585    -4440    -4257    -4087    -4001    -4074 
   -4224    -4306    -4336    -4332    -4217    -4000    -3777    -3651 
   -3709    -3897    -4036    -4050    -4023    -3989    -3905    -3823 
   -3800    -3785    -3773    -3829    -3946    -4050    -4090    -4058 
   -4029    -4102    -4234    -4299    -4257    -4167    -4105    -4149 
   -4259    -4297    -4280    -4279    -4217    -4091    -4025    -4051 
   -4087    -4093    -4125    -4214    -4280    -4253    -4166    -4136 
   -4218    -4309    -4313    -4271    -4225    -4160    -4109    -4110 
   -4120    -4101    -4094    -4132    -4206    -4295    -4360    -4409 
   -4472    -4506    -4496    -4465    -4398    -4302    -4240    -4291 
   -4468    -4641    -4741    -4815    -4850    -4792    -4662    -4491 
   -4325    -4232    -4185    -4117    -4082    -4158    -4306    -4455 
   -4561    -4590    -4529    -4387    -4195    -4033    -3963    -3962 
   -3979    -4025    -4136    -4232    -4244    -4252    -4276    -4248 
   -4207    -4221    -4266    -4287    -4253    -4160    -4027    -3935 
   -3974    -4101    -4218    -4301    -4338    -4311    -4237    -4158 
   -4085    -3997    -3906    -3858    -3843    -3843    -3871    -3946 
   -4058    -4155    -4198    -4187    -4122    -4017    -3927    -3943 
   -4079    -4237    -4379    -4533    -4631    -4602    -4496    -4402 
   -4352    -4329    -4353    -4426    -4477    -4514    -4585    -4617 
   -4514    -4334    -4186    -4122    -4149    -4245    -4357    -4387 
   -4310    -4244    -4236    -4210    -4166    -4179    -4220    -4218 
   -4225    -4295    -4388    -4483    -4563    -4571    -4495    -4396 
   -4322    -4261    -4207    -4212    -4272    -4314    -4318    -4317 
   -4330    -4321    -4236    -4110    -4025    -4000    -4012    -4055 
   -4135    -4253    -4326    -4247    -4087    -3998    -3983    -3985 
   -4035    -4122    -4110    -3951    -3781    -3697    -3693    -3770 
   -3929    -4104    -4216    -4256    -4260    -4245    -4212    -4182 
   -4185    -4232    -4291    -4326    -4369    -4449    -4541    -4631 
   -4673    -4599    -4419    -4217    -4079    -4040    -4075    -4140 
   -4205    -4251    -4282    -4279    -4213    -4105    -3990    -3871 
   -3804    -3836    -3942    -4071    -4182    -4233    -4221    -4179 
   -4125    -4056    -3989    -3937    -3916    -3946    -4012    -4047 
   -4087    -4233    -4410    -4467    -4436    -4378    -4290    -4228 
   -4230    -4267    -4332    -4414    -4446    -4409    -4359    -4310 
   -4260    -4260    -4314    -4351    -4352    -4342    -4309    -4259 
   -4206    -4118    -4001    -3943    -3959    -3979    -4024    -4156 
   -4326    -4432    -4434    -4357    -4230    -4109    -4068    -4097 
   -4137    -4171    -4205    -4278    -4402    -4499    -4530    -4536 
   -4498    -4398    -4290    -4216    -4193    -4234    -4306    -4369 
   -4461    -4610    -4714    -4696    -4627    -4542    -4372    -4156 
   -4039    -4054    -4143    -4252    -4326    -4345    -4359    -4364 
   -4334    -4307    -4297    -4249    -4168    -4121    -4120    -4153 
   -4249    -4403    -4544    -4627    -4637    -4526    -4359    -4257 
   -4218    -4229    -4320    -4429    -4461    -4403    -4299    -4193 
   -4125    -4098    -4087    -4106    -4160    -4183    -4143    -4090 
   -4052    -4008    -3970    -3951    -3939    -3946    -3986    -4036 
   -4071    -4095    -4121    -4148    -4166    -4135    -4052    -3991 
   -3977    -3975    -4001    -4063    -4137    -4191    -4202    -4171 
   -4101    -3997    -3913    -3920    -4037    -4207    -4351    -4398 
   -4332    -4218    -4113    -4036    -4014    -4041    -4086    -4166 
   -4276    -4344    -4372    -4410    -4430    -4429    -4430    -4399 
   -4293    -4168    -4148    -4268    -4459    -4650    -4797    -4850 
   -4795    -4698    -4604    -4469    -4303    -4221    -4278    -4386 
   -4472    -4564    -4639    -4611    -4495    -4369    -4229    -4082 
   -4023    -4067    -4149    -4212    -4226    -4194    -4133    -4075 
   -4045    -4029    -4013    -4021    -4050    -4059    -4059    -4068 
   -4059    -3994    -3892    -3824    -3835    -3897    -3994    -4099 
   -4155    -4147    -4094    -4016    -3946    -3935    -4000    -4112 
   -4222    -4274    -4264    -4251    -4257    -4286    -4330    -4352 
   -4306    -4187    -4068    -4008    -3994    -4036    -4152    -4291 
   -4325    -4225    -4117    -4086    -4079    -4090    -4176    -4288 
   -4322    -4253    -4139    -4078    -4079    -4101    -4171    -4314 
   -4446    -4486    -4460    -4415    -4372    -4387    -4450    -4477 
   -4463    -4436    -4392    -4348    -4324    -4334    -4357    -4361 
   -4352    -4321    -4268    -4236    -4245    -4293    -4342    -4334 
   -4261    -4164    -4078    -4043    -4068    -4143    -4243    -4313 
   -4328    -4283    -4187    -4133    -4185    -4288    -4392    -4464 
   -4450    -4353    -4248    -4217    -4278    -4363    -4391    -4347 
   -4257    -4140    -4014    -3933    -3962    -4114    -4305    -4396 
   -4348    -4202    -4023    -3901    -3883    -3937    -4033    -4151 
   -4268    -4376    -4409    -4322    -4178    -4059    -3973    -3915 
   -3948    -4091    -4229    -4274    -4243    -4176    -4136    -4151 
   -4139    -4033    -3912    -3848    -3827    -3831    -3898    -4028 
   -4167    -4291    -4398    -4460    -4419    -4278    -4141    -4087 
   -4112    -4217    -4378    -4498    -4522    -4479    -4430    -4406 
   -4360    -4278    -4244    -4330    -4472    -4553    -4530    -4423 
   -4290    -4183    -4116    -4098    -4133    -4194    -4276    -4371 
   -4434    -4491    -4571    -4596    -4538    -4463    -4365    -4214 
   -4072    -4013    -4023    -4093    -4205    -4267    -4261    -4259 
   -4253    -4206    -4124    -4009    -3905    -3888    -3936    -3993 
   -4068    -4166    -4236    -4243    -4203    -4160    -4160    -4217 
   -4280    -4306    -4311    -4301    -4248    -4164    -4087    -4031 
   -4012    -4062    -4141    -4186    -4205    -4194    -4128    -4064 
   -4071    -4131    -4228    -4353    -4442    -4457    -4440    -4419 
   -4367    -4336    -4387    -4430    -4392    -4352    -4363    -4375 
   -4364    -4372    -4419    -4456    -4417    -4352    -4384    -4486 
   -4518    -4488    -4490    -4519    -4536    -4525    -4457    -4348 
   -4264    -4237    -4275    -4340    -4355    -4294    -4179    -4075 
   -4036    -4028    -3991    -3960    -4009    -4132    -4228    -4241 
   -4206    -4148    -4067    -4000    -3990    -4028    -4075    -4147 
