Origin Time       2024/04/02 04:24:00
Lat.              40.133
Long.             141.712
Depth. (km)       71
Mag.              6.0
Station Code      TCGH08
Station Lat.      36.8828
Station Long.     139.6459
Station Height(m) 499
Record Time       2024/04/02 04:26:38
Sampling Freq(Hz) 100Hz
Duration Time(s)  120
Dir.              1
Scale Factor      2942(gal)/8224139
Max. Acc. (gal)   0.089
Last Correction   2024/04/02 04:26:38
Memo.             
   24139    24138    24155    24185    24206    24202    24192    24194 
   24201    24198    24198    24217    24228    24217    24209    24210 
   24221    24229    24233    24231    24216    24210    24210    24186 
   24165    24173    24186    24181    24173    24170    24159    24140 
   24119    24098    24092    24106    24113    24109    24111    24104 
   24085    24079    24074    24065    24069    24069    24054    24038 
   24027    24020    24017    24019    24009    24000    24016    24031 
   24027    24054    24093    24101    24096    24079    24047    24020 
   24017    24040    24046    24013    23985    23966    23954    23970 
   23996    24001    24003    24007    24012    24012    24003    23989 
   23985    24005    24035    24043    24057    24067    24057    24052 
   24052    24039    24024    24024    24050    24069    24067    24075 
   24090    24092    24077    24062    24042    24016    24011    24020 
   24021    24036    24061    24069    24066    24065    24058    24055 
   24086    24128    24132    24123    24127    24124    24127    24152 
   24160    24125    24094    24100    24102    24102    24117    24108 
   24058    24023    24015    24008    24012    24036    24059    24073 
   24101    24140    24155    24135    24123    24151    24182    24190 
   24189    24175    24151    24140    24152    24166    24165    24158 
   24133    24089    24071    24075    24070    24092    24143    24178 
   24198    24209    24208    24209    24231    24246    24243    24252 
   24247    24219    24214    24204    24151    24120    24129    24151 
   24186    24220    24250    24278    24283    24275    24281    24281 
   24251    24212    24177    24148    24140    24140    24135    24138 
   24150    24159    24162    24142    24102    24074    24078    24098 
   24097    24089    24086    24066    24048    24052    24039    24028 
   24043    24028    23982    23965    23974    23976    23966    23951 
   23946    23954    23962    23965    23957    23951    23958    23954 
   23954    23971    23984    23982    23967    23962    23966    23971 
   23988    24016    24042    24062    24073    24078    24081    24071 
   24036    23990    23997    24043    24067    24070    24071    24067 
   24073    24090    24106    24125    24142    24152    24171    24183 
   24186    24193    24183    24166    24147    24119    24117    24150 
   24179    24204    24229    24250    24263    24264    24237    24197 
   24185    24208    24216    24219    24229    24231    24229    24229 
   24212    24185    24178    24187    24197    24201    24194    24185 
   24177    24159    24142    24127    24125    24144    24160    24160 
   24148    24119    24088    24081    24066    24042    24048    24070 
   24062    24032    24024    24039    24036    24015    24009    24008 
   24003    24000    23996    23992    23984    23993    24024    24035 
   24021    24008    23996    24001    24001    23957    23927    23950 
   23992    24024    24036    24047    24062    24042    24023    24054 
   24078    24069    24055    24039    24030    24040    24052    24046 
   24036    24048    24075    24082    24062    24036    24007    23977 
   23961    23958    23966    23982    23996    24008    24030    24052 
   24073    24089    24086    24081    24085    24079    24084    24108 
   24113    24100    24094    24090    24086    24084    24062    24044 
   24066    24098    24105    24116    24139    24132    24086    24062 
   24084    24119    24150    24159    24142    24132    24147    24152 
   24152    24173    24194    24193    24189    24192    24183    24182 
   24193    24171    24129    24127    24142    24127    24081    24020 
   23985    23992    24021    24070    24108    24106    24085    24071 
   24067    24065    24057    24066    24082    24066    24032    24009 
   23996    24004    24038    24051    24030    24012    24021    24046 
   24047    24023    24013    24028    24039    24044    24069    24098 
   24113    24131    24151    24148    24136    24146    24166    24197 
   24233    24260    24273    24255    24235    24250    24263    24254 
   24254    24262    24258    24252    24246    24219    24193    24193 
   24204    24220    24266    24308    24297    24264    24239    24205 
   24183    24174    24155    24138    24128    24139    24170    24193 
   24198    24178    24152    24162    24181    24158    24129    24150 
   24181    24167    24132    24105    24071    24040    24039    24066 
   24081    24067    24046    24043    24059    24065    24048    24043 
   24061    24082    24108    24124    24119    24109    24093    24085 
   24106    24115    24086    24065    24059    24032    24004    24016 
   24034    24028    24028    24036    24046    24059    24071    24088 
   24106    24121    24113    24085    24077    24077    24050    24040 
   24052    24042    24047    24082    24098    24096    24096    24092 
   24089    24105    24124    24127    24108    24089    24089    24078 
   24075    24116    24154    24166    24186    24200    24194    24192 
   24186    24155    24106    24101    24117    24096    24085    24120 
   24142    24146    24165    24154    24105    24079    24067    24042 
   24019    23989    23982    24024    24050    24024    23990    23955 
   23932    23951    23980    24004    24044    24057    24017    23980 
   23984    24035    24100    24135    24140    24115    24054    24001 
   23970    23931    23903    23900    23888    23876    23888    23904 
   23893    23889    23934    23980    23986    23981    23977    23965 
   23959    23973    23989    23986    23996    24017    24020    24023 
   24028    24017    24017    24058    24125    24167    24163    24154 
   24123    24058    24047    24094    24113    24104    24106    24093 
   24078    24112    24115    24058    24057    24098    24102    24116 
   24152    24159    24121    24089    24111    24140    24135    24159 
   24204    24170    24089    24058    24074    24082    24092    24125 
   24151    24171    24200    24183    24113    24092    24144    24186 
   24192    24169    24102    24042    24016    24008    24021    24070 
   24142    24206    24227    24200    24165    24147    24136    24123 
   24113    24098    24063    24012    23954    23928    23942    23967 
   24003    24054    24094    24104    24090    24069    24051    24038 
   24039    24063    24078    24073    24081    24106    24117    24102 
   24084    24070    24071    24094    24115    24105    24084    24078 
   24081    24074    24078    24096    24108    24105    24092    24079 
   24078    24077    24071    24065    24071    24123    24190    24205 
   24181    24163    24156    24156    24169    24165    24127    24112 
   24139    24152    24167    24202    24210    24194    24194    24198 
   24182    24154    24136    24123    24089    24040    24020    24057 
   24119    24165    24185    24179    24155    24128    24119    24133 
   24163    24198    24209    24179    24177    24221    24239    24225 
   24212    24182    24150    24150    24142    24092    24061    24058 
   24048    24070    24101    24098    24113    24146    24162    24179 
   24174    24125    24100    24109    24102    24084    24081    24088 
   24093    24101    24123    24158    24183    24182    24159    24124 
   24098    24077    24036    24016    24044    24055    24025    24030 
   24062    24067    24063    24078    24092    24082    24051    24024 
   24021    24032    24038    24054    24065    24031    24013    24043 
   24055    24023    24003    24021    24025    24021    24058    24088 
   24097    24128    24156    24146    24116    24094    24085    24075 
   24075    24096    24093    24051    24038    24086    24127    24148 
   24192    24212    24198    24201    24189    24133    24104    24109 
   24096    24074    24078    24097    24098    24077    24078    24097 
   24079    24074    24102    24096    24067    24075    24097    24097 
   24086    24085    24100    24109    24092    24062    24031    24005 
   24004    24024    24039    24031    24016    24008    23994    23965 
   23947    23959    23974    23985    24008    24035    24055    24085 
   24121    24127    24128    24144    24123    24089    24082    24052 
   23997    23985    24013    24050    24089    24116    24125    24133 
   24139    24125    24109    24124    24150    24158    24143    24128 
   24135    24142    24155    24194    24217    24217    24216    24192 
   24160    24142    24135    24146    24148    24138    24144    24152 
   24125    24082    24061    24055    24044    24052    24093    24132 
   24160    24177    24158    24102    24035    23981    23965    23982 
   24017    24040    24038    24032    24015    23984    24005    24061 
   24065    24028    24013    23996    23958    23950    23980    24005 
   24027    24061    24070    24059    24075    24090    24084    24086 
   24086    24082    24074    24032    23966    23926    23942    23993 
   24032    24048    24065    24094    24120    24136    24170    24192 
   24179    24177    24183    24175    24177    24197    24192    24139 
   24089    24097    24159    24198    24209    24233    24236    24202 
   24166    24133    24094    24055    24039    24019    23973    23989 
   24058    24088    24105    24136    24135    24132    24152    24163 
   24158    24156    24155    24143    24129    24119    24113    24127 
   24144    24155    24163    24144    24112    24092    24058    23993 
   23954    23982    24050    24102    24135    24156    24175    24196 
   24202    24196    24205    24225    24232    24223    24201    24177 
   24181    24219    24258    24293    24318    24297    24240    24196 
   24174    24155    24125    24119    24155    24186    24169    24125 
   24106    24111    24127    24144    24155    24158    24127    24078 
   24067    24078    24089    24093    24074    24055    24044    24028 
   24008    23993    23977    23943    23920    23927    23903    23861 
   23877    23908    23908    23935    23984    24017    24032    24030 
   24024    24004    23969    23959    23966    23969    23985    24007 
   24027    24043    24047    24052    24059    24069    24078    24082 
   24093    24109    24113    24115    24127    24129    24138    24173 
   24186    24173    24187    24209    24212    24224    24231    24224 
   24214    24194    24146    24092    24079    24101    24138    24166 
   24158    24150    24148    24136    24142    24154    24152    24151 
   24138    24113    24101    24112    24156    24205    24229    24244 
   24243    24243    24262    24250    24228    24240    24250    24246 
   24266    24275    24235    24197    24205    24210    24190    24178 
   24181    24170    24150    24135    24116    24081    24066    24092 
   24121    24133    24112    24057    24019    24021    24054    24109 
   24131    24105    24106    24131    24125    24089    24035    23993 
   23978    23961    23949    23965    23974    23971    23967    23934 
   23897    23904    23903    23863    23861    23907    23936    23940 
   23943    23939    23931    23938    23967    24004    24032    24070 
   24104    24106    24109    24115    24097    24079    24096    24121 
   24124    24100    24078    24070    24065    24074    24102    24121 
   24135    24162    24196    24232    24264    24271    24255    24231 
   24210    24210    24224    24221    24201    24185    24177    24154 
   24128    24121    24116    24092    24070    24075    24061    24009 
   23980    23986    23990    24011    24071    24139    24189    24196 
   24160    24143    24148    24133    24102    24078    24058    24046 
   24042    24043    24048    24048    24039    24046    24077    24082 
   24035    24007    24009    23986    23954    23963    24000    24038 
   24059    24044    24028    24043    24063    24092    24108    24048 
   23970    23940    23927    23927    23946    23950    23917    23874 
   23869    23878    23872    23874    23881    23870    23888    23932 
   23944    23930    23930    23943    23924    23899    23913    23927 
   23930    23942    23928    23923    23953    23955    23940    23955 
   23954    23942    23976    24007    24000    23990    23976    23961 
   23978    24016    24040    24044    24059    24102    24143    24152 
   24138    24116    24116    24125    24108    24070    24047    24061 
   24094    24123    24140    24155    24181    24209    24225    24250 
   24268    24247    24228    24239    24223    24186    24179    24198 
   24220    24232    24243    24267    24277    24251    24217    24186 
   24167    24160    24146    24125    24125    24162    24214    24243 
   24260    24274    24287    24324    24344    24324    24301    24301 
   24304    24279    24263    24289    24289    24241    24200    24171 
   24131    24078    24035    24004    23986    24020    24090    24142 
   24169    24175    24174    24179    24192    24209    24212    24177 
   24142    24133    24139    24139    24119    24108    24128    24135 
   24117    24102    24102    24119    24129    24125    24121    24085 
   23996    23923    23919    23940    23990    24085    24158    24209 
   24267    24275    24213    24136    24088    24082    24100    24120 
   24143    24165    24169    24143    24106    24074    24031    24011 
   24038    24065    24089    24106    24071    24028    24040    24071 
   24098    24144    24187    24197    24182    24166    24136    24117 
   24121    24101    24051    24025    24020    24034    24059    24073 
   24084    24109    24140    24158    24140    24094    24069    24071 
   24071    24075    24094    24121    24125    24102    24100    24101 
   24061    24007    23984    23982    23970    23951    23957    23998 
   24051    24085    24106    24139    24150    24123    24100    24105 
   24102    24081    24066    24044    24016    24030    24055    24051 
   24055    24077    24089    24081    24055    24043    24074    24120 
   24135    24138    24162    24175    24150    24109    24096    24133 
   24175    24179    24187    24228    24264    24264    24231    24186 
   24166    24165    24148    24127    24120    24119    24123    24119 
   24096    24073    24073    24098    24131    24142    24147    24147 
   24105    24079    24108    24112    24089    24079    24058    24046 
   24075    24108    24117    24123    24132    24140    24116    24061 
   24021    24015    24027    24058    24096    24105    24105    24111 
   24111    24121    24155    24182    24190    24166    24128    24119 
   24123    24131    24177    24205    24185    24170    24159    24136 
   24143    24174    24202    24210    24181    24136    24112    24106 
   24097    24067    24039    24036    24047    24038    24027    24036 
   24048    24048    24040    24043    24047    24046    24057    24061 
   24040    24025    24021    24027    24040    24035    24021    24003 
   23981    24003    24055    24097    24121    24106    24059    24019 
   23980    23934    23912    23913    23915    23924    23950    23976 
   23993    24011    24015    24007    24019    24030    24013    24000 
   24007    24011    23990    23957    23951    23963    23970    23994 
   24023    24031    24027    24023    24008    23980    23965    23980 
   23985    23973    23974    23992    24015    24036    24063    24085 
   24082    24073    24079    24084    24061    24036    24039    24063 
   24089    24104    24109    24115    24123    24123    24124    24136 
   24156    24185    24210    24209    24182    24152    24116    24075 
   24067    24092    24115    24133    24160    24194    24221    24204 
   24158    24147    24170    24175    24167    24174    24200    24231 
   24255    24268    24267    24247    24219    24192    24171    24174 
   24192    24205    24214    24206    24201    24208    24185    24135 
   24109    24102    24092    24074    24071    24102    24129    24109 
   24090    24119    24144    24142    24148    24165    24174    24171 
   24135    24092    24078    24089    24097    24090    24085    24102 
   24098    24059    24027    24003    23976    23958    23955    23974 
   23989    23986    24011    24070    24086    24046    24013    24001 
   23993    24005    24036    24058    24054    24025    24001    24012 
   24031    24011    23976    23984    24032    24089    24108    24094 
   24096    24104    24092    24066    24050    24054    24071    24075 
   24059    24038    24046    24078    24100    24121    24135    24109 
   24086    24096    24131    24171    24194    24192    24175    24163 
   24143    24129    24165    24200    24181    24156    24174    24200 
   24214    24235    24225    24182    24165    24169    24138    24102 
   24098    24105    24116    24147    24181    24181    24169    24165 
   24148    24120    24104    24090    24088    24117    24151    24160 
   24170    24171    24155    24156    24166    24160    24154    24144 
   24113    24078    24061    24051    24059    24082    24101    24106 
   24102    24104    24115    24096    24052    24027    24027    24035 
   24039    24017    23967    23926    23934    23963    23978    24004 
   24050    24074    24078    24065    24021    23970    23966    23994 
   24001    24008    24023    24016    24012    24023    24013    24008 
   24025    24024    24021    24046    24059    24057    24063    24074 
   24069    24046    24048    24092    24120    24131    24163    24177 
   24160    24170    24171    24136    24129    24133    24116    24108 
   24109    24119    24140    24158    24173    24169    24146    24132 
   24125    24123    24143    24165    24165    24165    24160    24132 
   24119    24135    24135    24111    24116    24139    24123    24090 
   24071    24035    23994    23990    23992    23985    23994    24007 
   24020    24067    24120    24144    24155    24160    24158    24166 
   24171    24139    24088    24050    24032    24042    24059    24074 
   24112    24159    24163    24116    24082    24067    24043    24028 
   24030    24028    24019    23998    23998    24017    24020    24031 
   24062    24075    24085    24109    24121    24124    24148    24177 
   24187    24193    24193    24193    24194    24177    24138    24115 
   24124    24128    24109    24089    24092    24108    24108    24105 
   24117    24121    24112    24112    24140    24179    24192    24182 
   24179    24169    24151    24138    24112    24084    24090    24127 
   24152    24155    24142    24129    24129    24144    24148    24136 
   24117    24092    24084    24117    24162    24177    24142    24082 
   24048    24044    24047    24059    24070    24079    24092    24090 
   24075    24069    24074    24086    24098    24094    24075    24062 
   24061    24067    24070    24054    24034    24021    23997    23973 
   23969    23980    24008    24043    24066    24074    24073    24074 
   24078    24062    24043    24043    24046    24052    24074    24093 
   24108    24143    24171    24159    24143    24151    24154    24128 
   24093    24069    24048    24043    24069    24101    24115    24116 
   24112    24096    24075    24078    24109    24135    24150    24166 
   24177    24167    24146    24138    24165    24200    24214    24225 
   24227    24197    24162    24151    24148    24124    24096    24102 
