Origin Time       2024/04/02 04:24:00
Lat.              40.133
Long.             141.712
Depth. (km)       71
Mag.              6.0
Station Code      TCGH13
Station Lat.      36.7342
Station Long.     140.1781
Station Height(m) -5
Record Time       2024/04/02 04:25:32
Sampling Freq(Hz) 100Hz
Duration Time(s)  123
Dir.              3
Scale Factor      2942(gal)/8224139
Max. Acc. (gal)   0.266
Last Correction   2024/04/02 04:25:32
Memo.             
[...]
  181210   181103   181074   181109   181137   181105   181017   180958 
  180962   180989   181029   181080   181116   181163   181201   181172 
  181121   181121   181167   181213   181260   181334   181368   181345 
  181340   181383   181417   181340   181299   181460   181542   181454 
  181437   181477   181502   181502   181429   181386   181460   181503 
  181465   181458   181453   181383   181322   181319   181332   181349 
  181363   181365   181344   181273   181221   181236   181259   181272 
  181275   181288   181300   181242   181224   181361   181464   181433 
  181444   181519   181508   181453   181496   181587   181626   181596 
  181560   181580   181566   181568   181656   181596   181422   181372 
  181341   181336   181456   181492   181403   181371   181381   181338 
  181290   181318   181326   181272   181338   181446   181404   181357 
  181373   181367   181361   181326   181326   181430   181475   181457 
  181479   181476   181408   181313   181286   181377   181465   181473 
  181434   181354   181288   181286   181261   181215   181279   181395 
  181429   181392   181333   181310   181361   181372   181286   181296 
  181457   181485   181392   181460   181577   181531   181472   181539 
  181581   181511   181529   181608   181550   181472   181453   181408 
  181388   181427   181484   181492   181488   181510   181404   181234 
  181234   181307   181294   181282   181360   181398   181333   181299 
  181260   181175   181188   181246   181213   181170   181184   181161 
  181111   181122   181153   181174   181178   181165   181210   181276 
  181302   181325   181353   181386   181384   181352   181376   181429 
  181458   181414   181315   181349   181446   181427   181395   181402 
  181364   181260   181167   181194   181295   181333   181256   181174 
  181206   181225   181192   181272   181359   181337   181305   181296 
  181294   181267   181272   181361   181376   181346   181445   181489 
  181402   181348   181336   181346   181359   181345   181386   181454 
  181481   181488   181456   181392   181368   181427   181548   181610 
  181572   181489   181396   181364   181438   181550   181599   181502 
  181346   181295   181242   181195   181369   181518   181386   181286 
  181336   181317   181237   181225   181306   181373   181359   181380 
  181445   181440   181375   181333   181333   181333   181369   181417 
  181388   181415   181485   181427   181372   181396   181403   181392 
  181372   181368   181395   181356   181298   181367   181473   181467 
  181440   181481   181438   181305   181326   181408   181311   181197 
  181206   181260   181284   181242   181242   181283   181237   181236 
  181275   181201   181148   181188   181245   181363   181453   181418 
  181363   181314   181245   181225   181307   181434   181423   181286 
  181259   181264   181213   181307   181433   181422   181411   181357 
  181276   181356   181473   181471   181442   181454   181499   181561 
  181554   181485   181452   181415   181386   181441   181504   181573 
  181616   181518   181383   181338   181346   181336   181318   181348 
  181367   181395   181452   181408   181325   181292   181234   181180 
  181184   181260   181330   181294   181256   181246   181186   181174 
  181240   181264   181222   181205   181249   181261   181251   181318 
  181369   181368   181381   181369   181359   181394   181403   181364 
  181337   181390   181495   181541   181488   181448   181472   181465 
  181441   181435   181400   181408   181479   181514   181518   181538 
  181556   181511   181430   181396   181342   181340   181502   181554 
  181461   181480   181511   181499   181507   181467   181417   181369 
  181348   181391   181357   181296   181387   181454   181363   181357 
  181472   181417   181261   181246   181342   181441   181445   181387 
  181367   181317   181256   181282   181299   181268   181251   181228 
  181202   181230   181315   181365   181379   181460   181483   181336 
  181249   181276   181314   181419   181462   181372   181371   181411 
  181348   181329   181357   181326   181336   181390   181357   181280 
  181263   181327   181373   181309   181303   181383   181332   181233 
  181253   181296   181268   181232   181271   181302   181273   181333 
  181469   181481   181371   181305   181326   181357   181342   181298 
  181278   181280   181276   181299   181344   181367   181345   181219 
  181084   181109   181183   181234   181315   181337   181273   181238 
  181272   181260   181165   181149   181249   181333   181360   181372 
  181377   181380   181390   181359   181315   181359   181422   181422 
  181422   181507   181588   181491   181344   181368   181445   181417 
  181388   181425   181461   181444   181388   181394   181454   181445 
  181387   181375   181367   181287   181228   181287   181353   181386 
  181492   181566   181499   181414   181383   181431   181504   181492 
  181488   181488   181421   181410   181395   181330   181364   181429 
  181415   181373   181354   181340   181307   181319   181371   181435 
  181510   181500   181431   181417   181446   181491   181496   181480 
  181527   181499   181342   181217   181165   181214   181334   181437 
  181480   181390   181261   181264   181264   181237   181317   181391 
  181403   181404   181369   181333   181257   181172   181207   181237 
  181218   181249   181251   181259   181329   181344   181309   181294 
  181264   181242   181327   181465   181476   181422   181414   181369 
  181319   181314   181319   181367   181391   181314   181286   181336 
  181315   181257   181259   181298   181348   181403   181440   181438 
  181440   181476   181473   181388   181325   181284   181211   181165 
  181152   181167   181190   181132   181102   181211   181283   181246 
  181205   181209   181268   181269   181261   181357   181342   181207 
  181170   181172   181183   181255   181300   181288   181295   181280 
  181236   181230   181152   181091   181233   181282   181229   181399 
  181514   181354   181205   181164   181229   181353   181398   181421 
  181456   181433   181383   181338   181310   181286   181314   181437 
  181554   181566   181461   181311   181248   181288   181348   181386 
  181350   181311   181325   181273   181248   181398   181573   181641 
  181530   181332   181309   181329   181190   181116   181206   181268 
  181278   181381   181560   181650   181633   181608   181550   181403 
  181269   181242   181299   181407   181546   181677   181653   181488 
  181415   181429   181394   181379   181438   181438   181330   181283 
  181336   181387   181492   181635   181676   181705   181854   181951 
  181880   181776   181677   181568   181492   181450   181514   181626 
  181591   181476   181399   181373   181491   181653   181689   181639 
  181557   181464   181381   181369   181433   181452   181468   181589 
  181750   181842   181785   181681   181608   181446   181261   181157 
  181171   181303   181307   181238   181407   181495   181279   181238 
  181456   181527   181435   181396   181442   181422   181276   181242 
  181376   181375   181217   181170   181252   181290   181290   181359 
  181404   181353   181313   181292   181217   181118   181118   181338 
  181593   181530   181256   181120   181129   181163   181207   181246 
  181203   181114   181084   181068   181072   181187   181310   181298 
  181188   181120   181160   181240   181314   181414   181426   181272 
  181218   181423   181569   181477   181377   181341   181236   181087 
  181063   181190   181251   181167   181074   181030   181087   181232 
  181291   181207   181179   181286   181322   181209   181121   181133 
  181179   181199   181228   181384   181577   181542   181367   181340 
  181421   181445   181419   181403   181413   181369   181295   181298 
  181298   181275   181334   181394   181422   181475   181467   181457 
  181496   181445   181402   181488   181508   181408   181353   181352 
  181372   181487   181604   181595   181500   181437   181450   181435 
  181408   181549   181703   181673   181619   181612   181581   181506 
  181433   181479   181583   181553   181372   181232   181219   181161 
  181078   181087   181025   180999   181168   181283   181305   181290 
  181187   181132   181155   181130   181125   181246   181337   181310 
  181337   181322   181165   181094   181107   181171   181333   181386 
  181300   181292   181323   181228   181083   181068   181122   181157 
  181215   181309   181404   181375   181194   181172   181396   181483 
  181430   181566   181634   181440   181345   181410   181427   181371 
  181309   181387   181537   181570   181630   181805   181823   181677 
  181650   181638   181485   181438   181557   181599   181541   181510 
  181543   181587   181599   181641   181696   181664   181643   181696 
  181699   181650   181596   181495   181392   181391   181435   181438 
  181530   181624   181487   181404   181506   181458   181434   181615 
  181670   181576   181580   181715   181811   181782   181723   181566 
  181369   181363   181346   181241   181350   181599   181649   181527 
  181502   181485   181228   180975   181016   181165   181286   181398 
  181423   181413   181440   181333   181165   181225   181317   181245 
  181144   181062   181098   181191   181116   181075   181145   181083 
  181025   181083   181172   181260   181230   181195   181237   181130 
  180987   181026   181094   181059   180963   180959   181062   181029 
  180966   181093   181148   181099   181205   181257   181161   181242 
  181434   181417   181260   181172   181153   181125   181143   181309 
  181429   181319   181140   180986   180917   180990   181064   181141 
  181259   181288   181226   181219   181305   181305   181206   181242 
  181386   181475   181526   181457   181259   181178   181203   181194 
  181217   181228   181201   181272   181310   181225   181286   181495 
  181550   181365   181176   181202   181176   181035   181184   181462 
  181453   181344   181398   181487   181492   181570   181697   181602 
  181427   181406   181457   181552   181631   181589   181606   181768 
  181803   181738   181815   181792   181557   181450   181454   181390 
  181383   181456   181472   181429   181458   181568   181674   181846 
  181930   181777   181753   181859   181707   181467   181430   181516 
  181552   181522   181546   181511   181305   181182   181307   181479 
  181491   181440   181407   181326   181306   181376   181360   181306 
  181315   181369   181452   181464   181388   181321   181218   181098 
  181148   181315   181341   181221   181155   181187   181201   181195 
  181326   181539   181579   181440   181437   181622   181623   181406 
  181344   181410   181388   181319   181201   181075   181126   181280 
  181337   181278   181217   181222   181183   181114   181113   181057 
  180976   180999   181093   181261   181480   181618   181607   181450 
  181205   181022   181036   181049   181029   181248   181395   181182 
  181047   181110   181059   180987   181175   181348   181218   181210 
  181477   181562   181440   181376   181334   181188   181091   181228 
  181367   181333   181251   181199   181221   181211   181137   181172 
  181236   181256   181348   181467   181526   181503   181499   181629 
  181643   181422   181337   181472   181516   181473   181564   181735 
  181734   181589   181533   181512   181427   181396   181417   181371 
  181342   181417   181499   181548   181633   181681   181603   181602 
  181792   181874   181724   181631   181573   181340   181194   181352 
  181538   181565   181619   181786   181749   181512   181426   181267 
  180991   181022   181219   181376   181572   181630   181488   181361 
  181290   181265   181255   181221   181300   181425   181427   181411 
  181403   181449   181557   181453   181251   181249   181287   181315 
  181386   181306   181190   181221   181265   181344   181504   181576 
  181499   181422   181371   181180   180998   181106   181319   181414 
  181464   181461   181319   181103   180989   181026   181110   181192 
  181280   181337   181268   181163   181159   181030   180906   181160 
  181445   181530   181595   181573   181484   181369   181282   181450 
  181724   181757   181556   181395   181440   181500   181475   181495 
  181579   181691   181692   181445   181294   181434   181507   181477 
  181550   181616   181591   181473   181350   181395   181417   181244 
  181145   181288   181422   181313   181180   181180   181068   180895 
  180890   180975   181049   181022   180981   181137   181282   181213 
  181095   180994   180921   180941   180987   180995   181113   181288 
  181245   181175   181313   181337   181224   181306   181381   181218 
  181117   181121   181035   180985   181066   181201   181341   181521 
  181688   181634   181477   181499   181646   181703   181533   181303 
  181244   181295   181337   181330   181446   181618   181471   181310 
  181521   181608   181325   181219   181437   181539   181483   181510 
  181584   181645   181639   181635   181820   181946   181827   181782 
  181780   181502   181183   181218   181394   181371   181217   181106 
  181107   181114   181126   181340   181483   181352   181294   181333 
  181288   181195   181133   181188   181310   181388   181418   181438 
  181433   181332   181246   181311   181310   181183   181202   181352 
  181488   181664   181765   181701   181673   181634   181465   181502 
  181777   181903   182002   182105   181859   181522   181429   181442 
  181484   181479   181418   181415   181464   181481   181365   181165 
  181124   181230   181218   181168   181337   181569   181531   181229 
  181014   181036   181062   181083   181222   181368   181390   181253 
  181084   181005   181006   181145   181305   181342   181361   181311 
  181183   181103   180967   180823   180866   181013   181160   181352 
  181606   181718   181458   181136   181140   181168   181111   181330 
  181670   181793   181780   181704   181526   181367   181361   181472 
  181589   181612   181623   181707   181627   181379   181232   181209 
  181307   181503   181664   181789   181792   181562   181330   181287 
  181276   181205   181174   181263   181433   181440   181237   181062 
  180898   180769   180836   180956   181063   181211   181303   181315 
  181229   181138   181182   181206   181314   181722   181981   181813 
  181603   181441   181164   180936   180972   181192   181337   181392 
  181521   181546   181261   180866   180650   180778   181093   181222 
  181272   181390   181346   181214   181165   181259   181464   181404 
  181194   181245   181282   181190   181148   181148   181315   181564 
  181637   181577   181473   181346   181241   181257   181344   181319 
  181305   181448   181568   181508   181391   181294   181072   180883 
  180933   180970   181016   181248   181373   181334   181422   181546 
  181483   181411   181427   181344   181261   181325   181494   181766 
  181951   181904   181778   181737   181809   181862   181909   182039 
  181955   181638   181514   181595   181587   181445   181399   181558 
  181597   181449   181506   181651   181545   181444   181537   181599 
  181583   181591   181568   181468   181489   181664   181681   181603 
  181653   181701   181697   181611   181369   181201   181232   181278 
  181222   181221   181441   181575   181326   181207   181440   181437 
  181206   181151   181199   181233   181184   181066   181101   181265 
  181273   181138   181121   181183   181205   181303   181406   181373 
  181375   181438   181406   181319   181313   181376   181431   181413 
  181390   181483   181545   181495   181502   181458   181267   181110 
  181003   180979   181110   181283   181429   181496   181465   181479 
  181588   181611   181496   181437   181444   181360   181233   181211 
  181313   181314   181101   180985   181151   181242   181063   180986 
  181079   180997   180821   180823   180922   180928   180910   181079 
  181255   181228   181195   181186   181035   180854   180827   180875 
  180889   180910   180902   180874   180993   181167   181207   181234 
  181306   181275   181153   181224   181542   181696   181658   181792 
  181888   181673   181518   181624   181711   181692   181753   181834 
  181730   181595   181616   181573   181454   181516   181561   181453 
  181570   181861   181884   181749   181658   181531   181440   181311 
  181105   181093   181174   181172   181238   181288   181294   181348 
  181309   181241   181265   181284   181300   181315   181302   181275 
  181273   181365   181527   181587   181452   181319   181336   181356 
  181309   181241   181287   181472   181510   181388   181322   181256 
  181225   181313   181422   181554   181683   181691   181585   181491 
  181483   181422   181248   181237   181435   181499   181367   181226 
  181148   181118   181029   180921   180979   181137   181172   181157 
  181299   181398   181287   181215   181259   181357   181538   181705 
  181812   181842   181739   181579   181530   181623   181653   181577 
  181606   181723   181739   181631   181422   181206   181140   181106 
  181051   181180   181314   181241   181229   181340   181410   181446 
  181421   181345   181342   181380   181336   181241   181199   181217 
  181234   181184   181221   181438   181577   181588   181570   181453 
  181365   181350   181315   181461   181693   181685   181522   181364 
  181327   181402   181419   181396   181372   181352   181361   181332 
  181296   181263   181263   181381   181442   181391   181413   181475 
  181471   181391   181327   181348   181296   181144   181071   181062 
  181082   181147   181107   181026   181063   181056   180978   180955 
  181018   181155   181121   180951   181024   181188   181141   181039 
  181051   181128   181147   181145   181253   181396   181479   181487 
  181430   181371   181283   181124   181048   181157   181287   181294 
  181295   181450   181602   181557   181494   181525   181537   181499 
  181461   181521   181622   181564   181430   181392   181450   181566 
  181568   181480   181448   181252   180956   180882   180958   181102 
  181290   181406   181464   181450   181381   181327   181314   181363 
  181350   181269   181272   181365   181537   181627   181565   181579 
  181575   181440   181419   181435   181364   181379   181398   181327 
  181379   181498   181426   181263   181228   181310   181411   181531 
  181737   181909   181881   181804   181828   181804   181665   181552 
  181566   181635   181596   181484   181512   181597   181580   181610 
  181604   181489   181511   181557   181527   181599   181623   181545 
  181548   181518   181419   181386   181344   181326   181367   181359 
  181361   181334   181209   181164   181195   181163   181176   181299 
  181352   181305   181269   181249   181298   181383   181380   181388 
  181368   181225   181186   181273   181302   181353   181477   181506 
  181408   181314   181286   181329   181373   181325   181341   181500 
  181553   181526   181606   181576   181421   181386   181373   181315 
  181313   181326   181373   181408   181332   181303   181365   181325 
  181180   181078   181076   181091   181017   180952   181041   181097 
  181001   181012   181124   181129   181137   181184   181201   181296 
