Origin Time       2024/04/02 04:24:00
Lat.              40.133
Long.             141.712
Depth. (km)       71
Mag.              6.0
Station Code      TCGH08
Station Lat.      36.8828
Station Long.     139.6459
Station Height(m) 499
Record Time       2024/04/02 04:26:38
Sampling Freq(Hz) 100Hz
Duration Time(s)  120
Dir.              2
Scale Factor      2942(gal)/8224139
Max. Acc. (gal)   0.119
Last Correction   2024/04/02 04:26:38
Memo.             
   88589    88623    88643    88672    88685    88689    88684    88665 
   88646    88630    88627    88632    88636    88661    88699    88724 
   88740    88740    88719    88695    88695    88726    88751    88753 
   88749    88739    88719    88701    88692    88686    88684    88674 
   88655    88647    88665    88672    88651    88635    88622    88601 
   88592    88593    88596    88591    88581    88585    88595    88589 
   88574    88565    88553    88535    88520    88504    88497    88522 
   88550    88551    88558    88585    88591    88588    88608    88620 
   88588    88531    88504    88518    88528    88515    88510    88511 
   88512    88537    88568    88584    88584    88573    88557    88550 
   88576    88609    88605    88582    88555    88522    88500    88484 
   88492    88518    88523    88518    88501    88460    88426    88414 
   88416    88439    88457    88453    88458    88469    88472    88493 
   88524    88528    88512    88511    88535    88584    88632    88657 
   88662    88657    88663    88692    88732    88769    88777    88746 
   88713    88723    88753    88777    88811    88831    88819    88800 
   88782    88777    88786    88794    88828    88888    88884    88830 
   88811    88827    88832    88820    88811    88792    88743    88713 
   88716    88709    88716    88762    88792    88766    88708    88665 
   88668    88685    88681    88670    88673    88670    88634    88584 
   88546    88518    88504    88501    88496    88495    88501    88511 
   88510    88493    88470    88458    88473    88503    88519    88523 
   88519    88496    88474    88469    88466    88472    88487    88507 
   88541    88561    88566    88577    88570    88547    88534    88528 
   88538    88560    88587    88627    88662    88659    88626    88595 
   88611    88653    88658    88643    88634    88622    88593    88573 
   88585    88609    88630    88678    88708    88685    88681    88709 
   88708    88709    88740    88765    88776    88784    88784    88769 
   88743    88707    88692    88696    88680    88666    88682    88699 
   88703    88692    88680    88677    88668    88662    88678    88700 
   88703    88700    88689    88650    88596    88561    88581    88636 
   88653    88622    88568    88507    88468    88453    88461    88484 
   88507    88547    88582    88574    88561    88558    88555    88566 
   88591    88595    88584    88584    88566    88535    88543    88578 
   88588    88574    88564    88566    88595    88634    88634    88611 
   88620    88639    88651    88661    88659    88682    88712    88700 
   88688    88690    88638    88580    88587    88587    88541    88515 
   88512    88512    88528    88557    88589    88622    88635    88624 
   88591    88546    88510    88503    88530    88564    88588    88585 
   88558    88543    88551    88572    88581    88574    88584    88601 
   88592    88557    88523    88524    88558    88600    88639    88677 
   88703    88711    88715    88719    88727    88753    88778    88749 
   88693    88692    88705    88684    88669    88677    88699    88732 
   88773    88789    88777    88769    88744    88708    88695    88690 
   88722    88780    88781    88731    88700    88708    88711    88704 
   88716    88723    88709    88692    88673    88657    88650    88649 
   88678    88720    88717    88716    88731    88707    88680    88659 
   88608    88576    88584    88600    88611    88609    88624    88641 
   88626    88609    88615    88626    88641    88639    88609    88581 
   88546    88516    88547    88591    88595    88619    88658    88642 
   88609    88623    88642    88623    88622    88657    88674    88681 
   88689    88697    88738    88761    88730    88695    88642    88572 
   88512    88470    88449    88430    88418    88458    88510    88515 
   88503    88512    88533    88531    88524    88528    88531    88531 
   88515    88492    88496    88503    88485    88469    88473    88487 
   88472    88430    88399    88412    88443    88442    88450    88510 
   88565    88596    88616    88611    88570    88535    88562    88614 
   88608    88568    88564    88597    88619    88630    88639    88630 
   88609    88609    88618    88609    88615    88623    88597    88578 
   88592    88600    88596    88630    88684    88674    88624    88608 
   88599    88555    88515    88514    88527    88534    88547    88565 
   88573    88580    88605    88632    88643    88657    88669    88654 
   88646    88645    88605    88547    88508    88500    88523    88534 
   88504    88469    88446    88456    88511    88561    88572    88560 
   88546    88542    88537    88519    88500    88501    88543    88608 
   88674    88728    88743    88727    88717    88709    88696    88678 
   88646    88620    88593    88573    88593    88607    88593    88605 
   88631    88647    88696    88739    88723    88720    88749    88738 
   88731    88751    88750    88761    88784    88780    88774    88766 
   88767    88807    88839    88843    88831    88782    88715    88655 
   88627    88661    88704    88692    88647    88619    88611    88599 
   88600    88636    88658    88639    88631    88643    88638    88609 
   88599    88609    88616    88631    88653    88645    88622    88612 
   88608    88618    88624    88601    88562    88555    88589    88593 
   88555    88555    88572    88553    88547    88599    88641    88628 
   88630    88665    88666    88639    88624    88603    88573    88580 
   88618    88628    88604    88604    88632    88630    88604    88582 
   88561    88551    88558    88565    88554    88538    88531    88503 
   88507    88601    88678    88684    88654    88607    88595    88624 
   88638    88634    88618    88611    88647    88685    88658    88592 
   88553    88546    88527    88527    88566    88576    88570    88603 
   88601    88547    88519    88526    88518    88504    88523    88545 
   88553    88581    88605    88601    88600    88592    88555    88523 
   88512    88511    88527    88581    88642    88650    88639    88668 
   88695    88677    88646    88627    88608    88596    88614    88647 
   88659    88638    88622    88642    88682    88727    88762    88753 
   88701    88663    88676    88672    88619    88604    88645    88666 
   88669    88686    88695    88676    88668    88666    88635    88604 
   88631    88662    88662    88686    88723    88726    88697    88655 
   88651    88680    88672    88641    88643    88688    88731    88740 
   88738    88719    88677    88665    88674    88657    88623    88603 
   88592    88593    88618    88632    88622    88599    88578    88592 
   88631    88659    88689    88693    88630    88581    88623    88659 
   88653    88673    88703    88685    88659    88643    88599    88530 
   88497    88520    88558    88585    88604    88618    88647    88677 
   88681    88688    88711    88728    88730    88734    88739    88722 
   88701    88704    88704    88695    88696    88697    88704    88728 
   88730    88686    88655    88641    88601    88554    88568    88626 
   88626    88585    88565    88516    88457    88461    88481    88503 
   88572    88634    88623    88578    88543    88522    88501    88489 
   88504    88538    88568    88574    88546    88508    88492    88477 
   88438    88429    88473    88515    88508    88461    88422    88416 
   88427    88465    88507    88516    88527    88550    88564    88588 
   88607    88601    88588    88566    88543    88555    88592    88605 
   88595    88589    88599    88619    88632    88620    88599    88597 
   88616    88623    88614    88626    88639    88643    88657    88661 
   88673    88707    88692    88620    88588    88593    88576    88570 
   88612    88672    88700    88696    88703    88723    88716    88693 
   88695    88720    88730    88684    88622    88630    88662    88635 
   88601    88593    88580    88582    88607    88631    88643    88634 
   88627    88641    88645    88641    88638    88630    88623    88657 
   88738    88774    88753    88757    88749    88680    88635    88673 
   88693    88636    88630    88693    88703    88670    88635    88587 
   88565    88578    88595    88601    88596    88615    88642    88649 
   88651    88638    88618    88631    88647    88645    88658    88666 
   88622    88574    88584    88597    88557    88501    88476    88466 
   88465    88504    88549    88555    88558    88570    88581    88608 
   88638    88632    88593    88560    88557    88578    88601    88642 
   88701    88720    88700    88669    88636    88611    88607    88639 
   88685    88689    88655    88628    88624    88614    88584    88569 
   88607    88678    88720    88723    88730    88732    88697    88658 
   88677    88728    88751    88761    88767    88732    88684    88654 
   88618    88596    88632    88681    88689    88686    88707    88707 
   88650    88599    88589    88588    88609    88634    88607    88597 
   88616    88592    88557    88562    88582    88597    88611    88595 
   88538    88497    88511    88527    88530    88549    88595    88651 
   88689    88689    88663    88653    88663    88650    88626    88615 
   88596    88589    88612    88624    88627    88649    88659    88647 
   88631    88620    88631    88669    88703    88699    88682    88699 
   88749    88789    88784    88743    88703    88676    88676    88701 
   88700    88662    88632    88615    88591    88555    88501    88484 
   88549    88628    88643    88619    88592    88545    88519    88569 
   88627    88631    88627    88624    88597    88566    88543    88531 
   88549    88589    88589    88547    88507    88462    88434    88452 
   88483    88510    88514    88483    88464    88466    88469    88497 
   88522    88501    88493    88519    88533    88530    88546    88543 
   88497    88484    88523    88569    88615    88634    88604    88561 
   88530    88527    88537    88534    88524    88511    88507    88492 
   88465    88492    88541    88546    88560    88573    88547    88539 
   88562    88554    88537    88576    88645    88674    88650    88608 
   88585    88580    88574    88573    88564    88547    88550    88557 
   88551    88547    88545    88551    88554    88534    88541    88585 
   88619    88638    88662    88692    88712    88723    88749    88780 
   88782    88782    88800    88786    88751    88738    88722    88704 
   88709    88707    88717    88758    88755    88723    88709    88716 
   88728    88751    88798    88824    88809    88835    88904    88929 
   88919    88896    88842    88809    88815    88796    88777    88794 
   88832    88897    88951    88951    88901    88820    88735    88686 
   88686    88723    88762    88751    88713    88716    88736    88724 
   88662    88618    88622    88614    88597    88599    88569    88504 
   88485    88522    88539    88527    88531    88524    88516    88550 
   88566    88533    88493    88453    88415    88398    88381    88358 
   88356    88393    88435    88445    88430    88411    88398    88393 
   88393    88389    88371    88375    88415    88443    88433    88402 
   88381    88391    88399    88407    88466    88537    88541    88501 
   88468    88469    88504    88526    88530    88539    88541    88533 
   88550    88603    88682    88769    88834    88850    88816    88759 
   88726    88728    88749    88769    88751    88699    88662    88649 
   88645    88657    88669    88666    88672    88696    88700    88680 
   88659    88630    88619    88641    88641    88609    88600    88619 
   88630    88616    88609    88627    88642    88662    88717    88751 
   88693    88592    88549    88550    88523    88496    88518    88569 
   88604    88612    88614    88609    88588    88584    88609    88634 
   88650    88653    88651    88668    88676    88674    88693    88722 
   88717    88688    88699    88738    88734    88689    88641    88611 
   88623    88661    88681    88685    88689    88712    88762    88798 
   88823    88866    88905    88896    88842    88771    88707    88663 
   88627    88596    88607    88665    88722    88747    88771    88786 
   88750    88690    88655    88646    88677    88750    88786    88743 
   88693    88674    88646    88634    88680    88735    88726    88699 
   88704    88693    88663    88673    88690    88659    88595    88562 
   88560    88550    88574    88638    88663    88680    88732    88753 
   88717    88680    88647    88619    88612    88634    88654    88639 
   88615    88615    88582    88533    88537    88551    88539    88522 
   88481    88422    88399    88419    88434    88422    88408    88437 
   88495    88514    88476    88434    88427    88466    88499    88492 
   88511    88550    88545    88500    88439    88381    88346    88353 
   88373    88379    88383    88379    88360    88334    88307    88330 
   88415    88484    88507    88535    88560    88570    88611    88663 
   88689    88688    88646    88597    88614    88669    88689    88681 
   88658    88635    88645    88665    88659    88632    88589    88574 
   88628    88685    88693    88712    88747    88758    88758    88719 
   88654    88651    88689    88695    88699    88726    88739    88750 
   88784    88789    88736    88690    88678    88677    88707    88771 
   88805    88771    88712    88670    88638    88607    88585    88574 
   88562    88551    88543    88533    88520    88534    88587    88632 
   88636    88632    88634    88616    88596    88595    88600    88614 
   88636    88642    88587    88518    88510    88526    88522    88523 
   88535    88560    88587    88599    88589    88542    88484    88492 
   88546    88569    88558    88537    88539    88570    88591    88603 
   88627    88658    88677    88658    88636    88636    88603    88527 
   88485    88500    88534    88584    88643    88680    88684    88668 
   88650    88642    88634    88635    88628    88577    88522    88537 
   88587    88604    88619    88651    88658    88666    88688    88672 
   88626    88593    88565    88527    88493    88499    88551    88589 
   88578    88577    88596    88591    88582    88573    88572    88585 
   88555    88506    88496    88504    88511    88526    88550    88592 
   88643    88638    88568    88510    88508    88538    88546    88538 
   88535    88508    88485    88507    88527    88533    88551    88576 
   88607    88631    88628    88609    88585    88566    88584    88638 
   88696    88743    88776    88776    88754    88747    88713    88642 
   88619    88654    88690    88724    88754    88763    88749    88728 
   88722    88739    88757    88739    88724    88738    88719    88668 
   88653    88674    88686    88693    88707    88697    88663    88645 
   88653    88650    88649    88699    88758    88754    88699    88646 
   88651    88684    88669    88615    88600    88635    88654    88654 
   88672    88697    88693    88651    88618    88623    88655    88673 
   88639    88608    88641    88705    88758    88780    88744    88699 
   88677    88645    88615    88597    88597    88659    88723    88717 
   88686    88662    88661    88668    88626    88591    88609    88604 
   88588    88604    88607    88607    88654    88692    88677    88663 
   88681    88696    88701    88697    88685    88692    88728    88782 
   88813    88801    88767    88724    88684    88680    88703    88722 
   88719    88708    88700    88693    88708    88746    88767    88751 
   88740    88771    88804    88793    88762    88744    88726    88697 
   88682    88684    88690    88695    88673    88626    88580    88554 
   88533    88520    88530    88541    88549    88577    88604    88597 
   88581    88584    88585    88558    88527    88531    88545    88519 
   88466    88434    88446    88469    88464    88454    88473    88491 
   88492    88480    88462    88453    88462    88485    88493    88472 
   88442    88447    88492    88519    88524    88528    88519    88504 
   88496    88487    88472    88469    88500    88528    88516    88497 
   88493    88474    88445    88433    88430    88437    88474    88523 
   88537    88520    88528    88561    88553    88531    88549    88558 
   88547    88557    88568    88576    88599    88620    88642    88647 
   88624    88614    88620    88623    88645    88677    88685    88685 
   88670    88632    88619    88647    88686    88717    88730    88740 
   88766    88780    88759    88719    88684    88682    88717    88758 
   88788    88809    88809    88782    88765    88758    88742    88740 
   88778    88804    88771    88724    88722    88728    88692    88662 
   88669    88661    88630    88595    88576    88585    88596    88603 
   88614    88607    88577    88531    88497    88506    88522    88507 
   88491    88492    88506    88558    88593    88553    88512    88499 
   88468    88457    88489    88518    88533    88537    88511    88492 
   88516    88546    88568    88611    88632    88600    88585    88599 
   88587    88568    88566    88566    88573    88595    88615    88618 
   88596    88572    88568    88576    88585    88593    88600    88618 
   88631    88603    88572    88569    88570    88573    88589    88612 
   88646    88680    88686    88655    88618    88608    88622    88641 
   88649    88668    88701    88693    88631    88589    88597    88608 
   88600    88604    88608    88578    88557    88565    88560    88565 
   88595    88592    88568    88565    88582    88608    88626    88638 
   88655    88658    88668    88699    88693    88662    88654    88655 
   88642    88615    88581    88569    88581    88592    88603    88612 
   88581    88542    88560    88616    88658    88676    88693    88713 
   88711    88689    88662    88655    88672    88676    88670    88677 
   88685    88682    88685    88684    88668    88672    88709    88727 
   88713    88731    88758    88751    88757    88782    88792    88794 
   88807    88824    88819    88794    88765    88722    88681    88654 
   88651    88668    88655    88620    88609    88608    88615    88626 
   88626    88619    88609    88619    88659    88693    88681    88647 
   88645    88658    88678    88724    88735    88672    88615    88609 
   88600    88565    88551    88566    88570    88557    88553    88561 
   88554    88535    88530    88534    88519    88483    88452    88445 
   88452    88480    88533    88574    88595    88601    88587    88557 
   88535    88539    88561    88568    88555    88549    88574    88619 
   88631    88609    88572    88510    88476    88493    88508    88528 
   88564    88584    88605    88623    88615    88587    88568    88578 
   88597    88601    88603    88614    88641    88665    88657    88636 
   88634    88634    88607    88582    88581    88566    88550    88577 
   88615    88616    88605    88605    88608    88612    88611    88603 
   88616    88645    88665    88680    88690    88677    88646    88628 
   88630    88616    88595    88601    88626    88650    88682    88709 
   88720    88716    88705    88699    88684    88659    88645    88639 
   88638    88635    88632    88628    88608    88568    88526    88499 
   88507    88538    88555    88564    88576    88568    88558    88573 
   88587    88608    88632    88607    88572    88585    88604    88601 
