Origin Time       2024/04/02 04:24:00
Lat.              40.133
Long.             141.712
Depth. (km)       71
Mag.              6.0
Station Code      TCGH15
Station Lat.      36.5595
Station Long.     139.8637
Station Height(m) 125
Record Time       2024/04/02 04:25:35
Sampling Freq(Hz) 100Hz
Duration Time(s)  139
Dir.              5
Scale Factor      7845(gal)/8223790
Max. Acc. (gal)   1.496
Last Correction   2024/04/02 04:25:35
Memo.             
[...]
    7935     7906     7909     7909     7885     7850     7859     7947 
    8073     8143     8100     7997     7942     7979     8082     8160 
    8148     8058     7947     7881     7892     7938     7975     8019 
    8075     8128     8167     8178     8125     8001     7869     7803 
    7820     7896     7986     8023     7969     7912     7943     8020 
    8056     8041     8029     8064     8141     8229     8278     8214 
    8083     8012     8031     8097     8160     8166     8106     8043 
    8008     7998     7990     7960     7901     7862     7925     8054 
    8114     8063     7963     7882     7852     7884     7973     8094 
    8193     8235     8235     8240     8274     8279     8186     8059 
    8005     8019     8043     8043     8004     7971     8013     8120 
    8210     8230     8171     8029     7844     7701     7642     7659 
    7754     7913     8113     8307     8430     8426     8322     8209 
    8135     8125     8191     8251     8230     8155     8044     7915 
    7831     7816     7839     7879     7936     7996     8020     7981 
    7866     7701     7580     7564     7631     7765     7944     8108 
    8217     8266     8255     8222     8216     8226     8206     8137 
    8056     8012     7993     7939     7847     7794     7852     7994 
    8143     8228     8216     8114     7948     7778     7669     7615 
    7620     7730     7936     8176     8361     8391     8297     8185 
    8085     7989     7917     7859     7823     7835     7900     7982 
    8025     8025     8040     8068     8090     8106     8091     8035 
    7975     7939     7920     7920     7959     8036     8116     8152 
    8125     8081     8060     8039     8027     8073     8137     8158 
    8118     8023     7890     7753     7662     7686     7804     7936 
    8060     8133     8113     8025     7884     7708     7582     7582 
    7726     7954     8189     8367     8401     8284     8151     8060 
    7993     7950     7927     7924     7943     7985     8051     8090 
    8064     8019     7979     7962     7997     8070     8128     8137 
    8098     8052     8037     8046     8032     7946     7820     7767 
    7821     7921     8014     8089     8166     8251     8299     8309 
    8325     8328     8272     8190     8128     8091     8059     8027 
    8002     8001     8035     8059     8013     7931     7889     7927 
    8040     8185     8307     8386     8419     8391     8260     8063 
    7905     7850     7908     8052     8205     8289     8271     8155 
    7987     7838     7773     7800     7852     7913     8004     8086 
    8116     8110     8089     8063     8054     8058     8047     7994 
    7904     7804     7762     7819     7935     8040     8063     7993 
    7904     7844     7794     7771     7813     7927     8102     8295 
    8438     8468     8376     8225     8093     8035     8073     8151 
    8182     8141     8062     7956     7828     7716     7661     7659 
    7711     7821     7954     8039     8066     8060     8043     8033 
    8054     8070     8014     7904     7817     7782     7771     7788 
    7848     7955     8060     8118     8137     8114     8024     7938 
    7956     8048     8140     8212     8228     8195     8166     8172 
    8187     8158     8112     8082     8025     7959     7948     7960 
    7975     8032     8110     8145     8149     8174     8197     8175 
    8140     8131     8137     8139     8105     8013     7881     7762 
    7734     7823     7990     8170     8314     8405     8445     8392 
    8226     8036     7913     7863     7874     7927     7996     8035 
    8017     7975     7951     7985     8083     8163     8166     8154 
    8185     8222     8187     8078     7974     7932     7944     7994 
    8033     8006     7921     7838     7790     7794     7844     7931 
    8028     8089     8095     8063     7998     7902     7817     7823 
    7912     7994     8013     7947     7819     7722     7715     7770 
    7831     7905     8021     8139     8190     8144     8012     7898 
    7885     7919     7963     8046     8121     8132     8095     8056 
    8043     8039     8023     7987     7962     7992     8051     8085 
    8124     8183     8226     8240     8206     8110     8000     7917 
    7877     7897     7958     7987     7963     7940     7950     7989 
    8060     8125     8139     8122     8112     8101     8073     8010 
    7932     7884     7875     7904     7965     8016     8027     8016 
    8000     7993     8004     8028     8051     8016     7920     7855 
    7840     7827     7836     7898     8024     8208     8370     8422 
    8328     8137     7982     7925     7938     7990     8051     8068 
    8060     8059     8027     7924     7843     7892     8013     8120 
    8213     8272     8283     8283     8291     8332     8391     8413 
    8382     8293     8143     7979     7835     7739     7753     7881 
    8046     8156     8187     8151     8078     8029     8037     8083 
    8147     8225     8301     8330     8283     8186     8079     7998 
    7956     7932     7913     7919     7956     8013     8043     8027 
    8000     7970     7928     7932     8002     8055     8047     8044 
    8086     8122     8106     8047     7958     7888     7898     7973 
    8023     8019     7986     7950     7942     7966     7989     8012 
    8048     8083     8095     8100     8101     8051     7944     7858 
    7838     7882     7955     7971     7905     7804     7685     7614 
    7662     7774     7885     7986     8063     8100     8068     7979 
    7906     7865     7838     7852     7921     8019     8064     8002 
    7886     7789     7740     7763     7843     7943     8023     8056 
    8055     8035     8002     7985     7978     7947     7904     7878 
    7873     7884     7896     7877     7828     7823     7916     8055 
    8160     8208     8167     8064     8012     8037     8058     8044 
    8041     8068     8112     8179     8236     8205     8093     7977 
    7911     7938     8056     8182     8256     8278     8247     8224 
    8291     8382     8364     8256     8149     8077     8056     8058 
    8010     7942     7955     8070     8221     8351     8398     8310 
    8145     8032     8012     8063     8178     8291     8310     8252 
    8191     8118     7989     7827     7709     7712     7842     7997 
    8086     8120     8145     8170     8175     8129     8025     7929 
    7878     7824     7765     7751     7774     7834     7966     8114 
    8199     8233     8239     8216     8174     8135     8077     7966 
    7862     7851     7924     8016     8068     8071     8062     8052 
    8048     8024     7912     7743     7627     7623     7739     7902 
    7990     8010     8033     8058     8068     8071     8051     8012 
    7982     8002     8060     8078     8027     7948     7900     7939 
    8070     8224     8320     8321     8244     8129     8002     7882 
    7778     7704     7669     7690     7780     7904     8010     8105 
    8194     8252     8282     8290     8253     8139     7951     7796 
    7767     7831     7954     8110     8203     8202     8166     8093 
    7963     7844     7804     7830     7904     8070     8262     8287 
    8140     7987     7912     7890     7894     7913     7935     7966 
    8054     8162     8197     8179     8163     8110     8009     7933 
    7925     7940     7919     7881     7893     7971     8077     8148 
    8137     8040     7932     7924     8010     8085     8118     8125 
    8095     8068     8097     8114     8081     8036     8001     7997 
    8079     8220     8280     8213     8121     8104     8158     8224 
    8230     8155     8052     7998     8013     8009     7927     7850 
    7827     7831     7890     8012     8172     8328     8398     8386 
    8333     8241     8176     8168     8135     8047     7920     7765 
    7662     7654     7726     7843     7983     8194     8460     8645 
    8673     8533     8253     7975     7832     7816     7840     7855 
    7861     7852     7844     7881     7933     7981     8064     8156 
    8210     8249     8255     8171     7996     7823     7786     7902 
    8075     8199     8208     8133     8031     7897     7789     7770 
    7812     7897     8029     8151     8216     8226     8216     8186 
    8139     8124     8137     8095     7955     7769     7638     7641 
    7744     7866     7947     7967     7955     7935     7908     7848 
    7762     7730     7811     7954     8074     8110     8012     7842 
    7753     7767     7825     7919     8017     8082     8112     8105 
    8052     7954     7834     7749     7732     7767     7834     7931 
    8037     8109     8154     8170     8141     8148     8205     8187 
    8081     7983     7948     7992     8086     8182     8209     8108 
    7969     7917     7966     8081     8225     8330     8403     8518 
    8642     8638     8486     8278     8098     7996     8006     8105 
    8168     8129     8056     8052     8133     8229     8280     8287 
    8276     8274     8264     8195     8063     7950     7965     8098 
    8243     8340     8336     8182     7963     7800     7704     7665 
    7690     7763     7863     7986     8085     8113     8089     8059 
    8062     8090     8087     8027     7951     7900     7844     7767 
    7709     7705     7744     7800     7836     7843     7847     7867 
    7884     7879     7870     7879     7896     7909     7911     7875 
    7821     7807     7882     8032     8148     8158     8087     7981 
    7869     7770     7684     7615     7600     7681     7813     7884 
    7871     7846     7807     7738     7697     7716     7770     7836 
    7928     8066     8191     8233     8217     8163     8087     8041 
    8012     7956     7874     7819     7848     7969     8113     8205 
    8216     8205     8226     8256     8225     8105     7996     7994 
    8041     8059     8020     7913     7801     7776     7836     7920 
    7974     8010     8098     8203     8247     8249     8240     8189 
    8136     8168     8255     8280     8236     8176     8086     7954 
    7834     7757     7715     7723     7767     7792     7816     7898 
    8010     8093     8158     8214     8201     8098     7998     7970 
    7987     8014     8047     8089     8156     8230     8237     8140 
    7978     7793     7634     7558     7566     7623     7746     7946 
    8147     8311     8486     8646     8681     8603     8514     8402 
    8217     8020     7870     7759     7732     7851     8064     8241 
    8343     8402     8417     8387     8363     8353     8306     8214 
    8133     8086     8056     8047     8094     8190     8264     8263 
    8195     8109     8039     7975     7916     7886     7912     7987 
    8021     7950     7884     7948     8093     8222     8313     8356 
    8343     8311     8266     8131     7912     7735     7661     7685 
    7800     7913     7935     7881     7827     7817     7858     7921 
    7959     7967     8009     8104     8194     8221     8189     8131 
    8073     8039     8051     8091     8090     8012     7927     7897 
    7908     7932     7989     8097     8214     8299     8376     8432 
    8417     8382     8417     8509     8554     8476     8289     8040 
    7773     7537     7346     7215     7191     7258     7375     7549 
    7730     7834     7874     7917     8035     8268     8540     8718 
    8699     8453     8089     7767     7568     7465     7438     7528 
    7749     7994     8143     8190     8186     8147     8077     7992 
    7906     7823     7711     7549     7412     7442     7704     8095 
    8433     8637     8733     8723     8615     8456     8253     8021 
    7823     7704     7668     7705     7798     7886     7892     7859 
    7927     8108     8287     8368     8316     8174     8024     7912 
    7881     7904     7911     7947     8091     8279     8397     8364 
    8186     7978     7902     8019     8193     8243     8132     7943 
    7762     7669     7717     7824     7859     7830     7808     7789 
    7766     7784     7801     7754     7711     7781     7952     8137 
    8248     8235     8118     7971     7881     7879     7909     7928 
    7927     7884     7819     7801     7871     7989     8043     7993 
    7920     7893     7927     7997     8059     8075     8046     7994 
    7967     7990     8008     7950     7821     7689     7646     7769 
    8027     8262     8363     8361     8370     8415     8422     8313 
    8136     8035     8043     8075     8106     8156     8213     8252 
    8267     8245     8160     8025     7925     7943     8063     8164 
    8170     8163     8213     8255     8235     8206     8235     8321 
    8448     8567     8595     8532     8437     8341     8252     8152 
    7997     7789     7643     7653     7777     7928     8055     8145 
    8251     8384     8430     8305     8058     7780     7539     7434 
    7549     7862     8235     8480     8533     8517     8505     8376 
    8071     7740     7555     7580     7797     8095     8313     8398 
    8399     8349     8252     8144     8050     7929     7780     7665 
    7574     7457     7380     7422     7582     7882     8252     8496 
    8515     8402     8301     8259     8224     8152     8050     7981 
    7985     7994     7925     7738     7530     7526     7765     8033 
    8143     8097     7987     7874     7786     7676     7518     7392 
    7406     7623     8029     8556     9103     9493     9595     9448 
    9144     8746     8276     7732     7186     6779     6620     6716 
    6978     7284     7547     7780     8063     8384     8610     8652 
    8502     8181     7780     7437     7295     7453     7855     8298 
    8588     8712     8760     8710     8480     8089     7688     7481 
    7554     7805     8073     8230     8237     8167     8079     7997 
    8010     8152     8286     8253     8005     7623     7252     7018 
    6979     7111     7389     7794     8224     8559     8760     8846 
    8843     8756     8602     8417     8209     8008     7815     7547 
    7237     7096     7250     7622     8098     8554     8818     8838 
    8725     8571     8388     8226     8147     8144     8140     8070 
    7973     7881     7723     7443     7159     7048     7195     7543 
    7909     8136     8214     8249     8311     8356     8314     8178 
    7982     7820     7825     7985     8163     8290     8398     8537 
    8665     8649     8407     7992     7557     7254     7110     7115 
    7271     7443     7534     7673     7966     8307     8510     8436 
    8074     7570     7113     6817     6751     6941     7372     7929 
    8437     8789     8947     8903     8734     8513     8229     7943 
    7728     7519     7275     7092     7032     7052     7095     7186 
    7447     7946     8537     9013     9238     9162     8857     8510 
    8287     8205     8229     8349     8438     8367     8249     8216 
    8159     7897     7429     6964     6754     6889     7275     7707 
    8064     8419     8841     9232     9410     9259     8851     8391 
    8090     7992     7923     7798     7716     7736     7866     8071 
    8232     8287     8290     8216     7954     7578     7344     7337 
    7462     7722     8131     8530     8776     8862     8783     8579 
    8380     8248     8182     8181     8224     8268     8222     8044 
    7909     7965     8163     8394     8522     8506     8469     8429 
    8264     7994     7776     7767     7942     8056     7993     7836 
    7681     7573     7555     7589     7653     7835     8144     8387 
    8430     8334     8160     7960     7838     7831     7866     7886 
    7900     7919     7915     7878     7832     7792     7819     7986 
    8249     8461     8514     8436     8328     8228     8141     8117 
    8193     8309     8384     8394     8349     8284     8214     8066 
    7811     7596     7565     7690     7830     7859     7807     7740 
    7661     7623     7738     8000     8283     8482     8662     8947 
    9178     9081     8657     8097     7593     7280     7142     7118 
    7245     7588     8090     8552     8833     8945     8884     8622 
    8263     7960     7798     7735     7646     7466     7284     7272 
    7499     7780     7881     7836     7840     8004     8282     8526 
    8611     8540     8326     7994     7666     7487     7481     7557 
    7647     7812     8139     8559     8834     8770     8361     7699 
    6983     6565     6612     6997     7578     8218     8711     8986 
    9077     8923     8473     7843     7233     6882     6959     7350 
    7688     7759     7734     7859     8160     8469     8546     8302 
    7921     7649     7524     7429     7290     7248     7495     8036 
    8664     9139     9360     9337     9085     8685     8333     8136 
    7998     7835     7673     7519     7387     7318     7288     7321 
    7542     7942     8290     8397     8309     8148     7954     7805 
    7824     8001     8313     8766     9204     9404     9324     9088 
    8891     8842     8869     8843     8677     8325     7801     7233 
    6840     6771     6990     7400     7917     8468     9011     9352 
    9223     8712     8163     7708     7331     7060     6929     6914 
    6952     7022     7130     7294     7600     8048     8469     8721 
    8777     8675     8461     8155     7840     7673     7716     7963 
    8353     8726     8950     8966     8683     8145     7603     7242 
    7105     7144     7204     7165     7102     7150     7303     7533 
    7873     8294     8689     8946     8991     8784     8390     8028 
    7823     7712     7689     7774     7904     8033     8106     8031 
    7878     7776     7712     7669     7689     7744     7793     7821 
    7804     7825     8058     8510     8934     9046     8789     8324 
    7804     7331     6999     6847     6898     7169     7572     7939 
    8226     8529     8841     9027     9034     8897     8658     8345 
    8009     7720     7531     7438     7406     7383     7352     7353 
    7457     7657     7804     7777     7668     7659     7901     8382 
    8861     9078     9009     8802     8588     8424     8355     8348 
    8289     8179     8104     8085     8114     8143     8058     7838 
    7574     7433     7568     7909     8236     8490     8783     9136 
    9409     9436     9167     8683     8091     7530     7167     7080 
    7219     7535     7959     8314     8495     8569     8568     8483 
    8406     8419     8469     8490     8482     8422     8210     7817 
    7372     7030     6880     6909     7025     7144     7183     7169 
    7295     7666     8186     8688     8958     8842     8522     8295 
    8185     8090     7994     7902     7793     7680     7662     7777 
    7851     7781     7672     7685     7921     8289     8580     8648 
    8463     8174     8004     8009     8105     8172     8151     8106 
    8102     8089     8014     7881     7742     7678     7727     7878 
    8067     8179     8121     7912     7708     7672     7824     8059 
    8251     8351     8419     8521     8611     8622     8538     8360 
    8124     7870     7553     7218     7037     7090     7338     7770 
    8330     8856     9169     9173     8899     8473     7994     7500 
