Origin Time       2024/04/02 04:24:00
Lat.              40.133
Long.             141.712
Depth. (km)       71
Mag.              6.0
Station Code      TCGH11
Station Lat.      36.7084
Station Long.     139.7694
Station Height(m) 90
Record Time       2024/04/02 04:26:19
Sampling Freq(Hz) 100Hz
Duration Time(s)  120
Dir.              2
Scale Factor      2942(gal)/8224139
Max. Acc. (gal)   0.222
Last Correction   2024/04/02 04:26:19
Memo.             
[...]
   97575    97588    97555    97491    97465    97471    97486    97533 
   97602    97613    97564    97526    97515    97511    97544    97602 
   97623    97614    97641    97688    97692    97692    97738    97753 
   97679    97606    97615    97649    97618    97578    97622    97672 
   97625    97546    97552    97594    97572    97532    97553    97600 
   97599    97571    97605    97671    97637    97534    97529    97609 
   97630    97600    97638    97718    97707    97623    97586    97592 
   97579    97552    97557    97607    97625    97560    97514    97564 
   97592    97517    97491    97596    97648    97553    97494    97551 
   97560    97476    97472    97587    97636    97559    97513    97564 
   97610    97607    97614    97641    97646    97627    97634    97653 
   97615    97538    97526    97598    97630    97578    97537    97559 
   97588    97609    97654    97675    97603    97548    97587    97606 
   97567    97605    97696    97668    97592    97656    97741    97696 
   97665    97721    97703    97607    97600    97653    97648    97646 
   97714    97738    97690    97688    97730    97704    97627    97588 
   97565    97528    97544    97617    97634    97579    97555    97591 
   97595    97507    97455    97528    97590    97552    97499    97475 
   97452    97445    97464    97474    97474    97472    97452    97453 
   97505    97557    97548    97479    97441    97470    97470    97453 
   97517    97575    97498    97424    97503    97586    97524    97453 
   97475    97486    97467    97517    97596    97600    97575    97584 
   97576    97545    97587    97665    97646    97579    97590    97633 
   97632    97641    97679    97638    97536    97530    97610    97649 
   97667    97700    97698    97629    97573    97600    97619    97560 
   97546    97640    97687    97611    97561    97630    97671    97607 
   97582    97659    97715    97694    97688    97710    97653    97557 
   97568    97623    97583    97553    97642    97671    97549    97502 
   97609    97659    97610    97613    97636    97583    97541    97557 
   97532    97483    97521    97578    97556    97546    97614    97637 
   97542    97474    97540    97607    97580    97563    97610    97642 
   97602    97538    97533    97582    97605    97579    97588    97650 
   97650    97591    97610    97677    97634    97528    97525    97613 
   97640    97572    97540    97598    97632    97584    97549    97578 
   97579    97533    97524    97532    97507    97532    97630    97680 
   97627    97564    97556    97580    97606    97611    97591    97579 
   97599    97602    97551    97530    97596    97661    97644    97584 
   97541    97521    97546    97603    97580    97501    97490    97501 
   97484    97551    97649    97571    97395    97398    97536    97567 
   97538    97584    97590    97517    97532    97611    97613    97584 
   97610    97638    97629    97618    97627    97633    97642    97677 
   97690    97654    97626    97625    97660    97723    97718    97627 
   97594    97649    97657    97610    97642    97715    97715    97698 
   97721    97723    97711    97723    97745    97767    97796    97818 
   97784    97725    97702    97660    97582    97569    97609    97599 
   97544    97492    97480    97530    97576    97548    97509    97529 
   97526    97449    97420    97455    97445    97411    97420    97455 
   97494    97530    97534    97498    97478    97509    97526    97517 
   97532    97551    97526    97471    97409    97374    97395    97452 
   97478    97456    97460    97497    97513    97501    97479    97453 
   97463    97533    97599    97591    97560    97573    97572    97521 
   97526    97617    97650    97599    97605    97665    97641    97571 
   97572    97583    97528    97483    97528    97579    97571    97592 
   97673    97700    97664    97675    97734    97733    97691    97706 
   97731    97708    97714    97773    97795    97749    97690    97660 
   97664    97654    97606    97579    97617    97660    97641    97603 
   97618    97638    97607    97575    97594    97623    97627    97637 
   97634    97609    97617    97615    97556    97548    97629    97664 
   97603    97573    97625    97642    97595    97586    97632    97638 
   97595    97571    97553    97514    97501    97542    97590    97594 
   97590    97629    97654    97607    97567    97595    97594    97563 
   97600    97644    97595    97540    97573    97627    97629    97636 
   97667    97657    97636    97671    97695    97627    97553    97582 
   97656    97675    97665    97726    97816    97784    97656    97617 
   97641    97580    97517    97613    97713    97633    97572    97706 
   97796    97719    97707    97785    97740    97637    97637    97646 
   97592    97614    97708    97696    97622    97638    97661    97600 
   97564    97619    97656    97594    97529    97513    97495    97476 
   97483    97488    97510    97579    97600    97510    97451    97492 
   97517    97478    97456    97468    97465    97449    97444    97428 
   97411    97457    97492    97421    97397    97498    97507    97391 
   97379    97474    97465    97384    97386    97409    97402    97480 
   97594    97564    97472    97510    97619    97642    97592    97576 
   97610    97644    97641    97599    97567    97572    97583    97595 
   97629    97645    97576    97456    97391    97395    97371    97328 
   97363    97444    97479    97521    97606    97630    97594    97599 
   97650    97692    97710    97719    97714    97676    97634    97600 
   97560    97544    97573    97611    97575    97487    97483    97528 
   97480    97401    97420    97486    97483    97429    97420    97453 
   97490    97532    97556    97526    97515    97557    97537    97457 
   97487    97596    97603    97536    97536    97598    97613    97559 
   97491    97417    97344    97302    97302    97325    97330    97314 
   97314    97330    97343    97349    97341    97376    97524    97677 
   97687    97633    97691    97822    97833    97727    97664    97681 
   97708    97706    97656    97567    97559    97673    97734    97684 
   97711    97834    97848    97740    97673    97669    97663    97673 
   97686    97627    97576    97650    97762    97784    97773    97811 
   97831    97767    97714    97748    97795    97768    97703    97681 
   97683    97680    97711    97748    97721    97648    97592    97563 
   97533    97537    97576    97590    97588    97625    97644    97578 
   97526    97579    97663    97711    97723    97691    97652    97675 
   97718    97669    97598    97649    97727    97675    97618    97679 
   97706    97644    97679    97792    97758    97613    97599    97704 
   97737    97695    97677    97667    97656    97690    97735    97748 
   97717    97657    97627    97653    97650    97572    97526    97595 
   97653    97605    97579    97630    97607    97517    97532    97625 
   97602    97478    97467    97569    97583    97517    97511    97533 
   97487    97449    97494    97515    97457    97448    97528    97534 
   97463    97475    97533    97505    97488    97606    97691    97623 
   97587    97652    97645    97580    97586    97559    97436    97395 
   97495    97571    97591    97632    97667    97672    97686    97694 
   97626    97497    97430    97433    97356    97232    97262    97416 
   97445    97367    97399    97499    97484    97448    97519    97595 
   97586    97564    97582    97595    97588    97586    97568    97518 
   97474    97483    97514    97482    97382    97313    97316    97316 
   97275    97229    97222    97279    97333    97325    97336    97413 
   97451    97426    97467    97545    97505    97390    97360    97372 
   97337    97353    97464    97467    97298    97178    97179    97155 
   97135    97235    97341    97348    97391    97502    97498    97436 
   97546    97710    97681    97582    97599    97611    97525    97526 
   97650    97664    97606    97708    97860    97821    97719    97785 
   97899    97850    97771    97822    97880    97879    97911    97966 
   97961    97923    97893    97819    97744    97777    97872    97962 
   98058    98097    98043    97995    98008    98023    98004    97972 
   97974    98028    98058    97988    97858    97792    97815    97810 
   97742    97715    97769    97803    97761    97767    97819    97730 
   97544    97497    97588    97623    97572    97595    97684    97657 
   97556    97548    97610    97640    97657    97713    97744    97690 
   97614    97555    97486    97465    97528    97587    97594    97553 
   97498    97495    97541    97568    97563    97555    97567    97586 
   97579    97553    97545    97537    97464    97372    97398    97548 
   97672    97699    97680    97617    97484    97395    97438    97478 
   97387    97272    97267    97362    97476    97599    97707    97752 
   97754    97741    97702    97664    97663    97695    97722    97704 
   97677    97696    97725    97683    97569    97499    97548    97640 
   97727    97849    97945    97919    97794    97660    97578    97557 
   97610    97700    97771    97808    97780    97656    97532    97509 
   97537    97555    97568    97540    97488    97487    97497    97474 
   97438    97398    97397    97456    97467    97405    97414    97511 
   97541    97492    97447    97386    97345    97432    97576    97614 
   97576    97578    97563    97468    97429    97499    97517    97455 
   97497    97683    97804    97742    97671    97695    97673    97586 
   97599    97722    97768    97668    97611    97671    97650    97522 
   97428    97333    97213    97232    97405    97540    97622    97767 
   97869    97784    97640    97573    97518    97474    97532    97621 
   97609    97530    97480    97465    97421    97362    97376    97444 
   97437    97366    97382    97457    97434    97375    97375    97356 
   97298    97308    97375    97414    97484    97623    97684    97641 
   97648    97715    97698    97600    97586    97630    97571    97483 
   97515    97573    97568    97594    97665    97596    97345    97178 
   97282    97480    97517    97390    97335    97487    97654    97644 
   97587    97576    97501    97397    97437    97537    97502    97465 
   97606    97738    97695    97617    97583    97519    97514    97660 
   97748    97642    97544    97526    97451    97467    97753    97949 
   97800    97656    97660    97564    97480    97641    97769    97629 
   97568    97769    97838    97667    97652    97819    97842    97757 
   97789    97823    97654    97436    97428    97515    97432    97301 
   97384    97575    97690    97783    97849    97779    97663    97637 
   97606    97526    97560    97691    97703    97632    97618    97626 
   97625    97645    97696    97714    97599    97417    97355    97432 
   97487    97445    97398    97403    97394    97343    97356    97472 
   97600    97692    97761    97788    97750    97667    97583    97521 
   97430    97295    97249    97330    97353    97278    97316    97476 
   97498    97384    97411    97515    97428    97252    97244    97379 
   97561    97761    97821    97633    97444    97451    97451    97336 
   97368    97556    97560    97429    97475    97598    97529    97440 
   97611    97887    98016    98096    98201    98181    98039    97953 
   97935    97829    97642    97613    97719    97676    97528    97521 
   97582    97495    97394    97551    97794    97744    97594    97715 
   97896    97827    97715    97791    97902    97906    97943    98053 
   98031    97848    97686    97605    97579    97661    97784    97794 
   97700    97606    97580    97602    97579    97532    97587    97704 
   97700    97638    97738    97895    97839    97660    97646    97791 
   97823    97715    97652    97603    97449    97332    97453    97648 
   97623    97488    97518    97663    97700    97646    97648    97657 
   97525    97325    97303    97432    97407    97252    97202    97186 
   97102    97112    97237    97248    97113    97112    97270    97309 
   97283    97470    97730    97745    97592    97530    97541    97468 
   97340    97295    97332    97353    97356    97394    97474    97565 
   97627    97623    97544    97424    97366    97401    97405    97370 
   97480    97690    97733    97618    97525    97529    97638    97731 
   97679    97644    97831    98004    97877    97718    97808    97926 
   97902    97933    98069    98073    97926    97884    97899    97719 
   97499    97552    97738    97733    97598    97596    97671    97602 
   97433    97339    97333    97379    97561    97854    97949    97744 
   97548    97537    97555    97486    97449    97556    97663    97672 
   97665    97610    97480    97360    97252    97222    97394    97653 
   97791    97777    97757    97779    97722    97583    97476    97433 
   97421    97382    97353    97417    97501    97505    97460    97445 
   97457    97480    97545    97633    97686    97673    97588    97476 
   97443    97582    97788    97804    97609    97514    97644    97700 
   97556    97455    97471    97375    97136    97012    97075    97182 
   97298    97398    97390    97316    97276    97262    97294    97492 
   97764    97829    97734    97788    97947    97919    97776    97779 
   97868    97870    97837    97852    97850    97825    97807    97722 
   97630    97721    97912    97947    97857    97926    98124    98084 
   97802    97695    97856    97996    98054    98159    98207    98069 
   97912    97885    97864    97799    97856    97962    97854    97610 
   97545    97619    97573    97552    97738    97848    97760    97768 
   97868    97745    97426    97260    97395    97626    97698    97534 
   97348    97420    97613    97559    97299    97222    97451    97677 
   97672    97572    97505    97384    97210    97146    97249    97389 
   97487    97568    97563    97463    97411    97391    97278    97204 
   97329    97467    97376    97213    97237    97378    97393    97299 
   97294    97337    97217    97039    97083    97259    97332    97375 
   97472    97492    97418    97411    97513    97552    97483    97455 
   97524    97610    97629    97590    97556    97536    97525    97587 
   97681    97664    97584    97590    97568    97401    97364    97659 
   97958    98026    98012    98004    97969    97919    97827    97660 
   97483    97402    97417    97453    97528    97649    97750    97798 
   97767    97673    97596    97544    97479    97429    97497    97630 
   97659    97603    97556    97468    97411    97497    97553    97409 
   97266    97316    97364    97309    97432    97764    97947    97914 
   97868    97783    97634    97633    97773    97748    97472    97231 
   97260    97418    97413    97274    97283    97429    97456    97438 
   97611    97777    97683    97540    97569    97613    97564    97515 
   97430    97325    97440    97702    97691    97471    97501    97715 
   97754    97740    97914    97989    97711    97536    97744    97837 
   97641    97595    97815    98016    98051    98012    97969    97856 
   97688    97557    97429    97328    97436    97726    97910    97930 
   97953    97892    97621    97434    97596    97831    97850    97772 
   97640    97332    97085    97206    97393    97310    97229    97374 
   97475    97357    97285    97436    97522    97390    97384    97642 
   97746    97490    97281    97416    97626    97618    97503    97463 
   97498    97565    97587    97495    97347    97267    97239    97190 
   97206    97383    97619    97761    97784    97710    97530    97387 
   97502    97748    97789    97710    97783    97891    97831    97740 
   97758    97781    97742    97741    97749    97652    97575    97656 
   97757    97775    97750    97683    97557    97486    97524    97515 
   97398    97395    97638    97883    97845    97652    97633    97730 
   97675    97610    97789    97934    97718    97468    97524    97629 
   97587    97572    97641    97695    97744    97802    97772    97622 
   97478    97426    97420    97459    97528    97548    97579    97660 
   97619    97411    97254    97308    97475    97642    97816    97927 
   97891    97814    97773    97698    97575    97460    97341    97291 
   97480    97769    97825    97698    97627    97524    97297    97183 
   97221    97152    97059    97197    97359    97299    97225    97317 
   97491    97646    97745    97742    97615    97456    97380    97371 
   97403    97510    97609    97607    97565    97580    97622    97572 
   97501    97591    97677    97494    97289    97432    97652    97484 
   97189    97248    97498    97621    97742    97900    97843    97665 
   97683    97765    97627    97416    97406    97514    97524    97474 
   97544    97760    97974    98001    97838    97680    97614    97573 
   97599    97735    97819    97702    97513    97447    97506    97649 
   97807    97845    97769    97711    97707    97719    97677    97578 
   97582    97664    97556    97460    97750    98031    97812    97479 
   97505    97632    97598    97646    97815    97779    97569    97507 
   97555    97544    97530    97540    97483    97407    97459    97578 
   97611    97538    97375    97237    97349    97610    97692    97636 
   97688    97794    97765    97641    97544    97505    97503    97540 
   97590    97545    97430    97413    97514    97629    97668    97584 
   97444    97357    97340    97326    97364    97598    97830    97673 
   97375    97471    97768    97729    97434    97339    97434    97421 
   97372    97499    97638    97645    97667    97744    97740    97680 
   97804    98072    98074    97864    97849    97864    97610    97447 
   97665    97865    97753    97653    97715    97637    97495    97656 
   97849    97668    97488    97656    97768    97629    97634    97789 
   97718    97505    97494    97626    97598    97467    97526    97713 
   97750    97630    97526    97506    97524    97553    97615    97671 
   97634    97526    97486    97521    97503    97479    97487    97363 
   97140    97117    97347    97525    97478    97447    97609    97671 
   97491    97397    97511    97567    97472    97391    97330    97212 
   97218    97475    97630    97532    97579    97799    97754    97456 
   97337    97503    97606    97526    97513    97596    97627    97587 
   97517    97517    97636    97799    97892    97830    97704    97626 
   97586    97644    97767    97742    97629    97711    97888    97802 
   97534    97457    97545    97519    97497    97715    97900    97761 
   97659    97858    97929    97622    97411    97627    97872    97761 
   97621    97775    97923    97789    97602    97623    97779    97857 
   97802    97718    97668    97621    97594    97638    97679    97671 
   97710    97730    97573    97378    97368    97472    97530    97515 
   97528    97653    97735    97525    97210    97268    97567    97615 
   97555    97664    97695    97542    97484    97564    97615    97654 
   97681    97515    97271    97328    97609    97704    97551    97389 
   97391    97474    97367    97146    97254    97663    97826    97596 
   97394    97416    97449    97434    97497    97532    97393    97275 
   97389    97519    97456    97411    97557    97665    97540    97344 
