Origin Time       2024/04/02 04:24:00
Lat.              40.133
Long.             141.712
Depth. (km)       71
Mag.              6.0
Station Code      TCGH08
Station Lat.      36.8828
Station Long.     139.6459
Station Height(m) 499
Record Time       2024/04/02 04:26:38
Sampling Freq(Hz) 100Hz
Duration Time(s)  120
Dir.              3
Scale Factor      2942(gal)/8224139
Max. Acc. (gal)   0.119
Last Correction   2024/04/02 04:26:38
Memo.             
[...]
  -87812   -87791   -87758   -87750   -87783   -87821   -87839   -87848 
  -87849   -87839   -87826   -87805   -87782   -87785   -87795   -87805 
  -87825   -87840   -87837   -87833   -87835   -87848   -87864   -87863 
  -87862   -87874   -87875   -87863   -87878   -87907   -87895   -87867 
  -87876   -87893   -87890   -87897   -87897   -87867   -87853   -87893 
  -87945   -87960   -87939   -87920   -87921   -87934   -87945   -87944 
  -87937   -87930   -87922   -87916   -87902   -87890   -87882   -87860 
  -87868   -87917   -87939   -87944   -87984   -88018   -87987   -87924 
  -87886   -87871   -87867   -87883   -87909   -87929   -87932   -87905 
  -87880   -87882   -87886   -87887   -87891   -87906   -87928   -87932 
  -87928   -87936   -87940   -87921   -87894   -87890   -87905   -87917 
  -87925   -87933   -87925   -87891   -87864   -87868   -87882   -87902 
  -87914   -87889   -87870   -87882   -87890   -87901   -87921   -87924 
  -87909   -87898   -87897   -87893   -87871   -87849   -87844   -87852 
  -87840   -87808   -87806   -87824   -87816   -87816   -87864   -87910 
  -87929   -87947   -87959   -87960   -87951   -87920   -87905   -87929 
  -87934   -87910   -87922   -87960   -87975   -87961   -87933   -87909 
  -87907   -87905   -87878   -87868   -87895   -87898   -87883   -87910 
  -87944   -87949   -87945   -87932   -87899   -87863   -87840   -87855 
  -87903   -87936   -87930   -87917   -87906   -87887   -87862   -87860 
  -87880   -87898   -87909   -87909   -87887   -87867   -87856   -87860 
  -87894   -87929   -87939   -87937   -87910   -87875   -87875   -87893 
  -87906   -87929   -87936   -87925   -87943   -87971   -87963   -87955 
  -87968   -87960   -87932   -87939   -87968   -87975   -87955   -87924 
  -87906   -87912   -87916   -87934   -87971   -87970   -87952   -87972 
  -88001   -88013   -88013   -88002   -87994   -88001   -87999   -87967 
  -87924   -87897   -87868   -87844   -87859   -87890   -87876   -87822 
  -87789   -87806   -87824   -87810   -87810   -87820   -87822   -87839 
  -87853   -87844   -87810   -87764   -87751   -87789   -87831   -87840 
  -87822   -87790   -87751   -87716   -87686   -87682   -87717   -87740 
  -87725   -87720   -87736   -87739   -87733   -87739   -87735   -87725 
  -87750   -87802   -87844   -87858   -87866   -87887   -87897   -87875 
  -87828   -87793   -87802   -87799   -87779   -87808   -87853   -87863 
  -87853   -87851   -87843   -87828   -87833   -87870   -87902   -87934 
  -87982   -87998   -87980   -87988   -88002   -87991   -88001   -88020 
  -88017   -88006   -87987   -87968   -87970   -87984   -88001   -88002 
  -87999   -88018   -88036   -88015   -87999   -88029   -88056   -88034 
  -88003   -87994   -87982   -87987   -88013   -88013   -87994   -87975 
  -87936   -87912   -87932   -87944   -87939   -87948   -87951   -87933 
  -87921   -87906   -87898   -87928   -87968   -87975   -87951   -87905 
  -87852   -87835   -87845   -87855   -87863   -87893   -87930   -87943 
  -87939   -87949   -87953   -87941   -87944   -87966   -87948   -87899 
  -87887   -87886   -87883   -87897   -87890   -87887   -87910   -87928 
  -87957   -87980   -87979   -88006   -88036   -88021   -87995   -87976 
  -87966   -87986   -88017   -88024   -88001   -87976   -87966   -87952 
  -87934   -87929   -87928   -87912   -87913   -87955   -87976   -87953 
  -87933   -87920   -87926   -87955   -87945   -87922   -87945   -87960 
  -87930   -87912   -87916   -87889   -87833   -87836   -87878   -87855 
  -87824   -87844   -87825   -87760   -87744   -87764   -87778   -87791 
  -87777   -87745   -87759   -87793   -87785   -87762   -87770   -87787 
  -87772   -87755   -87768   -87778   -87768   -87775   -87809   -87837 
  -87816   -87770   -87775   -87825   -87862   -87890   -87907   -87885 
  -87859   -87870   -87894   -87907   -87921   -87952   -87967   -87941 
  -87912   -87926   -87979   -88047   -88103   -88098   -88045   -88030 
  -88053   -88059   -88045   -88051   -88067   -88065   -88063   -88068 
  -88064   -88053   -88040   -88029   -88033   -88033   -88015   -87999 
  -88001   -87975   -87922   -87917   -87934   -87894   -87848   -87840 
  -87829   -87817   -87821   -87820   -87802   -87777   -87748   -87739 
  -87741   -87750   -87772   -87802   -87813   -87789   -87756   -87767 
  -87778   -87743   -87724   -87736   -87731   -87727   -87733   -87735 
  -87740   -87755   -87763   -87763   -87779   -87790   -87755   -87744 
  -87804   -87840   -87837   -87855   -87870   -87862   -87858   -87847 
  -87831   -87844   -87870   -87876   -87883   -87878   -87831   -87794 
  -87820   -87858   -87862   -87874   -87893   -87903   -87940   -87993 
  -88018   -88010   -87995   -87993   -87982   -87957   -87964   -87988 
  -87979   -87970   -87993   -87991   -87975   -87993   -87994   -87968 
  -87984   -88007   -87990   -87964   -87953   -87976   -88025   -88038 
  -88017   -88009   -88005   -87980   -87943   -87913   -87913   -87928 
  -87933   -87930   -87913   -87882   -87849   -87835   -87851   -87860 
  -87835   -87832   -87864   -87882   -87899   -87932   -87940   -87928 
  -87918   -87914   -87918   -87903   -87866   -87852   -87875   -87885 
  -87863   -87876   -87899   -87859   -87804   -87814   -87851   -87860 
  -87871   -87894   -87897   -87899   -87912   -87918   -87930   -87929 
  -87929   -87968   -87982   -87932   -87898   -87922   -87932   -87926 
  -87980   -88029   -88011   -88017   -88034   -87995   -87952   -87943 
  -87936   -87929   -87949   -87995   -88010   -87987   -87979   -87978 
  -87983   -88024   -88052   -88042   -88021   -87986   -87961   -87975 
  -87986   -87968   -87940   -87926   -87933   -87948   -87948   -87937 
  -87916   -87875   -87855   -87889   -87925   -87933   -87924   -87897 
  -87882   -87882   -87858   -87835   -87835   -87805   -87766   -87760 
  -87763   -87771   -87777   -87755   -87743   -87772   -87804   -87817 
  -87821   -87820   -87840   -87855   -87832   -87821   -87835   -87848 
  -87870   -87905   -87925   -87928   -87929   -87914   -87876   -87848 
  -87843   -87872   -87921   -87964   -87990   -87987   -87972   -87972 
  -87952   -87936   -87974   -87999   -87959   -87921   -87918   -87921 
  -87925   -87937   -87941   -87925   -87928   -87964   -87968   -87940 
  -87925   -87914   -87906   -87913   -87913   -87909   -87897   -87868 
  -87849   -87833   -87814   -87813   -87812   -87829   -87879   -87914 
  -87898   -87839   -87768   -87725   -87716   -87729   -87760   -87791 
  -87782   -87737   -87698   -87671   -87644   -87619   -87609   -87639 
  -87679   -87701   -87727   -87747   -87739   -87731   -87740   -87775 
  -87801   -87768   -87737   -87764   -87804   -87831   -87848   -87866 
  -87905   -87930   -87894   -87844   -87847   -87898   -87956   -87986 
  -87984   -87993   -88042   -88083   -88078   -88061   -88037   -88024 
  -88072   -88134   -88142   -88132   -88128   -88121   -88121   -88133 
  -88123   -88094   -88082   -88103   -88130   -88125   -88098   -88083 
  -88071   -88052   -88032   -88005   -87991   -87999   -88005   -88003 
  -88013   -88017   -87986   -87955   -87961   -87990   -88015   -88037 
  -88034   -87997   -87943   -87902   -87895   -87929   -87994   -88037 
  -88022   -87999   -88001   -87984   -87951   -87910   -87860   -87845 
  -87867   -87862   -87826   -87804   -87794   -87798   -87821   -87839 
  -87839   -87822   -87804   -87812   -87835   -87849   -87836   -87809 
  -87813   -87841   -87855   -87859   -87868   -87893   -87920   -87926 
  -87920   -87914   -87932   -87963   -87953   -87922   -87907   -87894 
  -87895   -87916   -87926   -87948   -87994   -88029   -88018   -87979 
  -87951   -87943   -87948   -87952   -87925   -87897   -87918   -87961 
  -87979   -87960   -87928   -87912   -87898   -87867   -87829   -87795 
  -87793   -87826   -87859   -87845   -87799   -87790   -87798   -87754 
  -87712   -87708   -87698   -87704   -87743   -87755   -87737   -87735 
  -87737   -87736   -87751   -87767   -87733   -87675   -87694   -87778 
  -87795   -87777   -87813   -87843   -87836   -87845   -87849   -87828 
  -87814   -87825   -87848   -87867   -87875   -87866   -87835   -87804 
  -87782   -87791   -87840   -87883   -87913   -87920   -87879   -87864 
  -87889   -87867   -87845   -87885   -87913   -87912   -87910   -87893 
  -87859   -87825   -87785   -87762   -87786   -87826   -87837   -87802 
  -87758   -87758   -87791   -87816   -87831   -87840   -87826   -87790 
  -87766   -87785   -87835   -87886   -87928   -87953   -87952   -87937 
  -87909   -87875   -87863   -87880   -87922   -87968   -87982   -87971 
  -87947   -87925   -87925   -87932   -87955   -88009   -88045   -88052 
  -88056   -88029   -87994   -88006   -88024   -88009   -87990   -87978 
  -87979   -87984   -87978   -87978   -87986   -87987   -88005   -88022 
  -87983   -87924   -87887   -87836   -87813   -87862   -87913   -87944 
  -87982   -87998   -87988   -87971   -87928   -87899   -87914   -87909 
  -87895   -87929   -87966   -87956   -87902   -87843   -87832   -87853 
  -87862   -87867   -87883   -87897   -87902   -87895   -87891   -87913 
  -87956   -87988   -87974   -87953   -87964   -87964   -87933   -87880 
  -87813   -87799   -87847   -87862   -87843   -87852   -87895   -87940 
  -87951   -87932   -87932   -87971   -88036   -88069   -88025   -87972 
  -87966   -87974   -87999   -88056   -88088   -88063   -88028   -87995 
  -87953   -87928   -87929   -87953   -87979   -87964   -87944   -87956 
  -87959   -87955   -87990   -88034   -88047   -88032   -88021   -88020 
  -87995   -87947   -87924   -87937   -87952   -87955   -87967   -87972 
  -87944   -87916   -87898   -87890   -87899   -87879   -87849   -87878 
  -87906   -87898   -87894   -87905   -87932   -87967   -87963   -87898 
  -87825   -87805   -87831   -87871   -87910   -87918   -87907   -87891 
  -87843   -87790   -87774   -87782   -87798   -87816   -87812   -87797 
  -87801   -87809   -87795   -87791   -87814   -87826   -87810   -87799 
  -87797   -87795   -87818   -87849   -87866   -87901   -87939   -87928 
  -87895   -87872   -87860   -87870   -87883   -87885   -87907   -87939 
  -87940   -87929   -87926   -87920   -87898   -87866   -87863   -87893 
  -87932   -87949   -87909   -87860   -87883   -87917   -87897   -87874 
  -87872   -87867   -87879   -87906   -87897   -87848   -87808   -87812 
  -87833   -87820   -87787   -87755   -87709   -87671   -87677   -87705 
  -87744   -87781   -87772   -87743   -87760   -87804   -87795   -87762 
  -87764   -87789   -87809   -87821   -87828   -87844   -87863   -87885 
  -87899   -87885   -87853   -87844   -87849   -87855   -87882   -87914 
  -87901   -87891   -87933   -87968   -87978   -87998   -88015   -88020 
  -88030   -88034   -88015   -87984   -87957   -87936   -87932   -87952 
  -87953   -87940   -87953   -87957   -87921   -87899   -87934   -87990 
  -88006   -87986   -87953   -87920   -87906   -87922   -87940   -87952 
  -87943   -87907   -87874   -87845   -87818   -87812   -87825   -87847 
  -87876   -87916   -87948   -87972   -87995   -87982   -87936   -87916 
  -87912   -87894   -87890   -87914   -87941   -87944   -87937   -87945 
  -87934   -87886   -87844   -87824   -87813   -87820   -87868   -87921 
  -87933   -87930   -87953   -87970   -87970   -87979   -87980   -87967 
  -87956   -87956   -87983   -88006   -87987   -87951   -87922   -87899 
  -87889   -87864   -87797   -87747   -87758   -87802   -87852   -87895 
  -87918   -87912   -87895   -87893   -87903   -87912   -87921   -87972 
  -88041   -88056   -88067   -88106   -88069   -87976   -87964   -87998 
  -87978   -87961   -87972   -87968   -87994   -88042   -88057   -88049 
  -88041   -88033   -88009   -87961   -87916   -87902   -87903   -87901 
  -87894   -87887   -87868   -87848   -87837   -87833   -87858   -87925 
  -87957   -87907   -87852   -87821   -87790   -87794   -87828   -87824 
  -87793   -87768   -87718   -87667   -87675   -87717   -87735   -87729 
  -87724   -87740   -87778   -87797   -87783   -87756   -87718   -87683 
  -87666   -87683   -87740   -87782   -87768   -87747   -87750   -87748 
  -87731   -87729   -87752   -87775   -87799   -87839   -87852   -87814 
  -87782   -87798   -87825   -87828   -87835   -87871   -87906   -87929 
  -87934   -87922   -87929   -87967   -87978   -87939   -87903   -87898 
  -87872   -87840   -87843   -87848   -87843   -87859   -87870   -87841 
  -87817   -87839   -87874   -87876   -87870   -87885   -87897   -87894 
  -87897   -87902   -87885   -87856   -87862   -87895   -87907   -87890 
  -87863   -87837   -87828   -87851   -87902   -87932   -87910   -87885 
  -87907   -87949   -87976   -87999   -88014   -88015   -88017   -88022 
  -88034   -88045   -88024   -87980   -87968   -87990   -88013   -88014 
  -88009   -88025   -88034   -87983   -87926   -87909   -87876   -87862 
  -87895   -87930   -87949   -87949   -87917   -87893   -87901   -87920 
  -87940   -87964   -87990   -88006   -87990   -87945   -87930   -87959 
  -87970   -87960   -87966   -87960   -87956   -87976   -87966   -87928 
  -87925   -87920   -87886   -87863   -87872   -87903   -87920   -87905 
  -87905   -87944   -87986   -88002   -88011   -88017   -87997   -87984 
  -87999   -87993   -87956   -87929   -87920   -87924   -87932   -87925 
  -87909   -87903   -87905   -87925   -87976   -88021   -88022   -87986 
  -87951   -87949   -87970   -87980   -87972   -87972   -87995   -87997 
  -87941   -87876   -87839   -87814   -87812   -87829   -87847   -87855 
  -87856   -87839   -87809   -87793   -87804   -87817   -87795   -87756 
  -87752   -87781   -87766   -87691   -87617   -87581   -87570   -87567 
  -87567   -87596   -87647   -87654   -87613   -87588   -87600   -87632 
  -87666   -87697   -87716   -87706   -87697   -87705   -87693   -87675 
  -87704   -87752   -87778   -87771   -87745   -87748   -87782   -87794 
  -87790   -87799   -87820   -87864   -87913   -87944   -87987   -88020 
  -88005   -87998   -88010   -87995   -87960   -87947   -87959   -87967 
  -87975   -88003   -88045   -88095   -88126   -88118   -88091   -88049 
  -88014   -88040   -88119   -88187   -88209   -88211   -88214   -88183 
  -88117   -88069   -88055   -88048   -88052   -88067   -88061   -88025 
  -87984   -87948   -87928   -87928   -87929   -87937   -87964   -87974 
  -87941   -87910   -87928   -87941   -87899   -87855   -87840   -87829 
  -87824   -87824   -87822   -87828   -87824   -87810   -87813   -87812 
  -87801   -87820   -87858   -87867   -87853   -87852   -87847   -87824 
  -87822   -87853   -87885   -87901   -87897   -87887   -87882   -87879 
  -87885   -87886   -87895   -87933   -87963   -87957   -87949   -87940 
  -87930   -87921   -87895   -87864   -87856   -87862   -87876   -87905 
  -87926   -87922   -87905   -87916   -87949   -87967   -87983   -88010 
  -88020   -88022   -88042   -88048   -88021   -87983   -87964   -87948 
  -87918   -87902   -87917   -87934   -87948   -87980   -88001   -87980 
  -87980   -88006   -87997   -87975   -87978   -87949   -87882   -87862 
  -87876   -87874   -87871   -87872   -87858   -87809   -87760   -87758 
  -87754   -87723   -87701   -87683   -87677   -87704   -87747   -87790 
  -87818   -87806   -87777   -87763   -87764   -87766   -87777   -87786 
  -87768   -87733   -87716   -87718   -87727   -87728   -87706   -87683 
  -87700   -87747   -87781   -87774   -87758   -87763   -87795   -87848 
  -87893   -87907   -87920   -87937   -87925   -87880   -87849   -87859 
  -87906   -87934   -87914   -87907   -87922   -87909   -87909   -87949 
  -87986   -88010   -88025   -88026   -88028   -88038   -88049   -88051 
  -88052   -88060   -88057   -88037   -88002   -87970   -87956   -87967 
  -87984   -88001   -88024   -88033   -88011   -87994   -88010   -88017 
  -87978   -87939   -87943   -87959   -87956   -87955   -87956   -87941 
  -87926   -87920   -87898   -87880   -87885   -87897   -87910   -87903 
  -87879   -87890   -87913   -87917   -87947   -87982   -87968   -87926 
  -87914   -87941   -87967   -87983   -88011   -88020   -87979   -87940 
  -87940   -87944   -87933   -87924   -87925   -87937   -87943   -87933 
  -87929   -87937   -87944   -87941   -87937   -87945   -87948   -87943 
  -87947   -87957   -87966   -87975   -87983   -87994   -87999   -87971 
  -87907   -87855   -87843   -87855   -87871   -87910   -87963   -87957 
  -87898   -87870   -87862   -87841   -87848   -87883   -87899   -87891 
  -87880   -87868   -87845   -87837   -87858   -87879   -87879   -87868 
  -87858   -87844   -87821   -87808   -87816   -87829   -87825   -87804 
  -87806   -87831   -87828   -87806   -87795   -87768   -87729   -87724 
  -87740   -87752   -87775   -87813   -87821   -87802   -87804   -87829 
  -87851   -87868   -87891   -87914   -87930   -87929   -87906   -87886 
  -87890   -87907   -87936   -87968   -87988   -87993   -87995   -88017 
  -88024   -87999   -88006   -88028   -88026   -88042   -88076   -88084 
  -88063   -88029   -88011   -88011   -88003   -88002   -88015   -88018 
  -88017   -88020   -88024   -88014   -87980   -87952   -87966   -87991 
  -87990   -87968   -87948   -87928   -87918   -87939   -87959   -87951 
  -87939   -87922   -87903   -87907   -87910   -87889   -87868   -87866 
  -87858   -87849   -87853   -87839   -87785   -87751   -87767   -87786 
  -87795   -87810   -87802   -87782   -87781   -87779   -87767   -87754 
  -87740   -87752   -87778   -87777   -87758   -87729   -87682   -87652 
  -87673   -87704   -87710   -87701   -87696   -87687   -87683   -87701 
  -87723   -87723   -87728   -87760   -87775   -87752   -87737   -87743 
  -87739   -87743   -87775   -87813   -87837   -87837   -87839   -87874 
  -87922   -87949   -87963   -87971   -87963   -87959   -87997   -88044 
  -88072   -88091   -88088   -88056   -88036   -88051   -88074   -88071 
  -88060   -88067   -88074   -88060   -88029   -87993   -87966   -87960 
  -87976   -87986   -87975   -87956   -87941   -87933   -87922   -87902 
  -87897   -87905   -87893   -87878   -87867   -87839   -87809   -87808 
  -87818   -87812   -87781   -87752   -87723   -87704   -87743   -87810 
  -87848   -87843   -87822   -87816   -87824   -87840   -87862   -87882 
  -87907   -87939   -87940   -87922   -87924   -87921   -87897   -87887 
  -87895   -87893   -87883   -87879   -87887   -87898   -87898   -87872 
  -87856   -87879   -87905   -87922   -87941   -87936   -87916   -87895 
  -87885   -87907   -87943   -87959   -87971   -87979   -87986   -87999 
  -87997   -87999   -88025   -88032   -88029   -88037   -88025   -87993 
  -87982   -87982   -87975   -87971   -87967   -87963   -87956   -87936 
  -87902   -87868   -87866   -87885   -87893   -87912   -87944   -87951 
  -87945   -87960   -87978   -87984   -87984   -87980   -87968   -87960 
  -87951   -87939   -87930   -87933   -87932   -87898   -87867   -87886 
  -87905   -87907   -87929   -87939   -87928   -87929   -87922   -87902 
  -87909   -87932   -87932   -87920   -87902   -87893   -87891   -87874 
  -87845   -87835   -87839   -87828   -87801   -87786   -87801   -87821 
  -87821   -87802   -87793   -87790   -87782   -87782   -87789   -87794 
  -87795   -87756   -87714   -87741   -87808   -87858   -87895   -87910 
  -87902   -87893   -87882   -87872   -87868   -87872   -87887   -87901 
  -87903   -87899   -87891   -87897   -87918   -87941   -87961   -87975 
  -87986   -88001   -88005   -88005   -88014   -88009   -88001   -88015 
  -88021   -87998   -87982   -87984   -87980   -87959   -87941   -87943 
