Origin Time       2024/04/02 04:24:00
Lat.              40.133
Long.             141.712
Depth. (km)       71
Mag.              6.0
Station Code      TCGH12
Station Lat.      36.6959
Station Long.     139.9842
Station Height(m) 162
Record Time       2024/04/02 04:25:33
Sampling Freq(Hz) 100Hz
Duration Time(s)  197
Dir.              6
Scale Factor      7845(gal)/8223790
Max. Acc. (gal)   1.225
Last Correction   2024/04/02 04:25:34
Memo.             
[...]
  -21309   -21311   -21304   -21301   -21303   -21307   -21307   -21305 
  -21303   -21300   -21304   -21308   -21304   -21303   -21305   -21305 
  -21303   -21301   -21308   -21312   -21303   -21298   -21305   -21305 
  -21300   -21304   -21311   -21301   -21298   -21309   -21303   -21298 
  -21311   -21308   -21297   -21296   -21303   -21309   -21309   -21303 
  -21300   -21300   -21305   -21309   -21308   -21305   -21304   -21304 
  -21303   -21297   -21307   -21316   -21308   -21301   -21303   -21300 
  -21303   -21308   -21305   -21300   -21300   -21308   -21309   -21303 
  -21304   -21305   -21300   -21304   -21307   -21305   -21308   -21301 
  -21297   -21307   -21311   -21307   -21304   -21303   -21303   -21301 
  -21304   -21308   -21309   -21305   -21300   -21301   -21307   -21305 
  -21304   -21308   -21311   -21307   -21297   -21298   -21305   -21309 
  -21309   -21307   -21305   -21303   -21300   -21307   -21312   -21305 
  -21305   -21308   -21298   -21301   -21308   -21307   -21307   -21303 
  -21300   -21311   -21308   -21298   -21304   -21305   -21304   -21308 
  -21305   -21298   -21301   -21305   -21305   -21305   -21308   -21305 
  -21303   -21304   -21305   -21308   -21309   -21303   -21303   -21308 
  -21308   -21308   -21301   -21297   -21308   -21311   -21304   -21303 
  -21301   -21301   -21301   -21307   -21309   -21305   -21307   -21308 
  -21301   -21297   -21304   -21311   -21308   -21298   -21301   -21311 
  -21312   -21308   -21298   -21296   -21303   -21309   -21312   -21303 
  -21297   -21303   -21303   -21300   -21305   -21307   -21304   -21303 
  -21307   -21308   -21298   -21300   -21309   -21305   -21305   -21311 
  -21305   -21300   -21300   -21303   -21305   -21304   -21307   -21307 
  -21304   -21307   -21305   -21300   -21303   -21308   -21309   -21303 
  -21304   -21311   -21305   -21301   -21301   -21297   -21303   -21312 
  -21309   -21304   -21298   -21300   -21300   -21301   -21308   -21309 
  -21304   -21301   -21297   -21298   -21305   -21308   -21308   -21304 
  -21298   -21303   -21305   -21298   -21303   -21308   -21305   -21308 
  -21309   -21300   -21297   -21301   -21301   -21300   -21304   -21312 
  -21311   -21303   -21298   -21296   -21303   -21312   -21311   -21309 
  -21305   -21300   -21294   -21297   -21305   -21308   -21308   -21308 
  -21301   -21294   -21297   -21305   -21308   -21304   -21304   -21305 
  -21300   -21300   -21305   -21309   -21309   -21303   -21300   -21305 
  -21307   -21307   -21309   -21308   -21303   -21297   -21303   -21307 
  -21303   -21304   -21305   -21301   -21303   -21304   -21300   -21301 
  -21304   -21305   -21307   -21303   -21300   -21301   -21298   -21304 
  -21313   -21307   -21303   -21304   -21300   -21300   -21304   -21304 
  -21304   -21307   -21305   -21303   -21305   -21305   -21303   -21307 
  -21307   -21303   -21307   -21308   -21307   -21301   -21297   -21304 
  -21307   -21304   -21305   -21308   -21305   -21301   -21300   -21300 
  -21303   -21309   -21315   -21303   -21293   -21303   -21304   -21301 
  -21308   -21311   -21307   -21298   -21297   -21304   -21307   -21309 
  -21305   -21297   -21304   -21308   -21308   -21307   -21298   -21297 
  -21304   -21308   -21311   -21305   -21301   -21304   -21300   -21300 
  -21307   -21308   -21300   -21297   -21304   -21312   -21304   -21294 
  -21303   -21309   -21304   -21307   -21311   -21305   -21297   -21298 
  -21305   -21307   -21308   -21313   -21308   -21296   -21293   -21304 
  -21308   -21303   -21303   -21305   -21300   -21301   -21308   -21308 
  -21307   -21303   -21298   -21307   -21311   -21305   -21308   -21309 
  -21301   -21296   -21304   -21308   -21304   -21308   -21307   -21294 
  -21296   -21304   -21305   -21304   -21304   -21303   -21301   -21303 
  -21303   -21301   -21304   -21305   -21305   -21307   -21307   -21301 
  -21301   -21304   -21304   -21303   -21304   -21307   -21304   -21303 
  -21308   -21308   -21304   -21304   -21304   -21303   -21305   -21307 
  -21305   -21303   -21298   -21303   -21308   -21305   -21301   -21303 
  -21304   -21301   -21298   -21300   -21304   -21308   -21308   -21308 
  -21304   -21296   -21300   -21304   -21300   -21304   -21308   -21307 
  -21308   -21304   -21296   -21301   -21305   -21305   -21311   -21305 
  -21298   -21304   -21303   -21297   -21304   -21305   -21301   -21300 
  -21304   -21304   -21301   -21307   -21308   -21305   -21300   -21297 
  -21303   -21303   -21304   -21313   -21308   -21297   -21301   -21300 
  -21301   -21309   -21307   -21305   -21309   -21303   -21298   -21303 
  -21303   -21309   -21316   -21305   -21293   -21300   -21307   -21301 
  -21309   -21316   -21304   -21301   -21304   -21297   -21301   -21308 
  -21304   -21303   -21307   -21303   -21301   -21307   -21304   -21294 
  -21303   -21313   -21305   -21300   -21304   -21307   -21303   -21300 
  -21308   -21313   -21308   -21298   -21296   -21298   -21304   -21308 
  -21311   -21307   -21300   -21301   -21303   -21300   -21304   -21307 
  -21305   -21307   -21301   -21300   -21307   -21304   -21301   -21305 
  -21303   -21303   -21305   -21305   -21304   -21301   -21300   -21301 
  -21304   -21307   -21309   -21309   -21303   -21298   -21300   -21301 
  -21308   -21315   -21307   -21300   -21300   -21303   -21309   -21303 
  -21294   -21308   -21312   -21300   -21301   -21300   -21298   -21307 
  -21308   -21304   -21303   -21304   -21309   -21307   -21301   -21303 
  -21308   -21309   -21301   -21300   -21307   -21304   -21301   -21303 
  -21298   -21304   -21308   -21301   -21305   -21307   -21300   -21304 
  -21305   -21298   -21301   -21307   -21303   -21298   -21307   -21308 
  -21303   -21307   -21309   -21304   -21300   -21297   -21301   -21309 
  -21309   -21309   -21311   -21300   -21294   -21301   -21304   -21304 
  -21307   -21309   -21305   -21303   -21301   -21298   -21301   -21308 
  -21309   -21311   -21309   -21298   -21293   -21304   -21309   -21311 
  -21311   -21308   -21304   -21303   -21304   -21301   -21303   -21311 
  -21308   -21298   -21303   -21307   -21304   -21305   -21300   -21296 
  -21303   -21312   -21312   -21300   -21293   -21298   -21307   -21307 
  -21303   -21305   -21307   -21301   -21304   -21312   -21309   -21303 
  -21301   -21303   -21305   -21308   -21307   -21303   -21303   -21307 
  -21305   -21304   -21307   -21300   -21304   -21309   -21301   -21308 
  -21311   -21300   -21303   -21305   -21305   -21313   -21305   -21298 
  -21309   -21309   -21304   -21304   -21303   -21307   -21307   -21305 
  -21309   -21311   -21303   -21297   -21304   -21309   -21305   -21307 
  -21307   -21301   -21304   -21305   -21298   -21298   -21305   -21309 
  -21307   -21304   -21308   -21305   -21300   -21304   -21305   -21307 
  -21305   -21303   -21308   -21308   -21300   -21300   -21303   -21308 
  -21315   -21312   -21304   -21296   -21296   -21304   -21307   -21309 
  -21311   -21307   -21300   -21293   -21300   -21311   -21308   -21305 
  -21308   -21303   -21301   -21307   -21304   -21305   -21309   -21308 
  -21308   -21303   -21303   -21307   -21298   -21298   -21307   -21304 
  -21300   -21301   -21304   -21304   -21307   -21305   -21298   -21303 
  -21311   -21308   -21300   -21300   -21305   -21307   -21304   -21304 
  -21301   -21298   -21303   -21305   -21301   -21300   -21308   -21309 
  -21301   -21297   -21301   -21301   -21298   -21303   -21305   -21307 
  -21303   -21296   -21304   -21311   -21307   -21308   -21304   -21297 
  -21305   -21307   -21301   -21304   -21304   -21303   -21305   -21305 
  -21303   -21297   -21300   -21309   -21308   -21305   -21307   -21298 
  -21294   -21303   -21311   -21308   -21300   -21300   -21301   -21298 
  -21305   -21307   -21303   -21304   -21303   -21300   -21307   -21307 
  -21303   -21300   -21301   -21309   -21311   -21304   -21298   -21297 
  -21304   -21311   -21305   -21301   -21303   -21304   -21308   -21307 
  -21304   -21303   -21301   -21300   -21303   -21311   -21307   -21297 
  -21301   -21308   -21304   -21303   -21305   -21304   -21300   -21304 
  -21309   -21307   -21303   -21301   -21301   -21304   -21305   -21307 
  -21307   -21301   -21297   -21303   -21304   -21298   -21303   -21311 
  -21308   -21303   -21298   -21303   -21305   -21307   -21309   -21309 
  -21305   -21298   -21296   -21304   -21308   -21307   -21308   -21307 
  -21304   -21304   -21304   -21308   -21305   -21298   -21307   -21309 
  -21301   -21305   -21309   -21304   -21301   -21303   -21301   -21301 
  -21308   -21309   -21301   -21297   -21298   -21301   -21307   -21311 
  -21309   -21301   -21293   -21301   -21308   -21304   -21308   -21307 
  -21298   -21303   -21303   -21301   -21308   -21309   -21305   -21301 
  -21300   -21304   -21305   -21305   -21307   -21301   -21300   -21303 
  -21304   -21308   -21309   -21305   -21301   -21301   -21307   -21303 
  -21294   -21308   -21311   -21298   -21303   -21304   -21300   -21301 
  -21303   -21307   -21308   -21305   -21305   -21300   -21300   -21305 
  -21305   -21309   -21307   -21297   -21303   -21304   -21300   -21305 
  -21309   -21305   -21301   -21298   -21304   -21307   -21303   -21304 
  -21307   -21309   -21307   -21303   -21303   -21300   -21304   -21311 
  -21308   -21304   -21301   -21298   -21301   -21305   -21307   -21307 
  -21303   -21303   -21305   -21298   -21300   -21308   -21308   -21303 
  -21304   -21307   -21301   -21305   -21311   -21303   -21300   -21309 
  -21305   -21301   -21305   -21303   -21300   -21305   -21307   -21308 
  -21308   -21301   -21298   -21305   -21305   -21304   -21308   -21303 
  -21298   -21305   -21309   -21307   -21311   -21308   -21298   -21298 
  -21300   -21305   -21312   -21307   -21301   -21303   -21304   -21305 
  -21304   -21303   -21304   -21308   -21305   -21301   -21301   -21304 
  -21305   -21305   -21308   -21303   -21300   -21307   -21307   -21303 
  -21300   -21300   -21308   -21308   -21307   -21312   -21304   -21297 
  -21305   -21311   -21307   -21301   -21298   -21301   -21303   -21305 
  -21305   -21303   -21303   -21304   -21305   -21305   -21303   -21307 
  -21309   -21303   -21300   -21300   -21308   -21309   -21297   -21303 
  -21315   -21308   -21301   -21301   -21303   -21309   -21308   -21305 
  -21308   -21303   -21301   -21304   -21303   -21303   -21303   -21304 
  -21305   -21305   -21311   -21304   -21294   -21300   -21303   -21305 
  -21313   -21304   -21294   -21301   -21307   -21307   -21307   -21305 
  -21303   -21305   -21305   -21304   -21305   -21307   -21298   -21303 
  -21311   -21308   -21307   -21304   -21297   -21301   -21305   -21304 
  -21307   -21307   -21298   -21297   -21305   -21311   -21301   -21298 
  -21304   -21303   -21304   -21304   -21298   -21303   -21311   -21309 
  -21301   -21297   -21300   -21301   -21303   -21308   -21309   -21305 
  -21300   -21294   -21298   -21309   -21311   -21308   -21304   -21304 
  -21300   -21292   -21298   -21308   -21303   -21305   -21305   -21296 
  -21301   -21305   -21300   -21305   -21309   -21297   -21296   -21307 
  -21307   -21304   -21304   -21300   -21297   -21309   -21307   -21296 
  -21303   -21304   -21304   -21311   -21303   -21296   -21301   -21300 
  -21304   -21307   -21304   -21304   -21301   -21296   -21298   -21304 
  -21307   -21300   -21301   -21303   -21296   -21298   -21307   -21304 
  -21301   -21304   -21303   -21298   -21300   -21307   -21309   -21305 
  -21303   -21298   -21300   -21305   -21305   -21309   -21305   -21294 
  -21297   -21307   -21309   -21309   -21303   -21300   -21304   -21303 
  -21301   -21307   -21305   -21301   -21303   -21305   -21304   -21304 
  -21305   -21298   -21298   -21311   -21311   -21305   -21303   -21298 
  -21305   -21311   -21307   -21308   -21304   -21300   -21305   -21305 
  -21305   -21309   -21307   -21300   -21298   -21301   -21307   -21305 
  -21301   -21309   -21309   -21297   -21300   -21312   -21309   -21305 
  -21305   -21298   -21297   -21312   -21312   -21300   -21300   -21309 
  -21311   -21301   -21296   -21307   -21311   -21305   -21305   -21304 
  -21298   -21304   -21311   -21305   -21298   -21307   -21311   -21298 
  -21296   -21311   -21313   -21304   -21298   -21304   -21308   -21304 
  -21304   -21308   -21307   -21304   -21303   -21304   -21309   -21309 
  -21307   -21301   -21294   -21305   -21319   -21307   -21297   -21304 
  -21308   -21304   -21298   -21303   -21313   -21311   -21301   -21303 
  -21303   -21307   -21311   -21308   -21307   -21304   -21300   -21304 
  -21308   -21312   -21316   -21313   -21309   -21300   -21300   -21317 
  -21331   -21325   -21309   -21294   -21281   -21270   -21274   -21290 
  -21317   -21348   -21359   -21347   -21313   -21267   -21247   -21267 
  -21303   -21346   -21363   -21346   -21313   -21273   -21254   -21269 
  -21303   -21348   -21384   -21382   -21357   -21313   -21263   -21243 
  -21271   -21325   -21363   -21369   -21340   -21288   -21261   -21266 
  -21270   -21267   -21263   -21251   -21251   -21284   -21359   -21438 
  -21452   -21392   -21292   -21195   -21115   -21054   -21061   -21159 
  -21327   -21521   -21622   -21519   -21254   -21011   -20991   -21230 
  -21568   -21749   -21575   -21128   -20749   -20684   -20949   -21344 
  -21589   -21552   -21344   -21174   -21139   -21180   -21213   -21227 
  -21282   -21431   -21618   -21720   -21614   -21290   -20933   -20783 
  -20925   -21243   -21501   -21519   -21327   -21157   -21269   -21656 
  -21999   -21982   -21583   -21173   -21190   -21590   -21913   -21844 
  -21386   -20763   -20320   -20374   -21031   -21995   -22588   -22299 
  -21319   -20418   -20294   -20961   -21764   -22054   -21768   -21239 
  -20814   -20800   -21228   -21656   -21597   -20999   -20297   -20144 
  -20831   -21894   -22485   -22221   -21392   -20567   -20320   -20841 
  -21640   -22029   -21717   -21018   -20692   -21185   -21987   -22233 
  -21698   -20952   -20644   -20937   -21519   -21853   -21643   -21111 
  -20731   -20883   -21520   -22063   -21979   -21276   -20459   -20240 
  -20893   -21876   -22365   -21967   -21007   -20223   -20152   -20849 
  -21895   -22511   -22168   -21219   -20522   -20505   -20937   -21401 
  -21578   -21448   -21350   -21471   -21670   -21856   -21891   -21513 
  -20834   -20374   -20495   -21066   -21604   -21745   -21591   -21440 
  -21365   -21340   -21389   -21442   -21344   -21035   -20696   -20715 
  -21176   -21637   -21651   -21217   -20776   -20773   -21196   -21674 
  -21852   -21618   -21170   -20839   -20862   -21200   -21502   -21447 
  -21168   -21099   -21352   -21632   -21736   -21705   -21578   -21342 
  -21084   -21061   -21307   -21425   -21216   -20927   -20833   -21099 
  -21590   -21768   -21451   -21105   -21077   -21213   -21307   -21350 
  -21323   -21173   -21008   -20965   -21096   -21401   -21629   -21501 
  -21188   -21047   -21168   -21352   -21358   -21242   -21250   -21357 
  -21362   -21222   -21078   -21150   -21450   -21671   -21532   -21085 
  -20684   -20680   -21105   -21679   -22030   -21882   -21257   -20676 
  -20721   -21276   -21759   -21871   -21633   -21261   -21103   -21209 
  -21288   -21234   -21135   -21057   -21155   -21512   -21902   -22046 
  -21828   -21346   -20973   -20961   -21182   -21490   -21755   -21737 
  -21419   -21097   -21099   -21413   -21639   -21546   -21334   -21192 
  -21182   -21285   -21369   -21402   -21431   -21324   -21070   -21019 
  -21398   -21891   -21897   -21285   -20684   -20636   -21014   -21497 
  -21867   -21928   -21670   -21231   -20845   -20887   -21454   -22044 
  -22025   -21359   -20745   -20798   -21369   -21888   -21906   -21389 
  -20841   -20749   -21104   -21586   -21737   -21336   -20733   -20426 
  -20683   -21429   -22100   -22125   -21492   -20644   -20227   -20659 
  -21644   -22389   -22373   -21766   -21126   -20876   -21060   -21340 
  -21429   -21377   -21243   -21074   -21080   -21355   -21740   -21959 
  -21807   -21402   -21132   -21224   -21478   -21510   -21266   -21020 
  -20930   -20950   -21051   -21234   -21415   -21447   -21274   -21077 
  -21066   -21253   -21473   -21489   -21244   -20980   -20896   -20996 
  -21212   -21421   -21501   -21332   -20919   -20599   -20667   -21012 
  -21400   -21570   -21355   -21026   -20977   -21227   -21540   -21690 
  -21579   -21266   -20916   -20749   -20869   -21172   -21409   -21377 
  -21157   -21070   -21288   -21633   -21828   -21760   -21543   -21334 
  -21145   -20907   -20704   -20715   -20969   -21304   -21532   -21550 
  -21382   -21154   -21066   -21236   -21444   -21416   -21262   -21158 
  -21119   -21236   -21483   -21595   -21435   -21124   -20883   -20906 
  -21271   -21739   -21875   -21624   -21288   -21073   -21069   -21251 
  -21435   -21482   -21371   -21230   -21328   -21693   -21940   -21729 
  -21169   -20703   -20683   -21060   -21473   -21625   -21554   -21455 
  -21382   -21332   -21404   -21587   -21614   -21297   -20858   -20660 
  -20903   -21483   -21899   -21790   -21447   -21259   -21250   -21351 
  -21533   -21714   -21766   -21524   -21008   -20663   -20899   -21451 
  -21694   -21443   -21082   -21074   -21440   -21744   -21591   -21100 
  -20722   -20692   -20927   -21267   -21645   -21948   -21930   -21531 
  -21051   -20849   -20999   -21309   -21500   -21443   -21258   -21115 
  -21081   -21193   -21419   -21598   -21577   -21351   -21149   -21209 
  -21478   -21726   -21766   -21547   -21236   -21046   -21037   -21130 
  -21216   -21271   -21293   -21263   -21300   -21478   -21629   -21529 
  -21172   -20862   -20918   -21285   -21667   -21851   -21784   -21558 
  -21311   -21173   -21227   -21470   -21737   -21714   -21317   -20904 
  -20845   -21150   -21501   -21550   -21315   -21065   -20941   -21033 
  -21339   -21636   -21745   -21624   -21286   -20966   -20945   -21169 
  -21404   -21471   -21313   -21101   -21077   -21263   -21452   -21447 
  -21273   -21126   -21128   -21261   -21404   -21374   -21141   -20938 
  -20985   -21238   -21497   -21608   -21502   -21263   -21095   -21107 
  -21226   -21358   -21444   -21420   -21325   -21238   -21151   -21163 
  -21367   -21594   -21672   -21635   -21514   -21315   -21111   -20980 
  -20993   -21193   -21429   -21463   -21324   -21273   -21352   -21385 
  -21336   -21334   -21447   -21589   -21567   -21298   -20966   -20888 
  -21153   -21458   -21521   -21404   -21238   -21041   -20846   -20819 
  -21073   -21451   -21679   -21552   -21150   -20937   -21132   -21358 
  -21301   -21085   -20999   -21192   -21501   -21600   -21396   -21101 
  -20885   -20781   -20904   -21313   -21732   -21782   -21370   -20772 
  -20448   -20642   -21162   -21610   -21730   -21539   -21249   -21039 
  -21004   -21127   -21281   -21371   -21361   -21253   -21116   -21060 
  -21157   -21313   -21367   -21320   -21261   -21209   -21197   -21255 
  -21340   -21397   -21420   -21452   -21517   -21513   -21355   -21118 
  -20925   -20929   -21238   -21698   -21960   -21759   -21170   -20652 
  -20625   -21115   -21821   -22246   -22073   -21551   -21151   -21109 
  -21386   -21667   -21631   -21271   -20854   -20671   -20862   -21363 
  -21833   -21894   -21593   -21273   -21131   -21193   -21351   -21459 
  -21490   -21465   -21442   -21475   -21478   -21436   -21404   -21328 
  -21220   -21173   -21178   -21184   -21190   -21280   -21483   -21690 
  -21756   -21632   -21373   -21146   -21150   -21359   -21574   -21689 
