Origin Time       2024/04/02 04:24:00
Lat.              40.133
Long.             141.712
Depth. (km)       71
Mag.              6.0
Station Code      TKCH02
Station Lat.      43.3822
Station Long.     143.8983
Station Height(m) 328
Record Time       2024/04/02 04:26:17
Sampling Freq(Hz) 100Hz
Duration Time(s)  120
Dir.              5
Scale Factor      7845(gal)/8223790
Max. Acc. (gal)   1.068
Last Correction   2024/04/02 04:26:17
Memo.             
[...]
   32123    32077    32058    32059    32081    32096    32089    32092 
   32096    32070    32038    32019    31999    31996    32023    32067 
   32132    32202    32246    32236    32185    32142    32136    32154 
   32166    32154    32103    32028    31984    32011    32100    32189 
   32233    32232    32197    32167    32186    32219    32196    32111 
   32015    31970    32001    32062    32073    32009    31936    31941 
   32026    32105    32124    32085    32015    31935    31889    31919 
   32039    32202    32301    32271    32155    32051    32035    32090 
   32128    32094    32012    31935    31893    31887    31905    31938 
   31954    31961    31970    31992    32051    32144    32200    32182 
   32109    32028    32013    32093    32185    32205    32146    32039 
   31958    31977    32055    32094    32069    32012    31985    32049 
   32179    32279    32290    32240    32178    32131    32100    32071 
   32016    31950    31924    31955    32026    32090    32109    32097 
   32080    32071    32089    32130    32151    32135    32074    32001 
   31989    32035    32074    32086    32069    32035    32016    32016 
   32030    32053    32057    32020    31972    31935    31936    31990 
   32059    32098    32098    32085    32101    32146    32205    32266 
   32266    32166    32020    31909    31872    31911    32004    32086 
   32089    32051    32050    32094    32148    32189    32198    32161 
   32086    32035    32054    32097    32103    32069    32022    32003 
   32057    32161    32227    32212    32150    32115    32139    32193 
   32227    32200    32123    32062    32044    32027    31988    31966 
   31996    32063    32127    32142    32104    32081    32131    32217 
   32266    32242    32171    32112    32077    32034    31982    31962 
   31989    32058    32130    32138    32094    32076    32101    32138 
   32151    32130    32113    32134    32170    32185    32148    32062 
   31995    32013    32094    32151    32132    32049    31966    31949 
   31982    32011    32019    32032    32098    32212    32293    32282 
   32190    32094    32077    32127    32167    32136    32043    31965 
   31955    31984    32007    32000    31982    32008    32071    32109 
   32109    32094    32086    32086    32086    32077    32055    32043 
   32050    32069    32085    32096    32100    32096    32094    32117 
   32148    32144    32100    32039    32013    32061    32134    32171 
   32152    32080    31996    31950    31922    31896    31891    31915 
   31966    32016    32044    32085    32161    32223    32235    32193 
   32117    32049    32022    32051    32116    32159    32152    32121 
   32103    32117    32143    32120    32042    31985    32005    32069 
   32085    32024    31962    31965    32039    32136    32190    32188 
   32161    32117    32085    32111    32189    32258    32252    32159 
   32028    31934    31928    31990    32071    32151    32204    32185 
   32104    32012    31955    31961    32004    32027    32035    32062 
   32088    32097    32107    32121    32139    32163    32169    32135 
   32084    32044    32028    32034    32050    32058    32046    32036 
   32054    32098    32139    32146    32121    32094    32088    32104 
   32134    32167    32167    32104    31989    31884    31864    31950 
   32090    32162    32096    31990    31981    32066    32155    32157 
   32058    31949    31915    31968    32070    32155    32196    32231 
   32247    32192    32113    32098    32162    32250    32278    32211 
   32108    32063    32104    32166    32154    32055    31953    31920 
   31959    32026    32078    32105    32130    32146    32119    32067 
   32057    32081    32085    32066    32046    32035    32044    32089 
   32169    32244    32286    32277    32204    32096    31989    31901 
   31846    31833    31887    32008    32127    32165    32127    32096 
   32130    32192    32202    32148    32069    32043    32120    32193 
   32139    32008    31885    31788    31752    31795    31880    31996 
   32113    32174    32184    32186    32174    32134    32069    31985 
   31914    31900    31966    32098    32247    32329    32312    32224 
   32123    32081    32113    32167    32212    32228    32190    32132 
   32093    32051    32000    31958    31931    31938    31993    32084 
   32223    32370    32395    32274    32067    31830    31688    31745 
   31892    31986    32032    32094    32165    32166    32074    31959 
   31915    31988    32130    32242    32274    32227    32148    32074 
   32000    31950    31966    32026    32071    32109    32159    32182 
   32138    32049    31968    31904    31896    31982    32105    32167 
   32158    32111    32062    32073    32125    32113    32020    31938 
   31958    32108    32292    32370    32279    32090    31957    31955 
   32032    32109    32177    32220    32216    32182    32124    32049 
   32036    32121    32225    32265    32213    32094    31985    31985 
   32111    32246    32271    32175    32030    31935    31963    32073 
   32154    32139    32053    31988    31988    32011    32022    32024 
   32015    32019    32077    32192    32300    32310    32204    32070 
   32011    32051    32120    32123    32046    31980    31989    32034 
   32053    32050    32049    32049    32046    32036    32027    32035 
   32055    32070    32078    32090    32098    32101    32088    32059 
   32046    32054    32062    32081    32123    32169    32217    32259 
   32266    32215    32098    31963    31896    31924    32040    32192 
   32236    32111    31932    31851    31905    32032    32125    32138 
   32120    32124    32147    32161    32138    32082    32032    32004 
   31999    32034    32081    32078    32032    32007    32055    32171 
   32259    32216    32077    31985    32028    32155    32223    32139 
   31954    31814    31830    31990    32171    32238    32161    32044 
   32003    32054    32155    32233    32221    32132    32038    31992 
   32009    32065    32112    32101    32020    31938    31918    31934 
   31950    31999    32090    32150    32132    32082    32046    32028 
   32032    32039    32023    32022    32090    32182    32206    32152 
   32081    32050    32054    32049    32039    32089    32196    32259 
   32243    32179    32082    31966    31896    31899    31938    31996 
   32078    32148    32188    32220    32250    32238    32159    32051 
   31970    31934    31935    31982    32058    32112    32121    32109 
   32084    32027    31972    31997    32112    32209    32200    32117 
   32043    32024    32082    32144    32108    32038    32043    32109 
   32186    32250    32273    32256    32239    32220    32194    32181 
   32154    32074    31970    31888    31846    31887    32020    32148 
   32177    32127    32059    32046    32131    32254    32312    32285 
   32196    32082    31997    31990    32076    32196    32254    32205 
   32086    31985    31968    32034    32119    32178    32189    32136 
   32034    31919    31815    31762    31814    31943    32065    32128 
   32123    32065    32011    32016    32063    32098    32128    32185 
   32229    32194    32107    32050    32049    32074    32098    32078 
   31993    31926    31959    32047    32098    32080    32015    31972 
   32001    32088    32171    32217    32232    32221    32184    32112 
   32036    32017    32070    32134    32140    32078    31997    31968 
   32027    32131    32185    32159    32121    32121    32155    32193 
   32161    32040    31947    31957    32020    32061    32058    32078 
   32161    32244    32274    32233    32121    32007    31973    31972 
   31941    31908    31909    31918    31905    31891    31923    32028 
   32161    32254    32273    32216    32161    32194    32255    32238 
   32139    31996    31877    31897    32047    32158    32148    32086 
   32034    32019    32084    32161    32113    31965    31846    31834 
   31939    32120    32279    32341    32298    32186    32070    32035 
   32119    32277    32394    32391    32309    32223    32146    32069 
   31974    31869    31808    31787    31753    31743    31818    31972 
   32170    32346    32432    32447    32418    32337    32232    32144 
   32092    32082    32113    32177    32260    32321    32312    32227 
   32066    31850    31648    31542    31568    31687    31839    31974 
   32047    32035    31965    31934    32007    32125    32212    32248 
   32228    32185    32185    32208    32173    32088    32031    31996 
   31950    31958    32049    32143    32190    32169    32080    31988 
   31959    31965    31955    31945    31972    32063    32212    32378 
   32512    32570    32502    32287    32004    31762    31608    31563 
   31630    31797    32081    32425    32695    32809    32738    32508 
   32235    31995    31769    31608    31590    31706    31896    32086 
   32192    32158    32009    31827    31703    31692    31812    32024 
   32244    32394    32447    32433    32387    32289    32113    31908 
   31758    31745    31901    32105    32167    32044    31820    31587 
   31471    31575    31876    32267    32610    32746    32620    32375 
   32189    32097    32071    32057    31977    31847    31789    31895 
   32146    32432    32593    32544    32327    32047    31819    31719 
   31725    31718    31626    31504    31456    31563    31873    32317 
   32698    32899    32972    32980    32931    32827    32609    32223 
   31810    31550    31461    31471    31504    31509    31521    31579 
   31650    31753    31980    32332    32667    32806    32657    32337 
   32098    32065    32165    32292    32400    32510    32632    32670 
   32509    32177    31822    31592    31565    31737    31993    32158 
   32108    31835    31459    31185    31153    31359    31691    32023 
   32273    32435    32555    32675    32783    32780    32563    32185 
   31864    31772    31911    32167    32371    32385    32202    31895 
   31529    31195    31010    31052    31307    31672    32038    32356 
   32597    32717    32701    32574    32409    32321    32393    32529 
   32528    32341    32103    31966    31996    32131    32235    32221 
   32105    31961    31866    31872    31981    32134    32227    32200 
   32073    31928    31842    31826    31887    32003    32115    32220 
   32314    32329    32298    32344    32490    32641    32641    32382 
   31916    31423    31097    31012    31121    31396    31806    32266 
   32670    32902    32894    32670    32298    31911    31711    31796 
   32055    32298    32360    32229    32038    31896    31800    31758 
   31847    32109    32436    32626    32553    32281    31977    31761 
   31606    31422    31197    31037    31087    31388    31872    32420 
   32864    33061    33006    32768    32400    32026    31803    31779 
   31899    32093    32275    32360    32341    32248    32107    31972 
   31900    31905    31953    32007    32092    32251    32429    32508 
   32468    32389    32325    32279    32181    31936    31604    31395 
   31468    31795    32223    32571    32707    32587    32277    31943 
   31738    31720    31880    32152    32394    32482    32406    32254 
   32113    32038    32035    32090    32224    32441    32606    32516 
   32104    31513    31040    30962    31295    31773    32116    32250 
   32265    32274    32298    32236    32005    31695    31487    31506 
   31757    32140    32509    32748    32791    32638    32354    32020 
   31699    31449    31314    31333    31546    31928    32354    32705 
   32908    32894    32655    32313    32015    31855    31895    32089 
   32312    32470    32505    32382    32123    31807    31571    31557 
   31797    32175    32537    32786    32863    32742    32441    31999 
   31517    31203    31244    31611    32108    32498    32602    32405 
   32046    31714    31548    31560    31673    31830    31981    32119 
   32293    32467    32505    32358    32088    31820    31719    31854 
   32097    32260    32263    32167    32112    32181    32331    32482 
   32545    32432    32130    31757    31488    31414    31507    31681 
   31839    31908    31903    31868    31806    31746    31749    31841 
   32044    32358    32703    32942    32964    32778    32509    32271 
   32076    31881    31671    31480    31380    31442    31641    31885 
   32103    32243    32258    32104    31839    31626    31592    31785 
   32155    32532    32775    32854    32771    32545    32281    32097 
   32073    32188    32325    32347    32179    31847    31450    31116 
   30985    31106    31380    31704    32058    32433    32796    33034 
   33022    32784    32503    32351    32320    32301    32259    32247 
   32290    32333    32301    32192    32070    31969    31835    31595 
   31302    31128    31206    31498    31842    32104    32252    32341 
   32429    32525    32578    32518    32340    32135    31993    31915 
   31882    31907    31970    32055    32181    32269    32190    31959 
   31733    31648    31761    32013    32262    32391    32374    32255 
   32107    31989    31931    31914    31897    31905    32017    32248 
   32485    32562    32425    32185    32005    31977    32070    32179 
   32211    32130    31957    31780    31708    31810    32065    32343 
   32506    32524    32482    32493    32614    32772    32795    32556 
   32144    31803    31688    31793    32005    32167    32175    32049 
   31880    31722    31554    31341    31109    30964    31059    31471 
   32084    32641    32934    32895    32605    32232    31950    31851 
   31916    32058    32175    32208    32201    32213    32229    32238 
   32243    32189    32071    31957    31904    31932    31986    31957 
   31839    31735    31752    31924    32150    32239    32130    31959 
   31915    32084    32394    32614    32548    32243    31936    31811 
   31907    32161    32439    32605    32610    32506    32401    32359 
   32300    32090    31707    31272    30986    30979    31203    31549 
   31955    32355    32644    32724    32597    32379    32204    32136 
   32189    32319    32428    32441    32339    32134    31891    31731 
   31699    31708    31687    31668    31731    31893    32077    32155 
   32080    31968    31974    32092    32212    32256    32216    32111 
   31963    31793    31673    31687    31822    31976    32019    31915 
   31784    31789    31942    32120    32240    32305    32354    32425 
   32512    32586    32645    32684    32661    32502    32177    31745 
   31372    31236    31372    31653    31920    32107    32255    32427 
   32601    32679    32618    32467    32293    32104    31864    31567 
   31317    31294    31565    31972    32259    32346    32351    32425 
   32590    32725    32707    32562    32414    32313    32201    32017 
   31770    31565    31536    31675    31839    31920    31901    31828 
   31791    31819    31873    31947    32101    32360    32663    32864 
   32860    32678    32431    32206    32066    32043    32112    32224 
   32319    32312    32161    31935    31733    31598    31556    31637 
   31853    32139    32363    32433    32356    32197    32030    31887 
   31746    31614    31544    31596    31761    31945    32038    32035 
   32059    32205    32448    32684    32795    32761    32661    32574 
   32487    32356    32162    31959    31830    31791    31811    31847 
   31876    31923    32022    32140    32215    32217    32170    32117 
   32086    32080    32098    32150    32202    32213    32163    32070 
   31985    31945    31907    31831    31739    31714    31811    31986 
   32105    32077    31924    31749    31656    31661    31710    31781 
   31884    31981    32047    32097    32151    32270    32495    32764 
   32930    32884    32601    32166    31715    31357    31149    31114 
   31245    31521    31885    32196    32321    32305    32285    32329 
   32414    32459    32400    32275    32189    32162    32124    32053 
   32015    32062    32173    32269    32274    32185    32076    32005 
   32007    32105    32255    32360    32368    32265    32077    31896 
   31816    31846    31934    32013    32015    31950    31919    31978 
   32078    32132    32093    32003    31976    32089    32302    32497 
   32551    32427    32189    31958    31837    31846    31949    32089 
   32202    32250    32232    32155    32028    31888    31760    31662 
   31614    31618    31658    31729    31827    31961    32130    32293 
   32383    32378    32281    32120    31963    31866    31865    31993 
   32216    32394    32417    32286    32071    31855    31698    31619 
   31625    31715    31866    32008    32103    32154    32179    32196 
   32228    32290    32383    32498    32579    32576    32499    32397 
   32319    32312    32391    32494    32530    32452    32282    32090 
   31947    31868    31808    31718    31629    31607    31658    31746 
   31849    31955    32069    32194    32316    32401    32427    32385 
   32281    32154    32057    32026    32058    32116    32151    32148 
   32123    32086    32032    31959    31904    31901    31945    32000 
   32047    32077    32101    32157    32254    32373    32495    32587 
   32605    32533    32371    32134    31885    31719    31681    31779 
   31961    32135    32221    32200    32116    32039    32017    32063 
   32155    32270    32397    32487    32478    32352    32147    31955 
   31873    31930    32058    32158    32169    32100    31985    31860 
   31753    31675    31668    31799    32046    32290    32413    32375 
   32231    32096    32042    32051    32080    32096    32094    32108 
   32161    32250    32355    32432    32421    32305    32121    31919 
   31727    31561    31433    31356    31352    31452    31657    31911 
   32130    32238    32193    32020    31810    31684    31706    31845 
   32035    32212    32320    32352    32355    32373    32416    32487 
   32570    32598    32529    32378    32175    31970    31816    31726 
   31668    31631    31653    31761    31958    32193    32368    32420 
   32382    32325    32285    32254    32250    32309    32420    32518 
   32548    32502    32424    32347    32263    32136    31951    31745 
   31564    31441    31396    31433    31536    31653    31714    31695 
   31634    31579    31599    31730    31935    32152    32329    32421 
   32431    32398    32351    32289    32175    31984    31768    31635 
   31664    31841    32020    32070    32003    31897    31808    31762 
   31764    31815    31907    31997    32015    31953    31900    31942 
   32088    32269    32394    32424    32406    32401    32412    32404 
   32339    32202    32038    31926    31924    32036    32202    32316 
   32314    32217    32104    32035    32008    31978    31922    31855 
   31827    31866    31945    32028    32112    32167    32165    32125 
   32100    32112    32147    32196    32244    32262    32231    32139 
   31986    31837    31754    31742    31795    31861    31878    31892 
   31963    32061    32127    32143    32131    32144    32204    32252 
   32213    32066    31876    31770    31808    31920    32011    32050 
   32054    32069    32147    32290    32424    32514    32601    32682 
   32701    32624    32475    32292    32100    31931    31810    31752 
