Origin Time       2024/04/02 04:24:00
Lat.              40.133
Long.             141.712
Depth. (km)       71
Mag.              6.0
Station Code      TKCH10
Station Lat.      43.3337
Station Long.     142.9448
Station Height(m) 365
Record Time       2024/04/02 04:26:06
Sampling Freq(Hz) 100Hz
Duration Time(s)  120
Dir.              5
Scale Factor      3920(gal)/6170801
Max. Acc. (gal)   0.745
Last Correction   2024/04/02 04:25:51
Memo.             
[...]
   -4537    -4383    -4231    -4210    -4330    -4465    -4510    -4479 
   -4433    -4368    -4297    -4311    -4403    -4445    -4387    -4308 
   -4296    -4349    -4389    -4385    -4364    -4361    -4380    -4401 
   -4410    -4425    -4450    -4427    -4320    -4178    -4089    -4132 
   -4268    -4363    -4395    -4415    -4385    -4276    -4176    -4193 
   -4314    -4433    -4488    -4470    -4384    -4293    -4267    -4314 
   -4396    -4471    -4513    -4502    -4420    -4317    -4304    -4393 
   -4468    -4471    -4459    -4476    -4488    -4426    -4300    -4201 
   -4179    -4224    -4333    -4487    -4577    -4514    -4366    -4252 
   -4224    -4291    -4393    -4437    -4422    -4406    -4400    -4397 
   -4387    -4358    -4342    -4348    -4323    -4282    -4316    -4400 
   -4412    -4343    -4293    -4294    -4296    -4269    -4239    -4251 
   -4298    -4347    -4385    -4418    -4446    -4434    -4342    -4232 
   -4221    -4327    -4462    -4531    -4496    -4387    -4281    -4243 
   -4300    -4428    -4532    -4547    -4506    -4435    -4367    -4365 
   -4423    -4453    -4407    -4342    -4334    -4396    -4486    -4503 
   -4415    -4310    -4238    -4203    -4243    -4357    -4492    -4567 
   -4510    -4364    -4256    -4247    -4290    -4321    -4326    -4319 
   -4328    -4368    -4420    -4464    -4467    -4416    -4342    -4269 
   -4230    -4272    -4356    -4413    -4427    -4422    -4407    -4361 
   -4300    -4268    -4305    -4443    -4604    -4660    -4581    -4435 
   -4311    -4257    -4267    -4339    -4424    -4427    -4369    -4348 
   -4386    -4439    -4442    -4378    -4317    -4297    -4289    -4285 
   -4310    -4358    -4404    -4448    -4474    -4444    -4382    -4324 
   -4282    -4309    -4426    -4533    -4533    -4447    -4374    -4339 
   -4297    -4275    -4329    -4416    -4433    -4368    -4288    -4232 
   -4222    -4282    -4391    -4501    -4530    -4422    -4247    -4147 
   -4176    -4257    -4331    -4409    -4484    -4503    -4450    -4385 
   -4365    -4389    -4447    -4514    -4538    -4473    -4363    -4336 
   -4402    -4433    -4382    -4339    -4395    -4495    -4500    -4415 
   -4338    -4282    -4243    -4265    -4371    -4510    -4543    -4375 
   -4136    -4034    -4122    -4321    -4515    -4618    -4607    -4506 
   -4392    -4326    -4290    -4276    -4315    -4414    -4510    -4505 
   -4386    -4250    -4181    -4182    -4201    -4253    -4390    -4534 
   -4563    -4477    -4342    -4241    -4240    -4295    -4341    -4391 
   -4437    -4429    -4381    -4403    -4533    -4621    -4526    -4315 
   -4149    -4113    -4195    -4353    -4532    -4630    -4561    -4376 
   -4221    -4177    -4225    -4331    -4450    -4522    -4499    -4375 
   -4239    -4185    -4216    -4317    -4477    -4602    -4591    -4464 
   -4336    -4309    -4380    -4454    -4480    -4471    -4425    -4343 
   -4264    -4222    -4250    -4331    -4380    -4371    -4368    -4384 
   -4376    -4340    -4295    -4273    -4309    -4389    -4479    -4549 
   -4569    -4534    -4445    -4306    -4204    -4236    -4362    -4464 
   -4467    -4392    -4314    -4270    -4243    -4230    -4242    -4295 
   -4387    -4440    -4393    -4323    -4327    -4375    -4401    -4419 
   -4419    -4370    -4344    -4385    -4427    -4437    -4420    -4385 
   -4372    -4386    -4387    -4371    -4378    -4386    -4345    -4316 
   -4357    -4387    -4362    -4334    -4311    -4256    -4185    -4172 
   -4264    -4388    -4453    -4457    -4442    -4416    -4362    -4327 
   -4382    -4466    -4476    -4448    -4459    -4485    -4484    -4483 
   -4502    -4492    -4433    -4384    -4378    -4388    -4386    -4382 
   -4396    -4389    -4338    -4317    -4344    -4335    -4295    -4314 
   -4404    -4490    -4512    -4481    -4409    -4299    -4208    -4221 
   -4354    -4496    -4524    -4446    -4321    -4187    -4132    -4212 
   -4340    -4394    -4356    -4295    -4266    -4280    -4336    -4408 
   -4473    -4508    -4469    -4372    -4306    -4307    -4323    -4313 
   -4313    -4373    -4439    -4419    -4328    -4276    -4306    -4343 
   -4317    -4278    -4283    -4288    -4256    -4266    -4364    -4462 
   -4489    -4475    -4443    -4382    -4304    -4261    -4316    -4433 
   -4479    -4426    -4360    -4316    -4281    -4271    -4300    -4366 
   -4427    -4431    -4393    -4371    -4389    -4440    -4460    -4393 
   -4310    -4305    -4363    -4430    -4493    -4538    -4537    -4469 
   -4376    -4350    -4400    -4464    -4511    -4534    -4503    -4407 
   -4280    -4204    -4223    -4300    -4381    -4433    -4419    -4337 
   -4234    -4179    -4221    -4353    -4510    -4592    -4543    -4421 
   -4338    -4335    -4367    -4395    -4417    -4422    -4392    -4322 
   -4257    -4259    -4297    -4308    -4317    -4376    -4441    -4439 
   -4396    -4378    -4377    -4353    -4300    -4262    -4293    -4365 
   -4410    -4420    -4399    -4325    -4235    -4173    -4139    -4189 
   -4349    -4492    -4512    -4445    -4384    -4376    -4413    -4456 
   -4481    -4496    -4493    -4439    -4366    -4342    -4363    -4375 
   -4354    -4317    -4294    -4315    -4381    -4442    -4455    -4421 
   -4362    -4295    -4263    -4298    -4398    -4526    -4591    -4515 
   -4335    -4183    -4150    -4224    -4346    -4486    -4602    -4588 
   -4405    -4188    -4113    -4219    -4384    -4469    -4473    -4443 
   -4361    -4250    -4213    -4319    -4509    -4627    -4612    -4518 
   -4387    -4295    -4278    -4258    -4230    -4261    -4316    -4327 
   -4300    -4300    -4346    -4375    -4356    -4303    -4250    -4244 
   -4296    -4368    -4435    -4495    -4518    -4477    -4393    -4313 
   -4256    -4247    -4308    -4417    -4533    -4583    -4498    -4288 
   -4075    -4026    -4181    -4420    -4647    -4784    -4727    -4469 
   -4160    -4009    -4099    -4338    -4574    -4679    -4595    -4375 
   -4180    -4147    -4259    -4413    -4529    -4549    -4464    -4347 
   -4309    -4379    -4480    -4521    -4469    -4383    -4332    -4330 
   -4369    -4427    -4442    -4379    -4289    -4241    -4217    -4206 
   -4269    -4398    -4493    -4505    -4484    -4430    -4308    -4199 
   -4205    -4309    -4439    -4534    -4556    -4506    -4416    -4335 
   -4286    -4264    -4267    -4314    -4416    -4531    -4578    -4516 
   -4391    -4279    -4227    -4265    -4351    -4416    -4467    -4511 
   -4531    -4525    -4482    -4418    -4352    -4254    -4160    -4157 
   -4251    -4342    -4345    -4298    -4280    -4317    -4386    -4426 
   -4398    -4330    -4264    -4266    -4373    -4509    -4592    -4591 
   -4480    -4300    -4174    -4205    -4381    -4546    -4554    -4441 
   -4316    -4246    -4258    -4319    -4381    -4428    -4451    -4438 
   -4391    -4335    -4305    -4311    -4333    -4334    -4323    -4337 
   -4336    -4307    -4333    -4423    -4505    -4536    -4505    -4434 
   -4374    -4356    -4392    -4463    -4492    -4445    -4391    -4367 
   -4349    -4341    -4351    -4360    -4357    -4337    -4298    -4272 
   -4306    -4353    -4318    -4223    -4204    -4312    -4442    -4485 
   -4458    -4420    -4388    -4324    -4217    -4139    -4164    -4272 
   -4383    -4439    -4451    -4450    -4424    -4346    -4260    -4252 
   -4336    -4471    -4612    -4678    -4623    -4495    -4358    -4250 
   -4193    -4208    -4311    -4428    -4465    -4451    -4467    -4495 
   -4427    -4247    -4115    -4161    -4322    -4488    -4599    -4629 
   -4580    -4458    -4327    -4290    -4348    -4409    -4438    -4460 
   -4466    -4410    -4308    -4250    -4276    -4333    -4366    -4353 
   -4322    -4335    -4382    -4398    -4370    -4334    -4320    -4348 
   -4389    -4395    -4365    -4336    -4355    -4424    -4488    -4500 
   -4448    -4334    -4212    -4168    -4233    -4356    -4440    -4431 
   -4370    -4330    -4338    -4373    -4406    -4430    -4456    -4473 
   -4470    -4466    -4478    -4487    -4476    -4431    -4322    -4201 
   -4163    -4219    -4322    -4425    -4462    -4400    -4307    -4262 
   -4265    -4301    -4360    -4395    -4390    -4366    -4345    -4350 
   -4355    -4322    -4285    -4287    -4304    -4308    -4345    -4443 
   -4522    -4509    -4431    -4347    -4300    -4303    -4328    -4355 
   -4385    -4397    -4380    -4386    -4446    -4502    -4499    -4438 
   -4348    -4277    -4272    -4310    -4312    -4249    -4171    -4175 
   -4297    -4438    -4492    -4461    -4377    -4270    -4212    -4251 
   -4378    -4528    -4595    -4566    -4491    -4407    -4370    -4401 
   -4447    -4443    -4359    -4240    -4151    -4125    -4187    -4297 
   -4358    -4328    -4244    -4185    -4228    -4348    -4461    -4561 
   -4628    -4595    -4493    -4414    -4386    -4380    -4354    -4295 
   -4242    -4270    -4376    -4452    -4454    -4409    -4318    -4192 
   -4106    -4153    -4309    -4464    -4564    -4585    -4505    -4365 
   -4254    -4220    -4224    -4243    -4301    -4375    -4446    -4523 
   -4556    -4477    -4298    -4114    -4056    -4174    -4371    -4525 
   -4603    -4617    -4564    -4470    -4400    -4374    -4376    -4384 
   -4366    -4311    -4283    -4327    -4388    -4399    -4387    -4392 
   -4388    -4336    -4282    -4321    -4455    -4592    -4672    -4668 
   -4564    -4418    -4307    -4248    -4198    -4125    -4074    -4117 
   -4278    -4504    -4705    -4803    -4742    -4540    -4316    -4163 
   -4108    -4171    -4344    -4560    -4713    -4727    -4618    -4447 
   -4256    -4098    -4035    -4085    -4163    -4170    -4135    -4159 
   -4291    -4525    -4771    -4865    -4720    -4425    -4162    -4010 
   -3948    -4015    -4234    -4476    -4593    -4601    -4593    -4576 
   -4512    -4410    -4285    -4176    -4162    -4267    -4416    -4499 
   -4476    -4404    -4346    -4312    -4270    -4215    -4164    -4142 
   -4201    -4378    -4621    -4804    -4745    -4393    -3954    -3693 
   -3744    -4087    -4563    -4945    -5065    -4881    -4476    -4047 
   -3867    -4034    -4357    -4629    -4804    -4884    -4850    -4730 
   -4597    -4496    -4405    -4297    -4169    -4029    -3915    -3931 
   -4138    -4457    -4751    -4894    -4781    -4409    -3908    -3533 
   -3509    -3824    -4285    -4681    -4883    -4865    -4684    -4461 
   -4309    -4296    -4402    -4533    -4658    -4741    -4690    -4490 
   -4218    -4002    -3933    -3984    -4098    -4275    -4514    -4731 
   -4818    -4781    -4646    -4390    -4115    -4008    -4129    -4406 
   -4702    -4838    -4721    -4464    -4304    -4314    -4334    -4273 
   -4223    -4240    -4252    -4194    -4120    -4129    -4206    -4272 
   -4346    -4490    -4642    -4627    -4351    -3920    -3579    -3502 
   -3731    -4234    -4840    -5288    -5413    -5172    -4663    -4101 
   -3685    -3522    -3629    -3967    -4447    -4910    -5150    -5008 
   -4516    -3905    -3486    -3540    -4075    -4761    -5235    -5305 
   -4963    -4418    -3989    -3889    -4097    -4423    -4660    -4707 
   -4586    -4427    -4381    -4416    -4350    -4134    -3903    -3827 
   -3961    -4226    -4524    -4718    -4686    -4465    -4208    -4114 
   -4297    -4639    -4885    -4877    -4685    -4512    -4522    -4755 
   -5062    -5174    -4943    -4446    -3919    -3604    -3599    -3827 
   -4139    -4384    -4394    -4103    -3708    -3502    -3621    -4000 
   -4473    -4889    -5079    -4958    -4653    -4370    -4295    -4448 
   -4554    -4409    -4148    -4014    -4124    -4416    -4708    -4785 
   -4540    -4134    -3894    -4017    -4424    -4879    -5113    -4906 
   -4266    -3580    -3353    -3746    -4442    -4963    -5076    -4871 
   -4518    -4143    -3956    -4143    -4598    -5020    -5216    -5145 
   -4805    -4263    -3734    -3424    -3395    -3632    -4058    -4490 
   -4749    -4789    -4686    -4561    -4535    -4619    -4672    -4589 
   -4419    -4248    -4119    -4087    -4215    -4484    -4746    -4841 
   -4737    -4563    -4435    -4378    -4450    -4671    -4888    -4904 
   -4644    -4197    -3743    -3502    -3648    -4115    -4595    -4770 
   -4553    -4114    -3740    -3663    -3905    -4285    -4544    -4492 
   -4198    -3955    -4008    -4383    -4870    -5135    -4968    -4496 
   -4084    -3990    -4222    -4651    -5072    -5240    -5028    -4551 
   -4080    -3843    -3882    -4066    -4226    -4283    -4280    -4260 
   -4212    -4190    -4297    -4534    -4770    -4825    -4649    -4375 
   -4164    -4114    -4251    -4501    -4717    -4756    -4583    -4321 
   -4151    -4154    -4262    -4345    -4362    -4335    -4253    -4102 
   -3934    -3809    -3750    -3789    -3986    -4310    -4632    -4854 
   -4922    -4816    -4548    -4254    -4156    -4278    -4464    -4611 
   -4681    -4667    -4537    -4304    -4157    -4223    -4369    -4405 
   -4333    -4313    -4354    -4320    -4228    -4197    -4267    -4451 
   -4735    -5012    -5101    -4884    -4426    -3958    -3744    -3915 
   -4341    -4687    -4723    -4544    -4375    -4328    -4419    -4623 
   -4765    -4588    -4102    -3653    -3584    -3932    -4488    -5006 
   -5251    -5068    -4545    -3937    -3496    -3407    -3677    -4127 
   -4550    -4780    -4711    -4356    -3875    -3575    -3708    -4196 
   -4722    -5011    -4966    -4673    -4308    -4047    -4010    -4165 
   -4347    -4470    -4592    -4758    -4933    -5037    -4998    -4785 
   -4392    -3865    -3389    -3199    -3404    -3937    -4629    -5245 
   -5531    -5387    -4891    -4209    -3661    -3558    -3935    -4524 
   -4930    -4945    -4655    -4249    -3961    -3971    -4295    -4782 
   -5098    -4988    -4542    -4010    -3650    -3620    -3839    -4149 
   -4473    -4745    -4902    -4929    -4846    -4669    -4391    -4100 
   -4011    -4243    -4668    -4985    -4911    -4480    -4022    -3784 
   -3832    -4139    -4540    -4807    -4845    -4700    -4477    -4291 
   -4225    -4310    -4475    -4550    -4437    -4232    -4107    -4108 
   -4143    -4147    -4150    -4178    -4227    -4332    -4509    -4674 
   -4714    -4600    -4421    -4330    -4392    -4531    -4643    -4652 
   -4524    -4378    -4405    -4627    -4888    -5014    -4901    -4554 
   -4096    -3744    -3686    -3906    -4167    -4242    -4100    -3872 
   -3726    -3787    -4108    -4559    -4834    -4714    -4293    -3875 
   -3692    -3780    -4086    -4450    -4616    -4443    -4065    -3783 
   -3795    -4051    -4459    -4891    -5069    -4839    -4353    -3858 
   -3576    -3650    -4004    -4396    -4669    -4826    -4894    -4895 
   -4854    -4794    -4730    -4636    -4470    -4261    -4111    -4096 
   -4223    -4436    -4644    -4773    -4802    -4670    -4303    -3815 
   -3503    -3595    -4077    -4690    -5073    -5029    -4647    -4179 
   -3878    -3902    -4203    -4533    -4628    -4413    -4052    -3799 
   -3762    -3878    -4070    -4296    -4510    -4647    -4622    -4430 
   -4220    -4139    -4203    -4338    -4467    -4550    -4573    -4537 
   -4460    -4362    -4248    -4157    -4148    -4220    -4343    -4507 
   -4705    -4867    -4865    -4671    -4415    -4240    -4167    -4129 
   -4115    -4178    -4282    -4318    -4303    -4361    -4455    -4418 
   -4258    -4152    -4197    -4332    -4491    -4693    -4887    -4936 
   -4833    -4719    -4633    -4466    -4216    -4062    -4148    -4450 
   -4806    -4994    -4877    -4484    -4027    -3770    -3845    -4171 
   -4532    -4702    -4571    -4200    -3853    -3812    -4128    -4600 
   -4926    -4894    -4558    -4147    -3864    -3796    -3944    -4247 
   -4577    -4810    -4902    -4814    -4514    -4132    -3861    -3776 
   -3889    -4151    -4379    -4414    -4279    -4134    -4112    -4227 
   -4437    -4667    -4800    -4763    -4565    -4290    -4098    -4151 
   -4464    -4843    -5039    -4953    -4654    -4282    -4010    -4015 
   -4326    -4745    -5027    -5045    -4786    -4356    -3953    -3745 
   -3793    -4035    -4295    -4415    -4417    -4402    -4383    -4343 
   -4329    -4344    -4301    -4156    -3989    -3938    -4061    -4276 
   -4478    -4649    -4769    -4766    -4645    -4515    -4461    -4477 
   -4528    -4588    -4610    -4526    -4262    -3862    -3560    -3567 
   -3889    -4364    -4754    -4854    -4620    -4215    -3909    -3903 
   -4211    -4674    -5049    -5101    -4782    -4311    -3974    -3945 
   -4210    -4553    -4733    -4674    -4467    -4245    -4099    -4095 
   -4227    -4383    -4442    -4339    -4155    -4061    -4131    -4324 
   -4529    -4631    -4572    -4372    -4178    -4125    -4210    -4409 
   -4668    -4874    -4891    -4684    -4398    -4164    -4035    -4079 
   -4288    -4541    -4652    -4561    -4426    -4340    -4309    -4375 
   -4502    -4596    -4604    -4516    -4392    -4283    -4184    -4121 
   -4152    -4295    -4519    -4753    -4895    -4857    -4644    -4390 
   -4250    -4284    -4433    -4592    -4662    -4574    -4373    -4219 
   -4212    -4318    -4431    -4484    -4477    -4418    -4332    -4268 
   -4210    -4142    -4114    -4146    -4215    -4310    -4407    -4468 
   -4477    -4448    -4399    -4373    -4399    -4406    -4348    -4306 
   -4343    -4444    -4568    -4657    -4647    -4545    -4416    -4288 
   -4177    -4143    -4215    -4301    -4278    -4153    -4021    -3952 
   -3991    -4163    -4425    -4645    -4687    -4523    -4238    -3938 
   -3739    -3771    -4046    -4393    -4596    -4608    -4556    -4554 
   -4589    -4607    -4611    -4614    -4590    -4558    -4580    -4638 
   -4624    -4453    -4180    -3947    -3847    -3916    -4129    -4370 
   -4518    -4546    -4488    -4349    -4177    -4103    -4173    -4308 
   -4456    -4593    -4662    -4640    -4589    -4537    -4454    -4357 
   -4285    -4229    -4207    -4276    -4404    -4481    -4465    -4389 
   -4283    -4192    -4173    -4259    -4444    -4660    -4796    -4831 
   -4831    -4794    -4655    -4464    -4348    -4339    -4381    -4416 
   -4422    -4409    -4369    -4277    -4146    -4032    -3991    -4036 
   -4133    -4221    -4282    -4344    -4406    -4426    -4411    -4439 
   -4497    -4462    -4303    -4145    -4114    -4202    -4320    -4388 
   -4393    -4391    -4401    -4421    -4503    -4633    -4737    -4752 
   -4644    -4455    -4262    -4104    -4002    -3946    -3925    -3946 
   -3998    -4054    -4092    -4123    -4174    -4246    -4371    -4545 
   -4641    -4584    -4473    -4421    -4401    -4331    -4248    -4258 
   -4349    -4418    -4468    -4578    -4715    -4784    -4768    -4680 
   -4543    -4404    -4275    -4167    -4151    -4276    -4475    -4588 
   -4524    -4334    -4137    -4046    -4101    -4239    -4356    -4394 
   -4373    -4348    -4314    -4248    -4184    -4148    -4139    -4190 
   -4324    -4519    -4710    -4784    -4685    -4522    -4447    -4503 
   -4624    -4728    -4725    -4571    -4368    -4268    -4316    -4446 
   -4549    -4535    -4371    -4120    -3949    -3971    -4145    -4349 
   -4444    -4360    -4157    -3958    -3862    -3931    -4177    -4524 
   -4835    -4986    -4932    -4707    -4426    -4249    -4264    -4411 
   -4531    -4533    -4474    -4461    -4536    -4657    -4729    -4667 
   -4439    -4084    -3740    -3607    -3785    -4174    -4562    -4755 
