Origin Time       2024/04/02 04:24:00
Lat.              40.133
Long.             141.712
Depth. (km)       71
Mag.              6.0
Station Code      TKCH02
Station Lat.      43.3822
Station Long.     143.8983
Station Height(m) 225
Record Time       2024/04/02 04:26:17
Sampling Freq(Hz) 100Hz
Duration Time(s)  120
Dir.              2
Scale Factor      2942(gal)/8224139
Max. Acc. (gal)   0.334
Last Correction   2024/04/02 04:26:17
Memo.             
  251575   251619   251648   251648   251661   251691   251683   251627 
  251584   251577   251573   251560   251561   251587   251592   251556 
  251530   251529   251525   251527   251514   251457   251432   251505 
  251613   251668   251654   251617   251590   251567   251550   251522 
  251471   251453   251509   251598   251668   251667   251622   251637 
  251704   251731   251710   251681   251652   251621   251606   251581 
  251542   251527   251511   251452   251414   251475   251571   251575 
  251492   251426   251410   251392   251378   251414   251468   251480 
  251461   251455   251499   251568   251600   251604   251595   251527 
  251406   251334   251380   251452   251444   251407   251411   251428 
  251440   251465   251473   251437   251379   251334   251329   251384 
  251472   251507   251449   251370   251352   251406   251487   251525 
  251478   251405   251406   251475   251521   251538   251565   251603 
  251652   251695   251675   251596   251546   251540   251507   251461 
  251473   251515   251536   251544   251542   251527   251500   251496 
  251530   251537   251479   251424   251436   251495   251536   251553 
  251561   251525   251460   251428   251433   251464   251482   251433 
  251363   251348   251384   251418   251421   251414   251411   251413 
  251451   251514   251541   251544   251569   251573   251498   251399 
  251390   251463   251505   251464   251399   251368   251349   251341 
  251382   251455   251533   251604   251630   251607   251576   251564 
  251581   251602   251579   251511   251453   251449   251445   251429 
  251486   251619   251723   251729   251649   251545   251499   251532 
  251569   251564   251523   251465   251455   251529   251604   251615 
  251595   251592   251617   251660   251708   251727   251699   251664 
  251634   251592   251537   251499   251514   251553   251563   251554 
  251515   251426   251382   251445   251541   251594   251630   251672 
  251702   251708   251662   251564   251475   251434   251421   251410 
  251384   251363   251409   251487   251517   251540   251588   251621 
  251638   251658   251679   251700   251692   251645   251622   251650 
  251679   251646   251515   251355   251305   251387   251499   251564 
  251556   251502   251453   251442   251451   251433   251410   251413 
  251421   251449   251511   251571   251575   251511   251449   251444 
  251445   251429   251451   251491   251507   251521   251545   251548 
  251515   251476   251464   251472   251506   251564   251572   251498 
  251437   251424   251401   251365   251378   251409   251398   251410 
  251482   251527   251525   251510   251465   251425   251459   251526 
  251546   251532   251498   251469   251503   251588   251656   251638 
  251522   251405   251395   251487   251565   251552   251503   251503 
  251541   251564   251554   251523   251495   251502   251548   251590 
  251594   251581   251556   251496   251460   251523   251633   251660 
  251581   251519   251548   251610   251613   251549   251488   251482 
  251513   251537   251554   251583   251580   251496   251374   251310 
  251357   251436   251444   251426   251464   251527   251557   251537 
  251490   251428   251384   251417   251498   251525   251479   251459 
  251517   251584   251614   251622   251595   251567   251596   251619 
  251563   251494   251509   251580   251587   251510   251449   251463 
  251494   251484   251451   251432   251422   251397   251370   251376 
  251401   251442   251536   251654   251719   251688   251602   251563 
  251573   251550   251536   251580   251580   251511   251496   251561 
  251622   251652   251684   251692   251648   251576   251506   251476 
  251529   251595   251602   251572   251554   251568   251557   251492 
  251444   251452   251498   251586   251656   251656   251613   251527 
  251441   251434   251455   251438   251446   251475   251434   251384 
  251426   251491   251480   251406   251352   251394   251482   251538 
  251568   251577   251604   251689   251752   251685   251546   251469 
  251455   251425   251371   251316   251311   251387   251471   251475 
  251440   251461   251488   251428   251360   251403   251479   251475 
  251448   251469   251519   251583   251604   251542   251482   251507 
  251595   251654   251627   251561   251519   251536   251615   251692 
  251691   251600   251492   251480   251556   251607   251604   251545 
  251419   251351   251415   251502   251533   251496   251395   251349 
  251442   251532   251503   251440   251406   251384   251406   251456 
  251446   251428   251473   251518   251532   251567   251600   251586 
  251523   251451   251429   251452   251451   251440   251464   251484 
  251480   251496   251506   251457   251397   251384   251448   251563 
  251637   251607   251514   251440   251424   251442   251487   251560 
  251610   251579   251534   251559   251580   251511   251407   251364 
  251429   251561   251642   251657   251685   251730   251748   251737 
  251672   251554   251472   251456   251453   251461   251514   251588 
  251649   251684   251692   251699   251712   251699   251662   251627 
  251577   251506   251446   251452   251510   251536   251486   251446 
  251514   251610   251633   251621   251614   251591   251565   251545 
  251510   251484   251505   251506   251441   251397   251413   251430 
  251471   251527   251488   251401   251398   251486   251581   251592 
  251544   251544   251565   251540   251488   251484   251548   251600 
  251556   251441   251413   251532   251625   251588   251525   251515 
  251550   251594   251592   251525   251433   251391   251455   251553 
  251588   251556   251513   251487   251476   251476   251510   251579 
  251634   251642   251618   251577   251540   251506   251463   251429 
  251402   251361   251361   251449   251554   251581   251560   251581 
  251608   251560   251496   251475   251430   251352   251284   251278 
  251356   251428   251430   251414   251432   251521   251629   251621 
  251542   251509   251514   251552   251619   251634   251587   251565 
  251583   251564   251494   251433   251414   251434   251469   251476 
  251434   251372   251340   251388   251517   251614   251594   251530 
  251509   251464   251370   251305   251329   251433   251534   251571 
  251577   251568   251529   251479   251456   251484   251502   251441 
  251383   251411   251444   251417   251384   251405   251464   251529 
  251598   251645   251631   251635   251718   251766   251692   251565 
  251471   251425   251451   251518   251538   251488   251386   251303 
  251353   251461   251472   251441   251486   251561   251596   251625 
  251644   251599   251533   251540   251591   251602   251573   251545 
  251530   251554   251590   251588   251607   251660   251623   251483 
  251417   251488   251572   251615   251654   251657   251611   251576 
  251541   251476   251480   251629   251762   251719   251604   251565 
  251623   251706   251684   251556   251471   251468   251494   251554 
  251607   251583   251534   251518   251505   251455   251378   251336 
  251368   251426   251467   251465   251414   251406   251464   251496 
  251500   251534   251592   251637   251619   251568   251580   251611 
  251568   251514   251513   251488   251424   251384   251375   251391 
  251440   251472   251469   251473   251463   251432   251438   251468 
  251467   251496   251561   251557   251517   251537   251573   251587 
  251584   251534   251467   251460   251468   251448   251487   251557 
  251553   251561   251631   251622   251533   251500   251538   251619 
  251692   251658   251518   251376   251330   251383   251448   251479 
  251509   251559   251604   251613   251579   251513   251434   251403 
  251426   251424   251368   251326   251357   251429   251511   251619 
  251700   251696   251664   251627   251533   251424   251368   251321 
  251295   251403   251590   251641   251517   251397   251378   251390 
  251387   251410   251461   251506   251521   251542   251608   251661 
  251626   251540   251486   251483   251500   251561   251688   251814 
  251838   251783   251742   251685   251537   251367   251297   251371 
  251500   251500   251395   251403   251519   251633   251775   251915 
  251889   251679   251482   251445   251510   251577   251656   251738 
  251785   251811   251829   251799   251684   251514   251384   251336 
  251334   251349   251359   251376   251428   251457   251405   251317 
  251293   251334   251367   251380   251368   251349   251415   251530 
  251583   251572   251496   251399   251403   251472   251498   251519 
  251588   251615   251541   251456   251415   251390   251361   251309 
  251257   251332   251548   251762   251888   251905   251842   251760 
  251619   251376   251151   251062   251127   251325   251576   251823 
  252053   252198   252188   252035   251803   251577   251403   251276 
  251189   251172   251251   251352   251414   251469   251523   251560 
  251595   251580   251449   251325   251345   251428   251502   251618 
  251750   251788   251652   251406   251185   251023   250932   250942 
  250993   251054   251217   251491   251710   251772   251797   251851 
  251796   251594   251411   251330   251293   251255   251217   251230 
  251352   251536   251685   251754   251734   251695   251737   251788 
  251695   251480   251263   251110   251050   251068   251144   251293 
  251495   251685   251829   251934   252026   252066   252036   251954 
  251808   251637   251513   251409   251299   251301   251463   251588 
  251483   251224   251040   251041   251172   251332   251467   251565 
  251592   251519   251457   251527   251688   251829   251870   251807 
  251757   251777   251726   251534   251380   251409   251567   251773 
  251977   252113   252124   251954   251606   251225   250960   250851 
  250904   251064   251190   251243   251310   251395   251453   251550 
  251722   251857   251860   251696   251421   251249   251264   251298 
  251314   251391   251459   251490   251587   251710   251696   251496 
  251225   251060   251052   251106   251244   251530   251839   252007 
  251965   251791   251617   251401   251105   250948   251085   251367 
  251583   251653   251630   251630   251708   251781   251756   251684 
  251676   251773   251899   251903   251723   251503   251398   251370 
  251309   251244   251282   251429   251584   251708   251841   251969 
  251988   251815   251525   251336   251383   251561   251653   251626 
  251583   251533   251460   251391   251352   251372   251457   251594 
  251718   251742   251654   251521   251418   251347   251283   251305 
  251460   251645   251761   251807   251775   251694   251637   251625 
  251600   251533   251479   251511   251519   251286   250884   250618 
  250582   250643   250780   251087   251482   251750   251885   252000 
  252088   252028   251807   251586   251478   251397   251239   251078 
  251062   251191   251338   251432   251486   251514   251505   251461 
  251461   251614   251903   252143   252223   252174   252020   251775 
  251464   251155   251028   251148   251306   251355   251414   251586 
  251750   251800   251797   251818   251816   251762   251683   251669 
  251820   252053   252155   252070   251924   251837   251829   251837 
  251787   251681   251560   251409   251168   250905   250825   250994 
  251220   251353   251456   251598   251668   251509   251163   250871 
  250820   251013   251338   251662   251869   251904   251800   251677 
  251634   251634   251561   251403   251251   251081   250863   250758 
  250902   251208   251523   251765   251889   251883   251787   251660 
  251506   251349   251282   251357   251557   251787   251884   251757 
  251532   251425   251480   251586   251631   251596   251527   251518 
  251661   251904   252043   252016   251961   251961   251999   252004 
  251908   251802   251808   251833   251721   251488   251251   251068 
  250958   250924   250913   250915   251023   251251   251465   251571 
  251563   251496   251465   251494   251552   251668   251811   251851 
  251716   251437   251214   251279   251510   251600   251537   251536 
  251664   251773   251692   251387   251020   250832   250858   250905 
  250863   250848   250994   251241   251437   251580   251752   251903 
  251935   251887   251864   251931   252057   252058   251762   251280 
  250920   250788   250751   250769   250905   251145   251384   251552 
  251645   251691   251702   251671   251630   251669   251845   252018 
  251943   251640   251388   251361   251442   251438   251316   251168 
  251054   251006   251039   251109   251225   251424   251611   251613 
  251434   251318   251425   251671   251937   252173   252323   252329 
  252235   252170   252196   252211   252116   251942   251718   251437 
  251181   251009   250830   250654   250609   250672   250781   250966 
  251225   251540   251893   252208   252378   252358   252211   252049 
  251895   251729   251549   251371   251229   251186   251284   251422 
  251424   251272   251098   250974   250936   251046   251271   251499 
  251684   251826   251911   251923   251847   251704   251557   251476 
  251467   251446   251402   251388   251406   251379   251260   251124 
  251104   251221   251398   251600   251796   251850   251721   251621 
  251729   251915   252024   252054   252018   251893   251761   251793 
  252031   252286   252347   252144   251769   251440   251286   251247 
  251203   251090   250966   250955   251047   251163   251313   251428 
  251388   251239   251156   251302   251687   252094   252246   252107 
  251881   251749   251712   251677   251576   251417   251283   251245 
  251259   251247   251233   251299   251472   251635   251630   251482 
  251363   251374   251475   251561   251530   251355   251145   251083 
  251232   251430   251426   251198   251013   251031   251166   251365 
  251569   251688   251800   251950   251993   251872   251738   251775 
  251993   252175   252126   251883   251587   251299   251019   250796 
  250781   251005   251249   251347   251387   251459   251541   251595 
  251563   251432   251332   251402   251592   251721   251707   251642 
  251650   251741   251796   251731   251621   251514   251371   251216 
  251137   251163   251249   251343   251465   251642   251802   251843 
  251770   251673   251592   251479   251287   251086   251028   251133 
  251252   251289   251272   251264   251289   251279   251212   251170 
  251214   251340   251483   251544   251548   251613   251756   251889 
  251915   251795   251623   251476   251344   251272   251316   251384 
  251425   251537   251745   251907   251907   251802   251700   251608 
  251500   251365   251164   250927   250801   250908   251210   251548 
  251772   251820   251776   251752   251765   251799   251815   251754 
  251712   251834   252009   252013   251818   251559   251379   251330 
  251318   251252   251189   251176   251151   251156   251310   251567 
  251818   252027   252146   252157   252105   252009   251919   251874 
  251791   251694   251752   251915   251919   251685   251398   251235 
  251201   251236   251318   251441   251613   251765   251779   251685 
  251596   251494   251368   251290   251243   251182   251147   251193 
  251324   251472   251556   251583   251590   251613   251698   251787 
  251773   251712   251734   251795   251791   251737   251688   251649 
  251603   251542   251464   251399   251392   251432   251509   251625 
  251719   251685   251503   251282   251128   251102   251249   251534 
  251830   252013   252001   251854   251761   251773   251754   251660 
  251575   251527   251473   251378   251259   251197   251225   251291 
  251359   251401   251352   251220   251086   251002   251002   251145 
  251382   251567   251681   251791   251851   251804   251653   251461 
  251328   251256   251160   251054   251010   251024   251085   251222 
  251418   251572   251594   251527   251459   251411   251410   251503 
  251671   251775   251689   251479   251302   251237   251294   251456 
  251642   251729   251653   251464   251295   251310   251538   251804 
  251910   251826   251696   251630   251575   251475   251343   251205 
  251133   251201   251367   251519   251613   251676   251738   251818 
  251910   251942   251843   251638   251434   251357   251405   251482 
  251545   251600   251631   251591   251478   251378   251380   251469 
  251569   251629   251644   251630   251563   251434   251287   251162 
  251085   251077   251160   251274   251275   251168   251110   251178 
  251309   251425   251510   251615   251758   251865   251850   251721 
  251557   251415   251318   251263   251210   251122   251063   251085 
  251100   251091   251181   251365   251523   251596   251595   251592 
  251694   251870   252004   252097   252215   252286   252190   251970 
  251796   251727   251662   251567   251513   251507   251486   251426 
  251397   251451   251500   251487   251482   251536   251634   251734 
  251765   251692   251560   251475   251525   251637   251698   251748 
  251812   251796   251688   251596   251563   251549   251542   251513 
  251419   251301   251216   251194   251271   251438   251590   251683 
  251793   251912   251970   251985   251989   251950   251845   251719 
  251611   251515   251472   251536   251683   251824   251881   251835 
  251706   251550   251472   251509   251621   251776   251919   251966 
  251873   251725   251673   251745   251810   251781   251716   251706 
  251706   251617   251469   251334   251222   251171   251232   251352 
  251437   251445   251401   251338   251313   251394   251544   251634 
  251613   251529   251452   251442   251483   251530   251617   251753 
  251837   251766   251546   251314   251230   251247   251198   251101 
  251063   251067   251075   251093   251128   251195   251272   251303 
  251249   251127   251013   251012   251140   251322   251500   251669 
  251812   251887   251842   251671   251491   251445   251544   251675 
  251737   251699   251591   251479   251405   251355   251291   251206 
  251159   251181   251229   251322   251472   251617   251745   251876 
  251957   251969   251984   252076   252251   252386   252358   252239 
  252150   252057   251893   251661   251403   251187   251077   251087 
  251193   251303   251326   251259   251147   251025   250931   250892 
  250905   250932   250965   251046   251145   251189   251197   251233 
  251290   251321   251286   251201   251149   251159   251158   251116 
  251075   251090   251162   251236   251274   251283   251268   251237 
  251206   251168   251132   251156   251245   251324   251356   251395 
  251468   251502   251479   251488   251537   251519   251417   251322 
  251322   251405   251500   251588   251672   251716   251702   251669 
  251677   251725   251758   251766   251764   251739   251735   251780 
  251784   251692   251573   251488   251448   251484   251613   251745 
  251779   251715   251630   251577   251526   251413   251248   251085 
  250978   250943   250947   250979   251066   251199   251337   251421 
  251457   251506   251565   251595   251561   251445   251326   251297 
  251333   251367   251349   251287   251282   251374   251487   251577 
  251667   251787   251910   251988   252026   252045   252013   251896 
