Origin Time       2024/04/02 04:24:00
Lat.              40.133
Long.             141.712
Depth. (km)       71
Mag.              6.0
Station Code      TKCH01
Station Lat.      43.4683
Station Long.     143.6830
Station Height(m) 251
Record Time       2024/04/02 04:25:35
Sampling Freq(Hz) 100Hz
Duration Time(s)  127
Dir.              5
Scale Factor      7845(gal)/8223790
Max. Acc. (gal)   1.685
Last Correction   2024/04/02 04:25:36
Memo.             
[...]
   14844    14856    14871    14866    14856    14862    14875    14874 
   14854    14825    14833    14883    14910    14897    14897    14922 
   14916    14859    14796    14742    14702    14704    14748    14802 
   14852    14916    14974    14986    14953    14898    14833    14801 
   14837    14895    14905    14860    14802    14755    14732    14767 
   14882    15006    15049    15006    14940    14916    14921    14897 
   14855    14828    14782    14715    14710    14813    14972    15107 
   15152    15097    14991    14901    14851    14850    14898    14964 
   15003    14989    14937    14899    14913    14958    14968    14895 
   14770    14705    14758    14860    14952    15045    15130    15178 
   15171    15121    15075    15070    15066    15010    14905    14806 
   14777    14828    14906    14941    14899    14813    14748    14740 
   14766    14793    14818    14839    14839    14840    14878    14945 
   14998    15003    14985    14980    14987    14976    14936    14885 
   14875    14922    14955    14902    14797    14756    14821    14908 
   14922    14850    14752    14705    14729    14796    14863    14899 
   14904    14889    14845    14769    14713    14754    14863    14940 
   14943    14916    14901    14893    14879    14885    14932    14995 
   15025    14986    14883    14773    14705    14671    14625    14562 
   14542    14629    14798    14933    14980    14967    14917    14877 
   14914    14997    14994    14864    14724    14678    14736    14866 
   15002    15056    15006    14932    14931    15002    15026    14913 
   14731    14638    14686    14809    14931    14990    14967    14914 
   14901    14929    14980    15025    15022    14956    14858    14775 
   14736    14743    14770    14808    14872    14949    14983    14951 
   14890    14844    14847    14885    14914    14922    14918    14904 
   14875    14825    14769    14759    14791    14817    14854    14939 
   15041    15098    15067    14939    14791    14729    14760    14808 
   14832    14844    14843    14850    14879    14895    14879    14864 
   14867    14901    14986    15075    15075    14997    14906    14816 
   14720    14667    14717    14852    14971    14994    14933    14845 
   14782    14794    14895    15016    15056    14974    14851    14797 
   14813    14844    14856    14845    14856    14935    15033    15075 
   15066    15047    15024    14971    14871    14758    14685    14675 
   14720    14796    14868    14932    14993    15028    15024    15034 
   15087    15120    15079    14999    14932    14883    14823    14750 
   14717    14752    14816    14879    14958    15045    15090    15067 
   15006    14931    14852    14782    14720    14685    14713    14805 
   14931    15030    15055    15014    14974    14948    14898    14835 
   14806    14808    14802    14782    14773    14774    14737    14661 
   14620    14713    14939    15160    15260    15233    15149    15080 
   15045    15033    15006    14914    14783    14689    14661    14686 
   14743    14785    14789    14783    14800    14820    14812    14773 
   14731    14705    14700    14744    14863    15012    15082    15028 
   14937    14926    15005    15088    15105    15051    14962    14883 
   14848    14874    14925    14929    14864    14793    14764    14770 
   14783    14782    14767    14770    14812    14862    14886    14864 
   14813    14770    14764    14813    14894    14955    14964    14917 
   14829    14775    14827    14932    14987    14980    14974    14994 
   14999    14970    14939    14926    14898    14831    14748    14720 
   14794    14936    15036    15016    14901    14766    14669    14655 
   14724    14804    14850    14866    14879    14889    14870    14829 
   14805    14828    14897    14962    14943    14848    14770    14781 
   14860    14924    14906    14831    14778    14808    14905    15007 
   15047    15003    14932    14897    14895    14898    14904    14910 
   14895    14844    14785    14755    14755    14785    14871    15014 
   15157    15256    15263    15140    14937    14774    14700    14678 
   14681    14721    14816    14905    14925    14883    14832    14835 
   14935    15064    15087    14975    14844    14810    14864    14928 
   14959    14982    15020    15047    15021    14971    14944    14926 
   14898    14875    14883    14906    14897    14841    14791    14801 
   14867    14939    14951    14868    14760    14735    14813    14916 
   14964    14956    14933    14897    14816    14740    14736    14770 
   14804    14860    14948    15021    15020    14945    14847    14785 
   14800    14889    14987    15003    14902    14770    14746    14855 
   14976    14994    14906    14791    14740    14783    14859    14897 
   14909    14945    14994    15007    14983    14936    14855    14754 
   14704    14754    14862    14939    14939    14864    14758    14706 
   14770    14912    15029    15057    15043    15059    15071    14993 
   14858    14756    14727    14763    14839    14914    14974    15017 
   15028    15002    14970    14948    14904    14818    14774    14812 
   14851    14828    14791    14806    14882    14958    14929    14804 
   14712    14742    14835    14864    14785    14673    14627    14685 
   14802    14891    14906    14874    14839    14836    14893    14976 
   15010    14952    14839    14742    14715    14779    14883    14933 
   14925    14928    14955    14945    14870    14781    14748    14782 
   14821    14812    14775    14787    14897    15053    15145    15155 
   15132    15103    15080    15078    15068    14998    14850    14685 
   14594    14646    14808    14966    15036    15005    14905    14802 
   14764    14773    14786    14831    14918    14993    15013    14979 
   14906    14847    14850    14925    15053    15152    15121    14982 
   14833    14779    14848    14933    14932    14904    14924    14964 
   14976    14949    14905    14872    14863    14862    14845    14817 
   14812    14867    14956    15005    14982    14932    14886    14837 
   14786    14764    14777    14806    14859    14922    14932    14886 
   14879    14939    14959    14906    14868    14881    14899    14933 
   15012    15106    15156    15118    14991    14818    14694    14671 
   14727    14794    14829    14823    14797    14759    14709    14697 
   14770    14898    15010    15063    15045    14964    14872    14835 
   14848    14848    14845    14901    14979    14998    14941    14858 
   14816    14827    14843    14843    14845    14840    14797    14717 
   14636    14592    14624    14724    14836    14898    14891    14860 
   14845    14864    14913    14958    14928    14790    14621    14546 
   14628    14805    14951    15017    15036    15029    15002    14983 
   14989    15002    15006    14986    14944    14886    14836    14836 
   14867    14858    14804    14766    14787    14863    14944    14976 
   14937    14855    14806    14835    14916    14998    15041    15001 
   14882    14777    14794    14955    15145    15218    15140    14999 
   14899    14881    14917    14951    14933    14860    14779    14739 
   14740    14755    14783    14860    14972    15022    14959    14831 
   14717    14673    14701    14778    14862    14894    14839    14763 
   14786    14909    15016    15043    15013    14974    14964    14975 
   14976    14959    14921    14875    14843    14839    14856    14862 
   14863    14883    14891    14877    14870    14886    14906    14920 
   14920    14904    14897    14912    14925    14935    14947    14943 
   14881    14766    14686    14715    14821    14941    15047    15125 
   15144    15068    14910    14760    14719    14787    14897    14956 
   14902    14785    14719    14747    14829    14890    14890    14878 
   14890    14905    14912    14899    14843    14762    14702    14701 
   14756    14828    14893    14963    15036    15083    15049    14939 
   14850    14843    14864    14870    14902    14998    15091    15071 
   14931    14785    14704    14669    14675    14758    14899    15020 
   15082    15107    15071    14953    14844    14839    14914    14972 
   14958    14922    14898    14844    14773    14750    14760    14750 
   14709    14673    14705    14839    15017    15137    15140    15029 
   14852    14700    14655    14727    14847    14933    14932    14862 
   14806    14791    14752    14689    14708    14859    15034    15086 
   14974    14809    14723    14739    14828    14951    15028    15016 
   14939    14867    14874    14958    15022    14991    14885    14777 
   14720    14715    14740    14771    14756    14713    14742    14863 
   14983    15021    14991    14972    15012    15048    15005    14912 
   14835    14778    14735    14733    14783    14875    14974    15021 
   15001    14948    14910    14929    15001    15071    15080    15006 
   14899    14828    14825    14860    14860    14794    14732    14771 
   14897    14971    14913    14806    14774    14814    14872    14904 
   14893    14895    14982    15105    15151    15099    15022    14953 
   14887    14832    14798    14778    14764    14760    14756    14748 
   14737    14739    14793    14899    14972    14940    14858    14821 
   14872    14971    15001    14860    14625    14505    14602    14814 
   14991    15082    15113    15114    15091    15016    14864    14704 
   14634    14681    14810    14972    15094    15101    14997    14858 
   14781    14832    14978    15060    14976    14821    14752    14794 
   14845    14825    14763    14728    14762    14883    15052    15156 
   15107    14960    14851    14863    14956    15033    15044    15022 
   15010    14998    14964    14910    14852    14825    14866    14943 
   14985    14962    14925    14918    14913    14878    14828    14759 
   14669    14607    14647    14808    15017    15165    15202    15167 
   15113    15075    15056    15016    14918    14786    14713    14763 
   14881    14945    14893    14746    14624    14638    14747    14848 
   14891    14863    14778    14685    14631    14634    14693    14808 
   14991    15186    15265    15152    14924    14721    14631    14658 
   14736    14775    14744    14694    14692    14773    14924    15082 
   15168    15141    14997    14804    14704    14783    14955    15066 
   15072    15006    14914    14839    14801    14783    14766    14750 
   14759    14817    14904    14959    14941    14872    14823    14828 
   14824    14751    14683    14723    14889    15124    15314    15350 
   15228    15034    14870    14763    14702    14715    14817    14958 
   15043    14998    14875    14816    14867    14941    14990    15044 
   15118    15147    15025    14751    14474    14347    14399    14586 
   14839    15049    15126    15078    14995    14943    14929    14924 
   14913    14898    14883    14901    14976    15078    15163    15184 
   15056    14769    14472    14355    14492    14777    15007    15048 
   14913    14729    14642    14678    14766    14871    15010    15142 
   15187    15091    14862    14585    14393    14399    14627    14989 
   15299    15395    15260    15012    14763    14578    14501    14538 
   14624    14669    14659    14665    14760    14993    15321    15574 
   15568    15249    14746    14330    14265    14551    14893    15014 
   14949    14916    14990    15075    15086    15056    15078    15180 
   15257    15140    14778    14311    13959    13905    14188    14694 
   15242    15693    15928    15831    15423    14928    14570    14423 
   14455    14609    14801    14936    14952    14836    14631    14453 
   14449    14671    15018    15257    15210    14929    14705    14790 
   15130    15464    15608    15553    15384    15179    14949    14677 
   14404    14226    14142    14096    14158    14461    14971    15484 
   15765    15680    15280    14783    14426    14308    14385    14567 
   14808    15128    15538    15923    16077    15866    15345    14683 
   14088    13791    13894    14268    14702    15067    15282    15260 
   15025    14779    14724    14870    15111    15369    15610    15755 
   15628    15121    14405    13867    13799    14175    14685    15036 
   15156    15147    15063    14839    14472    14127    13967    14041 
   14330    14771    15238    15529    15484    15215    15020    15045 
   15194    15310    15295    15167    15005    14820    14540    14173 
   13923    14071    14631    15272    15700    15894    15890    15603 
   15007    14299    13783    13693    14056    14692    15330    15754 
   15823    15488    14874    14249    13851    13761    13917    14197 
   14558    15048    15642    16146    16263    15809    14997    14361 
   14278    14662    15176    15561    15684    15464    14929    14319 
   13967    14017    14343    14759    15161    15450    15503    15290 
   14956    14727    14705    14797    14862    14848    14796    14789 
   14881    15002    14990    14756    14397    14122    14110    14408 
   14910    15426    15741    15704    15327    14843    14573    14609 
   14727    14685    14504    14382    14443    14604    14783    15097 
   15653    16274    16605    16407    15754    14937    14204    13679 
   13487    13697    14195    14735    15074    15165    15164    15153 
   15055    14841    14671    14736    15057    15414    15449    14962 
   14153    13524    13471    13967    14646    15187    15545    15809 
   16043    16222    16248    15988    15376    14488    13605    13117 
   13235    13832    14594    15242    15616    15673    15458    15067 
   14643    14368    14388    14750    15327    15786    15796    15406 
   15016    14940    15149    15387    15425    15164    14635    14037 
   13703    13830    14285    14767    15079    15169    15086    14960 
   14902    14840    14607    14210    13887    13888    14322    15063 
   15751    16067    16027    15881    15762    15547    15070    14386 
   13783    13543    13751    14268    14836    15273    15498    15414 
   15001    14505    14269    14411    14783    15159    15422    15545 
   15499    15344    15187    15048    14943    14899    14836    14628 
   14299    14092    14249    14697    15128    15361    15454    15450 
   15244    14823    14457    14442    14746    15034    15017    14696 
   14366    14373    14821    15484    15966    15985    15547    14895 
   14332    14062    14122    14442    14855    15087    14953    14617 
   14474    14756    15296    15711    15757    15452    14909    14234 
   13625    13393    13748    14559    15442    16058    16227    15940 
   15388    14816    14374    14197    14403    14874    15233    15180 
   14836    14597    14701    14980    15099    14963    14742    14621 
   14701    15005    15437    15757    15731    15348    14800    14332 
   14158    14365    14782    15072    15030    14747    14490    14459 
   14681    15030    15314    15391    15265    15017    14754    14605 
   14602    14604    14492    14345    14401    14824    15442    15853 
   15816    15446    15017    14729    14593    14515    14505    14659 
   14937    15174    15259    15190    15002    14731    14462    14330 
   14358    14426    14412    14341    14365    14611    15041    15468 
   15738    15816    15688    15346    14895    14526    14407    14594 
   15003    15410    15535    15246    14724    14358    14382    14643 
   14806    14770    14693    14731    14840    14847    14643    14316 
   14065    14065    14393    14960    15511    15766    15642    15280 
   14863    14535    14424    14578    14866    15056    15029    14859 
   14690    14582    14496    14391    14314    14419    14818    15410 
   15919    16089    15866    15450    15090    14863    14697    14512 
   14319    14222    14288    14449    14585    14690    14882    15213 
   15530    15608    15358    14877    14384    14170    14404    14958 
   15519    15839    15859    15669    15375    15061    14856    14878 
   15074    15211    15083    14710    14301    14060    14002    14003 
   13996    14056    14280    14690    15194    15604    15782    15757 
   15654    15534    15363    15145    14956    14785    14532    14214 
   14023    14133    14419    14563    14478    14426    14656    15110 
   15484    15510    15195    14787    14546    14575    14794    15006 
   15070    14964    14783    14656    14682    14890    15229    15558 
   15705    15573    15232    14851    14554    14345    14180    14065 
   14100    14359    14777    15206    15588    15913    16108    16047 
   15689    15144    14589    14181    14041    14175    14357    14335 
   14127    13983    14100    14509    15084    15616    15889    15782 
   15415    15095    15021    15113    15153    14990    14669    14391 
   14338    14543    14868    15093    15093    14895    14605    14353 
   14258    14376    14650    14928    15067    15037    14904    14766 
   14712    14778    14921    15043    15056    14956    14864    14939 
   15184    15415    15456    15322    15114    14839    14490    14222 
   14246    14586    15041    15384    15558    15646    15674    15550 
   15199    14715    14332    14226    14341    14478    14523    14528 
   14621    14854    15165    15452    15630    15641    15468    15178 
   14887    14683    14586    14538    14477    14428    14477    14679 
   15040    15475    15776    15703    15201    14521    14073    14112 
   14561    15110    15472    15550    15406    15133    14835    14621 
   14519    14446    14354    14345    14566    15039    15596    15961 
   15886    15357    14648    14130    14000    14235    14639    14924 
   14902    14624    14303    14165    14341    14798    15331    15674 
   15674    15400    15079    14912    14928    15013    15026    14898 
   14690    14578    14723    15074    15368    15391    15167    14851 
   14573    14426    14469    14656    14827    14844    14727    14592 
   14494    14409    14322    14316    14516    14895    15246    15363 
   15213    14935    14728    14717    14844    14909    14817    14709 
   14783    15022    15205    15164    14979    14844    14809    14789 
   14736    14732    14891    15201    15500    15649    15597    15330 
   14875    14393    14119    14161    14401    14589    14584    14499 
   14542    14744    14943    14979    14874    14835    15029    15387 
   15664    15662    15384    14951    14507    14224    14250    14608 
   15174    15709    15984    15924    15628    15250    14894    14613 
   14474    14517    14639    14677    14607    14536    14562    14685 
   14824    14901    14959    15095    15256    15259    15043    14719 
   14423    14227    14108    13999    13918    13968    14204    14574 
   15018    15512    15957    16178    16108    15797    15337    14864 
   14558    14501    14621    14797    15003    15219    15317    15217 
   15036    14952    15016    15134    15196    15155    15032    14860 
   14663    14462    14307    14247    14295    14427    14639    14931 
   15249    15506    15643    15645    15526    15350    15183    15032 
   14891    14831    14916    15080    15128    14966    14733    14617 
   14661    14828    15083    15330    15394    15172    14790    14511 
   14496    14721    15048    15292    15329    15155    14829    14428 
