Origin Time       2024/04/02 04:24:00
Lat.              40.133
Long.             141.712
Depth. (km)       71
Mag.              6.0
Station Code      TKCH05
Station Lat.      43.1211
Station Long.     143.6181
Station Height(m) 65
Record Time       2024/04/02 04:25:27
Sampling Freq(Hz) 100Hz
Duration Time(s)  124
Dir.              5
Scale Factor      7845(gal)/8223790
Max. Acc. (gal)   6.395
Last Correction   2024/04/02 04:25:27
Memo.             
[...]
   -1051    -1032    -1027    -1129    -1244    -1243    -1240    -1345 
   -1437    -1440    -1453    -1463    -1393    -1318    -1279    -1189 
   -1070    -1027    -1044    -1063    -1093    -1156    -1270    -1414 
   -1524    -1551    -1507    -1447    -1409    -1340    -1200    -1086 
   -1023     -885     -718     -746     -978    -1237    -1483    -1707 
   -1756    -1615    -1483    -1422    -1367    -1286    -1136     -942 
    -858     -945    -1135    -1404    -1655    -1723    -1634    -1563 
   -1516    -1375    -1166    -1019     -999    -1089    -1192    -1174 
   -1066    -1004    -1015    -1050    -1084    -1109    -1148    -1232 
   -1362    -1501    -1556    -1503    -1435    -1414    -1406    -1355 
   -1285    -1279    -1331    -1301    -1201    -1206    -1304    -1333 
   -1323    -1316    -1213    -1062    -1043    -1104    -1104    -1107 
   -1183    -1264    -1304    -1329    -1356    -1368    -1296    -1086 
    -876     -835     -918     -993    -1067    -1213    -1431    -1624 
   -1687    -1622    -1525    -1422    -1279    -1136    -1047     -965 
    -900     -966    -1124    -1213    -1189    -1115    -1048    -1055 
   -1197    -1362    -1378    -1279    -1212    -1167    -1101    -1121 
   -1287    -1479    -1598    -1660    -1653    -1551    -1398    -1242 
   -1071     -946     -915     -930    -1021    -1264    -1528    -1642 
   -1679    -1684    -1541    -1258    -1012     -849     -688     -612 
    -764    -1067    -1333    -1517    -1637    -1618    -1452    -1325 
   -1359    -1453    -1470    -1360    -1183    -1050     -973     -951 
   -1050    -1204    -1262    -1267    -1336    -1425    -1495    -1587 
   -1622    -1448    -1151    -1005    -1043     -993     -814     -841 
   -1158    -1456    -1584    -1655    -1688    -1574    -1335    -1193 
   -1223    -1237    -1156    -1125    -1163    -1084     -855     -692 
    -710     -874    -1162    -1449    -1556    -1543    -1607    -1730 
   -1769    -1682    -1466    -1158     -927     -881     -873     -791 
    -834    -1142    -1490    -1674    -1784    -1829    -1598    -1175 
    -970    -1059    -1128    -1035     -901     -873     -966    -1073 
   -1169    -1379    -1659    -1817    -1869    -1900    -1798    -1499 
   -1197     -996     -800     -657     -673     -751     -801     -882 
   -1094    -1480    -1898    -2123    -2127    -2006    -1799    -1555 
   -1300     -966     -575     -357     -459     -714     -924    -1098 
   -1324    -1555    -1663    -1655    -1649    -1682    -1655    -1512 
   -1310    -1096     -881     -731     -681     -726     -862    -1020 
   -1117    -1215    -1439    -1822    -2212    -2349    -2116    -1632 
   -1094     -649     -371     -307     -388     -432     -427     -616 
   -1097    -1605    -1883    -1968    -1992    -1958    -1842    -1656 
   -1387    -1090     -891     -822     -842     -932    -1042    -1082 
   -1096    -1173    -1274    -1343    -1417    -1476    -1421    -1320 
   -1350    -1421    -1297    -1011     -834     -891    -1032    -1155 
   -1359    -1617    -1711    -1606    -1476    -1386    -1291    -1236 
   -1229    -1169    -1084    -1109    -1163    -1109    -1081    -1248 
   -1460    -1509    -1472    -1483    -1479    -1424    -1410    -1466 
   -1483    -1345    -1081     -884     -874     -936    -1023    -1232 
   -1444    -1444    -1362    -1347    -1221     -976     -943    -1142 
   -1239    -1224    -1327    -1458    -1447    -1424    -1474    -1424 
   -1233    -1111    -1121    -1140    -1086     -972     -913    -1093 
   -1432    -1595    -1491    -1321    -1142     -939     -886    -1063 
   -1240    -1236    -1192    -1212    -1152    -1035    -1088    -1298 
   -1448    -1474    -1437    -1367    -1240    -1059     -932     -957 
   -1082    -1170    -1170    -1206    -1370    -1489    -1414    -1271 
   -1193    -1162    -1115    -1042     -974     -954    -1038    -1179 
   -1305    -1524    -1845    -1975    -1771    -1471    -1281    -1117 
    -915     -831     -966    -1204    -1404    -1499    -1479    -1421 
   -1444    -1559    -1594    -1386    -1024     -820     -935    -1213 
   -1410    -1468    -1445    -1383    -1398    -1576    -1710    -1509 
   -1038     -589     -345     -372     -669    -1053    -1339    -1580 
   -1857    -2058    -2097    -2015    -1833    -1551    -1206     -854 
    -557     -415     -526     -895    -1344    -1594    -1551    -1424 
   -1451    -1578    -1582    -1479    -1406    -1255     -958     -812 
    -978    -1159    -1152    -1132    -1208    -1296    -1372    -1460 
   -1525    -1571    -1545    -1302     -923     -700     -703     -804 
    -930    -1030    -1077    -1165    -1335    -1525    -1641    -1517 
   -1108     -776     -874    -1206    -1429    -1551    -1620    -1551 
   -1422    -1378    -1389    -1405    -1389    -1233    -1004     -893 
    -934    -1069    -1263    -1422    -1490    -1543    -1630    -1657 
   -1552    -1416    -1320    -1163     -969     -982    -1251    -1495 
   -1514    -1383    -1223    -1066     -943     -862     -807     -823 
    -940    -1123    -1336    -1502    -1568    -1626    -1711    -1665 
   -1410    -1139    -1043    -1044     -982     -916     -970    -1078 
   -1161    -1282    -1425    -1420    -1247    -1100    -1043    -1021 
   -1116    -1344    -1580    -1787    -1854    -1578    -1120     -868 
    -846     -858     -895     -982    -1011    -1047    -1313    -1679 
   -1822    -1748    -1582    -1341    -1173    -1169    -1104     -846 
    -611     -603     -801    -1067    -1296    -1487    -1624    -1651 
   -1622    -1621    -1630    -1597    -1483    -1341    -1244    -1142 
   -1001     -974    -1081    -1097    -1021    -1129    -1418    -1564 
   -1462    -1328    -1296    -1337    -1445    -1576    -1649    -1613 
   -1428    -1198    -1136    -1175    -1015     -685     -557     -712 
    -878     -958    -1123    -1444    -1777    -1933    -1849    -1559 
   -1128     -780     -738     -912    -1071    -1151    -1213    -1281 
   -1344    -1436    -1545    -1559    -1435    -1337    -1406    -1452 
   -1269    -1005     -901     -953    -1047    -1188    -1382    -1485 
   -1378    -1244    -1302    -1431    -1405    -1348    -1495    -1660 
   -1517    -1204     -973     -837     -854    -1054    -1190    -1085 
    -953     -989    -1146    -1439    -1806    -1942    -1753    -1513 
   -1378    -1231    -1040     -888     -814     -874    -1073    -1310 
   -1509    -1607    -1624    -1652    -1645    -1493    -1282    -1074 
    -753     -434     -432     -637     -743     -878    -1217    -1555 
   -1760    -1918    -1934    -1684    -1347    -1080     -858     -764 
    -807     -788     -783    -1008    -1269    -1378    -1590    -1884 
   -1809    -1441    -1320    -1408    -1302    -1096    -1048    -1020 
    -900     -866     -966    -1127    -1417    -1794    -2015    -2029 
   -1896    -1566    -1144     -888     -730     -491     -364     -490 
    -589     -627     -954    -1456    -1675    -1725    -1944    -2097 
   -1952    -1759    -1638    -1371     -966     -723     -731     -815 
    -878     -986    -1209    -1475    -1613    -1611    -1613    -1667 
   -1711    -1648    -1399    -1054     -837     -819     -847     -858 
    -954    -1104    -1142    -1090    -1181    -1498    -1764    -1695 
   -1431    -1260    -1204    -1135    -1053    -1039    -1154    -1348 
   -1475    -1479    -1441    -1393    -1318    -1262    -1244    -1215 
   -1121    -1016    -1030    -1151    -1198    -1144    -1196    -1354 
   -1386    -1332    -1390    -1431    -1235     -950     -839     -934 
   -1156    -1391    -1435    -1258    -1092    -1139    -1389    -1671 
   -1753    -1582    -1387    -1301    -1189    -1113    -1243    -1343 
   -1182    -1027    -1100    -1197    -1188    -1231    -1371    -1445 
   -1401    -1333    -1313    -1345    -1358    -1290    -1175    -1090 
   -1077    -1092    -1078    -1080    -1142    -1219    -1297    -1464 
   -1692    -1800    -1775    -1706    -1549    -1331    -1161    -1016 
    -899     -891     -888     -754     -680     -888    -1271    -1628 
   -1868    -1922    -1772    -1489    -1136     -757     -437     -307 
    -423     -673     -903    -1170    -1636    -2143    -2384    -2401 
   -2367    -2101    -1391     -550     -108     -152     -450     -834 
   -1154    -1277    -1324    -1456    -1521    -1348    -1115    -1070 
   -1151    -1146    -1105    -1266    -1582    -1752    -1764    -1804 
   -1756    -1463    -1116     -932     -884     -888     -900     -896 
    -961    -1189    -1441    -1544    -1549    -1499    -1377    -1339 
   -1428    -1408    -1223    -1004     -754     -626     -911    -1432 
   -1675    -1571    -1503    -1599    -1634    -1553    -1499    -1414 
   -1084     -615     -467     -757    -1043    -1088    -1148    -1340 
   -1429    -1366    -1408    -1557    -1472    -1119     -919    -1070 
   -1286    -1336    -1356    -1468    -1548    -1498    -1401    -1352 
   -1285    -1146    -1047    -1009     -908     -823     -940    -1177 
   -1333    -1406    -1417    -1323    -1183    -1155    -1323    -1529 
   -1501    -1293    -1174    -1121    -1043    -1108    -1360    -1495 
   -1360    -1217    -1235    -1204    -1125    -1283    -1528    -1387 
    -932     -672     -693     -793     -977    -1209    -1306    -1274 
   -1225    -1181    -1252    -1470    -1621    -1698    -1834    -1845 
   -1567    -1258    -1138    -1061     -934     -900     -984    -1062 
   -1178    -1401    -1563    -1553    -1470    -1386    -1351    -1398 
   -1391    -1186     -949     -911     -992    -1062    -1177    -1289 
   -1247    -1107    -1031    -1047    -1121    -1282    -1435    -1420 
   -1372    -1453    -1486    -1355    -1282    -1329    -1216     -947 
    -878     -989     -943     -864    -1158    -1702    -2012    -1933 
   -1652    -1377    -1159    -1001    -1009    -1128    -1055     -784 
    -679     -839    -1043    -1228    -1449    -1607    -1576    -1413 
   -1286    -1310    -1410    -1404    -1285    -1155     -997     -872 
    -986    -1285    -1462    -1410    -1258    -1156    -1179    -1262 
   -1312    -1350    -1441    -1620    -1837    -1912    -1713    -1312 
    -854     -481     -325     -369     -491     -692    -1027    -1468 
   -1960    -2338    -2389    -2177    -1969    -1834    -1647    -1275 
    -630       74      341       52     -471    -1012    -1494    -1840 
   -2073    -2263    -2382    -2317    -2019    -1624    -1355    -1317 
   -1362    -1170     -695     -326     -309     -411     -459     -544 
    -703     -899    -1193    -1628    -2056    -2373    -2643    -2817 
   -2673    -2169    -1456     -596      290      868      938      658 
     116     -835    -2084    -3154    -3720    -3836    -3665    -3190 
   -2315    -1090      265     1348     1775     1543      886     -110 
   -1374    -2509    -3100    -3153    -2884    -2519    -2263    -2012 
   -1540    -1017     -685     -499     -495     -753    -1067    -1236 
   -1279    -1220    -1067     -862     -689     -677     -824    -1030 
   -1367    -1983    -2698    -3076    -2938    -2540    -2049    -1387 
    -599      286     1247     1850     1625      739     -340    -1414 
   -2419    -3254    -3902    -4248    -3944    -2887    -1456      -60 
    1005     1394     1174      932      685     -184    -1684    -3123 
   -3981    -4040    -3302    -2174    -1109     -189      469      488 
    -211    -1209    -2003    -2412    -2497    -2236    -1588     -757 
      18      595      716      135    -1032    -2307    -3176    -3434 
   -3279    -2934    -2322    -1328     -203      685     1212     1293 
     842      -59    -1283    -2621    -3626    -4016    -3924    -3487 
   -2754    -2034    -1522     -866      136     1132     1818     2053 
    1636      778        4     -815    -2076    -3337    -4050    -4561 
   -5074    -4984    -3958    -2381     -699      762     1780     2376 
    2594     2297     1375       13    -1368    -2423    -3105    -3487 
   -3437    -2921    -2308    -1979    -1922    -1740     -957      375 
    1482     1676     1075      121    -1009    -2197    -3248    -4062 
   -4487    -4272    -3339    -1919     -492      460      835      747 
     216     -629    -1501    -2181    -2398    -1976    -1267     -818 
    -743     -970    -1493    -1880    -1512     -616      -33      -58 
    -399     -851    -1433    -2205    -3017    -3370    -2894    -1798 
    -542      513     1069     1026      522     -415    -1807    -3222 
   -4068    -4282    -4095    -3447    -2177     -531      804     1228 
     791       18     -770    -1559    -2231    -2535    -2358    -1917 
   -1566    -1391    -1170     -735     -195      132     -120     -967 
   -1875    -2296    -2147    -1591     -884     -406     -357     -508 
    -706    -1213    -2115    -3042    -3692    -3854    -3284    -2057 
    -642      496     1279     1873     2353     2670     2555     1468 
    -684    -3154    -5121    -6265    -6477    -5746    -4337    -2550 
    -643      942     1992     2762     3187     2797     1729      552 
    -831    -2741    -4773    -6218    -6656    -6037    -4648    -2786 
    -683     1273     2813     3856     4124     3314     1601     -445 
   -2428    -4257    -5699    -6342    -6054    -5034    -3515    -1578 
     664     2766     4217     4810     4315     2496     -184    -2774 
   -4819    -6320    -7138    -7101    -6288    -4770    -2519       72 
    2328     4052     5248     5452     4376     2481      261    -2046 
   -4074    -5529    -6485    -7025    -7018    -6214    -4356    -1652 
    1063     3208     4696     5063     3878     1854       16    -1660 
   -3569    -5273    -6011    -5651    -4583    -3369    -2466    -1802 
    -888      483     1875     2729     2937     2502     1316     -399 
   -2072    -3366    -4387    -5201    -5495    -4932    -3731    -2436 
   -1179      337     1993     2994     2924     2211     1201     -136 
   -1575    -2712    -3597    -4468    -5040    -4932    -4280    -3258 
   -1850     -207     1309     2346     2755     2640     2092     1128 
     -28    -1140    -2328    -3734    -5146    -6174    -6481    -5888 
   -4491    -2643     -621     1426     3145     4167     4457     3908 
    2319       58    -2241    -4472    -6505    -7530    -7009    -5344 
   -3052     -294     2563     4625     5082     4064     2421      689 
   -1108    -2886    -4542    -6161    -7354    -7175    -5363    -2767 
    -257     1833     3303     3935     3690     2698     1120    -1004 
   -3592    -5849    -6697    -6203    -5282    -4194    -2593     -637 
    1034     2139     2809     2997     2373      885     -974    -2698 
   -4108    -4954    -4931    -4286    -3516    -2528    -1000      812 
    2282     3044     3133     2508      811    -1745    -3951    -4977 
   -5139    -4795    -3967    -3030    -2315    -1529     -495      410 
     953     1228     1232      966      692      517       51     -940 
   -2099    -2994    -3484    -3543    -3222    -2694    -2126    -1458 
    -378     1080     2096     1985     1212      460     -515    -2002 
   -3319    -3767    -3593    -3307    -2913    -2308    -1595     -801 
      60      764     1013      619     -376    -1586    -2497    -2955 
   -3163    -3240    -3109    -2721    -2081    -1134       89     1111 
    1251      622       22     -409    -1183    -2255    -3141    -3692 
   -3896    -3581    -2890    -2241    -1571     -494      812     1817 
    2365     2420     1721      244    -1548    -3149    -4384    -5242 
   -5518    -4958    -3578    -1665      280     1713     2444     2651 
    2450     1925     1177      -70    -2130    -4372    -5597    -5421 
   -4476    -3383    -2276    -1080      248     1401     1678      893 
    -182     -905    -1463    -2045    -2442    -2625    -2774    -2879 
   -2708    -2006     -930      -16      549      912      988      699 
     315     -128     -958    -1904    -2296    -2296    -2558    -2975 
   -3032    -2758    -2351    -1722     -957     -415     -261     -445 
    -885    -1331    -1437    -1202     -962     -888     -896    -1050 
   -1451    -1919    -2223    -2300    -2043    -1271     -136      633 
     558      171      135      333      247     -461    -1680    -2947 
   -3863    -4224    -3916    -3119    -2376    -1818    -1050     -118 
     567     1007     1328     1263      553     -502    -1494    -2469 
   -3518    -4321    -4477    -3893    -2686    -1116      359     1305 
    1576     1259      471     -773    -2481    -4356    -5734    -6058 
   -5267    -3561    -1255     1019     2727     3870     4379     3792 
    1973     -558    -2998    -4684    -5501    -5776    -5668    -4945 
   -3400    -1287      780     2254     2916     2851     2187      870 
    -976    -2797    -4006    -4365    -3958    -3190    -2488    -1871 
   -1156     -355      333      634      445      -36     -622    -1237 
   -1738    -1975    -1912    -1695    -1594    -1702    -1815    -1825 
   -1830    -1780    -1480     -920     -234      436      931     1077 
     750      -20    -1089    -2299    -3426    -4125    -4079    -3331 
   -2196     -865      450     1325     1570     1362      826        9 
    -986    -2061    -3119    -4106    -4930    -5324    -5028    -4081 
   -2758    -1426     -417      283      999     1811     2317     2154 
    1505      645     -518    -1958    -3237    -4056    -4456    -4333 
   -3437    -1995     -650      311      999     1393     1441     1170 
     421     -873    -2299    -3322    -3667    -3433    -2978    -2420 
   -1595     -719     -287     -292     -248      121      657      966 
     710     -166    -1323    -2220    -2666    -3026    -3584    -4004 
   -3819    -3030    -1958     -788      390     1252     1414      997 
     580      344     -224    -1409    -2677    -3411    -3672    -3798 
   -3761    -3383    -2697    -1786     -747      184      788     1023 
    1026      889      517     -130     -932    -1887    -2960    -3731 
   -3740    -3103    -2339    -1652     -855      -58      311      222 
     -17     -284     -614    -1053    -1543    -1814    -1722    -1486 
   -1305    -1143     -915     -567     -141       85     -229    -1124 
   -2246    -3061    -3227    -2837    -2241    -1686    -1269     -984 
    -735     -454     -189      -47      -47     -102     -276     -741 
   -1447    -2131    -2551    -2551    -2042    -1166     -481     -533 
   -1200    -1890    -2292    -2413    -2083    -1305     -784    -1070 
   -1640    -1736    -1460    -1301    -1329    -1370    -1391    -1395 
   -1271     -931     -495     -222     -294     -589     -828     -969 
   -1174    -1413    -1564    -1761    -2131    -2423    -2361    -2076 
   -1804    -1466     -928     -400      -49      330      768      904 
     708      477       98     -727    -1817    -2812    -3642    -4239 
   -4295    -3774    -3141    -2639    -1950     -882      367     1467 
    1989     1625      589     -508    -1232    -1576    -1837    -2246 
   -2725    -3090    -3314    -3353    -3006    -2251    -1385     -541 
     361     1161     1516     1291      506     -648    -1738    -2542 
   -3208    -3711    -3740    -3284    -2637    -1877     -976     -220 
     122      217      302      292       45     -315     -606     -897 
