Origin Time       2024/04/02 04:24:00
Lat.              40.133
Long.             141.712
Depth. (km)       71
Mag.              6.0
Station Code      TKCH05
Station Lat.      43.1211
Station Long.     143.6181
Station Height(m) 65
Record Time       2024/04/02 04:25:27
Sampling Freq(Hz) 100Hz
Duration Time(s)  124
Dir.              4
Scale Factor      7845(gal)/8223790
Max. Acc. (gal)   5.649
Last Correction   2024/04/02 04:25:27
Memo.             
[...]
   30036    29729    29569    29523    29531    29578    29656    29782 
   30094    30649    31205    31467    31407    31153    30802    30450 
   30122    29721    29235    28900    28908    29147    29475    29898 
   30343    30712    31062    31409    31594    31500    31156    30655 
   30179    29855    29641    29490    29435    29525    29825    30208 
   30365    30241    30117    30161    30300    30424    30445    30330 
   30231    30302    30449    30541    30588    30543    30342    30144 
   30084    30032    29924    29902    30015    30163    30261    30292 
   30288    30298    30341    30379    30364    30289    30171    30072 
   30044    30010    29949    30038    30349    30678    30832    30769 
   30516    30180    29972    30026    30230    30315    30213    30127 
   30199    30333    30399    30375    30314    30288    30308    30338 
   30346    30267    30080    29941    30010    30192    30325    30392 
   30400    30346    30361    30511    30558    30306    29933    29659 
   29547    29667    29871    29937    30019    30280    30597    30871 
   31028    30989    30874    30827    30757    30473    29998    29600 
   29432    29439    29565    29690    29670    29627    29833    30335 
   30843    31079    31064    30879    30577    30350    30304    30299 
   30223    30046    29740    29419    29312    29473    29802    30252 
   30712    30942    30869    30715    30630    30503    30315    30219 
   30156    29986    29828    29789    29832    30024    30343    30527 
   30423    30187    29983    29882    29986    30296    30566    30595 
   30468    30326    30240    30299    30474    30534    30329    30017 
   29848    29920    30132    30296    30292    30187    30150    30284 
   30511    30678    30690    30547    30368    30249    30086    29848 
   29747    29818    29897    29971    30091    30213    30315    30420 
   30531    30593    30526    30331    30095    29934    29922    30009 
   30080    30079    30014    30015    30156    30281    30267    30191 
   30152    30152    30210    30308    30375    30423    30487    30543 
   30608    30588    30285    29851    29639    29647    29739    29945 
   30195    30358    30574    30893    31005    30782    30487    30288 
   30075    29822    29690    29646    29589    29728    30148    30581 
   30909    31056    30859    30507    30311    30187    30005    29943 
   30072    30144    30111    30222    30439    30511    30489    30491 
   30429    30314    30234    30083    29756    29484    29606    30052 
   30395    30472    30449    30449    30514    30608    30528    30138 
   29705    29581    29695    29866    30169    30527    30667    30635 
   30607    30570    30546    30613    30703    30640    30410    30192 
   30041    29903    29866    29917    29914    29898    29943    29999 
   30142    30433    30717    30912    30959    30677    30119    29685 
   29558    29551    29563    29691    29893    30030    30199    30547 
   30927    31104    31043    30843    30612    30383    30094    29771 
   29573    29570    29724    29986    30256    30388    30426    30592 
   30862    30924    30674    30253    29731    29242    29066    29304 
   29744    30111    30303    30403    30545    30759    30937    30969 
   30834    30608    30373    30100    29748    29477    29485    29808 
   30319    30669    30626    30514    30618    30651    30504    30481 
   30512    30303    30040    29978    29957    29867    29894    30053 
   30106    30069    30137    30204    30226    30422    30696    30734 
   30601    30470    30288    30087    29974    29864    29687    29589 
   29727    30034    30397    30815    31160    31221    31054    30798 
   30410    29976    29716    29571    29427    29436    29687    30002 
   30292    30612    30820    30808    30759    30723    30524    30231 
   29998    29768    29589    29660    29859    29929    29982    30203 
   30515    30773    30900    30801    30504    30244    30109    29990 
   29933    29961    29893    29816    30013    30338    30504    30586 
   30638    30516    30254    30025    29840    29648    29570    29771 
   30167    30541    30773    30820    30732    30612    30437    30210 
   30065    29995    29907    29890    29967    29975    29937    30090 
   30449    30775    30924    30921    30747    30350    29949    29868 
   30044    30145    30076    30011    30084    30217    30291    30354 
   30423    30360    30180    30119    30160    30045    29829    29743 
   29737    29733    29833    30018    30167    30379    30773    31140 
   31230    31116    30943    30700    30380    30088    29855    29601 
   29403    29459    29737    30036    30264    30369    30338    30299 
   30315    30335    30416    30549    30539    30373    30223    30160 
   30196    30362    30550    30566    30389    30157    30001    30045 
   30249    30316    30130    29920    29802    29764    29907    30202 
   30434    30576    30666    30654    30613    30673    30723    30591 
   30273    29882    29602    29616    29795    29853    29830    29859 
   29887    30034    30396    30693    30790    30820    30720    30445 
   30211    30122    30094    30098    30123    30095    30042    30098 
   30244    30350    30406    30478    30566    30589    30458    30215 
   30046    30060    30173    30292    30275    30003    29675    29559 
   29689    30078    30609    30834    30582    30318    30362    30510 
   30616    30727    30624    30202    29860    29814    29793    29743 
   29851    30038    30196    30375    30561    30789    31108    31282 
   31006    30399    29876    29636    29596    29725    29949    30007 
   29897    29938    30222    30549    30732    30677    30439    30208 
   30118    30179    30300    30350    30330    30298    30227    30191 
   30296    30445    30481    30391    30245    30129    30068    30041 
   30063    30114    30153    30223    30352    30450    30419    30294 
   30183    30096    29995    29940    29976    30042    30117    30248 
   30354    30246    29972    29840    29879    29890    29932    30095 
   30289    30538    30842    30955    30780    30526    30287    29970 
   29670    29566    29585    29673    29914    30199    30352    30466 
   30653    30788    30758    30642    30520    30345    30092    29890 
   29872    29979    30021    29961    29934    30073    30406    30750 
   30874    30769    30612    30535    30473    30241    29884    29695 
   29733    29808    29928    30164    30391    30545    30645    30541 
   30183    29867    29830    29907    29856    29752    29816    30127 
   30581    30898    30889    30690    30465    30219    29990    29883 
   29894    30005    30277    30607    30732    30667    30596    30534 
   30481    30406    30138    29754    29528    29447    29438    29681 
   30141    30481    30632    30715    30658    30468    30399    30518 
   30603    30499    30260    30021    29856    29851    30111    30493 
   30612    30383    30115    30014    30052    30175    30275    30222 
   30065    29987    30083    30319    30615    30827    30834    30662 
   30451    30318    30227    30041    29786    29655    29727    29902 
   30019    30071    30226    30457    30539    30465    30312    30111 
   30056    30180    30271    30335    30411    30377    30312    30322 
   30272    30171    30181    30152    29932    29849    30056    30196 
   30164    30165    30180    30169    30256    30403    30520    30672 
   30777    30612    30192    29801    29705    29901    30152    30257 
   30172    30019    30028    30213    30339    30365    30456    30623 
   30769    30875    30936    30885    30704    30454    30167    29849 
   29590    29482    29509    29648    29951    30400    30761    30761 
   30474    30210    30082    30096    30241    30303    30141    29987 
   30067    30245    30279    30175    30084    30024    29988    30084 
   30322    30646    30997    31125    30944    30721    30574    30372 
   30067    29727    29446    29263    29160    29141    29308    29817 
   30592    31259    31552    31496    31225    30897    30636    30353 
   29878    29297    28830    28505    28375    28723    29646    30775 
   31637    31997    31928    31675    31410    31102    30692    30252 
   29766    29227    28846    28718    28848    29385    30122    30483 
   30330    30063    30028    30314    30792    31135    31110    30952 
   31060    31330    31394    31266    30983    30267    29185    28325 
   27997    28031    28259    28669    29188    29740    30461    31426 
   32325    32728    32421    31445    30068    28822    28294    28614 
   29398    30296    31093    31523    31600    31561    31245    30423 
   29413    28529    27795    27481    27958    29154    30681    32111 
   33035    33288    33104    32616    31676    30524    29625    28968 
   28487    28436    28829    29388    29988    30528    30877    31120 
   31266    31063    30457    29678    28890    28247    28039    28370 
   29103    30191    31486    32466    32798    32625    31973    30744 
   29280    28174    27749    27993    28622    29181    29446    29714 
   30443    31581    32506    32667    32092    31137    30121    29457 
   29496    29990    30341    30304    30072    29934    30079    30497 
   30890    30758    29955    29039    28696    29062    29918    31035 
   32036    32587    32908    33359    33548    32686    30555    27729 
   25374    24707    25948    27978    29458    30099    30585    31507 
   32702    33474    33293    32190    30613    29257    28761    29089 
   29627    29940    29953    29879    30086    30497    30628    30302 
   29627    28733    28021    27930    28314    28891    29957    31779 
   33729    34852    34778    33728    32104    30308    28734    27670 
   27137    27020    27338    28123    29257    30646    32115    33174 
   33343    32657    31585    30484    29385    28366    27719    27565 
   27723    28101    28865    30122    31621    32888    33558    33494 
   32829    31977    31126    30001    28579    27365    26805    27097 
   28210    29763    31305    32512    32799    31684    29906    28857 
   28777    29088    29857    31094    31931    32015    31897    31634 
   30824    29677    28664    27816    27261    27513    28690    30331 
   31959    33200    33798    33759    33178    32004    30268    28385 
   26947    26323    26527    27233    28062    29014    30400    32305 
   34249    35438    35255    33686    31361    29123    27572    26875 
   26816    27091    27515    27924    28363    29257    30825    32548 
   33729    34204    34079    33378    32242    30939    29577    28144 
   26869    26271    26752    28125    29663    30746    31259    31321 
   31087    30838    30809    30936    30981    30874    30753    30643 
   30422    30095    29783    29567    29488    29403    29108    28809 
   28941    29647    30796    32090    33069    33478    33328    32571 
   31371    30323    29754    29284    28491    27546    26919    26886 
   27576    28971    30473    31241    31274    31272    31445    31588 
   31901    32424    32493    31756    30615    29309    27958    27243 
   27635    28599    29455    30072    30426    30434    30277    30319 
   30813    31658    32248    32084    31463    30855    30273    29812 
   29673    29543    29133    28964    29560    30433    30847    30800 
   30597    30562    31059    31873    32273    31843    30638    28988 
   27465    26541    26254    26523    27427    28972    30867    32616 
   33818    34383    34335    33640    32412    30997    29670    28665 
   28258    28251    28112    27857    27838    28063    28622    29864 
   31446    32355    32262    31711    31147    30828    30910    30954 
   30356    29413    28933    29043    29358    29713    30046    30296 
   30689    31361    31901    31726    30823    29980    29902    30275 
   30537    30666    30462    29675    28933    28761    28702    28561 
   28806    29523    30481    31515    32123    31980    31743    31936 
   31958    31363    30613    29880    28755    27411    26658    26769 
   27409    28483    30013    31480    32350    32802    33154    33226 
   32902    32502    32112    31294    29933    28648    27859    27449 
   27560    28336    29145    29382    29390    29698    30306    31106 
   32004    32498    32119    31087    30046    29459    29358    29424 
   29307    29023    29054    29745    30721    31320    31382    31243 
   31226    31342    31380    31229    30936    30487    29790    28931 
   28274    28169    28664    29583    30662    31558    31996    31891 
   31417    31093    31170    31045    30134    28775    27665    27087 
   27103    27915    29400    30879    31984    32822    33143    32672 
   31923    31526    31252    30615    29760    28865    27803    26989 
   27116    28085    29343    30605    31568    31958    32042    32177 
   32202    31861    31109    29805    27989    26504    26377    27550 
   29029    30157    31063    32120    33507    34852    35276    34283 
   32332    30254    28551    27297    26460    26188    26644    27649 
   28838    30072    31355    32475    33077    33052    32518    31595 
   30499    29623    29162    29007    29187    29805    30470    30634 
   30438    30399    30635    31006    31372    31457    31089    30473 
   29824    29047    27985    26860    26322    26825    28210    30080 
   32058    33590    34395    34790    34923    34345    32725    30277 
   27523    25257    24314    24734    25741    26908    28435    30402 
   32684    34892    36099    35716    34277    32626    31163    29964 
   28894    27785    26866    26607    27043    27899    29046    30215 
   30944    31255    31627    32190    32647    32864    32724    31942 
   30723    29664    28888    28269    27973    28043    28313    28880 
   29768    30577    31110    31576    31927    31854    31368    30532 
   29227    27919    27483    28003    28979    30102    31113    31730 
   31993    32209    32428    32321    31720    30847    29914    29054 
   28399    27797    27095    26752    27267    28395    29775    31429 
   32995    33740    33721    33547    33138    32103    30685    29254 
   27928    27202    27556    28501    29209    29671    30284    30870 
   31006    30877    30939    31163    31261    31322    31527    31727 
   31854    31982    31639    30323    28624    27488    26960    26755 
   27005    27716    28568    29393    30179    30878    31602    32482 
   33219    33326    32690    31598    30454    29604    29197    29096 
   29004    28869    28830    28942    29322    30122    31079    31695 
   31812    31568    31118    30716    30645    30817    30748    30044 
   28902    28031    28005    28873    30196    31239    31469    31048 
   30538    30227    30048    30015    30272    30601    30600    30326 
   30184    30342    30744    31299    31715    31658    31190    30592 
   29959    29365    29065    29165    29405    29382    28915    28355 
   28309    28918    29802    30599    31160    31548    32017    32702 
   33227    33022    32015    30607    29182    28084    27649    27735 
   27758    27600    27865    28984    30699    32416    33516    33613 
   32983    32239    31581    30825    29890    28884    27955    27329 
   27311    27873    28571    29161    29755    30392    31104    31920 
   32509    32583    32447    32371    32143    31629    30921    29902 
   28580    27584    27405    27720    28148    28726    29435    30153 
   30966    31893    32517    32332    31446    30403    29598    29296 
   29600    30188    30611    30757    30797    30939    31225    31414 
   31186    30473    29436    28355    27583    27340    27621    28412 
   29623    30874    31754    32219    32467    32570    32490    32259 
   31826    31125    30331    29524    28566    27649    27295    27737 
   28800    30109    31058    31284    31221    31429    31692    31569 
   31072    30281    29249    28354    28007    28243    28813    29543 
   30505    31681    32697    33185    32991    32120    30897    29836 
   29176    28750    28341    28062    28242    28944    29988    31167 
   32148    32667    32795    32617    32084    31322    30512    29683 
   28952    28497    28343    28503    28971    29434    29539    29403 
   29416    29620    29751    29767    29902    30321    30964    31679 
   32314    32602    32286    31476    30474    29458    28669    28435 
   28698    29000    29128    29393    30026    30758    31225    31352 
   31236    31014    30777    30545    30357    30186    29920    29623 
   29474    29498    29640    29945    30426    31021    31719    32296 
   32235    31374    30196    29223    28557    28051    27712    27830 
   28512    29394    30254    31222    32119    32553    32582    32336 
   31685    30785    29980    29272    28688    28498    28671    28883 
   29015    29214    29663    30435    31348    32019    32197    31919 
   31303    30514    29839    29462    29322    29357    29551    29782 
   29997    30310    30720    31016    31090    31031    30867    30508 
   29984    29469    29062    28744    28549    28647    29131    29864 
   30662    31438    32082    32447    32454    32065    31315    30361 
   29367    28455    27849    27803    28291    29080    29987    30758 
   31135    31233    31349    31459    31371    31093    30770    30499 
   30300    30153    29957    29632    29323    29200    29162    29192 
   29463    29794    29793    29589    29621    29965    30414    30816 
   31093    31228    31260    31174    30904    30496    30141    30025 
   30152    30322    30345    30169    29894    29808    30181    30852 
   31240    30947    30071    29058    28486    28702    29486    30329 
   30921    31345    31824    32262    32273    31808    31185    30585 
   30065    29705    29293    28552    27780    27567    28023    28802 
   29592    30265    30766    31141    31558    32030    32265    32017 
   31387    30655    30024    29656    29656    29860    29971    29967 
   30044    30289    30566    30626    30377    29965    29571    29313 
   29243    29270    29280    29411    29816    30300    30678    31110 
   31611    31831    31600    30954    29921    28883    28489    28914 
   29825    30932    31959    32452    32219    31590    30859    29994 
   29120    28576    28435    28625    29184    29982    30761    31382 
   31646    31372    30763    30107    29471    29083    29285    29878 
   30373    30713    30954    30960    30873    30970    31070    30883 
   30551    30304    30106    29963    29947    29909    29752    29667 
   29714    29686    29536    29488    29648    29864    30005    30073 
   30052    29970    30084    30622    31383    31924    32046    31843 
   31460    30993    30512    30005    29452    29095    29162    29438 
   29601    29662    29702    29787    30069    30523    30832    30804 
   30524    30208    30141    30474    30921    31045    30809    30376 
   29799    29305    29238    29582    29988    30188    30256    30407 
   30643    30886    31187    31409    31266    30774    30083    29220 
   28378    27876    27822    28204    29030    30196    31367    32135 
   32331    32109    31662    31043    30352    29786    29432    29313 
   29500    29889    30150    30096    29871    29727    29797    30021 
