Origin Time       2024/04/02 04:24:00
Lat.              40.133
Long.             141.712
Depth. (km)       71
Mag.              6.0
Station Code      TKCH02
Station Lat.      43.3822
Station Long.     143.8983
Station Height(m) 328
Record Time       2024/04/02 04:26:17
Sampling Freq(Hz) 100Hz
Duration Time(s)  120
Dir.              4
Scale Factor      7845(gal)/8223790
Max. Acc. (gal)   1.480
Last Correction   2024/04/02 04:26:17
Memo.             
  -10331   -10288   -10278   -10285   -10331   -10444   -10558   -10575 
  -10500   -10409   -10363   -10361   -10382   -10404   -10407   -10400 
  -10397   -10380   -10369   -10408   -10443   -10419   -10386   -10386 
  -10411   -10446   -10459   -10449   -10466   -10521   -10561   -10534 
  -10463   -10397   -10331   -10281   -10278   -10300   -10322   -10353 
  -10399   -10443   -10466   -10466   -10457   -10458   -10484   -10513 
  -10519   -10496   -10432   -10347   -10296   -10292   -10296   -10282 
  -10276   -10287   -10307   -10351   -10417   -10471   -10497   -10520 
  -10569   -10608   -10601   -10543   -10449   -10361   -10299   -10277 
  -10323   -10388   -10381   -10308   -10262   -10297   -10401   -10535 
  -10625   -10597   -10459   -10293   -10184   -10183   -10281   -10407 
  -10498   -10544   -10530   -10454   -10380   -10343   -10312   -10268 
  -10242   -10251   -10262   -10272   -10301   -10350   -10415   -10490 
  -10570   -10627   -10615   -10516   -10373   -10261   -10230   -10251 
  -10269   -10291   -10350   -10432   -10500   -10539   -10543   -10505 
  -10446   -10405   -10390   -10369   -10322   -10281   -10295   -10351 
  -10413   -10463   -10480   -10436   -10335   -10243   -10226   -10269 
  -10330   -10382   -10415   -10411   -10359   -10299   -10280   -10308 
  -10362   -10409   -10411   -10374   -10358   -10389   -10427   -10435 
  -10447   -10482   -10501   -10500   -10498   -10488   -10462   -10436 
  -10411   -10362   -10284   -10220   -10200   -10238   -10311   -10350 
  -10336   -10316   -10318   -10362   -10459   -10558   -10601   -10590 
  -10554   -10505   -10458   -10416   -10357   -10278   -10231   -10230 
  -10246   -10282   -10353   -10434   -10492   -10508   -10462   -10368 
  -10307   -10319   -10390   -10489   -10559   -10569   -10532   -10466 
  -10403   -10362   -10305   -10249   -10254   -10331   -10439   -10530 
  -10554   -10508   -10420   -10357   -10361   -10381   -10405   -10450 
  -10467   -10431   -10381   -10346   -10343   -10376   -10432   -10498 
  -10534   -10507   -10461   -10434   -10399   -10353   -10327   -10330 
  -10336   -10324   -10312   -10350   -10440   -10515   -10536   -10527 
  -10508   -10473   -10435   -10416   -10386   -10338   -10305   -10303 
  -10330   -10380   -10412   -10413   -10385   -10316   -10233   -10210 
  -10269   -10378   -10511   -10611   -10620   -10557   -10465   -10382 
  -10359   -10411   -10473   -10488   -10473   -10443   -10365   -10235 
  -10133   -10139   -10253   -10397   -10539   -10652   -10678   -10609 
  -10485   -10355   -10264   -10210   -10195   -10265   -10397   -10508 
  -10542   -10512   -10466   -10428   -10388   -10351   -10320   -10284 
  -10255   -10246   -10272   -10376   -10532   -10646   -10663   -10608 
  -10507   -10384   -10260   -10170   -10170   -10231   -10268   -10288 
  -10351   -10430   -10458   -10453   -10492   -10597   -10686   -10679 
  -10586   -10461   -10347   -10266   -10239   -10280   -10338   -10363 
  -10353   -10320   -10308   -10339   -10381   -10409   -10419   -10409 
  -10392   -10377   -10382   -10407   -10458   -10534   -10559   -10478 
  -10349   -10247   -10211   -10262   -10368   -10440   -10443   -10395 
  -10322   -10249   -10215   -10272   -10396   -10505   -10552   -10525 
  -10453   -10397   -10389   -10428   -10480   -10482   -10417   -10334 
  -10292   -10319   -10374   -10395   -10363   -10303   -10254   -10262 
  -10345   -10455   -10509   -10486   -10457   -10485   -10519   -10485 
  -10400   -10314   -10262   -10265   -10328   -10430   -10512   -10524 
  -10477   -10428   -10400   -10369   -10357   -10395   -10431   -10411 
  -10351   -10292   -10250   -10235   -10269   -10341   -10376   -10332 
  -10269   -10280   -10385   -10523   -10623   -10652   -10608   -10482 
  -10336   -10269   -10297   -10357   -10397   -10411   -10411   -10396 
  -10354   -10319   -10323   -10338   -10350   -10376   -10393   -10380 
  -10363   -10359   -10369   -10411   -10476   -10504   -10477   -10439 
  -10419   -10397   -10358   -10330   -10338   -10368   -10386   -10403 
  -10435   -10478   -10500   -10498   -10524   -10569   -10566   -10496 
  -10397   -10316   -10262   -10235   -10274   -10393   -10501   -10511 
  -10432   -10339   -10297   -10338   -10417   -10469   -10463   -10397 
  -10292   -10201   -10172   -10214   -10295   -10385   -10480   -10530 
  -10504   -10453   -10427   -10442   -10494   -10535   -10509   -10444 
  -10404   -10393   -10370   -10318   -10260   -10230   -10251   -10316 
  -10390   -10450   -10461   -10405   -10338   -10311   -10312   -10355 
  -10446   -10523   -10562   -10602   -10609   -10505   -10322   -10184 
  -10162   -10197   -10234   -10288   -10368   -10443   -10476   -10458 
  -10436   -10428   -10415   -10409   -10447   -10536   -10633   -10666 
  -10596   -10457   -10318   -10227   -10203   -10247   -10316   -10381 
  -10461   -10558   -10644   -10677   -10616   -10465   -10297   -10204 
  -10212   -10292   -10393   -10444   -10415   -10361   -10331   -10309 
  -10289   -10324   -10450   -10575   -10611   -10558   -10442   -10311 
  -10277   -10370   -10473   -10471   -10373   -10238   -10153   -10207 
  -10366   -10511   -10569   -10521   -10412   -10335   -10328   -10345 
  -10354   -10389   -10444   -10486   -10484   -10424   -10332   -10266 
  -10254   -10281   -10350   -10469   -10566   -10552   -10455   -10378 
  -10362   -10359   -10331   -10304   -10311   -10343   -10363   -10362 
  -10382   -10436   -10481   -10493   -10488   -10467   -10427   -10386 
  -10380   -10397   -10409   -10400   -10368   -10316   -10281   -10288 
  -10353   -10438   -10450   -10359   -10269   -10270   -10354   -10447 
  -10515   -10546   -10504   -10399   -10312   -10309   -10378   -10455 
  -10509   -10547   -10557   -10524   -10454   -10353   -10242   -10165 
  -10165   -10238   -10322   -10365   -10381   -10405   -10451   -10480 
  -10467   -10424   -10345   -10251   -10214   -10265   -10380   -10480 
  -10515   -10504   -10490   -10469   -10413   -10335   -10276   -10241 
  -10235   -10295   -10400   -10490   -10534   -10511   -10442   -10393 
  -10380   -10378   -10413   -10470   -10489   -10444   -10347   -10254 
  -10219   -10238   -10297   -10382   -10458   -10501   -10513   -10490 
  -10423   -10350   -10346   -10401   -10447   -10489   -10540   -10554 
  -10508   -10450   -10412   -10359   -10282   -10222   -10220   -10320 
  -10480   -10581   -10586   -10513   -10386   -10269   -10218   -10222 
  -10253   -10301   -10358   -10397   -10426   -10465   -10492   -10474 
  -10436   -10446   -10519   -10585   -10586   -10539   -10477   -10424 
  -10372   -10305   -10278   -10328   -10377   -10385   -10407   -10424 
  -10392   -10362   -10399   -10482   -10552   -10540   -10439   -10346 
  -10334   -10362   -10395   -10436   -10458   -10426   -10357   -10291 
  -10280   -10322   -10363   -10403   -10457   -10493   -10507   -10520 
  -10504   -10416   -10304   -10247   -10262   -10316   -10370   -10396 
  -10404   -10413   -10430   -10469   -10530   -10552   -10496   -10419 
  -10361   -10281   -10200   -10228   -10377   -10507   -10539   -10486 
  -10377   -10269   -10219   -10237   -10328   -10473   -10585   -10598 
  -10547   -10485   -10413   -10359   -10377   -10442   -10467   -10412 
  -10318   -10260   -10293   -10420   -10550   -10593   -10543   -10431 
  -10289   -10168   -10093   -10077   -10147   -10285   -10390   -10430 
  -10442   -10447   -10444   -10485   -10608   -10716   -10679   -10517 
  -10355   -10254   -10233   -10311   -10420   -10436   -10343   -10227 
  -10176   -10211   -10282   -10351   -10409   -10466   -10525   -10577 
  -10597   -10567   -10480   -10369   -10334   -10399   -10476   -10512 
  -10538   -10569   -10571   -10524   -10426   -10303   -10212   -10212 
  -10307   -10419   -10473   -10463   -10420   -10365   -10319   -10304 
  -10327   -10357   -10366   -10380   -10415   -10447   -10469   -10509 
  -10563   -10598   -10588   -10534   -10490   -10466   -10392   -10278 
  -10208   -10195   -10204   -10237   -10315   -10419   -10480   -10476 
  -10440   -10435   -10488   -10546   -10574   -10613   -10638   -10557 
  -10407   -10307   -10251   -10174   -10104   -10088   -10120   -10203 
  -10339   -10462   -10459   -10327   -10181   -10103   -10110   -10211 
  -10382   -10575   -10760   -10878   -10856   -10728   -10554   -10361 
  -10215   -10180   -10201   -10174   -10065    -9958    -9971   -10115 
  -10291   -10415   -10455   -10436   -10423   -10436   -10476   -10523 
  -10530   -10489   -10461   -10469   -10466   -10426   -10400   -10426 
  -10481   -10523   -10536   -10531   -10503   -10438   -10331   -10237 
  -10223   -10268   -10326   -10434   -10567   -10608   -10512   -10335 
  -10166   -10079   -10096   -10203   -10345   -10438   -10455   -10416 
  -10341   -10250   -10169   -10145   -10185   -10243   -10296   -10347 
  -10376   -10382   -10384   -10369   -10381   -10462   -10554   -10597 
  -10597   -10557   -10447   -10273   -10076    -9899    -9788    -9779 
   -9884   -10085   -10303   -10454   -10546   -10623   -10677   -10694 
  -10743   -10874   -11028   -11148   -11202   -11152   -10990   -10740 
  -10470   -10241   -10030    -9863    -9837    -9940   -10062   -10165 
  -10269   -10384   -10566   -10858   -11199   -11456   -11503   -11267 
  -10835   -10444   -10212   -10044    -9869    -9737    -9682    -9741 
   -9964   -10315   -10675   -10916   -10908   -10597   -10104    -9639 
   -9370    -9387    -9663   -10045   -10389   -10679   -10972   -11276 
  -11530   -11641   -11506   -11107   -10557   -10025    -9666    -9563 
   -9661    -9780    -9788    -9736    -9732    -9849   -10069   -10308 
  -10517   -10690   -10783   -10789   -10768   -10766   -10805   -10903 
  -11018   -11090   -11095   -11002   -10806   -10606   -10531   -10588 
  -10620   -10458   -10107    -9729    -9498    -9501    -9711   -10048 
  -10411   -10683   -10786   -10714   -10532   -10355   -10261   -10234 
  -10292   -10474   -10727   -10957   -11088   -11086   -10952   -10665 
  -10222    -9730    -9385    -9347    -9630   -10053   -10359   -10434 
  -10334   -10157   -10000    -9985   -10162   -10442   -10694   -10875 
  -10989   -10990   -10795   -10454   -10156   -10076   -10238   -10523 
  -10801   -10974   -10948   -10705   -10366   -10042    -9774    -9618 
   -9624    -9786   -10052   -10330   -10551   -10700   -10781   -10802 
  -10754   -10602   -10366   -10150   -10091   -10231   -10481   -10669 
  -10673   -10494   -10222    -9973    -9884   -10007   -10246   -10490 
  -10675   -10740   -10693   -10597   -10488   -10382   -10345   -10422 
  -10571   -10712   -10766   -10639   -10328    -9969    -9703    -9587 
   -9649    -9867   -10131   -10323   -10384   -10335   -10250   -10191 
  -10185   -10227   -10314   -10494   -10790   -11102   -11310   -11356 
  -11223   -10910   -10457    -9975    -9625    -9526    -9718   -10145 
  -10654   -11076   -11279   -11206   -10932   -10612   -10361   -10247 
  -10278   -10362   -10399   -10378   -10351   -10345   -10350   -10320 
  -10228   -10106   -10021   -10049   -10230   -10501   -10725   -10779 
  -10640   -10386   -10176   -10133   -10260   -10449   -10535   -10409 
  -10130    -9877    -9780    -9841    -9991   -10154   -10291   -10400 
  -10509   -10671   -10878   -11037   -11059   -10968   -10866   -10786 
  -10679   -10498   -10287   -10156   -10138   -10162   -10161   -10122 
  -10041    -9945    -9929   -10083   -10366   -10594   -10597   -10400 
  -10230   -10303   -10608   -10960   -11191   -11205   -10991   -10597 
  -10093    -9626    -9402    -9541    -9960   -10447   -10787   -10847 
  -10627   -10297   -10093   -10134   -10366   -10616   -10733   -10732 
  -10735   -10790   -10820   -10775   -10675   -10538   -10385   -10253 
  -10158   -10061    -9902    -9722    -9670    -9823   -10129   -10461 
  -10694   -10746   -10612   -10363   -10157   -10133   -10230   -10272 
  -10187   -10061   -10038   -10195   -10485   -10795   -11002   -11061 
  -11025   -10936   -10771   -10528   -10278   -10077    -9952    -9933 
  -10003   -10129   -10280   -10430   -10596   -10777   -10874   -10837 
  -10763   -10752   -10800   -10851   -10851   -10764   -10623   -10498 
  -10427   -10366   -10250   -10041    -9760    -9506    -9427    -9617 
  -10017   -10473   -10864   -11095   -11101   -10917   -10656   -10442 
  -10355   -10397   -10498   -10590   -10639   -10656   -10675   -10700 
  -10727   -10712   -10605   -10443   -10291   -10177   -10129   -10133 
  -10116    -9990    -9720    -9369    -9104    -9123    -9505   -10172 
  -10944   -11603   -11948   -11909   -11607   -11213   -10779   -10323 
   -9958    -9817    -9894   -10049   -10154   -10177   -10184   -10261 
  -10382   -10438   -10372   -10184    -9909    -9675    -9632    -9760 
   -9929   -10023    -9973    -9844    -9853   -10168   -10708   -11222 
  -11529   -11570   -11357   -11003   -10669   -10442   -10314   -10169 
   -9923    -9663    -9560    -9691    -9977   -10250   -10378   -10386 
  -10392   -10450   -10557   -10728   -10945   -11129   -11213   -11146 
  -10879   -10486   -10160   -10008   -10018   -10135   -10270   -10314 
  -10265   -10274   -10427   -10632   -10735   -10644   -10403   -10158 
  -10050   -10108   -10249   -10343   -10345   -10311   -10277   -10237 
  -10223   -10292   -10459   -10648   -10743   -10719   -10667   -10659 
  -10669   -10673   -10710   -10779   -10805   -10755   -10663   -10525 
  -10316   -10081    -9930    -9950   -10111   -10276   -10338   -10296 
  -10197   -10112   -10131   -10280   -10457   -10530   -10469   -10342 
  -10208   -10100   -10080   -10169   -10297   -10374   -10372   -10316 
  -10255   -10264   -10419   -10696   -10941   -11014   -10908   -10706 
  -10492   -10296   -10146   -10102   -10192   -10365   -10525   -10617 
  -10612   -10512   -10366   -10247   -10247   -10422   -10696   -10957 
  -11132   -11155   -11003   -10708   -10327    -9934    -9558    -9234 
   -9077    -9205    -9630   -10234   -10800   -11068   -10926   -10532 
  -10211   -10183   -10390   -10635   -10771   -10789   -10768   -10785 
  -10808   -10773   -10648   -10415   -10092    -9783    -9606    -9626 
   -9864   -10312   -10908   -11461   -11708   -11496   -10939   -10349 
   -9980    -9873    -9925    -9984    -9942    -9845    -9848   -10019 
  -10253   -10399   -10416   -10377   -10358   -10384   -10459   -10567 
  -10627   -10550   -10380   -10258   -10235   -10260   -10316   -10411 
  -10524   -10624   -10670   -10648   -10570   -10439   -10274   -10153 
  -10172   -10331   -10551   -10781   -10940   -10926   -10775   -10589 
  -10384   -10177   -10041   -10003   -10019   -10042   -10026    -9961 
   -9918    -9976   -10131   -10341   -10550   -10692   -10750   -10768 
  -10771   -10740   -10656   -10523   -10378   -10255   -10141   -10011 
   -9923    -9965   -10166   -10458   -10701   -10781   -10706   -10615 
  -10667   -10872   -11057   -11020   -10717   -10316   -10030    -9941 
   -9996   -10084   -10118   -10118   -10193   -10380   -10555   -10584 
  -10467   -10345   -10395   -10646   -10883   -10925   -10775   -10517 
  -10292   -10228   -10312   -10408   -10390   -10246   -10053    -9896 
   -9818    -9813    -9849    -9887    -9931   -10012   -10115   -10172 
  -10147   -10110   -10180   -10415   -10770   -11130   -11341   -11298 
  -11014   -10588   -10146    -9825    -9721    -9830   -10089   -10430 
  -10783   -11061   -11169   -11075   -10835   -10562   -10342   -10192 
  -10107   -10088   -10129   -10223   -10361   -10496   -10550   -10485 
  -10362   -10276   -10249   -10250   -10246   -10239   -10268   -10357 
  -10497   -10656   -10779   -10804   -10696   -10513   -10380   -10346 
  -10358   -10359   -10336   -10282   -10195   -10083   -10008   -10041 
  -10153   -10260   -10320   -10314   -10235   -10137   -10119   -10265 
  -10562   -10918   -11205   -11302   -11171   -10860   -10484   -10166 
   -9987    -9933    -9965   -10052   -10131   -10157   -10192   -10307 
  -10455   -10542   -10525   -10431   -10328   -10270   -10274   -10347 
  -10447   -10525   -10586   -10635   -10643   -10590   -10497   -10396 
  -10324   -10319   -10384   -10488   -10565   -10555   -10467   -10397 
  -10470   -10693   -10930   -11056   -11007   -10751   -10359   -10025 
   -9925   -10099   -10392   -10561   -10509   -10332   -10164   -10083 
  -10107   -10196   -10282   -10312   -10330   -10404   -10539   -10692 
  -10822   -10914   -10937   -10827   -10554   -10197    -9930    -9891 
  -10068   -10300   -10408   -10331   -10162   -10034   -10004   -10091 
  -10278   -10490   -10655   -10741   -10779   -10824   -10868   -10864 
  -10808   -10731   -10633   -10466   -10222    -9981    -9815    -9725 
   -9718    -9857   -10161   -10508   -10712   -10675   -10462   -10210 
  -10012    -9898    -9882    -9999   -10243   -10527   -10754   -10890 
  -10890   -10724   -10501   -10346   -10288   -10311   -10353   -10335 
  -10284   -10274   -10332   -10439   -10561   -10640   -10646   -10571 
  -10405   -10187   -10038   -10053   -10211   -10442   -10685   -10868 
  -10944   -10953   -10962   -10952   -10871   -10700   -10465   -10231 
  -10053    -9958    -9942    -9988   -10064   -10112   -10110   -10091 
  -10083   -10091   -10156   -10314   -10490   -10593   -10620   -10602 
  -10577   -10574   -10546   -10453   -10330   -10250   -10269   -10392 
  -10539   -10594   -10505   -10326   -10164   -10080   -10072   -10126 
  -10168   -10112    -9994    -9890    -9850    -9931   -10153   -10450 
  -10732   -10936   -11018   -10970   -10837   -10682   -10535   -10404 
  -10274   -10139   -10027    -9953    -9926    -9992   -10180   -10419 
  -10597   -10655   -10589   -10440   -10315   -10320   -10469   -10692 
  -10894   -11005   -11011   -10914   -10709   -10442   -10208   -10108 
  -10183   -10357   -10494   -10501   -10374   -10193   -10072   -10088 
  -10249   -10507   -10756   -10882   -10822   -10616   -10378   -10238 
  -10235   -10309   -10373   -10393   -10372   -10322   -10312   -10397 
  -10543   -10678   -10716   -10611   -10427   -10278   -10214   -10250 
  -10372   -10485   -10481   -10304   -10006    -9728    -9617    -9778 
  -10191   -10673   -10999   -11063   -10898   -10608   -10319   -10149 
  -10123   -10176   -10242   -10326   -10444   -10589   -10709   -10732 
  -10647   -10515   -10372   -10220   -10084   -10008   -10025   -10110 
  -10218   -10285   -10234   -10073    -9904    -9823    -9895   -10098 
  -10322   -10501   -10644   -10744   -10775   -10731   -10631   -10505 
  -10401   -10380   -10485   -10678   -10843   -10868   -10741   -10536 
  -10314   -10137   -10095   -10210   -10397   -10562   -10682   -10778 
  -10843   -10854   -10806   -10709   -10596   -10511   -10477   -10494 
  -10558   -10623   -10617   -10501   -10305   -10126   -10045   -10077 
  -10199   -10347   -10435   -10442   -10401   -10358   -10336   -10307 
  -10231   -10125   -10025    -9956    -9965   -10092   -10291   -10465 
  -10548   -10527   -10442   -10362   -10328   -10331   -10346   -10351 
  -10316   -10224   -10130   -10091   -10107   -10165   -10261   -10386 
  -10546   -10723   -10827   -10787   -10625   -10420   -10255   -10152 
  -10085   -10088   -10223   -10465   -10728   -10932   -11003   -10908 
  -10714   -10523   -10381   -10300   -10273   -10297   -10376   -10490 
  -10616   -10728   -10793   -10775   -10681   -10589   -10557   -10558 
