Origin Time       2024/04/02 04:24:00
Lat.              40.133
Long.             141.712
Depth. (km)       71
Mag.              6.0
Station Code      TKCH10
Station Lat.      43.3337
Station Long.     142.9448
Station Height(m) 365
Record Time       2024/04/02 04:26:06
Sampling Freq(Hz) 100Hz
Duration Time(s)  120
Dir.              4
Scale Factor      3920(gal)/6170801
Max. Acc. (gal)   0.959
Last Correction   2024/04/02 04:25:51
Memo.             
[...]
    8201     8158     8071     8067     8155     8227     8233     8189 
    8125     8094     8140     8230     8255     8167     8041     7987 
    8047     8201     8383     8445     8312     8152     8109     8112 
    8123     8188     8231     8146     8012     7942     7915     7942 
    8049     8155     8226     8289     8303     8238     8134     8064 
    8075     8135     8182     8181     8125     8068     8080     8150 
    8200     8205     8242     8312     8289     8145     8034     8065 
    8151     8214     8283     8282     8129     7948     7897     7964 
    8059     8166     8256     8219     8075     7976     7970     8020 
    8117     8250     8347     8313     8191     8120     8117     8140 
    8203     8262     8254     8186     8072     7996     8072     8215 
    8263     8239     8216     8133     7997     8001     8193     8365 
    8383     8325     8258     8137     7981     7941     8073     8235 
    8273     8188     8102     8075     8082     8116     8180     8216 
    8158     8054     8000     8004     8014     8020     8074     8179 
    8226     8132     7985     7936     7970     7975     7969     8071 
    8263     8346     8224     8053     7955     7917     7954     8060 
    8185     8318     8399     8302     8031     7813     7870     8144 
    8384     8458     8413     8306     8150     7987     7913     7968 
    8097     8254     8369     8313     8122     7980     7923     7890 
    7930     8105     8306     8342     8200     8019     7912     7946 
    8064     8118     8114     8161     8228     8216     8139     8103 
    8138     8163     8176     8232     8277     8254     8190     8136 
    8133     8159     8163     8152     8137     8123     8117     8091 
    8052     8041     8072     8136     8182     8123     8002     7991 
    8136     8301     8377     8351     8263     8157     8051     7984 
    8004     8089     8167     8205     8221     8228     8215     8202 
    8203     8184     8161     8159     8094     7941     7850     7908 
    8037     8168     8308     8407     8367     8215     8089     8044 
    8061     8172     8361     8457     8350     8155     8002     7876 
    7795     7848     8041     8296     8483     8469     8270     8035 
    7876     7817     7915     8202     8491     8548     8422     8261 
    8016     7737     7707     7967     8228     8354     8403     8302 
    8031     7826     7851     8033     8258     8444     8505     8375 
    8107     7929     8000     8228     8433     8518     8437     8180 
    7899     7815     7921     8062     8205     8334     8332     8180 
    8002     7896     7884     7981     8137     8215     8209     8225 
    8233     8161     8089     8088     8085     8043     8043     8118 
    8186     8196     8181     8145     8068     7974     7930     7989 
    8104     8188     8222     8216     8185     8146     8078     8020 
    8056     8160     8238     8260     8249     8185     8084     8078 
    8182     8227     8177     8139     8127     8105     8119     8214 
    8300     8248     8112     8067     8145     8201     8176     8178 
    8243     8280     8252     8191     8108     8002     7919     7932 
    8052     8205     8323     8377     8334     8213     8106     8041 
    7971     7925     8024     8252     8412     8385     8254     8147 
    8106     8085     8060     8058     8062     8041     8020     8033 
    8062     8061     8024     7986     7987     8065     8196     8274 
    8253     8206     8193     8187     8147     8060     7943     7866 
    7916     8072     8197     8219     8211     8214     8171     8128 
    8159     8169     8117     8130     8200     8180     8100     8117 
    8220     8249     8201     8187     8171     8106     8091     8156 
    8232     8279     8241     8085     7931     7949     8098     8210 
    8290     8382     8363     8195     8051     8030     8050     8088 
    8187     8273     8233     8093     7995     8002     8053     8111 
    8203     8262     8169     7976     7882     7934     8019     8104 
    8217     8282     8245     8198     8192     8179     8189     8287 
    8403     8385     8213     8033     7961     7978     8055     8163 
    8244     8244     8143     7995     7908     7923     8021     8195 
    8381     8461     8409     8294     8141     7973     7906     8014 
    8195     8295     8282     8227     8162     8068     8007     8050 
    8119     8117     8095     8125     8172     8204     8258     8307 
    8235     8053     7946     7987     8079     8200     8363     8430 
    8314     8169     8176     8280     8324     8325     8343     8299 
    8157     7968     7842     7899     8061     8188     8288     8322 
    8203     8030     7988     8073     8147     8172     8179     8126 
    8021     7978     8024     8083     8114     8088     8032     8040 
    8125     8171     8109     7999     7921     7934     8048     8216 
    8379     8419     8263     8069     8014     8035     8033     8095 
    8292     8446     8381     8184     8011     7919     7959     8167 
    8377     8375     8212     8055     7959     7950     8043     8161 
    8202     8167     8095     8017     8005     8071     8165     8249 
    8276     8215     8102     8014     7998     8063     8221     8363 
    8314     8134     8002     7924     7895     7997     8156     8215 
    8253     8391     8497     8395     8146     7978     7957     7961 
    8034     8252     8406     8335     8194     8090     7939     7819 
    7912     8125     8224     8207     8207     8154     7965     7847 
    7949     8104     8215     8306     8290     8120     7988     8094 
    8329     8447     8446     8430     8341     8118     7865     7751 
    7838     8043     8275     8463     8499     8353     8111     7861 
    7725     7819     8066     8245     8248     8159     8049     7916 
    7860     7965     8135     8284     8400     8408     8247     8050 
    8019     8135     8210     8202     8192     8188     8183     8208 
    8256     8280     8249     8179     8107     8070     8117     8225 
    8254     8140     8001     7933     7930     7979     8079     8204 
    8318     8382     8350     8239     8138     8120     8194     8308 
    8343     8244     8118     8063     8045     8060     8188     8363 
    8373     8219     8091     8028     7967     7972     8082     8128 
    8030     7986     8084     8144     8092     8081     8128     8100 
    8027     8020     8067     8110     8117     8106     8115     8115 
    8124     8201     8250     8146     7993     7947     7972     7987 
    8047     8189     8291     8257     8148     8019     7912     7909 
    8024     8194     8343     8404     8334     8136     7884     7733 
    7777     7974     8240     8474     8549     8421     8197     8040 
    7999     8046     8199     8355     8322     8141     7998     7914 
    7846     7866     8028     8225     8307     8275     8210     8086 
    7898     7802     7895     8098     8315     8484     8496     8299 
    8026     7872     7888     8026     8226     8382     8411     8350 
    8238     8086     7989     8053     8236     8427     8554     8521 
    8295     8052     7949     7938     7952     8044     8203     8278 
    8230     8163     8110     8042     8009     8078     8171     8165 
    8122     8125     8108     8060     8088     8195     8274     8287 
    8269     8241     8207     8201     8251     8317     8333     8266 
    8113     7950     7904     7983     8107     8235     8299     8213 
    8054     8001     8083     8174     8193     8162     8115     8059 
    8036     8123     8300     8425     8435     8357     8187     7980 
    7893     7992     8150     8196     8150     8091     7980     7886 
    7969     8190     8380     8415     8276     8070     7930     7920 
    8030     8181     8287     8291     8143     7922     7797     7837 
    8007     8206     8307     8307     8244     8140     8062     8069 
    8169     8312     8384     8319     8129     7927     7865     7941 
    8055     8182     8305     8323     8205     8062     7980     7990 
    8088     8183     8234     8302     8375     8346     8179     7962 
    7828     7854     8040     8283     8396     8321     8207     8126 
    8037     8005     8118     8282     8345     8290     8145     7911 
    7714     7752     7977     8151     8209     8225     8174     8048 
    7990     8073     8232     8417     8581     8585     8350     8003 
    7715     7569     7652     7957     8275     8434     8458     8399 
    8221     7982     7871     7961     8128     8283     8464     8633 
    8620     8383     8114     7937     7810     7777     7902     8044 
    8086     8161     8326     8357     8193     8081     8066     7983 
    7921     8074     8331     8449     8410     8274     7989     7676 
    7677     8049     8469     8716     8793     8677     8370     8062 
    7913     7899     7987     8130     8159     7987     7762     7639 
    7626     7716     7939     8201     8360     8428     8490     8522 
    8473     8392     8300     8101     7833     7708     7813     8028 
    8215     8314     8250     7987     7696     7624     7868     8331 
    8756     8851     8509     7894     7361     7221     7474     7882 
    8247     8477     8503     8300     8054     8057     8328     8593 
    8617     8412     8126     7870     7812     8113     8633     8999 
    8980     8599     8001     7447     7236     7440     7876     8304 
    8606     8722     8548     8183     7895     7778     7788     7856 
    7939     8100     8340     8499     8433     8129     7739     7516 
    7575     7834     8142     8353     8378     8243     8094     8076 
    8228     8469     8602     8438     8020     7679     7716     8069 
    8490     8854     9063     8943     8470     7880     7453     7303 
    7458     7874     8332     8582     8596     8483     8264     7937 
    7712     7789     8070     8364     8526     8453     8159     7817 
    7653     7750     7993     8214     8253     7999     7572     7319 
    7491     8041     8713     9200     9271     8909     8299     7720 
    7429     7569     8066     8584     8763     8566     8241     7994 
    7872     7919     8185     8537     8722     8599     8238     7838 
    7576     7582     7905     8371     8648     8488     7975     7499 
    7376     7644     8163     8617     8679     8360     7906     7447 
    7133     7240     7788     8484     9091     9478     9459     8985 
    8320     7776     7475     7468     7733     8121     8468     8633 
    8563     8264     7798     7454     7515     7945     8505     8905 
    8938     8607     8077     7586     7316     7335     7673     8241 
    8760     8951     8774     8420     8098     7889     7859     8041 
    8205     8034     7607     7323     7425     7855     8398     8769 
    8781     8535     8287     8173     8208     8350     8475     8456 
    8266     7982     7747     7741     8021     8376     8553     8455 
    8098     7654     7423     7604     8100     8578     8771     8645 
    8294     7885     7633     7652     7855     8018     8017     7937 
    7853     7740     7679     7870     8319     8754     8954     8876 
    8547     8092     7787     7809     8029     8282     8515     8595 
    8410     8114     7907     7821     7862     8031     8189     8212 
    8173     8155     8058     7835     7685     7750     7957     8232 
    8543     8806     8877     8653     8228     7846     7667     7722 
    8004     8376     8596     8556     8323     7999     7705     7596 
    7746     8003     8165     8186     8086     7942     7916     8026 
    8195     8441     8691     8661     8208     7584     7186     7199 
    7576     8116     8505     8522     8171     7640     7288     7465 
    8185     9049     9536     9394     8737     7918     7355     7266 
    7610     8169     8632     8800     8661     8382     8224     8221 
    8225     8187     8092     7923     7740     7660     7785     8067 
    8349     8534     8584     8545     8499     8466     8453     8422 
    8253     7854     7313     6895     6824     7171     7908     8816 
    9471     9566     9113     8362     7665     7348     7564     8108 
    8524     8542     8213     7724     7329     7295     7739     8473 
    9094     9293     8989     8317     7605     7170     7156     7570 
    8204     8703     8860     8672     8234     7766     7547     7684 
    8049     8439     8636     8468     8008     7614     7608     8019 
    8676     9251     9356     8877     8027     7164     6698     6889 
    7674     8690     9433     9526     8932     7985     7207     6944 
    7243     7954     8716     9092     8866     8221     7613     7304 
    7357     7873     8672     9270     9322     8788     7962     7252 
    6873     6952     7506     8287     8980     9295     9101     8581 
    7996     7614     7680     8059     8407     8499     8231     7770 
    7489     7522     7721     7940     8122     8262     8363     8418 
    8459     8492     8428     8251     8073     7958     7901     7912 
    8041     8264     8421     8388     8216     7997     7780     7657 
    7720     7873     7912     7838     7806     7861     8007     8268 
    8509     8559     8454     8359     8371     8472     8540     8463 
    8273     8067     7887     7779     7785     7854     7872     7754 
    7527     7375     7542     8076     8688     9041     9024     8634 
    7957     7336     7198     7660     8449     9193     9643     9651 
    9220     8637     8224     8037     7995     8059     8219     8379 
    8319     8008     7649     7391     7362     7678     8174     8540 
    8623     8413     7985     7530     7255     7242     7423     7665 
    7888     8094     8286     8410     8474     8617     8858     8984 
    8836     8491     8127     7862     7796     7987     8296     8467 
    8396     8162     7870     7675     7747     8079     8486     8784 
    8846     8634     8251     7917     7807     7936     8213     8468 
    8513     8362     8205     8119     8051     7952     7815     7639 
    7427     7306     7418     7685     7940     8094     8068     7848 
    7624     7631     7926     8396     8889     9225     9169     8657 
    8001     7628     7695     8063     8537     8935     9035     8756 
    8303     7985     7949     8124     8382     8592     8624     8413 
    8031     7670     7470     7416     7466     7580     7634     7514 
    7334     7402     7866     8518     9005     9114     8835     8315 
    7843     7690     7866     8159     8337     8279     8066     7879 
    7823     7921     8164     8492     8731     8655     8259     7842 
    7748     8061     8553     8898     8867     8405     7712     7178 
    7125     7570     8216     8710     8861     8638     8190     7800 
    7668     7827     8213     8599     8614     8076     7250     6673 
    6671     7143     7809     8439     8861     8974     8806     8549 
    8418     8448     8557     8641     8562     8290     7973     7750 
    7671     7791     8110     8444     8534     8310     7925     7615 
    7576     7843     8224     8459     8451     8257     7963     7692 
    7618     7813     8118     8316     8375     8326     8159     7950 
    7870     8011     8311     8637     8818     8683     8258     7805 
    7555     7588     7898     8336     8674     8796     8704     8467 
    8255     8244     8405     8521     8479     8330     8094     7783 
    7542     7558     7861     8316     8701     8811     8581     8112 
    7603     7334     7506     7995     8458     8634     8451     7981 
    7471     7282     7553     8077     8586     8831     8631     8061 
    7484     7274     7474     7891     8330     8613     8664     8548 
    8409     8397     8493     8556     8475     8236     7978     7805 
    7702     7659     7684     7783     7915     8012     8065     8076 
    8061     8059     8056     8046     8010     7922     7877     7971 
    8165     8391     8590     8681     8614     8415     8183     8045 
    8121     8450     8875     9100     8960     8533     7996     7536 
    7361     7553     7943     8262     8381     8341     8196     8039 
    8089     8429     8808     8956     8856     8578     8153     7731 
    7548     7618     7736     7785     7818     7877     7909     7916 
    8019     8226     8372     8374     8262     8034     7735     7576 
    7751     8148     8410     8347     8121     7961     7943     8077 
    8340     8658     8936     9075     9047     8904     8691     8444 
    8193     7962     7786     7687     7634     7602     7611     7689 
    7816     7954     8104     8252     8347     8371     8350     8287 
    8163     8047     8053     8152     8232     8296     8432     8613 
    8678     8553     8326     8131     8005     7945     8001     8136 
    8151     7986     7836     7864     8025     8219     8388     8412 
    8207     7887     7648     7570     7668     7962     8367     8687 
    8761     8527     8085     7653     7379     7345     7601     8025 
    8343     8387     8191     7864     7522     7304     7368     7766 
    8320     8748     8856     8608     8148     7748     7685     8047 
    8623     9072     9153     8809     8181     7577     7334     7549 
    8013     8439     8651     8574     8195     7682     7340     7322 
    7596     8004     8286     8289     8075     7840     7755     7869 
    8160     8479     8620     8560     8386     8178     8084     8189 
    8392     8508     8413     8148     7862     7708     7809     8198 
    8711     8989     8771     8172     7541     7191     7283     7773 
    8413     8845     8859     8536     8081     7670     7479     7649 
    8083     8431     8470     8305     8084     7846     7710     7863 
    8276     8652     8751     8565     8166     7729     7534     7676 
    8014     8383     8648     8718     8592     8381     8246     8243 
    8343     8503     8595     8487     8222     7995     7955     8083 
    8272     8434     8450     8223     7821     7459     7299     7338 
    7512     7761     8005     8194     8317     8340     8253     8098 
    7956     7942     8085     8271     8404     8461     8385     8160 
    7922     7803     7808     7965     8280     8549     8539     8279 
    7960     7709     7576     7610     7825     8127     8375     8466 
    8412     8329     8312     8367     8463     8527     8463     8263 
    8017     7804     7700     7784     8034     8292     8393     8321 
    8185     8076     8042     8110     8261     8439     8590     8629 
    8502     8298     8174     8157     8160     8165     8215     8243 
    8146     8025     8061     8235     8389     8413     8254     7962 
    7738     7782     8078     8447     8740     8881     8800     8493 
    8119     7884     7876     8051     8288     8427     8356     8114 
    7859     7728     7780     7987     8226     8361     8380     8352 
    8300     8188     8019     7857     7766     7787     7947     8177 
    8308     8241     8035     7820     7711     7790     8049     8332 
    8452     8386     8215     7964     7715     7655     7879     8265 
    8580     8691     8583     8304     8021     7883     7877     7956 
    8078     8163     8156     8096     8070     8105     8174     8269 
