Origin Time       2024/04/02 04:24:00
Lat.              40.133
Long.             141.712
Depth. (km)       71
Mag.              6.0
Station Code      TKCH05
Station Lat.      43.1211
Station Long.     143.6181
Station Height(m) -35
Record Time       2024/04/02 04:25:27
Sampling Freq(Hz) 100Hz
Duration Time(s)  124
Dir.              1
Scale Factor      2942(gal)/8224139
Max. Acc. (gal)   0.801
Last Correction   2024/04/02 04:25:27
Memo.             
[...]
 -171940  -171958  -171977  -172039  -172044  -171884  -171660  -171490 
 -171400  -171455  -171657  -171902  -172017  -171913  -171787  -171815 
 -171907  -171994  -172008  -171845  -171602  -171429  -171410  -171537 
 -171587  -171544  -171603  -171674  -171686  -171752  -171795  -171703 
 -171575  -171570  -171693  -171807  -171886  -171979  -171992  -171848 
 -171734  -171791  -171846  -171732  -171540  -171436  -171479  -171629 
 -171755  -171775  -171838  -172030  -172087  -171917  -171807  -171792 
 -171687  -171609  -171656  -171721  -171788  -171792  -171682  -171733 
 -171984  -172061  -172012  -172041  -171931  -171703  -171647  -171706 
 -171730  -171802  -171895  -171842  -171760  -171772  -171684  -171564 
 -171724  -171972  -171925  -171757  -171756  -171730  -171624  -171736 
 -171938  -171884  -171694  -171645  -171740  -171713  -171589  -171640 
 -171729  -171783  -171992  -172084  -171903  -171791  -171755  -171603 
 -171462  -171413  -171391  -171456  -171589  -171636  -171718  -171936 
 -171985  -171774  -171578  -171548  -171633  -171647  -171452  -171310 
 -171459  -171659  -171745  -171857  -171930  -171891  -171940  -172060 
 -172000  -171828  -171709  -171626  -171672  -171841  -171886  -171849 
 -171868  -171756  -171589  -171686  -171840  -171747  -171644  -171636 
 -171545  -171494  -171518  -171472  -171448  -171533  -171618  -171652 
 -171698  -171775  -171803  -171780  -171829  -171953  -171964  -171796 
 -171613  -171525  -171485  -171471  -171544  -171697  -171844  -171990 
 -172083  -171957  -171783  -171787  -171791  -171765  -171865  -171914 
 -171787  -171639  -171531  -171537  -171738  -171822  -171612  -171548 
 -171772  -171855  -171745  -171775  -171988  -172134  -172017  -171784 
 -171713  -171722  -171617  -171493  -171518  -171666  -171822  -171915 
 -171898  -171779  -171714  -171802  -171865  -171809  -171792  -171818 
 -171734  -171597  -171566  -171625  -171684  -171709  -171714  -171736 
 -171776  -171809  -171786  -171693  -171672  -171796  -171921  -171988 
 -171949  -171656  -171293  -171225  -171428  -171598  -171639  -171695 
 -171761  -171769  -171896  -172104  -172091  -171867  -171648  -171539 
 -171576  -171649  -171599  -171514  -171535  -171564  -171517  -171536 
 -171741  -171944  -171925  -171815  -171751  -171680  -171721  -171840 
 -171747  -171595  -171674  -171759  -171651  -171567  -171653  -171769 
 -171749  -171711  -171832  -171975  -171985  -171934  -171933  -171965 
 -171883  -171720  -171637  -171579  -171494  -171443  -171443  -171564 
 -171796  -171937  -171973  -172033  -172021  -171868  -171724  -171682 
 -171690  -171644  -171593  -171757  -172004  -172027  -171953  -171876 
 -171697  -171578  -171674  -171792  -171768  -171744  -171802  -171801 
 -171752  -171765  -171747  -171620  -171583  -171713  -171791  -171845 
 -171969  -171942  -171765  -171726  -171784  -171778  -171726  -171641 
 -171535  -171487  -171513  -171545  -171541  -171601  -171818  -171960 
 -171825  -171634  -171636  -171791  -171913  -171934  -171946  -171965 
 -171918  -171779  -171585  -171516  -171644  -171715  -171598  -171526 
 -171633  -171768  -171888  -171976  -171848  -171597  -171544  -171711 
 -171853  -171830  -171747  -171728  -171782  -171887  -171983  -171972 
 -171903  -171865  -171805  -171684  -171556  -171518  -171655  -171857 
 -171934  -171864  -171757  -171667  -171566  -171479  -171512  -171644 
 -171687  -171589  -171502  -171567  -171741  -171819  -171757  -171667 
 -171579  -171562  -171660  -171767  -171780  -171711  -171636  -171586 
 -171535  -171526  -171629  -171767  -171821  -171817  -171779  -171764 
 -171855  -171903  -171845  -171846  -171798  -171587  -171539  -171737 
 -171837  -171828  -171896  -171950  -171963  -171999  -171946  -171805 
 -171728  -171641  -171509  -171451  -171456  -171594  -171857  -171940 
 -171859  -171829  -171752  -171598  -171509  -171459  -171425  -171551 
 -171774  -171869  -171837  -171819  -171844  -171840  -171775  -171671 
 -171475  -171221  -171200  -171501  -171806  -171991  -172129  -172093 
 -171936  -171884  -171841  -171676  -171586  -171601  -171578  -171536 
 -171471  -171416  -171454  -171575  -171718  -171676  -171467  -171474 
 -171663  -171776  -171906  -172031  -172019  -172010  -171967  -171738 
 -171499  -171391  -171375  -171460  -171598  -171663  -171668  -171709 
 -171713  -171622  -171572  -171618  -171688  -171747  -171722  -171626 
 -171693  -171940  -172041  -171886  -171764  -171832  -171790  -171512 
 -171358  -171474  -171674  -171856  -171950  -171934  -171844  -171625 
 -171432  -171501  -171522  -171323  -171413  -171848  -172061  -172044 
 -172089  -172060  -171871  -171795  -171954  -172152  -172145  -171973 
 -171909  -172022  -172118  -172018  -171825  -171832  -171892  -171722 
 -171668  -171845  -171749  -171491  -171535  -171730  -171934  -172156 
 -172112  -171798  -171630  -171753  -171929  -171922  -171713  -171443 
 -171382  -171589  -171679  -171528  -171558  -171834  -171960  -171875 
 -171823  -171819  -171726  -171612  -171610  -171593  -171483  -171477 
 -171598  -171738  -171890  -171995  -171994  -171907  -171795  -171757 
 -171886  -172050  -171952  -171679  -171653  -171790  -171752  -171697 
 -171779  -171763  -171562  -171460  -171578  -171626  -171551  -171636 
 -171826  -171910  -171942  -171929  -171818  -171688  -171622  -171679 
 -171791  -171786  -171753  -171856  -171888  -171724  -171637  -171736 
 -171721  -171497  -171387  -171575  -171876  -171915  -171622  -171499 
 -171698  -171736  -171564  -171559  -171667  -171720  -171888  -172060 
 -171930  -171772  -171855  -171927  -171873  -171803  -171726  -171664 
 -171624  -171568  -171545  -171562  -171543  -171560  -171678  -171728 
 -171567  -171405  -171520  -171744  -171768  -171705  -171772  -171849 
 -171805  -171791  -171883  -171956  -171914  -171802  -171763  -171825 
 -171849  -171760  -171718  -171877  -171940  -171695  -171636  -171892 
 -171936  -171811  -171845  -171863  -171814  -171852  -171795  -171540 
 -171421  -171560  -171667  -171680  -171713  -171741  -171795  -171830 
 -171776  -171776  -171836  -171838  -171846  -171841  -171672  -171369 
 -171192  -171329  -171585  -171725  -171776  -171765  -171694  -171641 
 -171644  -171639  -171609  -171653  -171751  -171715  -171514  -171377 
 -171516  -171818  -171941  -171803  -171675  -171655  -171579  -171529 
 -171656  -171796  -171887  -171940  -171879  -171883  -171992  -171922 
 -171753  -171607  -171300  -171015  -171040  -171181  -171255  -171394 
 -171688  -172011  -172156  -172201  -172359  -172473  -172334  -172012 
 -171674  -171498  -171540  -171612  -171504  -171319  -171306  -171381 
 -171483  -171819  -172187  -172314  -172335  -172224  -171929  -171671 
 -171486  -171277  -171088  -171008  -171111  -171302  -171481  -171755 
 -171965  -171810  -171675  -172075  -172631  -172716  -172373  -171941 
 -171666  -171711  -171853  -171717  -171427  -171321  -171400  -171374 
 -171120  -171016  -171313  -171667  -171842  -171976  -172131  -172251 
 -172282  -172239  -172219  -172200  -172188  -172291  -172300  -171946 
 -171483  -171289  -171394  -171775  -172368  -172740  -172536  -171896 
 -171138  -170625  -170557  -170815  -171310  -171880  -172223  -172239 
 -172098  -172139  -172378  -172474  -172455  -172297  -171676  -170953 
 -170953  -171672  -172309  -172341  -171968  -171622  -171427  -171327 
 -171240  -171135  -171220  -171431  -171327  -170981  -170950  -171410 
 -171973  -172241  -172222  -172238  -172411  -172470  -172347  -172158 
 -171722  -171197  -171153  -171537  -171880  -172003  -171864  -171555 
 -171279  -171001  -170872  -171274  -171953  -172471  -172858  -173001 
 -172847  -172620  -172230  -171757  -171522  -171324  -171012  -170897 
 -171015  -171189  -171495  -171922  -172189  -172246  -172249  -172137 
 -171840  -171647  -171790  -172022  -172137  -172118  -171786  -171155 
 -170650  -170484  -170455  -170495  -170872  -171695  -172710  -173254 
 -172756  -171721  -171100  -171085  -171450  -171903  -171991  -171493 
 -170826  -170653  -171144  -171926  -172480  -172513  -172092  -171454 
 -170858  -170576  -170680  -170899  -171036  -171427  -172378  -173407 
 -173720  -173132  -172210  -171717  -171726  -171745  -171620  -171470 
 -171375  -171562  -172131  -172763  -173090  -172949  -172280  -171273 
 -170495  -170372  -170726  -171227  -171734  -171960  -171707  -171351 
 -171350  -171580  -171778  -172114  -172581  -172613  -171977  -171348 
 -171450  -171927  -171898  -171377  -170995  -171026  -171497  -172098 
 -172196  -171687  -170924  -170274  -170112  -170451  -171036  -171714 
 -172208  -172517  -172930  -173194  -173071  -172828  -172381  -171630 
 -171090  -170914  -170818  -171077  -171875  -172474  -172350  -171845 
 -171441  -171404  -171702  -171980  -172122  -172404  -172767  -172816 
 -172363  -171364  -170172  -169673  -170154  -170865  -171373  -171975 
 -172544  -172725  -172820  -172879  -172470  -171822  -171373  -171049 
 -170833  -170866  -171163  -171593  -171909  -171884  -171563  -171375 
 -171703  -172341  -172763  -172797  -172710  -172658  -172426  -171963 
 -171423  -170803  -170297  -170272  -170704  -171274  -171671  -171709 
 -171532  -171539  -171834  -172129  -172277  -172473  -172851  -173175 
 -173051  -172489  -171942  -171580  -171043  -170370  -170274  -170942 
 -171840  -172766  -173610  -173790  -173095  -172142  -171541  -171143 
 -170598  -170283  -170537  -170738  -170522  -170586  -171331  -171922 
 -171683  -171405  -171917  -172504  -172296  -171809  -171802  -172057 
 -172114  -171983  -171944  -172246  -172710  -172820  -172426  -171788 
 -171059  -170357  -170005  -170181  -170694  -171313  -171895  -172424 
 -172886  -172859  -172211  -171678  -171829  -172311  -172400  -171957 
 -171528  -171400  -171402  -171424  -171364  -171335  -171656  -172149 
 -172458  -172567  -172428  -172093  -171661  -170959  -170149  -169781 
 -169947  -170243  -170618  -171458  -172519  -173090  -173203  -173292 
 -173369  -173186  -172547  -171671  -171047  -170738  -170642  -170824 
 -171108  -171439  -171927  -172130  -171809  -171482  -171443  -171520 
 -171540  -171676  -172192  -172527  -172191  -171894  -171855  -171424 
 -170981  -171182  -171587  -171861  -172207  -172513  -172786  -173173 
 -173233  -172862  -172558  -172119  -171354  -170834  -170696  -170661 
 -170683  -170746  -171028  -171707  -172393  -172520  -172003  -171428 
 -171313  -171375  -171463  -171796  -172046  -171972  -171776  -171497 
 -171448  -171934  -172378  -172326  -172181  -172250  -172170  -171639 
 -171147  -171148  -171171  -170932  -170873  -171170  -171560  -171709 
 -171749  -172161  -172480  -172046  -171629  -171876  -172185  -172228 
 -172062  -171452  -170715  -170519  -170797  -171265  -171819  -172120 
 -172011  -171795  -171634  -171717  -172343  -173068  -173072  -172386 
 -171682  -171335  -171211  -171455  -172373  -173234  -173207  -172624 
 -171929  -171252  -170861  -170838  -171031  -171211  -171270  -171385 
 -171509  -171427  -171216  -171077  -171229  -171599  -171784  -171826 
 -172088  -172521  -172831  -172750  -172091  -171178  -170631  -170679 
 -171144  -171450  -171229  -171256  -172012  -172534  -172326  -172247 
 -172611  -172569  -171891  -171391  -171182  -170737  -170482  -170985 
 -171641  -171906  -172008  -171923  -171679  -171875  -172530  -173030 
 -173192  -173074  -172484  -171460  -170610  -170367  -170561  -170974 
 -171390  -171493  -171481  -171926  -172806  -173529  -173611  -172910 
 -171910  -171450  -171451  -171146  -170625  -170587  -170837  -170673 
 -170325  -170526  -171337  -172318  -173074  -173372  -173152  -172615 
 -172212  -172157  -172081  -171690  -171215  -170850  -170602  -170707 
 -171231  -171765  -171976  -171933  -171865  -171809  -171656  -171489 
 -171423  -171302  -170993  -170749  -170797  -170932  -171116  -171528 
 -172014  -172473  -172995  -173395  -173485  -173280  -172639  -171562 
 -170534  -170005  -169958  -170121  -170401  -171004  -171879  -172532 
 -172773  -172774  -172563  -172301  -172278  -172311  -172176  -171891 
 -171354  -170996  -171447  -172096  -171977  -171381  -171197  -171516 
 -171775  -171775  -171664  -171533  -171512  -171603  -171477  -171086 
 -171005  -171466  -172075  -172463  -172413  -172077  -171913  -171915 
 -171821  -171763  -171888  -172017  -171940  -171705  -171435  -171066 
 -170799  -171047  -171553  -171767  -171837  -172081  -172173  -171956 
 -171994  -172405  -172609  -172257  -171483  -170872  -170803  -170910 
 -171004  -171343  -171941  -172384  -172073  -171271  -170920  -171070 
 -171437  -172216  -172982  -173006  -172534  -172226  -172168  -172080 
 -171923  -171821  -171682  -171486  -171463  -171633  -171828  -171990 
 -172037  -171980  -171938  -171760  -171474  -171337  -171213  -171142 
 -171447  -171802  -171802  -171643  -171441  -171077  -170746  -170880 
 -171428  -171883  -172071  -172193  -172350  -172480  -172434  -172172 
 -171886  -171528  -170962  -170631  -170996  -171755  -172292  -172395 
 -172223  -171923  -171728  -171886  -172169  -172260  -172251  -172145 
 -171883  -171856  -172077  -171927  -171421  -171040  -170816  -170735 
 -170899  -171247  -171749  -172230  -172497  -172729  -172922  -172812 
 -172621  -172612  -172405  -171853  -171409  -171281  -171360  -171518 
 -171493  -171329  -171451  -171682  -171522  -171238  -171197  -171205 
 -171227  -171375  -171337  -170919  -170503  -170395  -170503  -170795 
 -171224  -171531  -171790  -172235  -172704  -173157  -173699  -173975 
 -173788  -173418  -172960  -172388  -171805  -171150  -170495  -170199 
 -170330  -170621  -170834  -170897  -170918  -170997  -171096  -171273 
 -171690  -172141  -172264  -172146  -172039  -171992  -172046  -172157 
 -172207  -172195  -172126  -172014  -171965  -172052  -172185  -172211 
 -172111  -171992  -171887  -171823  -171865  -171803  -171491  -171282 
 -171313  -171290  -171131  -170968  -170988  -171215  -171327  -171377 
 -171751  -172249  -172511  -172561  -172451  -172264  -172064  -171853 
 -171895  -172054  -171856  -171737  -172145  -172443  -172180  -171593 
 -170954  -170621  -170820  -171336  -171903  -172272  -172145  -171747 
 -171636  -171782  -171856  -171923  -172126  -172420  -172509  -172023 
 -171445  -171585  -171971  -171828  -171653  -171972  -172241  -172057 
 -171768  -171636  -171571  -171580  -171628  -171477  -171136  -170853 
 -170726  -170710  -170846  -171261  -171794  -172116  -172324  -172498 
 -172396  -172219  -172206  -172030  -171736  -171633  -171589  -171555 
 -171666  -171829  -171906  -171803  -171628  -171629  -171620  -171259 
 -170835  -170842  -171184  -171481  -171660  -171814  -171907  -171956 
 -172007  -171919  -171759  -171828  -171861  -171486  -171072  -170995 
 -171128  -171382  -171725  -171973  -172060  -172098  -172226  -172477 
 -172588  -172353  -172077  -172046  -172054  -171915  -171648  -171256 
 -170866  -170600  -170448  -170648  -171279  -171780  -171828  -171809 
 -171996  -172254  -172458  -172574  -172509  -172282  -171999  -171602 
 -171193  -171186  -171591  -171946  -172119  -172251  -172218  -171915 
 -171560  -171344  -171323  -171495  -171571  -171313  -171063  -171120 
 -171436  -171941  -172228  -171994  -171755  -171886  -172008  -171918 
 -171838  -171931  -172054  -171938  -171787  -171913  -172000  -171879 
 -171805  -171684  -171487  -171483  -171545  -171528  -171721  -172085 
 -172208  -172154  -172125  -171960  -171810  -171917  -171896  -171508 
 -171261  -171489  -171803  -171898  -172006  -172262  -172351  -172089 
 -171725  -171474  -171364  -171402  -171593  -171859  -171994  -171923 
 -171779  -171589  -171429  -171535  -171780  -171714  -171320  -171066 
 -171081  -171069  -170946  -170831  -170804  -170950  -171188  -171412 
 -171834  -172463  -172916  -173052  -172962  -172705  -172423  -172231 
 -172065  -171736  -171282  -170972  -170831  -170824  -171011  -171312 
 -171757  -172261  -172420  -172284  -172224  -172158  -171946  -171694 
 -171435  -171423  -171902  -172386  -172359  -172103  -172068  -172227 
 -172318  -172207  -171963  -171796  -171853  -171976  -171805  -171250 
 -170656  -170359  -170378  -170698  -171327  -171967  -172250  -172219 
 -172143  -172170  -172351  -172593  -172578  -172238  -171950  -171850 
 -171697  -171397  -171112  -171096  -171335  -171396  -171046  -170721 
 -170955  -171545  -171864  -171948  -172230  -172455  -172142  -171695 
 -171659  -171683  -171483  -171427  -171551  -171543  -171397  -171197 
 -171008  -170993  -171113  -171153  -171093  -171027  -171034  -171270 
 -171578  -171568  -171483  -171833  -172339  -172528  -172660  -172975 
 -173115  -172899  -172617  -172482  -172404  -172382  -172358  -171991 
 -171416  -171154  -171130  -171192  -171440  -171691  -171760  -171597 
 -171113  -170594  -170453  -170703  -171244  -172002  -172659  -172910 
 -172781  -172536  -172427  -172457  -172386  -172034  -171548  -171246 
 -171155  -171159  -171294  -171468  -171517  -171377  -171024  -170760 
 -170808  -170833  -170729  -170856  -171192  -171424  -171508  -171509 
 -171502  -171620  -171815  -172010  -172322  -172700  -172889  -172835 
 -172682  -172551  -172454  -172320  -172100  -171788  -171413  -171055 
 -170811  -170804  -171051  -171227  -171119  -171066  -171324  -171609 
 -171670  -171603  -171517  -171501  -171668  -171900  -172022  -172107 
 -172326  -172642  -172859  -172840  -172508  -172058  -171958  -172098 
 -171965  -171666  -171529  -171444  -171223  -170945  -170849  -171067 
 -171455  -171749  -171886  -171933  -171910  -171788  -171481  -171067 
 -170907  -171126  -171413  -171435  -171208  -171090  -171312  -171672 
 -172015  -172413  -172771  -172863  -172579  -172064  -171740  -171795 
 -171867  -171717  -171552  -171440  -171258  -171212  -171567  -172030 
 -172216  -172245  -172312  -172373  -172377  -172319  -172172  -172004 
 -171930  -171891  -171788  -171730  -171756  -171769  -171814  -171980 
 -172199  -172372  -172471  -172416  -172103  -171690  -171460  -171369 
 -171196  -171031  -171062  -171227  -171385  -171574  -171945  -172435 
 -172665  -172442  -172100  -171961  -171898  -171749  -171641  -171567 
 -171356  -171097  -170995  -171085  -171266  -171431  -171678  -172077 
 -172345  -172276  -172058  -171834  -171572  -171316  -171136  -171085 
 -171252  -171606  -171927  -172106  -172210  -172307  -172386  -172345 
 -172096  -171809  -171741  -171909  -172085  -172122  -172089  -172129 
 -172309  -172471  -172373  -172092  -171887  -171836  -171846  -171801 
 -171675  -171572  -171576  -171636  -171544  -171202  -170893  -170868 
 -171001  -171175  -171474  -171902  -172246  -172357  -172369  -172305 
 -172025  -171660  -171458  -171448  -171548  -171674  -171710  -171590 
 -171391  -171251  -171227  -171267  -171297  -171340  -171431  -171558 
 -171703  -171888  -172110  -172206  -172048  -171760  -171509  -171389 
 -171420  -171499  -171547  -171587  -171671  -171788  -171801  -171714 
 -171679  -171556  -171208  -170973  -171059  -171207  -171331  -171533 
 -171713  -171792  -171837  -171903  -172021  -172254  -172593  -172785 
 -172713  -172588  -172415  -172050  -171639  -171337  -171162  -171081 
 -171013  -170970  -170923  -170770  -170685  -170803  -170964  -171225 
 -171621  -171840  -171940  -172195  -172357  -172253  -172214  -172288 
