Origin Time       2024/04/02 04:24:00
Lat.              40.133
Long.             141.712
Depth. (km)       71
Mag.              6.0
Station Code      TKCH10
Station Lat.      43.3337
Station Long.     142.9448
Station Height(m) 265
Record Time       2024/04/02 04:26:06
Sampling Freq(Hz) 100Hz
Duration Time(s)  120
Dir.              2
Scale Factor      2940(gal)/6170270
Max. Acc. (gal)   0.192
Last Correction   2024/04/02 04:25:51
Memo.             
[...]
  202460   202422   202371   202362   202390   202393   202387   202407 
  202421   202411   202411   202440   202464   202447   202414   202404 
  202416   202423   202421   202436   202451   202441   202430   202429 
  202420   202409   202414   202419   202401   202385   202398   202411 
  202413   202415   202400   202365   202327   202325   202372   202393 
  202361   202357   202377   202371   202368   202379   202376   202376 
  202393   202411   202424   202434   202422   202397   202404   202432 
  202427   202407   202415   202406   202376   202374   202364   202336 
  202344   202374   202383   202378   202383   202402   202411   202427 
  202467   202477   202437   202411   202420   202416   202403   202423 
  202462   202483   202492   202500   202479   202441   202431   202428 
  202417   202418   202417   202411   202415   202423   202419   202425 
  202465   202486   202447   202390   202347   202317   202321   202363 
  202385   202361   202338   202325   202307   202323   202380   202419 
  202425   202436   202457   202463   202442   202408   202392   202394 
  202409   202441   202459   202465   202474   202449   202397   202366 
  202357   202355   202357   202357   202371   202411   202445   202442 
  202417   202412   202426   202426   202432   202465   202493   202502 
  202504   202496   202463   202418   202382   202350   202336   202352 
  202371   202389   202412   202416   202405   202405   202405   202384 
  202367   202373   202379   202392   202438   202478   202486   202480 
  202467   202446   202432   202429   202418   202383   202348   202338 
  202357   202388   202408   202412   202425   202444   202430   202400 
  202386   202380   202387   202395   202373   202345   202328   202332 
  202372   202419   202435   202436   202440   202436   202410   202388 
  202395   202404   202405   202417   202430   202430   202423   202411 
  202392   202375   202361   202361   202382   202400   202407   202418 
  202441   202455   202452   202460   202481   202466   202434   202444 
  202450   202414   202398   202406   202397   202404   202433   202420 
  202384   202397   202424   202418   202409   202406   202384   202364 
  202364   202369   202385   202404   202417   202433   202441   202437 
  202453   202473   202478   202488   202495   202469   202426   202410 
  202423   202425   202413   202413   202413   202384   202368   202391 
  202390   202351   202328   202317   202315   202342   202354   202340 
  202354   202382   202383   202367   202351   202347   202368   202401 
  202418   202408   202381   202361   202362   202381   202400   202409 
  202421   202432   202415   202391   202396   202409   202416   202432 
  202442   202425   202417   202442   202468   202491   202507   202479 
  202435   202419   202423   202430   202431   202413   202397   202416 
  202444   202441   202434   202448   202447   202413   202385   202393 
  202418   202450   202490   202512   202502   202485   202483   202482 
  202452   202406   202387   202395   202405   202406   202403   202410 
  202431   202461   202476   202469   202458   202458   202478   202493 
  202481   202446   202411   202382   202363   202378   202401   202401 
  202414   202429   202407   202372   202350   202349   202359   202368 
  202379   202385   202354   202310   202318   202363   202387   202405 
  202423   202398   202342   202307   202313   202335   202350   202369 
  202384   202392   202408   202427   202440   202457   202475   202469 
  202440   202416   202406   202406   202396   202371   202359   202360 
  202362   202370   202385   202415   202440   202438   202433   202442 
  202450   202435   202423   202435   202445   202436   202421   202416 
  202422   202430   202437   202449   202461   202460   202456   202459 
  202460   202452   202450   202455   202448   202442   202449   202445 
  202432   202424   202412   202396   202392   202391   202381   202368 
  202344   202321   202323   202334   202346   202350   202350   202377 
  202416   202434   202441   202441   202424   202402   202393   202403 
  202422   202422   202403   202395   202396   202386   202365   202358 
  202375   202399   202421   202436   202441   202440   202428   202427 
  202441   202436   202410   202395   202392   202400   202430   202440 
  202400   202361   202360   202363   202358   202378   202423   202434 
  202416   202412   202414   202426   202467   202494   202482   202472 
  202492   202514   202506   202468   202422   202388   202373   202389 
  202438   202475   202464   202432   202411   202409   202423   202438 
  202444   202457   202472   202463   202430   202400   202383   202377 
  202391   202423   202440   202439   202435   202403   202341   202291 
  202276   202302   202348   202390   202428   202433   202410   202409 
  202419   202426   202438   202437   202415   202391   202370   202345 
  202332   202360   202399   202406   202397   202388   202377   202361 
  202339   202326   202346   202382   202409   202432   202459   202470 
  202453   202448   202472   202478   202466   202457   202418   202369 
  202349   202345   202355   202384   202411   202439   202445   202408 
  202372   202359   202358   202371   202378   202375   202389   202407 
  202411   202396   202368   202362   202381   202399   202405   202410 
  202436   202459   202455   202437   202419   202407   202418   202453 
  202469   202437   202404   202416   202454   202470   202455   202424 
  202388   202373   202398   202426   202426   202400   202373   202370 
  202380   202390   202394   202391   202405   202424   202414   202403 
  202419   202426   202409   202395   202390   202374   202367   202405 
  202473   202509   202484   202437   202410   202392   202381   202382 
  202379   202379   202385   202382   202371   202354   202340   202329 
  202319   202329   202361   202397   202417   202406   202387   202397 
  202427   202446   202449   202455   202460   202431   202395   202397 
  202405   202408   202434   202470   202501   202514   202512   202498 
  202459   202442   202474   202487   202459   202413   202377   202390 
  202427   202453   202472   202452   202406   202381   202377   202384 
  202386   202381   202385   202388   202386   202385   202371   202349 
  202332   202330   202358   202386   202407   202449   202483   202489 
  202486   202448   202387   202364   202366   202367   202373   202360 
  202339   202353   202377   202384   202378   202353   202335   202341 
  202361   202389   202410   202428   202453   202465   202467   202472 
  202465   202455   202457   202449   202421   202405   202415   202428 
  202433   202433   202422   202418   202436   202461   202468   202450 
  202424   202407   202395   202382   202382   202397   202408   202392 
  202367   202365   202370   202362   202352   202343   202335   202354 
  202408   202451   202464   202456   202419   202377   202363   202357 
  202354   202380   202424   202458   202481   202504   202522   202512 
  202481   202447   202411   202398   202413   202423   202427   202436 
  202432   202413   202406   202409   202405   202396   202383   202382 
  202408   202433   202432   202420   202415   202415   202414   202403 
  202398   202402   202405   202410   202428   202447   202450   202439 
  202421   202403   202400   202399   202392   202391   202399   202418 
  202443   202468   202491   202478   202432   202400   202385   202361 
  202349   202370   202398   202418   202440   202453   202437   202425 
  202428   202422   202406   202395   202408   202452   202489   202514 
  202513   202462   202425   202427   202431   202441   202466   202482 
  202466   202415   202361   202337   202340   202359   202379   202389 
  202405   202435   202459   202458   202439   202424   202420   202426 
  202440   202444   202444   202469   202499   202501   202485   202467 
  202429   202378   202366   202388   202396   202395   202418   202461 
  202480   202456   202414   202368   202334   202333   202343   202359 
  202397   202432   202452   202455   202436   202415   202395   202376 
  202374   202384   202400   202413   202404   202388   202378   202355 
  202324   202305   202302   202330   202381   202425   202440   202433 
  202421   202397   202364   202333   202303   202299   202337   202381 
  202415   202442   202436   202396   202353   202332   202332   202330 
  202313   202293   202292   202339   202420   202496   202560   202578 
  202532   202481   202443   202404   202400   202413   202401   202403 
  202463   202558   202614   202592   202513   202394   202272   202199 
  202190   202234   202307   202403   202516   202597   202620   202594 
  202521   202424   202345   202297   202278   202300   202350   202417 
  202493   202531   202527   202517   202504   202480   202457   202445 
  202450   202465   202479   202462   202401   202337   202301   202301 
  202332   202357   202395   202470   202514   202492   202433   202338 
  202232   202173   202175   202226   202310   202391   202454   202496 
  202494   202444   202360   202277   202247   202269   202323   202405 
  202494   202548   202568   202572   202534   202454   202399   202383 
  202385   202409   202437   202457   202471   202465   202421   202367 
  202357   202372   202356   202343   202351   202329   202296   202285 
  202276   202279   202310   202359   202410   202458   202483   202468 
  202425   202370   202310   202274   202277   202304   202345   202397 
  202436   202444   202427   202405   202399   202410   202428   202440 
  202419   202387   202383   202404   202473   202584   202669   202706 
  202703   202652   202570   202473   202376   202303   202266   202291 
  202385   202506   202625   202711   202719   202655   202539   202398 
  202298   202284   202329   202396   202461   202490   202472   202426 
  202363   202299   202254   202229   202224   202237   202277   202351 
  202431   202478   202483   202454   202416   202386   202365   202343 
  202301   202279   202336   202422   202465   202484   202496   202494 
  202486   202470   202430   202393   202382   202376   202350   202294 
  202206   202131   202107   202098   202085   202114   202183   202226 
  202260   202346   202456   202545   202632   202700   202695   202656 
  202641   202613   202564   202535   202513   202495   202516   202561 
  202603   202632   202618   202560   202502   202438   202361   202303 
  202273   202237   202185   202145   202127   202134   202181   202283 
  202422   202563   202653   202637   202548   202454   202375   202327 
  202319   202336   202378   202435   202472   202449   202353   202249 
  202213   202260   202341   202380   202370   202388   202444   202449 
  202395   202339   202293   202270   202287   202325   202370   202426 
  202489   202544   202577   202581   202547   202462   202360   202283 
  202239   202207   202174   202169   202214   202264   202293   202336 
  202378   202375   202345   202332   202342   202341   202324   202328 
  202351   202376   202418   202480   202554   202631   202697   202731 
  202703   202617   202514   202419   202345   202332   202387   202484 
  202603   202691   202688   202604   202489   202364   202252   202181 
  202147   202135   202154   202211   202275   202319   202350   202368 
  202374   202386   202410   202443   202465   202464   202455   202446 
  202446   202449   202405   202332   202317   202357   202388   202390 
  202370   202356   202380   202426   202464   202480   202470   202469 
  202517   202584   202606   202567   202505   202465   202460   202484 
  202533   202586   202640   202680   202661   202584   202504   202444 
  202366   202258   202163   202110   202108   202169   202283   202404 
  202466   202475   202485   202512   202542   202529   202457   202363 
  202260   202168   202144   202183   202241   202313   202397   202462 
  202517   202560   202541   202450   202312   202180   202121   202117 
  202141   202213   202334   202468   202561   202606   202602   202518 
  202392   202291   202228   202232   202294   202364   202450   202545 
  202602   202625   202620   202604   202631   202675   202675   202641 
  202579   202516   202512   202529   202500   202472   202470   202467 
  202471   202473   202411   202268   202128   202076   202104   202167 
  202241   202317   202418   202542   202629   202628   202540   202423 
  202320   202249   202238   202293   202393   202497   202551   202572 
  202615   202639   202575   202434   202263   202118   202039   202016 
  202029   202083   202203   202373   202537   202639   202649   202590 
  202498   202396   202304   202243   202220   202245   202303   202364 
  202437   202507   202511   202461   202425   202416   202397   202347 
  202276   202218   202198   202218   202269   202319   202321   202293 
  202297   202344   202394   202422   202431   202427   202423   202424 
  202434   202464   202484   202459   202418   202410   202428   202448 
  202486   202524   202505   202449   202419   202409   202403   202432 
  202462   202429   202352   202262   202184   202144   202123   202141 
  202216   202282   202303   202307   202332   202371   202415   202478 
  202518   202504   202487   202496   202519   202564   202642   202723 
  202767   202777   202766   202723   202666   202631   202615   202592 
  202563   202539   202532   202553   202574   202574   202592   202630 
  202661   202680   202669   202626   202572   202504   202432   202392 
  202369   202336   202323   202335   202356   202404   202447   202413 
  202299   202157   202047   202006   202027   202079   202136   202191 
  202248   202312   202382   202438   202469   202475   202452   202423 
  202421   202434   202438   202465   202541   202634   202689   202691 
  202655   202609   202582   202558   202489   202387   202317   202315 
  202369   202459   202575   202671   202704   202702   202685   202619 
  202529   202484   202491   202504   202495   202458   202399   202355 
  202327   202276   202220   202193   202194   202217   202255   202308 
  202371   202418   202441   202448   202437   202415   202403   202408 
  202423   202431   202448   202507   202563   202553   202502   202437 
  202361   202288   202225   202184   202196   202249   202294   202303 
  202275   202233   202215   202225   202243   202253   202254   202271 
  202315   202373   202442   202500   202524   202504   202447   202397 
  202379   202369   202374   202412   202467   202517   202556   202567 
  202534   202476   202421   202373   202339   202351   202417   202479 
  202521   202582   202631   202622   202576   202520   202456   202381 
  202342   202390   202484   202561   202601   202604   202581   202545 
  202495   202418   202322   202241   202207   202214   202241   202269 
  202274   202264   202266   202256   202210   202175   202172   202177 
  202213   202286   202365   202448   202521   202531   202474   202411 
  202398   202421   202452   202500   202559   202605   202634   202633 
  202587   202513   202444   202400   202400   202418   202392   202343 
  202344   202377   202392   202389   202387   202398   202408   202390 
  202344   202307   202308   202343   202412   202515   202616   202660 
  202647   202622   202582   202490   202392   202336   202291   202267 
  202286   202322   202372   202411   202415   202398   202360   202330 
  202325   202330   202352   202380   202400   202438   202484   202506 
  202490   202451   202445   202494   202549   202564   202537   202493 
  202446   202393   202360   202343   202312   202293   202314   202350 
  202366   202370   202389   202388   202343   202287   202252   202256 
  202290   202319   202327   202330   202368   202435   202475   202483 
  202467   202413   202346   202313   202296   202277   202277   202288 
  202291   202292   202293   202274   202244   202244   202282   202303 
  202297   202299   202299   202294   202306   202302   202276   202271 
  202287   202307   202348   202398   202443   202484   202505   202506 
  202513   202525   202518   202509   202508   202498   202506   202514 
  202462   202378   202314   202279   202275   202281   202293   202340 
  202414   202470   202481   202465   202451   202448   202458   202469 
  202479   202476   202444   202433   202476   202526   202551   202563 
  202568   202564   202568   202585   202576   202532   202492   202454 
  202390   202321   202299   202331   202372   202398   202402   202380 
  202364   202376   202397   202401   202380   202348   202324   202323 
  202348   202383   202403   202411   202430   202468   202509   202530 
  202537   202524   202485   202442   202405   202360   202319   202310 
  202332   202366   202400   202419   202413   202398   202385   202367 
  202354   202347   202335   202341   202378   202418   202426   202402 
  202359   202311   202272   202256   202245   202222   202222   202255 
  202295   202331   202339   202307   202295   202340   202412   202490 
  202558   202574   202551   202528   202506   202483   202477   202491 
  202490   202464   202454   202481   202525   202561   202570   202552 
  202531   202502   202442   202380   202333   202282   202250   202252 
  202277   202331   202411   202492   202553   202592   202620   202625 
  202595   202555   202522   202499   202501   202532   202562   202576 
  202582   202592   202598   202583   202559   202531   202482   202420 
  202386   202376   202352   202320   202291   202254   202226   202236 
  202289   202352   202387   202404   202411   202389   202344   202294 
  202255   202231   202230   202268   202338   202414   202471   202502 
  202524   202534   202518   202487   202459   202432   202417   202439 
  202486   202519   202523   202501   202454   202405   202378   202350 
  202302   202244   202193   202176   202202   202231   202247   202260 
  202278   202315   202353   202363   202360   202356   202345   202343 
  202368   202414   202479   202552   202615   202661   202681   202666 
  202618   202548   202488   202451   202420   202411   202419   202415 
  202406   202393   202367   202346   202309   202237   202169   202138 
  202151   202206   202288   202364   202403   202404   202393   202385 
  202398   202430   202445   202438   202438   202435   202409   202398 
  202447   202514   202541   202551   202558   202528   202490   202483 
  202480   202461   202451   202462   202466   202448   202429   202414 
  202374   202316   202282   202273   202260   202226   202172   202112 
  202075   202078   202106   202137   202168   202193   202202   202215 
  202248   202286   202315   202329   202322   202312   202323   202339 
  202343   202355   202372   202374   202375   202393   202410   202413 
  202400   202378   202361   202340   202322   202344   202396   202445 
  202490   202507   202502   202506   202500   202479   202466   202459 
  202462   202485   202526   202565   202577   202568   202576   202595 
  202587   202561   202539   202527   202514   202504   202503   202501 
  202507   202538   202573   202595   202601   202573   202522   202484 
  202463   202456   202468   202475   202471   202472   202472   202482 
  202503   202505   202479   202441   202409   202391   202396   202417 
  202420   202418   202452   202500   202521   202503   202464   202426 
  202393   202378   202380   202369   202345   202331   202339   202371 
  202412   202442   202460   202464   202478   202525   202565   202577 
