Origin Time       2024/04/02 04:24:00
Lat.              40.133
Long.             141.712
Depth. (km)       71
Mag.              6.0
Station Code      TKCH05
Station Lat.      43.1211
Station Long.     143.6181
Station Height(m) -35
Record Time       2024/04/02 04:25:27
Sampling Freq(Hz) 100Hz
Duration Time(s)  124
Dir.              2
Scale Factor      2942(gal)/8224139
Max. Acc. (gal)   0.724
Last Correction   2024/04/02 04:25:27
Memo.             
[...]
  154283   154307   154504   154630   154534   154407   154325   154221 
  154144   154125   154138   154159   154167   154211   154321   154396 
  154415   154491   154573   154543   154477   154375   154207   154121 
  154155   154217   154296   154425   154514   154390   154161   154093 
  154168   154238   154205   154138   154217   154361   154392   154375 
  154386   154352   154309   154375   154481   154480   154383   154317 
  154319   154323   154305   154234   154138   154170   154282   154321 
  154354   154427   154484   154485   154408   154329   154325   154342 
  154356   154414   154458   154341   154130   154018   154056   154249 
  154457   154508   154531   154545   154398   154280   154341   154381 
  154403   154496   154473   154345   154279   154182   154121   154271 
  154398   154360   154400   154485   154368   154229   154273   154361 
  154421   154430   154296   154194   154271   154372   154421   154390 
  154245   154144   154167   154226   154290   154333   154291   154230 
  154267   154376   154462   154433   154290   154224   154292   154345 
  154342   154327   154315   154314   154326   154334   154318   154302 
  154319   154376   154491   154614   154595   154398   154184   154086 
  154076   154121   154218   154309   154294   154233   154280   154431 
  154575   154619   154553   154419   154215   154095   154206   154319 
  154284   154240   154234   154313   154496   154593   154538   154492 
  154477   154381   154252   154194   154215   154348   154498   154526 
  154499   154446   154330   154245   154283   154425   154521   154471 
  154390   154388   154446   154496   154545   154585   154526   154499 
  154592   154554   154440   154502   154581   154539   154495   154431 
  154302   154222   154278   154350   154286   154167   154165   154252 
  154340   154391   154346   154278   154314   154377   154375   154376 
  154379   154280   154221   154410   154650   154695   154639   154581 
  154446   154267   154229   154291   154244   154191   154276   154307 
  154222   154197   154170   154106   154201   154373   154431   154419 
  154380   154381   154452   154411   154344   154419   154399   154211 
  154101   154110   154188   154357   154537   154588   154543   154430 
  154155   153933   154103   154449   154518   154392   154375   154342 
  154178   154107   154203   154306   154340   154371   154462   154521 
  154485   154480   154492   154418   154322   154240   154203   154342 
  154569   154570   154384   154359   154469   154460   154354   154275 
  154194   154075   154037   154184   154375   154413   154317   154234 
  154248   154295   154344   154458   154611   154724   154750   154620 
  154461   154442   154415   154263   154156   154093   153962   153908 
  153959   154037   154236   154406   154400   154445   154491   154329 
  154198   154288   154386   154372   154321   154260   154232   154275 
  154337   154418   154489   154402   154251   154238   154224   154133 
  154168   154229   154210   154381   154610   154479   154175   154091 
  154202   154292   154338   154445   154554   154556   154514   154475 
  154377   154295   154360   154390   154257   154203   154263   154318 
  154418   154546   154588   154516   154488   154580   154583   154480 
  154450   154421   154357   154371   154326   154144   154117   154329 
  154407   154253   154159   154197   154299   154452   154534   154550 
  154633   154674   154589   154516   154535   154550   154475   154461 
  154591   154602   154487   154442   154386   154302   154244   154148 
  154072   154060   154025   154002   154129   154309   154371   154494 
  154683   154624   154417   154244   154075   154082   154275   154338 
  154279   154340   154427   154404   154414   154395   154195   154103 
  154256   154336   154295   154284   154268   154255   154286   154349 
  154399   154390   154406   154434   154394   154448   154530   154367 
  154164   154134   154070   153979   154099   154292   154336   154371 
  154468   154472   154430   154372   154242   154160   154244   154404 
  154492   154511   154564   154607   154568   154554   154557   154437 
  154330   154365   154435   154518   154631   154676   154577   154440 
  154433   154450   154311   154156   154124   154222   154450   154608 
  154507   154357   154377   154448   154460   154487   154529   154533 
  154546   154554   154437   154278   154336   154600   154743   154647 
  154488   154307   154163   154276   154504   154472   154248   154129 
  154170   154211   154225   154317   154376   154290   154160   154062 
  154068   154221   154395   154471   154402   154271   154256   154402 
  154579   154576   154372   154260   154310   154287   154211   154148 
  154006   153985   154207   154338   154221   154176   154396   154606 
  154618   154535   154313   154041   154024   154159   154218   154251 
  154228   154078   154045   154298   154494   154411   154387   154452 
  154298   154191   154353   154388   154190   154063   154125   154278 
  154367   154445   154579   154566   154454   154398   154244   154111 
  154213   154275   154155   154111   154241   154387   154507   154599 
  154565   154491   154472   154380   154279   154360   154507   154519 
  154484   154503   154404   154265   154392   154593   154608   154576 
  154441   154148   153999   154026   154055   154134   154284   154437 
  154545   154569   154560   154518   154425   154361   154357   154422 
  154521   154562   154444   154163   153999   154056   154080   154002 
  153889   153843   154025   154302   154440   154543   154715   154716 
  154507   154421   154388   154218   154201   154376   154426   154338 
  154261   154225   154206   154260   154440   154522   154338   154148 
  154195   154373   154491   154526   154515   154404   154237   154199 
  154259   154283   154394   154557   154569   154570   154696   154746 
  154635   154510   154341   154121   154103   154255   154319   154414 
  154552   154472   154342   154445   154569   154483   154290   154244 
  154419   154523   154417   154353   154375   154360   154338   154279 
  154201   154221   154329   154508   154673   154657   154530   154431 
  154338   154240   154176   154156   154213   154311   154318   154269 
  154194   154045   154029   154121   154097   154190   154404   154371 
  154246   154284   154314   154275   154246   154248   154363   154477 
  154413   154313   154272   154236   154252   154356   154519   154565 
  154371   154219   154290   154344   154257   154230   154323   154364 
  154353   154344   154276   154315   154491   154543   154441   154336 
  154337   154425   154440   154411   154445   154462   154394   154292 
  154303   154396   154310   154075   153995   154161   154360   154381 
  154298   154296   154396   154477   154475   154426   154398   154402 
  154383   154357   154392   154394   154275   154252   154511   154735 
  154600   154394   154400   154383   154217   154197   154381   154407 
  154214   154155   154174   154005   153935   154151   154215   154055 
  154113   154360   154452   154496   154714   154749   154400   154233 
  154453   154579   154560   154654   154608   154286   154161   154303 
  154294   154222   154323   154383   154367   154529   154660   154461 
  154305   154454   154499   154368   154471   154657   154622   154607 
  154661   154561   154438   154360   154164   154010   154105   154244 
  154191   154066   154117   154217   154141   154116   154278   154379 
  154431   154556   154593   154534   154543   154556   154500   154471 
  154433   154376   154402   154449   154453   154435   154373   154288 
  154249   154265   154260   154210   154263   154376   154359   154309 
  154348   154360   154353   154404   154330   154152   154257   154584 
  154687   154585   154521   154484   154437   154390   154338   154225 
  154044   153986   154051   154056   154117   154368   154587   154519 
  154300   154284   154391   154344   154337   154484   154380   154039 
  153929   154029   154144   154255   154295   154384   154491   154346 
  154210   154415   154701   154843   154867   154774   154584   154354 
  154145   154072   154175   154276   154275   154282   154261   154152 
  154117   154190   154264   154287   154276   154377   154525   154415 
  154253   154418   154608   154519   154381   154229   154032   154047 
  154218   154348   154435   154414   154314   154381   154568   154616 
  154502   154295   154144   154188   154159   153956   154033   154369 
  154475   154394   154510   154734   154711   154472   154251   154124 
  154122   154190   154260   154314   154248   154110   154102   154144 
  154087   154066   154253   154565   154754   154705   154545   154473 
  154452   154468   154641   154622   154230   154016   154130   154267 
  154340   154279   154171   154226   154329   154360   154392   154388 
  154364   154384   154410   154503   154650   154755   154789   154595 
  154286   154273   154452   154464   154318   154209   154284   154391 
  154376   154418   154468   154300   154132   154174   154187   154122 
  154206   154327   154350   154437   154579   154614   154591   154577 
  154543   154514   154464   154349   154287   154367   154398   154238 
  154090   154129   154233   154194   154024   153967   154141   154292 
  154287   154334   154484   154592   154620   154561   154495   154449 
  154284   154188   154317   154368   154315   154373   154406   154242 
  154035   154071   154291   154400   154387   154334   154261   154323 
  154468   154408   154303   154449   154593   154494   154330   154305 
  154418   154516   154427   154228   154165   154224   154314   154514 
  154638   154541   154422   154317   154272   154310   154205   154160 
  154371   154407   154272   154372   154500   154396   154299   154373 
  154503   154549   154529   154570   154647   154657   154683   154726 
  154631   154423   154284   154275   154310   154309   154283   154275 
  154276   154240   154186   154132   154072   154148   154373   154533 
  154531   154426   154334   154332   154364   154391   154322   154234 
  154344   154477   154494   154480   154445   154483   154488   154300 
  154168   154218   154273   154232   154087   154026   154206   154395 
  154363   154256   154298   154484   154660   154685   154635   154634 
  154576   154430   154333   154307   154307   154172   154002   154187 
  154479   154442   154315   154414   154643   154593   154287   154275 
  154404   154307   154345   154562   154635   154700   154768   154568 
  154299   154260   154217   154078   154136   154183   153960   153898 
  154184   154449   154557   154611   154665   154703   154658   154577 
  154576   154515   154246   154022   154026   154062   154113   154256 
  154330   154359   154396   154342   154417   154596   154477   154431 
  154766   154804   154442   154232   154155   154124   154224   154295 
  154350   154437   154354   154222   154242   154288   154299   154279 
  154246   154273   154225   153983   153777   153814   153963   154147 
  154404   154506   154500   154685   154716   154467   154533   154778 
  154641   154427   154446   154369   154159   153943   153650   153478 
  153531   153662   153970   154415   154862   155275   155272   154835 
  154596   154489   154110   153823   153827   153793   153706   153755 
  153976   154321   154645   154793   154703   154460   154225   154083 
  154026   154171   154639   155048   155036   154807   154422   153917 
  153678   153711   153775   153959   154244   154333   154190   154184 
  154353   154263   153976   153951   154264   154731   154994   154863 
  154726   154700   154450   154089   153932   153893   153856   153914 
  154102   154419   154704   154691   154504   154332   154184   154145 
  154128   154095   154148   154116   153944   153898   154153   154669 
  155256   155660   155632   155321   155179   155058   154697   154290 
  153665   152814   152416   152687   153254   154055   155055   155737 
  155698   155011   154056   153592   154064   154908   155351   155356 
  155321   155236   154805   154273   154001   153856   153825   153979 
  154041   153959   154006   154288   154460   154105   153562   153409 
  153692   154322   154928   155119   155191   155274   155063   154558 
  153912   153400   153385   153694   153914   154155   154647   155218 
  155501   155375   155224   155187   154622   153441   152672   152701 
  152811   152825   153131   153705   154427   155167   155602   155757 
  155848   155715   155244   154548   153805   153343   153334   153666 
  154338   155173   155632   155576   155277   154813   154407   154415 
  154710   154784   154457   154137   154124   154125   153851   153405 
  153130   153311   153816   154431   155132   155602   155483   154830 
  154048   153715   153987   154619   155447   156038   155914   155213 
  154276   153418   152901   152653   152821   153609   154402   154828 
  155390   156038   156103   155285   153864   152826   152842   153199 
  153337   153751   154499   155024   155120   154805   154211   153690 
  153395   153185   153139   153615   154464   155079   155339   155277 
  154788   154219   153956   153890   153783   153773   154240   154961 
  155254   154992   154570   154260   154048   154001   154172   154203 
  153862   153455   153408   153778   154238   154386   153890   153065 
  152824   153284   153922   154664   155497   156099   156001   155098 
  154203   153909   153736   153485   153553   154121   155235   156319 
  156374   155409   154163   153273   153215   153844   154341   154377 
  154512   154865   154953   154977   155316   155563   155340   154882 
  154471   154103   153831   153893   154184   154259   154137   154105 
  153990   153663   153638   154234   154838   154884   154697   154643 
  154565   154426   154390   154283   154053   154008   154130   154356 
  154770   155196   155386   155078   154263   153563   153368   153459 
  153615   153740   153931   154315   154701   154828   154728   154587 
  154535   154635   154773   154912   155159   155326   155403   155582 
  155479   154893   154248   153732   153368   153243   153389   153831 
  154340   154560   154541   154283   153638   153187   153617   154584 
  155371   155606   155343   154926   154541   154326   154357   154222 
  153608   153076   153172   153547   153885   154494   155259   155656 
  155649   155290   154602   153976   153686   153789   154202   154407 
  154059   153578   153377   153229   153023   153230   154024   154813 
  155071   155109   155407   155648   155417   154888   154242   153666 
  153303   153206   153701   154533   154939   155044   155125   154900 
  154484   154203   154130   154282   154269   153739   153192   153214 
  153617   153868   153991   154500   155070   155031   154958   155437 
  155927   155972   155511   154506   153373   152891   153310   154039 
  154441   154394   154028   153593   153322   153358   153832   154477 
  154697   154407   154152   154165   154025   153762   154008   154680 
  155183   155457   155669   155636   155166   154664   154568   154445 
  153709   152770   152552   153223   153921   154001   153943   154334 
  154913   155224   155193   154980   154920   154872   154317   153744 
  153787   153922   153844   153864   153883   153728   153654   153862 
  154124   154118   153995   154093   154187   153864   153505   153782 
  154521   155186   155545   155308   154643   154183   153837   153511 
  153631   154047   154377   154475   154290   154336   154776   154973 
  154916   154963   154982   154908   154665   154232   153963   153840 
  153829   154228   154599   154461   154292   154569   155078   155250 
  155050   155235   155856   155888   154919   153700   153015   153009 
  153635   154738   155723   156069   155633   154758   154221   154159 
  154045   153885   153931   153875   153511   153265   153536   154179 
  154645   154622   154569   154863   154965   154581   154313   154357 
  154315   154201   154224   154170   153887   153679   153702   153750 
  153694   153713   154041   154561   154954   155032   154612   153900 
  153661   153956   154194   154458   154768   154662   154346   154209 
  154232   154313   154271   154213   154379   154597   154828   155239 
  155644   155652   155115   154456   154099   153770   153384   153401 
  153725   153877   153910   153940   153820   153578   153373   153380 
  153752   154576   155621   156150   155942   155633   155468   155306 
  155152   154923   154573   154219   153945   153766   153684   153825 
  154261   154627   154476   154055   153913   153829   153409   153061 
  153179   153566   154059   154603   155082   155488   155768   155761 
  155409   154998   154847   154620   154184   154170   154565   154624 
  154202   153810   153821   154167   154537   154719   154819   154942 
  154865   154557   154278   154041   153858   153801   153854   154111 
  154406   154464   154504   154583   154426   154218   154261   154376 
  154303   153971   153567   153513   153841   154248   154647   154974 
  155139   155106   154809   154398   154067   153724   153361   153306 
  153711   154110   154136   154152   154440   154739   154846   154661 
  154145   153632   153563   153908   154175   154141   154082   154032 
  153802   153684   153851   153839   153636   153800   154136   154036 
  153781   154009   154612   155102   155308   155277   155023   154576 
  154251   154410   154742   154627   154141   153760   153617   153596 
  153640   153790   154117   154573   154990   155291   155497   155497 
  155239   154873   154431   154066   154095   154307   154369   154508 
  154534   153944   153355   153497   153910   154197   154525   154911 
  155301   155533   155382   154920   154332   153877   153812   153976 
  154161   154495   154908   155032   154731   154187   153675   153343 
  153196   153355   153805   154180   154361   154531   154673   154781 
  154986   155202   155235   155028   154727   154562   154491   154296 
  153987   153678   153432   153354   153557   153885   154053   154136 
  154276   154380   154444   154515   154568   154593   154453   154106 
  153947   154110   154284   154508   154908   155291   155583   155545 
  154928   154184   153928   154190   154572   154678   154430   154151 
  154268   154665   154853   154776   154781   155104   155351   154917 
  154215   154049   154183   154075   153900   153878   153897   153914 
  153890   153782   153743   153900   154062   154080   154126   154252 
  154392   154630   154873   154897   154815   154934   155048   154712 
  154222   154113   154176   154167   154286   154418   154134   153512 
  153099   153223   153689   154205   154662   154970   155143   155181 
  155056   155150   155488   155502   155186   154905   154572   154132 
  153873   153920   154086   154157   154025   153823   153839   154094 
  154394   154576   154523   154384   154441   154603   154666   154718 
  154819   154909   154935   154824   154670   154614   154530   154327 
  154118   153997   153968   153873   153711   153835   154152   154179 
  153940   153813   153947   154182   154290   154338   154527   154723 
  154722   154678   154699   154556   154253   154122   154163   154099 
  153960   153912   153970   154167   154321   154109   153824   153875 
  154002   154028   154249   154741   155221   155488   155664   155872 
