Origin Time       2024/04/02 04:24:00
Lat.              40.133
Long.             141.712
Depth. (km)       71
Mag.              6.0
Station Code      TKCH10
Station Lat.      43.3337
Station Long.     142.9448
Station Height(m) 265
Record Time       2024/04/02 04:26:06
Sampling Freq(Hz) 100Hz
Duration Time(s)  120
Dir.              1
Scale Factor      2940(gal)/6170270
Max. Acc. (gal)   0.299
Last Correction   2024/04/02 04:25:51
Memo.             
[...]
   34233    34280    34287    34242    34183    34164    34184    34204 
   34223    34245    34231    34179    34155    34206    34292    34330 
   34291    34220    34178    34198    34254    34286    34249    34170 
   34127    34131    34146    34171    34193    34206    34217    34214 
   34211    34214    34186    34136    34094    34074    34098    34162 
   34224    34251    34254    34256    34242    34213    34218    34252 
   34268    34248    34226    34222    34217    34234    34284    34304 
   34259    34174    34101    34090    34143    34205    34218    34177 
   34133    34115    34127    34167    34199    34223    34254    34255 
   34224    34197    34170    34151    34164    34197    34244    34285 
   34287    34274    34261    34215    34160    34167    34229    34273 
   34277    34244    34184    34154    34170    34203    34247    34278 
   34262    34214    34171    34182    34231    34249    34227    34203 
   34194    34206    34221    34209    34161    34120    34145    34224 
   34270    34236    34141    34058    34049    34073    34066    34058 
   34084    34139    34189    34201    34173    34130    34096    34094 
   34113    34134    34160    34169    34149    34126    34111    34094 
   34080    34105    34181    34246    34264    34253    34225    34206 
   34215    34246    34279    34282    34252    34229    34206    34167 
   34140    34127    34130    34156    34175    34182    34194    34195 
   34179    34147    34119    34124    34131    34123    34123    34125 
   34145    34196    34222    34220    34208    34177    34170    34202 
   34228    34239    34234    34220    34212    34212    34229    34247 
   34258    34275    34264    34202    34137    34115    34133    34183 
   34231    34208    34127    34071    34076    34150    34261    34306 
   34267    34221    34208    34209    34198    34182    34196    34230 
   34256    34282    34309    34325    34312    34244    34140    34059 
   34037    34083    34158    34196    34180    34152    34158    34195 
   34209    34188    34194    34227    34242    34262    34297    34296 
   34249    34203    34179    34191    34246    34282    34262    34224 
   34167    34098    34084    34129    34177    34218    34258    34274 
   34251    34219    34201    34184    34180    34203    34224    34231 
   34231    34221    34198    34167    34146    34145    34155    34181 
   34209    34225    34244    34240    34212    34218    34254    34291 
   34325    34325    34267    34183    34145    34185    34267    34342 
   34354    34275    34183    34152    34165    34180    34175    34168 
   34167    34156    34153    34152    34135    34128    34121    34102 
   34117    34155    34178    34195    34197    34175    34149    34144 
   34158    34161    34147    34133    34131    34146    34152    34136 
   34133    34137    34134    34154    34176    34197    34235    34259 
   34249    34198    34146    34157    34209    34263    34306    34298 
   34249    34219    34211    34202    34194    34200    34210    34235 
   34290    34331    34318    34269    34222    34207    34211    34205 
   34196    34200    34214    34245    34271    34272    34271    34252 
   34202    34159    34130    34115    34137    34166    34184    34225 
   34287    34319    34284    34212    34155    34132    34153    34190 
   34200    34181    34158    34143    34140    34144    34147    34140 
   34125    34132    34157    34162    34149    34133    34132    34159 
   34194    34203    34183    34145    34121    34136    34177    34208 
   34210    34171    34112    34087    34090    34097    34136    34204 
   34255    34274    34254    34208    34195    34225    34251    34247 
   34220    34199    34186    34179    34210    34254    34267    34270 
   34277    34266    34248    34244    34244    34234    34214    34182 
   34150    34135    34144    34173    34208    34245    34267    34265 
   34253    34225    34163    34100    34071    34069    34091    34122 
   34139    34151    34167    34186    34216    34243    34259    34276 
   34273    34240    34202    34184    34213    34264    34278    34268 
   34257    34245    34246    34253    34236    34187    34126    34090 
   34098    34136    34192    34253    34286    34285    34263    34208 
   34129    34087    34107    34159    34215    34257    34272    34271 
   34250    34201    34166    34175    34196    34206    34219    34225 
   34210    34203    34223    34242    34229    34189    34166    34168 
   34177    34200    34222    34234    34246    34245    34268    34339 
   34377    34339    34275    34241    34250    34273    34305    34319 
   34279    34235    34219    34212    34225    34234    34201    34169 
   34158    34129    34097    34099    34125    34159    34200    34234 
   34233    34186    34131    34104    34101    34103    34113    34113 
   34092    34084    34088    34113    34178    34207    34171    34138 
   34133    34159    34214    34261    34274    34277    34298    34298 
   34240    34156    34102    34118    34189    34257    34269    34217 
   34154    34131    34133    34123    34121    34141    34153    34172 
   34207    34209    34197    34202    34205    34196    34179    34161 
   34157    34178    34219    34228    34169    34105    34100    34138 
   34206    34284    34296    34248    34215    34196    34202    34228 
   34218    34182    34155    34158    34222    34299    34320    34306 
   34277    34208    34134    34111    34120    34131    34135    34125 
   34114    34103    34112    34154    34167    34134    34126    34152 
   34184    34215    34239    34265    34275    34257    34240    34213 
   34175    34166    34178    34203    34237    34265    34300    34311 
   34280    34245    34196    34127    34086    34078    34098    34132 
   34153    34153    34135    34126    34147    34162    34158    34157 
   34156    34157    34160    34160    34190    34247    34276    34272 
   34261    34260    34273    34291    34305    34315    34300    34260 
   34207    34160    34141    34152    34192    34232    34224    34189 
   34189    34217    34234    34227    34200    34182    34182    34198 
   34230    34240    34232    34234    34239    34249    34262    34260 
   34246    34260    34315    34348    34323    34278    34231    34181 
   34140    34115    34126    34177    34209    34191    34160    34128 
   34111    34127    34121    34074    34033    34019    34058    34155 
   34231    34230    34190    34157    34138    34130    34122    34103 
   34076    34070    34105    34158    34186    34181    34180    34204 
   34208    34177    34144    34127    34145    34183    34190    34163 
   34134    34107    34100    34139    34187    34213    34226    34219 
   34206    34201    34195    34194    34192    34193    34207    34208 
   34190    34172    34166    34200    34275    34321    34290    34207 
   34123    34080    34091    34116    34113    34099    34118    34159 
   34195    34208    34183    34142    34118    34120    34166    34235 
   34262    34254    34252    34241    34239    34271    34317    34337 
   34308    34264    34256    34277    34295    34294    34270    34252 
   34258    34277    34292    34284    34259    34229    34197    34166 
   34148    34149    34139    34115    34117    34134    34155    34201 
   34240    34254    34278    34301    34290    34259    34233    34229 
   34239    34247    34264    34269    34237    34214    34231    34258 
   34270    34263    34246    34229    34227    34220    34175    34121 
   34112    34150    34204    34225    34215    34217    34224    34230 
   34263    34287    34266    34230    34189    34151    34145    34179 
   34240    34276    34260    34224    34163    34124    34169    34220 
   34206    34163    34118    34115    34172    34204    34196    34181 
   34137    34096    34090    34096    34135    34181    34183    34182 
   34194    34200    34206    34186    34131    34072    34073    34148 
   34208    34227    34251    34263    34255    34260    34250    34190 
   34129    34125    34167    34234    34278    34265    34229    34201 
   34168    34144    34147    34169    34203    34236    34254    34265 
   34272    34257    34233    34215    34191    34175    34175    34165 
   34148    34136    34114    34096    34099    34109    34117    34139 
   34173    34191    34174    34162    34172    34174    34166    34160 
   34163    34175    34186    34179    34164    34164    34199    34260 
   34294    34266    34201    34164    34173    34197    34229    34281 
   34315    34297    34257    34234    34224    34217    34208    34167 
   34123    34138    34195    34244    34270    34279    34259    34216 
   34185    34162    34125    34114    34137    34145    34143    34156 
   34190    34237    34274    34289    34284    34274    34298    34334 
   34333    34306    34296    34305    34286    34239    34211    34186 
   34133    34086    34063    34055    34082    34150    34217    34241 
   34210    34147    34113    34131    34142    34140    34161    34192 
   34211    34217    34213    34195    34168    34170    34207    34237 
   34220    34167    34113    34068    34020    33979    33949    33920 
   33912    33950    34018    34091    34167    34258    34344    34354 
   34262    34129    34028    34014    34080    34189    34325    34457 
   34555    34613    34597    34486    34335    34221    34160    34142 
   34175    34261    34356    34422    34441    34379    34260    34164 
   34104    34061    34068    34100    34075    33988    33922    33933 
   33996    34057    34080    34066    34049    34079    34168    34257 
   34295    34289    34247    34179    34119    34088    34085    34106 
   34140    34196    34296    34412    34501    34529    34473    34373 
   34301    34260    34238    34262    34317    34362    34388    34361 
   34246    34096    33997    33969    33980    33986    33989    34035 
   34136    34257    34342    34350    34285    34173    34028    33905 
   33875    33956    34098    34219    34260    34252    34253    34278 
   34313    34313    34258    34189    34145    34137    34178    34247 
   34302    34342    34385    34417    34424    34392    34303    34200 
   34154    34191    34271    34332    34352    34319    34249    34204 
   34192    34187    34191    34184    34140    34064    33994    33942 
   33887    33852    33870    33935    34034    34142    34227    34290 
   34325    34307    34259    34217    34179    34162    34199    34269 
   34325    34359    34376    34373    34375    34391    34393    34370 
   34353    34354    34339    34298    34245    34162    34081    34067 
   34096    34115    34126    34158    34217    34292    34366    34403 
   34358    34240    34113    34024    33994    34029    34079    34088 
   34082    34117    34201    34301    34361    34322    34199    34098 
   34076    34105    34158    34224    34304    34373    34382    34330 
   34266    34223    34209    34200    34172    34135    34120    34148 
   34200    34221    34221    34237    34232    34169    34075    33989 
   33938    33915    33915    33959    34007    34034    34105    34214 
   34268    34235    34165    34103    34080    34119    34215    34323 
   34386    34392    34373    34361    34359    34363    34353    34322 
   34302    34301    34283    34209    34096    34016    34010    34060 
   34136    34219    34292    34328    34327    34306    34263    34188 
   34113    34077    34081    34121    34195    34272    34328    34343 
   34316    34268    34200    34103    34016    33990    34053    34148 
   34198    34212    34226    34220    34162    34061    33981    33957 
   33974    34023    34070    34053    33992    33942    33919    33947 
   34024    34111    34198    34287    34353    34370    34333    34267 
   34182    34087    34034    34062    34164    34323    34501    34615 
   34595    34469    34336    34245    34180    34130    34109    34129 
   34194    34261    34282    34289    34325    34367    34401    34417 
   34385    34290    34144    33985    33897    33914    33993    34109 
   34242    34350    34406    34385    34315    34244    34166    34079 
   34007    33959    33966    34047    34181    34318    34405    34436 
   34427    34369    34271    34166    34087    34041    34011    34013 
   34050    34094    34170    34276    34323    34282    34214    34167 
   34154    34158    34131    34063    34015    34044    34139    34272 
   34407    34499    34529    34493    34394    34229    34052    33973 
   34007    34093    34189    34257    34302    34354    34375    34321 
   34208    34088    34018    34027    34073    34112    34174    34262 
   34330    34389    34437    34409    34306    34185    34095    34054 
   34046    34050    34069    34111    34166    34244    34338    34378 
   34338    34282    34252    34227    34180    34118    34058    34057 
   34149    34265    34330    34323    34254    34169    34115    34091 
   34056    34000    33975    33994    34025    34078    34145    34165 
   34129    34095    34108    34189    34322    34417    34387    34269 
   34146    34032    33934    33889    33895    33930    33990    34063 
   34140    34211    34265    34302    34325    34335    34316    34250 
   34180    34165    34199    34255    34295    34267    34196    34132 
   34073    34031    34023    34029    34016    33984    33988    34035 
   34063    34062    34061    34074    34134    34264    34436    34611 
   34753    34823    34820    34778    34724    34655    34554    34427 
   34305    34230    34248    34341    34429    34458    34412    34313 
   34219    34157    34105    34043    33962    33867    33778    33714 
   33692    33731    33816    33932    34068    34197    34298    34355 
   34345    34289    34219    34135    34066    34066    34149    34280 
   34407    34490    34500    34440    34372    34352    34367    34392 
   34400    34368    34319    34293    34291    34293    34289    34273 
   34245    34246    34295    34338    34336    34306    34248    34161 
   34077    34011    33970    33971    34007    34042    34035    33980 
   33920    33892    33888    33904    33950    34001    34031    34046 
   34064    34090    34128    34166    34189    34228    34320    34438 
   34537    34592    34594    34554    34486    34417    34371    34359 
   34374    34394    34401    34372    34290    34191    34112    34020 
   33890    33793    33805    33908    34029    34104    34116    34101 
   34072    34040    34011    33973    33921    33873    33871    33965 
   34128    34282    34380    34398    34351    34281    34222    34199 
   34232    34302    34363    34381    34381    34392    34403    34384 
   34317    34231    34180    34168    34174    34183    34185    34211 
   34248    34238    34206    34191    34157    34077    33962    33856 
   33808    33814    33841    33878    33932    34017    34124    34205 
   34235    34226    34180    34120    34081    34060    34062    34110 
   34186    34261    34331    34390    34435    34448    34417    34362 
   34312    34274    34231    34159    34074    34028    34040    34078 
   34099    34096    34102    34127    34155    34172    34165    34153 
   34156    34174    34222    34283    34292    34249    34197    34141 
   34101    34122    34202    34282    34317    34327    34328    34326 
   34355    34392    34384    34344    34305    34301    34343    34389 
   34425    34460    34472    34486    34520    34505    34419    34300 
   34168    34072    34053    34071    34077    34065    34053    34051 
   34052    34065    34103    34151    34169    34127    34044    33971 
   33930    33934    33979    34020    34036    34067    34132    34213 
   34278    34305    34296    34268    34219    34157    34120    34122 
   34140    34141    34118    34101    34101    34094    34094    34128 
   34166    34167    34137    34098    34049    33988    33963    34009 
   34068    34097    34118    34129    34154    34222    34284    34295 
   34293    34327    34393    34454    34506    34559    34588    34576 
   34527    34442    34337    34244    34170    34135    34187    34302 
   34392    34437    34440    34372    34274    34228    34240    34245 
   34201    34133    34079    34063    34085    34112    34125    34151 
   34216    34297    34333    34295    34215    34141    34089    34063 
   34058    34049    34029    34001    33989    34028    34090    34124 
   34133    34152    34219    34321    34405    34465    34510    34523 
   34515    34500    34460    34401    34357    34336    34314    34277 
   34252    34268    34298    34294    34254    34199    34149    34140 
   34157    34143    34100    34055    34019    34041    34146    34279 
   34366    34369    34328    34308    34302    34289    34283    34279 
   34248    34198    34172    34186    34239    34309    34343    34322 
   34277    34214    34120    34044    34029    34033    34039    34075 
   34120    34142    34158    34168    34127    34039    33966    33938 
   33931    33931    33936    33943    33965    33997    34004    33987 
   33988    34011    34034    34054    34069    34087    34128    34186 
   34222    34225    34219    34227    34261    34298    34306    34288 
   34249    34212    34236    34320    34390    34386    34320    34244 
   34173    34095    34018    33950    33887    33845    33849    33897 
   33968    34045    34107    34148    34171    34167    34156    34166 
   34198    34243    34280    34289    34290    34302    34318    34348 
   34389    34403    34363    34297    34237    34191    34161    34140 
   34136    34166    34220    34285    34345    34355    34298    34216 
   34144    34087    34048    34030    34040    34070    34096    34120 
   34156    34198    34222    34208    34173    34153    34157    34170 
   34180    34196    34220    34242    34279    34342    34398    34419 
   34415    34405    34394    34387    34387    34380    34367    34372 
   34381    34376    34363    34336    34287    34236    34188    34127 
   34064    34031    34036    34066    34101    34133    34156    34140 
   34067    33979    33909    33856    33844    33889    33956    34022 
   34076    34104    34107    34107    34138    34193    34232    34246 
   34246    34245    34247    34222    34179    34169    34190    34214 
   34240    34272    34302    34329    34339    34326    34279    34192 
   34114    34099    34126    34151    34172    34201    34233    34248 
   34248    34254    34259    34242    34213    34198    34208    34232 
   34250    34273    34320    34361    34368    34365    34361    34348 
   34335    34335    34367    34420    34454    34454    34422    34357 
   34286    34241    34235    34258    34293    34327    34349    34352 
   34337    34314    34282    34246    34227    34222    34220    34231 
   34253    34264    34254    34242    34230    34209    34209    34232 
   34245    34232    34193    34153    34143    34161    34192    34222 
   34223    34188    34145    34117    34107    34105    34092    34054 
   34004    33975    33992    34034    34072    34100    34111    34118 
   34143    34175    34216    34254    34257    34239    34216    34192 
   34178    34165    34155    34164    34181    34198    34222    34244 
   34261    34267    34238    34175    34108    34072    34079    34109 
