Origin Time       2024/04/02 04:24:00
Lat.              40.133
Long.             141.712
Depth. (km)       71
Mag.              6.0
Station Code      YMNH09
Station Lat.      35.4327
Station Long.     138.3325
Station Height(m) 234.9
Record Time       2024/04/02 04:26:20
Sampling Freq(Hz) 100Hz
Duration Time(s)  120
Dir.              1
Scale Factor      3923(gal)/8224838
Max. Acc. (gal)   0.092
Last Correction   2024/04/02 04:26:21
Memo.             
[...]
  -33751   -33747   -33745   -33745   -33748   -33751   -33750   -33752 
  -33756   -33758   -33763   -33767   -33767   -33770   -33768   -33763 
  -33759   -33758   -33758   -33764   -33770   -33767   -33762   -33762 
  -33768   -33771   -33768   -33767   -33768   -33767   -33764   -33762 
  -33760   -33755   -33752   -33755   -33750   -33741   -33739   -33735 
  -33739   -33747   -33747   -33748   -33752   -33750   -33747   -33748 
  -33744   -33737   -33739   -33745   -33751   -33754   -33752   -33751 
  -33750   -33748   -33741   -33739   -33743   -33741   -33731   -33725 
  -33725   -33723   -33723   -33725   -33731   -33735   -33735   -33735 
  -33736   -33737   -33739   -33739   -33732   -33731   -33736   -33739 
  -33740   -33743   -33745   -33747   -33748   -33751   -33758   -33762 
  -33756   -33754   -33755   -33751   -33747   -33748   -33747   -33740 
  -33737   -33736   -33731   -33725   -33723   -33720   -33720   -33720 
  -33714   -33710   -33710   -33709   -33708   -33708   -33713   -33716 
  -33709   -33701   -33702   -33706   -33706   -33706   -33712   -33716 
  -33718   -33723   -33728   -33731   -33732   -33731   -33724   -33723 
  -33729   -33733   -33735   -33739   -33739   -33735   -33735   -33739 
  -33740   -33739   -33739   -33735   -33732   -33731   -33729   -33728 
  -33729   -33731   -33729   -33728   -33723   -33721   -33725   -33725 
  -33724   -33724   -33723   -33721   -33723   -33725   -33729   -33732 
  -33735   -33737   -33740   -33744   -33745   -33744   -33748   -33752 
  -33752   -33751   -33748   -33745   -33745   -33744   -33737   -33735 
  -33735   -33735   -33737   -33744   -33751   -33754   -33754   -33754 
  -33754   -33751   -33747   -33747   -33747   -33745   -33747   -33750 
  -33754   -33760   -33762   -33758   -33756   -33752   -33752   -33756 
  -33756   -33751   -33750   -33750   -33750   -33748   -33752   -33754 
  -33752   -33755   -33758   -33755   -33756   -33756   -33750   -33745 
  -33752   -33755   -33755   -33754   -33755   -33752   -33748   -33751 
  -33755   -33755   -33754   -33750   -33744   -33743   -33739   -33735 
  -33737   -33740   -33739   -33737   -33735   -33731   -33731   -33729 
  -33728   -33728   -33729   -33735   -33736   -33736   -33736   -33741 
  -33747   -33744   -33739   -33739   -33741   -33744   -33748   -33755 
  -33759   -33755   -33747   -33740   -33737   -33739   -33739   -33735 
  -33733   -33732   -33727   -33718   -33717   -33716   -33712   -33706 
  -33702   -33702   -33705   -33708   -33714   -33718   -33716   -33713 
  -33713   -33714   -33712   -33710   -33712   -33713   -33718   -33723 
  -33728   -33733   -33740   -33744   -33747   -33747   -33748   -33751 
  -33752   -33751   -33752   -33751   -33747   -33748   -33751   -33743 
  -33739   -33739   -33740   -33743   -33740   -33736   -33739   -33737 
  -33731   -33732   -33733   -33728   -33723   -33723   -33728   -33735 
  -33739   -33740   -33741   -33744   -33744   -33743   -33748   -33747 
  -33740   -33740   -33739   -33736   -33735   -33733   -33732   -33729 
  -33729   -33733   -33735   -33737   -33737   -33735   -33735   -33729 
  -33718   -33716   -33718   -33720   -33723   -33721   -33723   -33727 
  -33729   -33733   -33740   -33739   -33737   -33740   -33740   -33741 
  -33754   -33763   -33767   -33770   -33771   -33774   -33772   -33766 
  -33762   -33760   -33759   -33759   -33763   -33764   -33763   -33763 
  -33762   -33758   -33751   -33750   -33751   -33745   -33737   -33736 
  -33739   -33737   -33739   -33739   -33736   -33736   -33736   -33733 
  -33735   -33736   -33739   -33743   -33745   -33748   -33751   -33752 
  -33752   -33750   -33743   -33739   -33735   -33733   -33737   -33743 
  -33745   -33748   -33748   -33750   -33748   -33744   -33743   -33740 
  -33733   -33733   -33733   -33729   -33728   -33731   -33732   -33733 
  -33733   -33737   -33740   -33743   -33747   -33751   -33747   -33739 
  -33732   -33728   -33729   -33733   -33737   -33739   -33737   -33732 
  -33727   -33728   -33725   -33721   -33721   -33720   -33714   -33716 
  -33716   -33712   -33712   -33712   -33714   -33714   -33710   -33705 
  -33704   -33705   -33706   -33706   -33709   -33713   -33712   -33714 
  -33724   -33729   -33727   -33731   -33735   -33728   -33723   -33725 
  -33725   -33727   -33729   -33729   -33727   -33727   -33727   -33727 
  -33731   -33728   -33720   -33716   -33716   -33717   -33723   -33728 
  -33733   -33737   -33741   -33741   -33743   -33748   -33750   -33751 
  -33752   -33750   -33743   -33741   -33745   -33748   -33747   -33745 
  -33747   -33748   -33745   -33744   -33740   -33737   -33739   -33740 
  -33740   -33745   -33754   -33759   -33764   -33766   -33768   -33774 
  -33775   -33777   -33779   -33778   -33779   -33779   -33779   -33778 
  -33778   -33778   -33779   -33779   -33778   -33777   -33772   -33766 
  -33756   -33750   -33743   -33737   -33736   -33739   -33740   -33739 
  -33736   -33735   -33735   -33736   -33739   -33740   -33739   -33735 
  -33732   -33733   -33733   -33731   -33733   -33735   -33732   -33735 
  -33735   -33733   -33740   -33744   -33743   -33744   -33744   -33743 
  -33744   -33741   -33736   -33731   -33723   -33717   -33713   -33710 
  -33713   -33716   -33718   -33723   -33725   -33724   -33723   -33721 
  -33723   -33729   -33735   -33736   -33739   -33741   -33741   -33739 
  -33733   -33732   -33735   -33740   -33745   -33748   -33752   -33755 
  -33759   -33764   -33763   -33756   -33756   -33758   -33759   -33762 
  -33760   -33755   -33752   -33755   -33758   -33752   -33750   -33755 
  -33758   -33754   -33748   -33743   -33740   -33739   -33732   -33729 
  -33725   -33720   -33720   -33721   -33721   -33723   -33721   -33717 
  -33714   -33713   -33713   -33716   -33720   -33723   -33718   -33718 
  -33724   -33725   -33723   -33724   -33724   -33718   -33716   -33720 
  -33724   -33725   -33723   -33721   -33721   -33721   -33721   -33721 
  -33723   -33727   -33723   -33714   -33709   -33708   -33705   -33702 
  -33698   -33700   -33698   -33694   -33696   -33704   -33709   -33713 
  -33718   -33723   -33725   -33728   -33731   -33732   -33736   -33737 
  -33732   -33731   -33731   -33729   -33732   -33737   -33741   -33745 
  -33748   -33751   -33751   -33745   -33739   -33733   -33733   -33736 
  -33735   -33736   -33735   -33733   -33733   -33733   -33732   -33733 
  -33737   -33737   -33739   -33744   -33747   -33745   -33748   -33751 
  -33754   -33755   -33756   -33760   -33762   -33762   -33763   -33764 
  -33767   -33766   -33758   -33755   -33760   -33762   -33763   -33763 
  -33760   -33760   -33764   -33768   -33772   -33778   -33779   -33775 
  -33775   -33772   -33767   -33768   -33771   -33771   -33764   -33755 
  -33751   -33747   -33744   -33747   -33750   -33750   -33752   -33752 
  -33750   -33751   -33756   -33766   -33771   -33768   -33763   -33758 
  -33754   -33754   -33756   -33755   -33747   -33743   -33741   -33736 
  -33729   -33727   -33725   -33720   -33714   -33713   -33717   -33721 
  -33720   -33718   -33717   -33718   -33724   -33732   -33735   -33733 
  -33731   -33729   -33727   -33725   -33728   -33727   -33724   -33728 
  -33733   -33737   -33740   -33741   -33744   -33740   -33733   -33736 
  -33739   -33739   -33741   -33743   -33743   -33743   -33739   -33729 
  -33724   -33720   -33720   -33721   -33718   -33716   -33718   -33725 
  -33731   -33732   -33732   -33732   -33732   -33733   -33735   -33728 
  -33723   -33724   -33728   -33733   -33737   -33741   -33741   -33741 
  -33743   -33741   -33740   -33739   -33731   -33728   -33729   -33731 
  -33731   -33728   -33725   -33723   -33723   -33724   -33723   -33721 
  -33724   -33725   -33724   -33724   -33727   -33731   -33733   -33739 
  -33743   -33741   -33741   -33741   -33743   -33745   -33744   -33737 
  -33736   -33741   -33747   -33748   -33748   -33743   -33737   -33735 
  -33732   -33725   -33720   -33717   -33720   -33727   -33731   -33725 
  -33724   -33729   -33728   -33729   -33736   -33732   -33725   -33723 
  -33721   -33724   -33731   -33729   -33727   -33731   -33733   -33731 
  -33732   -33733   -33732   -33733   -33736   -33733   -33736   -33741 
  -33740   -33740   -33748   -33751   -33747   -33745   -33744   -33744 
  -33745   -33747   -33745   -33740   -33737   -33739   -33737   -33741 
  -33747   -33745   -33747   -33751   -33754   -33756   -33763   -33764 
  -33760   -33758   -33767   -33774   -33775   -33777   -33774   -33771 
  -33777   -33779   -33779   -33782   -33781   -33781   -33782   -33778 
  -33771   -33767   -33766   -33762   -33758   -33758   -33762   -33766 
  -33768   -33767   -33766   -33762   -33755   -33755   -33755   -33752 
  -33754   -33752   -33744   -33744   -33745   -33739   -33731   -33725 
  -33721   -33716   -33713   -33717   -33717   -33716   -33720   -33720 
  -33709   -33705   -33708   -33709   -33714   -33718   -33720   -33724 
  -33725   -33728   -33736   -33739   -33739   -33743   -33743   -33743 
  -33745   -33747   -33747   -33744   -33744   -33743   -33736   -33731 
  -33732   -33729   -33717   -33710   -33712   -33713   -33710   -33712 
  -33712   -33710   -33712   -33714   -33716   -33717   -33720   -33724 
  -33728   -33733   -33735   -33733   -33737   -33737   -33735   -33729 
  -33723   -33720   -33723   -33725   -33724   -33729   -33737   -33737 
  -33737   -33741   -33740   -33739   -33743   -33744   -33740   -33740 
  -33744   -33740   -33733   -33729   -33727   -33728   -33728   -33725 
  -33723   -33723   -33723   -33725   -33731   -33733   -33733   -33736 
  -33739   -33739   -33736   -33737   -33736   -33732   -33735   -33740 
  -33741   -33741   -33736   -33727   -33724   -33724   -33723   -33724 
  -33724   -33721   -33720   -33723   -33727   -33725   -33721   -33716 
  -33710   -33714   -33718   -33716   -33723   -33732   -33735   -33740 
  -33745   -33748   -33755   -33759   -33766   -33778   -33786   -33782 
  -33777   -33778   -33779   -33778   -33774   -33771   -33764   -33758 
  -33754   -33751   -33745   -33740   -33739   -33737   -33736   -33740 
  -33744   -33748   -33751   -33754   -33756   -33751   -33743   -33741 
  -33741   -33740   -33743   -33743   -33740   -33733   -33729   -33732 
  -33737   -33741   -33744   -33747   -33744   -33741   -33744   -33743 
  -33737   -33733   -33732   -33732   -33729   -33725   -33729   -33733 
  -33736   -33735   -33735   -33735   -33737   -33735   -33731   -33729 
  -33733   -33739   -33743   -33741   -33741   -33745   -33745   -33740 
  -33737   -33739   -33740   -33740   -33739   -33736   -33737   -33739 
  -33740   -33740   -33740   -33739   -33739   -33737   -33735   -33732 
  -33728   -33731   -33732   -33733   -33739   -33741   -33739   -33737 
  -33736   -33732   -33731   -33735   -33740   -33745   -33752   -33756 
  -33758   -33756   -33754   -33752   -33754   -33754   -33756   -33762 
  -33764   -33766   -33767   -33767   -33764   -33766   -33768   -33768 
  -33764   -33762   -33762   -33763   -33763   -33760   -33756   -33752 
  -33750   -33751   -33754   -33751   -33750   -33751   -33751   -33751 
  -33751   -33748   -33744   -33743   -33745   -33740   -33731   -33728 
  -33727   -33721   -33716   -33712   -33709   -33708   -33708   -33708 
  -33706   -33705   -33704   -33700   -33694   -33691   -33690   -33690 
  -33689   -33686   -33682   -33678   -33677   -33675   -33674   -33678 
  -33678   -33679   -33683   -33681   -33678   -33677   -33674   -33673 
  -33671   -33667   -33667   -33671   -33677   -33685   -33690   -33697 
  -33704   -33706   -33712   -33718   -33717   -33713   -33712   -33706 
  -33705   -33709   -33712   -33714   -33716   -33718   -33720   -33720 
  -33725   -33728   -33731   -33739   -33747   -33747   -33750   -33752 
  -33745   -33744   -33745   -33744   -33744   -33748   -33751   -33751 
  -33750   -33745   -33741   -33744   -33752   -33754   -33755   -33759 
  -33762   -33762   -33763   -33768   -33770   -33768   -33770   -33770 
  -33772   -33778   -33785   -33790   -33795   -33799   -33797   -33793 
  -33797   -33799   -33799   -33799   -33795   -33791   -33791   -33790 
  -33791   -33797   -33795   -33790   -33786   -33781   -33778   -33779 
  -33775   -33768   -33763   -33755   -33745   -33740   -33739   -33740 
  -33739   -33736   -33735   -33733   -33732   -33728   -33728   -33729 
  -33725   -33720   -33721   -33725   -33725   -33725   -33731   -33736 
  -33741   -33748   -33751   -33750   -33747   -33745   -33748   -33748 
  -33744   -33744   -33745   -33750   -33756   -33758   -33756   -33754 
  -33750   -33747   -33744   -33745   -33751   -33752   -33751   -33750 
  -33747   -33748   -33754   -33759   -33766   -33770   -33772   -33777 
  -33782   -33790   -33795   -33794   -33791   -33787   -33787   -33791 
  -33795   -33802   -33805   -33802   -33801   -33802   -33802   -33805 
  -33810   -33812   -33814   -33821   -33822   -33822   -33822   -33821 
  -33818   -33812   -33810   -33814   -33814   -33816   -33818   -33814 
  -33813   -33812   -33805   -33802   -33799   -33795   -33794   -33791 
  -33781   -33775   -33777   -33772   -33766   -33763   -33755   -33750 
  -33748   -33747   -33741   -33736   -33735   -33731   -33721   -33716 
  -33713   -33704   -33697   -33689   -33687   -33689   -33686   -33683 
  -33678   -33667   -33662   -33659   -33651   -33643   -33636   -33631 
  -33625   -33620   -33615   -33612   -33615   -33613   -33609   -33608 
  -33606   -33601   -33594   -33588   -33581   -33573   -33565   -33556 
  -33555   -33555   -33551   -33551   -33550   -33546   -33548   -33552 
  -33552   -33558   -33563   -33566   -33571   -33575   -33575   -33579 
  -33586   -33592   -33598   -33608   -33619   -33624   -33631   -33643 
  -33654   -33664   -33674   -33682   -33693   -33702   -33708   -33716 
  -33729   -33743   -33759   -33774   -33786   -33799   -33813   -33828 
  -33839   -33848   -33860   -33870   -33879   -33887   -33893   -33901 
  -33909   -33909   -33909   -33914   -33916   -33916   -33918   -33918 
  -33913   -33909   -33903   -33894   -33889   -33886   -33882   -33879 
  -33876   -33871   -33860   -33852   -33851   -33851   -33847   -33841 
  -33837   -33833   -33828   -33828   -33831   -33831   -33824   -33816 
  -33810   -33810   -33805   -33794   -33787   -33783   -33777   -33772 
  -33775   -33775   -33772   -33768   -33763   -33756   -33752   -33751 
  -33747   -33747   -33751   -33747   -33740   -33747   -33754   -33752 
  -33754   -33754   -33745   -33744   -33744   -33737   -33739   -33743 
  -33740   -33737   -33740   -33741   -33743   -33750   -33756   -33759 
  -33763   -33770   -33767   -33764   -33767   -33767   -33763   -33760 
  -33759   -33756   -33752   -33745   -33737   -33729   -33720   -33710 
  -33700   -33690   -33685   -33677   -33669   -33663   -33663   -33660 
  -33655   -33654   -33659   -33659   -33654   -33652   -33655   -33654 
  -33656   -33659   -33660   -33663   -33662   -33660   -33664   -33669 
  -33669   -33670   -33671   -33667   -33663   -33662   -33659   -33652 
  -33650   -33648   -33648   -33654   -33662   -33662   -33663   -33667 
  -33670   -33671   -33674   -33673   -33671   -33673   -33673   -33674 
  -33673   -33670   -33670   -33669   -33662   -33659   -33662   -33664 
  -33663   -33666   -33669   -33667   -33670   -33677   -33685   -33697 
  -33708   -33718   -33729   -33737   -33747   -33756   -33766   -33777 
  -33786   -33791   -33797   -33801   -33806   -33817   -33826   -33832 
  -33835   -33837   -33843   -33845   -33841   -33841   -33840   -33837 
  -33836   -33836   -33831   -33825   -33822   -33821   -33821   -33818 
  -33814   -33816   -33816   -33810   -33804   -33797   -33786   -33772 
  -33766   -33768   -33764   -33755   -33751   -33741   -33731   -33731 
  -33731   -33729   -33735   -33735   -33733   -33737   -33741   -33743 
  -33750   -33756   -33762   -33764   -33764   -33766   -33771   -33772 
  -33771   -33771   -33774   -33774   -33771   -33771   -33772   -33774 
  -33775   -33772   -33763   -33755   -33754   -33750   -33745   -33739 
  -33732   -33728   -33725   -33724   -33728   -33729   -33731   -33731 
  -33729   -33727   -33723   -33721   -33723   -33720   -33716   -33714 
  -33714   -33716   -33717   -33723   -33723   -33717   -33716   -33717 
  -33717   -33717   -33717   -33718   -33723   -33727   -33732   -33740 
  -33748   -33755   -33766   -33777   -33786   -33793   -33794   -33797 
  -33798   -33799   -33801   -33799   -33799   -33799   -33801   -33801 
  -33799   -33797   -33791   -33787   -33785   -33785   -33783   -33778 
  -33771   -33764   -33756   -33754   -33752   -33741   -33735   -33733 
  -33728   -33723   -33723   -33723   -33724   -33727   -33725   -33717 
  -33713   -33714   -33714   -33713   -33714   -33712   -33706   -33705 
  -33705   -33705   -33709   -33710   -33706   -33706   -33710   -33709 
  -33706   -33705   -33704   -33701   -33697   -33690   -33682   -33675 
  -33669   -33663   -33659   -33652   -33646   -33644   -33640   -33636 
  -33635   -33632   -33633   -33636   -33636   -33635   -33635   -33637 
  -33640   -33643   -33647   -33654   -33660   -33663   -33666   -33673 
  -33679   -33686   -33686   -33685   -33687   -33694   -33705   -33716 
  -33724   -33733   -33743   -33750   -33758   -33762   -33766   -33768 
  -33766   -33763   -33762   -33762   -33762   -33762   -33766   -33767 
  -33767   -33766   -33764   -33760   -33756   -33755   -33756   -33758 
  -33759   -33763   -33766   -33767   -33770   -33770   -33767   -33766 
  -33767   -33770   -33775   -33782   -33786   -33790   -33797   -33802 
  -33808   -33810   -33812   -33816   -33817   -33813   -33812   -33813 
  -33812   -33808   -33805   -33806   -33808   -33802   -33795   -33793 
  -33789   -33782   -33782   -33781   -33772   -33766   -33762   -33762 
  -33758   -33750   -33747   -33745   -33741   -33740   -33744   -33740 
  -33731   -33729   -33724   -33716   -33713   -33709   -33702   -33700 
  -33698   -33694   -33691   -33689   -33687   -33687   -33687   -33687 
  -33681   -33671   -33666   -33664   -33666   -33664   -33664   -33667 
  -33667   -33670   -33674   -33675   -33678   -33683   -33686   -33690 
  -33693   -33693   -33697   -33701   -33705   -33709   -33710   -33716 
  -33723   -33727   -33729   -33728   -33732   -33736   -33739   -33743 
  -33744   -33744   -33751   -33759   -33762   -33763   -33767   -33771 
  -33768   -33763   -33760   -33758   -33755   -33755   -33755   -33758 
  -33762   -33764   -33763   -33762   -33760   -33756   -33755   -33759 
  -33767   -33771   -33777   -33785   -33786   -33782   -33779   -33777 
  -33774   -33777   -33782   -33783   -33782   -33779   -33779   -33783 
  -33786   -33783   -33775   -33767   -33762   -33762   -33760   -33759 
  -33762   -33763   -33759   -33756   -33751   -33740   -33731   -33728 
  -33725   -33724   -33724   -33725   -33729   -33735   -33740   -33744 
  -33743   -33740   -33741   -33741   -33741   -33739   -33736   -33735 
  -33735   -33736   -33737   -33740   -33744   -33744   -33741   -33737 
  -33733   -33733   -33729   -33724   -33723   -33721   -33718   -33717 
  -33720   -33720   -33717   -33713   -33708   -33705   -33704   -33705 
  -33709   -33710   -33714   -33720   -33723   -33725   -33732   -33737 
  -33737   -33739   -33745   -33751   -33754   -33758   -33763   -33768 
  -33777   -33782   -33783   -33785   -33787   -33790   -33791   -33794 
