Origin Time       2024/04/02 04:24:00
Lat.              40.133
Long.             141.712
Depth. (km)       71
Mag.              6.0
Station Code      YMNH09
Station Lat.      35.4327
Station Long.     138.3325
Station Height(m) 234.9
Record Time       2024/04/02 04:26:20
Sampling Freq(Hz) 100Hz
Duration Time(s)  120
Dir.              2
Scale Factor      3923(gal)/8224838
Max. Acc. (gal)   0.053
Last Correction   2024/04/02 04:26:21
Memo.             
[...]
   49287    49291    49289    49285    49288    49292    49297    49302 
   49303    49306    49306    49303    49302    49299    49293    49288 
   49283    49283    49289    49292    49295    49296    49285    49276 
   49279    49284    49289    49302    49311    49320    49330    49330 
   49324    49316    49302    49283    49270    49266    49264    49268 
   49283    49293    49297    49304    49310    49310    49307    49300 
   49293    49289    49285    49281    49276    49270    49264    49260 
   49258    49260    49258    49257    49258    49256    49256    49260 
   49266    49273    49273    49265    49260    49260    49257    49258 
   49262    49262    49260    49250    49234    49216    49203    49196 
   49196    49202    49210    49215    49219    49222    49227    49226 
   49222    49226    49234    49230    49221    49215    49215    49216 
   49216    49216    49216    49215    49210    49206    49208    49218 
   49226    49234    49241    49245    49245    49243    49243    49249 
   49253    49265    49281    49288    49292    49300    49296    49291 
   49295    49292    49283    49279    49275    49276    49287    49297 
   49304    49314    49319    49314    49306    49297    49291    49287 
   49288    49292    49295    49297    49307    49316    49319    49322 
   49329    49330    49324    49316    49308    49304    49306    49306 
   49304    49303    49295    49287    49277    49268    49262    49264 
   49264    49270    49281    49284    49277    49269    49261    49258 
   49264    49270    49280    49285    49281    49277    49272    49261 
   49258    49261    49258    49258    49260    49256    49253    49254 
   49260    49265    49273    49283    49283    49276    49272    49269 
   49265    49254    49241    49238    49237    49237    49241    49248 
   49253    49262    49273    49277    49277    49273    49266    49262 
   49256    49248    49250    49260    49272    49281    49292    49297 
   49300    49297    49291    49284    49279    49276    49276    49281 
   49288    49297    49304    49311    49312    49310    49303    49291 
   49277    49266    49258    49258    49262    49264    49266    49272 
   49277    49279    49276    49272    49269    49261    49257    49257 
   49256    49254    49256    49254    49253    49248    49239    49238 
   49241    49241    49242    49250    49256    49261    49266    49264 
   49256    49252    49245    49238    49235    49237    49241    49245 
   49250    49254    49257    49256    49250    49250    49253    49253 
   49258    49265    49268    49275    49280    49277    49273    49266 
   49254    49243    49229    49214    49210    49216    49227    49242 
   49250    49249    49245    49241    49230    49219    49219    49223 
   49226    49226    49225    49227    49230    49231    49237    49245 
   49245    49242    49241    49242    49243    49245    49250    49254 
   49256    49260    49262    49265    49272    49277    49276    49277 
   49276    49276    49283    49288    49292    49299    49297    49287 
   49276    49272    49277    49283    49287    49292    49295    49289 
   49288    49291    49289    49288    49287    49285    49281    49276 
   49273    49268    49256    49242    49230    49222    49221    49222 
   49230    49243    49252    49252    49253    49256    49261    49270 
   49281    49284    49285    49288    49285    49279    49268    49261 
   49261    49265    49272    49279    49277    49276    49277    49281 
   49293    49310    49319    49323    49329    49331    49327    49319 
   49314    49306    49300    49297    49302    49304    49306    49304 
   49300    49296    49297    49306    49310    49312    49312    49308 
   49299    49293    49295    49297    49303    49304    49302    49300 
   49297    49289    49283    49276    49269    49269    49269    49269 
   49270    49269    49270    49276    49280    49281    49285    49287 
   49283    49285    49291    49292    49295    49297    49297    49302 
   49308    49310    49306    49300    49291    49283    49275    49262 
   49256    49258    49269    49279    49285    49287    49287    49288 
   49292    49297    49310    49320    49324    49320    49314    49306 
   49299    49297    49299    49297    49296    49295    49285    49276 
   49272    49269    49269    49266    49260    49256    49257    49258 
   49261    49268    49273    49272    49268    49265    49257    49249 
   49252    49261    49264    49268    49277    49281    49279    49275 
   49269    49261    49256    49252    49253    49256    49257    49262 
   49269    49272    49273    49276    49276    49276    49275    49268 
   49265    49266    49268    49270    49277    49280    49283    49284 
   49283    49283    49283    49279    49281    49287    49292    49296 
   49299    49302    49302    49302    49302    49300    49300    49299 
   49289    49279    49270    49262    49261    49265    49265    49266 
   49272    49275    49272    49272    49273    49277    49287    49293 
   49295    49297    49295    49288    49281    49269    49256    49248 
   49239    49229    49225    49221    49210    49203    49200    49198 
   49198    49206    49218    49227    49235    49248    49257    49257 
   49250    49242    49234    49230    49227    49229    49231    49226 
   49218    49214    49210    49207    49206    49208    49212    49214 
   49222    49230    49233    49238    49245    49252    49258    49260 
   49258    49256    49252    49248    49245    49248    49256    49260 
   49256    49252    49248    49241    49235    49233    49234    49239 
   49249    49258    49261    49260    49258    49260    49262    49264 
   49264    49261    49258    49256    49257    49260    49253    49243 
   49241    49241    49239    49239    49242    49239    49235    49231 
   49225    49222    49225    49221    49221    49226    49230    49229 
   49233    49243    49248    49239    49233    49233    49234    49237 
   49241    49246    49252    49250    49242    49239    49245    49256 
   49264    49269    49272    49269    49264    49258    49253    49250 
   49252    49249    49245    49246    49245    49243    49248    49249 
   49253    49261    49265    49269    49277    49284    49285    49281 
   49283    49288    49288    49288    49288    49285    49283    49277 
   49264    49253    49253    49257    49258    49264    49280    49295 
   49304    49320    49333    49334    49333    49329    49323    49324 
   49327    49327    49331    49333    49329    49320    49315    49316 
   49318    49316    49318    49319    49320    49316    49316    49322 
   49326    49329    49334    49341    49338    49334    49334    49331 
   49324    49319    49319    49323    49323    49316    49304    49293 
   49281    49273    49270    49266    49265    49270    49269    49265 
   49264    49261    49261    49266    49266    49265    49265    49262 
   49258    49256    49253    49249    49246    49242    49242    49241 
   49233    49229    49229    49229    49226    49225    49229    49239 
   49245    49249    49254    49258    49265    49272    49275    49276 
   49276    49275    49273    49272    49272    49276    49284    49293 
   49297    49296    49291    49288    49288    49287    49289    49292 
   49287    49277    49276    49284    49296    49310    49319    49320 
   49319    49320    49323    49323    49326    49324    49320    49319 
   49320    49320    49318    49312    49304    49296    49291    49284 
   49279    49276    49272    49264    49260    49264    49265    49262 
   49266    49272    49276    49280    49280    49280    49285    49285 
   49275    49268    49262    49253    49249    49246    49241    49242 
   49245    49248    49258    49269    49272    49279    49283    49275 
   49266    49265    49265    49262    49257    49257    49265    49268 
   49273    49277    49270    49262    49262    49257    49252    49253 
   49253    49256    49264    49269    49273    49275    49277    49277 
   49272    49273    49275    49266    49265    49270    49268    49262 
   49261    49260    49268    49276    49273    49265    49260    49249 
   49242    49242    49241    49242    49248    49245    49235    49231 
   49231    49231    49230    49223    49216    49214    49212    49212 
   49214    49218    49225    49230    49231    49231    49231    49231 
   49233    49235    49241    49242    49241    49234    49223    49211 
   49206    49204    49210    49223    49235    49246    49256    49258 
   49261    49265    49269    49275    49281    49281    49284    49291 
   49297    49303    49310    49314    49314    49310    49303    49297 
   49293    49288    49284    49283    49283    49285    49289    49288 
   49285    49289    49295    49302    49311    49315    49315    49315 
   49311    49306    49300    49295    49291    49287    49285    49288 
   49289    49291    49292    49293    49296    49299    49300    49300 
   49302    49304    49302    49299    49297    49295    49291    49291 
   49284    49276    49276    49270    49260    49257    49253    49248 
   49248    49254    49261    49269    49280    49287    49288    49291 
   49296    49297    49299    49302    49306    49306    49300    49292 
   49283    49273    49265    49262    49258    49253    49249    49246 
   49243    49242    49246    49249    49248    49248    49243    49239 
   49238    49238    49242    49249    49252    49250    49250    49243 
   49235    49235    49231    49223    49216    49208    49202    49198 
   49196    49199    49206    49211    49214    49212    49207    49202 
   49204    49212    49218    49225    49233    49241    49248    49254 
   49260    49262    49265    49268    49272    49272    49269    49273 
   49276    49279    49291    49304    49316    49324    49324    49324 
   49329    49330    49331    49334    49333    49330    49323    49318 
   49315    49312    49314    49322    49331    49338    49339    49337 
   49330    49323    49320    49319    49316    49318    49319    49315 
   49306    49297    49297    49295    49288    49285    49285    49281 
   49275    49269    49265    49262    49253    49245    49239    49233 
   49227    49226    49225    49222    49223    49223    49219    49215 
   49214    49215    49215    49215    49215    49215    49219    49222 
   49227    49226    49223    49223    49225    49223    49222    49222 
   49222    49221    49223    49230    49235    49237    49239    49242 
   49239    49238    49239    49238    49238    49239    49241    49246 
   49252    49253    49253    49252    49250    49249    49246    49246 
   49253    49257    49258    49264    49265    49262    49268    49279 
   49283    49285    49291    49291    49289    49289    49285    49280 
   49281    49289    49296    49302    49304    49302    49296    49292 
   49291    49292    49293    49293    49295    49296    49292    49291 
   49295    49299    49300    49299    49296    49296    49300    49302 
   49302    49300    49302    49304    49300    49293    49287    49281 
   49275    49269    49269    49270    49272    49275    49276    49275 
   49273    49272    49270    49269    49265    49264    49265    49270 
   49270    49270    49275    49272    49266    49270    49272    49268 
   49269    49270    49272    49275    49272    49269    49268    49264 
   49260    49260    49261    49261    49262    49262    49258    49254 
   49250    49245    49242    49243    49241    49237    49241    49245 
   49245    49246    49254    49257    49253    49258    49261    49256 
   49261    49270    49273    49279    49287    49291    49293    49293 
   49293    49291    49281    49275    49270    49265    49258    49258 
   49264    49269    49276    49285    49292    49295    49295    49292 
   49292    49292    49287    49284    49287    49283    49279    49279 
   49275    49270    49266    49260    49257    49257    49254    49258 
   49264    49268    49272    49279    49284    49289    49287    49283 
   49284    49283    49276    49268    49265    49261    49256    49253 
   49257    49262    49266    49269    49270    49275    49277    49279 
   49283    49285    49283    49281    49281    49279    49276    49276 
   49277    49279    49275    49276    49285    49289    49292    49293 
   49291    49287    49288    49288    49284    49284    49287    49287 
   49285    49284    49281    49279    49276    49270    49265    49264 
   49261    49260    49258    49260    49270    49279    49284    49291 
   49295    49293    49289    49283    49277    49273    49268    49265 
   49264    49260    49249    49241    49235    49229    49225    49221 
   49221    49226    49227    49226    49227    49230    49234    49242 
   49252    49258    49261    49262    49261    49260    49258    49254 
   49246    49241    49237    49231    49227    49222    49222    49227 
   49230    49231    49235    49237    49234    49230    49226    49221 
   49211    49206    49204    49195    49187    49184    49181    49177 
   49176    49175    49172    49175    49181    49185    49188    49192 
   49196    49202    49207    49211    49212    49212    49207    49203 
   49199    49196    49199    49200    49204    49210    49218    49226 
   49231    49238    49250    49261    49266    49276    49288    49295 
   49297    49306    49314    49319    49324    49327    49326    49329 
   49334    49334    49333    49335    49338    49339    49345    49347 
   49347    49356    49357    49353    49358    49365    49368    49369 
   49369    49369    49370    49372    49376    49380    49374    49368 
   49365    49361    49357    49354    49347    49346    49349    49346 
   49343    49341    49334    49334    49338    49335    49334    49337 
   49335    49331    49333    49333    49330    49326    49318    49312 
   49310    49304    49299    49296    49291    49284    49276    49275 
   49275    49268    49262    49262    49258    49256    49258    49257 
   49254    49253    49254    49254    49252    49252    49250    49248 
   49248    49245    49241    49239    49237    49233    49229    49229 
   49230    49233    49238    49246    49252    49257    49262    49262 
   49260    49258    49260    49262    49268    49273    49277    49279 
   49279    49279    49283    49281    49279    49283    49284    49284 
   49283    49283    49288    49293    49297    49297    49295    49296 
   49297    49297    49300    49302    49303    49306    49304    49306 
   49310    49308    49304    49300    49299    49299    49299    49299 
   49299    49293    49284    49279    49273    49266    49262    49258 
   49253    49249    49243    49237    49233    49233    49230    49229 
   49233    49235    49229    49227    49233    49238    49242    49246 
   49246    49248    49242    49235    49234    49231    49222    49216 
   49216    49218    49223    49223    49215    49210    49207    49204 
   49199    49198    49200    49202    49206    49212    49215    49215 
   49216    49214    49210    49207    49207    49210    49207    49202 
   49202    49196    49189    49189    49194    49199    49204    49206 
   49206    49211    49212    49210    49212    49218    49219    49223 
   49227    49229    49230    49233    49234    49233    49233    49239 
   49245    49246    49248    49253    49261    49269    49281    49292 
   49300    49310    49312    49310    49312    49318    49323    49331 
   49335    49334    49335    49334    49334    49335    49334    49330 
   49331    49333    49333    49333    49333    49330    49330    49329 
   49329    49330    49329    49331    49333    49330    49333    49339 
   49339    49341    49338    49330    49329    49329    49322    49322 
   49324    49322    49318    49316    49314    49310    49310    49306 
   49300    49296    49295    49293    49289    49285    49281    49276 
   49272    49270    49265    49260    49258    49256    49248    49242 
   49239    49235    49231    49226    49219    49215    49207    49203 
   49208    49211    49212    49218    49223    49223    49225    49229 
   49231    49231    49231    49237    49239    49239    49238    49238 
   49239    49242    49248    49249    49249    49252    49253    49252 
   49257    49262    49266    49269    49268    49264    49264    49265 
   49265    49265    49273    49277    49279    49280    49281    49281 
   49287    49288    49285    49284    49284    49288    49293    49299 
   49307    49315    49314    49314    49316    49315    49311    49308 
   49308    49308    49307    49303    49299    49299    49300    49299 
   49299    49302    49299    49299    49303    49303    49302    49304 
   49303    49302    49302    49299    49296    49296    49295    49291 
   49291    49289    49288    49281    49273    49270    49270    49266 
   49265    49269    49269    49269    49276    49280    49279    49280 
   49285    49287    49288    49288    49284    49281    49279    49275 
   49272    49270    49270    49273    49276    49279    49280    49279 
   49277    49273    49270    49270    49269    49268    49270    49272 
   49269    49269    49272    49275    49277    49277    49277    49276 
   49276    49276    49275    49272    49270    49268    49265    49264 
   49264    49264    49264    49269    49273    49272    49270    49265 
   49261    49261    49260    49257    49264    49270    49275    49281 
   49285    49288    49291    49289    49289    49291    49287    49283 
   49281    49280    49283    49283    49280    49277    49273    49268 
   49266    49268    49269    49269    49270    49270    49270    49272 
   49272    49270    49269    49266    49264    49262    49260    49258 
   49257    49252    49249    49249    49245    49242    49242    49243 
   49248    49250    49252    49250    49250    49250    49249    49248 
   49246    49245    49239    49233    49231    49234    49234    49235 
   49238    49241    49241    49241    49241    49242    49245    49242 
   49239    49241    49241    49235    49233    49237    49239    49241 
   49242    49239    49237    49238    49242    49246    49248    49250 
   49253    49250    49246    49246    49246    49245    49243    49243 
   49242    49241    49237    49234    49233    49234    49239    49242 
   49243    49249    49252    49248    49246    49248    49249    49249 
   49250    49252    49250    49253    49256    49257    49260    49264 
   49264    49268    49272    49273    49276    49277    49279    49285 
   49289    49288    49291    49291    49289    49293    49293    49291 
   49293    49295    49293    49299    49306    49304    49304    49307 
   49304    49300    49300    49297    49296    49293    49287    49281 
   49280    49281    49283    49281    49283    49284    49281    49279 
   49279    49277    49276    49275    49272    49269    49268    49268 
   49269    49268    49264    49257    49253    49250    49253    49257 
   49262    49266    49272    49277    49283    49289    49293    49295 
   49296    49303    49306    49303    49307    49311    49311    49315 
   49318    49316    49319    49319    49316    49316    49322    49327 
   49330    49335    49337    49335    49338    49335    49335    49341 
   49342    49342    49347    49350    49351    49356    49354    49349 
   49345    49343    49337    49327    49318    49308    49299    49292 
   49287    49279    49270    49264    49257    49256    49256    49254 
