Origin Time       2024/04/02 04:24:00
Lat.              40.133
Long.             141.712
Depth. (km)       71
Mag.              6.0
Station Code      YMTH06
Station Lat.      37.9633
Station Long.     140.1836
Station Height(m) 88
Record Time       2024/04/02 04:25:18
Sampling Freq(Hz) 100Hz
Duration Time(s)  124
Dir.              3
Scale Factor      3923(gal)/8224838
Max. Acc. (gal)   0.469
Last Correction   2024/04/02 04:25:18
Memo.             
[...]
   34634    34722    34719    34677    34678    34693    34678    34693 
   34746    34746    34685    34630    34609    34620    34627    34609 
   34605    34627    34641    34638    34636    34612    34539    34491 
   34531    34591    34619    34627    34595    34535    34485    34442 
   34365    34238    34130    34099    34103    34115    34171    34285 
   34388    34408    34362    34327    34369    34439    34426    34381 
   34437    34570    34665    34677    34646    34619    34593    34573 
   34568    34554    34528    34500    34462    34392    34314    34279 
   34292    34335    34407    34491    34569    34605    34591    34601 
   34634    34608    34592    34623    34607    34573    34631    34720 
   34758    34735    34659    34582    34588    34647    34653    34607 
   34592    34554    34434    34350    34392    34461    34462    34453 
   34508    34557    34539    34526    34533    34527    34531    34541 
   34526    34497    34460    34430    34391    34318    34256    34229 
   34219    34285    34410    34452    34447    34487    34447    34321 
   34245    34206    34203    34265    34264    34167    34160    34280 
   34383    34403    34349    34276    34253    34241    34194    34167 
   34136    34038    33956    33959    34009    34074    34159    34254 
   34339    34423    34487    34504    34500    34480    34438    34422 
   34439    34452    34438    34443    34522    34605    34595    34546 
   34551    34601    34654    34690    34769    34881    34904    34838 
   34820    34871    34873    34828    34855    34917    34908    34857 
   34813    34788    34767    34690    34591    34599    34681    34727 
   34757    34773    34697    34560    34461    34414    34392    34419 
   34499    34612    34692    34674    34647    34685    34720    34717 
   34731    34780    34798    34742    34653    34537    34387    34283 
   34295    34402    34492    34506    34535    34582    34493    34321 
   34276    34330    34345    34350    34422    34506    34453    34275 
   34157    34117    34052    34005    34040    34132    34221    34287 
   34329    34362    34395    34368    34269    34182    34107    34002 
   33960    34040    34137    34210    34283    34346    34361    34322 
   34291    34268    34186    34072    33997    33990    34075    34204 
   34322    34464    34597    34628    34611    34612    34604    34601 
   34624    34631    34597    34566    34599    34681    34786    34892 
   34928    34900    34875    34828    34770    34780    34778    34715 
   34662    34591    34466    34388    34434    34535    34564    34528 
   34496    34474    34435    34385    34410    34454    34371    34219 
   34145    34141    34128    34083    34095    34184    34246    34250 
   34269    34315    34331    34287    34234    34227    34250    34318 
   34462    34612    34703    34727    34665    34541    34407    34257 
   34126    34088    34132    34219    34352    34477    34531    34510 
   34425    34292    34175    34088    33990    33902    33890    33963 
   34082    34194    34260    34281    34312    34353    34357    34333 
   34304    34326    34454    34614    34704    34713    34653    34569 
   34550    34560    34468    34381    34464    34591    34672    34766 
   34815    34771    34681    34576    34523    34541    34564    34570 
   34600    34658    34696    34693    34703    34709    34673    34666 
   34713    34744    34724    34653    34555    34497    34508    34545 
   34547    34522    34535    34582    34641    34731    34793    34753 
   34649    34580    34595    34611    34593    34635    34711    34759 
   34816    34854    34843    34834    34771    34666    34649    34654 
   34577    34511    34503    34493    34466    34454    34450    34396 
   34302    34258    34276    34317    34373    34419    34429    34437 
   34468    34516    34546    34516    34453    34385    34312    34245 
   34211    34238    34268    34204    34121    34172    34337    34487 
   34549    34527    34454    34360    34281    34217    34133    34057 
   34047    34069    34061    34015    33993    34045    34103    34094 
   34055    34007    33961    33943    33961    34024    34080    34088 
   34099    34160    34260    34357    34416    34454    34504    34584 
   34686    34738    34719    34700    34685    34661    34677    34740 
   34800    34781    34682    34584    34508    34504    34609    34696 
   34682    34661    34645    34546    34419    34426    34555    34632 
   34620    34647    34746    34786    34724    34649    34624    34626 
   34603    34578    34597    34645    34676    34661    34638    34620 
   34564    34484    34438    34439    34497    34595    34680    34735 
   34754    34754    34767    34740    34643    34545    34488    34452 
   34412    34362    34322    34294    34299    34375    34445    34480 
   34561    34645    34682    34723    34761    34767    34766    34773 
   34785    34804    34850    34904    34913    34866    34794    34757 
   34766    34763    34726    34726    34754    34707    34578    34460 
   34418    34476    34595    34684    34727    34763    34750    34670 
   34591    34488    34302    34106    34059    34169    34288    34325 
   34345    34385    34358    34241    34145    34114    34088    34021 
   33945    33921    33930    33959    34024    34036    33952    33890 
   33907    33979    34083    34163    34182    34182    34209    34253 
   34248    34191    34157    34148    34156    34199    34223    34211 
   34241    34298    34306    34272    34240    34217    34231    34335 
   34492    34576    34569    34562    34551    34506    34508    34587 
   34626    34535    34376    34292    34292    34264    34254    34384 
   34582    34716    34786    34817    34789    34728    34669    34568 
   34431    34375    34464    34609    34707    34771    34871    34996 
   35048    35012    34975    34951    34915    34889    34859    34832 
   34836    34801    34743    34767    34831    34869    34893    34908 
   34935    34921    34820    34707    34612    34522    34492    34538 
   34565    34510    34418    34354    34353    34341    34231    34105 
   34025    33912    33766    33693    33687    33691    33714    33735 
   33744    33812    33921    33971    33957    33948    33971    33997 
   34028    34105    34200    34248    34248    34240    34252    34261 
   34242    34253    34314    34388    34487    34589    34654    34659 
   34623    34609    34604    34515    34400    34368    34368    34364 
   34430    34516    34508    34460    34446    34446    34465    34491 
   34462    34406    34389    34464    34618    34753    34827    34913 
   35035    35124    35147    35144    35106    34965    34755    34589 
   34526    34533    34531    34558    34689    34821    34867    34902 
   34897    34800    34717    34684    34646    34616    34573    34480 
   34354    34225    34122    34076    34059    34037    34047    34091 
   34113    34111    34088    33999    33882    33820    33793    33772 
   33820    33949    34078    34171    34240    34294    34407    34546 
   34561    34473    34408    34379    34361    34400    34512    34631 
   34715    34759    34776    34812    34873    34889    34843    34777 
   34707    34665    34663    34692    34757    34807    34749    34609 
   34530    34584    34719    34857    34950    34963    34892    34784 
   34722    34699    34649    34634    34693    34739    34767    34850 
   34955    35028    35082    35098    35014    34877    34774    34715 
   34674    34611    34526    34483    34473    34442    34423    34422 
   34396    34377    34360    34269    34125    34024    34011    34047 
   34040    33984    33959    33974    34010    34079    34102    34041 
   33982    34003    34091    34136    34078    34033    34084    34138 
   34111    34055    34065    34159    34275    34369    34452    34537 
   34611    34628    34580    34522    34477    34462    34516    34607 
   34670    34742    34839    34878    34851    34823    34777    34682 
   34614    34605    34618    34627    34638    34645    34631    34601 
   34596    34622    34654    34666    34641    34626    34688    34777 
   34813    34808    34757    34636    34485    34373    34342    34345 
   34311    34242    34192    34192    34219    34233    34215    34183 
   34148    34114    34118    34188    34290    34369    34385    34338 
   34290    34241    34191    34188    34265    34372    34416    34404 
   34449    34530    34512    34377    34229    34145    34122    34152 
   34248    34376    34477    34503    34431    34333    34292    34304 
   34325    34310    34258    34211    34168    34117    34122    34215 
   34280    34279    34322    34431    34560    34669    34682    34635 
   34592    34484    34358    34358    34443    34537    34639    34704 
   34751    34834    34886    34897    34912    34852    34707    34572 
   34454    34352    34294    34291    34372    34495    34537    34483 
   34423    34375    34302    34242    34215    34180    34133    34096 
   34064    33976    33851    33795    33806    33817    33851    33906 
   33932    33941    33944    33930    33956    34026    34071    34084 
   34105    34121    34137    34198    34306    34399    34426    34418 
   34489    34632    34744    34861    34990    35013    34963    34970 
   35059    35158    35159    35108    35158    35299    35363    35299 
   35202    35102    34983    34906    34939    35043    35139    35189 
   35162    35078    34974    34843    34731    34689    34688    34682 
   34635    34547    34493    34464    34403    34337    34292    34285 
   34287    34245    34227    34267    34287    34271    34238    34213 
   34231    34306    34371    34341    34246    34194    34191    34182 
   34202    34311    34452    34557    34654    34736    34765    34727 
   34616    34500    34495    34572    34624    34686    34808    34906 
   34950    34997    35005    34906    34761    34661    34662    34719 
   34734    34736    34776    34792    34794    34839    34877    34848 
   34788    34735    34677    34611    34553    34506    34456    34380 
   34263    34148    34087    34078    34086    34090    34107    34163 
   34226    34217    34134    34080    34076    34040    33991    34006 
   34053    34074    34078    34080    34091    34138    34182    34159 
   34090    34074    34179    34341    34468    34562    34618    34585 
   34508    34481    34481    34457    34410    34339    34279    34273 
   34303    34335    34344    34318    34300    34311    34338    34384 
   34460    34569    34669    34700    34665    34608    34543    34464 
   34407    34429    34503    34531    34506    34519    34582    34647 
   34697    34736    34780    34805    34784    34763    34739    34663 
   34609    34649    34701    34666    34558    34442    34346    34279 
   34267    34318    34385    34434    34480    34534    34581    34569 
   34476    34369    34307    34275    34249    34233    34217    34198 
   34192    34198    34246    34387    34561    34682    34715    34654 
   34555    34474    34410    34399    34456    34528    34576    34605 
   34646    34677    34632    34506    34360    34265    34237    34241 
   34269    34323    34375    34387    34341    34273    34265    34322 
   34373    34383    34369    34369    34385    34404    34418    34380 
   34311    34315    34337    34276    34223    34258    34311    34335 
   34368    34438    34512    34518    34453    34406    34391    34337 
   34295    34372    34488    34541    34573    34570    34489    34410 
   34349    34253    34159    34092    34047    34040    34061    34107 
   34211    34331    34385    34375    34354    34356    34361    34376 
   34387    34364    34354    34399    34469    34558    34626    34612 
   34566    34565    34580    34593    34636    34697    34744    34759 
   34746    34730    34747    34803    34857    34862    34843    34861 
   34902    34915    34896    34882    34859    34811    34765    34762 
   34807    34840    34811    34744    34669    34560    34470    34454 
   34483    34550    34639    34674    34668    34634    34565    34514 
   34516    34534    34516    34481    34460    34408    34312    34275 
   34295    34253    34153    34121    34176    34226    34238    34242 
   34252    34290    34334    34317    34275    34271    34268    34246 
   34227    34186    34126    34130    34173    34164    34148    34179 
   34194    34203    34257    34317    34341    34352    34379    34400 
   34385    34342    34303    34291    34296    34290    34285    34330 
   34399    34439    34464    34472    34472    34501    34519    34499 
   34526    34603    34618    34574    34554    34580    34653    34747 
   34782    34770    34769    34755    34723    34690    34672    34686 
   34700    34670    34639    34668    34746    34793    34777    34747 
   34727    34703    34663    34604    34557    34539    34546    34568 
   34566    34538    34508    34443    34362    34329    34288    34221 
   34194    34214    34238    34269    34294    34254    34156    34057 
   33970    33894    33829    33781    33801    33883    33980    34071 
   34119    34122    34107    34060    33995    33994    34060    34123 
   34179    34249    34295    34321    34383    34426    34399    34395 
   34461    34514    34501    34469    34481    34534    34607    34720 
   34851    34944    34992    35010    35014    35000    35000    35098 
   35260    35341    35341    35374    35441    35445    35378    35325 
   35343    35388    35380    35287    35209    35187    35122    35000 
   34915    34885    34850    34778    34696    34646    34605    34519 
   34380    34219    34099    34087    34149    34188    34182    34153 
   34159    34204    34180    34072    34009    33990    33949    33922 
   33967    34087    34210    34260    34254    34218    34175    34173 
   34191    34190    34194    34221    34275    34364    34445    34462 
   34430    34408    34400    34377    34346    34312    34269    34249 
   34252    34244    34226    34199    34155    34105    34078    34090 
   34123    34161    34214    34284    34348    34369    34354    34341 
   34345    34362    34366    34331    34314    34376    34431    34398 
   34354    34372    34410    34433    34445    34452    34470    34506 
   34514    34487    34450    34407    34349    34296    34275    34264 
   34242    34250    34295    34345    34388    34403    34381    34379 
   34423    34460    34479    34528    34601    34649    34669    34693 
   34726    34755    34744    34692    34670    34688    34678    34651 
   34642    34623    34591    34591    34649    34731    34777    34773 
   34747    34715    34688    34704    34763    34805    34782    34739 
   34762    34840    34906    34936    34928    34871    34773    34693 
   34696    34726    34719    34700    34678    34632    34596    34597 
   34612    34603    34538    34457    34445    34481    34481    34443 
   34406    34360    34273    34148    34033    33972    33967    33998 
   34006    33951    33876    33825    33817    33845    33887    33939 
   33998    34042    34086    34161    34260    34345    34407    34439 
   34441    34450    34487    34541    34595    34615    34616    34615 
   34607    34601    34597    34601    34634    34649    34636    34655 
   34672    34642    34615    34630    34685    34730    34717    34677 
   34658    34649    34622    34596    34578    34539    34481    34446 
   34460    34506    34527    34499    34464    34446    34423    34391 
   34348    34290    34242    34219    34225    34271    34322    34341 
   34356    34381    34389    34392    34426    34464    34461    34442 
   34473    34555    34624    34618    34543    34466    34435    34427 
   34388    34348    34352    34385    34416    34425    34422    34443 
   34499    34573    34630    34638    34620    34603    34592    34609 
   34634    34630    34614    34623    34641    34650    34669    34672 
   34635    34609    34609    34599    34582    34564    34541    34531 
   34520    34485    34447    34416    34362    34283    34225    34227 
   34272    34284    34244    34230    34276    34322    34345    34362 
   34348    34264    34152    34111    34148    34180    34207    34276 
   34366    34414    34420    34454    34512    34512    34460    34411 
   34399    34450    34534    34576    34588    34622    34649    34627 
   34577    34520    34485    34481    34442    34379    34358    34345 
   34312    34291    34250    34188    34142    34080    33972    33880 
   33864    33918    33998    34061    34129    34215    34292    34348 
   34373    34377    34393    34412    34422    34468    34565    34668 
   34716    34709    34704    34731    34755    34750    34744    34776 
   34804    34812    34831    34851    34858    34824    34739    34668 
   34645    34608    34541    34501    34495    34446    34364    34323 
   34323    34322    34272    34195    34171    34183    34179    34190 
   34207    34186    34153    34140    34137    34157    34207    34263 
   34333    34426    34512    34570    34582    34550    34511    34504 
   34538    34595    34650    34684    34695    34689    34669    34647 
   34626    34593    34570    34560    34538    34546    34588    34624 
   34673    34732    34754    34753    34767    34800    34825    34835 
   34852    34867    34843    34801    34758    34712    34681    34686 
   34701    34672    34636    34646    34632    34592    34608    34643 
   34636    34614    34615    34645    34678    34696    34720    34757 
   34769    34731    34669    34622    34601    34574    34528    34501 
   34511    34518    34499    34495    34506    34466    34376    34265 
   34191    34204    34248    34260    34241    34186    34132    34142 
   34195    34240    34276    34273    34190    34092    34074    34090 
   34068    34024    34006    34036    34072    34094    34152    34221 
   34196    34103    34033    33997    33978    33982    34020    34095 
   34182    34253    34334    34431    34461    34381    34299    34295 
   34333    34383    34450    34507    34558    34628    34684    34689 
   34668    34647    34630    34604    34587    34639    34738    34793 
   34798    34771    34700    34622    34588    34555    34512    34518 
   34568    34599    34600    34596    34595    34596    34592    34576 
   34549    34503    34446    34438    34500    34568    34604    34620 
   34616    34591    34570    34572    34576    34569    34547    34507 
   34445    34412    34445    34485    34483    34464    34469    34506 
   34547    34560    34560    34574    34561    34531    34546    34568 
   34564    34558    34538    34489    34435    34395    34420    34479 
   34474    34450    34468    34473    34462    34495    34531    34501 
   34437    34423    34457    34479    34495    34531    34582    34627 
   34624    34588    34555    34511    34466    34439    34392    34323 
   34252    34194    34186    34203    34195    34179    34183    34187 
   34196    34209    34219    34249    34287    34302    34300    34299 
   34296    34277    34240    34211    34187    34156    34152    34171 
   34183    34194    34203    34195    34157    34111    34083    34068 
   34064    34083    34110    34123    34102    34068    34068    34072 
