Origin Time       2024/04/02 04:24:00
Lat.              40.133
Long.             141.712
Depth. (km)       71
Mag.              6.0
Station Code      YMTH02
Station Lat.      38.2693
Station Long.     140.2583
Station Height(m) -20
Record Time       2024/04/02 04:25:20
Sampling Freq(Hz) 100Hz
Duration Time(s)  120
Dir.              2
Scale Factor      2942(gal)/8224139
Max. Acc. (gal)   1.293
Last Correction   2024/04/02 04:25:21
Memo.             
[...]
    9798     9865     9969    10091    10170    10174    10149    10139 
   10168    10204    10204    10168    10099    10035    10041    10085 
   10122    10181    10261    10281    10206    10104    10075    10135 
   10234    10322    10368    10365    10349    10357    10388    10413 
   10434    10459    10488    10501    10480    10449    10434    10393 
   10323    10278    10292    10324    10295    10196    10093     9988 
    9873     9803     9771     9732     9729     9805     9930    10056 
   10149    10166    10073     9941     9888     9899     9922     9973 
   10041    10102    10156    10177    10145    10056     9922     9787 
    9703     9693     9733     9818     9918     9979    10035    10130 
   10245    10363    10465    10504    10485    10444    10381    10284 
   10181    10115    10111    10137    10137    10069     9919     9757 
    9629     9498     9421     9448     9510     9585     9674     9748 
    9818     9899     9990    10073    10135    10203    10316    10439 
   10504    10528    10538    10503    10416    10331    10255    10172 
   10147    10191    10192    10158    10123    10050    10012    10077 
   10184    10307    10447    10498    10377    10187    10044     9942 
    9867     9814     9796     9853     9956    10037    10076    10100 
   10131    10153    10154    10176    10272    10423    10579    10713 
   10721    10578    10424    10307    10195    10085     9973     9896 
    9840     9730     9575     9435     9347     9333     9375     9413 
    9429     9464     9553     9695     9852     9975    10025     9985 
    9890     9807     9765     9747     9733     9732     9761     9829 
    9917     9998    10083    10207    10350    10440    10461    10447 
   10426    10380    10295    10212    10187    10215    10266    10320 
   10378    10435    10440    10353    10226    10138    10122    10172 
   10250    10326    10370    10365    10335    10335    10388    10484 
   10569    10593    10605    10633    10659    10716    10755    10675 
   10515    10319    10126    10002     9923     9860     9819     9796 
    9784     9772     9748     9710     9628     9526     9487     9533 
    9625     9742     9873     9988    10062    10122    10199    10282 
   10335    10355    10354    10324    10277    10241    10215    10176 
   10146    10176    10272    10386    10466    10492    10496    10503 
   10494    10465    10408    10266    10014     9744     9583     9551 
    9606     9694     9790     9930    10114    10243    10272    10260 
   10265    10349    10520    10655    10670    10582    10431    10284 
   10169    10103    10104    10106    10081    10084    10081    10023 
    9940     9876     9880     9957    10026    10054    10076    10050 
    9977     9931     9884     9821     9819     9876     9929     9980 
   10102    10262    10357    10426    10521    10577    10559    10489 
   10412    10347    10287    10257    10207    10071     9911     9805 
    9794     9860     9933     9984     9948     9822     9722     9651 
    9563     9506     9499     9536     9597     9660     9724     9763 
    9779     9803     9838     9883     9945    10015    10106    10227 
   10362    10494    10597    10652    10647    10581    10501    10470 
   10507    10590    10677    10687    10566    10369    10179    10017 
    9929     9934     9979    10023    10108    10231    10257    10177 
   10112    10041     9949     9904     9882     9867     9891     9904 
    9873     9850     9832     9790     9757     9774     9806     9833 
    9902     9994    10077    10149    10149    10057     9930     9856 
    9890    10011    10158    10268    10320    10299    10203    10084 
    9968     9895     9910     9949     9977     9999     9948     9852 
    9802     9818     9892     9952     9979    10017    10018    10007 
   10069    10200    10328    10400    10439    10446    10370    10276 
   10246    10247    10201    10118    10034     9936     9844     9809 
    9829     9894     9980    10045    10045     9983     9915     9877 
    9873     9917     9995    10054    10104    10154    10126    10049 
   10002     9940     9909     9971    10025    10034    10049    10039 
    9988     9963     9994    10037    10088    10161    10233    10282 
   10255    10145    10026     9904     9756     9675     9698     9790 
    9946    10071    10096    10107    10129    10164    10235    10303 
   10345    10358    10326    10280    10274    10326    10420    10508 
   10503    10401    10280    10170    10098    10077    10061    10037 
   10018    10006    10004     9999     9975     9942     9909     9877 
    9832     9791     9803     9856     9883     9864     9837     9818 
    9782     9730     9703     9748     9904    10158    10427    10604 
   10635    10551    10455    10415    10382    10350    10346    10287 
   10174    10145    10210    10311    10393    10408    10388    10376 
   10378    10372    10315    10254    10234    10199    10162    10199 
   10274    10342    10390    10412    10428    10480    10573    10675 
   10739    10735    10681    10633    10600    10519    10380    10268 
   10200    10138    10092    10065    10060    10076    10058    10008 
    9949     9852     9699     9520     9412     9460     9607     9751 
    9865     9948    10003    10048    10068    10072    10114    10241 
   10386    10374    10237    10114     9980     9869     9841     9822 
    9823     9888     9965    10029    10119    10261    10420    10542 
   10588    10543    10458    10395    10368    10351    10295    10193 
   10088    10006     9927     9834     9772     9755     9742     9697 
    9616     9585     9664     9796     9887     9918     9945     9979 
   10002    10071    10204    10339    10443    10513    10565    10596 
   10612    10658    10694    10705    10708    10617    10430    10243 
   10081     9927     9795     9730     9738     9760     9791     9842 
    9898     9968    10002     9998    10017    10015     9953     9892 
    9902     9937     9926     9890     9877     9877     9883     9918 
    9961     9958     9909     9830     9695     9552     9501     9535 
    9583     9602     9640     9759     9869     9898     9926     9979 
    9976     9855     9680     9660     9747     9733     9671     9636 
    9610     9663     9823    10041    10251    10469    10713    10875 
   10912    10887    10785    10601    10411    10287    10262    10268 
   10265    10314    10384    10409    10426    10457    10462    10459 
   10477    10477    10426    10308    10135     9957     9829     9821 
    9915    10034    10153    10206    10135    10008     9869     9734 
    9655     9667     9756     9860     9949    10003     9954     9890 
    9934    10012    10123    10346    10551    10606    10586    10548 
   10486    10422    10393    10382    10331    10242    10150    10087 
   10058    10046    10084    10188    10295    10357    10365    10353 
   10349    10342    10354    10369    10350    10338    10331    10342 
   10388    10393    10334    10264    10207    10179    10210    10297 
   10370    10374    10334    10261    10188    10177    10170    10058 
    9882     9734     9603     9472     9383     9352     9351     9343 
    9310     9347     9512     9695     9788     9796     9761     9736 
    9759     9823     9899     9985    10052    10035     9933     9807 
    9729     9728     9814     9953    10058    10131    10193    10193 
   10196    10280    10362    10388    10357    10301    10296    10316 
   10368    10488    10593    10633    10627    10565    10485    10413 
   10345    10295    10250    10195    10157    10138    10096     9975 
    9801     9695     9668     9639     9599     9622     9730     9837 
    9906     9985    10012     9952     9887     9841     9822     9882 
    9963     9969     9934     9958    10029    10093    10157    10184 
   10158    10156    10204    10269    10359    10505    10689    10847 
   10968    11055    11060    10984    10889    10821    10797    10760 
   10706    10701    10700    10652    10615    10606    10625    10633 
   10581    10508    10492    10535    10554    10492    10380    10303 
   10314    10350    10389    10497    10652    10783    10859    10820 
   10644    10404    10210    10071     9973     9999    10103    10135 
   10093     9985     9848     9749     9644     9528     9400     9288 
    9316     9458     9582     9651     9651     9602     9522     9427 
    9347     9292     9265     9301     9355     9374     9406     9487 
    9603     9767     9957    10111    10200    10265    10345    10363 
   10277    10216    10227    10192    10085     9961     9864     9837 
    9818     9738     9649     9602     9551     9437     9305     9235 
    9212     9180     9132     9089     9054     9040     9067     9124 
    9223     9383     9572     9752     9917    10080    10233    10349 
   10415    10453    10488    10500    10503    10507    10440    10293 
   10141    10023     9946     9918     9950    10039    10138    10187 
   10176    10133    10083    10044     9995     9900     9760     9586 
    9436     9377     9389     9433     9505     9545     9547     9562 
    9613     9684     9760     9844     9979    10173    10359    10459 
   10455    10395    10341    10301    10242    10165    10075     9968 
    9863     9794     9771     9786     9864    10033    10243    10423 
   10550    10623    10643    10628    10596    10565    10569    10612 
   10633    10571    10466    10427    10482    10547    10570    10567 
   10536    10542    10673    10868    11024    11110    11129    11126 
   11145    11157    11134    11118    11149    11203    11196    11095 
   10909    10713    10654    10666    10617    10524    10390    10261 
   10173    10085    10006     9952     9950    10011    10050    10019 
    9988     9968     9894     9792     9741     9752     9790     9784 
    9725     9694     9730     9822     9929    10000    10065    10172 
   10282    10330    10369    10411    10365    10297    10274    10250 
   10300    10431    10498    10465    10381    10309    10308    10374 
   10486    10594    10642    10633    10638    10705    10809    10882 
   10883    10773    10573    10403    10338    10347    10382    10430 
   10488    10578    10693    10798    10899    11038    11188    11253 
   11198    11071    10936    10828    10758    10750    10801    10818 
   10736    10563    10349    10181    10068     9942     9799     9668 
    9590     9578     9568     9521     9436     9335     9278     9270 
    9267     9254     9238     9263     9346     9448     9533     9570 
    9548     9509     9525     9571     9555     9481     9402     9297 
    9154     9018     8941     8930     8934     8927     8931     8957 
    9001     9062     9127     9202     9266     9259     9207     9162 
    9132     9124     9150     9221     9344     9467     9585     9748 
    9918    10031    10096    10110    10093    10102    10122    10150 
   10215    10287    10346    10392    10413    10412    10361    10243 
   10080     9892     9707     9531     9378     9275     9224     9215 
    9229     9246     9279     9350     9451     9560     9624     9624 
    9595     9545     9483     9445     9443     9487     9585     9667 
    9668     9603     9525     9448     9363     9269     9204     9225 
    9329     9472     9599     9651     9605     9483     9327     9205 
    9159     9165     9208     9308     9441     9559     9666     9783 
    9900     9992    10056    10091    10088    10046     9969     9898 
    9909    10058    10350    10708    11005    11163    11205    11206 
   11223    11248    11245    11207    11145    11107    11115    11126 
   11099    11028    10941    10885    10844    10787    10732    10705 
   10706    10768    10895    11033    11195    11394    11568    11711 
   11839    11932    11961    11911    11821    11730    11580    11364 
   11155    10908    10609    10354    10153     9983     9850     9738 
    9655     9618     9617     9666     9802     9995    10203    10417 
   10600    10729    10831    10890    10872    10801    10732    10698 
   10689    10666    10608    10565    10579    10644    10743    10828 
   10874    10883    10814    10686    10573    10523    10554    10624 
   10627    10542    10471    10476    10508    10561    10635    10679 
   10693    10712    10710    10685    10686    10709    10721    10735 
   10771    10813    10829    10779    10673    10569    10463    10301 
   10089     9890     9736     9624     9575     9593     9621     9625 
    9633     9668     9699     9671     9620     9601     9595     9643 
    9740     9765     9715     9659     9580     9518     9516     9493 
    9423     9354     9297     9278     9305     9335     9363     9394 
    9413     9437     9448     9397     9305     9238     9205     9228 
    9337     9504     9683     9864    10057    10250    10423    10571 
   10687    10763    10817    10848    10852    10883    10972    11029 
   11013    10999    10986    10963    10983    11049    11156    11300 
   11418    11470    11456    11375    11281    11256    11300    11318 
   11265    11151    10929    10579    10141     9663     9219     8839 
    8500     8213     7981     7758     7527     7321     7182     7137 
    7192     7325     7528     7807     8156     8548     8924     9220 
    9409     9478     9405     9208     8930     8576     8124     7580 
    7045     6655     6478     6570     6925     7400     7885     8322 
    8629     8780     8820     8853     8954     9086     9243     9509 
    9921    10404    10868    11317    11780    12222    12615    12906 
   12982    12814    12502    12135    11757    11404    11106    10898 
   10759    10662    10647    10719    10816    10898    10944    10901 
   10712    10405    10093     9821     9575     9410     9348     9329 
    9401     9628     9938    10273    10563    10677    10575    10351 
   10091     9865     9737     9675     9634     9644     9711     9807 
    9930    10039    10075    10058    10058    10138    10272    10328 
   10268    10118     9867     9607     9445     9355     9328     9363 
    9428     9537     9753    10135    10702    11375    12015    12544 
   12961    13243    13358    13346    13302    13312    13378    13431 
   13414    13351    13301    13309    13328    13277    13134    12899 
   12583    12210    11769    11248    10666    10073     9544     9155 
    8970     8970     9066     9148     9159     9153     9227     9360 
    9427     9352     9153     8857     8505     8167     7924     7869 
    8066     8487     9032     9582    10066    10477    10800    11056 
   11244    11233    10979    10640    10297     9938     9657     9477 
    9290     9120     9031     9003     9024     9067     9059     8972 
    8861     8837     8977     9325     9868    10488    11078    11591 
   11965    12110    12015    11761    11433    11064    10714    10438 
   10189     9948     9763     9629     9505     9358     9208     9101 
    9032     9005     9040     9142     9294     9443     9525     9474 
    9234     8895     8579     8330     8141     7996     7888     7782 
    7669     7611     7689     7928     8237     8483     8600     8590 
    8507     8409     8326     8367     8641     9104     9614    10099 
   10543    10916    11227    11492    11689    11835    11924    11921 
   11804    11499    11041    10612    10219     9810     9485     9252 
    9047     8918     8908     9034     9292     9617     9948    10249 
   10494    10687    10848    11002    11171    11334    11458    11495 
   11398    11176    10895    10638    10476    10434    10463    10485 
   10469    10439    10397    10331    10251    10189    10197    10288 
   10395    10494    10604    10651    10551    10284     9891     9477 
    9165     8957     8785     8658     8572     8487     8449     8505 
    8660     8923     9246     9553     9809    10026    10242    10434 
   10527    10503    10409    10355    10403    10492    10578    10727 
   10963    11163    11205    11119    10984    10795    10592    10459 
   10408    10423    10507    10651    10794    10871    10845    10693 
   10474    10291    10125     9875     9543     9227     8964     8775 
    8715     8796     8978     9219     9468     9656     9769     9903 
   10137    10463    10849    11263    11662    12024    12351    12577 
   12665    12765    12853    12667    12309    11944    11431    10881 
   10489    10203    10037     9984     9945     9902     9841     9772 
    9707     9701     9807     9872     9846     9860     9877     9884 
    9829     9666     9640     9725     9703     9710     9740     9710 
    9747     9764     9663     9504     9325     9319     9580     9844 
   10017    10239    10411    10536    10824    11217    11595    11924 
   12121    12136    11943    11611    11298    10979    10585    10210 
    9838     9450     9144     8941     8837     8816     8842     8912 
    8982     9117     9343     9578     9856    10149    10374    10551 
   10638    10616    10588    10586    10593    10636    10720    10794 
   10801    10721    10557    10314    10054     9842     9640     9412 
    9247     9227     9317     9459     9616     9717     9728     9729 
    9753     9759     9722     9586     9335     9073     8904     8858 
    8903     8969     9023     9085     9158     9216     9285     9409 
    9580     9761     9892     9906     9841     9780     9715     9651 
    9656     9761     9954    10181    10389    10606    10837    10968 
   10910    10728    10517    10249     9898     9540     9266     9147 
    9181     9308     9486     9636     9672     9655     9682     9726 
    9709     9628     9535     9404     9225     9077     8986     8923 
    8876     8846     8911     9111     9325     9497     9706     9968 
   10253    10559    10847    11047    11176    11265    11265    11203 
   11164    11110    11001    10890    10802    10713    10609    10489 
   10376    10311    10291    10250    10176    10145    10211    10372 
   10536    10590    10538    10469    10442    10490    10620    10756 
   10895    11128    11410    11669    11911    12094    12162    12127 
   11989    11722    11394    11094    10822    10563    10343    10181 
   10073     9985     9899     9883     9965    10068    10161    10307 
   10493    10624    10650    10584    10467    10368    10326    10288 
   10183    10057     9996    10004    10048    10134    10238    10285 
   10285    10284    10261    10203    10137    10093    10116    10212 
   10323    10384    10357    10214     9954     9640     9374     9228 
    9198     9262     9396     9522     9541     9429     9265     9131 
    9072     9128     9248     9301     9265     9213     9173     9194 
    9340     9520     9602     9607     9576     9494     9381     9289 
    9234     9231     9298     9432     9612     9814    10038    10291 
   10517    10642    10660    10601    10474    10345    10237    10099 
    9988     9954     9971    10071    10226    10384    10566    10697 
   10693    10575    10431    10309    10177    10027     9880     9741 
    9659     9680     9760     9853     9985    10150    10326    10494 
   10605    10640    10584    10411    10203    10018     9791     9483 
