Origin Time       2024/04/02 04:24:00
Lat.              40.133
Long.             141.712
Depth. (km)       71
Mag.              6.0
Station Code      YMTH12
Station Lat.      38.6357
Station Long.     140.0055
Station Height(m) 117
Record Time       2024/04/02 04:25:10
Sampling Freq(Hz) 100Hz
Duration Time(s)  152
Dir.              2
Scale Factor      3920(gal)/6170801
Max. Acc. (gal)   0.678
Last Correction   2024/04/02 04:24:55
Memo.             
[...]
    2013     2085     2153     2197     2221     2232     2228     2205 
    2165     2113     2064     2040     2029     2012     1999     1998 
    1993     1957     1887     1795     1700     1642     1644     1676 
    1691     1668     1639     1659     1744     1853     1947     2010 
    2050     2086     2137     2199     2247     2257     2221     2144 
    2053     2004     2013     2056     2090     2090     2073     2061 
    2045     2008     1937     1834     1729     1637     1561     1515 
    1514     1548     1598     1636     1646     1638     1634     1653 
    1696     1751     1807     1874     1958     2041     2082     2055 
    1979     1899     1835     1797     1798     1836     1915     2041 
    2177     2257     2243     2156     2049     1953     1885     1857 
    1869     1906     1962     2002     1985     1924     1870     1850 
    1854     1869     1904     1961     2023     2058     2048     2013 
    1986     1982     1975     1940     1906     1894     1882     1856 
    1837     1848     1886     1920     1929     1923     1912     1907 
    1921     1954     1974     1974     1988     2038     2096     2120 
    2099     2069     2070     2095     2086     2011     1893     1771 
    1665     1574     1505     1496     1576     1725     1874     1964 
    1994     2013     2056     2118     2163     2171     2157     2149 
    2165     2193     2198     2163     2094     2009     1938     1910 
    1909     1910     1898     1870     1829     1792     1777     1780 
    1784     1782     1776     1755     1706     1657     1654     1708 
    1800     1895     1959     1990     2009     2035     2061     2056 
    2003     1925     1855     1811     1796     1792     1794     1827 
    1915     2027     2093     2098     2087     2091     2106     2109 
    2080     2021     1965     1943     1949     1963     1957     1908 
    1808     1680     1574     1526     1528     1539     1536     1537 
    1573     1641     1711     1766     1816     1870     1916     1938 
    1933     1911     1897     1932     2020     2123     2213     2293 
    2371     2446     2497     2499     2456     2387     2293     2184 
    2074     1964     1850     1738     1664     1652     1698     1784 
    1868     1912     1927     1931     1927     1909     1868     1804 
    1760     1766     1815     1887     1958     1987     1974     1959 
    1968     1998     2025     2022     1984     1944     1949     2000 
    2045     2035     1974     1895     1822     1773     1749     1751 
    1785     1833     1858     1844     1809     1773     1737     1699 
    1670     1676     1725     1792     1834     1834     1806     1775 
    1746     1726     1730     1786     1883     1967     2009     2024 
    2038     2065     2089     2084     2043     1987     1933     1884 
    1847     1837     1851     1874     1889     1884     1864     1852 
    1867     1898     1919     1915     1893     1865     1840     1823 
    1823     1847     1882     1909     1933     1962     1977     1974 
    1975     2001     2050     2111     2168     2206     2223     2232 
    2234     2214     2171     2113     2039     1956     1885     1843 
    1825     1812     1794     1770     1743     1715     1691     1679 
    1690     1733     1811     1906     1988     2040     2063     2085 
    2131     2198     2241     2220     2137     2035     1958     1929 
    1950     1989     2008     1999     1980     1968     1974     1993 
    2005     1994     1979     1982     2012     2060     2089     2061 
    1986     1903     1843     1822     1846     1900     1946     1973 
    1987     1987     1965     1925     1883     1856     1850     1860 
    1868     1855     1836     1826     1826     1839     1866     1892 
    1903     1905     1904     1891     1862     1820     1778     1766 
    1785     1797     1780     1750     1727     1724     1742     1755 
    1761     1786     1835     1887     1917     1918     1902     1890 
    1890     1887     1882     1895     1920     1914     1865     1800 
    1750     1745     1792     1856     1902     1926     1939     1957 
    1986     2014     2039     2063     2077     2080     2077     2072 
    2065     2060     2057     2054     2063     2086     2109     2121 
    2128     2132     2145     2174     2205     2206     2149     2047 
    1950     1897     1885     1888     1875     1825     1756     1701 
    1674     1687     1745     1843     1958     2057     2139     2207 
    2239     2235     2223     2199     2131     2027     1932     1872 
    1846     1852     1877     1884     1835     1743     1659     1619 
    1615     1614     1595     1561     1522     1492     1487     1503 
    1515     1513     1514     1535     1590     1679     1777     1860 
    1935     2018     2123     2228     2281     2269     2221     2165 
    2115     2071     2030     2016     2058     2139     2192     2176 
    2098     1978     1858     1788     1763     1747     1714     1648 
    1561     1505     1513     1575     1636     1666     1699     1761 
    1840     1939     2062     2174     2236     2236     2211     2213 
    2243     2259     2240     2220     2228     2249     2242     2183 
    2090     2019     2007     2031     2053     2066     2070     2054 
    2009     1945     1895     1874     1876     1885     1876     1831 
    1774     1741     1743     1772     1837     1953     2089     2173 
    2168     2095     1993     1905     1858     1850     1862     1882 
    1897     1906     1914     1915     1907     1894     1885     1881 
    1882     1896     1908     1904     1893     1886     1878     1863 
    1861     1907     1992     2064     2081     2064     2064     2097 
    2126     2123     2108     2105     2100     2070     2006     1908 
    1799     1711     1656     1636     1635     1637     1633     1623 
    1608     1597     1602     1634     1687     1741     1799     1878 
    1967     2036     2087     2122     2129     2096     2031     1959 
    1888     1817     1764     1729     1684     1628     1596     1616 
    1680     1735     1737     1702     1658     1610     1569     1564 
    1600     1646     1676     1700     1755     1862     1994     2110 
    2191     2239     2271     2303     2332     2327     2275     2213 
    2182     2179     2172     2149     2105     2035     1949     1872 
    1820     1800     1804     1811     1802     1778     1761     1763 
    1780     1816     1873     1942     2014     2089     2156     2206 
    2253     2299     2324     2323     2315     2315     2312     2277 
    2196     2087     1979     1880     1776     1663     1571     1548 
    1605     1706     1813     1904     1960     1972     1953     1922 
    1882     1854     1869     1907     1927     1934     1953     1997 
    2053     2100     2146     2191     2190     2113     1980     1853 
    1793     1802     1820     1798     1759     1750     1779     1841 
    1919     1978     2001     2006     2013     2015     2001     1973 
    1940     1899     1850     1805     1778     1786     1839     1922 
    2017     2098     2150     2175     2188     2187     2162     2112 
    2041     1944     1820     1703     1640     1642     1687     1756 
    1834     1892     1916     1918     1893     1831     1754     1683 
    1632     1611     1630     1697     1803     1917     2028     2117 
    2146     2097     1988     1868     1788     1777     1833     1901 
    1926     1925     1937     1970     1999     1996     1961     1914 
    1861     1797     1719     1635     1571     1561     1613     1699 
    1779     1853     1939     2027     2090     2118     2128     2130 
    2131     2113     2051     1970     1907     1852     1796     1750 
    1733     1753     1798     1847     1901     1964     2028     2082 
    2121     2150     2159     2131     2067     1988     1913     1858 
    1835     1849     1901     1982     2060     2103     2103     2069 
    2035     2028     2049     2094     2139     2132     2052     1949 
    1882     1861     1851     1826     1790     1763     1768     1810 
    1869     1917     1934     1907     1848     1802     1802     1842 
    1887     1901     1883     1865     1879     1917     1929     1898 
    1866     1865     1878     1883     1873     1852     1827     1805 
    1791     1798     1831     1888     1933     1923     1865     1797 
    1760     1766     1791     1820     1868     1929     1996     2066 
    2116     2122     2095     2055     2017     2000     1993     1969 
    1935     1926     1956     2012     2072     2122     2155     2163 
    2135     2076     2006     1954     1940     1967     2005     2014 
    1976     1904     1834     1801     1798     1813     1851     1903 
    1961     2037     2121     2172     2167     2117     2056     2028 
    2043     2068     2061     2013     1948     1902     1872     1819 
    1748     1684     1641     1646     1723     1850     1969     2050 
    2100     2132     2132     2097     2062     2053     2062     2063 
    2045     2016     1978     1934     1890     1846     1805     1781 
    1774     1767     1749     1737     1760     1818     1881     1916 
    1918     1913     1925     1942     1944     1937     1920     1885 
    1848     1824     1801     1781     1776     1782     1788     1800 
    1817     1839     1882     1956     2042     2107     2121     2063 
    1954     1861     1816     1806     1809     1800     1765     1718 
    1684     1662     1653     1675     1729     1797     1866     1931 
    1987     2009     1983     1945     1940     1967     1993     1994 
    1966     1925     1904     1921     1965     1981     1938     1862 
    1789     1732     1693     1679     1695     1721     1741     1772 
    1825     1892     1960     2008     1998     1918     1820     1764 
    1755     1775     1816     1877     1949     2021     2088     2154 
    2207     2230     2215     2169     2111     2056     1992     1906 
    1813     1732     1661     1600     1555     1530     1522     1522 
    1544     1600     1675     1747     1809     1862     1919     1997 
    2089     2180     2266     2349     2421     2456     2438     2364 
    2248     2125     2038     1999     1993     1997     1996     1991 
    1973     1932     1865     1771     1664     1562     1474     1413 
    1402     1437     1499     1566     1634     1703     1755     1779 
    1794     1817     1862     1949     2077     2217     2333     2389 
    2383     2353     2330     2322     2330     2343     2340     2315 
    2278     2236     2183     2103     1994     1868     1733     1601 
    1496     1422     1381     1385     1429     1502     1603     1724 
    1849     1970     2083     2191     2307     2439     2574     2678 
    2719     2694     2624     2527     2413     2310     2253     2246 
    2281     2346     2402     2406     2358     2289     2215     2145 
    2078     2020     1980     1960     1952     1941     1916     1886 
    1879     1896     1916     1935     1952     1967     1994     2043 
    2096     2121     2109     2061     1974     1859     1739     1641 
    1582     1548     1517     1499     1519     1573     1628     1666 
    1691     1716     1745     1764     1756     1714     1643     1561 
    1501     1491     1528     1582     1629     1652     1653     1639 
    1615     1581     1535     1467     1383     1297     1215     1126 
    1039      997     1019     1085     1180     1294     1410     1513 
    1602     1691     1803     1954     2139     2325     2486     2611 
    2705     2794     2872     2900     2861     2789     2726     2701 
    2690     2645     2532     2362     2174     2007     1881     1799 
    1745     1694     1625     1536     1453     1415     1433     1473 
    1508     1548     1620     1729     1856     1976     2079     2163 
    2230     2274     2285     2262     2221     2170     2118     2084 
    2090     2124     2162     2202     2238     2254     2253     2245 
    2229     2206     2180     2155     2135     2126     2124     2109 
    2067     1989     1869     1738     1628     1552     1529     1563 
    1613     1646     1662     1666     1653     1633     1612     1595 
    1582     1565     1539     1537     1595     1709     1834     1927 
    1980     2007     2029     2062     2109     2164     2212     2225 
    2184     2088     1963     1843     1736     1639     1557     1490 
    1435     1393     1372     1373     1376     1366     1355     1355 
    1358     1353     1336     1311     1306     1355     1450     1571 
    1697     1811     1916     2041     2190     2342     2474     2573 
    2637     2670     2680     2675     2658     2652     2663     2661 
    2623     2554     2479     2403     2319     2233     2154     2078 
    1999     1919     1859     1843     1855     1844     1780     1689 
    1626     1627     1691     1792     1900     2001     2090     2142 
    2136     2088     2052     2074     2145     2212     2252     2294 
    2356     2416     2462     2495     2501     2460     2375     2270 
    2162     2049     1918     1776     1656     1573     1518     1490 
    1499     1540     1575     1572     1554     1567     1621     1707 
    1812     1897     1916     1874     1822     1808     1834     1892 
    1976     2063     2116     2117     2076     2025     1991     1969 
    1924     1843     1742     1637     1521     1378     1214     1056 
     936      870      855      891      984     1128     1288     1415 
    1485     1524     1573     1643     1725     1828     1957     2100 
    2246     2386     2497     2568     2603     2617     2630     2642 
    2640     2630     2605     2544     2443     2320     2190     2078 
    2010     1988     1994     2001     1964     1874     1775     1704 
    1668     1666     1694     1756     1856     1979     2092     2175 
    2221     2216     2161     2099     2063     2049     2052     2060 
    2064     2070     2077     2073     2053     2012     1951     1900 
    1872     1839     1778     1696     1617     1573     1583     1634 
    1699     1755     1788     1796     1797     1811     1843     1878 
    1913     1952     1986     1995     1972     1926     1883     1889 
    1957     2047     2116     2158     2180     2186     2179     2164 
    2141     2104     2054     1995     1939     1905     1894     1902 
    1924     1960     2011     2065     2099     2117     2129     2125 
    2094     2047     2015     2008     2004     1998     2003     2020 
    2033     2027     1998     1954     1922     1921     1959     2018 
    2054     2029     1947     1847     1753     1670     1604     1569 
    1583     1646     1723     1789     1840     1879     1912     1946 
    1989     2036     2071     2095     2109     2116     2119     2105 
    2060     1992     1915     1849     1821     1826     1847     1869 
    1875     1851     1814     1794     1796     1823     1868     1915 
    1948     1948     1908     1849     1798     1767     1757     1764 
    1790     1827     1851     1838     1800     1780     1794     1824 
    1850     1866     1871     1862     1849     1844     1870     1942 
    2041     2127     2183     2229     2274     2294     2257     2177 
    2098     2031     1952     1859     1768     1680     1594     1533 
    1517     1536     1565     1602     1652     1696     1718     1722 
    1728     1737     1733     1717     1710     1726     1765     1821 
    1869     1874     1814     1715     1616     1543     1516     1539 
    1593     1664     1752     1840     1921     2005     2093     2174 
    2251     2321     2372     2393     2377     2311     2191     2047 
    1923     1844     1807     1781     1739     1690     1653     1638 
    1641     1664     1700     1741     1799     1892     2016     2144 
    2239     2295     2336     2382     2416     2408     2361     2308 
    2267     2222     2147     2038     1915     1807     1741     1714 
    1702     1690     1670     1656     1670     1693     1695     1682 
    1675     1675     1679     1672     1639     1591     1563     1580 
    1627     1693     1792     1912     2027     2128     2217     2297 
    2371     2437     2477     2479     2458     2419     2353     2269 
    2184     2111     2043     1960     1863     1771     1687     1614 
    1569     1552     1559     1593     1654     1748     1876     2020 
    2151     2260     2363     2479     2606     2721     2814     2880 
    2906     2881     2813     2708     2576     2437     2288     2123 
    1966     1818     1674     1558     1496     1502     1570     1661 
    1738     1790     1823     1838     1840     1851     1890     1947 
    2002     2060     2124     2181     2222     2238     2224     2181 
    2129     2090     2056     2010     1967     1948     1943     1925 
    1884     1825     1768     1722     1676     1618     1553     1487 
    1414     1327     1236     1156     1084     1028     1006     1021 
    1067     1136     1218     1309     1415     1550     1721     1900 
    2045     2133     2160     2154     2150     2158     2165     2154 
    2132     2132     2158     2180     2176     2146     2097     2040 
    1977     1894     1785     1662     1543     1429     1315     1213 
    1144     1123     1142     1191     1265     1362     1477     1597 
    1719     1862     2028     2195     2343     2461     2539     2575 
    2578     2569     2580     2614     2643     2642     2595     2497 
    2367     2233     2110     2008     1945     1919     1909     1883 
    1833     1789     1769     1763     1769     1799     1854     1917 
    1970     1998     2006     2004     1985     1949     1909     1871 
    1836     1811     1798     1789     1785     1803     1845     1887 
    1926     1980     2042     2081     2092     2090     2094     2107 
    2125     2146     2162     2162     2145     2109     2061     2016 
    1976     1949     1926     1873     1783     1703     1671     1675 
    1694     1720     1754     1810     1883     1939     1962     1974 
    2001     2038     2068     2076     2050     2001     1964     1963 
    1979     1984     1963     1923     1866     1783     1692     1630 
    1594     1558     1510     1459     1427     1422     1434     1445 
    1451     1465     1490     1513     1534     1565     1602     1642 
    1686     1727     1756     1778     1812     1864     1923     1984 
    2044     2098     2136     2152     2163     2192     2231     2267 
    2297     2318     2321     2301     2265     2235     2231     2251 
    2274     2277     2245     2188     2144     2140     2173     2233 
    2289     2321     2324     2291     2221     2146     2088     2041 
    1985     1917     1846     1778     1731     1717     1708     1684 
    1652     1626     1626     1652     1681     1697     1709     1739 
    1794     1867     1942     2011     2072     2120     2162     2216 
    2286     2366     2449     2528     2598     2642     2647     2629 
    2599     2556     2497     2419     2326     2225     2119     2011 
    1921     1868     1852     1852     1846     1839     1850     1875 
    1899     1913     1917     1924     1952     1998     2048     2074 
    2054     1996     1937     1904     1898     1903     1897     1863 
