Origin Time       2024/04/02 04:24:00
Lat.              40.133
Long.             141.712
Depth. (km)       71
Mag.              6.0
Station Code      YMTH13
Station Lat.      38.4704
Station Long.     139.7606
Station Height(m) 265
Record Time       2024/04/02 04:25:14
Sampling Freq(Hz) 100Hz
Duration Time(s)  120
Dir.              6
Scale Factor      7845(gal)/8223790
Max. Acc. (gal)   0.375
Last Correction   2024/04/02 04:25:14
Memo.             
[...]
   -6469    -6442    -6378    -6303    -6259    -6270    -6296    -6278 
   -6249    -6238    -6232    -6220    -6203    -6200    -6238    -6284 
   -6305    -6316    -6326    -6330    -6320    -6293    -6278    -6296 
   -6345    -6399    -6416    -6385    -6331    -6291    -6293    -6315 
   -6315    -6301    -6291    -6293    -6288    -6255    -6214    -6177 
   -6157    -6168    -6195    -6231    -6276    -6309    -6328    -6340 
   -6339    -6313    -6281    -6285    -6323    -6355    -6369    -6369 
   -6362    -6340    -6299    -6259    -6253    -6276    -6299    -6300 
   -6280    -6264    -6261    -6262    -6276    -6293    -6316    -6359 
   -6373    -6349    -6347    -6339    -6312    -6293    -6259    -6230 
   -6241    -6243    -6241    -6270    -6309    -6351    -6378    -6359 
   -6338    -6363    -6421    -6458    -6438    -6397    -6366    -6342 
   -6332    -6332    -6346    -6384    -6403    -6384    -6362    -6340 
   -6305    -6254    -6178    -6115    -6091    -6095    -6100    -6081 
   -6065    -6095    -6154    -6224    -6295    -6336    -6349    -6351 
   -6357    -6373    -6384    -6369    -6342    -6322    -6324    -6354 
   -6397    -6417    -6381    -6327    -6305    -6304    -6331    -6374 
   -6370    -6343    -6322    -6291    -6278    -6301    -6326    -6332 
   -6311    -6281    -6272    -6284    -6301    -6318    -6347    -6408 
   -6458    -6438    -6385    -6366    -6411    -6481    -6482    -6403 
   -6324    -6284    -6264    -6247    -6228    -6215    -6228    -6261 
   -6255    -6214    -6214    -6278    -6363    -6427    -6427    -6367 
   -6296    -6226    -6170    -6164    -6176    -6200    -6231    -6212 
   -6170    -6177    -6215    -6251    -6274    -6304    -6350    -6369 
   -6362    -6357    -6336    -6319    -6301    -6242    -6173    -6143 
   -6147    -6165    -6205    -6262    -6295    -6319    -6372    -6390 
   -6338    -6278    -6246    -6241    -6237    -6195    -6172    -6204 
   -6242    -6284    -6330    -6330    -6286    -6259    -6250    -6227 
   -6241    -6305    -6361    -6388    -6411    -6427    -6427    -6411 
   -6381    -6342    -6304    -6278    -6293    -6346    -6374    -6363 
   -6346    -6347    -6393    -6447    -6451    -6430    -6407    -6378 
   -6354    -6332    -6330    -6332    -6315    -6300    -6292    -6303 
   -6330    -6322    -6297    -6297    -6293    -6292    -6301    -6301 
   -6288    -6250    -6205    -6205    -6261    -6309    -6304    -6268 
   -6243    -6253    -6268    -6262    -6255    -6273    -6299    -6315 
   -6288    -6230    -6195    -6211    -6254    -6281    -6273    -6245 
   -6227    -6235    -6257    -6277    -6296    -6322    -6339    -6335 
   -6326    -6304    -6266    -6265    -6311    -6340    -6345    -6350 
   -6347    -6338    -6331    -6309    -6281    -6274    -6303    -6351 
   -6363    -6323    -6289    -6301    -6334    -6330    -6286    -6266 
   -6274    -6272    -6247    -6232    -6261    -6312    -6327    -6295 
   -6261    -6266    -6307    -6343    -6378    -6416    -6434    -6435 
   -6423    -6392    -6390    -6419    -6420    -6396    -6376    -6351 
   -6322    -6270    -6216    -6207    -6227    -6242    -6228    -6184 
   -6137    -6100    -6087    -6115    -6160    -6210    -6276    -6335 
   -6384    -6432    -6447    -6436    -6439    -6430    -6377    -6327 
   -6312    -6309    -6309    -6315    -6309    -6282    -6261    -6258 
   -6284    -6330    -6357    -6347    -6305    -6250    -6210    -6166 
   -6115    -6108    -6161    -6220    -6253    -6258    -6264    -6303 
   -6367    -6413    -6392    -6319    -6270    -6291    -6355    -6370 
   -6309    -6268    -6284    -6327    -6388    -6426    -6423    -6404 
   -6362    -6318    -6309    -6286    -6203    -6112    -6065    -6089 
   -6188    -6296    -6365    -6412    -6447    -6458    -6450    -6446 
   -6439    -6400    -6343    -6307    -6289    -6280    -6266    -6250 
   -6232    -6223    -6247    -6296    -6330    -6342    -6327    -6307 
   -6318    -6331    -6322    -6293    -6246    -6223    -6227    -6201 
   -6174    -6188    -6210    -6234    -6268    -6295    -6311    -6322 
   -6334    -6366    -6413    -6443    -6438    -6420    -6424    -6438 
   -6450    -6436    -6377    -6324    -6315    -6312    -6291    -6242 
   -6192    -6195    -6218    -6216    -6211    -6216    -6242    -6285 
   -6303    -6285    -6255    -6238    -6255    -6293    -6320    -6315 
   -6300    -6297    -6270    -6227    -6226    -6251    -6273    -6293 
   -6309    -6342    -6384    -6403    -6397    -6378    -6361    -6349 
   -6313    -6259    -6227    -6227    -6251    -6274    -6281    -6293 
   -6296    -6280    -6278    -6268    -6227    -6211    -6220    -6242 
   -6286    -6300    -6278    -6278    -6297    -6334    -6384    -6396 
   -6359    -6312    -6288    -6284    -6282    -6274    -6258    -6242 
   -6255    -6299    -6338    -6347    -6324    -6308    -6326    -6361 
   -6388    -6386    -6359    -6318    -6257    -6222    -6242    -6286 
   -6334    -6370    -6396    -6419    -6419    -6378    -6346    -6345 
   -6370    -6397    -6386    -6358    -6323    -6280    -6273    -6289 
   -6285    -6274    -6246    -6207    -6216    -6262    -6289    -6280 
   -6247    -6214    -6203    -6220    -6235    -6215    -6201    -6234 
   -6281    -6324    -6342    -6331    -6343    -6386    -6404    -6386 
   -6349    -6326    -6347    -6367    -6358    -6343    -6327    -6301 
   -6276    -6258    -6258    -6258    -6239    -6224    -6246    -6288 
   -6293    -6243    -6200    -6210    -6253    -6311    -6358    -6377 
   -6384    -6367    -6316    -6261    -6237    -6243    -6250    -6246 
   -6243    -6238    -6230    -6222    -6207    -6204    -6226    -6255 
   -6293    -6327    -6340    -6359    -6386    -6388    -6377    -6367 
   -6374    -6404    -6438    -6451    -6440    -6416    -6401    -6380 
   -6340    -6309    -6291    -6307    -6347    -6363    -6353    -6343 
   -6345    -6358    -6358    -6353    -6374    -6421    -6451    -6419 
   -6335    -6269    -6259    -6292    -6324    -6328    -6316    -6297 
   -6276    -6262    -6257    -6257    -6253    -6222    -6205    -6237 
   -6268    -6274    -6265    -6239    -6237    -6253    -6237    -6219 
   -6224    -6243    -6301    -6355    -6355    -6351    -6367    -6367 
   -6353    -6332    -6320    -6318    -6300    -6262    -6222    -6200 
   -6219    -6266    -6313    -6363    -6393    -6380    -6349    -6328 
   -6293    -6228    -6187    -6207    -6257    -6300    -6309    -6293 
   -6304    -6338    -6359    -6369    -6372    -6374    -6358    -6296 
   -6234    -6224    -6230    -6200    -6146    -6129    -6164    -6207 
   -6237    -6241    -6224    -6227    -6230    -6200    -6188    -6218 
   -6264    -6293    -6281    -6259    -6261    -6276    -6299    -6312 
   -6312    -6324    -6323    -6304    -6299    -6292    -6276    -6243 
   -6184    -6143    -6147    -6151    -6156    -6160    -6153    -6158 
   -6172    -6170    -6154    -6127    -6108    -6102    -6118    -6165 
   -6203    -6224    -6265    -6296    -6303    -6309    -6324    -6367 
   -6447    -6519    -6555    -6556    -6546    -6540    -6517    -6474 
   -6453    -6442    -6419    -6394    -6388    -6413    -6453    -6486 
   -6497    -6459    -6420    -6424    -6444    -6471    -6508    -6534 
   -6554    -6573    -6566    -6542    -6521    -6494    -6434    -6358 
   -6312    -6284    -6246    -6200    -6165    -6161    -6184    -6208 
   -6227    -6247    -6254    -6249    -6245    -6251    -6266    -6254 
   -6203    -6141    -6089    -6069    -6075    -6069    -6066    -6084 
   -6097    -6092    -6060    -6023    -6021    -6033    -6056    -6114 
   -6174    -6216    -6258    -6300    -6354    -6413    -6444    -6453 
   -6462    -6475    -6462    -6407    -6369    -6370    -6367    -6363 
   -6363    -6355    -6357    -6362    -6355    -6365    -6411    -6448 
   -6430    -6392    -6382    -6382    -6392    -6428    -6470    -6493 
   -6497    -6482    -6478    -6496    -6504    -6502    -6505    -6505 
   -6493    -6458    -6396    -6335    -6297    -6266    -6246    -6235 
   -6237    -6250    -6258    -6258    -6253    -6242    -6243    -6251 
   -6272    -6311    -6355    -6412    -6484    -6548    -6573    -6544 
   -6485    -6413    -6342    -6284    -6223    -6164    -6123    -6087 
   -6066    -6072    -6068    -6058    -6043    -6022    -6022    -6029 
   -6021    -6023    -6054    -6108    -6147    -6143    -6141    -6168 
   -6192    -6200    -6205    -6216    -6246    -6280    -6293    -6281 
   -6246    -6227    -6239    -6255    -6274    -6292    -6308    -6347 
   -6382    -6374    -6347    -6322    -6300    -6297    -6300    -6281 
   -6257    -6247    -6253    -6268    -6281    -6285    -6291    -6301 
   -6296    -6250    -6203    -6199    -6231    -6282    -6339    -6405 
   -6466    -6497    -6523    -6565    -6600    -6625    -6643    -6643 
   -6637    -6597    -6500    -6405    -6326    -6272    -6270    -6281 
   -6285    -6293    -6291    -6293    -6330    -6373    -6393    -6374 
   -6347    -6336    -6323    -6313    -6320    -6322    -6326    -6338 
   -6347    -6346    -6331    -6312    -6270    -6214    -6180    -6147 
   -6088    -6018    -5957    -5937    -5972    -6025    -6061    -6083 
   -6099    -6129    -6151    -6141    -6127    -6147    -6181    -6210 
   -6228    -6277    -6366    -6424    -6435    -6423    -6403    -6407 
   -6430    -6431    -6438    -6462    -6473    -6462    -6432    -6404 
   -6405    -6430    -6447    -6439    -6413    -6384    -6358    -6359 
   -6386    -6409    -6427    -6451    -6475    -6496    -6504    -6486 
   -6455    -6427    -6377    -6305    -6265    -6273    -6280    -6261 
   -6239    -6238    -6249    -6253    -6237    -6219    -6218    -6227 
   -6259    -6299    -6315    -6305    -6258    -6196    -6174    -6188 
   -6216    -6239    -6224    -6204    -6203    -6205    -6214    -6224 
   -6234    -6251    -6245    -6205    -6170    -6146    -6137    -6154 
   -6199    -6241    -6251    -6251    -6259    -6253    -6231    -6214 
   -6227    -6299    -6374    -6401    -6416    -6434    -6451    -6478 
   -6494    -6502    -6542    -6593    -6610    -6578    -6517    -6474 
   -6463    -6467    -6478    -6477    -6438    -6366    -6274    -6192 
   -6133    -6092    -6060    -6022    -5995    -6004    -6049    -6108 
   -6169    -6220    -6264    -6291    -6301    -6303    -6295    -6296 
   -6328    -6372    -6409    -6426    -6417    -6421    -6428    -6399 
   -6369    -6374    -6374    -6336    -6272    -6207    -6162    -6146 
   -6150    -6130    -6079    -6061    -6077    -6083    -6096    -6122 
   -6133    -6134    -6135    -6154    -6200    -6261    -6330    -6390 
   -6416    -6413    -6397    -6372    -6343    -6313    -6278    -6245 
   -6239    -6268    -6296    -6316    -6334    -6324    -6301    -6299 
   -6305    -6309    -6315    -6326    -6334    -6326    -6319    -6328 
   -6345    -6369    -6405    -6446    -6502    -6562    -6590    -6592 
   -6565    -6512    -6475    -6480    -6489    -6470    -6415    -6347 
   -6293    -6253    -6227    -6216    -6212    -6208    -6210    -6239 
   -6286    -6319    -6331    -6334    -6332    -6319    -6288    -6270 
   -6277    -6282    -6273    -6251    -6231    -6231    -6222    -6196 
   -6208    -6238    -6245    -6224    -6165    -6099    -6085    -6095 
   -6092    -6091    -6103    -6134    -6185    -6246    -6303    -6338 
   -6362    -6373    -6361    -6343    -6322    -6293    -6286    -6315 
   -6357    -6390    -6412    -6436    -6450    -6436    -6411    -6373 
   -6322    -6281    -6259    -6245    -6228    -6218    -6231    -6274 
   -6313    -6336    -6345    -6350    -6359    -6347    -6324    -6339 
   -6365    -6390    -6428    -6436    -6401    -6370    -6363    -6361 
   -6335    -6293    -6251    -6212    -6197    -6204    -6196    -6181 
   -6193    -6219    -6237    -6237    -6230    -6234    -6242    -6270 
   -6322    -6347    -6343    -6326    -6291    -6259    -6239    -6216 
   -6199    -6191    -6201    -6242    -6295    -6350    -6396    -6430 
   -6454    -6457    -6435    -6399    -6367    -6374    -6411    -6442 
   -6450    -6430    -6408    -6407    -6393    -6365    -6347    -6326 
   -6315    -6327    -6351    -6393    -6419    -6400    -6381    -6373 
   -6361    -6347    -6316    -6266    -6245    -6250    -6238    -6210 
   -6199    -6234    -6311    -6399    -6465    -6475    -6436    -6370 
   -6297    -6237    -6200    -6185    -6185    -6185    -6183    -6189 
   -6191    -6183    -6191    -6212    -6230    -6246    -6273    -6307 
   -6331    -6347    -6365    -6376    -6378    -6377    -6376    -6382 
   -6377    -6336    -6277    -6224    -6192    -6184    -6193    -6208 
   -6219    -6234    -6264    -6285    -6289    -6293    -6278    -6239 
   -6196    -6161    -6154    -6156    -6141    -6157    -6210    -6254 
   -6299    -6322    -6301    -6281    -6268    -6250    -6246    -6265 
   -6288    -6291    -6295    -6323    -6367    -6412    -6435    -6435 
   -6444    -6455    -6435    -6388    -6343    -6324    -6319    -6297 
   -6273    -6282    -6309    -6345    -6381    -6399    -6403    -6409 
   -6401    -6378    -6355    -6326    -6285    -6269    -6308    -6361 
   -6373    -6366    -6359    -6353    -6354    -6340    -6326    -6336 
   -6339    -6324    -6320    -6305    -6285    -6282    -6295    -6330 
   -6366    -6358    -6320    -6286    -6264    -6245    -6218    -6177 
   -6124    -6065    -5999    -5935    -5908    -5935    -5971    -5999 
   -6034    -6064    -6089    -6118    -6146    -6185    -6242    -6308 
   -6363    -6392    -6409    -6420    -6417    -6405    -6381    -6367 
   -6385    -6404    -6389    -6339    -6281    -6247    -6235    -6228 
   -6234    -6246    -6259    -6269    -6281    -6312    -6362    -6403 
   -6430    -6461    -6496    -6523    -6531    -6519    -6481    -6434 
   -6390    -6347    -6300    -6262    -6235    -6232    -6268    -6293 
   -6285    -6297    -6331    -6353    -6373    -6386    -6381    -6384 
   -6413    -6444    -6457    -6455    -6446    -6416    -6388    -6382 
   -6370    -6338    -6305    -6285    -6296    -6323    -6342    -6357 
   -6355    -6338    -6316    -6276    -6237    -6214    -6181    -6160 
   -6173    -6193    -6188    -6158    -6135    -6138    -6158    -6177 
   -6187    -6204    -6238    -6258    -6259    -6253    -6230    -6211 
   -6218    -6231    -6245    -6259    -6269    -6278    -6293    -6322 
   -6365    -6401    -6435    -6471    -6490    -6505    -6521    -6508 
   -6485    -6484    -6490    -6478    -6443    -6397    -6363    -6354 
   -6357    -6330    -6265    -6214    -6195    -6191    -6201    -6220 
   -6242    -6261    -6259    -6254    -6265    -6289    -6327    -6358 
   -6373    -6388    -6385    -6351    -6324    -6316    -6315    -6319 
   -6319    -6305    -6268    -6215    -6177    -6154    -6158    -6192 
   -6192    -6149    -6124    -6141    -6195    -6261    -6322    -6382 
   -6442    -6504    -6558    -6573    -6563    -6563    -6551    -6500 
   -6416    -6327    -6254    -6212    -6211    -6222    -6223    -6230 
   -6247    -6254    -6246    -6238    -6251    -6280    -6299    -6320 
   -6362    -6397    -6420    -6439    -6457    -6481    -6512    -6534 
   -6523    -6478    -6446    -6438    -6419    -6388    -6351    -6308 
   -6273    -6249    -6232    -6226    -6208    -6189    -6189    -6181 
   -6150    -6115    -6096    -6111    -6153    -6192    -6219    -6234 
   -6259    -6289    -6288    -6277    -6292    -6289    -6266    -6232 
   -6169    -6126    -6130    -6130    -6123    -6133    -6147    -6158 
   -6173    -6200    -6230    -6242    -6243    -6242    -6250    -6285 
   -6319    -6324    -6309    -6277    -6237    -6205    -6200    -6208 
   -6210    -6226    -6259    -6281    -6304    -6328    -6336    -6358 
   -6404    -6453    -6490    -6511    -6502    -6478    -6455    -6453 
   -6459    -6469    -6481    -6480    -6463    -6451    -6419    -6363 
   -6318    -6273    -6219    -6166    -6131    -6138    -6165    -6188 
   -6212    -6237    -6262    -6291    -6308    -6336    -6382    -6397 
   -6384    -6365    -6334    -6293    -6245    -6210    -6222    -6259 
   -6291    -6309    -6308    -6280    -6231    -6178    -6146    -6124 
   -6093    -6050    -6008    -5989    -5992    -6012    -6060    -6104 
   -6147    -6210    -6266    -6313    -6361    -6393    -6413    -6423 
   -6423    -6435    -6448    -6467    -6490    -6473    -6442    -6432 
   -6409    -6376    -6351    -6323    -6301    -6291    -6277    -6286 
   -6323    -6359    -6384    -6388    -6394    -6411    -6421    -6436 
   -6453    -6448    -6440    -6444    -6447    -6428    -6378    -6339 
   -6349    -6386    -6421    -6439    -6457    -6486    -6496    -6473 
   -6436    -6396    -6369    -6351    -6324    -6291    -6246    -6208 
   -6210    -6234    -6250    -6269    -6304    -6335    -6343    -6334 
   -6309    -6276    -6270    -6291    -6285    -6285    -6328    -6358 
   -6349    -6327    -6312    -6316    -6313    -6282    -6241    -6215 
   -6238    -6284    -6305    -6327    -6347    -6328    -6299    -6278 
   -6269    -6277    -6284    -6286    -6292    -6285    -6270    -6258 
   -6237    -6207    -6169    -6131    -6095    -6053    -6025    -6015 
   -6010    -6039    -6089    -6110    -6112    -6118    -6131    -6168 
   -6215    -6253    -6277    -6293    -6309    -6312    -6295    -6292 
   -6318    -6334    -6342    -6349    -6335    -6304    -6280    -6262 
   -6243    -6237    -6249    -6264    -6284    -6320    -6347    -6370 
   -6396    -6407    -6407    -6417    -6451    -6507    -6543    -6554 
   -6562    -6561    -6551    -6534    -6497    -6459    -6436    -6412 
   -6382    -6338    -6284    -6253    -6246    -6259    -6288    -6309 
   -6330    -6338    -6311    -6286    -6291    -6305    -6334    -6346 
   -6339    -6350    -6370    -6380    -6392    -6405    -6393    -6350 
   -6299    -6249    -6197    -6173    -6174    -6181    -6211    -6242 
   -6251    -6264    -6276    -6284    -6295    -6297    -6293    -6276 
   -6255    -6257    -6262    -6268    -6295    -6334    -6365    -6370 
   -6346    -6316    -6281    -6230    -6192    -6173    -6161    -6176 
   -6205    -6215    -6208    -6200    -6196    -6210    -6227    -6241 
   -6258    -6280    -6288    -6269    -6251    -6251    -6251    -6257 
   -6270    -6282    -6307    -6330    -6327    -6307    -6286    -6278 
   -6270    -6262    -6281    -6301    -6307    -6335    -6369    -6365 
   -6347    -6328    -6297    -6280    -6286    -6318    -6355    -6367 
   -6354    -6334    -6308    -6288    -6278    -6262    -6247    -6257 
   -6278    -6291    -6291    -6281    -6269    -6277    -6308    -6330 
   -6332    -6318    -6291    -6277    -6289    -6297    -6303    -6309 
   -6303    -6289    -6277    -6276    -6272    -6245    -6227    -6235 
   -6243    -6258    -6284    -6301    -6324    -6346    -6345    -6345 
   -6370    -6407    -6432    -6451    -6470    -6485    -6494    -6505 
   -6492    -6457    -6432    -6419    -6400    -6381    -6363    -6340 
   -6335    -6351    -6354    -6339    -6339    -6347    -6353    -6373 
   -6388    -6361    -6324    -6303    -6273    -6242    -6219    -6191 
   -6161    -6139    -6129    -6104    -6069    -6057    -6056    -6054 
