Origin Time       2024/04/02 04:24:00
Lat.              40.133
Long.             141.712
Depth. (km)       71
Mag.              6.0
Station Code      YMTH05
Station Lat.      37.9883
Station Long.     139.8017
Station Height(m) 280
Record Time       2024/04/02 04:25:19
Sampling Freq(Hz) 100Hz
Duration Time(s)  120
Dir.              5
Scale Factor      3920(gal)/6170801
Max. Acc. (gal)   0.410
Last Correction   2024/04/02 04:25:04
Memo.             
[...]
  -27807   -27856   -27920   -27982   -28039   -28080   -28108   -28137 
  -28166   -28166   -28126   -28061   -27999   -27962   -27952   -27945 
  -27902   -27805   -27685   -27594   -27559   -27573   -27623   -27679 
  -27711   -27726   -27738   -27745   -27745   -27731   -27709   -27710 
  -27747   -27811   -27888   -27952   -27984   -27987   -27981   -27982 
  -27994   -28005   -28001   -27980   -27960   -27961   -27982   -28000 
  -28000   -27972   -27923   -27878   -27865   -27886   -27915   -27928 
  -27926   -27928   -27939   -27949   -27950   -27934   -27889   -27817 
  -27756   -27739   -27753   -27765   -27769   -27764   -27748   -27744 
  -27765   -27797   -27818   -27817   -27808   -27801   -27798   -27803 
  -27820   -27829   -27825   -27829   -27856   -27891   -27913   -27925 
  -27943   -27968   -27989   -27993   -27964   -27902   -27829   -27778 
  -27769   -27799   -27840   -27858   -27822   -27745   -27677   -27646 
  -27644   -27655   -27669   -27682   -27687   -27687   -27683   -27658 
  -27618   -27583   -27573   -27604   -27674   -27745   -27778   -27772 
  -27761   -27776   -27822   -27889   -27958   -28000   -28003   -27975 
  -27935   -27898   -27862   -27825   -27800   -27803   -27836   -27882 
  -27920   -27948   -27960   -27953   -27942   -27944   -27956   -27966 
  -27974   -27991   -28026   -28060   -28068   -28044   -28010   -27977 
  -27947   -27937   -27963   -27994   -27994   -27964   -27921   -27876 
  -27847   -27851   -27873   -27883   -27873   -27859   -27852   -27859 
  -27871   -27868   -27840   -27809   -27791   -27792   -27817   -27856 
  -27881   -27873   -27834   -27781   -27736   -27705   -27685   -27679 
  -27694   -27723   -27758   -27790   -27799   -27770   -27724   -27706 
  -27732   -27781   -27824   -27841   -27823   -27787   -27763   -27758 
  -27758   -27760   -27768   -27778   -27786   -27788   -27776   -27739 
  -27686   -27641   -27626   -27649   -27702   -27757   -27797   -27823 
  -27842   -27854   -27852   -27833   -27811   -27799   -27799   -27812 
  -27832   -27848   -27850   -27835   -27807   -27787   -27785   -27791 
  -27804   -27826   -27868   -27942   -28029   -28096   -28136   -28150 
  -28137   -28093   -28018   -27939   -27889   -27873   -27877   -27888 
  -27890   -27862   -27811   -27773   -27760   -27762   -27773   -27787 
  -27802   -27824   -27845   -27857   -27866   -27866   -27852   -27842 
  -27858   -27896   -27920   -27912   -27888   -27854   -27803   -27745 
  -27701   -27673   -27651   -27634   -27641   -27680   -27733   -27785 
  -27834   -27875   -27908   -27944   -27973   -27975   -27959   -27937 
  -27913   -27889   -27863   -27826   -27777   -27732   -27709   -27717 
  -27749   -27793   -27828   -27837   -27831   -27827   -27841   -27878 
  -27913   -27930   -27937   -27943   -27934   -27903   -27858   -27815 
  -27786   -27773   -27763   -27750   -27731   -27707   -27684   -27680 
  -27706   -27764   -27830   -27861   -27844   -27799   -27751   -27721 
  -27740   -27804   -27872   -27922   -27943   -27933   -27903   -27872 
  -27857   -27850   -27845   -27864   -27922   -28006   -28091   -28144 
  -28152   -28122   -28080   -28059   -28081   -28126   -28146   -28119 
  -28065   -28016   -27993   -27993   -27992   -27976   -27955   -27937 
  -27930   -27948   -27985   -28013   -28021   -28021   -28028   -28043 
  -28053   -28038   -27990   -27919   -27854   -27816   -27797   -27781 
  -27751   -27705   -27662   -27629   -27605   -27577   -27539   -27510 
  -27496   -27501   -27551   -27644   -27735   -27786   -27794   -27774 
  -27745   -27703   -27650   -27600   -27547   -27486   -27439   -27422 
  -27439   -27471   -27499   -27526   -27559   -27592   -27627   -27668 
  -27709   -27736   -27744   -27755   -27781   -27816   -27853   -27876 
  -27879   -27877   -27883   -27890   -27892   -27892   -27890   -27882 
  -27875   -27894   -27942   -27995   -28048   -28092   -28114   -28120 
  -28114   -28096   -28081   -28079   -28086   -28094   -28084   -28052 
  -28015   -27985   -27965   -27965   -27981   -27988   -27985   -27980 
  -27973   -27965   -27974   -27993   -28009   -28012   -27995   -27960 
  -27918   -27880   -27853   -27836   -27824   -27814   -27811   -27821 
  -27839   -27873   -27931   -27990   -28025   -28023   -28000   -27985 
  -27981   -27971   -27956   -27942   -27924   -27902   -27876   -27849 
  -27828   -27814   -27800   -27785   -27763   -27718   -27652   -27595 
  -27572   -27588   -27636   -27693   -27735   -27756   -27766   -27772 
  -27776   -27781   -27787   -27787   -27775   -27762   -27763   -27769 
  -27763   -27739   -27699   -27662   -27638   -27621   -27611   -27619 
  -27634   -27647   -27660   -27670   -27681   -27701   -27723   -27743 
  -27774   -27816   -27862   -27915   -27967   -27998   -27997   -27974 
  -27942   -27906   -27872   -27841   -27803   -27761   -27731   -27724 
  -27734   -27757   -27783   -27779   -27730   -27668   -27633   -27637 
  -27660   -27678   -27682   -27677   -27664   -27659   -27680   -27705 
  -27723   -27752   -27795   -27861   -27961   -28058   -28098   -28065 
  -27989   -27929   -27917   -27931   -27941   -27937   -27915   -27891 
  -27896   -27955   -28049   -28119   -28126   -28090   -28058   -28065 
  -28105   -28154   -28186   -28192   -28177   -28148   -28113   -28068 
  -28008   -27943   -27869   -27794   -27751   -27753   -27780   -27802 
  -27802   -27800   -27815   -27838   -27859   -27867   -27858   -27845 
  -27845   -27847   -27842   -27840   -27844   -27837   -27823   -27807 
  -27780   -27740   -27699   -27674   -27678   -27697   -27719   -27739 
  -27752   -27759   -27767   -27783   -27811   -27839   -27851   -27849 
  -27850   -27860   -27871   -27867   -27851   -27847   -27858   -27865 
  -27861   -27845   -27825   -27818   -27838   -27884   -27942   -27994 
  -28029   -28047   -28061   -28085   -28123   -28153   -28141   -28087 
  -28017   -27957   -27916   -27887   -27863   -27838   -27816   -27817 
  -27845   -27881   -27916   -27945   -27957   -27950   -27942   -27929 
  -27895   -27851   -27822   -27804   -27789   -27780   -27772   -27755 
  -27732   -27713   -27697   -27680   -27660   -27641   -27623   -27614 
  -27629   -27660   -27677   -27658   -27615   -27579   -27563   -27570 
  -27597   -27622   -27631   -27630   -27632   -27663   -27726   -27785 
  -27802   -27790   -27781   -27788   -27823   -27880   -27934   -27967 
  -27986   -28003   -28026   -28061   -28085   -28073   -28032   -27999 
  -28001   -28043   -28099   -28133   -28126   -28088   -28055   -28046 
  -28050   -28050   -28027   -27972   -27892   -27814   -27760   -27722 
  -27690   -27675   -27686   -27711   -27738   -27764   -27780   -27769 
  -27748   -27747   -27776   -27820   -27862   -27891   -27902   -27894 
  -27875   -27860   -27857   -27861   -27865   -27870   -27885   -27907 
  -27923   -27935   -27950   -27966   -27993   -28024   -28039   -28028 
  -27994   -27948   -27911   -27898   -27905   -27912   -27899   -27868 
  -27840   -27819   -27793   -27765   -27738   -27705   -27670   -27650 
  -27650   -27646   -27633   -27629   -27636   -27643   -27654   -27670 
  -27668   -27648   -27630   -27626   -27641   -27675   -27712   -27732 
  -27723   -27683   -27632   -27593   -27584   -27619   -27681   -27721 
  -27722   -27715   -27718   -27725   -27738   -27764   -27797   -27827 
  -27858   -27881   -27889   -27883   -27873   -27870   -27881   -27910 
  -27949   -27976   -27963   -27919   -27883   -27870   -27872   -27868 
  -27845   -27817   -27794   -27783   -27796   -27820   -27827   -27826 
  -27845   -27877   -27899   -27909   -27906   -27881   -27846   -27837 
  -27871   -27924   -27955   -27940   -27896   -27854   -27827   -27819 
  -27836   -27872   -27907   -27928   -27937   -27942   -27939   -27923 
  -27899   -27883   -27882   -27883   -27873   -27854   -27826   -27799 
  -27793   -27815   -27845   -27861   -27853   -27835   -27821   -27812 
  -27806   -27811   -27819   -27812   -27796   -27789   -27806   -27848 
  -27904   -27960   -28010   -28038   -28032   -27999   -27956   -27918 
  -27908   -27936   -27984   -28035   -28077   -28098   -28084   -28049 
  -28020   -28012   -28011   -28007   -27996   -27975   -27952   -27945 
  -27958   -27979   -27999   -28005   -27988   -27950   -27915   -27899 
  -27892   -27877   -27860   -27860   -27879   -27902   -27912   -27900 
  -27883   -27877   -27895   -27948   -28021   -28077   -28089   -28048 
  -27977   -27911   -27866   -27841   -27834   -27843   -27862   -27892 
  -27930   -27950   -27940   -27905   -27854   -27800   -27761   -27744 
  -27750   -27769   -27780   -27784   -27783   -27763   -27724   -27698 
  -27704   -27742   -27797   -27856   -27904   -27929   -27918   -27884 
  -27852   -27829   -27794   -27747   -27725   -27737   -27761   -27775 
  -27783   -27783   -27758   -27716   -27686   -27679   -27677   -27668 
  -27662   -27668   -27681   -27696   -27718   -27740   -27746   -27733 
  -27714   -27705   -27693   -27669   -27652   -27657   -27673   -27698 
  -27733   -27765   -27788   -27805   -27806   -27791   -27777   -27774 
  -27790   -27819   -27843   -27869   -27905   -27936   -27953   -27960 
  -27951   -27918   -27877   -27856   -27870   -27898   -27911   -27900 
  -27859   -27789   -27723   -27694   -27695   -27699   -27698   -27695 
  -27692   -27706   -27739   -27780   -27814   -27827   -27812   -27793 
  -27805   -27860   -27936   -28009   -28067   -28105   -28109   -28077 
  -28034   -28011   -28009   -28016   -28026   -28029   -28021   -28008 
  -27990   -27969   -27950   -27946   -27970   -28009   -28037   -28049 
  -28046   -28022   -27978   -27924   -27883   -27875   -27890   -27897 
  -27882   -27861   -27853   -27859   -27871   -27881   -27886   -27885 
  -27879   -27866   -27853   -27847   -27842   -27828   -27804   -27777 
  -27754   -27722   -27669   -27604   -27545   -27503   -27496   -27537 
  -27593   -27631   -27656   -27666   -27662   -27672   -27707   -27737 
  -27740   -27742   -27751   -27750   -27745   -27753   -27764   -27753 
  -27726   -27712   -27712   -27706   -27702   -27701   -27686   -27675 
  -27702   -27764   -27823   -27847   -27846   -27855   -27904   -28009 
  -28148   -28274   -28344   -28332   -28259   -28181   -28137   -28119 
  -28109   -28090   -28053   -28008   -27968   -27942   -27926   -27907 
  -27888   -27882   -27889   -27901   -27915   -27920   -27901   -27863 
  -27834   -27825   -27827   -27833   -27837   -27819   -27786   -27759 
  -27736   -27717   -27707   -27691   -27658   -27618   -27579   -27554 
  -27552   -27563   -27574   -27589   -27614   -27649   -27684   -27708 
  -27718   -27727   -27742   -27758   -27779   -27808   -27831   -27839 
  -27838   -27835   -27844   -27874   -27904   -27912   -27911   -27915 
  -27923   -27934   -27954   -27976   -27988   -27989   -27992   -28005 
  -28015   -28018   -28027   -28038   -28044   -28061   -28085   -28084 
  -28060   -28037   -28019   -28002   -27986   -27968   -27940   -27902 
  -27862   -27823   -27795   -27787   -27795   -27814   -27847   -27881 
  -27891   -27872   -27846   -27820   -27791   -27774   -27779   -27784 
  -27781   -27772   -27766   -27772   -27791   -27820   -27846   -27860 
  -27864   -27859   -27845   -27821   -27787   -27761   -27745   -27721 
  -27689   -27658   -27632   -27606   -27579   -27559   -27547   -27531 
  -27510   -27495   -27496   -27523   -27571   -27623   -27676   -27722 
  -27749   -27775   -27824   -27877   -27911   -27928   -27941   -27943 
  -27929   -27912   -27903   -27903   -27914   -27938   -27974   -28007 
  -28019   -28006   -27995   -28002   -28027   -28065   -28101   -28104 
  -28066   -28015   -27983   -27984   -28008   -28032   -28044   -28043 
  -28024   -27984   -27947   -27931   -27929   -27933   -27949   -27977 
  -27993   -27978   -27933   -27877   -27837   -27825   -27832   -27844 
  -27849   -27833   -27792   -27745   -27712   -27704   -27722   -27751 
  -27764   -27759   -27749   -27739   -27728   -27720   -27715   -27717 
  -27715   -27702   -27685   -27677   -27673   -27661   -27650   -27648 
  -27647   -27642   -27640   -27640   -27638   -27643   -27670   -27716 
  -27760   -27790   -27819   -27866   -27912   -27931   -27919   -27883 
  -27829   -27776   -27749   -27753   -27765   -27759   -27722   -27664 
  -27624   -27627   -27671   -27733   -27797   -27851   -27908   -27987 
  -28073   -28139   -28182   -28204   -28197   -28160   -28116   -28081 
  -28048   -28022   -28012   -28010   -28012   -28013   -27997   -27959 
  -27924   -27922   -27972   -28067   -28158   -28213   -28235   -28222 
  -28174   -28120   -28085   -28068   -28048   -28016   -27983   -27954 
  -27929   -27915   -27918   -27936   -27963   -27994   -28022   -28044 
  -28061   -28068   -28052   -28019   -27977   -27924   -27878   -27855 
  -27847   -27826   -27785   -27738   -27702   -27671   -27638   -27596 
  -27543   -27487   -27446   -27446   -27508   -27614   -27716   -27779 
  -27805   -27809   -27796   -27767   -27719   -27653   -27572   -27485 
  -27418   -27397   -27418   -27451   -27471   -27480   -27484   -27486 
  -27480   -27464   -27441   -27407   -27370   -27355   -27369   -27406 
  -27463   -27528   -27592   -27653   -27714   -27780   -27856   -27929 
  -27982   -28020   -28046   -28048   -28013   -27951   -27891   -27868 
  -27886   -27921   -27957   -27984   -27985   -27955   -27908   -27853 
  -27797   -27755   -27740   -27749   -27786   -27844   -27908   -27975 
  -28043   -28103   -28164   -28226   -28266   -28267   -28255   -28270 
  -28328   -28402   -28461   -28490   -28477   -28422   -28348   -28272 
  -28195   -28109   -28012   -27921   -27861   -27845   -27872   -27918 
  -27935   -27898   -27823   -27746   -27690   -27665   -27679   -27723 
  -27779   -27831   -27868   -27879   -27862   -27816   -27754   -27708 
  -27703   -27739   -27807   -27880   -27928   -27951   -27955   -27931 
  -27879   -27820   -27761   -27692   -27636   -27632   -27683   -27754 
  -27809   -27832   -27826   -27796   -27750   -27708   -27695   -27730 
  -27809   -27912   -28013   -28099   -28152   -28152   -28101   -28036 
  -27999   -28000   -28013   -28016   -28001   -27959   -27887   -27811 
  -27757   -27726   -27712   -27711   -27720   -27750   -27806   -27870 
  -27922   -27947   -27930   -27877   -27808   -27743   -27684   -27624 
  -27575   -27552   -27560   -27597   -27655   -27707   -27734   -27736 
  -27724   -27717   -27716   -27707   -27685   -27659   -27635   -27611 
  -27592   -27577   -27561   -27552   -27558   -27592   -27659   -27741 
  -27806   -27845   -27862   -27857   -27842   -27841   -27861   -27883 
  -27890   -27875   -27843   -27799   -27758   -27743   -27754   -27771 
  -27786   -27806   -27826   -27837   -27830   -27806   -27774   -27750 
  -27754   -27799   -27870   -27935   -27985   -28018   -28028   -28028 
  -28042   -28076   -28111   -28118   -28106   -28111   -28135   -28151 
  -28143   -28109   -28058   -28010   -27980   -27964   -27958   -27967 
  -27990   -28004   -28000   -27986   -27955   -27896   -27828   -27781 
  -27755   -27737   -27724   -27717   -27717   -27731   -27758   -27790 
  -27809   -27803   -27773   -27739   -27725   -27723   -27715   -27694 
  -27672   -27673   -27713   -27783   -27868   -27949   -27997   -28008 
  -28011   -28029   -28051   -28066   -28077   -28078   -28065   -28053 
  -28048   -28028   -27976   -27898   -27821   -27773   -27768   -27803 
  -27863   -27922   -27966   -27993   -28016   -28041   -28058   -28043 
  -27994   -27956   -27959   -27977   -27992   -27998   -27984   -27950 
  -27916   -27904   -27911   -27918   -27926   -27937   -27943   -27958 
  -27979   -27964   -27890   -27786   -27690   -27617   -27577   -27572 
  -27587   -27591   -27576   -27578   -27617   -27666   -27710   -27758 
  -27785   -27755   -27682   -27611   -27553   -27499   -27461   -27459 
  -27482   -27493   -27494   -27519   -27587   -27691   -27799   -27866 
  -27867   -27816   -27749   -27706   -27709   -27749   -27794   -27812 
  -27804   -27799   -27808   -27822   -27829   -27813   -27772   -27732 
  -27717   -27734   -27772   -27811   -27840   -27872   -27923   -27985 
  -28024   -28029   -28011   -27980   -27938   -27893   -27852   -27810 
  -27757   -27707   -27689   -27709   -27752   -27800   -27842   -27873 
  -27898   -27930   -27977   -28032   -28083   -28110   -28097   -28064 
  -28048   -28062   -28111   -28186   -28251   -28271   -28245   -28184 
  -28103   -28018   -27939   -27871   -27824   -27806   -27814   -27839 
  -27862   -27876   -27883   -27881   -27871   -27850   -27814   -27770 
  -27723   -27672   -27628   -27595   -27559   -27511   -27478   -27483 
  -27507   -27530   -27552   -27567   -27575   -27587   -27601   -27613 
  -27628   -27644   -27666   -27695   -27724   -27746   -27742   -27707 
  -27672   -27657   -27652   -27655   -27679   -27721   -27770   -27825 
  -27885   -27930   -27938   -27920   -27905   -27902   -27908   -27928 
  -27954   -27976   -27986   -27972   -27925   -27859   -27801   -27765 
  -27763   -27809   -27895   -27991   -28077   -28146   -28200   -28241 
  -28284   -28325   -28342   -28349   -28368   -28372   -28336   -28279 
  -28221   -28148   -28058   -27973   -27910   -27879   -27878   -27883 
  -27883   -27883   -27876   -27867   -27874   -27906   -27945   -27966 
  -27967   -27967   -27977   -27996   -28015   -28006   -27929   -27792 
  -27642   -27514   -27419   -27357   -27339   -27374   -27455   -27547 
  -27632   -27693   -27713   -27700   -27691   -27705   -27745   -27796 
  -27822   -27813   -27802   -27817   -27851   -27885   -27901   -27877 
  -27813   -27741   -27688   -27654   -27629   -27614   -27601   -27576 
  -27555   -27558   -27594   -27665   -27757   -27844   -27919   -27980 
  -28024   -28047   -28057   -28070   -28100   -28138   -28165   -28182 
  -28192   -28185   -28151   -28091   -28011   -27934   -27878   -27838 
  -27815   -27822   -27859   -27918   -27991   -28071   -28132   -28147 
  -28103   -28024   -27956   -27922   -27914   -27915   -27899   -27853 
  -27797   -27748   -27700   -27651   -27612   -27583   -27564   -27562 
  -27581   -27612   -27639   -27663   -27705   -27777   -27870   -27966 
  -28036   -28063   -28060   -28047   -28053   -28095   -28143   -28167 
  -28163   -28133   -28092   -28048   -27993   -27926   -27867   -27832 
  -27809   -27781   -27745   -27701   -27649   -27603   -27569   -27545 
  -27531   -27530   -27542   -27564   -27598   -27620   -27602   -27551 
  -27500   -27469   -27464   -27481   -27505   -27522   -27533   -27552 
  -27586   -27624   -27652   -27664   -27666   -27696   -27776   -27888 
  -28000   -28089   -28140   -28158   -28156   -28148   -28140   -28129 
  -28108   -28088   -28086   -28085   -28063   -28024   -27966   -27885 
  -27812   -27789   -27830   -27913   -28009   -28101   -28162   -28163 
  -28111   -28036   -27957   -27887   -27830   -27796   -27797   -27821 
  -27837   -27837   -27836   -27830   -27814   -27816   -27846   -27874 
  -27877   -27867   -27855   -27841   -27841   -27865   -27889   -27888 
  -27861   -27833   -27826   -27844   -27869   -27878   -27872   -27867 
  -27858   -27832   -27804   -27783   -27761   -27738   -27722   -27717 
  -27719   -27721   -27703   -27657   -27610   -27594   -27608   -27632 
  -27658   -27681   -27686   -27682   -27696   -27751   -27837   -27925 
  -27985   -28003   -27991   -27983   -27999   -28042   -28093   -28130 
