Origin Time       2024/04/02 04:24:00
Lat.              40.133
Long.             141.712
Depth. (km)       71
Mag.              6.0
Station Code      YMTH08
Station Lat.      38.9701
Station Long.     140.0333
Station Height(m) 8.7
Record Time       2024/04/02 04:25:08
Sampling Freq(Hz) 100Hz
Duration Time(s)  189
Dir.              3
Scale Factor      2942(gal)/8224139
Max. Acc. (gal)   1.039
Last Correction   2024/04/02 04:25:08
Memo.             
[...]
   15273    15334    15327    15190    14972    14781    14710    14808 
   15003    15175    15256    15248    15194    15157    15145    15091 
   14997    14959    15056    15282    15545    15715    15712    15556 
   15315    15071    14877    14742    14662    14632    14654    14760 
   14947    15147    15311    15412    15390    15264    15132    14970 
   14675    14324    14129    14160    14339    14611    14953    15271 
   15439    15493    15572    15720    15901    16062    16121    16040 
   15920    15905    16020    16141    16131    15967    15773    15665 
   15641    15573    15367    15078    14837    14694    14593    14435 
   14154    13806    13521    13371    13344    13406    13497    13560 
   13637    13795    13975    14092    14172    14270    14443    14752 
   15171    15566    15847    16024    16140    16217    16241    16195 
   16066    15830    15504    15187    14944    14739    14543    14353 
   14115    13814    13510    13267    13074    12881    12681    12569 
   12654    12919    13227    13455    13575    13655    13818    14085 
   14359    14612    14904    15244    15612    16029    16474    16846 
   17103    17267    17327    17254    17072    16814    16483    16114 
   15797    15610    15515    15387    15147    14818    14467    14185 
   14044    14017    14030    14102    14289    14544    14736    14800 
   14746    14597    14386    14196    14142    14283    14538    14800 
   15078    15388    15657    15832    15934    15936    15843    15800 
   15920    16121    16281    16398    16488    16503    16455    16378 
   16237    16013    15747    15503    15346    15256    15194    15190 
   15260    15315    15279    15183    15080    14933    14713    14521 
   14440    14454    14536    14621    14605    14511    14458    14469 
   14469    14403    14265    14092    13925    13795    13711    13684 
   13693    13694    13717    13821    14026    14293    14527    14638 
   14616    14527    14424    14308    14197    14175    14332    14698 
   15165    15527    15676    15670    15583    15445    15292    15142 
   15025    14995    15029    15039    14985    14882    14770    14679 
   14631    14629    14670    14759    14872    14939    14920    14837 
   14732    14642    14596    14608    14648    14697    14766    14825 
   14825    14770    14694    14619    14547    14465    14397    14412 
   14494    14542    14521    14494    14507    14578    14719    14901 
   15102    15348    15631    15874    16001    15994    15919    15886 
   15948    16056    16189    16368    16545    16614    16560    16437 
   16279    16086    15859    15635    15445    15279    15121    14990 
   14910    14883    14879    14882    14866    14793    14692    14651 
   14694    14756    14786    14791    14773    14732    14746    14860 
   14999    15097    15205    15358    15518    15654    15753    15773 
   15703    15606    15565    15616    15726    15867    15990    16005 
   15917    15830    15758    15611    15406    15246    15134    15022 
   14922    14837    14708    14488    14214    13965    13799    13699 
   13659    13711    13837    13965    14068    14162    14281    14431 
   14567    14654    14694    14693    14651    14621    14640    14663 
   14674    14743    14894    15086    15271    15417    15543    15657 
   15700    15610    15390    15133    14926    14771    14666    14636 
   14640    14615    14551    14492    14480    14516    14601    14751 
   14941    15133    15272    15292    15182    14964    14652    14307 
   14037    13930    14010    14218    14497    14824    15140    15369 
   15495    15527    15477    15391    15318    15261    15222    15180 
   15090    14976    14940    15020    15174    15317    15377    15388 
   15423    15471    15461    15411    15373    15327    15245    15179 
   15180    15241    15334    15421    15498    15593    15703    15782 
   15800    15749    15637    15483    15338    15246    15184    15134 
   15157    15267    15379    15461    15568    15695    15762    15750 
   15693    15616    15569    15630    15776    15881    15877    15792 
   15687    15573    15425    15261    15124    15007    14924    14877 
   14824    14748    14710    14756    14817    14800    14697    14528 
   14296    14068    13925    13826    13724    13690    13784    13936 
   14037    14031    13898    13655    13392    13205    13113    13112 
   13231    13435    13633    13792    13938    14081    14189    14224 
   14227    14272    14359    14443    14473    14415    14270    14088 
   13949    13911    13980    14135    14374    14648    14889    15097 
   15277    15394    15412    15348    15225    15079    14963    14937 
   14999    15097    15190    15272    15304    15203    14972    14702 
   14413    14131    13960    13915    13921    13979    14106    14199 
   14176    14099    14049    14031    14060    14148    14254    14351 
   14476    14647    14817    14931    15009    15136    15345    15606 
   15909    16247    16540    16746    16896    16991    16985    16872 
   16707    16541    16363    16143    15917    15732    15573    15402 
   15218    15044    14887    14750    14662    14667    14759    14883 
   14990    15060    15067    15007    14913    14818    14774    14804 
   14883    14997    15184    15466    15778    16033    16179    16177 
   16048    15903    15803    15693    15531    15358    15234    15210 
   15263    15275    15167    14958    14689    14418    14200    14045 
   13941    13876    13832    13807    13795    13757    13693    13641 
   13613    13595    13590    13608    13641    13690    13725    13690 
   13513    13231    12987    12822    12684    12604    12634    12757 
   12953    13209    13481    13740    14006    14315    14688    15071 
   15354    15481    15495    15449    15381    15353    15414    15541 
   15703    15889    16052    16159    16233    16295    16335    16347 
   16353    16397    16524    16717    16876    16937    16935    16939 
   16942    16888    16767    16603    16406    16204    16027    15844 
   15628    15427    15310    15282    15306    15358    15449    15566 
   15665    15742    15830    15920    15961    15931    15846    15753 
   15688    15661    15660    15651    15633    15665    15777    15916 
   16012    16065    16119    16189    16239    16254    16260    16256 
   16221    16179    16146    16092    16004    15882    15704    15458 
   15223    15066    14966    14897    14840    14759    14667    14616 
   14580    14496    14335    14108    13894    13767    13736    13797 
   13946    14134    14293    14412    14511    14588    14605    14557 
   14488    14467    14553    14727    14920    15064    15141    15169 
   15152    15060    14901    14756    14670    14592    14481    14365 
   14278    14214    14142    14069    14015    13994    14031    14142 
   14276    14378    14481    14643    14829    14978    15057    15076 
   15093    15144    15194    15238    15331    15500    15701    15858 
   15885    15768    15601    15483    15430    15400    15363    15361 
   15457    15622    15750    15751    15604    15360    15078    14814 
   14620    14462    14295    14148    14089    14135    14266    14422 
   14507    14481    14431    14476    14627    14787    14870    14862 
   14797    14694    14536    14319    14096    13930    13833    13799 
   13805    13788    13721    13609    13456    13265    13059    12900 
   12852    12942    13155    13429    13675    13865    14048    14229 
   14382    14504    14600    14709    14890    15134    15367    15519 
   15572    15556    15518    15458    15357    15249    15201    15232 
   15315    15392    15400    15329    15219    15117    15018    14905 
   14798    14725    14692    14712    14817    14995    15188    15352 
   15479    15570    15604    15584    15557    15566    15623    15711 
   15782    15793    15749    15689    15642    15637    15688    15768 
   15850    15958    16090    16216    16318    16382    16401    16411 
   16436    16468    16490    16472    16410    16316    16205    16065 
   15861    15627    15460    15392    15387    15406    15414    15360 
   15252    15160    15093    14980    14814    14678    14613    14596 
   14597    14619    14655    14667    14616    14517    14415    14301 
   14130    13891    13643    13447    13329    13311    13387    13524 
   13710    13973    14276    14532    14692    14763    14787    14791 
   14764    14710    14625    14516    14428    14385    14358    14368 
   14472    14659    14863    15018    15070    14989    14831    14696 
   14617    14561    14509    14488    14524    14619    14728    14775 
   14729    14640    14589    14612    14658    14644    14569    14530 
   14594    14719    14808    14817    14774    14746    14735    14666 
   14493    14245    14011    13884    13876    13956    14121    14343 
   14584    14817    15026    15196    15333    15468    15614    15739 
   15824    15897    15962    15977    15925    15857    15828    15843 
   15882    15962    16097    16262    16395    16409    16279    16100 
   15977    15928    15940    16020    16159    16305    16417    16457 
   16364    16148    15923    15754    15595    15422    15259    15052 
   14728    14335    13992    13730    13517    13377    13313    13271 
   13248    13289    13397    13531    13648    13728    13770    13759 
   13671    13518    13379    13320    13348    13423    13454    13392 
   13328    13348    13435    13547    13707    13980    14361    14781 
   15217    15672    16085    16376    16524    16560    16517    16447 
   16441    16507    16560    16553    16497    16386    16191    15912 
   15591    15268    14982    14810    14804    14872    14920    14955 
   14997    15005    14966    14920    14920    14975    15064    15156 
   15241    15367    15554    15743    15911    16090    16256    16347 
   16370    16366    16343    16313    16310    16355    16430    16498 
   16526    16501    16401    16236    16067    15957    15944    16028 
   16173    16329    16464    16582    16687    16758    16780    16775 
   16748    16645    16406    16047    15637    15225    14856    14562 
   14328    14152    14069    14089    14161    14238    14304    14332 
   14327    14345    14407    14470    14504    14535    14608    14681 
   14661    14550    14411    14243    14018    13774    13568    13429 
   13369    13390    13462    13544    13610    13656    13710    13774 
   13819    13830    13791    13701    13603    13552    13535    13506 
   13458    13413    13386    13359    13294    13185    13084    13049 
   13105    13228    13369    13479    13541    13575    13622    13709 
   13817    13923    14054    14253    14497    14727    14904    14998 
   14985    14870    14705    14561    14474    14455    14503    14580 
   14650    14739    14859    14941    14921    14837    14773    14760 
   14791    14821    14785    14697    14639    14666    14758    14856 
   14931    15028    15207    15441    15615    15666    15637    15626 
   15693    15817    15930    15993    16011    15996    15970    15957 
   15951    15923    15876    15835    15816    15824    15854    15925 
   16092    16357    16691    17062    17423    17694    17829    17836 
   17772    17698    17641    17632    17671    17713    17702    17601 
   17383    17074    16730    16409    16146    15935    15773    15665 
   15550    15363    15128    14902    14735    14665    14644    14567 
   14428    14296    14206    14139    14103    14121    14166    14196 
   14246    14339    14395    14354    14264    14206    14227    14332 
   14500    14681    14818    14885    14889    14874    14872    14889 
   14921    14960    15009    15084    15165    15194    15114    14929 
   14696    14467    14242    14037    13945    13994    14096    14180 
   14250    14328    14401    14445    14463    14455    14411    14368 
   14346    14308    14231    14141    14049    13948    13825    13659 
   13459    13273    13134    13046    12980    12887    12775    12691 
   12631    12573    12546    12563    12614    12703    12819    12951 
   13097    13247    13412    13626    13903    14197    14426    14544 
   14592    14628    14663    14667    14629    14574    14544    14559 
   14601    14650    14700    14764    14835    14881    14917    14976 
   15048    15097    15114    15120    15149    15249    15445    15700 
   15917    16062    16189    16318    16407    16453    16471    16457 
   16429    16438    16510    16598    16636    16634    16630    16594 
   16495    16395    16362    16393    16486    16644    16822    16984 
   17157    17355    17510    17543    17470    17365    17266    17207 
   17201    17177    17059    16887    16702    16479    16222    15974 
   15751    15557    15414    15318    15253    15215    15174    15082 
   14960    14870    14848    14904    15021    15164    15276    15331 
   15336    15276    15151    15007    14902    14816    14716    14652 
   14646    14634    14616    14667    14786    14917    15024    15070 
   15036    14975    14943    14939    14982    15109    15311    15534 
   15747    15952    16128    16217    16178    16009    15742    15439 
   15147    14883    14667    14520    14454    14435    14415    14399 
   14415    14431    14415    14395    14436    14531    14584    14520 
   14347    14111    13853    13617    13400    13157    12877    12618 
   12442    12345    12289    12248    12216    12177    12118    12069 
   12077    12139    12220    12339    12521    12737    12941    13113 
   13235    13304    13366    13460    13567    13648    13701    13767 
   13884    14046    14233    14422    14586    14755    15002    15314 
   15618    15903    16198    16526    16873    17167    17350    17406 
   17375    17298    17170    16961    16686    16393    16120    15869 
   15611    15340    15098    14943    14894    14931    15007    15070 
   15086    15097    15147    15217    15275    15330    15419    15550 
   15670    15741    15773    15781    15785    15827    15901    15962 
   15974    15936    15888    15862    15831    15755    15607    15391 
   15160    14960    14796    14666    14596    14589    14635    14746 
   14929    15114    15244    15357    15452    15489    15520    15591 
   15646    15651    15639    15624    15573    15480    15381    15273 
   15117    14929    14774    14678    14623    14598    14600    14604 
   14613    14651    14690    14688    14639    14577    14520    14472 
   14440    14420    14361    14243    14121    14025    13948    13895 
   13882    13892    13911    13945    13994    14030    14041    14040 
   14062    14139    14266    14408    14578    14816    15091    15349 
   15580    15774    15884    15871    15754    15601    15508    15506 
   15526    15510    15468    15431    15404    15365    15302    15242 
   15213    15215    15261    15353    15449    15542    15664    15826 
   15990    16113    16148    16073    15925    15762    15596    15414 
   15230    15080    14955    14818    14667    14513    14385    14330 
   14361    14455    14561    14600    14521    14338    14119    13914 
   13716    13513    13346    13243    13189    13161    13150    13171 
   13230    13279    13284    13269    13278    13319    13393    13468 
   13479    13417    13356    13354    13393    13451    13544    13686 
   13878    14123    14393    14620    14782    14913    15037    15156 
   15271    15395    15546    15696    15797    15859    15903    15908 
   15871    15815    15724    15581    15410    15264    15184    15180 
   15225    15261    15246    15202    15164    15133    15088    15045 
   15044    15107    15238    15423    15618    15759    15809    15801 
   15768    15720    15703    15776    15925    16096    16240    16324 
   16321    16240    16135    16060    15997    15923    15865    15851 
   15878    15934    16044    16240    16453    16575    16594    16586 
   16583    16561    16534    16522    16509    16483    16464    16474 
   16484    16438    16326    16212    16136    16096    16081    16098 
   16136    16189    16294    16452    16580    16610    16560    16494 
   16436    16370    16262    16090    15870    15633    15421    15260 
   15129    14994    14836    14632    14403    14204    14060    13940 
   13828    13732    13667    13612    13518    13371    13215    13123 
   13122    13181    13259    13325    13381    13459    13575    13687 
   13768    13817    13833    13829    13845    13914    14014    14075 
   14053    13967    13861    13749    13637    13564    13558    13620 
   13738    13902    14083    14239    14330    14351    14327    14269 
   14187    14083    13987    13969    14049    14184    14349    14512 
   14613    14661    14710    14764    14793    14806    14832    14881 
   14953    15051    15171    15309    15450    15595    15739    15849 
   15866    15805    15705    15587    15487    15423    15340    15209 
   15088    15030    15024    15039    15043    15012    14947    14868 
   14806    14771    14750    14754    14790    14825    14852    14871 
   14875    14895    14970    15075    15155    15184    15184    15175 
   15153    15133    15130    15149    15196    15277    15357    15365 
   15268    15114    14989    14924    14910    14916    14895    14835 
   14764    14737    14778    14845    14904    14971    15070    15206 
   15360    15483    15569    15635    15676    15689    15682    15662 
   15653    15674    15730    15777    15762    15670    15538    15423 
   15360    15338    15334    15333    15322    15284    15223    15153 
   15084    15021    14985    14983    14990    14972    14943    14932 
   14937    14921    14877    14820    14735    14631    14562    14543 
   14539    14554    14621    14733    14843    14918    14970    15005 
   15047    15126    15218    15257    15275    15340    15453    15574 
   15670    15739    15800    15835    15805    15715    15593    15476 
   15385    15323    15248    15132    14999    14878    14773    14683 
   14607    14546    14515    14528    14567    14593    14577    14520 
   14449    14407    14415    14427    14409    14373    14320    14223 
   14079    13937    13837    13795    13829    13934    14042    14089 
   14103    14135    14189    14273    14419    14592    14751    14937 
   15186    15484    15796    16062    16255    16389    16495    16600 
   16661    16613    16470    16299    16155    16043    15955    15880 
   15797    15674    15506    15325    15163    15018    14887    14778 
   14685    14611    14566    14540    14489    14395    14273    14122 
   13937    13741    13583    13494    13451    13427    13419    13409 
   13394    13409    13473    13583    13725    13865    13987    14110 
   14246    14343    14350    14292    14230    14184    14179    14226 
   14287    14328    14370    14408    14418    14397    14372    14357 
   14384    14501    14709    14939    15141    15313    15448    15543 
   15628    15724    15822    15904    15961    15989    16015    16089 
   16202    16293    16340    16371    16383    16351    16282    16198 
   16101    16000    15909    15834    15755    15643    15498    15369 
   15292    15249    15223    15225    15253    15264    15234    15175 
