Origin Time       2024/04/02 04:24:00
Lat.              40.133
Long.             141.712
Depth. (km)       71
Mag.              6.0
Station Code      YMTH15
Station Lat.      38.4257
Station Long.     140.1249
Station Height(m) 305
Record Time       2024/04/02 04:25:12
Sampling Freq(Hz) 100Hz
Duration Time(s)  144
Dir.              5
Scale Factor      7845(gal)/8223790
Max. Acc. (gal)   1.669
Last Correction   2024/04/02 04:25:12
Memo.             
[...]
   44311    44235    44220    44280    44371    44431    44451    44464 
   44493    44536    44590    44653    44725    44793    44836    44837 
   44783    44698    44626    44591    44598    44637    44675    44683 
   44651    44590    44528    44489    44478    44485    44500    44528 
   44544    44528    44512    44525    44548    44562    44544    44487 
   44412    44329    44251    44203    44208    44265    44356    44452 
   44527    44556    44545    44500    44406    44265    44108    43991 
   43951    44001    44122    44267    44401    44509    44586    44602 
   44535    44406    44307    44308    44417    44595    44772    44896 
   44952    44937    44864    44751    44610    44478    44400    44386 
   44405    44415    44408    44412    44469    44560    44620    44608 
   44540    44443    44365    44351    44405    44497    44595    44686 
   44757    44782    44752    44693    44625    44586    44610    44678 
   44744    44775    44786    44791    44771    44716    44637    44536 
   44436    44365    44316    44274    44238    44219    44235    44285 
   44367    44469    44545    44579    44583    44581    44582    44572 
   44543    44512    44509    44540    44577    44594    44606    44625 
   44652    44670    44645    44578    44513    44487    44518    44601 
   44701    44779    44811    44783    44676    44493    44284    44124 
   44068    44136    44288    44444    44550    44581    44541    44447 
   44351    44316    44339    44367    44378    44369    44325    44267 
   44235    44275    44382    44494    44555    44556    44516    44466 
   44436    44451    44514    44617    44753    44903    45019    45071 
   45061    45018    44956    44876    44793    44712    44636    44581 
   44558    44574    44616    44652    44675    44698    44712    44680 
   44599    44517    44481    44487    44521    44579    44635    44671 
   44698    44717    44716    44680    44618    44544    44474    44432 
   44423    44428    44433    44427    44396    44319    44192    44039 
   43888    43776    43744    43799    43902    43987    44016    44007 
   43973    43937    43922    43935    43985    44066    44140    44176 
   44173    44155    44158    44200    44267    44323    44327    44296 
   44274    44280    44307    44363    44452    44555    44635    44659 
   44624    44547    44463    44413    44427    44521    44672    44834 
   44983    45108    45202    45252    45246    45192    45106    45003 
   44901    44825    44805    44844    44918    44986    45015    45003 
   44959    44884    44801    44720    44633    44547    44498    44490 
   44493    44477    44432    44359    44259    44177    44161    44209 
   44288    44361    44402    44417    44405    44370    44338    44335 
   44373    44440    44494    44501    44451    44343    44204    44081 
   44004    43969    43983    44053    44158    44282    44413    44520 
   44583    44614    44640    44690    44752    44795    44829    44878 
   44925    44933    44887    44802    44709    44652    44667    44732 
   44803    44883    44976    45071    45126    45112    45042    44959 
   44888    44836    44776    44705    44622    44541    44490    44477 
   44477    44486    44512    44568    44658    44751    44824    44879 
   44921    44949    44955    44919    44842    44748    44672    44625 
   44589    44548    44498    44456    44417    44343    44236    44136 
   44062    44026    44043    44096    44138    44135    44100    44050 
   43999    43968    43970    43987    43996    44000    44018    44064 
   44120    44162    44170    44142    44091    44051    44072    44166 
   44296    44417    44520    44587    44593    44555    44541    44579 
   44664    44795    44961    45110    45191    45189    45134    45071 
   45011    44963    44932    44934    44999    45098    45172    45193 
   45146    45041    44915    44794    44666    44520    44385    44297 
   44248    44213    44181    44142    44099    44054    43995    43929 
   43891    43899    43943    44019    44107    44155    44123    44037 
   43964    43937    43954    44022    44143    44304    44459    44572 
   44645    44701    44745    44790    44852    44910    44923    44892 
   44830    44744    44658    44606    44620    44710    44836    44932 
   44990    45027    45057    45084    45103    45091    45029    44922 
   44791    44653    44537    44475    44456    44452    44447    44429 
   44400    44369    44334    44293    44266    44267    44270    44236 
   44178    44128    44088    44037    43968    43902    43868    43865 
   43887    43922    43966    44028    44103    44180    44250    44292 
   44298    44273    44231    44201    44207    44251    44336    44454 
   44591    44740    44876    44992    45110    45243    45380    45478 
   45505    45457    45351    45215    45071    44953    44883    44856 
   44845    44815    44740    44618    44474    44344    44275    44297 
   44394    44498    44529    44454    44290    44089    43927    43856 
   43888    43993    44138    44297    44443    44544    44605    44652 
   44710    44783    44849    44901    44919    44892    44838    44775 
   44701    44635    44591    44568    44539    44486    44428    44402 
   44413    44436    44447    44464    44491    44475    44394    44292 
   44203    44135    44120    44186    44311    44444    44570    44701 
   44818    44894    44929    44938    44946    44946    44906    44805 
   44653    44496    44374    44312    44315    44361    44404    44416 
   44396    44358    44319    44289    44288    44328    44381    44400 
   44381    44359    44352    44350    44355    44381    44412    44424 
   44416    44402    44408    44440    44496    44558    44581    44537 
   44452    44363    44284    44232    44232    44282    44359    44424 
   44431    44370    44284    44209    44186    44240    44359    44517 
   44691    44837    44899    44860    44761    44660    44597    44593 
   44639    44685    44699    44675    44609    44508    44388    44289 
   44262    44305    44383    44451    44489    44483    44421    44319 
   44213    44120    44053    44031    44064    44131    44213    44316 
   44454    44618    44783    44928    45048    45133    45179    45208 
   45252    45300    45326    45300    45220    45111    45002    44896 
   44809    44756    44726    44705    44699    44720    44755    44786 
   44801    44774    44691    44583    44504    44462    44433    44397 
   44340    44240    44103    43968    43875    43831    43850    43950 
   44099    44231    44309    44332    44308    44265    44240    44250 
   44285    44328    44370    44412    44437    44432    44410    44389 
   44389    44437    44520    44608    44680    44734    44757    44753 
   44748    44744    44706    44622    44529    44466    44436    44437 
   44474    44560    44687    44806    44861    44832    44741    44641 
   44574    44558    44575    44610    44660    44712    44743    44747 
   44726    44710    44720    44770    44860    44968    45061    45108 
   45110    45091    45049    44969    44855    44713    44572    44466 
   44419    44424    44460    44513    44556    44548    44487    44389 
   44258    44093    43907    43718    43556    43444    43398    43425 
   43513    43650    43806    43919    43972    43987    43996    44027 
   44115    44270    44454    44610    44714    44772    44780    44737 
   44674    44635    44639    44693    44794    44906    44980    44991 
   44953    44902    44868    44845    44818    44786    44756    44736 
   44716    44676    44625    44574    44537    44520    44498    44458 
   44423    44420    44456    44506    44544    44551    44520    44462 
   44404    44369    44358    44370    44408    44473    44545    44601 
   44624    44618    44610    44604    44593    44575    44544    44502 
   44462    44429    44409    44396    44383    44390    44405    44401 
   44371    44331    44315    44356    44437    44516    44572    44609 
   44628    44644    44686    44763    44869    44999    45130    45230 
   45277    45265    45222    45191    45181    45191    45207    45189 
   45108    44987    44880    44824    44817    44867    44941    44964 
   44892    44721    44478    44227    44032    43949    43983    44086 
   44211    44313    44363    44375    44375    44363    44329    44280 
   44223    44159    44082    43999    43934    43919    43976    44086 
   44199    44250    44200    44053    43858    43698    43629    43657 
   43756    43862    43895    43819    43653    43447    43278    43194 
   43209    43310    43468    43646    43798    43885    43916    43929 
   43980    44101    44271    44456    44624    44757    44853    44915 
   44965    45034    45131    45231    45296    45310    45291    45257 
   45227    45230    45254    45272    45261    45215    45142    45050 
   44960    44901    44883    44899    44926    44918    44852    44757 
   44672    44626    44617    44622    44631    44628    44612    44583 
   44543    44501    44477    44478    44500    44527    44547    44562 
   44579    44606    44635    44641    44640    44656    44702    44772 
   44848    44914    44956    44975    44976    44964    44930    44888 
   44867    44876    44906    44933    44961    45003    45046    45067 
   45056    45031    45004    44959    44903    44857    44813    44755 
   44698    44652    44594    44505    44402    44319    44265    44224 
   44177    44126    44086    44066    44064    44082    44123    44181 
   44231    44238    44207    44149    44070    43997    43951    43924 
   43914    43941    44005    44068    44107    44139    44159    44163 
   44150    44128    44143    44232    44382    44540    44659    44721 
   44716    44641    44532    44425    44339    44292    44308    44394 
   44531    44678    44828    44967    45048    45037    44941    44805 
   44662    44525    44420    44359    44335    44342    44374    44428 
   44505    44587    44653    44686    44687    44674    44652    44632 
   44614    44598    44582    44548    44473    44356    44221    44100 
   44031    44039    44113    44235    44373    44483    44518    44454 
   44321    44172    44046    43953    43893    43880    43906    43943 
   43983    44031    44084    44120    44136    44159    44197    44219 
   44226    44263    44339    44419    44482    44540    44601    44640 
   44637    44609    44590    44602    44632    44674    44756    44875 
   44972    44990    44922    44817    44720    44662    44659    44706 
   44786    44874    44941    44972    44956    44913    44902    44963 
   45069    45175    45250    45304    45361    45427    45490    45531 
   45530    45488    45414    45318    45203    45075    44961    44892 
   44868    44865    44848    44814    44766    44687    44589    44513 
   44478    44464    44444    44428    44429    44423    44394    44358 
   44307    44217    44107    44000    43912    43849    43825    43837 
   43858    43887    43918    43903    43816    43688    43561    43460 
   43428    43518    43704    43907    44078    44205    44270    44271 
   44238    44213    44239    44346    44529    44736    44887    44950 
   44949    44903    44825    44741    44703    44740    44820    44906 
   44984    45036    45027    44950    44830    44710    44620    44563 
   44544    44555    44567    44554    44521    44477    44410    44336 
   44280    44248    44227    44190    44146    44122    44130    44165 
   44216    44282    44358    44408    44424    44442    44460    44473 
   44504    44564    44635    44671    44660    44636    44624    44635 
   44683    44775    44899    45030    45119    45126    45050    44933 
   44817    44721    44663    44643    44647    44655    44656    44648 
   44628    44579    44496    44390    44294    44231    44199    44207 
   44275    44394    44516    44602    44643    44632    44575    44496 
   44416    44336    44274    44267    44342    44469    44571    44590 
   44520    44394    44258    44157    44103    44089    44108    44138 
   44155    44143    44100    44046    43992    43945    43920    43919 
   43956    44055    44204    44365    44516    44649    44756    44818 
   44849    44869    44882    44892    44910    44940    44977    44999 
   44983    44949    44922    44905    44869    44806    44741    44701 
   44675    44659    44644    44636    44643    44670    44713    44740 
   44734    44734    44774    44832    44869    44875    44856    44826 
   44806    44790    44764    44724    44680    44639    44568    44447 
   44288    44115    43942    43789    43687    43645    43665    43734 
   43829    43947    44081    44186    44247    44289    44351    44440 
   44525    44574    44571    44537    44497    44444    44381    44324 
   44288    44294    44350    44442    44555    44663    44737    44766 
   44748    44710    44675    44649    44644    44663    44683    44675 
   44621    44531    44419    44315    44258    44286    44398    44544 
   44689    44814    44910    44960    44961    44930    44886    44838 
   44791    44757    44753    44795    44886    45010    45125    45185 
   45161    45057    44910    44766    44663    44614    44599    44591 
   44585    44583    44582    44577    44594    44664    44778    44906 
   45023    45098    45110    45085    45075    45098    45149    45238 
   45361    45474    45524    45459    45261    44961    44624    44317 
   44105    44012    44018    44076    44126    44119    44018    43807 
   43530    43247    43009    42850    42770    42766    42827    42939 
   43081    43209    43298    43356    43410    43497    43636    43831 
   44073    44332    44585    44791    44888    44848    44698    44502 
   44342    44284    44348    44502    44671    44794    44857    44865 
   44828    44767    44726    44740    44799    44882    44972    45044 
   45076    45081    45077    45079    45100    45158    45245    45339 
   45423    45474    45477    45446    45407    45364    45287    45146 
   44941    44678    44385    44145    44026    44031    44136    44298 
   44473    44604    44631    44517    44284    44004    43765    43613 
   43568    43619    43706    43772    43814    43854    43924    44034 
   44162    44282    44375    44439    44470    44467    44463    44478 
   44508    44545    44579    44585    44548    44494    44464    44482 
   44575    44778    45053    45324    45536    45666    45700    45628 
   45499    45389    45330    45303    45280    45242    45188    45121 
   45027    44921    44844    44821    44824    44798    44729    44626 
   44486    44305    44105    43910    43734    43583    43465    43383 
   43330    43299    43268    43245    43263    43317    43378    43434 
   43490    43548    43618    43704    43822    43991    44194    44374 
   44473    44493    44458    44374    44274    44207    44182    44189 
   44235    44327    44421    44485    44532    44570    44591    44616 
   44648    44653    44613    44545    44469    44378    44289    44248 
   44289    44405    44560    44720    44880    45050    45227    45412 
   45608    45794    45929    45974    45916    45773    45577    45370 
   45199    45092    45071    45133    45242    45346    45396    45377 
   45308    45211    45081    44911    44709    44487    44250    43991 
   43717    43465    43279    43170    43137    43191    43312    43449 
   43576    43694    43807    43904    43985    44068    44140    44184 
   44212    44231    44235    44232    44246    44304    44415    44575 
   44775    44982    45180    45366    45508    45577    45597    45607 
   45603    45569    45524    45485    45423    45330    45233    45142 
   45060    45000    44979    44973    44950    44909    44860    44790 
   44694    44587    44489    44408    44347    44304    44285    44285 
   44286    44271    44243    44230    44238    44253    44261    44263 
   44267    44278    44316    44389    44477    44562    44625    44643 
   44612    44545    44459    44371    44304    44244    44161    44039 
   43900    43781    43717    43718    43760    43818    43884    43964 
   44051    44130    44184    44208    44209    44204    44203    44186 
   44155    44131    44107    44080    44082    44131    44213    44301 
   44363    44375    44332    44278    44280    44331    44392    44428 
   44416    44361    44294    44267    44311    44420    44578    44753 
   44887    44933    44879    44745    44585    44451    44398    44444 
   44568    44753    44969    45149    45266    45327    45343    45316 
   45243    45144    45057    45013    45025    45085    45150    45179 
   45138    45054    44975    44921    44906    44944    45023    45112 
   45165    45156    45072    44922    44766    44664    44618    44604 
   44609    44631    44653    44662    44653    44635    44595    44533 
   44437    44297    44123    43945    43802    43756    43825    43962 
   44120    44277    44406    44467    44455    44417    44386    44365 
   44354    44356    44347    44280    44120    43879    43596    43329 
   43113    42971    42934    43004    43133    43272    43405    43563 
   43758    43960    44134    44271    44361    44405    44427    44444 
   44469    44504    44582    44725    44905    45083    45252    45418 
   45570    45696    45798    45895    45986    46064    46116    46130 
   46134    46155    46183    46180    46126    46043    45918    45728 
   45480    45230    45018    44840    44672    44523    44429    44408 
   44439    44471    44447    44346    44158    43897    43638    43445 
   43320    43249    43247    43301    43359    43387    43406    43425 
   43441    43461    43502    43565    43646    43746    43856    43949 
   44015    44050    44039    43995    43950    43924    43907    43885 
   43868    43875    43920    44007    44109    44182    44204    44189 
   44184    44203    44232    44265    44312    44370    44440    44516 
   44582    44645    44721    44825    44945    45064    45198    45328 
   45411    45453    45489    45511    45504    45482    45458    45400 
   45289    45156    45027    44913    44829    44791    44778    44747 
   44678    44575    44463    44366    44286    44220    44172    44142 
   44109    44065    44035    44045    44101    44200    44316    44419 
   44473    44478    44442    44359    44238    44113    44008    43924 
   43869    43846    43834    43808    43775    43750    43771    43873 
   44061    44298    44545    44771    44944    45019    45000    44933 
   44842    44764    44736    44770    44860    44992    45158    45350 
   45519    45605    45609    45566    45520    45516    45574    45686 
   45823    45944    46025    46053    46012    45900    45760    45650 
   45574    45509    45454    45423    45422    45431    45391    45249 
   45010    44721    44447    44227    44065    43946    43869    43846 
   43846    43816    43731    43591    43411    43227    43081    43028 
   43102    43289    43551    43827    44058    44226    44342    44415 
   44437    44402    44335    44281    44266    44281    44307    44331 
   44335    44309    44274    44238    44199    44180    44190    44212 
   44234    44244    44242    44200    44085    43920    43753    43607 
   43502    43455    43478    43552    43645    43748    43841    43907 
   43949    43964    43960    43951    43935    43914    43908    43939 
