Origin Time       2024/04/02 04:24:00
Lat.              40.133
Long.             141.712
Depth. (km)       71
Mag.              6.0
Station Code      YMTH08
Station Lat.      38.9701
Station Long.     140.0333
Station Height(m) 115
Record Time       2024/04/02 04:25:08
Sampling Freq(Hz) 100Hz
Duration Time(s)  189
Dir.              5
Scale Factor      7845(gal)/8223790
Max. Acc. (gal)   3.214
Last Correction   2024/04/02 04:25:08
Memo.             
[...]
   -6971    -7010    -7075    -7146    -7230    -7345    -7489    -7608 
   -7646    -7584    -7435    -7248    -7068    -6941    -6895    -6898 
   -6903    -6875    -6793    -6674    -6578    -6579    -6706    -6916 
   -7163    -7437    -7712    -7929    -8033    -7998    -7857    -7645 
   -7388    -7140    -6953    -6880    -6983    -7257    -7612    -7912 
   -8027    -7908    -7605    -7211    -6832    -6562    -6458    -6543 
   -6747    -6948    -7057    -7061    -7009    -6966    -6953    -6956 
   -6952    -6924    -6875    -6824    -6786    -6767    -6790    -6914 
   -7161    -7489    -7808    -8020    -8074    -7974    -7754    -7470 
   -7206    -7018    -6941    -6994    -7161    -7368    -7519    -7547 
   -7443    -7279    -7168    -7150    -7175    -7195    -7188    -7141 
   -7074    -7022    -7003    -7005    -6990    -6976    -7021    -7144 
   -7312    -7472    -7580    -7635    -7636    -7588    -7492    -7357 
   -7215    -7107    -7042    -7007    -6988    -6972    -6952    -6945 
   -6961    -6972    -6987    -7052    -7182    -7358    -7528    -7608 
   -7546    -7361    -7132    -6970    -6953    -7086    -7299    -7484 
   -7549    -7462    -7261    -7026    -6817    -6669    -6621    -6701 
   -6887    -7105    -7268    -7350    -7380    -7387    -7369    -7312 
   -7226    -7161    -7167    -7246    -7368    -7479    -7516    -7461 
   -7338    -7190    -7076    -7065    -7173    -7338    -7519    -7696 
   -7819    -7807    -7614    -7275    -6899    -6609    -6489    -6583 
   -6886    -7299    -7678    -7892    -7893    -7739    -7522    -7315 
   -7163    -7061    -7007    -7001    -7034    -7113    -7206    -7258 
   -7263    -7245    -7198    -7098    -6948    -6791    -6694    -6677 
   -6702    -6721    -6725    -6758    -6879    -7083    -7294    -7456 
   -7547    -7566    -7518    -7387    -7186    -7002    -6921    -6976 
   -7152    -7381    -7566    -7627    -7576    -7495    -7445    -7427 
   -7402    -7342    -7240    -7095    -6937    -6826    -6821    -6930 
   -7119    -7312    -7422    -7406    -7317    -7261    -7326    -7526 
   -7774    -7936    -7905    -7680    -7348    -7003    -6717    -6535 
   -6463    -6508    -6678    -6940    -7242    -7545    -7786    -7912 
   -7915    -7801    -7596    -7352    -7125    -6963    -6885    -6852 
   -6826    -6798    -6786    -6835    -6964    -7142    -7312    -7402 
   -7350    -7163    -6906    -6674    -6548    -6593    -6824    -7187 
   -7554    -7805    -7893    -7827    -7641    -7400    -7165    -6993 
   -6939    -6997    -7103    -7198    -7249    -7267    -7279    -7312 
   -7406    -7549    -7684    -7761    -7754    -7682    -7585    -7461 
   -7302    -7123    -6936    -6774    -6689    -6681    -6701    -6689 
   -6615    -6501    -6428    -6485    -6724    -7129    -7597    -7978 
   -8163    -8135    -7932    -7623    -7288    -6995    -6812    -6786 
   -6901    -7079    -7227    -7290    -7237    -7080    -6890    -6759 
   -6758    -6907    -7141    -7346    -7446    -7412    -7260    -7045 
   -6847    -6755    -6836    -7082    -7403    -7682    -7819    -7781 
   -7611    -7384    -7177    -7072    -7126    -7326    -7584    -7805 
   -7927    -7933    -7854    -7724    -7572    -7411    -7268    -7177 
   -7141    -7121    -7095    -7072    -7079    -7130    -7196    -7250 
   -7294    -7331    -7350    -7318    -7210    -7032    -6813    -6629 
   -6581    -6704    -6944    -7187    -7325    -7342    -7299    -7246 
   -7184    -7083    -6986    -6988    -7110    -7265    -7334    -7248 
   -7063    -6906    -6864    -6943    -7090    -7217    -7268    -7231 
   -7121    -6987    -6875    -6810    -6820    -6913    -7065    -7226 
   -7356    -7438    -7462    -7433    -7356    -7240    -7133    -7111 
   -7221    -7454    -7707    -7848    -7824    -7659    -7425    -7191 
   -7011    -6916    -6907    -6971    -7094    -7269    -7485    -7708 
   -7852    -7819    -7591    -7275    -7037    -6978    -7072    -7244 
   -7422    -7524    -7492    -7366    -7225    -7113    -7047    -7018 
   -7005    -6988    -6967    -6974    -7021    -7059    -7026    -6934 
   -6871    -6937    -7176    -7527    -7844    -7970    -7808    -7384 
   -6832    -6346    -6079    -6069    -6242    -6474    -6702    -6913 
   -7109    -7308    -7523    -7735    -7917    -7992    -7873    -7591 
   -7284    -7072    -6976    -6952    -6960    -7003    -7098    -7249 
   -7431    -7595    -7699    -7720    -7674    -7577    -7433    -7254 
   -7082    -6940    -6822    -6725    -6677    -6714    -6859    -7096 
   -7349    -7507    -7537    -7452    -7279    -7080    -6916    -6820 
   -6809    -6880    -7041    -7300    -7605    -7870    -8001    -7924 
   -7642    -7242    -6849    -6605    -6566    -6694    -6906    -7092 
   -7179    -7184    -7182    -7258    -7456    -7685    -7796    -7689 
   -7389    -7025    -6750    -6636    -6642    -6679    -6690    -6686 
   -6764    -7005    -7377    -7770    -8027    -8032    -7820    -7510 
   -7210    -7015    -6960    -7003    -7067    -7091    -7061    -7003 
   -7010    -7191    -7542    -7915    -8094    -7950    -7538    -7064 
   -6729    -6616    -6660    -6763    -6844    -6860    -6844    -6870 
   -6998    -7245    -7543    -7762    -7804    -7666    -7452    -7296 
   -7260    -7317    -7408    -7496    -7584    -7673    -7723    -7676 
   -7504    -7254    -7010    -6797    -6623    -6528    -6570    -6744 
   -6971    -7140    -7182    -7121    -7037    -6995    -7006    -7076 
   -7215    -7412    -7607    -7715    -7662    -7449    -7180    -7010 
   -7049    -7265    -7522    -7696    -7735    -7672    -7572    -7461 
   -7318    -7138    -6966    -6843    -6771    -6737    -6740    -6787 
   -6878    -6994    -7140    -7317    -7473    -7547    -7496    -7337 
   -7137    -6945    -6774    -6648    -6643    -6824    -7152    -7515 
   -7789    -7865    -7715    -7429    -7157    -7028    -7049    -7148 
   -7264    -7360    -7410    -7415    -7399    -7410    -7468    -7528 
   -7553    -7539    -7507    -7499    -7527    -7568    -7605    -7631 
   -7632    -7592    -7500    -7392    -7314    -7283    -7290    -7277 
   -7203    -7099    -7005    -6934    -6866    -6739    -6531    -6305 
   -6143    -6092    -6153    -6284    -6430    -6547    -6632    -6704 
   -6793    -6936    -7140    -7402    -7717    -8054    -8364    -8590 
   -8669    -8607    -8463    -8283    -8077    -7848    -7619    -7430 
   -7344    -7380    -7487    -7568    -7514    -7280    -6944    -6632 
   -6424    -6355    -6389    -6438    -6443    -6416    -6405    -6447 
   -6528    -6631    -6770    -6951    -7190    -7485    -7766    -7958 
   -8033    -8033    -8014    -7998    -7974    -7932    -7870    -7777 
   -7631    -7442    -7253    -7118    -7080    -7142    -7234    -7252 
   -7119    -6837    -6511    -6280    -6218    -6320    -6508    -6667 
   -6750    -6787    -6809    -6798    -6732    -6616    -6488    -6409 
   -6448    -6651    -7026    -7512    -7981    -8284    -8344    -8178 
   -7874    -7538    -7237    -6982    -6771    -6636    -6609    -6702 
   -6912    -7200    -7479    -7670    -7736    -7641    -7387    -7041 
   -6720    -6536    -6546    -6740    -7082    -7495    -7862    -8082 
   -8135    -8016    -7732    -7348    -6980    -6739    -6682    -6817 
   -7098    -7415    -7657    -7773    -7774    -7686    -7518    -7258 
   -6922    -6551    -6185    -5894    -5738    -5764    -5988    -6358 
   -6775    -7140    -7373    -7449    -7416    -7365    -7389    -7553 
   -7832    -8145    -8387    -8486    -8459    -8367    -8240    -8068 
   -7859    -7635    -7431    -7290    -7196    -7107    -7001    -6895 
   -6820    -6791    -6791    -6795    -6790    -6767    -6723    -6671 
   -6621    -6569    -6524    -6513    -6575    -6720    -6903    -7069 
   -7184    -7237    -7250    -7263    -7299    -7364    -7454    -7570 
   -7716    -7863    -7948    -7916    -7774    -7581    -7380    -7180 
   -6991    -6841    -6775    -6835    -7025    -7308    -7589    -7753 
   -7754    -7618    -7416    -7238    -7121    -7052    -7015    -6998 
   -6982    -6951    -6925    -6970    -7141    -7425    -7735    -7958 
   -7992    -7827    -7546    -7256    -7022    -6840    -6674    -6535 
   -6461    -6484    -6604    -6762    -6885    -6961    -7015    -7056 
   -7106    -7187    -7306    -7449    -7574    -7618    -7547    -7399 
   -7238    -7126    -7103    -7176    -7318    -7472    -7587    -7654 
   -7720    -7832    -7990    -8152    -8270    -8314    -8286    -8185 
   -8004    -7763    -7516    -7294    -7107    -6980    -6953    -7064 
   -7292    -7542    -7703    -7697    -7491    -7153    -6821    -6600 
   -6555    -6687    -6933    -7209    -7442    -7580    -7577    -7418 
   -7150    -6856    -6609    -6450    -6419    -6550    -6817    -7130 
   -7400    -7582    -7692    -7786    -7917    -8079    -8229    -8321 
   -8329    -8256    -8106    -7855    -7470    -6948    -6347    -5778 
   -5347    -5113    -5082    -5224    -5503    -5857    -6192    -6432 
   -6585    -6708    -6817    -6879    -6867    -6781    -6652    -6528 
   -6446    -6443    -6529    -6663    -6777    -6847    -6890    -6897 
   -6849    -6768    -6710    -6748    -6909    -7144    -7385    -7589 
   -7723    -7765    -7676    -7443    -7113    -6752    -6426    -6193 
   -6058    -5983    -5921    -5849    -5791    -5802    -5915    -6115 
   -6372    -6666    -6971    -7260    -7519    -7720    -7824    -7808 
   -7686    -7526    -7427    -7457    -7616    -7875    -8209    -8559 
   -8833    -8955    -8934    -8837    -8738    -8692    -8708    -8769 
   -8862    -8957    -9004    -8970    -8853    -8672    -8445    -8210 
   -8056    -8067    -8249    -8536    -8823    -9022    -9078    -8972 
   -8738    -8453    -8151    -7862    -7650    -7557    -7569    -7654 
   -7778    -7898    -7975    -8002    -7975    -7881    -7724    -7531 
   -7350    -7238    -7210    -7246    -7308    -7334    -7280    -7141 
   -6949    -6762    -6619    -6525    -6451    -6350    -6183    -5946 
   -5672    -5421    -5248    -5184    -5231    -5385    -5628    -5934 
   -6277    -6619    -6893    -7026    -6976    -6752    -6428    -6102 
   -5846    -5705    -5682    -5768    -5948    -6199    -6494    -6817 
   -7155    -7480    -7726    -7825    -7762    -7560    -7294    -7049 
   -6858    -6698    -6528    -6318    -6089    -5886    -5742    -5686 
   -5753    -5962    -6273    -6593    -6828    -6922    -6906    -6868 
   -6870    -6934    -7056    -7164    -7182    -7084    -6910    -6724 
   -6600    -6590    -6714    -6943    -7218    -7508    -7777    -7982 
   -8093    -8108    -8028    -7858    -7609    -7310    -7011    -6767 
   -6617    -6604    -6735    -6953    -7191    -7388    -7518    -7593 
   -7636    -7659    -7663    -7651    -7632    -7614    -7619    -7695 
   -7878    -8147    -8442    -8698    -8820    -8758    -8542    -8283 
   -8097    -8046    -8106    -8199    -8230    -8159    -8006    -7803 
   -7578    -7392    -7291    -7298    -7411    -7580    -7726    -7798 
   -7782    -7673    -7493    -7281    -7067    -6880    -6758    -6728 
   -6789    -6889    -6963    -6994    -6970    -6880    -6751    -6627 
   -6566    -6602    -6700    -6791    -6821    -6763    -6648    -6555 
   -6548    -6647    -6848    -7099    -7304    -7388    -7341    -7186 
   -6983    -6813    -6721    -6701    -6720    -6755    -6799    -6847 
   -6867    -6855    -6810    -6733    -6628    -6486    -6323    -6183 
   -6092    -6070    -6139    -6281    -6471    -6714    -6964    -7163 
   -7260    -7231    -7117    -6999    -6944    -6980    -7087    -7213 
   -7303    -7333    -7327    -7335    -7407    -7572    -7815    -8083 
   -8302    -8395    -8316    -8066    -7717    -7388    -7179    -7142 
   -7269    -7504    -7790    -8059    -8239    -8320    -8326    -8290 
   -8272    -8309    -8392    -8498    -8581    -8610    -8573    -8480 
   -8328    -8104    -7816    -7503    -7229    -7057    -7014    -7091 
   -7253    -7412    -7479    -7419    -7268    -7098    -6986    -6966 
   -7018    -7087    -7103    -7032    -6886    -6747    -6687    -6718 
   -6821    -6947    -7049    -7129    -7180    -7223    -7314    -7480 
   -7711    -7912    -7969    -7850    -7605    -7291    -6944    -6597 
   -6295    -6081    -6004    -6080    -6274    -6554    -6907    -7304 
   -7685    -7983    -8132    -8101    -7902    -7589    -7218    -6843 
   -6531    -6346    -6292    -6330    -6419    -6519    -6610    -6704 
   -6820    -6976    -7183    -7429    -7653    -7761    -7685    -7437 
   -7099    -6790    -6593    -6523    -6558    -6674    -6863    -7095 
   -7322    -7506    -7611    -7623    -7585    -7584    -7680    -7889 
   -8163    -8405    -8542    -8542    -8413    -8201    -7974    -7790 
   -7677    -7638    -7654    -7673    -7661    -7638    -7639    -7693 
   -7785    -7846    -7801    -7616    -7342    -7064    -6836    -6651 
   -6462    -6220    -5917    -5579    -5271    -5063    -4992    -5059 
   -5213    -5373    -5471    -5493    -5521    -5652    -5892    -6174 
   -6407    -6524    -6520    -6442    -6346    -6277    -6235    -6184 
   -6076    -5883    -5638    -5414    -5297    -5332    -5502    -5741 
   -5975    -6153    -6296    -6451    -6637    -6855    -7083    -7295 
   -7495    -7709    -7948    -8201    -8430    -8588    -8638    -8567 
   -8430    -8341    -8379    -8561    -8851    -9173    -9486    -9775 
  -10033   -10258   -10436   -10550   -10581   -10519   -10362   -10129 
   -9842    -9558    -9310    -9107    -8930    -8730    -8446    -8060 
   -7588    -7079    -6615    -6276    -6106    -6110    -6222    -6351 
   -6420    -6396    -6286    -6129    -5956    -5790    -5651    -5529 
   -5433    -5391    -5422    -5543    -5749    -5984    -6199    -6355 
   -6432    -6439    -6404    -6363    -6373    -6450    -6579    -6747 
   -6924    -7080    -7211    -7308    -7380    -7450    -7524    -7605 
   -7704    -7831    -8005    -8237    -8505    -8762    -8959    -9073 
   -9115    -9130    -9170    -9244    -9308    -9286    -9120    -8803 
   -8371    -7879    -7379    -6913    -6513    -6205    -5996    -5891 
   -5888    -5975    -6138    -6347    -6559    -6735    -6837    -6853 
   -6817    -6733    -6556    -6246    -5822    -5373    -4997    -4768 
   -4698    -4738    -4830    -4939    -5067    -5242    -5481    -5822 
   -6299    -6866    -7423    -7857    -8054    -8000    -7788    -7561 
   -7468    -7585    -7894    -8309    -8694    -8941    -9009    -8915 
   -8702    -8421    -8132    -7901    -7750    -7674    -7662    -7713 
   -7857    -8132    -8533    -9005    -9483    -9904   -10237   -10439 
  -10428   -10126    -9486    -8526    -7368    -6169    -5088    -4284 
   -3882    -3920    -4342    -5000    -5728    -6390    -6907    -7263 
   -7477    -7588    -7618    -7562    -7425    -7227    -7015    -6829 
   -6678    -6539    -6386    -6210    -6014    -5806    -5614    -5508 
   -5555    -5778    -6145    -6565    -6929    -7180    -7319    -7388 
   -7406    -7373    -7304    -7221    -7141    -7049    -6890    -6621 
   -6242    -5826    -5525    -5474    -5746    -6320    -7045    -7722 
   -8155    -8230    -7973    -7496    -6959    -6511    -6257    -6250 
   -6488    -6918    -7438    -7919    -8262    -8401    -8324    -8063 
   -7682    -7250    -6833    -6496    -6324    -6393    -6714    -7253 
   -7912    -8541    -9009    -9217    -9142    -8861    -8494    -8136 
   -7852    -7670    -7580    -7543    -7526    -7526    -7549    -7603 
   -7680    -7749    -7781    -7754    -7632    -7418    -7149    -6898 
   -6731    -6679    -6750    -6916    -7117    -7298    -7387    -7335 
   -7179    -6993    -6851    -6808    -6858    -6966    -7091    -7203 
   -7322    -7484    -7692    -7915    -8109    -8229    -8260    -8217 
   -8144    -8097    -8112    -8198    -8324    -8437    -8483    -8421 
   -8239    -7965    -7673    -7443    -7295    -7190    -7080    -6944 
   -6785    -6613    -6447    -6343    -6357    -6509    -6767    -7045 
   -7233    -7254    -7099    -6813    -6465    -6107    -5794    -5579 
   -5481    -5490    -5579    -5718    -5898    -6112    -6334    -6511 
   -6602    -6601    -6554    -6540    -6613    -6756    -6890    -6933 
   -6858    -6696    -6512    -6388    -6409    -6619    -6988    -7453 
   -7916    -8286    -8502    -8556    -8490    -8383    -8351    -8482 
   -8781    -9159    -9458    -9544    -9363    -8935    -8361    -7777 
   -7302    -7038    -7022    -7163    -7323    -7393    -7338    -7213 
   -7087    -7009    -6952    -6837    -6616    -6313    -5992    -5710 
   -5509    -5414    -5454    -5621    -5900    -6261    -6650    -7029 
   -7366    -7645    -7873    -8056    -8194    -8301    -8388    -8461 
   -8519    -8552    -8548    -8509    -8442    -8386    -8384    -8419 
   -8444    -8430    -8394    -8352    -8326    -8329    -8345    -8324 
   -8208    -7992    -7735    -7487    -7237    -6952    -6636    -6342 
   -6120    -6003    -6004    -6099    -6220    -6299    -6264    -6092 
   -5822    -5510    -5209    -4976    -4826    -4747    -4739    -4800 
   -4932    -5165    -5493    -5857    -6181    -6397    -6454    -6350 
   -6151    -5965    -5887    -5962    -6153    -6351    -6465    -6443 
   -6291    -6077    -5907    -5876    -6027    -6332    -6731    -7159 
   -7565    -7936    -8276    -8586    -8841    -9000    -9026    -8910 
   -8679    -8375    -8033    -7699    -7419    -7226    -7137    -7146 
   -7236    -7416    -7689    -8002    -8295    -8522    -8649    -8662 
   -8561    -8372    -8144    -7954    -7885    -7978    -8230    -8583 
   -8904    -9045    -8915    -8549    -8075    -7641    -7353    -7257 
   -7319    -7485    -7716    -7979    -8251    -8476    -8571    -8483 
   -8181    -7689    -7110    -6547    -6100    -5834    -5752    -5836 
   -6038    -6289    -6528    -6709    -6810    -6855    -6886    -6953 
   -7088    -7287    -7524    -7749    -7911    -7967    -7889    -7692 
   -7434    -7167    -6945    -6804    -6721    -6659    -6604    -6579 
   -6615    -6708    -6853    -7044    -7242    -7403    -7483    -7452 
   -7296    -7038    -6741    -6489    -6322    -6255    -6299    -6447 
   -6667    -6903    -7096    -7215    -7246    -7200    -7080    -6895 
   -6705    -6582    -6593    -6763    -7045    -7352    -7609    -7751 
   -7738    -7605    -7419    -7261    -7184    -7188    -7253    -7311 
   -7288    -7152    -6930    -6716    -6577    -6523    -6529    -6542 
   -6494    -6369    -6187    -5989    -5838    -5782    -5857    -6065 
   -6367    -6729    -7088    -7377    -7573    -7678    -7705    -7688 
   -7663    -7657    -7682    -7736    -7812    -7904    -7997    -8055 
   -8043    -7969    -7875    -7834    -7916    -8135    -8415    -8645 
   -8712    -8581    -8294    -7921    -7562    -7300    -7138    -7044 
   -6980    -6912    -6822    -6729    -6656    -6624    -6633    -6678 
   -6745    -6843    -6998    -7222    -7480    -7696    -7792    -7705 
   -7420    -7005    -6588    -6286    -6181    -6297    -6566    -6859 
   -7065    -7140    -7107    -7029    -6968    -6956    -6964    -6934 
   -6833    -6663    -6485    -6386    -6426    -6606    -6882    -7171 
   -7387    -7472    -7407    -7234    -7042    -6902    -6844    -6895 
