Origin Time       2024/04/02 04:24:00
Lat.              40.133
Long.             141.712
Depth. (km)       71
Mag.              6.0
Station Code      YMTH02
Station Lat.      38.2693
Station Long.     140.2583
Station Height(m) 130
Record Time       2024/04/02 04:25:20
Sampling Freq(Hz) 100Hz
Duration Time(s)  120
Dir.              4
Scale Factor      7845(gal)/8223790
Max. Acc. (gal)   3.883
Last Correction   2024/04/02 04:25:21
Memo.             
[...]
    7796     7805     7823     7809     7746     7655     7585     7570 
    7614     7692     7785     7869     7915     7936     7959     7990 
    8025     8063     8090     8102     8106     8121     8163     8228 
    8314     8411     8483     8486     8413     8299     8193     8128 
    8100     8098     8116     8113     8023     7832     7632     7519 
    7508     7555     7603     7607     7534     7379     7195     7047 
    6945     6899     6937     7068     7264     7492     7707     7882 
    8025     8151     8259     8318     8317     8264     8187     8137 
    8131     8135     8109     8027     7889     7723     7545     7379 
    7261     7195     7165     7167     7198     7260     7338     7404 
    7443     7473     7520     7581     7635     7670     7685     7693 
    7699     7697     7711     7758     7811     7848     7855     7830 
    7800     7773     7738     7719     7735     7781     7816     7805 
    7759     7696     7618     7539     7480     7435     7410     7416 
    7460     7533     7622     7709     7776     7808     7808     7778 
    7715     7638     7573     7539     7562     7634     7709     7759 
    7765     7717     7636     7564     7530     7522     7520     7527 
    7546     7570     7584     7565     7511     7446     7402     7407 
    7450     7493     7483     7406     7306     7231     7199     7222 
    7307     7425     7526     7584     7603     7601     7595     7596 
    7607     7627     7659     7688     7685     7655     7615     7581 
    7581     7623     7676     7711     7728     7731     7696     7616 
    7543     7510     7499     7501     7527     7581     7641     7680 
    7697     7719     7767     7844     7935     8010     8050     8046 
    8010     7950     7870     7798     7754     7713     7670     7658 
    7690     7747     7801     7840     7881     7927     7973     8036 
    8125     8232     8348     8449     8515     8525     8487     8429 
    8375     8341     8318     8274     8205     8131     8052     7971 
    7888     7785     7672     7576     7514     7474     7446     7420 
    7395     7379     7398     7458     7534     7605     7665     7705 
    7715     7678     7630     7620     7663     7735     7823     7912 
    7989     8037     8037     7990     7913     7805     7668     7511 
    7361     7246     7191     7213     7303     7420     7520     7582 
    7605     7607     7611     7636     7662     7659     7619     7554 
    7523     7568     7641     7693     7731     7765     7793     7793 
    7742     7655     7561     7472     7411     7391     7403     7449 
    7541     7681     7847     8009     8124     8160     8122     8041 
    7944     7847     7761     7707     7708     7732     7722     7662 
    7570     7474     7404     7368     7357     7365     7375     7392 
    7453     7573     7719     7835     7886     7890     7885     7890 
    7921     7983     8046     8066     8019     7912     7766     7620 
    7516     7452     7388     7304     7200     7092     7014     6988 
    7024     7133     7314     7528     7703     7785     7804     7815 
    7834     7847     7851     7863     7892     7909     7879     7816 
    7766     7761     7796     7852     7900     7894     7820     7696 
    7542     7408     7330     7292     7291     7319     7342     7326 
    7271     7219     7225     7291     7388     7491     7581     7643 
    7670     7689     7735     7815     7925     8067     8221     8337 
    8353     8248     8060     7859     7708     7639     7623     7614 
    7599     7577     7557     7564     7597     7657     7736     7813 
    7889     7965     8029     8074     8081     8058     8028     7989 
    7943     7894     7828     7746     7659     7572     7488     7403 
    7327     7295     7311     7364     7425     7476     7524     7573 
    7614     7655     7711     7765     7788     7786     7780     7767 
    7753     7765     7800     7827     7827     7797     7740     7680 
    7638     7632     7659     7708     7782     7851     7877     7869 
    7848     7816     7771     7722     7681     7676     7716     7778 
    7825     7859     7906     7954     7983     8017     8075     8152 
    8217     8249     8239     8193     8131     8067     8008     7958 
    7904     7828     7728     7627     7558     7547     7582     7619 
    7643     7662     7688     7736     7816     7906     7966     7967 
    7919     7846     7780     7744     7708     7634     7533     7418 
    7300     7210     7161     7159     7194     7253     7326     7389 
    7430     7489     7607     7754     7882     7962     7994     8006 
    8012     8001     7994     8016     8027     7947     7755     7501 
    7245     7026     6862     6760     6720     6716     6737     6787 
    6867     6970     7102     7237     7345     7418     7446     7452 
    7464     7470     7483     7530     7595     7653     7704     7761 
    7839     7917     7958     7940     7877     7804     7739     7654 
    7533     7403     7310     7287     7325     7391     7461     7528 
    7595     7645     7657     7618     7538     7474     7456     7462 
    7496     7565     7646     7704     7734     7747     7742     7688 
    7578     7452     7329     7215     7126     7074     7065     7106 
    7202     7345     7493     7600     7663     7686     7666     7631 
    7631     7697     7815     7928     7996     8012     7987     7963 
    7992     8060     8137     8210     8264     8293     8279     8224 
    8147     8068     7990     7901     7809     7746     7722     7712 
    7696     7670     7641     7599     7555     7554     7604     7677 
    7747     7803     7854     7916     7969     7975     7912     7824 
    7782     7805     7870     7931     7967     8001     8043     8093 
    8158     8233     8320     8413     8484     8513     8495     8426 
    8322     8225     8151     8102     8082     8110     8189     8259 
    8264     8218     8167     8156     8213     8314     8415     8472 
    8451     8364     8248     8125     8008     7893     7788     7704 
    7639     7603     7614     7650     7695     7767     7867     7950 
    7978     7955     7913     7886     7886     7901     7881     7801 
    7686     7568     7460     7372     7307     7280     7295     7329 
    7354     7353     7329     7288     7214     7102     6983     6907 
    6894     6914     6947     6994     7049     7099     7156     7244 
    7364     7496     7628     7755     7847     7848     7743     7543 
    7310     7115     7005     6997     7092     7227     7334     7400 
    7443     7457     7429     7402     7423     7480     7518     7511 
    7480     7470     7488     7504     7499     7457     7377     7283 
    7214     7225     7325     7456     7576     7673     7709     7680 
    7624     7584     7592     7645     7709     7778     7874     8020 
    8198     8347     8414     8392     8316     8221     8120     8033 
    7983     7939     7848     7703     7547     7443     7403     7399 
    7391     7369     7360     7384     7420     7435     7418     7368 
    7280     7152     7015     6932     6937     7025     7172     7364 
    7592     7798     7916     7939     7904     7843     7798     7786 
    7788     7786     7780     7751     7699     7641     7615     7635 
    7666     7678     7668     7661     7690     7731     7739     7723 
    7728     7746     7726     7645     7522     7371     7227     7137 
    7113     7163     7285     7473     7713     7951     8149     8326 
    8486     8602     8656     8668     8716     8850     9046     9252 
    9410     9455     9370     9201     9019     8866     8746     8640 
    8511     8328     8095     7855     7647     7481     7331     7159 
    6957     6767     6631     6578     6610     6737     6943     7164 
    7350     7481     7551     7584     7588     7564     7543     7558 
    7620     7713     7785     7812     7805     7776     7724     7632 
    7497     7368     7299     7319     7410     7512     7593     7658 
    7708     7750     7794     7846     7881     7863     7785     7662 
    7508     7341     7179     7034     6924     6866     6867     6921 
    7014     7128     7231     7290     7295     7279     7290     7349 
    7442     7551     7663     7751     7821     7904     7994     8070 
    8112     8101     8041     7952     7843     7742     7678     7642 
    7624     7627     7649     7686     7734     7805     7904     7990 
    8027     8001     7929     7850     7798     7784     7808     7871 
    7970     8089     8202     8278     8268     8174     8056     7965 
    7929     7982     8112     8264     8371     8378     8291     8132 
    7925     7731     7609     7584     7639     7723     7767     7743 
    7658     7538     7410     7306     7263     7273     7298     7295 
    7229     7101     6978     6936     7013     7203     7445     7643 
    7731     7720     7688     7695     7755     7867     8000     8122 
    8206     8236     8233     8222     8190     8116     8004     7882 
    7762     7612     7435     7258     7087     6921     6793     6736 
    6774     6905     7094     7279     7411     7465     7435     7361 
    7302     7288     7321     7385     7472     7591     7761     7967 
    8166     8329     8452     8519     8517     8467     8387     8260 
    8083     7906     7765     7681     7673     7730     7804     7850 
    7861     7851     7808     7743     7708     7728     7782     7843 
    7886     7867     7754     7573     7398     7288     7257     7280 
    7312     7331     7353     7393     7430     7447     7465     7515 
    7605     7735     7882     7998     8066     8104     8128     8160 
    8229     8329     8425     8487     8487     8426     8347     8303 
    8307     8324     8324     8306     8286     8290     8320     8330 
    8283     8166     7985     7751     7495     7267     7088     6948 
    6843     6764     6702     6679     6716     6812     6967     7152 
    7333     7499     7627     7690     7686     7632     7576     7535 
    7495     7422     7299     7152     7022     6939     6924     6997 
    7148     7321     7450     7514     7528     7519     7508     7522 
    7584     7693     7784     7813     7797     7767     7750     7755 
    7784     7812     7809     7765     7701     7669     7712     7834 
    7987     8108     8148     8116     8051     8008     8017     8073 
    8133     8163     8162     8151     8162     8216     8287     8345 
    8368     8336     8240     8112     7996     7915     7842     7774 
    7740     7750     7776     7782     7765     7747     7766     7854 
    8021     8205     8311     8317     8257     8167     8054     7929 
    7815     7735     7677     7622     7564     7491     7379     7253 
    7171     7146     7149     7159     7165     7150     7121     7105 
    7136     7225     7335     7419     7452     7438     7393     7372 
    7416     7515     7627     7724     7793     7836     7862     7861 
    7819     7735     7641     7578     7576     7624     7684     7712 
    7690     7632     7580     7558     7573     7601     7604     7572 
    7528     7501     7501     7519     7541     7558     7565     7568 
    7574     7592     7636     7696     7717     7665     7561     7464 
    7433     7485     7601     7738     7836     7857     7782     7627 
    7429     7238     7086     6970     6879     6805     6735     6664 
    6606     6561     6521     6496     6477     6447     6428     6446 
    6515     6654     6862     7092     7294     7431     7483     7419 
    7248     7029     6837     6718     6678     6698     6760     6843 
    6901     6910     6890     6871     6875     6909     6966     7038 
    7140     7283     7464     7662     7861     8043     8185     8286 
    8364     8433     8519     8644     8792     8938     9063     9170 
    9256     9321     9377     9423     9432     9396     9331     9270 
    9242     9239     9229     9193     9119     9004     8851     8660 
    8446     8245     8081     7983     7983     8062     8160     8230 
    8256     8232     8183     8162     8201     8297     8433     8583 
    8718     8823     8885     8905     8892     8866     8842     8802 
    8727     8617     8457     8279     8133     8014     7906     7832 
    7804     7819     7852     7865     7827     7738     7627     7524 
    7416     7319     7294     7357     7468     7578     7681     7785 
    7867     7890     7855     7785     7707     7643     7588     7512 
    7388     7209     6991     6783     6667     6714     6909     7165 
    7380     7495     7506     7443     7365     7354     7446     7614 
    7823     8017     8128     8121     8010     7815     7580     7383 
    7260     7188     7134     7091     7045     6993     6939     6894 
    6891     6939     6999     7032     7010     6939     6856     6810 
    6835     6936     7075     7196     7279     7345     7427     7522 
    7605     7670     7722     7780     7858     7936     8016     8117 
    8203     8214     8141     8017     7884     7742     7570     7353 
    7079     6768     6498     6324     6228     6177     6165     6210 
    6315     6442     6544     6608     6652     6709     6786     6883 
    7010     7184     7411     7666     7911     8121     8289     8395 
    8417     8341     8187     7975     7720     7447     7150     6828 
    6517     6281     6184     6261     6496     6868     7364     7951 
    8584     9231     9867    10477    11013    11422    11682    11765 
   11620    11238    10669     9987     9267     8579     7974     7464 
    7026     6652     6338     6093     5934     5864     5887     5995 
    6146     6293     6400     6467     6566     6756     7033     7361 
    7700     8012     8280     8482     8567     8505     8309     7996 
    7596     7179     6810     6512     6289     6170     6187     6358 
    6682     7146     7711     8282     8777     9154     9378     9437 
    9348     9143     8858     8527     8187     7884     7638     7447 
    7299     7192     7137     7137     7171     7223     7296     7418 
    7614     7902     8282     8712     9130     9460     9652     9680 
    9564     9325     8962     8502     8000     7491     6987     6501 
    6037     5637     5355     5205     5190     5319     5593     6002 
    6497     7007     7487     7912     8262     8548     8780     8937 
    8985     8916     8749     8530     8307     8108     7936     7771 
    7595     7420     7273     7168     7137     7194     7337     7558 
    7824     8066     8239     8353     8460     8610     8812     9053 
    9302     9545     9763     9925    10014    10012     9898     9672 
    9342     8923     8467     8028     7658     7406     7279     7237 
    7202     7090     6864     6552     6216     5938     5803     5832 
    5985     6220     6470     6636     6658     6550     6367     6169 
    6015     5968     6019     6110     6184     6218     6205     6150 
    6072     6043     6127     6330     6596     6853     7082     7314 
    7593     7935     8316     8689     8981     9103     9028     8816 
    8552     8286     8047     7861     7759     7754     7804     7848 
    7862     7875     7925     7989     8029     8025     7946     7777 
    7564     7358     7214     7175     7273     7497     7794     8085 
    8328     8523     8684     8837     9013     9192     9300     9261 
    9042     8696     8333     8023     7781     7607     7474     7369 
    7294     7236     7211     7265     7375     7464     7485     7443 
    7391     7375     7403     7479     7615     7811     8031     8218 
    8311     8272     8129     7917     7639     7291     6916     6601 
    6408     6351     6426     6624     6907     7227     7553     7874 
    8174     8430     8629     8752     8797     8791     8765     8750 
    8723     8640     8490     8318     8190     8148     8181     8253 
    8326     8336     8240     8070     7892     7758     7688     7655 
    7626     7587     7538     7499     7491     7558     7749     8056 
    8395     8671     8842     8915     8923     8905     8884     8878 
    8885     8861     8784     8649     8468     8255     8013     7742 
    7450     7164     6928     6778     6741     6816     6947     7064 
    7122     7122     7109     7129     7202     7317     7396     7345 
    7136     6822     6527     6390     6481     6763     7153     7547 
    7820     7884     7743     7460     7092     6702     6358     6134 
    6107     6304     6675     7115     7499     7743     7839     7840 
    7824     7885     8068     8355     8668     8874     8878     8687 
    8351     7938     7515     7111     6774     6569     6494     6508 
    6565     6629     6666     6667     6662     6690     6793     6997 
    7261     7508     7686     7786     7820     7817     7804     7804 
    7865     8041     8338     8672     8926     9022     8918     8611 
    8164     7665     7190     6824     6624     6598     6736     6979 
    7237     7434     7519     7492     7403     7323     7318     7411 
    7591     7831     8064     8213     8212     8060     7839     7628 
    7465     7375     7388     7533     7801     8155     8565     9011 
    9460     9891    10231    10389    10315     9988     9427     8734 
    8060     7547     7269     7227     7375     7614     7846     8010 
    8044     7909     7680     7462     7341     7368     7547     7825 
    8110     8313     8380     8303     8149     8010     7898     7769 
    7581     7291     6901     6482     6130     5944     5969     6165 
    6438     6677     6787     6744     6608     6480     6440     6536 
    6777     7106     7469     7836     8156     8355     8387     8279 
    8109     7928     7747     7578     7430     7280     7080     6799 
    6473     6164     5908     5745     5726     5896     6246     6687 
    7113     7461     7712     7874     8002     8158     8382     8669 
    8938     9096     9089     8910     8614     8297     8043     7938 
    8014     8228     8483     8684     8773     8710     8483     8144 
    7781     7468     7281     7271     7410     7658     7963     8260 
    8510     8698     8823     8887     8865     8752     8584     8419 
    8306     8278     8340     8452     8550     8583     8517     8359 
    8172     8002     7869     7784     7728     7662     7560     7393 
    7157     6876     6575     6301     6110     5994     5907     5813 
    5687     5526     5348     5200     5144     5196     5325     5506 
    5717     5962     6259     6620     7048     7510     7943     8295 
    8527     8617     8592     8527     8492     8522     8613     8734 
    8861     8985     9085     9112     9046     8895     8652     8337 
    8020     7792     7723     7801     7965     8152     8321     8438 
    8484     8459     8380     8259     8089     7881     7690     7596 
    7627     7734     7842     7904     7921     7933     7989     8132 
    8375     8672     8973     9251     9470     9616     9683     9674 
    9625     9595     9597     9614     9625     9614     9587     9566 
    9547     9485     9343     9130     8849     8478     7997     7445 
    6916     6505     6205     5980     5840     5811     5907     6083 
    6268     6420     6516     6532     6494     6442     6415     6458 
