Origin Time       2024/04/02 04:24:00
Lat.              40.133
Long.             141.712
Depth. (km)       71
Mag.              6.0
Station Code      YMTH08
Station Lat.      38.9701
Station Long.     140.0333
Station Height(m) 8.7
Record Time       2024/04/02 04:25:08
Sampling Freq(Hz) 100Hz
Duration Time(s)  189
Dir.              1
Scale Factor      2942(gal)/8224139
Max. Acc. (gal)   1.595
Last Correction   2024/04/02 04:25:08
Memo.             
[...]
   83960    83911    83829    83713    83624    83608    83644    83700 
   83748    83795    83872    83963    84028    84059    84051    84025 
   84038    84121    84245    84396    84561    84673    84676    84611 
   84531    84449    84373    84327    84325    84341    84321    84254 
   84177    84114    84073    84071    84092    84096    84064    84002 
   83934    83872    83814    83768    83747    83741    83714    83648 
   83574    83543    83582    83662    83737    83787    83820    83837 
   83830    83825    83863    83947    84034    84103    84161    84229 
   84304    84331    84276    84195    84142    84094    84017    83903 
   83774    83662    83578    83520    83497    83502    83498    83463 
   83412    83404    83482    83623    83786    83960    84115    84200 
   84204    84164    84150    84213    84330    84446    84515    84528 
   84500    84438    84338    84208    84100    84044    84002    83945 
   83905    83918    83963    83990    83979    83906    83776    83640 
   83546    83494    83470    83473    83490    83498    83490    83467 
   83461    83502    83543    83531    83498    83490    83521    83590 
   83685    83790    83893    83979    84049    84114    84152    84126 
   84048    83951    83864    83809    83798    83828    83899    84024 
   84175    84311    84414    84488    84532    84542    84505    84410 
   84237    84030    83876    83794    83739    83695    83700    83743 
   83776    83771    83721    83641    83559    83486    83462    83532 
   83674    83840    83990    84068    84053    83990    83918    83853 
   83821    83832    83855    83894    83976    84065    84111    84126 
   84160    84249    84369    84454    84468    84457    84450    84396 
   84264    84115    84003    83898    83768    83644    83585    83619 
   83705    83778    83813    83825    83851    83920    84018    84141 
   84284    84379    84348    84210    84056    83971    83972    84007 
   84022    84019    84021    84019    84017    84030    84080    84149 
   84179    84144    84090    84048    84001    83930    83845    83760 
   83686    83643    83628    83628    83643    83660    83667    83675 
   83701    83732    83740    83725    83733    83798    83901    84018 
   84146    84265    84337    84338    84271    84183    84117    84044 
   83926    83799    83733    83744    83782    83830    83921    84049 
   84169    84254    84321    84404    84480    84469    84356    84210 
   84094    83995    83879    83756    83681    83683    83743    83790 
   83783    83749    83718    83686    83651    83633    83643    83690 
   83790    83930    84064    84161    84244    84339    84412    84418 
   84392    84372    84325    84223    84087    83930    83751    83560 
   83416    83385    83467    83597    83705    83783    83849    83884 
   83870    83822    83772    83733    83689    83624    83570    83582 
   83652    83712    83731    83735    83760    83820    83907    84007 
   84117    84237    84335    84364    84294    84163    84028    83889 
   83720    83540    83382    83259    83157    83052    82968    82938 
   82998    83170    83425    83687    83887    84017    84100    84165 
   84217    84249    84256    84233    84188    84141    84109    84090 
   84080    84088    84107    84118    84106    84063    83992    83922 
   83884    83897    83963    84078    84222    84345    84399    84392 
   84370    84358    84356    84361    84376    84412    84480    84568 
   84620    84574    84438    84288    84163    84048    83928    83801 
   83686    83612    83573    83540    83513    83535    83619    83747 
   83930    84168    84377    84461    84393    84221    84041    83943 
   83921    83918    83910    83914    83952    84032    84140    84275 
   84431    84559    84608    84599    84558    84472    84306    84084 
   83855    83623    83409    83270    83212    83200    83223    83255 
   83266    83276    83327    83428    83544    83663    83786    83879 
   83917    83917    83936    83972    83960    83876    83790    83756 
   83798    83929    84098    84223    84268    84223    84086    83895 
   83721    83578    83451    83343    83285    83308    83411    83551 
   83662    83712    83713    83708    83745    83825    83910    83955 
   83941    83926    83988    84134    84321    84487    84573    84564 
   84470    84307    84110    83951    83864    83812    83755    83710 
   83714    83762    83818    83874    83934    83994    84053    84126 
   84208    84268    84257    84172    84082    84075    84163    84280 
   84354    84357    84300    84229    84184    84164    84141    84088 
   84005    83890    83776    83727    83763    83821    83828    83758 
   83659    83601    83596    83608    83623    83650    83706    83801 
   83906    83990    84049    84091    84137    84240    84397    84546 
   84636    84649    84599    84532    84462    84357    84204    84034 
   83884    83798    83793    83825    83830    83783    83694    83592 
   83512    83451    83377    83276    83189    83185    83268    83377 
   83474    83548    83617    83735    83920    84142    84375    84591 
   84758    84877    84964    85023    85043    85012    84919    84793 
   84680    84577    84472    84346    84183    83978    83759    83558 
   83385    83250    83154    83080    83019    82958    82891    82842 
   82841    82887    82965    83046    83077    83034    82972    83006 
   83193    83504    83874    84222    84484    84658    84770    84844 
   84888    84870    84784    84678    84589    84535    84538    84562 
   84518    84385    84231    84084    83907    83710    83550    83455 
   83408    83371    83309    83216    83134    83099    83115    83188 
   83334    83542    83770    83970    84088    84123    84133    84175 
   84242    84294    84319    84323    84300    84244    84144    84007 
   83889    83836    83833    83821    83754    83654    83565    83494 
   83451    83436    83417    83357    83274    83238    83272    83305 
   83286    83236    83214    83259    83376    83529    83663    83744 
   83778    83775    83762    83756    83748    83735    83751    83817 
   83943    84148    84426    84699    84896    84973    84897    84708 
   84507    84352    84257    84229    84244    84256    84219    84115 
   84003    83976    84009    84015    83955    83814    83579    83278 
   82973    82752    82667    82709    82852    83076    83347    83616 
   83855    84064    84248    84388    84465    84493    84508    84550 
   84628    84713    84790    84869    84935    84975    84981    84936 
   84866    84840    84906    85043    85187    85267    85248    85168 
   85091    85035    84981    84916    84828    84681    84468    84240 
   84053    83932    83870    83835    83789    83701    83573    83461 
   83430    83489    83608    83731    83808    83835    83849    83860 
   83837    83775    83693    83597    83505    83457    83496    83623 
   83762    83860    83948    84052    84157    84245    84303    84348 
   84422    84557    84731    84867    84902    84827    84669    84495 
   84362    84249    84100    83886    83624    83369    83181    83089 
   83072    83093    83126    83146    83151    83164    83205    83292 
   83403    83494    83565    83636    83705    83728    83687    83621 
   83559    83490    83405    83311    83227    83178    83180    83231 
   83303    83358    83397    83442    83463    83416    83303    83157 
   83012    82898    82848    82892    83007    83115    83182    83268 
   83428    83662    83917    84118    84240    84327    84396    84427 
   84435    84443    84461    84476    84456    84393    84318    84254 
   84217    84213    84256    84331    84393    84416    84395    84325 
   84219    84088    83925    83743    83567    83415    83319    83312 
   83401    83551    83709    83849    83976    84094    84211    84364 
   84574    84836    85131    85438    85737    85984    86134    86217 
   86281    86292    86200    85986    85657    85259    84851    84472 
   84165    83979    83909    83901    83897    83871    83840    83812 
   83803    83868    84046    84311    84595    84829    84981    85043 
   85043    85012    84950    84824    84640    84449    84302    84198 
   84099    84006    83922    83829    83737    83683    83667    83659 
   83640    83601    83523    83416    83344    83339    83367    83385 
   83407    83466    83546    83593    83590    83566    83520    83454 
   83389    83343    83290    83203    83083    82961    82883    82895 
   83010    83181    83347    83455    83463    83354    83174    83010 
   82917    82895    82912    82939    82979    83056    83176    83313 
   83439    83536    83565    83498    83386    83286    83230    83228 
   83245    83226    83131    82962    82790    82691    82663    82656 
   82633    82590    82533    82495    82516    82582    82659    82722 
   82786    82880    82996    83114    83232    83347    83440    83523 
   83621    83758    83955    84211    84488    84750    84959    85066 
   85054    84954    84804    84639    84466    84267    84042    83849 
   83727    83637    83542    83443    83350    83263    83209    83212 
   83280    83416    83624    83914    84296    84721    85128    85469 
   85704    85843    85947    86023    86001    85847    85595    85317 
   85078    84900    84793    84755    84735    84693    84638    84593 
   84555    84499    84410    84292    84138    83947    83721    83497 
   83328    83224    83157    83118    83127    83199    83342    83532 
   83724    83901    84063    84202    84315    84439    84603    84782 
   84919    84975    84959    84890    84770    84607    84422    84218 
   83999    83787    83602    83478    83461    83558    83729    83907 
   84040    84105    84129    84150    84177    84211    84246    84273 
   84296    84311    84269    84141    83940    83689    83421    83200 
   83068    83016    83015    83064    83169    83320    83493    83674 
   83862    84055    84230    84364    84454    84504    84514    84474 
   84373    84245    84150    84106    84069    84013    83944    83895 
   83887    83910    83929    83918    83863    83763    83628    83484 
   83351    83261    83246    83326    83470    83608    83678    83670 
   83606    83505    83385    83290    83270    83323    83412    83523 
   83673    83887    84175    84508    84834    85095    85267    85359 
   85415    85459    85500    85548    85588    85564    85461    85344 
   85249    85149    85045    84970    84927    84894    84855    84805 
   84754    84701    84632    84535    84416    84265    84079    83898 
   83731    83566    83432    83334    83242    83182    83208    83311 
   83439    83573    83735    83926    84136    84334    84492    84592 
   84597    84488    84321    84173    84071    84006    83964    83930 
   83926    83979    84079    84184    84260    84281    84237    84156 
   84080    84033    84019    84015    83991    83948    83910    83893 
   83875    83835    83752    83620    83474    83369    83334    83350 
   83376    83389    83390    83370    83336    83330    83373    83463 
   83569    83646    83655    83589    83474    83335    83166    82984 
   82827    82718    82651    82605    82575    82560    82552    82549 
   82576    82641    82707    82763    82846    82995    83212    83463 
   83681    83812    83837    83778    83689    83617    83585    83600 
   83635    83656    83658    83637    83596    83573    83594    83637 
   83704    83833    84049    84322    84572    84708    84693    84574 
   84427    84312    84249    84238    84281    84358    84411    84384 
   84273    84103    83882    83633    83378    83130    82925    82792 
   82737    82752    82810    82883    82965    83052    83133    83211 
   83274    83299    83281    83239    83191    83154    83150    83184 
   83249    83335    83430    83509    83563    83589    83601    83604 
   83577    83519    83447    83366    83281    83219    83204    83205 
   83178    83130    83104    83112    83119    83122    83168    83280 
   83432    83606    83776    83911    83998    84049    84075    84095 
   84136    84204    84289    84354    84353    84264    84164    84156 
   84241    84348    84443    84532    84623    84717    84807    84865 
   84867    84811    84717    84631    84584    84578    84601    84639 
   84665    84628    84530    84423    84366    84368    84406    84472 
   84573    84712    84871    85048    85271    85544    85800    85981 
   86073    86084    86001    85804    85496    85072    84526    83898 
   83293    82804    82472    82336    82416    82668    83030    83471 
   83948    84399    84792    85116    85349    85461    85445    85329 
   85156    84975    84842    84790    84824    84921    85055    85170 
   85190    85079    84875    84680    84564    84534    84565    84626 
   84707    84812    84928    85018    85056    85014    84901    84777 
   84707    84713    84793    84917    85058    85209    85383    85588 
   85824    86078    86310    86467    86508    86443    86310    86143 
   85955    85768    85606    85473    85342    85189    84985    84720 
   84423    84121    83812    83500    83200    82921    82656    82390 
   82100    81803    81567    81434    81414    81510    81735    82080 
   82475    82845    83155    83408    83598    83720    83781    83781 
   83728    83647    83579    83544    83532    83536    83509    83386 
   83122    82672    82043    81326    80634    80052    79651    79477 
   79524    79749    80088    80495    80919    81280    81526    81695 
   81837    81962    82063    82117    82124    82112    82115    82148 
   82228    82363    82540    82734    82918    83050    83096    83037 
   82883    82684    82517    82429    82426    82493    82611    82755 
   82869    82915    82895    82830    82728    82595    82449    82329 
   82282    82331    82468    82690    83000    83408    83910    84483 
   85083    85657    86140    86497    86744    86929    87073    87162 
   87174    87116    87011    86888    86817    86859    86994    87142 
   87218    87183    87058    86908    86794    86759    86818    86930 
   87042    87103    87054    86895    86675    86433    86201    86007 
   85850    85726    85642    85596    85569    85567    85607    85664 
   85696    85699    85669    85573    85396    85182    84964    84734 
   84500    84303    84173    84123    84134    84173    84249    84375 
   84518    84630    84697    84713    84669    84561    84410    84242 
   84065    83901    83785    83744    83797    83913    84024    84076 
   84049    83926    83682    83326    82895    82441    82035    81769 
   81685    81739    81851    81976    82117    82289    82453    82572 
   82622    82583    82467    82298    82108    81932    81803    81715 
   81668    81677    81756    81874    81993    82088    82155    82224 
   82325    82470    82665    82918    83174    83373    83484    83490 
   83381    83177    82937    82713    82533    82428    82422    82507 
   82634    82773    82927    83114    83324    83516    83654    83733 
   83743    83666    83524    83370    83227    83081    82926    82767 
   82591    82425    82348    82417    82595    82822    83077    83366 
   83681    83994    84268    84478    84605    84649    84658    84703 
   84807    84937    85037    85060    85009    84929    84855    84792 
   84738    84692    84645    84591    84532    84469    84393    84285 
   84127    83957    83832    83751    83710    83724    83789    83906 
   84092    84339    84651    85047    85494    85892    86166    86293 
   86293    86193    86019    85789    85536    85313    85151    85056 
   85043    85125    85282    85465    85633    85743    85756    85673 
   85529    85336    85102    84844    84584    84357    84194    84119 
   84136    84215    84334    84501    84732    84987    85214    85375 
   85456    85476    85465    85410    85271    85039    84730    84388 
   84072    83829    83658    83520    83400    83316    83296    83370 
   83562    83862    84230    84630    85040    85436    85793    86089 
   86271    86281    86104    85783    85357    84862    84352    83868 
   83446    83127    82911    82773    82709    82674    82605    82498 
   82391    82300    82208    82090    81919    81699    81472    81279 
   81152    81102    81110    81153    81211    81275    81352    81473 
   81676    81974    82340    82696    83006    83299    83589    83814 
   83898    83817    83583    83257    82929    82660    82476    82375 
   82320    82258    82174    82086    82046    82082    82175    82278 
   82340    82339    82312    82327    82428    82621    82860    83079 
   83254    83417    83602    83818    84061    84316    84576    84827 
   85033    85159    85186    85132    85032    84905    84775    84681 
   84646    84651    84657    84643    84624    84616    84607    84555 
   84427    84252    84098    83999    83918    83793    83592    83349 
   83126    82975    82885    82823    82783    82776    82796    82823 
   82853    82910    83002    83120    83234    83309    83376    83467 
   83560    83610    83579    83451    83261    83072    82945    82934 
   83058    83272    83485    83636    83731    83817    83925    84049 
   84199    84380    84542    84627    84635    84605    84572    84568 
   84607    84659    84684    84670    84653    84682    84774    84882 
   84955    84967    84915    84812    84685    84551    84426    84337 
   84295    84252    84140    83970    83814    83727    83720    83803 
   83982    84229    84492    84739    84987    85261    85537    85739 
   85804    85762    85699    85658    85634    85614    85621    85645 
   85622    85502    85264    84929    84574    84269    84038    83862 
   83705    83569    83471    83432    83451    83485    83462    83350 
   83193    83070    83026    83046    83108    83211    83346    83496 
   83651    83808    83967    84146    84345    84547    84738    84893 
   85000    85071    85125    85172    85209    85212    85163    85055 
   84885    84657    84369    84038    83713    83473    83384    83451 
   83614    83782    83899    83963    83980    83943    83856    83789 
   83794    83853    83913    83920    83870    83824    83852    83971 
   84161    84384    84596    84782    84943    85063    85153    85230 
   85279    85302    85317    85337    85361    85386    85413    85475 
   85583    85675    85704    85718    85779    85905    86078    86258 
   86398    86460    86401    86221    85977    85734    85530    85351 
   85176    85025    84915    84797    84631    84427    84211    83998 
   83772    83511    83224    82962    82741    82512    82240    81950 
   81697    81527    81442    81441    81542    81727    81916    82028 
   82055    82054    82051    82044    82031    82003    81955    81901 
   81851    81831    81891    82092    82433    82833    83187    83440 
   83609    83747    83884    83980    83983    83902    83786    83658 
   83527    83408    83312    83218    83074    82857    82601    82385 
   82254    82198    82212    82316    82512    82756    82989    83174 
   83311    83432    83544    83632    83710    83798    83872    83910 
   83941    84026    84163    84256    84219    84076    83925    83844 
