Origin Time       2024/04/02 04:24:00
Lat.              40.133
Long.             141.712
Depth. (km)       71
Mag.              6.0
Station Code      YMTH05
Station Lat.      37.9883
Station Long.     139.8017
Station Height(m) 173
Record Time       2024/04/02 04:25:19
Sampling Freq(Hz) 100Hz
Duration Time(s)  120
Dir.              3
Scale Factor      2940(gal)/6170270
Max. Acc. (gal)   0.225
Last Correction   2024/04/02 04:25:04
Memo.             
[...]
  133686   133702   133719   133734   133732   133717   133703   133705 
  133726   133757   133784   133809   133834   133846   133833   133807 
  133794   133798   133813   133827   133830   133819   133797   133776 
  133777   133798   133828   133863   133893   133910   133922   133934 
  133937   133925   133907   133900   133914   133933   133948   133969 
  133990   134001   134004   133999   133996   134006   134014   134011 
  134000   133975   133924   133866   133825   133814   133823   133824 
  133799   133758   133713   133667   133625   133614   133640   133676 
  133693   133692   133689   133684   133674   133667   133672   133694 
  133728   133762   133781   133788   133796   133806   133809   133818 
  133835   133850   133869   133881   133867   133844   133836   133839 
  133836   133826   133811   133799   133790   133774   133758   133751 
  133755   133777   133813   133839   133846   133838   133824   133823 
  133839   133849   133857   133866   133854   133838   133840   133855 
  133885   133927   133945   133927   133898   133871   133843   133816 
  133797   133801   133841   133893   133935   133968   133989   133997 
  133997   133990   133984   133992   134007   134014   134009   133988 
  133944   133885   133826   133777   133746   133739   133741   133735 
  133719   133694   133662   133623   133590   133580   133583   133580 
  133569   133564   133570   133581   133594   133621   133660   133699 
  133734   133761   133780   133792   133792   133801   133826   133852 
  133872   133883   133877   133870   133866   133854   133848   133858 
  133883   133916   133927   133900   133865   133837   133812   133793 
  133787   133789   133790   133783   133770   133757   133744   133723 
  133708   133713   133722   133725   133735   133745   133753   133769 
  133798   133833   133865   133886   133905   133929   133945   133951 
  133951   133941   133938   133945   133946   133944   133939   133924 
  133901   133876   133854   133839   133827   133821   133816   133806 
  133795   133786   133780   133785   133792   133783   133776   133793 
  133833   133885   133932   133961   133970   133949   133909   133884 
  133899   133936   133966   133981   133986   133977   133951   133927 
  133913   133895   133860   133824   133804   133796   133781   133756 
  133738   133728   133714   133705   133711   133721   133725   133730 
  133736   133735   133730   133729   133733   133743   133754   133765 
  133773   133773   133772   133782   133802   133825   133844   133843 
  133821   133794   133777   133770   133766   133767   133778   133795 
  133804   133797   133773   133745   133728   133731   133753   133785 
  133825   133872   133912   133923   133910   133894   133882   133871 
  133861   133860   133867   133868   133849   133817   133785   133759 
  133735   133715   133718   133751   133795   133831   133852   133856 
  133836   133799   133775   133788   133822   133850   133861   133866 
  133867   133849   133827   133833   133861   133890   133893   133868 
  133851   133857   133863   133868   133892   133920   133928   133921 
  133907   133893   133882   133867   133852   133844   133841   133845 
  133852   133852   133848   133837   133815   133794   133790   133797 
  133805   133816   133823   133828   133830   133816   133792   133778 
  133779   133784   133777   133764   133763   133776   133782   133772 
  133764   133773   133785   133792   133792   133791   133796   133803 
  133812   133824   133829   133819   133794   133767   133754   133755 
  133751   133750   133765   133777   133765   133732   133700   133690 
  133698   133707   133717   133741   133767   133775   133768   133765 
  133769   133775   133781   133799   133820   133830   133826   133815 
  133816   133842   133877   133894   133902   133907   133900   133891 
  133893   133902   133916   133935   133955   133966   133960   133938 
  133914   133900   133902   133914   133918   133910   133900   133884 
  133866   133861   133857   133844   133820   133781   133739   133712 
  133704   133721   133765   133798   133805   133805   133813   133829 
  133846   133859   133873   133882   133879   133883   133906   133919 
  133915   133905   133882   133853   133834   133816   133805   133808 
  133814   133824   133835   133830   133805   133772   133739   133710 
  133689   133689   133713   133749   133787   133805   133786   133759 
  133754   133758   133760   133771   133790   133800   133791   133779 
  133777   133780   133792   133808   133814   133813   133811   133809 
  133816   133831   133846   133859   133876   133899   133912   133907 
  133893   133879   133876   133883   133893   133907   133915   133911 
  133907   133906   133902   133886   133857   133836   133840   133857 
  133867   133861   133851   133845   133845   133849   133851   133853 
  133854   133839   133807   133781   133774   133780   133794   133805 
  133800   133784   133761   133741   133742   133755   133763   133766 
  133760   133745   133731   133721   133717   133716   133706   133704 
  133724   133748   133757   133744   133722   133708   133698   133686 
  133692   133722   133756   133787   133808   133803   133785   133776 
  133784   133808   133853   133905   133939   133952   133946   133926 
  133895   133860   133847   133861   133876   133887   133899   133895 
  133871   133854   133857   133869   133876   133875   133868   133853 
  133828   133798   133768   133737   133707   133693   133701   133710 
  133712   133709   133696   133680   133675   133682   133702   133722 
  133730   133728   133716   133699   133692   133710   133746   133774 
  133790   133806   133812   133794   133761   133740   133745   133770 
  133804   133847   133874   133858   133822   133794   133782   133791 
  133818   133860   133908   133931   133914   133882   133856   133841 
  133838   133848   133874   133900   133911   133906   133898   133891 
  133884   133874   133863   133854   133847   133837   133830   133840 
  133863   133894   133924   133937   133934   133926   133918   133916 
  133926   133942   133952   133954   133951   133950   133957   133970 
  133988   134006   134010   134003   133999   133994   133983   133975 
  133960   133934   133900   133867   133844   133836   133836   133833 
  133821   133808   133798   133791   133790   133793   133802   133817 
  133834   133852   133873   133895   133915   133935   133966   134007 
  134043   134074   134101   134103   134083   134064   134045   134024 
  134020   134022   134013   133994   133973   133948   133920   133894 
  133874   133874   133892   133904   133897   133869   133827   133779 
  133746   133741   133753   133774   133792   133794   133779   133746 
  133720   133721   133728   133729   133735   133737   133729   133717 
  133697   133678   133665   133649   133647   133659   133659   133642 
  133630   133633   133630   133616   133613   133630   133646   133650 
  133636   133611   133598   133604   133615   133617   133612   133601 
  133576   133535   133491   133462   133452   133453   133476   133510 
  133533   133551   133584   133632   133673   133695   133714   133737 
  133753   133759   133765   133785   133811   133828   133855   133905 
  133956   133985   133983   133963   133952   133945   133943   133957 
  133964   133935   133886   133845   133810   133767   133713   133660 
  133616   133583   133573   133590   133620   133650   133664   133674 
  133706   133739   133768   133815   133867   133908   133949   133988 
  134015   134029   134037   134053   134080   134101   134114   134130 
  134136   134124   134108   134094   134087   134086   134069   134040 
  134015   133972   133905   133840   133789   133750   133725   133711 
  133708   133700   133679   133665   133672   133688   133709   133748 
  133799   133853   133901   133926   133924   133916   133912   133913 
  133928   133956   133977   133990   133993   133983   133966   133947 
  133936   133936   133941   133949   133944   133924   133903   133888 
  133874   133860   133838   133800   133750   133691   133648   133644 
  133668   133699   133726   133742   133753   133767   133786   133808 
  133829   133846   133863   133886   133903   133899   133884   133867 
  133849   133836   133832   133832   133823   133799   133762   133729 
  133714   133719   133736   133755   133767   133770   133762   133747 
  133738   133745   133760   133763   133753   133745   133735   133716 
  133702   133710   133731   133738   133726   133712   133710   133713 
  133709   133706   133706   133705   133699   133704   133743   133801 
  133853   133893   133915   133927   133938   133948   133960   133970 
  133969   133950   133916   133875   133832   133785   133741   133712 
  133691   133662   133627   133612   133618   133619   133611   133604 
  133611   133627   133648   133692   133763   133831   133879   133911 
  133930   133946   133968   134007   134066   134128   134167   134177 
  134171   134160   134155   134156   134147   134119   134083   134037 
  133976   133909   133849   133798   133749   133698   133661   133634 
  133612   133600   133589   133570   133555   133558   133582   133622 
  133675   133728   133767   133782   133772   133761   133772   133811 
  133878   133954   134007   134026   134020   134010   134003   133996 
  133993   134001   134015   134003   133957   133906   133868   133837 
  133812   133795   133774   133748   133723   133704   133686   133663 
  133639   133630   133641   133669   133712   133746   133751   133735 
  133721   133713   133703   133705   133747   133812   133865   133902 
  133932   133940   133923   133896   133875   133877   133896   133909 
  133916   133917   133906   133887   133865   133843   133837   133847 
  133852   133855   133864   133867   133861   133858   133847   133827 
  133823   133833   133842   133848   133844   133829   133809   133787 
  133767   133758   133763   133771   133774   133775   133775   133777 
  133785   133792   133790   133776   133763   133763   133763   133755 
  133743   133735   133744   133772   133801   133822   133836   133842 
  133829   133803   133785   133794   133822   133851   133874   133890 
  133902   133906   133910   133928   133958   133974   133976   133981 
  133991   133989   133972   133961   133953   133938   133922   133913 
  133917   133933   133948   133955   133950   133932   133898   133871 
  133871   133882   133898   133922   133940   133941   133918   133887 
  133864   133855   133863   133877   133885   133882   133874   133868 
  133852   133817   133783   133755   133732   133717   133708   133702 
  133700   133696   133694   133689   133669   133648   133646   133651 
  133658   133679   133709   133728   133737   133749   133754   133744 
  133741   133752   133763   133766   133765   133764   133766   133752 
  133715   133689   133690   133691   133683   133685   133702   133721 
  133729   133727   133732   133745   133751   133743   133725   133712 
  133713   133728   133747   133757   133752   133740   133723   133710 
  133726   133766   133798   133814   133826   133849   133884   133911 
  133923   133934   133943   133931   133902   133887   133897   133917 
  133941   133965   133976   133970   133955   133945   133948   133956 
  133958   133952   133941   133917   133869   133801   133737   133699 
  133688   133683   133682   133690   133685   133656   133627   133612 
  133605   133612   133631   133660   133685   133692   133689   133691 
  133699   133707   133715   133732   133750   133764   133779   133789 
  133791   133792   133792   133795   133801   133802   133803   133821 
  133856   133894   133935   133979   134012   134033   134055   134066 
  134054   134031   133999   133961   133920   133885   133866   133858 
  133852   133854   133867   133881   133887   133889   133901   133922 
  133935   133928   133920   133931   133938   133920   133880   133825 
  133772   133745   133740   133737   133726   133705   133679   133653 
  133625   133604   133609   133637   133675   133721   133768   133804 
  133826   133835   133844   133866   133886   133897   133913   133931 
  133934   133919   133897   133883   133886   133902   133921   133933 
  133940   133949   133955   133950   133942   133941   133946   133961 
  133987   134011   134019   134010   133999   133995   133986   133978 
  133978   133968   133945   133927   133917   133911   133902   133892 
  133888   133887   133878   133860   133841   133832   133826   133809 
  133790   133775   133753   133716   133682   133666   133652   133635 
  133631   133632   133633   133637   133647   133676   133722   133753 
  133759   133750   133733   133711   133695   133692   133702   133711 
  133715   133715   133707   133699   133712   133739   133762   133785 
  133817   133852   133882   133914   133957   133998   134015   134002 
  133970   133927   133874   133826   133807   133809   133804   133792 
  133768   133723   133671   133636   133633   133657   133689   133728 
  133768   133803   133836   133869   133900   133932   133954   133963 
  133971   133972   133952   133928   133924   133921   133901   133884 
  133892   133914   133933   133942   133949   133963   133968   133955 
  133939   133931   133919   133898   133878   133863   133849   133827 
  133801   133780   133772   133771   133761   133724   133671   133619 
  133570   133526   133507   133509   133502   133480   133451   133414 
  133386   133371   133356   133349   133370   133413   133468   133525 
  133581   133630   133671   133715   133767   133822   133885   133953 
  134019   134078   134113   134127   134139   134150   134165   134186 
  134202   134209   134204   134183   134152   134113   134069   134039 
  134013   133981   133960   133953   133936   133907   133872   133845 
  133836   133834   133827   133823   133823   133811   133785   133761 
  133744   133734   133725   133703   133678   133670   133667   133652 
  133625   133592   133567   133565   133590   133641   133705   133758 
  133779   133766   133745   133739   133751   133771   133795   133821 
  133843   133852   133847   133836   133827   133819   133806   133794 
  133785   133776   133766   133750   133722   133702   133703   133718 
  133737   133748   133739   133722   133710   133699   133691   133705 
  133748   133804   133855   133897   133939   133985   134023   134052 
  134083   134116   134149   134180   134198   134204   134206   134197 
  134164   134117   134065   134008   133960   133937   133933   133925 
  133894   133852   133820   133795   133760   133718   133689   133674 
  133666   133662   133657   133661   133685   133704   133707   133714 
  133729   133736   133732   133719   133706   133712   133736   133771 
  133814   133845   133860   133867   133866   133858   133849   133851 
  133867   133887   133912   133950   133984   133996   133986   133972 
  133963   133960   133957   133952   133948   133946   133940   133937 
  133943   133942   133934   133921   133889   133849   133817   133780 
  133739   133709   133682   133660   133648   133642   133646   133660 
  133667   133658   133649   133653   133660   133658   133655   133662 
  133675   133689   133700   133719   133750   133783   133813   133844 
  133866   133869   133860   133860   133874   133893   133904   133905 
  133898   133890   133887   133891   133892   133879   133854   133821 
  133784   133765   133779   133807   133826   133826   133813   133796 
  133778   133765   133768   133786   133815   133843   133859   133868 
  133863   133843   133826   133833   133863   133901   133931   133952 
  133974   133980   133966   133956   133957   133961   133962   133953 
  133942   133933   133917   133904   133910   133924   133929   133920 
  133907   133893   133876   133856   133854   133872   133894   133915 
  133918   133898   133873   133858   133853   133858   133864   133863 
  133847   133828   133814   133798   133774   133741   133710   133694 
  133682   133668   133657   133645   133626   133610   133618   133644 
  133660   133678   133720   133760   133779   133791   133810   133835 
  133867   133901   133930   133948   133949   133947   133958   133974 
  133978   133961   133935   133904   133878   133861   133841   133817 
  133798   133785   133771   133751   133727   133716   133724   133740 
  133759   133769   133761   133748   133741   133738   133752   133781 
  133811   133838   133852   133837   133802   133771   133749   133724 
  133702   133694   133703   133717   133716   133695   133668   133647 
  133631   133618   133620   133630   133632   133636   133651   133664 
  133668   133672   133693   133731   133755   133749   133732   133719 
  133714   133721   133741   133763   133767   133745   133714   133691 
  133681   133692   133729   133781   133837   133873   133865   133833 
  133815   133808   133799   133799   133805   133805   133795   133776 
  133755   133744   133746   133749   133741   133726   133713   133691 
  133650   133619   133622   133637   133650   133659   133661   133655 
  133639   133622   133616   133623   133636   133656   133688   133729 
  133775   133822   133866   133893   133909   133932   133967   133989 
  133989   133989   133998   134009   134012   134002   134004   134013 
  133995   133968   133964   133971   133977   133990   133992   133975 
  133950   133915   133880   133870   133880   133883   133875   133863 
  133852   133854   133871   133894   133916   133931   133935   133928 
  133912   133914   133948   133981   133991   133996   133988   133959 
  133935   133930   133931   133934   133938   133935   133936   133936 
  133921   133907   133904   133886   133847   133807   133775   133750 
  133732   133723   133722   133719   133711   133715   133737   133757 
  133766   133764   133757   133767   133792   133811   133840   133896 
  133950   133977   133989   133995   134006   134028   134050   134068 
  134102   134142   134161   134155   134140   134126   134110   134082 
  134057   134056   134064   134052   134026   134011   134005   133987 
  133954   133922   133908   133905   133899   133898   133904   133894 
  133850   133799   133769   133755   133752   133763   133779   133798 
  133808   133797   133775   133763   133761   133759   133761   133766 
  133766   133760   133760   133777   133794   133791   133786   133791 
  133792   133779   133757   133733   133723   133727   133736   133743 
  133747   133752   133768   133790   133807   133815   133820   133826 
  133828   133819   133804   133802   133814   133816   133804   133789 
  133762   133727   133699   133682   133682   133686   133683   133675 
  133664   133657   133662   133667   133664   133662   133667   133678 
  133686   133683   133678   133676   133657   133626   133614   133630 
  133664   133709   133754   133781   133775   133744   133712   133703 
  133713   133723   133725   133724   133718   133701   133680   133670 
  133667   133660   133648   133642   133637   133618   133594   133591 
  133607   133631   133660   133689   133712   133715   133700   133693 
  133718   133770   133825   133867   133879   133860   133828   133809 
  133802   133814   133853   133901   133935   133947   133938   133934 
  133952   133973   133990   134011   134023   134016   134004   133993 
