Origin Time       2024/04/02 04:24:00
Lat.              40.133
Long.             141.712
Depth. (km)       71
Mag.              6.0
Station Code      YMTH11
Station Lat.      38.7132
Station Long.     140.5544
Station Height(m) 253
Record Time       2024/04/02 04:25:28
Sampling Freq(Hz) 100Hz
Duration Time(s)  120
Dir.              5
Scale Factor      3920(gal)/6170801
Max. Acc. (gal)   2.125
Last Correction   2024/04/02 04:25:13
Memo.             
[...]
   12533    12417    12310    12169    11932    11718    11711    11809 
   11838    11843    11881    11927    11969    11983    11972    12018 
   12172    12382    12507    12497    12472    12460    12420    12416 
   12407    12315    12314    12505    12613    12423    12150    12075 
   12150    12214    12285    12381    12361    12246    12283    12516 
   12783    12995    13042    12822    12508    12329    12267    12211 
   12080    11898    11817    11859    11900    11920    11961    12040 
   12162    12236    12149    11989    11908    11894    11874    11882 
   11994    12185    12390    12599    12715    12682    12646    12650 
   12564    12426    12372    12377    12410    12531    12646    12597 
   12479    12428    12400    12393    12467    12566    12568    12421 
   12171    11824    11424    11253    11436    11693    11815    11858 
   11867    11851    11908    12159    12568    12950    13121    13032 
   12824    12720    12784    12823    12662    12444    12419    12581 
   12722    12684    12435    12073    11822    11803    11836    11776 
   11741    11743    11670    11565    11512    11571    11777    12072 
   12347    12445    12329    12234    12376    12730    13057    13110 
   12949    12829    12861    12931    12774    12284    11794    11644 
   11648    11483    11227    11076    11122    11440    11885    12117 
   12033    11882    11998    12368    12623    12600    12519    12531 
   12499    12283    11943    11598    11464    11791    12379    12739 
   12708    12423    12096    11875    11747    11682    11678    11618 
   11433    11279    11302    11473    11714    11935    12111    12311 
   12489    12555    12598    12727    12919    13106    13198    13108 
   12895    12719    12576    12356    12075    11801    11599    11566 
   11667    11770    11921    12160    12280    12208    12209    12391 
   12520    12476    12408    12423    12451    12417    12347    12240 
   12141    12209    12347    12265    12113    12249    12532    12626 
   12568    12537    12523    12480    12403    12266    12169    12267 
   12414    12287    11916    11700    11810    11996    12089    12161 
   12278    12442    12595    12636    12541    12362    12148    11959 
   11825    11696    11546    11426    11384    11447    11602    11809 
   12066    12291    12344    12272    12258    12328    12276    12090 
   12064    12269    12512    12655    12536    12145    11921    12137 
   12382    12346    12287    12377    12485    12573    12701    12787 
   12656    12389    12191    12027    11864    11885    12147    12451 
   12663    12816    12922    12942    12887    12756    12469    12041 
   11747    11760    11815    11673    11530    11654    11968    12209 
   12279    12182    11999    11993    12268    12624    12859    12878 
   12758    12682    12630    12490    12273    12001    11774    11775 
   11947    11999    11806    11618    11730    11986    12028    11888 
   11812    11857    12011    12163    12062    11866    12064    12562 
   12778    12611    12464    12472    12516    12630    12780    12829 
   12864    12917    12803    12519    12287    12255    12318    12242 
   12073    12026    12122    12276    12399    12373    12234    12171 
   12304    12496    12477    12278    12124    11997    11835    11679 
   11499    11353    11364    11503    11685    11849    11989    12192 
   12482    12694    12668    12523    12449    12409    12303    12174 
   12142    12253    12409    12482    12368    12133    12090    12326 
   12535    12516    12335    12142    12150    12398    12533    12333 
   12056    11874    11746    11734    11745    11642    11637    11844 
   12137    12445    12565    12424    12346    12396    12338    12196 
   12095    12065    12203    12485    12676    12615    12399    12234 
   12177    12129    12076    12126    12312    12493    12540    12484 
   12398    12308    12225    12124    12035    12077    12239    12371 
   12425    12467    12573    12742    12817    12658    12374    12184 
   12130    12067    11883    11624    11444    11461    11606    11727 
   11783    11837    11985    12247    12465    12470    12318    12178 
   12056    11894    11720    11561    11518    11683    11862    11889 
   11964    12211    12424    12523    12574    12500    12329    12273 
   12310    12259    12187    12244    12415    12585    12606    12459 
   12278    12149    12093    12052    11883    11644    11545    11598 
   11775    12103    12326    12230    12090    12063    11945    11777 
   11720    11718    11757    11902    12132    12319    12411    12522 
   12597    12503    12458    12583    12567    12305    12110    12155 
   12305    12401    12415    12320    12158    12130    12225    12182 
   11999    11901    11967    12082    12060    11873    11695    11649 
   11730    11912    12096    12106    11886    11597    11488    11656 
   11973    12297    12568    12756    12881    12984    13065    13143 
   13258    13432    13545    13390    13049    12848    12859    12906 
   12853    12624    12210    11747    11401    11192    11106    11236 
   11597    11977    12150    12146    12220    12548    12956    13154 
   13127    13036    12937    12800    12617    12364    12146    12182 
   12331    12274    12017    11733    11657    11934    12302    12464 
   12504    12614    12769    12764    12531    12305    12227    12117 
   11893    11684    11484    11308    11415    11834    12164    12258 
   12368    12468    12411    12447    12641    12638    12422    12224 
   12023    11803    11658    11642    11777    11956    12078    12181 
   12156    11983    12000    12202    12155    11926    11935    12056 
   11996    11954    12082    12170    12127    12012    11854    11755 
   11805    11859    11710    11464    11385    11556    11913    12244 
   12249    11984    11854    12035    12335    12515    12449    12199 
   12068    12213    12366    12262    12032    11972    12146    12368 
   12473    12417    12247    12126    12248    12510    12567    12403 
   12337    12452    12584    12642    12628    12624    12768    13058 
   13214    12954    12410    12030    11977    12003    11991    12015 
   12018    12073    12333    12520    12346    12115    12177    12367 
   12415    12331    12226    12126    12069    12107    12100    11982 
   12019    12302    12555    12596    12484    12374    12317    12258 
   12264    12366    12447    12610    12900    12925    12568    12211 
   12028    11990    12125    12349    12513    12579    12567    12469 
   12336    12343    12512    12615    12526    12347    12227    12236 
   12254    12101    11836    11682    11718    11874    12066    12155 
   12096    12094    12270    12479    12574    12529    12391    12236 
   12137    12135    12196    12235    12152    11931    11775    11901 
   12176    12257    12058    11859    11962    12272    12423    12294 
   12036    11841    11876    12063    12036    11680    11333    11148 
   10921    10663    10563    10568    10578    10719    11028    11308 
   11514    11763    11986    12094    12213    12416    12572    12569 
   12452    12374    12477    12723    12892    12831    12639    12555 
   12575    12472    12265    12225    12505    12966    13307    13369 
   13246    13160    13272    13431    13335    13001    12694    12581 
   12642    12729    12807    12944    12989    12823    12653    12621 
   12670    12774    12886    12981    13026    12871    12572    12374 
   12275    12183    12162    12155    12039    11941    12041    12286 
   12418    12257    11991    11891    11948    12085    12226    12234 
   12109    11905    11584    11177    10831    10732    10931    11196 
   11351    11431    11403    11340    11462    11652    11607    11483 
   11578    11756    11867    11956    11918    11733    11560    11367 
   11116    10945    10875    10876    10979    11041    10958    10833 
   10680    10533    10554    10709    10871    11041    11184    11254 
   11352    11519    11634    11685    11765    11834    11839    11886 
   12040    12233    12491    12854    13093    13054    12941    12937 
   13033    13192    13385    13638    13931    14084    14104    14213 
   14371    14392    14284    14173    14267    14634    14956    14947 
   14630    14113    13655    13568    13703    13675    13571    13630 
   13674    13568    13488    13464    13429    13443    13534    13589 
   13490    13334    13277    13266    13167    12977    12768    12623 
   12625    12698    12675    12556    12459    12424    12443    12504 
   12524    12371    12149    12145    12282    12188    11861    11645 
   11641    11597    11346    11099    11132    11341    11390    11177 
   10856    10628    10656    10841    10864    10682    10588    10743 
   10945    10881    10551    10302    10410    10796    11155    11310 
   11401    11548    11569    11431    11402    11485    11492    11435 
   11287    11010    10788    10660    10448    10152    10006    10131 
   10307    10365    10540    10975    11467    11951    12425    12646 
   12616    12636    12672    12555    12445    12379    12125    11732 
   11463    11381    11424    11587    11800    11924    11961    11987 
   11946    11779    11625    11712    12015    12298    12547    12879 
   13141    13125    12963    12904    12954    13090    13307    13394 
   13324    13423    13706    13863    13881    13972    14137    14269 
   14364    14344    14123    13874    13765    13730    13693    13648 
   13595    13565    13623    13792    14040    14272    14298    14069 
   13820    13675    13460    13181    13047    12929    12580    12142 
   11852    11790    11960    12176    12252    12274    12338    12461 
   12701    13029    13314    13489    13509    13347    13137    12982 
   12779    12456    12087    11791    11600    11374    11058    10837 
   10816    10925    11057    11046    10765    10335    10037     9996 
   10195    10577    10856    10821    10720    10736    10665    10415 
   10125     9834     9535     9373     9423     9534     9569     9598 
    9840    10317    10805    11177    11298    11099    10925    11056 
   11392    11804    12146    12283    12310    12382    12481    12512 
   12493    12572    12718    12677    12472    12424    12544    12591 
   12507    12353    12243    12300    12445    12525    12576    12763 
   13112    13345    13158    12645    12338    12575    12977    13119 
   13127    13191    13299    13372    13325    13185    13143    13402 
   13838    14009    13823    13744    13946    14084    14030    13960 
   13907    13767    13487    13107    12792    12733    12879    12952 
   12863    12790    12824    12940    13148    13309    13159    12715 
   12356    12317    12356    12303    12401    12738    12980    12881 
   12540    12209    12158    12467    12789    12650    12057    11550 
   11582    12044    12502    12729    12790    12723    12431    11961 
   11435    10860    10394    10178    10021     9844     9836     9981 
   10096    10123    10104    10143    10285    10449    10631    10861 
   10999    10977    10965    11054    11165    11256    11311    11439 
   11825    12240    12232    11835    11463    11371    11522    11682 
   11687    11621    11655    11852    12042    11995    11804    11800 
   12012    12115    11928    11529    11132    11014    11059    10886 
   10697    10896    11333    11736    12082    12294    12279    12189 
   12224    12351    12529    12769    12869    12713    12527    12471 
   12441    12370    12320    12283    12209    12098    12027    12197 
   12673    13197    13455    13435    13511    13963    14443    14527 
   14357    14251    14313    14527    14758    14785    14561    14287 
   14157    14100    13914    13659    13555    13641    13824    13961 
   13905    13792    13864    13826    13314    12739    12565    12635 
   12831    13171    13355    13236    13028    12833    12703    12816 
   13215    13603    13514    12878    12150    11629    11246    11076 
   11264    11570    11744    11883    11935    11754    11679    12022 
   12389    12307    11958    11777    11776    11698    11608    11678 
   11734    11703    11802    11872    11588    11200    11112    11253 
   11320    11268    11296    11372    11344    11374    11586    11739 
   11665    11470    11255    11142    11321    11704    11961    11848 
   11340    10614     9975     9789    10155    10632    10825    10889 
   10981    10903    10632    10389    10109     9805     9969    10785 
   11782    12492    12714    12407    11843    11505    11639    12081 
   12515    12773    12788    12467    11933    11545    11422    11425 
   11521    11616    11564    11521    11624    11662    11446    11039 
   10710    10842    11474    12018    11989    11700    11638    11776 
   11914    12071    12302    12581    12892    13179    13323    13332 
   13400    13594    13704    13629    13539    13539    13515    13330 
   13050    12876    12883    13057    13404    13851    14118    13980 
   13676    13512    13487    13633    13940    14181    14264    14311 
   14381    14356    14124    13836    13733    13765    13726    13670 
   13838    14159    14263    14089    13925    13921    13977    13824 
   13248    12477    11952    11781    11849    12063    12215    12153 
   11864    11241    10440     9964     9986    10292    10647    10885 
   10968    10945    10796    10392     9654     8950     8866     9286 
    9628     9871    10312    10837    11142    11204    11204    11342 
   11728    12193    12306    11878    11301    11063    11145    11288 
   11449    11678    11929    12096    12029    11762    11587    11663 
   11876    12080    12246    12414    12465    12238    11907    11770 
   11882    12080    12200    12296    12495    12767    13020    13072 
   12756    12308    12166    12421    12738    12846    12894    13086 
   13252    13197    12956    12575    12200    12056    12085    12050 
   11882    11809    12160    12841    13418    13677    13622    13340 
   13092    13116    13271    13287    13195    13154    13189    13268 
   13378    13415    13158    12572    11941    11606    11742    12220 
   12687    12908    12900    12795    12747    12869    13101    13243 
   13249    13315    13577    13912    14122    14094    13797    13469 
   13399    13412    13147    12600    12027    11664    11557    11535 
   11472    11394    11301    11122    10833    10615    10704    11000 
   11250    11444    11687    12048    12504    12747    12502    12027 
   11719    11612    11590    11594    11629    11672    11625    11473 
   11237    10957    10865    11110    11495    11801    11897    11691 
   11267    10862    10800    11222    11826    12324    12687    12758 
   12432    11977    11717    11829    12283    12718    12832    12766 
   12710    12587    12348    12188    12175    11966    11385    10835 
   10616    10658    10924    11270    11418    11394    11431    11620 
   11914    12236    12456    12394    12085    11805    11723    11831 
   12051    12230    12310    12505    12977    13341    13127    12630 
   12511    12785    13082    13372    13577    13455    13152    12816 
   12381    12083    12164    12401    12532    12578    12576    12464 
   12271    12132    12097    12037    11878    11803    11942    12199 
   12472    12647    12594    12459    12464    12458    12243    12009 
   11937    11898    11775    11625    11598    11800    12046    12041 
   11907    11991    12298    12678    12997    13038    12996    13321 
   13812    13865    13387    12870    12791    13034    13129    12874 
   12372    11989    12142    12650    12941    12849    12684    12812 
   13167    13318    13134    12795    12386    11955    11719    11873 
   12239    12421    12207    11693    11180    10922    10959    11064 
   10932    10724    10934    11546    12074    12291    12378    12566 
   12886    13206    13293    12970    12423    11955    11564    11132 
   10748    10608    10612    10446    10201    10168    10235    10257 
   10408    10628    10623    10535    10575    10563    10575    10846 
   11080    11001    10913    11178    11762    12335    12609    12578 
   12471    12590    12955    13206    13191    13102    13058    13146 
   13301    13182    12746    12402    12405    12599    12750    12925 
   13239    13451    13300    12890    12546    12487    12681    12948 
   13120    13275    13610    13944    13924    13640    13521    13797 
   14330    14751    14628    13877    13116    13033    13494    13885 
   13870    13340    12542    12070    12102    12359    12602    12656 
   12537    12490    12617    12752    12760    12682    12449    11826 
   10938    10394    10575    11084    11268    11048    10809    10774 
   10906    11089    11157    11112    11317    11911    12342    12197 
   11828    11652    11605    11547    11511    11599    11867    12097 
   12015    11841    11788    11641    11494    11591    11623    11454 
   11511    11898    12261    12419    12358    12076    11863    12088 
   12555    12799    12678    12258    11682    11239    11149    11384 
   11742    11949    11845    11554    11303    11218    11264    11276 
   11301    11475    11519    11239    11125    11479    11889    12124 
   12270    12296    12276    12274    12224    12241    12388    12575 
   12865    13155    13076    12620    12171    11886    11693    11672 
   11857    12035    12153    12334    12532    12718    12941    13131 
   13238    13335    13455    13551    13599    13559    13316    12985 
   12843    12915    13083    13264    13361    13361    13211    12805 
   12388    12382    12852    13509    13845    13588    13201    13216 
   13424    13444    13362    13292    13247    13417    13729    13921 
   14040    14054    13832    13423    12862    12366    12246    12334 
   12198    11663    11009    10697    10817    11162    11491    11550 
   11398    11326    11367    11462    11773    12346    12805    12732 
   12194    11678    11505    11554    11705    12068    12603    12968 
   12899    12544    12236    12060    11972    11833    11362    10781 
   10624    10677    10458    10149    10028     9868     9500     9210 
    9274     9622    10007    10111     9806     9430     9375     9749 
   10494    11242    11562    11629    11988    12799    13570    13679 
   13309    13171    13306    13322    13239    13135    12828    12344 
   12035    12061    12169    12226    12339    12335    12036    11623 
   11193    10876    11073    11783    12543    13027    13128    12948 
   12774    12695    12628    12600    12600    12539    12465    12453 
   12425    12301    12175    12146    12104    11995    12003    12074 
   12021    12094    12535    13097    13501    13706    13778    13857 
   13902    13563    12820    12295    12433    12891    13019    12578 
   11969    11763    11991    12287    12470    12562    12600    12487 
   12166    12043    12499    13176    13570    13668    13564    13301 
   13111    13005    12721    12408    12289    12130    11895    11862 
   11981    12017    11917    11775    11743    11911    12208    12469 
   12572    12618    12817    12970    12733    12308    11958    11655 
