Origin Time       2024/04/02 04:24:00
Lat.              40.133
Long.             141.712
Depth. (km)       71
Mag.              6.0
Station Code      YMTH13
Station Lat.      38.4704
Station Long.     139.7606
Station Height(m) 161
Record Time       2024/04/02 04:25:14
Sampling Freq(Hz) 100Hz
Duration Time(s)  120
Dir.              2
Scale Factor      2942(gal)/8224139
Max. Acc. (gal)   0.385
Last Correction   2024/04/02 04:25:14
Memo.             
[...]
   13235    13224    13204    13177    13135    13095    13068    13045 
   13018    12982    12938    12895    12869    12868    12888    12922 
   12966    13003    13022    13031    13050    13076    13096    13100 
   13088    13053    13004    12962    12920    12885    12874    12885 
   12899    12923    12961    12996    13024    13054    13081    13093 
   13086    13076    13073    13070    13081    13109    13138    13178 
   13236    13294    13339    13373    13396    13405    13392    13359 
   13325    13297    13266    13234    13207    13186    13180    13184 
   13188    13184    13169    13144    13120    13099    13084    13084 
   13096    13116    13142    13169    13192    13212    13231    13246 
   13248    13234    13211    13181    13150    13134    13135    13139 
   13138    13135    13134    13131    13122    13112    13103    13095 
   13088    13095    13128    13173    13198    13184    13138    13080 
   13023    12988    12976    12974    12992    13023    13047    13061 
   13065    13053    13035    13023    13011    13004    13000    12991 
   12977    12964    12966    12987    13016    13041    13055    13068 
   13070    13063    13065    13070    13072    13072    13066    13061 
   13058    13058    13059    13065    13078    13095    13096    13082 
   13066    13049    13036    13035    13034    13035    13030    13012 
   13003    13014    13023    13026    13032    13031    13019    13024 
   13054    13086    13111    13130    13140    13144    13147    13153 
   13165    13184    13205    13230    13252    13262    13261    13252 
   13238    13211    13169    13139    13139    13162    13201    13258 
   13320    13373    13409    13432    13440    13436    13424    13405 
   13374    13335    13302    13275    13252    13236    13219    13196 
   13174    13174    13197    13220    13234    13236    13223    13198 
   13173    13150    13135    13123    13111    13103    13095    13073 
   13041    13007    12969    12923    12881    12843    12808    12788 
   12780    12762    12733    12698    12664    12650    12664    12687 
   12696    12688    12676    12671    12683    12725    12791    12872 
   12946    12997    13022    13019    13001    12982    12972    12984 
   13011    13046    13099    13161    13211    13240    13251    13261 
   13273    13290    13320    13356    13385    13405    13417    13425 
   13439    13463    13495    13525    13539    13536    13533    13540 
   13556    13585    13621    13639    13624    13585    13524    13456 
   13396    13348    13305    13252    13193    13134    13072    13007 
   12950    12906    12845    12766    12700    12656    12625    12596 
   12576    12576    12598    12633    12669    12698    12725    12760 
   12789    12816    12856    12899    12933    12960    12977    12988 
   12992    12991    12992    13003    13024    13051    13072    13082 
   13089    13103    13136    13189    13257    13324    13370    13385 
   13378    13355    13325    13297    13270    13247    13224    13192 
   13161    13150    13159    13180    13208    13240    13255    13242 
   13203    13157    13122    13104    13093    13078    13061    13039 
   13014    12999    13004    13035    13082    13126    13153    13165 
   13167    13163    13159    13169    13193    13227    13262    13284 
   13282    13266    13242    13223    13209    13190    13166    13139 
   13124    13135    13155    13170    13177    13177    13178    13177 
   13169    13158    13147    13140    13131    13119    13112    13109 
   13104    13096    13092    13092    13081    13069    13069    13059 
   13027    12982    12934    12892    12862    12834    12810    12799 
   12800    12796    12777    12754    12735    12725    12735    12762 
   12785    12812    12845    12874    12903    12939    12978    13008 
   13030    13053    13074    13090    13109    13131    13136    13128 
   13128    13146    13167    13180    13181    13171    13155    13146 
   13150    13167    13194    13219    13235    13239    13234    13231 
   13228    13215    13192    13173    13154    13140    13154    13189 
   13228    13266    13286    13274    13244    13211    13182    13176 
   13198    13232    13259    13270    13275    13296    13328    13348 
   13344    13324    13292    13243    13194    13166    13142    13109 
   13086    13074    13073    13096    13124    13144    13159    13169 
   13170    13169    13167    13165    13159    13151    13150    13158 
   13166    13169    13174    13190    13224    13266    13302    13332 
   13352    13346    13309    13258    13213    13186    13186    13203 
   13200    13176    13149    13127    13111    13093    13069    13042 
   13019    13001    12992    12987    12988    12993    13000    13003 
   12991    12961    12946    12962    12985    12992    12995    13000 
   12996    12988    12985    12972    12943    12911    12870    12833 
   12812    12811    12823    12839    12854    12872    12881    12872 
   12865    12869    12869    12873    12889    12923    12968    13005 
   13031    13047    13058    13057    13032    13003    12991    13000 
   13031    13074    13115    13143    13149    13128    13111    13112 
   13119    13132    13155    13166    13161    13165    13188    13209 
   13221    13227    13231    13219    13181    13135    13107    13105 
   13127    13163    13197    13223    13247    13281    13317    13348 
   13374    13386    13381    13365    13348    13335    13329    13317 
   13294    13275    13263    13248    13242    13257    13290    13328 
   13362    13392    13404    13397    13389    13375    13356    13344 
   13325    13297    13277    13267    13262    13252    13239    13220 
   13189    13150    13113    13078    13032    12982    12939    12911 
   12889    12866    12843    12826    12822    12837    12854    12860 
   12857    12847    12846    12865    12893    12901    12892    12896 
   12910    12907    12893    12891    12901    12931    12984    13049 
   13119    13182    13230    13257    13270    13285    13300    13312 
   13328    13350    13375    13397    13410    13421    13435    13444 
   13451    13452    13450    13425    13377    13319    13263    13215 
   13173    13131    13093    13080    13085    13096    13105    13093 
   13043    12965    12901    12864    12823    12779    12756    12754 
   12761    12784    12826    12872    12916    12964    13001    13014 
   13007    13011    13041    13077    13101    13122    13131    13116 
   13093    13088    13099    13112    13127    13138    13132    13115 
   13096    13086    13082    13076    13077    13086    13085    13076 
   13059    13026    12985    12961    12960    12970    12980    12981 
   12968    12954    12954    12973    13009    13054    13096    13130 
   13159    13194    13235    13273    13302    13335    13369    13390 
   13389    13378    13366    13347    13331    13323    13316    13301 
   13285    13271    13254    13223    13178    13132    13096    13074 
   13076    13090    13099    13103    13101    13090    13063    13031 
   13005    13000    12993    12974    12958    12955    12955    12947 
   12942    12943    12945    12945    12947    12946    12941    12937 
   12947    12980    13023    13059    13078    13085    13088    13095 
   13100    13112    13128    13136    13127    13108    13082    13063 
   13062    13085    13138    13200    13242    13258    13250    13231 
   13215    13201    13196    13196    13197    13204    13203    13180 
   13151    13131    13128    13142    13166    13189    13221    13265 
   13304    13328    13329    13313    13297    13279    13246    13205 
   13171    13143    13119    13092    13059    13024    12988    12955 
   12943    12951    12968    12984    13004    13028    13050    13066 
   13082    13089    13080    13066    13059    13061    13068    13069 
   13046    13005    12977    12964    12947    12928    12928    12949 
   12973    12988    12992    13004    13035    13076    13103    13115 
   13120    13124    13131    13144    13153    13131    13080    13022 
   12965    12918    12883    12856    12831    12812    12796    12784 
   12779    12789    12819    12852    12877    12906    12946    12993 
   13034    13070    13116    13161    13180    13173    13143    13111 
   13097    13092    13090    13099    13120    13159    13217    13277 
   13320    13340    13335    13313    13288    13273    13275    13289 
   13317    13362    13408    13451    13505    13568    13633    13678 
   13694    13707    13724    13733    13744    13745    13718    13684 
   13657    13628    13593    13566    13547    13524    13493    13462 
   13436    13405    13375    13365    13363    13355    13342    13329 
   13323    13333    13352    13356    13348    13346    13332    13300 
   13257    13216    13193    13184    13159    13131    13112    13085 
   13051    13004    12939    12880    12845    12822    12806    12789 
   12773    12761    12762    12779    12808    12842    12870    12885 
   12892    12896    12885    12857    12829    12804    12780    12756 
   12727    12699    12679    12650    12603    12560    12534    12517 
   12496    12487    12494    12511    12533    12555    12580    12617 
   12657    12695    12717    12718    12721    12744    12780    12816 
   12843    12860    12880    12912    12951    12995    13053    13120 
   13185    13248    13305    13362    13428    13509    13595    13671 
   13724    13757    13780    13802    13821    13829    13837    13845 
   13837    13795    13728    13663    13621    13591    13558    13527 
   13505    13481    13458    13451    13440    13405    13362    13319 
   13265    13211    13180    13169    13170    13170    13158    13140 
   13117    13084    13063    13065    13051    12995    12915    12834 
   12757    12695    12650    12613    12590    12582    12577    12580 
   12591    12594    12580    12575    12588    12595    12583    12569 
   12571    12602    12658    12718    12773    12829    12873    12904 
   12945    13004    13061    13107    13144    13170    13185    13205 
   13228    13246    13258    13273    13293    13317    13348    13377 
   13393    13400    13396    13378    13359    13343    13335    13336 
   13324    13294    13275    13278    13301    13338    13373    13409 
   13454    13494    13516    13520    13512    13495    13481    13467 
   13458    13464    13468    13444    13412    13381    13354    13340 
   13350    13374    13393    13392    13360    13294    13213    13147 
   13097    13054    13030    13027    13024    13016    12993    12946 
   12887    12835    12793    12758    12726    12690    12658    12631 
   12592    12552    12530    12538    12573    12629    12687    12733 
   12775    12823    12870    12911    12954    13005    13053    13082 
   13103    13124    13139    13142    13139    13128    13101    13061 
   13027    13019    13047    13088    13112    13126    13123    13111 
   13124    13167    13212    13235    13234    13219    13205    13207 
   13236    13266    13267    13259    13257    13254    13240    13217 
   13182    13120    13038    12965    12920    12910    12916    12926 
   12924    12901    12865    12841    12843    12873    12923    12965 
   12977    12972    12968    12989    13054    13157    13279    13393 
   13478    13531    13555    13560    13559    13543    13513    13485 
   13460    13440    13429    13436    13450    13462    13463    13451 
   13424    13371    13296    13221    13167    13124    13084    13036 
   12970    12892    12812    12731    12660    12603    12557    12525 
   12519    12540    12565    12583    12611    12658    12706    12739 
   12761    12780    12803    12829    12861    12900    12941    12992 
   13059    13124    13166    13186    13201    13217    13223    13204 
   13174    13155    13147    13155    13171    13176    13178    13182 
   13180    13182    13194    13209    13235    13273    13309    13340 
   13369    13396    13417    13433    13450    13463    13470    13466 
   13446    13417    13397    13382    13371    13374    13393    13414 
   13431    13446    13444    13412    13356    13300    13251    13221 
   13194    13155    13109    13062    12997    12918    12846    12788 
   12730    12677    12641    12607    12567    12534    12521    12519 
   12513    12490    12453    12418    12388    12356    12334    12345 
   12380    12420    12447    12472    12509    12545    12586    12631 
   12661    12672    12691    12718    12746    12779    12818    12856 
   12881    12888    12888    12893    12893    12884    12879    12869 
   12862    12872    12896    12931    12985    13049    13107    13169 
   13242    13325    13424    13520    13595    13662    13730    13802 
   13876    13953    14019    14071    14104    14119    14104    14053 
   13984    13911    13834    13764    13711    13680    13664    13660 
   13675    13718    13772    13826    13878    13917    13937    13944 
   13944    13940    13930    13910    13876    13836    13788    13738 
   13699    13667    13633    13603    13578    13547    13500    13428 
   13339    13239    13143    13070    13031    13014    13001    12987 
   12961    12930    12901    12869    12833    12800    12757    12688 
   12617    12568    12545    12541    12544    12523    12476    12420 
   12361    12305    12252    12205    12163    12131    12091    12048 
   12033    12067    12120    12172    12210    12228    12236    12256 
   12285    12316    12363    12430    12502    12582    12665    12752 
   12854    12962    13055    13138    13211    13273    13325    13363 
   13386    13410    13447    13501    13563    13606    13628    13636 
   13621    13594    13581    13582    13589    13605    13632    13664 
   13689    13693    13674    13630    13574    13520    13475    13444 
   13425    13408    13393    13378    13346    13313    13311    13323 
   13324    13305    13258    13192    13126    13081    13073    13105 
   13167    13230    13257    13255    13257    13270    13293    13324 
   13346    13332    13284    13239    13225    13224    13207    13167 
   13123    13086    13051    13018    13003    13000    12991    12978 
   12969    12958    12960    12980    13004    13027    13042    13045 
   13045    13055    13082    13124    13159    13173    13184    13193 
   13180    13143    13097    13068    13053    13035    13011    12992 
   12980    12972    12970    12980    12996    13014    13028    13028 
   13008    12978    12960    12950    12954    12970    12987    13004 
   13022    13042    13068    13086    13101    13115    13124    13112 
   13085    13063    13054    13042    13019    12984    12946    12910 
   12862    12799    12741    12696    12650    12611    12592    12587 
   12592    12621    12649    12650    12645    12654    12679    12714 
   12758    12804    12833    12845    12852    12853    12854    12857 
   12868    12892    12920    12939    12955    12966    12980    13015 
   13076    13135    13178    13203    13207    13203    13215    13246 
   13274    13296    13306    13293    13271    13254    13231    13209 
   13201    13201    13204    13213    13246    13300    13347    13373 
   13402    13444    13487    13532    13570    13598    13625    13645 
   13652    13649    13645    13636    13622    13618    13610    13587 
   13555    13529    13516    13513    13517    13520    13522    13521 
   13510    13500    13487    13454    13401    13358    13336    13324 
   13319    13327    13329    13319    13317    13333    13351    13360 
   13369    13369    13351    13323    13300    13292    13289    13279 
   13255    13215    13162    13104    13047    13003    12969    12934 
   12896    12860    12825    12793    12765    12729    12694    12680 
   12681    12684    12676    12657    12640    12623    12598    12567 
   12550    12560    12584    12613    12638    12654    12665    12684 
   12703    12711    12707    12692    12679    12685    12699    12708 
   12717    12730    12746    12754    12761    12775    12798    12826 
   12852    12874    12897    12922    12943    12966    13000    13046 
   13111    13181    13235    13282    13329    13381    13435    13494 
   13548    13582    13589    13581    13556    13528    13508    13493 
   13471    13451    13440    13432    13420    13408    13400    13379 
   13343    13296    13250    13208    13181    13176    13184    13196 
   13205    13198    13182    13178    13198    13240    13292    13338 
   13375    13397    13406    13417    13429    13440    13450    13446 
   13429    13405    13370    13332    13321    13328    13324    13306 
   13278    13235    13190    13157    13132    13119    13111    13092 
   13057    13019    12987    12965    12950    12934    12922    12918 
   12914    12901    12883    12865    12857    12838    12796    12750 
   12715    12687    12667    12672    12704    12748    12789    12831 
   12866    12888    12895    12895    12895    12900    12916    12923 
   12907    12885    12872    12869    12879    12896    12912    12920 
   12919    12920    12931    12950    12980    13030    13104    13188 
   13254    13300    13325    13319    13302    13297    13282    13263 
   13265    13273    13275    13277    13293    13325    13360    13398 
   13432    13444    13429    13402    13374    13348    13338    13355 
   13383    13392    13375    13350    13316    13286    13267    13251 
   13236    13231    13227    13212    13203    13203    13203    13196 
   13174    13143    13108    13069    13026    12976    12933    12923 
   12931    12934    12937    12945    12949    12937    12904    12865 
   12838    12829    12834    12846    12856    12868    12884    12889 
   12883    12885    12897    12906    12912    12918    12923    12937 
   12970    13026    13082    13119    13142    13173    13216    13261 
   13306    13356    13396    13424    13452    13489    13521    13544 
   13564    13585    13597    13605    13617    13632    13649    13672 
   13683    13679    13676    13675    13664    13655    13652    13644 
   13621    13585    13544    13494    13427    13359    13302    13251 
   13200    13143    13081    13014    12942    12887    12853    12830 
   12812    12793    12761    12723    12687    12664    12665    12685 
   12717    12748    12769    12785    12795    12802    12815    12822 
   12811    12792    12768    12733    12684    12627    12582    12556 
   12553    12563    12575    12595    12627    12665    12706    12742 
   12768    12783    12799    12829    12864    12893    12931    12987 
   13046    13105    13169    13223    13261    13284    13293    13296 
   13302    13328    13382    13443    13486    13520    13547    13549 
   13532    13509    13483    13463    13451    13428    13390    13350 
   13317    13293    13275    13267    13267    13275    13281    13278 
   13265    13235    13196    13166    13130    13070    13005    12960 
   12935    12915    12895    12881    12861    12826    12788    12762 
   12762    12781    12815    12858    12899    12934    12964    12977 
   12985    13000    13018    13022    13016    13024    13047    13063 
   13074    13096    13119    13126    13126    13117    13097    13073 
