Origin Time       2024/04/02 04:24:00
Lat.              40.133
Long.             141.712
Depth. (km)       71
Mag.              6.0
Station Code      YMTH13
Station Lat.      38.4704
Station Long.     139.7606
Station Height(m) 265
Record Time       2024/04/02 04:25:14
Sampling Freq(Hz) 100Hz
Duration Time(s)  120
Dir.              4
Scale Factor      7845(gal)/8223790
Max. Acc. (gal)   0.446
Last Correction   2024/04/02 04:25:14
Memo.             
[...]
    4436     4436     4391     4313     4264     4290     4360     4401 
    4382     4325     4247     4176     4158     4182     4228     4303 
    4383     4410     4395     4386     4384     4372     4369     4398 
    4445     4491     4510     4488     4446     4402     4367     4345 
    4341     4378     4440     4471     4465     4449     4429     4429 
    4461     4502     4529     4536     4541     4554     4545     4514 
    4499     4531     4583     4575     4496     4426     4413     4436 
    4457     4450     4430     4413     4383     4337     4286     4241 
    4240     4286     4314     4280     4230     4220     4233     4245 
    4282     4359     4464     4540     4517     4411     4324     4306 
    4326     4340     4342     4345     4341     4321     4282     4239 
    4237     4309     4411     4476     4457     4367     4266     4205 
    4201     4244     4286     4306     4332     4364     4376     4352 
    4301     4251     4220     4202     4205     4220     4232     4243 
    4257     4279     4290     4278     4276     4317     4369     4403 
    4425     4449     4471     4469     4440     4419     4436     4456 
    4442     4422     4423     4411     4367     4329     4324     4337 
    4364     4398     4417     4410     4394     4399     4421     4450 
    4499     4561     4621     4656     4653     4627     4606     4600 
    4592     4571     4558     4572     4571     4518     4444     4392 
    4368     4330     4268     4214     4187     4185     4210     4248 
    4272     4286     4302     4309     4275     4199     4140     4122 
    4116     4101     4064     4025     4035     4095     4148     4170 
    4170     4158     4153     4189     4239     4259     4276     4324 
    4345     4324     4317     4341     4374     4405     4417     4394 
    4356     4332     4320     4322     4344     4368     4386     4415 
    4450     4463     4445     4417     4407     4438     4503     4564 
    4567     4542     4541     4541     4536     4546     4558     4568 
    4596     4619     4588     4500     4398     4330     4325     4353 
    4369     4359     4348     4357     4376     4386     4382     4379 
    4410     4475     4526     4519     4460     4417     4419     4425 
    4422     4434     4459     4472     4448     4386     4315     4271 
    4266     4290     4332     4371     4365     4313     4271     4260 
    4256     4252     4251     4261     4274     4267     4244     4209 
    4174     4179     4226     4275     4320     4357     4378     4380 
    4379     4383     4395     4399     4386     4363     4336     4303 
    4282     4297     4330     4332     4291     4221     4151     4125 
    4145     4171     4187     4216     4267     4318     4340     4351 
    4376     4415     4449     4453     4450     4502     4595     4653 
    4635     4595     4585     4590     4567     4518     4467     4441 
    4441     4450     4460     4479     4500     4526     4546     4540 
    4496     4436     4402     4396     4371     4330     4302     4288 
    4298     4329     4356     4371     4382     4390     4390     4375 
    4340     4286     4232     4202     4187     4178     4190     4224 
    4272     4306     4293     4253     4252     4315     4396     4432 
    4409     4359     4313     4283     4256     4220     4213     4261 
    4320     4348     4337     4318     4332     4375     4407     4415 
    4406     4402     4419     4426     4387     4325     4318     4387 
    4464     4479     4441     4419     4441     4444     4380     4301 
    4267     4297     4364     4399     4380     4360     4365     4369 
    4351     4314     4297     4309     4340     4383     4415     4426 
    4430     4434     4449     4469     4469     4461     4463     4452 
    4413     4363     4355     4413     4495     4557     4584     4569 
    4510     4419     4333     4284     4275     4287     4299     4278 
    4224     4171     4136     4145     4199     4261     4322     4387 
    4432     4432     4388     4349     4351     4372     4392     4402 
    4399     4376     4333     4297     4283     4283     4315     4392 
    4471     4496     4438     4336     4272     4261     4266     4275 
    4303     4384     4514     4619     4649     4611     4518     4391 
    4288     4252     4264     4293     4328     4340     4293     4205 
    4143     4148     4199     4241     4271     4317     4356     4345 
    4286     4233     4233     4256     4268     4283     4303     4313 
    4311     4303     4294     4303     4347     4413     4486     4550 
    4583     4580     4585     4595     4552     4465     4390     4360 
    4369     4387     4406     4430     4437     4425     4426     4449 
    4483     4519     4534     4519     4475     4387     4274     4191 
    4172     4203     4267     4341     4371     4333     4271     4224 
    4193     4197     4249     4333     4410     4436     4403     4337 
    4276     4270     4338     4459     4569     4621     4626     4638 
    4652     4633     4591     4573     4585     4569     4488     4382 
    4305     4272     4274     4283     4280     4245     4187     4152 
    4141     4145     4213     4351     4483     4542     4503     4391 
    4284     4261     4336     4442     4504     4492     4419     4338 
    4302     4303     4306     4313     4347     4387     4372     4311 
    4288     4342     4428     4492     4522     4530     4526     4503 
    4456     4376     4307     4302     4326     4337     4359     4391 
    4394     4355     4295     4264     4295     4383     4471     4500 
    4476     4445     4426     4425     4442     4468     4492     4499 
    4477     4448     4428     4426     4436     4425     4379     4318 
    4283     4298     4340     4364     4363     4337     4294     4255 
    4234     4237     4259     4280     4278     4234     4186     4185 
    4232     4278     4293     4290     4291     4303     4322     4328 
    4310     4298     4311     4315     4290     4266     4291     4367 
    4423     4407     4367     4347     4324     4283     4237     4217 
    4244     4291     4317     4322     4351     4407     4432     4383 
    4305     4228     4158     4117     4131     4183     4233     4257 
    4253     4224     4207     4270     4392     4499     4569     4610 
    4595     4518     4413     4324     4282     4288     4321     4347 
    4351     4333     4274     4182     4125     4170     4301     4428 
    4477     4448     4387     4351     4357     4374     4390     4430 
    4491     4541     4546     4494     4411     4334     4303     4333 
    4384     4413     4414     4409     4391     4368     4368     4402 
    4440     4465     4471     4448     4395     4332     4298     4329 
    4371     4363     4320     4276     4261     4305     4390     4465 
    4469     4394     4311     4298     4369     4496     4608     4665 
    4665     4606     4514     4438     4415     4446     4506     4544 
    4521     4438     4364     4355     4391     4429     4453     4453 
    4418     4355     4290     4249     4252     4295     4352     4387 
    4374     4291     4178     4121     4152     4228     4284     4303 
    4313     4325     4310     4280     4272     4309     4414     4542 
    4594     4527     4399     4295     4243     4220     4212     4220 
    4271     4376     4472     4522     4538     4536     4521     4482 
    4430     4414     4425     4434     4460     4499     4513     4482 
    4425     4360     4266     4156     4095     4112     4183     4280 
    4360     4391     4374     4330     4301     4320     4388     4490 
    4587     4648     4646     4579     4492     4441     4432     4438 
    4425     4391     4380     4403     4414     4376     4305     4243 
    4210     4201     4239     4324     4417     4499     4550     4540 
    4486     4449     4477     4561     4641     4665     4607     4477 
    4344     4260     4224     4206     4198     4221     4279     4336 
    4374     4382     4332     4239     4166     4164     4230     4301 
    4326     4322     4342     4411     4491     4503     4437     4355 
    4305     4280     4293     4359     4437     4464     4450     4426 
    4379     4320     4297     4344     4445     4526     4525     4440 
    4293     4136     4036     4016     4047     4099     4149     4182 
    4185     4171     4175     4225     4330     4471     4592     4638 
    4598     4517     4436     4374     4348     4336     4320     4332 
    4386     4433     4456     4461     4446     4398     4336     4305 
    4329     4379     4423     4432     4407     4382     4353     4313 
    4280     4261     4253     4268     4295     4314     4337     4372 
    4396     4382     4325     4259     4216     4202     4191     4170 
    4162     4179     4193     4195     4217     4278     4337     4359 
    4344     4303     4255     4229     4230     4249     4286     4332 
    4392     4472     4513     4482     4436     4415     4406     4384 
    4369     4396     4453     4487     4472     4421     4359     4309 
    4283     4299     4379     4495     4581     4583     4504     4394 
    4287     4216     4230     4334     4456     4513     4482     4398 
    4324     4317     4387     4480     4577     4668     4681     4595 
    4492     4455     4473     4480     4446     4418     4429     4459 
    4450     4365     4259     4229     4286     4349     4356     4345 
    4386     4460     4482     4410     4313     4301     4378     4437 
    4415     4348     4302     4295     4287     4263     4256     4275 
    4305     4336     4348     4324     4286     4261     4259     4268 
    4286     4306     4329     4364     4395     4399     4384     4347 
    4284     4241     4259     4328     4382     4379     4376     4421 
    4457     4415     4298     4171     4112     4145     4243     4351 
    4433     4498     4548     4538     4461     4386     4384     4446 
    4499     4504     4480     4452     4433     4425     4433     4448 
    4413     4318     4256     4294     4383     4425     4398     4371 
    4374     4367     4341     4340     4399     4494     4563     4587 
    4564     4495     4418     4361     4336     4352     4396     4436 
    4453     4425     4338     4216     4094     4010     3987     4025 
    4104     4159     4136     4072     4051     4094     4163     4225 
    4284     4348     4391     4409     4396     4368     4353     4369 
    4407     4453     4511     4576     4614     4604     4568     4526 
    4515     4556     4604     4604     4550     4465     4391     4368 
    4413     4480     4500     4463     4411     4386     4403     4467 
    4527     4530     4469     4383     4311     4257     4213     4180 
    4167     4163     4143     4102     4086     4133     4230     4326 
    4367     4359     4352     4352     4334     4314     4326     4396 
    4496     4565     4580     4554     4495     4415     4340     4295 
    4295     4338     4411     4467     4463     4425     4383     4338 
    4307     4306     4324     4357     4419     4469     4436     4338 
    4244     4172     4153     4206     4257     4240     4189     4155 
    4139     4125     4128     4183     4261     4284     4245     4206 
    4206     4229     4234     4221     4222     4259     4328     4411 
    4490     4534     4525     4479     4428     4417     4476     4563 
    4607     4584     4494     4383     4324     4328     4369     4449 
    4544     4577     4498     4357     4261     4264     4337     4403 
    4407     4391     4405     4413     4398     4395     4417     4444 
    4455     4448     4449     4487     4558     4622     4638     4610 
    4576     4556     4513     4433     4384     4411     4461     4488 
    4479     4423     4353     4311     4287     4253     4199     4155 
    4185     4305     4436     4471     4406     4341     4321     4317 
    4294     4243     4206     4241     4322     4380     4387     4380 
    4403     4440     4436     4371     4280     4237     4268     4318 
    4336     4315     4291     4317     4368     4384     4375     4380 
    4394     4394     4395     4425     4449     4426     4369     4307 
    4256     4224     4206     4216     4266     4318     4324     4293 
    4268     4274     4297     4330     4384     4460     4511     4490 
    4426     4399     4401     4403     4441     4525     4611     4671 
    4693     4677     4646     4622     4600     4568     4537     4514 
    4475     4421     4415     4468     4517     4540     4557     4569 
    4525     4410     4313     4310     4380     4477     4542     4523 
    4445     4388     4386     4406     4402     4371     4341     4311 
    4263     4226     4252     4320     4361     4340     4259     4147 
    4056     4023     4052     4122     4190     4224     4209     4147 
    4066     3981     3919     3936     4035     4148     4212     4191 
    4101     4000     3946     3964     4027     4099     4178     4236 
    4224     4129     4005     3933     3963     4058     4174     4293 
    4391     4430     4402     4356     4348     4368     4391     4409 
    4430     4461     4472     4460     4471     4513     4565     4623 
    4683     4731     4746     4715     4668     4635     4603     4563 
    4541     4568     4633     4689     4704     4661     4565     4455 
    4363     4311     4326     4396     4479     4534     4541     4504 
    4460     4433     4446     4506     4594     4687     4742     4730 
    4671     4599     4583     4658     4766     4833     4803     4675 
    4514     4384     4299     4260     4275     4363     4475     4514 
    4449     4340     4249     4207     4203     4230     4291     4364 
    4396     4348     4237     4139     4097     4113     4172     4224 
    4234     4222     4190     4144     4114     4105     4109     4140 
    4183     4207     4225     4276     4334     4341     4286     4199 
    4126     4120     4172     4210     4205     4186     4172     4162 
    4162     4166     4149     4141     4193     4264     4287     4257 
    4201     4158     4171     4212     4220     4199     4220     4298 
    4376     4419     4438     4437     4433     4460     4496     4473 
    4383     4291     4260     4287     4333     4384     4452     4531 
    4572     4513     4375     4222     4124     4145     4272     4405 
    4459     4433     4384     4357     4337     4299     4291     4369 
    4525     4680     4757     4729     4642     4594     4611     4633 
    4629     4625     4631     4623     4560     4455     4374     4352 
    4380     4438     4477     4472     4437     4383     4322     4288 
    4303     4348     4372     4357     4344     4357     4374     4359 
    4307     4288     4345     4418     4438     4407     4399     4456 
    4510     4496     4453     4448     4487     4522     4503     4433 
    4363     4365     4444     4498     4480     4442     4417     4401 
    4383     4360     4342     4344     4357     4359     4317     4241 
    4171     4137     4152     4185     4198     4190     4174     4174 
    4205     4241     4268     4288     4310     4363     4432     4459 
    4428     4392     4411     4487     4557     4564     4506     4407 
    4311     4270     4298     4359     4403     4437     4464     4425 
    4299     4153     4082     4120     4222     4320     4360     4337 
    4290     4244     4191     4151     4153     4195     4271     4360 
    4417     4414     4375     4345     4341     4344     4355     4376 
    4401     4428     4432     4395     4351     4324     4332     4379 
    4438     4477     4476     4440     4406     4395     4409     4436 
    4471     4526     4603     4668     4693     4676     4629     4600 
    4615     4626     4576     4491     4434     4418     4395     4330 
    4256     4225     4261     4321     4326     4274     4233     4255 
    4301     4317     4310     4310     4311     4317     4326     4333 
    4338     4342     4356     4384     4398     4360     4274     4194 
    4198     4270     4309     4290     4283     4334     4386     4365 
    4306     4287     4332     4402     4440     4419     4353     4264 
    4190     4178     4226     4280     4311     4337     4356     4341 
    4301     4278     4286     4311     4351     4367     4332     4255 
    4174     4139     4183     4264     4307     4297     4282     4299 
    4325     4349     4388     4440     4487     4509     4494     4463 
    4444     4446     4461     4469     4457     4405     4315     4244 
    4221     4239     4263     4248     4172     4070     4006     4036 
    4129     4214     4280     4347     4374     4329     4268     4278 
    4360     4441     4475     4472     4461     4448     4418     4394 
    4421     4487     4553     4594     4596     4554     4495     4452 
    4452     4469     4480     4499     4549     4591     4552     4459 
    4418     4457     4509     4521     4491     4437     4384     4333 
    4301     4330     4428     4522     4540     4487     4430     4396 
    4374     4375     4406     4444     4468     4464     4438     4402 
    4365     4353     4374     4411     4459     4510     4548     4540 
    4464     4357     4272     4229     4237     4279     4311     4320 
    4297     4239     4168     4122     4116     4131     4153     4185 
    4221     4253     4280     4287     4256     4198     4164     4199 
    4272     4320     4345     4364     4352     4287     4189     4140 
    4197     4314     4422     4475     4449     4383     4336     4328 
    4351     4392     4452     4518     4561     4560     4498     4399 
    4326     4310     4318     4317     4299     4298     4348     4426 
    4479     4491     4479     4464     4450     4461     4504     4540 
    4550     4557     4558     4556     4540     4476     4394     4375 
    4423     4469     4471     4460     4472     4492     4475     4419 
    4372     4380     4429     4469     4484     4468     4438     4417 
    4403     4402     4425     4450     4455     4430     4372     4290 
    4217     4199     4237     4279     4294     4299     4298     4276 
    4237     4205     4205     4230     4280     4360     4426     4459 
    4460     4423     4351     4270     4220     4228     4268     4291 
    4283     4261     4232     4187     4140     4108     4093     4113 
    4176     4234     4257     4271     4283     4272     4252     4263 
    4318     4403     4490     4549     4557     4522     4472     4426 
    4402     4403     4403     4387     4349     4302     4290     4344 
    4444     4548     4610     4635     4642     4621     4565     4499 
    4463     4494     4560     4587     4568     4544     4531     4517 
    4482     4449     4459     4483     4468     4402     4328     4290 
    4298     4325     4356     4394     4446     4495     4504     4473 
    4429     4403     4396     4383     4361     4333     4301     4271 
    4234     4185     4152     4151     4164     4175     4178     4175 
    4168     4144     4105     4085     4108     4147     4162     4160 
    4163     4166     4191     4240     4268     4274     4291     4299 
    4247     4151     4097     4121     4185     4259     4322     4361 
    4392     4428     4445     4438     4428     4428     4421     4392 
    4357     4329     4307     4302     4315     4332     4330     4311 
