Origin Time       2024/04/02 04:24:00
Lat.              40.133
Long.             141.712
Depth. (km)       71
Mag.              6.0
Station Code      YMTH05
Station Lat.      37.9883
Station Long.     139.8017
Station Height(m) 173
Record Time       2024/04/02 04:25:19
Sampling Freq(Hz) 100Hz
Duration Time(s)  120
Dir.              2
Scale Factor      2940(gal)/6170270
Max. Acc. (gal)   0.259
Last Correction   2024/04/02 04:25:04
Memo.             
[...]
 -108200  -108260  -108308  -108338  -108362  -108385  -108396  -108406 
 -108428  -108451  -108468  -108484  -108485  -108461  -108430  -108398 
 -108362  -108329  -108310  -108304  -108307  -108311  -108301  -108275 
 -108245  -108211  -108185  -108183  -108189  -108183  -108173  -108167 
 -108156  -108143  -108137  -108134  -108129  -108130  -108138  -108144 
 -108145  -108149  -108160  -108171  -108190  -108214  -108223  -108229 
 -108252  -108274  -108280  -108284  -108290  -108294  -108313  -108341 
 -108344  -108333  -108332  -108320  -108290  -108274  -108270  -108258 
 -108253  -108254  -108239  -108228  -108254  -108284  -108285  -108278 
 -108280  -108291  -108315  -108338  -108329  -108286  -108241  -108209 
 -108173  -108123  -108072  -108030  -107988  -107949  -107926  -107908 
 -107884  -107868  -107870  -107871  -107865  -107870  -107882  -107893 
 -107915  -107945  -107973  -108005  -108033  -108040  -108033  -108026 
 -108027  -108043  -108063  -108067  -108068  -108094  -108126  -108147 
 -108183  -108234  -108280  -108337  -108399  -108427  -108433  -108443 
 -108437  -108410  -108396  -108388  -108361  -108344  -108350  -108351 
 -108347  -108348  -108327  -108292  -108280  -108277  -108261  -108255 
 -108265  -108262  -108247  -108238  -108230  -108211  -108206  -108223 
 -108242  -108261  -108290  -108307  -108299  -108289  -108282  -108265 
 -108240  -108219  -108209  -108215  -108230  -108233  -108211  -108174 
 -108138  -108114  -108105  -108099  -108088  -108080  -108083  -108093 
 -108106  -108130  -108163  -108192  -108218  -108250  -108291  -108327 
 -108346  -108352  -108352  -108353  -108364  -108379  -108377  -108366 
 -108360  -108339  -108299  -108273  -108262  -108243  -108218  -108199 
 -108185  -108188  -108209  -108224  -108227  -108226  -108218  -108202 
 -108180  -108143  -108108  -108106  -108129  -108150  -108169  -108185 
 -108181  -108175  -108194  -108218  -108224  -108237  -108261  -108270 
 -108266  -108254  -108225  -108200  -108196  -108188  -108168  -108156 
 -108153  -108140  -108118  -108099  -108079  -108066  -108068  -108084 
 -108101  -108118  -108138  -108158  -108175  -108201  -108242  -108275 
 -108284  -108282  -108278  -108270  -108263  -108263  -108258  -108255 
 -108266  -108283  -108302  -108323  -108324  -108302  -108286  -108278 
 -108250  -108215  -108204  -108205  -108197  -108191  -108174  -108133 
 -108098  -108079  -108061  -108061  -108084  -108105  -108128  -108169 
 -108212  -108252  -108298  -108333  -108343  -108347  -108355  -108359 
 -108361  -108357  -108328  -108277  -108236  -108212  -108197  -108192 
 -108196  -108200  -108196  -108176  -108140  -108106  -108089  -108083 
 -108075  -108061  -108042  -108038  -108063  -108105  -108138  -108155 
 -108158  -108146  -108119  -108091  -108068  -108040  -108006  -107983 
 -107982  -107992  -107997  -107991  -107979  -107971  -107985  -108016 
 -108040  -108056  -108086  -108126  -108151  -108158  -108150  -108132 
 -108120  -108120  -108119  -108117  -108120  -108114  -108085  -108046 
 -108014  -108001  -108018  -108046  -108056  -108056  -108061  -108063 
 -108055  -108036  -107999  -107958  -107943  -107955  -107968  -107980 
 -108006  -108035  -108055  -108075  -108088  -108082  -108063  -108043 
 -108029  -108033  -108055  -108068  -108073  -108098  -108146  -108194 
 -108234  -108255  -108256  -108261  -108267  -108256  -108233  -108212 
 -108200  -108202  -108211  -108219  -108228  -108252  -108293  -108334 
 -108369  -108410  -108448  -108470  -108494  -108529  -108556  -108583 
 -108633  -108686  -108708  -108707  -108689  -108658  -108630  -108601 
 -108554  -108503  -108466  -108443  -108435  -108436  -108432  -108428 
 -108440  -108448  -108435  -108419  -108396  -108349  -108300  -108269 
 -108233  -108191  -108163  -108133  -108094  -108075  -108078  -108079 
 -108082  -108105  -108131  -108145  -108153  -108151  -108132  -108114 
 -108103  -108091  -108074  -108056  -108050  -108058  -108059  -108052 
 -108052  -108056  -108056  -108049  -108038  -108025  -108004  -107970 
 -107929  -107896  -107888  -107903  -107920  -107941  -107978  -108021 
 -108053  -108067  -108072  -108088  -108122  -108159  -108194  -108230 
 -108256  -108278  -108305  -108325  -108339  -108374  -108414  -108418 
 -108394  -108361  -108320  -108286  -108272  -108265  -108262  -108271 
 -108291  -108311  -108329  -108359  -108402  -108434  -108433  -108411 
 -108391  -108379  -108368  -108356  -108342  -108322  -108307  -108301 
 -108298  -108288  -108274  -108264  -108259  -108249  -108236  -108220 
 -108194  -108162  -108140  -108128  -108116  -108106  -108093  -108075 
 -108064  -108053  -108028  -108007  -107991  -107972  -107969  -107984 
 -108003  -108026  -108049  -108053  -108042  -108049  -108080  -108107 
 -108128  -108152  -108164  -108181  -108232  -108286  -108308  -108318 
 -108324  -108309  -108288  -108293  -108304  -108294  -108290  -108300 
 -108305  -108311  -108328  -108336  -108343  -108359  -108370  -108371 
 -108367  -108350  -108332  -108331  -108333  -108326  -108316  -108306 
 -108290  -108274  -108267  -108270  -108275  -108274  -108260  -108243 
 -108235  -108231  -108230  -108248  -108284  -108319  -108349  -108364 
 -108352  -108331  -108314  -108288  -108267  -108276  -108297  -108313 
 -108342  -108380  -108397  -108416  -108453  -108467  -108458  -108465 
 -108463  -108440  -108442  -108453  -108446  -108439  -108442  -108448 
 -108463  -108472  -108457  -108435  -108425  -108419  -108412  -108402 
 -108387  -108364  -108339  -108305  -108251  -108181  -108117  -108068 
 -108010  -107936  -107885  -107867  -107847  -107815  -107774  -107720 
 -107679  -107674  -107675  -107669  -107682  -107711  -107732  -107756 
 -107791  -107824  -107855  -107875  -107877  -107888  -107925  -107966 
 -107992  -108010  -108016  -107997  -107967  -107939  -107905  -107882 
 -107898  -107939  -107976  -108016  -108069  -108122  -108171  -108230 
 -108295  -108348  -108385  -108414  -108436  -108447  -108464  -108482 
 -108474  -108450  -108437  -108418  -108390  -108381  -108384  -108367 
 -108340  -108324  -108305  -108283  -108274  -108273  -108266  -108270 
 -108288  -108295  -108283  -108274  -108266  -108248  -108229  -108222 
 -108218  -108212  -108219  -108240  -108266  -108296  -108329  -108355 
 -108360  -108346  -108331  -108327  -108322  -108310  -108311  -108317 
 -108298  -108271  -108272  -108285  -108292  -108316  -108348  -108348 
 -108328  -108317  -108296  -108264  -108261  -108283  -108299  -108312 
 -108316  -108295  -108283  -108301  -108319  -108326  -108333  -108333 
 -108329  -108326  -108315  -108292  -108272  -108269  -108274  -108277 
 -108286  -108291  -108287  -108274  -108255  -108223  -108191  -108175 
 -108171  -108161  -108149  -108136  -108110  -108085  -108066  -108041 
 -108017  -108008  -107998  -107987  -108001  -108037  -108072  -108109 
 -108143  -108167  -108186  -108203  -108204  -108193  -108179  -108164 
 -108142  -108121  -108110  -108108  -108116  -108121  -108116  -108113 
 -108113  -108099  -108073  -108066  -108084  -108105  -108124  -108158 
 -108198  -108229  -108266  -108306  -108330  -108342  -108357  -108362 
 -108353  -108347  -108341  -108304  -108251  -108217  -108189  -108153 
 -108136  -108133  -108123  -108123  -108138  -108138  -108131  -108130 
 -108113  -108078  -108065  -108075  -108081  -108083  -108078  -108051 
 -108015  -107989  -107976  -107978  -107991  -108007  -108016  -108005 
 -107985  -107979  -107984  -107992  -108008  -108033  -108063  -108094 
 -108131  -108177  -108218  -108232  -108222  -108209  -108202  -108200 
 -108197  -108194  -108208  -108242  -108284  -108330  -108368  -108387 
 -108412  -108457  -108490  -108492  -108476  -108460  -108452  -108453 
 -108456  -108454  -108449  -108448  -108439  -108411  -108384  -108377 
 -108382  -108399  -108424  -108443  -108444  -108431  -108408  -108390 
 -108391  -108402  -108404  -108386  -108356  -108329  -108308  -108282 
 -108242  -108187  -108130  -108087  -108059  -108037  -108027  -108037 
 -108051  -108053  -108051  -108056  -108057  -108058  -108074  -108100 
 -108121  -108138  -108156  -108171  -108181  -108194  -108215  -108239 
 -108258  -108279  -108303  -108319  -108318  -108303  -108280  -108263 
 -108255  -108254  -108257  -108257  -108244  -108220  -108194  -108174 
 -108162  -108146  -108120  -108097  -108086  -108079  -108066  -108046 
 -108018  -107997  -107994  -107985  -107972  -107972  -107981  -107989 
 -108008  -108043  -108075  -108086  -108090  -108096  -108097  -108096 
 -108097  -108088  -108057  -108017  -107978  -107949  -107940  -107945 
 -107949  -107957  -107974  -107977  -107965  -107973  -107999  -108011 
 -108022  -108051  -108082  -108119  -108180  -108240  -108273  -108306 
 -108359  -108400  -108419  -108445  -108459  -108438  -108418  -108407 
 -108368  -108317  -108289  -108262  -108214  -108166  -108133  -108100 
 -108070  -108060  -108058  -108046  -108029  -108021  -108019  -108008 
 -107991  -107980  -107987  -108019  -108072  -108138  -108195  -108233 
 -108266  -108296  -108315  -108327  -108335  -108334  -108335  -108342 
 -108345  -108348  -108372  -108400  -108416  -108437  -108463  -108477 
 -108494  -108528  -108544  -108533  -108528  -108531  -108519  -108518 
 -108548  -108577  -108590  -108617  -108651  -108659  -108661  -108679 
 -108676  -108630  -108583  -108552  -108505  -108444  -108397  -108349 
 -108292  -108258  -108247  -108226  -108194  -108172  -108154  -108125 
 -108100  -108084  -108061  -108033  -108017  -108001  -107963  -107925 
 -107901  -107875  -107857  -107857  -107846  -107824  -107823  -107834 
 -107838  -107849  -107863  -107855  -107842  -107842  -107835  -107817 
 -107810  -107817  -107823  -107833  -107849  -107858  -107864  -107885 
 -107912  -107926  -107941  -107961  -107963  -107955  -107958  -107964 
 -107972  -107988  -107997  -108004  -108028  -108068  -108110  -108150 
 -108173  -108186  -108215  -108258  -108299  -108334  -108363  -108384 
 -108402  -108419  -108423  -108422  -108430  -108442  -108457  -108481 
 -108507  -108526  -108539  -108547  -108540  -108526  -108516  -108493 
 -108453  -108424  -108415  -108405  -108394  -108396  -108394  -108385 
 -108394  -108415  -108421  -108415  -108409  -108404  -108409  -108411 
 -108397  -108378  -108367  -108360  -108368  -108399  -108430  -108444 
 -108445  -108441  -108434  -108421  -108399  -108371  -108353  -108338 
 -108299  -108246  -108215  -108204  -108204  -108228  -108256  -108265 
 -108275  -108291  -108290  -108290  -108305  -108307  -108291  -108291 
 -108302  -108307  -108306  -108292  -108261  -108239  -108234  -108226 
 -108219  -108220  -108223  -108230  -108237  -108236  -108225  -108207 
 -108181  -108150  -108125  -108109  -108092  -108075  -108059  -108046 
 -108043  -108052  -108058  -108053  -108042  -108034  -108028  -108022 
 -108017  -108017  -108015  -108006  -108000  -107987  -107956  -107923 
 -107899  -107879  -107874  -107890  -107909  -107922  -107943  -107957 
 -107955  -107957  -107968  -107971  -107977  -107995  -107998  -107981 
 -107963  -107940  -107921  -107924  -107923  -107906  -107912  -107946 
 -107978  -108004  -108040  -108074  -108090  -108105  -108126  -108129 
 -108125  -108140  -108157  -108179  -108221  -108258  -108267  -108262 
 -108243  -108207  -108183  -108176  -108172  -108183  -108211  -108228 
 -108242  -108268  -108286  -108298  -108326  -108356  -108374  -108395 
 -108409  -108401  -108394  -108393  -108385  -108393  -108420  -108431 
 -108434  -108444  -108435  -108400  -108366  -108343  -108323  -108322 
 -108340  -108358  -108372  -108382  -108391  -108401  -108411  -108408 
 -108397  -108392  -108400  -108420  -108453  -108485  -108504  -108512 
 -108510  -108497  -108483  -108471  -108448  -108420  -108410  -108404 
 -108392  -108389  -108391  -108386  -108386  -108393  -108400  -108402 
 -108396  -108379  -108352  -108323  -108307  -108301  -108286  -108252 
 -108219  -108204  -108193  -108182  -108170  -108146  -108117  -108102 
 -108090  -108077  -108076  -108070  -108041  -108000  -107957  -107906 
 -107857  -107825  -107801  -107780  -107774  -107779  -107786  -107793 
 -107798  -107801  -107806  -107819  -107846  -107880  -107912  -107946 
 -107977  -107998  -108023  -108059  -108092  -108117  -108151  -108187 
 -108204  -108220  -108243  -108252  -108245  -108235  -108214  -108180 
 -108163  -108171  -108176  -108167  -108156  -108150  -108153  -108177 
 -108217  -108256  -108293  -108323  -108341  -108353  -108366  -108375 
 -108374  -108364  -108345  -108311  -108269  -108232  -108208  -108193 
 -108192  -108193  -108179  -108164  -108166  -108173  -108175  -108179 
 -108188  -108193  -108195  -108203  -108205  -108196  -108200  -108215 
 -108220  -108218  -108220  -108223  -108231  -108255  -108281  -108296 
 -108314  -108332  -108336  -108340  -108351  -108353  -108340  -108329 
 -108320  -108298  -108280  -108277  -108273  -108274  -108296  -108313 
 -108305  -108293  -108290  -108271  -108239  -108215  -108185  -108147 
 -108131  -108122  -108095  -108074  -108062  -108039  -108028  -108040 
 -108038  -108020  -108016  -108008  -107989  -107985  -107992  -107988 
 -107997  -108035  -108067  -108094  -108148  -108197  -108219  -108243 
 -108266  -108264  -108252  -108241  -108217  -108187  -108171  -108177 
 -108198  -108216  -108223  -108234  -108251  -108271  -108303  -108351 
 -108391  -108425  -108476  -108530  -108572  -108612  -108648  -108674 
 -108701  -108732  -108749  -108744  -108724  -108687  -108638  -108594 
 -108559  -108525  -108497  -108474  -108451  -108424  -108387  -108339 
 -108294  -108258  -108229  -108206  -108184  -108160  -108142  -108132 
 -108118  -108098  -108077  -108064  -108060  -108068  -108083  -108092 
 -108093  -108077  -108038  -107999  -107969  -107932  -107892  -107868 
 -107847  -107817  -107798  -107796  -107793  -107788  -107778  -107757 
 -107736  -107738  -107756  -107772  -107794  -107815  -107823  -107843 
 -107889  -107928  -107960  -108003  -108041  -108070  -108110  -108149 
 -108167  -108186  -108226  -108271  -108310  -108355  -108405  -108453 
 -108499  -108539  -108567  -108572  -108555  -108532  -108510  -108488 
 -108475  -108467  -108446  -108410  -108376  -108340  -108303  -108283 
 -108273  -108252  -108235  -108234  -108236  -108242  -108259  -108280 
 -108299  -108318  -108330  -108336  -108343  -108345  -108334  -108323 
 -108316  -108294  -108263  -108236  -108218  -108208  -108200  -108194 
 -108190  -108177  -108153  -108130  -108112  -108091  -108072  -108057 
 -108042  -108029  -108025  -108028  -108019  -108005  -108003  -108005 
 -108007  -108022  -108045  -108064  -108091  -108137  -108182  -108209 
 -108228  -108242  -108243  -108247  -108255  -108253  -108245  -108231 
 -108207  -108174  -108137  -108096  -108049  -108005  -107975  -107950 
 -107932  -107935  -107950  -107955  -107949  -107953  -107958  -107965 
 -107987  -108011  -108031  -108064  -108108  -108139  -108150  -108145 
 -108133  -108123  -108128  -108143  -108154  -108166  -108184  -108197 
 -108202  -108205  -108213  -108230  -108250  -108262  -108267  -108273 
 -108286  -108301  -108312  -108317  -108323  -108340  -108357  -108361 
 -108363  -108363  -108361  -108363  -108366  -108368  -108379  -108395 
 -108404  -108414  -108427  -108434  -108445  -108463  -108466  -108452 
 -108446  -108450  -108444  -108425  -108404  -108376  -108343  -108326 
 -108326  -108316  -108299  -108288  -108271  -108248  -108235  -108224 
 -108209  -108196  -108190  -108188  -108194  -108200  -108190  -108172 
 -108149  -108128  -108121  -108124  -108120  -108108  -108092  -108074 
 -108057  -108048  -108045  -108040  -108042  -108060  -108078  -108091 
 -108107  -108115  -108102  -108088  -108081  -108071  -108073  -108100 
 -108132  -108161  -108189  -108207  -108210  -108210  -108207  -108200 
 -108203  -108222  -108240  -108255  -108278  -108306  -108327  -108334 
 -108345  -108374  -108405  -108428  -108451  -108474  -108492  -108506 
 -108516  -108512  -108495  -108486  -108493  -108496  -108495  -108497 
 -108484  -108454  -108418  -108373  -108326  -108290  -108264  -108246 
 -108243  -108258  -108275  -108277  -108262  -108240  -108224  -108213 
 -108196  -108167  -108138  -108119  -108110  -108102  -108099  -108111 
 -108141  -108176  -108210  -108242  -108254  -108243  -108223  -108194 
 -108156  -108133  -108127  -108123  -108131  -108154  -108174  -108183 
 -108185  -108171  -108145  -108126  -108110  -108092  -108081  -108072 
 -108056  -108052  -108062  -108074  -108091  -108111  -108124  -108131 
 -108135  -108128  -108108  -108081  -108052  -108014  -107977  -107957 
 -107945  -107942  -107950  -107956  -107961  -107971  -107986  -108002 
 -108011  -108011  -108012  -108028  -108055  -108071  -108078  -108091 
 -108103  -108105  -108114  -108132  -108134  -108125  -108131  -108135 
 -108137  -108169  -108220  -108257  -108287  -108316  -108328  -108328 
 -108333  -108338  -108344  -108361  -108383  -108399  -108414  -108439 
 -108464  -108487  -108510  -108516  -108505  -108486  -108457  -108423 
 -108394  -108364  -108338  -108326  -108320  -108311  -108305  -108304 
 -108302  -108287  -108270  -108263  -108252  -108230  -108206  -108182 
 -108147  -108117  -108108  -108106  -108106  -108119  -108135  -108141 
 -108134  -108117  -108092  -108066  -108051  -108044  -108032  -108023 
 -108021  -108015  -108017  -108029  -108030  -108022  -108026  -108043 
 -108070  -108107  -108137  -108150  -108164  -108186  -108202  -108209 
 -108211  -108209  -108207  -108214  -108222  -108229  -108255  -108296 
 -108329  -108356  -108389  -108420  -108449  -108474  -108479  -108475 
 -108476  -108469  -108449  -108430  -108405  -108376  -108355  -108335 
 -108303  -108276  -108261  -108246  -108226  -108198  -108159  -108123 
 -108099  -108081  -108069  -108072  -108084  -108096  -108122  -108159 
 -108177  -108173  -108165  -108149  -108130  -108123  -108120  -108107 
 -108093  -108081  -108072  -108072  -108076  -108072  -108063  -108054 
 -108058  -108079  -108107  -108125  -108131  -108132  -108128  -108134 
 -108154  -108175  -108197  -108224  -108243  -108250  -108253  -108253 
 -108244  -108238  -108239  -108241  -108244  -108256  -108264  -108261 
 -108260  -108259  -108247  -108231  -108211  -108183  -108163  -108156 
 -108147  -108136  -108131  -108118  -108096  -108071  -108040  -108007 
 -107986  -107972  -107962  -107960  -107971  -107985  -107999  -108019 
 -108041  -108056  -108066  -108073  -108080  -108092  -108103  -108109 
 -108120  -108132  -108147  -108175  -108199  -108210  -108223  -108244 
 -108258  -108257  -108251  -108250  -108249  -108245  -108243  -108245 
 -108243  -108236  -108227  -108207  -108184  -108182  -108196  -108203 
 -108204  -108206  -108199  -108193  -108206  -108224  -108236  -108256 
 -108275  -108281  -108283  -108289  -108301  -108311  -108316  -108314 
 -108302  -108283  -108269  -108253  -108229  -108209  -108203  -108204 
 -108201  -108193  -108183  -108169  -108159  -108157  -108156  -108162 
 -108178  -108196  -108217  -108244  -108267  -108284  -108303  -108321 
 -108333  -108349  -108365  -108370  -108371  -108389  -108416  -108422 
 -108406  -108385  -108358  -108328  -108308  -108298  -108288  -108286 
 -108301  -108319  -108327  -108332  -108338  -108331  -108317  -108301 
