Origin Time       2024/04/02 04:24:00
Lat.              40.133
Long.             141.712
Depth. (km)       71
Mag.              6.0
Station Code      YMTH07
Station Lat.      37.8960
Station Long.     140.0278
Station Height(m) 152
Record Time       2024/04/02 04:25:22
Sampling Freq(Hz) 100Hz
Duration Time(s)  155
Dir.              1
Scale Factor      2942(gal)/8224139
Max. Acc. (gal)   0.680
Last Correction   2024/04/02 04:25:22
Memo.             
[...]
  112553   112673   112800   112915   112977   112965   112923   112896 
  112892   112908   112949   112962   112846   112587   112275   112002 
  111825   111726   111631   111546   111519   111574   111715   111913 
  112131   112356   112545   112631   112585   112442   112278   112149 
  112067   112021   112017   112024   112008   111981   111927   111805 
  111686   111663   111670   111622   111555   111526   111532   111542 
  111500   111435   111407   111406   111441   111565   111785   112050 
  112249   112297   112247   112198   112187   112202   112205   112182 
  112207   112324   112464   112558   112587   112540   112437   112330 
  112252   112225   112263   112341   112361   112276   112189   112185 
  112193   112155   112113   112108   112160   112299   112487   112614 
  112653   112691   112749   112791   112857   113022   113252   113449 
  113556   113557   113475   113350   113201   113031   112851   112693 
  112606   112577   112542   112488   112403   112276   112201   112244 
  112340   112461   112622   112772   112885   112978   113050   113096 
  113120   113148   113177   113174   113157   113135   113084   112999 
  112891   112779   112698   112668   112679   112683   112629   112515 
  112401   112376   112471   112560   112567   112522   112419   112313 
  112322   112413   112514   112649   112784   112841   112839   112835 
  112824   112789   112758   112749   112745   112742   112745   112747 
  112756   112765   112780   112799   112781   112742   112737   112753 
  112711   112583   112440   112320   112230   112244   112367   112494 
  112558   112557   112475   112351   112293   112375   112554   112743 
  112878   112909   112833   112731   112675   112650   112653   112680 
  112688   112669   112629   112525   112380   112271   112193   112081 
  111948   111861   111793   111694   111586   111526   111520   111539 
  111572   111619   111672   111713   111727   111701   111674   111694 
  111788   111921   112016   112066   112128   112209   112282   112328 
  112344   112321   112252   112153   112094   112126   112202   112233 
  112210   112155   112071   111993   111917   111802   111715   111727 
  111805   111924   112047   112113   112104   112025   111942   111955 
  112051   112136   112226   112361   112511   112676   112846   112942 
  112942   112924   112920   112866   112760   112676   112650   112645 
  112612   112556   112536   112563   112579   112573   112599   112681 
  112764   112797   112799   112819   112892   112990   113063   113115 
  113192   113290   113391   113485   113503   113417   113274   113131 
  113039   113003   112946   112849   112765   112723   112704   112685 
  112644   112557   112437   112336   112268   112190   112089   111994 
  111904   111846   111866   111919   111943   111967   112017   112097 
  112225   112357   112438   112495   112540   112565   112596   112634 
  112672   112734   112796   112789   112718   112656   112633   112639 
  112665   112664   112626   112618   112654   112680   112638   112525 
  112417   112372   112337   112267   112222   112237   112245   112229 
  112240   112268   112270   112247   112243   112271   112317   112365 
  112369   112298   112216   112172   112128   112056   111982   111935 
  111912   111910   111981   112155   112338   112448   112526   112631 
  112752   112854   112889   112830   112714   112581   112457   112356 
  112274   112202   112170   112226   112349   112450   112503   112538 
  112561   112567   112573   112615   112706   112828   112949   113046 
  113127   113189   113224   113221   113181   113105   112996   112860 
  112719   112633   112630   112673   112707   112711   112718   112756 
  112764   112692   112617   112614   112669   112729   112756   112756 
  112756   112743   112692   112648   112700   112847   113024   113189 
  113331   113439   113485   113493   113490   113433   113343   113294 
  113275   113258   113269   113293   113287   113244   113162   113050 
  112946   112845   112715   112583   112464   112332   112207   112143 
  112102   112000   111856   111755   111735   111761   111771   111734 
  111694   111738   111839   111912   111958   111983   111929   111796 
  111628   111464   111368   111350   111354   111364   111388   111439 
  111546   111666   111746   111789   111794   111788   111804   111819 
  111827   111873   111932   111966   111971   111966   111990   112048 
  112102   112178   112278   112313   112241   112110   111979   111890 
  111852   111852   111846   111819   111831   111901   111974   112021 
  112062   112105   112156   112193   112167   112083   111982   111871 
  111785   111757   111728   111666   111611   111561   111541   111557 
  111503   111366   111300   111372   111516   111647   111719   111713 
  111647   111550   111439   111352   111329   111362   111385   111348 
  111322   111420   111601   111751   111866   111951   111990   112031 
  112116   112218   112297   112382   112513   112630   112664   112662 
  112711   112796   112858   112882   112860   112766   112661   112625 
  112618   112622   112692   112806   112932   113093   113246   113356 
  113476   113595   113652   113648   113629   113624   113626   113628 
  113644   113678   113698   113702   113699   113676   113638   113620 
  113598   113524   113413   113310   113250   113225   113215   113227 
  113228   113169   113121   113151   113213   113305   113420   113474 
  113429   113373   113398   113452   113447   113410   113378   113341 
  113306   113269   113224   113178   113158   113204   113286   113320 
  113302   113278   113227   113131   113032   112966   112945   112950 
  112934   112880   112835   112849   112918   112995   113067   113161 
  113238   113236   113211   113238   113250   113146   112957   112737 
  112514   112375   112351   112347   112283   112175   112070   111985 
  111955   112029   112174   112318   112382   112315   112180   112075 
  112016   111952   111877   111838   111846   111834   111801   111786 
  111762   111732   111757   111771   111663   111478   111303   111163 
  111082   111067   111098   111149   111184   111206   111253   111350 
  111492   111640   111751   111794   111775   111780   111858   111912 
  111893   111896   111942   111974   112018   112095   112152   112203 
  112317   112425   112445   112433   112403   112317   112209   112106 
  111989   111900   111910   112018   112159   112290   112433   112594 
  112685   112627   112469   112333   112252   112172   112091   112050 
  112048   112085   112164   112314   112560   112804   112914   112912 
  112861   112772   112656   112517   112372   112275   112245   112295 
  112415   112542   112626   112677   112726   112774   112784   112725 
  112641   112614   112648   112714   112845   113003   113071   113070 
  113058   113012   112932   112899   112969   113098   113211   113285 
  113333   113364   113375   113355   113304   113228   113147   113070 
  112989   112893   112787   112675   112583   112521   112469   112441 
  112469   112554   112637   112648   112630   112654   112671   112615 
  112509   112384   112278   112207   112129   112050   112071   112201 
  112332   112433   112568   112727   112838   112884   112862   112777 
  112685   112585   112471   112383   112322   112257   112203   112183 
  112180   112185   112252   112405   112557   112657   112726   112749 
  112725   112688   112654   112602   112548   112548   112611   112683 
  112722   112703   112622   112509   112360   112174   111998   111877 
  111832   111866   111944   112002   112002   111973   111967   111986 
  111975   111908   111797   111669   111566   111545   111565   111545 
  111496   111438   111335   111208   111110   111019   110926   110891 
  110963   111160   111437   111667   111773   111794   111781   111728 
  111659   111632   111649   111688   111750   111802   111821   111828 
  111843   111863   111894   111970   112109   112324   112596   112839 
  112973   112981   112919   112866   112799   112656   112482   112345 
  112243   112172   112180   112271   112379   112480   112565   112614 
  112669   112787   112918   113000   113054   113116   113161   113166 
  113143   113112   113120   113192   113259   113283   113296   113301 
  113282   113235   113152   113081   113098   113188   113269   113301 
  113274   113215   113171   113131   113073   113040   113084   113200 
  113332   113425   113486   113571   113672   113751   113815   113881 
  113925   113910   113834   113745   113688   113622   113503   113367 
  113235   113113   113050   113042   113061   113132   113217   113215 
  113125   113040   112995   112942   112865   112784   112704   112639 
  112623   112645   112676   112711   112738   112729   112665   112606 
  112607   112614   112564   112472   112379   112291   112218   112183 
  112186   112199   112217   112201   112102   111955   111827   111739 
  111694   111705   111761   111839   111925   112004   112063   112075 
  112010   111920   111886   111927   112033   112190   112329   112418 
  112494   112533   112480   112391   112342   112314   112291   112305 
  112367   112460   112523   112479   112338   112229   112221   112261 
  112303   112341   112380   112438   112471   112446   112406   112383 
  112387   112442   112514   112522   112459   112401   112368   112293 
  112166   112064   112000   111932   111855   111790   111770   111797 
  111851   111910   111951   111970   111962   111943   111982   112082 
  112152   112162   112191   112278   112363   112402   112399   112352 
  112249   112114   112002   111924   111834   111709   111582   111495 
  111442   111379   111298   111188   111046   110960   111010   111127 
  111250   111396   111505   111526   111524   111530   111503   111489 
  111527   111554   111565   111622   111693   111704   111676   111661 
  111672   111755   111958   112205   112407   112599   112830   113000 
  112996   112872   112754   112706   112723   112774   112857   113016 
  113215   113325   113351   113362   113356   113368   113454   113545 
  113567   113509   113375   113193   113022   112885   112772   112673 
  112629   112657   112719   112765   112761   112668   112507   112353 
  112244   112170   112110   112064   112068   112152   112263   112311 
  112301   112320   112371   112394   112388   112361   112294   112228 
  112214   112252   112326   112460   112606   112665   112672   112726 
  112811   112847   112818   112753   112687   112658   112675   112676 
  112673   112761   112904   113000   113081   113201   113305   113347 
  113340   113278   113166   113058   113008   113000   112966   112900 
  112858   112827   112765   112710   112722   112770   112746   112639 
  112538   112452   112349   112268   112244   112252   112288   112365 
  112422   112415   112417   112476   112564   112676   112792   112846 
  112814   112735   112606   112419   112268   112221   112197   112149 
  112151   112241   112376   112487   112525   112498   112464   112464 
  112465   112399   112272   112170   112145   112167   112189   112195 
  112183   112185   112244   112364   112510   112630   112700   112731 
  112710   112665   112695   112797   112872   112885   112854   112796 
  112754   112698   112554   112369   112233   112144   112039   111898 
  111773   111678   111564   111419   111315   111321   111418   111524 
  111559   111537   111535   111565   111585   111618   111667   111705 
  111738   111785   111851   111948   112063   112148   112185   112185 
  112160   112143   112151   112180   112222   112279   112338   112369 
  112402   112487   112594   112673   112738   112831   112945   112995 
  112974   112999   113103   113224   113337   113405   113405   113401 
  113431   113454   113472   113510   113516   113467   113424   113401 
  113362   113328   113317   113290   113238   113175   113108   113032 
  112928   112769   112565   112380   112268   112203   112145   112109 
  112099   112052   111950   111854   111815   111808   111805   111861 
  112006   112139   112182   112201   112236   112255   112255   112282 
  112353   112426   112496   112602   112707   112749   112761   112797 
  112854   112920   112995   113049   113070   113104   113169   113242 
  113331   113422   113463   113431   113333   113189   113059   112989 
  112968   112962   112947   112941   112949   112893   112712   112449 
  112202   112041   111971   111950   111940   111897   111792   111639 
  111470   111310   111176   111071   110976   110905   110903   110984 
  111082   111118   111099   111106   111181   111298   111414   111524 
  111670   111883   112136   112375   112581   112715   112718   112634 
  112568   112590   112708   112874   113004   113062   113017   112885 
  112777   112761   112787   112831   112935   113084   113215   113286 
  113297   113278   113233   113166   113127   113143   113179   113212 
  113219   113159   113062   112951   112797   112638   112546   112523 
  112548   112595   112657   112734   112789   112800   112787   112742 
  112684   112680   112719   112737   112726   112702   112673   112706 
  112803   112854   112864   112942   113071   113167   113209   113189 
  113105   113001   112880   112730   112629   112603   112598   112621 
  112700   112769   112738   112612   112446   112268   112109   112017 
  111958   111854   111705   111561   111453   111403   111395   111400 
  111419   111418   111350   111238   111119   110990   110841   110724 
  110673   110639   110592   110554   110551   110608   110721   110868 
  111053   111288   111503   111626   111708   111842   112009   112166 
  112329   112499   112641   112758   112877   112997   113105   113202 
  113304   113414   113539   113682   113791   113810   113791   113794 
  113818   113873   113942   113968   113931   113829   113660   113472 
  113320   113211   113121   113019   112903   112827   112822   112849 
  112885   112927   112931   112853   112749   112702   112699   112689 
  112656   112614   112560   112484   112399   112303   112198   112102 
  112016   111939   111873   111816   111780   111808   111915   112052 
  112153   112183   112179   112220   112302   112376   112441   112518 
  112590   112627   112630   112615   112615   112631   112645   112698 
  112797   112831   112788   112785   112822   112826   112830   112866 
  112931   113038   113130   113150   113117   113028   112884   112725 
  112573   112441   112334   112234   112137   112063   112023   111981 
  111894   111778   111703   111689   111699   111711   111705   111657 
  111608   111591   111592   111645   111758   111900   112051   112176 
  112249   112288   112311   112326   112329   112315   112314   112344 
  112380   112428   112526   112672   112807   112893   112954   113013 
  113067   113120   113169   113212   113266   113348   113413   113405 
  113329   113238   113165   113119   113089   113040   113005   113053 
  113131   113142   113097   113051   112969   112807   112630   112511 
  112417   112310   112224   112185   112171   112151   112109   112028 
  111935   111898   111933   112005   112091   112203   112342   112491 
  112610   112671   112680   112691   112752   112854   112916   112926 
  112966   113062   113181   113294   113363   113371   113340   113281 
  113173   113026   112878   112742   112618   112514   112414   112306 
  112198   112079   111951   111817   111658   111496   111384   111316 
  111279   111291   111334   111348   111335   111326   111308   111285 
  111276   111279   111261   111188   111067   110941   110848   110808 
  110808   110832   110879   110924   110936   110932   110949   110975 
  110986   111011   111056   111086   111138   111244   111348   111424 
  111497   111553   111570   111565   111569   111607   111701   111850 
  111991   112068   112125   112241   112387   112490   112558   112626 
  112684   112710   112677   112575   112430   112286   112193   112128 
  112047   112000   112018   112062   112126   112178   112156   112097 
  112062   112052   112113   112279   112467   112622   112769   112878 
  112922   112911   112861   112824   112851   112914   112966   113005 
  113026   113053   113135   113246   113298   113290   113275   113262 
  113242   113239   113267   113304   113312   113247   113128   113051 
  113051   113088   113150   113240   113310   113331   113323   113308 
  113293   113310   113341   113347   113351   113390   113433   113405 
  113277   113097   112926   112804   112760   112784   112834   112866 
  112881   112914   112966   113027   113059   113036   112999   113020 
  113123   113239   113287   113277   113248   113192   113103   113030 
  113034   113111   113219   113325   113404   113454   113518   113614 
  113697   113732   113715   113655   113559   113441   113333   113278 
  113260   113225   113150   113057   112976   112899   112814   112719 
  112644   112618   112611   112575   112495   112395   112306   112248 
  112210   112153   112079   112041   112070   112131   112179   112168 
  112086   111944   111769   111623   111539   111461   111370   111337 
  111379   111433   111446   111451   111487   111537   111603   111721 
  111883   112035   112144   112205   112228   112207   112149   112109 
  112102   112077   112027   111977   111921   111867   111852   111916 
  112074   112284   112475   112584   112564   112432   112276   112144 
  112025   111955   111964   111998   111993   111960   111951   111979 
  112014   112028   112017   111990   111959   111933   111908   111862 
  111828   111874   111991   112090   112125   112137   112174   112279 
  112437   112590   112737   112900   113046   113123   113130   113112 
  113100   113086   113123   113269   113466   113628   113732   113765 
  113732   113680   113667   113675   113647   113567   113474   113402 
  113335   113255   113202   113173   113119   113035   112953   112901 
  112884   112889   112908   112926   112930   112935   112974   113027 
  113039   112986   112905   112853   112820   112769   112706   112660 
  112654   112681   112684   112617   112506   112396   112301   112232 
  112214   112229   112244   112240   112185   112067   111906   111739 
  111611   111534   111489   111496   111562   111636   111676   111662 
  111603   111581   111662   111771   111811   111793   111777   111782 
  111797   111804   111808   111811   111778   111692   111564   111433 
  111337   111277   111221   111165   111130   111125   111142   111183 
  111261   111358   111445   111534   111642   111743   111816   111879 
  111952   112021   112078   112112   112110   112091   112075   112071 
  112087   112118   112167   112255   112378   112500   112604   112676 
  112704   112711   112716   112716   112734   112777   112812   112815 
  112774   112696   112606   112518   112486   112534   112579   112554 
  112517   112503   112502   112504   112537   112614   112729   112838 
  112893   112881   112815   112706   112590   112507   112475   112503 
  112567   112614   112611   112564   112507   112499   112515   112498 
  112482   112537   112649   112764   112838   112837   112777   112725 
  112725   112776   112851   112922   112974   113003   112990   112938 
  112860   112779   112739   112784   112903   113051   113169   113219 
  113239   113286   113339   113341   113289   113209   113123   113022 
