Origin Time       2024/04/02 04:24:00
Lat.              40.133
Long.             141.712
Depth. (km)       71
Mag.              6.0
Station Code      YMTH15
Station Lat.      38.4257
Station Long.     140.1249
Station Height(m) 205
Record Time       2024/04/02 04:25:12
Sampling Freq(Hz) 100Hz
Duration Time(s)  144
Dir.              3
Scale Factor      3923(gal)/8224838
Max. Acc. (gal)   0.541
Last Correction   2024/04/02 04:25:12
Memo.             
[...]
  -45928   -45905   -45860   -45810   -45777   -45767   -45777   -45806 
  -45848   -45889   -45913   -45937   -45967   -45972   -45921   -45851 
  -45840   -45897   -45967   -46033   -46109   -46178   -46203   -46191 
  -46174   -46151   -46107   -46067   -46032   -45982   -45940   -45960 
  -46039   -46110   -46134   -46134   -46134   -46134   -46124   -46109 
  -46109   -46124   -46143   -46144   -46120   -46087   -46076   -46101 
  -46144   -46198   -46248   -46287   -46329   -46372   -46392   -46375 
  -46327   -46278   -46230   -46190   -46178   -46195   -46221   -46237 
  -46246   -46248   -46238   -46209   -46151   -46079   -46022   -45995 
  -45999   -46026   -46059   -46101   -46159   -46190   -46155   -46089 
  -46040   -46020   -46028   -46053   -46071   -46066   -46035   -45999 
  -45966   -45924   -45860   -45782   -45708   -45661   -45652   -45697 
  -45782   -45862   -45905   -45914   -45913   -45917   -45921   -45916 
  -45916   -45952   -46018   -46075   -46097   -46109   -46137   -46172 
  -46184   -46164   -46109   -46037   -45976   -45927   -45891   -45887 
  -45918   -45962   -45978   -45967   -45956   -45945   -45940   -45970 
  -46017   -46043   -46052   -46063   -46086   -46128   -46188   -46261 
  -46327   -46380   -46422   -46442   -46460   -46502   -46533   -46521 
  -46483   -46441   -46388   -46334   -46302   -46291   -46291   -46303 
  -46300   -46268   -46224   -46184   -46138   -46083   -46032   -45990 
  -45947   -45900   -45868   -45851   -45832   -45829   -45841   -45837 
  -45825   -45827   -45841   -45862   -45873   -45866   -45829   -45769 
  -45717   -45708   -45732   -45771   -45804   -45823   -45835   -45840 
  -45854   -45894   -45954   -46010   -46044   -46045   -46051   -46090 
  -46138   -46172   -46175   -46130   -46059   -46016   -46026   -46068 
  -46110   -46134   -46122   -46067   -45998   -45949   -45933   -45933 
  -45933   -45947   -45979   -46010   -46020   -46005   -45975   -45948 
  -45931   -45918   -45908   -45906   -45940   -46003   -46070   -46118 
  -46133   -46121   -46091   -46052   -46024   -46021   -46040   -46066 
  -46084   -46090   -46082   -46072   -46072   -46080   -46091   -46095 
  -46076   -46047   -46025   -46029   -46062   -46097   -46083   -46025 
  -45989   -46013   -46080   -46147   -46187   -46194   -46170   -46155 
  -46164   -46168   -46164   -46163   -46155   -46153   -46175   -46209 
  -46232   -46226   -46199   -46165   -46136   -46099   -46037   -45968 
  -45937   -45939   -45951   -45968   -45993   -46032   -46097   -46168 
  -46203   -46190   -46160   -46143   -46156   -46187   -46205   -46202 
  -46184   -46167   -46163   -46152   -46132   -46126   -46128   -46129 
  -46153   -46191   -46209   -46187   -46134   -46072   -46024   -46009 
  -46029   -46072   -46113   -46126   -46109   -46074   -46024   -45972 
  -45927   -45882   -45847   -45832   -45847   -45901   -45982   -46052 
  -46084   -46084   -46076   -46071   -46066   -46060   -46047   -46018 
  -45998   -46003   -46022   -46040   -46051   -46049   -46044   -46052 
  -46074   -46087   -46094   -46110   -46136   -46160   -46184   -46188 
  -46159   -46116   -46084   -46059   -46017   -45974   -45968   -45995 
  -46030   -46060   -46076   -46078   -46066   -46044   -46028   -46012 
  -45967   -45901   -45846   -45829   -45859   -45936   -46020   -46049 
  -46020   -45962   -45906   -45886   -45908   -45937   -45945   -45941 
  -45937   -45928   -45918   -45924   -45936   -45959   -45999   -46039 
  -46067   -46090   -46110   -46130   -46138   -46130   -46122   -46122 
  -46116   -46105   -46120   -46172   -46238   -46279   -46278   -46236 
  -46171   -46116   -46101   -46132   -46174   -46192   -46199   -46225 
  -46279   -46337   -46369   -46352   -46276   -46171   -46064   -45981 
  -45940   -45955   -45998   -46028   -46022   -45994   -45968   -45967 
  -45986   -45976   -45914   -45844   -45812   -45825   -45878   -45952 
  -46010   -46020   -45994   -45955   -45914   -45905   -45929   -45945 
  -45939   -45916   -45889   -45875   -45871   -45864   -45859   -45855 
  -45843   -45827   -45839   -45885   -45940   -46001   -46047   -46040 
  -45998   -45979   -46006   -46053   -46099   -46129   -46136   -46147 
  -46180   -46226   -46269   -46303   -46325   -46342   -46344   -46323 
  -46287   -46237   -46194   -46192   -46232   -46280   -46321   -46352 
  -46363   -46338   -46269   -46167   -46052   -45959   -45925   -45959 
  -46022   -46095   -46151   -46164   -46143   -46099   -46032   -45963 
  -45933   -45944   -45968   -45999   -46037   -46066   -46071   -46057 
  -46032   -46001   -45979   -45966   -45960   -45964   -45972   -45971 
  -45959   -45944   -45928   -45909   -45889   -45860   -45817   -45777 
  -45773   -45801   -45836   -45871   -45898   -45904   -45886   -45863 
  -45855   -45877   -45921   -45976   -46039   -46083   -46099   -46117 
  -46151   -46171   -46172   -46171   -46175   -46184   -46228   -46300 
  -46345   -46341   -46315   -46286   -46265   -46265   -46282   -46290 
  -46280   -46264   -46259   -46265   -46282   -46290   -46271   -46232 
  -46195   -46165   -46147   -46133   -46117   -46095   -46095   -46141 
  -46213   -46273   -46306   -46306   -46275   -46215   -46134   -46047 
  -45974   -45937   -45945   -45976   -45998   -46002   -45986   -45944 
  -45897   -45863   -45837   -45800   -45754   -45738   -45782   -45863 
  -45929   -45949   -45912   -45850   -45835   -45883   -45947   -45983 
  -45987   -45966   -45935   -45912   -45885   -45843   -45804   -45785 
  -45783   -45783   -45770   -45748   -45735   -45750   -45789   -45841 
  -45895   -45940   -45981   -46025   -46074   -46126   -46183   -46230 
  -46244   -46234   -46240   -46286   -46353   -46404   -46419   -46398 
  -46354   -46310   -46280   -46260   -46249   -46241   -46226   -46199 
  -46164   -46137   -46129   -46130   -46128   -46110   -46079   -46053 
  -46060   -46094   -46125   -46129   -46109   -46082   -46055   -46036 
  -46035   -46051   -46047   -46014   -45986   -45975   -45972   -45985 
  -46006   -46018   -45998   -45964   -45956   -45970   -45974   -45963 
  -45955   -45970   -46006   -46035   -46040   -46035   -46033   -46037 
  -46032   -46012   -45983   -45959   -45958   -45994   -46064   -46149 
  -46207   -46195   -46134   -46075   -46029   -45993   -45983   -45991 
  -45990   -46003   -46064   -46140   -46186   -46198   -46195   -46170 
  -46109   -46043   -46026   -46075   -46145   -46201   -46255   -46315 
  -46356   -46353   -46313   -46249   -46183   -46133   -46091   -46045 
  -45993   -45933   -45879   -45851   -45846   -45860   -45904   -45968 
  -46039   -46074   -46047   -45963   -45864   -45804   -45802   -45829 
  -45854   -45881   -45917   -45939   -45935   -45937   -45945   -45939 
  -45933   -45943   -45955   -45962   -45967   -45954   -45914   -45881 
  -45891   -45949   -46030   -46113   -46175   -46195   -46152   -46059 
  -45948   -45848   -45777   -45744   -45747   -45771   -45821   -45921 
  -46068   -46192   -46238   -46209   -46121   -46020   -45959   -45963 
  -46024   -46110   -46180   -46207   -46192   -46167   -46179   -46245 
  -46337   -46408   -46446   -46465   -46467   -46444   -46423   -46417 
  -46407   -46388   -46381   -46388   -46414   -46477   -46560   -46585 
  -46515   -46394   -46288   -46224   -46184   -46168   -46170   -46170 
  -46149   -46132   -46143   -46175   -46205   -46215   -46195   -46156 
  -46126   -46111   -46111   -46118   -46105   -46047   -45971   -45929 
  -45927   -45933   -45937   -45943   -45931   -45879   -45817   -45786 
  -45792   -45810   -45819   -45812   -45793   -45762   -45738   -45743 
  -45765   -45783   -45802   -45814   -45793   -45736   -45669   -45607 
  -45567   -45559   -45578   -45613   -45642   -45663   -45702   -45756 
  -45806   -45844   -45859   -45848   -45836   -45850   -45883   -45920 
  -45947   -45959   -45954   -45935   -45924   -45936   -45951   -45956 
  -45962   -45956   -45931   -45916   -45937   -45982   -46039   -46111 
  -46190   -46242   -46271   -46294   -46305   -46309   -46332   -46353 
  -46348   -46352   -46413   -46491   -46529   -46530   -46506   -46448 
  -46390   -46377   -46406   -46444   -46480   -46496   -46473   -46433 
  -46398   -46365   -46310   -46219   -46125   -46067   -46051   -46060 
  -46078   -46094   -46094   -46053   -45972   -45906   -45925   -46018 
  -46113   -46144   -46109   -46063   -46055   -46093   -46140   -46133 
  -46053   -45936   -45850   -45848   -45916   -45975   -45975   -45898 
  -45781   -45711   -45739   -45835   -45936   -46006   -46059   -46097 
  -46107   -46110   -46130   -46155   -46147   -46090   -46024   -45976 
  -45956   -45974   -46020   -46044   -46020   -45967   -45922   -45894 
  -45870   -45851   -45841   -45812   -45760   -45739   -45765   -45801 
  -45809   -45797   -45793   -45806   -45851   -45936   -46025   -46074 
  -46090   -46087   -46068   -46044   -46032   -46049   -46102   -46167 
  -46211   -46219   -46207   -46194   -46191   -46180   -46140   -46080 
  -46020   -45978   -45981   -46028   -46087   -46125   -46122   -46098 
  -46097   -46134   -46182   -46214   -46244   -46267   -46279   -46288 
  -46284   -46248   -46197   -46153   -46122   -46118   -46145   -46174 
  -46183   -46175   -46148   -46109   -46089   -46103   -46126   -46130 
  -46125   -46125   -46110   -46070   -46037   -46048   -46087   -46120 
  -46128   -46118   -46117   -46134   -46165   -46198   -46210   -46167 
  -46079   -46002   -45960   -45947   -45955   -45970   -45966   -45945 
  -45947   -45985   -46030   -46060   -46076   -46079   -46056   -46002 
  -45939   -45905   -45921   -45967   -46009   -46013   -45995   -45997 
  -46028   -46060   -46066   -46028   -45952   -45862   -45805   -45804 
  -45828   -45856   -45902   -45972   -46037   -46086   -46136   -46172 
  -46159   -46117   -46098   -46114   -46152   -46202   -46240   -46221 
  -46130   -46033   -45991   -45997   -46029   -46072   -46105   -46120 
  -46120   -46107   -46095   -46079   -46068   -46064   -46066   -46089 
  -46126   -46156   -46163   -46143   -46093   -46029   -45999   -46037 
  -46101   -46133   -46133   -46121   -46109   -46111   -46130   -46128 
  -46091   -46051   -46022   -46005   -46006   -46018   -46021   -45999 
  -45958   -45916   -45901   -45912   -45918   -45910   -45895   -45863 
  -45806   -45765   -45777   -45828   -45897   -45971   -46041   -46098 
  -46133   -46144   -46138   -46122   -46099   -46071   -46043   -46021 
  -46026   -46084   -46183   -46278   -46317   -46290   -46238   -46195 
  -46147   -46075   -45983   -45885   -45828   -45858   -45962   -46089 
  -46182   -46207   -46164   -46080   -45991   -45921   -45875   -45850 
  -45867   -45943   -46043   -46117   -46149   -46165   -46180   -46186 
  -46179   -46156   -46116   -46093   -46120   -46170   -46199   -46210 
  -46213   -46205   -46190   -46172   -46134   -46074   -46018   -45989 
  -45978   -45981   -46013   -46070   -46111   -46126   -46151   -46172 
  -46141   -46068   -46006   -45962   -45922   -45929   -45990   -46059 
  -46116   -46171   -46201   -46190   -46161   -46134   -46111   -46102 
  -46121   -46157   -46187   -46202   -46218   -46260   -46307   -46323 
  -46307   -46295   -46321   -46379   -46433   -46458   -46449   -46429 
  -46414   -46392   -46359   -46318   -46272   -46225   -46161   -46089 
  -46044   -46030   -46039   -46056   -46064   -46063   -46053   -46029 
  -45989   -45941   -45893   -45854   -45836   -45843   -45855   -45850 
  -45847   -45873   -45902   -45898   -45862   -45805   -45725   -45642 
  -45582   -45547   -45517   -45492   -45503   -45555   -45619   -45677 
  -45721   -45728   -45690   -45628   -45578   -45557   -45559   -45597 
  -45677   -45774   -45859   -45921   -45949   -45944   -45921   -45895 
  -45875   -45862   -45858   -45859   -45871   -45904   -45949   -45991 
  -46010   -46014   -46009   -45983   -45948   -45909   -45866   -45835 
  -45828   -45840   -45862   -45881   -45905   -45952   -46025   -46089 
  -46114   -46095   -46068   -46074   -46116   -46184   -46261   -46314 
  -46315   -46282   -46248   -46228   -46210   -46179   -46138   -46106 
  -46091   -46076   -46045   -46002   -45956   -45925   -45912   -45897 
  -45887   -45890   -45890   -45889   -45912   -45963   -46018   -46056 
  -46076   -46062   -46020   -46002   -46040   -46116   -46192   -46251 
  -46286   -46299   -46298   -46298   -46291   -46257   -46215   -46187 
  -46182   -46229   -46338   -46475   -46595   -46668   -46692   -46688 
  -46681   -46685   -46688   -46687   -46669   -46633   -46602   -46612 
  -46660   -46720   -46768   -46769   -46707   -46607   -46523   -46461 
  -46388   -46295   -46194   -46089   -45990   -45928   -45924   -45967 
  -46014   -46035   -46018   -45982   -45963   -45972   -45994   -46026 
  -46067   -46084   -46084   -46109   -46174   -46271   -46372   -46435 
  -46413   -46299   -46156   -46033   -45948   -45909   -45905   -45902 
  -45885   -45863   -45860   -45873   -45867   -45832   -45783   -45751 
  -45735   -45739   -45778   -45833   -45877   -45900   -45898   -45856 
  -45777   -45706   -45697   -45731   -45754   -45728   -45667   -45608 
  -45570   -45547   -45539   -45540   -45524   -45489   -45466   -45469 
  -45466   -45430   -45391   -45376   -45360   -45341   -45361   -45416 
  -45473   -45522   -45554   -45569   -45607   -45690   -45792   -45881 
  -45952   -46030   -46144   -46284   -46417   -46514   -46575   -46614 
  -46641   -46691   -46773   -46861   -46917   -46936   -46931   -46930 
  -46963   -47044   -47140   -47190   -47177   -47128   -47069   -47020 
  -46984   -46930   -46838   -46720   -46599   -46489   -46396   -46299 
  -46184   -46068   -45983   -45924   -45862   -45814   -45793   -45770 
  -45739   -45705   -45657   -45580   -45489   -45443   -45478   -45570 
  -45663   -45694   -45657   -45613   -45609   -45631   -45655   -45673 
  -45682   -45696   -45742   -45804   -45841   -45850   -45835   -45801 
  -45765   -45727   -45684   -45646   -45632   -45647   -45675   -45709 
  -45755   -45775   -45738   -45686   -45677   -45705   -45750   -45805 
  -45856   -45891   -45904   -45897   -45912   -45968   -46026   -46066 
  -46103   -46132   -46149   -46164   -46171   -46172   -46179   -46191 
  -46197   -46179   -46143   -46122   -46156   -46222   -46256   -46236 
  -46195   -46171   -46165   -46171   -46194   -46230   -46259   -46265 
  -46241   -46195   -46153   -46125   -46102   -46090   -46091   -46084 
  -46072   -46066   -46047   -46013   -45983   -45970   -45968   -45975 
  -45989   -46020   -46048   -46043   -46024   -46037   -46087   -46136 
  -46161   -46160   -46133   -46111   -46111   -46113   -46090   -46033 
  -45940   -45843   -45782   -45767   -45767   -45742   -45651   -45508 
  -45382   -45327   -45334   -45373   -45418   -45461   -45524   -45620 
  -45743   -45890   -46033   -46144   -46215   -46259   -46299   -46377 
  -46507   -46672   -46842   -46992   -47092   -47125   -47112   -47093 
  -47083   -47078   -47078   -47086   -47106   -47128   -47131   -47108 
  -47043   -46931   -46803   -46681   -46572   -46485   -46423   -46376 
  -46322   -46242   -46157   -46090   -46024   -45937   -45844   -45777 
  -45751   -45769   -45798   -45801   -45783   -45758   -45740   -45769 
  -45827   -45847   -45816   -45793   -45794   -45774   -45743   -45744 
  -45758   -45744   -45721   -45697   -45646   -45580   -45551   -45553 
  -45555   -45573   -45592   -45576   -45544   -45540   -45559   -45569 
  -45557   -45524   -45473   -45427   -45412   -45435   -45496   -45580 
  -45662   -45720   -45760   -45813   -45893   -45975   -46024   -46041 
  -46045   -46066   -46109   -46159   -46222   -46319   -46422   -46485 
  -46512   -46525   -46527   -46546   -46592   -46629   -46637   -46631 
  -46618   -46587   -46534   -46458   -46368   -46279   -46205   -46152 
  -46120   -46098   -46067   -46013   -45941   -45867   -45793   -45731 
  -45705   -45723   -45762   -45823   -45920   -46037   -46143   -46199 
  -46194   -46160   -46157   -46201   -46251   -46273   -46265   -46246 
  -46232   -46211   -46188   -46190   -46241   -46309   -46356   -46384 
  -46395   -46388   -46377   -46348   -46260   -46125   -45987   -45909 
  -45912   -45947   -45968   -45964   -45909   -45816   -45754   -45747 
  -45766   -45775   -45760   -45709   -45646   -45627   -45679   -45773 
  -45877   -45982   -46071   -46132   -46178   -46226   -46263   -46272 
  -46280   -46288   -46267   -46237   -46226   -46222   -46210   -46191 
  -46163   -46110   -46029   -45943   -45864   -45796   -45748   -45739 
  -45760   -45790   -45808   -45819   -45827   -45829   -45846   -45874 
  -45877   -45856   -45848   -45871   -45921   -45975   -46035   -46102 
  -46163   -46205   -46215   -46191   -46147   -46113   -46116   -46155 
  -46213   -46272   -46318   -46356   -46398   -46435   -46449   -46435 
  -46411   -46391   -46381   -46372   -46348   -46315   -46282   -46244 
  -46197   -46147   -46083   -45993   -45895   -45821   -45789   -45777 
  -45759   -45743   -45732   -45717   -45698   -45693   -45698   -45696 
  -45696   -45723   -45777   -45847   -45900   -45885   -45801   -45712 
  -45659   -45623   -45578   -45536   -45507   -45490   -45508   -45571 
  -45650   -45709   -45740   -45748   -45742   -45742   -45748   -45733 
  -45696   -45688   -45720   -45767   -45823   -45890   -45955   -45991 
  -45998   -45985   -45962   -45941   -45947   -45998   -46084   -46174 
  -46251   -46310   -46349   -46392   -46462   -46523   -46542   -46534 
  -46538   -46564   -46591   -46611   -46611   -46577   -46545   -46557 
  -46587   -46600   -46595   -46570   -46531   -46471   -46377   -46269 
  -46179   -46130   -46122   -46137   -46165   -46195   -46214   -46236 
  -46261   -46268   -46256   -46249   -46240   -46228   -46225   -46240 
  -46269   -46300   -46317   -46315   -46290   -46252   -46221   -46194 
  -46157   -46109   -46045   -45975   -45917   -45890   -45895   -45916 
  -45920   -45895   -45867   -45871   -45893   -45908   -45920   -45945 
  -45991   -46055   -46125   -46179   -46202   -46207   -46226   -46256 
  -46265   -46256   -46242   -46218   -46197   -46218   -46295   -46392 
  -46468   -46518   -46553   -46558   -46538   -46518   -46495   -46461 
  -46453   -46500   -46558   -46557   -46495   -46387   -46224   -46051 
  -45929   -45858   -45812   -45767   -45704   -45628   -45570   -45566 
  -45598   -45592   -45503   -45369   -45237   -45149   -45146   -45204 
  -45270   -45319   -45346   -45382   -45458   -45557   -45652   -45738 
  -45796   -45823   -45848   -45901   -45978   -46074   -46159   -46197 
  -46191   -46172   -46174   -46190   -46211   -46229   -46234   -46217 
  -46180   -46133   -46071   -46002   -45939   -45883   -45843   -45817 
  -45794   -45793   -45831   -45881   -45910   -45928   -45959   -46003 
  -46044   -46080   -46122   -46163   -46207   -46249   -46256   -46238 
  -46240   -46278   -46334   -46396   -46435   -46444   -46430   -46408 
  -46390   -46373   -46338   -46272   -46201   -46147   -46101   -46064 
  -46039   -46012   -45966   -45894   -45804   -45717   -45638   -45558 
  -45495   -45453   -45412   -45382   -45384   -45399   -45404   -45422 
  -45482   -45563   -45632   -45697   -45769   -45827   -45871   -45918 
  -45983   -46076   -46175   -46237   -46263   -46276   -46300   -46346 
  -46392   -46426   -46458   -46494   -46518   -46529   -46549   -46597 
