Origin Time       2024/04/02 04:24:00
Lat.              40.133
Long.             141.712
Depth. (km)       71
Mag.              6.0
Station Code      YMTH07
Station Lat.      37.8960
Station Long.     140.0278
Station Height(m) 352
Record Time       2024/04/02 04:25:22
Sampling Freq(Hz) 100Hz
Duration Time(s)  155
Dir.              6
Scale Factor      7845(gal)/8223790
Max. Acc. (gal)   1.033
Last Correction   2024/04/02 04:25:22
Memo.             
[...]
   13414    13521    13555    13551    13578    13610    13626    13666 
   13707    13653    13524    13439    13437    13467    13450    13356 
   13274    13273    13323    13363    13340    13305    13305    13239 
   13123    13111    13173    13225    13321    13444    13509    13497 
   13432    13389    13410    13408    13359    13352    13369    13340 
   13285    13254    13242    13184    13065    13009    13055    13086 
   13093    13099    13039    12977    13039    13140    13176    13231 
   13348    13435    13437    13385    13355    13392    13437    13460 
   13502    13563    13617    13659    13652    13570    13508    13560 
   13647    13694    13774    13882    13906    13853    13783    13679 
   13568    13486    13406    13389    13471    13527    13495    13458 
   13475    13545    13612    13662    13753    13878    13976    14037 
   14006    13865    13736    13697    13714    13733    13730    13683 
   13603    13575    13614    13616    13574    13610    13682    13662 
   13630    13716    13846    13907    13896    13882    13927    13976 
   13952    13938    13987    14004    13957    13890    13836    13788 
   13718    13683    13714    13699    13614    13559    13501    13363 
   13225    13230    13302    13217    13011    12947    13028    13062 
   13080    13194    13313    13358    13439    13559    13566    13487 
   13432    13378    13309    13221    13088    12995    12985    12922 
   12761    12664    12696    12715    12692    12788    12977    13085 
   13107    13131    13190    13262    13332    13419    13493    13518 
   13516    13473    13392    13338    13309    13243    13193    13238 
   13274    13243    13236    13220    13134    13088    13107    13113 
   13157    13312    13510    13651    13782    13940    14010    13959 
   13899    13867    13842    13849    13859    13824    13795    13794 
   13749    13684    13686    13710    13664    13582    13535    13473 
   13346    13265    13354    13537    13639    13664    13725    13801 
   13867    13967    14021    13968    13918    13892    13780    13595 
   13431    13300    13198    13176    13232    13254    13192    13166 
   13244    13352    13417    13425    13464    13608    13747    13778 
   13751    13756    13803    13802    13744    13737    13726    13617 
   13545    13566    13508    13396    13424    13543    13560    13491 
   13473    13509    13531    13498    13437    13402    13413    13447 
   13489    13514    13517    13521    13516    13473    13421    13397 
   13393    13401    13417    13406    13324    13212    13147    13120 
   13085    13051    13051    13090    13147    13223    13281    13223 
   13169    13298    13474    13562    13629    13675    13695    13725 
   13705    13659    13675    13706    13695    13676    13644    13572 
   13506    13478    13456    13389    13288    13282    13405    13505 
   13522    13537    13576    13648    13737    13759    13697    13652 
   13668    13694    13695    13699    13722    13699    13578    13441 
   13342    13201    13070    13047    13045    13018    13076    13215 
   13328    13401    13463    13491    13456    13387    13358    13358 
   13342    13352    13404    13406    13342    13305    13325    13309 
   13240    13236    13311    13336    13305    13332    13417    13459 
   13473    13491    13439    13332    13315    13373    13369    13317 
   13316    13316    13282    13320    13400    13404    13414    13505 
   13578    13583    13556    13506    13466    13462    13439    13339 
   13266    13312    13312    13204    13208    13362    13473    13509 
   13537    13527    13494    13524    13586    13564    13502    13552 
   13682    13711    13648    13662    13765    13815    13767    13703 
   13675    13672    13657    13563    13414    13347    13393    13470 
   13514    13544    13655    13809    13792    13653    13645    13722 
   13694    13626    13643    13718    13817    13891    13878    13802 
   13726    13697    13743    13784    13757    13720    13652    13525 
   13458    13451    13408    13393    13424    13417    13409    13454 
   13521    13578    13566    13489    13464    13506    13521    13509 
   13512    13543    13591    13587    13474    13312    13200    13142 
   13045    12896    12806    12807    12856    12906    12915    12930 
   13058    13251    13374    13440    13522    13567    13568    13591 
   13613    13614    13621    13601    13554    13522    13502    13446 
   13321    13178    13077    13036    13082    13203    13313    13369 
   13408    13474    13552    13610    13645    13701    13770    13779 
   13716    13640    13628    13662    13624    13509    13423    13348 
   13252    13198    13184    13185    13254    13383    13505    13595 
   13621    13568    13551    13647    13736    13729    13710    13709 
   13636    13520    13451    13402    13347    13320    13319    13343 
   13382    13424    13463    13474    13460    13458    13443    13437 
   13493    13560    13578    13590    13637    13679    13691    13710 
   13722    13694    13675    13690    13699    13699    13684    13649 
   13612    13540    13425    13362    13406    13482    13493    13466 
   13485    13520    13512    13501    13545    13572    13524    13566 
   13736    13775    13705    13747    13795    13733    13663    13617 
   13567    13548    13612    13749    13799    13690    13630    13729 
   13809    13753    13672    13695    13711    13581    13452    13455 
   13450    13413    13424    13420    13383    13366    13297    13157 
   13024    12915    12884    12981    13104    13155    13182    13258 
   13304    13171    12951    12872    12920    12955    12987    13085 
   13208    13248    13221    13250    13336    13392    13409    13416 
   13448    13540    13616    13624    13675    13768    13779    13756 
   13798    13811    13736    13666    13610    13501    13355    13247 
   13215    13257    13338    13390    13340    13247    13251    13311 
   13273    13198    13194    13192    13177    13220    13281    13328 
   13429    13568    13686    13767    13751    13671    13659    13651 
   13539    13455    13435    13327    13167    13068    12985    12943 
   12995    13097    13188    13208    13213    13282    13289    13220 
   13309    13525    13614    13602    13625    13633    13595    13594 
   13645    13711    13753    13732    13657    13603    13574    13501 
   13414    13458    13617    13702    13710    13774    13829    13819 
   13863    13945    13940    13894    13902    13923    13905    13864 
   13828    13790    13772    13775    13695    13522    13421    13433 
   13460    13510    13601    13671    13703    13717    13716    13675 
   13610    13593    13641    13717    13790    13805    13733    13632 
   13571    13547    13517    13466    13382    13267    13159    13108 
   13119    13140    13155    13198    13267    13329    13386    13459 
   13541    13559    13517    13578    13741    13792    13706    13641 
   13621    13564    13475    13440    13450    13416    13419    13543 
   13610    13541    13552    13667    13694    13664    13705    13749 
   13687    13545    13424    13389    13410    13397    13343    13346 
   13408    13419    13356    13292    13216    13116    13082    13122 
   13126    13099    13093    13096    13116    13134    13111    13116 
   13177    13211    13213    13209    13182    13177    13211    13240 
   13251    13216    13157    13158    13194    13178    13147    13180 
   13227    13184    13082    13077    13178    13204    13117    13130 
   13289    13437    13541    13640    13694    13689    13659    13603 
   13502    13463    13594    13710    13632    13551    13609    13683 
   13707    13726    13760    13803    13865    13944    13971    13919 
   13875    13872    13883    13896    13869    13790    13711    13647 
   13578    13541    13570    13601    13547    13466    13455    13459 
   13490    13647    13774    13711    13601    13543    13452    13306 
   13189    13155    13171    13190    13201    13163    13099    13109 
   13157    13181    13240    13309    13362    13450    13489    13429 
   13389    13396    13356    13257    13174    13169    13223    13296 
   13374    13417    13412    13417    13424    13402    13420    13467 
   13432    13383    13471    13589    13572    13490    13437    13400 
   13375    13414    13516    13591    13578    13533    13531    13574 
   13636    13660    13621    13582    13589    13613    13621    13605 
   13572    13548    13527    13536    13595    13625    13636    13717 
   13768    13697    13666    13745    13764    13699    13695    13695 
   13570    13410    13325    13278    13248    13290    13435    13610 
   13689    13657    13598    13510    13421    13406    13462    13560 
   13679    13767    13824    13856    13801    13670    13566    13485 
   13373    13313    13402    13516    13477    13373    13356    13358 
   13305    13304    13428    13610    13701    13647    13543    13417 
   13250    13167    13201    13200    13181    13236    13294    13309 
   13335    13389    13447    13551    13730    13810    13706    13670 
   13791    13836    13751    13694    13686    13656    13609    13566 
   13527    13491    13479    13500    13510    13495    13528    13639 
   13720    13674    13551    13494    13547    13564    13459    13347 
   13338    13413    13500    13544    13571    13624    13668    13675 
   13653    13560    13444    13460    13551    13497    13351    13309 
   13319    13235    13151    13184    13265    13316    13335    13338 
   13333    13359    13413    13454    13513    13594    13568    13435 
   13321    13235    13185    13198    13182    13136    13147    13185 
   13213    13247    13288    13343    13387    13419    13441    13416 
   13393    13436    13512    13579    13594    13536    13498    13560 
   13651    13647    13566    13513    13489    13447    13413    13423 
   13419    13378    13424    13508    13421    13320    13440    13591 
   13626    13651    13670    13644    13637    13662    13667    13691 
   13760    13768    13716    13738    13805    13790    13716    13657 
   13571    13455    13414    13448    13464    13450    13440    13437 
   13416    13362    13305    13300    13339    13375    13390    13386 
   13404    13467    13489    13425    13394    13425    13424    13409 
   13383    13274    13157    13139    13130    13061    13059    13136 
   13128    13072    13058    13031    13016    13081    13158    13216 
   13254    13236    13250    13385    13494    13463    13414    13443 
   13471    13436    13354    13282    13288    13360    13429    13462 
   13491    13531    13568    13616    13621    13527    13455    13543 
   13671    13664    13563    13487    13486    13575    13659    13602 
   13535    13601    13609    13464    13377    13433    13516    13551 
   13562    13562    13535    13485    13447    13463    13517    13529 
   13509    13501    13494    13514    13540    13525    13555    13645 
   13655    13606    13652    13745    13752    13660    13536    13483 
   13487    13421    13339    13354    13371    13289    13203    13205 
   13234    13267    13387    13528    13558    13567    13622    13578 
   13410    13302    13327    13371    13350    13313    13323    13338 
   13324    13290    13258    13293    13378    13412    13433    13522 
   13609    13605    13612    13717    13790    13779    13832    13944 
   13906    13684    13541    13633    13710    13608    13549    13680 
   13803    13775    13706    13684    13667    13678    13771    13860 
   13880    13940    14033    13992    13869    13860    13861    13736 
   13633    13679    13794    13868    13888    13894    13842    13706 
   13621    13670    13702    13605    13489    13479    13513    13459 
   13363    13366    13409    13396    13389    13409    13444    13532 
   13582    13547    13558    13647    13747    13795    13720    13595 
   13520    13431    13329    13300    13308    13327    13370    13406 
   13419    13433    13421    13354    13315    13373    13474    13502 
   13441    13389    13340    13220    13081    12973    12873    12818 
   12819    12869    12969    13050    13063    13062    13093    13149 
   13240    13383    13493    13506    13490    13474    13416    13340 
   13335    13413    13482    13513    13556    13603    13587    13482 
   13402    13429    13470    13490    13532    13566    13605    13698 
   13790    13805    13747    13680    13636    13566    13456    13350 
   13292    13320    13385    13417    13429    13435    13431    13409 
   13371    13374    13402    13402    13440    13481    13437    13402 
   13386    13325    13324    13385    13410    13525    13751    13861 
   13828    13809    13802    13724    13613    13536    13468    13386 
   13319    13275    13257    13244    13196    13095    12992    12953 
   12928    12891    12927    13001    13061    13189    13300    13227 
   13105    13069    12953    12715    12604    12667    12656    12538 
   12490    12514    12517    12474    12422    12463    12604    12722 
   12831    13059    13332    13520    13645    13716    13717    13698 
   13652    13560    13493    13466    13398    13311    13313    13379 
   13450    13554    13682    13822    14023    14200    14233    14184 
   14161    14185    14226    14237    14247    14347    14473    14511 
   14542    14557    14439    14320    14304    14266    14164    14072 
   14033    14013    13934    13828    13792    13813    13876    13973 
   14007    13992    14052    14129    14116    14089    14096    14087 
   14087    14084    14021    13926    13818    13718    13695    13709 
   13655    13574    13543    13531    13520    13491    13369    13219 
   13189    13196    13127    13092    13153    13258    13323    13239 
   13092    13053    13085    13089    13105    13147    13135    13100 
   13140    13134    12991    12924    13018    13031    12919    12906 
   13000    12999    12935    12991    13128    13228    13258    13234 
   13207    13193    13189    13211    13204    13144    13163    13293 
   13373    13362    13392    13470    13509    13522    13525    13508 
   13540    13626    13644    13572    13524    13554    13548    13478 
   13528    13697    13749    13679    13647    13687    13733    13756 
   13780    13794    13803    13844    13833    13694    13537    13419 
   13321    13317    13375    13350    13302    13325    13317    13254 
   13281    13408    13497    13494    13500    13579    13626    13568 
   13495    13485    13525    13566    13558    13498    13432    13373 
   13293    13213    13167    13116    13039    13018    13082    13174 
   13248    13311    13392    13468    13474    13441    13451    13495 
   13566    13676    13772    13794    13774    13738    13678    13628 
   13602    13539    13447    13443    13493    13463    13413    13463 
   13524    13513    13504    13552    13670    13810    13861    13805 
   13775    13838    13880    13834    13798    13794    13741    13664 
   13624    13572    13487    13392    13333    13352    13360    13301 
   13286    13316    13251    13166    13243    13414    13473    13440 
   13477    13527    13509    13508    13527    13478    13351    13217 
   13134    13076    13051    13127    13212    13205    13213    13328 
   13436    13425    13382    13439    13535    13514    13385    13296 
   13255    13123    12988    13027    13096    13080    13120    13171 
   13036    12880    12939    13042    13008    12977    13022    13070 
   13132    13200    13224    13254    13313    13342    13354    13408 
   13524    13689    13809    13810    13810    13891    13922    13852 
   13846    13945    13969    13836    13629    13458    13402    13423 
   13400    13347    13378    13522    13663    13663    13602    13639 
   13698    13751    13872    13913    13791    13716    13772    13840 
   13857    13857    13871    13952    14067    14060    13907    13810 
   13815    13713    13493    13400    13450    13481    13501    13567 
   13618    13601    13540    13508    13581    13729    13803    13745 
   13656    13581    13471    13342    13277    13327    13421    13463 
   13491    13555    13576    13531    13467    13383    13277    13225 
   13270    13317    13323    13410    13572    13649    13690    13760 
   13738    13659    13680    13765    13780    13724    13706    13772 
   13837    13822    13725    13666    13767    13872    13809    13718 
   13710    13730    13790    13830    13776    13728    13725    13670 
   13536    13356    13204    13149    13131    13085    13086    13124 
   13085    12958    12818    12726    12746    12814    12799    12815 
   12964    13065    13077    13122    13101    12958    12885    12916 
   12916    12920    13007    13086    13068    13005    13000    13065 
   13126    13084    12930    12881    13072    13251    13246    13284 
   13464    13566    13520    13462    13401    13324    13344    13487 
   13597    13610    13686    13834    13817    13662    13635    13684 
   13653    13645    13657    13551    13454    13500    13544    13508 
   13495    13545    13624    13721    13792    13799    13802    13805 
   13755    13693    13649    13590    13558    13554    13494    13405 
   13397    13494    13578    13576    13586    13652    13705    13721 
   13695    13630    13555    13483    13451    13482    13516    13527 
   13541    13548    13594    13705    13761    13764    13833    13867 
   13743    13657    13772    13907    13896    13836    13832    13813 
   13733    13667    13633    13613    13614    13570    13454    13387 
   13428    13474    13491    13537    13582    13575    13622    13748 
   13809    13799    13791    13740    13609    13517    13551    13602 
   13602    13612    13568    13468    13444    13444    13429    13451 
   13441    13446    13539    13518    13371    13374    13508    13555 
   13513    13467    13386    13254    13185    13228    13255    13192 
   13135    13154    13166    13146    13185    13243    13217    13192 
   13223    13219    13205    13259    13323    13343    13389    13485 
   13524    13478    13416    13293    13162    13184    13240    13165 
   13090    13136    13194    13153    13088    13142    13242    13320 
   13512    13721    13718    13660    13725    13791    13783    13738 
   13690    13710    13784    13832    13838    13783    13695    13691 
   13725    13664    13562    13498    13377    13196    13131    13157 
   13103    13035    13055    13066    13009    12946    12908    12897 
   12883    12881    12958    13068    13135    13197    13244    13188 
   13062    13004    13041    13055    12997    12946    12985    13107 
   13221    13219    13185    13315    13513    13571    13582    13628 
   13591    13552    13653    13717    13668    13721    13806    13672 
   13468    13428    13458    13446    13435    13454    13470    13464 
   13512    13671    13818    13878    13918    13938    13925    13876 
   13744    13655    13747    13840    13774    13659    13599    13571 
   13540    13536    13558    13564    13620    13741    13805    13801 
   13833    13887    13913    13952    13972    13882    13767    13725 
