Origin Time       2024/04/02 04:24:00
Lat.              40.133
Long.             141.712
Depth. (km)       71
Mag.              6.0
Station Code      YMTH11
Station Lat.      38.7132
Station Long.     140.5544
Station Height(m) 253
Record Time       2024/04/02 04:25:28
Sampling Freq(Hz) 100Hz
Duration Time(s)  120
Dir.              6
Scale Factor      3920(gal)/6170801
Max. Acc. (gal)   1.582
Last Correction   2024/04/02 04:25:13
Memo.             
[...]
   -3649    -3736    -3909    -4071    -4036    -3866    -3793    -3841 
   -3915    -4052    -4191    -4173    -4095    -4187    -4362    -4420 
   -4474    -4617    -4640    -4415    -4100    -4003    -4148    -4221 
   -4255    -4376    -4262    -3930    -3777    -3756    -3649    -3495 
   -3452    -3601    -3869    -4110    -4233    -4318    -4486    -4705 
   -4883    -4958    -4942    -4863    -4768    -4712    -4610    -4388 
   -4226    -4218    -4105    -3785    -3652    -3823    -3913    -3912 
   -3938    -3801    -3710    -3943    -4108    -3980    -3951    -4178 
   -4411    -4600    -4757    -4665    -4458    -4559    -4781    -4675 
   -4342    -4105    -4089    -4159    -4103    -4061    -4241    -4538 
   -4746    -4666    -4373    -4153    -4079    -4144    -4250    -4410 
   -4821    -5156    -5121    -5032    -4956    -4755    -4567    -4460 
   -4372    -4352    -4410    -4386    -4285    -4313    -4383    -4235 
   -3970    -3957    -4242    -4436    -4367    -4265    -4187    -3972 
   -3678    -3573    -3731    -3861    -3751    -3531    -3358    -3322 
   -3476    -3610    -3560    -3718    -4237    -4549    -4528    -4555 
   -4553    -4483    -4662    -4946    -4873    -4464    -4032    -3783 
   -3793    -3762    -3536    -3566    -3825    -3833    -3761    -3779 
   -3680    -3662    -3883    -4069    -4161    -4267    -4399    -4600 
   -4767    -4624    -4165    -3830    -3914    -4116    -4053    -3794 
   -3680    -3726    -3624    -3525    -3796    -4157    -4197    -4074 
   -4084    -4255    -4502    -4632    -4464    -4285    -4473    -4686 
   -4463    -4043    -3829    -3868    -4046    -4266    -4431    -4413 
   -4315    -4379    -4461    -4363    -4199    -3988    -3744    -3642 
   -3700    -3827    -3871    -3720    -3678    -3942    -4100    -4061 
   -4217    -4408    -4379    -4431    -4595    -4569    -4388    -4233 
   -4099    -4012    -4088    -4142    -4067    -4183    -4429    -4509 
   -4526    -4467    -4248    -4130    -4282    -4487    -4469    -4297 
   -4302    -4548    -4692    -4516    -4221    -4077    -4179    -4415 
   -4538    -4555    -4650    -4776    -4769    -4550    -4277    -4357 
   -4680    -4520    -3891    -3585    -3839    -4214    -4264    -4004 
   -3908    -4152    -4404    -4391    -4222    -4213    -4377    -4447 
   -4312    -4094    -4043    -4031    -3766    -3662    -3951    -4095 
   -4032    -4137    -4286    -4217    -4061    -4024    -3997    -3880 
   -3758    -3666    -3759    -4022    -4083    -3945    -3941    -4126 
   -4279    -4139    -3850    -3898    -4205    -4227    -4015    -4022 
   -4173    -4117    -3974    -3992    -4023    -4057    -4207    -4209 
   -4012    -3891    -3953    -4228    -4550    -4610    -4400    -4290 
   -4575    -4955    -5060    -5062    -5047    -4916    -4844    -4863 
   -4709    -4385    -4106    -4007    -4249    -4654    -4783    -4757 
   -4752    -4497    -4114    -3982    -4099    -4265    -4265    -4028 
   -3744    -3643    -3708    -3716    -3724    -3853    -3880    -3809 
   -3819    -3839    -4082    -4619    -4732    -4221    -3914    -4090 
   -4256    -4261    -4223    -4178    -4229    -4295    -4155    -3905 
   -3784    -3870    -4009    -3982    -3835    -3818    -4055    -4312 
   -4231    -3948    -3906    -4038    -3915    -3593    -3514    -3682 
   -3880    -4116    -4299    -4325    -4330    -4400    -4424    -4343 
   -4321    -4510    -4699    -4598    -4327    -4101    -3860    -3698 
   -3869    -4073    -3891    -3711    -3953    -4130    -3873    -3652 
   -3713    -3786    -3895    -4073    -4096    -4036    -4141    -4396 
   -4575    -4572    -4584    -4760    -4936    -4831    -4410    -4168 
   -4393    -4578    -4490    -4429    -4378    -4387    -4656    -4820 
   -4570    -4323    -4252    -3964    -3576    -3579    -3929    -4282 
   -4496    -4678    -4987    -5283    -5280    -4992    -4657    -4471 
   -4504    -4550    -4454    -4369    -4280    -4172    -4287    -4473 
   -4500    -4525    -4512    -4446    -4398    -4075    -3657    -3663 
   -3858    -3849    -3743    -3966    -4579    -4817    -4472    -4230 
   -4205    -4203    -4213    -4019    -3742    -3787    -3934    -3735 
   -3392    -3339    -3476    -3477    -3368    -3357    -3545    -3818 
   -3931    -3720    -3275    -3041    -3256    -3526    -3600    -3629 
   -3538    -3345    -3366    -3497    -3414    -3347    -3552    -3659 
   -3556    -3753    -4222    -4539    -4699    -4691    -4439    -4167 
   -4084    -4116    -4039    -3904    -4059    -4352    -4332    -4329 
   -4644    -4723    -4435    -4286    -4322    -4347    -4459    -4706 
   -4903    -4934    -4936    -5129    -5460    -5617    -5507    -5369 
   -5295    -5123    -4894    -4738    -4638    -4657    -4695    -4668 
   -4854    -5139    -4976    -4394    -4017    -4114    -4216    -3944 
   -3585    -3616    -4133    -4604    -4485    -4087    -3990    -4200 
   -4419    -4447    -4293    -4127    -4032    -3954    -3857    -3803 
   -3888    -4019    -3972    -3761    -3583    -3542    -3490    -3245 
   -3011    -2888    -2733    -2813    -3145    -3262    -3327    -3655 
   -3953    -3945    -3791    -3745    -3736    -3750    -3943    -4015 
   -3939    -4214    -4541    -4521    -4672    -5106    -5207    -4837 
   -4400    -4057    -3759    -3768    -4141    -4365    -4330    -4370 
   -4481    -4548    -4472    -4315    -4395    -4456    -4165    -4012 
   -4215    -4374    -4536    -4939    -5139    -4821    -4635    -4859 
   -4870    -4533    -4310    -4366    -4450    -4397    -4311    -4221 
   -4203    -4421    -4663    -4711    -4818    -4951    -4513    -3717 
   -3554    -3958    -4145    -4046    -4018    -4207    -4423    -4323 
   -3796    -3278    -3313    -3562    -3492    -3492    -3802    -4076 
   -4232    -4301    -4321    -4476    -4723    -4882    -4820    -4587 
   -4507    -4597    -4580    -4365    -3935    -3660    -3936    -4278 
   -4133    -3758    -3583    -3734    -4034    -4076    -3698    -3310 
   -3310    -3579    -3762    -3651    -3415    -3462    -3880    -4299 
   -4370    -4169    -4010    -4100    -4348    -4411    -4251    -4178 
   -4197    -4189    -4274    -4477    -4647    -4667    -4540    -4340 
   -4168    -4180    -4279    -4317    -4449    -4497    -4215    -3988 
   -3982    -3912    -3799    -3733    -3636    -3731    -4227    -4626 
   -4398    -4006    -4173    -4656    -4866    -4801    -4668    -4586 
   -4587    -4536    -4422    -4283    -3979    -3658    -3651    -3757 
   -3669    -3674    -4004    -4442    -4821    -4878    -4557    -4425 
   -4588    -4537    -4217    -3980    -3998    -4139    -4206    -4201 
   -4317    -4656    -4863    -4660    -4447    -4585    -4854    -4853 
   -4529    -4242    -4217    -4310    -4362    -4363    -4343    -4308 
   -4264    -4342    -4510    -4347    -3889    -3746    -3926    -4027 
   -4058    -4201    -4496    -4810    -4916    -4737    -4556    -4682 
   -4826    -4744    -4660    -4514    -4336    -4484    -4707    -4594 
   -4327    -4118    -4005    -3981    -3791    -3350    -3033    -3119 
   -3429    -3513    -3314    -3207    -3262    -3415    -3601    -3598 
   -3571    -3707    -3621    -3239    -3105    -3511    -4031    -4166 
   -4064    -4098    -4337    -4519    -4296    -3852    -3577    -3554 
   -3826    -4050    -3863    -3727    -3880    -3904    -3905    -4161 
   -4336    -4215    -4055    -4046    -4130    -4196    -4199    -4208 
   -4396    -4690    -4780    -4828    -5126    -5411    -5470    -5387 
   -5227    -5028    -4746    -4412    -4225    -4288    -4476    -4442 
   -4140    -4152    -4570    -4605    -4145    -3897    -3957    -3944 
   -3743    -3406    -3132    -3244    -3732    -4192    -4456    -4702 
   -5023    -5387    -5577    -5259    -4620    -4397    -4835    -5102 
   -4724    -4502    -4738    -4781    -4530    -4178    -3812    -3769 
   -3957    -3913    -3699    -3609    -3692    -3930    -4190    -4231 
   -4126    -4156    -4331    -4485    -4502    -4357    -4342    -4543 
   -4433    -4043    -4035    -4298    -4278    -4011    -3904    -4063 
   -4179    -4119    -3984    -3820    -3854    -4085    -4101    -3967 
   -4086    -4372    -4492    -4381    -4260    -4290    -4269    -3992 
   -3795    -3997    -4175    -4077    -4151    -4341    -4307    -4369 
   -4559    -4487    -4273    -4083    -3903    -3760    -3415    -2832 
   -2464    -2490    -2668    -2781    -2814    -2899    -3198    -3645 
   -3926    -3998    -4025    -3985    -3938    -3967    -3993    -4072 
   -4216    -4309    -4442    -4564    -4377    -3980    -3730    -3716 
   -3755    -3644    -3604    -3837    -4001    -3937    -3794    -3684 
   -3788    -3948    -3950    -4070    -4398    -4637    -4647    -4546 
   -4419    -4241    -4174    -4395    -4668    -4692    -4618    -4698 
   -4768    -4668    -4702    -5037    -5303    -5244    -5003    -4733 
   -4656    -4879    -5032    -4912    -4782    -4870    -5112    -5205 
   -5083    -5087    -5295    -5374    -5274    -5359    -5544    -5336 
   -4981    -5036    -5249    -5218    -5087    -5122    -5199    -4960 
   -4490    -4058    -3661    -3436    -3424    -3387    -3285    -3181 
   -3078    -3057    -3244    -3561    -3724    -3780    -4028    -4316 
   -4331    -4245    -4224    -4060    -3799    -3779    -3853    -3587 
   -3184    -3230    -3519    -3445    -3249    -3286    -3278    -3207 
   -3396    -3791    -4106    -4320    -4469    -4425    -4306    -4368 
   -4439    -4233    -3925    -3824    -3778    -3632    -3605    -3706 
   -3699    -3482    -3065    -2773    -2928    -3231    -3294    -3142 
   -3059    -3349    -3695    -3661    -3658    -3868    -3819    -3513 
   -3371    -3520    -3683    -3730    -3935    -4262    -4412    -4377 
   -4193    -4006    -4074    -4204    -4111    -4051    -4425    -4942 
   -4856    -4403    -4508    -5106    -5450    -5263    -4850    -4695 
   -4782    -4670    -4407    -4388    -4672    -5021    -5196    -5186 
   -5110    -5122    -5300    -5358    -5110    -4825    -4766    -4963 
   -5201    -5254    -5175    -5001    -4847    -4948    -5161    -5281 
   -5318    -5171    -4867    -4643    -4653    -4837    -4972    -4959 
   -4870    -4992    -5319    -5056    -4167    -3686    -3779    -3961 
   -4109    -4162    -4024    -3754    -3603    -3732    -4137    -4676 
   -4801    -4444    -4235    -4013    -3495    -3257    -3452    -3680 
   -3727    -3651    -3765    -3886    -3436    -2739    -2499    -2575 
   -2648    -2764    -2804    -2763    -2987    -3429    -3756    -3939 
   -3906    -3608    -3484    -3707    -3683    -3216    -2954    -3159 
   -3473    -3590    -3434    -3347    -3576    -3684    -3475    -3293 
   -3285    -3430    -3513    -3304    -3136    -3329    -3596    -3694 
   -3752    -3854    -4119    -4762    -5499    -5698    -5369    -5188 
   -5445    -5713    -5564    -5170    -5089    -5452    -5802    -5731 
   -5340    -5202    -5437    -5392    -4795    -4225    -4157    -4203 
   -4068    -4216    -4611    -4778    -4870    -5024    -5063    -5026 
   -4982    -4978    -5069    -5165    -5175    -5040    -4841    -4790 
   -4768    -4565    -4422    -4563    -4656    -4336    -3866    -3692 
   -3845    -4145    -4373    -4367    -4225    -4124    -4068    -3944 
   -3727    -3553    -3548    -3615    -3676    -3905    -4135    -4094 
   -4098    -4158    -3930    -3751    -3877    -3936    -3755    -3458 
   -3207    -3184    -3355    -3477    -3518    -3799    -4358    -4699 
   -4745    -4905    -5196    -5366    -5186    -4636    -4214    -4256 
   -4404    -4371    -4233    -4094    -3981    -3903    -3913    -3912 
   -3773    -3692    -3643    -3442    -3373    -3463    -3348    -3106 
   -3023    -3167    -3380    -3458    -3364    -3290    -3538    -3872 
   -3911    -3963    -4117    -4134    -4111    -4032    -3974    -4200 
   -4355    -3993    -3541    -3629    -4058    -4281    -4321    -4408 
   -4418    -4236    -4023    -3942    -3953    -3874    -3769    -3886 
   -4067    -4144    -4388    -4783    -5082    -5358    -5611    -5650 
   -5584    -5748    -5874    -5452    -5024    -5184    -5412    -5341 
   -5147    -4961    -4918    -4790    -4344    -3939    -3654    -3377 
   -3335    -3349    -3193    -3260    -3666    -3851    -3622    -3481 
   -3563    -3579    -3595    -3682    -3650    -3554    -3578    -3660 
   -3705    -3670    -3649    -3905    -4254    -4332    -4356    -4384 
   -4216    -4128    -4197    -4138    -4012    -4050    -4224    -4181 
   -3899    -3872    -3987    -3862    -3787    -3822    -3750    -3760 
   -3827    -3935    -4405    -4812    -4635    -4431    -4513    -4515 
   -4530    -4623    -4419    -4135    -4280    -4470    -4303    -4341 
   -4757    -5046    -5187    -5131    -4680    -4371    -4649    -5024 
   -4973    -4712    -4577    -4332    -3826    -3425    -3276    -3221 
   -3396    -3978    -4750    -5303    -5299    -4778    -4208    -3915 
   -3782    -3618    -3503    -3638    -3938    -4139    -4197    -4156 
   -3982    -3770    -3616    -3517    -3501    -3401    -3250    -3291 
   -3297    -3233    -3388    -3530    -3481    -3536    -3741    -3849 
   -3820    -3689    -3360    -3005    -2830    -2678    -2658    -2991 
   -3333    -3494    -3735    -4027    -4180    -4333    -4610    -4717 
   -4516    -4381    -4364    -4163    -3897    -3830    -4106    -4636 
   -4908    -4808    -4806    -5013    -5165    -5204    -5210    -5250 
   -5474    -5937    -6354    -6365    -6173    -6353    -6676    -6457 
   -5933    -5592    -5452    -5637    -5817    -5537    -5460    -5800 
   -5774    -5574    -5538    -5178    -4686    -4567    -4522    -4346 
   -4405    -4579    -4287    -3727    -3316    -2904    -2607    -2570 
   -2496    -2406    -2564    -2885    -3072    -3133    -3375    -3613 
   -3331    -2790    -2660    -2991    -3347    -3394    -3244    -3270 
   -3561    -3832    -3786    -3478    -3348    -3652    -4028    -4097 
   -4009    -3983    -3933    -3619    -3148    -3188    -3898    -4590 
   -4825    -4718    -4557    -4508    -4531    -4574    -4631    -4700 
   -4660    -4494    -4582    -4857    -4762    -4457    -4355    -4334 
   -4271    -4148    -3989    -3963    -3852    -3362    -3037    -3295 
   -3503    -3473    -3794    -4244    -4296    -4303    -4476    -4455 
   -4348    -4376    -4250    -4049    -4245    -4564    -4414    -4136 
   -4241    -4547    -4889    -5153    -5139    -5108    -5230    -5215 
   -5077    -5023    -4980    -4935    -4837    -4517    -4269    -4418 
   -4603    -4522    -4436    -4460    -4365    -4263    -4370    -4218 
   -3571    -3301    -3826    -4382    -4536    -4531    -4557    -4569 
   -4338    -3974    -3927    -4163    -4292    -4231    -4283    -4642 
   -4878    -4662    -4515    -4868    -5299    -5157    -4546    -4295 
   -4535    -4448    -3839    -3483    -3768    -4087    -3861    -3434 
   -3469    -3848    -3984    -3849    -3718    -3735    -3950    -4030 
   -3803    -3714    -3770    -3639    -3623    -3926    -4129    -3932 
   -3519    -3332    -3529    -3753    -3618    -3307    -3344    -3583 
   -3408    -2941    -2694    -2687    -2820    -3069    -3103    -2927 
   -3129    -3386    -2994    -2597    -2689    -2717    -2654    -2765 
   -2999    -3433    -3985    -4309    -4292    -4192    -4191    -4226 
   -4301    -4356    -4364    -4448    -4529    -4638    -4966    -5280 
   -5222    -4816    -4450    -4552    -5023    -5289    -5157    -4946 
   -4854    -4939    -5173    -5228    -4954    -4799    -5165    -5593 
   -5471    -5158    -5150    -5161    -4994    -4910    -4901    -4826 
   -4711    -4370    -3872    -3826    -4076    -3921    -3632    -3703 
   -3869    -4014    -4187    -4043    -3838    -4233    -4664    -4496 
   -4382    -4519    -4474    -4602    -5076    -5371    -5269    -4936 
   -4659    -4576    -4472    -4249    -4219    -4601    -4935    -4755 
   -4527    -4570    -4431    -4212    -4308    -4481    -4534    -4463 
   -4276    -4307    -4695    -4973    -4940    -4903    -4720    -4148 
   -3645    -3600    -3838    -3819    -3278    -2989    -3343    -3658 
   -3855    -4128    -4192    -4009    -3819    -3906    -4231    -4369 
   -4254    -4143    -4203    -4330    -4272    -4191    -4402    -4842 
   -5106    -4864    -4387    -3877    -3319    -3066    -2849    -2364 
   -2396    -2870    -2880    -2776    -3219    -3867    -4176    -4198 
   -4194    -4092    -3988    -4200    -4456    -4363    -4078    -3912 
   -3983    -3964    -3521    -3117    -3222    -3530    -3669    -3555 
   -3415    -3667    -4202    -4498    -4524    -4622    -4723    -4602 
   -4557    -4609    -4321    -4021    -4080    -4095    -4084    -4315 
   -4401    -4124    -3798    -3553    -3513    -3878    -4162    -3853 
   -3427    -3429    -3828    -4336    -4542    -4441    -4469    -4707 
   -4800    -4655    -4555    -4595    -4721    -4891    -4935    -4899 
   -4893    -4644    -4071    -3797    -4343    -5119    -5231    -4856 
   -4551    -4256    -4142    -4604    -4964    -4564    -4227    -4632 
   -5160    -5192    -4860    -4491    -4212    -4165    -4418    -4541 
   -4366    -4419    -4623    -4420    -4044    -4007    -4265    -4569 
   -4726    -4571    -4340    -4404    -4480    -4285    -4108    -4015 
   -3923    -4018    -4270    -4472    -4659    -4800    -4715    -4605 
   -4666    -4546    -4231    -4164    -4098    -3746    -3607    -3709 
   -3470    -3071    -2984    -2959    -2869    -3155    -3624    -3589 
   -3235    -3016    -2916    -3091    -3436    -3502    -3436    -3527 
   -3811    -4176    -4429    -4780    -5148    -4995    -4532    -4195 
   -3929    -3654    -3359    -3247    -3394    -3450    -3510    -3936 
   -4413    -4568    -4538    -4557    -4727    -4963    -5073    -4866 
   -4458    -4380    -4727    -5066    -5198    -5290    -5582    -5754 
   -5334    -4686    -4253    -4028    -4009    -4091    -4247    -4490 
   -4570    -4439    -4387    -4595    -4910    -4998    -4829    -4585 
   -4205    -3651    -3229    -3224    -3458    -3624    -3749    -3829 
   -3887    -4082    -4181    -4064    -3994    -3883    -3726    -3791 
   -3957    -3936    -3713    -3568    -3696    -3968    -4117    -3961 
   -3699    -3586    -3496    -3352    -3213    -3167    -3244    -3293 
   -3404    -3639    -3796    -4077    -4584    -4895    -4803    -4415 
   -4099    -4153    -4230    -4023    -3762    -3710    -4023    -4515 
   -4708    -4595    -4583    -4771    -4911    -4875    -4719    -4534 
   -4530    -4640    -4528    -4293    -4246    -4484    -4835    -4881 
   -4639    -4417    -4031    -3498    -3323    -3521    -3638    -3495 
   -3288    -3245    -3250    -3139    -3154    -3379    -3603    -3827 
   -4029    -4156    -4269    -4253    -4135    -4225    -4547    -4768 
   -4667    -4445    -4376    -4379    -4335    -4434    -4752    -4936 
   -4919    -5101    -5306    -5148    -4941    -4826    -4549    -4392 
   -4562    -4663    -4665    -4816    -5003    -5108    -5069    -4763 
   -4324    -4179    -4515    -4825    -4604    -4129    -3811    -3634 
   -3569    -3751    -4040    -4225    -4665    -5245    -5203    -4895 
   -4934    -4920    -4761    -4570    -4214    -4102    -4302    -4285 
   -4363    -4892    -5194    -5072    -5095    -5033    -4520    -4027 
