Origin Time       2024/04/02 04:24:00
Lat.              40.133
Long.             141.712
Depth. (km)       71
Mag.              6.0
Station Code      YMTH11
Station Lat.      38.7132
Station Long.     140.5544
Station Height(m) 144
Record Time       2024/04/02 04:25:28
Sampling Freq(Hz) 100Hz
Duration Time(s)  120
Dir.              1
Scale Factor      2940(gal)/6170270
Max. Acc. (gal)   0.825
Last Correction   2024/04/02 04:25:13
Memo.             
[...]
  -50232   -50254   -50322   -50242   -50050   -50026   -50033   -49936 
  -49888   -49858   -49819   -49849   -49918   -49993   -50050   -50063 
  -50071   -50089   -50159   -50281   -50380   -50459   -50538   -50590 
  -50584   -50484   -50329   -50259   -50321   -50384   -50406   -50426 
  -50366   -50259   -50195   -50124   -50061   -50073   -50142   -50224 
  -50301   -50411   -50543   -50648   -50720   -50763   -50813   -50799 
  -50728   -50796   -50915   -50904   -50908   -50974   -50984   -51025 
  -51162   -51290   -51341   -51278   -51195   -51196   -51175   -51083 
  -50979   -50852   -50725   -50693   -50772   -50892   -51052   -51227 
  -51281   -51230   -51247   -51313   -51279   -51191   -51185   -51266 
  -51341   -51352   -51305   -51230   -51221   -51291   -51284   -51217 
  -51197   -51183   -51136   -51047   -50926   -50815   -50764   -50749 
  -50721   -50776   -50867   -50856   -50791   -50714   -50650   -50643 
  -50683   -50677   -50619   -50636   -50733   -50800   -50781   -50676 
  -50552   -50548   -50571   -50481   -50457   -50506   -50438   -50342 
  -50356   -50464   -50638   -50767   -50726   -50599   -50508   -50447 
  -50451   -50549   -50650   -50652   -50577   -50573   -50649   -50656 
  -50652   -50748   -50852   -50883   -50852   -50824   -50797   -50711 
  -50677   -50735   -50739   -50714   -50715   -50608   -50478   -50480 
  -50493   -50496   -50561   -50627   -50650   -50629   -50635   -50681 
  -50679   -50638   -50571   -50547   -50635   -50749   -50831   -50885 
  -50975   -51079   -51052   -50991   -51006   -51050   -51102   -51092 
  -51000   -50935   -50920   -50873   -50778   -50700   -50637   -50576 
  -50537   -50458   -50407   -50498   -50579   -50585   -50599   -50658 
  -50759   -50820   -50870   -50943   -50992   -51022   -50969   -50848 
  -50820   -50841   -50782   -50747   -50810   -50839   -50755   -50588 
  -50423   -50346   -50338   -50345   -50374   -50427   -50457   -50469 
  -50423   -50303   -50260   -50315   -50377   -50399   -50315   -50194 
  -50121   -50079   -50093   -50114   -50122   -50221   -50323   -50316 
  -50364   -50459   -50420   -50351   -50347   -50313   -50302   -50349 
  -50351   -50291   -50226   -50267   -50390   -50483   -50614   -50733 
  -50744   -50765   -50787   -50752   -50666   -50571   -50632   -50757 
  -50722   -50639   -50580   -50479   -50501   -50638   -50658   -50626 
  -50652   -50652   -50698   -50892   -51107   -51194   -51164   -51095 
  -50999   -50849   -50689   -50585   -50610   -50775   -50901   -50838 
  -50743   -50785   -50855   -50834   -50726   -50621   -50577   -50517 
  -50531   -50684   -50774   -50780   -50829   -50932   -51041   -51031 
  -50881   -50718   -50566   -50519   -50651   -50761   -50809   -50860 
  -50776   -50582   -50461   -50475   -50599   -50713   -50665   -50555 
  -50588   -50709   -50795   -50824   -50816   -50788   -50725   -50655 
  -50655   -50714   -50648   -50451   -50359   -50346   -50309   -50296 
  -50283   -50344   -50506   -50580   -50519   -50476   -50550   -50614 
  -50553   -50525   -50591   -50666   -50786   -50870   -50801   -50751 
  -50761   -50668   -50607   -50717   -50813   -50791   -50684   -50556 
  -50546   -50631   -50696   -50747   -50768   -50778   -50809   -50815 
  -50886   -51052   -51147   -51171   -51214   -51264   -51293   -51263 
  -51173   -51078   -51066   -51121   -51162   -51206   -51183   -51099 
  -51137   -51210   -51153   -51005   -50844   -50756   -50680   -50573 
  -50551   -50537   -50518   -50601   -50641   -50603   -50583   -50554 
  -50507   -50462   -50471   -50469   -50310   -50134   -50182   -50425 
  -50614   -50598   -50480   -50334   -50215   -50280   -50376   -50313 
  -50251   -50137   -49876   -49714   -49714   -49752   -49768   -49767 
  -49827   -49892   -49963   -50143   -50252   -50197   -50145   -50168 
  -50223   -50243   -50320   -50490   -50516   -50448   -50569   -50768 
  -50817   -50782   -50757   -50720   -50690   -50735   -50833   -50899 
  -50906   -50895   -50831   -50624   -50452   -50480   -50547   -50610 
  -50748   -50942   -51075   -51108   -51186   -51207   -51067   -51026 
  -51055   -50983   -50962   -50991   -50937   -50858   -50762   -50662 
  -50602   -50542   -50556   -50618   -50598   -50567   -50640   -50846 
  -51072   -51167   -51163   -51106   -50986   -50881   -50849   -50794 
  -50724   -50749   -50747   -50679   -50672   -50690   -50693   -50684 
  -50676   -50651   -50485   -50281   -50202   -50117   -50016   -50023 
  -50031   -50032   -50152   -50319   -50443   -50524   -50619   -50708 
  -50707   -50721   -50814   -50851   -50766   -50701   -50786   -50883 
  -50894   -50939   -50955   -50853   -50847   -50991   -51145   -51256 
  -51222   -51093   -51098   -51184   -51191   -51140   -51045   -50952 
  -50960   -51050   -51134   -51227   -51378   -51512   -51609   -51679 
  -51627   -51513   -51490   -51439   -51237   -51058   -50945   -50807 
  -50714   -50663   -50640   -50698   -50771   -50836   -50937   -51026 
  -51062   -51036   -50985   -50975   -50913   -50854   -50984   -51196 
  -51294   -51324   -51398   -51453   -51388   -51285   -51280   -51279 
  -51133   -50948   -50807   -50613   -50454   -50376   -50244   -50114 
  -50051   -49981   -49945   -50023   -50137   -50130   -50035   -49944 
  -49802   -49722   -49789   -49781   -49704   -49740   -49822   -49866 
  -49869   -49838   -49833   -49862   -49858   -49844   -49881   -49879 
  -49795   -49711   -49635   -49617   -49710   -49874   -50100   -50318 
  -50492   -50659   -50801   -50897   -50919   -50870   -50781   -50618 
  -50435   -50337   -50235   -50079   -50067   -50205   -50253   -50224 
  -50258   -50297   -50267   -50291   -50499   -50767   -50957   -51109 
  -51200   -51169   -51134   -51197   -51247   -51203   -51180   -51277 
  -51325   -51106   -50805   -50727   -50791   -50802   -50780   -50752 
  -50765   -50955   -51216   -51382   -51564   -51746   -51738   -51634 
  -51634   -51767   -51919   -51930   -51863   -51881   -51928   -51824 
  -51544   -51317   -51168   -51008   -50939   -50841   -50641   -50499 
  -50444   -50414   -50386   -50502   -50728   -50777   -50690   -50622 
  -50581   -50637   -50767   -50895   -51049   -51158   -51111   -50941 
  -50715   -50539   -50419   -50295   -50234   -50239   -50293   -50392 
  -50430   -50420   -50427   -50425   -50427   -50423   -50400   -50363 
  -50268   -50257   -50432   -50586   -50706   -50908   -51027   -51010 
  -51014   -51058   -51074   -51074   -51102   -51049   -50891   -50884 
  -50959   -50912   -50867   -50853   -50824   -50780   -50734   -50761 
  -50828   -50871   -50926   -50932   -50825   -50733   -50768   -50904 
  -51039   -51020   -50857   -50712   -50583   -50510   -50585   -50629 
  -50483   -50238   -50019   -49850   -49809   -50011   -50253   -50330 
  -50325   -50219   -50088   -50174   -50367   -50428   -50345   -50248 
  -50229   -50162   -50081   -50185   -50298   -50223   -50213   -50360 
  -50386   -50305   -50366   -50486   -50388   -50127   -49931   -49842 
  -49825   -49824   -49830   -49859   -49876   -49870   -49809   -49784 
  -49962   -50258   -50458   -50557   -50651   -50693   -50788   -51055 
  -51260   -51251   -51206   -51224   -51173   -51110   -51190   -51191 
  -51001   -50849   -50774   -50662   -50480   -50361   -50437   -50479 
  -50375   -50337   -50404   -50570   -50804   -50945   -50983   -51043 
  -51176   -51306   -51430   -51587   -51670   -51585   -51384   -51201 
  -51087   -51085   -51244   -51303   -51158   -51026   -50902   -50849 
  -50896   -50813   -50643   -50538   -50521   -50605   -50686   -50741 
  -50751   -50611   -50512   -50574   -50639   -50753   -50869   -50835 
  -50704   -50573   -50543   -50577   -50605   -50620   -50504   -50360 
  -50408   -50546   -50624   -50671   -50627   -50426   -50192   -50067 
  -50071   -50147   -50248   -50320   -50336   -50336   -50304   -50313 
  -50492   -50700   -50769   -50790   -50906   -51061   -51079   -50999 
  -51007   -51039   -50981   -50859   -50650   -50330   -50098   -50146 
  -50284   -50278   -50189   -50107   -50098   -50207   -50430   -50711 
  -50853   -50778   -50686   -50646   -50517   -50367   -50284   -50103 
  -49856   -49715   -49709   -49893   -50167   -50324   -50432   -50534 
  -50496   -50427   -50431   -50399   -50443   -50583   -50599   -50521 
  -50543   -50736   -50969   -51057   -50971   -50812   -50749   -50846 
  -50958   -50977   -50925   -50865   -50900   -51019   -51012   -50838 
  -50728   -50708   -50621   -50631   -50904   -51244   -51491   -51609 
  -51530   -51310   -51218   -51387   -51589   -51688   -51651   -51413 
  -51200   -51173   -51190   -51217   -51275   -51409   -51613   -51634 
  -51474   -51403   -51280   -50908   -50615   -50621   -50647   -50630 
  -50744   -50867   -50842   -50741   -50681   -50679   -50652   -50600 
  -50552   -50431   -50369   -50579   -50939   -51205   -51187   -50878 
  -50596   -50539   -50601   -50693   -50755   -50686   -50578   -50651 
  -50814   -50917   -51145   -51387   -51283   -50973   -50722   -50629 
  -50732   -50776   -50653   -50556   -50472   -50419   -50390   -50253 
  -50174   -50201   -50159   -50100   -50047   -50015   -50078   -50091 
  -49958   -49881   -49985   -50099   -50092   -50087   -50151   -50213 
  -50336   -50540   -50597   -50414   -50253   -50329   -50483   -50510 
  -50464   -50409   -50392   -50423   -50410   -50445   -50596   -50762 
  -50943   -50968   -50777   -50741   -50835   -50790   -50727   -50678 
  -50560   -50465   -50352   -50142   -50041   -50156   -50380   -50682 
  -50907   -51030   -51236   -51393   -51369   -51285   -51234   -51226 
  -51166   -50997   -50876   -50839   -50735   -50675   -50691   -50515 
  -50188   -49934   -49867   -49988   -50108   -50189   -50316   -50433 
  -50577   -50683   -50618   -50633   -50724   -50582   -50415   -50365 
  -50299   -50341   -50462   -50639   -51021   -51388   -51524   -51497 
  -51399   -51353   -51310   -51145   -50958   -50885   -50873   -50762 
  -50638   -50592   -50565   -50704   -50900   -50942   -51057   -51177 
  -51072   -50939   -50876   -50866   -51009   -51156   -51182   -51157 
  -51036   -50866   -50763   -50765   -50947   -51140   -51033   -50764 
  -50716   -50878   -51009   -51019   -50924   -50779   -50703   -50748 
  -50735   -50569   -50424   -50356   -50355   -50483   -50604   -50570 
  -50513   -50571   -50730   -50913   -51021   -51022   -50845   -50499 
  -50271   -50272   -50287   -50245   -50140   -49958   -49920   -50035 
  -49983   -49830   -49915   -50167   -50313   -50400   -50466   -50458 
  -50448   -50480   -50569   -50564   -50406   -50331   -50206   -49958 
  -49859   -49866   -49818   -49820   -50015   -50202   -50170   -50151 
  -50252   -50268   -50148   -50008   -49885   -49846   -49959   -50072 
  -50095   -50155   -50329   -50520   -50600   -50606   -50640   -50628 
  -50538   -50611   -50825   -50858   -50804   -50943   -51149   -51155 
  -51059   -51059   -51073   -50938   -50680   -50525   -50517   -50454 
  -50366   -50393   -50457   -50498   -50628   -50841   -51043   -51255 
  -51496   -51684   -51699   -51614   -51617   -51760   -51960   -52089 
  -52090   -51867   -51490   -51259   -51257   -51400   -51505   -51383 
  -51194   -51132   -51113   -51104   -51082   -50932   -50800   -50839 
  -50895   -50942   -51049   -51094   -50999   -50810   -50664   -50664 
  -50686   -50711   -50822   -50872   -50773   -50628   -50520   -50488 
  -50479   -50493   -50612   -50806   -51028   -51196   -51211   -51143 
  -51057   -50990   -50995   -50990   -50955   -51013   -51160   -51176 
  -51017   -50897   -50871   -50902   -50877   -50734   -50748   -50935 
  -51009   -50986   -50860   -50595   -50509   -50618   -50567   -50434 
  -50447   -50462   -50361   -50339   -50490   -50720   -50968   -51019 
  -50760   -50429   -50198   -50066   -50027   -50091   -50170   -50154 
  -50202   -50355   -50421   -50507   -50627   -50550   -50414   -50296 
  -50019   -49779   -49752   -49792   -49824   -49828   -49776   -49768 
  -49794   -49624   -49342   -49254   -49381   -49606   -49837   -50049 
  -50158   -50059   -49936   -49962   -50004   -49946   -49914   -49986 
  -50051   -50115   -50352   -50723   -50923   -50920   -50844   -50725 
  -50631   -50512   -50425   -50435   -50342   -50236   -50334   -50565 
  -50833   -51065   -51113   -50989   -50894   -50844   -50768   -50750 
  -50804   -50923   -51117   -51242   -51314   -51395   -51333   -51113 
  -50861   -50774   -50877   -50975   -51114   -51290   -51333   -51356 
  -51372   -51276   -51291   -51316   -51114   -51049   -51229   -51336 
  -51337   -51353   -51440   -51479   -51295   -50991   -50793   -50719 
  -50744   -50918   -50991   -50792   -50666   -50727   -50795   -50907 
  -51059   -51105   -51083   -51242   -51498   -51503   -51305   -51071 
  -50791   -50586   -50488   -50324   -50215   -50337   -50455   -50463 
  -50508   -50534   -50476   -50435   -50515   -50702   -50890   -50975 
  -51000   -51132   -51262   -51271   -51357   -51460   -51416   -51333 
  -51311   -51305   -51202   -51065   -50963   -50887   -50960   -51107 
  -51181   -51225   -51175   -51014   -50947   -51116   -51451   -51654 
  -51546   -51346   -51244   -51189   -51132   -51012   -50810   -50682 
  -50693   -50652   -50497   -50501   -50680   -50710   -50611   -50542 
  -50395   -50170   -50009   -49982   -50022   -49957   -49803   -49663 
  -49524   -49500   -49603   -49594   -49519   -49542   -49516   -49435 
  -49466   -49513   -49552   -49626   -49471   -49128   -48942   -48946 
  -49054   -49178   -49238   -49307   -49440   -49531   -49526   -49479 
  -49374   -49288   -49279   -49195   -49138   -49329   -49645   -49925 
  -50162   -50396   -50641   -50804   -50835   -50753   -50608   -50481 
  -50473   -50530   -50462   -50416   -50492   -50556   -50719   -50936 
  -51002   -51020   -51140   -51238   -51192   -51156   -51169   -51106 
  -51086   -51238   -51404   -51518   -51656   -51763   -51788   -51773 
  -51765   -51701   -51438   -51236   -51382   -51497   -51359   -51231 
  -51108   -50963   -50870   -50839   -50956   -51049   -51056   -51140 
  -51129   -51065   -51176   -51237   -51146   -51171   -51336   -51436 
  -51462   -51411   -51257   -51186   -51232   -51304   -51476   -51689 
  -51828   -51930   -51976   -51988   -51993   -51911   -51811   -51735 
  -51623   -51474   -51346   -51392   -51486   -51407   -51325   -51271 
  -51100   -50937   -50983   -51180   -51226   -51033   -50684   -50326 
  -50267   -50436   -50552   -50641   -50753   -50792   -50667   -50483 
  -50415   -50405   -50404   -50435   -50344   -50118   -50035   -50102 
  -50097   -50071   -50121   -50234   -50379   -50412   -50370   -50374 
  -50295   -50197   -50230   -50201   -50106   -50154   -50254   -50366 
  -50549   -50637   -50599   -50500   -50319   -50185   -50264   -50462 
  -50563   -50520   -50401   -50254   -50179   -50331   -50622   -50795 
  -50761   -50558   -50360   -50358   -50551   -50746   -50819   -50922 
  -51104   -51167   -51019   -50788   -50657   -50678   -50716   -50602 
  -50373   -50194   -50129   -50174   -50236   -50173   -50114   -50188 
  -50150   -49970   -49936   -50012   -50048   -50164   -50307   -50232 
  -49967   -49628   -49407   -49549   -49739   -49740   -49806   -49821 
  -49643   -49452   -49292   -49191   -49167   -49177   -49245   -49435 
  -49721   -49907   -49904   -49855   -49850   -49860   -49801   -49732 
  -49829   -49946   -49965   -49982   -49969   -49963   -50015   -50112 
  -50278   -50482   -50701   -50920   -51078   -51203   -51319   -51375 
  -51446   -51499   -51404   -51354   -51403   -51403   -51459   -51623 
  -51688   -51594   -51435   -51277   -51267   -51397   -51533   -51700 
  -51820   -51788   -51676   -51539   -51399   -51335   -51470   -51796 
  -52075   -52149   -52121   -52101   -52112   -52134   -52180   -52295 
  -52348   -52233   -52034   -51784   -51554   -51425   -51349   -51361 
  -51431   -51401   -51379   -51513   -51671   -51741   -51751   -51725 
  -51688   -51625   -51601   -51604   -51415   -51156   -51028   -50923 
  -50804   -50611   -50374   -50291   -50243   -50173   -50254   -50362 
  -50359   -50454   -50738   -50996   -51119   -51164   -51118   -50939 
  -50732   -50657   -50695   -50752   -50775   -50772   -50825   -50836 
  -50681   -50608   -50687   -50560   -50258   -50064   -49915   -49990 
  -50475   -50911   -51110   -51322   -51441   -51334   -51205   -51129 
  -50934   -50719   -50677   -50638   -50454   -50182   -49911   -49710 
  -49573   -49550   -49699   -49944   -50158   -50227   -50128   -49870 
  -49604   -49481   -49373   -49274   -49279   -49322   -49410   -49540 
  -49658   -49793   -49939   -50017   -49942   -49726   -49479   -49326 
  -49326   -49463   -49730   -50017   -50041   -49825   -49690   -49657 
  -49647   -49749   -49880   -49927   -49965   -49981   -50024   -50163 
  -50196   -50120   -50112   -50178   -50256   -50264   -50289   -50399 
  -50482   -50591   -50718   -50719   -50663   -50594   -50435   -50251 
  -50153   -50157   -50271   -50526   -50789   -50915   -51016   -51031 
  -50839   -50726   -50909   -51212   -51420   -51450   -51338   -51315 
  -51444   -51528   -51532   -51511   -51477   -51398   -51194   -51000 
  -51052   -51244   -51318   -51326   -51446   -51649   -51768   -51734 
  -51656   -51589   -51459   -51338   -51322   -51311   -51343   -51577 
  -51816   -51824   -51774   -51713   -51478   -51299   -51350   -51301 
  -51129   -51052   -50923   -50779   -50795   -50808   -50812   -50864 
  -50817   -50723   -50647   -50554   -50603   -50807   -50886   -50797 
  -50681   -50590   -50598   -50644   -50609   -50644   -50811   -50888 
  -50857   -50827   -50795   -50801   -50825   -50738   -50576   -50597 
  -50825   -50921   -50853   -50844   -50800   -50556   -50315   -50264 
  -50221   -50223   -50414   -50490   -50417   -50422   -50328   -50144 
  -50082   -50073   -50011   -49950   -50006   -50117   -50145   -50077 
  -49966   -49925   -49927   -49958   -50174   -50569   -50884   -50900 
  -50749   -50694   -50838   -51090   -51187   -51115   -50960   -50811 
  -50932   -51028   -50827   -50716   -50617   -50317   -50138   -50240 
  -50386   -50468   -50634   -50772   -50658   -50507   -50556   -50698 
  -50931   -51234   -51345   -51284   -51267   -51294   -51332   -51376 
  -51305   -51038   -50807   -50837   -50956   -51027   -51053   -50944 
  -50720   -50456   -50189   -50009   -49923   -49797   -49694   -49890 
  -50245   -50413   -50448   -50477   -50511   -50579   -50643   -50642 
  -50567   -50465   -50353   -50302   -50372   -50340   -50205   -50261 
  -50367   -50345   -50255   -50054   -49872   -49826   -49766   -49671 
  -49559   -49462   -49589   -49845   -49932   -49926   -50023   -50174 
  -50297   -50420   -50569   -50683   -50661   -50555   -50421   -50331 
  -50517   -50840   -50954   -50884   -50756   -50682   -50730   -50843 
  -50986   -51158   -51311   -51333   -51129   -50808   -50691   -50868 
  -51062   -51051   -50896   -50759   -50670   -50706   -50941   -51190 
  -51351   -51443   -51482   -51484   -51382   -51337   -51452   -51474 
  -51431   -51457   -51389   -51253   -51231   -51210   -51120   -51069 
  -51013   -51006   -51102   -51128   -51048   -50866   -50600   -50411 
  -50385   -50538   -50841   -51175   -51283   -51062   -50771   -50533 
