Origin Time       2024/04/02 04:24:00
Lat.              40.133
Long.             141.712
Depth. (km)       71
Mag.              6.0
Station Code      YMTH08
Station Lat.      38.9701
Station Long.     140.0333
Station Height(m) 115
Record Time       2024/04/02 04:25:08
Sampling Freq(Hz) 100Hz
Duration Time(s)  189
Dir.              6
Scale Factor      7845(gal)/8223790
Max. Acc. (gal)   1.620
Last Correction   2024/04/02 04:25:08
Memo.             
[...]
    -908    -1003    -1131    -1212    -1183    -1036     -849     -746 
    -758     -816     -855     -853     -800     -708     -591     -500 
    -504     -631     -812     -922     -895     -756     -580     -410 
    -241      -75       47       78       14      -82     -133     -141 
    -156     -216     -322     -440     -504     -490     -415     -314 
    -201      -97      -43      -78     -203     -395     -580     -683 
    -714     -729     -747     -754     -726     -660     -567     -456 
    -349     -268     -220     -220     -280     -391     -498     -554 
    -549     -498     -463     -515     -664     -837     -930     -900 
    -795     -708     -703     -745     -737     -666     -607     -591 
    -594     -564     -472     -346     -252     -245     -311     -375 
    -379     -340     -328     -372     -441     -479     -448     -371 
    -348     -402     -448     -430     -363     -310     -340     -432 
    -476     -425     -341     -310     -371     -515     -692     -818 
    -847     -819     -776     -730     -675     -599     -514     -452 
    -433     -450     -469     -472     -468     -465     -465     -479 
    -506     -531     -557     -591     -607     -548     -391     -193 
     -44      -13     -101     -237     -340     -365     -309     -190 
     -31      114      198      184       39     -198     -403     -514 
    -565     -584     -568     -527     -488     -503     -630     -824 
    -986    -1054    -1019     -926     -851     -846     -905     -974 
   -1001    -1000    -1012    -1053    -1078    -1001     -812     -596 
    -403     -243     -132      -94     -172     -364     -548     -598 
    -500     -348     -279     -357     -510     -633     -673     -629 
    -502     -318     -152      -82     -112     -186     -237     -243 
    -248     -318     -467     -621     -675     -606     -487     -410 
    -386     -345     -229      -39      162      272      225       63 
    -136     -334     -499     -616     -700     -730     -683     -596 
    -549     -594     -718     -818     -827     -820     -881     -996 
   -1074    -1019     -814     -562     -383     -310     -306     -340 
    -409     -475     -483     -452     -432     -441     -484     -561 
    -658     -718     -661     -490     -302     -226     -310     -448 
    -498     -400     -213      -87     -124     -249     -336     -336 
    -265     -175      -97      -55      -70     -152     -275     -371 
    -384     -376     -440     -558     -676     -792     -934    -1071 
   -1094     -997     -918     -931     -966     -953     -874     -764 
    -688     -681     -700     -685     -645     -643     -700     -747 
    -696     -540     -348     -179      -52       20       27      -40 
    -163     -283     -383     -490     -616     -734     -800     -814 
    -793     -726     -603     -438     -245      -94      -79     -226 
    -441     -572     -535     -382     -233     -197     -324     -562 
    -760     -799     -687     -511     -372     -332     -392     -513 
    -627     -689     -702     -691     -676     -681     -689     -656 
    -579     -491     -410     -346     -321     -380     -508     -595 
    -589     -537     -456     -360     -279     -205     -105        1 
      29      -91     -330     -595     -805     -900     -824     -614 
    -410     -330     -383     -480     -519     -473     -405     -364 
    -353     -338     -319     -336     -398     -465     -460     -351 
    -190      -58        5      -10      -98     -207     -283     -322 
    -395     -553     -745     -865     -893     -919    -1057    -1305 
   -1521    -1539    -1289     -872     -499     -324     -322     -395 
    -477     -553     -600     -569     -423     -217      -85     -103 
    -224     -353     -402     -338     -233     -182     -224     -351 
    -530     -726     -874     -911     -835     -708     -594     -546 
    -537     -481     -367     -256     -172     -105      -74     -117 
    -248     -444     -637     -724     -665     -527     -421     -402 
    -414     -378     -279     -143      -18       24      -37     -193 
    -410     -646     -855     -974     -954     -805     -608     -468 
    -453     -531     -589     -534     -396     -294     -286     -324 
    -325     -248     -128      -45      -60     -170     -325     -445 
    -469     -429     -425     -553     -803    -1035    -1125    -1044 
    -819     -541     -324     -220     -243     -405     -639     -792 
    -762     -596     -430     -359     -349     -314     -193       44 
     357      646      815      804      631      410      253      186 
     135        6     -253     -598     -912    -1135    -1281    -1397 
   -1503    -1560    -1537    -1460    -1382    -1356    -1398    -1437 
   -1378    -1197     -945     -692     -476     -283      -74      145 
     318      387      356      295      288      344      368      264 
      36     -232     -440     -557     -650     -796    -1021    -1297 
   -1521    -1621    -1620    -1580    -1560    -1595    -1671    -1719 
   -1665    -1520    -1371    -1290    -1247    -1139     -899     -564 
    -230        1      103      189      368      596      737      730 
     614      486      429      430      417      360      271      147 
     -14     -210     -437     -683     -927    -1112    -1167    -1121 
   -1074    -1078    -1127    -1193    -1237    -1219    -1129    -1007 
    -864     -665     -427     -226     -124      -99      -87      -97 
    -187     -330     -429     -415     -284      -81      117      210 
     130      -74     -302     -471     -526     -437     -237      -43 
      37        5      -54      -40       70      198      240      141 
     -75     -318     -486     -546     -500     -388     -322     -376 
    -530     -672     -730     -749     -778     -819     -884     -989 
   -1128    -1290    -1414    -1406    -1213     -880     -544     -348 
    -334     -436     -540     -584     -575     -573     -638     -729 
    -749     -653     -465     -268     -153     -152     -234     -365 
    -538     -753     -966    -1108    -1136    -1061     -957     -896 
    -866     -822     -727     -576     -415     -299     -214     -125 
     -52      -70     -218     -459     -676     -757     -710     -615 
    -519     -444     -427     -488     -616     -778     -909     -958 
    -908     -770     -606     -508     -525     -623     -711     -716 
    -638     -537     -504     -571     -646     -635     -548     -472 
    -488     -575     -623     -525     -274       41      338      572 
     715      730      585      301      -28     -284     -405     -399 
    -337     -291     -298     -348     -378     -318     -164       13 
     109       63      -89     -264     -403     -502     -581     -687 
    -851    -1047    -1229    -1364    -1389    -1271    -1057     -826 
    -666     -634     -703     -769     -724     -542     -292      -56 
     144      298      434      580      696      737      723      702 
     673      622      522      333       55     -249     -502     -666 
    -783     -907    -1008    -1032     -999     -976    -1021    -1156 
   -1321    -1428    -1444    -1389    -1318    -1260    -1175    -1048 
    -916     -801     -702     -591     -415     -166       89      255 
     271      148      -27     -187     -342     -525     -760    -1008 
   -1167    -1181    -1088     -932     -743     -545     -367     -260 
    -236     -245     -261     -295     -359     -483     -676     -889 
   -1054    -1142    -1170    -1162    -1080     -896     -643     -392 
    -216     -139     -130     -159     -218     -305     -371     -378 
    -319     -210      -82        0        4      -63     -170     -271 
    -364     -504     -708     -927    -1119    -1283    -1406    -1444 
   -1366    -1162     -853     -486     -110      220      444      515 
     437      244      -12     -260     -432     -525     -567     -572 
    -565     -542     -454     -295     -114       28      101      112 
      85       37      -33     -163     -357     -525     -565     -473 
    -328     -182      -64       20       82      129      145      136 
     152      216      270      240       95     -136     -398     -635 
    -803     -868     -835     -756     -670     -607     -571     -522 
    -440     -353     -322     -375     -500     -665     -827     -957 
   -1058    -1127    -1120    -1020     -873     -735     -662     -699 
    -843    -1038    -1194    -1275    -1325    -1379    -1424    -1455 
   -1466    -1435    -1351    -1215    -1036     -851     -689     -571 
    -506     -503     -557     -645     -741     -811     -811     -746 
    -666     -602     -538     -448     -333     -236     -207     -280 
    -444     -648     -831     -934     -936     -895     -874     -889 
    -907     -904     -889     -892     -922     -985    -1090    -1209 
   -1297    -1339    -1324    -1237    -1112     -981     -834     -652 
    -433     -174       98      328      472      527      514      452 
     355      240      129       25     -103     -264     -411     -517 
    -572     -564     -494     -380     -255     -147      -58       16 
      54       31      -39     -133     -240     -361     -488     -594 
    -641     -625     -535     -359     -130       71      193      225 
     190      112      -12     -175     -360     -554     -741     -897 
   -1008    -1047    -1001     -877     -692     -481     -283     -101 
      45      121      125       79       21        4       10      -28 
    -145     -336     -545     -703     -795     -866     -959    -1092 
   -1252    -1413    -1539    -1591    -1548    -1445    -1347    -1283 
   -1239    -1197    -1112     -936     -716     -564     -565     -714 
    -931    -1105    -1138    -1026     -855     -719     -693     -774 
    -866     -889     -801     -587     -319     -109       -5       -2 
     -55     -102     -121     -109      -55       24       97      133 
     108       35      -29      -67     -108     -174     -261     -345 
    -371     -326     -260     -213     -189     -180     -159      -86 
       5       62       58        5      -82     -210     -355     -475 
    -552     -604     -657     -681     -621     -472     -261        1 
     286      537      699      731      634      453      244       44 
    -133     -282     -390     -450     -459     -419     -334     -210 
     -67       59      129      129       78       -6     -112     -207 
    -292     -361     -425     -508     -610     -689     -724     -708 
    -639     -549     -487     -479     -510     -545     -577     -622 
    -706     -812     -897     -942     -955     -950     -943     -942 
    -913     -818     -648     -460     -348     -352     -429     -492 
    -472     -375     -286     -291     -400     -558     -696     -769 
    -757     -692     -638     -646     -715     -793     -823     -778 
    -688     -619     -622     -689     -772     -815     -795     -714 
    -603     -511     -471     -477     -488     -429     -301     -183 
    -139     -160     -162      -68       68      113      -21     -303 
    -614     -816     -857     -810     -753     -691     -602     -483 
    -357     -268     -233     -217     -197     -182     -211     -322 
    -507     -714     -876     -940     -913     -877     -907     -993 
   -1058    -1024     -886     -715     -589     -549     -591     -696 
    -838     -989    -1121    -1202    -1212    -1182    -1175    -1237 
   -1339    -1405    -1393    -1327    -1250    -1156    -1012     -796 
    -525     -252      -44       54       39      -52     -171     -275 
    -353     -407     -446     -500     -603     -760     -928    -1051 
   -1109    -1112    -1085    -1043     -982     -892     -766     -623 
    -507     -452     -459     -508     -554     -552     -492     -410 
    -346     -305     -264     -216     -157     -101      -51        8 
      68      108      120      109       97      106      124      128 
     108       64       18        4       25       75      151      238 
     318      400      476      515      522      507      469      421 
     372      314      253      206      180      168      152      137 
     151      179      182      140       49      -71     -186     -286 
    -402     -562     -757     -950    -1113    -1242    -1332    -1367 
   -1337    -1271    -1210    -1152    -1093    -1059    -1080    -1170 
   -1316    -1467    -1586    -1640    -1609    -1512    -1381    -1247 
   -1150    -1109    -1112    -1123    -1093    -1015     -942     -931 
    -997    -1111    -1232    -1333    -1372    -1302    -1115     -857 
    -595     -384     -272     -251     -264     -240     -155      -37 
      83      191      260      276      240      140      -10     -159 
    -247     -268     -307     -454     -687     -886     -972     -955 
    -911     -892     -882     -827     -706     -558     -459     -446 
    -486     -527     -558     -579     -579     -556     -522     -491 
    -477     -484     -504     -530     -556     -575     -583     -576 
    -579     -610     -638     -612     -513     -376     -253     -141 
      -5      149      272      303      256      195      166      166 
     187      230      279      321      372      415      382      268 
     148       87      120      210      260      206       66      -93 
    -213     -287     -342     -432     -599     -823    -1036    -1206 
   -1360    -1533    -1709    -1842    -1933    -2011    -2104    -2182 
   -2164    -2000    -1710    -1379    -1131     -990     -880     -745 
    -589     -441     -318     -216     -135      -82      -41      -25 
     -58     -120     -170     -207     -234     -233     -201     -170 
    -160     -168     -194     -241     -319     -427     -546     -654 
    -718     -703     -612     -486     -360     -244     -133      -35 
      59      159      251      311      307      211       52     -120 
    -280     -413     -510     -556     -521     -411     -243      -29 
     191      384      518      569      531      405      201      -27 
    -214     -329     -371     -348     -292     -265     -305     -400 
    -503     -550     -517     -421     -274      -99       49      147 
     190      195      168       95      -31     -202     -403     -588 
    -702     -743     -766     -819     -907     -996    -1040    -1026 
    -984     -962     -985    -1032    -1075    -1120    -1185    -1259 
   -1337    -1429    -1514    -1555    -1528    -1444    -1341    -1224 
   -1090     -978     -920     -892     -855     -791     -719     -666 
    -658     -692     -712     -680     -616     -548     -498     -472 
    -453     -427     -418     -456     -542     -623     -645     -618 
    -606     -650     -760     -882     -954     -953     -923     -912 
    -924     -928     -877     -761     -643     -584     -584     -607 
    -606     -569     -556     -615     -754     -939    -1090    -1156 
   -1150    -1104    -1040     -946     -804     -619     -441     -351 
    -367     -417     -414     -355     -309     -309     -294     -201 
     -43       90      121       44      -51      -67       13      120 
     164      124       31      -64     -139     -194     -255     -321 
    -360     -315     -186      -31       70      101      126      207 
     332      452      526      541      506      440      383      341 
     284      238      253      326      418      468      448      384 
     295      176       44      -91     -232     -367     -504     -638 
    -746     -827     -862     -842     -810     -812     -846     -869 
    -851     -796     -722     -658     -615     -568     -510     -483 
    -538     -691     -896    -1081    -1198    -1232    -1205    -1178 
   -1174    -1188    -1196    -1165    -1077     -940     -785     -661 
    -575     -477     -340     -175      -22       58       39      -51 
    -182     -329     -468     -608     -756     -888     -985    -1039 
   -1054    -1055    -1050    -1042    -1038    -1011     -962     -916 
    -873     -830     -803     -799     -823     -880     -947     -990 
   -1012    -1044    -1120    -1224    -1302    -1317    -1297    -1282 
   -1290    -1317    -1333    -1302    -1216    -1092     -965     -864 
    -765     -634     -491     -378     -340     -379     -432     -434 
    -403     -390     -436     -534     -635     -710     -754     -769 
    -747     -700     -666     -669     -681     -660     -585     -490 
    -426     -400     -379     -324     -226     -135      -98      -93 
     -54       48      190      328      417      456      484      519 
     545      561      573      602      662      738      796      816 
     801      783      791      816      827      789      696      575 
     453      344      247      139       32      -49     -130     -244 
    -392     -529     -614     -650     -660     -669     -697     -729 
    -737     -719     -685     -657     -664     -699     -723     -693 
    -581     -407     -243     -159     -175     -265     -391     -510 
    -591     -627     -631     -635     -658     -689     -729     -766 
    -749     -668     -554     -457     -426     -464     -521     -541 
    -502     -423     -355     -329     -328     -288     -160       44 
     234      313      247       78     -125     -310     -441     -506 
    -527     -546     -599     -691     -814     -936    -1039    -1132 
   -1247    -1372    -1479    -1561    -1624    -1667    -1713    -1763 
   -1787    -1777    -1760    -1741    -1707    -1636    -1524    -1410 
   -1335    -1291    -1262    -1244    -1231    -1202    -1150    -1080 
    -997     -901     -811     -746     -708     -703     -726     -741 
    -716     -642     -529     -402     -288     -225     -222     -248 
    -283     -338     -394     -392     -297     -132       28      122 
     137      103       63       47       44       32       28       71 
     160      249      276      214       98      -24     -117     -172 
    -213     -249     -280     -332     -422     -535     -623     -633 
    -549     -405     -256     -151     -106     -117     -170     -253 
    -344     -417     -452     -445     -427     -440     -475     -495 
    -459     -359     -230     -136     -124     -191     -275     -334 
    -373     -400     -427     -473     -518     -515     -463     -399 
    -372     -417     -515     -587     -584     -533     -479     -430 
    -388     -376     -410     -465     -511     -515     -475     -429 
    -410     -429     -460     -457     -430     -440     -527     -675 
    -807     -854     -808     -714     -631     -610     -661     -764 
    -891    -1032    -1162    -1239    -1244    -1189    -1109    -1055 
   -1026     -973     -884     -780     -681     -606     -552     -510 
    -488     -486     -486     -475     -453     -440     -436     -429 
    -413     -398     -388     -346     -251     -117       18      122 
     184      220      220      174      109       52       -4      -74 
    -176     -321     -452     -492     -410     -237      -49       72 
     109       87       39      -21      -89     -157     -213     -267 
    -356     -490     -646     -796     -908     -958     -974    -1000 
   -1073    -1217    -1412    -1572    -1636    -1606    -1543    -1514 
