Origin Time       2024/04/02 04:24:00
Lat.              40.133
Long.             141.712
Depth. (km)       71
Mag.              6.0
Station Code      YMTH02
Station Lat.      38.2693
Station Long.     140.2583
Station Height(m) -20
Record Time       2024/04/02 04:25:20
Sampling Freq(Hz) 100Hz
Duration Time(s)  120
Dir.              1
Scale Factor      2942(gal)/8224139
Max. Acc. (gal)   1.201
Last Correction   2024/04/02 04:25:21
Memo.             
[...]
  -51123   -51073   -50986   -50851   -50708   -50603   -50553   -50546 
  -50549   -50515   -50418   -50310   -50259   -50272   -50303   -50303 
  -50280   -50237   -50163   -50091   -50063   -50062   -50087   -50152 
  -50228   -50291   -50357   -50422   -50477   -50530   -50583   -50629 
  -50660   -50665   -50641   -50599   -50539   -50460   -50372   -50291 
  -50217   -50149   -50093   -50043   -49994   -49963   -49966   -49997 
  -50075   -50207   -50340   -50417   -50423   -50376   -50333   -50341 
  -50357   -50311   -50213   -50116   -50060   -50051   -50063   -50099 
  -50171   -50248   -50282   -50240   -50126   -49975   -49819   -49667 
  -49558   -49531   -49555   -49586   -49589   -49536   -49472   -49461 
  -49495   -49551   -49623   -49666   -49647   -49559   -49420   -49296 
  -49262   -49281   -49297   -49316   -49296   -49185   -49054   -48976 
  -48959   -49022   -49189   -49435   -49677   -49866   -50024   -50118 
  -50068   -49974   -49937   -49912   -49927   -49999   -50063   -50116 
  -50124   -50058   -50026   -50102   -50237   -50404   -50587   -50764 
  -50930   -51023   -50998   -50942   -50938   -50982   -51034   -51048 
  -51000   -50909   -50803   -50641   -50410   -50176   -49968   -49763 
  -49578   -49478   -49509   -49643   -49854   -50156   -50525   -50890 
  -51223   -51505   -51711   -51868   -52045   -52224   -52370   -52504 
  -52609   -52683   -52803   -52965   -53086   -53140   -53126   -53036 
  -52898   -52752   -52604   -52420   -52192   -51960   -51742   -51528 
  -51359   -51275   -51231   -51194   -51204   -51308   -51514   -51752 
  -51923   -51976   -51933   -51844   -51698   -51474   -51204   -50869 
  -50473   -50110   -49774   -49418   -49104   -48884   -48756   -48772 
  -48946   -49208   -49511   -49793   -50008   -50159   -50247   -50295 
  -50352   -50419   -50480   -50511   -50496   -50441   -50377   -50326 
  -50323   -50402   -50475   -50454   -50383   -50313   -50257   -50255 
  -50342   -50481   -50638   -50831   -51086   -51345   -51537   -51732 
  -51983   -52199   -52334   -52400   -52398   -52359   -52270   -52085 
  -51835   -51560   -51289   -51085   -50992   -50978   -51001   -51079 
  -51198   -51294   -51343   -51341   -51295   -51239   -51144   -50974 
  -50785   -50641   -50526   -50396   -50225   -50009   -49775   -49547 
  -49297   -49007   -48705   -48442   -48250   -48120   -48020   -47973 
  -48016   -48132   -48285   -48447   -48628   -48887   -49268   -49738 
  -50201   -50599   -50931   -51155   -51220   -51159   -51040   -50947 
  -50924   -50916   -50903   -50905   -50930   -50996   -51116   -51270 
  -51428   -51576   -51713   -51798   -51786   -51711   -51659   -51634 
  -51632   -51679   -51746   -51748   -51652   -51495   -51289   -50993 
  -50618   -50221   -49858   -49578   -49388   -49235   -49060   -48847 
  -48629   -48447   -48323   -48293   -48409   -48612   -48832   -49121 
  -49480   -49852   -50230   -50558   -50755   -50847   -50885   -50855 
  -50745   -50566   -50344   -50126   -49943   -49800   -49729   -49723 
  -49720   -49738   -49825   -50010   -50310   -50689   -51104   -51543 
  -51946   -52280   -52601   -52906   -53140   -53293   -53366   -53350 
  -53237   -52987   -52605   -52180   -51802   -51468   -51138   -50820 
  -50544   -50309   -50134   -50052   -50075   -50201   -50402   -50589 
  -50665   -50619   -50519   -50368   -50153   -49937   -49773   -49697 
  -49707   -49755   -49820   -49910   -50056   -50256   -50442   -50549 
  -50544   -50426   -50257   -50121   -50062   -50059   -50090   -50157 
  -50245   -50328   -50390   -50407   -50390   -50369   -50386   -50488 
  -50680   -50905   -51102   -51250   -51328   -51298   -51182   -51088 
  -51092   -51212   -51429   -51649   -51791   -51856   -51830   -51727 
  -51638   -51571   -51506   -51513   -51606   -51721   -51834   -51973 
  -52114   -52188   -52166   -52056   -51880   -51736   -51669   -51615 
  -51525   -51379   -51100   -50639   -50090   -49574   -49142   -48834 
  -48714   -48730   -48743   -48702   -48609   -48496   -48467   -48648 
  -49059   -49566   -50013   -50296   -50363   -50228   -49901   -49428 
  -48980   -48701   -48605   -48664   -48891   -49246   -49630   -50017 
  -50411   -50766   -51065   -51294   -51421   -51405   -51216   -50897 
  -50545   -50283   -50171   -50134   -50122   -50140   -50141   -50086 
  -50022   -50022   -50078   -50190   -50361   -50514   -50595   -50610 
  -50556   -50487   -50431   -50336   -50190   -50016   -49842   -49786 
  -49896   -50063   -50205   -50244   -50126   -49913   -49715   -49651 
  -49759   -49959   -50175   -50382   -50556   -50666   -50685   -50610 
  -50499   -50450   -50546   -50792   -51113   -51430   -51691   -51877 
  -51988   -51987   -51833   -51595   -51389   -51232   -51074   -50886 
  -50695   -50494   -50247   -49978   -49790   -49727   -49721   -49705 
  -49696   -49750   -49870   -49974   -50021   -50044   -50035   -49986 
  -49939   -49916   -49966   -50145   -50422   -50707   -50944   -51144 
  -51314   -51420   -51439   -51386   -51316   -51321   -51430   -51552 
  -51583   -51505   -51386   -51301   -51259   -51258   -51285   -51341 
  -51452   -51602   -51733   -51784   -51754   -51718   -51765   -51930 
  -52141   -52296   -52367   -52378   -52320   -52154   -51902   -51630 
  -51362   -51097   -50868   -50708   -50619   -50589   -50607   -50625 
  -50631   -50626   -50599   -50546   -50445   -50314   -50205   -50147 
  -50082   -49867   -49627   -49644   -49740   -49748   -49882   -50032 
  -50001   -49885   -49663   -49377   -49207   -49231   -49443   -49771 
  -50156   -50521   -50788   -51043   -51221   -51175   -51007   -50755 
  -50531   -50452   -50287   -50078   -50048   -50008   -49968   -50091 
  -50282   -50561   -50955   -51355   -51722   -51896   -51792   -51676 
  -51599   -51356   -51093   -50936   -50785   -50697   -50677   -50619 
  -50533   -50438   -50377   -50345   -50249   -50191   -50279   -50350 
  -50360   -50373   -50360   -50323   -50275   -50252   -50278   -50350 
  -50533   -50773   -51019   -51266   -51366   -51281   -51098   -50847 
  -50639   -50522   -50406   -50299   -50244   -50205   -50125   -49993 
  -49875   -49816   -49752   -49644   -49547   -49511   -49565   -49720 
  -49910   -50090   -50291   -50506   -50668   -50780   -50900   -51004 
  -51084   -51181   -51259   -51262   -51148   -50908   -50619   -50355 
  -50132   -49968   -49843   -49752   -49773   -49928   -50153   -50403 
  -50674   -50917   -51104   -51262   -51397   -51509   -51640   -51788 
  -51914   -52014   -52111   -52228   -52351   -52429   -52407   -52281 
  -52154   -52091   -52029   -51976   -51981   -52014   -52058   -52107 
  -52145   -52197   -52278   -52344   -52374   -52388   -52392   -52369 
  -52301   -52177   -51987   -51750   -51480   -51120   -50642   -50105 
  -49601   -49241   -49076   -49113   -49338   -49663   -49943   -50087 
  -50074   -49958   -49821   -49723   -49678   -49657   -49662   -49705 
  -49744   -49763   -49752   -49674   -49561   -49470   -49416   -49451 
  -49636   -49905   -50136   -50337   -50556   -50765   -50913   -50963 
  -50919   -50827   -50684   -50461   -50186   -49894   -49619   -49459 
  -49454   -49524   -49615   -49704   -49770   -49820   -49851   -49840 
  -49794   -49723   -49624   -49482   -49299   -49115   -48969   -48828 
  -48635   -48455   -48392   -48401   -48440   -48594   -48890   -49248 
  -49573   -49781   -49860   -49905   -49974   -50059   -50139   -50194 
  -50188   -50098   -49998   -49977   -50040   -50147   -50267   -50404 
  -50565   -50723   -50839   -50899   -50931   -50962   -50959   -50874 
  -50685   -50415   -50124   -49894   -49779   -49770   -49809   -49863 
  -49967   -50175   -50488   -50874   -51266   -51576   -51784   -51931 
  -52042   -52139   -52249   -52350   -52388   -52350   -52277   -52195 
  -52103   -52045   -52060   -52068   -51981   -51802   -51536   -51229 
  -50955   -50692   -50415   -50172   -49983   -49855   -49806   -49798 
  -49810   -49873   -49939   -49944   -49920   -49866   -49786   -49739 
  -49655   -49492   -49330   -49198   -49157   -49276   -49512   -49858 
  -50275   -50692   -51112   -51522   -51885   -52197   -52417   -52481 
  -52405   -52258   -52087   -51922   -51773   -51614   -51417   -51220 
  -51094   -51036   -51021   -51102   -51263   -51426   -51587   -51709 
  -51748   -51742   -51719   -51655   -51524   -51341   -51166   -51042 
  -50981   -50959   -50967   -51024   -51077   -51054   -51004   -51008 
  -51073   -51142   -51139   -51074   -51019   -50946   -50832   -50753 
  -50762   -50878   -51042   -51102   -50950   -50576   -50089   -49658 
  -49376   -49234   -49184   -49172   -49153   -49135   -49149   -49207 
  -49296   -49389   -49469   -49523   -49555   -49599   -49666   -49773 
  -49951   -50202   -50483   -50719   -50863   -50901   -50832   -50699 
  -50546   -50377   -50257   -50240   -50318   -50517   -50762   -50919 
  -51032   -51210   -51460   -51714   -51876   -51877   -51737   -51540 
  -51345   -51177   -51061   -51000   -50962   -50936   -50931   -50936 
  -50896   -50757   -50526   -50257   -50013   -49812   -49643   -49528 
  -49535   -49713   -50051   -50484   -50949   -51418   -51889   -52382 
  -52897   -53337   -53588   -53622   -53488   -53272   -53042   -52824 
  -52609   -52369   -52074   -51787   -51586   -51474   -51433   -51462 
  -51552   -51707   -51918   -52124   -52246   -52276   -52274   -52262 
  -52220   -52172   -52131   -52070   -51934   -51684   -51370   -51067 
  -50805   -50542   -50222   -49869   -49555   -49335   -49198   -49057 
  -48856   -48648   -48506   -48397   -48254   -48105   -48073   -48219 
  -48465   -48744   -49049   -49334   -49527   -49596   -49567   -49505 
  -49430   -49361   -49362   -49432   -49495   -49509   -49473   -49365 
  -49187   -48998   -48837   -48687   -48524   -48358   -48224   -48186 
  -48298   -48583   -49026   -49528   -49954   -50237   -50427   -50593 
  -50731   -50828   -50907   -50963   -50955   -50859   -50735   -50626 
  -50529   -50448   -50387   -50390   -50491   -50620   -50684   -50661 
  -50558   -50388   -50202   -50055   -49947   -49852   -49716   -49477 
  -49169   -48897   -48716   -48654   -48724   -48897   -49181   -49569 
  -49939   -50198   -50365   -50472   -50580   -50762   -51025   -51343 
  -51682   -51975   -52159   -52238   -52245   -52169   -52035   -51896 
  -51764   -51651   -51590   -51606   -51696   -51796   -51823   -51757 
  -51618   -51445   -51295   -51227   -51275   -51449   -51713   -51972 
  -52131   -52131   -51973   -51723   -51435   -51115   -50795   -50492 
  -50198   -49932   -49701   -49524   -49410   -49312   -49252   -49276 
  -49315   -49266   -49150   -49040   -48936   -48817   -48709   -48660 
  -48710   -48856   -49086   -49370   -49650   -49879   -50072   -50247 
  -50390   -50494   -50587   -50696   -50795   -50862   -50903   -50917 
  -50940   -51007   -51138   -51356   -51633   -51887   -52092   -52266 
  -52402   -52502   -52587   -52663   -52712   -52758   -52834   -52897 
  -52864   -52741   -52558   -52355   -52204   -52108   -52020   -51937 
  -51853   -51721   -51493   -51163   -50791   -50471   -50263   -50188 
  -50233   -50322   -50352   -50268   -50120   -49950   -49736   -49495 
  -49273   -49080   -48888   -48717   -48621   -48591   -48568   -48547 
  -48529   -48528   -48602   -48766   -48990   -49230   -49431   -49593 
  -49740   -49879   -49993   -50058   -50090   -50145   -50271   -50457 
  -50642   -50793   -50953   -51163   -51422   -51686   -51869   -51903 
  -51834   -51783   -51823   -51958   -52128   -52242   -52263   -52212 
  -52127   -52080   -52072   -52023   -51911   -51777   -51652   -51568 
  -51553   -51548   -51455   -51273   -51100   -50996   -50909   -50804 
  -50708   -50618   -50502   -50357   -50174   -49974   -49862   -49909 
  -50064   -50233   -50342   -50402   -50473   -50537   -50527   -50460 
  -50314   -50125   -50031   -50010   -49945   -49846   -49742   -49644 
  -49608   -49686   -49881   -50102   -50268   -50379   -50425   -50429 
  -50472   -50583   -50712   -50788   -50785   -50708   -50561   -50409 
  -50326   -50330   -50410   -50544   -50758   -51077   -51347   -51394 
  -51314   -51267   -51220   -51136   -51127   -51162   -51131   -51109 
  -51089   -50974   -50865   -50857   -50911   -51009   -51142   -51254 
  -51279   -51190   -51038   -50889   -50733   -50561   -50449   -50454 
  -50548   -50679   -50734   -50611   -50367   -50109   -49890   -49750 
  -49723   -49842   -50093   -50355   -50511   -50616   -50746   -50853 
  -50915   -50938   -50905   -50846   -50751   -50626   -50503   -50360 
  -50202   -50051   -49905   -49773   -49631   -49505   -49442   -49469 
  -49616   -49832   -50085   -50391   -50704   -50981   -51200   -51291 
  -51274   -51231   -51173   -51124   -51140   -51244   -51425   -51601 
  -51687   -51759   -51877   -51981   -52045   -52095   -52110   -52031 
  -51849   -51597   -51309   -51048   -50845   -50712   -50661   -50619 
  -50566   -50502   -50383   -50252   -50160   -50109   -50153   -50325 
  -50427   -50247   -49994   -49890   -49762   -49644   -49612   -49550 
  -49555   -49657   -49724   -49779   -49829   -49823   -49762   -49653 
  -49570   -49572   -49566   -49484   -49383   -49322   -49285   -49242 
  -49210   -49223   -49345   -49624   -49981   -50298   -50533   -50710 
  -50873   -50970   -51005   -51113   -51313   -51586   -51921   -52203 
  -52424   -52612   -52732   -52845   -53048   -53388   -53736   -53909 
  -53954   -53904   -53685   -53339   -52915   -52450   -52016   -51644 
  -51317   -51027   -50797   -50661   -50593   -50537   -50446   -50322 
  -50174   -49991   -49825   -49698   -49545   -49380   -49234   -49026 
  -48762   -48552   -48404   -48222   -48000   -47854   -47823   -47903 
  -48111   -48344   -48541   -48759   -48933   -49021   -49108   -49254 
  -49481   -49754   -50008   -50256   -50483   -50647   -50795   -50927 
  -51004   -51013   -50928   -50753   -50518   -50259   -50067   -50041 
  -50164   -50379   -50650   -50907   -51113   -51266   -51301   -51201 
  -51036   -50885   -50796   -50832   -51003   -51200   -51382   -51553 
  -51622   -51564   -51449   -51343   -51293   -51275   -51229   -51154 
  -51077   -51008   -50965   -50940   -50931   -50973   -51019   -51030 
  -51065   -51085   -51051   -51070   -51163   -51252   -51363   -51559 
  -51775   -51876   -51757   -51514   -51356   -51258   -51077   -50836 
  -50598   -50427   -50373   -50337   -50244   -50151   -50076   -50044 
  -50101   -50225   -50386   -50549   -50634   -50606   -50511   -50402 
  -50288   -50172   -50090   -50028   -49956   -49914   -49906   -49877 
  -49821   -49762   -49713   -49669   -49584   -49432   -49279   -49189 
  -49161   -49145   -49121   -49131   -49203   -49306   -49395   -49461 
  -49539   -49640   -49717   -49734   -49684   -49582   -49484   -49450 
  -49473   -49505   -49545   -49620   -49736   -49855   -49941   -50009 
  -50126   -50322   -50539   -50719   -50822   -50823   -50769   -50697 
  -50608   -50515   -50463   -50495   -50614   -50774   -50957   -51150 
  -51328   -51430   -51433   -51376   -51310   -51244   -51159   -51043 
  -50913   -50809   -50768   -50751   -50765   -50870   -51015   -51148 
  -51290   -51366   -51341   -51278   -51201   -51156   -51198   -51314 
  -51467   -51613   -51699   -51706   -51663   -51638   -51663   -51706 
  -51722   -51687   -51614   -51557   -51537   -51526   -51486   -51374 
  -51227   -51139   -51120   -51071   -50930   -50745   -50595   -50448 
  -50230   -49991   -49802   -49643   -49538   -49530   -49596   -49686 
  -49725   -49666   -49522   -49315   -49113   -48984   -48960   -49059 
  -49257   -49485   -49690   -49863   -50008   -50134   -50290   -50507 
  -50778   -51052   -51217   -51235   -51209   -51232   -51314   -51391 
  -51443   -51522   -51619   -51696   -51779   -51857   -51872   -51792 
  -51676   -51599   -51548   -51514   -51513   -51513   -51503   -51521 
  -51568   -51642   -51711   -51727   -51740   -51772   -51803   -51848 
  -51854   -51773   -51637   -51466   -51295   -51146   -50939   -50653 
  -50363   -50090   -49827   -49617   -49489   -49407   -49342   -49291 
  -49283   -49374   -49545   -49713   -49839   -49925   -49968   -49955 
  -49920   -49923   -49964   -50025   -50144   -50348   -50612   -50888 
  -51100   -51220   -51286   -51304   -51255   -51129   -50981   -50861 
  -50761   -50735   -50800   -50866   -50916   -50970   -51005   -50982 
  -50855   -50680   -50565   -50469   -50309   -50198   -50190   -50137 
  -50013   -49909   -49798   -49648   -49534   -49478   -49469   -49505 
  -49528   -49474   -49356   -49215   -49113   -49076   -49072   -49098 
  -49168   -49246   -49329   -49420   -49482   -49523   -49608   -49754 
  -49937   -50145   -50337   -50469   -50557   -50588   -50515   -50382 
  -50232   -50068   -49910   -49731   -49527   -49405   -49445   -49624 
  -49902   -50242   -50577   -50823   -50986   -51102   -51166   -51246 
  -51410   -51618   -51829   -52022   -52189   -52342   -52479   -52616 
  -52805   -53036   -53242   -53373   -53392   -53311   -53164   -52938 
  -52640   -52326   -52050   -51844   -51719   -51675   -51649   -51579 
  -51501   -51451   -51433   -51462   -51511   -51578   -51668   -51737 
  -51781   -51837   -51873   -51844   -51696   -51439   -51173   -50922 
  -50653   -50433   -50252   -50014   -49771   -49612   -49455   -49279 
  -49214   -49279   -49420   -49585   -49685   -49735   -49761   -49728 
  -49680   -49655   -49688   -49782   -49829   -49840   -49929   -50106 
  -50330   -50522   -50661   -50793   -50882   -50917   -50949   -50974 
  -50970   -50926   -50830   -50626   -50346   -50184   -50183   -50237 
  -50367   -50587   -50801   -50980   -51162   -51363   -51555   -51703 
  -51827   -51948   -52065   -52157   -52184   -52177   -52165   -52123 
  -52081   -52070   -52015   -51853   -51656   -51475   -51283   -51050 
  -50768   -50527   -50411   -50355   -50340   -50422   -50517   -50538 
  -50503   -50373   -50171   -49986   -49813   -49669   -49588   -49501 
  -49373   -49287   -49306   -49354   -49350   -49318   -49285   -49270 
  -49302   -49357   -49380   -49327   -49189   -49005   -48838   -48749 
  -48741   -48755   -48798   -48905   -49014   -49084   -49169   -49280 
  -49397   -49539   -49686   -49848   -50067   -50333   -50627   -50899 
  -51066   -51129   -51121   -51007   -50787   -50542   -50288   -50001 
  -49715   -49465   -49269   -49171   -49180   -49272   -49381   -49473 
  -49572   -49642   -49658   -49671   -49716   -49815   -49967   -50114 
  -50225   -50305   -50388   -50475   -50491   -50394   -50234   -50059 
  -49905   -49847   -49870   -49900   -49920   -49898   -49856   -49920 
  -50067   -50220   -50429   -50660   -50839   -51034   -51282   -51506 
  -51618   -51619   -51568   -51499   -51463   -51463   -51464   -51513 
  -51651   -51808   -51902   -51925   -51925   -51912   -51860   -51752 
  -51582   -51358   -51129   -50942   -50827   -50858   -51032   -51236 
  -51390   -51490   -51564   -51619   -51613   -51516   -51379   -51244 
  -51065   -50865   -50696   -50495   -50275   -50103   -49929   -49746 
  -49623   -49578   -49592   -49654   -49747   -49869   -50037   -50251 
  -50461   -50635   -50800   -50950   -51039   -51102   -51198   -51309 
  -51435   -51615   -51868   -52127   -52300   -52374   -52400   -52404 
