Origin Time       2024/04/02 04:24:00
Lat.              40.133
Long.             141.712
Depth. (km)       71
Mag.              6.0
Station Code      YMTH13
Station Lat.      38.4704
Station Long.     139.7606
Station Height(m) 161
Record Time       2024/04/02 04:25:14
Sampling Freq(Hz) 100Hz
Duration Time(s)  120
Dir.              1
Scale Factor      2942(gal)/8224139
Max. Acc. (gal)   0.289
Last Correction   2024/04/02 04:25:14
Memo.             
[...]
   97915    97888    97861    97843    97827    97799    97767    97749 
   97749    97756    97773    97802    97837    97877    97923    97960 
   97991    98019    98031    98035    98049    98065    98085    98108 
   98130    98150    98173    98201    98226    98236    98223    98189 
   98153    98123    98099    98074    98047    98014    97969    97930 
   97904    97881    97861    97841    97804    97758    97721    97688 
   97657    97630    97614    97613    97619    97634    97648    97650 
   97645    97645    97661    97690    97718    97734    97749    97764 
   97772    97776    97775    97769    97769    97764    97749    97744 
   97750    97752    97741    97733    97734    97742    97758    97783 
   97816    97850    97875    97891    97911    97939    97976    98015 
   98050    98082    98113    98124    98116    98109    98118    98138 
   98165    98197    98223    98243    98262    98269    98262    98257 
   98255    98242    98215    98193    98178    98166    98167    98185 
   98207    98231    98259    98288    98302    98297    98274    98236 
   98178    98097    98012    97946    97896    97868    97868    97883 
   97903    97926    97938    97935    97935    97938    97934    97924 
   97907    97883    97861    97849    97848    97864    97896    97918 
   97922    97910    97884    97853    97827    97812    97800    97791 
   97791    97798    97810    97834    97864    97888    97902    97906 
   97893    97869    97838    97800    97754    97710    97680    97667 
   97659    97648    97642    97648    97656    97675    97711    97758 
   97804    97839    97862    97877    97883    97885    97893    97902 
   97918    97957    98000    98020    98028    98032    98034    98041 
   98058    98073    98084    98107    98138    98157    98161    98161 
   98165    98169    98172    98172    98176    98201    98250    98288 
   98305    98315    98316    98312    98313    98316    98308    98292 
   98269    98238    98204    98161    98107    98062    98028    97995 
   97958    97915    97876    97848    97816    97780    97738    97684 
   97627    97582    97557    97545    97541    97546    97545    97530 
   97509    97490    97470    97449    97434    97437    97455    97476 
   97497    97519    97544    97567    97592    97622    97648    97679 
   97719    97749    97769    97795    97834    97876    97919    97974 
   98034    98073    98085    98086    98088    98084    98076    98069 
   98066    98066    98072    98088    98109    98138    98170    98196 
   98212    98234    98255    98273    98292    98305    98311    98307 
   98298    98285    98263    98239    98213    98184    98153    98127 
   98112    98097    98074    98045    98022    98016    98030    98062 
   98109    98153    98173    98173    98157    98130    98100    98074 
   98053    98043    98042    98037    98024    98003    97966    97919 
   97876    97838    97795    97757    97730    97704    97684    97679 
   97690    97710    97735    97761    97789    97812    97835    97870 
   97892    97877    97849    97823    97796    97771    97752    97738 
   97730    97729    97735    97744    97742    97731    97726    97723 
   97718    97717    97727    97744    97768    97792    97803    97803 
   97800    97802    97806    97808    97818    97838    97857    97885 
   97933    97988    98046    98099    98131    98151    98178    98213 
   98250    98292    98342    98397    98451    98493    98514    98500 
   98446    98371    98286    98197    98124    98074    98049    98046 
   98058    98072    98080    98085    98086    98086    98077    98051 
   98008    97961    97915    97876    97843    97822    97815    97806 
   97784    97761    97738    97715    97704    97707    97707    97713 
   97722    97731    97750    97771    97784    97795    97795    97777 
   97758    97756    97764    97771    97773    97773    97781    97798 
   97816    97834    97861    97897    97927    97945    97962    97983 
   97996    98005    98028    98054    98065    98058    98037    98004 
   97969    97939    97926    97930    97941    97951    97965    97976 
   97977    97965    97949    97931    97918    97918    97931    97945 
   97958    97983    98012    98034    98047    98055    98057    98051 
   98049    98049    98054    98073    98103    98134    98163    98177 
   98174    98170    98165    98140    98101    98065    98032    97996 
   97962    97935    97906    97870    97845    97833    97833    97839 
   97841    97838    97841    97846    97846    97837    97816    97791 
   97764    97753    97769    97804    97837    97860    97885    97924 
   97962    97983    97993    97999    97989    97961    97931    97915 
   97923    97958    98004    98042    98066    98066    98038    97999 
   97956    97908    97873    97857    97856    97852    97841    97841 
   97854    97864    97870    97876    97864    97829    97785    97746 
   97714    97690    97677    97672    97667    97665    97673    97690 
   97714    97748    97783    97804    97825    97858    97897    97941 
   97987    98027    98051    98064    98073    98077    98078    98086 
   98095    98097    98105    98122    98147    98184    98217    98235 
   98244    98247    98240    98227    98201    98165    98124    98085 
   98061    98053    98046    98032    98019    98004    97983    97954 
   97926    97896    97856    97806    97767    97752    97746    97742 
   97754    97791    97837    97875    97910    97949    97999    98058 
   98108    98138    98173    98215    98246    98267    98281    98278 
   98266    98250    98220    98178    98128    98073    98014    97973 
   97960    97956    97949    97939    97922    97899    97883    97873 
   97872    97877    97875    97858    97839    97831    97843    97865 
   97883    97892    97897    97906    97919    97930    97934    97937 
   97939    97943    97956    97969    97984    98010    98027    98019 
   97995    97966    97945    97941    97958    97988    98018    98031 
   98027    98020    98014    98011    98010    98004    97999    97999 
   97995    97988    97987    97989    97991    97997    98015    98043 
   98072    98092    98107    98115    98116    98118    98126    98134 
   98128    98109    98085    98057    98034    98022    98018    98014 
   97988    97931    97862    97808    97773    97760    97762    97768 
   97777    97785    97784    97776    97772    97772    97762    97746 
   97737    97725    97703    97690    97692    97706    97727    97746 
   97750    97749    97757    97775    97795    97814    97834    97848 
   97843    97829    97825    97838    97857    97870    97879    97876 
   97856    97825    97784    97734    97695    97675    97668    97675 
   97698    97737    97792    97846    97892    97926    97938    97931 
   97906    97864    97826    97796    97771    97749    97733    97726 
   97738    97772    97819    97869    97923    97976    98016    98028 
   98007    97972    97942    97915    97888    97865    97854    97861 
   97880    97899    97922    97947    97972    98000    98030    98042 
   98034    98024    98022    98027    98051    98082    98100    98104 
   98103    98092    98064    98018    97978    97960    97942    97910 
   97879    97877    97900    97939    97985    98014    98012    98004 
   98007    98012    98018    98027    98034    98030    98030    98046 
   98076    98112    98151    98182    98197    98209    98221    98221 
   98205    98193    98192    98193    98204    98219    98231    98238 
   98235    98216    98190    98157    98109    98062    98016    97960 
   97911    97887    97873    97862    97842    97808    97776    97753 
   97741    97734    97733    97737    97741    97757    97792    97842 
   97893    97930    97937    97904    97845    97789    97758    97771 
   97821    97887    97949    97999    98030    98049    98050    98032 
   98016    98008    98004    98007    98030    98074    98123    98155 
   98163    98135    98091    98049    98004    97957    97915    97891 
   97884    97889    97897    97911    97931    97962    98008    98046 
   98062    98051    98020    97996    97992    97996    97995    97991 
   97993    98015    98054    98089    98108    98113    98101    98074 
   98057    98047    98030    98011    98007    98014    98038    98080 
   98126    98166    98188    98192    98190    98181    98153    98108 
   98051    97983    97918    97875    97857    97858    97879    97912 
   97949    97969    97961    97927    97892    97868    97845    97819 
   97802    97798    97807    97829    97856    97884    97924    97972 
   98000    98005    97993    97962    97920    97896    97908    97947 
   97988    98020    98049    98076    98093    98076    98019    97945 
   97873    97815    97767    97723    97690    97663    97638    97625 
   97636    97667    97711    97760    97802    97821    97821    97810 
   97791    97777    97777    97781    97788    97806    97839    97887 
   97946    98014    98081    98127    98142    98124    98088    98059 
   98050    98035    98001    97954    97910    97876    97850    97831 
   97818    97811    97815    97826    97842    97879    97937    97988 
   98016    98026    98018    97981    97922    97843    97748    97656 
   97590    97549    97540    97573    97636    97704    97771    97818 
   97827    97803    97762    97726    97694    97669    97667    97694 
   97738    97773    97787    97784    97779    97785    97802    97821 
   97841    97875    97922    97976    98018    98031    98027    98022 
   98020    98028    98062    98097    98113    98115    98109    98088 
   98058    98042    98041    98042    98039    98034    98037    98058 
   98103    98161    98211    98247    98273    98288    98292    98290 
   98274    98235    98182    98123    98068    98039    98045    98062 
   98069    98064    98058    98058    98059    98065    98068    98057 
   98047    98051    98065    98081    98093    98088    98059    98019 
   97976    97934    97900    97875    97852    97842    97846    97858 
   97875    97891    97910    97924    97924    97904    97865    97816 
   97776    97748    97740    97748    97756    97752    97746    97749 
   97761    97783    97798    97802    97818    97858    97902    97924 
   97920    97891    97833    97776    97749    97748    97758    97779 
   97804    97838    97880    97933    98000    98051    98070    98073 
   98080    98092    98111    98138    98143    98119    98085    98045 
   98007    97992    97999    98011    98014    98008    98003    98001 
   98005    98024    98054    98089    98118    98130    98124    98103 
   98082    98073    98070    98074    98095    98127    98150    98157 
   98153    98135    98105    98054    97983    97912    97854    97791 
   97719    97659    97622    97602    97579    97556    97552    97564 
   97569    97567    97560    97545    97541    97561    97606    97664 
   97718    97752    97776    97810    97862    97926    97993    98065 
   98127    98165    98176    98176    98189    98226    98282    98334 
   98358    98356    98344    98319    98282    98261    98254    98244 
   98223    98196    98170    98139    98095    98042    97992    97937 
   97883    97848    97831    97818    97811    97810    97798    97768 
   97725    97673    97621    97568    97529    97528    97571    97654 
   97765    97864    97924    97956    97981    98011    98041    98066 
   98089    98109    98122    98128    98138    98145    98145    98143 
   98146    98147    98145    98135    98118    98097    98065    98008 
   97939    97880    97830    97762    97681    97623    97587    97561 
   97552    97553    97551    97548    97549    97563    97583    97599 
   97600    97586    97571    97580    97613    97648    97675    97702 
   97734    97777    97839    97931    98031    98104    98132    98119 
   98070    98022    98004    98011    98024    98038    98054    98068 
   98066    98043    98019    98012    98022    98038    98055    98062 
   98070    98096    98132    98170    98200    98213    98204    98178 
   98154    98147    98166    98203    98228    98236    98243    98251 
   98242    98212    98166    98108    98058    98035    98034    98043 
   98057    98070    98084    98084    98062    98023    97974    97938 
   97933    97943    97946    97927    97904    97891    97877    97862 
   97853    97862    97892    97922    97939    97960    97989    98022 
   98051    98070    98073    98058    98027    97984    97933    97884 
   97848    97831    97826    97815    97802    97796    97800    97821 
   97864    97908    97946    97974    97974    97947    97919    97904 
   97899    97893    97891    97893    97887    97875    97873    97880 
   97895    97922    97954    97968    97949    97914    97872    97830 
   97804    97795    97787    97796    97834    97893    97973    98062 
   98147    98231    98301    98348    98369    98363    98336    98304 
   98289    98301    98338    98390    98437    98456    98447    98423 
   98392    98361    98332    98300    98267    98243    98226    98208 
   98200    98208    98217    98208    98166    98107    98046    97989 
   97951    97941    97934    97918    97902    97883    97854    97826 
   97810    97810    97827    97843    97831    97785    97729    97669 
   97609    97546    97480    97405    97329    97259    97200    97162 
   97154    97159    97164    97174    97183    97185    97175    97163 
   97155    97147    97139    97137    97143    97166    97208    97256 
   97302    97347    97390    97433    97476    97524    97573    97610 
   97633    97650    97679    97726    97795    97889    98010    98145 
   98274    98378    98447    98487    98506    98504    98494    98498 
   98525    98566    98602    98613    98594    98558    98513    98470 
   98433    98404    98377    98354    98328    98305    98304    98325 
   98354    98385    98415    98431    98429    98419    98420    98442 
   98487    98541    98589    98622    98636    98626    98613    98604 
   98589    98564    98536    98504    98470    98436    98400    98352 
   98292    98220    98155    98108    98076    98041    98003    97957 
   97895    97826    97779    97748    97719    97696    97679    97654 
   97630    97619    97613    97596    97583    97582    97587    97591 
   97594    97584    97567    97555    97549    97540    97534    97537 
   97544    97537    97506    97471    97443    97426    97426    97429 
   97429    97444    97474    97501    97522    97540    97541    97524 
   97499    97472    97444    97424    97410    97403    97418    97475 
   97552    97626    97698    97764    97816    97856    97876    97875 
   97861    97852    97856    97876    97910    97951    97988    98010 
   98016    98014    97996    97976    97973    97980    97969    97951 
   97941    97937    97937    97933    97919    97903    97900    97922 
   97968    98030    98103    98172    98227    98270    98311    98348 
   98394    98432    98450    98458    98466    98475    98494    98516 
   98518    98489    98442    98392    98347    98304    98253    98203 
   98161    98118    98077    98046    98019    97987    97953    97926 
   97908    97900    97897    97897    97902    97904    97907    97919 
   97945    97988    98045    98092    98123    98143    98151    98155 
   98159    98155    98146    98130    98104    98078    98062    98058 
   98058    98049    98031    98004    97977    97962    97939    97896 
   97854    97823    97792    97768    97750    97726    97703    97700 
   97707    97702    97690    97684    97696    97725    97742    97748 
   97772    97818    97862    97902    97933    97942    97941    97954 
   97984    98005    98011    98020    98035    98041    98035    98028 
   98022    98004    97965    97914    97869    97833    97799    97773 
   97764    97764    97750    97726    97706    97702    97714    97734 
   97753    97768    97780    97799    97825    97846    97860    97864 
   97861    97850    97834    97819    97816    97829    97848    97868 
   97893    97918    97935    97951    97977    98008    98046    98095 
   98151    98196    98228    98261    98292    98320    98348    98374 
   98386    98382    98373    98369    98362    98335    98290    98248 
   98221    98213    98220    98224    98216    98208    98201    98176 
   98135    98091    98027    97949    97879    97822    97781    97753 
   97735    97731    97737    97744    97740    97727    97727    97749 
   97768    97783    97800    97816    97837    97865    97884    97892 
   97891    97888    97891    97891    97870    97821    97752    97694 
   97669    97671    97688    97707    97722    97744    97773    97799 
   97823    97846    97854    97848    97838    97816    97781    97742 
   97718    97708    97700    97696    97717    97752    97785    97819 
   97857    97897    97946    97996    98034    98055    98059    98058 
   98051    98031    98003    97974    97949    97929    97914    97900 
   97897    97899    97881    97833    97776    97722    97667    97614 
   97572    97544    97536    97534    97533    97545    97572    97607 
   97653    97700    97740    97769    97796    97833    97885    97941 
   97991    98047    98109    98153    98170    98176    98173    98165 
   98167    98190    98230    98275    98307    98312    98311    98312 
   98309    98298    98273    98235    98193    98159    98143    98145 
   98147    98146    98143    98146    98162    98189    98208    98215 
   98207    98176    98135    98111    98100    98080    98055    98042 
   98041    98047    98064    98096    98134    98153    98151    98131 
   98100    98070    98049    98035    98022    98011    98003    97992 
   97976    97951    97915    97866    97816    97781    97753    97726 
   97706    97684    97650    97622    97605    97590    97583    97586 
   97591    97598    97599    97590    97579    97582    97600    97641 
   97695    97746    97783    97808    97829    97849    97880    97915 
   97950    97988    98030    98059    98064    98039    98001    97960 
   97923    97896    97884    97893    97926    97970    98010    98031 
   98043    98053    98066    98077    98074    98065    98066    98080 
   98095    98104    98111    98112    98104    98097    98101    98112 
   98127    98142    98153    98158    98165    98177    98190    98209 
   98236    98251    98244    98224    98205    98192    98181    98174 
   98170    98163    98157    98157    98153    98134    98105    98077 
   98051    98023    97997    97978    97958    97934    97910    97887 
   97865    97849    97842    97850    97865    97880    97891    97888 
   97877    97861    97845    97841    97834    97815    97791    97758 
   97723    97706    97711    97721    97722    97718    97708    97686 
   97646    97610    97587    97568    97556    97563    97579    97599 
   97629    97659    97688    97726    97762    97795    97829    97854 
   97864    97865    97864    97864    97881    97930    98004    98084 
   98155    98211    98254    98288    98305    98309    98313    98324 
   98334    98332    98324    98312    98302    98305    98324    98350 
   98366    98371    98361    98331    98288    98240    98199    98177 
   98172    98167    98161    98150    98136    98134    98134    98118 
