Origin Time       2024/04/02 04:24:00
Lat.              40.133
Long.             141.712
Depth. (km)       71
Mag.              6.0
Station Code      YMTH11
Station Lat.      38.7132
Station Long.     140.5544
Station Height(m) 144
Record Time       2024/04/02 04:25:28
Sampling Freq(Hz) 100Hz
Duration Time(s)  120
Dir.              3
Scale Factor      2940(gal)/6170270
Max. Acc. (gal)   1.060
Last Correction   2024/04/02 04:25:13
Memo.             
[...]
   -7802    -7752    -7822    -7940    -7988    -7942    -7847    -7795 
   -7837    -7889    -7892    -7947    -8073    -8083    -7956    -7929 
   -8030    -8069    -8093    -8165    -8137    -8060    -8056    -8022 
   -7923    -7843    -7797    -7825    -7911    -7957    -8021    -8156 
   -8213    -8153    -8103    -8073    -8011    -7959    -7945    -7925 
   -7866    -7768    -7714    -7801    -7949    -8030    -8075    -8143 
   -8234    -8301    -8244    -8090    -8009    -7998    -7954    -7883 
   -7793    -7722    -7750    -7829    -7867    -7883    -7928    -8042 
   -8188    -8277    -8283    -8197    -8087    -8089    -8176    -8292 
   -8443    -8550    -8556    -8495    -8395    -8269    -8165    -8111 
   -8083    -8119    -8275    -8472    -8594    -8614    -8545    -8450 
   -8394    -8393    -8479    -8622    -8663    -8556    -8445    -8388 
   -8346    -8321    -8242    -8089    -7988    -7940    -7872    -7868 
   -7952    -7993    -7963    -7982    -8062    -8053    -7907    -7780 
   -7763    -7769    -7764    -7755    -7699    -7669    -7762    -7895 
   -7953    -7885    -7725    -7644    -7733    -7871    -7933    -7905 
   -7823    -7775    -7823    -7888    -7889    -7867    -7880    -7901 
   -7877    -7808    -7752    -7728    -7692    -7677    -7730    -7808 
   -7926    -8091    -8174    -8137    -8030    -7881    -7806    -7864 
   -7900    -7878    -7958    -8085    -8089    -8076    -8162    -8203 
   -8134    -8080    -8067    -8034    -7963    -7866    -7785    -7764 
   -7824    -7905    -7884    -7778    -7753    -7877    -8058    -8211 
   -8336    -8424    -8458    -8438    -8390    -8336    -8189    -7916 
   -7699    -7654    -7684    -7717    -7744    -7778    -7899    -8088 
   -8191    -8185    -8195    -8221    -8200    -8155    -8066    -7924 
   -7789    -7659    -7591    -7635    -7649    -7605    -7614    -7670 
   -7792    -7951    -7988    -7967    -8060    -8193    -8255    -8322 
   -8403    -8373    -8308    -8377    -8461    -8370    -8193    -8124 
   -8187    -8274    -8308    -8285    -8231    -8209    -8237    -8216 
   -8146    -8178    -8312    -8346    -8242    -8194    -8243    -8227 
   -8128    -8029    -7926    -7891    -7991    -8112    -8144    -8084 
   -8001    -8015    -8085    -8111    -8171    -8203    -8080    -7971 
   -7969    -7913    -7803    -7773    -7826    -7853    -7793    -7727 
   -7736    -7767    -7775    -7849    -8000    -8049    -7952    -7837 
   -7740    -7669    -7616    -7496    -7427    -7611    -7861    -7917 
   -7912    -7989    -8047    -8060    -8113    -8176    -8173    -8136 
   -8118    -8094    -8050    -8015    -8006    -8008    -8011    -8034 
   -8055    -8061    -8138    -8330    -8535    -8627    -8601    -8569 
   -8596    -8622    -8581    -8463    -8376    -8423    -8525    -8638 
   -8777    -8848    -8856    -8804    -8598    -8358    -8240    -8152 
   -8053    -8037    -8051    -7988    -7889    -7785    -7639    -7522 
   -7518    -7570    -7610    -7660    -7734    -7769    -7710    -7633 
   -7663    -7808    -7976    -8033    -7931    -7860    -7914    -7916 
   -7859    -7837    -7789    -7744    -7698    -7601    -7576    -7635 
   -7640    -7619    -7653    -7699    -7699    -7712    -7754    -7683 
   -7550    -7613    -7857    -8073    -8211    -8296    -8325    -8286 
   -8194    -8149    -8203    -8264    -8259    -8213    -8172    -8111 
   -7984    -7843    -7796    -7857    -7905    -7880    -7891    -7944 
   -7946    -7963    -7992    -7942    -7908    -7947    -7958    -7915 
   -7856    -7859    -7958    -8025    -8016    -8052    -8152    -8213 
   -8217    -8228    -8272    -8313    -8312    -8296    -8314    -8355 
   -8428    -8529    -8601    -8626    -8527    -8244    -7959    -7832 
   -7865    -8027    -8216    -8411    -8668    -8841    -8815    -8753 
   -8728    -8626    -8478    -8397    -8371    -8302    -8115    -7938 
   -7927    -8016    -8147    -8273    -8315    -8366    -8456    -8412 
   -8275    -8181    -8077    -7976    -7925    -7878    -7919    -8025 
   -7985    -7866    -7800    -7722    -7665    -7670    -7708    -7836 
   -7921    -7781    -7617    -7556    -7436    -7304    -7281    -7329 
   -7453    -7560    -7543    -7488    -7375    -7163    -7024    -6993 
   -6982    -6985    -6963    -6944    -6997    -7048    -7024    -7008 
   -7096    -7265    -7451    -7620    -7741    -7775    -7709    -7602 
   -7547    -7551    -7578    -7679    -7860    -7963    -8011    -8169 
   -8333    -8388    -8420    -8439    -8457    -8493    -8468    -8469 
   -8618    -8771    -8846    -8905    -8919    -8912    -8944    -8936 
   -8887    -8901    -8928    -8918    -8945    -8992    -9016    -9036 
   -9046    -9078    -9146    -9177    -9119    -8988    -8832    -8692 
   -8539    -8347    -8182    -8220    -8518    -8784    -8764    -8595 
   -8438    -8322    -8265    -8205    -8115    -8038    -7901    -7677 
   -7456    -7287    -7211    -7209    -7197    -7205    -7235    -7213 
   -7154    -7091    -7054    -7043    -7045    -7130    -7226    -7146 
   -6998    -6995    -7078    -7094    -7070    -7108    -7164    -7171 
   -7228    -7412    -7619    -7748    -7844    -7962    -8097    -8232 
   -8279    -8214    -8159    -8158    -8160    -8171    -8223    -8296 
   -8293    -8198    -8180    -8283    -8316    -8275    -8300    -8313 
   -8293    -8371    -8482    -8516    -8554    -8615    -8591    -8525 
   -8538    -8590    -8585    -8478    -8323    -8242    -8221    -8194 
   -8187    -8207    -8242    -8279    -8301    -8320    -8370    -8437 
   -8434    -8339    -8235    -8158    -8065    -7892    -7692    -7678 
   -7851    -7869    -7576    -7298    -7338    -7556    -7712    -7798 
   -7923    -8101    -8204    -8163    -8083    -8029    -7976    -7980 
   -8056    -8061    -7992    -7948    -7920    -7905    -7878    -7849 
   -7988    -8226    -8324    -8355    -8382    -8350    -8361    -8321 
   -8090    -7919    -7867    -7735    -7617    -7554    -7392    -7250 
   -7351    -7618    -7799    -7814    -7810    -7854    -7901    -7978 
   -8051    -8040    -8002    -7949    -7865    -7873    -8005    -8138 
   -8182    -8127    -8059    -8035    -7998    -7965    -8031    -8178 
   -8267    -8219    -8121    -8075    -8069    -8052    -7992    -7924 
   -7941    -7996    -7908    -7713    -7659    -7834    -8053    -8107 
   -8049    -8079    -8182    -8262    -8322    -8291    -8114    -7919 
   -7862    -7943    -7997    -7923    -7851    -7971    -8198    -8232 
   -8100    -8092    -8180    -8164    -8052    -7919    -7866    -7959 
   -8067    -8107    -8199    -8360    -8504    -8610    -8628    -8571 
   -8613    -8708    -8620    -8459    -8383    -8307    -8323    -8461 
   -8435    -8249    -8140    -8135    -8194    -8260    -8269    -8243 
   -8216    -8237    -8310    -8344    -8361    -8470    -8576    -8537 
   -8470    -8468    -8434    -8382    -8365    -8295    -8185    -8178 
   -8266    -8284    -8173    -8062    -8032    -8036    -8015    -7942 
   -7897    -7955    -7971    -7816    -7555    -7331    -7276    -7336 
   -7361    -7370    -7383    -7320    -7205    -7094    -6995    -6974 
   -7063    -7197    -7317    -7381    -7424    -7444    -7328    -7130 
   -7032    -7088    -7215    -7276    -7282    -7370    -7463    -7475 
   -7602    -7864    -7987    -7986    -8059    -8159    -8214    -8249 
   -8248    -8219    -8228    -8278    -8314    -8354    -8450    -8569 
   -8631    -8641    -8671    -8740    -8771    -8725    -8708    -8786 
   -8875    -8891    -8840    -8824    -8872    -8825    -8656    -8497 
   -8368    -8283    -8245    -8112    -7924    -7919    -8091    -8249 
   -8291    -8224    -8172    -8209    -8241    -8174    -8005    -7806 
   -7720    -7775    -7874    -8011    -8160    -8208    -8178    -8169 
   -8218    -8309    -8300    -8174    -8175    -8276    -8226    -8119 
   -8099    -8086    -8090    -8129    -8161    -8216    -8214    -8098 
   -8017    -8001    -7923    -7784    -7663    -7664    -7820    -7954 
   -7980    -8050    -8203    -8324    -8366    -8317    -8204    -8123 
   -8077    -8011    -7943    -7902    -7865    -7850    -7963    -8153 
   -8221    -8188    -8205    -8262    -8265    -8251    -8328    -8370 
   -8228    -8067    -7973    -7830    -7692    -7622    -7588    -7644 
   -7739    -7697    -7531    -7396    -7343    -7331    -7302    -7160 
   -6970    -6925    -7029    -7141    -7153    -7055    -6985    -6994 
   -6966    -6963    -7145    -7414    -7637    -7839    -7952    -7828 
   -7582    -7512    -7611    -7615    -7544    -7560    -7587    -7520 
   -7432    -7445    -7553    -7607    -7606    -7714    -7899    -7935 
   -7806    -7720    -7684    -7617    -7648    -7800    -7979    -8254 
   -8627    -8911    -8985    -8936    -8944    -9038    -9080    -9052 
   -9015    -8939    -8895    -8917    -8820    -8628    -8563    -8625 
   -8754    -8933    -9077    -9186    -9352    -9515    -9602    -9696 
   -9728    -9540    -9279    -9136    -9064    -9020    -8969    -8893 
   -8859    -8791    -8576    -8319    -8188    -8156    -8102    -8078 
   -8133    -8125    -8011    -7918    -7894    -7867    -7806    -7779 
   -7804    -7803    -7754    -7671    -7508    -7289    -7195    -7295 
   -7414    -7432    -7355    -7295    -7395    -7564    -7645    -7665 
   -7614    -7480    -7385    -7362    -7313    -7252    -7315    -7524 
   -7718    -7763    -7685    -7581    -7477    -7360    -7265    -7232 
   -7315    -7545    -7787    -7872    -7778    -7573    -7406    -7366 
   -7305    -7113    -6951    -6907    -6834    -6695    -6669    -6859 
   -7108    -7222    -7309    -7557    -7784    -7758    -7671    -7734 
   -7845    -7876    -7800    -7734    -7799    -7858    -7815    -7823 
   -7958    -8093    -8078    -7941    -7902    -8083    -8336    -8487 
   -8560    -8679    -8817    -8863    -8836    -8812    -8809    -8788 
   -8744    -8663    -8480    -8271    -8148    -8089    -8125    -8272 
   -8422    -8587    -8857    -9148    -9333    -9429    -9515    -9611 
   -9690    -9776    -9817    -9725    -9549    -9306    -9056    -8971 
   -8987    -8930    -8840    -8831    -8845    -8712    -8470    -8310 
   -8271    -8333    -8449    -8483    -8399    -8289    -8206    -8163 
   -8220    -8377    -8520    -8664    -8819    -8748    -8370    -7966 
   -7754    -7692    -7661    -7642    -7671    -7622    -7344    -7015 
   -6853    -6760    -6692    -6745    -6798    -6815    -6964    -7161 
   -7219    -7195    -7155    -7101    -7052    -7000    -6923    -6755 
   -6502    -6426    -6638    -6810    -6759    -6749    -6900    -7028 
   -7132    -7245    -7258    -7239    -7297    -7353    -7418    -7528 
   -7539    -7421    -7287    -7115    -6993    -7136    -7450    -7706 
   -7886    -8018    -8169    -8407    -8570    -8536    -8467    -8549 
   -8730    -8803    -8767    -8837    -9047    -9246    -9336    -9344 
   -9362    -9397    -9367    -9330    -9388    -9412    -9301    -9187 
   -9137    -9098    -9023    -8991    -9115    -9245    -9176    -8982 
   -8821    -8740    -8690    -8570    -8447    -8457    -8478    -8407 
   -8377    -8399    -8384    -8354    -8320    -8303    -8299    -8171 
   -7907    -7662    -7472    -7331    -7333    -7443    -7502    -7540 
   -7577    -7535    -7528    -7598    -7616    -7647    -7729    -7771 
   -7772    -7678    -7501    -7429    -7487    -7490    -7433    -7551 
   -7810    -7959    -8103    -8359    -8522    -8526    -8428    -8243 
   -8197    -8414    -8624    -8692    -8721    -8670    -8528    -8444 
   -8446    -8463    -8475    -8458    -8393    -8285    -8070    -7759 
   -7485    -7272    -7111    -7050    -7057    -7079    -7033    -6883 
   -6799    -6854    -6972    -7177    -7475    -7735    -7798    -7656 
   -7550    -7568    -7457    -7160    -6993    -7055    -7149    -7274 
   -7434    -7484    -7536    -7664    -7715    -7744    -7845    -7967 
   -8111    -8209    -8181    -8104    -8063    -8139    -8349    -8543 
   -8668    -8784    -8847    -8848    -8830    -8788    -8813    -8943 
   -9042    -9100    -9171    -9205    -9200    -9162    -9057    -8921 
   -8739    -8508    -8362    -8300    -8228    -8237    -8342    -8344 
   -8201    -8021    -7852    -7718    -7618    -7476    -7263    -7060 
   -6946    -6944    -7006    -7008    -6914    -6890    -7007    -7144 
   -7272    -7380    -7402    -7420    -7472    -7456    -7439    -7520 
   -7621    -7676    -7674    -7642    -7623    -7613    -7684    -7832 
   -7901    -7916    -7940    -7961    -8115    -8348    -8386    -8261 
   -8139    -8043    -8024    -8021    -7959    -8045    -8326    -8532 
   -8583    -8568    -8553    -8642    -8786    -8799    -8671    -8534 
   -8501    -8586    -8696    -8797    -8924    -8984    -8854    -8581 
   -8292    -8086    -8080    -8288    -8517    -8633    -8646    -8539 
   -8349    -8116    -7872    -7793    -7907    -8062    -8226    -8286 
   -8171    -8048    -7906    -7683    -7531    -7405    -7176    -7007 
   -7040    -7196    -7370    -7453    -7411    -7320    -7231    -7174 
   -7111    -7004    -6936    -6914    -6887    -6919    -7029    -7147 
   -7232    -7327    -7488    -7603    -7574    -7499    -7445    -7407 
   -7381    -7306    -7205    -7220    -7306    -7359    -7448    -7574 
   -7676    -7810    -7983    -8209    -8548    -8822    -8923    -9047 
   -9145    -9026    -8888    -8920    -8984    -9046    -9227    -9455 
   -9626    -9777    -9861    -9845    -9906   -10099   -10234   -10252 
  -10250   -10216   -10118   -10039    -9926    -9632    -9269    -8990 
   -8755    -8549    -8364    -8176    -8047    -8015    -8050    -8134 
   -8172    -8099    -8004    -7913    -7777    -7651    -7503    -7197 
   -6895    -6836    -6820    -6645    -6540    -6668    -6846    -6919 
   -6951    -7009    -7124    -7329    -7434    -7300    -7190    -7238 
   -7284    -7345    -7463    -7525    -7529    -7486    -7394    -7466 
   -7836    -8263    -8510    -8619    -8660    -8605    -8379    -7973 
   -7635    -7545    -7594    -7758    -7962    -7985    -7923    -7923 
   -7856    -7764    -7833    -8011    -8170    -8347    -8510    -8453 
   -8216    -8012    -7793    -7542    -7446    -7542    -7732    -7893 
   -7875    -7737    -7662    -7622    -7570    -7523    -7426    -7351 
   -7416    -7599    -7953    -8463    -8801    -8753    -8542    -8458 
   -8479    -8468    -8457    -8457    -8424    -8501    -8699    -8735 
   -8605    -8568    -8636    -8753    -8967    -9148    -9149    -9141 
   -9262    -9263    -8909    -8386    -8050    -8004    -8069    -8113 
   -8182    -8221    -8127    -8089    -8192    -8135    -7918    -7819 
   -7759    -7719    -7899    -8147    -8314    -8524    -8633    -8396 
   -8035    -7949    -8101    -8126    -7944    -7761    -7726    -7858 
   -8001    -8043    -8098    -8143    -8100    -8094    -8109    -8041 
   -7964    -7849    -7661    -7588    -7663    -7679    -7643    -7741 
   -7904    -7899    -7788    -7796    -7901    -7954    -7883    -7721 
   -7632    -7691    -7666    -7368    -6926    -6554    -6391    -6470 
   -6673    -6904    -7046    -6887    -6577    -6536    -6703    -6790 
   -6762    -6582    -6375    -6432    -6644    -6748    -6836    -6982 
   -7065    -7151    -7300    -7355    -7366    -7456    -7517    -7639 
   -7987    -8336    -8544    -8712    -8724    -8558    -8476    -8520 
   -8598    -8725    -8847    -8932    -9053    -9165    -9186    -9209 
   -9294    -9318    -9214    -9073    -8986    -9000    -9071    -9075 
   -9063    -9193    -9335    -9300    -9169    -9045    -8927    -8825 
   -8706    -8598    -8581    -8581    -8449    -8246    -8153    -8153 
   -8130    -8112    -8069    -7944    -7839    -7794    -7814    -7938 
   -7963    -7779    -7677    -7702    -7643    -7614    -7775    -8006 
   -8190    -8358    -8542    -8667    -8679    -8605    -8422    -8180 
   -8029    -7912    -7725    -7632    -7749    -7931    -8084    -8297 
   -8539    -8658    -8634    -8548    -8473    -8367    -8147    -7981 
   -8050    -8187    -8230    -8275    -8342    -8255    -8075    -8093 
   -8273    -8335    -8276    -8274    -8341    -8334    -8217    -8111 
   -8028    -7937    -7856    -7719    -7579    -7495    -7367    -7285 
   -7300    -7285    -7394    -7668    -7837    -7877    -7848    -7700 
   -7527    -7353    -7128    -6969    -6925    -6981    -7207    -7480 
   -7545    -7481    -7548    -7700    -7711    -7628    -7642    -7725 
   -7765    -7809    -7833    -7773    -7703    -7604    -7484    -7527 
   -7735    -7925    -7971    -7864    -7727    -7625    -7557    -7667 
   -8004    -8290    -8371    -8415    -8449    -8342    -8226    -8216 
   -8145    -8083    -8184    -8210    -8117    -8046    -7890    -7808 
   -8042    -8336    -8507    -8632    -8626    -8467    -8313    -8247 
   -8245    -8227    -8154    -8063    -7935    -7781    -7756    -7907 
   -8074    -8242    -8584    -8975    -9168    -9226    -9137    -8825 
   -8586    -8623    -8711    -8665    -8559    -8469    -8377    -8322 
   -8355    -8400    -8378    -8329    -8387    -8544    -8562    -8424 
   -8353    -8355    -8310    -8234    -8207    -8220    -8227    -8244 
   -8188    -8006    -7883    -7889    -7925    -8027    -8103    -7972 
   -7867    -7961    -8017    -7994    -7970    -7836    -7727    -7824 
   -7900    -7793    -7673    -7625    -7503    -7261    -7160    -7317 
   -7413    -7269    -7057    -6901    -6809    -6779    -6772    -6788 
   -6856    -6943    -7027    -7083    -7074    -7111    -7266    -7417 
   -7579    -7853    -8066    -8095    -8143    -8279    -8324    -8243 
   -8147    -8083    -8036    -8005    -8013    -8055    -8102    -8082 
   -7972    -7907    -7910    -7903    -8036    -8375    -8656    -8812 
   -9093    -9504    -9694    -9583    -9446    -9320    -9124    -8984 
   -8958    -8961    -8872    -8648    -8519    -8599    -8610    -8502 
   -8484    -8518    -8541    -8544    -8448    -8301    -8164    -8035 
   -7951    -7833    -7655    -7580    -7575    -7459    -7239    -7084 
   -7144    -7337    -7452    -7469    -7465    -7512    -7624    -7637 
   -7517    -7462    -7467    -7407    -7337    -7352    -7392    -7382 
   -7435    -7531    -7449    -7299    -7317    -7508    -7821    -8146 
   -8374    -8444    -8313    -8093    -7878    -7697    -7685    -7817 
   -7961    -8147    -8300    -8281    -8224    -8290    -8466    -8667 
   -8746    -8728    -8768    -8719    -8504    -8310    -8111    -7930 
   -7940    -8019    -8050    -8029    -7800    -7415    -7187    -7206 
   -7296    -7336    -7415    -7595    -7758    -7812    -7767    -7623 
   -7444    -7352    -7350    -7408    -7545    -7669    -7705    -7716 
   -7836    -8142    -8411    -8425    -8401    -8447    -8392    -8385 
   -8513    -8537    -8542    -8703    -8832    -8844    -8800    -8646 
   -8476    -8402    -8310    -8244    -8357    -8497    -8600    -8916 
   -9283    -9237    -8922    -8733    -8583    -8349    -8195    -8137 
   -8076    -8045    -8051    -8049    -7982    -7891    -7974    -8131 
   -8106    -8033    -8067    -8193    -8410    -8562    -8570    -8592 
   -8551    -8320    -8178    -8251    -8331    -8365    -8259    -7968 
   -7831    -7898    -7930    -8030    -8227    -8355    -8366    -8232 
