Origin Time       2024/04/02 04:24:00
Lat.              40.133
Long.             141.712
Depth. (km)       71
Mag.              6.0
Station Code      YMTH15
Station Lat.      38.4257
Station Long.     140.1249
Station Height(m) 205
Record Time       2024/04/02 04:25:12
Sampling Freq(Hz) 100Hz
Duration Time(s)  144
Dir.              1
Scale Factor      3923(gal)/8224838
Max. Acc. (gal)   0.504
Last Correction   2024/04/02 04:25:12
Memo.             
[...]
   -8931    -8922    -8927    -8935    -8935    -8916    -8865    -8803 
   -8762    -8749    -8760    -8780    -8788    -8769    -8726    -8692 
   -8685    -8680    -8667    -8661    -8667    -8687    -8725    -8750 
   -8758    -8769    -8796    -8827    -8841    -8838    -8835    -8841 
   -8845    -8849    -8856    -8858    -8846    -8818    -8788    -8777 
   -8770    -8757    -8746    -8761    -8808    -8853    -8870    -8866 
   -8841    -8810    -8800    -8834    -8895    -8943    -8964    -8964 
   -8943    -8915    -8891    -8864    -8824    -8780    -8741    -8712 
   -8692    -8681    -8689    -8711    -8721    -8704    -8681    -8671 
   -8669    -8661    -8648    -8649    -8673    -8702    -8725    -8749 
   -8769    -8766    -8753    -8752    -8764    -8784    -8797    -8792 
   -8768    -8729    -8694    -8675    -8667    -8664    -8671    -8667 
   -8642    -8626    -8629    -8638    -8650    -8668    -8681    -8696 
   -8708    -8692    -8660    -8640    -8635    -8646    -8660    -8653 
   -8638    -8648    -8668    -8668    -8650    -8641    -8627    -8607 
   -8623    -8689    -8764    -8808    -8822    -8811    -8787    -8760 
   -8746    -8750    -8758    -8765    -8761    -8749    -8748    -8742 
   -8729    -8735    -8773    -8814    -8843    -8866    -8881    -8884 
   -8878    -8891    -8924    -8953    -8955    -8937    -8897    -8842 
   -8797    -8777    -8762    -8758    -8768    -8761    -8731    -8706 
   -8691    -8691    -8718    -8754    -8776    -8787    -8800    -8807 
   -8802    -8797    -8806    -8815    -8829    -8850    -8868    -8869 
   -8847    -8797    -8734    -8688    -8653    -8621    -8602    -8603 
   -8630    -8681    -8730    -8752    -8741    -8719    -8711    -8704 
   -8699    -8712    -8731    -8746    -8770    -8804    -8835    -8847 
   -8833    -8812    -8808    -8815    -8830    -8847    -8854    -8853 
   -8866    -8899    -8930    -8938    -8918    -8896    -8896    -8915 
   -8953    -8986    -8997    -8984    -8953    -8916    -8887    -8869 
   -8869    -8868    -8854    -8842    -8834    -8830    -8843    -8858 
   -8865    -8872    -8865    -8845    -8842    -8868    -8899    -8922 
   -8932    -8912    -8860    -8781    -8704    -8665    -8676    -8718 
   -8766    -8787    -8779    -8764    -8748    -8737    -8737    -8731 
   -8721    -8710    -8700    -8687    -8672    -8664    -8661    -8658 
   -8638    -8599    -8560    -8540    -8518    -8479    -8448    -8436 
   -8433    -8440    -8444    -8442    -8457    -8487    -8521    -8561 
   -8606    -8645    -8654    -8627    -8587    -8565    -8584    -8630 
   -8673    -8704    -8722    -8714    -8673    -8607    -8541    -8496 
   -8478    -8471    -8472    -8484    -8496    -8495    -8506    -8537 
   -8567    -8586    -8617    -8673    -8741    -8796    -8834    -8833 
   -8803    -8773    -8734    -8695    -8683    -8695    -8710    -8726 
   -8748    -8770    -8793    -8812    -8823    -8822    -8818    -8839 
   -8897    -8980    -9066    -9117    -9134    -9143    -9158    -9175 
   -9181    -9165    -9130    -9092    -9063    -9050    -9045    -9043 
   -9046    -9054    -9069    -9101    -9162    -9240    -9300    -9315 
   -9282    -9227    -9180    -9143    -9092    -9028    -8981    -8943 
   -8910    -8900    -8901    -8891    -8885    -8878    -8854    -8831 
   -8830    -8845    -8861    -8876    -8905    -8954    -9003    -9034 
   -9051    -9067    -9077    -9066    -9042    -9024    -9013    -9000 
   -8976    -8942    -8912    -8903    -8912    -8942    -8984    -9018 
   -9034    -9022    -8966    -8887    -8819    -8769    -8733    -8719 
   -8710    -8689    -8677    -8691    -8722    -8764    -8797    -8806 
   -8787    -8743    -8694    -8660    -8638    -8615    -8583    -8544 
   -8514    -8495    -8480    -8486    -8511    -8556    -8623    -8708 
   -8789    -8834    -8826    -8785    -8750    -8748    -8772    -8799 
   -8815    -8799    -8752    -8704    -8669    -8623    -8576    -8559 
   -8564    -8576    -8590    -8580    -8533    -8467    -8399    -8337 
   -8284    -8245    -8229    -8243    -8271    -8293    -8303    -8314 
   -8337    -8382    -8453    -8536    -8587    -8583    -8561    -8553 
   -8536    -8495    -8444    -8392    -8372    -8395    -8426    -8438 
   -8444    -8460    -8484    -8509    -8527    -8549    -8586    -8657 
   -8752    -8845    -8923    -8980    -9005    -9011    -9011    -9009 
   -9012    -9011    -8993    -8974    -8977    -8991    -9000    -9007 
   -9012    -8999    -8961    -8926    -8905    -8885    -8851    -8808 
   -8766    -8752    -8762    -8768    -8765    -8769    -8770    -8760 
   -8752    -8757    -8770    -8777    -8777    -8791    -8822    -8850 
   -8858    -8851    -8839    -8839    -8870    -8912    -8919    -8889 
   -8857    -8842    -8839    -8845    -8861    -8891    -8923    -8942 
   -8947    -8937    -8914    -8881    -8829    -8757    -8684    -8629 
   -8602    -8603    -8604    -8591    -8572    -8559    -8544    -8526 
   -8517    -8526    -8552    -8573    -8577    -8568    -8550    -8537 
   -8529    -8532    -8546    -8569    -8588    -8607    -8638    -8683 
   -8721    -8741    -8757    -8785    -8823    -8860    -8897    -8943 
   -8989    -9008    -8984    -8951    -8931    -8914    -8899    -8885 
   -8868    -8856    -8842    -8820    -8819    -8854    -8889    -8910 
   -8916    -8920    -8949    -9005    -9072    -9146    -9234    -9319 
   -9382    -9418    -9432    -9436    -9443    -9439    -9412    -9354 
   -9265    -9165    -9084    -9024    -8970    -8922    -8884    -8842 
   -8788    -8733    -8679    -8627    -8586    -8545    -8510    -8486 
   -8469    -8461    -8465    -8488    -8540    -8603    -8662    -8714 
   -8745    -8750    -8758    -8780    -8799    -8815    -8837    -8839 
   -8833    -8841    -8853    -8858    -8858    -8847    -8820    -8780 
   -8730    -8669    -8604    -8553    -8514    -8468    -8410    -8355 
   -8314    -8302    -8314    -8341    -8376    -8411    -8448    -8487 
   -8517    -8540    -8580    -8638    -8703    -8769    -8831    -8892 
   -8939    -8965    -9000    -9053    -9101    -9138    -9169    -9192 
   -9205    -9208    -9205    -9205    -9204    -9198    -9196    -9188 
   -9175    -9170    -9148    -9088    -9004    -8916    -8835    -8768 
   -8716    -8671    -8625    -8575    -8514    -8452    -8421    -8425 
   -8442    -8480    -8553    -8629    -8668    -8676    -8665    -8640 
   -8626    -8637    -8657    -8683    -8702    -8703    -8708    -8733 
   -8757    -8777    -8800    -8808    -8789    -8752    -8698    -8645 
   -8614    -8599    -8584    -8565    -8542    -8506    -8475    -8465 
   -8479    -8518    -8560    -8580    -8590    -8603    -8607    -8594 
   -8568    -8552    -8553    -8571    -8607    -8656    -8703    -8761 
   -8830    -8889    -8947    -9011    -9059    -9073    -9057    -9027 
   -9005    -8986    -8959    -8939    -8931    -8922    -8905    -8893 
   -8877    -8847    -8808    -8773    -8746    -8739    -8748    -8739 
   -8710    -8684    -8688    -8735    -8803    -8838    -8834    -8815 
   -8780    -8733    -8691    -8648    -8618    -8621    -8644    -8672 
   -8711    -8752    -8792    -8838    -8870    -8872    -8857    -8845 
   -8849    -8864    -8874    -8885    -8889    -8887    -8866    -8815 
   -8753    -8715    -8689    -8650    -8603    -8564    -8536    -8503 
   -8457    -8424    -8413    -8422    -8452    -8482    -8513    -8573 
   -8650    -8715    -8773    -8824    -8860    -8888    -8918    -8945 
   -8953    -8928    -8883    -8841    -8800    -8737    -8642    -8542 
   -8471    -8442    -8464    -8523    -8591    -8662    -8727    -8752 
   -8742    -8733    -8722    -8698    -8683    -8698    -8743    -8834 
   -8959    -9067    -9131    -9151    -9144    -9148    -9167    -9173 
   -9166    -9161    -9142    -9105    -9076    -9051    -9013    -8962 
   -8904    -8846    -8804    -8784    -8775    -8761    -8735    -8714 
   -8714    -8711    -8677    -8634    -8606    -8577    -8557    -8556 
   -8559    -8559    -8560    -8559    -8553    -8542    -8544    -8575 
   -8611    -8631    -8641    -8662    -8714    -8765    -8803    -8853 
   -8916    -8977    -9016    -9020    -9018    -9032    -9038    -9022 
   -9007    -8991    -8951    -8888    -8806    -8703    -8607    -8546 
   -8515    -8506    -8510    -8519    -8537    -8575    -8619    -8653 
   -8680    -8708    -8734    -8764    -8800    -8842    -8897    -8945 
   -8959    -8966    -8972    -8962    -8941    -8912    -8876    -8846 
   -8835    -8850    -8869    -8868    -8849    -8830    -8838    -8887 
   -8950    -8986    -8985    -8959    -8919    -8866    -8803    -8742 
   -8699    -8667    -8625    -8579    -8564    -8590    -8627    -8652 
   -8652    -8645    -8662    -8700    -8739    -8752    -8734    -8726 
   -8752    -8799    -8851    -8908    -8954    -8962    -8930    -8889 
   -8870    -8860    -8841    -8808    -8775    -8754    -8752    -8756 
   -8749    -8712    -8650    -8577    -8517    -8486    -8479    -8469 
   -8444    -8407    -8376    -8361    -8371    -8398    -8433    -8469 
   -8495    -8510    -8521    -8515    -8498    -8492    -8491    -8488 
   -8496    -8513    -8536    -8573    -8623    -8668    -8702    -8729 
   -8750    -8766    -8775    -8773    -8762    -8761    -8783    -8826 
   -8869    -8905    -8943    -8969    -8974    -8976    -8985    -8977 
   -8942    -8912    -8916    -8945    -8988    -9042    -9097    -9157 
   -9215    -9271    -9325    -9360    -9382    -9423    -9491    -9551 
   -9568    -9559    -9543    -9512    -9470    -9439    -9429    -9433 
   -9437    -9427    -9381    -9316    -9273    -9255    -9235    -9200 
   -9158    -9119    -9089    -9053    -8996    -8934    -8885    -8834 
   -8780    -8745    -8723    -8694    -8654    -8631    -8637    -8667 
   -8703    -8726    -8723    -8714    -8710    -8700    -8675    -8638 
   -8598    -8567    -8560    -8567    -8575    -8592    -8618    -8627 
   -8621    -8607    -8576    -8530    -8475    -8410    -8330    -8244 
   -8174    -8133    -8109    -8087    -8062    -8037    -8032    -8043 
   -8058    -8075    -8086    -8085    -8086    -8095    -8108    -8112 
   -8110    -8108    -8098    -8082    -8060    -8051    -8055    -8056 
   -8066    -8090    -8132    -8191    -8247    -8284    -8325    -8380 
   -8441    -8500    -8553    -8596    -8637    -8675    -8707    -8731 
   -8750    -8781    -8826    -8884    -8943    -8981    -9011    -9058 
   -9112    -9148    -9165    -9182    -9215    -9244    -9248    -9247 
   -9254    -9259    -9265    -9290    -9324    -9346    -9340    -9309 
   -9289    -9293    -9289    -9270    -9240    -9204    -9194    -9219 
   -9247    -9281    -9329    -9373    -9404    -9423    -9424    -9417 
   -9409    -9390    -9364    -9343    -9332    -9337    -9350    -9347 
   -9328    -9296    -9251    -9202    -9163    -9139    -9123    -9105 
   -9066    -8997    -8920    -8864    -8837    -8806    -8746    -8668 
   -8587    -8515    -8460    -8409    -8347    -8289    -8255    -8244 
   -8243    -8235    -8221    -8206    -8183    -8172    -8182    -8201 
   -8220    -8243    -8280    -8330    -8382    -8444    -8509    -8542 
   -8544    -8529    -8499    -8469    -8452    -8446    -8460    -8494 
   -8519    -8518    -8495    -8468    -8436    -8390    -8352    -8340 
   -8330    -8307    -8286    -8275    -8267    -8270    -8301    -8356 
   -8414    -8467    -8519    -8584    -8679    -8800    -8919    -9018 
   -9101    -9170    -9228    -9289    -9355    -9409    -9418    -9375 
   -9310    -9261    -9225    -9189    -9150    -9107    -9065    -9031 
   -8991    -8934    -8884    -8846    -8810    -8781    -8761    -8737 
   -8715    -8708    -8711    -8716    -8729    -8737    -8739    -8746 
   -8761    -8800    -8858    -8893    -8901    -8930    -8992    -9066 
   -9140    -9196    -9228    -9251    -9274    -9290    -9294    -9275 
   -9229    -9166    -9105    -9059    -9016    -8959    -8904    -8858 
   -8811    -8757    -8714    -8692    -8681    -8679    -8681    -8672 
   -8656    -8654    -8657    -8638    -8610    -8587    -8561    -8536 
   -8530    -8552    -8580    -8603    -8631    -8668    -8695    -8726 
   -8779    -8830    -8862    -8897    -8931    -8951    -8977    -8995 
   -8966    -8922    -8905    -8910    -8904    -8870    -8810    -8734 
   -8664    -8606    -8553    -8507    -8483    -8483    -8488    -8483 
   -8464    -8434    -8392    -8343    -8291    -8262    -8249    -8224 
   -8193    -8185    -8202    -8244    -8289    -8318    -8340    -8357 
   -8370    -8375    -8380    -8401    -8433    -8463    -8502    -8546 
   -8573    -8572    -8560    -8565    -8602    -8654    -8707    -8750 
   -8784    -8787    -8754    -8716    -8703    -8727    -8783    -8858 
   -8941    -9018    -9085    -9148    -9194    -9213    -9224    -9238 
   -9248    -9263    -9288    -9315    -9336    -9343    -9333    -9309 
   -9267    -9228    -9198    -9174    -9159    -9173    -9229    -9313 
   -9381    -9428    -9481    -9539    -9571    -9572    -9547    -9490 
   -9421    -9362    -9309    -9246    -9159    -9067    -8999    -8961 
   -8941    -8931    -8935    -8953    -8970    -8974    -8955    -8919 
   -8869    -8808    -8762    -8750    -8770    -8806    -8837    -8843 
   -8804    -8719    -8627    -8560    -8519    -8487    -8442    -8364 
   -8264    -8167    -8078    -7990    -7912    -7842    -7782    -7743 
   -7717    -7716    -7744    -7774    -7788    -7804    -7836    -7886 
   -7963    -8075    -8205    -8332    -8446    -8552    -8631    -8675 
   -8702    -8721    -8726    -8711    -8683    -8646    -8611    -8596 
   -8610    -8642    -8673    -8687    -8680    -8656    -8626    -8635 
   -8706    -8812    -8930    -9049    -9147    -9197    -9202    -9171 
   -9090    -8968    -8830    -8710    -8644    -8641    -8671    -8711 
   -8757    -8804    -8850    -8884    -8901    -8911    -8914    -8923 
   -8950    -8992    -9032    -9061    -9081    -9089    -9066    -9032 
   -9015    -9016    -9024    -9020    -8988    -8924    -8843    -8761 
   -8692    -8635    -8591    -8563    -8561    -8587    -8618    -8638 
   -8664    -8704    -8727    -8711    -8683    -8665    -8668    -8702 
   -8762    -8835    -8915    -8978    -8989    -8957    -8919    -8899 
   -8893    -8892    -8893    -8885    -8864    -8845    -8827    -8791 
   -8746    -8719    -8702    -8683    -8689    -8743    -8815    -8872 
   -8899    -8885    -8829    -8748    -8687    -8680    -8719    -8761 
   -8773    -8758    -8731    -8691    -8653    -8650    -8691    -8756 
   -8814    -8866    -8937    -9016    -9094    -9162    -9202    -9204 
   -9181    -9151    -9121    -9094    -9063    -9045    -9061    -9092 
   -9108    -9111    -9111    -9094    -9059    -9036    -9034    -9022 
   -8980    -8916    -8845    -8785    -8752    -8743    -8738    -8699 
   -8622    -8538    -8482    -8453    -8446    -8472    -8517    -8546 
   -8559    -8581    -8644    -8738    -8820    -8864    -8884    -8899 
   -8915    -8930    -8938    -8937    -8928    -8919    -8899    -8857 
   -8807    -8748    -8685    -8649    -8653    -8687    -8733    -8756 
   -8725    -8652    -8596    -8587    -8586    -8557    -8509    -8448 
   -8360    -8241    -8124    -8047    -8013    -8010    -8023    -8052 
   -8110    -8213    -8351    -8480    -8580    -8654    -8698    -8716 
   -8726    -8734    -8760    -8793    -8799    -8779    -8753    -8731 
   -8731    -8773    -8856    -8951    -9027    -9053    -9036    -8997 
   -8943    -8892    -8857    -8829    -8810    -8824    -8873    -8953 
   -9065    -9186    -9297    -9389    -9450    -9470    -9455    -9421 
   -9383    -9355    -9325    -9275    -9236    -9234    -9259    -9310 
   -9371    -9410    -9432    -9455    -9470    -9474    -9467    -9444 
   -9396    -9321    -9212    -9059    -8880    -8711    -8580    -8494 
   -8434    -8379    -8347    -8359    -8391    -8407    -8379    -8305 
   -8216    -8136    -8063    -7998    -7963    -7959    -7971    -7996 
   -8046    -8127    -8226    -8324    -8409    -8490    -8577    -8665 
   -8723    -8741    -8742    -8753    -8749    -8710    -8653    -8610 
   -8594    -8590    -8575    -8541    -8499    -8456    -8436    -8460 
   -8505    -8525    -8523    -8534    -8554    -8571    -8575    -8565 
   -8554    -8576    -8630    -8687    -8735    -8776    -8803    -8843 
   -8922    -9008    -9077    -9123    -9144    -9148    -9166    -9224 
   -9316    -9416    -9508    -9567    -9571    -9544    -9510    -9474 
   -9440    -9401    -9360    -9333    -9312    -9283    -9247    -9189 
   -9104    -9024    -8953    -8864    -8769    -8711    -8698    -8704 
   -8707    -8691    -8652    -8600    -8550    -8499    -8453    -8428 
   -8433    -8448    -8472    -8522    -8569    -8575    -8541    -8475 
   -8379    -8272    -8168    -8081    -8055    -8112    -8202    -8272 
   -8324    -8382    -8436    -8475    -8518    -8581    -8642    -8680 
   -8708    -8745    -8788    -8819    -8808    -8748    -8667    -8603 
   -8572    -8557    -8552    -8560    -8561    -8533    -8483    -8414 
   -8344    -8309    -8344    -8452    -8595    -8730    -8861    -8982 
   -9057    -9065    -9043    -9022    -8999    -8958    -8892    -8820 
   -8770    -8743    -8737    -8743    -8762    -8793    -8812    -8804 
   -8773    -8737    -8745    -8807    -8870    -8910    -8957    -9026 
   -9085    -9115    -9134    -9165    -9193    -9185    -9131    -9050 
   -8972    -8910    -8834    -8741    -8671    -8640    -8637    -8675 
   -8741    -8780    -8799    -8849    -8938    -9024    -9085    -9121 
   -9131    -9113    -9072    -9020    -8969    -8904    -8802    -8680 
   -8596    -8581    -8617    -8652    -8667    -8692    -8749    -8822 
   -8903    -9001    -9105    -9186    -9250    -9304    -9344    -9374 
   -9389    -9371    -9321    -9248    -9173    -9093    -8997    -8883 
   -8758    -8665    -8644    -8660    -8662    -8658    -8669    -8684 
   -8681    -8658    -8638    -8630    -8618    -8575    -8488    -8383 
   -8294    -8236    -8189    -8144    -8125    -8139    -8179    -8249 
   -8344    -8437    -8492    -8505    -8506    -8523    -8552    -8584 
   -8637    -8702    -8760    -8812    -8860    -8900    -8938    -8962 
   -8958    -8919    -8861    -8820    -8802    -8768    -8696    -8617 
   -8569    -8560    -8549    -8522    -8519    -8573    -8656    -8723 
   -8761    -8776    -8781    -8779    -8754    -8708    -8676    -8685 
   -8715    -8735    -8764    -8835    -8926    -8977    -8955    -8889 
   -8842    -8842    -8857    -8872    -8903    -8957    -9018    -9055 
   -9062    -9049    -9027    -8989    -8932    -8883    -8834    -8754 
   -8656    -8580    -8550    -8563    -8596    -8619    -8626    -8626 
   -8631    -8640    -8645    -8658    -8679    -8681    -8669    -8664 
   -8650    -8630    -8608    -8575    -8545    -8545    -8580    -8641 
   -8694    -8691    -8633    -8549    -8464    -8398    -8363    -8359 
   -8365    -8378    -8413    -8475    -8556    -8654    -8754    -8851 
   -8941    -8993    -9000    -8964    -8887    -8799    -8738    -8716 
   -8726    -8725    -8676    -8606    -8561    -8553    -8569    -8604 
   -8650    -8691    -8712    -8730    -8754    -8780    -8795    -8808 
