Origin Time       2024/04/02 04:24:00
Lat.              40.133
Long.             141.712
Depth. (km)       71
Mag.              6.0
Station Code      YMTH14
Station Lat.      38.3860
Station Long.     139.9916
Station Height(m) 362
Record Time       2024/04/02 04:25:13
Sampling Freq(Hz) 100Hz
Duration Time(s)  159
Dir.              2
Scale Factor      3923(gal)/8224838
Max. Acc. (gal)   0.720
Last Correction   2024/04/02 04:24:56
Memo.             
[...]
    7173     7105     7053     7026     7015     7011     7018     7044 
    7099     7180     7246     7249     7217     7204     7237     7321 
    7431     7520     7560     7549     7518     7511     7524     7524 
    7507     7483     7452     7425     7423     7426     7368     7246 
    7128     7034     6972     6974     7028     7060     7040     6986 
    6917     6862     6845     6862     6880     6891     6907     6925 
    6914     6852     6754     6650     6548     6438     6309     6188 
    6103     6048     6011     6002     5998     6002     6056     6150 
    6254     6370     6474     6528     6562     6605     6647     6697 
    6747     6750     6709     6677     6674     6702     6786     6917 
    7045     7150     7234     7290     7306     7298     7302     7325 
    7321     7279     7237     7217     7234     7312     7426     7504 
    7508     7452     7352     7231     7141     7094     7048     6982 
    6897     6787     6663     6540     6448     6415     6424     6443 
    6444     6392     6286     6195     6183     6238     6293     6292 
    6216     6111     6042     6039     6110     6214     6277     6289 
    6295     6311     6349     6426     6531     6651     6794     6953 
    7111     7245     7337     7396     7433     7450     7454     7443 
    7420     7387     7345     7307     7279     7254     7248     7261 
    7269     7246     7204     7191     7229     7327     7479     7630 
    7738     7792     7809     7807     7767     7689     7623     7595 
    7554     7479     7389     7287     7177     7099     7071     7053 
    6980     6845     6687     6544     6444     6420     6470     6561 
    6643     6698     6737     6786     6856     6947     7064     7186 
    7256     7258     7242     7226     7187     7134     7084     7041 
    7022     7022     7006     6966     6901     6798     6682     6609 
    6598     6598     6594     6610     6633     6629     6619     6612 
    6579     6513     6455     6436     6451     6481     6501     6504 
    6516     6559     6643     6747     6835     6885     6903     6886 
    6833     6763     6700     6654     6612     6573     6554     6571 
    6624     6686     6705     6682     6651     6615     6577     6579 
    6625     6666     6663     6612     6532     6461     6431     6462 
    6523     6561     6570     6573     6562     6561     6589     6644 
    6731     6826     6870     6851     6794     6712     6637     6610 
    6610     6610     6608     6577     6519     6486     6512     6582 
    6681     6795     6905     6999     7084     7153     7203     7240 
    7280     7315     7310     7254     7186     7118     7051     6998 
    6980     7010     7072     7128     7168     7199     7182     7106 
    7029     6983     6966     6988     7041     7056     7005     6940 
    6901     6894     6934     7013     7092     7179     7295     7406 
    7442     7399     7338     7288     7245     7226     7222     7211 
    7221     7269     7322     7348     7352     7352     7345     7306 
    7238     7191     7165     7142     7138     7159     7157     7111 
    7037     6963     6937     6984     7083     7192     7275     7295 
    7245     7171     7109     7056     7010     6982     6976     6994 
    7036     7092     7142     7155     7117     7053     7001     6990 
    7030     7105     7179     7214     7188     7123     7048     6971 
    6928     6948     7006     7055     7067     7032     6976     6948 
    6932     6893     6855     6840     6839     6855     6886     6886 
    6849     6822     6816     6821     6816     6766     6685     6615 
    6552     6489     6409     6286     6158     6089     6061     6048 
    6043     6012     5938     5887     5907     5968     6033     6089 
    6141     6193     6265     6359     6469     6579     6691     6782 
    6816     6793     6754     6713     6658     6589     6519     6475 
    6488     6556     6644     6732     6836     6945     7026     7076 
    7111     7155     7210     7242     7230     7206     7176     7126 
    7092     7126     7179     7172     7098     6997     6902     6828 
    6766     6700     6652     6644     6664     6690     6702     6682 
    6616     6536     6509     6554     6624     6685     6720     6714 
    6677     6637     6616     6606     6615     6654     6702     6745 
    6806     6868     6906     6979     7113     7277     7491     7723 
    7890     7982     8024     8025     8028     8050     8093     8155 
    8178     8116     7990     7823     7634     7468     7353     7284 
    7261     7265     7284     7312     7319     7296     7269     7234 
    7203     7242     7349     7469     7600     7704     7681     7538 
    7368     7202     7067     7011     7013     7009     6976     6906 
    6805     6701     6624     6582     6567     6559     6558     6558 
    6554     6544     6498     6407     6330     6313     6353     6428 
    6496     6511     6484     6443     6408     6419     6482     6538 
    6556     6556     6534     6493     6466     6436     6381     6324 
    6319     6381     6474     6554     6608     6620     6588     6550 
    6539     6555     6578     6566     6489     6385     6315     6311 
    6380     6484     6581     6677     6772     6847     6909     6980 
    7061     7137     7196     7238     7261     7269     7279     7302 
    7327     7341     7344     7358     7387     7403     7398     7373 
    7326     7257     7190     7142     7119     7122     7142     7155 
    7144     7126     7132     7160     7198     7234     7246     7196 
    7072     6912     6764     6633     6539     6511     6447     6324 
    6305     6366     6396     6494     6624     6652     6637     6597 
    6505     6474     6515     6556     6605     6627     6582     6527 
    6489     6457     6465     6511     6555     6596     6627     6619 
    6596     6597     6593     6566     6540     6519     6509     6556 
    6663     6785     6871     6932     7003     7075     7123     7159 
    7173     7163     7149     7140     7134     7141     7156     7168 
    7190     7231     7279     7311     7339     7384     7441     7489 
    7524     7547     7551     7535     7522     7528     7557     7618 
    7701     7762     7770     7712     7589     7454     7349     7281 
    7265     7291     7322     7349     7357     7304     7204     7105 
    7009     6914     6863     6872     6909     6939     6940     6899 
    6824     6735     6640     6542     6458     6393     6339     6308 
    6293     6259     6215     6210     6235     6255     6272     6292 
    6304     6335     6417     6513     6575     6597     6593     6589 
    6592     6594     6609     6631     6642     6655     6671     6660 
    6632     6629     6667     6725     6799     6894     7005     7111 
    7179     7192     7183     7187     7206     7214     7187     7137 
    7103     7098     7113     7152     7204     7227     7203     7148 
    7075     7018     7003     7036     7105     7176     7200     7179 
    7169     7207     7236     7213     7190     7196     7191     7159 
    7111     7049     6987     6940     6899     6853     6802     6745 
    6700     6685     6700     6725     6731     6710     6694     6698 
    6727     6793     6874     6930     6949     6947     6947     6953 
    6948     6906     6822     6705     6602     6565     6597     6658 
    6718     6752     6739     6682     6606     6554     6543     6543 
    6528     6508     6484     6463     6461     6469     6477     6494 
    6512     6515     6497     6469     6438     6405     6362     6307 
    6258     6257     6324     6423     6529     6667     6829     6974 
    7065     7095     7082     7049     7024     7028     7061     7109 
    7152     7175     7186     7210     7245     7273     7292     7298 
    7298     7310     7326     7318     7273     7194     7090     7003 
    6960     6952     6979     7026     7042     7020     6993     6966 
    6933     6924     6957     7017     7086     7161     7209     7198 
    7169     7156     7148     7152     7171     7187     7204     7234 
    7268     7294     7307     7300     7280     7264     7253     7241 
    7209     7148     7079     7010     6926     6856     6833     6859 
    6917     6976     6995     6968     6928     6878     6820     6760 
    6687     6600     6505     6405     6297     6196     6135     6119 
    6134     6162     6189     6223     6278     6340     6401     6482 
    6592     6712     6810     6858     6856     6821     6778     6751 
    6741     6736     6754     6824     6944     7088     7227     7331 
    7393     7433     7458     7465     7454     7416     7346     7273 
    7219     7187     7183     7200     7217     7227     7261     7311 
    7350     7376     7383     7360     7335     7334     7334     7311 
    7277     7249     7230     7234     7264     7287     7279     7254 
    7236     7226     7229     7233     7233     7222     7200     7190 
    7200     7214     7191     7132     7061     6974     6860     6752 
    6656     6556     6463     6385     6307     6242     6223     6232 
    6218     6193     6197     6227     6270     6323     6367     6394 
    6428     6486     6565     6652     6727     6771     6785     6763 
    6702     6625     6556     6525     6539     6567     6575     6570 
    6566     6573     6602     6658     6731     6804     6860     6910 
    6964     6991     6961     6885     6801     6737     6702     6694 
    6693     6691     6697     6709     6736     6793     6876     6980 
    7078     7121     7118     7117     7107     7075     7053     7049 
    7026     6968     6894     6831     6794     6782     6787     6810 
    6847     6903     6991     7094     7180     7252     7304     7317 
    7294     7246     7180     7121     7095     7095     7106     7121 
    7123     7111     7084     7033     6964     6902     6847     6794 
    6754     6723     6694     6682     6677     6652     6613     6581 
    6592     6660     6760     6859     6932     6972     6983     6949 
    6867     6759     6646     6538     6480     6498     6569     6647 
    6716     6783     6853     6926     7011     7133     7288     7433 
    7533     7582     7587     7566     7553     7549     7546     7553 
    7557     7557     7588     7646     7699     7736     7728     7635 
    7481     7334     7206     7084     6983     6901     6821     6767 
    6735     6679     6606     6559     6524     6500     6531     6615 
    6718     6837     6936     6947     6872     6772     6663     6552 
    6467     6408     6374     6388     6434     6470     6488     6502 
    6521     6561     6621     6683     6733     6775     6783     6733 
    6667     6654     6679     6705     6754     6848     6960     7065 
    7149     7202     7236     7263     7294     7331     7354     7331 
    7261     7160     7044     6929     6840     6790     6745     6669 
    6596     6552     6500     6435     6397     6372     6351     6377 
    6446     6512     6556     6582     6597     6616     6655     6706 
    6751     6798     6862     6932     7005     7083     7129     7118 
    7059     6968     6883     6853     6886     6959     7051     7121 
    7130     7080     6978     6832     6697     6619     6581     6578 
    6625     6714     6820     6912     6957     6943     6886     6812 
    6744     6728     6789     6906     7037     7144     7219     7260 
    7231     7150     7060     6980     6934     6917     6882     6813 
    6745     6709     6708     6737     6778     6812     6826     6806 
    6756     6713     6697     6713     6760     6817     6862     6885 
    6907     6956     7021     7074     7096     7075     7006     6930 
    6902     6922     6964     6999     7013     6999     6972     6949 
    6922     6899     6910     6951     6998     7059     7137     7233 
    7358     7496     7596     7643     7665     7666     7645     7611 
    7561     7470     7357     7264     7199     7141     7064     6947 
    6802     6677     6589     6536     6501     6457     6404     6362 
    6351     6408     6535     6682     6831     6974     7082     7136 
    7152     7145     7103     7021     6912     6797     6708     6670 
    6663     6644     6594     6531     6463     6378     6286     6214 
    6162     6146     6177     6237     6282     6285     6253     6207 
    6170     6185     6277     6423     6586     6727     6795     6797 
    6762     6697     6610     6543     6516     6529     6586     6694 
    6820     6920     6987     7034     7067     7083     7079     7068 
    7056     7052     7068     7122     7215     7330     7452     7554 
    7601     7591     7541     7488     7466     7488     7547     7626 
    7690     7738     7774     7792     7798     7809     7803     7773 
    7735     7676     7608     7554     7481     7376     7271     7177 
    7095     7040     7003     6971     6964     7007     7063     7090 
    7090     7071     7034     6998     6971     6952     6918     6862 
    6794     6718     6616     6505     6421     6362     6338     6372 
    6434     6492     6562     6639     6683     6698     6713     6721 
    6721     6724     6727     6741     6789     6868     6940     6963 
    6920     6831     6735     6667     6655     6720     6852     7014 
    7169     7295     7365     7362     7285     7146     6945     6723 
    6524     6376     6292     6258     6235     6195     6134     6057 
    5967     5852     5706     5557     5444     5390     5402     5476 
    5628     5857     6112     6349     6559     6732     6855     6932 
    6982     7017     7026     6990     6922     6858     6812     6783 
    6764     6763     6778     6785     6794     6821     6844     6856 
    6871     6921     7042     7217     7399     7568     7699     7765 
    7778     7761     7711     7630     7531     7431     7346     7302 
    7291     7287     7271     7250     7236     7229     7231     7234 
    7219     7177     7138     7118     7123     7180     7287     7396 
    7485     7545     7545     7488     7422     7371     7342     7356 
    7427     7534     7641     7707     7717     7688     7636     7582 
    7538     7487     7441     7434     7464     7477     7453     7416 
    7373     7349     7371     7396     7383     7329     7231     7094 
    6952     6847     6770     6696     6632     6588     6548     6512 
    6497     6497     6470     6407     6340     6285     6227     6164 
    6099     6037     6002     6025     6100     6196     6291     6369 
    6431     6492     6539     6559     6561     6543     6511     6498 
    6512     6520     6500     6438     6340     6234     6160     6151 
    6224     6362     6544     6747     6939     7098     7209     7253 
    7252     7253     7253     7234     7211     7184     7150     7133 
    7149     7183     7204     7199     7190     7190     7165     7092 
    6980     6831     6652     6488     6374     6312     6304     6340 
    6394     6438     6459     6450     6405     6326     6224     6122 
    6037     5987     5968     5962     5976     6025     6104     6204 
    6308     6403     6490     6574     6629     6669     6723     6778 
    6816     6866     6967     7122     7303     7466     7572     7630 
    7674     7668     7585     7496     7431     7379     7369     7431 
    7542     7661     7743     7762     7726     7655     7580     7528 
    7499     7461     7406     7354     7307     7238     7145     7045 
    6930     6781     6628     6531     6492     6480     6507     6574 
    6667     6770     6891     7040     7198     7350     7484     7569 
    7603     7605     7592     7574     7570     7572     7549     7500 
    7445     7384     7311     7230     7156     7099     7053     7022 
    7006     6997     7005     7030     7029     6978     6906     6829 
    6741     6650     6567     6504     6451     6397     6345     6304 
    6281     6277     6277     6273     6285     6307     6303     6292 
    6313     6363     6420     6463     6467     6415     6322     6216 
    6116     6019     5931     5894     5956     6126     6357     6585 
    6768     6903     7005     7067     7095     7115     7119     7082 
    7020     6975     6952     6922     6878     6836     6799     6762 
    6743     6754     6782     6812     6860     6934     7014     7059 
    7063     7036     6988     6928     6867     6825     6821     6836 
    6848     6868     6917     6982     7053     7132     7206     7258 
    7284     7290     7292     7292     7284     7277     7285     7314 
    7381     7484     7595     7682     7739     7767     7776     7761 
    7707     7611     7514     7445     7402     7399     7461     7565 
    7647     7692     7711     7696     7649     7582     7500     7418 
    7342     7241     7111     6976     6837     6701     6601     6534 
    6486     6480     6507     6536     6558     6579     6601     6613 
    6624     6633     6624     6571     6466     6336     6230     6181 
    6184     6212     6247     6282     6307     6328     6345     6340 
    6327     6339     6380     6431     6475     6508     6523     6513 
    6481     6435     6405     6439     6554     6709     6851     6952 
    7014     7032     6994     6928     6863     6782     6681     6619 
    6617     6631     6637     6636     6624     6621     6637     6648 
    6643     6640     6658     6681     6710     6751     6782     6801 
    6836     6878     6889     6880     6889     6903     6921     6966 
    7033     7099     7159     7202     7210     7203     7200     7194 
    7190     7198     7206     7209     7210     7214     7237     7280 
    7303     7302     7312     7317     7290     7257     7238     7217 
    7190     7176     7187     7218     7252     7263     7245     7199 
    7123     7038     6964     6902     6841     6785     6751     6739 
    6725     6709     6700     6700     6705     6723     6777     6874 
    7002     7149     7285     7387     7456     7504     7531     7534 
    7514     7468     7404     7334     7257     7183     7113     7034 
    6941     6858     6812     6822     6872     6934     7007     7078 
    7103     7090     7055     6997     6925     6855     6783     6728 
    6706     6721     6766     6802     6793     6747     6679     6586 
    6475     6366     6281     6232     6207     6204     6226     6241 
    6226     6200     6193     6238     6328     6432     6532     6612 
    6663     6705     6750     6794     6843     6893     6922     6944 
    6967     6982     6991     7020     7069     7126     7177     7218 
    7238     7254     7290     7317     7319     7338     7372     7392 
    7403     7422     7438     7442     7437     7422     7389     7339 
    7285     7222     7146     7087     7059     7056     7063     7060 
    7045     7024     7002     6982     6978     6998     7033     7082 
    7161     7263     7357     7427     7480     7506     7483     7414 
    7319     7217     7122     7040     6980     6967     6994     7028 
    7061     7086     7090     7061     6999     6925     6844     6725 
    6585     6467     6377     6293     6214     6142     6104     6122 
    6160     6189     6227     6265     6289     6330     6389     6440 
    6474     6511     6570     6648     6725     6794     6849     6853 
