Origin Time       2024/04/02 04:24:00
Lat.              40.133
Long.             141.712
Depth. (km)       71
Mag.              6.0
Station Code      YMTH10
Station Lat.      38.7107
Station Long.     140.3744
Station Height(m) -99
Record Time       2024/04/02 04:25:07
Sampling Freq(Hz) 100Hz
Duration Time(s)  147
Dir.              3
Scale Factor      2942(gal)/8224139
Max. Acc. (gal)   0.621
Last Correction   2024/04/02 04:25:07
Memo.             
[...]
   89783    89796    89792    89766    89800    89849    89850    89873 
   89949    90031    90123    90194    90204    90229    90327    90348 
   90239    90219    90354    90487    90621    90765    90742    90564 
   90443    90420    90404    90378    90348    90275    90154    90058 
   90103    90202    90113    89899    89802    89835    89957    90096 
   90069    89864    89614    89463    89540    89807    90115    90289 
   90192    89934    89733    89675    89737    89808    89789    89716 
   89679    89735    89841    89845    89733    89633    89594    89664 
   89883    90126    90242    90198    90047    89862    89730    89721 
   89708    89572    89509    89698    89969    90099    90082    90020 
   89978    90027    90139    90185    90151    90096    90024    89970 
   89954    89908    89823    89743    89610    89440    89422    89603 
   89853    90094    90294    90358    90269    90212    90285    90343 
   90359    90386    90378    90374    90424    90467    90551    90701 
   90776    90742    90657    90508    90300    90053    89820    89675 
   89559    89456    89457    89498    89484    89441    89352    89247 
   89191    89148    89094    89051    89051    89159    89316    89433 
   89541    89606    89533    89378    89253    89220    89302    89465 
   89610    89633    89517    89376    89306    89293    89299    89357 
   89464    89538    89596    89739    89892    89896    89815    89803 
   89872    89949    89918    89688    89344    89095    89058    89118 
   89128    89147    89268    89486    89750    89897    89806    89635 
   89579    89626    89748    89935    90057    89970    89784    89733 
   89833    89950    89999    89904    89691    89568    89664    89791 
   89738    89584    89444    89313    89253    89325    89502    89716 
   89845    89883    89885    89814    89742    89803    89896    89856 
   89745    89749    89865    89845    89633    89472    89468    89556 
   89673    89749    89770    89811    89897    89945    89881    89800 
   89818    89878    89915    89931    89946    89989    90023    90027 
   90067    90101    90076    90112    90259    90369    90386    90456 
   90607    90697    90710    90702    90610    90409    90163    89938 
   89754    89611    89556    89615    89673    89652    89642    89716 
   89835    89926    89897    89758    89633    89586    89563    89522 
   89455    89424    89511    89645    89658    89573    89592    89775 
   89955    90028    90084    90192    90306    90358    90315    90223 
   90131    90081    90186    90397    90490    90427    90293    90124 
   89972    89862    89788    89707    89559    89418    89357    89378 
   89533    89712    89677    89487    89336    89228    89166    89257 
   89488    89676    89754    89819    89849    89785    89761    89860 
   89966    89969    89868    89729    89625    89621    89727    89865 
   89939    89914    89816    89766    89887    90085    90134    90020 
   89903    89815    89721    89645    89626    89669    89716    89704 
   89707    89781    89853    89908    90000    90108    90224    90328 
   90321    90207    90131    90144    90147    90105    90131    90232 
   90262    90194    90099    89974    89864    89883    90016    90097 
   90045    89972    90009    90094    90070    89932    89823    89839 
   89893    89822    89661    89548    89505    89459    89403    89464 
   89629    89716    89716    89723    89715    89653    89590    89607 
   89688    89764    89818    89797    89665    89576    89648    89756 
   89803    89854    89923    89951    89942    89957    90015    90046 
   90024    90066    90189    90255    90221    90174    90209    90378 
   90514    90397    90107    89841    89699    89743    89839    89833 
   89822    89878    89877    89726    89513    89378    89391    89523 
   89629    89603    89550    89577    89653    89738    89807    89796 
   89696    89581    89486    89410    89352    89283    89275    89390 
   89490    89436    89267    89135    89102    89125    89168    89176 
   89104    88998    88873    88740    88726    88866    89037    89131 
   89158    89182    89239    89372    89542    89617    89617    89712 
   89937    90143    90219    90140    90022    90051    90207    90281 
   90234    90169    90135    90161    90267    90427    90599    90695 
   90616    90405    90286    90383    90532    90548    90467    90410 
   90437    90462    90417    90374    90340    90271    90193    90113 
   90042    90011    89945    89815    89725    89685    89657    89687 
   89757    89818    89908    90011    90031    89945    89895    90019 
   90181    90182    90065    89951    89834    89673    89545    89540 
   89587    89626    89714    89822    89854    89822    89811    89858 
   89911    89951    90018    90061    90032    90001    89997    89969 
   89938    89974    90046    90077    90073    90097    90147    90194 
   90204    90119    89972    89857    89799    89822    89923    90039 
   90154    90279    90352    90337    90271    90178    90054    89932 
   89862    89864    89870    89812    89718    89625    89548    89542 
   89576    89530    89410    89302    89245    89267    89321    89302 
   89260    89314    89361    89294    89257    89314    89344    89384 
   89518    89653    89721    89765    89742    89621    89530    89513 
   89444    89328    89314    89445    89623    89772    89912    90045 
   90082    90018    89991    90061    90119    90123    90128    90161 
   90163    90099    90032    90009    90013    90031    90066    90148 
   90239    90277    90312    90356    90374    90423    90412    90204 
   89966    89834    89715    89656    89722    89807    89849    89860 
   89843    89819    89791    89748    89714    89760    89887    89972 
   89938    89842    89775    89761    89746    89702    89660    89631 
   89621    89648    89671    89631    89523    89375    89257    89226 
   89299    89465    89646    89760    89837    89922    89964    89926 
   89819    89662    89533    89529    89625    89676    89607    89499 
   89433    89382    89291    89197    89170    89221    89310    89368 
   89353    89301    89248    89248    89376    89592    89725    89715 
   89662    89621    89550    89487    89491    89503    89464    89410 
   89374    89368    89397    89434    89459    89502    89599    89708 
   89780    89833    89892    89953    90007    90054    90050    89974 
   89924    89955    90008    90115    90286    90363    90293    90211 
   90147    90104    90162    90281    90344    90316    90232    90146 
   90113    90151    90220    90263    90296    90337    90305    90182 
   90104    90073    89978    89901    89934    90032    90169    90254 
   90209    90162    90205    90235    90196    90159    90162    90167 
   90185    90267    90347    90310    90192    90073    89989    89969 
   90045    90182    90216    90070    89904    89847    89854    89857 
   89897    90026    90155    90158    90039    89862    89719    89691 
   89760    89856    89908    89881    89816    89760    89706    89667 
   89648    89623    89541    89371    89194    89105    89110    89194 
   89356    89542    89629    89536    89374    89272    89174    89054 
   89040    89136    89230    89330    89424    89436    89414    89365 
   89255    89190    89239    89314    89345    89351    89394    89519 
   89664    89741    89757    89785    89847    89899    89942    89986 
   89996    89992    90022    90027    89958    89878    89889    90015 
   90202    90355    90402    90429    90533    90632    90632    90544 
   90493    90614    90819    90942    90994    91000    90960    90941 
   90992    91085    91130    91023    90772    90498    90289    90194 
   90242    90377    90516    90625    90705    90757    90744    90617 
   90444    90323    90221    90109    90028    89951    89829    89667 
   89509    89390    89305    89226    89149    89116    89129    89143 
   89143    89097    88985    88882    88820    88777    88767    88750 
   88680    88593    88487    88366    88344    88454    88626    88774 
   88832    88766    88626    88533    88580    88742    88882    88955 
   89052    89178    89239    89263    89340    89453    89567    89669 
   89749    89803    89806    89777    89792    89835    89885    89981 
   90115    90267    90436    90591    90707    90790    90801    90686 
   90514    90398    90358    90373    90421    90471    90512    90536 
   90497    90391    90293    90232    90181    90103    89978    89851 
   89756    89662    89550    89487    89521    89561    89513    89368 
   89193    89110    89174    89298    89401    89456    89467    89463 
   89475    89498    89487    89455    89460    89475    89434    89351 
   89297    89322    89394    89457    89475    89417    89313    89260 
   89251    89228    89235    89252    89167    89031    89014    89175 
   89410    89553    89581    89621    89710    89783    89788    89726 
   89640    89602    89619    89658    89716    89807    89899    89989 
   90080    90105    90077    90081    90089    90040    89955    89880 
   89842    89815    89776    89753    89745    89754    89827    89946 
   90047    90111    90127    90124    90184    90313    90404    90378 
   90309    90285    90283    90286    90285    90273    90293    90352 
   90413    90462    90493    90494    90471    90427    90369    90301 
   90200    90076    90013    90049    90136    90248    90346    90343 
   90261    90198    90177    90165    90171    90217    90320    90431 
   90447    90354    90173    89989    89926    89924    89908    89972 
   90120    90216    90208    90142    90124    90215    90296    90281 
   90247    90229    90192    90134    90080    90092    90201    90331 
   90369    90289    90197    90154    90074    89946    89888    89918 
   89922    89873    89877    89937    89931    89826    89702    89622 
   89630    89733    89792    89723    89645    89596    89494    89343 
   89230    89279    89455    89557    89563    89577    89548    89441 
   89360    89329    89274    89191    89120    89091    89137    89213 
   89225    89209    89255    89359    89464    89517    89498    89464 
   89480    89552    89630    89715    89853    89978    90004    89996 
   90055    90155    90228    90277    90373    90487    90501    90436 
   90394    90327    90198    90158    90238    90261    90171    90117 
   90213    90443    90672    90790    90786    90690    90560    90464 
   90410    90340    90225    90109    90047    90054    90154    90302 
   90335    90175    89931    89731    89645    89661    89721    89777 
   89799    89781    89739    89662    89572    89465    89307    89199 
   89259    89383    89414    89371    89318    89228    89117    89112 
   89233    89341    89316    89195    89108    89109    89133    89113 
   89059    89068    89203    89368    89442    89455    89469    89498 
   89550    89619    89646    89607    89513    89419    89428    89545 
   89685    89818    89910    89920    89870    89803    89796    89903 
   90035    90049    89961    89878    89811    89764    89804    89851 
   89783    89689    89669    89641    89596    89631    89702    89715 
   89715    89742    89729    89671    89648    89654    89617    89545 
   89491    89446    89390    89372    89419    89502    89599    89664 
   89672    89656    89614    89536    89449    89398    89426    89513 
   89564    89571    89604    89654    89652    89602    89584    89669 
   89784    89802    89725    89684    89775    89934    90070    90207 
   90309    90286    90205    90182    90229    90309    90383    90429 
   90452    90490    90544    90571    90559    90529    90486    90416 
   90364    90420    90516    90491    90371    90277    90200    90094 
   89991    89964    89988    89989    89985    89984    89922    89797 
   89702    89683    89691    89704    89749    89725    89541    89328 
   89247    89248    89233    89216    89237    89301    89386    89457 
   89469    89453    89460    89433    89351    89298    89306    89349 
   89430    89560    89716    89815    89820    89789    89730    89629 
   89581    89617    89618    89550    89511    89581    89715    89810 
   89853    89876    89853    89776    89718    89735    89806    89865 
   89891    89897    89918    89950    89946    89869    89761    89692 
   89695    89762    89865    89931    89935    89973    90066    90119 
   90150    90251    90360    90421    90502    90571    90564    90526 
   90466    90364    90256    90134    90016    90018    90134    90242 
   90324    90393    90346    90174    90035    89981    89943    89945 
   90023    90066    89986    89860    89761    89712    89741    89833 
   89916    89949    89959    89978    89946    89845    89768    89760 
   89761    89746    89745    89757    89739    89691    89664    89712 
   89843    89997    90092    90096    90039    89976    89920    89841 
   89715    89552    89388    89278    89213    89113    88978    88892 
   88859    88850    88862    88866    88854    88843    88820    88805 
   88809    88793    88777    88796    88796    88771    88792    88848 
   88889    88890    88848    88840    88946    89094    89206    89313 
   89424    89484    89471    89436    89437    89465    89533    89660 
   89766    89803    89838    89932    90105    90321    90489    90606 
   90755    90921    91054    91188    91328    91434    91504    91550 
   91544    91516    91534    91552    91492    91388    91311    91266 
   91237    91197    91157    91152    91152    91056    90886    90792 
   90794    90783    90748    90715    90668    90609    90553    90474 
   90320    90119    89931    89739    89584    89549    89608    89673 
   89704    89721    89719    89656    89540    89444    89415    89421 
   89386    89333    89357    89430    89465    89455    89380    89239 
   89106    89032    88985    88946    88929    88973    89056    89097 
   89087    89117    89221    89345    89444    89498    89473    89405 
   89392    89449    89509    89545    89556    89572    89646    89787 
   89939    90031    90061    90054    90015    89997    90004    89995 
   89977    89941    89896    89905    89964    90016    90032    90012 
   89997    90005    90001    89991    89980    89924    89807    89676 
   89572    89521    89536    89571    89587    89623    89725    89837 
   89860    89806    89745    89685    89654    89708    89783    89803 
   89819    89866    89924    89988    90019    89964    89854    89785 
   89784    89826    89847    89769    89603    89480    89463    89496 
   89541    89572    89548    89503    89509    89552    89586    89608 
   89599    89515    89426    89440    89523    89583    89635    89704 
   89727    89694    89645    89567    89479    89448    89461    89478 
   89482    89484    89494    89491    89488    89518    89522    89449 
   89337    89221    89143    89143    89190    89218    89225    89221 
   89163    89050    88977    89000    89085    89166    89232    89330 
   89452    89545    89586    89581    89586    89618    89626    89599 
   89572    89556    89599    89703    89783    89834    89904    89973 
   90027    90081    90132    90171    90231    90343    90447    90481 
   90487    90504    90518    90536    90578    90639    90655    90617 
   90626    90706    90767    90776    90768    90745    90703    90675 
   90711    90799    90857    90876    90879    90840    90776    90707 
   90587    90424    90292    90239    90266    90282    90194    90036 
   89905    89858    89889    89947    89961    89901    89796    89668 
   89532    89417    89329    89279    89298    89361    89426    89486 
   89534    89580    89635    89661    89621    89554    89552    89607 
   89618    89567    89530    89545    89595    89654    89675    89658 
   89708    89887    90073    90128    90092    90078    90115    90158 
   90186    90215    90235    90240    90240    90255    90294    90316 
   90267    90174    90104    90059    90007    89919    89837    89797 
   89756    89702    89706    89750    89743    89673    89594    89518 
   89456    89428    89428    89410    89345    89279    89262    89253 
   89198    89139    89110    89095    89117    89212    89351    89451 
   89460    89409    89340    89293    89334    89464    89572    89600 
   89603    89649    89735    89816    89880    89951    90035    90116 
   90186    90254    90321    90342    90288    90229    90239    90298 
   90359    90387    90360    90277    90166    90100    90097    90103 
   90085    90059    90054    90074    90088    90101    90146    90169 
   90115    90059    90055    90078    90120    90167    90147    90067 
   90015    89993    89928    89802    89694    89661    89649    89617 
   89617    89672    89735    89772    89765    89702    89580    89448 
   89355    89316    89351    89452    89548    89630    89685    89667 
   89644    89680    89696    89680    89708    89784    89845    89866 
   89851    89772    89650    89590    89619    89641    89596    89563 
   89613    89700    89781    89824    89797    89754    89738    89719 
   89750    89860    89939    89951    89953    89969    90004    90078 
   90161    90189    90144    90082    90038    89996    89976    90001 
   90023    89991    89934    89893    89827    89703    89617    89633 
   89672    89683    89691    89699    89654    89563    89495    89488 
   89526    89591    89638    89656    89696    89739    89700    89590 
   89490    89451    89471    89490    89463    89438    89479    89553 
   89600    89634    89694    89770    89822    89816    89793    89785 
   89754    89699    89656    89622    89577    89502    89429    89402 
   89422    89471    89523    89561    89607    89671    89734    89779 
   89787    89770    89756    89748    89776    89860    89935    89976 
   90003    90022    90018    89980    89930    89905    89932    90015 
   90092    90074    89974    89885    89873    89903    89880    89808 
   89749    89680    89615    89608    89633    89673    89742    89793 
   89822    89854    89877    89881    89881    89881    89877    89878 
   89919    90016    90109    90140    90120    90097    90088    90080 
   90081    90094    90097    90078    90050    90046    90078    90080 
   89992    89846    89691    89607    89629    89688    89737    89758 
   89735    89716    89757    89827    89868    89878    89881    89869 
   89865    89885    89897    89911    89947    89964    89934    89900 
   89876    89847    89860    89926    89980    89969    89914    89845 
   89777    89727    89679    89613    89560    89534    89518    89510 
   89505    89483    89463    89500    89571    89576    89518    89471 
   89476    89513    89514    89499    89523    89549    89534    89517 
   89532    89577    89622    89641    89664    89708    89772    89851 
   89912    89934    89935    89926    89907    89899    89911    89930 
   89955    89978    89959    89893    89823    89772    89739    89738 
   89779    89856    89912    89905    89903    89957    90000    90005 
   90023    90069    90146    90254    90339    90390    90448    90522 
   90574    90578    90559    90555    90559    90536    90498    90477 
   90468    90474    90494    90526    90574    90620    90616    90551 
