Origin Time       2025/03/30 10:18:00
Lat.              34.667
Long.             140.825
Depth. (km)       69
Mag.              4.9
Station Code      CHB017
Station Lat.      35.2976
Station Long.     140.0734
Station Height(m) 38
Record Time       2025/03/30 10:19:02
Sampling Freq(Hz) 100Hz
Duration Time(s)  64
Dir.              U-D
Scale Factor      7845(gal)/8223790
Max. Acc. (gal)   1.869
Last Correction   2025/03/30 10:19:02
Memo.             
[...]
   14616    14855    15120    15391    15626    15642    15412    15178 
   15124    15180    15190    15141    15149    15228    15245    15102 
   14874    14802    14962    15155    15280    15402    15530    15618 
   15577    15365    15097    14975    15074    15213    15206    15145 
   15144    15084    14909    14829    14979    15210    15352    15368 
   15317    15336    15457    15516    15462    15430    15421    15298 
   15056    14839    14717    14650    14706    14979    15279    15387 
   15372    15367    15331    15207    15114    15124    15082    14944 
   14887    14987    15159    15326    15473    15541    15394    15039 
   14786    14918    15271    15500    15570    15553    15381    15106 
   14878    14800    14947    15196    15275    15207    15267    15426 
   15410    15265    15261    15306    15099    14750    14647    14860 
   15120    15256    15269    15107    14868    14949    15452    15927 
   15946    15533    15022    14706    14710    15047    15475    15695 
   15688    15479    15101    14802    14774    14953    15093    15030 
   14918    14962    15186    15508    15773    15822    15568    15059 
   14550    14334    14503    14966    15529    15924    15865    15337 
   14889    15002    15309    15249    15002    14959    15043    14975 
   14820    14870    15187    15552    15654    15433    15225    15210 
   15191    15084    15103    15340    15444    15168    14929    15156 
   15543    15547    15190    14859    14697    14742    15083    15534 
   15755    15734    15538    15068    14505    14401    14895    15392 
   15452    15400    15426    15187    14833    14864    15124    15263 
   15421    15691    15662    15141    14700    14775    15028    15175 
   15369    15579    15511    15190    14989    14948    14827    14877 
   15331    15676    15511    15210    15236    15448    15394    15041 
   14704    14503    14438    14581    14958    15516    16055    16183 
   15719    15040    14719    14766    14856    15083    15530    15769 
   15549    15160    14967    15043    15124    15020    14883    14899 
   15120    15395    15487    15400    15295    15221    15103    14932 
   14867    14956    15059    15095    15118    15291    15579    15614 
   15330    15165    15298    15342    15072    14791    14769    14917 
   15107    15310    15488    15564    15473    15221    14898    14782 
   15120    15585    15584    15126    14736    14739    15097    15574 
   15786    15506    15045    14871    14931    14932    14989    15327 
   15666    15608    15354    15191    14970    14712    14775    15169 
   15458    15376    15176    15164    15203    15082    15025    15228 
   15403    15345    15259    15255    15194    15111    15129    15095 
   14935    14870    14985    15114    15144    15167    15372    15623 
   15577    15313    15215    15326    15325    15044    14735    14750 
   15059    15296    15290    15260    15340    15356    15259    15178 
   15202    15241    15147    15036    15095    15187    15226    15381 
   15565    15427    15064    14921    14978    14971    15090    15464 
   15633    15298    14924    15025    15307    15159    14769    14798 
   15213    15438    15415    15408    15256    14837    14516    14615 
   15111    15665    15799    15495    15159    14931    14797    14878 
   15152    15356    15313    15184    15160    15190    15205    15329 
   15638    15842    15689    15381    15120    14882    14725    14716 
   14848    15106    15331    15336    15205    15120    15066    14951 
   14848    14912    15083    15232    15508    15942    16131    15900 
   15519    15142    14729    14435    14550    14978    15174    14980 
   14859    15016    15160    15207    15358    15588    15681    15615 
   15480    15229    14867    14642    14690    14881    15036    15118 
   15199    15280    15367    15522    15535    15201    14817    14752 
   14912    15053    15256    15630    15851    15611    15164    14945 
   15048    15349    15646    15647    15344    15039    14841    14729 
   14833    15178    15480    15412    14971    14586    14640    14940 
   15111    15164    15246    15264    15111    14976    15070    15372 
   15701    15824    15726    15547    15282    15021    14943    14955 
   14958    14998    15141    15390    15604    15639    15422    15052 
   14868    14985    15137    15164    15165    15198    15090    14864 
   14916    15137    14998    14667    14735    15180    15511    15581 
   15633    15626    15306    14854    14636    14740    15109    15592 
   15882    15696    15136    14791    14958    15209    15203    15063 
   15010    15099    15138    15083    15126    15248    15329    15371 
   15365    15307    15103    14816    14840    15169    15331    15255 
   15280    15495    15623    15570    15585    15611    15319    14836 
   14509    14396    14477    14789    15245    15608    15718    15635 
   15395    15061    14947    15110    15260    15352    15498    15581 
   15469    15205    14972    15010    15246    15325    15184    15030 
   14891    14759    14731    14840    15041    15218    15264    15223 
   15165    15137    15210    15363    15484    15484    15358    15180 
   15083    15199    15449    15577    15500    15268    14917    14632 
   14598    14759    15003    15280    15518    15627    15553    15321 
   15049    14902    14953    15074    15078    14978    14986    15196 
   15400    15439    15414    15375    15290    15214    15259    15442 
   15545    15342    14987    14808    14898    15059    15074    14983 
   14970    15075    15195    15242    15199    15110    15083    15205 
   15342    15367    15360    15357    15287    15160    15030    14921 
   14916    15051    15134    15076    15098    15287    15449    15475 
   15399    15209    14867    14612    14762    15133    15330    15354 
   15363    15336    15211    15106    15191    15394    15574    15649 
   15444    15045    14928    15213    15414    15307    15249    15375 
   15336    15016    14798    14976    15321    15444    15287    15061 
   14929    14945    15118    15330    15444    15452    15329    15057 
   14837    14820    14866    14895    15028    15198    15246    15304 
   15507    15678    15645    15520    15414    15203    14866    14600 
   14582    14832    15191    15487    15662    15716    15624    15353 
   14985    14732    14721    14862    14968    14999    15133    15404 
   15593    15576    15426    15296    15228    15121    14974    14941 
   15060    15145    15120    15178    15306    15234    15020    14897 
   14886    14939    15056    15259    15500    15622    15572    15422 
   15229    15083    15060    15141    15244    15306    15345    15288 
   15087    14940    14951    14982    14986    15028    15124    15196 
   15149    15022    15032    15299    15620    15695    15523    15302 
   15087    14855    14670    14705    15041    15488    15816    15975 
   15880    15457    14908    14548    14551    14821    15087    15199 
   15217    15234    15223    15148    15121    15222    15341    15292 
   15041    14870    15057    15388    15477    15407    15410    15427 
   15384    15310    15148    14893    14706    14679    14759    14922 
   15210    15537    15653    15508    15326    15232    15151    15075 
   15095    15183    15229    15245    15271    15296    15302    15232 
   15086    14975    14978    15080    15238    15396    15475    15399 
   15157    14864    14667    14612    14737    15020    15322    15569 
   15695    15591    15326    15091    14945    14789    14644    14654 
   14733    14747    14856    15161    15441    15606    15772    15843 
   15622    15237    14964    14910    15067    15318    15488    15572 
   15631    15593    15361    15014    14824    14885    14914    14793 
   14781    14948    15103    15234    15439    15658    15784    15780 
   15631    15360    15021    14665    14391    14369    14632    15012 
   15422    15863    16135    15944    15329    14790    14689    14783 
   14797    14841    15056    15391    15603    15498    15291    15264 
   15342    15368    15348    15352    15417    15574    15769    15753 
   15422    15041    14879    14905    14959    15075    15319    15426 
   15165    14756    14511    14496    14666    14939    15183    15353 
   15530    15682    15623    15385    15268    15321    15295    15153 
   15161    15346    15363    15115    14921    14912    14820    14542 
   14450    14759    15072    15036    14871    14912    15093    15202 
   15272    15423    15634    15799    15823    15597    15178    14833 
   14705    14754    15013    15450    15768    15745    15526    15357 
   15291    15294    15323    15238    14952    14623    14426    14370 
   14497    14863    15260    15358    15245    15345    15731    15942 
   15660    15183    14966    14989    15028    15148    15434    15665 
   15607    15314    15047    15007    15168    15295    15206    15041 
   15001    15012    14967    14960    15130    15353    15383    15319 
   15402    15511    15431    15294    15192    14905    14474    14409 
   14928    15655    16210    16470    16313    15693    14924    14497 
   14519    14675    14812    14951    15007    14960    14941    15097 
   15427    15697    15593    15111    14701    14731    15034    15319 
   15520    15579    15439    15244    15133    15028    14854    14821 
   15010    15114    15021    14937    14889    14789    14775    15007 
   15350    15543    15577    15600    15560    15360    15084    14833 
   14756    14997    15369    15569    15592    15542    15349    15070 
   15030    15299    15496    15442    15377    15398    15309    15057 
   14863    14833    14808    14727    14808    15191    15701    16004 
   15857    15364    14924    14771    14798    14893    15134    15527 
   15788    15673    15321    15028    14910    14868    14806    14774 
   14878    15149    15471    15655    15681    15604    15365    14985 
   14700    14644    14706    14790    14970    15230    15354    15319 
   15345    15411    15294    15007    14813    14862    15059    15242 
   15356    15426    15485    15546    15543    15460    15361    15195 
   14875    14524    14397    14580    14862    15036    15153    15367 
   15646    15766    15626    15377    15174    15045    15017    15102 
   15268    15469    15595    15491    15147    14775    14627    14665 
   14704    14825    15157    15498    15619    15576    15469    15306 
   15060    14828    14798    15017    15273    15296    15117    15021 
   15156    15477    15804    15885    15689    15381    15051    14797 
   14775    14971    15237    15477    15618    15603    15493    15419 
   15403    15329    15148    14978    14901    14856    14859    15056 
   15346    15402    15102    14708    14581    14778    15103    15444 
   15672    15569    15180    14881    14890    15070    15252    15361 
   15321    15147    14966    14827    14755    14856    15140    15398 
   15411    15199    14990    14933    15013    15252    15637    15911 
   15831    15469    15078    14856    14909    15142    15283    15233 
   15211    15375    15541    15526    15442    15381    15183    14733 
   14266    14153    14481    15020    15495    15750    15759    15543 
   15172    14895    15009    15483    15954    16140    15998    15512 
   14831    14374    14376    14644    14904    15103    15349    15547 
   15525    15364    15230    15129    14995    14850    14769    14731 
   14690    14720    14899    15192    15481    15580    15387    15103 
   15076    15377    15680    15633    15261    14882    14771    14976 
   15338    15612    15596    15257    14808    14551    14651    15037 
   15421    15573    15543    15458    15369    15300    15261    15256 
   15330    15492    15638    15657    15604    15545    15315    14854 
   14561    14817    15326    15531    15398    15219    15034    14692 
   14269    14075    14254    14589    14844    15005    15142    15313 
   15511    15669    15704    15573    15376    15306    15385    15489 
   15581    15677    15718    15673    15596    15466    15269    15183 
   15299    15315    14947    14401    14056    14026    14291    14728 
   15036    15060    15007    15129    15422    15704    15907    16109 
   16320    16352    16087    15727    15503    15336    15033    14584 
   14143    13833    13690    13840    14366    15005    15352    15296 
   14997    14717    14743    15094    15523    15925    16313    16483 
   16240    15746    15342    15228    15356    15511    15556    15541 
   15573    15641    15568    15284    14967    14694    14372    13990 
   13701    13648    13803    14116    14663    15329    15788    15934 
   15957    16023    16071    15930    15577    15182    14945    15020 
   15372    15772    15959    15801    15363    14828    14330    14010 
   14069    14555    15257    15893    16236    16200    15904    15472 
   14901    14308    13988    14054    14358    14758    15232    15715 
   16027    16027    15790    15554    15466    15511    15534    15390 
   15183    15145    15264    15314    15192    14947    14693    14593 
   14646    14728    14824    14925    15018    15149    15286    15291 
   15098    14870    14868    15121    15449    15697    15867    16046 
   16127    15876    15322    14791    14562    14650    14854    14978 
   14991    14922    14798    14678    14551    14386    14295    14400 
   14713    15267    16044    16794    17145    16961    16459    15869 
   15267    14814    14646    14613    14505    14330    14300    14520 
   14790    14971    15165    15415    15607    15603    15414    15255 
   15322    15615    15917    15990    15849    15634    15352    14989 
   14636    14397    14359    14600    15075    15572    15858    15844 
   15533    14983    14405    14088    14125    14372    14785    15418 
   16098    16474    16422    16101    15610    14990    14459    14289 
   14469    14732    14902    14994    15041    15022    14926    14800 
   14727    14809    15111    15539    15859    15916    15750    15495 
   15255    15013    14706    14404    14276    14427    14885    15531 
   16044    16147    15939    15720    15601    15545    15564    15660 
   15720    15628    15430    15299    15288    15246    15109    14967 
   14843    14688    14534    14505    14670    14891    14997    15071 
   15291    15589    15745    15651    15385    15043    14643    14296 
   14188    14380    14812    15395    15911    16069    15786    15303 
   14901    14605    14382    14399    14782    15379    15931    16233 
   16221    16050    15874    15618    15191    14770    14615    14790 
   15164    15579    15882    15939    15684    15140    14516    14148 
   14146    14305    14404    14380    14327    14446    14863    15466 
   15993    16270    16313    16194    15921    15503    15075    14850 
   14854    14990    15206    15371    15336    15159    15009    14928 
   14901    14968    15102    15164    15103    15014    14999    15080 
   15233    15402    15481    15396    15238    15171    15148    15018 
   14860    14898    15169    15450    15570    15634    15766    15878 
   15830    15645    15429    15209    14952    14690    14540    14550 
   14629    14746    14937    15178    15433    15677    15803    15695 
   15314    14767    14326    14202    14411    14860    15418    15878 
   16021    15853    15580    15321    15142    15111    15133    15087 
   15025    15010    15012    14975    14937    14972    15009    14904 
   14681    14503    14476    14662    15078    15553    15867    16029 
   16066    15831    15323    14877    14773    14921    15068    15151 
   15205    15172    15043    14987    15142    15400    15589    15684 
   15691    15587    15414    15234    15101    15097    15240    15448 
   15612    15670    15626    15477    15226    14924    14612    14305 
   14067    13998    14121    14342    14674    15249    15915    16263 
   16208    16035    15896    15673    15330    15041    14937    14955 
   14963    14922    14850    14751    14607    14462    14454    14631 
   14947    15350    15774    16112    16263    16206    15989    15651 
   15303    15059    14871    14675    14565    14632    14802    14989 
   15228    15545    15790    15857    15804    15709    15631    15611 
   15614    15538    15329    15032    14651    14169    13759    13671 
   13927    14320    14689    15009    15256    15391    15492    15739 
   16123    16395    16348    15940    15294    14659    14269    14192 
   14353    14670    15129    15681    16124    16210    15962    15639 
   15388    15163    14910    14709    14705    14848    14971    15051 
   15128    15198    15236    15233    15223    15215    15215    15280 
   15441    15593    15547    15275    14952    14737    14628    14482 
   14204    13949    13973    14300    14789    15354    15898    16275 
   16460    16524    16497    16343    16040    15669    15341    15097 
   14914    14767    14665    14612    14573    14511    14423    14381 
   14538    14943    15426    15796    16073    16322    16434    16264 
   15876    15454    15101    14825    14634    14462    14227    14008 
   13981    14149    14374    14659    15093    15607    15996    16152 
   16136    16020    15854    15703    15589    15476    15311    15088 
   14840    14628    14536    14605    14781    14986    15165    15287 
   15353    15412    15492    15504    15380    15218    15124    15115 
   15191    15318    15429    15431    15325    15255    15304    15394 
   15399    15223    14882    14567    14482    14600    14752    14883 
   15070    15338    15589    15757    15877    15982    16031    15909 
   15589    15283    15160    15067    14812    14509    14392    14463 
   14551    14628    14778    14967    15128    15244    15255    15120 
   14962    14916    14935    14944    15009    15153    15255    15288 
   15400    15627    15850    15969    15900    15589    15126    14694 
   14445    14401    14492    14674    14928    15142    15236    15271 
   15340    15446    15570    15684    15700    15601    15503    15453 
   15364    15207    15083    15030    15043    15106    15163    15155 
   15071    15003    15114    15360    15554    15680    15761    15689 
   15421    15102    14913    14829    14697    14550    14563    14773 
   15039    15241    15402    15498    15452    15350    15338    15395 
   15448    15473    15453    15311    15034    14787    14708    14728 
   14747    14805    14994    15300    15597    15799    15892    15877 
   15734    15488    15264    15190    15230    15252    15201    15040 
   14732    14369    14150    14183    14374    14553    14674    14817 
   15025    15265    15469    15624    15781    15932    15985    15824 
   15431    15044    14952    15128    15344    15457    15422    15264 
   15075    14913    14798    14808    15037    15387    15627    15723 
   15799    15873    15820    15572    15260    15044    14897    14725 
   14577    14547    14628    14762    14890    14987    15117    15250 
   15259    15168    15111    15110    15101    15087    15095    15095 
   15075    15072    15103    15153    15219    15277    15329    15417 
   15549    15680    15718    15591    15348    15078    14859    14764 
