Origin Time       2025/03/30 10:18:00
Lat.              34.667
Long.             140.825
Depth. (km)       69
Mag.              4.9
Station Code      CHB025
Station Lat.      34.9705
Station Long.     139.9458
Station Height(m) 74
Record Time       2025/03/30 10:19:02
Sampling Freq(Hz) 100Hz
Duration Time(s)  60
Dir.              E-W
Scale Factor      7845(gal)/8223790
Max. Acc. (gal)   2.235
Last Correction   2025/03/30 10:19:01
Memo.             
[...]
   -6123    -6016    -5891    -5867    -5972    -6142    -6191    -6022 
   -5800    -5799    -6043    -6196    -6085    -5950    -5906    -5833 
   -5818    -6003    -6193    -6122    -5918    -5867    -5950    -5981 
   -5965    -6007    -6033    -5940    -5841    -5861    -5942    -6019 
   -6096    -6072    -5910    -5819    -5915    -6058    -6083    -5981 
   -5875    -5836    -5910    -6111    -6303    -6299    -6062    -5813 
   -5779    -5895    -6021    -6092    -6060    -5987    -5969    -6007 
   -6033    -5989    -5904    -5854    -5898    -5962    -5922    -5859 
   -5937    -6127    -6208    -6048    -5825    -5736    -5802    -6023 
   -6237    -6154    -5854    -5737    -5960    -6268    -6370    -6160 
   -5697    -5358    -5567    -6145    -6538    -6467    -6012    -5603 
   -5687    -6081    -6237    -6049    -5827    -5736    -5813    -6097 
   -6363    -6288    -5940    -5686    -5746    -5968    -6079    -5988 
   -5814    -5749    -5849    -6029    -6142    -6049    -5899    -5941 
   -6066    -6072    -6021    -6012    -5952    -5832    -5915    -6157 
   -6130    -5876    -5836    -5998    -6052    -6022    -6073    -6042 
   -5846    -5821    -6079    -6292    -6289    -6130    -5859    -5616 
   -5537    -5680    -6042    -6335    -6277    -5988    -5697    -5611 
   -5867    -6214    -6237    -5881    -5568    -5679    -6085    -6450 
   -6585    -6366    -5838    -5394    -5462    -5979    -6397    -6328 
   -5973    -5748    -5811    -6026    -6207    -6278    -6164    -5868 
   -5655    -5740    -6045    -6249    -6147    -5913    -5806    -5850 
   -5868    -5765    -5718    -5871    -6137    -6335    -6308    -6103 
   -5930    -5899    -5952    -5969    -5945    -5934    -5933    -5983 
   -6123    -6204    -6080    -5873    -5788    -5837    -5892    -5923 
   -6000    -6049    -5960    -5919    -6026    -6042    -5950    -5952 
   -5992    -6018    -6072    -6007    -5825    -5760    -5867    -6045 
   -6169    -6151    -6016    -5849    -5806    -5967    -6150    -6135 
   -5911    -5764    -5888    -6052    -6039    -5892    -5771    -5872 
   -6118    -6265    -6280    -6166    -5973    -5883    -5927    -6022 
   -6085    -5985    -5768    -5668    -5765    -5945    -6056    -6061 
   -6043    -6048    -6022    -5937    -5841    -5833    -5927    -5994 
   -6021    -6085    -6162    -6274    -6330    -6118    -5795    -5678 
   -5787    -5950    -6041    -6041    -5979    -5890    -5834    -5892 
   -6058    -6126    -5967    -5790    -5841    -6054    -6143    -6007 
   -5836    -5844    -6021    -6183    -6224    -6093    -5832    -5744 
   -5945    -6127    -6069    -5849    -5697    -5772    -6062    -6322 
   -6214    -5918    -5891    -6049    -6142    -6106    -5902    -5653 
   -5516    -5611    -5980    -6280    -6211    -5984    -5896    -5991 
   -6166    -6316    -6319    -6091    -5802    -5736    -5861    -6003 
   -6092    -6058    -5968    -5958    -5961    -5922    -5930    -5957 
   -5934    -5907    -5877    -5859    -5983    -6154    -6120    -5972 
   -5898    -5860    -5865    -5960    -6087    -6166    -6106    -5948 
   -5906    -5964    -5965    -5968    -6031    -6046    -5989    -5973 
   -6027    -6031    -5923    -5852    -5935    -6061    -6081    -6014 
   -5925    -5834    -5805    -5873    -5964    -5998    -5979    -5975 
   -6041    -6100    -6096    -6042    -5946    -5918    -5977    -5985 
   -5965    -5942    -5867    -5853    -5933    -6006    -6039    -6053 
   -6076    -6049    -5930    -5950    -6183    -6259    -6046    -5881 
   -5859    -5755    -5698    -5895    -6134    -6189    -6108    -6026 
   -6015    -6019    -5987    -5973    -6000    -6023    -6008    -5980 
   -5952    -5844    -5683    -5678    -5886    -6141    -6288    -6199 
   -5906    -5691    -5753    -6006    -6151    -6035    -5850    -5806 
   -5929    -6114    -6207    -6120    -5884    -5734    -5926    -6212 
   -6162    -5869    -5726    -5821    -6007    -6207    -6284    -6080 
   -5759    -5645    -5833    -6195    -6450    -6327    -5918    -5601 
   -5620    -5931    -6255    -6262    -5994    -5810    -5833    -5918 
   -6003    -6035    -5902    -5713    -5769    -6025    -6135    -6049 
   -5938    -5850    -5815    -5884    -6008    -6120    -6169    -6120 
   -6061    -6050    -6021    -6008    -6045    -6057    -6061    -6072 
   -6073    -6102    -6112    -6091    -6112    -6087    -5940    -5805 
   -5782    -5798    -5807    -5900    -6016    -5983    -5925    -5960 
   -5929    -5810    -5757    -5819    -5894    -5969    -6149    -6261 
   -6170    -6068    -6018    -5971    -5984    -6045    -6030    -5902 
   -5809    -5907    -6068    -6108    -6104    -6069    -5861    -5610 
   -5655    -6004    -6315    -6324    -6092    -5887    -5814    -5795 
   -5867    -6002    -6054    -6027    -5981    -5979    -6033    -6054 
   -6000    -5886    -5836    -5981    -6166    -6145    -5954    -5832 
   -5834    -5846    -5964    -6245    -6311    -5991    -5725    -5784 
   -5962    -6096    -6170    -6169    -6093    -5975    -5911    -5944 
   -5972    -5934    -5832    -5740    -5783    -5922    -6033    -6100 
   -6157    -6149    -6008    -5836    -5759    -5790    -5922    -6038 
   -6072    -6149    -6161    -5968    -5832    -5925    -6084    -6150 
   -6104    -6022    -5958    -5930    -5914    -5881    -5864    -5832 
   -5788    -5857    -5989    -6016    -5945    -5926    -6015    -6096 
   -6084    -5992    -5894    -5880    -5972    -6102    -6153    -6088 
   -5992    -5927    -5910    -5956    -6043    -6119    -6108    -5981 
   -5886    -5906    -5954    -6011    -6041    -5981    -5887    -5822 
   -5850    -5954    -6000    -5989    -5972    -5984    -6068    -6137 
   -6114    -6030    -5914    -5794    -5725    -5807    -5980    -6048 
   -6004    -6004    -6095    -6120    -5995    -5894    -5886    -5883 
   -5931    -6083    -6215    -6208    -6103    -5996    -5937    -5927 
   -5940    -5973    -6014    -6057    -6119    -6108    -6004    -5908 
   -5841    -5838    -5930    -6037    -6068    -5981    -5886    -5915 
   -5972    -5918    -5872    -5926    -5961    -5987    -6035    -6007 
   -5975    -6006    -5983    -5891    -5857    -5945    -6091    -6176 
   -6149    -6034    -5902    -5837    -5900    -6014    -6008    -5907 
   -5844    -5779    -5749    -5903    -6127    -6201    -6127    -6033 
   -5992    -5983    -5954    -5907    -5868    -5869    -5985    -6168 
   -6203    -6050    -5921    -5935    -6004    -6008    -5946    -5868 
   -5817    -5865    -6019    -6118    -6053    -5969    -6031    -6157 
   -6178    -6108    -6015    -5900    -5875    -5981    -6012    -5922 
   -5876    -5921    -6008    -6089    -6068    -5945    -5877    -5929 
   -6029    -6103    -6100    -6057    -6012    -5961    -5981    -6053 
   -6004    -5857    -5809    -5917    -6041    -6046    -5960    -5921 
   -5980    -6035    -5983    -5865    -5769    -5749    -5877    -6124 
   -6272    -6170    -5991    -5927    -5934    -5948    -5949    -5869 
   -5792    -5875    -6025    -6072    -6012    -5929    -5917    -6006 
   -6091    -6062    -5929    -5780    -5763    -5946    -6178    -6241 
   -6104    -5914    -5792    -5791    -5923    -6062    -6039    -5886 
   -5742    -5775    -5980    -6079    -5957    -5795    -5787    -5946 
   -6119    -6189    -6158    -6092    -6100    -6172    -6203    -6134 
   -6014    -5958    -5980    -6003    -6004    -6023    -6023    -5952 
   -5881    -5863    -5883    -5942    -5985    -6025    -6091    -6103 
   -6025    -5868    -5713    -5748    -5914    -5996    -6015    -6088 
   -6137    -6096    -6083    -6100    -6030    -5883    -5769    -5796 
   -5892    -5926    -5994    -6118    -6079    -5896    -5821    -5890 
   -5995    -6072    -6077    -6022    -5962    -6010    -6205    -6343 
   -6238    -6006    -5794    -5653    -5670    -5807    -5942    -6041 
   -6093    -6054    -5944    -5857    -5846    -5871    -5871    -5860 
   -5879    -5935    -6046    -6203    -6322    -6326    -6173    -5890 
   -5671    -5714    -5952    -6188    -6301    -6249    -6072    -5914 
   -5888    -5941    -5927    -5865    -5867    -5944    -5994    -5952 
   -5915    -5937    -5937    -5971    -6061    -6089    -6087    -6134 
   -6164    -6081    -5934    -5913    -6039    -6120    -6050    -5904 
   -5795    -5751    -5798    -5971    -6147    -6184    -6087    -5938 
   -5844    -5819    -5805    -5796    -5810    -5846    -5944    -6060 
   -6123    -6110    -5961    -5768    -5751    -5877    -5965    -5975 
   -5972    -5989    -5979    -5962    -5981    -5958    -5925    -5994 
   -6089    -6138    -6149    -6122    -6116    -6181    -6222    -6134 
   -5922    -5725    -5699    -5844    -6016    -6081    -5969    -5759 
   -5630    -5674    -5829    -5969    -6018    -5994    -5948    -5954 
   -6084    -6227    -6196    -6054    -6012    -6079    -6145    -6204 
   -6255    -6251    -6160    -5999    -5904    -5942    -5962    -5968 
   -6081    -6142    -6026    -5879    -5815    -5865    -5946    -5914 
   -5809    -5782    -5915    -6135    -6237    -6114    -5879    -5783 
   -5987    -6309    -6424    -6239    -5908    -5651    -5597    -5701 
   -5798    -5790    -5728    -5775    -6038    -6312    -6272    -6011 
   -5868    -5914    -6015    -6080    -6100    -6102    -6116    -6196 
   -6313    -6238    -5837    -5424    -5368    -5605    -5834    -5934 
   -5938    -5898    -5890    -5987    -6141    -6197    -6131    -6068 
   -6048    -6037    -6037    -5983    -5869    -5838    -5931    -6037 
   -6031    -5868    -5692    -5698    -5908    -6193    -6365    -6376 
   -6332    -6295    -6237    -6112    -5898    -5638    -5486    -5575 
   -5846    -6052    -6061    -6007    -6050    -6168    -6266    -6264 
   -6146    -5983    -5834    -5749    -5778    -5863    -5919    -5944 
   -5898    -5794    -5757    -5852    -6022    -6127    -6096    -6016 
   -5941    -5884    -5861    -5834    -5817    -5853    -5944    -6039 
   -6073    -6049    -5971    -5817    -5683    -5659    -5709    -5788 
   -5875    -5981    -6110    -6149    -6069    -5971    -5871    -5778 
   -5787    -5895    -6041    -6158    -6130    -5915    -5660    -5564 
   -5703    -5949    -6108    -6124    -6092    -6126    -6234    -6399 
   -6567    -6600    -6447    -6253    -6178    -6192    -6070    -5759 
   -5494    -5441    -5617    -5980    -6284    -6282    -6054    -5833 
   -5761    -5830    -5929    -5962    -5949    -5969    -6076    -6232 
   -6257    -6041    -5806    -5783    -5911    -6048    -6158    -6245 
   -6269    -6223    -6154    -6093    -6019    -5895    -5815    -5915 
   -6123    -6264    -6193    -5896    -5607    -5512    -5513    -5544 
   -5688    -5980    -6264    -6297    -6053    -5715    -5487    -5543 
   -5883    -6234    -6308    -6081    -5794    -5721    -5953    -6323 
   -6489    -6324    -6042    -5814    -5709    -5791    -5980    -6099 
   -6100    -6076    -6077    -6064    -6014    -5979    -6018    -6111 
   -6143    -6034    -5914    -5918    -5927    -5845    -5741    -5656 
   -5628    -5705    -5848    -6011    -6134    -6158    -6183    -6315 
   -6488    -6593    -6554    -6335    -6070    -5956    -6002    -6033 
   -5941    -5783    -5729    -5908    -6200    -6330    -6218    -6007 
   -5879    -5918    -6022    -5983    -5768    -5591    -5586    -5702 
   -5850    -5957    -5927    -5733    -5537    -5517    -5668    -5948 
   -6312    -6677    -6953    -6976    -6655    -6183    -5832    -5705 
   -5741    -5810    -5819    -5815    -5822    -5806    -5805    -5836 
   -5848    -5859    -5937    -6151    -6386    -6363    -6084    -5810 
   -5644    -5598    -5761    -6120    -6448    -6544    -6442    -6304 
   -6216    -6160    -6110    -6077    -6029    -5908    -5755    -5672 
   -5725    -5813    -5800    -5710    -5564    -5370    -5274    -5405 
   -5740    -6143    -6415    -6484    -6438    -6293    -6064    -5861 
   -5660    -5351    -5085    -5086    -5362    -5796    -6158    -6201 
   -5983    -5783    -5791    -5977    -6149    -6151    -6029    -5952 
   -6015    -6127    -6143    -6019    -5845    -5792    -5918    -6048 
   -5988    -5782    -5652    -5761    -6091    -6488    -6759    -6790 
   -6632    -6455    -6358    -6265    -6076    -5806    -5607    -5688 
   -6016    -6280    -6277    -6058    -5844    -5806    -5863    -5865 
   -5857    -5922    -6046    -6228    -6443    -6588    -6531    -6216 
   -5811    -5483    -5243    -5173    -5344    -5694    -6137    -6559 
   -6762    -6579    -6151    -5842    -5783    -5813    -5826    -5857 
   -5914    -5902    -5813    -5784    -5821    -5736    -5493    -5301 
   -5259    -5298    -5417    -5583    -5707    -5853    -6115    -6451 
   -6682    -6616    -6312    -6023    -5872    -5844    -5931    -6096 
   -6232    -6246    -6154    -6060    -5949    -5813    -5792    -5917 
   -6089    -6291    -6492    -6588    -6473    -6231    -6083    -6123 
   -6289    -6421    -6365    -6181    -6093    -6157    -6172    -5999 
   -5779    -5705    -5798    -5911    -5815    -5431    -4968    -4722 
   -4770    -4989    -5278    -5567    -5784    -5944    -6141    -6396 
   -6569    -6547    -6451    -6424    -6434    -6405    -6361    -6378 
   -6478    -6532    -6431    -6241    -6080    -6010    -6079    -6258 
   -6396    -6343    -6088    -5790    -5563    -5347    -5081    -4781 
   -4472    -4267    -4288    -4509    -4942    -5660    -6561    -7446 
   -8095    -8322    -8170    -7766    -7198    -6571    -5922    -5271 
   -4714    -4341    -4297    -4657    -5323    -6114    -6766    -7075 
   -7084    -6875    -6451    -5969    -5697    -5676    -5718    -5674 
   -5539    -5379    -5266    -5277    -5483    -5846    -6234    -6574 
   -6843    -6967    -6912    -6673    -6234    -5721    -5348    -5174 
   -5148    -5242    -5398    -5571    -5836    -6276    -6755    -6971 
   -6805    -6377    -5867    -5521    -5552    -5829    -6057    -6103 
   -5946    -5721    -5679    -5938    -6367    -6631    -6507    -6165 
   -5894    -5763    -5665    -5553    -5489    -5535    -5728    -6057 
   -6339    -6357    -6146    -5892    -5738    -5776    -5964    -6129 
   -6158    -6075    -5985    -5915    -5788    -5602    -5421    -5297 
   -5344    -5678    -6230    -6760    -7065    -7133    -7101    -7037 
   -6897    -6660    -6407    -6261    -6324    -6543    -6685    -6536 
   -6085    -5535    -5123    -4943    -4927    -4965    -5015    -5062 
   -5085    -5125    -5233    -5394    -5618    -5873    -6077    -6266 
   -6450    -6563    -6654    -6728    -6636    -6320    -5931    -5647 
   -5474    -5370    -5337    -5310    -5255    -5320    -5678    -6228 
   -6662    -6804    -6713    -6477    -6195    -5994    -5945    -6003 
   -6066    -6072    -6021    -5923    -5819    -5742    -5692    -5724 
   -5869    -6076    -6305    -6508    -6608    -6600    -6520    -6388 
   -6237    -6102    -6004    -5953    -5941    -5934    -5903    -5890 
   -5977    -6129    -6122    -5825    -5409    -5158    -5178    -5401 
   -5724    -5996    -6079    -6029    -6031    -6122    -6158    -6037 
   -5818    -5663    -5682    -5864    -6057    -6095    -6000    -5971 
   -6065    -6134    -6085    -5958    -5773    -5594    -5545    -5690 
   -5967    -6203    -6296    -6338    -6424    -6535    -6588    -6562 
   -6548    -6551    -6426    -6106    -5697    -5339    -5136    -5148 
   -5324    -5508    -5629    -5768    -5992    -6264    -6480    -6578 
   -6569    -6465    -6276    -6031    -5746    -5454    -5220    -5147 
   -5282    -5541    -5848    -6124    -6284    -6367    -6446    -6484 
   -6474    -6400    -6270    -6187    -6166    -6166    -6142    -5998 
   -5787    -5678    -5724    -5922    -6216    -6471    -6606    -6574 
   -6330    -5985    -5694    -5449    -5248    -5132    -5057    -4984 
   -4996    -5202    -5572    -5919    -6102    -6151    -6131    -6050 
   -5981    -6025    -6119    -6235    -6523    -6934    -7155    -7034 
   -6647    -6158    -5823    -5784    -5922    -6034    -6054    -6049 
   -6037    -5984    -5929    -5899    -5817    -5614    -5444    -5522 
   -5748    -5890    -5929    -5940    -5931    -5867    -5713    -5524 
   -5391    -5382    -5516    -5691    -5782    -5861    -6103    -6480 
   -6774    -6810    -6639    -6489    -6515    -6651    -6713    -6566 
   -6247    -5890    -5594    -5432    -5412    -5478    -5578    -5675 
   -5780    -5900    -5964    -5933    -5871    -5832    -5810    -5756 
   -5674    -5637    -5695    -5864    -6083    -6191    -6158    -6115 
   -6134    -6153    -6068    -5861    -5656    -5567    -5603    -5745 
   -5945    -6129    -6277    -6424    -6543    -6529    -6361    -6118 
   -5896    -5803    -5877    -6000    -6039    -5979    -5896    -5913 
   -6041    -6139    -6097    -5954    -5864    -5957    -6139    -6193 
   -6095    -6010    -6075    -6262    -6420    -6412    -6207    -5944 
   -5805    -5782    -5778    -5767    -5760    -5772    -5826    -5887 
   -5883    -5786    -5663    -5645    -5782    -6019    -6262    -6397 
   -6404    -6313    -6147    -5979    -5842    -5714    -5656    -5725 
   -5891    -6075    -6200    -6296    -6378    -6388    -6330    -6289 
   -6281    -6218    -6060    -5850    -5614    -5443    -5467    -5682 
   -5938    -6089    -6102    -6064    -6045    -6012    -5922    -5763 
   -5513    -5229    -5103    -5236    -5510    -5728    -5809    -5818 
   -5823    -5875    -6021    -6176    -6212    -6147    -6099    -6165 
   -6339    -6493    -6504    -6324    -6054    -5867    -5805    -5848 
   -6011    -6235    -6442    -6615    -6743    -6770    -6631    -6354 
   -6050    -5746    -5474    -5355    -5404    -5505    -5609    -5679 
   -5652    -5580    -5652    -5930    -6234    -6373    -6347    -6231 
   -6084    -5975    -6000    -6143    -6224    -6177    -6120    -6102 
   -6092    -6126    -6214    -6278    -6230    -6104    -5998    -5911 
   -5813    -5713    -5603    -5543    -5606    -5780    -5964    -6030 
   -5965    -5927    -6006    -6099    -6147    -6164    -6119    -6008 
   -5895    -5803    -5694    -5566    -5466    -5433    -5506    -5702 
   -5940    -6089    -6106    -6038    -5921    -5773    -5640    -5583 
   -5630    -5730    -5825    -5918    -6023    -6112    -6201    -6342 
   -6505    -6598    -6583    -6462    -6276    -6114    -6038    -6022 
   -6014    -6034    -6115    -6166    -6097    -5968    -5854    -5760 
   -5718    -5776    -5891    -5962    -5918    -5798    -5713    -5682 
   -5679    -5729    -5837    -5983    -6185    -6419    -6583    -6583 
   -6435    -6245    -6081    -5977    -5969    -6014    -6035    -5994 
   -5908    -5846    -5802    -5745    -5724    -5699    -5595    -5522 
   -5579    -5702    -5826    -5949    -6075    -6156    -6131    -6060 
   -6068    -6166    -6299    -6400    -6373    -6247    -6188    -6227 
   -6241    -6156    -6061    -6043    -6056    -6091    -6158    -6139 
   -5991    -5845    -5822    -5926    -6037    -6018    -5873    -5707 
   -5597    -5547    -5516    -5460    -5416    -5501    -5751    -6008 
   -6137    -6154    -6142    -6188    -6316    -6436    -6454    -6358 
   -6235    -6172    -6116    -6010    -5908    -5848    -5802    -5765 
   -5715    -5632    -5545    -5526    -5687    -6011    -6293    -6355 
