Origin Time       2025/03/30 10:18:00
Lat.              34.667
Long.             140.825
Depth. (km)       69
Mag.              4.9
Station Code      CHB012
Station Lat.      35.5721
Station Long.     140.3436
Station Height(m) 60
Record Time       2025/03/30 10:19:06
Sampling Freq(Hz) 100Hz
Duration Time(s)  60
Dir.              E-W
Scale Factor      7845(gal)/8223790
Max. Acc. (gal)   1.761
Last Correction   2025/03/30 10:19:05
Memo.             
[...]
    3496     3527     3613     3649     3574     3437     3400     3545 
    3715     3736     3631     3562     3630     3781     3937     4079 
    4132     4033     3874     3766     3703     3618     3526     3480 
    3478     3493     3488     3466     3481     3557     3649     3690 
    3670     3655     3719     3835     3904     3859     3769     3759 
    3823     3820     3705     3568     3481     3437     3414     3427 
    3496     3593     3666     3727     3840     3974     3993     3835 
    3607     3478     3500     3538     3493     3483     3624     3827 
    3928     3886     3817     3802     3775     3665     3491     3361 
    3373     3485     3581     3662     3771     3892     3969     3950 
    3815     3647     3535     3484     3481     3523     3569     3619 
    3720     3851     3928     3915     3852     3777     3682     3595 
    3554     3531     3520     3588     3717     3838     3896     3855 
    3736     3608     3476     3348     3312     3424     3593     3699 
    3738     3817     3993     4171     4220     4097     3836     3553 
    3377     3304     3254     3227     3281     3457     3712     3931 
    4043     4040     3917     3724     3559     3458     3414     3424 
    3470     3530     3624     3735     3797     3792     3770     3804 
    3883     3904     3831     3755     3743     3797     3892     3933 
    3836     3618     3381     3284     3370     3485     3511     3528 
    3635     3798     3896     3861     3790     3763     3711     3580 
    3454     3460     3608     3742     3742     3705     3717     3724 
    3692     3609     3483     3418     3487     3605     3682     3708 
    3688     3658     3678     3753     3797     3774     3751     3750 
    3740     3739     3771     3809     3829     3819     3769     3721 
    3728     3743     3693     3596     3510     3488     3535     3573 
    3569     3597     3672     3719     3726     3736     3746     3697 
    3585     3489     3492     3554     3593     3630     3731     3893 
    3994     3939     3802     3697     3611     3499     3389     3331 
    3339     3419     3557     3721     3877     3971     3981     3913 
    3797     3726     3726     3696     3607     3561     3586     3651 
    3770     3889     3904     3809     3649     3466     3362     3400 
    3496     3543     3568     3678     3855     3960     3942     3843 
    3721     3628     3582     3561     3543     3527     3516     3564 
    3716     3904     4005     3990     3915     3838     3794     3788 
    3769     3680     3551     3458     3411     3402     3446     3538 
    3607     3586     3515     3508     3640     3847     3991     4001 
    3875     3715     3663     3700     3684     3591     3528     3564 
    3639     3694     3724     3711     3662     3620     3566     3514 
    3523     3551     3538     3549     3634     3720     3766     3811 
    3908     4018     4013     3832     3588     3418     3392     3500 
    3620     3650     3622     3631     3689     3777     3871     3894 
    3828     3736     3672     3680     3748     3782     3748     3723 
    3754     3758     3655     3487     3393     3464     3603     3667 
    3635     3574     3553     3585     3640     3654     3593     3546 
    3609     3751     3848     3825     3703     3553     3445     3434 
    3528     3661     3780     3861     3919     3958     3940     3881 
    3831     3744     3580     3429     3389     3462     3595     3732 
    3819     3825     3778     3707     3640     3623     3638     3624 
    3597     3601     3619     3631     3645     3639     3618     3620 
    3688     3778     3802     3785     3804     3834     3838     3819 
    3744     3611     3495     3462     3535     3674     3800     3869 
    3867     3836     3840     3816     3684     3514     3438     3499 
    3618     3694     3711     3669     3618     3616     3596     3461 
    3269     3132     3091     3175     3402     3693     3933     4074 
    4131     4133     4104     4035     3910     3778     3697     3651 
    3615     3580     3542     3558     3643     3692     3628     3492 
    3391     3406     3528     3699     3855     3946     3958     3920 
    3846     3777     3748     3693     3532     3335     3221     3245 
    3397     3599     3751     3839     3906     3966     4005     4016 
    3964     3871     3823     3827     3823     3781     3686     3535 
    3404     3383     3416     3420     3438     3553     3739     3889 
    3921     3863     3832     3886     3942     3862     3601     3322 
    3231     3303     3377     3414     3461     3539     3628     3669 
    3640     3620     3662     3726     3759     3784     3844     3916 
    3935     3883     3767     3613     3469     3410     3492     3667 
    3843     3940     3915     3823     3767     3746     3699     3624 
    3574     3592     3650     3689     3694     3704     3723     3716 
    3661     3574     3497     3449     3458     3545     3677     3820 
    3921     3931     3881     3835     3777     3667     3564     3538 
    3558     3576     3568     3546     3577     3663     3736     3769 
    3793     3838     3861     3802     3716     3697     3716     3703 
    3685     3686     3676     3654     3638     3619     3613     3645 
    3663     3613     3543     3528     3549     3566     3636     3765 
    3870     3921     3916     3850     3811     3836     3796     3635 
    3469     3388     3388     3438     3489     3550     3658     3757 
    3755     3689     3651     3669     3696     3696     3690     3685 
    3662     3627     3601     3586     3576     3574     3600     3661 
    3696     3662     3623     3643     3715     3769     3742     3681 
    3666     3690     3697     3653     3595     3585     3635     3705 
    3742     3736     3747     3829     3951     4028     4000     3855 
    3650     3469     3368     3377     3466     3581     3693     3792 
    3854     3869     3850     3832     3793     3696     3559     3431 
    3357     3361     3404     3429     3458     3555     3685     3758 
    3740     3667     3584     3508     3456     3446     3503     3673 
    3944     4180     4221     4059     3829     3653     3574     3593 
    3676     3801     3925     3956     3879     3770     3700     3705 
    3750     3739     3612     3438     3354     3389     3485     3612 
    3715     3716     3639     3562     3539     3593     3690     3732 
    3723     3765     3877     3985     4028     3977     3844     3694 
    3604     3599     3684     3836     3975     4021     3997     3959 
    3908     3802     3643     3499     3439     3477     3601     3763 
    3888     3964     4027     4082     4075     3931     3709     3543 
    3454     3391     3333     3300     3319     3375     3414     3410 
    3379     3325     3267     3253     3335     3520     3700     3740 
    3634     3483     3395     3397     3456     3550     3666     3751 
    3785     3821     3885     3906     3823     3700     3616     3551 
    3497     3505     3622     3828     4040     4160     4163     4082 
    3956     3778     3572     3433     3407     3439     3488     3549 
    3609     3642     3654     3680     3713     3773     3852     3844 
    3696     3503     3364     3292     3288     3315     3316     3352 
    3487     3650     3751     3797     3839     3870     3850     3825 
    3856     3908     3898     3815     3723     3690     3739     3844 
    3933     3929     3831     3708     3620     3572     3532     3491 
    3473     3454     3389     3292     3211     3238     3418     3650 
    3839     3924     3856     3665     3438     3294     3284     3350 
    3447     3565     3674     3808     3978     4071     4043     3960 
    3879     3829     3807     3802     3807     3790     3777     3827 
    3883     3863     3794     3775     3832     3883     3874     3843 
    3816     3755     3631     3442     3261     3214     3308     3415 
    3447     3437     3439     3478     3538     3627     3819     4135 
    4448     4599     4567     4461     4380     4274     4050     3740 
    3483     3373     3411     3497     3481     3283     2956     2644 
    2471     2458     2547     2673     2813     3013     3272     3519 
    3754     4043     4401     4770     5023     5039     4828     4480 
    4089     3746     3497     3349     3304     3365     3539     3798 
    4052     4178     4093     3813     3449     3161     3105     3302 
    3615     3902     4071     4087     4033     3989     3963     3935 
    3856     3719     3604     3566     3589     3647     3732     3820 
    3842     3744     3580     3424     3303     3192     3073     2978 
    2979     3133     3451     3852     4163     4324     4409     4468 
    4484     4387     4145     3843     3541     3250     3024     2934 
    2998     3152     3308     3372     3287     3123     3022     3071 
    3242     3370     3376     3375     3491     3743     4052     4272 
    4336     4337     4344     4302     4147     3937     3809     3790 
    3758     3643     3501     3381     3271     3159     3013     2821 
    2693     2729     2914     3208     3562     3877     4058     4090 
    4043     3979     3925     3932     3986     4018     4031     4077 
    4202     4396     4553     4577     4517     4460     4406     4301 
    4148     3998     3873     3789     3740     3622     3360     3042 
    2791     2648     2613     2698     2905     3219     3595     3947 
    4221     4406     4455     4301     3990     3646     3366     3176 
    3069     3098     3321     3665     3971     4147     4190     4152 
    4064     3873     3564     3258     3057     2972     3019     3206 
    3443     3603     3603     3439     3227     3106     3102     3188 
    3362     3595     3809     3935     3948     3866     3816     3935 
    4155     4322     4386     4365     4283     4124     3883     3634 
    3457     3376     3404     3518     3628     3674     3696     3735 
    3766     3761     3726     3669     3562     3403     3265     3221 
    3281     3426     3597     3734     3846     3964     4068     4132 
    4108     3954     3728     3532     3435     3450     3503     3492 
    3383     3206     3055     3056     3261     3586     3886     4056 
    4093     4068     4060     4109     4247     4448     4633     4746 
    4716     4491     4114     3647     3142     2710     2450     2361 
    2430     2655     2963     3256     3462     3547     3551     3572 
    3680     3847     4012     4178     4357     4487     4460     4220 
    3844     3476     3206     3069     3068     3206     3461     3743 
    3923     3939     3847     3775     3796     3855     3869     3812 
    3716     3670     3769     3959     4116     4179     4072     3788 
    3516     3465     3639     3879     4055     4155     4212     4187 
    3974     3549     3065     2713     2517     2392     2340     2465 
    2776     3171     3526     3782     3989     4214     4442     4594 
    4579     4369     4091     3904     3861     3931     4045     4121 
    4089     3917     3688     3487     3308     3179     3164     3256 
    3407     3576     3724     3844     3878     3765     3532     3265 
    3049     2953     3029     3273     3589     3816     3877     3828 
    3769     3780     3863     3935     3937     3904     3888     3896 
    3885     3846     3802     3750     3630     3397     3121     2978 
    3082     3356     3577     3632     3653     3807     4075     4278 
    4282     4125     3921     3759     3658     3586     3515     3441 
    3407     3438     3483     3476     3427     3404     3491     3709 
    3991     4283     4549     4723     4758     4653     4396     4068 
    3804     3604     3400     3211     3095     3067     3105     3164 
    3241     3368     3504     3569     3588     3628     3670     3643 
    3538     3400     3280     3211     3233     3330     3465     3659 
    3883     4029     4043     3936     3780     3682     3661     3663 
    3677     3659     3599     3572     3612     3667     3658     3514 
    3306     3215     3306     3503     3723     3908     4048     4158 
    4186     4095     3964     3927     3978     3967     3774     3451 
    3186     3103     3165     3300     3469     3678     3917     4118 
    4218     4210     4121     4039     4039     4068     4000     3809 
    3623     3557     3605     3654     3585     3385     3165     3052 
    3059     3118     3190     3253     3276     3244     3163     3136 
    3269     3542     3855     4102     4228     4271     4280     4301 
    4383     4491     4529     4456     4295     4091     3852     3581 
    3334     3169     3095     3082     3088     3105     3187     3360 
    3573     3786     3994     4178     4252     4137     3883     3658 
    3582     3645     3724     3753     3788     3852     3886     3839 
    3719     3574     3450     3376     3383     3472     3593     3667 
    3649     3557     3430     3295     3172     3065     2991     3030 
    3262     3677     4144     4495     4665     4720     4733     4720 
    4614     4333     3944     3584     3312     3153     3102     3082 
    3041     3013     3071     3253     3549     3905     4229     4394 
    4368     4247     4081     3883     3688     3505     3385     3384 
    3470     3564     3542     3325     2960     2570     2253     2073 
    2065     2212     2523     3010     3595     4178     4720     5174 
    5463     5521     5374     5116     4803     4453     4108     3792 
    3545     3453     3519     3643     3728     3709     3599     3445 
    3231     3014     2929     2988     3156     3416     3634     3689 
    3616     3499     3424     3414     3410     3414     3457     3558 
    3705     3793     3734     3596     3468     3357     3279     3268 
    3365     3597     3894     4185     4438     4603     4648     4626 
    4568     4405     4089     3670     3269     3011     2899     2859 
    2880     2955     3022     3068     3117     3202     3380     3642 
    3874     4016     4131     4232     4247     4198     4164     4175 
    4237     4284     4247     4149     4009     3811     3607     3438 
    3326     3272     3213     3107     3022     2994     3003     3041 
    3121     3331     3728     4193     4541     4685     4631     4449 
    4205     3936     3690     3523     3487     3593     3777     3955 
    4064     4050     3927     3746     3512     3280     3129     3057 
    3076     3214     3414     3623     3807     3905     3892     3793 
    3654     3493     3300     3084     2914     2860     2925     3052 
    3175     3285     3416     3568     3721     3889     4113     4411 
    4711     4916     4966     4870     4702     4448     4060     3616 
    3268     3126     3229     3481     3682     3680     3500     3285 
    3146     3086     3049     3045     3125     3261     3379     3402 
    3342     3306     3365     3524     3732     3885     3969     4081 
    4266     4455     4561     4553     4457     4355     4290     4239 
    4162     4009     3769     3500     3271     3098     2957     2856 
    2821     2832     2883     3030     3285     3589     3862     4048 
    4140     4185     4209     4156     3994     3804     3684     3630 
    3595     3601     3680     3773     3823     3809     3717     3585 
    3474     3411     3410     3500     3663     3809     3888     3904 
    3869     3805     3732     3655     3584     3520     3476     3489 
    3589     3732     3843     3848     3739     3580     3427     3292 
    3164     3026     2902     2857     2947     3154     3430     3731 
    4021     4259     4413     4430     4311     4172     4122     4158 
    4202     4199     4155     4052     3882     3696     3546     3457 
    3424     3416     3411     3407     3395     3361     3308     3268 
    3285     3408     3599     3743     3739     3577     3370     3242 
    3210     3226     3273     3343     3420     3516     3640     3747 
    3815     3858     3865     3836     3793     3732     3628     3512 
    3437     3411     3449     3568     3731     3912     4104     4320 
    4531     4631     4567     4401     4209     4035     3919     3871 
    3856     3862     3894     3915     3851     3666     3418     3218 
    3148     3195     3287     3372     3454     3570     3724     3865 
    3944     3958     3925     3875     3815     3707     3545     3354 
    3171     3064     3073     3195     3393     3597     3744     3823 
    3832     3817     3820     3813     3790     3796     3839     3919 
    4012     4051     4029     3977     3858     3661     3433     3246 
    3148     3105     3067     3082     3191     3361     3555     3720 
    3823     3927     4099     4305     4440     4434     4326     4185 
    4036     3874     3719     3604     3574     3684     3908     4122 
    4216     4159     4002     3800     3530     3208     2933     2754 
    2668     2677     2754     2872     3009     3117     3195     3280 
    3393     3520     3639     3766     3900     3986     3975     3881 
    3797     3813     3915     4008     4024     3985     3951     3928 
    3906     3898     3912     3954     3989     3917     3732     3557 
    3483     3511     3596     3658     3655     3639     3678     3761 
    3812     3792     3761     3781     3828     3867     3862     3785 
    3663     3526     3358     3179     3034     2968     3009     3137 
    3308     3495     3678     3854     4024     4167     4252     4297 
    4332     4352     4320     4201     3994     3754     3549     3379 
    3200     3028     2907     2841     2813     2853     2998     3219 
    3443     3642     3820     3983     4121     4201     4217     4249 
    4347     4437     4419     4252     3982     3727     3542     3373 
    3217     3126     3096     3132     3271     3484     3685     3842 
    3939     3952     3915     3871     3838     3804     3766     3742 
    3732     3704     3688     3734     3825     3936     4028     4028 
    3940     3809     3654     3496     3372     3342     3424     3531 
    3612     3657     3620     3508     3415     3397     3445     3550 
    3703     3878     4016     4035     3947     3797     3599     3400 
    3246     3109     2984     2913     2924     3041     3235     3418 
    3565     3728     3915     4083     4185     4167     4051     3921 
    3835     3813     3832     3848     3862     3888     3906     3892 
    3829     3730     3631     3542     3457     3412     3431     3496 
    3599     3730     3842     3904     3928     3942     3959     3969 
    3956     3916     3835     3748     3720     3736     3734     3700 
    3661     3667     3740     3831     3875     3861     3793     3690 
    3557     3407     3265     3115     2951     2830     2812     2895 
    3048     3229     3410     3584     3723     3811     3866     3881 
    3836     3757     3686     3688     3796     3974     4132     4212 
    4228     4216     4180     4112     4045     4016     4025     4071 
    4109     4091     4005     3858     3682     3520     3376     3248 
    3169     3171     3250     3385     3538     3684     3796     3838 
    3807     3730     3618     3518     3465     3430     3375     3291 
    3200     3161     3202     3288     3373     3429     3477     3554 
