Origin Time       2025/03/30 10:18:00
Lat.              34.667
Long.             140.825
Depth. (km)       69
Mag.              4.9
Station Code      CHB020
Station Lat.      35.1132
Station Long.     140.1006
Station Height(m) 9
Record Time       2025/03/30 10:18:59
Sampling Freq(Hz) 100Hz
Duration Time(s)  65
Dir.              U-D
Scale Factor      7845(gal)/8223790
Max. Acc. (gal)   3.241
Last Correction   2025/03/30 10:18:58
Memo.             
[...]
    6126     6210     6434     6717     6853     6728     6419     6114 
    5999     6108     6257     6289     6253     6093     5709     5327 
    5193     5293     5610     6041     6291     6242     6127     6110 
    6111     6170     6428     6698     6720     6673     6876     7122 
    6961     6486     6106     5879     5699     5676     5853     5950 
    5841     5840     6124     6397     6500     6578     6586     6400 
    6200     6160     6183     6201     6281     6394     6432     6358 
    6249     6196     6169     6131     6235     6524     6735     6716 
    6554     6274     5879     5562     5553     5756     5868     5884 
    5953     6019     6033     6107     6286     6455     6469     6386 
    6432     6577     6621     6632     6717     6675     6404     6096 
    5838     5609     5566     5806     6150     6374     6467     6566 
    6609     6477     6319     6205     5976     5706     5683     5913 
    6156     6362     6628     6841     6782     6498     6261     6129 
    5988     5875     5848     5803     5667     5629     5929     6367 
    6598     6673     6674     6482     6196     6057     6088     6139 
    6073     5953     5969     6073     6111     6158     6332     6577 
    6798     6940     6960     6883     6808     6758     6637     6399 
    6096     5829     5649     5516     5414     5468     5715     5935 
    6041     6288     6685     6859     6725     6480     6208     5957 
    5792     5767     5857     5965     6069     6247     6532     6809 
    6956     7002     6913     6650     6331     6014     5721     5509 
    5368     5471     5985     6574     6789     6628     6349     6174 
    6131     6054     5926     5890     5892     5787     5691     5859 
    6210     6397     6467     6635     6713     6627     6639     6764 
    6860     6806     6480     6038     5746     5584     5449     5332 
    5344     5574     5922     6377     6898     7101     6912     6674 
    6435     6122     5867     5756     5778     5930     6222     6551 
    6686     6573     6409     6322     6274     6254     6330     6475 
    6542     6438     6191     5908     5738     5807     6129     6488 
    6637     6551     6324     5994     5664     5587     5861     6249 
    6497     6575     6597     6605     6517     6336     6218     6259 
    6358     6339     6192     5996     5782     5676     5810     6041 
    6164     6199     6227     6264     6346     6467     6551     6621 
    6677     6531     6216     6007     5953     5945     5969     6054 
    6207     6320     6331     6324     6257     6111     5994     5856 
    5726     5779     5933     6070     6246     6393     6467     6570 
    6628     6513     6299     6100     6027     6120     6255     6312 
    6303     6301     6415     6613     6697     6658     6635     6577 
    6409     6237     6054     5818     5688     5787     6042     6370 
    6642     6733     6700     6589     6389     6224     6164     6081 
    5988     5994     5961     5771     5586     5576     5751     6010 
    6189     6251     6269     6230     6177     6280     6488     6592 
    6569     6466     6251     6031     6008     6177     6347     6408 
    6423     6462     6458     6345     6245     6262     6303     6264 
    6153     6062     6061     6039     5941     5867     5819     5798 
    5869     5977     6092     6305     6567     6683     6594     6427 
    6301     6230     6129     6021     6084     6274     6376     6421 
    6480     6459     6372     6361     6448     6467     6330     6189 
    6157     6188     6203     6060     5760     5655     5940     6361 
    6663     6795     6716     6405     6031     5879     5967     6037 
    5989     5919     5871     5930     6134     6228     6065     5914 
    5957     6062     6138     6238     6411     6610     6716     6606 
    6304     6087     6150     6312     6401     6496     6637     6718 
    6690     6683     6708     6543     6216     5937     5736     5668 
    5832     6133     6400     6531     6575     6578     6454     6253 
    6096     5880     5616     5505     5614     5948     6378     6565 
    6469     6331     6178     6029     6015     6108     6143     6072 
    6066     6269     6523     6602     6513     6388     6286     6189 
    6056     5899     5798     5788     5845     5969     6176     6377 
    6448     6496     6677     6745     6515     6297     6228     6111 
    6015     6038     6037     5989     5938     5899     6002     6242 
    6365     6299     6215     6199     6278     6482     6617     6496 
    6301     6254     6231     6089     5980     6080     6272     6382 
    6492     6702     6878     6855     6640     6385     6232     6130 
    5954     5806     5863     6029     6161     6357     6563     6517 
    6285     6057     5809     5629     5644     5713     5764     5960 
    6347     6724     6898     6867     6663     6293     5917     5790 
    5983     6272     6378     6289     6191     6177     6185     6135 
    6084     6061     5944     5796     5821     5995     6216     6438 
    6586     6644     6629     6534     6374     6219     6162     6197 
    6184     6115     6149     6288     6400     6459     6481     6408 
    6234     6058     5988     6029     6108     6200     6327     6440 
    6424     6269     6122     6018     5896     5863     5968     6064 
    6112     6191     6272     6289     6232     6138     6092     6174 
    6301     6358     6384     6416     6392     6328     6322     6378 
    6407     6363     6295     6238     6215     6255     6326     6392 
    6424     6367     6273     6218     6114     5925     5810     5857 
    6004     6164     6281     6327     6292     6208     6149     6157 
    6200     6228     6250     6261     6193     6038     5910     5918 
    6062     6265     6458     6585     6574     6409     6254     6245 
    6315     6388     6477     6575     6624     6524     6299     6119 
    6056     6091     6222     6316     6237     6041     5869     5806 
    5876     6037     6169     6227     6277     6315     6293     6228 
    6115     6016     6084     6241     6292     6227     6102     5968 
    5930     6003     6110     6210     6309     6415     6478     6444 
    6367     6315     6296     6342     6401     6373     6307     6280 
    6289     6330     6396     6453     6432     6320     6207     6151 
    6102     6007     5879     5815     5956     6228     6400     6400 
    6323     6281     6351     6494     6593     6620     6592     6435 
    6164     5981     5988     6015     5949     5922     6004     6039 
    6000     6025     6103     6180     6297     6404     6446     6448 
    6388     6313     6292     6242     6166     6103     5981     5887 
    5968     6137     6280     6380     6412     6393     6340     6259 
    6196     6126     6052     6096     6177     6135     6087     6174 
    6320     6439     6538     6570     6423     6149     5931     5840 
    5844     5942     6139     6399     6619     6700     6664     6569 
    6389     6137     5917     5760     5643     5674     5873     6087 
    6288     6490     6565     6500     6434     6377     6257     6143 
    6185     6345     6458     6470     6421     6357     6254     6093 
    5996     6004     6000     5981     6031     6164     6365     6512 
    6474     6340     6262     6250     6261     6257     6191     6064 
    5929     5849     5899     6077     6254     6331     6331     6291 
    6215     6103     5979     5944     6064     6261     6444     6573 
    6579     6443     6301     6284     6315     6284     6253     6305 
    6408     6484     6529     6565     6534     6434     6362     6336 
    6278     6139     5987     5950     5992     5961     5899     5927 
    6061     6276     6485     6566     6481     6326     6200     6075 
    5890     5733     5745     5931     6195     6454     6656     6725 
    6637     6474     6301     6112     5900     5680     5513     5481 
    5560     5714     5954     6207     6448     6728     6867     6675 
    6339     6095     5919     5836     5931     6106     6239     6380 
    6523     6644     6764     6824     6766     6592     6343     6165 
    6131     6181     6272     6342     6345     6303     6219     6077 
    5929     5853     5863     5903     5984     6177     6394     6442 
    6328     6224     6215     6274     6345     6354     6292     6224 
    6176     6131     6081     5998     5913     5908     5968     6085 
    6312     6544     6617     6598     6637     6689     6566     6272 
    6058     6008     5938     5818     5807     5960     6199     6393 
    6469     6474     6412     6253     6097     6068     6143     6201 
    6196     6214     6297     6377     6396     6357     6289     6261 
    6322     6390     6350     6238     6164     6108     6026     5991 
    6068     6214     6374     6513     6598     6578     6397     6137 
    5968     5946     6034     6161     6223     6165     5958     5641 
    5377     5320     5506     5867     6235     6497     6729     6980 
    7095     6978     6743     6520     6327     6135     5972     5950 
    6065     6224     6450     6718     6868     6820     6592     6232 
    5898     5705     5589     5493     5508     5722     6079     6409 
    6504     6312     6093     6070     6214     6454     6644     6600 
    6394     6235     6162     6130     6173     6304     6459     6574 
    6585     6501     6431     6412     6343     6197     6139     6173 
    6122     6057     6070     6006     5868     5811     5863     5945 
    6003     6060     6087     6053     6095     6257     6389     6474 
    6594     6704     6702     6578     6349     6050     5802     5687 
    5668     5715     5877     6143     6432     6674     6793     6762 
    6597     6295     5946     5718     5683     5823     6046     6309 
    6592     6750     6793     6867     6912     6848     6716     6486 
    6103     5655     5332     5248     5364     5628     5984     6264 
    6365     6413     6497     6525     6474     6436     6443     6438 
    6404     6351     6230     6023     5867     5841     5849     5852 
    5969     6208     6363     6357     6313     6276     6201     6151 
    6203     6316     6428     6462     6366     6265     6340     6561 
    6615     6232     5697     5514     5676     5927     6215     6508 
    6625     6450     6188     6165     6444     6740     6724     6380 
    5950     5692     5690     5933     6370     6733     6737     6465 
    6147     5948     5946     6085     6258     6430     6532     6435 
    6145     5914     6004     6412     6837     6925     6623     6246 
    6046     6097     6412     6752     6817     6585     6243     6021 
    5836     5539     5476     5842     6149     6053     5881     6011 
    6259     6347     6411     6528     6547     6443     6265     6041 
    5837     5694     5711     5964     6230     6311     6330     6291 
    6085     5806     5535     5331     5275     5346     5556     5900 
    6245     6457     6493     6474     6511     6536     6539     6581 
    6616     6681     6895     7145     7240     7179     7021     6785 
    6562     6432     6370     6278     6052     5749     5551     5509 
    5566     5663     5799     6050     6458     6891     7107     6993 
    6708     6455     6235     5989     5787     5692     5672     5652 
    5613     5606     5628     5620     5556     5476     5541     5872 
    6297     6575     6698     6698     6546     6323     6176     6201 
    6426     6763     7051     7171     7082     6814     6489     6208 
    6016     5945     5979     6081     6227     6320     6282     6157 
    6000     5814     5660     5616     5691     5875     6127     6389 
    6683     7020     7254     7226     6967     6659     6415     6246 
    6124     6042     6041     6068     6042     6060     6193     6346 
    6409     6382     6318     6218     6088     5991     5918     5890 
    6007     6215     6369     6465     6496     6382     6139     5876 
    5741     5827     6021     6143     6170     6150     6147     6161 
    6111     6031     6015     5984     5825     5611     5522     5664 
    5964     6210     6277     6207     6029     5807     5697     5782 
    5991     6219     6466     6789     7088     7226     7192     7068 
    6933     6771     6586     6540     6689     6855     6901     6851 
    6752     6666     6621     6574     6525     6498     6436     6284 
    6046     5764     5433     5061     4781     4687     4735     4882 
    5103     5341     5556     5768     5991     6169     6286     6340 
    6324     6299     6343     6498     6751     6986     7088     7117 
    7206     7331     7422     7514     7641     7716     7608     7334 
    7037     6743     6415     6097     5810     5543     5363     5313 
    5298     5209     5074     4953     4831     4703     4587     4502 
    4483     4579     4793     5089     5431     5782     6126     6426 
    6613     6728     6848     6963     7094     7319     7615     7863 
    7966     7931     7817     7634     7396     7186     7010     6771 
    6411     5979     5553     5178     4935     4934     5135     5375 
    5568     5718     5848     5983     6135     6293     6447     6609 
    6799     7029     7275     7511     7722     7863     7917     7906 
    7788     7545     7252     6941     6644     6420     6207     5913 
    5525     5044     4515     4037     3647     3311     3042     2882 
    2828     2906     3184     3642     4195     4799     5431     6060 
    6678     7296     7866     8306     8587     8726     8718     8573 
    8378     8201     8013     7784     7516     7246     7024     6775 
    6466     6237     6110     6006     5979     6092     6270     6439 
    6546     6547     6461     6351     6274     6176     5998     5788 
    5562     5298     5136     5215     5443     5659     5803     5837 
    5771     5686     5653     5717     5904     6174     6423     6550 
    6509     6330     6129     6019     6000     6045     6158     6289 
    6413     6608     6874     7079     7168     7195     7196     7177 
    7109     6909     6569     6184     5821     5482     5178     4938 
    4773     4718     4818     5090     5475     5859     6205     6523 
    6778     7010     7315     7658     7933     8091     8117     7950 
    7597     7207     6833     6394     5910     5458     5011     4583 
    4297     4191     4206     4334     4569     4846     5124     5398 
    5649     5840     5958     6050     6185     6390     6602     6764 
    6895     7036     7190     7334     7461     7589     7661     7612 
    7526     7511     7561     7605     7576     7406     7102     6736 
    6353     5979     5648     5366     5162     5073     5076     5147 
    5252     5313     5317     5287     5205     5043     4816     4598 
    4519     4639     4876     5138     5431     5788     6172     6527 
    6829     7057     7227     7407     7615     7754     7771     7715 
    7623     7507     7398     7311     7186     6943     6635     6359 
    6141     5976     5845     5745     5699     5691     5701     5726 
    5737     5703     5648     5605     5598     5644     5740     5863 
    5992     6100     6166     6216     6300     6393     6436     6444 
    6428     6365     6312     6324     6362     6384     6374     6320 
    6239     6162     6103     6079     6131     6266     6412     6490 
    6504     6481     6471     6539     6652     6732     6782     6836 
    6859     6833     6770     6685     6631     6616     6586     6546 
    6509     6416     6253     6076     5910     5742     5568     5394 
    5212     5008     4822     4693     4571     4421     4306     4278 
    4367     4614     5008     5513     6081     6632     7068     7339 
    7530     7736     7915     7990     7986     7951     7923     7913 
    7885     7808     7686     7518     7325     7136     6914     6636 
    6342     6029     5678     5337     5055     4818     4615     4459 
    4349     4305     4342     4442     4585     4777     5019     5323 
    5684     6072     6461     6837     7146     7325     7399     7433 
    7441     7420     7387     7373     7403     7443     7439     7335 
    7111     6802     6469     6164     5894     5655     5502     5466 
    5501     5541     5547     5524     5512     5537     5634     5807 
    6041     6308     6539     6690     6775     6797     6758     6679 
    6593     6512     6392     6197     5960     5726     5551     5454 
    5390     5297     5201     5185     5240     5300     5339     5394 
    5520     5729     6000     6320     6655     6945     7156     7298 
    7425     7577     7751     7915     7996     7947     7809     7600 
    7291     6929     6606     6318     5996     5633     5332     5171 
    5086     4997     4926     4914     5000     5162     5290     5335 
    5355     5406     5476     5521     5549     5614     5738     5891 
    6061     6274     6501     6682     6852     7064     7294     7479 
    7569     7557     7468     7326     7160     6988     6816     6639 
    6467     6326     6234     6169     6102     6049     6014     5958 
    5887     5814     5718     5620     5555     5532     5568     5663 
    5776     5868     5929     6000     6092     6184     6273     6361 
    6442     6517     6559     6558     6561     6597     6651     6694 
    6710     6702     6675     6612     6511     6430     6430     6454 
    6393     6215     5953     5671     5463     5387     5418     5510 
    5626     5698     5710     5721     5755     5796     5841     5890 
    5975     6079     6145     6174     6172     6103     6014     5973 
    6003     6110     6268     6420     6570     6741     6887     6961 
    7020     7140     7285     7372     7385     7349     7271     7159 
    6993     6767     6534     6338     6195     6102     6033     5965 
    5886     5756     5575     5454     5463     5556     5703     5875 
    5975     5956     5869     5791     5749     5703     5606     5516 
    5485     5478     5490     5564     5679     5813     5981     6173 
    6343     6458     6494     6488     6517     6617     6759     6882 
    6952     7017     7109     7179     7188     7138     7049     6929 
    6774     6617     6489     6381     6296     6232     6205     6212 
    6169     6043     5934     5876     5827     5768     5707     5643 
    5568     5525     5576     5678     5760     5872     6019     6149 
    6258     6340     6366     6362     6342     6304     6251     6192 
    6156     6161     6185     6180     6107     6030     6015     6035 
    6056     6075     6129     6224     6324     6450     6631     6786 
    6847     6855     6836     6771     6674     6565     6467     6381 
    6293     6201     6096     5971     5844     5733     5647     5574 
    5522     5539     5628     5745     5871     6007     6138     6272 
    6438     6629     6794     6899     6975     7049     7090     7078 
    7007     6855     6658     6493     6357     6214     6068     5911 
    5751     5618     5520     5458     5439     5452     5485     5529 
    5552     5551     5595     5717     5867     6043     6255     6451 
    6623     6775     6882     6939     6980     7015     7017     6961 
    6860     6737     6602     6469     6355     6247     6141     6037 
