Origin Time       2025/03/30 10:18:00
Lat.              34.667
Long.             140.825
Depth. (km)       69
Mag.              4.9
Station Code      CHB026
Station Lat.      35.3858
Station Long.     140.2404
Station Height(m) 46
Record Time       2025/03/30 10:19:03
Sampling Freq(Hz) 100Hz
Duration Time(s)  60
Dir.              N-S
Scale Factor      7845(gal)/8223790
Max. Acc. (gal)   1.817
Last Correction   2025/03/30 10:19:02
Memo.             
[...]
    4158     4218     3956     3983     4260     4220     3993     4051 
    4222     4118     3898     3909     4110     4194     4008     3912 
    4116     4144     4021     4095     4143     4156     4170     4083 
    4128     4077     3862     3950     4151     4104     3875     3944 
    4317     4166     3900     4222     4274     3912     3867     4099 
    4203     3921     3784     4182     4290     4002     4014     4218 
    4271     4117     4014     4197     4214     3973     3987     4128 
    4101     4023     3963     4055     4220     4145     3966     3952 
    4006     4018     4039     4089     4108     4087     4050     4009 
    4094     4209     4062     3967     4171     4159     3974     4051 
    4109     4077     4136     4105     4072     4149     4156     4126 
    4109     4039     3974     3956     3959     3997     4143     4244 
    4121     4083     4209     4151     4006     3969     3975     3981 
    3977     4101     4158     3908     3946     4236     4063     3977 
    4340     4376     4101     4014     4083     4064     3831     3796 
    4105     4109     3956     4144     4141     3959     4183     4321 
    4114     4054     4083     4060     4027     4039     4174     4124 
    3933     4004     4085     4063     4105     4132     4220     4164 
    3928     4058     4233     3996     3946     4081     3919     3904 
    4081     4059     4172     4297     4085     3985     4110     4139 
    4063     4036     4101     4033     3924     4074     4224     4222 
    4171     3982     3844     3963     4129     4108     4027     4143 
    4228     4133     4140     4129     4059     4148     4045     3796 
    3943     4140     4048     4098     4283     4167     3896     3962 
    4131     3960     3951     4218     4125     3962     4010     3974 
    4032     4176     4247     4270     4083     4031     4195     4008 
    3778     3919     4141     4176     3969     4009     4326     4210 
    4013     4167     4131     4032     4226     4290     4140     4074 
    3998     3906     3955     3898     3753     3966     4224     4125 
    4090     4202     4243     4101     3834     3928     4087     3925 
    4031     4129     3970     4086     4135     4149     4469     4410 
    4110     4247     4313     3967     3820     4000     3954     3758 
    3839     4008     4086     4198     4337     4379     4187     3906 
    3878     4025     4025     3915     3975     4176     4214     4104 
    4102     4180     4097     3917     3897     3983     3977     3905 
    3952     4067     4112     4148     4179     4230     4278     4163 
    4105     4222     4206     4110     4067     3962     3969     4086 
    4081     4077     4031     3993     4166     4072     3804     4029 
    4112     3716     3761     4163     4239     4122     4117     4263 
    4325     4209     4186     4272     4259     4079     3873     3873 
    4028     4081     4056     4160     4241     4064     3902     3912 
    3898     3936     4045     4067     4039     4045     4104     4097 
    4118     4301     4216     4012     4160     4155     3967     4078 
    4125     4095     4172     3998     3921     4201     4117     3835 
    4004     4041     3730     3829     4201     4187     4032     4224 
    4465     4278     4079     4201     4110     3966     4137     4044 
    3798     3909     4039     4082     4085     4052     4216     4191 
    3936     4097     4351     4249     4097     4012     3994     3986 
    3844     3742     3825     3993     4109     4221     4430     4475 
    4248     4099     4098     4039     3929     3890     3856     3777 
    3901     4190     4218     4099     4168     4229     4152     4151 
    4197     4058     3883     3929     3986     3975     4050     4004 
    3954     4155     4113     3937     4220     4384     4133     4108 
    4252     4202     4054     3994     4128     4187     4025     4012 
    3969     3780     3994     4132     3852     4031     4293     3966 
    3769     4043     4391     4355     4079     4202     4255     3959 
    3990     4051     3982     4140     4095     3823     3813     4052 
    4272     4268     4145     4029     3900     3910     3970     3989 
    4164     4263     4121     4120     4240     4109     4001     4199 
    4263     4137     4116     4050     4036     4131     4077     4050 
    4083     3974     3979     4075     3970     3966     4193     4131 
    3832     3981     4321     4149     3964     4162     4077     3794 
    3896     3997     3888     4037     4279     4191     4085     4190 
    4240     4155     4095     4133     4156     4052     3997     4125 
    4162     3977     3936     4094     3974     3765     3996     4217 
    4062     4018     4118     4014     3904     3964     4020     4118 
    4295     4384     4504     4548     4278     4035     3883     3688 
    3712     3900     3994     3919     3967     4332     4307     3990 
    4118     4104     3850     3975     4147     4193     4162     4032 
    4189     4341     4112     4027     4125     4070     4055     4075 
    3974     3917     3928     3940     4059     4168     4128     4114 
    4093     3955     3885     3956     4159     4255     4036     3986 
    4166     4199     4405     4487     4004     3874     4147     3983 
    3835     3975     4050     4143     4126     4035     4121     4062 
    3897     3916     3927     3985     4174     4288     4193     3994 
    4087     4233     3998     4029     4344     4099     3808     4068 
    4126     3858     4021     4278     4093     4028     4212     4253 
    4178     4056     4000     3963     3915     4156     4374     4205 
    4072     4095     4095     4058     3959     3947     3969     3946 
    4113     4186     3962     3904     4104     4314     4229     3863 
    3908     4228     4113     4052     4198     3994     3870     4059 
    4113     4063     4068     4118     4067     3933     4043     4210 
    4156     4089     3986     3813     3747     3823     4028     4201 
    4290     4459     4572     4477     4286     4102     3963     3896 
    3925     3865     3755     4010     4240     3960     3790     3963 
    3997     4041     4272     4336     4240     4170     4086     4112 
    4167     4106     4087     4093     4099     4093     3933     3900 
    4155     4290     4176     4072     4129     4213     4083     3882 
    3927     3998     3920     4036     4166     4023     3990     4025 
    3958     4008     4045     4070     4225     4162     3848     3724 
    3923     4151     4079     4040     4349     4423     4144     4163 
    4299     4156     4120     4124     3854     3755     3927     4104 
    4330     4332     4109     4048     3943     3817     3950     3966 
    3923     4159     4190     4114     4275     4078     3801     4040 
    4125     3935     4055     4261     4249     4194     4175     4128 
    3935     3773     3989     4176     4082     4217     4320     4083 
    4082     4180     4035     4020     4063     3971     3989     4116 
    4185     4098     3993     4009     3987     3967     3967     3877 
    3958     4145     4109     4118     4229     4086     4078     4405 
    4307     3877     3836     3896     3867     4039     4229     4363 
    4467     4419     4297     4116     3975     3904     3861     4051 
    4129     3966     4120     4232     4014     3950     3917     3878 
    4078     4224     4207     4135     3989     3897     3882     3929 
    3960     3917     4054     4206     4136     4239     4295     3973 
    4023     4301     3928     3677     4139     4282     3964     3951 
    3982     3759     3740     3912     4081     4375     4361     4024 
    4156     4392     4156     4040     4087     4133     4467     4536 
    4172     4187     4347     4055     3790     3910     3987     3865 
    3929     4176     4171     3929     3754     3708     3775     3898 
    4025     4151     4160     4085     4091     4118     4125     4195 
    4270     4248     4131     4128     4286     4244     4072     4058 
    3990     3910     4031     4160     4193     4155     4108     4122 
    3990     3761     3852     4077     4031     3964     4087     4239 
    4261     4108     4079     4164     3923     3743     3920     3915 
    3855     4063     4182     4131     4121     4129     4029     3924 
    4029     4124     4070     4089     4099     4136     4328     4376 
    4380     4448     4183     3904     3942     3866     3809     3973 
    3970     3960     4251     4453     4368     4293     4283     4190 
    4071     3933     3874     4090     4140     3859     3861     4005 
    3873     3861     4094     4213     4216     4209     4233     4233 
    4106     3998     3960     3886     3937     4043     3929     3855 
    3971     3967     3871     3843     3894     4094     4194     4059 
    4066     4179     4106     4043     4093     4156     4233     4190 
    4160     4340     4206     3748     3811     4191     4064     3808 
    4101     4459     4367     4233     4313     4329     4152     3890 
    3905     4168     4033     3824     4143     4324     4106     3967 
    3912     3983     4070     3912     3824     3831     3755     3885 
    4071     4077     4205     4324     4291     4329     4283     4221 
    4275     4205     4228     4347     4224     4148     4171     4033 
    3909     3844     3774     3792     3890     4033     4064     3990 
    3991     3900     3792     3944     3978     3882     4132     4255 
    4097     4320     4436     4170     4232     4290     4234     4463 
    4321     3866     3878     3959     3734     3673     3889     4020 
    4090     4259     4193     3902     4004     4302     4183     4047 
    4197     4125     3989     4136     4168     4124     4132     4078 
    4313     4442     4004     3852     3997     3786     3813     4232 
    4259     4079     4110     4000     3847     3969     4052     4064 
    4206     4297     4261     4216     4202     4166     4025     3964 
    3927     3672     3643     3935     3993     4037     4236     4206 
    4155     4243     4139     3985     4010     3979     3883     3952 
    4055     3975     3935     4135     4280     4241     4222     4283 
    4334     4222     4040     4062     4089     3935     3915     4075 
    4104     4043     4082     4136     4097     4047     4097     4172 
    4194     4159     4005     3928     4072     4131     4043     3971 
    3944     4013     4050     4098     4271     4251     4033     3958 
    3973     3875     3834     4074     4213     4102     4295     4461 
    4095     3916     4050     3937     3854     3943     3921     3827 
    3719     3765     3940     3900     4012     4437     4422     4159 
    4278     4409     4301     4178     4124     4098     3993     3928 
    4063     4160     4153     4232     4221     4004     3889     3885 
    3908     4106     4210     4106     4176     4252     4137     4122 
    4172     4172     4214     4180     3986     3832     3867     3969 
    4089     4255     4334     4356     4341     4174     3994     3917 
    3869     3836     3854     3823     3740     3919     4140     4048 
    4095     4186     3939     3848     3973     4063     4179     4128 
    4164     4378     4178     3928     4121     4224     4002     3882 
    4117     4295     4070     4014     4239     4086     3835     3925 
    4025     4079     4133     4137     4222     4216     4087     4121 
    4182     4163     4172     4101     3975     3925     3935     3974 
    3973     3970     4002     3964     3874     3898     4087     4159 
    4121     4270     4256     4082     4203     4276     4158     4035 
    3912     3950     3901     3842     4216     4436     4229     4186 
    4272     4149     3871     3877     4174     4172     4098     4369 
    4502     4306     4170     4137     4017     3902     3883     3856 
    3870     3971     4027     3908     3758     3848     3901     3720 
    3792     4048     4031     3919     3969     4109     4070     3970 
    4174     4176     3866     3932     3952     3759     4028     4252 
    4143     4320     4575     4626     4757     4970     5013     4828 
    4722     4711     4450     4256     4260     3951     3650     3553 
    3195     3038     3213     3090     3021     3287     3433     3412 
    3532     3921     4233     4313     4530     4770     4885     5078 
    5165     5135     5082     4783     4472     4376     4183     3920 
    3720     3478     3423     3658     3858     3940     4067     4129 
    3850     3546     3628     3672     3515     3592     3770     3763 
    3689     3738     3959     4044     3859     3855     4131     4257 
    4230     4426     4753     4866     4888     5051     5097     4835 
    4676     4703     4585     4514     4545     4425     4309     4125 
    3650     3160     2717     2286     2197     2386     2498     2629 
    2914     3167     3323     3627     4079     4401     4569     4704 
    4788     4704     4433     4288     4302     4249     4344     4625 
    4857     5076     5260     5310     5152     4842     4598     4364 
    4144     4097     4110     4187     4197     3902     3631     3485 
    3229     3084     3172     3323     3549     3740     3735     3662 
    3653     3663     3701     3883     4237     4526     4606     4685 
    4687     4352     4005     3871     3750     3840     4279     4719 
    4984     5016     4899     4878     4876     4828     4970     5256 
    5255     4895     4490     3962     3275     2718     2331     2170 
    2187     2255     2791     3638     3994     4112     4398     4332 
    4010     4047     4191     4257     4612     5032     5096     5115 
    5206     4941     4440     4114     3802     3341     3071     3161 
    3388     3680     4004     4224     4336     4264     3946     3618 
    3360     3088     3161     3655     3955     4028     4189     4222 
    4218     4356     4456     4630     4828     4891     5004     5058 
    5069     5161     4936     4446     4006     3516     3187     3140 
    3125     3322     3747     3816     3505     3416     3638     3801 
    3947     4252     4351     4010     3727     3828     4078     4405 
    4860     5185     5228     5076     4677     4102     3726     3696 
    3778     3937     4333     4727     4812     4734     4645     4419 
    3966     3557     3415     3213     2876     2840     2986     3042 
    3250     3697     4166     4445     4590     4726     4604     4449 
    4671     4622     4202     4261     4518     4388     4298     4409 
    4374     4286     4375     4414     4275     4133     3974     3739 
    3535     3539     3753     3834     3743     3794     3939     4009 
    4031     4139     4199     3963     3842     3838     3458     3257 
    3415     3484     3670     3839     3854     3942     3950     4005 
    4121     4032     3991     3948     3724     3757     4063     4406 
    4928     5363     5278     4999     4870     4517     3939     3828 
    4114     4212     4357     4692     4734     4509     4268     3851 
    3248     2755     2563     2609     2845     3420     4152     4631 
    4855     4833     4603     4444     4338     4282     4442     4595 
    4542     4425     4317     4185     4005     3846     3786     3775 
    3735     3604     3491     3605     3788     3956     4251     4419 
    4513     4687     4363     3685     3415     3296     3064     3122 
    3564     4239     4911     5287     5491     5513     5032     4398 
    4017     3719     3515     3466     3537     3709     3815     3996 
    4264     4326     4433     4560     4413     4379     4460     4441 
    4572     4552     4260     4187     4131     3964     4101     4249 
    4164     4194     4054     3524     3316     3511     3519     3557 
    3889     4062     3928     3780     3673     3476     3240     3096 
    3057     3169     3383     3485     3534     3634     3697     3850 
    4198     4495     4679     4888     5063     5201     5278     5098 
    4868     4947     5082     5008     4864     4576     4113     3793 
    3697     3645     3670     3967     4337     4330     4191     4303 
    4156     3677     3541     3573     3412     3327     3334     3354 
    3402     3387     3520     3851     4066     4311     4662     4696 
    4487     4318     4009     3667     3620     3739     4031     4602 
    5063     5243     5283     5142     4912     4664     4388     4295 
    4290     4098     3924     3960     4008     3936     3785     3628 
    3485     3376     3461     3650     3659     3588     3489     3249 
    3059     2991     2920     2944     3217     3635     3863     3977 
    4425     5004     5236     5298     5525     5698     5494     5212 
    5049     4656     4125     3827     3731     3708     3738     3924 
    4156     4106     3835     3649     3643     3655     3626     3763 
    3993     3924     3582     3460     3547     3393     3271     3456 
    3505     3608     4082     4436     4720     5143     5244     5175 
    5297     5235     4962     4881     4777     4309     3759     3397 
    3129     3025     3186     3353     3385     3446     3460     3376 
    3460     3611     3782     4187     4453     4492     4808     5044 
    4764     4476     4441     4317     4120     4261     4572     4577 
    4604     4876     4815     4428     4255     4172     3902     3713 
    3781     3808     3584     3304     3202     3107     2856     2824 
    3076     3096     2987     3337     3996     4287     4398     4847 
    5055     4950     5205     5239     4750     4417     4303     4348 
    4391     4311     4596     4761     4252     4041     4222     3977 
    3643     3693     3967     4193     4179     4133     4117     3836 
    3524     3550     3589     3493     3578     3763     3836     3888 
    3954     4047     4137     4171     4329     4568     4669     4796 
    4968     4997     4995     4864     4500     4217     3943     3515 
    3329     3419     3431     3419     3483     3516     3569     3686 
    3655     3576     3807     3989     3869     4094     4626     4675 
    4353     4283     4294     3927     3585     3703     3812     3771 
    3944     4207     4305     4288     4306     4337     4179     3973 
    3996     4047     3981     3985     4098     4189     4135     3963 
    3917     4014     4014     4063     4244     4268     4322     4356 
    3951     3716     3921     3831     3746     4174     4552     4675 
    4746     4618     4348     4093     3859     3882     4228     4490 
    4479     4487     4630     4590     4291     4039     3954     3909 
    3765     3603     3624     3703     3616     3570     3759     3909 
    3875     4047     4488     4612     4349     4232     4124     3715 
    3495     3627     3620     3670     3991     3991     3869     4083 
    4112     4010     4222     4507     4815     4918     4465     4159 
    4206     3840     3555     3939     4074     3906     4212     4394 
    3928     3566     3735     3929     3762     3748     4122     4048 
    3650     3797     4032     3815     3667     3969     4261     4248 
    4521     5031     5084     5055     5236     5096     4700     4518 
    4565     4519     4345     4394     4467     4176     3888     3854 
    3863     3655     3326     3372     3438     3064     2997     3246 
