Origin Time       2025/03/30 10:18:00
Lat.              34.667
Long.             140.825
Depth. (km)       69
Mag.              4.9
Station Code      CHB018
Station Lat.      35.1520
Station Long.     140.3204
Station Height(m) 38
Record Time       2025/03/30 10:18:48
Sampling Freq(Hz) 100Hz
Duration Time(s)  67
Dir.              U-D
Scale Factor      7845(gal)/8223790
Max. Acc. (gal)   1.886
Last Correction   2025/03/30 10:18:48
Memo.             
    7456     7460     7462     7458     7454     7452     7452     7457 
    7457     7460     7465     7460     7457     7456     7452     7457 
    7464     7460     7456     7458     7457     7453     7453     7458 
    7462     7461     7456     7449     7449     7460     7465     7460 
    7461     7465     7454     7445     7454     7462     7453     7453 
    7464     7461     7456     7458     7453     7450     7460     7461 
    7457     7460     7460     7458     7458     7452     7453     7458 
    7458     7462     7461     7453     7454     7458     7453     7452 
    7461     7465     7461     7457     7456     7457     7462     7457 
    7449     7462     7472     7457     7450     7460     7458     7454 
    7458     7462     7465     7464     7456     7453     7454     7450 
    7452     7457     7464     7466     7457     7450     7460     7460 
    7446     7447     7461     7466     7465     7462     7460     7452 
    7452     7462     7460     7452     7453     7457     7465     7470 
    7460     7449     7452     7454     7453     7458     7464     7462 
    7454     7456     7464     7461     7458     7461     7450     7446 
    7461     7461     7458     7465     7460     7450     7456     7461 
    7456     7447     7456     7466     7464     7460     7461     7454 
    7452     7458     7456     7453     7462     7465     7457     7454 
    7460     7457     7454     7462     7461     7450     7457     7466 
    7458     7456     7460     7453     7453     7460     7458     7456 
    7457     7460     7454     7454     7464     7458     7449     7457 
    7461     7458     7458     7461     7460     7457     7456     7457 
    7454     7457     7457     7456     7462     7466     7456     7453 
    7462     7458     7449     7457     7464     7460     7460     7461 
    7458     7456     7454     7460     7462     7457     7458     7461 
    7460     7456     7450     7449     7457     7461     7457     7454 
    7460     7464     7456     7454     7464     7461     7452     7450 
    7456     7462     7464     7458     7457     7462     7457     7450 
    7453     7460     7462     7458     7458     7466     7461     7449 
    7450     7456     7456     7462     7470     7464     7457     7453 
    7449     7454     7461     7457     7453     7460     7462     7458 
    7456     7461     7458     7450     7457     7469     7462     7456 
    7461     7458     7449     7453     7460     7462     7466     7465 
    7456     7454     7457     7454     7449     7454     7462     7462 
    7458     7458     7458     7454     7454     7460     7460     7458 
    7458     7453     7453     7465     7462     7453     7458     7458 
    7452     7457     7464     7460     7456     7456     7457     7460 
    7461     7460     7460     7457     7453     7452     7460     7464 
    7457     7453     7456     7458     7456     7456     7466     7468 
    7452     7449     7456     7453     7457     7465     7462     7456 
    7454     7457     7458     7460     7457     7453     7460     7466 
    7461     7458     7464     7462     7456     7454     7458     7460 
    7454     7457     7465     7458     7449     7450     7456     7464 
    7469     7460     7454     7461     7458     7449     7450     7458 
    7462     7458     7460     7465     7460     7450     7453     7464 
    7468     7462     7456     7456     7458     7460     7456     7456 
    7458     7457     7456     7464     7464     7456     7452     7454 
    7454     7454     7458     7462     7458     7457     7458     7457 
    7457     7460     7453     7452     7461     7462     7456     7456 
    7462     7460     7453     7454     7456     7454     7461     7462 
    7456     7458     7458     7452     7454     7464     7464     7456 
    7454     7458     7457     7453     7458     7461     7458     7458 
    7460     7458     7457     7458     7458     7461     7462     7454 
    7449     7457     7464     7464     7462     7464     7458     7449 
    7453     7460     7456     7456     7464     7464     7460     7458 
    7458     7457     7460     7458     7454     7456     7464     7462 
    7454     7457     7461     7453     7453     7466     7465     7457 
    7458     7458     7456     7458     7458     7456     7458     7460 
    7453     7456     7468     7462     7450     7456     7457     7446 
    7452     7466     7466     7456     7452     7453     7453     7456 
    7461     7460     7458     7464     7461     7450     7452     7457 
    7453     7453     7466     7469     7460     7456     7456     7449 
    7450     7456     7454     7461     7468     7462     7456     7460 
    7461     7450     7449     7461     7458     7453     7464     7465 
    7454     7453     7457     7457     7454     7454     7454     7453 
    7460     7469     7462     7453     7454     7454     7457     7466 
    7464     7454     7457     7464     7456     7446     7457     7465 
    7460     7458     7462     7457     7454     7456     7452     7454 
    7466     7466     7456     7456     7461     7457     7454     7458 
    7456     7452     7460     7462     7458     7460     7460     7456 
    7454     7461     7464     7454     7453     7465     7460     7452 
    7460     7464     7460     7460     7457     7452     7453     7460 
    7461     7458     7460     7462     7460     7461     7458     7453 
    7456     7457     7452     7457     7464     7461     7460     7462 
    7466     7464     7452     7449     7457     7457     7453     7458 
    7465     7464     7456     7452     7460     7469     7461     7447 
    7450     7457     7460     7462     7465     7462     7456     7450 
    7453     7460     7462     7458     7457     7460     7460     7456 
    7453     7453     7454     7453     7457     7466     7464     7454 
    7461     7464     7454     7453     7460     7464     7458     7454 
    7460     7458     7453     7458     7460     7456     7462     7464 
    7456     7456     7458     7453     7450     7456     7461     7460 
    7465     7473     7458     7447     7456     7452     7452     7464 
    7462     7454     7464     7464     7450     7450     7458     7457 
    7452     7457     7466     7464     7458     7464     7458     7450 
    7454     7456     7457     7462     7460     7453     7453     7460 
    7458     7456     7468     7465     7449     7450     7458     7456 
    7453     7460     7464     7464     7458     7458     7464     7458 
    7453     7454     7449     7453     7469     7464     7458     7462 
    7454     7450     7458     7461     7454     7454     7460     7457 
    7454     7458     7458     7457     7461     7460     7456     7461 
    7462     7454     7452     7456     7457     7458     7461     7468 
    7466     7454     7454     7460     7457     7460     7461     7456 
    7460     7461     7456     7460     7468     7458     7450     7457 
    7462     7456     7454     7466     7465     7457     7462     7464 
    7453     7449     7456     7462     7466     7462     7457     7453 
    7457     7458     7458     7464     7464     7454     7454     7461 
    7458     7454     7458     7461     7457     7458     7465     7464 
    7461     7464     7458     7449     7453     7458     7456     7457 
    7465     7461     7454     7456     7460     7458     7456     7458 
    7461     7460     7461     7460     7452     7456     7460     7454 
    7454     7460     7460     7458     7458     7462     7458     7446 
    7452     7461     7453     7454     7464     7461     7461     7462 
    7454     7452     7461     7460     7449     7453     7465     7462 
    7457     7462     7460     7450     7458     7464     7456     7456 
    7460     7456     7456     7458     7461     7464     7460     7458 
    7460     7457     7460     7458     7453     7460     7466     7460 
    7458     7461     7453     7450     7458     7465     7461     7454 
    7454     7456     7460     7464     7460     7453     7462     7465 
    7452     7453     7461     7453     7452     7466     7468     7458 
    7457     7458     7454     7454     7458     7454     7452     7462 
    7462     7454     7465     7470     7456     7453     7461     7457 
    7449     7449     7457     7460     7460     7464     7460     7457 
    7458     7456     7458     7464     7460     7452     7452     7464 
    7466     7456     7454     7462     7458     7453     7456     7460 
    7462     7461     7460     7458     7457     7456     7458     7460 
    7462     7458     7452     7461     7468     7460     7454     7462 
    7458     7450     7456     7461     7461     7458     7457     7460 
    7464     7458     7453     7458     7468     7460     7453     7458 
    7458     7450     7454     7466     7468     7458     7456     7462 
    7461     7456     7457     7461     7458     7458     7462     7454 
    7453     7460     7456     7457     7468     7462     7449     7453 
    7465     7460     7447     7452     7462     7462     7461     7460 
    7452     7447     7454     7457     7462     7473     7466     7450 
    7449     7456     7454     7460     7470     7462     7452     7453 
    7454     7456     7462     7462     7457     7454     7458     7457 
    7453     7457     7461     7453     7457     7473     7468     7447 
    7441     7443     7450     7460     7464     7461     7460     7461 
    7457     7453     7457     7449     7441     7454     7468     7466 
    7462     7464     7458     7449     7450     7458     7462     7461 
    7461     7457     7453     7457     7457     7457     7461     7462 
    7458     7460     7464     7462     7456     7456     7460     7457 
    7454     7464     7466     7456     7453     7456     7453     7452 
    7461     7468     7461     7456     7454     7454     7457     7464 
    7461     7457     7461     7460     7453     7457     7466     7465 
    7457     7458     7464     7460     7454     7456     7457     7458 
    7460     7457     7464     7473     7464     7449     7450     7456 
    7456     7458     7465     7465     7457     7456     7464     7457 
    7447     7456     7461     7462     7468     7458     7447     7458 
    7462     7453     7456     7465     7458     7453     7461     7465 
    7456     7450     7456     7462     7461     7456     7454     7460 
    7461     7457     7454     7457     7466     7466     7456     7456 
    7456     7445     7449     7465     7469     7465     7461     7454 
    7452     7456     7453     7454     7462     7462     7461     7461 
    7458     7453     7449     7454     7466     7464     7454     7460 
    7464     7460     7460     7460     7460     7461     7461     7460 
    7462     7464     7456     7452     7461     7464     7452     7450 
    7468     7469     7460     7460     7458     7453     7454     7460 
    7465     7465     7462     7460     7457     7461     7460     7447 
    7452     7468     7464     7456     7457     7454     7447     7453 
    7462     7460     7453     7456     7462     7461     7457     7456 
    7458     7461     7454     7449     7456     7464     7461     7458 
    7464     7468     7462     7454     7461     7466     7466     7469 
    7464     7461     7481     7510     7519     7491     7433     7404 
    7453     7533     7539     7446     7345     7331     7404     7469 
    7435     7325     7288     7387     7464     7433     7345     7260 
    7353     7704     7928     7700     7314     7117     7086     7249 
    7624     7798     7516     7321     7635     8027     8176     8337 
    8283     7454     6331     6019     6616     7345     7898     8318 
    8208     7466     6883     6813     6723     6578     6909     7550 
    7909     8000     8074     7994     7676     7396     7231     7020 
    6902     7160     7794     8451     8478     7743     7047     6901 
    6997     7281     7908     8233     7734     7168     7229     7379 
    7123     6851     6988     7344     7534     7562     7582     7512 
    7312     7175     7300     7634     7778     7489     7227     7503 
    8023     8210     8031     7693     7256     6956     7152     7570 
    7569     7254     7152     7221     7263     7393     7520     7433 
    7376     7539     7591     7458     7510     7686     7657     7546 
    7604     7743     7854     7890     7754     7515     7272     6889 
    6434     6331     6667     7133     7597     8051     8311     8268 
    8058     7812     7489     7114     6939     7074     7337     7614 
    7807     7734     7585     7627     7541     7187     7030     7132 
    7175     7287     7588     7821     7974     8100     7917     7547 
    7418     7237     6760     6642     7076     7358     7295     7300 
    7426     7433     7279     7209     7427     7658     7580     7416 
    7364     7284     7352     7816     8299     8368     7969     7141 
    6535     6997     8156     8995     9036     8175     6650     5482 
    5778     7292     8588     8681     7771     6710     6320     6762 
    7433     7774     7726     7433     7152     7173     7388     7434 
    7400     7578     7749     7622     7398     7299     7325     7479 
    7673     7653     7400     7225     7287     7496     7803     8004 
    7564     6612     6281     6934     7666     8005     8081     7754 
    7221     7150     7557     7801     7709     7485     7075     6793 
    7260     8124     8611     8785     8698     8005     7122     6743 
    6720     6870     7263     7476     7339     7284     7300     7426 
    7967     8272     7601     6561     6091     6313     6845     7491 
    8271     8877     8726     7807     6817     6424     6696     7214 
    7753     8413     8679     7842     6772     6644     6826     6763 
    7169     7997     8378     8259     7952     7354     6670     6508 
    6999     7716     8009     7470     6656     6497     7053     7707 
    7996     7757     7177     6862     7204     7790     8141     8337 
    8284     7800     7385     7399     7427     7364     7420     7392 
    7238     7329     7723     8112     8194     7711     6721     5972 
    6180     7099     8001     8507     8418     7705     6961     6832 
    7126     7277     7222     7245     7392     7501     7493     7335 
    7245     7659     8353     8577     8280     7915     7473     7036 
    7095     7484     7608     7581     7574     7136     6297     5917 
    6312     7028     7731     8037     7572     6930     7037     7813 
    8634     8932     8367     7470     6932     6586     6624     7572 
    8590     8783     8618     8170     7130     6334     6461     6974 
    7300     7271     6990     6928     7290     7835     8321     8399 
    7732     6660     6170     6732     7580     7973     8181     8244 
    7823     7365     7254     7156     7079     7240     7531     7875 
    8172     8270     8122     7627     6875     6407     6610     7241 
    7674     7496     7044     6987     7346     7758     8078     8014 
    7360     6643     6489     6739     6966     7327     7898     8152 
    8135     8256     7928     6936     6436     6714     6988     7512 
    8507     8845     8299     8016     7909     7192     6573     6914 
    7591     7936     8086     7974     7488     7160     7307     7438 
    7183     6789     6525     6412     6492     6777     7034     7306 
    8010     8784     8707     7859     7075     6903     7388     8039 
    8455     8629     8326     7584     7288     7782     8181     7790 
    6929     6292     6176     6486     7234     8021     7815     6698 
    6068     6338     6876     7596     8409     8540     7831     7157 
    7047     7272     7572     7893     8187     8379     8453     8262 
    7693     7095     6863     6995     7384     7786     7740     7294 
    7128     7416     7672     7719     7492     6777     6088     6268 
    7121     7790     7925     7635     7192     6966     7064     7326 
    7562     7672     7776     7898     7804     7569     7557     7651 
    7477     7134     7040     7423     8086     8518     8521     8202 
    7492     6498     5694     5589     6515     7997     8919     8888 
    8313     7576     7018     6863     7028     7261     7375     7481 
    7650     7672     7431     7010     6758     7038     7533     7755 
    7817     7970     8154     8116     7744     7352     7194     7033 
    6779     6858     7372     7757     7732     7624     7623     7659 
    7636     7402     7095     7087     7260     7321     7437     7607 
    7458     7145     7164     7519     7906     8100     8010     7819 
    7643     7284     6955     7171     7547     7406     7153     7314 
    7449     7269     7252     7576     7782     7700     7601     7468 
    7172     7003     7210     7555     7585     7260     7167     7511 
    7707     7639     7720     7854     7859     7855     7678     7196 
    6832     6939     7308     7726     8156     8306     7996     7682 
    7700     7626     7159     6683     6559     6739     7119     7616 
    8041     8144     7743     7113     6858     6983     7015     7082 
    7549     8012     7987     7807     7812     7820     7712     7412 
    6772     6191     6264     6971     7950     8703     8733     8082 
    7263     6799     6813     6993     7341     7924     8129     7641 
    7150     7179     7456     7592     7430     7091     6917     7003 
    7317     7852     8131     7857     7605     7574     7418     7314 
    7272     6890     6598     7011     7636     8005     8347     8419 
    7830     7242     7311     7468     7225     7155     7627     8137 
    8198     7785     7165     6782     6855     7148     7457     7786 
    7850     7333     6851     7202     7884     8029     7851     7585 
    6924     6324     6644     7543     8044     7908     7507     7203 
    7141     7176     7237     7549     7917     7900     7811     7963 
    7929     7627     7470     7506     7580     7587     7264     6678 
    6508     6994     7530     7825     7936     7549     6858     6778 
    7377     7816     7820     7670     7400     7025     6848     7061 
    7577     8158     8452     8228     7653     7087     6716     6531 
    6687     7277     7824     7906     7812     7854     7967     7994 
    7755     7191     6554     6280     6635     7388     8140     8677 
    8656     8025     7304     6679     6154     6313     7352     8361 
    8532     8059     7535     7142     6806     6744     7138     7580 
    7735     7816     7928     7933     7870     7844     7738     7287 
    6651     6448     6777     7198     7647     8185     8456     8162 
    7503     6895     6586     6615     6939     7465     7963     8214 
    8194     8025     7789     7373     6739     6401     6763     7337 
    7736     8109     8145     7647     7163     6902     6748     6912 
    7353     7690     7889     8004     7871     7695     7867     7981 
    7420     6694     6644     7125     7573     7927     8191     8004 
    7292     6700     6735     7173     7678     8174     8487     8475 
    8226     7786     7303     7045     6978     7025     7222     7387 
    7407     7414     7404     7296     7134     6971     6856     6917 
    7137     7271     7323     7493     7585     7437     7402     7622 
    7773     7722     7576     7462     7419     7360     7477     7982 
    8388     8139     7419     6718     6428     6683     7226     7834 
