Origin Time       2025/03/30 10:18:00
Lat.              34.667
Long.             140.825
Depth. (km)       69
Mag.              4.9
Station Code      CHB027
Station Lat.      35.1806
Station Long.     140.2655
Station Height(m) 98
Record Time       2025/03/30 10:18:57
Sampling Freq(Hz) 100Hz
Duration Time(s)  60
Dir.              U-D
Scale Factor      7845(gal)/8223790
Max. Acc. (gal)   1.653
Last Correction   2025/03/30 10:18:56
Memo.             
[...]
   16447    16451    16449    16448    16445    16449    16453    16448 
   16443    16448    16452    16451    16452    16449    16448    16449 
   16451    16448    16445    16448    16453    16455    16449    16444 
   16449    16452    16447    16447    16452    16452    16447    16449 
   16452    16449    16447    16449    16452    16449    16449    16453 
   16452    16447    16447    16451    16452    16449    16447    16451 
   16451    16448    16448    16447    16447    16451    16451    16447 
   16448    16449    16451    16449    16445    16447    16451    16449 
   16449    16448    16448    16449    16448    16448    16451    16451 
   16449    16451    16451    16448    16448    16449    16452    16452 
   16448    16449    16453    16449    16447    16449    16453    16451 
   16445    16448    16452    16448    16448    16451    16449    16449 
   16453    16449    16447    16451    16451    16451    16451    16449 
   16448    16449    16449    16448    16448    16451    16449    16447 
   16448    16449    16448    16449    16448    16447    16452    16453 
   16447    16447    16449    16452    16451    16449    16451    16449 
   16451    16449    16447    16448    16451    16451    16452    16449 
   16447    16451    16451    16449    16451    16449    16451    16452 
   16449    16449    16449    16449    16452    16449    16448    16451 
   16452    16449    16447    16448    16449    16449    16451    16452 
   16451    16448    16449    16452    16451    16449    16451    16451 
   16452    16449    16451    16453    16449    16448    16455    16459 
   16461    16465    16470    16468    16465    16461    16448    16434 
   16425    16403    16378    16366    16348    16332    16356    16375 
   16389    16526    16717    16692    16488    16430    16522    16538 
   16483    16380    16143    16002    16333    16854    16910    16537 
   16314    16403    16530    16511    16360    16167    16143    16417 
   16673    16586    16467    16605    16588    16293    16293    16609 
   16606    16266    16117    16252    16441    16660    16825    16733 
   16532    16573    16788    16784    16478    16166    16087    16336 
   16684    16487    15774    15623    16343    16864    16637    16382 
   16502    16501    16270    16322    16649    16692    16395    16116 
   16020    16339    17049    17329    16772    16141    16158    16556 
   16586    16137    15954    16352    16691    16649    16541    16410 
   16225    16336    16833    17107    16733    16178    15885    15755 
   15992    16729    17205    16811    16089    15962    16530    16978 
   16776    16421    16449    16564    16422    16258    16236    16254 
   16320    16503    16659    16594    16467    16542    16725    16671 
   16204    15840    16201    16745    16626    16241    16395    16827 
   16669    16075    16135    16914    17234    16663    16059    16028 
   16191    16152    16239    16808    17253    16779    15969    15849 
   16119    16287    16687    17065    16622    15753    15726    16592 
   17080    16706    16186    16078    16281    16375    16390    16595 
   16594    16314    16479    17062    17197    16578    15915    15978 
   16569    16860    16393    15712    15842    16640    16969    16622 
   16279    16320    16686    16969    16912    16891    16908    16386 
   15635    15473    15939    16691    17201    16968    16347    16104 
   16571    17242    17076    16073    15375    15534    16121    16652 
   16822    16374    15786    16043    16827    17012    16711    16598 
   16669    16625    16289    15940    15950    16133    16264    16428 
   16622    16637    16518    16565    16621    16502    16434    16417 
   16424    16505    16430    16270    16306    16511    16796    16960 
   16852    16661    16389    15977    15876    16386    16995    17074 
   16684    16316    16241    16413    16675    16731    16480    16399 
   16686    16683    16077    15560    15755    16453    17000    16858 
   16204    15979    16468    16872    16787    16621    16641    16613 
   16318    15990    16087    16555    16816    16683    16465    16394 
   16371    16227    16160    16387    16584    16432    16175    16015 
   15849    16083    16754    16798    16195    16240    16889    16856 
   16097    15707    16109    16930    17463    17236    16648    16206 
   15997    16055    16198    16164    16198    16603    16853    16488 
   16276    16715    17059    16881    16491    16174    16077    16177 
   16302    16227    16193    16760    17302    16865    16212    16283 
   16640    16749    16498    16082    16233    16818    16735    16031 
   15604    15830    16490    16937    16924    16754    16538    16401 
   16434    16486    16341    16046    16179    16717    16668    16213 
   16407    16819    16714    16654    16826    16609    16162    16094 
   16316    16313    15992    15832    16208    16715    16729    16420 
   16330    16468    16686    16945    16872    16325    15900    16100 
   16650    16808    16209    15658    16113    16930    16900    16336 
   16271    16707    16912    16737    16694    16816    16573    15943 
   15627    16036    16638    16846    16757    16603    16556    16758 
   16930    16812    16725    16825    16676    16143    15723    15701 
   16017    16498    16645    16463    16599    16679    16200    16069 
   16507    16626    16460    16271    15932    15759    15889    16183 
   16664    16985    16946    16927    16942    16582    16116    16229 
   16513    16221    15996    16367    16648    16545    16375    16285 
   16328    16387    16463    16708    16734    16275    16152    16853 
   17355    17000    16391    16024    16140    16600    16665    16417 
   16428    16417    16293    16402    16495    16486    16654    16595 
   16187    16154    16383    16251    16078    16235    16405    16537 
   16935    17181    16649    15998    16156    16787    17008    16578 
   16125    16148    16348    16533    16719    16613    16174    15971 
   16305    16617    16459    16240    16397    16684    16719    16511 
   16201    16025    16218    16505    16514    16336    16336    16681 
   16981    16834    16425    16079    16058    16387    16553    16283 
   16004    16124    16502    16688    16687    16699    16584    16437 
   16352    16197    16351    16756    16664    16380    16533    16676 
   16379    16102    16421    16889    16642    16063    16055    16497 
   16642    16271    16136    16704    17091    16610    15974    15940 
   16191    16397    16680    16729    16551    16671    16904    16958 
   16723    16194    16050    16366    16426    16325    16411    16540 
   16471    16317    16533    16781    16503    16337    16587    16590 
   16308    16158    16268    16413    16243    16005    16256    16857 
   17104    16699    16258    16376    16565    16278    16035    16291 
   16586    16513    16244    16133    16356    16829    17253    17042 
   16114    15441    15649    16302    16767    16675    16270    16262 
   16703    16992    16941    16746    16511    16340    16283    16248 
   16202    16237    16410    16551    16509    16456    16428    16340 
   16308    16351    16509    16745    16700    16456    16422    16463 
   16432    16568    16804    16741    16374    16179    16314    16470 
   16486    16541    16818    17018    16742    16267    16104    16135 
   16070    16159    16534    16829    16735    16290    16227    16873 
   16972    16158    15921    16540    16826    16451    16013    15946 
   16166    16321    16313    16364    16510    16551    16517    16432 
   16201    16158    16518    16854    16911    16800    16580    16295 
   16050    15996    16167    16513    16853    16715    16347    16513 
   16675    16190    15792    15962    16448    16907    16937    16622 
   16285    16125    16430    16825    16641    16340    16649    17080 
   16785    16065    15907    16491    16926    16641    16281    16336 
   16398    16248    16113    16141    16285    16487    16726    16834 
   16707    16580    16688    16852    16646    16301    16482    16791 
   16425    15801    15653    15893    16201    16380    16332    16298 
   16530    16794    16731    16357    16220    16619    16875    16672 
   16519    16394    16202    16299    16542    16541    16363    16328 
   16486    16528    16460    16664    16933    16686    16225    16232 
   16399    16175    15905    16090    16551    16945    17096    16837 
   16348    16120    16357    16700    16600    16256    16303    16571 
   16556    16341    16239    16482    16875    16806    16429    16390 
   16461    16324    16228    16248    16336    16507    16690    16722 
   16476    16146    16019    16170    16414    16309    16002    16210 
   16761    16900    16595    16290    16201    16235    16264    16348 
   16503    16501    16298    16324    16740    16980    16796    16775 
   16930    16460    15701    15797    16430    16583    16308    16154 
   16267    16441    16482    16357    16231    16343    16578    16742 
   16792    16526    16316    16665    16826    16305    16001    16266 
   16513    16626    16758    16834    16842    16702    16519    16683 
   16868    16530    16085    15979    16011    16059    16283    16688 
   16881    16641    16449    16557    16549    16297    16008    15830 
   15966    16367    16683    16740    16752    16873    16843    16609 
   16352    16078    16000    16335    16904    17294    17019    16375 
   16282    16580    16430    15939    15784    16155    16618    16664 
   16297    16108    16459    16742    16484    16213    16209    16187 
   16201    16366    16560    16722    16812    16835    16807    16650 
   16390    16129    15947    16085    16618    17031    16924    16536 
   16299    16366    16380    16146    16067    16264    16518    16746 
   16788    16735    16753    16578    16295    16322    16561    16546 
   16089    15836    16383    16947    16800    16526    16588    16690 
   16607    16328    15959    15776    16004    16502    16737    16517 
   16410    16687    16825    16553    16259    16302    16416    16247 
   16209    16499    16568    16505    16684    16748    16528    16367 
   16411    16407    16096    15916    16348    16850    16849    16546 
   16399    16472    16313    16002    16092    16240    16027    16009 
   16434    16722    16756    16868    16883    16667    16522    16471 
   16340    16202    16243    16425    16551    16671    16827    16762 
   16483    16394    16615    16681    16347    16059    16135    16374 
   16591    16773    16892    16821    16559    16344    16349    16470 
   16546    16571    16417    15975    15790    16393    17127    17012 
   16279    15925    16189    16424    16294    16120    16140    16289 
   16456    16464    16294    16305    16696    17047    16812    16243 
   16146    16563    16804    16659    16421    16233    16217    16457 
   16595    16424    16306    16405    16416    16237    16177    16379 
   16537    16343    16071    16229    16626    16765    16717    16640 
   16470    16294    16197    16167    16287    16580    16937    17220 
   17255    16926    16490    16433    16683    16663    16360    16117 
   16001    16209    16653    16785    16622    16548    16599    16637 
   16507    16286    16281    16356    16114    15769    15709    15840 
   16093    16599    17089    17020    16498    16229    16287    16216 
   16079    16090    16220    16460    16707    16875    16849    16633 
   16632    16668    16187    15758    16008    16309    16102    15917 
   16291    16654    16429    16282    16787    17340    17307    16800 
   16355    16251    16258    16281    16370    16429    16582    16864 
   16997    16943    16883    16838    16600    16143    15819    15739 
   15916    16509    16977    16780    16480    16571    16785    16856 
   16645    16241    16082    16241    16324    16231    16123    16151 
   16324    16240    16016    16328    16865    16908    16526    16167 
   16117    16136    15981    15903    16048    16390    16895    17282 
   17188    16661    16294    16390    16613    16756    16772    16587 
   16483    16646    16891    17136    17143    16611    15920    15672 
   15785    15969    16163    16182    16105    16243    16401    16467 
   16507    16367    16249    16399    16592    16629    16430    16112 
   16027    16114    16062    16086    16390    16657    16706    16600 
   16522    16637    16532    16038    16005    16696    17181    16947 
   16425    16148    16214    16510    16910    17107    17015    17023 
   17205    17255    17169    17078    16964    16767    16384    16032 
   16225    16731    16866    16702    16542    16258    15838    15539 
   15619    16004    16193    16015    15812    15773    15894    16005 
   15892    15741    15766    15871    16028    16185    16251    16436 
   16767    16980    17020    16904    16746    16835    17055    17057 
   16843    16602    16475    16509    16673    17015    17363    17281 
   16852    16605    16650    16761    16752    16502    16059    15688 
   15630    15813    16055    16386    16784    16891    16528    16116 
   16047    16160    16156    16102    16291    16654    16849    16848 
   16772    16532    16177    16006    15979    15835    15715    15795 
   15997    16209    16201    15992    16004    16249    16308    16082 
   15780    15596    15736    16254    16841    17177    17261    17282 
   17454    17725    17717    17502    17698    18183    18090    17373 
   16771    16560    16587    16722    16781    16648    16522    16699 
   16938    16691    16082    15678    15647    15699    15471    15052 
   14859    15174    15930    16472    16336    15962    15790    15784 
   15869    16032    16167    16046    15792    15939    16494    16868 
   16834    16683    16607    16632    16858    17082    16937    16626 
   16599    16829    16927    16789    16808    17086    17091    16576 
   16059    16081    16464    16519    16029    15641    15917    16532 
   16760    16422    16059    16224    16744    16938    16548    16083 
   16070    16374    16619    16760    16961    17269    17452    17397 
   17289    17097    16779    16622    16591    16204    15533    15379 
   15811    16048    15970    15939    16086    16414    16594    16417 
   16198    16062    15992    16102    16274    16386    16578    16787 
   16857    16865    16798    16644    16614    16669    16659    16711 
   16893    16949    16719    16398    16229    16302    16541    16740 
   16789    16753    16702    16568    16245    15921    15865    15954 
   15898    15726    15681    15803    15985    16210    16484    16789 
   16942    16748    16478    16329    16059    15799    15981    16445 
   16641    16443    16256    16383    16611    16621    16538    16536 
   16452    16376    16506    16644    16657    16659    16695    16831 
   17096    17251    17093    16775    16567    16565    16633    16579 
   16418    16384    16565    16653    16524    16465    16394    16042 
   15678    15592    15765    16097    16290    16256    16320    16546 
   16706    16733    16710    16627    16452    16429    16706    16869 
   16694    16532    16505    16506    16540    16501    16449    16618 
   16887    17073    17115    16881    16476    16209    16058    15823 
   15662    15795    15917    15812    15894    16281    16475    16422 
   16445    16474    16355    16128    15934    16048    16325    16254 
   15950    15943    16287    16691    16958    17031    16937    16734 
   16514    16476    16641    16653    16391    16174    16177    16332 
   16491    16534    16625    16879    17037    17066    17113    17058 
   16919    16833    16727    16553    16371    16356    16557    16632 
   16432    16267    16254    16285    16395    16457    16275    16240 
   16731    17213    17130    16768    16524    16371    16117    15768 
   15642    15780    15801    15759    15932    16233    16517    16613 
   16468    16449    16637    16497    15944    15704    16067    16490 
   16659    16780    16912    16914    16842    16731    16434    16136 
   16121    16243    16380    16588    16757    16771    16621    16507 
   16603    16718    16654    16378    16033    16046    16414    16594 
   16557    16680    16800    16731    16788    17012    17047    16760 
   16339    16040    15944    15988    16123    16243    16262    16318 
   16534    16754    16767    16556    16297    16163    16071    15908 
   15724    15587    15793    16557    17301    17413    17135    16881 
   16646    16426    16310    16224    16121    16062    16070    16113 
   16197    16409    16645    16683    16569    16482    16461    16537 
   16681    16749    16744    16775    16789    16683    16461    16190 
   16056    16254    16610    16744    16553    16299    16271    16425 
   16482    16363    16248    16335    16650    16985    17070    16838 
   16428    16179    16322    16447    16123    15812    16006    16272 
   16150    15981    16139    16403    16479    16394    16330    16324 
   16204    16044    16160    16422    16487    16440    16414    16317 
   16266    16486    16780    16869    16841    16785    16746    16876 
   17085    17105    16895    16606    16420    16425    16611    16857 
   16900    16623    16303    16239    16322    16378    16471    16575 
   16525    16383    16375    16502    16472    16232    16201    16540 
   16664    16216    15765    15807    16089    16312    16480    16609 
   16677    16679    16561    16422    16414    16436    16386    16378 
   16455    16536    16525    16421    16375    16498    16606    16506 
   16436    16522    16445    16268    16275    16321    16310    16239 
   16054    16051    16321    16448    16363    16370    16551    16742 
   16794    16695    16524    16378    16370    16494    16605    16625 
   16623    16599    16492    16399    16394    16393    16406    16465 
   16490    16524    16540    16420    16378    16540    16659    16668 
   16607    16395    16197    16201    16291    16363    16430    16487 
   16519    16505    16488    16511    16478    16336    16228    16290 
   16382    16335    16310    16463    16617    16644    16617    16569 
   16498    16437    16355    16214    16133    16281    16602    16812 
   16818    16789    16785    16737    16609    16424    16291    16285 
   16340    16411    16505    16503    16293    16027    15944    16028 
   16092    16104    16144    16272    16521    16784    16904    16810 
   16592    16534    16663    16675    16569    16521    16517    16545 
   16587    16576    16541    16526    16536    16582    16564    16391 
   16190    16113    16124    16194    16262    16164    16070    16336 
   16818    17016    16845    16659    16602    16530    16429    16366 
   16372    16453    16422    16190    16071    16283    16510    16487 
   16394    16383    16434    16511    16598    16694    16619    16349 
   16229    16324    16356    16245    16141    16167    16287    16420 
   16533    16534    16514    16684    16895    16950    16879    16641 
   16384    16378    16390    16151    15971    16158    16495    16553 
   16310    16247    16455    16517    16491    16638    16725    16541 
   16310    16306    16479    16517    16333    16216    16271    16330 
