Origin Time       2025/03/30 10:18:00
Lat.              34.667
Long.             140.825
Depth. (km)       69
Mag.              4.9
Station Code      CHB022
Station Lat.      35.3033
Station Long.     139.8555
Station Height(m) 12
Record Time       2025/03/30 10:19:06
Sampling Freq(Hz) 100Hz
Duration Time(s)  60
Dir.              N-S
Scale Factor      7845(gal)/8223790
Max. Acc. (gal)   3.356
Last Correction   2025/03/30 10:19:05
Memo.             
[...]
  -12672   -12587   -12441   -12274   -12190   -12186   -12197   -12216 
  -12226   -12285   -12513   -12827   -12977   -12901   -12733   -12602 
  -12556   -12592   -12690   -12783   -12773   -12645   -12511   -12494 
  -12556   -12568   -12529   -12550   -12604   -12586   -12541   -12576 
  -12657   -12685   -12637   -12544   -12461   -12494   -12623   -12654 
  -12607   -12700   -12862   -12870   -12695   -12415   -12162   -12077 
  -12147   -12255   -12330   -12399   -12545   -12784   -13032   -13209 
  -13267   -13201   -13031   -12780   -12532   -12398   -12383   -12402 
  -12361   -12225   -12128   -12195   -12302   -12312   -12309   -12387 
  -12525   -12679   -12838   -12978   -13053   -13003   -12804   -12565 
  -12456   -12484   -12559   -12626   -12636   -12573   -12471   -12379 
  -12339   -12367   -12507   -12729   -12852   -12784   -12667   -12658 
  -12772   -12895   -12852   -12529   -12140   -12047   -12217   -12357 
  -12428   -12555   -12742   -12850   -12741   -12534   -12501   -12602 
  -12602   -12532   -12567   -12711   -12839   -12772   -12475   -12270 
  -12406   -12719   -12938   -12987   -12968   -12928   -12789   -12556 
  -12341   -12218   -12204   -12220   -12197   -12248   -12491   -12772 
  -12881   -12849   -12792   -12773   -12772   -12702   -12590   -12559 
  -12545   -12464   -12410   -12398   -12376   -12395   -12445   -12451 
  -12499   -12696   -12923   -13015   -12976   -12884   -12757   -12561 
  -12287   -11985   -11778   -11839   -12174   -12499   -12614   -12668 
  -12795   -12916   -12976   -12968   -12885   -12792   -12744   -12721 
  -12703   -12695   -12681   -12653   -12634   -12623   -12560   -12441 
  -12401   -12487   -12545   -12483   -12380   -12322   -12313   -12334 
  -12386   -12513   -12733   -12899   -12874   -12727   -12587   -12533 
  -12584   -12622   -12523   -12359   -12294   -12357   -12448   -12555 
  -12752   -12950   -12964   -12829   -12721   -12694   -12704   -12733 
  -12772   -12793   -12745   -12648   -12573   -12519   -12449   -12363 
  -12276   -12212   -12198   -12260   -12374   -12448   -12455   -12463 
  -12496   -12580   -12729   -12895   -13032   -13065   -12955   -12830 
  -12761   -12668   -12521   -12371   -12278   -12272   -12309   -12340 
  -12425   -12591   -12754   -12830   -12788   -12657   -12564   -12591 
  -12677   -12696   -12583   -12445   -12463   -12637   -12771   -12727 
  -12613   -12546   -12456   -12295   -12208   -12275   -12394   -12498 
  -12588   -12641   -12654   -12673   -12698   -12706   -12731   -12804 
  -12843   -12779   -12696   -12710   -12798   -12839   -12738   -12529 
  -12340   -12249   -12243   -12282   -12372   -12468   -12461   -12388 
  -12394   -12510   -12702   -12922   -13065   -13054   -12931   -12758 
  -12548   -12334   -12162   -12067   -12101   -12252   -12425   -12564 
  -12694   -12858   -13035   -13108   -13020   -12847   -12696   -12631 
  -12626   -12623   -12618   -12572   -12447   -12321   -12290   -12341 
  -12388   -12402   -12421   -12469   -12540   -12572   -12536   -12534 
  -12648   -12791   -12837   -12771   -12700   -12695   -12688   -12617 
  -12499   -12403   -12361   -12344   -12357   -12464   -12617   -12698 
  -12673   -12591   -12530   -12556   -12625   -12633   -12600   -12648 
  -12764   -12839   -12864   -12879   -12869   -12795   -12622   -12425 
  -12391   -12533   -12634   -12580   -12442   -12299   -12198   -12198 
  -12248   -12278   -12366   -12513   -12572   -12553   -12599   -12733 
  -12872   -12941   -12928   -12920   -12961   -12982   -12938   -12800 
  -12546   -12260   -12098   -12094   -12156   -12256   -12409   -12553 
  -12610   -12636   -12712   -12784   -12766   -12667   -12544   -12467 
  -12447   -12437   -12410   -12429   -12592   -12826   -12962   -12980 
  -12970   -12941   -12827   -12618   -12364   -12145   -12036   -12060 
  -12156   -12279   -12488   -12756   -12946   -13020   -13047   -13034 
  -12958   -12866   -12783   -12640   -12441   -12266   -12152   -12109 
  -12144   -12221   -12310   -12432   -12555   -12615   -12626   -12634 
  -12681   -12780   -12889   -12976   -13047   -13089   -13062   -12946 
  -12762   -12550   -12329   -12117   -11958   -11867   -11836   -11913 
  -12164   -12478   -12648   -12710   -12850   -13046   -13144   -13147 
  -13142   -13100   -12939   -12646   -12339   -12191   -12248   -12357 
  -12383   -12382   -12448   -12534   -12556   -12532   -12536   -12571 
  -12613   -12671   -12706   -12661   -12596   -12622   -12730   -12784 
  -12719   -12609   -12556   -12561   -12540   -12486   -12464   -12491 
  -12519   -12501   -12482   -12565   -12688   -12667   -12517   -12418 
  -12447   -12533   -12596   -12640   -12660   -12650   -12637   -12633 
  -12630   -12626   -12603   -12560   -12523   -12510   -12536   -12583 
  -12559   -12428   -12328   -12391   -12575   -12749   -12837   -12843 
  -12814   -12771   -12692   -12571   -12492   -12540   -12577   -12480 
  -12394   -12438   -12507   -12514   -12505   -12536   -12600   -12644 
  -12658   -12708   -12804   -12837   -12730   -12571   -12506   -12549 
  -12577   -12530   -12529   -12649   -12738   -12680   -12541   -12436 
  -12442   -12495   -12474   -12437   -12495   -12613   -12700   -12738 
  -12737   -12717   -12707   -12714   -12730   -12760   -12754   -12663 
  -12534   -12471   -12465   -12422   -12324   -12264   -12280   -12307 
  -12313   -12352   -12474   -12611   -12676   -12714   -12823   -13005 
  -13173   -13234   -13139   -12912   -12642   -12410   -12222   -12087 
  -12048   -12058   -12096   -12247   -12464   -12619   -12741   -12869 
  -12912   -12857   -12799   -12746   -12661   -12572   -12495   -12432 
  -12410   -12436   -12463   -12495   -12583   -12677   -12677   -12602 
  -12533   -12526   -12594   -12680   -12706   -12679   -12653   -12619 
  -12550   -12490   -12505   -12600   -12726   -12793   -12766   -12706 
  -12681   -12685   -12625   -12432   -12181   -12046   -12136   -12384 
  -12625   -12741   -12761   -12776   -12796   -12757   -12668   -12615 
  -12623   -12648   -12664   -12676   -12668   -12650   -12676   -12687 
  -12564   -12391   -12348   -12425   -12555   -12707   -12785   -12746 
  -12640   -12475   -12309   -12264   -12353   -12480   -12577   -12613 
  -12587   -12545   -12541   -12563   -12579   -12622   -12710   -12744 
  -12679   -12602   -12545   -12469   -12401   -12421   -12518   -12610 
  -12687   -12758   -12773   -12727   -12673   -12600   -12523   -12511 
  -12567   -12629   -12664   -12688   -12726   -12764   -12776   -12771 
  -12722   -12619   -12506   -12374   -12228   -12148   -12159   -12198 
  -12268   -12424   -12619   -12753   -12781   -12777   -12838   -12928 
  -12957   -12883   -12741   -12618   -12518   -12348   -12164   -12151 
  -12309   -12471   -12576   -12675   -12761   -12825   -12860   -12823 
  -12741   -12653   -12560   -12506   -12499   -12501   -12507   -12486 
  -12420   -12329   -12243   -12255   -12413   -12634   -12820   -12937 
  -12999   -13003   -12935   -12822   -12664   -12502   -12417   -12345 
  -12235   -12174   -12210   -12313   -12407   -12469   -12579   -12756 
  -12924   -13036   -13053   -12973   -12873   -12795   -12691   -12537 
  -12426   -12411   -12424   -12434   -12468   -12517   -12577   -12645 
  -12695   -12715   -12718   -12721   -12688   -12592   -12492   -12433 
  -12402   -12413   -12436   -12384   -12309   -12329   -12405   -12442 
  -12438   -12410   -12399   -12442   -12522   -12630   -12761   -12883 
  -12927   -12852   -12753   -12745   -12766   -12719   -12623   -12541 
  -12482   -12438   -12436   -12483   -12525   -12525   -12495   -12434 
  -12337   -12258   -12243   -12329   -12529   -12731   -12850   -12939 
  -13022   -13049   -13011   -12941   -12864   -12757   -12609   -12486 
  -12410   -12363   -12324   -12285   -12290   -12349   -12428   -12538 
  -12698   -12846   -12899   -12846   -12722   -12550   -12405   -12360 
  -12402   -12511   -12690   -12877   -12962   -12891   -12696   -12478 
  -12348   -12332   -12332   -12298   -12295   -12379   -12522   -12669 
  -12781   -12829   -12804   -12775   -12769   -12775   -12777   -12737 
  -12658   -12582   -12483   -12345   -12232   -12239   -12364   -12488 
  -12573   -12679   -12737   -12663   -12502   -12391   -12442   -12584 
  -12622   -12555   -12542   -12638   -12807   -13005   -13115   -13058 
  -12854   -12506   -12120   -11911   -11971   -12166   -12276   -12247 
  -12202   -12255   -12414   -12580   -12661   -12733   -12893   -13073 
  -13174   -13224   -13288   -13338   -13282   -13069   -12710   -12332 
  -12129   -12112   -12129   -12109   -12082   -12078   -12075   -12078 
  -12155   -12334   -12533   -12641   -12667   -12717   -12881   -13100 
  -13236   -13308   -13367   -13315   -13081   -12750   -12436   -12225 
  -12106   -12004   -11958   -12052   -12214   -12302   -12326   -12415 
  -12609   -12773   -12811   -12807   -12856   -12911   -12903   -12826 
  -12702   -12599   -12561   -12525   -12480   -12540   -12691   -12789 
  -12810   -12772   -12657   -12519   -12406   -12301   -12205   -12150 
  -12156   -12225   -12314   -12387   -12451   -12513   -12560   -12596 
  -12652   -12722   -12753   -12741   -12764   -12881   -13046   -13143 
  -13104   -12957   -12788   -12656   -12565   -12502   -12459   -12417 
  -12380   -12409   -12505   -12571   -12556   -12503   -12429   -12343 
  -12298   -12317   -12368   -12402   -12405   -12445   -12569   -12692 
  -12710   -12673   -12714   -12816   -12887   -12926   -12969   -13015 
  -13028   -12958   -12823   -12694   -12572   -12420   -12256   -12124 
  -12024   -11951   -11901   -11874   -11862   -11900   -12032   -12239 
  -12507   -12830   -13150   -13427   -13630   -13703   -13629   -13446 
  -13184   -12820   -12418   -12143   -12009   -11925   -11873   -11853 
  -11851   -11889   -12005   -12191   -12399   -12590   -12729   -12814 
  -12914   -13065   -13205   -13263   -13234   -13167   -13058   -12943 
  -12883   -12798   -12681   -12580   -12420   -12212   -12067   -12066 
  -12212   -12352   -12379   -12343   -12329   -12411   -12588   -12816 
  -13034   -13136   -13108   -12991   -12826   -12665   -12451   -12178 
  -12019   -12050   -12236   -12515   -12729   -12737   -12576   -12375 
  -12220   -12129   -12087   -12032   -11867   -11643   -11537   -11631 
  -11911   -12340   -12891   -13512   -14081   -14509   -14779   -14902 
  -14868   -14623   -14139   -13498   -12788   -12067   -11398   -10866 
  -10513   -10358   -10444   -10773   -11288   -11900   -12483   -12981 
  -13402   -13726   -13909   -13857   -13536   -13008   -12372   -11804 
  -11457   -11411   -11715   -12248   -12784   -13204   -13462   -13540 
  -13397   -13008   -12505   -12082   -11828   -11742   -11786   -11935 
  -12194   -12555   -12899   -13116   -13263   -13402   -13485   -13464 
  -13316   -13045   -12681   -12259   -11869   -11658   -11704   -11975 
  -12359   -12749   -13081   -13306   -13392   -13315   -13061   -12704 
  -12383   -12140   -11967   -11842   -11723   -11645   -11707   -11924 
  -12204   -12484   -12816   -13193   -13539   -13828   -14002   -13983 
  -13780   -13458   -13061   -12614   -12193   -11900   -11686   -11469 
  -11304   -11259   -11352   -11566   -11811   -11985   -12106   -12239 
  -12384   -12569   -12827   -13115   -13425   -13802   -14164   -14369 
  -14328   -13988   -13435   -12835   -12291   -11857   -11564   -11435 
  -11499   -11745   -12091   -12424   -12657   -12756   -12706   -12538 
  -12330   -12204   -12276   -12465   -12613   -12722   -12856   -13011 
  -13150   -13194   -13088   -12846   -12582   -12418   -12340   -12280 
  -12241   -12231   -12239   -12290   -12440   -12712   -13080   -13435 
  -13551   -13305   -12819   -12285   -11859   -11657   -11657   -11745 
  -11840   -11939   -12094   -12359   -12726   -13093   -13308   -13306 
  -13140   -12877   -12537   -12201   -12006   -11962   -11963   -11978 
  -12054   -12268   -12690   -13301   -14017   -14659   -14964   -14779 
  -14207   -13441   -12621   -11858   -11246   -10864   -10743   -10831 
  -11103   -11535   -11985   -12301   -12414   -12334   -12191   -12150 
  -12309   -12725   -13412   -14218   -14847   -15068   -14801   -14154 
  -13301   -12355   -11506   -10925   -10558   -10281   -10118   -10206 
  -10625   -11342   -12260   -13138   -13702   -13954   -14068   -14098 
  -14017   -13832   -13522   -13115   -12749   -12579   -12676   -12941 
  -13138   -13117   -12883   -12559   -12329   -12295   -12424   -12610 
  -12692   -12549   -12248   -11961   -11816   -11858   -11967   -11988 
  -11929   -11890   -11874   -11838   -11782   -11751   -11765   -11836 
  -12023   -12340   -12757   -13248   -13788   -14303   -14642   -14723 
  -14628   -14393   -13956   -13370   -12765   -12226   -11796   -11488 
  -11298   -11210   -11192   -11211   -11246   -11344   -11560   -11907 
  -12395   -13020   -13674   -14234   -14671   -14929   -14887   -14449 
  -13617   -12568   -11564   -10764   -10260   -10154   -10507   -11187 
  -11977   -12785   -13543   -14058   -14164   -13795   -13050   -12235 
  -11647   -11362   -11329   -11524   -11908   -12324   -12652   -12941 
  -13282   -13678   -14077   -14396   -14557   -14555   -14359   -13887 
  -13190   -12418   -11650   -10941   -10397   -10119   -10160   -10500 
  -11038   -11651   -12225   -12625   -12798   -12922   -13220   -13651 
  -14018   -14234   -14330   -14326   -14170   -13817   -13212   -12341 
  -11383   -10566    -9969    -9628    -9607    -9906   -10494   -11377 
  -12515   -13749   -14875   -15711   -16102   -16019   -15589   -14928 
  -14045   -13008   -11969   -11025   -10255    -9752    -9566    -9715 
  -10195   -10930   -11794   -12641   -13375   -14003   -14546   -14910 
  -14976   -14782   -14438   -13973   -13423   -12854   -12341   -11929 
  -11524   -11029   -10535   -10172   -10050   -10305   -10897   -11618 
  -12344   -13030   -13618   -14119   -14540   -14828   -14963   -14910 
  -14605   -14068   -13401   -12692   -12047   -11557   -11213   -10995 
  -10972   -11175   -11547   -11971   -12268   -12336   -12286   -12289 
  -12424   -12692   -13012   -13250   -13312   -13217   -13062   -12843 
  -12509   -12171   -11934   -11749   -11682   -11931   -12488   -13122 
  -13645   -13994   -14153   -14166   -14041   -13684   -13038   -12198 
  -11360   -10666   -10174    -9972   -10179   -10770   -11553   -12421 
  -13363   -14268   -14944   -15250   -15178   -14843   -14338   -13671 
  -12872   -12031   -11292   -10783   -10552   -10601   -10956   -11581 
  -12258   -12780   -13100   -13251   -13262   -13109   -12796   -12467 
  -12249   -12156   -12179   -12290   -12437   -12594   -12753   -12972 
  -13305   -13601   -13684   -13585   -13347   -13005   -12695   -12496 
  -12353   -12181   -11955   -11750   -11642   -11607   -11592   -11592 
  -11614   -11670   -11785   -11959   -12190   -12541   -13055   -13656 
  -14202   -14584   -14763   -14702   -14373   -13828   -13205   -12609 
  -12074   -11674   -11443   -11310   -11245   -11264   -11310   -11398 
  -11659   -12121   -12638   -13088   -13439   -13689   -13846   -13857 
  -13613   -13116   -12468   -11807   -11326   -11203   -11502   -12120 
  -12777   -13225   -13455   -13518   -13400   -13131   -12771   -12357 
  -12001   -11785   -11657   -11618   -11796   -12183   -12571   -12822 
  -12982   -13134   -13313   -13458   -13437   -13227   -12884   -12496 
  -12220   -12118   -12128   -12204   -12285   -12285   -12183   -12090 
  -12129   -12199   -12156   -12106   -12205   -12455   -12815   -13200 
  -13489   -13629   -13625   -13497   -13267   -12964   -12617   -12247 
  -11897   -11708   -11854   -12313   -12802   -13089   -13242   -13300 
  -13096   -12675   -12352   -12299   -12409   -12488   -12436   -12278 
  -12074   -11865   -11709   -11668   -11807   -12187   -12675   -13038 
  -13297   -13563   -13729   -13603   -13180   -12606   -12032   -11647 
  -11655   -12032   -12579   -13088   -13379   -13378   -13120   -12721 
  -12334   -12035   -11854   -11861   -12077   -12442   -12841   -13119 
  -13170   -13018   -12757   -12405   -11966   -11576   -11349   -11257 
  -11269   -11362   -11530   -11824   -12291   -12924   -13637   -14223 
  -14546   -14656   -14621   -14401   -13960   -13394   -12835   -12317 
  -11831   -11400   -11125   -11079   -11205   -11419   -11689   -12054 
  -12557   -13101   -13533   -13841   -14073   -14166   -14003   -13614 
  -13170   -12818   -12559   -12285   -11993   -11803   -11727   -11728 
  -11801   -11885   -11917   -11927   -11950   -12031   -12276   -12711 
  -13158   -13487   -13707   -13714   -13470   -13122   -12671   -12110 
  -11708   -11657   -11896   -12295   -12727   -13135   -13447   -13470 
  -13157   -12717   -12356   -12166   -12175   -12294   -12339   -12372 
  -12546   -12673   -12646   -12622   -12596   -12591   -12739   -12911 
  -12928   -12860   -12754   -12615   -12506   -12401   -12271   -12231 
  -12258   -12225   -12163   -12044   -11782   -11518   -11421   -11508 
  -11726   -11985   -12305   -12731   -13170   -13539   -13807   -13871 
  -13633   -13151   -12600   -12222   -12195   -12428   -12599   -12541 
  -12433   -12467   -12567   -12577   -12471   -12380   -12478   -12749 
  -13066   -13339   -13421   -13261   -13061   -13007   -13105   -13230 
  -13265   -13277   -13321   -13293   -13061   -12623   -12109   -11637 
  -11196   -10779   -10534   -10581   -10858   -11217   -11587   -12055 
  -12696   -13387   -13803   -13741   -13525   -13521   -13591   -13564 
  -13374   -13036   -12839   -12812   -12695   -12555   -12507   -12430 
  -12212   -11962   -11905   -12050   -12397   -12941   -13358   -13481 
  -13394   -13127   -12789   -12449   -12082   -11792   -11688   -11782 
  -11947   -12004   -12012   -12121   -12320   -12532   -12717   -12939 
  -13151   -13140   -12981   -12826   -12580   -12270   -12056   -12020 
  -12159   -12347   -12532   -12843   -13255   -13541   -13582   -13408 
  -13068   -12673   -12375   -12152   -11950   -11824   -11803   -11871 
  -12006   -12160   -12339   -12604   -12978   -13358   -13608   -13738 
  -13818   -13825   -13689   -13398   -13027   -12596   -12143   -11786 
  -11565   -11437   -11381   -11394   -11433   -11479   -11558   -11691 
  -11973   -12511   -13130   -13635   -14060   -14341   -14378   -14264 
  -14034   -13622   -13088   -12559   -12106   -11693   -11295   -11022 
  -10952   -10986   -11088   -11342   -11732   -12232   -12804   -13228 
  -13359   -13327   -13258   -13193   -13216   -13282   -13198   -12895 
  -12525   -12380   -12496   -12657   -12862   -13092   -13262   -13463 
  -13618   -13612   -13440   -13097   -12787   -12561   -12186   -11727 
  -11462   -11457   -11614   -11827   -11816   -11481   -11446   -11919 
  -12298   -12617   -13030   -13252   -13435   -13610   -13568   -13460 
  -13301   -13036   -12788   -12553   -12240   -11894   -11703   -11817 
  -12253   -12660   -12691   -12625   -12637   -12548   -12479   -12496 
  -12401   -12198   -11944   -11691   -11715   -12145   -12629   -12830 
  -12896   -13089   -13320   -13328   -13174   -13072   -12897   -12550 
  -12263   -12093   -11935   -11863   -11973   -12256   -12575   -12781 
  -12954   -13147   -13225   -13190   -13090   -12973   -13007   -13101 
  -13046   -12879   -12556   -12171   -11966   -11855   -11793   -11898 
  -12021   -11947   -11831   -12044   -12503   -12610   -12329   -12279 
