Origin Time       2025/03/30 10:18:00
Lat.              34.667
Long.             140.825
Depth. (km)       69
Mag.              4.9
Station Code      CHB022
Station Lat.      35.3033
Station Long.     139.8555
Station Height(m) 12
Record Time       2025/03/30 10:19:06
Sampling Freq(Hz) 100Hz
Duration Time(s)  60
Dir.              U-D
Scale Factor      7845(gal)/8223790
Max. Acc. (gal)   1.497
Last Correction   2025/03/30 10:19:05
Memo.             
[...]
   11381    11078    10968    11311    11614    11626    11511    11329 
   11149    11064    11025    11065    11253    11453    11546    11529 
   11407    11317    11368    11435    11358    11173    11169    11477 
   11642    11464    11524    11874    11767    11325    11373    11790 
   11809    11322    10887    10968    11349    11433    11207    11180 
   11395    11457    11306    11207    11263    11344    11373    11418 
   11453    11402    11387    11473    11479    11402    11439    11547 
   11491    11223    11024    11219    11632    11680    11345    11188 
   11319    11456    11518    11431    11250    11327    11545    11473 
   11318    11340    11323    11257    11242    11205    11290    11454 
   11368    11241    11326    11357    11383    11577    11562    11288 
   11269    11476    11473    11294    11217    11263    11365    11588 
   11812    11739    11454    11284    11196    11159    11356    11550 
   11421    11290    11480    11719    11688    11385    11056    10987 
   11117    11209    11254    11287    11341    11503    11591    11485 
   11426    11394    11238    11217    11400    11448    11341    11342 
   11492    11603    11457    11215    11249    11403    11372    11429 
   11669    11655    11396    11333    11430    11384    11245    11222 
   11327    11385    11304    11298    11457    11466    11303    11358 
   11551    11499    11325    11310    11364    11303    11163    11156 
   11330    11450    11457    11473    11476    11461    11398    11234 
   11202    11337    11321    11321    11599    11696    11411    11303 
   11518    11620    11434    11169    11175    11484    11604    11344 
   11137    11210    11407    11570    11541    11398    11402    11421 
   11271    11240    11408    11426    11345    11468    11611    11502 
   11349    11326    11279    11217    11286    11329    11211    11164 
   11308    11462    11558    11619    11535    11379    11383    11384 
   11149    10984    11129    11268    11276    11411    11674    11816 
   11759    11583    11419    11360    11275    11105    11121    11385 
   11524    11453    11493    11645    11570    11219    10910    10935 
   11188    11335    11403    11595    11685    11443    11138    11044 
   11132    11300    11431    11508    11631    11731    11662    11445 
   11202    11090    11163    11256    11337    11589    11867    11808 
   11561    11465    11345    11052    10953    11202    11458    11534 
   11537    11553    11581    11550    11388    11182    11072    11044 
   11068    11232    11481    11620    11620    11510    11296    11184 
   11319    11547    11750    11858    11701    11361    11157    11102 
   11005    10978    11153    11368    11588    11839    11882    11654 
   11407    11184    10976    10984    11171    11325    11468    11547 
   11410    11291    11402    11456    11334    11307    11394    11391 
   11313    11300    11362    11380    11315    11342    11488    11450 
   11207    11190    11453    11524    11313    11287    11543    11611 
   11430    11402    11510    11480    11384    11338    11325    11408 
   11519    11457    11306    11350    11611    11731    11475    11153 
   11134    11245    11260    11325    11470    11491    11410    11391 
   11404    11368    11249    11125    11206    11461    11522    11337 
   11304    11500    11554    11411    11419    11615    11630    11398 
   11304    11453    11430    11098    10895    11057    11240    11284 
   11493    11786    11673    11287    11199    11389    11464    11335 
   11196    11267    11499    11561    11435    11385    11396    11323 
   11209    11173    11354    11670    11727    11453    11250    11252 
   11172    11051    11290    11753    11848    11631    11591    11650 
   11508    11296    11184    11086    11010    11110    11365    11550 
   11531    11394    11260    11233    11349    11453    11416    11364 
   11408    11473    11484    11448    11360    11246    11234    11365 
   11377    11156    11084    11341    11502    11406    11468    11719 
   11713    11433    11252    11244    11261    11290    11358    11398 
   11365    11392    11574    11678    11472    11215    11215    11283 
   11192    11153    11317    11441    11372    11350    11545    11731 
   11666    11383    11094    11048    11207    11236    11121    11249 
   11591    11626    11341    11357    11767    11909    11550    11265 
   11429    11614    11452    11303    11427    11480    11307    11168 
   11198    11313    11360    11256    11146    11225    11441    11589 
   11530    11348    11321    11442    11357    11094    11098    11395 
   11581    11538    11508    11583    11545    11290    11043    11037 
   11190    11279    11276    11277    11317    11387    11491    11583 
   11584    11439    11229    11184    11342    11414    11267    11194 
   11383    11599    11647    11700    11884    11909    11568    11214 
   11169    11226    11240    11272    11259    11295    11515    11580 
   11310    11160    11325    11458    11456    11426    11334    11284 
   11450    11631    11496    11109    10894    11072    11385    11538 
   11523    11446    11433    11468    11368    11236    11346    11535 
   11497    11385    11439    11562    11546    11379    11246    11264 
   11295    11227    11209    11303    11327    11257    11299    11438 
   11414    11205    11125    11337    11530    11456    11371    11439 
   11411    11300    11367    11443    11326    11329    11593    11677 
   11466    11469    11758    11762    11349    11052    11194    11462 
   11460    11276    11234    11300    11281    11233    11299    11422 
   11426    11360    11419    11507    11398    11272    11400    11627 
   11704    11642    11524    11408    11335    11209    10980    10885 
   11048    11257    11411    11607    11769    11763    11693    11680 
   11627    11411    11161    11141    11242    11142    10987    11121 
   11449    11692    11728    11604    11462    11344    11173    11063 
   11172    11346    11357    11314    11395    11485    11434    11385 
   11437    11400    11248    11221    11334    11403    11421    11418 
   11358    11334    11396    11410    11344    11317    11394    11510 
   11518    11425    11469    11615    11523    11302    11310    11423 
   11399    11331    11335    11394    11435    11331    11136    11098 
   11244    11391    11510    11605    11584    11518    11526    11456 
   11192    10941    10895    11043    11261    11446    11572    11627 
   11572    11429    11272    11233    11367    11448    11330    11252 
   11335    11410    11522    11757    11826    11558    11306    11327 
   11307    11028    10932    11273    11543    11449    11394    11592 
   11731    11585    11317    11226    11319    11318    11248    11421 
   11739    11792    11569    11384    11344    11371    11365    11295 
   11261    11310    11389    11496    11565    11511    11376    11153 
   10936    11025    11333    11434    11392    11502    11568    11396 
   11261    11326    11406    11410    11439    11556    11650    11601 
   11502    11458    11391    11300    11248    11134    10956    10859 
   10866    10989    11290    11638    11842    11871    11763    11604 
   11462    11281    11119    11121    11240    11385    11557    11642 
   11561    11496    11491    11329    11122    11172    11264    11132 
   11053    11211    11318    11176    10960    10960    11222    11439 
   11462    11543    11738    11770    11574    11373    11365    11515 
   11591    11469    11291    11277    11496    11730    11728    11587 
   11506    11454    11365    11275    11209    11203    11222    11173 
   11178    11402    11658    11646    11410    11188    11140    11304 
   11542    11589    11421    11318    11368    11319    11144    11119 
   11242    11342    11487    11643    11634    11551    11529    11449 
   11298    11237    11264    11263    11214    11199    11259    11340 
   11394    11406    11407    11507    11607    11461    11207    11196 
   11385    11507    11489    11445    11506    11650    11701    11608 
   11473    11330    11163    11056    11105    11288    11470    11472 
   11319    11294    11461    11481    11223    11044    11175    11362 
   11354    11314    11457    11611    11481    11213    11163    11269 
   11315    11360    11383    11284    11291    11491    11577    11529 
   11533    11480    11327    11237    11209    11222    11354    11518 
   11566    11533    11529    11593    11599    11418    11277    11452 
   11650    11506    11259    11209    11207    11110    11075    11246 
   11489    11583    11585    11669    11732    11649    11480    11248 
   11021    10994    11134    11264    11361    11383    11310    11357 
   11558    11611    11452    11318    11300    11346    11406    11431 
   11445    11476    11496    11512    11497    11402    11298    11226 
   11083    10914    10956    11237    11520    11643    11637    11566 
   11449    11286    11118    11045    11138    11369    11612    11781 
   11884    11890    11739    11500    11311    11195    11149    11218 
   11341    11380    11344    11295    11218    11134    11102    11119 
   11249    11542    11828    11884    11716    11526    11407    11268 
   11128    11137    11252    11331    11334    11279    11295    11425 
   11472    11385    11354    11392    11367    11273    11199    11205 
   11246    11257    11333    11561    11789    11866    11838    11765 
   11607    11354    11109    11003    11056    11142    11187    11242 
   11299    11323    11430    11614    11611    11368    11182    11173 
   11165    11082    11060    11180    11364    11557    11755    11892 
   11950    11961    11808    11464    11167    11117    11263    11372 
   11249    11078    11157    11338    11340    11253    11219    11214 
   11253    11281    11261    11375    11618    11705    11572    11372 
   11275    11400    11578    11581    11589    11765    11869    11758 
   11576    11388    11130    10787    10525    10588    10951    11308 
   11507    11626    11707    11693    11599    11493    11368    11188 
   11026    10957    11020    11254    11558    11739    11758    11664 
   11499    11360    11290    11242    11210    11227    11314    11408 
   11423    11365    11279    11163    11080    11133    11306    11497 
   11634    11730    11805    11762    11551    11353    11325    11388 
   11469    11616    11728    11647    11441    11195    10926    10787 
   10921    11203    11458    11701    11885    11832    11585    11361 
   11129    10773    10525    10689    11169    11635    11870    11888 
   11812    11688    11537    11418    11310    11173    11088    11082 
   11056    11049    11171    11346    11480    11592    11631    11592 
   11573    11539    11431    11376    11479    11732    12031    12145 
   11969    11600    11124    10671    10563    10863    11183    11352 
   11605    11867    11774    11421    11188    11063    10917    10925 
   11122    11321    11550    11853    12013    11961    11828    11653 
   11470    11375    11273    11013    10768    10805    10951    10971 
   11067    11407    11754    11875    11846    11815    11723    11450 
   11103    10860    10746    10773    10964    11219    11461    11723 
   11901    11824    11578    11421    11342    11063    10615    10440 
   10669    10972    11265    11673    12031    12109    11955    11708 
   11469    11296    11260    11504    11946    12159    11927    11479 
   11036    10573    10199    10219    10685    11349    11985    12421 
   12563    12417    11969    11254    10508    10048    10049    10351 
   10712    11213    11886    12341    12444    12438    12270    11877 
   11553    11313    10944    10663    10764    11022    11109    11129 
   11295    11452    11358    11105    10937    10959    11198    11665 
   12190    12521    12582    12424    12064    11526    10984    10709 
   10748    10929    11190    11554    11838    11792    11514    11303 
   11194    11044    10903    10878    10908    10953    11121    11449 
   11790    11927    11842    11700    11511    11232    11057    11110 
   11217    11249    11303    11534    11880    12032    11826    11407 
   10980    10666    10488    10454    10674    11122    11566    11939 
   12317    12568    12455    11959    11362    10941    10642    10354 
   10381    10963    11611    11808    11786    11839    11765    11446 
   11064    10845    10940    11205    11387    11518    11742    11955 
   11907    11547    11126    10887    10906    11119    11367    11564 
   11739    11828    11781    11655    11507    11377    11257    11098 
   11028    11187    11400    11453    11385    11286    11119    10863 
   10720    10929    11319    11545    11684    11983    12312    12395 
   12205    11824    11303    10754    10320    10169    10411    10841 
   11144    11367    11672    11890    11882    11858    11927    11848 
   11523    11180    10947    10789    10787    10991    11281    11584 
   11904    12150    12144    11836    11394    11028    10825    10836 
   11098    11479    11761    11901    11925    11808    11570    11280 
   11003    10868    10929    11072    11207    11299    11310    11299 
   11340    11379    11442    11635    11894    12118    12276    12206 
   11804    11322    10966    10619    10315    10322    10689    11167 
   11434    11372    11195    11055    10891    10845    11141    11672 
   12239    12725    12950    12737    12120    11396    10899    10720 
   10821    11194    11630    11838    11805    11603    11232    10840 
   10629    10631    10789    11053    11284    11362    11344    11267 
   11102    10986    11079    11298    11496    11611    11628    11641 
   11670    11554    11272    11114    11219    11383    11500    11681 
   11882    11947    11824    11546    11242    11017    10802    10616 
   10636    10852    11117    11418    11676    11720    11628    11591 
   11612    11692    11830    11939    11986    11920    11646    11334 
   11184    11097    11014    11038    11138    11244    11369    11496 
   11558    11473    11240    11010    10889    10854    10914    11097 
   11346    11572    11716    11777    11789    11738    11557    11295 
   11217    11485    11820    11840    11578    11326    11176    11041 
   10945    11005    11194    11367    11464    11522    11533    11527 
   11562    11589    11542    11491    11530    11614    11657    11624 
   11512    11414    11414    11387    11206    10997    10916    10935 
   11018    11210    11461    11651    11790    11970    12064    11808 
   11257    10774    10539    10521    10681    10935    11250    11657 
   11943    11858    11531    11249    11092    11061    11165    11340 
   11511    11639    11688    11674    11657    11639    11631    11618 
   11504    11300    11171    11180    11225    11202    11087    10998 
   11133    11462    11707    11762    11788    11805    11585    11087 
   10635    10498    10605    10824    11171    11595    11881    11866 
   11619    11322    11084    10908    10866    11102    11549    11935 
   12116    12164    12100    11820    11418    11164    11109    11113 
   11101    11083    11128    11286    11533    11762    11871    11857 
   11707    11414    11145    11087    11207    11372    11512    11639 
   11753    11803    11746    11547    11182    10739    10416    10349 
   10569    11009    11445    11673    11734    11715    11570    11354 
   11288    11373    11395    11465    11826    12236    12325    12179 
   12075    11938    11491    10885    10600    10671    10759    10852 
   11113    11376    11406    11307    11308    11346    11241    11076 
   11036    11128    11242    11290    11331    11535    11815    11874 
   11700    11488    11267    11068    11030    11142    11299    11423 
   11438    11418    11550    11740    11731    11583    11506    11475 
   11383    11221    11088    11088    11156    11223    11335    11437 
   11415    11358    11384    11442    11485    11503    11489    11538 
   11592    11469    11395    11589    11614    11241    11024    11149 
   11186    11118    11256    11504    11645    11666    11587    11454 
   11265    10932    10658    10798    11164    11406    11581    11734 
   11870    12060    12037    11684    11384    11277    11183    11084 
   11051    11141    11418    11716    11731    11573    11543    11549 
   11541    11664    11715    11476    11172    11037    11016    11005 
   10993    11028    11218    11470    11489    11358    11350    11367 
   11348    11402    11453    11483    11523    11411    11103    10782 
   10597    10643    10914    11223    11504    11893    12194    12046 
   11696    11624    11688    11562    11389    11375    11450    11507 
   11593    11772    11828    11601    11333    11134    10859    10659 
   10735    10921    11099    11326    11580    11755    11782    11761 
   11761    11565    11151    11028    11331    11468    11385    11511 
   11665    11704    11811    11796    11560    11290    11016    10840 
   10860    10905    10990    11256    11477    11487    11480    11473 
   11394    11434    11562    11441    11115    11009    11214    11458 
   11614    11704    11709    11610    11411    11219    11155    11099 
   10970    11006    11291    11569    11682    11646    11566    11456 
   11180    10872    10805    10944    11142    11335    11475    11543 
   11561    11538    11425    11221    11074    11190    11592    11985 
   12087    11931    11715    11566    11468    11335    11206    11222 
   11395    11484    11329    11125    11092    11153    11151    11167 
   11275    11314    11250    11217    11234    11236    11222    11322 
   11558    11709    11697    11642    11539    11426    11427    11504 
   11614    11786    11901    11858    11799    11840    11866    11773 
   11634    11514    11334    11056    10841    10821    10886    10897 
   10885    10932    11032    11101    11129    11232    11425    11596 
   11755    11921    11912    11561    11036    10733    10701    10754 
   11024    11431    11607    11670    11693    11531    11524    11699 
   11578    11394    11500    11515    11296    11171    11225    11308 
   11159    10840    10920    11254    11226    11222    11607    11828 
   11738    11674    11670    11681    11672    11520    11389    11519 
   11642    11508    11383    11458    11630    11689    11554    11431 
   11325    11075    10868    10951    11281    11550    11507    11298 
   11091    10921    10889    10978    11141    11395    11614    11638 
   11510    11426    11443    11468    11481    11475    11372    11200 
   11160    11350    11495    11395    11341    11511    11658    11639 
   11557    11475    11380    11298    11268    11314    11469    11551 
   11340    11169    11387    11529    11179    10770    10732    11021 
   11524    11897    11863    11759    11804    11796    11643    11410 
   11303    11399    11510    11618    11672    11456    11178    11157 
   11173    11022    10956    11064    11248    11595    11940    11923 
   11535    11064    10814    10864    11029    11226    11427    11480 
   11427    11389    11375    11562    11839    11718    11349    11241 
   11271    11236    11267    11215    11065    11253    11643    11773 
