Origin Time       2025/03/30 10:18:00
Lat.              34.667
Long.             140.825
Depth. (km)       69
Mag.              4.9
Station Code      CHB020
Station Lat.      35.1132
Station Long.     140.1006
Station Height(m) 9
Record Time       2025/03/30 10:18:59
Sampling Freq(Hz) 100Hz
Duration Time(s)  65
Dir.              N-S
Scale Factor      7845(gal)/8223790
Max. Acc. (gal)   4.098
Last Correction   2025/03/30 10:18:58
Memo.             
[...]
     265      264      270      275      274      265      272      288 
     286      267      261      275      284      283      280      271 
     259      261      274      276      272      264      263      275 
     287      284      274      267      274      280      274      263 
     265      275      278      274      272      276      274      270 
     278      282      275      264      259      271      291      291 
     265      247      255      271      282      279      263      259 
     274      284      278      271      274      275      280      297 
     292      255      226      240      257      248      234      255 
     302      318      274      240      263      275      260      280 
     318      324      313      321      336      324      295      278 
     245      229      313      421      373      203      102      116 
     174      224      240      224      225      271      333      379 
     384      353      309      260      217      184      162      157 
     179      245      353      429      418      367      302      232 
     225      276      270      164       22      -60       18      263 
     527      653      622      502      353      248      225      211 
     164      153      197      260      349      391      309      189 
     151      170      194      241      302      342      394      471 
     492      453      481      580      544      270      -60     -232 
    -225      -90      153      373      386      228      129      164 
     240      361      511      476      230       51       56      109 
     140      202      306      417      500      550      553      471 
     332      247      243      234      211      229      275      311 
     369      448      441      274       48      -81      -54      140 
     459      746      837      680      395      163       22      -58 
     -64      -28      -10       49      244      449      481      363 
     221      129      126      248      399      387      221      121 
     201      353      449      448      351      193       49       -5 
      55      233      521      811      870      610      230      -18 
     -71      -18       78      193      257      279      353      427 
     395      346      369      365      288      226      228      257 
     270      276      325      378      364      328      368      426 
     367      209       72       22       64      184      328      418 
     429      380      307      218       87       17      144      291 
     224       64       68      221      333      333      259      170 
     197      357      499      540      481      378      294      184 
      43       -1       81      164      153       99      128      245 
     345      411      515      629      645      572      517      491 
     392      191       27       90      375      585      523      319 
     130        0       33      236      396      409      346      232 
      67      -44      -12      109      197      222      207      205 
     315      471      484      364      197       17      -37      153 
     441      552      454      353      351      361      314      243 
     172       87       85      232      388      415      306      126 
     -17      -95     -110       10      233      456      720      993 
    1081      955      753      548      364      251      237      276 
     230       14     -247     -372     -342     -263     -198      -87 
     112      265      268      229      220      241      340      477 
     568      642      645      444      129      -99     -135       86 
     450      677      680      557      367      162       36       87 
     315      545      562      313      -21     -182      -63      220 
     481      612      610      553      521      526      556      568 
     537      452      321      214      172      114       22      -16 
     -22      -85     -144     -106      -18       70      175      230 
     203      198      260      361      498      639      741      819 
     849      741      525      319      171       98       64      -33 
    -152     -168      -70       60       99       44        6       27 
      95      217      364      453      436      369      342      388 
     504      608      568      383      222      194      218      209 
     229      373      562      648      595      453      292      121 
     -74     -193     -167      -56       87      247      364      372 
     307      228      157      178      337      564      724      706 
     546      373      193       14        2      241      562      731 
     719      606      380       75     -182     -330     -334     -174 
      16      113      168      205      189      213      349      457 
     444      467      631      797      801      629      382      175 
      90       89       40      -58      -37      117      233      247 
     228      230      276      346      360      311      280      274 
     272      326      460      581      567      469      425      355 
     163       -5      -29       45      147      190      112      -62 
    -201     -184      -79        6      136      345      523      575 
     496      376      344      409      491      568      615      580 
     476      373      292      213      163      182      263      379 
     452      402      230       28      -45       66      230      328 
     321      263      263      348      450      546      649      707 
     639      506      438      407      324      248      222      187 
     178      229      244      183      143      193      306      365 
     270       83      -33      -47      -43      -43      -14      -25 
     -71        1      178      265      263      288      321      257 
     109      -22      -64      -36       -8       28      184      434 
     558      487      359      236      205      414      758      969 
    1016      980      810      513      251      121       78      125 
     288      472      544      459      287      157      126      133 
     128      151      275      450      564      577      454      217 
      60       75      126      118       79       40       33       95 
     228      394      523      542      418      230      117      116 
     135       98       49       48       90      133      149      118 
      39      -62     -168     -252     -229      -71      163      423 
     656      783      785      675      491      365      422      580 
     675      658      560      445      391      355      265      167 
     114      102      122      175      225      234      255      303 
     244       41     -145     -190      -68      159      402      633 
     823      900      842      652      376      164      140      268 
     409      441      364      243      120       35       56      203 
     379      464      459      432      398      318      199      118 
     120      198      341      450      383      141     -121     -297 
    -344     -264     -121       29      128      116       47       36 
     117      225      278      284      290      279      267      261 
     248      321      541      764      843      803      734      649 
     535      441      398      386      384      386      383      373 
     351      299      203       76      -16      -43      -27       40 
     176      361      548      691      770      788      745      648 
     498      313      148       52       10      -47     -144     -209 
    -191     -129      -98     -128     -168     -144      -54       32 
      66      105      214      340      418      460      454      382 
     290      252      321      506      708      812      804      734 
     635      499      337      221      174      178      241      297 
     247      155      103       29      -33       41      202      348 
     468      522      459      319      190      121      128      222 
     336      328      205      140      172      197      214      276 
     299      211      120      135      213      272      337      448 
     545      561      517      445      360      270      195      179 
     172      136      155      238      282      295      337      360 
     342      306      218       90       13        6       39      110 
     199      252      264      270      301      369      433      440 
     396      303      179       90       67       55       20       12 
      51       95      121      156      214      255      233      194 
     202      256      332      382      386      392      441      540 
     679      766      727      630      545      460      375      344 
     395      504      641      729      679      479      193      -49 
    -153     -140      -32      148      311      413      457      453 
     409      299      162       89       82       74       48       36 
      47       74      114      179      253      301      315      338 
     380      403      402      390      357      307      247      170 
      90       18      -56      -99      -90      -95     -125     -113 
     -48       59      209      313      314      291      268      198 
     160      255      442      672      878      981      996      938 
     789      625      508      417      352      310      268      220 
     175      153      147      140      155      229      322      318 
     207      118      128      249      452      616      648      549 
     382      257      237      263      302      329      311      295 
     305      283      209      101      -10      -55      -16       24 
      -1      -63     -139     -247     -314     -224      -41       64 
      83      125      201      236      232      232      247      272 
     307      333      341      305      203      113      122      201 
     272      325      365      363      361      440      521      507 
     486      550      639      658      629      603      538      436 
     426      526      573      533      519      561      622      666 
     610      449      288      159       63       68      160      276 
     382      423      373      265      137       43       35       81 
      99      106      214      387      432      278       32     -148 
    -186     -163     -166     -159      -89       37      171      271 
     306      287      313      426      526      573      607      627 
     643      653      540      311      194      194      170      197 
     322      448      503      378       55     -238     -346     -367 
    -382     -365     -328     -263     -133       16      174      359 
     457      419      394      471      538      557      616      675 
     707      799      873      819      689      561      414      217 
      48        9       82      190      297      402      537      708 
     804      708      529      467      490      449      351      248 
     151       95      105      159      205      228      240      248 
     217       98      -52     -135     -152     -122      -70      -75 
    -186     -314     -319     -153       64      190      233      233 
     133      -29      -90      -17      103      243      399      529 
     569      527      432      325      279      317      407      460 
     433      380      291      122       12      197      568      681 
     518      463      595      733      700      484      337      346 
     364      306      180      130      159      174      255      395 
     510      537      535      646      793      897      934      866 
     757      673      724      923     1031      855      498      130 
    -194     -309     -195      -71       71      178      139       52 
    -103     -243     -214     -156     -108        4       72      -54 
    -380     -618     -537     -372     -326     -229       39      311 
     379      365      421      391      292      295      361      414 
     441      429      349      206       55      -33       44      171 
     137       94      179      299      402      463      452      394 
     425      650      919     1035      961      745      450      207 
     121       98       17      -85     -194     -346     -542     -747 
    -859     -737     -399        6      352      533      558      523 
     496      534      693      993     1352     1674     1895     1948 
    1834     1648     1422     1162      922      778      776      808 
     718      491      136     -365     -932    -1426    -1741    -1807 
   -1672    -1475    -1317    -1259    -1281    -1285    -1205     -953 
    -504        6      498      977     1443     1875     2185     2245 
    2084     1858     1675     1541     1372     1142      870      550 
     198     -182     -567     -868    -1023     -994     -764     -361 
     132      664     1186     1599     1868     1975     1883     1601 
    1128      545      -10     -499     -891    -1196    -1401    -1452 
   -1424    -1333    -1115     -820     -533     -332     -240     -225 
    -297     -402     -475     -472     -302      -17      167      178 
      76      -99     -344     -523     -415       39      708     1389 
    1875     2104     2161     2112     2012     1979     2074     2255 
    2434     2527     2496     2369     2164     1856     1468     1094 
     888      970     1262     1613     1938     2147     2218     2187 
    2061     1850     1545     1109      530     -167     -955    -1800 
   -2546    -3083    -3449    -3638    -3705    -3813    -3959    -4023 
   -3973    -3828    -3585    -3254    -2906    -2559    -2142    -1660 
   -1170     -723     -329       32      321      463      471      523 
     722      932     1094     1227     1370     1649     2095     2616 
    3181     3777     4226     4379     4271     3916     3399     2920 
    2535     2265     2081     1873     1630     1333      919      465 
      87     -214     -454     -645     -832    -1038    -1197    -1260 
   -1227    -1081     -855     -650     -569     -646     -880    -1193 
   -1437    -1606    -1707    -1642    -1398    -1016     -535      -68 
     309      611      854     1055     1235     1395     1526     1587 
    1520     1310      974      587      226      -33     -112      -17 
     245      685     1170     1572     1850     1948     1854     1624 
    1337     1097      927      776      580      307      -24     -365 
    -618     -711     -681     -584     -472     -456     -618     -926 
   -1286    -1584    -1738    -1764    -1676    -1453    -1150     -835 
    -511     -174      164      545      988     1428     1798     2079 
    2265     2285     2088     1714     1182      556       32     -297 
    -449     -395     -155      155      471      778     1013     1092 
    1042      993     1050     1188     1327     1448     1537     1528 
    1375     1109      791      463      167      -60     -280     -562 
    -868    -1115    -1275    -1335    -1282    -1146    -1009     -969 
   -1073    -1375    -1867    -2392    -2793    -2976    -2864    -2428 
   -1719     -780      330     1474     2500     3275     3658     3604 
    3219     2682     2196     1903     1772     1694     1624     1549 
    1440     1320     1229     1163     1125     1090      959      687 
     322      -39     -322     -456     -355      -60      284      560 
     626      398      -17     -373     -494     -368      -51      403 
     903     1328     1597     1665     1507     1170      761      306 
    -226     -793    -1308    -1737    -2023    -2085    -1950    -1706 
   -1385    -1024     -706     -502     -396     -318     -265     -255 
    -268     -290     -306     -287     -191       -2      207      349 
     415      441      445      450      507      641      834     1042 
    1210     1294     1262     1108      892      719      688      831 
    1073     1297     1413     1368     1179      892      560      257 
      21     -118     -145     -122      -76       33      172      282 
     392      515      616      700      820     1011     1255     1491 
    1667     1753     1738     1657     1539     1360     1156     1005 
     903      777      610      418      166     -175     -614    -1155 
   -1732    -2265    -2708    -3006    -3152    -3168    -3057    -2874 
   -2677    -2442    -2108    -1628    -1016     -352      302      895 
    1370     1703     1883     1956     2003     2018     1989     1972 
    1980     1972     1890     1699     1424     1101      776      506 
     302      136      -10     -137     -213     -213     -140       12 
     263      600      966     1328     1664     1894     1984     1912 
    1610     1156      702      328       91       18       90      249 
     425      548      545      411      237       70      -97     -237 
    -349     -499     -703     -899    -1017    -1043     -997     -892 
    -712     -468     -180      106      348      538      676      791 
     940     1081     1152     1139      980      661      259     -201 
    -676    -1051    -1240    -1209     -996     -695     -434     -282 
    -201     -159     -148     -132      -87        0      152      330 
     479      603      710      785      822      812      765      704 
     634      548      398      148     -102     -241     -290     -283 
    -226     -160      -59      121      355      608      823      978 
    1129     1278     1435     1605     1725     1814     1929     2061 
    2187     2259     2268     2266     2285     2319     2326     2227 
    2000     1660     1221      702      120     -430     -832    -1078 
   -1227    -1348    -1471    -1561    -1601    -1638    -1698    -1755 
   -1773    -1777    -1849    -1987    -2088    -2101    -2034    -1894 
   -1676    -1422    -1240    -1197    -1264    -1317    -1210     -924 
    -552     -163      240      650     1000     1228     1367     1489 
    1601     1659     1651     1634     1655     1728     1857     2003 
    2137     2304     2509     2689     2806     2840     2747     2524 
    2197     1777     1331      924      558      232      -16     -164 
    -260     -365     -472     -542     -552     -456     -267      -58 
     152      363      526      599      575      450      240      -28 
    -344     -664     -903    -1048    -1139    -1194    -1232    -1250 
   -1169     -945     -619     -259       39      201      232      209 
     194      183      159      136      121      128      159      144 
      40      -63      -72       -1      130      328      538      707 
     838      926      981     1031     1058     1057     1042      955 
     710      303     -143     -542     -873    -1074    -1127    -1074 
    -927     -706     -433     -117      213      508      768     1065 
    1402     1680     1880     2043     2116     2080     2029     1972 
    1840     1668     1537     1404     1246     1121     1032      958 
     927      918      878      785      638      442      170     -175 
    -535     -876    -1166    -1390    -1561    -1699    -1827    -1923 
   -1910    -1823    -1784    -1764    -1695    -1599    -1475    -1324 
   -1167     -963     -743     -565     -361     -128       86      290 
     525      815     1115     1398     1638     1790     1883     1938 
    1906     1807     1705     1621     1572     1598     1659     1679 
