Origin Time       2025/03/30 10:18:00
Lat.              34.667
Long.             140.825
Depth. (km)       69
Mag.              4.9
Station Code      CHB011
Station Lat.      35.5877
Station Long.     140.4971
Station Height(m) 2
Record Time       2025/03/30 10:19:05
Sampling Freq(Hz) 100Hz
Duration Time(s)  60
Dir.              U-D
Scale Factor      7845(gal)/8223790
Max. Acc. (gal)   0.563
Last Correction   2025/03/30 10:19:04
Memo.             
[...]
  -14557   -14534   -14574   -14632   -14652   -14638   -14639   -14670 
  -14655   -14646   -14750   -14836   -14764   -14659   -14624   -14592 
  -14538   -14534   -14596   -14639   -14598   -14577   -14652   -14720 
  -14688   -14602   -14526   -14511   -14569   -14615   -14620   -14694 
  -14859   -14956   -14917   -14824   -14735   -14667   -14634   -14656 
  -14698   -14661   -14611   -14692   -14805   -14808   -14747   -14706 
  -14724   -14793   -14832   -14797   -14696   -14530   -14380   -14361 
  -14451   -14531   -14555   -14554   -14563   -14623   -14731   -14812 
  -14829   -14801   -14731   -14697   -14752   -14782   -14733   -14669 
  -14598   -14531   -14521   -14594   -14689   -14701   -14670   -14708 
  -14763   -14762   -14750   -14740   -14719   -14700   -14661   -14598 
  -14571   -14588   -14629   -14683   -14698   -14667   -14648   -14636 
  -14631   -14642   -14607   -14534   -14534   -14613   -14674   -14654 
  -14575   -14547   -14586   -14604   -14612   -14655   -14686   -14682 
  -14692   -14732   -14752   -14744   -14783   -14851   -14831   -14743 
  -14712   -14733   -14712   -14665   -14623   -14569   -14557   -14627 
  -14710   -14767   -14790   -14742   -14632   -14582   -14656   -14701 
  -14612   -14542   -14592   -14635   -14639   -14690   -14731   -14675 
  -14625   -14669   -14713   -14720   -14735   -14727   -14640   -14554 
  -14570   -14625   -14617   -14600   -14650   -14712   -14725   -14735 
  -14800   -14871   -14868   -14810   -14760   -14701   -14617   -14582 
  -14620   -14648   -14650   -14662   -14679   -14706   -14727   -14692 
  -14612   -14531   -14476   -14467   -14512   -14604   -14682   -14696 
  -14689   -14693   -14689   -14696   -14720   -14716   -14669   -14631 
  -14646   -14675   -14678   -14677   -14683   -14686   -14688   -14675 
  -14671   -14701   -14708   -14655   -14596   -14558   -14547   -14584 
  -14629   -14624   -14582   -14585   -14665   -14736   -14747   -14751 
  -14725   -14647   -14617   -14659   -14669   -14631   -14617   -14638 
  -14655   -14697   -14740   -14704   -14631   -14631   -14693   -14728 
  -14708   -14698   -14746   -14782   -14770   -14762   -14742   -14673 
  -14631   -14646   -14638   -14602   -14621   -14688   -14715   -14666 
  -14596   -14585   -14639   -14692   -14697   -14685   -14694   -14704 
  -14704   -14706   -14690   -14683   -14754   -14837   -14796   -14666 
  -14594   -14613   -14640   -14598   -14516   -14501   -14573   -14639 
  -14628   -14551   -14493   -14534   -14651   -14739   -14759   -14778 
  -14802   -14773   -14698   -14670   -14693   -14662   -14590   -14615 
  -14701   -14681   -14575   -14528   -14548   -14567   -14585   -14638 
  -14710   -14746   -14744   -14770   -14829   -14816   -14697   -14612 
  -14644   -14704   -14701   -14631   -14553   -14546   -14607   -14682 
  -14739   -14746   -14700   -14671   -14713   -14782   -14797   -14736 
  -14685   -14700   -14725   -14702   -14631   -14551   -14496   -14509 
  -14623   -14740   -14731   -14667   -14651   -14636   -14607   -14604 
  -14654   -14736   -14763   -14715   -14683   -14698   -14705   -14674 
  -14635   -14615   -14598   -14567   -14530   -14500   -14499   -14548 
  -14661   -14781   -14832   -14817   -14790   -14763   -14720   -14679 
  -14648   -14612   -14623   -14698   -14735   -14710   -14713   -14735 
  -14694   -14632   -14656   -14721   -14715   -14655   -14638   -14679 
  -14717   -14671   -14578   -14547   -14566   -14580   -14600   -14615 
  -14616   -14667   -14747   -14744   -14698   -14709   -14708   -14629 
  -14596   -14662   -14708   -14698   -14708   -14715   -14696   -14732 
  -14798   -14756   -14665   -14675   -14706   -14639   -14578   -14613 
  -14646   -14620   -14617   -14683   -14755   -14777   -14748   -14669 
  -14557   -14500   -14526   -14585   -14631   -14612   -14566   -14592 
  -14671   -14719   -14740   -14736   -14690   -14670   -14706   -14721 
  -14704   -14689   -14654   -14631   -14694   -14796   -14794   -14667 
  -14594   -14694   -14786   -14719   -14631   -14617   -14575   -14496 
  -14490   -14578   -14654   -14666   -14662   -14667   -14702   -14754 
  -14735   -14667   -14646   -14683   -14754   -14790   -14737   -14658 
  -14615   -14577   -14561   -14585   -14597   -14611   -14689   -14775 
  -14766   -14692   -14685   -14735   -14769   -14809   -14814   -14686 
  -14531   -14520   -14616   -14673   -14683   -14709   -14689   -14585 
  -14509   -14550   -14631   -14675   -14705   -14725   -14735   -14746 
  -14742   -14706   -14648   -14624   -14667   -14686   -14620   -14585 
  -14650   -14702   -14669   -14619   -14601   -14581   -14550   -14589 
  -14694   -14690   -14539   -14486   -14609   -14704   -14697   -14667 
  -14623   -14561   -14566   -14717   -14874   -14825   -14619   -14516 
  -14615   -14709   -14646   -14547   -14565   -14654   -14739   -14828 
  -14844   -14702   -14574   -14642   -14794   -14860   -14858   -14895 
  -14936   -14863   -14773   -14779   -14723   -14558   -14521   -14654 
  -14752   -14736   -14655   -14559   -14527   -14573   -14548   -14442 
  -14465   -14613   -14685   -14679   -14712   -14743   -14719   -14705 
  -14728   -14696   -14617   -14589   -14608   -14600   -14593   -14654 
  -14723   -14705   -14640   -14625   -14655   -14702   -14800   -14889 
  -14825   -14671   -14598   -14598   -14651   -14752   -14728   -14558 
  -14473   -14543   -14621   -14639   -14647   -14675   -14670   -14635 
  -14648   -14671   -14629   -14629   -14743   -14832   -14786   -14655 
  -14569   -14596   -14648   -14617   -14554   -14563   -14678   -14827 
  -14866   -14771   -14667   -14613   -14589   -14611   -14686   -14755 
  -14785   -14810   -14802   -14685   -14519   -14424   -14446   -14561 
  -14634   -14602   -14644   -14814   -14922   -14877   -14750   -14631 
  -14586   -14621   -14678   -14715   -14735   -14724   -14659   -14580 
  -14538   -14530   -14546   -14575   -14586   -14584   -14642   -14777 
  -14850   -14744   -14596   -14609   -14685   -14632   -14550   -14608 
  -14775   -14886   -14854   -14790   -14810   -14855   -14841   -14797 
  -14744   -14639   -14528   -14512   -14550   -14561   -14553   -14575 
  -14681   -14764   -14698   -14596   -14592   -14620   -14602   -14562 
  -14542   -14532   -14513   -14542   -14648   -14747   -14812   -14877 
  -14885   -14810   -14747   -14725   -14696   -14659   -14636   -14577 
  -14482   -14505   -14693   -14832   -14797   -14750   -14791   -14769 
  -14625   -14557   -14602   -14638   -14661   -14677   -14635   -14563 
  -14543   -14557   -14574   -14621   -14661   -14651   -14636   -14658 
  -14696   -14688   -14648   -14673   -14740   -14735   -14651   -14634 
  -14701   -14746   -14769   -14781   -14755   -14736   -14727   -14678 
  -14609   -14586   -14597   -14594   -14602   -14636   -14666   -14666 
  -14613   -14539   -14540   -14636   -14704   -14697   -14740   -14835 
  -14850   -14759   -14627   -14577   -14681   -14797   -14739   -14547 
  -14458   -14538   -14670   -14797   -14781   -14530   -14337   -14474 
  -14739   -14836   -14786   -14710   -14616   -14535   -14554   -14717 
  -14895   -14890   -14752   -14688   -14686   -14638   -14567   -14561 
  -14620   -14727   -14832   -14769   -14521   -14409   -14596   -14841 
  -14897   -14739   -14527   -14461   -14609   -14840   -14952   -14863 
  -14690   -14569   -14569   -14656   -14685   -14673   -14710   -14663 
  -14508   -14449   -14485   -14509   -14544   -14619   -14710   -14758 
  -14754   -14774   -14728   -14578   -14573   -14719   -14735   -14613 
  -14544   -14586   -14642   -14623   -14632   -14721   -14731   -14656 
  -14643   -14704   -14760   -14742   -14666   -14656   -14748   -14809 
  -14721   -14563   -14532   -14635   -14747   -14786   -14733   -14694 
  -14743   -14764   -14692   -14588   -14530   -14558   -14594   -14573 
  -14574   -14632   -14648   -14627   -14638   -14669   -14708   -14733 
  -14727   -14723   -14719   -14698   -14697   -14731   -14742   -14662 
  -14584   -14621   -14663   -14631   -14600   -14557   -14515   -14551 
  -14590   -14597   -14661   -14777   -14859   -14841   -14775   -14724 
  -14624   -14544   -14628   -14715   -14673   -14616   -14624   -14710 
  -14831   -14862   -14809   -14777   -14833   -14910   -14802   -14585 
  -14584   -14724   -14723   -14619   -14590   -14701   -14806   -14671 
  -14430   -14420   -14534   -14496   -14462   -14588   -14727   -14791 
  -14775   -14682   -14600   -14625   -14720   -14717   -14612   -14625 
  -14798   -14921   -14858   -14696   -14678   -14845   -14920   -14744 
  -14600   -14667   -14671   -14539   -14481   -14474   -14435   -14396 
  -14343   -14251   -14260   -14485   -14700   -14716   -14638   -14567 
  -14636   -14797   -14801   -14733   -14808   -14908   -14899   -14850 
  -14843   -14833   -14770   -14717   -14704   -14712   -14756   -14786 
  -14737   -14663   -14634   -14592   -14538   -14596   -14728   -14844 
  -14891   -14777   -14650   -14694   -14727   -14625   -14540   -14538 
  -14554   -14582   -14629   -14650   -14625   -14580   -14561   -14585 
  -14594   -14584   -14554   -14505   -14509   -14570   -14607   -14624 
  -14737   -14982   -15132   -14995   -14798   -14739   -14643   -14508 
  -14544   -14674   -14667   -14542   -14470   -14485   -14534   -14596 
  -14650   -14674   -14694   -14800   -14921   -14829   -14566   -14424 
  -14459   -14497   -14526   -14647   -14775   -14759   -14721   -14839 
  -14962   -14852   -14602   -14438   -14442   -14611   -14771   -14735 
  -14661   -14696   -14719   -14740   -14823   -14818   -14735   -14720 
  -14686   -14584   -14586   -14706   -14713   -14578   -14521   -14569 
  -14613   -14674   -14710   -14677   -14704   -14787   -14767   -14677 
  -14682   -14731   -14673   -14613   -14715   -14809   -14733   -14624 
  -14586   -14589   -14566   -14453   -14359   -14443   -14578   -14596 
  -14575   -14623   -14671   -14644   -14607   -14646   -14698   -14693 
  -14724   -14816   -14800   -14669   -14625   -14705   -14778   -14797 
  -14781   -14786   -14829   -14812   -14729   -14715   -14743   -14669 
  -14542   -14581   -14750   -14786   -14704   -14704   -14751   -14744 
  -14704   -14665   -14598   -14482   -14430   -14543   -14689   -14720 
  -14705   -14737   -14779   -14755   -14720   -14752   -14781   -14759 
  -14724   -14654   -14561   -14481   -14434   -14459   -14551   -14629 
  -14636   -14571   -14531   -14586   -14640   -14642   -14678   -14729 
  -14702   -14671   -14677   -14613   -14505   -14458   -14492   -14547 
  -14581   -14661   -14798   -14821   -14708   -14662   -14747   -14855 
  -14902   -14894   -14864   -14841   -14845   -14885   -14953   -14999 
  -14937   -14789   -14629   -14504   -14419   -14324   -14242   -14280 
  -14385   -14470   -14598   -14702   -14643   -14519   -14482   -14535 
  -14592   -14580   -14542   -14551   -14536   -14477   -14507   -14638 
  -14774   -14914   -15060   -15159   -15165   -15066   -14925   -14836 
  -14787   -14712   -14582   -14440   -14370   -14438   -14596   -14689 
  -14712   -14789   -14875   -14848   -14701   -14512   -14422   -14465 
  -14527   -14563   -14582   -14598   -14646   -14685   -14682   -14682 
  -14674   -14584   -14481   -14500   -14612   -14693   -14700   -14651 
  -14632   -14735   -14914   -15053   -15056   -14936   -14856   -14833 
  -14686   -14439   -14274   -14219   -14241   -14337   -14497   -14720 
  -14886   -14885   -14791   -14682   -14584   -14524   -14497   -14513 
  -14566   -14628   -14725   -14836   -14879   -14878   -14889   -14939 
  -15012   -15028   -14935   -14750   -14538   -14413   -14361   -14310 
  -14350   -14524   -14710   -14827   -14878   -14878   -14817   -14689 
  -14567   -14515   -14500   -14521   -14566   -14540   -14499   -14581 
  -14709   -14763   -14770   -14750   -14723   -14729   -14731   -14658 
  -14555   -14530   -14627   -14791   -14912   -14931   -14891   -14851 
  -14785   -14696   -14652   -14652   -14627   -14582   -14547   -14516 
  -14512   -14540   -14539   -14489   -14458   -14513   -14648   -14786 
  -14827   -14747   -14640   -14598   -14627   -14644   -14615   -14639 
  -14771   -14925   -14967   -14844   -14698   -14670   -14665   -14590 
  -14515   -14457   -14385   -14397   -14563   -14713   -14662   -14496 
  -14442   -14565   -14717   -14832   -14964   -15036   -14972   -14862 
  -14774   -14710   -14667   -14619   -14561   -14538   -14593   -14705 
  -14785   -14802   -14770   -14666   -14562   -14607   -14764   -14845 
  -14773   -14647   -14548   -14486   -14504   -14608   -14665   -14580 
  -14485   -14507   -14602   -14689   -14708   -14666   -14621   -14616 
  -14652   -14689   -14674   -14628   -14585   -14542   -14494   -14462 
  -14455   -14473   -14504   -14535   -14578   -14650   -14729   -14793 
  -14858   -14920   -14997   -15102   -15151   -15087   -14975   -14866 
  -14740   -14575   -14428   -14373   -14423   -14598   -14831   -14914 
  -14793   -14638   -14602   -14623   -14578   -14536   -14585   -14692 
  -14793   -14801   -14685   -14539   -14467   -14472   -14509   -14623 
  -14810   -14944   -14955   -14866   -14732   -14557   -14316   -14165 
  -14242   -14420   -14554   -14623   -14670   -14759   -14875   -14941 
  -14886   -14658   -14404   -14328   -14455   -14709   -14932   -14986 
  -14914   -14805   -14716   -14702   -14789   -14906   -14882   -14710 
  -14631   -14719   -14773   -14715   -14697   -14773   -14854   -14887 
  -14821   -14702   -14632   -14574   -14542   -14571   -14605   -14638 
  -14667   -14655   -14569   -14428   -14276   -14126   -14076   -14262 
  -14563   -14783   -14962   -15109   -15078   -14854   -14620   -14480 
  -14386   -14376   -14523   -14762   -14935   -14947   -14862   -14796 
  -14769   -14777   -14796   -14721   -14542   -14382   -14341   -14427 
  -14539   -14574   -14612   -14712   -14801   -14874   -14895   -14786 
  -14597   -14470   -14442   -14400   -14284   -14245   -14442   -14742 
  -14913   -14914   -14820   -14727   -14692   -14697   -14740   -14793 
  -14783   -14725   -14688   -14698   -14728   -14717   -14655   -14627 
  -14702   -14824   -14925   -14978   -14976   -14952   -14870   -14662 
  -14459   -14432   -14488   -14476   -14405   -14351   -14369   -14447 
  -14569   -14746   -14898   -14922   -14851   -14751   -14631   -14535 
  -14523   -14581   -14600   -14512   -14427   -14451   -14571   -14737 
  -14872   -14932   -14940   -14871   -14742   -14716   -14810   -14882 
  -14875   -14752   -14547   -14436   -14470   -14562   -14613   -14548 
  -14482   -14554   -14646   -14692   -14769   -14855   -14932   -14974 
  -14881   -14712   -14625   -14625   -14667   -14731   -14764   -14701 
  -14565   -14474   -14432   -14372   -14382   -14555   -14747   -14800 
  -14781   -14813   -14894   -14926   -14844   -14694   -14565   -14505 
  -14534   -14582   -14530   -14400   -14373   -14500   -14666   -14794 
  -14914   -15006   -15001   -14931   -14894   -14874   -14787   -14651 
  -14542   -14473   -14409   -14384   -14453   -14582   -14648   -14578 
  -14477   -14505   -14617   -14665   -14654   -14651   -14632   -14602 
  -14619   -14665   -14725   -14804   -14837   -14782   -14706   -14685 
  -14640   -14517   -14447   -14539   -14701   -14827   -14926   -15020 
  -15084   -15045   -14855   -14659   -14571   -14523   -14454   -14368 
  -14332   -14418   -14566   -14689   -14744   -14724   -14636   -14523 
  -14504   -14621   -14696   -14616   -14515   -14489   -14508   -14539 
  -14563   -14546   -14507   -14528   -14623   -14719   -14805   -14883 
  -14883   -14825   -14839   -14902   -14875   -14791   -14762   -14729 
  -14647   -14620   -14659   -14698   -14756   -14828   -14858   -14844 
  -14793   -14689   -14558   -14474   -14447   -14422   -14404   -14447 
  -14562   -14682   -14702   -14640   -14635   -14669   -14659   -14681 
  -14774   -14856   -14883   -14835   -14708   -14605   -14628   -14732 
  -14829   -14879   -14872   -14821   -14754   -14681   -14623   -14631 
  -14700   -14750   -14746   -14758   -14793   -14771   -14702   -14634 
  -14582   -14557   -14551   -14582   -14652   -14690   -14623   -14490 
  -14420   -14451   -14520   -14578   -14594   -14574   -14585   -14608 
  -14607   -14656   -14748   -14754   -14675   -14573   -14484   -14469 
  -14504   -14494   -14457   -14462   -14520   -14594   -14670   -14721 
  -14742   -14754   -14756   -14747   -14758   -14791   -14835   -14893 
  -14959   -14982   -14935   -14825   -14654   -14490   -14432   -14484 
  -14590   -14732   -14855   -14839   -14717   -14675   -14724   -14719 
  -14652   -14615   -14590   -14531   -14489   -14539   -14635   -14670 
  -14643   -14631   -14636   -14605   -14553   -14527   -14511   -14542 
  -14661   -14740   -14727   -14701   -14677   -14685   -14736   -14770 
  -14791   -14798   -14751   -14688   -14628   -14559   -14548   -14575 
  -14551   -14550   -14612   -14623   -14575   -14553   -14592   -14675 
  -14769   -14827   -14818   -14783   -14782   -14808   -14841   -14882 
  -14928   -14940   -14878   -14783   -14700   -14619   -14531   -14472 
  -14481   -14550   -14594   -14562   -14581   -14701   -14783   -14832 
  -14893   -14891   -14820   -14724   -14638   -14602   -14586   -14553 
  -14526   -14488   -14442   -14466   -14571   -14663   -14715   -14791 
  -14851   -14810   -14713   -14609   -14490   -14411   -14436   -14536 
  -14635   -14689   -14709   -14698   -14650   -14604   -14624   -14694 
  -14732   -14739   -14777   -14781   -14674   -14581   -14620   -14706 
  -14755   -14754   -14700   -14639   -14646   -14651   -14536   -14389 
  -14369   -14404   -14399   -14461   -14638   -14748   -14724   -14771 
  -14964   -15082   -15005   -14862   -14778   -14735   -14666   -14570 
  -14500   -14477   -14482   -14484   -14480   -14513   -14609   -14736 
  -14828   -14864   -14855   -14810   -14783   -14791   -14802   -14828 
  -14858   -14841   -14766   -14647   -14534   -14442   -14368   -14392 
  -14523   -14654   -14736   -14810   -14897   -14956   -14931   -14818 
  -14678   -14582   -14535   -14513   -14532   -14550   -14524   -14546 
  -14639   -14682   -14621   -14554   -14553   -14615   -14690   -14719 
  -14733   -14787   -14832   -14854   -14904   -14926   -14840   -14693 
  -14581   -14567   -14617   -14617   -14563   -14569   -14665   -14752 
  -14750   -14715   -14701   -14640   -14555   -14559   -14640   -14705 
  -14669   -14613   -14704   -14791   -14692   -14554   -14520   -14551 
  -14578   -14570   -14527   -14470   -14447   -14521   -14646   -14701 
  -14688   -14646   -14602   -14601   -14638   -14696   -14736   -14716 
  -14658   -14617   -14642   -14705   -14744   -14762   -14737   -14665 
  -14651   -14732   -14839   -14902   -14867   -14778   -14717   -14673 
  -14642   -14659   -14710   -14743   -14717   -14644   -14565   -14517 
  -14532   -14585   -14643   -14710   -14760   -14762   -14733   -14678 
  -14596   -14524   -14462   -14382   -14301   -14287   -14368   -14451 
  -14488   -14588   -14774   -14893   -14904   -14902   -14918   -14921 
  -14899   -14847   -14752   -14655   -14612   -14628   -14675   -14725 
  -14764   -14794   -14806   -14800   -14804   -14831   -14836   -14820 
  -14804   -14752   -14683   -14651   -14658   -14681   -14704   -14727 
  -14748   -14731   -14666   -14608   -14590   -14574   -14555   -14573 
  -14611   -14609   -14570   -14536   -14534   -14582   -14654   -14682 
