Origin Time       2025/03/30 10:18:00
Lat.              34.667
Long.             140.825
Depth. (km)       69
Mag.              4.9
Station Code      CHB018
Station Lat.      35.1520
Station Long.     140.3204
Station Height(m) 38
Record Time       2025/03/30 10:18:48
Sampling Freq(Hz) 100Hz
Duration Time(s)  67
Dir.              N-S
Scale Factor      7845(gal)/8223790
Max. Acc. (gal)   3.816
Last Correction   2025/03/30 10:18:48
Memo.             
[...]
    1366     1360     1356     1362     1360     1362     1372     1377 
    1364     1352     1354     1356     1354     1367     1374     1359 
    1360     1370     1359     1354     1364     1368     1358     1356 
    1367     1362     1350     1359     1366     1358     1366     1379 
    1371     1366     1366     1354     1350     1363     1364     1362 
    1372     1367     1345     1355     1372     1367     1362     1364 
    1368     1363     1350     1358     1362     1354     1367     1368 
    1356     1368     1371     1354     1358     1368     1360     1352 
    1360     1368     1364     1363     1359     1348     1352     1367 
    1372     1372     1370     1362     1351     1355     1370     1366 
    1359     1368     1367     1350     1351     1363     1354     1351 
    1375     1381     1360     1359     1363     1358     1362     1363 
    1354     1359     1362     1354     1367     1371     1358     1355 
    1360     1368     1374     1359     1351     1360     1364     1364 
    1367     1363     1354     1356     1359     1354     1364     1377 
    1363     1358     1372     1371     1355     1356     1362     1354 
    1362     1374     1364     1355     1360     1359     1355     1364 
    1367     1355     1358     1367     1362     1358     1364     1370 
    1355     1347     1364     1366     1366     1375     1362     1348 
    1359     1364     1362     1364     1364     1360     1359     1366 
    1367     1352     1350     1367     1366     1360     1374     1368 
    1347     1351     1363     1360     1367     1377     1364     1351 
    1356     1366     1360     1360     1371     1363     1355     1367 
    1362     1345     1355     1366     1363     1363     1370     1367 
    1355     1355     1371     1372     1367     1366     1359     1360 
    1359     1348     1354     1363     1364     1366     1363     1363 
    1360     1352     1355     1363     1364     1364     1363     1352 
    1356     1368     1364     1363     1371     1367     1359     1359 
    1368     1366     1348     1354     1364     1354     1364     1382 
    1356     1340     1358     1364     1368     1377     1364     1344 
    1348     1363     1358     1354     1367     1368     1354     1356 
    1370     1366     1359     1364     1368     1366     1359     1354 
    1351     1356     1363     1360     1364     1377     1359     1343 
    1356     1363     1362     1364     1364     1367     1362     1356 
    1359     1358     1356     1360     1366     1372     1371     1354 
    1344     1358     1366     1354     1359     1375     1363     1350 
    1359     1363     1360     1363     1363     1360     1359     1364 
    1366     1355     1350     1356     1359     1364     1378     1370 
    1347     1350     1355     1354     1367     1375     1364     1356 
    1364     1368     1356     1359     1368     1360     1364     1371 
    1352     1348     1363     1366     1358     1359     1372     1368 
    1354     1358     1366     1358     1354     1366     1368     1359 
    1362     1362     1355     1366     1367     1356     1366     1372 
    1348     1344     1370     1371     1354     1360     1364     1354 
    1356     1366     1366     1367     1370     1367     1360     1359 
    1356     1350     1366     1395     1391     1351     1304     1294 
    1356     1464     1494     1355     1173     1186     1421     1613 
    1493     1171     1050     1325     1678     1617     1171      938 
    1273     1800     1865     1310      715      774     1435     1954 
    1849     1379     1063     1121     1370     1559     1645     1579 
    1246      766      553      966     1885     2639     2546     1551 
     380       20      665     1460     1660     1474     1491     1865 
    2165     1907     1193      621      618      945     1104     1163 
    1525     2119     2452     2150     1237      249       90     1096 
    2323     2517     1605      629      526     1259     1892     1657 
     907      549      896     1532     2061     2339     2073     1162 
     307      402     1437     2353     2251     1345      507      507 
    1401     2288     2208     1196      284      469     1548     2268 
    1919     1231     1131     1468     1578     1321     1074     1112 
    1332     1426     1202      915     1013     1443     1732     1655 
    1387     1239     1453     1922     2091     1582      787      459 
     886     1690     2305     2381     1822      940      342      396 
     942     1444     1441     1028      788     1156     1860     2289 
    2189     1657     1016      773     1132     1711     1976     1733 
    1321     1235     1466     1516     1159      847      985     1260 
    1208      961     1013     1471     1898     1910     1566     1229 
    1188     1351     1444     1391     1285     1232     1233     1111 
     865      869     1343     1910     1958     1476     1074     1132 
    1645     2370     2825     2601     1557       37     -938     -309 
    1733     3370     3011     1086     -625     -729      696     2254 
    2569     1521      390      548     1817     2855     2889     2097 
    1183      869     1208     1691     1914     1678      993      340 
     369     1005     1499     1489     1286     1167     1032      810 
     711     1031     1756     2393     2421     1802     1024      816 
    1385     2115     2249     1536      610      440     1113     1921 
    2272     1925     1107      469      445      855     1204     1205 
    1089     1341     1927     2118     1614     1165     1406     1858 
    1674      989      689     1117     1791     2070     1900     1702 
    1398      762      301      475     1044     1548     1757     1877 
    2096     2170     1890     1355      801      491      677     1370 
    2089     2308     1907     1086      191     -417     -237     1038 
    2592     3038     2015      599      270     1301     2531     2837 
    2058      846      132      351     1165     1934     2189     1919 
    1544     1341     1194     1171     1521     1910     1715     1011 
     484      719     1610     2174     1526      132     -499      495 
    2268     3276     2925     1593       89     -502      372     1980 
    2894     2421     1296      797     1364     2344     2695     1929 
     757      356      881     1402     1240      747      602      882 
    1193     1271     1328     1674     2000     1614      642      352 
    1512     3083     3384     2050      353     -193      688     1900 
    2189     1456      662      503      778     1198     1790     2353 
    2494     2019     1008       99      118      972     1809     2115 
    1910     1463     1162     1197     1374     1345      962      418 
     129      569     1767     2868     3017     2331     1499     1121 
    1378     1765     1668     1148      703      757     1293     1717 
    1702     1426      858      105     -226      310     1679     3071 
    3253     2060      677      319     1104     2007     1972     1088 
     332      480     1458     2392     2531     2066     1471      880 
     463      406      676     1075     1356     1632     2170     2745 
    2929     2548     1657      575     -213     -341      198     1061 
    1844     2166     1696      738      282      861     1841     2155 
    1613     1156     1587     2490     2917     2538     1718     1090 
     945      831      396       39      237      969     1887     2566 
    2544     1633      488       47      372      950     1414     1574 
    1534     1579     1771     2008     2168     2057     1570      886 
     518      967     1987     2613     2263     1252      450      537 
    1175     1395      903      499      973     1929     2304     1672 
     608      -22      206     1163     2207     2617     2288     1563 
     891      778     1290     1880     1991     1603     1278     1501 
    1996     2037     1479      972      880      793      514      560 
    1129     1691     1763     1325      951     1175     1580     1606 
    1449     1447     1617     1848     1971     1834     1420      915 
     600      583      816     1329     2026     2484     2313     1482 
     364     -201      342     1399     1908     1718     1711     2404 
    2922     2326      997       99      402     1358     1791     1586 
    1331     1098      631      141      315     1179     1927     2166 
    2076     1850     1490      947      577      677      977     1320 
    1817     2322     2489     2273     2073     2060     1813     1120 
     507      622     1294     1638     1229      607      342      346 
     481      839     1304     1713     2084     2261     1983     1441 
    1197     1325     1391     1382     1587     1899     1961     1661 
    1325     1368     1777     1958     1362      418      112      700 
    1544     1826     1324      720      764     1243     1395     1034 
     820     1391     2335     2570     1737      672      434     1088 
    1772     1895     1679     1548     1621     1873     2236     2370 
    1877      918      201      168      526      795      954     1273 
    1752     1941     1502      904      897     1436     1836     1686 
    1273     1267     1891     2560     2575     1760      611      -64 
      97      742     1325     1713     1996     1984     1576     1204 
    1277     1601     1593     1066      492      382      891     1738 
    2281     2047     1277      734      896     1502     1953     1827 
    1228      727      841     1609     2469     2633     1860      695 
     124      579     1368     1757     1831     1875     1871     1668 
    1254      800      452      383      820     1622     2235     2308 
    2043     1815     1696     1553     1278      872      438       78 
      52      812     2146     2932     2392     1136      392      534 
    1125     1738     2054     1950     1599     1290     1204     1208 
    1039      737      691     1148     1772     2069     1976     1668 
    1435     1583     1961     1937     1132      207      191      949 
    1641     1890     1652     1270     1178     1237     1306     1537 
    1848     1989     1854     1480      958      514      513      935 
    1333     1431     1390     1532     1780     1748     1460     1235 
    1105      988     1050     1545     2288     2562     2012     1173 
     710      733      861      851      990     1429     1865     1975 
    1621     1094      865      958     1247     1728     2250     2569 
    2504     1971     1082      233     -122       70      472      795 
    1043     1354     1800     2297     2442     1999     1358      908 
     719      743      864     1220     1981     2702     2673     1831 
     981      800     1012     1038      889     1058     1745     2390 
    2236     1239      216       59      742     1471     1680     1507 
    1501     1683     1472      866      502      772     1466     1895 
    1717     1402     1539     2205     2806     2524     1386      332 
     201      943     1723     1795     1278      901      984     1113 
    1013     1007     1324     1667     1644     1335     1217     1474 
    1745     1717     1520     1386     1381     1513     1679     1645 
    1429     1236     1089      954      949     1142     1323     1339 
    1337     1372     1262     1028     1020     1409     1814     1705 
    1147      735      803     1151     1513     1821     2131     2343 
    2126     1537     1102     1075     1321     1539     1518     1320 
     982      677      723     1120     1618     1825     1451      882 
     733     1082     1545     1680     1431     1209     1382     1802 
    1962     1564      849      453      781     1517     2106     2305 
    2137     1841     1694     1656     1505     1223     1035     1057 
    1123     1058      927      951     1174     1394     1432     1227 
    1017     1277     1985     2407     1939      996      540      970 
    1799     2139     1636      773      283      606     1443     1844 
    1404      770      645     1078     1663     2037     2178     2060 
    1599     1081      900     1196     1706     1814     1386     1009 
    1036     1262     1355     1179      888      788     1105     1679 
    2046     2016     1729     1370     1233     1381     1332      801 
     313      633     1733     2604     2430     1547      909     1081 
    1804     2292     2089     1617     1431     1448     1374     1158 
     878      683      652      711      810     1007     1235     1212 
     924      803     1105     1597     1892     1879     1790     1915 
    2157     2002     1229      376      101      449      976     1372 
    1740     2081     2146     1935     1686     1486     1271     1027 
     927     1204     1726     1944     1582     1113     1081     1363 
    1406      974      517      677     1533     2424     2641     2195 
    1555      951      454      280      557     1082     1501     1571 
    1379     1278     1374     1405     1227      930      710      870 
    1351     1595     1296      665      249      475     1020     1242 
     985      661      741     1179     1641     1858     1683     1383 
    1383     1725     2166     2416     2403     2465     2876     3365 
    3473     3095     2407     1798     1691     2119     2886     3726 
    4240     4338     4353     4432     4232     3372     2027      772 
     -87     -653    -1024    -1024     -395      693     1422     1069 
    -143    -1487    -2404    -2639    -2462    -2320    -2320    -2326 
   -2077    -1482     -862     -607     -696     -695     -284      371 
     893     1165     1433     1883     2370     2629     2539     2153 
    1742     1767     2478     3634     4722     5310     5302     5003 
    4754     4525     4121     3601     3003     2180     1417     1364 
    2168     3246     3847     3781     3279     2332      962     -438 
   -1296    -1059      143     1366     1968     2061     1853     1277 
     218    -1065    -2010    -2246    -1825    -1111     -488       -2 
     527     1134     1574     1524      893      -90    -1058    -1676 
   -1750    -1124      240     1877     3061     3515     3532     3600 
    3936     4287     4287     3843     3057     2108     1228      745 
     901     1432     1795     1868     1860     1837     1794     1856 
    2037     1976     1337      414      -78      213      953     1529 
    1644     1552     1634     1827     1810     1544     1410     1710 
    2085     2042     1709     1421     1304     1404     1630     1732 
    1443      727      -76     -567     -675     -565     -261      342 
    1170     1885     2107     1796     1287      772      380      468 
    1185     2273     3222     3466     2810     1648      726      589 
    1088     1668     1946     1854     1590     1351     1074      843 
    1059     1726     2285     2338     1900     1179      437      -31 
      12      499     1070     1431     1567     1632     1749     2042 
    2493     2771     2732     2636     2636     2613     2307     1593 
     703      -56     -506     -526     -121      521     1108     1516 
    1798     1825     1424      826      459      463      652      738 
     649      603      774     1113     1401     1331      822      222 
     -31      288     1190     2335     3235     3784     4098     4191 
    4106     3923     3601     3051     2265     1399      615       -9 
    -515    -1032    -1583    -1884    -1570     -697      240      811 
     922      838      835      874      939     1192     1566     1744 
    1582     1289     1247     1730     2659     3623     4226     4488 
    4707     4866     4612     3852     2844     1787      668     -599 
   -1809    -2307    -1605     -126     1155     1779     2020     2281 
    2582     2627     2269     1622      777      -39     -465     -391 
     147     1043     2034     2841     3275     3339     3230     3110 
    2925     2378     1408      390     -353     -699     -688     -623 
    -780    -1200    -1711    -1993    -1892    -1422     -494      899 
    2446     3607     4016     3825     3439     3082     2727     2243 
    1611     1135     1165     1621     2124     2413     2413     2262 
    2142     1971     1595     1116      807      787      827      611 
     193      -52      176      864     1821     2863     3740     4283 
    4401     3935     2830     1246     -430    -1547    -1626     -830 
     168      891     1486     2227     2945     3249     2930     2127 
    1163      252     -473     -877    -1009     -911     -214     1341 
    3181     4325     4291     3366     2208     1274      614      102 
    -386     -808     -893     -529        8      391      552      729 
    1192     1740     1921     1796     1953     2693     3603     3970 
    3508     2578     1771     1615     2381     3626     4444     4291 
    3184     1549       13     -993    -1382    -1364    -1155     -708 
     -49      622     1115     1239     1053      911      980     1098 
    1048      818      652      665      745      858     1113     1634 
    2316     2677     2419     1853     1421     1335     1548     1710 
    1601     1510     1792     2353     2799     2911     2776     2546 
    2346     2242     1985     1335      461     -344     -742     -356 
     687     1759     2335     2228     1629     1003      675      627 
     764     1202     2018     2928     3497     3456     2868     2160 
    1694     1413      969       72    -1166    -2172    -2462    -2135 
   -1543     -886      -87     1108     2583     3758     4228     4067 
    3472     2606     1804     1482     1694     1989     1853     1263 
     711      603      865     1171     1270     1139      961      877 
     839      834     1009     1337     1588     1688     1783     1935 
    1996     1884     1782     1950     2320     2404     2000     1525 
    1463     1872     2315     2349     2014     1709     1684     1715 
    1424      773      -76     -940    -1552    -1772    -1516     -630 
     769     2185     3125     3407     3180     2671     1917     1035 
     487      521      797     1011     1275     1699     2092     2141 
    1710     1070      618      387      252      237      411      828 
    1513     2326     2978     3172     2829     2330     2187     2315 
    2211     1734     1197     1016     1287     1637     1821     1956 
    2080     2062     1846     1578     1433     1212      535     -521 
   -1421    -1744    -1451     -766       -5      734     1664     2835 
    3859     4291     4047     3385     2594     1810     1090      467 
      44      -35      175      507      942     1436     1737     1647 
    1339     1225     1494     1987     2431     2523     2118     1395 
     733      383      222       99      255      897     1728     2193 
    2107     1923     2154     2683     2990     2781     2201     1556 
    1023      631      472      654      940      969      791      583 
     369      178       71      189      580     1086     1594     2064 
    2420     2617     2640     2610     2648     2558     2056     1150 
     153     -499     -584     -247      207      575      827     1073 
    1413     1829     2235     2527     2673     2795     2945     2984 
    2825     2554     2396     2466     2447     1895      919       43 
