Origin Time       2025/03/30 10:18:00
Lat.              34.667
Long.             140.825
Depth. (km)       69
Mag.              4.9
Station Code      CHB012
Station Lat.      35.5721
Station Long.     140.3436
Station Height(m) 60
Record Time       2025/03/30 10:19:06
Sampling Freq(Hz) 100Hz
Duration Time(s)  60
Dir.              U-D
Scale Factor      7845(gal)/8223790
Max. Acc. (gal)   0.981
Last Correction   2025/03/30 10:19:05
Memo.             
   15323    15392    15398    15256    14982    14766    14778    14937 
   15056    15105    15179    15304    15388    15323    15121    14917 
   14827    14823    14831    14879    15040    15310    15570    15615 
   15363    14998    14777    14793    14936    15036    15051    15093 
   15255    15435    15417    15148    14854    14744    14778    14818 
   14839    14913    15090    15322    15510    15581    15525    15322 
   14994    14679    14527    14561    14719    14928    15148    15369 
   15572    15673    15574    15296    14997    14787    14628    14511 
   14535    14748    15053    15329    15492    15502    15395    15246 
   15099    14997    14975    15013    15053    15063    15045    15036 
   15059    15091    15082    15047    15053    15101    15128    15151 
   15186    15161    15064    14975    14931    14936    15005    15120 
   15234    15317    15346    15314    15233    15125    15024    14970 
   14963    14953    14937    14956    14999    15026    15032    15020 
   14991    14976    15001    15079    15214    15352    15421    15410 
   15342    15207    14999    14783    14648    14646    14773    14956 
   15115    15252    15368    15408    15350    15228    15059    14887 
   14806    14868    15029    15198    15288    15245    15102    14978 
   14894    14798    14774    14914    15111    15252    15356    15403 
   15325    15137    14953    14882    14936    15034    15110    15152 
   15178    15210    15217    15130    14982    14866    14848    14939 
   15068    15164    15228    15257    15250    15229    15137    14929 
   14747    14763    14945    15120    15207    15244    15263    15245 
   15171    15059    14974    14986    15107    15240    15299    15314 
   15334    15329    15249    15095    14912    14736    14607    14602 
   14801    15098    15279    15296    15277    15280    15245    15125 
   14955    14804    14729    14783    14960    15157    15280    15300 
   15244    15159    15088    15032    14937    14810    14782    14937 
   15157    15288    15334    15376    15429    15421    15306    15128 
   14943    14804    14777    14848    14935    14998    15034    15052 
   15095    15163    15210    15203    15134    15047    15033    15094 
   15164    15225    15236    15147    15009    14916    14871    14828 
   14771    14746    14832    15061    15336    15502    15508    15385 
   15203    15051    14974    14976    15070    15209    15292    15265 
   15153    15024    14943    14913    14872    14821    14831    14947 
   15129    15302    15387    15350    15238    15107    14989    14904 
   14874    14905    14982    15076    15195    15330    15385    15248 
   14971    14759    14713    14775    14894    15059    15242    15414 
   15516    15512    15444    15321    15093    14836    14729    14816 
   14991    15122    15129    15087    15132    15245    15295    15215 
   15059    14926    14859    14844    14917    15076    15240    15318 
   15264    15118    14991    14932    14904    14893    14940    15056 
   15194    15310    15352    15302    15201    15049    14844    14667 
   14638    14786    15045    15275    15365    15345    15272    15133 
   14959    14862    14891    14993    15106    15217    15309    15348 
   15317    15215    15097    15039    15025    14967    14875    14856 
   14941    15082    15207    15269    15280    15233    15113    14982 
   14908    14871    14851    14867    14933    15045    15152    15203 
   15217    15210    15207    15250    15268    15157    14983    14879 
   14875    14902    14914    14971    15147    15395    15611    15696 
   15577    15257    14856    14508    14308    14332    14608    15025 
   15395    15638    15799    15819    15566    15101    14652    14400 
   14397    14577    14805    15026    15260    15473    15542    15411 
   15179    14968    14823    14754    14763    14874    15106    15373 
   15514    15492    15387    15237    15028    14837    14794    14894 
   15044    15184    15257    15213    15098    14995    14891    14779 
   14771    14914    15109    15238    15292    15340    15399    15391 
   15256    15036    14791    14631    14692    14931    15142    15242 
   15287    15329    15376    15384    15318    15195    15048    14933 
   14897    14916    14936    14949    14967    14976    14991    15084 
   15242    15327    15276    15172    15102    15074    15020    14916 
   14863    14926    15021    15107    15228    15321    15286    15148 
   15009    14947    14991    15078    15126    15114    15043    14937 
   14864    14887    14975    15022    15036    15137    15331    15492 
   15506    15367    15178    15020    14878    14764    14747    14818 
   14937    15087    15206    15209    15130    15080    15082    15076 
   15033    14959    14891    14906    15028    15178    15246    15190 
   15070    14986    14951    14956    15043    15205    15349    15402 
   15369    15310    15226    15084    14908    14767    14720    14782 
   14908    15060    15255    15439    15503    15402    15163    14874 
   14683    14690    14851    15079    15309    15472    15520    15419 
   15192    14964    14773    14621    14620    14764    14898    15025 
   15213    15353    15375    15364    15334    15222    15068    14966 
   14931    14928    14949    15018    15133    15238    15286    15248 
   15078    14809    14627    14659    14854    15097    15313    15437 
   15431    15361    15303    15219    15066    14939    14929    14987 
   15039    15094    15191    15327    15417    15344    15125    14908 
   14793    14760    14766    14813    14947    15147    15275    15252 
   15153    15097    15121    15137    15041    14875    14744    14704 
   14787    14990    15240    15439    15545    15534    15385    15167 
   14986    14866    14777    14736    14818    15049    15340    15520 
   15485    15268    15010    14864    14848    14860    14856    14898 
   15030    15217    15375    15450    15430    15330    15176    14975 
   14770    14631    14638    14828    15102    15290    15350    15364 
   15350    15272    15152    15033    14901    14763    14700    14779 
   14974    15187    15348    15419    15381    15240    15047    14875 
   14767    14740    14824    15014    15230    15391    15441    15400 
   15346    15295    15205    15060    14912    14827    14823    14851 
   14868    14897    15009    15206    15372    15391    15264    15084 
   14966    14955    14972    14920    14864    14953    15188    15426 
   15529    15462    15314    15149    14926    14674    14548    14617 
   14814    15041    15248    15445    15589    15552    15311    15002 
   14771    14679    14702    14802    14962    15145    15302    15373 
   15340    15238    15109    14962    14845    14823    14883    14986 
   15138    15342    15483    15439    15261    15094    14989    14912 
   14860    14848    14847    14864    14932    15021    15120    15249 
   15367    15403    15342    15196    15006    14855    14816    14889 
   14999    15053    15055    15106    15229    15314    15310    15267 
   15207    15118    14983    14850    14801    14855    14987    15151 
   15282    15354    15387    15349    15188    14920    14650    14482 
   14497    14720    15090    15460    15676    15674    15525    15313 
   15098    14937    14823    14705    14640    14725    14958    15250 
   15522    15695    15666    15404    15048    14770    14594    14516 
   14602    14859    15134    15291    15364    15444    15489    15380 
   15087    14715    14427    14318    14353    14524    14879    15333 
   15697    15869    15827    15595    15275    14932    14604    14436 
   14553    14868    15219    15503    15653    15647    15519    15309 
   15030    14756    14616    14665    14852    15106    15309    15373 
   15377    15385    15279    15001    14706    14553    14586    14764 
   14958    15088    15190    15260    15269    15234    15187    15179 
   15213    15232    15223    15234    15238    15147    14947    14774 
   14758    14878    15021    15156    15299    15381    15331    15180 
   14989    14820    14723    14708    14794    14978    15179    15313 
   15340    15282    15214    15161    15059    14955    14974    15098 
   15252    15414    15516    15538    15535    15468    15295    15097 
   14939    14810    14696    14624    14648    14773    14939    15086 
   15167    15155    15083    14990    14863    14752    14758    14887 
   15105    15342    15476    15453    15317    15105    14898    14774 
   14709    14688    14742    14871    15016    15138    15241    15315 
   15342    15292    15144    14959    14836    14814    14889    15030 
   15178    15292    15400    15510    15549    15457    15269    15049 
   14831    14698    14752    14958    15182    15358    15476    15498 
   15419    15280    15095    14912    14814    14818    14878    14975 
   15084    15167    15244    15314    15303    15159    14905    14663 
   14585    14708    14935    15151    15265    15275    15259    15217 
   15080    14904    14801    14789    14845    14945    15053    15180 
   15298    15300    15169    15017    14936    14924    14953    15025 
   15121    15225    15321    15360    15315    15207    15063    14920 
   14845    14871    14991    15187    15404    15546    15516    15275 
   14932    14696    14682    14866    15142    15371    15456    15404 
   15295    15172    15009    14837    14752    14791    14955    15198 
   15418    15543    15550    15421    15165    14837    14544    14419 
   14553    14910    15323    15604    15680    15568    15321    15009 
   14706    14485    14428    14571    14843    15115    15309    15411 
   15433    15367    15213    15003    14790    14628    14553    14621 
   14894    15287    15616    15765    15687    15394    14997    14643 
   14428    14388    14531    14837    15222    15564    15758    15769 
   15642    15446    15175    14845    14584    14524    14720    15122 
   15561    15824    15792    15473    15007    14594    14338    14216 
   14222    14361    14593    14914    15371    15857    16112    16005 
   15638    15210    14879    14671    14551    14547    14696    14976 
   15283    15483    15570    15607    15561    15398    15161    14932 
   14789    14775    14850    14933    14991    15025    15043    15080 
   15134    15105    14993    14901    14836    14823    14936    15120 
   15260    15345    15356    15264    15137    15044    14991    14975 
   14974    14987    15052    15129    15155    15118    15036    14959 
   14951    14995    15040    15091    15201    15364    15473    15429 
   15286    15156    15075    15018    14937    14833    14796    14874 
   15014    15179    15345    15439    15412    15264    15026    14801 
   14681    14654    14717    14901    15167    15408    15514    15430 
   15210    14979    14813    14716    14697    14786    14994    15259 
   15464    15554    15552    15457    15248    14958    14693    14574 
   14635    14790    14971    15192    15427    15561    15519    15353 
   15169    15013    14864    14739    14723    14883    15133    15311 
   15364    15356    15311    15206    15064    14964    14940    14924 
   14867    14827    14847    14894    14953    15039    15129    15215 
   15292    15279    15136    14951    14829    14804    14845    14916 
   15024    15180    15309    15296    15148    14986    14883    14844 
   14913    15048    15147    15238    15353    15412    15417    15411 
   15338    15167    14987    14875    14827    14825    14868    14928 
   14968    14990    15039    15133    15236    15303    15303    15230 
   15115    14983    14825    14662    14577    14654    14882    15188 
   15492    15693    15703    15553    15345    15160    15029    14949 
   14901    14852    14790    14777    14877    15053    15210    15307 
   15371    15418    15400    15252    15014    14824    14781    14882 
   15037    15126    15132    15145    15175    15129    15009    14906 
   14866    14899    14995    15107    15211    15325    15427    15454 
   15358    15202    15121    15151    15171    15066    14870    14706 
   14659    14748    14926    15136    15346    15489    15442    15188 
   14889    14723    14737    14860    14976    15045    15099    15149 
   15188    15192    15121    14995    14897    14847    14821    14856 
   15012    15248    15473    15611    15565    15340    15091    14918 
   14787    14696    14693    14775    14916    15130    15392    15601 
   15658    15511    15217    14931    14758    14702    14763    14933 
   15159    15375    15520    15547    15453    15280    15084    14893 
   14719    14601    14602    14750    14975    15168    15284    15346 
   15356    15286    15136    14945    14812    14828    14953    15061 
   15129    15213    15296    15295    15188    15063    15001    14971 
   14935    14889    14832    14798    14848    14970    15110    15252 
   15356    15364    15283    15168    15080    15074    15144    15209 
   15180    15057    14936    14893    14906    14916    14925    15010 
   15214    15456    15599    15573    15417    15186    14943    14778 
   14725    14725    14764    14871    15002    15128    15275    15408 
   15439    15318    15036    14700    14490    14467    14585    14816 
   15155    15542    15834    15898    15716    15342    14863    14430 
   14212    14307    14700    15226    15647    15824    15739    15456 
   15125    14904    14833    14855    14898    14935    14978    15057 
   15155    15213    15223    15219    15195    15122    15021    14979 
   15025    15098    15160    15202    15188    15094    14958    14851 
   14816    14829    14844    14856    14893    14948    15006    15088 
   15187    15275    15358    15404    15360    15245    15109    14980 
   14916    14966    15093    15209    15291    15377    15472    15531 
   15504    15365    15142    14866    14557    14335    14362    14652 
   15049    15391    15597    15641    15525    15292    15003    14748 
   14600    14517    14451    14451    14569    14791    15064    15302 
   15469    15576    15618    15607    15574    15535    15491    15423 
   15279    15063    14859    14724    14656    14662    14740    14856 
   14970    15083    15203    15265    15183    14955    14688    14530 
   14559    14729    14959    15179    15356    15480    15533    15514 
   15489    15525    15593    15607    15480    15218    14929    14717 
   14616    14629    14756    14918    14990    14925    14833    14870 
   15072    15306    15399    15319    15141    14963    14856    14839 
   14872    14898    14890    14898    14971    15090    15242    15427 
   15569    15588    15493    15336    15142    14936    14760    14634 
   14562    14582    14693    14836    14956    15018    15056    15149 
   15309    15484    15628    15680    15580    15345    15033    14724 
   14534    14497    14561    14725    15025    15381    15655    15786 
   15784    15657    15445    15199    14947    14748    14702    14827 
   15021    15174    15261    15300    15303    15268    15172    15005 
   14837    14758    14755    14789    14872    15025    15183    15267 
   15255    15184    15080    14960    14867    14844    14902    15024 
   15165    15264    15294    15282    15259    15252    15260    15222 
   15107    14971    14864    14812    14847    14940    15010    15052 
   15120    15207    15263    15286    15317    15350    15330    15213 
   14999    14771    14628    14617    14716    14850    14963    15080 
   15195    15223    15164    15118    15126    15136    15113    15074 
   15039    15009    14974    14949    14959    14955    14891    14829 
   14837    14937    15149    15419    15597    15604    15460    15201 
   14883    14613    14486    14544    14725    14932    15161    15442 
   15697    15807    15743    15572    15358    15155    14987    14855 
   14804    14898    15122    15376    15537    15541    15449    15340 
   15194    14989    14806    14731    14724    14709    14727    14848 
   15022    15174    15291    15357    15341    15272    15210    15199 
   15217    15187    15088    14937    14760    14607    14489    14415 
   14455    14665    14979    15284    15503    15584    15529    15353 
   15082    14825    14700    14706    14801    14941    15095    15242 
   15360    15410    15398    15350    15261    15122    14962    14841 
   14808    14866    14995    15179    15345    15403    15331    15192 
   15057    14951    14898    14939    15039    15133    15195    15199 
   15105    14931    14758    14667    14689    14813    15021    15287 
   15543    15668    15569    15302    15006    14794    14704    14742 
   14878    15030    15149    15246    15344    15452    15541    15530 
   15375    15137    14913    14756    14696    14736    14841    14972 
   15114    15245    15349    15398    15344    15178    14953    14727 
   14570    14580    14747    14932    15036    15090    15151    15225 
   15299    15356    15336    15206    15044    14959    14982    15082 
   15217    15357    15472    15523    15484    15356    15167    14956 
   14759    14597    14480    14411    14427    14551    14748    14958 
   15099    15147    15174    15256    15396    15549    15649    15664 
   15603    15471    15284    15099    14959    14870    14824    14813 
   14825    14860    14926    15002    15076    15161    15215    15195 
   15152    15140    15121    15068    14994    14922    14891    14924 
   14995    15111    15263    15361    15330    15190    15020    14926 
   14951    15028    15110    15184    15232    15222    15145    15052 
   14997    14985    15009    15047    15044    15003    14986    15017 
   15063    15074    15039    15007    15016    15030    15047    15090 
   15151    15209    15265    15304    15294    15232    15138    15014 
   14889    14818    14824    14883    14993    15132    15257    15345 
   15368    15286    15120    14944    14828    14800    14831    14874 
   14920    14972    15005    14989    14914    14835    14856    15016 
   15240    15461    15651    15785    15809    15682    15430    15140 
   14868    14624    14431    14370    14505    14779    15060    15279 
   15417    15456    15404    15296    15178    15086    15047    15061 
   15091    15118    15169    15234    15271    15271    15242    15215 
   15205    15186    15144    15094    15029    14928    14835    14818 
   14850    14871    14910    14990    15072    15117    15129    15144 
   15163    15167    15176    15214    15264    15280    15232    15093 
   14879    14683    14582    14567    14621    14763    14980    15195 
   15336    15417    15493    15564    15566    15477    15331    15179 
   15047    14945    14890    14854    14785    14683    14607    14585 
   14628    14751    14918    15057    15157    15279    15415    15492 
   15477    15408    15331    15236    15087    14912    14796    14805 
   14948    15171    15395    15564    15619    15525    15334    15152 
   15039    14975    14939    14963    15088    15253    15364    15376 
   15295    15124    14886    14677    14581    14601    14729    14967 
   15244    15441    15477    15353    15098    14773    14476    14289 
   14260    14416    14732    15118    15461    15658    15665    15545 
