Origin Time       2025/03/30 10:18:00
Lat.              34.667
Long.             140.825
Depth. (km)       69
Mag.              4.9
Station Code      CHB011
Station Lat.      35.5877
Station Long.     140.4971
Station Height(m) 2
Record Time       2025/03/30 10:19:05
Sampling Freq(Hz) 100Hz
Duration Time(s)  60
Dir.              N-S
Scale Factor      7845(gal)/8223790
Max. Acc. (gal)   1.335
Last Correction   2025/03/30 10:19:04
Memo.             
[...]
   -7118    -7157    -7130    -7080    -7092    -7123    -7106    -7099 
   -7136    -7138    -7121    -7157    -7173    -7107    -7088    -7167 
   -7190    -7113    -7076    -7118    -7138    -7110    -7113    -7132 
   -7084    -7057    -7155    -7223    -7144    -7088    -7111    -7094 
   -7090    -7150    -7152    -7101    -7109    -7128    -7103    -7111 
   -7145    -7133    -7086    -7065    -7092    -7099    -7074    -7111 
   -7159    -7118    -7084    -7111    -7113    -7083    -7095    -7144 
   -7144    -7110    -7106    -7092    -7056    -7048    -7079    -7118 
   -7115    -7092    -7119    -7142    -7123    -7125    -7125    -7119 
   -7153    -7172    -7155    -7156    -7167    -7168    -7163    -7150 
   -7153    -7171    -7191    -7184    -7133    -7091    -7076    -7076 
   -7125    -7190    -7204    -7183    -7168    -7186    -7199    -7184 
   -7187    -7190    -7145    -7099    -7086    -7094    -7117    -7140 
   -7168    -7195    -7157    -7048    -6967    -6979    -7048    -7103 
   -7113    -7091    -7060    -7034    -7037    -7078    -7095    -7068 
   -7060    -7074    -7065    -7056    -7072    -7109    -7140    -7152 
   -7167    -7180    -7153    -7118    -7136    -7188    -7183    -7103 
   -7064    -7088    -7105    -7119    -7140    -7126    -7078    -7030 
   -7034    -7101    -7148    -7122    -7079    -7074    -7084    -7122 
   -7192    -7200    -7132    -7092    -7105    -7110    -7105    -7129 
   -7176    -7187    -7163    -7144    -7132    -7141    -7164    -7182 
   -7183    -7150    -7125    -7136    -7136    -7125    -7138    -7144 
   -7148    -7165    -7156    -7113    -7101    -7145    -7163    -7122 
   -7098    -7106    -7103    -7090    -7090    -7125    -7176    -7167 
   -7106    -7086    -7102    -7110    -7115    -7106    -7079    -7053 
   -7021    -7013    -7038    -7052    -7059    -7084    -7103    -7080 
   -7032    -7038    -7122    -7200    -7248    -7264    -7213    -7137 
   -7091    -7063    -7053    -7074    -7106    -7121    -7114    -7111 
   -7103    -7098    -7136    -7190    -7202    -7175    -7145    -7122 
   -7091    -7053    -7030    -7051    -7113    -7194    -7273    -7300 
   -7264    -7207    -7160    -7142    -7155    -7149    -7094    -7025 
   -7010    -7072    -7130    -7142    -7157    -7182    -7198    -7202 
   -7160    -7071    -7010    -7041    -7114    -7136    -7123    -7156 
   -7187    -7132    -7033    -6993    -7037    -7103    -7141    -7148 
   -7138    -7123    -7105    -7094    -7096    -7106    -7138    -7169 
   -7146    -7076    -7037    -7044    -7042    -7061    -7138    -7206 
   -7226    -7245    -7269    -7257    -7204    -7157    -7101    -7036 
   -7029    -7075    -7102    -7107    -7132    -7156    -7142    -7125 
   -7137    -7132    -7090    -7071    -7052    -6998    -6993    -7024 
   -7029    -7063    -7168    -7280    -7302    -7229    -7173    -7163 
   -7140    -7095    -7021    -6994    -7067    -7130    -7144    -7163 
   -7171    -7121    -7018    -6957    -6998    -7049    -7064    -7113 
   -7187    -7198    -7148    -7103    -7094    -7095    -7113    -7172 
   -7206    -7176    -7173    -7217    -7229    -7187    -7126    -7095 
   -7102    -7114    -7136    -7144    -7098    -7036    -7022    -7064 
   -7129    -7175    -7161    -7092    -7055    -7117    -7221    -7240 
   -7146    -7098    -7161    -7198    -7163    -7137    -7115    -7146 
   -7257    -7308    -7233    -7126    -7074    -7052    -7015    -7006 
   -7067    -7107    -7064    -7033    -7099    -7171    -7126    -6998 
   -6922    -6964    -7063    -7146    -7167    -7105    -7060    -7110 
   -7172    -7160    -7123    -7129    -7142    -7121    -7086    -7076 
   -7117    -7168    -7195    -7227    -7240    -7194    -7126    -7067 
   -7032    -7036    -7052    -7069    -7096    -7111    -7090    -7074 
   -7106    -7146    -7145    -7095    -6998    -6887    -6836    -6890 
   -7024    -7196    -7357    -7412    -7364    -7342    -7357    -7298 
   -7210    -7215    -7207    -7079    -6988    -7083    -7264    -7365 
   -7352    -7318    -7307    -7227    -7032    -6864    -6853    -6928 
   -7005    -7074    -7096    -7087    -7063    -7018    -7018    -7045 
   -6994    -6882    -6849    -6928    -6994    -6987    -6963    -7002 
   -7122    -7229    -7291    -7357    -7366    -7252    -7106    -7040 
   -7047    -7068    -7133    -7280    -7418    -7457    -7407    -7281 
   -7107    -7006    -7056    -7153    -7184    -7153    -7107    -7072 
   -7021    -6967    -6983    -7075    -7157    -7173    -7129    -7068 
   -7017    -6988    -7015    -7084    -7111    -7094    -7137    -7233 
   -7244    -7171    -7169    -7238    -7229    -7134    -7102    -7176 
   -7237    -7207    -7141    -7107    -7119    -7152    -7144    -7078 
   -6974    -6925    -7015    -7146    -7177    -7149    -7130    -7098 
   -7038    -7007    -7045    -7083    -7048    -6998    -6990    -7005 
   -7053    -7126    -7173    -7206    -7233    -7215    -7164    -7115 
   -7071    -7060    -7142    -7237    -7249    -7254    -7319    -7356 
   -7291    -7192    -7132    -7087    -7065    -7099    -7152    -7179 
   -7211    -7218    -7130    -7025    -7009    -7024    -7002    -6993 
   -7003    -6963    -6893    -6924    -7059    -7153    -7155    -7140 
   -7167    -7202    -7179    -7130    -7117    -7142    -7203    -7258 
   -7257    -7211    -7145    -7083    -7086    -7163    -7230    -7190 
   -7068    -6978    -6966    -7026    -7133    -7202    -7184    -7117 
   -7052    -7025    -7024    -7001    -6975    -6997    -7056    -7113 
   -7156    -7195    -7223    -7214    -7148    -7074    -7049    -7047 
   -7015    -6990    -7030    -7125    -7223    -7285    -7288    -7257 
   -7233    -7215    -7188    -7167    -7176    -7211    -7219    -7155 
   -7061    -7032    -7074    -7129    -7165    -7161    -7074    -6955 
   -6959    -7096    -7195    -7175    -7132    -7169    -7213    -7153 
   -7068    -7060    -7083    -7084    -7064    -7045    -7029    -7028 
   -7087    -7161    -7171    -7122    -7071    -7110    -7260    -7368 
   -7335    -7209    -7059    -6948    -6956    -7056    -7121    -7129 
   -7160    -7211    -7253    -7284    -7252    -7096    -6930    -6921 
   -7017    -7103    -7169    -7171    -7103    -7095    -7161    -7194 
   -7159    -7079    -7042    -7110    -7177    -7155    -7110    -7111 
   -7115    -7099    -7125    -7194    -7222    -7187    -7152    -7177 
   -7223    -7179    -7083    -7052    -7042    -6999    -6986    -7021 
   -7067    -7103    -7122    -7126    -7150    -7157    -7117    -7082 
   -7061    -7064    -7133    -7182    -7144    -7105    -7102    -7117 
   -7123    -7110    -7138    -7198    -7194    -7117    -7030    -6995 
   -7005    -7014    -7045    -7098    -7107    -7084    -7106    -7146 
   -7088    -6988    -6993    -7111    -7250    -7310    -7281    -7241 
   -7206    -7188    -7242    -7325    -7310    -7146    -6971    -6937 
   -7006    -7055    -7075    -7142    -7218    -7215    -7159    -7095 
   -7041    -7041    -7084    -7137    -7155    -7117    -7098    -7167 
   -7269    -7311    -7272    -7203    -7150    -7140    -7148    -7141 
   -7148    -7186    -7198    -7186    -7167    -7113    -7055    -7063 
   -7134    -7163    -7065    -6951    -6922    -6909    -6920    -7020 
   -7095    -7053    -6953    -6891    -6903    -6951    -6966    -6937 
   -6928    -6982    -7080    -7218    -7358    -7430    -7416    -7357 
   -7334    -7330    -7254    -7194    -7245    -7275    -7196    -7114 
   -7133    -7252    -7338    -7298    -7211    -7150    -7071    -6983 
   -6994    -7078    -7114    -7099    -7051    -6959    -6899    -6941 
   -6995    -6949    -6916    -7020    -7177    -7292    -7330    -7271 
   -7169    -7099    -7109    -7190    -7211    -7076    -6937    -7033 
   -7291    -7375    -7223    -7098    -7121    -7171    -7157    -7103 
   -7009    -6889    -6891    -7051    -7173    -7155    -7109    -7134 
   -7172    -7172    -7188    -7150    -7006    -6963    -7071    -7082 
   -6974    -6914    -6912    -6995    -7152    -7159    -7044    -7078 
   -7182    -7145    -7083    -7138    -7204    -7144    -7051    -7110 
   -7252    -7256    -7188    -7241    -7322    -7341    -7416    -7465 
   -7306    -7121    -7079    -7042    -6940    -6906    -6979    -7022 
   -7001    -7013    -7037    -7025    -7084    -7230    -7280    -7229 
   -7217    -7227    -7206    -7167    -7145    -7187    -7211    -7148 
   -7137    -7219    -7298    -7354    -7284    -7069    -6952    -7010 
   -7069    -7086    -7090    -7009    -6880    -6875    -6988    -7088 
   -7130    -7133    -7094    -7021    -6982    -7020    -7057    -7061 
   -7114    -7196    -7242    -7290    -7315    -7222    -7086    -7025 
   -6994    -6959    -6988    -7086    -7163    -7184    -7191    -7200 
   -7196    -7190    -7161    -7095    -7042    -7030    -7036    -7055 
   -7132    -7230    -7245    -7215    -7195    -7106    -6986    -6978 
   -7015    -6999    -6984    -7028    -7080    -7105    -7163    -7290 
   -7398    -7384    -7252    -7129    -7109    -7126    -7088    -7056 
   -7128    -7227    -7244    -7210    -7241    -7277    -7190    -7103 
   -7123    -7153    -7167    -7159    -7088    -6995    -6907    -6882 
   -7015    -7211    -7303    -7294    -7227    -7109    -7002    -6998 
   -7042    -7001    -6939    -7005    -7087    -7055    -6984    -6979 
   -7052    -7144    -7184    -7164    -7102    -7038    -7014    -7010 
   -7005    -7015    -7071    -7122    -7091    -7022    -7010    -7055 
   -7103    -7125    -7149    -7180    -7180    -7200    -7273    -7303 
   -7234    -7148    -7159    -7271    -7377    -7358    -7234    -7177 
   -7211    -7195    -7184    -7277    -7342    -7308    -7295    -7242 
   -6997    -6693    -6608    -6775    -7009    -7183    -7285    -7299 
   -7233    -7149    -7105    -7109    -7099    -7063    -7029    -7018 
   -7090    -7202    -7210    -7159    -7159    -7163    -7168    -7199 
   -7198    -7195    -7221    -7211    -7179    -7134    -7061    -7022 
   -7065    -7144    -7172    -7159    -7146    -7076    -6967    -6905 
   -6887    -6921    -6987    -6998    -6956    -6949    -6982    -6974 
   -6921    -6895    -6932    -7072    -7302    -7435    -7308    -7007 
   -6845    -7033    -7352    -7472    -7383    -7222    -7079    -7013 
   -7088    -7257    -7300    -7202    -7215    -7402    -7504    -7353 
   -7123    -7013    -7045    -7226    -7372    -7221    -6901    -6783 
   -7030    -7388    -7449    -7211    -7003    -7018    -7152    -7211 
   -7146    -6988    -6787    -6709    -6855    -7055    -7092    -7037 
   -7033    -7042    -7063    -7138    -7183    -7150    -7102    -7130 
   -7271    -7357    -7287    -7148    -7001    -6971    -7103    -7182 
   -7119    -7038    -7029    -7126    -7214    -7219    -7257    -7277 
   -7194    -7121    -7061    -6951    -6880    -6902    -7007    -7155 
   -7204    -7125    -7037    -7005    -7059    -7150    -7145    -7084 
   -7101    -7153    -7140    -7105    -7119    -7159    -7190    -7204 
   -7186    -7161    -7169    -7172    -7153    -7137    -7146    -7165 
   -7159    -7173    -7238    -7244    -7192    -7163    -7137    -7129 
   -7161    -7190    -7195    -7198    -7179    -7121    -7082    -7102 
   -7102    -7033    -6953    -6944    -7053    -7175    -7171    -7136 
   -7161    -7136    -7064    -7076    -7141    -7144    -7107    -7152 
   -7225    -7160    -7029    -6970    -6926    -6905    -6972    -7044 
   -7059    -7084    -7129    -7146    -7145    -7142    -7180    -7268 
   -7272    -7113    -6934    -6897    -6948    -6974    -7001    -7074 
   -7114    -7148    -7252    -7302    -7294    -7395    -7456    -7290 
   -7090    -7011    -7020    -7071    -7074    -7045    -7101    -7203 
   -7226    -7177    -7150    -7187    -7211    -7179    -7204    -7258 
   -7196    -7129    -7064    -6968    -7030    -7156    -7188    -7173 
   -7098    -7064    -7111    -7060    -6940    -6934    -7059    -7167 
   -7156    -7071    -7006    -6971    -6920    -6966    -7172    -7326 
   -7361    -7341    -7258    -7217    -7211    -7203    -7279    -7287 
   -7150    -7057    -7025    -7038    -7146    -7290    -7372    -7327 
   -7203    -7099    -7038    -7042    -7098    -7123    -7083    -7036 
   -7034    -7041    -7017    -7042    -7204    -7354    -7304    -7144 
   -7010    -6933    -6970    -7055    -7013    -6970    -7094    -7180 
   -7161    -7233    -7322    -7283    -7204    -7202    -7254    -7310 
   -7354    -7379    -7407    -7447    -7473    -7477    -7371    -7092 
   -6858    -6852    -6940    -6948    -6853    -6777    -6814    -6899 
   -7018    -7137    -7061    -6874    -6835    -6907    -6988    -7065 
   -7051    -6968    -7006    -7134    -7217    -7260    -7209    -7038 
   -6907    -6862    -6926    -7156    -7329    -7257    -7113    -7067 
   -7041    -6955    -6864    -6810    -6729    -6571    -6417    -6367 
   -6372    -6432    -6633    -6787    -6754    -6801    -7034    -7215 
   -7241    -7209    -7238    -7379    -7547    -7650    -7709    -7800 
   -7920    -7994    -8033    -8089    -8058    -7906    -7816    -7793 
   -7673    -7473    -7284    -7059    -6785    -6569    -6469    -6394 
   -6188    -5969    -6008    -6193    -6334    -6538    -6797    -6964 
   -7109    -7364    -7761    -8201    -8448    -8452    -8383    -8279 
   -8110    -7971    -7950    -7974    -7886    -7616    -7288    -7014 
   -6696    -6327    -6123    -6039    -5867    -5721    -5764    -5908 
   -6099    -6297    -6423    -6500    -6523    -6486    -6493    -6539 
   -6605    -6768    -6944    -7067    -7258    -7487    -7616    -7699 
   -7792    -7835    -7852    -7944    -8050    -8058    -8020    -8028 
   -8037    -7952    -7788    -7662    -7639    -7689    -7780    -7881 
   -7898    -7696    -7283    -6853    -6567    -6372    -6157    -5969 
   -5921    -5999    -6122    -6284    -6480    -6654    -6822    -7037 
   -7203    -7203    -7075    -6895    -6725    -6664    -6778    -7042 
   -7383    -7665    -7790    -7836    -7947    -8066    -7998    -7735 
   -7420    -7096    -6789    -6617    -6597    -6663    -6793    -6898 
   -6939    -6990    -7075    -7114    -7049    -6924    -6795    -6666 
   -6566    -6508    -6439    -6435    -6593    -6863    -7169    -7418 
   -7504    -7464    -7435    -7518    -7628    -7605    -7487    -7458 
   -7511    -7515    -7470    -7358    -7146    -6940    -6813    -6799 
   -6970    -7222    -7380    -7422    -7342    -7140    -6939    -6855 
   -6867    -6897    -6928    -7024    -7210    -7414    -7518    -7488 
   -7450    -7504    -7600    -7646    -7600    -7493    -7368    -7221 
   -7106    -7071    -7091    -7161    -7252    -7280    -7225    -7126 
   -7036    -7018    -7052    -7055    -6953    -6687    -6328    -6073 
   -6006    -6083    -6219    -6343    -6484    -6698    -6961    -7169 
   -7219    -7119    -7005    -7001    -7113    -7263    -7373    -7425 
   -7415    -7372    -7323    -7234    -7140    -7160    -7358    -7690 
   -8028    -8224    -8224    -8051    -7798    -7589    -7412    -7150 
   -6891    -6843    -6983    -7134    -7236    -7299    -7318    -7303 
   -7265    -7211    -7160    -7144    -7177    -7173    -6995    -6666 
   -6399    -6339    -6440    -6577    -6686    -6748    -6767    -6768 
   -6754    -6745    -6810    -6971    -7125    -7152    -7064    -6883 
   -6605    -6415    -6548    -6945    -7366    -7720    -7994    -8064 
   -7877    -7638    -7597    -7743    -7859    -7823    -7654    -7383 
   -7072    -6829    -6745    -6851    -7006    -7082    -7160    -7252 
   -7176    -6903    -6648    -6563    -6583    -6592    -6555    -6528 
   -6578    -6681    -6771    -6936    -7256    -7566    -7688    -7651 
   -7539    -7423    -7366    -7395    -7493    -7576    -7508    -7257 
   -6930    -6710    -6729    -6943    -7150    -7258    -7296    -7253 
   -7117    -6897    -6633    -6384    -6170    -6065    -6192    -6548 
   -6963    -7299    -7524    -7600    -7543    -7474    -7465    -7522 
   -7614    -7616    -7504    -7437    -7504    -7653    -7809    -7921 
   -7950    -7866    -7658    -7408    -7211    -6999    -6743    -6574 
   -6469    -6261    -5965    -5825    -5998    -6355    -6751    -7126 
   -7344    -7319    -7145    -6952    -6810    -6777    -6907    -7211 
   -7581    -7819    -7873    -7911    -7979    -7938    -7852    -7886 
   -7933    -7885    -7758    -7528    -7225    -6970    -6822    -6758 
   -6724    -6710    -6705    -6660    -6606    -6720    -7018    -7196 
   -7083    -6799    -6461    -6224    -6249    -6455    -6686    -6886 
   -7009    -7045    -7069    -7079    -6994    -6812    -6709    -6858 
   -7128    -7295    -7352    -7322    -7234    -7238    -7430    -7697 
   -7902    -7977    -7832    -7524    -7260    -7115    -7055    -7013 
   -6929    -6833    -6772    -6802    -6944    -7056    -7021    -6952 
   -7063    -7323    -7450    -7330    -7102    -6848    -6579    -6434 
   -6579    -6966    -7311    -7411    -7345    -7322    -7442    -7601 
   -7618    -7393    -7015    -6731    -6652    -6691    -6809    -7044 
   -7395    -7763    -7982    -7916    -7527    -6960    -6463    -6189 
   -6214    -6509    -6876    -7150    -7318    -7416    -7474    -7454 
   -7285    -7041    -6890    -6893    -6987    -7107    -7250    -7406 
   -7460    -7418    -7487    -7655    -7650    -7462    -7323    -7304 
   -7341    -7377    -7410    -7456    -7410    -7198    -6979    -6932 
   -7014    -7021    -6856    -6660    -6563    -6579    -6723    -6968 
   -7161    -7161    -6993    -6775    -6615    -6577    -6647    -6801 
   -7030    -7275    -7507    -7678    -7609    -7319    -7065    -6953 
   -6882    -6790    -6754    -6905    -7186    -7365    -7412    -7416 
   -7314    -7092    -6968    -7087    -7294    -7353    -7238    -7053 
   -6925    -6953    -7057    -7052    -6891    -6686    -6632    -6813 
   -7020    -7096    -7167    -7352    -7618    -7788    -7685    -7376 
   -7094    -6974    -7022    -7176    -7335    -7388    -7310    -7179 
   -7088    -7138    -7330    -7497    -7528    -7460    -7368    -7369 
   -7456    -7481    -7425    -7334    -7225    -7102    -6907    -6687 
   -6655    -6786    -6775    -6570    -6493    -6642    -6783    -6847 
   -6920    -6955    -6875    -6693    -6470    -6332    -6349    -6478 
   -6713    -6999    -7211    -7326    -7462    -7635    -7753    -7821 
   -7862    -7800    -7647    -7545    -7589    -7677    -7623    -7458 
   -7357    -7357    -7364    -7330    -7287    -7198    -7051    -6940 
   -6887    -6824    -6698    -6531    -6440    -6478    -6624    -6886 
   -7184    -7335    -7285    -7152    -7001    -6841    -6783    -6925 
   -7194    -7411    -7456    -7391    -7342    -7349    -7396    -7492 
   -7628    -7696    -7620    -7501    -7410    -7291    -7152    -7061 
   -7003    -6934    -6874    -6801    -6683    -6592    -6590    -6658 
   -6748    -6878    -7044    -7148    -7142    -7094    -7015    -6929 
   -6933    -7015    -7090    -7137    -7196    -7325    -7462    -7447 
   -7279    -7110    -7028    -6988    -6912    -6748    -6512    -6280 
   -6161    -6250    -6552    -6944    -7256    -7420    -7499    -7537 
   -7504    -7402    -7271    -7136    -7119    -7371    -7750    -7960 
