Origin Time       2025/03/30 10:18:00
Lat.              34.667
Long.             140.825
Depth. (km)       69
Mag.              4.9
Station Code      CHB012
Station Lat.      35.5721
Station Long.     140.3436
Station Height(m) 60
Record Time       2025/03/30 10:19:06
Sampling Freq(Hz) 100Hz
Duration Time(s)  60
Dir.              N-S
Scale Factor      7845(gal)/8223790
Max. Acc. (gal)   1.824
Last Correction   2025/03/30 10:19:05
Memo.             
[...]
   -9355    -9290    -9347    -9423    -9509    -9687    -9882    -9918 
   -9775    -9583    -9432    -9337    -9320    -9412    -9562    -9652 
   -9634    -9585    -9563    -9555    -9531    -9489    -9481    -9551 
   -9653    -9706    -9676    -9641    -9695    -9756    -9666    -9455 
   -9320    -9356    -9482    -9609    -9688    -9697    -9683    -9686 
   -9644    -9502    -9335    -9305    -9474    -9702    -9814    -9761 
   -9641    -9567    -9566    -9555    -9445    -9289    -9244    -9398 
   -9670    -9883    -9930    -9861    -9760    -9652    -9518    -9346 
   -9177    -9131    -9282    -9528    -9703    -9788    -9848    -9880 
   -9819    -9647    -9456    -9377    -9398    -9416    -9427    -9522 
   -9691    -9790    -9725    -9583    -9543    -9622    -9661    -9563 
   -9413    -9366    -9468    -9625    -9737    -9771    -9738    -9683 
   -9633    -9595    -9547    -9452    -9337    -9301    -9397    -9568 
   -9710    -9763    -9744    -9705    -9643    -9521    -9377    -9312 
   -9371    -9520    -9698    -9840    -9906    -9891    -9786    -9618 
   -9455    -9321    -9229    -9247    -9416    -9641    -9767    -9732 
   -9613    -9509    -9445    -9412    -9451    -9579    -9707    -9744 
   -9690    -9629    -9617    -9617    -9560    -9450    -9371    -9381 
   -9462    -9599    -9745    -9795    -9753    -9707    -9671    -9618 
   -9521    -9335    -9161    -9248    -9620    -9985   -10112   -10015 
   -9841    -9667    -9467    -9283    -9201    -9215    -9267    -9369 
   -9552    -9720    -9744    -9661    -9567    -9497    -9444    -9425 
   -9482    -9610    -9745    -9829    -9814    -9759    -9768    -9778 
   -9688    -9533    -9381    -9263    -9232    -9356    -9594    -9783 
   -9805    -9659    -9475    -9418    -9504    -9603    -9610    -9539 
   -9489    -9545    -9693    -9807    -9796    -9703    -9607    -9544 
   -9512    -9504    -9524    -9579    -9624    -9607    -9543    -9506 
   -9539    -9572    -9532    -9467    -9513    -9697    -9838    -9748 
   -9489    -9321    -9370    -9479    -9474    -9410    -9439    -9535 
   -9571    -9544    -9547    -9618    -9722    -9778    -9755    -9663 
   -9517    -9433    -9574    -9825    -9871    -9661    -9414    -9306 
   -9383    -9568    -9702    -9706    -9663    -9687    -9759    -9752 
   -9587    -9352    -9231    -9278    -9370    -9435    -9531    -9714 
   -9927   -10033    -9925    -9625    -9300    -9128    -9115    -9181 
   -9351    -9617    -9868   -10011   -10022    -9933    -9810    -9659 
   -9451    -9231    -9111    -9181    -9390    -9601    -9728    -9790 
   -9844    -9850    -9717    -9486    -9313    -9273    -9317    -9425 
   -9636    -9872    -9940    -9798    -9582    -9423    -9373    -9417 
   -9514    -9625    -9749    -9842    -9821    -9672    -9497    -9431 
   -9481    -9481    -9360    -9247    -9274    -9441    -9634    -9740 
   -9741    -9691    -9652    -9637    -9593    -9520    -9529    -9671 
   -9828    -9871    -9818    -9767    -9737    -9668    -9543    -9412 
   -9329    -9304    -9312    -9310    -9296    -9308    -9364    -9490 
   -9641    -9693    -9622    -9514    -9452    -9477    -9553    -9591 
   -9576    -9607    -9720    -9818    -9845    -9844    -9815    -9713 
   -9566    -9439    -9391    -9460    -9605    -9724    -9751    -9686 
   -9556    -9389    -9248    -9246    -9417    -9597    -9622    -9605 
   -9707    -9852    -9834    -9636    -9447    -9406    -9495    -9639 
   -9755    -9782    -9759    -9748    -9724    -9661    -9560    -9448 
   -9366    -9290    -9238    -9312    -9499    -9666    -9741    -9745 
   -9701    -9616    -9520    -9448    -9414    -9437    -9493    -9543 
   -9613    -9683    -9637    -9510    -9485    -9570    -9602    -9526 
   -9436    -9445    -9599    -9825    -9996   -10049    -9963    -9763 
   -9540    -9360    -9227    -9182    -9263    -9439    -9625    -9703 
   -9599    -9468    -9531    -9701    -9738    -9637    -9574    -9567 
   -9474    -9293    -9220    -9348    -9562    -9732    -9832    -9830 
   -9705    -9555    -9477    -9466    -9520    -9664    -9832    -9869 
   -9757    -9648    -9629    -9599    -9499    -9424    -9467    -9567 
   -9566    -9436    -9346    -9439    -9641    -9752    -9653    -9439 
   -9283    -9269    -9336    -9425    -9572    -9807   -10017   -10062 
   -9929    -9724    -9571    -9491    -9441    -9404    -9366    -9362 
   -9466    -9663    -9852    -9915    -9774    -9499    -9296    -9240 
   -9207    -9147    -9212    -9498    -9877   -10114   -10110    -9967 
   -9803    -9630    -9448    -9339    -9352    -9447    -9549    -9609 
   -9639    -9668    -9656    -9548    -9393    -9323    -9391    -9478 
   -9455    -9342    -9302    -9478    -9752    -9865    -9740    -9547 
   -9491    -9601    -9709    -9676    -9564    -9551    -9644    -9666 
   -9603    -9655    -9857    -9994    -9892    -9680    -9531    -9404 
   -9258    -9198    -9294    -9470    -9591    -9647    -9711    -9767 
   -9745    -9670    -9614    -9621    -9624    -9539    -9412    -9343 
   -9377    -9502    -9655    -9755    -9782    -9730    -9552    -9266 
   -9067    -9161    -9478    -9756    -9832    -9767    -9761    -9856 
   -9846    -9626    -9378    -9293    -9339    -9385    -9389    -9445 
   -9640    -9890   -10035   -10010    -9883    -9721    -9497    -9231 
   -9057    -9084    -9234    -9385    -9539    -9711    -9811    -9728 
   -9493    -9278    -9232    -9362    -9520    -9597    -9636    -9726 
   -9886   -10048   -10102    -9999    -9803    -9595    -9428    -9319 
   -9266    -9261    -9304    -9394    -9481    -9508    -9501    -9553 
   -9688    -9833    -9872    -9755    -9570    -9464    -9493    -9583 
   -9625    -9618    -9671    -9803    -9857    -9710    -9486    -9402 
   -9456    -9477    -9404    -9336    -9378    -9521    -9672    -9771 
   -9837    -9904    -9919    -9765    -9494    -9283    -9201    -9238 
   -9408    -9699   -10010   -10162   -10095    -9926    -9755    -9570 
   -9370    -9205    -9107    -9108    -9228    -9378    -9481    -9563 
   -9626    -9647    -9614    -9499    -9296    -9077    -8995    -9185 
   -9579    -9948   -10180   -10285   -10250   -10050    -9753    -9502 
   -9373    -9329    -9321    -9363    -9489    -9705    -9936   -10060 
   -9998    -9745    -9389    -9073    -8885    -8853    -8989    -9278 
   -9641    -9963   -10129   -10058    -9798    -9518    -9362    -9356 
   -9445    -9528    -9548    -9571    -9690    -9850    -9923    -9906 
   -9871    -9792    -9637    -9435    -9239    -9120    -9134    -9275 
   -9459    -9566    -9566    -9510    -9462    -9428    -9397    -9405 
   -9466    -9537    -9606    -9649    -9671    -9710    -9768    -9828 
   -9888    -9925    -9898    -9788    -9641    -9525    -9486    -9497 
   -9471    -9386    -9340    -9418    -9616    -9861   -10054   -10089 
   -9899    -9532    -9165    -8955    -8930    -9020    -9180    -9445 
   -9828   -10164   -10262   -10114    -9844    -9568    -9350    -9186 
   -9053    -9009    -9140    -9416    -9736   -10015   -10168   -10120 
   -9894    -9610    -9400    -9283    -9217    -9228    -9346    -9537 
   -9733    -9852    -9871    -9801    -9670    -9560    -9522    -9493 
   -9458    -9516    -9688    -9860    -9918    -9823    -9610    -9405 
   -9350    -9421    -9464    -9398    -9305    -9315    -9433    -9522 
   -9522    -9551    -9691    -9841    -9865    -9764    -9637    -9562 
   -9517    -9472    -9458    -9535    -9705    -9853    -9859    -9732 
   -9590    -9494    -9396    -9293    -9274    -9378    -9547    -9666 
   -9682    -9668    -9705    -9759    -9745    -9633    -9459    -9305 
   -9255    -9323    -9491    -9702    -9856    -9906    -9840    -9671 
   -9490    -9387    -9393    -9458    -9499    -9481    -9451    -9471 
   -9514    -9548    -9590    -9590    -9501    -9400    -9383    -9448 
   -9517    -9572    -9629    -9659    -9671    -9688    -9701    -9694 
   -9659    -9601    -9555    -9536    -9559    -9633    -9718    -9747 
   -9667    -9543    -9537    -9701    -9871    -9865    -9679    -9433 
   -9213    -9061    -9008    -9090    -9320    -9666   -10023   -10230 
  -10211   -10045    -9846    -9674    -9501    -9296    -9126    -9088 
   -9208    -9444    -9740   -10006   -10099    -9979    -9761    -9552 
   -9359    -9220    -9246    -9428    -9628    -9747    -9786    -9751 
   -9598    -9358    -9216    -9297    -9497    -9636    -9661    -9676 
   -9751    -9811    -9775    -9660    -9506    -9325    -9159    -9113 
   -9261    -9533    -9822   -10079   -10218   -10073    -9625    -9115 
   -8797    -8739    -8877    -9127    -9373    -9532    -9660    -9830 
  -10012   -10146   -10162    -9994    -9668    -9323    -9128    -9175 
   -9409    -9694    -9917   -10023   -10008    -9907    -9787    -9698 
   -9630    -9532    -9398    -9313    -9337    -9439    -9620    -9890 
  -10091   -10039    -9787    -9560    -9487    -9501    -9493    -9459 
   -9454    -9501    -9555    -9536    -9437    -9346    -9331    -9362 
   -9366    -9370    -9436    -9486    -9439    -9379    -9424    -9590 
   -9787    -9855    -9737    -9545    -9391    -9321    -9359    -9491 
   -9637    -9699    -9684    -9699    -9775    -9821    -9786    -9724 
   -9698    -9649    -9478    -9258    -9177    -9285    -9478    -9630 
   -9687    -9702    -9745    -9769    -9702    -9574    -9477    -9474 
   -9583    -9713    -9724    -9637    -9583    -9583    -9548    -9468 
   -9413    -9418    -9472    -9541    -9626    -9769    -9926    -9981 
   -9868    -9641    -9470    -9459    -9539    -9601    -9643    -9684 
   -9691    -9618    -9487    -9358    -9279    -9221    -9147    -9135 
   -9288    -9552    -9775    -9910   -10023   -10096   -10034    -9792 
   -9450    -9154    -9011    -9009    -9097    -9259    -9464    -9605 
   -9586    -9435    -9309    -9310    -9363    -9381    -9420    -9582 
   -9865   -10115   -10196   -10189   -10195   -10120    -9902    -9682 
   -9612    -9671    -9730    -9721    -9686    -9697    -9717    -9659 
   -9513    -9363    -9305    -9355    -9394    -9302    -9159    -9143 
   -9286    -9456    -9567    -9594    -9509    -9402    -9418    -9524 
   -9597    -9598    -9571    -9585    -9674    -9786    -9834    -9837 
   -9867    -9877    -9798    -9675    -9621    -9655    -9675    -9628 
   -9590    -9641    -9740    -9775    -9701    -9582    -9529    -9571 
   -9599    -9522    -9387    -9275    -9182    -9084    -9047    -9173 
   -9417    -9607    -9637    -9570    -9518    -9506    -9477    -9404 
   -9332    -9277    -9205    -9104    -9024    -9043    -9235    -9572 
   -9896   -10077   -10127   -10088   -10000    -9913    -9836    -9768 
   -9764    -9871    -9999    -9999    -9869    -9752    -9756    -9828 
   -9845    -9782    -9678    -9564    -9479    -9450    -9463    -9486 
   -9521    -9583    -9630    -9659    -9724    -9791    -9764    -9578 
   -9283    -9063    -9073    -9293    -9555    -9670    -9595    -9437 
   -9278    -9104    -8972    -9003    -9177    -9359    -9489    -9585 
   -9720    -9922   -10088   -10116    -9985    -9711    -9351    -9016 
   -8864    -8968    -9247    -9605    -9983   -10280   -10393   -10274 
   -9976    -9643    -9418    -9350    -9373    -9429    -9510    -9613 
   -9732    -9829    -9829    -9721    -9566    -9420    -9362    -9452 
   -9664    -9925   -10141   -10250   -10245   -10184   -10093    -9914 
   -9672    -9454    -9267    -9132    -9132    -9289    -9518    -9705 
   -9780    -9724    -9566    -9362    -9142    -8935    -8824    -8904 
   -9146    -9367    -9439    -9410    -9394    -9431    -9551    -9764 
   -9942    -9926    -9695    -9390    -9180    -9094    -9086    -9150 
   -9270    -9386    -9451    -9470    -9501    -9589    -9691    -9755 
   -9792    -9849    -9911    -9880    -9698    -9468    -9377    -9494 
   -9710    -9892    -9994    -9996    -9906    -9749    -9597    -9582 
   -9748    -9929    -9960    -9849    -9711    -9612    -9531    -9462 
   -9417    -9362    -9250    -9081    -8905    -8814    -8885    -9099 
   -9367    -9684   -10049   -10372   -10530   -10453   -10166    -9788 
   -9464    -9294    -9279    -9362    -9481    -9579    -9622    -9599 
   -9521    -9404    -9292    -9211    -9146    -9069    -8996    -8955 
   -8964    -9067    -9296    -9543    -9694    -9730    -9664    -9556 
   -9535    -9682    -9965   -10238   -10399   -10450   -10403   -10270 
  -10127   -10056   -10015    -9911    -9774    -9664    -9545    -9409 
   -9344    -9400    -9525    -9622    -9594    -9393    -9042    -8646 
   -8361    -8278    -8419    -8764    -9238    -9742   -10177   -10493 
  -10708   -10832   -10816   -10615   -10266    -9876    -9570    -9467 
   -9583    -9805    -9987   -10041    -9952    -9752    -9443    -9092 
   -8849    -8816    -8972    -9171    -9262    -9251    -9238    -9243 
   -9225    -9175    -9146    -9198    -9359    -9605    -9852    -9998 
   -9980    -9815    -9599    -9421    -9321    -9302    -9358    -9509 
   -9736    -9913    -9915    -9720    -9410    -9104    -8842    -8648 
   -8567    -8662    -8988    -9504   -10056   -10488   -10683   -10613 
  -10380   -10165   -10030    -9863    -9583    -9281    -9101    -9135 
   -9385    -9697    -9859    -9767    -9456    -9089    -8833    -8731 
   -8787    -9024    -9390    -9738    -9957   -10044   -10017    -9899 
   -9813    -9871   -10058   -10307   -10590   -10887   -11114   -11130 
  -10833   -10228    -9418    -8579    -7940    -7663    -7735    -8077 
   -8618    -9250    -9790   -10088   -10170   -10134   -10011    -9823 
   -9629    -9526    -9558    -9622    -9599    -9491    -9387    -9325 
   -9274    -9315    -9568    -9965   -10272   -10342   -10254   -10215 
  -10247   -10116    -9659    -9034    -8576    -8428    -8472    -8603 
   -8819    -9108    -9409    -9678    -9913   -10065   -10046    -9883 
   -9711    -9637    -9657    -9667    -9593    -9487    -9441    -9445 
   -9428    -9394    -9450    -9606    -9756    -9822    -9790    -9655 
   -9418    -9117    -8876    -8841    -9008    -9242    -9436    -9597 
   -9742    -9819    -9784    -9714    -9694    -9734    -9783    -9798 
   -9779    -9755    -9782    -9892   -10046   -10147   -10102    -9921 
   -9756    -9751    -9883   -10000   -10039   -10098   -10201   -10192 
   -9913    -9416    -8930    -8677    -8716    -8943    -9178    -9310 
   -9363    -9421    -9468    -9394    -9197    -9007    -8883    -8788 
   -8735    -8823    -9147    -9644   -10107   -10392   -10494   -10457 
  -10312   -10127   -10006    -9967    -9942    -9919    -9892    -9765 
   -9483    -9116    -8841    -8851    -9239    -9880   -10462   -10681 
  -10471    -9987    -9385    -8773    -8267    -7948    -7823    -7909 
   -8267    -8846    -9413    -9736    -9805    -9792    -9855    -9990 
  -10112   -10207   -10307   -10392   -10396   -10289   -10152   -10073 
  -10065   -10103   -10107    -9992    -9814    -9695    -9680    -9709 
   -9714    -9683    -9575    -9358    -9101    -8930    -8927    -9054 
   -9242    -9478    -9701    -9760    -9536    -9107    -8765    -8702 
   -8878    -9196    -9576    -9961   -10249   -10300   -10110    -9841 
   -9686    -9726    -9915   -10118   -10214   -10193   -10073    -9832 
   -9497    -9180    -8977    -8912    -8930    -8937    -8924    -9023 
   -9274    -9529    -9636    -9586    -9474    -9396    -9390    -9466 
   -9647    -9917   -10133   -10093    -9801    -9486    -9373    -9468 
   -9594    -9591    -9509    -9516    -9660    -9823    -9919    -9961 
   -9926    -9757    -9452    -9139    -8997    -9013    -9011    -8942 
   -8970    -9188    -9437    -9555    -9566    -9593    -9678    -9774 
   -9848    -9917    -9983   -10045   -10071   -10019    -9917    -9825 
   -9806    -9882    -9995   -10061   -10015    -9869    -9757    -9799 
   -9956   -10038    -9894    -9621    -9463    -9462    -9451    -9306 
   -9065    -8847    -8695    -8565    -8517    -8667    -8970    -9262 
   -9445    -9572    -9706    -9822    -9844    -9756    -9674    -9670 
   -9682    -9630    -9529    -9474    -9522    -9605    -9683    -9868 
  -10197   -10507   -10594   -10426   -10147    -9938    -9830    -9740 
   -9591    -9445    -9420    -9475    -9451    -9281    -9078    -8992 
   -9019    -9067    -9117    -9190    -9274    -9317    -9300    -9265 
   -9242    -9232    -9271    -9393    -9589    -9786    -9876    -9801 
   -9621    -9451    -9351    -9331    -9410    -9610    -9875   -10119 
  -10331   -10504   -10546   -10355   -10002    -9666    -9459    -9386 
   -9423    -9541    -9697    -9796    -9717    -9429    -9089    -8829 
   -8610    -8429    -8417    -8700    -9234    -9795   -10162   -10261 
  -10184   -10039    -9845    -9614    -9427    -9327    -9281    -9305 
   -9485    -9846   -10246   -10458   -10389   -10174    -9979    -9798 
   -9560    -9315    -9192    -9274    -9502    -9715    -9807    -9774 
   -9661    -9544    -9451    -9358    -9302    -9398    -9676    -9954 
  -10026    -9894    -9660    -9359    -9019    -8729    -8569    -8576 
   -8734    -9018    -9378    -9686    -9817    -9796    -9707    -9545 
   -9286    -9028    -8969    -9212    -9688   -10203   -10563   -10698 
  -10647   -10508   -10339   -10110    -9837    -9599    -9445    -9329 
   -9200    -9105    -9057    -9004    -8999    -9077    -9159    -9151 
   -9070    -9043    -9124    -9246    -9375    -9512    -9657    -9791 
   -9880    -9954   -10033   -10104   -10197   -10308   -10362   -10300 
  -10192   -10156   -10174   -10134   -10019    -9930    -9930    -9950 
   -9877    -9660    -9354    -9073    -8880    -8746    -8633    -8538 
   -8502    -8559    -8734    -9009    -9321    -9637    -9931   -10150 
  -10266   -10285   -10260   -10200   -10034    -9761    -9478    -9229 
   -9027    -8927    -8961    -9046    -9078    -9067    -9146    -9396 
   -9753   -10077   -10250   -10246   -10141   -10007    -9853    -9675 
   -9489    -9327    -9223    -9211    -9271    -9320    -9258    -9128 
   -9089    -9231    -9495    -9748    -9917   -10026   -10065    -9968 
   -9747    -9509    -9340    -9263    -9296    -9479    -9807   -10191 
  -10498   -10638   -10573   -10309    -9910    -9479    -9126    -8910 
   -8824    -8868    -9035    -9266    -9483    -9624    -9660    -9661 
   -9686    -9718    -9726    -9732    -9807    -9963   -10103   -10153 
  -10131   -10089    -9983    -9748    -9437    -9163    -9011    -8970 
   -8950    -8916    -8893    -8891    -8907    -8946    -9022    -9151 
   -9329    -9539    -9763    -9975   -10120   -10153   -10072    -9918 
   -9788    -9778    -9883   -10006   -10052    -9994    -9838    -9603 
   -9300    -8970    -8683    -8492    -8415    -8425    -8505    -8687 
   -8988    -9377    -9801   -10179   -10432   -10539   -10536   -10490 
  -10471   -10504   -10516   -10453   -10374   -10322   -10214    -9953 
   -9545    -9143    -8899    -8823    -8857    -8966    -9123    -9282 
   -9417    -9537    -9610    -9522    -9247    -8927    -8737    -8768 
   -9008    -9366    -9759   -10174   -10559   -10805   -10839   -10647 
  -10284    -9863    -9499    -9251    -9100    -9026    -9045    -9124 
   -9157    -9066    -8922    -8864    -8984    -9231    -9428    -9487 
   -9471    -9482    -9559    -9634    -9652    -9701    -9869   -10106 
