Origin Time       2025/03/30 10:18:00
Lat.              34.667
Long.             140.825
Depth. (km)       69
Mag.              4.9
Station Code      CHB019
Station Lat.      35.1106
Station Long.     139.8360
Station Height(m) 5
Record Time       2025/03/30 10:19:06
Sampling Freq(Hz) 100Hz
Duration Time(s)  63
Dir.              U-D
Scale Factor      7845(gal)/8223790
Max. Acc. (gal)   1.256
Last Correction   2025/03/30 10:19:06
Memo.             
[...]
    5482     5513     5547     5575     5607     5653     5728     5814 
    5881     5902     5853     5746     5634     5551     5494     5448 
    5405     5379     5395     5439     5481     5516     5540     5567 
    5611     5676     5755     5819     5856     5865     5863     5852 
    5845     5842     5806     5726     5630     5549     5499     5482 
    5483     5495     5517     5544     5572     5601     5630     5653 
    5661     5660     5668     5675     5660     5630     5602     5597 
    5624     5664     5691     5711     5738     5772     5807     5838 
    5848     5836     5813     5773     5710     5625     5543     5497 
    5490     5493     5476     5452     5436     5400     5351     5343 
    5400     5487     5570     5633     5683     5726     5764     5787 
    5787     5772     5745     5691     5633     5624     5682     5784 
    5886     5944     5953     5917     5840     5756     5684     5640 
    5648     5694     5732     5738     5719     5680     5640     5607 
    5566     5509     5459     5428     5420     5428     5443     5456 
    5499     5580     5663     5742     5815     5837     5802     5749 
    5709     5663     5597     5532     5514     5549     5606     5652 
    5660     5624     5557     5495     5491     5557     5647     5705 
    5718     5714     5740     5802     5842     5811     5711     5580 
    5449     5340     5270     5252     5290     5364     5440     5510 
    5586     5674     5768     5859     5935     5988     6012     6010 
    5964     5863     5715     5553     5429     5397     5458     5549 
    5601     5599     5563     5532     5552     5641     5772     5911 
    6029     6093     6092     6037     5948     5848     5736     5609 
    5483     5378     5292     5233     5206     5205     5227     5262 
    5298     5341     5383     5397     5401     5431     5485     5549 
    5614     5651     5640     5602     5591     5653     5787     5925 
    6016     6048     6010     5925     5857     5830     5830     5848 
    5872     5884     5869     5818     5736     5647     5571     5521 
    5497     5499     5522     5556     5598     5664     5740     5790 
    5799     5765     5710     5671     5648     5617     5579     5555 
    5540     5541     5583     5657     5715     5732     5703     5636 
    5553     5463     5366     5281     5240     5260     5347     5476 
    5595     5676     5725     5752     5775     5788     5767     5698 
    5611     5532     5483     5487     5521     5543     5548     5563 
    5586     5617     5674     5746     5819     5895     5961     5999 
    6018     6018     5987     5935     5868     5763     5607     5428 
    5265     5165     5139     5177     5255     5348     5429     5506 
    5582     5634     5656     5667     5668     5660     5667     5701 
    5763     5849     5937     6014     6073     6112     6133     6123 
    6069     5985     5898     5799     5679     5548     5452     5433 
    5476     5535     5574     5595     5617     5634     5633     5610 
    5578     5556     5557     5568     5566     5525     5427     5300 
    5198     5139     5111     5108     5131     5196     5308     5462 
    5637     5799     5907     5954     5957     5931     5890     5837 
    5775     5714     5675     5667     5675     5687     5706     5741 
    5811     5908     5991     6030     6022     5975     5921     5884 
    5852     5803     5753     5702     5652     5616     5579     5539 
    5518     5528     5540     5537     5508     5455     5405     5378 
    5371     5358     5328     5301     5298     5323     5356     5382 
    5417     5472     5539     5607     5668     5707     5726     5741 
    5755     5759     5752     5744     5748     5772     5807     5836 
    5865     5915     5977     6021     6037     6018     5958     5871 
    5786     5721     5687     5688     5705     5701     5664     5613 
    5559     5494     5414     5333     5267     5228     5232     5296 
    5420     5583     5732     5826     5867     5880     5887     5873 
    5803     5676     5536     5428     5360     5319     5275     5221 
    5171     5150     5163     5194     5229     5266     5306     5356 
    5433     5540     5664     5784     5881     5953     5994     6004 
    5998     5973     5945     5949     5998     6081     6188     6280 
    6331     6349     6345     6316     6253     6153     6031     5899 
    5764     5645     5559     5495     5433     5354     5262     5189 
    5167     5186     5224     5269     5313     5355     5405     5455 
    5483     5467     5389     5243     5059     4900     4812     4815 
    4888     4996     5119     5250     5383     5506     5614     5728 
    5869     6049     6259     6470     6628     6709     6724     6689 
    6637     6592     6539     6462     6369     6259     6127     5984 
    5848     5692     5513     5333     5165     5017     4911     4853 
    4837     4854     4888     4909     4926     4951     4988     5023 
    5042     5035     5015     4999     5017     5101     5255     5459 
    5703     5958     6172     6315     6372     6349     6299     6276 
    6259     6219     6160     6087     6016     5956     5900     5850 
    5807     5760     5707     5670     5671     5706     5756     5813 
    5877     5929     5944     5911     5833     5740     5657     5572 
    5466     5343     5206     5074     4981     4949     4996     5111 
    5259     5417     5548     5624     5655     5672     5709     5787 
    5908     6042     6156     6218     6208     6138     6023     5879 
    5734     5629     5582     5575     5576     5563     5526     5475 
    5413     5359     5325     5305     5290     5290     5304     5321 
    5332     5331     5314     5290     5262     5223     5185     5165 
    5170     5223     5350     5541     5765     5989     6173     6296 
    6380     6442     6490     6536     6570     6578     6554     6489 
    6376     6216     6034     5841     5622     5378     5144     4950 
    4822     4783     4818     4881     4963     5088     5255     5449 
    5661     5864     6014     6076     6050     5967     5841     5678 
    5505     5348     5204     5089     5043     5073     5155     5274 
    5420     5584     5755     5911     6034     6114     6141     6126 
    6091     6056     6031     6027     6058     6115     6164     6177 
    6131     6021     5864     5675     5476     5285     5101     4953 
    4892     4942     5065     5196     5285     5321     5331     5335 
    5336     5319     5269     5212     5204     5267     5358     5429 
    5479     5528     5597     5697     5815     5929     6025     6111 
    6185     6237     6280     6318     6338     6328     6277     6177 
    6039     5873     5686     5522     5431     5421     5487     5607 
    5734     5826     5876     5873     5830     5780     5741     5705 
    5652     5591     5551     5529     5493     5425     5337     5255 
    5189     5119     5032     4946     4874     4827     4823     4857 
    4926     5032     5181     5366     5567     5755     5917     6050 
    6165     6270     6339     6357     6361     6376     6382     6370 
    6346     6308     6250     6174     6064     5908     5729     5545 
    5346     5123     4912     4766     4723     4791     4932     5101 
    5278     5458     5632     5784     5906     6007     6097     6162 
    6201     6243     6300     6349     6372     6367     6324     6207 
    6012     5784     5551     5327     5127     4959     4828     4747 
    4716     4727     4774     4855     4969     5094     5215     5343 
    5485     5636     5772     5868     5925     5968     6023     6087 
    6141     6166     6150     6077     5953     5813     5686     5564 
    5437     5320     5228     5175     5178     5217     5275     5344 
    5421     5526     5674     5844     6007     6150     6259     6330 
    6366     6359     6315     6255     6201     6161     6120     6066 
    6008     5950     5879     5771     5617     5428     5223     5024 
    4853     4731     4665     4650     4684     4741     4793     4843 
    4904     4993     5134     5324     5530     5725     5890     6011 
    6097     6170     6245     6311     6370     6423     6453     6450 
    6417     6353     6264     6168     6076     5972     5838     5678 
    5505     5354     5252     5212     5224     5267     5309     5324 
    5317     5316     5335     5362     5393     5429     5456     5479 
    5516     5567     5625     5697     5773     5844     5904     5957 
    5989     5991     5949     5869     5768     5653     5529     5402 
    5290     5212     5184     5205     5255     5314     5381     5456 
    5524     5583     5655     5734     5803     5846     5868     5883 
    5910     5933     5933     5935     5952     5962     5961     5941 
    5881     5780     5664     5535     5393     5262     5165     5120 
    5138     5196     5252     5298     5332     5356     5373     5385 
    5397     5412     5425     5452     5514     5602     5690     5773 
    5857     5953     6073     6201     6320     6415     6474     6494 
    6489     6478     6451     6396     6315     6197     6050     5902 
    5760     5611     5464     5337     5229     5127     5030     4931 
    4827     4731     4664     4639     4654     4688     4723     4769 
    4846     4958     5084     5204     5321     5439     5563     5710 
    5881     6053     6215     6374     6535     6694     6833     6897 
    6863     6777     6682     6581     6463     6328     6176     6011 
    5829     5630     5421     5217     5040     4915     4853     4855 
    4893     4919     4920     4939     4993     5067     5162     5278 
    5395     5495     5586     5678     5748     5771     5757     5728 
    5687     5651     5629     5607     5579     5567     5591     5649 
    5733     5830     5913     5961     5973     5958     5934     5899 
    5841     5740     5599     5460     5363     5301     5267     5283 
    5359     5468     5572     5651     5707     5746     5776     5806 
    5838     5876     5926     5987     6058     6129     6185     6218 
    6211     6162     6084     5987     5880     5776     5674     5563 
    5448     5339     5229     5120     5030     4969     4942     4966 
    5027     5097     5162     5224     5302     5404     5517     5629 
    5725     5794     5868     5971     6062     6097     6077     6023 
    5954     5875     5790     5709     5628     5552     5502     5466 
    5424     5390     5385     5401     5431     5481     5555     5638 
    5718     5795     5872     5946     6022     6102     6180     6254 
    6330     6390     6412     6397     6354     6278     6162     6012 
    5846     5675     5506     5346     5189     5030     4869     4722 
    4599     4496     4415     4383     4415     4504     4633     4787 
    4957     5157     5402     5668     5934     6200     6426     6570 
    6642     6650     6596     6490     6353     6195     6014     5832 
    5690     5605     5560     5535     5506     5464     5410     5375 
    5385     5436     5510     5605     5714     5818     5904     5968 
    6007     6022     6012     5994     5968     5915     5833     5734 
    5621     5508     5416     5340     5267     5198     5130     5065 
    5022     5009     5019     5044     5094     5162     5239     5329 
    5447     5586     5729     5871     6014     6138     6234     6311 
    6369     6389     6367     6319     6250     6164     6064     5956 
    5848     5755     5675     5601     5532     5452     5343     5213 
    5092     4995     4912     4849     4807     4788     4797     4841 
    4922     5046     5202     5381     5572     5767     5946     6099 
    6222     6327     6416     6485     6547     6600     6631     6633 
    6596     6523     6431     6319     6187     6048     5903     5755 
    5616     5493     5393     5319     5274     5259     5247     5211 
    5155     5107     5076     5057     5042     5028     5013     5013 
    5038     5082     5130     5167     5194     5219     5248     5289 
    5348     5439     5551     5674     5788     5880     5945     5996 
    6023     6019     6008     6003     5995     5967     5923     5895 
    5895     5903     5908     5917     5923     5921     5915     5910 
    5900     5877     5842     5806     5782     5776     5775     5756 
    5709     5638     5568     5514     5487     5493     5518     5544 
    5568     5593     5613     5624     5629     5622     5602     5574 
    5541     5498     5447     5401     5359     5314     5274     5243 
    5217     5208     5211     5209     5212     5233     5275     5350 
    5467     5624     5798     5961     6096     6196     6264     6305 
    6332     6340     6308     6231     6134     6031     5922     5803 
    5671     5532     5412     5325     5267     5229     5198     5170 
    5158     5177     5231     5312     5406     5508     5630     5760 
    5876     5975     6056     6110     6129     6108     6048     5957 
    5869     5795     5719     5628     5528     5431     5344     5274 
    5220     5189     5197     5235     5269     5283     5287     5289 
    5293     5300     5323     5373     5435     5506     5602     5719 
    5837     5940     6038     6139     6243     6345     6435     6502 
    6551     6588     6598     6571     6500     6396     6276     6134 
    5972     5809     5656     5508     5351     5194     5044     4903 
    4777     4662     4554     4459     4383     4336     4325     4352 
    4422     4553     4745     4969     5204     5449     5711     5971 
    6191     6355     6470     6536     6573     6600     6616     6624 
    6623     6602     6556     6489     6397     6291     6181     6068 
    5950     5840     5737     5630     5524     5417     5305     5188 
    5071     4973     4904     4864     4858     4903     4982     5065 
    5140     5219     5301     5390     5479     5552     5602     5641 
    5668     5697     5730     5763     5792     5832     5868     5891 
    5907     5911     5896     5872     5852     5842     5844     5840 
    5825     5799     5769     5745     5725     5717     5718     5706 
    5672     5636     5613     5605     5613     5629     5647     5659 
    5663     5652     5632     5613     5584     5533     5476     5449 
    5456     5466     5472     5485     5505     5536     5566     5579 
    5560     5508     5439     5375     5337     5324     5321     5319 
    5316     5329     5374     5443     5539     5661     5798     5927 
    6045     6165     6286     6405     6502     6552     6548     6511 
    6458     6400     6319     6205     6075     5941     5806     5672 
    5539     5408     5287     5181     5093     5032     4995     4976 
    4980     5009     5044     5086     5140     5200     5250     5287 
    5314     5332     5347     5358     5366     5394     5447     5495 
    5533     5570     5609     5647     5678     5691     5686     5661 
    5638     5648     5692     5752     5805     5842     5871     5884 
    5880     5875     5875     5872     5867     5867     5886     5931 
    5989     6037     6066     6079     6069     6037     5987     5929 
    5884     5865     5864     5867     5864     5846     5810     5769 
    5736     5701     5659     5607     5541     5466     5391     5333 
    5305     5309     5328     5335     5328     5317     5308     5297 
    5275     5244     5209     5181     5181     5212     5251     5283 
    5312     5350     5414     5502     5584     5652     5710     5761 
    5790     5794     5800     5822     5853     5890     5930     5958 
    5960     5952     5941     5929     5941     5972     5992     5992 
    5980     5960     5944     5937     5933     5926     5907     5859 
    5771     5665     5572     5499     5452     5414     5363     5294 
    5221     5139     5046     4959     4903     4896     4941     5028 
    5152     5305     5467     5616     5738     5844     5937     6015 
    6075     6111     6137     6164     6174     6164     6153     6151 
    6157     6170     6172     6142     6089     6025     5944     5849 
    5757     5665     5568     5478     5395     5309     5221     5147 
    5084     5027     4992     4989     5015     5059     5123     5192 
    5251     5304     5358     5412     5471     5532     5579     5599 
    5605     5607     5617     5644     5683     5729     5778     5830 
    5881     5931     5989     6050     6107     6165     6214     6228 
    6219     6214     6204     6185     6162     6130     6083     6019 
    5944     5852     5746     5636     5535     5447     5378     5328 
    5301     5296     5304     5321     5348     5364     5356     5335 
    5325     5333     5356     5389     5428     5481     5537     5571 
    5570     5555     5544     5541     5537     5532     5512     5474 
    5428     5378     5324     5263     5205     5166     5154     5174 
    5231     5324     5447     5584     5733     5888     6031     6150 
    6238     6285     6303     6303     6285     6253     6214     6174 
    6139     6104     6066     6029     5981     5925     5872     5832 
    5799     5763     5713     5647     5560     5449     5317     5179 
    5044     4938     4872     4834     4823     4845     4893     4969 
    5067     5190     5324     5455     5576     5686     5794     5898 
    5980     6039     6099     6157     6193     6196     6166     6108 
    6033     5964     5907     5842     5764     5692     5633     5576 
    5524     5493     5487     5499     5518     5541     5576     5620 
    5663     5688     5687     5671     5659     5653     5648     5647 
    5652     5655     5655     5644     5610     5564     5517     5466 
    5416     5383     5374     5390     5429     5468     5497     5510 
    5510     5513     5525     5537     5555     5582     5602     5616 
    5632     5651     5664     5683     5721     5776     5842     5917 
    5971     5979     5953     5923     5895     5875     5867     5857 
    5840     5818     5802     5803     5819     5840     5852     5849 
    5844     5834     5819     5799     5772     5737     5694     5659 
    5644     5634     5611     5562     5489     5416     5344     5278 
    5239     5239     5255     5279     5312     5362     5424     5485 
    5543     5607     5679     5740     5775     5787     5779     5745 
    5698     5647     5598     5560     5521     5479     5445     5418 
    5397     5389     5398     5424     5459     5495     5526     5556 
    5578     5582     5576     5567     5566     5578     5601     5617 
    5618     5611     5606     5605     5610     5622     5641     5670 
    5707     5745     5779     5813     5853     5903     5965     6046 
    6129     6191     6235     6269     6277     6262     6241     6218 
    6174     6096     5984     5849     5702     5557     5421     5301 
    5186     5067     4951     4861     4806     4783     4799     4851 
    4927     5015     5101     5189     5300     5429     5555     5667 
    5767     5860     5946     6030     6104     6150     6157     6137 
    6102     6049     5988     5930     5873     5814     5763     5719 
    5679     5637     5598     5564     5539     5522     5501     5478 
    5454     5429     5420     5436     5468     5509     5548     5579 
