Origin Time       2025/03/30 10:18:00
Lat.              34.667
Long.             140.825
Depth. (km)       69
Mag.              4.9
Station Code      CHB020
Station Lat.      35.1132
Station Long.     140.1006
Station Height(m) 9
Record Time       2025/03/30 10:18:59
Sampling Freq(Hz) 100Hz
Duration Time(s)  65
Dir.              E-W
Scale Factor      7845(gal)/8223790
Max. Acc. (gal)   4.550
Last Correction   2025/03/30 10:18:58
Memo.             
[...]
   -4680    -4695    -4696    -4693    -4684    -4665    -4657    -4666 
   -4676    -4685    -4693    -4687    -4689    -4702    -4669    -4608 
   -4598    -4648    -4719    -4780    -4804    -4776    -4715    -4681 
   -4696    -4734    -4752    -4702    -4604    -4560    -4600    -4629 
   -4608    -4621    -4691    -4743    -4734    -4708    -4726    -4749 
   -4720    -4671    -4660    -4683    -4695    -4664    -4614    -4591 
   -4611    -4693    -4830    -4919    -4896    -4803    -4703    -4645 
   -4649    -4650    -4584    -4496    -4453    -4463    -4504    -4576 
   -4664    -4742    -4800    -4846    -4870    -4851    -4796    -4731 
   -4666    -4600    -4552    -4537    -4591    -4692    -4729    -4684 
   -4633    -4608    -4657    -4787    -4891    -4876    -4729    -4541 
   -4450    -4522    -4702    -4861    -4904    -4855    -4776    -4679 
   -4567    -4468    -4429    -4473    -4561    -4644    -4752    -4888 
   -4957    -4891    -4752    -4639    -4575    -4529    -4494    -4461 
   -4448    -4480    -4563    -4730    -4977    -5162    -5123    -4870 
   -4587    -4436    -4464    -4619    -4757    -4761    -4673    -4612 
   -4594    -4568    -4540    -4558    -4653    -4789    -4878    -4855 
   -4734    -4591    -4518    -4573    -4727    -4885    -4927    -4799 
   -4598    -4452    -4419    -4504    -4656    -4800    -4845    -4747 
   -4622    -4606    -4702    -4818    -4868    -4835    -4772    -4718 
   -4646    -4502    -4340    -4282    -4375    -4579    -4816    -4980 
   -4980    -4831    -4676    -4621    -4645    -4699    -4738    -4731 
   -4689    -4652    -4648    -4695    -4795    -4874    -4851    -4742 
   -4608    -4544    -4602    -4720    -4818    -4865    -4828    -4722 
   -4599    -4480    -4384    -4374    -4459    -4557    -4614    -4658 
   -4683    -4618    -4504    -4479    -4571    -4689    -4754    -4784 
   -4824    -4855    -4864    -4891    -4935    -4927    -4850    -4777 
   -4747    -4723    -4668    -4594    -4554    -4568    -4638    -4738 
   -4747    -4660    -4650    -4757    -4861    -4872    -4800    -4706 
   -4590    -4484    -4479    -4540    -4583    -4577    -4563    -4641 
   -4818    -4958    -4958    -4837    -4679    -4568    -4556    -4608 
   -4633    -4600    -4546    -4518    -4530    -4564    -4576    -4572 
   -4617    -4683    -4702    -4754    -4874    -4914    -4823    -4720 
   -4684    -4673    -4611    -4538    -4545    -4614    -4634    -4565 
   -4526    -4607    -4666    -4594    -4521    -4510    -4496    -4510 
   -4571    -4639    -4693    -4716    -4731    -4758    -4822    -4942 
   -5057    -5107    -5069    -4903    -4665    -4477    -4411    -4465 
   -4610    -4784    -4873    -4814    -4703    -4668    -4739    -4842 
   -4843    -4735    -4602    -4464    -4342    -4322    -4437    -4599 
   -4696    -4712    -4684    -4672    -4696    -4720    -4762    -4881 
   -5046    -5115    -5024    -4861    -4698    -4564    -4510    -4530 
   -4553    -4533    -4468    -4415    -4463    -4596    -4703    -4754 
   -4811    -4866    -4873    -4842    -4789    -4725    -4676    -4641 
   -4614    -4592    -4579    -4630    -4741    -4835    -4881    -4861 
   -4774    -4714    -4712    -4719    -4683    -4563    -4384    -4241 
   -4193    -4267    -4423    -4576    -4680    -4730    -4756    -4756 
   -4714    -4702    -4768    -4807    -4769    -4711    -4666    -4627 
   -4581    -4558    -4604    -4714    -4834    -4907    -4907    -4827 
   -4683    -4548    -4507    -4549    -4584    -4580    -4607    -4708 
   -4834    -4909    -4912    -4885    -4878    -4916    -5005    -5100 
   -5107    -4997    -4818    -4630    -4480    -4406    -4440    -4550 
   -4638    -4648    -4617    -4590    -4572    -4569    -4579    -4595 
   -4608    -4552    -4419    -4341    -4375    -4477    -4625    -4793 
   -4945    -5046    -5096    -5096    -5028    -4905    -4774    -4680 
   -4657    -4681    -4689    -4652    -4550    -4405    -4290    -4280 
   -4349    -4396    -4413    -4455    -4526    -4581    -4626    -4729 
   -4900    -5039    -5030    -4877    -4727    -4658    -4602    -4554 
   -4594    -4691    -4756    -4768    -4747    -4715    -4668    -4561 
   -4437    -4419    -4526    -4648    -4702    -4702    -4668    -4598 
   -4545    -4561    -4603    -4627    -4638    -4646    -4696    -4807 
   -4900    -4901    -4819    -4726    -4708    -4746    -4733    -4671 
   -4625    -4591    -4564    -4581    -4672    -4824    -4969    -5085 
   -5196    -5250    -5182    -4966    -4662    -4452    -4436    -4542 
   -4657    -4722    -4756    -4766    -4735    -4689    -4634    -4581 
   -4571    -4561    -4522    -4522    -4594    -4673    -4726    -4791 
   -4881    -4931    -4880    -4734    -4557    -4446    -4476    -4565 
   -4618    -4725    -4904    -5015    -5009    -4936    -4811    -4673 
   -4594    -4579    -4594    -4633    -4656    -4600    -4500    -4423 
   -4349    -4267    -4241    -4274    -4266    -4216    -4218    -4275 
   -4363    -4503    -4664    -4792    -4823    -4735    -4606    -4513 
   -4490    -4538    -4641    -4770    -4843    -4800    -4757    -4833 
   -4984    -5113    -5144    -5063    -4950    -4855    -4752    -4662 
   -4675    -4780    -4892    -4962    -4984    -4981    -4968    -4900 
   -4761    -4645    -4657    -4762    -4827    -4803    -4737    -4675 
   -4649    -4669    -4711    -4768    -4814    -4800    -4750    -4714 
   -4668    -4585    -4500    -4491    -4596    -4722    -4765    -4753 
   -4752    -4758    -4711    -4608    -4506    -4410    -4305    -4218 
   -4203    -4268    -4340    -4361    -4359    -4367    -4383    -4423 
   -4530    -4687    -4787    -4758    -4668    -4622    -4653    -4729 
   -4762    -4716    -4656    -4637    -4644    -4664    -4698    -4726 
   -4735    -4712    -4658    -4622    -4641    -4704    -4791    -4876 
   -4931    -4934    -4912    -4916    -4949    -4982    -4992    -4949 
   -4866    -4750    -4608    -4523    -4549    -4637    -4746    -4874 
   -4989    -5019    -4955    -4877    -4835    -4784    -4683    -4587 
   -4561    -4561    -4548    -4560    -4603    -4625    -4598    -4564 
   -4568    -4585    -4607    -4683    -4795    -4869    -4887    -4857 
   -4806    -4773    -4768    -4774    -4738    -4618    -4465    -4361 
   -4355    -4430    -4536    -4631    -4665    -4596    -4487    -4422 
   -4421    -4480    -4583    -4673    -4706    -4675    -4604    -4554 
   -4603    -4768    -4945    -5005    -4936    -4801    -4660    -4569 
   -4549    -4568    -4575    -4525    -4445    -4413    -4432    -4477 
   -4553    -4634    -4658    -4580    -4442    -4341    -4322    -4396 
   -4533    -4654    -4745    -4820    -4888    -4970    -5055    -5092 
   -5074    -5030    -4988    -4939    -4866    -4818    -4837    -4888 
   -4954    -5050    -5139    -5179    -5148    -5016    -4820    -4673 
   -4612    -4600    -4607    -4625    -4623    -4590    -4544    -4482 
   -4422    -4457    -4598    -4747    -4853    -4887    -4808    -4661 
   -4510    -4372    -4282    -4267    -4288    -4309    -4359    -4453 
   -4563    -4677    -4800    -4884    -4897    -4872    -4828    -4741 
   -4626    -4575    -4590    -4619    -4658    -4654    -4577    -4517 
   -4488    -4482    -4556    -4685    -4762    -4764    -4749    -4747 
   -4741    -4729    -4700    -4646    -4614    -4619    -4583    -4487 
   -4449    -4523    -4644    -4796    -4939    -4973    -4941    -4932 
   -4942    -4957    -4959    -4907    -4788    -4627    -4469    -4345 
   -4290    -4328    -4445    -4611    -4764    -4823    -4797    -4787 
   -4861    -4997    -5104    -5125    -5077    -5017    -4978    -4907 
   -4789    -4698    -4634    -4567    -4510    -4476    -4445    -4413 
   -4403    -4417    -4434    -4459    -4486    -4527    -4590    -4584 
   -4460    -4313    -4232    -4230    -4293    -4392    -4483    -4521 
   -4522    -4540    -4594    -4661    -4706    -4739    -4823    -4934 
   -4958    -4893    -4853    -4849    -4820    -4796    -4820    -4811 
   -4692    -4526    -4437    -4503    -4703    -4926    -5101    -5217 
   -5229    -5136    -5015    -4945    -4968    -5049    -5127    -5169 
   -5135    -5013    -4830    -4650    -4544    -4487    -4426    -4340 
   -4228    -4133    -4112    -4191    -4348    -4468    -4483    -4442 
   -4402    -4391    -4409    -4452    -4542    -4654    -4743    -4812 
   -4884    -4969    -5032    -5039    -5012    -4953    -4841    -4687 
   -4525    -4392    -4334    -4351    -4388    -4411    -4441    -4490 
   -4518    -4533    -4585    -4662    -4693    -4684    -4654    -4599 
   -4572    -4612    -4677    -4750    -4853    -4938    -4972    -5007 
   -5061    -5078    -5042    -4968    -4889    -4857    -4873    -4897 
   -4888    -4837    -4787    -4779    -4816    -4876    -4939    -4986 
   -4969    -4877    -4779    -4688    -4573    -4455    -4384    -4405 
   -4495    -4584    -4638    -4661    -4654    -4633    -4600    -4552 
   -4471    -4374    -4325    -4368    -4473    -4580    -4648    -4680 
   -4702    -4715    -4734    -4773    -4785    -4754    -4722    -4691 
   -4680    -4712    -4718    -4625    -4483    -4357    -4247    -4153 
   -4122    -4168    -4282    -4403    -4473    -4545    -4679    -4783 
   -4757    -4642    -4527    -4430    -4336    -4275    -4294    -4378 
   -4488    -4600    -4687    -4738    -4769    -4810    -4891    -5034 
   -5193    -5287    -5306    -5279    -5238    -5217    -5211    -5205 
   -5240    -5274    -5208    -5081    -4986    -4935    -4903    -4860 
   -4815    -4810    -4843    -4870    -4858    -4820    -4739    -4569 
   -4372    -4241    -4224    -4330    -4475    -4564    -4580    -4545 
   -4504    -4510    -4575    -4594    -4487    -4347    -4259    -4206 
   -4197    -4218    -4297    -4557    -4920    -5080    -4976    -4799 
   -4639    -4515    -4483    -4523    -4592    -4699    -4833    -4928 
   -4961    -4946    -4865    -4769    -4733    -4654    -4517    -4450 
   -4446    -4437    -4411    -4365    -4375    -4533    -4734    -4780 
   -4738    -4761    -4789    -4799    -4835    -4842    -4828    -4870 
   -4909    -4869    -4816    -4842    -4892    -4905    -4903    -4884 
   -4850    -4766    -4590    -4436    -4457    -4592    -4719    -4810 
   -4837    -4793    -4750    -4733    -4704    -4653    -4565    -4445 
   -4355    -4336    -4402    -4568    -4761    -4842    -4801    -4756 
   -4749    -4716    -4683    -4719    -4743    -4673    -4552    -4421 
   -4307    -4267    -4310    -4401    -4521    -4684    -4877    -5034 
   -5117    -5121    -5013    -4827    -4665    -4590    -4590    -4650 
   -4696    -4657    -4633    -4695    -4733    -4685    -4619    -4572 
   -4550    -4553    -4576    -4625    -4706    -4752    -4684    -4591 
   -4656    -4851    -4982    -4938    -4757    -4607    -4579    -4526 
   -4236    -3829    -3762    -3974    -3993    -3909    -3951    -3920 
   -3780    -3805    -4101    -4537    -4831    -4773    -4571    -4467 
   -4544    -4726    -4733    -4629    -4635    -4654    -4657    -4708 
   -4745    -4785    -4818    -4799    -4909    -5175    -5255    -5051 
   -4830    -4758    -4860    -5043    -5059    -4826    -4577    -4488 
   -4587    -4834    -5044    -5065    -4990    -4997    -5078    -5166 
   -5258    -5412    -5737    -6049    -6070    -6030    -6265    -6620 
   -6758    -6706    -6674    -6627    -6546    -6421    -6099    -5637 
   -5232    -4966    -4812    -4596    -4217    -3851    -3642    -3462 
   -3287    -3258    -3280    -3199    -3063    -2911    -2755    -2637 
   -2635    -2770    -2961    -3188    -3460    -3723    -3971    -4213 
   -4399    -4518    -4600    -4671    -4743    -4797    -4789    -4747 
   -4737    -4691    -4527    -4290    -4041    -3865    -3825    -3875 
   -3906    -3877    -3879    -3997    -4175    -4353    -4514    -4691 
   -4947    -5221    -5402    -5516    -5648    -5784    -5826    -5737 
   -5630    -5667    -5875    -6142    -6365    -6489    -6527    -6520 
   -6428    -6214    -5942    -5616    -5188    -4737    -4399    -4245 
   -4261    -4394    -4576    -4725    -4791    -4835    -4927    -4996 
   -4950    -4789    -4548    -4363    -4351    -4428    -4410    -4228 
   -4033    -3978    -3975    -3866    -3626    -3312    -3014    -2821 
   -2743    -2698    -2613    -2467    -2344    -2412    -2714    -3153 
   -3647    -4113    -4456    -4660    -4807    -4958    -5100    -5256 
   -5448    -5636    -5823    -6004    -6114    -6168    -6232    -6291 
   -6308    -6324    -6400    -6498    -6486    -6291    -5964    -5536 
   -5017    -4471    -3970    -3628    -3588    -3856    -4291    -4708 
   -4990    -5139    -5215    -5247    -5193    -5092    -5078    -5179 
   -5335    -5543    -5776    -5926    -5867    -5539    -5030    -4531 
   -4198    -4090    -4230    -4615    -5125    -5552    -5768    -5783 
   -5699    -5574    -5370    -5139    -4950    -4739    -4494    -4297 
   -4147    -3974    -3727    -3438    -3198    -3029    -2862    -2601 
   -2236    -1844    -1451    -1048     -739     -673     -913    -1448 
   -2199    -3041    -3882    -4629    -5198    -5593    -5823    -5919 
   -5935    -5953    -6061    -6246    -6381    -6376    -6241    -5999 
   -5659    -5267    -4939    -4699    -4465    -4209    -3861    -3337 
   -2694    -2030    -1487    -1250    -1354    -1745    -2373    -3186 
   -4140    -5154    -6181    -7177    -8024    -8668    -9123    -9378 
   -9450    -9386    -9261    -9153    -9067    -8951    -8775    -8546 
   -8263    -7958    -7709    -7497    -7257    -6979    -6642    -6197 
   -5597    -4857    -4091    -3346    -2650    -2089    -1668    -1329 
   -1074     -938     -923    -1015    -1215    -1516    -1949    -2532 
   -3148    -3653    -4014    -4220    -4218    -4050    -3801    -3546 
   -3402    -3481    -3796    -4239    -4648    -4891    -4897    -4720 
   -4459    -4170    -3963    -3924    -4009    -4089    -4044    -3832 
   -3424    -2849    -2253    -1746    -1399    -1305    -1487    -1888 
   -2416    -2978    -3535    -4112    -4726    -5352    -5983    -6563 
   -6967    -7176    -7237    -7138    -6917    -6694    -6569    -6558 
   -6674    -6917    -7206    -7488    -7736    -7881    -7952    -8027 
   -8109    -8127    -8044    -7943    -7796    -7477    -7055    -6617 
   -6156    -5665    -5112    -4445    -3650    -2776    -1949    -1289 
    -893     -756     -783     -915    -1050    -1098    -1104    -1096 
   -1123    -1323    -1759    -2415    -3231    -4108    -4953    -5686 
   -6259    -6659    -6856    -6921    -6951    -6940    -6897    -6841 
   -6790    -6785    -6778    -6683    -6451    -6015    -5385    -4645 
   -3869    -3157    -2600    -2270    -2215    -2335    -2504    -2646 
   -2724    -2814    -2944    -2992    -2943    -2857    -2760    -2755 
   -2963    -3396    -4021    -4739    -5445    -6084    -6609    -6993 
   -7214    -7276    -7252    -7196    -7076    -6891    -6677    -6405 
   -6099    -5845    -5724    -5764    -5899    -6070    -6253    -6362 
   -6396    -6394    -6288    -6037    -5678    -5213    -4676    -4166 
   -3811    -3666    -3658    -3692    -3697    -3609    -3456    -3283 
   -3088    -2932    -2868    -2859    -2884    -2938    -2990    -3041 
   -3076    -3049    -2987    -2901    -2751    -2528    -2303    -2196 
   -2232    -2343    -2540    -2856    -3304    -3893    -4569    -5262 
   -5946    -6578    -7094    -7503    -7824    -8048    -8164    -8171 
   -8085    -7898    -7599    -7242    -6897    -6612    -6416    -6253 
   -6050    -5818    -5571    -5283    -4950    -4583    -4220    -3901 
   -3618    -3387    -3262    -3273    -3406    -3592    -3743    -3823 
   -3816    -3734    -3597    -3411    -3245    -3148    -3071    -2990 
   -2903    -2803    -2747    -2747    -2833    -3067    -3414    -3846 
   -4353    -4851    -5309    -5745    -6119    -6399    -6546    -6536 
   -6416    -6253    -6104    -5984    -5844    -5703    -5570    -5402 
   -5242    -5121    -5047    -5039    -5063    -5062    -5008    -4868 
   -4648    -4398    -4197    -4122    -4202    -4438    -4827    -5314 
   -5795    -6174    -6393    -6450    -6374    -6184    -5888    -5495 
   -5027    -4521    -3997    -3476    -2987    -2579    -2313    -2247 
   -2416    -2762    -3160    -3519    -3812    -4062    -4270    -4384 
   -4379    -4263    -4071    -3893    -3766    -3647    -3528    -3423 
   -3334    -3304    -3380    -3562    -3838    -4185    -4556    -4901 
   -5182    -5414    -5628    -5810    -5968    -6127    -6269    -6384 
   -6508    -6659    -6804    -6926    -7029    -7094    -7113    -7068 
   -6929    -6693    -6393    -6064    -5744    -5410    -4997    -4504 
   -4014    -3577    -3202    -2922    -2749    -2631    -2533    -2458 
   -2384    -2320    -2330    -2490    -2832    -3315    -3859    -4345 
   -4716    -4996    -5166    -5260    -5389    -5571    -5783    -6003 
   -6204    -6357    -6427    -6378    -6203    -5929    -5580    -5150 
   -4646    -4124    -3616    -3141    -2740    -2451    -2282    -2273 
   -2463    -2822    -3276    -3762    -4218    -4587    -4849    -5015 
   -5109    -5158    -5175    -5186    -5244    -5390    -5575    -5732 
   -5846    -5887    -5827    -5703    -5535    -5316    -5090    -4903 
   -4749    -4618    -4514    -4455    -4446    -4469    -4498    -4527 
   -4576    -4683    -4858    -5028    -5150    -5242    -5298    -5332 
   -5389    -5439    -5443    -5424    -5387    -5321    -5216    -5050 
   -4788    -4461    -4131    -3805    -3514    -3314    -3198    -3117 
   -3052    -3019    -3033    -3100    -3231    -3438    -3700    -3964 
   -4212    -4445    -4672    -4893    -5063    -5185    -5300    -5379 
   -5389    -5374    -5368    -5360    -5367    -5418    -5510    -5606 
   -5698    -5786    -5850    -5927    -6012    -6004    -5845    -5553 
   -5184    -4785    -4380    -4009    -3713    -3518    -3446    -3483 
   -3591    -3736    -3882    -4031    -4194    -4342    -4483    -4633 
   -4760    -4862    -4961    -5036    -5076    -5090    -5112    -5150 
   -5182    -5150    -5009    -4818    -4650    -4527    -4441    -4368 
   -4291    -4195    -4074    -3951    -3813    -3666    -3611    -3693 
   -3858    -4093    -4387    -4673    -4927    -5169    -5344    -5406 
   -5402    -5389    -5359    -5340    -5366    -5393    -5364    -5312 
   -5255    -5177    -5093    -5049    -5044    -5076    -5144    -5209 
   -5206    -5121    -4993    -4849    -4672    -4465    -4259    -4070 
   -3937    -3889    -3882    -3893    -3944    -4014    -4079    -4163 
   -4244    -4261    -4243    -4221    -4186    -4145    -4117    -4079 
   -4020    -3959    -3946    -3994    -4101    -4303    -4607    -4961 
   -5337    -5702    -5987    -6197    -6396    -6565    -6635    -6590 
   -6424    -6141    -5810    -5476    -5130    -4804    -4534    -4303 
   -4102    -3943    -3877    -3912    -3982    -4010    -3983    -3928 
   -3855    -3758    -3674    -3655    -3690    -3767    -3874    -3996 
   -4141    -4294    -4407    -4500    -4564    -4576    -4573    -4580 
   -4580    -4594    -4657    -4792    -4972    -5148    -5278    -5317 
   -5290    -5282    -5309    -5333    -5375    -5451    -5516    -5560 
   -5589    -5563    -5471    -5383    -5321    -5225    -5093    -4984 
