Origin Time       2025/03/30 10:18:00
Lat.              34.667
Long.             140.825
Depth. (km)       69
Mag.              4.9
Station Code      CHB016
Station Lat.      35.2998
Station Long.     140.3866
Station Height(m) 7
Record Time       2025/03/30 10:19:01
Sampling Freq(Hz) 100Hz
Duration Time(s)  60
Dir.              N-S
Scale Factor      7845(gal)/8223790
Max. Acc. (gal)   1.694
Last Correction   2025/03/30 10:19:00
Memo.             
[...]
    -931     -892     -812     -830     -981    -1026     -862     -757 
    -864     -966     -915     -838     -842     -869     -893     -922 
    -899     -847     -866     -915     -909     -904     -909     -865 
    -822     -868     -972     -988     -869     -785     -847     -945 
    -935     -843     -801     -841     -919     -994     -976     -866 
    -832     -896     -903     -866     -901     -942     -927     -919 
    -915     -896     -878     -843     -816     -849     -896     -909 
    -897     -896     -903     -905     -909     -900     -880     -881 
    -901     -927     -930     -882     -831     -834     -854     -857 
    -862     -878     -886     -908     -935     -942     -950     -940 
    -873     -824     -843     -830     -774     -789     -864     -889 
    -870     -872     -872     -876     -955    -1038    -1003     -927 
    -909     -893     -839     -781     -731     -747     -838     -884 
    -850     -846     -889     -936    -1003    -1012     -911     -843 
    -901     -967     -912     -811     -815     -897     -947     -936 
    -885     -842     -872     -938     -936     -835     -733     -741 
    -847     -980    -1032     -967     -897     -889     -899     -923 
    -974    -1001     -955     -872     -796     -746     -757     -810 
    -816     -801     -838     -918     -977     -972     -954     -962 
    -911     -810     -800     -862     -899     -935     -965     -963 
    -954     -885     -743     -679     -766     -897     -966     -978 
    -965     -897     -814     -849     -966     -969     -839     -780 
    -858     -930     -928     -911     -895     -895     -931     -936 
    -853     -815     -943    -1055     -969     -865     -897     -913 
    -834     -761     -711     -681     -764     -919    -1011    -1031 
   -1048    -1077    -1074    -1034     -997     -936     -804     -700 
    -711     -764     -793     -820     -846     -868     -903     -928 
    -954    -1008    -1013     -931     -859     -846     -850     -855 
    -812     -726     -734     -842     -889     -897     -965    -1001 
    -972    -1001    -1017     -819     -557     -552     -757     -892 
    -876     -850     -915    -1001    -1028    -1023     -974     -869 
    -814     -865     -911     -912     -934     -924     -843     -769 
    -724     -750     -896    -1005     -982     -947     -950     -920 
    -861     -832     -876     -969    -1021     -957     -850     -826 
    -854     -855     -819     -741     -700     -800     -940    -1017 
   -1097    -1143    -1017     -789     -646     -649     -758     -885 
   -1011    -1178    -1190     -908     -639     -614     -693     -785 
    -940    -1084    -1158    -1205    -1135     -935     -841     -837 
    -734     -635     -658     -706     -772     -895     -993     -993 
    -891     -803     -878    -1001     -967     -873     -865     -841 
    -737     -700     -777     -866     -926     -963     -972     -980 
   -1004     -962     -842     -769     -791     -830     -849     -864 
    -845     -831     -909    -1028    -1081    -1007     -851     -801 
    -895     -972     -977     -912     -784     -757     -872     -896 
    -826     -878     -982     -943     -849     -849     -912     -957 
    -926     -820     -776     -865     -970    -1039    -1062     -973 
    -861     -877     -959     -950     -822     -681     -658     -793 
   -1005    -1109     -996     -850     -847     -880     -865     -862 
    -918    -1012    -1030     -926     -837     -858     -904     -864 
    -772     -742     -804     -900     -909     -811     -796     -935 
    -980     -853     -784     -820     -830     -854     -942     -977 
    -891     -795     -819     -911     -962     -954     -866     -688 
    -557     -652     -885     -994     -965     -982    -1046    -1036 
    -966     -896     -837     -783     -776     -895    -1089    -1163 
   -1067     -950     -837     -650     -492     -545     -785    -1004 
   -1023     -880     -768     -823     -966    -1040    -1023     -999 
   -1030    -1080    -1013     -885     -886     -924     -810     -657 
    -653     -797    -1004    -1167    -1194    -1107     -958     -799 
    -734     -814     -901     -911     -928     -976     -938     -814 
    -753     -757     -737     -797     -996    -1113    -1058    -1007 
   -1000     -920     -800     -777     -850     -896     -869     -849 
    -872     -869     -800     -747     -796     -931    -1031    -1020 
    -916     -762     -637     -645     -766     -882     -930     -935 
    -916     -873     -855     -932    -1003     -908     -747     -720 
    -815     -924    -1031    -1093    -1039     -912     -810     -772 
    -789     -832     -892     -958     -992     -949     -853     -787 
    -753     -699     -661     -730     -907    -1038     -984     -884 
    -928    -1003     -927     -796     -783     -874     -996    -1098 
   -1085     -980     -930     -893     -777     -714     -795     -903 
    -967    -1040    -1112    -1146    -1097     -885     -604     -464 
    -521     -765    -1132    -1375    -1324    -1128     -966     -850 
    -796     -823     -838     -776     -742     -797     -851     -835 
    -730     -600     -581     -714     -905     -990     -943     -958 
   -1080    -1069     -838     -608     -567     -672     -800     -939 
   -1073    -1139    -1134    -1030     -743     -438     -467     -792 
   -1030    -1085    -1119    -1098     -981     -854     -735     -634 
    -622     -666     -738     -850     -954    -1015    -1051    -1057 
   -1008     -935     -900     -950    -1077    -1138    -1027     -861 
    -800     -811     -854     -974    -1059     -969     -820     -768 
    -793     -861     -986    -1093    -1092    -1009     -927     -918 
    -923     -869     -820     -805     -792     -804     -845     -853 
    -869    -1003    -1173    -1212    -1100     -932     -845     -873 
    -923     -905     -842     -818     -842     -904     -984     -939 
    -788     -710     -699     -648     -553     -538     -675     -872 
    -994     -986     -928     -859     -714     -581     -643     -842 
    -958     -976     -993     -950     -796     -660     -660     -784 
    -897     -922     -927     -958     -976     -918     -807     -765 
    -837     -974    -1081    -1081    -1020     -905     -738     -645 
    -660     -729     -847     -969    -1013    -1000    -1012     -996 
    -853     -724     -816    -1040    -1136    -1098    -1135    -1185 
   -1080    -1011    -1115    -1182    -1054     -878     -891    -1040 
   -1077     -947     -780     -714     -784     -896     -969     -959 
    -822     -669     -697     -861     -946     -907     -850     -850 
    -911     -961     -908     -793     -706     -591     -491     -561 
    -715     -793     -814     -818     -824     -870     -940     -963 
    -897     -831     -888     -985     -939     -830     -834     -869 
    -832     -837     -936    -1016    -1044    -1065    -1024     -911 
    -839     -818     -719     -583     -630     -854    -1028    -1089 
   -1107    -1086     -988     -791     -608     -602     -734     -870 
    -974    -1039    -1015     -923     -831     -764     -724     -734 
    -789     -855     -931    -1032    -1055     -899     -711     -683 
    -762     -837     -930    -1059    -1120    -1084    -1035     -990 
    -932     -878     -805     -726     -769     -981    -1174    -1169 
   -1035     -957     -966     -992    -1030    -1113    -1167    -1086 
    -919     -785     -754     -811     -885     -928     -913     -851 
    -837     -922     -984     -895     -769     -766     -861     -965 
   -1036    -1053    -1008     -880     -684     -537     -580     -834 
   -1109    -1185    -1080     -959     -876     -780     -689     -652 
    -633     -602     -615     -684     -743     -758     -784     -865 
    -939     -966    -1035    -1124    -1109    -1034     -981     -897 
    -810     -855     -985     -999     -853     -688     -580     -490 
    -479     -656     -916    -1081    -1117    -1054     -939     -855 
    -810     -726     -633     -646     -774     -931    -1063    -1148 
   -1167    -1131    -1078    -1061    -1111    -1167    -1174    -1127 
    -990     -760     -589     -622     -723     -692     -652     -822 
   -1081    -1155     -999     -739     -553     -557     -676     -788 
    -886     -986    -1012     -891     -737     -770     -951     -997 
    -870     -819     -953    -1120    -1206    -1205    -1136    -1031 
    -920     -837     -832     -900     -940     -913     -901     -951 
   -1000    -1017    -1026    -1028    -1009     -949     -866     -832 
    -850     -845     -746     -565     -468     -598     -818     -935 
    -984    -1053    -1112    -1104    -1020     -903     -793     -716 
    -723     -747     -642     -457     -405     -558     -778     -882 
    -874     -908     -970     -938     -865     -866     -895     -904 
    -946     -992     -942     -822     -768     -805     -861     -923 
   -1017    -1156    -1314    -1393    -1300    -1098     -953     -886 
    -783     -658     -658     -797     -974    -1098    -1129    -1080 
    -959     -823     -762     -783     -868    -1005    -1046     -866 
    -661     -684     -859     -965     -951     -888     -843     -884 
    -984     -972     -787     -618     -627     -722     -757     -729 
    -677     -665     -741     -853     -934     -961     -938     -905 
    -885     -885     -907     -888     -780     -662     -684     -859 
    -996     -953     -884     -930     -990    -1008    -1032    -1026 
    -932     -789     -683     -650     -648     -639     -677     -826 
   -1050    -1192    -1140    -1000     -950     -976     -950     -857 
    -805     -861     -965    -1021    -1009     -992    -1031    -1100 
   -1090     -988     -918     -974    -1100    -1156    -1096     -996 
    -919     -831     -720     -689     -808     -985    -1039     -923 
    -776     -719     -735     -799     -900     -977     -997    -1026 
   -1065    -1009     -851     -730     -738     -823     -853     -757 
    -602     -533     -575     -630     -679     -749     -804     -847 
    -918     -966     -934     -847     -800     -839     -900     -912 
    -918     -984    -1021     -973    -1005    -1181    -1244    -1065 
    -851     -783     -819     -865     -877     -877     -916     -990 
   -1013     -955     -907     -931     -997    -1067    -1090    -1011 
    -881     -808     -800     -816     -820     -776     -751     -837 
    -988    -1111    -1170    -1166    -1104    -1005     -920     -850 
    -727     -568     -507     -571     -666     -795     -967    -1085 
   -1050     -916     -866     -940     -959     -850     -737     -722 
    -807     -932    -1005    -1011     -976     -882     -766     -722 
    -734     -693     -602     -629     -805     -874     -675     -406 
    -291     -288     -313     -438     -777    -1274    -1684    -1736 
   -1394     -939     -673     -595     -542     -542     -700     -934 
   -1096    -1201    -1267    -1188     -953     -704     -487     -299 
    -330     -693    -1159    -1489    -1661    -1661    -1518    -1374 
   -1294    -1252    -1252    -1309    -1382    -1408    -1362    -1215 
    -954     -660     -452     -406     -540     -807    -1088    -1205 
   -1071     -797     -541     -355     -274     -375     -648     -893 
    -876     -600     -287      -79        2      -82     -387     -851 
   -1302    -1610    -1728    -1603    -1196     -639     -225     -113 
    -248     -541     -916    -1273    -1541    -1672    -1629    -1485 
   -1364    -1304    -1262    -1179    -1017     -826     -656     -503 
    -394     -388     -525     -791    -1109    -1368    -1451    -1321 
   -1063     -760     -487     -390     -502     -668     -788     -869 
    -859     -747     -626     -491     -341     -373     -677    -1101 
   -1529    -1895    -2100    -2079    -1815    -1340     -812     -481 
    -430     -477     -456     -367     -351     -483     -606     -600 
    -584     -665     -787     -843     -818     -719     -552     -341 
    -121       27       -9     -241     -599     -989    -1325    -1564 
   -1661    -1607    -1471    -1324    -1166     -985     -805     -626 
    -465     -427     -583     -859    -1156    -1452    -1787    -2050 
   -2026    -1707    -1305     -974     -723     -542     -496     -592 
    -704     -768     -878    -1075    -1205    -1188    -1169    -1246 
   -1333    -1339    -1255    -1119     -973     -851     -720     -538 
    -426     -514     -719     -878     -916     -819     -665     -583 
    -567     -514     -396     -260     -191     -244     -360     -426 
    -387     -301     -274     -319     -345     -278     -195     -278 
    -592     -972    -1183    -1125     -877     -627     -531     -611 
    -824    -1150    -1507    -1737    -1750    -1648    -1578    -1564 
   -1526    -1405    -1267    -1274    -1441    -1609    -1665    -1598 
   -1447    -1301    -1193    -1071     -972    -1017    -1174    -1267 
   -1235    -1128     -990     -900     -934    -1023    -1063    -1043 
    -982     -907     -789     -567     -315     -236     -429     -819 
   -1232    -1478    -1420    -1032     -414      225      672      780 
     480     -125     -761    -1173    -1275    -1104     -722     -243 
     162      375      411      307       67     -252     -580     -949 
   -1360    -1713    -2002    -2284    -2505    -2623    -2662    -2600 
   -2349    -1915    -1424     -981     -673     -525     -410     -251 
    -186     -344     -633     -878     -982     -950     -811     -534 
    -128      274      498      472      264      -51     -426     -764 
    -973    -1093    -1242    -1444    -1626    -1726    -1742    -1710 
   -1621    -1422    -1156     -947     -826     -769     -801     -946 
   -1163    -1324    -1291    -1066     -811     -733     -834     -912 
    -841     -720     -681     -666     -549     -395     -372     -502 
    -726    -1058    -1471    -1803    -1922    -1819    -1571    -1270 
    -989     -749     -554     -453     -475     -564     -654     -723 
    -743     -719     -670     -606     -550     -529     -521     -468 
    -415     -495     -660     -730     -642     -429     -144      133 
     264      124     -252     -724    -1182    -1560    -1795    -1802 
   -1533    -1028     -402      120      253      -98     -720    -1312 
   -1733    -1991    -2128    -2158    -2041    -1804    -1557    -1348 
   -1161    -1034    -1027    -1104    -1228    -1398    -1553    -1590 
   -1509    -1436    -1468    -1502    -1358    -1001     -565     -189 
      79      198       78     -310     -845    -1279    -1379    -1094 
    -550      -14      172     -110     -604    -1008    -1302    -1533 
   -1588    -1406    -1138    -1004    -1120    -1371    -1530    -1491 
   -1304    -1012     -635     -306     -182     -197     -137       66 
     295      414      357      157      -74     -249     -361     -436 
    -496     -521     -449     -315     -243     -303     -492     -761 
   -1043    -1293    -1478    -1571    -1560    -1505    -1490    -1534 
   -1611    -1694    -1741    -1757    -1803    -1910    -2047    -2203 
   -2315    -2242    -1960    -1561    -1129     -751     -504     -403 
    -432     -564     -765     -943     -988     -884     -685     -432 
    -155       55       95      -44     -251     -402     -514     -723 
   -1075    -1428    -1621    -1622    -1476    -1228     -932     -656 
    -436     -310     -301     -384     -527     -693     -780     -643 
    -274      135      402      502      438      195     -218     -684 
   -1050    -1281    -1462    -1657    -1800    -1760    -1505    -1144 
    -832     -661     -642     -757    -1007    -1399    -1815    -2014 
   -1906    -1607    -1275    -1026     -865     -706     -554     -544 
    -702     -938    -1166    -1285    -1239    -1078     -865     -661 
    -508     -388     -319     -367     -492     -596     -665     -768 
    -957    -1194    -1386    -1466    -1412    -1228     -950     -688 
    -575     -621     -724     -797     -839     -885     -903     -857 
    -777     -681     -606     -599     -660     -799    -1028    -1277 
   -1459    -1526    -1449    -1266    -1067     -900     -800     -816 
    -928    -1051    -1139    -1170    -1132    -1050     -967     -934 
    -994    -1077    -1028     -823     -616     -545     -610     -761 
    -969    -1136    -1151    -1016     -787     -519     -286     -137 
     -54      -22      -89     -243     -396     -469     -436     -376 
    -422     -602     -803     -893     -854     -758     -639     -540 
    -571     -784    -1112    -1440    -1680    -1756    -1632    -1358 
   -1059     -893     -940    -1125    -1283    -1343    -1383    -1472 
   -1566    -1583    -1528    -1445    -1382    -1377    -1468    -1644 
   -1800    -1837    -1707    -1366     -835     -319      -62     -109 
    -294     -446     -507     -490     -406     -298     -297     -531 
   -1004    -1595    -2045    -2074    -1641     -972     -364      -14 
      63      -43     -309     -688     -972     -958     -668     -290 
     -21       52        5      -55     -139     -324     -591     -870 
   -1077    -1090     -877     -549     -299     -261     -429     -729 
   -1094    -1437    -1668    -1764    -1737    -1595    -1381    -1169 
    -985     -811     -670     -615     -660     -762     -901    -1034 
   -1090    -1050     -961     -881     -854     -901     -985    -1000 
    -954     -970    -1084    -1243    -1378    -1390    -1259    -1066 
    -859     -664     -581     -695     -958    -1248    -1463    -1533 
   -1432    -1179     -803     -399     -141     -116     -276     -548 
    -839    -1017     -965     -723     -456     -297     -283     -373 
    -514     -691     -881    -1053    -1193    -1271    -1258    -1213 
   -1239    -1374    -1597    -1787    -1791    -1598    -1343    -1105 
    -895     -753     -691     -664     -661     -675     -679     -646 
    -561     -490     -517     -619     -703     -703     -639     -556 
    -486     -461     -469     -471     -527     -711     -949    -1104 
   -1181    -1240    -1243    -1143     -959     -747     -604     -552 
    -456     -283     -137      -85     -216     -579    -1021    -1351 
   -1501    -1493    -1390    -1247    -1101     -978     -872     -843 
    -977    -1240    -1548    -1842    -2012    -1941    -1692    -1458 
   -1304    -1167     -973     -761     -652     -702     -873    -1105 
   -1270    -1233    -1028     -754     -477     -298     -283     -379 
    -515     -673     -857    -1074    -1273    -1304    -1102     -747 
    -368     -145     -162     -299     -440     -615     -858    -1058 
   -1080     -905     -612     -361     -315     -411     -475     -504 
    -642     -903    -1167    -1363    -1449    -1402    -1300    -1205 
   -1067     -886     -758     -718     -747     -830     -903     -947 
   -1026    -1131    -1147    -1017     -795     -568     -392     -245 
    -130     -151     -372     -680     -878     -931     -932     -934 
    -928     -951    -1077    -1297    -1485    -1487    -1269     -946 
    -715     -707     -864    -1017    -1113    -1247    -1422    -1495 
