Origin Time       2025/03/30 10:18:00
Lat.              34.667
Long.             140.825
Depth. (km)       69
Mag.              4.9
Station Code      CHB025
Station Lat.      34.9705
Station Long.     139.9458
Station Height(m) 74
Record Time       2025/03/30 10:19:02
Sampling Freq(Hz) 100Hz
Duration Time(s)  60
Dir.              N-S
Scale Factor      7845(gal)/8223790
Max. Acc. (gal)   1.238
Last Correction   2025/03/30 10:19:01
Memo.             
[...]
    9099     9103     9040     8982     9040     9186     9243     9143 
    9039     8982     8911     8957     9140     9288     9336     9235 
    9012     8870     8874     8978     9108     9159     9143     9116 
    9049     8972     8954     9003     9076     9082     9011     9007 
    9119     9242     9282     9182     9018     8914     8884     9039 
    9329     9359     9081     8869     8880     9085     9332     9346 
    9144     8947     8888     9019     9204     9275     9205     9043 
    8942     8951     9053     9170     9055     8803     8792     8997 
    9228     9348     9236     9032     8922     8941     9070     9142 
    9055     8982     9040     9167     9242     9220     9184     9182 
    9167     9109     8992     8819     8733     8899     9192     9316 
    9236     9188     9247     9223     9043     8904     8858     8793 
    8816     9024     9213     9266     9294     9312     9192     8930 
    8761     8837     9003     9157     9356     9440     9194     8905 
    9003     9227     9097     8866     8910     9003     9023     9153 
    9319     9348     9200     8964     8850     8903     8989     9053 
    9105     9140     9121     9097     9131     9128     9046     9026 
    9111     9089     8915     8849     8928     9078     9332     9490 
    9364     9015     8667     8684     9012     9279     9396     9332 
    9163     9085     9073     9074     9134     9198     9196     9119 
    9031     8939     8829     8845     8972     8976     8955     9112 
    9202     9100     9069     9134     9147     9161     9089     8833 
    8702     8915     9278     9518     9471     9216     8986     8926 
    9082     9244     9159     8957     8860     8907     8980     8991 
    9050     9143     9161     9169     9142     9059     9019     8968 
    8905     8981     9178     9336     9279     9018     8850     8884 
    8959     9073     9240     9306     9209     9107     9134     9219 
    9244     9209     9059     8838     8802     8920     8954     8978 
    9088     9213     9308     9305     9192     9078     8992     8888 
    8873     9032     9190     9217     9147     9008     8932     9045 
    9124     8980     8854     8972     9178     9278     9205     9046 
    8974     8981     9009     9070     9116     9155     9192     9212 
    9174     9076     9117     9184     9032     8964     9003     8941 
    8989     9115     9139     9084     9013     9175     9375     9213 
    8981     8874     8842     9055     9321     9317     9109     8918 
    8939     9035     9001     8974     8997     9020     9089     9130 
    9119     9147     9235     9266     9136     8969     8873     8865 
    8988     9142     9243     9274     9144     8964     8926     8970 
    9008     9074     9142     9154     9194     9240     9207     9180 
    9136     9020     8985     9057     9085     9040     9026     9073 
    9146     9184     9062     8885     8860     8876     8920     9057 
    9105     9103     9157     9188     9215     9205     9174     9158 
    9023     8923     9003     9031     9032     9085     9065     9008 
    8962     9062     9310     9296     9101     9121     9151     9151 
    9274     9207     8927     8806     8842     8938     9154     9313 
    9184     8953     8889     8986     9153     9219     9108     8991 
    8880     8770     8885     9109     9161     9198     9342     9423 
    9367     9202     8982     8854     8922     9123     9336     9358 
    9127     8908     8806     8816     9030     9165     9027     8951 
    9078     9240     9262     9050     8797     8804     9051     9277 
    9293     9111     8869     8842     9154     9433     9363     9057 
    8750     8711     8995     9293     9387     9301     9128     9000 
    8986     9063     9163     9186     9103     8995     8904     8858 
    8903     8959     8997     9104     9234     9324     9346     9194 
    9022     9003     8953     8910     9040     9180     9256     9265 
    9138     9051     9059     9028     9000     9008     9043     9094 
    9070     9008     9000     9067     9219     9261     9109     8981 
    8903     8887     8970     9007     9062     9170     9247     9358 
    9282     8911     8687     8748     8915     9147     9273     9198 
    9135     9178     9202     9193     9201     9147     9059     9082 
    9112     9043     8988     9035     9167     9228     9131     9009 
    8931     8905     8924     8981     9121     9231     9207     9155 
    9058     8932     8996     9166     9182     9130     9131     9088 
    8997     8962     9032     9169     9175     9059     9043     9081 
    9046     9026     9024     8970     8962     9011     9030     9081 
    9126     9082     9109     9193     9166     9067     9013     9062 
    9162     9215     9213     9147     9065     9009     8968     9004 
    9082     9159     9236     9128     8937     8945     9051     9205 
    9366     9302     9100     8955     8876     8885     8980     9043 
    9004     9011     9126     9140     9073     9049     8985     8947 
    9030     9126     9143     9101     9065     9061     9061     9072 
    9088     9082     9066     9069     9088     9111     9190     9312 
    9274     9032     8860     8895     8968     9031     9170     9261 
    9189     9111     9047     8908     8820     8868     8984     9128 
    9236     9275     9251     9134     9028     9031     9016     8959 
    9016     9157     9238     9216     9084     9011     9099     9158 
    9170     9197     9135     9038     9009     8981     8904     8834 
    8880     9078     9293     9373     9321     9186     9005     8900 
    8943     9039     9115     9181     9248     9255     9158     9053 
    9023     9050     9053     8964     8850     8827     8974     9185 
    9219     9103     9007     8980     9039     9146     9184     9143 
    9109     9107     9099     9027     8942     9016     9153     9136 
    9061     8964     8814     8796     8935     9028     9078     9139 
    9166     9182     9193     9177     9186     9248     9278     9207 
    9124     9109     9108     9112     9086     9011     9032     9124 
    9090     8978     8926     8972     9100     9200     9193     9121 
    9065     9082     9128     9107     9001     8912     8966     9107 
    9194     9209     9146     9036     8991     9020     9061     9077 
    9063     9086     9134     9119     9100     9131     9155     9120 
    9023     9004     9088     9101     9067     9070     9059     9023 
    8978     8934     8949     9082     9271     9337     9196     8974 
    8918     9113     9339     9346     9151     8887     8737     8819 
    9022     9169     9204     9162     9146     9162     9130     9084 
    9062     9034     9040     9093     9085     9013     8995     9055 
    9121     9100     9026     8999     9004     9042     9127     9159 
    9045     8834     8731     8837     8996     9104     9165     9185 
    9239     9290     9223     9046     8869     8818     8939     9116 
    9184     9123     9030     9007     9094     9192     9184     9101 
    9027     9007     9007     8988     9023     9143     9263     9309 
    9261     9170     9085     9018     9026     9113     9188     9217 
    9190     9063     8970     9009     9043     9073     9107     8989 
    8862     8938     9105     9173     9074     8958     8934     8914 
    8930     9035     9127     9181     9223     9256     9235     9108 
    9026     9094     9123     9022     8969     9045     9157     9232 
    9262     9232     9126     9013     8984     8978     8972     9092 
    9304     9382     9279     9151     9005     8807     8721     8783 
    8870     8999     9117     9159     9238     9298     9188     9030 
    8957     8946     8976     8981     8965     8968     8954     9008 
    9143     9178     9111     9053     9067     9184     9263     9238 
    9200     9117     8995     8943     8980     9124     9332     9437 
    9362     9109     8810     8748     8959     9185     9278     9267 
    9177     9049     8973     8953     8911     8873     8924     9063 
    9192     9202     9132     9090     9049     8988     9018     9126 
    9173     9159     9143     9086     9034     9047     9043     9022 
    9043     9101     9148     9107     8968     8858     8864     8964 
    9089     9131     9082     9081     9208     9385     9433     9236 
    8896     8606     8509     8699     9143     9571     9693     9513 
    9252     9073     9004     9004     9015     8986     8903     8873 
    8984     9159     9305     9323     9178     9016     8892     8789 
    8845     9008     9119     9229     9252     9078     8961     9035 
    9130     9165     9127     9055     9069     9162     9231     9205 
    9103     9012     8978     9019     9062     8928     8712     8692 
    8868     9103     9321     9413     9323     9144     9078     9225 
    9391     9347     9142     8962     8904     8993     9148     9157 
    8937     8734     8754     8910     9058     9132     9205     9405 
    9607     9606     9423     9143     8837     8665     8694     8818 
    8942     8992     8954     8911     8868     8826     8862     8961 
    9074     9188     9220     9157     9039     8916     8959     9194 
    9397     9455     9413     9313     9209     9155     9124     9054 
    8976     9027     9238     9394     9306     9035     8789     8739 
    8884     9039     9066     9069     9162     9221     9116     8919 
    8745     8662     8752     8968     9208     9450     9655     9755 
    9693     9466     9186     8962     8872     8903     8908     8877 
    8907     8982     9022     8939     8772     8658     8689     8891 
    9135     9238     9190     9066     9027     9178     9343     9394 
    9391     9300     9148     9081     9034     8893     8742     8637 
    8608     8760     9055     9297     9350     9231     9090     9049 
    9094     9142     9140     9127     9069     8950     8845     8754 
    8754     8982     9328     9583     9694     9682     9564     9337 
    9038     8766     8618     8668     8857     8949     8843     8743 
    8830     9012     9131     9115     8984     8927     9080     9325 
    9458     9344     9108     8978     8981     9049     9104     9105 
    9126     9227     9379     9462     9327     9045     8835     8769 
    8804     8897     9001     9112     9169     9062     8897     8893 
    9061     9293     9521     9632     9482     9096     8719     8598 
    8752     9034     9254     9216     8954     8749     8684     8706 
    8839     9026     9140     9115     8991     8907     8924     9045 
    9270     9499     9594     9497     9227     8878     8608     8536 
    8621     8734     8853     9028     9174     9231     9313     9448 
    9504     9424     9258     9038     8800     8640     8646     8808 
    9039     9224     9300     9364     9455     9522     9610     9620 
    9393     9112     9018     9119     9285     9263     8991     8706 
    8635     8864     9250     9506     9547     9495     9400     9270 
    9182     9140     9093     8995     8820     8635     8560     8638 
    8769     8856     8958     9108     9190     9158     9080     9012 
    9012     9161     9379     9416     9157     8776     8492     8418 
    8542     8754     8989     9190     9309     9386     9440     9470 
    9504     9471     9327     9140     8973     8870     8851     8851 
    8880     8942     8924     8853     8880     9019     9196     9346 
    9405     9396     9452     9664     9894     9934     9730     9333 
    8947     8808     8851     8862     8734     8513     8375     8382 
    8510     8733     8895     8977     9124     9271     9283     9212 
    9157     9202     9378     9490     9335     9027     8830     8826 
    8943     9055     9001     8775     8621     8741     9059     9390 
    9566     9497     9300     9120     8938     8743     8598     8556 
    8710     8989     9196     9221     8992     8661     8604     8897 
    9315     9683     9888     9872     9678     9417     9204     9011 
    8760     8488     8283     8279     8526     8897     9313     9663 
    9784     9680     9433     9175     9035     9067     9306     9556 
    9517     9262     9040     8900     8810     8776     8797     8837 
    8903     8997     9018     8891     8704     8642     8788     9027 
    9213     9256     9151     8986     8883     8908     9012     9127 
    9200     9150     9023     8982     9081     9273     9486     9597 
    9535     9389     9217     8993     8757     8533     8361     8387 
    8650     9003     9290     9452     9502     9501     9501     9497 
    9431     9290     9173     9186     9243     9184     9007     8808 
    8634     8496     8445     8559     8823     9223     9722    10068 
   10049     9724     9252     8784     8446     8301     8363     8553 
    8741     8893     9034     9184     9354     9502     9541     9383 
    9066     8816     8739     8752     8815     8901     8966     9062 
    9200     9278     9250     9189     9193     9275     9366     9373 
    9236     8978     8742     8703     8876     9103     9208     9109 
    8812     8445     8297     8514     8920     9274     9425     9412 
    9378     9360     9433     9618     9733     9724     9663     9580 
    9460     9173     8699     8205     7851     7870     8353     9070 
    9691     9994    10057    10115    10187    10242    10208     9871 
    9292     8750     8306     7967     7803     7780     7831     7947 
    8162     8457     8743     8910     8961     9053     9231     9418 
    9535     9416     9047     8685     8486     8468     8688     9088 
    9491     9761     9861     9836     9733     9558     9346     9217 
    9238     9321     9358     9347     9304     9208     9090     9005 
    8999     9107     9244     9328     9416     9479     9382     9063 
    8576     8158     8086     8343     8752     9123     9225     9082 
    8968     9016     9131     9150     9072     9084     9166     9097 
    8862     8595     8432     8484     8730     9069     9401     9661 
    9811     9774     9579     9397     9306     9283     9252     9146 
    9038     8966     8907     8942     9030     9028     9051     9190 
    9317     9355     9281     9194     9313     9594     9724     9513 
    9065     8633     8317     8071     7902     7846     7979     8351 
    8808     9174     9405     9513     9526     9502     9482     9470 
    9379     9196     9086     9094     9117     9170     9275     9379 
    9475     9560     9603     9512     9216     8834     8552     8440 
    8494     8688     8965     9175     9153     8927     8712     8700 
    8997     9501     9879     9888     9574     9107     8660     8310 
    8095     8091     8278     8550     8861     9200     9560     9896 
   10103    10083     9805     9387     8993     8668     8469     8449 
    8583     8883     9256     9525     9672     9693     9579     9447 
    9350     9250     9158     9148     9255     9358     9285     9050 
    8849     8860     9023     9130     9058     8888     8865     9086 
    9396     9634     9686     9490     9190     8916     8598     8190 
    7862     7798     8017     8413     8789     8965     8972     8993 
    9123     9288     9354     9282     9151     9046     9053     9205 
    9328     9269     9132     9066     9124     9220     9229     9216 
    9258     9310     9324     9194     8926     8721     8704     8814 
    8941     9034     9148     9335     9518     9570     9417     9131 
    8926     8957     9131     9234     9211     9159     9105     9016 
    8908     8783     8719     8876     9162     9347     9400     9366 
    9308     9325     9385     9405     9351     9144     8784     8440 
    8274     8384     8766     9165     9350     9409     9437     9418 
    9350     9185     8981     8937     9045     9104     9005     8766 
    8523     8476     8654     8910     9126     9228     9196     9053 
    8803     8550     8499     8715     9055     9336     9502     9613 
    9737     9907    10037     9995     9836     9697     9622     9578 
    9440     9167     8930     8846     8810     8680     8463     8267 
    8221     8355     8519     8571     8576     8694     8939     9135 
    9121     8965     8849     8883     9063     9273     9359     9335 
    9340     9435     9532     9508     9394     9325     9336     9347 
    9258     9058     8861     8768     8753     8680     8495     8382 
    8515     8822     9120     9313     9424     9482     9431     9250 
    9003     8756     8591     8561     8613     8721     8889     9100 
    9331     9499     9556     9549     9518     9494     9470     9367 
    9207     9097     9040     8978     8905     8835     8777     8700 
    8599     8544     8577     8722     8978     9236     9396     9467 
    9541     9698     9894    10019    10010     9865     9678     9540 
    9467     9427     9336     9150     8932     8734     8590     8575 
    8696     8831     8887     8895     8903     8935     9022     9077 
    8942     8618     8266     8023     7948     8019     8183     8380 
    8549     8679     8819     8961     9039     9065     9085     9150 
    9312     9560     9823     9976     9913     9691     9435     9223 
    9108     9135     9277     9391     9396     9352     9321     9335 
    9390     9410     9379     9335     9298     9292     9269     9136 
    8927     8766     8714     8788     8922     8962     8908     8893 
    8955     9072     9221     9332     9370     9374     9348     9244 
    9109     9031     8934     8754     8604     8556     8564     8630 
    8748     8866     8954     8997     8989     8945     8924     8984 
    9116     9289     9423     9444     9378     9263     9146     9089 
    9076     9077     9143     9266     9367     9348     9153     8878 
    8669     8568     8596     8730     8885     9007     9032     8982 
    8954     8980     9072     9224     9354     9374     9242     9035 
    8899     8881     8950     9059     9153     9211     9239     9234 
    9221     9229     9261     9350     9475     9545     9531     9472 
    9398     9354     9393     9479     9509     9412     9194     8934 
    8729     8641     8634     8623     8580     8540     8552     8607 
    8629     8623     8646     8718     8891     9117     9259     9310 
    9289     9204     9158     9166     9193     9271     9348     9346 
    9270     9171     9088     9027     8982     8980     8991     9003 
    9057     9139     9209     9216     9136     9042     8989     8973 
    9020     9159     9343     9460     9477     9421     9305     9169 
    9026     8841     8660     8559     8559     8685     8897     9090 
    9221     9274     9271     9282     9344     9428     9494     9552 
    9610     9606     9502     9340     9159     8985     8797     8598 
    8452     8382     8403     8522     8638     8714     8826     8984 
    9175     9348     9360     9219     9093     9074     9151     9207 
    9081     8838     8679     8672     8772     8851     8816     8734 
    8723     8807     8938     9113     9356     9590     9759     9877 
    9868     9672     9397     9192     9111     9092     9093     9124 
    9157     9143     9090     8989     8850     8757     8754     8795 
