Origin Time       2025/03/30 10:18:00
Lat.              34.667
Long.             140.825
Depth. (km)       69
Mag.              4.9
Station Code      CHB025
Station Lat.      34.9705
Station Long.     139.9458
Station Height(m) 74
Record Time       2025/03/30 10:19:02
Sampling Freq(Hz) 100Hz
Duration Time(s)  60
Dir.              U-D
Scale Factor      7845(gal)/8223790
Max. Acc. (gal)   1.146
Last Correction   2025/03/30 10:19:01
Memo.             
[...]
    2787     2637     2668     2882     3011     2987     2945     2928 
    2951     3021     3137     3225     3086     2845     2817     2975 
    3194     3283     3052     2790     2820     3018     3164     3165 
    3099     3086     3024     2829     2681     2701     2847     3049 
    3226     3299     3171     2925     2813     2752     2697     2899 
    3163     3175     3179     3163     2803     2489     2671     2975 
    2991     2901     2952     3030     3042     3090     3040     2883 
    2967     3167     3106     2937     2933     3055     3099     3013 
    2980     3022     3028     3009     2955     2880     2909     3010 
    3044     2992     2984     3079     3126     3046     3028     3092 
    2976     2637     2486     2830     3225     3144     2955     2983 
    3003     3140     3349     3159     2829     2791     2871     3014 
    3180     3138     2980     2898     2907     2961     2887     2718 
    2706     2802     2930     3179     3303     3022     2617     2581 
    2948     3257     3219     3040     2955     2945     2928     2953 
    3038     3063     3032     3033     3090     3123     3078     3075 
    3002     2776     2863     3117     2986     2821     2872     2910 
    2980     3025     3032     3059     2938     2867     2911     2799 
    2832     3105     3161     3059     3040     3038     2992     2941 
    3006     3149     3169     3040     2875     2824     2956     3188 
    3279     3055     2845     2934     3033     2991     2953     2866 
    2749     2833     3086     3296     3357     3196     2937     2832 
    2875     2905     2843     2803     2936     3025     2895     2875 
    3090     3176     3038     2948     2952     2936     2886     2867 
    2982     3091     2979     2883     2926     2891     2978     3277 
    3358     3196     3071     3030     2975     2799     2693     2764 
    2809     2898     3029     3019     3065     3132     2994     2898 
    2897     2857     2965     3161     3229     3117     2837     2749 
    2948     2880     2735     3100     3443     3206     2924     2934 
    2909     2803     2763     2824     3015     3152     3091     3029 
    3011     2952     2986     3144     3231     3159     3022     2879 
    2740     2776     3001     3127     3029     2847     2917     3211 
    3200     2884     2643     2555     2675     2921     3073     3123 
    3113     3103     3171     3223     3154     2979     2797     2736 
    2810     2922     2945     2863     2887     3090     3173     3048 
    2997     3118     3199     3094     2874     2716     2739     2899 
    3019     3017     3019     3106     3199     3199     3025     2841 
    2887     2916     2721     2709     3028     3298     3348     3203 
    3025     3017     3055     3028     3003     2979     3019     3075 
    2980     2902     2964     2997     2947     2857     2767     2771 
    2863     2968     2998     2994     3102     3111     2945     2889 
    2832     2808     2986     3084     3106     3086     2924     2914 
    2992     2925     2932     2971     2952     3075     3133     2914 
    2786     2921     3036     3059     3141     3177     2979     2743 
    2801     3073     3106     2872     2826     2972     3037     3040 
    3082     3142     3072     2930     2937     2961     2894     2943 
    3040     2957     2965     3191     3187     2959     2890     2964 
    3055     3009     2845     2930     3148     3100     3018     3091 
    3052     2978     3079     3102     2944     2836     2828     2911 
    3019     3002     2965     2967     2940     2980     3045     3001 
    2930     2882     2781     2720     2878     3125     3207     3152 
    3011     2876     2872     2849     2821     2914     2968     3021 
    3092     3017     2932     3001     3102     3026     2887     2980 
    3125     3156     3219     3138     2897     2851     2879     2748 
    2744     2978     3163     3172     3055     2899     2791     2713 
    2735     2899     3036     3123     3268     3310     3142     2930 
    2799     2812     2903     2921     2897     2909     2999     3161 
    3244     3184     3034     2894     2907     3052     3186     3188 
    3009     2824     2828     2879     2848     2920     3102     3119 
    3010     2940     2897     2830     2627     2477     2706     3022 
    3149     3267     3302     3150     3044     3028     2967     2924 
    2956     3029     3118     3146     3119     3036     2849     2802 
    2986     3107     3109     3092     3033     2960     2945     2893 
    2740     2708     2917     3148     3152     2943     2843     2963 
    2990     2889     2918     3002     3041     3191     3298     3149 
    2897     2701     2701     2883     3011     3068     3075     2999 
    2979     2964     2898     2983     3079     2971     2863     2911 
    3051     3132     3078     2990     2929     2934     3044     3100 
    3042     3009     3034     3078     3033     2853     2795     2980 
    3149     3132     2995     2859     2845     3011     3153     3040 
    2798     2660     2706     2934     3179     3249     3165     3057 
    3032     3079     3037     2847     2664     2631     2817     3091 
    3132     3041     3134     3250     3118     2855     2789     2929 
    2974     2952     3069     3149     3046     2970     3025     3065 
    3019     2936     2816     2697     2743     2964     3126     3105 
    3038     3002     3013     3125     3186     3011     2763     2749 
    2976     3144     3136     3055     2975     2983     3032     2959 
    2810     2752     2848     3013     3090     3115     3149     3032 
    2814     2747     2816     2961     3163     3241     3169     3098 
    3003     2816     2628     2581     2729     2974     3113     3079 
    3006     3065     3167     3130     3030     2929     2822     2856 
    3015     3138     3146     3034     2902     2902     3030     3045 
    2922     2972     3140     3167     3122     3065     2991     2998 
    3005     2918     2924     3055     3056     2938     2928     3051 
    3153     3053     2891     2917     2920     2745     2639     2694 
    2832     2986     3115     3176     3042     2853     2943     3177 
    3223     3138     3115     3144     3107     3091     3181     3086 
    2783     2706     2764     2631     2582     2863     3173     3252 
    3134     2920     2731     2725     2874     2907     2826     2863 
    2987     3105     3202     3235     3200     3088     2961     2932 
    2983     3109     3240     3206     3053     2918     2790     2698 
    2677     2728     2853     2925     2902     2852     2810     2864 
    2991     3095     3234     3354     3419     3549     3553     3257 
    2922     2667     2519     2658     2929     3065     3055     2952 
    2907     2924     2810     2733     2890     3067     3142     3254 
    3385     3327     3105     2970     2957     2928     2920     3003 
    3072     3017     2841     2674     2659     2695     2686     2781 
    2995     3115     3033     2840     2664     2567     2641     2879 
    3037     3105     3335     3626     3627     3369     3098     2862 
    2708     2776     2983     3106     3152     3150     2988     2767 
    2693     2762     2856     2905     2979     3076     3033     2960 
    3044     3125     3071     2948     2878     2971     3088     3121 
    3172     3153     3069     3048     3029     3122     3302     3211 
    2959     2732     2436     2353     2586     2701     2683     2783 
    2972     3199     3333     3265     3150     3107     3141     3254 
    3348     3253     2901     2531     2473     2578     2563     2573 
    2759     3009     3206     3335     3384     3246     3001     2963 
    3180     3330     3237     3094     3134     3269     3298     3163 
    2880     2637     2620     2778     3001     3113     3017     2961 
    3051     2984     2700     2488     2520     2754     3024     3202 
    3312     3273     3028     2786     2662     2623     2681     2818 
    3092     3437     3553     3406     3219     3064     2944     2916 
    2972     3036     3082     3091     2948     2654     2521     2683 
    2868     2976     3173     3446     3557     3337     2897     2555 
    2555     2756     2821     2871     3195     3531     3507     3198 
    2836     2616     2697     2984     3198     3181     3007     2837 
    2720     2663     2709     2835     3049     3348     3592     3639 
    3441     3102     2748     2481     2477     2671     2822     2911 
    2975     3010     2984     2762     2479     2486     2733     3021 
    3272     3303     3107     2949     2805     2546     2424     2668 
    3090     3356     3338     3207     3196     3246     3171     3113 
    3235     3267     3100     3042     3076     3021     2899     2727 
    2689     2974     3316     3393     3206     2951     2774     2625 
    2498     2535     2743     2976     3144     3253     3260     3132 
    3018     3001     3029     3126     3244     3265     3223     3226 
    3223     3065     2841     2741     2786     2911     2964     2824 
    2589     2394     2313     2434     2764     3113     3276     3326 
    3410     3424     3160     2691     2386     2421     2631     2951 
    3335     3501     3368     3133     2911     2813     2899     3053 
    3142     3142     3140     3115     2979     2898     3040     3218 
    3192     3059     3022     3007     2930     2866     2781     2714 
    2847     3134     3361     3407     3226     2871     2517     2419 
    2681     2994     3094     3117     3105     2964     2816     2782 
    2816     2856     2907     2995     3049     3049     3073     3065 
    3022     3119     3330     3510     3537     3312     3057     3002 
    2986     2876     2698     2546     2571     2683     2705     2668 
    2677     2821     3036     3086     3032     3133     3321     3439 
    3470     3372     3194     3018     2814     2639     2659     2889 
    3102     3130     3025     2879     2755     2667     2640     2767 
    2990     3114     3163     3221     3177     2991     2791     2694 
    2691     2728     2867     3103     3206     3095     2976     3006 
    3130     3144     3010     2991     3102     3083     2963     2870 
    2812     2835     2879     2840     2821     2906     3033     3175 
    3268     3181     3002     2970     3080     3183     3229     3179 
    3018     2813     2706     2806     2938     2932     2924     2925 
    2898     3017     3163     3071     2921     2910     2937     2975 
    2990     2878     2764     2782     2859     2963     3117     3227 
    3225     3231     3298     3246     3111     3075     3010     2907 
    2975     3030     2875     2701     2655     2791     3034     3192 
    3300     3362     3300     3248     3157     2916     2778     2818 
    2822     2758     2664     2646     2789     2910     2932     3009 
    3114     3121     3048     3022     3067     3069     3034     3030 
    3044     2994     2870     2790     2747     2691     2822     3198 
    3462     3410     3326     3373     3326     3107     2857     2663 
    2619     2749     2922     2997     2909     2710     2515     2367 
    2307     2401     2640     2906     3156     3407     3549     3535 
    3446     3322     3218     3198     3199     3145     3084     3029 
    2867     2655     2592     2732     2952     3140     3272     3285 
    3149     2990     2868     2735     2620     2606     2670     2744 
    2866     3013     3094     3129     3083     2910     2775     2795 
    2909     3028     3138     3238     3234     3140     3140     3203 
    3118     2936     2860     2922     3046     3173     3299     3431 
    3484     3350     3073     2825     2687     2578     2501     2502 
    2490     2494     2563     2598     2681     2875     2965     2936 
    2978     3059     3102     3191     3349     3446     3331     3072 
    2898     2825     2814     2922     3103     3279     3426     3541 
    3586     3477     3271     3096     2975     2891     2812     2758 
    2718     2542     2285     2178     2205     2238     2265     2404 
    2733     3121     3468     3800     4058     4132     3912     3446 
    2997     2656     2412     2384     2558     2860     3268     3526 
    3437     3146     2841     2652     2631     2737     2920     3111 
    3262     3352     3331     3142     2894     2762     2674     2671 
    2980     3416     3642     3616     3338     2899     2535     2297 
    2166     2170     2289     2573     3003     3269     3218     3048 
    2916     2848     2851     2933     3038     3106     3233     3430 
    3496     3334     3051     2822     2764     2806     2887     3038 
    3164     3203     3258     3222     3049     2992     3042     3030 
    2941     2786     2660     2609     2573     2635     2808     2917 
    2932     2991     3203     3420     3439     3368     3352     3330 
    3289     3191     2974     2722     2539     2462     2467     2550 
    2817     3157     3338     3478     3669     3667     3446     3203 
    2941     2700     2608     2558     2466     2550     2856     3103 
    3191     3245     3213     3036     2879     2818     2809     2903 
    3037     3032     2925     2829     2728     2658     2689     2824 
    2991     3092     3150     3245     3341     3364     3268     3102 
    2956     2814     2693     2620     2542     2567     2855     3314 
    3801     4160     4185     3855     3343     2832     2454     2173 
    1921     1834     2006     2296     2597     2898     3129     3218 
    3253     3330     3399     3418     3338     3099     2848     2740 
    2650     2488     2401     2517     2714     2839     2970     3126 
    3241     3402     3565     3550     3399     3180     2879     2640 
    2616     2714     2787     2859     3056     3356     3578     3618 
    3528     3400     3295     3252     3148     2868     2643     2651 
    2739     2821     2905     2887     2793     2852     3125     3380 
    3458     3397     3244     3045     2856     2631     2354     2187 
    2232     2361     2455     2624     2936     3181     3227     3203 
    3184     3194     3275     3354     3392     3402     3335     3204 
    3088     3002     2948     2948     2959     2924     2891     2941 
    3015     3015     2928     2795     2712     2747     2798     2728 
    2658     2756     2883     2856     2747     2716     2808     2970 
    3150     3246     3140     2986     2979     3009     3051     3203 
    3354     3456     3559     3566     3395     3100     2783     2525 
    2312     2224     2425     2701     2745     2731     2847     2999 
    3113     3179     3198     3238     3322     3357     3276     3144 
    3034     2967     2992     3129     3242     3213     3115     3022 
    2916     2837     2851     2953     3067     3094     3010     2836 
    2650     2563     2529     2466     2427     2459     2597     2843 
    3056     3163     3258     3375     3453     3442     3406     3415 
    3364     3198     3041     2921     2801     2708     2714     2803 
    2835     2806     2845     2932     2978     2965     2909     2843 
    2813     2890     3056     3148     3132     3132     3190     3242 
    3225     3137     3052     3019     3033     3056     3005     2894 
    2876     2948     2979     2924     2825     2783     2820     2843 
    2821     2816     2895     3064     3208     3229     3206     3257 
    3353     3404     3404     3372     3302     3214     3130     3034 
    2945     2836     2662     2540     2535     2538     2577     2683 
    2745     2793     2909     3011     3034     3057     3127     3217 
    3298     3272     3057     2813     2691     2640     2658     2736 
    2762     2774     2863     2936     2964     2995     2945     2856 
    2887     2978     3064     3240     3412     3419     3341     3288 
    3190     3013     2883     2855     2849     2843     2878     2982 
    3113     3186     3181     3098     2979     2928     2924     2926 
    2982     3015     2956     2874     2778     2640     2604     2747 
    2893     2983     3167     3410     3569     3609     3538     3404 
    3294     3235     3199     3107     2833     2428     2154     2076 
    2083     2181     2365     2592     2818     2953     3028     3138 
    3265     3396     3469     3389     3272     3268     3271     3165 
    3051     3037     3073     3106     3188     3325     3416     3407 
    3281     3071     2889     2795     2708     2619     2643     2740 
    2793     2860     2972     3029     3034     3009     2932     2874 
    2872     2849     2785     2732     2697     2636     2566     2623 
    2853     3122     3339     3454     3424     3357     3325     3294 
    3273     3265     3280     3321     3300     3206     3111     2983 
    2801     2647     2586     2586     2558     2508     2501     2517 
    2559     2648     2729     2801     2905     3003     3088     3229 
    3385     3457     3442     3383     3288     3171     3041     2905 
    2797     2785     2891     3036     3169     3258     3206     3061 
    2964     2907     2828     2701     2582     2546     2563     2637 
    2771     2880     2992     3148     3262     3276     3234     3238 
    3283     3296     3316     3323     3215     3049     2940     2882 
    2817     2756     2774     2847     2897     2909     2845     2710 
    2646     2754     2961     3107     3167     3215     3200     3115 
    3053     2999     2928     2916     2988     3055     3021     2922 
    2891     2936     2956     2963     3011     3056     3049     3025 
    2990     2929     2867     2801     2758     2786     2803     2770 
    2762     2762     2771     2836     2879     2875     2867     2860 
    2890     2988     3073     3091     3090     3106     3168     3285 
    3370     3408     3458     3493     3447     3310     3140     3005 
    2925     2910     2914     2916     2979     3041     3007     2965 
    2963     2894     2725     2586     2577     2635     2686     2740 
    2783     2790     2820     2882     2920     2974     3079     3203 
    3319     3333     3211     3125     3154     3213     3231     3168 
    3017     2856     2795     2849     2924     2955     2961     2952 
    2943     2987     3042     3001     2902     2795     2644     2512 
    2488     2581     2798     3057     3213     3231     3194     3164 
    3164     3184     3196     3169     3119     3096     3115     3125 
    3082     3029     3021     3036     3057     3099     3157     3202 
    3133     2947     2798     2731     2698     2728     2816     2907 
    2974     3013     3014     2945     2853     2806     2814     2914 
    3071     3186     3269     3312     3250     3136     3057     2998 
    2944     2930     2936     2910     2855     2814     2812     2808 
    2795     2825     2874     2938     3060     3132     3107     3109 
    3126     3127     3146     3119     3034     2987     2997     3005 
    3003     2987     2941     2952     3030     3017     2909     2829 
    2781     2762     2813     2889     2929     2961     3018     3080 
    3095     3040     2982     3005     3064     3068     3036     2994 
    2928     2886     2918     2964     2975     2974     2960     2949 
