Origin Time       2025/03/30 10:18:00
Lat.              34.667
Long.             140.825
Depth. (km)       69
Mag.              4.9
Station Code      CHB017
Station Lat.      35.2976
Station Long.     140.0734
Station Height(m) 38
Record Time       2025/03/30 10:19:02
Sampling Freq(Hz) 100Hz
Duration Time(s)  64
Dir.              E-W
Scale Factor      7845(gal)/8223790
Max. Acc. (gal)   1.776
Last Correction   2025/03/30 10:19:02
Memo.             
[...]
  -14335   -14334   -14322   -14289   -14345   -14519   -14616   -14512 
  -14431   -14482   -14430   -14262   -14238   -14338   -14403   -14485 
  -14588   -14589   -14516   -14470   -14439   -14413   -14455   -14573 
  -14631   -14504   -14324   -14307   -14368   -14419   -14585   -14724 
  -14530   -14206   -14162   -14373   -14565   -14629   -14598   -14488 
  -14349   -14312   -14395   -14407   -14328   -14369   -14481   -14354 
  -14126   -14253   -14558   -14621   -14629   -14712   -14571   -14276 
  -14253   -14548   -14773   -14682   -14499   -14430   -14384   -14342 
  -14350   -14303   -14210   -14250   -14435   -14553   -14496   -14419 
  -14439   -14474   -14503   -14548   -14489   -14268   -14133   -14323 
  -14652   -14756   -14601   -14380   -14211   -14176   -14307   -14494 
  -14616   -14665   -14609   -14376   -14142   -14189   -14349   -14368 
  -14461   -14709   -14812   -14655   -14397   -14269   -14400   -14635 
  -14744   -14617   -14320   -14158   -14293   -14523   -14642   -14575 
  -14281   -13956   -13969   -14270   -14496   -14617   -14736   -14681 
  -14470   -14400   -14403   -14246   -14173   -14438   -14719   -14717 
  -14596   -14528   -14453   -14335   -14319   -14424   -14473   -14478 
  -14553   -14555   -14430   -14405   -14524   -14536   -14391   -14311 
  -14382   -14442   -14399   -14397   -14480   -14465   -14399   -14478 
  -14563   -14485   -14357   -14226   -14094   -14114   -14338   -14582 
  -14654   -14570   -14607   -14752   -14598   -14233   -14215   -14473 
  -14531   -14478   -14539   -14539   -14404   -14358   -14447   -14455 
  -14314   -14208   -14320   -14551   -14577   -14412   -14384   -14454 
  -14459   -14500   -14519   -14416   -14420   -14615   -14769   -14727 
  -14500   -14262   -14241   -14376   -14459   -14439   -14354   -14322 
  -14450   -14524   -14332   -14150   -14242   -14362   -14366   -14457 
  -14536   -14443   -14494   -14764   -14775   -14485   -14303   -14281 
  -14307   -14434   -14598   -14659   -14559   -14274   -14015   -14106 
  -14392   -14532   -14581   -14608   -14566   -14539   -14435   -14243 
  -14266   -14370   -14318   -14484   -14824   -14763   -14476   -14420 
  -14489   -14511   -14423   -14237   -14170   -14250   -14365   -14585 
  -14731   -14597   -14508   -14613   -14589   -14386   -14247   -14261 
  -14401   -14562   -14643   -14665   -14631   -14508   -14353   -14214 
  -14149   -14179   -14175   -14215   -14511   -14748   -14612   -14447 
  -14467   -14400   -14214   -14137   -14242   -14347   -14323   -14466 
  -14847   -14968   -14755   -14574   -14492   -14407   -14284   -14226 
  -14334   -14413   -14401   -14519   -14635   -14466   -14158   -14081 
  -14345   -14613   -14625   -14592   -14616   -14528   -14423   -14485 
  -14544   -14408   -14245   -14257   -14365   -14462   -14562   -14593 
  -14523   -14501   -14539   -14480   -14403   -14431   -14477   -14524 
  -14528   -14377   -14270   -14261   -14153   -14166   -14395   -14447 
  -14364   -14443   -14509   -14435   -14382   -14337   -14304   -14443 
  -14609   -14590   -14598   -14763   -14864   -14804   -14571   -14242 
  -14122   -14260   -14413   -14504   -14512   -14431   -14376   -14430 
  -14575   -14692   -14608   -14316   -14046   -14011   -14094   -14152 
  -14345   -14629   -14688   -14538   -14420   -14373   -14355   -14422 
  -14604   -14716   -14647   -14631   -14688   -14559   -14372   -14381 
  -14401   -14230   -14091   -14199   -14400   -14534   -14620   -14589 
  -14439   -14342   -14326   -14365   -14426   -14438   -14526   -14689 
  -14709   -14577   -14328   -14137   -14366   -14743   -14748   -14593 
  -14561   -14574   -14586   -14472   -14226   -14095   -14079   -14106 
  -14214   -14280   -14328   -14501   -14615   -14516   -14377   -14322 
  -14320   -14386   -14507   -14500   -14345   -14323   -14457   -14566 
  -14685   -14658   -14435   -14507   -14808   -14678   -14234   -14030 
  -14164   -14454   -14663   -14785   -14933   -14874   -14615   -14482 
  -14338   -14145   -14197   -14273   -14154   -14212   -14507   -14696 
  -14758   -14721   -14465   -14239   -14365   -14569   -14524   -14374 
  -14233   -14062   -14045   -14261   -14462   -14581   -14697   -14675 
  -14521   -14401   -14292   -14250   -14364   -14440   -14399   -14362 
  -14314   -14287   -14416   -14617   -14723   -14696   -14597   -14530 
  -14505   -14426   -14331   -14338   -14381   -14350   -14345   -14473 
  -14598   -14623   -14639   -14655   -14575   -14426   -14347   -14312 
  -14216   -14210   -14381   -14507   -14542   -14605   -14548   -14342 
  -14320   -14500   -14553   -14504   -14505   -14465   -14407   -14395 
  -14304   -14121   -13981   -14045   -14311   -14516   -14531   -14507 
  -14494   -14505   -14613   -14742   -14709   -14543   -14482   -14573 
  -14504   -14312   -14413   -14611   -14492   -14369   -14488   -14508 
  -14331   -14184   -14169   -14256   -14335   -14362   -14385   -14386 
  -14372   -14392   -14391   -14374   -14484   -14655   -14700   -14696 
  -14748   -14690   -14513   -14528   -14737   -14750   -14519   -14399 
  -14450   -14474   -14488   -14531   -14432   -14207   -14149   -14242 
  -14184   -14000   -13923   -13944   -14027   -14262   -14516   -14594 
  -14609   -14661   -14700   -14731   -14728   -14666   -14580   -14500 
  -14489   -14526   -14508   -14509   -14562   -14474   -14283   -14260 
  -14362   -14353   -14318   -14419   -14507   -14434   -14289   -14197 
  -14224   -14315   -14374   -14451   -14521   -14521   -14596   -14716 
  -14636   -14477   -14496   -14619   -14724   -14804   -14779   -14639 
  -14512   -14453   -14405   -14365   -14345   -14285   -14212   -14189 
  -14145   -14079   -14148   -14335   -14478   -14563   -14643   -14609 
  -14368   -14088   -14038   -14285   -14670   -14914   -14878   -14638 
  -14323   -14125   -14107   -14088   -14015   -14018   -14146   -14385 
  -14639   -14748   -14708   -14631   -14632   -14748   -14863   -14821 
  -14604   -14431   -14489   -14609   -14650   -14717   -14771   -14719 
  -14659   -14580   -14392   -14241   -14214   -14196   -14161   -14130 
  -14069   -13987   -13996   -14153   -14304   -14343   -14350   -14408 
  -14493   -14523   -14467   -14400   -14409   -14538   -14701   -14717 
  -14593   -14505   -14474   -14434   -14415   -14454   -14497   -14481 
  -14416   -14397   -14407   -14343   -14262   -14280   -14386   -14548 
  -14677   -14690   -14701   -14759   -14667   -14413   -14315   -14438 
  -14528   -14575   -14688   -14671   -14484   -14370   -14265   -14000 
  -13818   -13892   -13983   -13994   -14130   -14368   -14494   -14536 
  -14585   -14570   -14474   -14470   -14652   -14766   -14629   -14569 
  -14709   -14652   -14411   -14380   -14499   -14581   -14670   -14705 
  -14648   -14575   -14462   -14334   -14337   -14469   -14540   -14430 
  -14235   -14116   -14089   -14076   -14127   -14326   -14474   -14391 
  -14281   -14262   -14254   -14365   -14559   -14683   -14850   -15020 
  -14933   -14689   -14559   -14554   -14571   -14580   -14592   -14580 
  -14473   -14341   -14326   -14373   -14411   -14524   -14638   -14580 
  -14449   -14404   -14362   -14245   -14103   -13911   -13694   -13651 
  -13837   -14126   -14472   -14758   -14779   -14569   -14346   -14234 
  -14242   -14362   -14548   -14736   -14850   -14847   -14812   -14810 
  -14816   -14789   -14640   -14357   -14208   -14319   -14435   -14469 
  -14578   -14689   -14642   -14569   -14557   -14422   -14206   -14150 
  -14192   -14153   -14092   -14089   -14129   -14187   -14258   -14342 
  -14391   -14420   -14497   -14527   -14493   -14554   -14617   -14493 
  -14355   -14415   -14515   -14465   -14445   -14712   -15048   -15061 
  -14812   -14557   -14319   -14069   -13956   -14068   -14230   -14331 
  -14527   -14818   -14960   -14836   -14517   -14176   -14035   -14192 
  -14508   -14737   -14766   -14700   -14593   -14366   -14081   -13967 
  -14115   -14338   -14455   -14526   -14569   -14476   -14330   -14292 
  -14366   -14486   -14569   -14561   -14557   -14598   -14593   -14494 
  -14277   -14022   -13960   -14089   -14276   -14558   -14810   -14871 
  -14912   -14968   -14858   -14670   -14563   -14470   -14373   -14357 
  -14381   -14318   -14145   -14052   -14166   -14251   -14138   -14060 
  -14075   -14038   -14134   -14465   -14748   -14841   -14769   -14550 
  -14343   -14338   -14574   -14816   -14740   -14484   -14315   -14161 
  -14103   -14305   -14458   -14365   -14368   -14605   -14796   -14778 
  -14666   -14581   -14494   -14382   -14305   -14241   -14152   -14214 
  -14482   -14678   -14678   -14677   -14716   -14677   -14604   -14577 
  -14536   -14490   -14504   -14470   -14300   -14111   -14071   -14211 
  -14381   -14435   -14400   -14337   -14273   -14278   -14349   -14407 
  -14462   -14503   -14458   -14446   -14619   -14813   -14823   -14742 
  -14716   -14701   -14551   -14237   -13986   -14002   -14170   -14350 
  -14503   -14523   -14449   -14462   -14503   -14467   -14447   -14501 
  -14558   -14504   -14399   -14404   -14418   -14346   -14297   -14246 
  -14191   -14297   -14507   -14608   -14588   -14555   -14573   -14631 
  -14669   -14613   -14435   -14222   -14122   -14121   -14089   -14054 
  -14084   -14153   -14254   -14350   -14376   -14405   -14496   -14544 
  -14528   -14565   -14625   -14616   -14601   -14601   -14528   -14411 
  -14314   -14277   -14418   -14669   -14789   -14791   -14858   -14967 
  -15024   -14990   -14786   -14496   -14319   -14245   -14229   -14287 
  -14276   -14123   -13980   -13942   -14019   -14165   -14251   -14303 
  -14427   -14513   -14496   -14523   -14580   -14540   -14486   -14500 
  -14509   -14478   -14465   -14519   -14584   -14558   -14486   -14505 
  -14593   -14656   -14689   -14648   -14527   -14447   -14382   -14188 
  -14006   -14068   -14351   -14721   -15020   -15064   -14852   -14543 
  -14203   -13890   -13761   -13861   -14098   -14409   -14704   -14820 
  -14742   -14578   -14382   -14212   -14166   -14214   -14233   -14233 
  -14297   -14419   -14532   -14648   -14759   -14763   -14662   -14548 
  -14447   -14365   -14308   -14226   -14114   -14104   -14220   -14297 
  -14305   -14335   -14319   -14130   -13875   -13863   -14108   -14283 
  -14308   -14295   -14224   -14173   -14204   -14197   -14152   -14188 
  -14353   -14546   -14593   -14513   -14463   -14461   -14470   -14555 
  -14766   -15037   -15232   -15310   -15354   -15321   -15083   -14808 
  -14755   -14827   -14817   -14744   -14743   -14895   -15059   -15012 
  -14828   -14709   -14694   -14732   -14744   -14661   -14513   -14312 
  -13960   -13522   -13217   -13120   -13224   -13547   -13926   -14127 
  -14134   -14026   -13824   -13608   -13590   -13936   -14532   -15091 
  -15472   -15623   -15445   -15071   -14837   -14771   -14690   -14625 
  -14686   -14829   -14920   -14848   -14608   -14291   -14019   -13857 
  -13792   -13855   -14035   -14193   -14265   -14343   -14490   -14598 
  -14438   -13956   -13506   -13454   -13713   -13981   -14193   -14532 
  -15003   -15300   -15291   -15152   -14979   -14798   -14693   -14581 
  -14442   -14561   -14991   -15415   -15620   -15541   -15183   -14712 
  -14318   -14079   -14038   -14189   -14449   -14674   -14728   -14565 
  -14277   -14037   -13948   -14006   -14042   -13884   -13709   -13780 
  -13994   -14170   -14265   -14189   -13999   -13957   -14091   -14210 
  -14260   -14258   -14261   -14391   -14551   -14569   -14526   -14516 
  -14611   -14902   -15172   -15219   -15196   -15091   -14808   -14513 
  -14300   -14114   -13976   -13890   -13867   -13914   -13948   -14011 
  -14245   -14654   -15093   -15358   -15369   -15196   -14886   -14478 
  -14123   -13975   -14118   -14531   -15013   -15299   -15364   -15290 
  -15018   -14593   -14229   -13971   -13733   -13529   -13431   -13432 
  -13437   -13477   -13701   -14075   -14467   -14762   -14805   -14611 
  -14353   -14079   -13840   -13834   -14138   -14611   -15103   -15399 
  -15392   -15238   -15017   -14759   -14582   -14463   -14369   -14369 
  -14507   -14791   -15152   -15419   -15483   -15334   -14913   -14176 
  -13359   -12800   -12664   -12976   -13575   -14161   -14635   -15020 
  -15153   -14902   -14401   -13919   -13682   -13643   -13625   -13666 
  -13884   -14212   -14509   -14673   -14655   -14602   -14744   -15021 
  -15232   -15361   -15460   -15577   -15704   -15699   -15483   -15088 
  -14623   -14304   -14176   -14041   -13888   -13882   -14042   -14242 
  -14366   -14430   -14474   -14449   -14292   -14002   -13672   -13466 
  -13514   -13853   -14386   -14947   -15425   -15743   -15777   -15511 
  -15126   -14708   -14200   -13792   -13744   -13969   -14218   -14305 
  -14076   -13512   -12906   -12694   -13003   -13578   -14184   -14716 
  -14989   -14872   -14490   -13979   -13402   -12966   -12912   -13327 
  -14098   -14945   -15627   -16070   -16259   -16224   -16056   -15788 
  -15454   -15192   -15095   -15152   -15217   -15075   -14758   -14539 
  -14467   -14307   -14056   -13914   -13830   -13710   -13684   -13828 
  -13975   -13964   -13818   -13605   -13362   -13193   -13208   -13425 
  -13830   -14364   -14922   -15426   -15816   -16013   -15904   -15477 
  -14918   -14420   -14027   -13784   -13779   -14014   -14431   -14958 
  -15452   -15718   -15674   -15429   -15156   -14921   -14662   -14323 
  -13956   -13732   -13801   -14056   -14269   -14400   -14496   -14558 
  -14581   -14486   -14281   -14202   -14324   -14449   -14500   -14490 
  -14331   -14014   -13570   -13045   -12641   -12580   -12928   -13594 
  -14337   -14847   -14936   -14716   -14445   -14241   -14207   -14457 
  -14845   -15175   -15462   -15646   -15557   -15267   -14995   -14863 
  -14790   -14567   -14208   -13923   -13782   -13809   -14091   -14521 
  -14872   -15098   -15172   -14980   -14647   -14451   -14467   -14577 
  -14651   -14615   -14513   -14430   -14337   -14249   -14288   -14422 
  -14438   -14303   -14193   -14161   -14146   -14143   -14114   -13998 
  -13840   -13778   -13855   -13913   -13853   -13801   -13906   -14199 
  -14600   -14990   -15226   -15257   -15238   -15236   -15110   -14832 
  -14526   -14304   -14292   -14519   -14854   -15102   -15080   -14731 
  -14173   -13655   -13439   -13582   -13879   -14145   -14303   -14328 
  -14303   -14326   -14345   -14287   -14224   -14237   -14288   -14358 
  -14542   -14881   -15276   -15616   -15813   -15819   -15641   -15341 
  -15083   -14968   -14885   -14787   -14694   -14453   -14053   -13753 
  -13651   -13621   -13614   -13684   -13765   -13695   -13528   -13517 
  -13711   -13979   -14270   -14569   -14812   -14872   -14635   -14183 
  -13693   -13277   -13080   -13220   -13657   -14231   -14744   -15055 
  -15214   -15356   -15550   -15817   -16038   -16027   -15762   -15337 
  -14870   -14534   -14408   -14426   -14528   -14666   -14739   -14742 
  -14731   -14662   -14451   -14133   -13791   -13447   -13159   -13096 
  -13257   -13386   -13371   -13385   -13558   -13876   -14268   -14570 
  -14650   -14500   -14256   -14071   -13984   -14121   -14594   -15196 
  -15668   -15886   -15691   -15128   -14609   -14418   -14426   -14436 
  -14458   -14515   -14547   -14598   -14689   -14661   -14516   -14440 
  -14476   -14543   -14592   -14627   -14706   -14800   -14760   -14597 
  -14432   -14288   -14164   -14118   -14223   -14485   -14844   -15253 
  -15612   -15758   -15627   -15291   -14835   -14238   -13506   -12937 
  -12771   -12858   -13009   -13155   -13279   -13437   -13621   -13741 
  -13809   -13892   -13953   -13983   -14135   -14555   -15152   -15606 
  -15715   -15631   -15557   -15448   -15255   -15090   -14989   -14874 
  -14719   -14507   -14251   -14104   -14142   -14266   -14361   -14372 
  -14353   -14473   -14755   -15002   -15070   -14960   -14737   -14520 
  -14368   -14189   -13998   -13948   -14054   -14191   -14216   -13999 
  -13636   -13429   -13495   -13733   -13995   -14134   -14160   -14242 
  -14469   -14735   -14845   -14751   -14617   -14570   -14575   -14666 
  -14935   -15286   -15504   -15508   -15283   -14801   -14203   -13873 
  -14011   -14331   -14478   -14409   -14239   -14071   -13949   -13886 
  -13919   -14058   -14277   -14571   -14810   -14785   -14524   -14241 
  -14073   -14087   -14277   -14601   -15060   -15538   -15770   -15654 
  -15360   -15117   -14976   -14794   -14469   -14092   -13811   -13693 
  -13687   -13767   -13964   -14219   -14409   -14476   -14368   -14123 
  -13949   -13950   -14092   -14366   -14686   -14999   -15380   -15693 
  -15703   -15423   -14995   -14584   -14415   -14520   -14666   -14604 
  -14318   -14019   -13830   -13633   -13356   -13127   -13108   -13309 
  -13610   -13953   -14289   -14508   -14600   -14697   -14841   -14967 
  -15064   -15117   -15036   -14797   -14492   -14200   -13940   -13795 
  -13894   -14123   -14251   -14283   -14303   -14284   -14280   -14361 
  -14463   -14507   -14489   -14485   -14561   -14678   -14825   -15006 
  -15126   -15097   -14905   -14527   -14045   -13691   -13540   -13516 
  -13616   -13857   -14150   -14404   -14581   -14662   -14712   -14808 
  -14905   -14986   -15084   -15174   -15291   -15465   -15537   -15377 
  -15060   -14719   -14401   -14099   -13876   -13868   -14060   -14285 
  -14420   -14467   -14485   -14446   -14304   -14129   -14035   -14094 
  -14285   -14512   -14737   -14932   -14980   -14828   -14503   -14049 
  -13618   -13393   -13369   -13436   -13559   -13764   -14076   -14438 
  -14708   -14805   -14777   -14690   -14628   -14682   -14748   -14634 
  -14407   -14281   -14323   -14463   -14508   -14262   -13818   -13420 
  -13192   -13180   -13427   -13922   -14523   -15037   -15383   -15556 
  -15549   -15496   -15558   -15612   -15514   -15391   -15338   -15307 
  -15277   -15225   -15137   -15045   -14935   -14744   -14465   -14145 
  -13915   -13898   -14033   -14203   -14377   -14465   -14346   -14085 
  -13849   -13682   -13599   -13616   -13628   -13563   -13446   -13269 
  -13082   -12970   -12931   -12955   -13095   -13366   -13767   -14283 
  -14770   -15107   -15369   -15631   -15840   -15973   -16055   -16050 
  -15971   -15913   -15839   -15668   -15415   -15140   -14850   -14500 
  -14102   -13821   -13783   -13899   -14099   -14353   -14494   -14424 
  -14253   -14088   -13938   -13829   -13824   -13910   -14015   -14116 
  -14141   -13998   -13801   -13756   -13855   -13953   -14045   -14245 
  -14588   -14962   -15240   -15315   -15118   -14787   -14577   -14501 
  -14431   -14392   -14431   -14494   -14542   -14580   -14578   -14512 
  -14442   -14399   -14335   -14272   -14305   -14459   -14624   -14705 
  -14737   -14735   -14674   -14636   -14617   -14442   -14100   -13768 
  -13568   -13589   -13844   -14199   -14496   -14686   -14766   -14696 
  -14509   -14389   -14478   -14709   -14902   -14999   -15037   -14985 
  -14851   -14728   -14577   -14314   -14022   -13811   -13693   -13653 
  -13718   -13938   -14300   -14673   -14962   -15168   -15246   -15159 
  -15014   -14871   -14652   -14393   -14206   -14123   -14137   -14131 
  -13980   -13709   -13437   -13336   -13501   -13836   -14230   -14586 
  -14821   -14960   -15020   -14979   -14881   -14773   -14693   -14665 
  -14629   -14546   -14492   -14532   -14575   -14543   -14539   -14650 
  -14827   -14964   -14959   -14827   -14689   -14593   -14540   -14526 
