Origin Time       2025/03/30 10:18:00
Lat.              34.667
Long.             140.825
Depth. (km)       69
Mag.              4.9
Station Code      CHB016
Station Lat.      35.2998
Station Long.     140.3866
Station Height(m) 7
Record Time       2025/03/30 10:19:01
Sampling Freq(Hz) 100Hz
Duration Time(s)  60
Dir.              E-W
Scale Factor      7845(gal)/8223790
Max. Acc. (gal)   1.685
Last Correction   2025/03/30 10:19:00
Memo.             
   -3790    -3836    -3866    -3848    -3808    -3808    -3852    -3848 
   -3807    -3815    -3839    -3831    -3838    -3846    -3829    -3824 
   -3823    -3811    -3811    -3832    -3855    -3838    -3819    -3835 
   -3816    -3790    -3812    -3828    -3848    -3851    -3800    -3797 
   -3862    -3865    -3807    -3792    -3819    -3843    -3848    -3838 
   -3828    -3813    -3789    -3800    -3846    -3877    -3861    -3794 
   -3763    -3827    -3869    -3821    -3798    -3838    -3867    -3862 
   -3823    -3784    -3805    -3862    -3865    -3811    -3793    -3828 
   -3835    -3827    -3859    -3866    -3809    -3762    -3777    -3847 
   -3901    -3856    -3771    -3786    -3866    -3867    -3798    -3773 
   -3827    -3881    -3855    -3797    -3800    -3850    -3856    -3802 
   -3785    -3847    -3890    -3836    -3757    -3770    -3859    -3898 
   -3839    -3770    -3781    -3856    -3893    -3854    -3815    -3812 
   -3813    -3816    -3846    -3847    -3793    -3780    -3834    -3861 
   -3819    -3785    -3824    -3861    -3844    -3839    -3838    -3835 
   -3852    -3850    -3839    -3832    -3805    -3796    -3804    -3798 
   -3788    -3782    -3794    -3811    -3825    -3834    -3804    -3784 
   -3825    -3894    -3923    -3902    -3889    -3875    -3855    -3851 
   -3815    -3736    -3693    -3728    -3808    -3817    -3738    -3716 
   -3792    -3866    -3886    -3871    -3843    -3829    -3867    -3939 
   -3977    -3935    -3839    -3769    -3757    -3761    -3758    -3766 
   -3796    -3825    -3817    -3782    -3792    -3867    -3924    -3898 
   -3866    -3870    -3852    -3823    -3840    -3905    -3971    -3950 
   -3829    -3715    -3689    -3743    -3802    -3813    -3813    -3825 
   -3812    -3824    -3923    -3993    -3928    -3823    -3792    -3789 
   -3773    -3784    -3824    -3843    -3802    -3754    -3767    -3788 
   -3766    -3788    -3879    -3923    -3846    -3747    -3736    -3781 
   -3824    -3889    -3952    -3925    -3809    -3717    -3744    -3847 
   -3896    -3855    -3804    -3782    -3767    -3730    -3727    -3815 
   -3916    -3890    -3782    -3774    -3863    -3929    -3946    -3906 
   -3821    -3755    -3763    -3863    -3978    -3955    -3812    -3709 
   -3721    -3808    -3865    -3829    -3777    -3788    -3832    -3847 
   -3846    -3874    -3908    -3874    -3805    -3815    -3875    -3879 
   -3836    -3765    -3684    -3726    -3913    -4006    -3894    -3796 
   -3828    -3812    -3705    -3694    -3792    -3829    -3784    -3747 
   -3769    -3859    -3978    -3997    -3873    -3732    -3676    -3667 
   -3674    -3739    -3862    -3955    -3935    -3859    -3871    -3951 
   -3912    -3716    -3578    -3680    -3890    -3915    -3748    -3707 
   -3898    -4039    -3944    -3784    -3751    -3815    -3855    -3831 
   -3819    -3874    -3910    -3842    -3758    -3800    -3904    -3862 
   -3697    -3688    -3908    -4113    -4072    -3848    -3716    -3802 
   -3892    -3797    -3688    -3785    -3960    -3954    -3812    -3766 
   -3840    -3870    -3765    -3663    -3712    -3815    -3835    -3820 
   -3869    -3958    -3928    -3765    -3693    -3815    -3970    -3962 
   -3819    -3766    -3858    -3919    -3839    -3688    -3643    -3730 
   -3767    -3689    -3638    -3751    -3955    -4018    -3900    -3812 
   -3856    -3936    -3946    -3854    -3723    -3676    -3738    -3815 
   -3870    -3894    -3863    -3834    -3820    -3807    -3831    -3839 
   -3758    -3697    -3766    -3875    -3867    -3765    -3738    -3811 
   -3877    -3923    -3950    -3913    -3846    -3775    -3712    -3742 
   -3867    -3935    -3882    -3836    -3863    -3854    -3778    -3800 
   -3917    -3943    -3893    -3905    -3928    -3854    -3750    -3707 
   -3678    -3659    -3751    -3873    -3877    -3831    -3842    -3866 
   -3850    -3840    -3863    -3856    -3808    -3785    -3817    -3865 
   -3842    -3754    -3736    -3867    -4060    -4122    -3937    -3654 
   -3523    -3592    -3717    -3748    -3731    -3827    -3990    -4008 
   -3851    -3721    -3743    -3809    -3832    -3863    -3910    -3939 
   -3932    -3867    -3834    -3886    -3888    -3746    -3574    -3589 
   -3829    -4051    -4050    -3900    -3789    -3771    -3743    -3670 
   -3659    -3771    -3927    -4005    -3983    -3905    -3839    -3798 
   -3719    -3666    -3797    -4024    -4133    -4078    -3901    -3682 
   -3558    -3604    -3792    -4024    -4121    -3944    -3680    -3646 
   -3797    -3877    -3854    -3782    -3653    -3554    -3663    -3955 
   -4152    -4075    -3862    -3720    -3684    -3704    -3775    -3855 
   -3844    -3784    -3839    -3975    -4005    -3901    -3836    -3894 
   -3923    -3828    -3762    -3777    -3742    -3670    -3693    -3766 
   -3788    -3809    -3866    -3863    -3815    -3862    -3982    -3979 
   -3800    -3601    -3572    -3730    -3893    -3910    -3827    -3777 
   -3828    -3942    -4029    -4037    -3983    -3912    -3832    -3716 
   -3618    -3636    -3696    -3630    -3515    -3576    -3821    -4017 
   -4047    -3991    -3910    -3866    -3906    -3919    -3829    -3780 
   -3840    -3921    -3954    -3913    -3802    -3653    -3553    -3615 
   -3823    -3994    -3971    -3774    -3607    -3605    -3696    -3856 
   -4135    -4313    -4125    -3728    -3554    -3743    -3955    -3897 
   -3705    -3623    -3688    -3831    -3998    -4140    -4185    -4039 
   -3735    -3537    -3599    -3766    -3862    -3856    -3800    -3775 
   -3821    -3856    -3770    -3667    -3786    -4047    -4099    -3852 
   -3585    -3523    -3612    -3758    -3908    -3951    -3851    -3785 
   -3905    -4102    -4132    -3948    -3746    -3674    -3692    -3715 
   -3740    -3796    -3877    -3915    -3843    -3701    -3634    -3686 
   -3767    -3815    -3866    -3958    -4056    -4075    -3974    -3832 
   -3735    -3735    -3858    -4037    -4104    -3979    -3821    -3798 
   -3839    -3790    -3681    -3611    -3581    -3612    -3769    -3921 
   -3854    -3662    -3626    -3761    -3855    -3863    -3883    -3889 
   -3815    -3734    -3762    -3871    -3942    -3944    -3939    -3987 
   -4031    -3910    -3680    -3582    -3657    -3735    -3750    -3789 
   -3879    -3937    -3910    -3850    -3817    -3817    -3838    -3851 
   -3802    -3726    -3742    -3823    -3827    -3797    -3848    -3878 
   -3703    -3454    -3476    -3808    -4128    -4156    -3948    -3747 
   -3703    -3785    -3855    -3867    -3915    -3986    -3993    -3940 
   -3879    -3809    -3757    -3828    -3962    -4008    -4010    -3986 
   -3829    -3661    -3697    -3854    -3921    -3846    -3732    -3716 
   -3835    -3982    -4010    -3939    -3889    -3862    -3798    -3703 
   -3646    -3728    -3939    -4072    -3978    -3792    -3705    -3713 
   -3720    -3677    -3613    -3613    -3694    -3816    -3925    -3966 
   -3897    -3823    -3851    -3866    -3766    -3627    -3601    -3754 
   -3913    -3898    -3767    -3696    -3750    -3846    -3889    -3877 
   -3858    -3846    -3753    -3584    -3519    -3586    -3645    -3682 
   -3792    -4000    -4257    -4449    -4394    -4066    -3747    -3642 
   -3654    -3677    -3703    -3740    -3801    -3863    -3915    -3990 
   -4110    -4172    -4047    -3817    -3676    -3685    -3754    -3770 
   -3781    -3874    -3990    -4055    -4051    -3989    -3912    -3840 
   -3807    -3782    -3642    -3443    -3464    -3797    -4156    -4217 
   -4041    -3871    -3743    -3640    -3592    -3605    -3696    -3786 
   -3757    -3657    -3627    -3717    -3871    -3928    -3761    -3537 
   -3530    -3676    -3715    -3658    -3676    -3805    -3946    -3978 
   -3955    -4036    -4132    -4012    -3761    -3666    -3742    -3754 
   -3642    -3609    -3790    -4032    -4174    -4240    -4213    -4005 
   -3654    -3361    -3375    -3663    -3869    -3808    -3693    -3765 
   -3958    -4010    -3910    -3908    -4037    -4062    -3896    -3773 
   -3866    -4000    -3950    -3789    -3748    -3890    -4055    -4079 
   -3939    -3734    -3603    -3584    -3601    -3634    -3734    -3904 
   -4085    -4185    -4143    -4014    -3886    -3788    -3726    -3699 
   -3686    -3717    -3844    -4002    -4052    -3997    -3962    -3974 
   -3990    -4009    -3994    -3920    -3869    -3855    -3762    -3553 
   -3366    -3381    -3600    -3773    -3724    -3580    -3562    -3736 
   -3923    -3924    -3843    -3883    -3978    -3944    -3778    -3623 
   -3576    -3569    -3511    -3492    -3643    -3874    -3977    -3917 
   -3854    -3896    -3993    -4033    -3948    -3790    -3682    -3697 
   -3815    -3962    -4005    -3870    -3677    -3618    -3705    -3775 
   -3766    -3800    -3917    -3985    -3944    -3852    -3728    -3597 
   -3573    -3726    -3967    -4105    -4041    -3886    -3773    -3720 
   -3746    -3863    -4040    -4253    -4425    -4394    -4121    -3771 
   -3547    -3523    -3632    -3774    -3842    -3815    -3827    -3943 
   -4059    -4122    -4140    -4058    -3896    -3759    -3713    -3743 
   -3753    -3684    -3635    -3688    -3773    -3839    -3917    -3973 
   -3942    -3847    -3777    -3750    -3681    -3564    -3523    -3665 
   -3893    -3927    -3704    -3507    -3523    -3643    -3735    -3792 
   -3838    -3870    -3912    -3951    -3927    -3866    -3819    -3769 
   -3726    -3736    -3770    -3759    -3730    -3775    -3877    -3936 
   -3950    -3958    -3920    -3766    -3582    -3516    -3558    -3611 
   -3658    -3757    -3935    -4098    -4139    -4085    -4013    -3952 
   -3929    -3977    -4085    -4187    -4195    -4078    -3940    -3917 
   -3975    -3960    -3816    -3669    -3682    -3838    -3937    -3919 
   -3898    -3912    -3871    -3754    -3659    -3692    -3804    -3828 
   -3713    -3585    -3574    -3669    -3731    -3681    -3642    -3750 
   -3885    -3878    -3800    -3770    -3755    -3670    -3553    -3555 
   -3680    -3735    -3666    -3639    -3775    -3973    -4041    -3955 
   -3854    -3836    -3851    -3821    -3797    -3851    -3925    -3879 
   -3658    -3488    -3639    -3977    -4141    -4071    -4013    -4083 
   -4133    -4033    -3858    -3746    -3723    -3699    -3653    -3681 
   -3797    -3873    -3870    -3919    -4071    -4237    -4297    -4163 
   -3928    -3811    -3801    -3727    -3613    -3596    -3678    -3775 
   -3813    -3786    -3781    -3834    -3840    -3746    -3659    -3696 
   -3805    -3848    -3801    -3751    -3757    -3840    -3948    -3981 
   -3928    -3840    -3736    -3672    -3724    -3854    -3861    -3658 
   -3487    -3586    -3829    -3947    -3873    -3736    -3708    -3785 
   -3819    -3793    -3802    -3855    -3870    -3848    -3858    -3923 
   -4020    -4112    -4180    -4226    -4203    -4063    -3878    -3784 
   -3805    -3850    -3821    -3738    -3723    -3847    -4008    -4032 
   -3875    -3665    -3545    -3520    -3528    -3562    -3650    -3743 
   -3773    -3807    -3939    -4071    -4054    -3940    -3861    -3825 
   -3817    -3835    -3863    -3905    -3943    -3886    -3744    -3665 
   -3716    -3812    -3873    -3874    -3848    -3805    -3685    -3534 
   -3497    -3582    -3700    -3790    -3808    -3792    -3811    -3851 
   -3917    -3993    -3987    -3906    -3834    -3771    -3707    -3666 
   -3662    -3682    -3694    -3666    -3601    -3559    -3658    -3963 
   -4315    -4445    -4314    -4072    -3797    -3528    -3346    -3264 
   -3296    -3474    -3704    -3825    -3804    -3735    -3712    -3726 
   -3712    -3659    -3613    -3647    -3775    -3870    -3825    -3748 
   -3786    -3970    -4232    -4414    -4388    -4195    -3944    -3709 
   -3530    -3441    -3457    -3535    -3609    -3646    -3631    -3574 
   -3569    -3669    -3781    -3892    -4078    -4261    -4302    -4218 
   -4136    -4108    -4081    -4014    -3932    -3832    -3689    -3531 
   -3495    -3717    -4108    -4401    -4403    -4172    -3964    -3917 
   -3936    -3927    -3937    -4037    -4194    -4314    -4351    -4363 
   -4376    -4280    -4014    -3724    -3531    -3419    -3396    -3461 
   -3516    -3532    -3549    -3531    -3466    -3449    -3491    -3527 
   -3607    -3734    -3743    -3603    -3523    -3624    -3762    -3789 
   -3735    -3704    -3751    -3793    -3669    -3430    -3372    -3645 
   -4014    -4221    -4392    -4685    -4888    -4781    -4450    -4059 
   -3724    -3512    -3402    -3389    -3562    -3929    -4298    -4461 
   -4415    -4334    -4341    -4368    -4333    -4303    -4363    -4399 
   -4180    -3755    -3488    -3568    -3855    -4183    -4494    -4737 
   -4801    -4580    -4075    -3460    -2990    -2843    -2998    -3318 
   -3628    -3734    -3527    -3090    -2582    -2178    -2061    -2297 
   -2803    -3478    -4230    -4827    -4992    -4666    -4017    -3307 
   -2821    -2709    -2941    -3412    -3937    -4305    -4453    -4436 
   -4298    -4131    -3991    -3892    -3901    -3996    -4006    -3893 
   -3732    -3591    -3558    -3705    -3991    -4302    -4506    -4527 
   -4457    -4498    -4623    -4627    -4507    -4396    -4280    -4066 
   -3759    -3489    -3357    -3330    -3345    -3437    -3685    -4039 
   -4345    -4490    -4444    -4229    -3852    -3352    -2856    -2511 
   -2398    -2506    -2735    -3028    -3361    -3686    -3977    -4159 
   -4120    -3859    -3512    -3260    -3181    -3191    -3161    -3149 
   -3365    -3796    -4106    -4083    -3862    -3658    -3539    -3465 
   -3406    -3434    -3596    -3743    -3747    -3686    -3681    -3712 
   -3682    -3609    -3665    -3943    -4293    -4499    -4504    -4391 
   -4287    -4249    -4222    -4189    -4209    -4291    -4356    -4338 
   -4263    -4182    -4160    -4243    -4390    -4565    -4741    -4824 
   -4735    -4483    -4171    -3927    -3758    -3638    -3630    -3717 
   -3742    -3613    -3464    -3478    -3658    -3832    -3908    -3978 
   -4125    -4288    -4375    -4338    -4232    -4112    -3889    -3480 
   -3033    -2836    -2974    -3280    -3604    -3904    -4126    -4214 
   -4183    -4126    -4122    -4140    -4048    -3773    -3445    -3275 
   -3330    -3565    -3935    -4340    -4579    -4455    -3954    -3330 
   -2849    -2590    -2524    -2601    -2794    -3087    -3379    -3559 
   -3628    -3689    -3862    -4105    -4243    -4251    -4253    -4255 
   -4155    -3935    -3681    -3483    -3334    -3217    -3208    -3396 
   -3746    -4121    -4369    -4473    -4530    -4496    -4234    -3816 
   -3522    -3473    -3514    -3514    -3527    -3657    -3882    -4078 
   -4155    -4124    -4036    -3901    -3657    -3291    -2907    -2608 
   -2389    -2277    -2376    -2710    -3208    -3808    -4399    -4824 
   -5074    -5231    -5201    -4869    -4378    -3981    -3808    -3885 
   -4137    -4369    -4465    -4484    -4473    -4432    -4391    -4406 
   -4533    -4762    -4950    -4959    -4795    -4521    -4160    -3720 
   -3258    -2895    -2720    -2756    -2970    -3298    -3696    -4068 
   -4293    -4305    -4124    -3852    -3605    -3424    -3276    -3136 
   -3094    -3249    -3550    -3846    -4047    -4164    -4210    -4168 
   -3989    -3632    -3173    -2779    -2589    -2616    -2737    -2835 
   -2982    -3289    -3657    -3879    -3905    -3881    -3950    -4023 
   -3955    -3840    -3858    -4047    -4333    -4591    -4711    -4681 
   -4511    -4221    -3931    -3784    -3827    -4025    -4276    -4464 
   -4565    -4538    -4287    -3855    -3468    -3361    -3600    -4031 
   -4386    -4487    -4345    -4090    -3878    -3781    -3731    -3681 
   -3685    -3774    -3878    -3916    -3834    -3639    -3435    -3295 
   -3217    -3188    -3253    -3466    -3771    -4037    -4164    -4113 
   -3962    -3824    -3708    -3537    -3316    -3213    -3326    -3522 
   -3669    -3874    -4252    -4638    -4745    -4507    -4104    -3747 
   -3520    -3346    -3153    -2999    -3011    -3226    -3528    -3774 
   -3979    -4233    -4432    -4320    -3863    -3339    -3005    -2889 
   -2948    -3235    -3834    -4622    -5250    -5433    -5236    -4924 
   -4607    -4224    -3786    -3423    -3204    -3090    -3015    -3011 
   -3150    -3435    -3778    -3998    -3937    -3663    -3345    -3053 
   -2835    -2772    -2948    -3346    -3831    -4297    -4727    -5080 
   -5252    -5132    -4711    -4171    -3766    -3642    -3784    -4064 
   -4321    -4437    -4430    -4423    -4480    -4518    -4455    -4320 
   -4160    -3986    -3775    -3495    -3173    -2917    -2833    -2987 
   -3342    -3732    -3964    -3946    -3724    -3461    -3315    -3304 
   -3338    -3354    -3315    -3235    -3188    -3254    -3438    -3676 
   -3928    -4136    -4216    -4147    -3983    -3789    -3634    -3559 
   -3543    -3555    -3596    -3631    -3576    -3422    -3310    -3370 
   -3612    -3955    -4244    -4364    -4382    -4444    -4614    -4807 
   -4901    -4899    -4843    -4746    -4596    -4382    -4079    -3662 
   -3181    -2791    -2621    -2690    -2957    -3391    -3919    -4394 
   -4737    -4973    -5074    -4945    -4572    -4114    -3780    -3611 
   -3472    -3300    -3187    -3227    -3458    -3842    -4221    -4433 
   -4415    -4202    -3882    -3537    -3206    -2964    -2889    -2916 
   -2909    -2843    -2774    -2741    -2786    -2975    -3296    -3616 
   -3863    -4087    -4310    -4457    -4442    -4284    -4139    -4124 
   -4193    -4302    -4515    -4843    -5166    -5296    -5105    -4680 
   -4305    -4189    -4288    -4449    -4536    -4434    -4097    -3557 
   -2960    -2562    -2556    -2906    -3384    -3778    -3969    -3838 
   -3384    -2844    -2520    -2581    -2938    -3339    -3630    -3817 
   -3906    -3859    -3703    -3551    -3516    -3628    -3811    -3975 
   -4131    -4315    -4495    -4560    -4446    -4202    -3959    -3847 
   -3886    -4001    -4135    -4245    -4260    -4144    -3959    -3773 
   -3593    -3411    -3283    -3277    -3327    -3338    -3356    -3469 
   -3647    -3773    -3790    -3735    -3665    -3609    -3559    -3526 
   -3568    -3673    -3740    -3723    -3685    -3712    -3844    -4075 
   -4338    -4553    -4635    -4522    -4279    -4054    -3958    -4077 
   -4386    -4700    -4860    -4905    -4923    -4858    -4639    -4356 
   -4164    -4117    -4148    -4195    -4239    -4218    -4074    -3842 
   -3599    -3370    -3118    -2840    -2582    -2384    -2330    -2485 
   -2741    -2903    -2897    -2810    -2793    -2910    -3111    -3325 
   -3565    -3882    -4244    -4527    -4627    -4540    -4322    -4052 
   -3815    -3662    -3559    -3445    -3321    -3267    -3357    -3588 
   -3870    -4083    -4102    -3912    -3693    -3659    -3813    -3990 
   -4074    -4090    -4099    -4129    -4174    -4216    -4260    -4324 
   -4399    -4453    -4465    -4428    -4364    -4359    -4436    -4500 
   -4500    -4480    -4457    -4360    -4143    -3871    -3663    -3522 
   -3352    -3159    -3021    -2964    -2955    -2956    -3009    -3190 
   -3457    -3667    -3724    -3669    -3620    -3593    -3545    -3492 
   -3465    -3511    -3707    -4047    -4433    -4757    -4895    -4806 
   -4602    -4384    -4179    -4063    -4021    -3927    -3792    -3727 
   -3734    -3804    -3916    -3979    -3973    -3937    -3854    -3712 
   -3562    -3456    -3426    -3499    -3624    -3726    -3751    -3658 
