Origin Time       2025/03/30 10:18:00
Lat.              34.667
Long.             140.825
Depth. (km)       69
Mag.              4.9
Station Code      CHB017
Station Lat.      35.2976
Station Long.     140.0734
Station Height(m) 38
Record Time       2025/03/30 10:19:02
Sampling Freq(Hz) 100Hz
Duration Time(s)  64
Dir.              N-S
Scale Factor      7845(gal)/8223790
Max. Acc. (gal)   2.079
Last Correction   2025/03/30 10:19:02
Memo.             
[...]
   -6890    -7092    -7217    -7142    -7020    -6968    -6982    -7032 
   -7009    -6897    -6876    -6983    -7064    -7071    -7024    -6926 
   -6829    -6778    -6744    -6727    -6797    -6849    -6756    -6709 
   -6820    -6897    -6916    -6995    -7056    -6987    -6933    -6995 
   -6972    -6874    -6951    -7099    -7125    -7157    -7184    -6998 
   -6691    -6583    -6731    -6917    -6987    -6920    -6795    -6732 
   -6778    -6933    -7086    -7072    -6964    -6960    -7057    -7087 
   -6971    -6828    -6817    -6971    -7075    -6929    -6728    -6671 
   -6659    -6673    -6783    -6893    -6936    -6952    -6914    -6844 
   -6871    -6928    -6867    -6852    -7053    -7333    -7435    -7192 
   -6782    -6647    -6880    -7111    -7064    -6828    -6652    -6713 
   -6979    -7167    -7068    -6808    -6625    -6710    -7005    -7107 
   -6845    -6669    -6976    -7407    -7406    -7117    -6907    -6739 
   -6643    -6758    -6914    -6925    -6906    -6980    -7057    -7017 
   -6909    -6882    -6964    -7021    -7011    -6957    -6809    -6691 
   -6767    -6898    -6988    -7063    -6966    -6736    -6669    -6762 
   -6822    -6809    -6805    -6894    -6961    -6917    -6944    -7032 
   -6924    -6724    -6728    -6872    -6939    -6902    -6856    -6939 
   -7150    -7276    -7195    -7005    -6885    -6939    -7001    -6933 
   -6883    -6944    -7072    -7236    -7314    -7203    -7048    -6944 
   -6786    -6604    -6578    -6736    -6863    -6783    -6714    -6851 
   -6879    -6679    -6681    -6895    -6943    -6914    -7022    -7095 
   -7006    -6890    -6866    -6863    -6845    -6912    -6961    -6849 
   -6820    -7030    -7253    -7327    -7273    -7171    -7107    -7022 
   -6859    -6729    -6705    -6777    -6926    -7034    -7011    -6928 
   -6799    -6608    -6500    -6619    -6882    -7003    -6839    -6613 
   -6573    -6789    -7142    -7306    -7226    -7129    -7011    -6909 
   -6947    -6895    -6708    -6729    -6862    -6795    -6766    -7013 
   -7272    -7307    -7219    -7095    -6951    -6882    -6907    -6976 
   -6970    -6824    -6744    -6779    -6762    -6799    -6999    -7200 
   -7207    -6997    -6853    -6949    -6951    -6677    -6453    -6521 
   -6755    -6967    -7114    -7187    -7144    -7084    -7227    -7473 
   -7449    -7109    -6741    -6500    -6420    -6540    -6705    -6741 
   -6759    -6825    -6817    -6804    -6858    -6855    -6778    -6656 
   -6551    -6644    -6903    -7155    -7329    -7269    -6955    -6720 
   -6817    -7079    -7192    -7177    -7200    -7157    -7090    -7159 
   -7138    -6963    -6993    -7164    -7102    -6851    -6691    -6724 
   -6799    -6808    -6848    -6936    -7018    -7160    -7252    -7096 
   -6804    -6583    -6466    -6424    -6474    -6616    -6793    -6947 
   -7009    -6970    -6933    -6875    -6697    -6612    -6787    -7006 
   -7167    -7300    -7277    -7129    -7044    -7056    -7119    -7119 
   -7037    -7024    -7030    -7007    -7067    -6975    -6600    -6458 
   -6764    -7036    -7055    -7059    -7099    -6964    -6654    -6442 
   -6435    -6551    -6764    -6968    -6998    -6878    -6801    -6932 
   -7183    -7249    -7033    -6789    -6725    -6774    -6851    -7001 
   -7218    -7430    -7546    -7504    -7317    -7028    -6775    -6724 
   -6774    -6710    -6552    -6511    -6629    -6708    -6729    -6860 
   -6956    -6866    -6810    -6882    -6870    -6768    -6743    -6805 
   -6933    -7137    -7321    -7384    -7295    -7103    -6966    -6868 
   -6654    -6431    -6446    -6673    -6894    -7030    -7141    -7199 
   -7163    -7061    -6847    -6600    -6577    -6818    -7169    -7429 
   -7429    -7284    -7214    -7204    -7101    -6893    -6732    -6646 
   -6565    -6619    -6851    -7011    -7069    -7176    -7169    -6964 
   -6812    -6822    -6925    -7026    -6990    -6817    -6640    -6546 
   -6544    -6567    -6620    -6808    -7024    -7022    -6808    -6590 
   -6516    -6639    -6902    -7161    -7265    -7188    -7125    -7188 
   -7221    -7133    -7029    -6998    -6955    -6801    -6648    -6642 
   -6717    -6782    -6837    -6906    -7003    -7121    -7214    -7264 
   -7281    -7231    -7119    -6953    -6723    -6639    -6883    -7229 
   -7327    -7095    -6801    -6748    -6821    -6813    -6790    -6768 
   -6713    -6785    -7007    -7123    -7040    -6922    -6816    -6725 
   -6777    -6933    -7034    -7009    -6874    -6741    -6720    -6762 
   -6813    -6858    -6833    -6759    -6758    -6829    -6871    -6895 
   -6922    -6848    -6732    -6840    -7099    -7141    -6947    -6832 
   -6929    -7053    -7036    -6976    -7003    -7052    -7090    -7165 
   -7200    -7094    -6948    -6933    -7003    -6993    -6921    -6924 
   -6984    -6968    -6856    -6779    -6775    -6763    -6806    -6971 
   -7083    -6993    -6894    -6986    -7078    -6987    -6864    -6802 
   -6763    -6782    -6835    -6849    -6848    -6856    -6839    -6797 
   -6808    -6891    -6976    -7029    -7047    -7022    -7017    -7032 
   -6929    -6625    -6332    -6331    -6538    -6743    -6937    -7114 
   -7156    -7021    -6882    -6880    -6979    -7111    -7176    -7140 
   -7156    -7314    -7503    -7607    -7607    -7464    -7179    -6924 
   -6779    -6681    -6651    -6681    -6713    -6782    -6903    -7013 
   -7072    -7076    -6979    -6743    -6473    -6295    -6203    -6231 
   -6443    -6744    -6909    -6813    -6654    -6717    -6943    -7129 
   -7288    -7430    -7429    -7242    -7038    -7017    -7137    -7202 
   -7155    -7061    -6930    -6825    -6822    -6864    -6906    -6975 
   -6974    -6843    -6732    -6745    -6831    -6878    -6790    -6693 
   -6783    -6944    -6979    -6916    -6810    -6754    -6879    -7088 
   -7184    -7156    -7102    -7110    -7160    -7094    -6864    -6674 
   -6744    -7014    -7209    -7177    -6983    -6814    -6766    -6714 
   -6633    -6643    -6721    -6837    -6979    -7001    -6845    -6671 
   -6674    -6840    -6918    -6843    -6856    -7024    -7179    -7238 
   -7203    -7091    -6976    -6940    -6903    -6750    -6646    -6843 
   -7149    -7160    -6912    -6767    -6787    -6790    -6735    -6713 
   -6735    -6691    -6666    -6874    -7129    -7140    -7060    -7028 
   -6941    -6848    -6913    -7099    -7163    -6998    -6845    -6943 
   -7176    -7330    -7377    -7353    -7252    -7175    -7194    -7107 
   -6782    -6434    -6289    -6390    -6631    -6805    -6835    -6820 
   -6847    -6934    -7036    -7063    -6986    -6847    -6705    -6623 
   -6666    -6856    -7095    -7211    -7179    -7152    -7167    -7192 
   -7196    -6997    -6567    -6235    -6250    -6494    -6737    -6939 
   -7121    -7177    -7106    -7036    -6929    -6767    -6778    -6980 
   -7028    -6876    -6891    -7115    -7246    -7214    -7176    -7137 
   -6991    -6843    -6883    -7005    -6968    -6863    -6925    -7009 
   -6917    -6862    -6994    -7129    -7160    -7109    -6972    -6804 
   -6685    -6605    -6477    -6304    -6299    -6521    -6741    -6843 
   -6887    -6920    -7005    -7117    -7117    -6999    -6907    -6944 
   -7076    -7137    -7030    -6928    -6986    -7106    -7192    -7267 
   -7350    -7419    -7403    -7310    -7186    -6987    -6821    -6867 
   -6961    -6879    -6709    -6592    -6552    -6594    -6605    -6485 
   -6389    -6480    -6648    -6743    -6759    -6745    -6714    -6727 
   -6879    -7064    -7074    -6960    -6889    -6845    -6874    -7102 
   -7345    -7308    -7117    -7069    -7140    -7204    -7330    -7435 
   -7254    -6894    -6704    -6686    -6698    -6802    -6980    -7034 
   -6907    -6739    -6612    -6544    -6590    -6732    -6860    -6939 
   -7002    -7051    -7057    -7044    -7059    -7026    -6820    -6596 
   -6646    -6868    -6971    -6983    -7083    -7204    -7223    -7211 
   -7194    -7084    -6917    -6747    -6581    -6569    -6785    -7074 
   -7248    -7191    -6867    -6417    -6174    -6361    -6824    -7204 
   -7296    -7163    -6979    -6867    -6863    -6945    -7087    -7203 
   -7172    -7094    -7114    -7110    -7002    -6920    -6868    -6797 
   -6750    -6714    -6601    -6450    -6458    -6686    -6941    -7090 
   -7233    -7406    -7462    -7366    -7168    -6835    -6505    -6469 
   -6690    -6867    -6947    -7069    -7149    -7032    -6814    -6687 
   -6666    -6704    -6852    -7123    -7335    -7377    -7334    -7229 
   -7005    -6751    -6588    -6497    -6481    -6616    -6868    -7067 
   -7086    -6998    -7001    -7078    -7028    -6868    -6795    -6849 
   -6910    -6967    -7084    -7172    -7071    -6847    -6735    -6777 
   -6887    -7051    -7146    -7067    -6967    -6929    -6797    -6524 
   -6277    -6180    -6210    -6354    -6596    -6845    -7048    -7206 
   -7327    -7420    -7429    -7306    -7179    -7188    -7292    -7381 
   -7346    -7114    -6805    -6675    -6743    -6822    -6907    -7063 
   -7152    -7118    -7091    -7101    -7028    -6847    -6717    -6750 
   -6837    -6845    -6772    -6671    -6642    -6790    -7063    -7237 
   -7169    -6999    -6926    -6978    -7056    -7044    -6880    -6652 
   -6536    -6597    -6771    -6947    -7041    -7082    -7088    -7074 
   -7107    -7130    -6983    -6640    -6259    -6072    -6185    -6505 
   -6847    -7010    -6982    -6955    -6997    -6961    -6798    -6656 
   -6708    -6944    -7165    -7192    -7015    -6713    -6388    -6181 
   -6181    -6384    -6631    -6678    -6531    -6455    -6597    -6821 
   -6930    -6903    -6835    -6822    -6991    -7368    -7754    -8031 
   -8306    -8614    -8776    -8692    -8513    -8363    -8193    -7966 
   -7728    -7524    -7384    -7323    -7276    -7083    -6674    -6246 
   -6023    -5954    -5864    -5745    -5657    -5553    -5435    -5427 
   -5516    -5532    -5481    -5501    -5578    -5614    -5686    -5960 
   -6404    -6863    -7292    -7730    -8098    -8214    -8090    -7947 
   -7847    -7715    -7616    -7614    -7555    -7385    -7327    -7515 
   -7759    -7808    -7624    -7414    -7341    -7308    -7188    -6913 
   -6493    -6131    -5987    -5957    -5938    -6003    -6235    -6637 
   -7146    -7568    -7689    -7511    -7225    -7007    -6833    -6629 
   -6531    -6709    -7078    -7477    -7901    -8205    -8181    -7955 
   -7596    -6893    -6048    -5516    -5328    -5370    -5707    -6334 
   -7072    -7697    -7997    -7879    -7427    -6855    -6394    -6093 
   -5826    -5540    -5302    -5281    -5665    -6424    -7354    -8268 
   -8923    -9082    -8742    -8047    -7119    -6130    -5422    -5297 
   -5733    -6501    -7344    -8014    -8329    -8305    -8068    -7643 
   -7118    -6741    -6585    -6512    -6496    -6589    -6732    -6824 
   -6882    -6991    -7075    -6934    -6542    -6095    -5899    -6103 
   -6485    -6767    -6926    -7018    -7056    -7119    -7279    -7420 
   -7412    -7288    -7156    -7056    -7014    -7113    -7285    -7321 
   -7242    -7198    -7051    -6596    -5957    -5493    -5408    -5624 
   -5945    -6245    -6566    -7006    -7453    -7632    -7429    -6998 
   -6642    -6577    -6698    -6737    -6702    -6820    -7159    -7569 
   -7830    -7863    -7794    -7755    -7782    -7882    -7962    -7923 
   -7866    -7823    -7538    -6979    -6446    -6108    -6041    -6324 
   -6848    -7321    -7554    -7554    -7362    -6974    -6490    -6147 
   -6085    -6219    -6380    -6521    -6724    -6972    -7134    -7111 
   -6879    -6547    -6315    -6184    -6002    -5757    -5599    -5652 
   -5910    -6220    -6459    -6619    -6762    -7025    -7431    -7697 
   -7619    -7446    -7477    -7587    -7518    -7353    -7308    -7338 
   -7318    -7326    -7457    -7619    -7742    -7871    -7958    -7815 
   -7376    -6779    -6211    -5818    -5687    -5810    -6108    -6535 
   -7048    -7495    -7688    -7627    -7400    -6986    -6417    -5873 
   -5578    -5753    -6358    -6959    -7200    -7195    -7207    -7267 
   -7366    -7542    -7596    -7339    -6988    -6817    -6774    -6721 
   -6662    -6685    -6816    -6891    -6763    -6508    -6340    -6374 
   -6501    -6550    -6596    -6818    -7130    -7364    -7524    -7568 
   -7411    -7202    -7130    -7134    -7092    -7094    -7248    -7491 
   -7726    -7950    -8048    -7800    -7263    -6713    -6245    -5881 
   -5783    -5941    -6192    -6478    -6674    -6656    -6539    -6415 
   -6300    -6334    -6675    -7295    -7896    -8143    -7989    -7632 
   -7240    -6863    -6575    -6466    -6504    -6601    -6755    -6936 
   -7065    -7129    -7155    -7136    -7037    -6913    -6959    -7299 
   -7697    -7763    -7407    -6808    -6208    -5807    -5522    -5206 
   -4978    -4999    -5313    -5900    -6569    -7061    -7315    -7487 
   -7717    -7908    -7878    -7727    -7616    -7519    -7437    -7514 
   -7805    -8131    -8209    -7950    -7452    -6916    -6558    -6440 
   -6502    -6704    -6953    -7200    -7474    -7620    -7460    -7133 
   -6782    -6401    -6080    -5879    -5805    -5914    -6196    -6534 
   -6818    -7041    -7265    -7469    -7595    -7642    -7534    -7227 
   -6852    -6511    -6258    -6197    -6319    -6516    -6662    -6606 
   -6448    -6428    -6509    -6574    -6651    -6698    -6633    -6469 
   -6313    -6318    -6525    -6902    -7337    -7600    -7581    -7452 
   -7371    -7306    -7249    -7312    -7565    -7931    -8334    -8735 
   -9009    -9100    -9015    -8681    -8104    -7446    -6887    -6444 
   -6058    -5755    -5529    -5394    -5417    -5524    -5574    -5601 
   -5761    -6050    -6257    -6286    -6189    -5962    -5636    -5350 
   -5233    -5323    -5559    -5917    -6443    -7074    -7632    -8105 
   -8591    -8996    -9069    -8739    -8182    -7673    -7495    -7693 
   -7977    -8055    -7998    -8047    -8235    -8347    -8189    -7750 
   -7119    -6448    -5922    -5598    -5383    -5202    -5139    -5341 
   -5749    -6134    -6413    -6647    -6774    -6677    -6444    -6301 
   -6343    -6505    -6682    -6813    -6879    -6959    -7184    -7523 
   -7789    -7936    -8000    -7917    -7699    -7466    -7244    -6970 
   -6662    -6386    -6246    -6370    -6752    -7182    -7458    -7485 
   -7237    -6876    -6682    -6732    -6947    -7192    -7294    -7203 
   -7032    -6903    -6848    -6777    -6632    -6461    -6282    -6114 
   -6076    -6301    -6690    -7005    -7223    -7504    -7813    -7981 
   -7967    -7782    -7460    -7157    -6990    -6913    -6868    -6772 
   -6594    -6524    -6678    -6905    -7044    -7157    -7398    -7699 
   -7834    -7767    -7616    -7369    -6941    -6446    -6102    -5927 
   -5775    -5567    -5339    -5208    -5351    -5822    -6390    -6758 
   -6845    -6787    -6718    -6651    -6577    -6534    -6550    -6646 
   -6841    -7068    -7284    -7508    -7649    -7564    -7279    -7030 
   -7051    -7321    -7661    -7967    -8154    -8151    -8066    -8029 
   -7896    -7542    -7145    -6874    -6651    -6416    -6315    -6450 
   -6693    -6929    -7137    -7171    -6914    -6550    -6274    -6135 
   -6195    -6450    -6740    -6949    -7088    -7161    -7134    -7038 
   -6933    -6822    -6662    -6484    -6442    -6565    -6706    -6813 
   -6913    -6947    -6848    -6710    -6681    -6721    -6713    -6708 
   -6758    -6808    -6847    -6907    -7011    -7138    -7198    -7141 
   -6963    -6733    -6636    -6771    -7059    -7384    -7736    -8120 
   -8392    -8353    -7942    -7330    -6825    -6583    -6550    -6604 
   -6633    -6585    -6477    -6407    -6471    -6596    -6582    -6373 
   -6116    -6012    -6142    -6461    -6899    -7376    -7735    -7820 
   -7618    -7202    -6670    -6161    -5810    -5694    -5873    -6361 
   -7024    -7658    -8154    -8429    -8409    -8186    -7978    -7885 
   -7832    -7726    -7587    -7464    -7333    -7164    -6974    -6781 
   -6531    -6192    -5881    -5701    -5629    -5694    -5871    -6012 
   -6126    -6338    -6615    -6813    -6864    -6843    -6858    -6872 
   -6822    -6759    -6671    -6562    -6666    -7083    -7566    -7865 
   -7946    -7923    -7889    -7770    -7520    -7252    -6983    -6655 
   -6412    -6350    -6265    -6070    -5956    -6042    -6330    -6755 
   -7176    -7431    -7468    -7385    -7287    -7146    -6979    -6903 
   -6951    -7106    -7371    -7630    -7723    -7628    -7433    -7188 
   -6960    -6886    -6984    -7105    -7152    -7118    -7002    -6775 
   -6432    -6070    -5806    -5655    -5607    -5698    -5910    -6177 
   -6447    -6713    -6944    -7065    -7140    -7275    -7453    -7654 
   -7861    -7933    -7778    -7481    -7223    -7068    -6983    -6988 
   -7055    -7013    -6794    -6465    -6079    -5784    -5806    -6087 
   -6428    -6787    -7098    -7275    -7339    -7333    -7265    -7138 
   -7042    -7123    -7296    -7368    -7349    -7325    -7344    -7452 
   -7639    -7776    -7754    -7662    -7614    -7580    -7515    -7391 
   -7132    -6745    -6365    -6041    -5722    -5463    -5401    -5552 
   -5814    -6096    -6322    -6389    -6284    -6156    -6139    -6187 
   -6289    -6525    -6820    -7099    -7461    -7874    -8148    -8214 
   -8131    -7916    -7627    -7453    -7473    -7609    -7823    -8033 
   -8067    -7861    -7546    -7292    -7079    -6813    -6555    -6347 
   -6161    -6060    -6091    -6192    -6315    -6473    -6663    -6812 
   -6853    -6817    -6758    -6690    -6612    -6550    -6571    -6716 
   -6945    -7161    -7263    -7222    -7087    -6917    -6754    -6663 
   -6710    -6841    -6961    -7078    -7227    -7381    -7453    -7403 
   -7308    -7195    -6983    -6708    -6546    -6571    -6659    -6652 
   -6542    -6416    -6295    -6189    -6151    -6166    -6224    -6370 
   -6594    -6829    -7001    -7095    -7130    -7115    -7101    -7133 
   -7229    -7414    -7601    -7654    -7577    -7429    -7225    -7026 
   -6895    -6770    -6559    -6315    -6183    -6276    -6598    -7007 
   -7318    -7453    -7503    -7549    -7503    -7329    -7156    -7067 
   -7025    -7030    -7106    -7241    -7399    -7543    -7630    -7555 
   -7271    -6932    -6700    -6556    -6470    -6475    -6571    -6741 
   -7001    -7304    -7487    -7395    -7059    -6640    -6278    -6025 
   -5863    -5756    -5718    -5791    -5940    -6093    -6277    -6523 
   -6778    -7015    -7177    -7140    -6930    -6777    -6826    -7018 
   -7225    -7348    -7350    -7279    -7238    -7288    -7356    -7361 
   -7361    -7384    -7396    -7457    -7585    -7670    -7632    -7488 
   -7283    -7056    -6856    -6748    -6740    -6762    -6787    -6844 
   -6895    -6860    -6764    -6663    -6548    -6504    -6627    -6805 
   -6868    -6852    -6889    -6920    -6820    -6610    -6372    -6174 
   -6080    -6112    -6237    -6349    -6392    -6465    -6669    -6933 
   -7144    -7327    -7554    -7801    -7958    -7931    -7771    -7643 
   -7635    -7726    -7834    -7844    -7740    -7584    -7419    -7277 
   -7141    -6970    -6802    -6717    -6693    -6666    -6642    -6583 
   -6446    -6349    -6374    -6431    -6455    -6439    -6373    -6253 
   -6070    -5890    -5883    -6103    -6403    -6636    -6762    -6793 
   -6791    -6817    -6930    -7167    -7453    -7666    -7736    -7630 
