Origin Time       2025/03/30 10:18:00
Lat.              34.667
Long.             140.825
Depth. (km)       69
Mag.              4.9
Station Code      CHB019
Station Lat.      35.1106
Station Long.     139.8360
Station Height(m) 5
Record Time       2025/03/30 10:19:06
Sampling Freq(Hz) 100Hz
Duration Time(s)  63
Dir.              E-W
Scale Factor      7845(gal)/8223790
Max. Acc. (gal)   1.844
Last Correction   2025/03/30 10:19:06
Memo.             
[...]
    4121     4140     4129     4110     4135     4214     4311     4380 
    4390     4356     4340     4364     4390     4391     4387     4415 
    4469     4518     4544     4548     4531     4488     4428     4368 
    4302     4230     4160     4101     4064     4033     3986     3921 
    3866     3848     3883     3951     4025     4095     4152     4189 
    4207     4205     4198     4217     4274     4347     4409     4440 
    4434     4402     4360     4341     4356     4379     4391     4391 
    4388     4395     4414     4445     4472     4473     4456     4425 
    4388     4374     4392     4396     4345     4245     4121     4004 
    3924     3889     3862     3804     3739     3720     3780     3915 
    4099     4306     4483     4569     4541     4432     4309     4226 
    4176     4141     4125     4140     4186     4259     4349     4445 
    4534     4583     4558     4450     4288     4110     3970     3925 
    3963     4027     4099     4153     4144     4113     4131     4171 
    4205     4263     4338     4383     4364     4286     4183     4112 
    4110     4159     4233     4315     4379     4421     4450     4452 
    4423     4382     4336     4286     4228     4170     4125     4110 
    4132     4179     4225     4274     4345     4422     4476     4509 
    4526     4519     4463     4351     4216     4112     4064     4056 
    4072     4106     4132     4125     4093     4058     4035     4040 
    4079     4149     4251     4351     4390     4361     4325     4311 
    4302     4282     4257     4251     4275     4336     4428     4526 
    4600     4608     4537     4425     4326     4279     4260     4228 
    4176     4121     4056     3989     3948     3963     4040     4140 
    4214     4244     4241     4225     4205     4171     4129     4104 
    4112     4152     4221     4293     4324     4301     4244     4189 
    4156     4132     4101     4081     4108     4183     4260     4309 
    4330     4337     4321     4274     4228     4212     4213     4213 
    4220     4234     4249     4264     4283     4305     4336     4392 
    4456     4482     4471     4452     4436     4418     4388     4315 
    4205     4099     4017     3960     3931     3933     3989     4085 
    4185     4267     4310     4303     4271     4249     4239     4212 
    4170     4162     4225     4337     4457     4572     4653     4688 
    4689     4660     4591     4498     4396     4283     4162     4067 
    4023     3998     3978     3969     3967     3990     4039     4086 
    4120     4147     4160     4155     4147     4152     4172     4176 
    4155     4126     4118     4144     4198     4274     4348     4378 
    4356     4305     4232     4143     4051     3973     3915     3902 
    3951     4050     4195     4375     4523     4576     4526     4434 
    4349     4284     4249     4248     4276     4351     4468     4579 
    4637     4627     4550     4418     4260     4122     4033     3993 
    4005     4071     4166     4263     4357     4438     4479     4475 
    4437     4383     4309     4232     4175     4139     4132     4163 
    4210     4225     4189     4126     4072     4043     4025     4000 
    3969     3948     3985     4083     4203     4326     4464     4590 
    4680     4738     4766     4746     4673     4583     4517     4468 
    4415     4342     4241     4132     4036     3956     3892     3859 
    3879     3958     4047     4104     4132     4151     4179     4224 
    4257     4264     4272     4295     4307     4288     4222     4113 
    3982     3851     3766     3751     3804     3901     4008     4106 
    4210     4320     4406     4444     4445     4444     4445     4434 
    4428     4440     4465     4488     4479     4440     4406     4390 
    4395     4391     4353     4303     4268     4239     4206     4176 
    4172     4201     4239     4253     4236     4197     4160     4129 
    4091     4060     4048     4056     4077     4101     4122     4133 
    4145     4171     4202     4218     4221     4230     4252     4294 
    4355     4417     4448     4429     4392     4391     4445     4513 
    4546     4542     4509     4459     4391     4305     4221     4156 
    4101     4041     3985     3971     4023     4129     4244     4311 
    4317     4293     4261     4221     4170     4143     4171     4234 
    4288     4333     4365     4374     4368     4353     4318     4266 
    4225     4218     4240     4263     4264     4243     4214     4202 
    4194     4160     4104     4067     4086     4147     4230     4326 
    4406     4452     4465     4441     4379     4313     4284     4287 
    4278     4241     4191     4132     4066     3989     3881     3753 
    3645     3597     3630     3716     3829     3956     4085     4207 
    4332     4445     4530     4587     4617     4610     4565     4509 
    4468     4453     4459     4482     4533     4599     4639     4614 
    4514     4380     4274     4226     4230     4261     4313     4383 
    4460     4517     4530     4494     4418     4333     4275     4252 
    4221     4168     4108     4048     3983     3898     3790     3676 
    3599     3597     3653     3730     3828     3952     4083     4199 
    4280     4329     4363     4392     4422     4456     4486     4503 
    4499     4476     4463     4479     4510     4526     4509     4441 
    4324     4185     4043     3935     3910     3975     4087     4207 
    4321     4411     4445     4410     4348     4306     4294     4310 
    4364     4450     4536     4567     4515     4406     4286     4178 
    4070     3955     3856     3808     3820     3881     3969     4052 
    4118     4168     4198     4205     4178     4124     4090     4101 
    4179     4329     4514     4691     4839     4934     4945     4874 
    4758     4618     4450     4252     4050     3889     3804     3798 
    3843     3906     3982     4062     4121     4126     4082     4018 
    3974     3942     3904     3881     3915     4006     4108     4202 
    4284     4330     4328     4284     4221     4167     4143     4147 
    4174     4229     4322     4437     4545     4633     4695     4720 
    4707     4660     4571     4468     4386     4341     4334     4352 
    4391     4461     4552     4627     4666     4654     4572     4419 
    4247     4112     4031     3998     4012     4044     4079     4108 
    4110     4081     4039     4009     4016     4037     4037     4024 
    4025     4045     4078     4117     4147     4159     4166     4178 
    4202     4236     4271     4291     4297     4314     4347     4363 
    4334     4271     4182     4089     4023     3974     3931     3915 
    3939     3979     4008     4025     4033     4037     4068     4140 
    4237     4336     4415     4469     4495     4514     4554     4615 
    4683     4745     4774     4752     4693     4621     4536     4437 
    4326     4217     4120     4033     3964     3948     4001     4089 
    4153     4175     4162     4131     4104     4079     4050     4039 
    4074     4167     4286     4386     4448     4469     4448     4395 
    4336     4288     4270     4295     4344     4379     4391     4391 
    4382     4380     4401     4422     4411     4357     4290     4253 
    4255     4288     4355     4438     4519     4595     4652     4664 
    4612     4509     4349     4145     3946     3797     3701     3639 
    3601     3578     3569     3591     3653     3736     3823     3906 
    3991     4082     4156     4194     4212     4229     4260     4309 
    4365     4419     4461     4484     4475     4429     4365     4297 
    4230     4179     4153     4153     4183     4249     4337     4409 
    4438     4441     4423     4392     4368     4347     4310     4266 
    4257     4305     4372     4421     4436     4441     4453     4463 
    4457     4436     4417     4414     4403     4348     4239     4093 
    3955     3855     3796     3769     3773     3816     3896     3997 
    4093     4185     4286     4407     4548     4688     4793     4837 
    4824     4779     4714     4657     4629     4608     4563     4476 
    4348     4180     3989     3798     3632     3512     3464     3495 
    3591     3716     3835     3932     4009     4062     4085     4086 
    4067     4047     4048     4066     4074     4077     4091     4122 
    4172     4229     4251     4216     4147     4068     3983     3912 
    3890     3948     4074     4224     4359     4464     4529     4557 
    4546     4486     4398     4348     4378     4484     4622     4742 
    4799     4774     4706     4642     4615     4625     4660     4692 
    4693     4684     4692     4707     4711     4712     4711     4707 
    4704     4684     4617     4500     4348     4159     3942     3730 
    3576     3484     3435     3429     3469     3545     3640     3727 
    3759     3732     3692     3711     3820     3974     4125     4256 
    4359     4440     4515     4604     4722     4888     5088     5258 
    5335     5292     5124     4841     4475     4098     3762     3501 
    3337     3264     3272     3362     3537     3758     3978     4172 
    4342     4506     4664     4801     4893     4900     4781     4531 
    4206     3871     3582     3372     3238     3187     3227     3350 
    3524     3708     3878     4018     4136     4260     4398     4518 
    4561     4518     4442     4392     4401     4459     4565     4703 
    4831     4915     4919     4826     4669     4509     4384     4330 
    4360     4438     4527     4606     4666     4710     4715     4681 
    4619     4548     4460     4333     4172     3986     3802     3673 
    3622     3647     3743     3924     4174     4444     4692     4865 
    4919     4872     4774     4657     4517     4351     4152     3921 
    3672     3437     3252     3137     3118     3217     3438     3790 
    4255     4757     5198     5508     5645     5587     5344     4968 
    4531     4112     3774     3565     3499     3559     3694     3828 
    3913     3919     3855     3777     3735     3743     3794     3896 
    4041     4221     4421     4604     4735     4797     4799     4746 
    4639     4490     4318     4149     4023     3979     4029     4144 
    4295     4440     4536     4553     4490     4386     4275     4189 
    4148     4160     4217     4298     4376     4418     4391     4287 
    4128     3956     3805     3689     3613     3577     3570     3568 
    3551     3549     3597     3709     3879     4093     4321     4552 
    4758     4927     5092     5270     5422     5502     5494     5420 
    5300     5157     5007     4872     4764     4696     4668     4653 
    4615     4531     4376     4144     3867     3613     3426     3315 
    3287     3342     3446     3541     3586     3568     3500     3418 
    3358     3360     3427     3541     3670     3781     3856     3928 
    4033     4206     4448     4753     5084     5373     5564     5633 
    5570     5374     5071     4711     4344     4025     3808     3715 
    3739     3878     4109     4368     4596     4768     4861     4841 
    4698     4477     4226     3985     3785     3646     3562     3511 
    3470     3429     3375     3322     3312     3384     3542     3778 
    4063     4363     4635     4843     4969     5015     4997     4931 
    4818     4668     4521     4415     4355     4332     4349     4410 
    4506     4635     4758     4808     4745     4587     4349     4035 
    3685     3376     3184     3167     3341     3670     4056     4392 
    4615     4688     4612     4450     4298     4230     4298     4507 
    4796     5071     5263     5320     5223     4996     4700     4387 
    4078     3805     3628     3576     3624     3742     3898     4055 
    4185     4275     4302     4234     4074     3865     3654     3461 
    3296     3184     3130     3125     3177     3299     3464     3662 
    3883     4104     4302     4472     4602     4680     4720     4756 
    4819     4907     5007     5104     5155     5128     5038     4918 
    4803     4733     4730     4773     4807     4787     4703     4556 
    4355     4141     3950     3792     3682     3636     3657     3735 
    3856     4006     4156     4270     4329     4337     4293     4212 
    4140     4108     4120     4170     4232     4251     4202     4122 
    4043     3982     3967     4006     4081     4171     4275     4369 
    4419     4433     4436     4445     4460     4495     4590     4754 
    4961     5171     5323     5346     5219     4981     4676     4349 
    4066     3863     3736     3688     3721     3798     3877     3946 
    4006     4027     3973     3832     3620     3373     3160     3053 
    3094     3269     3550     3881     4186     4399     4506     4534 
    4523     4517     4567     4681     4831     4988     5123     5197 
    5186     5104     4957     4737     4436     4071     3677     3291 
    2975     2801     2791     2932     3183     3483     3774     4031 
    4256     4459     4633     4772     4872     4928     4935     4891 
    4819     4742     4676     4646     4642     4630     4603     4560 
    4487     4388     4287     4206     4166     4187     4274     4399 
    4530     4642     4737     4795     4797     4754     4676     4565 
    4437     4320     4217     4128     4055     3998     3940     3862 
    3740     3551     3291     2986     2689     2452     2319     2328 
    2482     2744     3067     3422     3786     4141     4479     4804 
    5113     5397     5644     5868     6057     6165     6177     6097 
    5925     5676     5381     5034     4634     4226     3852     3538 
    3304     3187     3202     3349     3608     3910     4159     4302 
    4344     4305     4217     4126     4068     4071     4145     4275 
    4423     4542     4590     4556     4444     4282     4118     3974 
    3854     3770     3747     3793     3893     4024     4163     4278 
    4337     4348     4338     4318     4303     4318     4361     4410 
    4449     4486     4513     4534     4565     4611     4648     4666 
    4684     4722     4785     4851     4873     4814     4657     4425 
    4147     3856     3595     3389     3258     3214     3253     3349 
    3465     3572     3678     3793     3893     3967     4013     4029 
    4040     4074     4136     4221     4321     4421     4498     4529 
    4526     4529     4573     4683     4830     4946     4988     4943 
    4816     4642     4479     4355     4259     4162     4039     3889 
    3736     3600     3507     3495     3580     3747     3943     4108 
    4197     4202     4149     4070     4002     3991     4070     4236 
    4471     4742     4973     5098     5116     5047     4914     4766 
    4654     4583     4536     4496     4448     4374     4284     4202 
    4137     4086     4044     4018     4005     3991     3975     3963 
    3971     4017     4090     4164     4224     4275     4322     4369 
    4417     4468     4525     4563     4561     4517     4421     4287 
    4158     4047     3932     3823     3747     3707     3688     3676 
    3673     3712     3811     3959     4126     4261     4329     4324 
    4252     4128     3990     3883     3824     3839     3944     4118 
    4318     4504     4658     4773     4862     4912     4900     4820 
    4696     4569     4456     4351     4255     4180     4124     4072 
    4016     3937     3832     3715     3628     3600     3639     3763 
    3966     4209     4469     4723     4928     5055     5107     5094 
    5032     4951     4877     4824     4799     4808     4853     4900 
    4916     4884     4806     4700     4576     4442     4307     4176 
    4054     3939     3816     3673     3519     3361     3210     3105 
    3091     3159     3269     3426     3634     3855     4056     4225 
    4341     4379     4351     4298     4213     4087     3967     3883 
    3831     3829     3889     3989     4112     4251     4396     4525 
    4611     4662     4699     4741     4801     4878     4951     4978 
    4946     4850     4688     4482     4294     4172     4109     4086 
    4089     4074     4014     3913     3773     3592     3407     3279 
    3225     3252     3375     3582     3831     4083     4334     4563 
    4734     4828     4850     4799     4691     4579     4510     4490 
    4504     4533     4537     4486     4387     4251     4081     3923 
    3832     3854     3974     4147     4333     4494     4611     4696 
    4776     4855     4945     5070     5221     5359     5458     5505 
    5495     5432     5329     5179     4958     4685     4390     4070 
    3717     3362     3048     2795     2628     2578     2646     2774 
    2918     3094     3294     3488     3665     3813     3913     3966 
    4002     4027     4031     4035     4075     4159     4270     4392 
    4499     4554     4557     4523     4463     4369     4261     4171 
    4122     4122     4185     4310     4469     4635     4806     4966 
    5081     5144     5179     5190     5167     5125     5078     5007 
    4893     4752     4587     4417     4267     4147     4043     3962 
    3936     3952     3955     3923     3859     3750     3603     3450 
    3310     3184     3087     3038     3036     3061     3117     3208 
    3323     3446     3588     3759     3936     4109     4279     4436 
    4573     4703     4831     4959     5097     5248     5383     5468 
    5510     5529     5528     5508     5487     5474     5459     5443 
    5432     5409     5337     5213     5036     4784     4461     4116 
    3782     3480     3233     3065     2982     2987     3069     3219 
    3418     3640     3873     4074     4210     4268     4261     4199 
    4104     4025     3982     3978     4024     4116     4214     4283 
    4322     4340     4340     4326     4290     4245     4197     4135 
    4052     3937     3789     3612     3426     3244     3082     2967 
    2917     2951     3075     3283     3542     3808     4055     4268 
    4440     4579     4695     4788     4858     4926     4981     4997 
    4981     4955     4920     4878     4869     4899     4949     5027 
    5107     5148     5151     5121     5055     4955     4838     4715 
    4594     4457     4310     4176     4062     3982     3936     3913 
    3919     3959     4041     4156     4280     4390     4467     4507 
    4517     4510     4490     4436     4342     4206     4033     3831 
    3628     3465     3354     3307     3333     3430     3580     3769 
    3983     4206     4430     4634     4779     4839     4816     4733 
    4608     4456     4287     4106     3902     3689     3499     3337 
    3215     3154     3157     3217     3319     3476     3685     3923 
    4175     4421     4637     4812     4949     5069     5182     5266 
    5305     5293     5219     5103     4963     4791     4590     4375 
    4171     3985     3812     3659     3546     3488     3508     3620 
    3811     4041     4283     4496     4644     4716     4726     4683 
    4596     4486     4359     4218     4081     3948     3821     3697 
    3576     3470     3384     3321     3299     3337     3453     3647 
    3908     4207     4522     4815     5057     5242     5367     5440 
    5471     5466     5432     5366     5271     5157     5019     4868 
    4723     4600     4499     4421     4365     4326     4303     4284 
