Origin Time       2025/03/30 10:18:00
Lat.              34.667
Long.             140.825
Depth. (km)       69
Mag.              4.9
Station Code      CHB021
Station Lat.      34.9078
Station Long.     139.8994
Station Height(m) 9
Record Time       2025/03/30 10:18:47
Sampling Freq(Hz) 100Hz
Duration Time(s)  66
Dir.              E-W
Scale Factor      7845(gal)/8223790
Max. Acc. (gal)   5.459
Last Correction   2025/03/30 10:18:46
Memo.             
[...]
   10227    10268    10233    10215    10249    10254    10242    10241 
   10233    10234    10261    10257    10233    10247    10253    10243 
   10258    10255    10231    10227    10227    10219    10227    10251 
   10251    10220    10196    10179    10191    10241    10238    10197 
   10203    10218    10219    10226    10226    10230    10245    10231 
   10224    10291    10335    10304    10273    10237    10215    10261 
   10299    10260    10216    10234    10226    10154    10108    10146 
   10260    10234     9979     9848    10010    10239    10342    10276 
   10137    10092    10251    10508    10611    10505    10289    10088 
   10092    10369    10669    10651    10363    10142    10115    10238 
   10412    10459    10277     9958     9782     9852     9910     9915 
   10065    10172    10139    10343    10633    10454    10027     9906 
   10050    10156    10180    10296    10540    10709    10702    10600 
   10342    10096    10165    10201    10068    10233    10511    10470 
   10320    10346    10366    10137     9795     9417     9136     9645 
   10782    11095    10314     9795    10173    10752    10859    10444 
    9829     9524     9656     9802    10033    10709    11310    11219 
   10739    10311     9994     9877     9898     9657     9232     9288 
    9976    10856    11655    11900    10871     9317     9076    10118 
   10836    10723    10135     9439     9351    10250    11399    11569 
   10488     9162     8446     8591     9755    11280    11605    10532 
    9775    10098    10632    10891    10770    10230     9802     9671 
    9494     9661    10802    12172    12148    10659     9397     9267 
    9774    10304    10288     9421     8599     9032    10268    10951 
   10943    10777    10461    10103    10027    10130    10369    10821 
   11009    10450     9648     9531     9961    10233    10462    10719 
   10536    10147    10262    10606    10409    10008    10034    10135 
   10246    10654    10737    10038     9382     9645    10490    11006 
   10728     9886     9418     9900    10561    10548    10224    10083 
    9787     9491     9859    10390    10316     9952     9899    10161 
   10295    10095     9919    10314    11421    12505    12151    10228 
    8819     9074     9987    10844    11334    10913     9826     9024 
    8930     9337    10158    10817    10260     8880     8521    10008 
   11792    11992    10760     9528     9369    10112    10652    10663 
   10654    10628    10507    10647    10771    10204     9475     9494 
   10007    10489    10659    10309    10096    10547    10948    10613 
    9660     8978     9227     9728    10210    11134    11539    10490 
    9301     9441    10451    11132    11001    10390     9896     9902 
   10304    10505    10220     9814     9710     9972    10126    10010 
   10241    10800    10759     9913     9279     9639    10573    11263 
   11057     9954     9240     9917    11091    11539    11149    10239 
    9340     9216     9838    10320    10160     9675     9578    10141 
   10862    11115    10534     9598     9518    10351    11053    11115 
   10693    10295    10214    10079     9713     9582     9909    10400 
   10787    10783    10430    10270    10085     9471     9235     9859 
   10546    10737    10573    10103     9660     9844    10376    10725 
   10747    10241     9575     9391     9871    10771    11109    10454 
    9956    10176    10450    10497    10099     9567    10138    11194 
   11129    10366     9896     9883    10206    10563    10575    10179 
    9799     9637     9663     9975    10253    10160     9976    10077 
   10349    10416    10269    10131    10142    10303    10471    10516 
   10415    10455    10795    10933    10570    10145     9956     9809 
    9965    10747    11241    10721     9900     9393     9251     9742 
   10609    10875    10488    10046     9505     9274     9895    10501 
   10467    10300    10203    10241    10476    10496    10328    10324 
   10239    10003     9994    10247    10624    10747    10176     9610 
    9875    10273    10115     9810     9841    10336    10893    10902 
   10466    10079     9884     9888    10077    10318    10581    10651 
   10239     9981    10424    10617    10069     9745     9921    10091 
   10184    10079     9769     9749    10165    10783    11226    11044 
   10314     9471     9053     9705    11141    11939    11307    10197 
    9890    10272    10615    10546     9853     9049     9084     9929 
   10669    10858    10858    10528     9478     8714     9320    10544 
   11119    10882    10264     9687     9775    10570    11051    10624 
    9988    10052    10640    10862    10539    10077     9643     9468 
    9775    10245    10739    11281    11184    10359     9810     9834 
    9984     9976     9937    10223    10543    10262     9606     9283 
    9571    10116    10204     9918    10203    10758    10520     9967 
   10019    10442    10735    10822    10673    10245     9927    10276 
   10949    10933    10230     9787     9887    10246    10588    10561 
   10215     9965     9949    10035    10098    10100    10087    10152 
   10261    10378    10597    10527     9806     9228     9585    10497 
   10970    10498     9900    10056    10520    10561    10234    10104 
   10359    10497    10137     9679     9865    10455    10581    10349 
   10323    10594    10719    10241     9730     9817    10143    10478 
   10700    10382     9783     9655    10012    10486    10849    10613 
    9734     9305    10015    10939    11002    10299     9585     9483 
    9796    10046    10324    10548    10478    10326    10238    10330 
   10647    10786    10388     9699     9482    10060    10774    11065 
   10878    10253     9726     9795    10031    10093    10235    10457 
   10638    10697    10323     9718     9456     9551     9969    10650 
   10894    10359     9757     9769    10330    10867    10720    10069 
    9732     9857    10264    10771    10793    10255     9845     9856 
   10141    10574    10801    10434     9805     9632    10035    10503 
   10629    10416     9954     9629     9926    10571    10809    10397 
    9871     9722     9980    10520    10787    10457    10153    10143 
   10100    10095    10203    10320    10461    10405    10034     9721 
    9765    10200    10724    10692    10233    10160    10386    10415 
   10347    10179     9894     9857    10192    10613    10760    10619 
   10373     9956     9636     9904    10288    10210    10045    10120 
   10405    10743    10658    10085     9725    10049    10573    10451 
    9892     9911    10554    10871    10365     9601     9578    10438 
   11272    11288    10458     9497     9225     9614    10052    10227 
   10255    10251    10184    10108    10044     9963    10054    10230 
   10157    10081    10314    10658    10845    10616    10152    10165 
   10635    10851    10636    10106     9454     9323     9957    10678 
   10929    10737    10228     9664     9634    10336    10948    10696 
   10115     9936     9883     9811    10046    10372    10444    10343 
   10110     9828     9850    10327    10786    10729    10393    10207 
   10239    10346    10169     9768     9833    10397    10716    10520 
   10138    10027    10335    10451     9975     9529     9647    10170 
   10789    10986    10565    10173    10065     9778     9524     9805 
   10282    10430    10235     9975     9911    10116    10422    10466 
   10166    10096    10467    10687    10611    10400     9998     9853 
   10362    10972    10997    10376     9703     9598     9944    10365 
   10651    10588    10255    10065    10246    10544    10570    10276 
    9838     9545     9648    10037    10461    10682    10552    10243 
   10061    10119    10336    10558    10663    10602    10451    10304 
   10172    10114    10041     9767     9582     9879    10462    10806 
   10551    10023     9809     9909    10191    10567    10802    10820 
   10579    10216    10008     9926     9937     9953     9855     9941 
   10251    10365    10201     9944     9805    10041    10365    10270 
   10122    10326    10431    10220     9950     9840    10233    10926 
   11117    10670    10152    10010    10273    10565    10478    10102 
    9949    10227    10524    10454    10270    10328    10412    10280 
   10061     9823     9647     9757    10049    10145    10053     9942 
    9794     9814    10235    10623    10403     9931     9957    10378 
   10685    10795    10717    10400    10228    10505    10787    10686 
   10315     9849     9648    10073    10673    10582     9869     9386 
    9540    10021    10307    10296    10273    10280    10292    10346 
   10358    10438    10579    10496    10349    10384    10384    10304 
   10233    10033     9917    10201    10454    10299    10187    10322 
   10365    10203     9907     9710     9895    10349    10805    10874 
   10227     9533     9606    10192    10844    11163    10756    10118 
    9883     9919    10031    10069     9942     9979    10191    10235 
   10260    10399    10440    10322     9957     9499     9559    10169 
   10665    10596    10161    10076    10559    10986    10893    10382 
    9945    10006    10346    10519    10415    10160    10015    10012 
    9860     9639     9702    10038    10389    10408     9949     9603 
   10004    10754    10962    10562    10242    10237    10347    10538 
   10621    10505    10400    10208     9952     9992    10176    10107 
    9953    10079    10330    10234     9844     9744    10106    10369 
   10207    10065    10270    10581    10785    10774    10505    10346 
   10467    10381    10110    10227    10474    10440    10420    10396 
   10216    10156    10122     9822     9535     9795    10582    11076 
   10638     9672     9086     9431    10260    10466     9909     9680 
   10220    10779    10828    10497    10137    10114    10408    10666 
   10574    10041     9486     9499    10065    10621    10674    10309 
   10042    10126    10331    10417    10420    10427    10465    10535 
   10486    10250     9987     9903    10170    10523    10520    10280 
   10052     9968    10085    10100     9852     9668     9760     9965 
   10219    10530    10604    10432    10369    10478    10573    10450 
   10264    10257    10149     9822     9726    10038    10411    10503 
   10350    10179    10075     9995     9892     9821     9976    10443 
   10829    10570    10006    10073    10727    11186    11068    10570 
   10276    10449    10555    10176     9855    10250    10871    10876 
   10435    10045     9796     9817    10106    10166     9748     9398 
    9644    10265    10743    10748    10459    10432    10827    11215 
   11186    10852    10544    10143     9505     9022     9165     9841 
   10443    10663    10656    10438    10019     9660     9591     9795 
   10017    10112    10285    10590    10662    10355    10037    10098 
   10516    10866    10805    10459    10262    10278     9927     9090 
    8610     8981     9759    10350    10397     9954     9659     9918 
   10443    10785    10647    10289    10260    10393    10172     9688 
    9391     9410     9582     9852    10223    10605    10929    11057 
   10909    10612    10260     9963     9882    10116    10750    11470 
   11674    11290    10719    10291    10322    10744    10899    10540 
   10015     9601     9637    10116    10377    10218    10184    10565 
   11057    11048    10245     9320     9196     9759    10177    10029 
    9666     9599     9690     9640     9591     9595     9668    10007 
   10334    10266    10145    10308    10586    10817    10870    10702 
   10504    10301     9987     9697     9693    10065    10523    10577 
   10146     9647     9470     9769    10409    10840    10669    10288 
   10233    10368    10342    10288    10497    10758    10642    10161 
    9676     9460     9489     9576     9661     9953    10673    11534 
   11893    11399    10226     8847     7794     7561     8326     9684 
   10779    10975    10565    10316    10473    10659    10494    10056 
    9792    10087    10943    11909    12511    12623    12275    11674 
   11049    10305     9545     9215     9240     9184     9189     9724 
   10666    11435    11746    11866    12077    12118    11646    10883 
   10288     9907     9270     8122     7194     7295     8064     8634 
    8702     8590     9051    10431    12029    12876    12603    11732 
   10987    10242     9204     8518     8905    10079    11151    11480 
   11153    10814    10725    10369     9232     7830     7418     8375 
    9798    10737    10953    10930    11263    11916    12341    12058 
   11156    10185     9493     9204     9517    10351    11173    11516 
   11215    10377     9445     8811     8353     7771     7310     7843 
    9709    11969    13393    13464    12415    11034    10127     9803 
    9606     9354     9362     9860    10439    10346     9535     8839 
    8746     8981     9302     9765    10424    11025    10941    10037 
    9354     9810    10839    11569    12012    12386    12523    12266 
   11801    11331    10886    10559    10297     9999     9956    10307 
   10584    10327     9567     8638     8068     8349     9197     9625 
    9367     9186     9468     9909    10346    10825    11326    11793 
   11981    11453    10192     8972     8540     8692     8711     8442 
    8432     8941     9543     9936    10153    10255    10528    11136 
   11797    12550    13919    15581    15955    14004    10511     7419 
    6293     7044     8293     8896     8660     8064     7705     7875 
    8521     9481    10566    11583    12356    12456    11736    10849 
   10308    10295    10979    11793    11811    11059    10172     9603 
    9602     9937    10079     9942     9863    10061    10368    10358 
    9799     9023     8777     9402    10273    10513     9987     9351 
    9283     9778    10419    11078    11720    12067    11894    11273 
   10575    10386    10775    10924    10446    10137    10500    10897 
   10570     9390     7846     6714     6363     6713     7871     9913 
   12187    13636    13683    12658    11502    10972    11059    11242 
   11140    10679    10008     9313     8797     8993    10052    10898 
   10536     9467     8955     9533    10457    10611     9930     9418 
    9859    10891    11415    10768     9351     8214     8217     9358 
   10817    11708    11718    11105    10264     9524     9250     9541 
   10158    10832    11141    10800    10272    10293    10926    11402 
   10963     9803     8752     8356     8621     9212     9825    10590 
   11634    12253    11535     9799     8623     9224    11182    12896 
   13032    11574     9705     8750     9184    10330    11034    10717 
    9848     9335     9551    10145    10386     9846     9085     8969 
    9439     9809     9807     9625     9520     9598     9724     9967 
   10771    12069    13007    12958    12025    10724     9728     9369 
    9501     9883    10200    10262    10272    10393    10459    10204 
    9563     8787     8348     8645     9597    10669    11294    11253 
   10882    10654    10575    10309     9765     9356     9477    10065 
   10768    11045    10582     9795     9297     9382    10019    10744 
   11118    11182    11078    10824    10530    10397    10477    10585 
   10638    10736    10871    11047    11294    11317    10882    10174 
    9431     8765     8189     7600     7056     6916     7646     9271 
   10953    11615    11180    10632    10820    11704    12430    12156 
   11151    10434    10449    10871    11217    11165    10681    10023 
    9440     9008     8900     9236     9707     9853     9780    10035 
   10723    11392    11603    11206    10547    10242    10427    10612 
   10390     9914     9579     9671    10270    11029    11253    10567 
    9350     8322     7954     8271     8964     9701    10403    10989 
   11101    10620    10133    10296    10999    11535    11503    11138 
   10858    10798    10805    10700    10481    10322    10246    10030 
    9629     9292     9208     9441    10054    10860    11199    10666 
    9729     9054     8841     8937     9216     9637    10037    10254 
   10237    10127    10265    10744    11275    11493    11229    10713 
   10400    10440    10631    10782    10855    10858    10754    10455 
   10012     9598     9335     9302     9348     9200     9001     9080 
    9455     9969    10368    10458    10426    10546    10737    10905 
   11094    11102    10767    10350    10206    10590    11340    11724 
   11288    10427     9861     9886    10153    10099     9582     9019 
    8839     9111     9702    10359    10809    10916    10635    10177 
    9891     9749     9552     9428     9622    10096    10547    10747 
   10733    10596    10380    10195    10122    10165    10358    10559 
   10467    10079     9718     9779    10399    11132    11360    11051 
   10683    10644    10862    10893    10404     9593     9040     9202 
    9884    10347    10150     9450     8766     8611     8976     9549 
   10230    10937    11423    11568    11573    11615    11574    11267 
   10627     9895     9594    10004    10764    11137    10671     9736 
    9189     9391     9813     9748     9128     8541     8618     9385 
   10215    10534    10359    10172    10426    11033    11515    11627 
   11453    11114    10752    10558    10628    10789    10737    10449 
   10064     9609     9150     8923     9139     9566     9699     9553 
    9609    10004    10435    10648    10662    10584    10426    10191 
   10085    10330    10750    10932    10702    10285    10034    10065 
   10207    10250    10215    10257    10372    10428    10331    10130 
   10004    10080    10312    10573    10709    10606    10384    10251 
   10220    10235    10242    10152    10072    10177    10392    10409 
    9956     9194     8707     8992    10091    11473    12252    11839 
   10569     9382     8964     9337     9963    10169     9872     9641 
    9933    10531    10849    10693    10462    10512    10763    10932 
   10771    10320     9990    10060    10296    10409    10413    10307 
   10104     9985     9949     9779     9479     9320     9437     9678 
    9882     9994    10022    10106    10409    10825    11047    10948 
   10593    10201    10108    10312    10509    10550    10504    10503 
   10517    10466    10476    10646    10817    10867    10836    10721 
   10544    10413    10320    10230    10108     9856     9556     9431 
    9479     9482     9364     9337     9558     9894    10096    10048 
    9852     9714     9801    10197    10764    11175    11264    11072 
   10705    10381    10250    10223    10223    10257    10296    10303 
   10231    10127    10127    10111     9925     9768     9810     9900 
    9963    10096    10284    10427    10488    10444    10308    10071 
    9780     9753    10226    10966    11515    11520    11028    10458 
   10145    10119    10181    10102     9883     9711     9657     9725 
    9977    10172     9975     9648     9687    10123    10552    10565 
   10197     9927    10143    10767    11325    11404    10951    10295 
    9914    10006    10324    10413    10076     9598     9405     9606 
    9914    10008     9994    10231    10787    11184    10912    10187 
