Origin Time       2025/03/30 10:18:00
Lat.              34.667
Long.             140.825
Depth. (km)       69
Mag.              4.9
Station Code      CHB016
Station Lat.      35.2998
Station Long.     140.3866
Station Height(m) 7
Record Time       2025/03/30 10:19:01
Sampling Freq(Hz) 100Hz
Duration Time(s)  60
Dir.              U-D
Scale Factor      7845(gal)/8223790
Max. Acc. (gal)   1.104
Last Correction   2025/03/30 10:19:00
Memo.             
[...]
   17030    16931    16900    17037    17244    17281    17130    17078 
   17217    17294    17167    17012    17034    17186    17250    17178 
   17161    17263    17338    17289    17151    16996    16914    16980 
   17112    17127    17046    17111    17355    17459    17228    16946 
   16962    17155    17194    17053    16951    17035    17216    17288 
   17232    17203    17193    17111    17050    17118    17208    17188 
   17103    17074    17116    17146    17130    17116    17155    17254 
   17300    17119    16834    16776    16985    17227    17298    17138 
   16943    17008    17281    17389    17207    17030    17105    17253 
   17163    16887    16781    17005    17270    17286    17145    17088 
   17155    17212    17180    17099    17011    16908    16869    16987 
   17197    17365    17427    17423    17450    17456    17289    17012 
   16880    16927    16966    16956    16983    17038    17089    17142 
   17138    17082    17119    17280    17367    17221    16972    16875 
   16989    17150    17159    16984    16812    16845    17042    17228 
   17315    17321    17285    17172    16935    16721    16773    17073 
   17344    17390    17257    17154    17201    17300    17294    17126 
   16922    16924    17138    17304    17285    17153    17019    16966 
   16992    17073    17172    17140    16966    16900    17088    17346 
   17415    17305    17294    17459    17516    17273    16897    16669 
   16731    16984    17119    17008    16916    17081    17319    17331 
   17162    17059    17097    17139    17046    16819    16644    16735 
   17032    17190    17027    16794    16816    17061    17277    17365 
   17354    17263    17151    17122    17157    17166    17205    17340 
   17477    17489    17377    17280    17343    17497    17504    17262 
   16877    16548    16470    16667    16892    16927    16910    17091 
   17412    17635    17676    17593    17424    17220    17045    16922 
   16849    16862    16993    17140    17169    17140    17165    17142 
   16951    16719    16665    16849    17122    17251    17167    17081 
   17181    17328    17273    17057    16973    17143    17347    17356 
   17184    16983    16939    17073    17134    16964    16758    16737 
   16858    17010    17180    17371    17539    17595    17462    17227 
   17101    17107    17101    17039    17012    17105    17220    17174 
   17047    17022    17069    17134    17232    17261    17130    16981 
   16976    17077    17177    17246    17301    17328    17271    17119 
   16969    16970    17126    17199    17015    16827    16953    17208 
   17220    17016    16914    17010    17055    16937    16858    16942 
   17045    17046    16989    16988    17081    17204    17301    17352 
   17336    17270    17165    17030    16950    16987    17108    17277 
   17427    17446    17365    17315    17289    17196    17101    17119 
   17162    17092    16960    16902    16919    16962    17043    17123 
   17127    17093    17127    17226    17242    17099    16954    16957 
   17019    16996    16869    16821    17076    17490    17621    17390 
   17185    17213    17235    17051    16861    16893    17024    17065 
   17065    17072    16984    16872    16887    16937    16950    17084 
   17334    17419    17244    17051    17016    17095    17236    17419 
   17521    17456    17304    17128    16927    16830    16964    17180 
   17296    17388    17518    17516    17284    16984    16811    16791 
   16838    16931    17113    17301    17383    17412    17452    17469 
   17389    17169    16880    16659    16540    16503    16568    16726 
   16900    17043    17192    17363    17444    17347    17181    17080 
   17057    17085    17111    17088    17136    17383    17628    17554 
   17263    17162    17344    17446    17258    17072    17158    17350 
   17359    17130    16810    16600    16599    16726    16889    17096 
   17344    17505    17377    16970    16625    16615    16788    16869 
   16937    17188    17508    17675    17674    17543    17261    16945 
   16796    16796    16779    16713    16754    17043    17443    17631 
   17501    17209    16903    16654    16528    16551    16698    16929 
   17205    17459    17594    17645    17670    17548    17253    17027 
   17027    17140    17257    17373    17474    17529    17531    17428 
   17162    16869    16785    16899    16973    16903    16834    16891 
   17049    17200    17261    17246    17216    17108    16875    16694 
   16735    16902    17035    17162    17325    17385    17205    16899 
   16721    16762    16881    16958    17054    17199    17290    17292 
   17278    17300    17348    17367    17304    17167    17028    16974 
   16999    17003    16970    16995    17126    17288    17344    17213 
   16989    16927    17103    17234    17101    16879    16870    17154 
   17466    17497    17317    17234    17309    17294    17085    16943 
   17089    17301    17254    17016    16899    17026    17280    17486 
   17521    17419    17379    17454    17401    17101    16785    16664 
   16695    16775    16892    16999    17007    16983    17008    17012 
   16939    16838    16737    16657    16687    16877    17146    17336 
   17416    17516    17637    17583    17301    17001    16858    16830 
   16848    16934    17038    17046    16988    16973    17005    17062 
   17192    17369    17456    17392    17248    17122    17047    17023 
   17051    17088    17039    16954    16983    17072    17074    17065 
   17211    17508    17774    17838    17729    17620    17567    17452 
   17209    17004    17014    17108    17054    16866    16715    16713 
   16877    17070    17081    16945    16914    17078    17282    17378 
   17346    17250    17177    17115    16984    16810    16721    16789 
   16985    17199    17297    17216    17020    16870    16848    16850 
   16729    16495    16386    16590    16942    17126    17107    17149 
   17421    17774    17925    17786    17532    17366    17273    17122 
   16968    16930    16978    17081    17254    17421    17471    17424 
   17366    17301    17213    17197    17301    17389    17336    17227 
   17184    17204    17227    17176    16997    16791    16756    16949 
   17197    17293    17209    17042    16866    16746    16727    16750 
   16742    16818    17111    17408    17366    17022    16704    16630 
   16798    17055    17232    17309    17331    17253    17027    16727 
   16506    16478    16644    16927    17271    17586    17726    17632 
   17409    17213    17107    17051    17049    17130    17231    17278 
   17263    17190    17091    17024    17007    17034    17089    17201 
   17439    17710    17767    17566    17309    17084    16841    16679 
   16750    16964    17112    17174    17280    17481    17649    17635 
   17421    17163    17064    17120    17080    16850    16711    16843 
   17030    17000    16792    16681    16860    17157    17227    16999 
   16742    16719    16860    16857    16671    16603    16823    17170 
   17419    17498    17497    17498    17454    17285    17051    16941 
   17032    17151    17182    17285    17506    17589    17408    17228 
   17324    17531    17494    17234    17096    17227    17386    17317 
   17085    16972    17064    17143    17062    16941    16892    16877 
   16827    16741    16729    16857    17019    17081    17042    16977 
   16910    16834    16783    16776    16792    16842    16968    17158 
   17320    17361    17275    17120    16984    16965    17043    17078 
   17008    16957    17092    17375    17591    17626    17590    17609 
   17647    17583    17424    17320    17301    17240    17096    16962 
   16929    17004    17101    17153    17209    17298    17369    17396 
   17378    17293    17149    16964    16780    16715    16803    16918 
   16969    16974    16957    16929    16875    16808    16772    16722 
   16600    16565    16773    17104    17323    17363    17377    17524 
   17712    17694    17462    17238    17116    16983    16780    16653 
   16754    17026    17250    17321    17320    17356    17448    17536 
   17524    17366    17145    17028    17099    17235    17224    17039 
   16918    17019    17161    17088    16831    16614    16551    16618 
   16734    16799    16854    17057    17361    17506    17394    17174 
   17028    17018    17065    17115    17180    17226    17213    17181 
   17153    17146    17194    17248    17250    17211    17153    17092 
   17091    17186    17296    17305    17246    17250    17366    17483 
   17478    17385    17348    17412    17443    17316    17108    16978 
   16957    16995    17027    16992    16893    16785    16702    16668 
   16695    16762    16852    16939    17005    17019    17003    17058 
   17211    17348    17389    17385    17417    17478    17477    17339 
   17103    16918    16919    17042    17109    17062    16972    16935 
   17028    17223    17358    17313    17122    16868    16621    16474 
   16533    16826    17211    17474    17514    17408    17298    17251 
   17220    17130    16945    16741    16688    16831    17032    17163 
   17209    17235    17316    17409    17396    17327    17381    17558 
   17664    17594    17428    17269    17169    17153    17149    17042 
   16892    16873    16938    16839    16584    16480    16634    16808 
   16861    16911    17070    17273    17390    17348    17172    17015 
   17035    17182    17286    17313    17369    17520    17703    17788 
   17740    17682    17703    17734    17662    17447    17132    16802 
   16534    16403    16438    16544    16587    16552    16532    16596 
   16686    16675    16582    16595    16800    17027    17062    16911 
   16780    16833    17045    17297    17500    17649    17793    17896 
   17887    17793    17709    17643    17528    17354    17186    17050 
   16922    16826    16812    16861    16918    16980    17070    17145 
   17107    16977    16908    16970    17064    17120    17185    17267 
   17346    17428    17494    17512    17525    17559    17567    17520 
   17408    17261    17147    17076    16969    16765    16480    16249 
   16195    16287    16397    16422    16387    16449    16660    16814 
   16776    16734    16903    17213    17437    17496    17487    17529 
   17675    17878    17953    17867    17830    17906    17918    17763 
   17523    17354    17317    17285    17170    17047    16985    16957 
   16892    16758    16634    16605    16615    16557    16421    16320 
   16372    16571    16838    17134    17388    17460    17347    17242 
   17274    17316    17248    17165    17239    17509    17793    17852 
   17663    17413    17248    17149    17041    16897    16746    16694 
   16802    16929    16907    16811    16826    16956    17003    16862 
   16757    16929    17230    17351    17207    16973    16872    16958 
   17120    17273    17370    17348    17255    17243    17339    17396 
   17329    17234    17253    17374    17413    17327    17277    17296 
   17278    17221    17182    17170    17201    17246    17211    17108 
   17070    17136    17186    17113    16966    16870    16850    16875 
   16933    16972    16941    16892    16892    16937    16969    16930 
   16849    16807    16762    16696    16748    16911    17012    17022 
   17030    17088    17215    17369    17475    17525    17547    17532 
   17497    17493    17493    17431    17339    17289    17238    17081 
   16856    16744    16830    16974    17034    17054    17135    17232 
   17212    17038    16838    16783    16934    17186    17344    17323 
   17235    17177    17089    16966    16919    16999    17146    17273 
   17339    17366    17358    17292    17163    17004    16887    16887 
   17000    17134    17181    17113    16993    16866    16772    16800 
   16941    17024    16958    16897    17059    17382    17586    17577 
   17548    17643    17741    17683    17496    17328    17273    17297 
   17320    17293    17243    17181    17084    16965    16870    16815 
   16783    16726    16609    16479    16426    16457    16546    16710 
   16923    17096    17166    17154    17136    17170    17200    17161 
   17082    17066    17173    17340    17444    17408    17271    17184 
   17197    17207    17134    17065    17097    17204    17286    17304 
   17308    17370    17459    17501    17467    17369    17263    17235 
   17308    17397    17424    17416    17454    17531    17541    17406 
   17204    17049    16931    16773    16555    16340    16209    16183 
   16225    16317    16453    16579    16673    16792    16908    16924 
   16849    16800    16860    17008    17158    17270    17377    17485 
   17558    17575    17571    17594    17617    17608    17599    17622 
   17629    17556    17401    17255    17242    17362    17481    17496 
   17442    17405    17390    17328    17209    17104    17062    17047 
   17024    17014    17001    16924    16803    16722    16677    16609 
   16499    16370    16231    16144    16201    16379    16548    16656 
   16796    17001    17176    17251    17275    17305    17342    17406 
   17533    17709    17879    17987    18034    18068    18091    18058 
   17921    17694    17469    17269    17047    16846    16733    16680 
   16623    16549    16463    16397    16426    16548    16611    16502 
   16328    16282    16409    16594    16756    16931    17134    17305 
   17444    17560    17610    17575    17517    17513    17625    17852 
   18112    18276    18273    18172    18075    17990    17883    17721 
   17497    17275    17100    16924    16719    16537    16444    16451 
   16463    16422    16398    16420    16389    16241    16075    16051 
   16162    16267    16330    16449    16664    16864    16949    16970 
   17043    17178    17347    17554    17741    17852    17923    17988 
   18022    18025    18031    18025    17959    17853    17763    17675 
   17575    17483    17393    17263    17070    16834    16605    16436 
   16376    16399    16422    16449    16537    16652    16703    16652 
   16557    16575    16764    16962    17008    16973    17020    17162 
   17263    17251    17203    17200    17231    17284    17361    17450 
   17551    17658    17737    17791    17844    17867    17817    17672 
   17481    17342    17296    17253    17145    17034    16953    16839 
   16688    16579    16533    16519    16564    16672    16745    16725 
   16650    16594    16627    16768    16946    17088    17178    17232 
   17240    17199    17174    17227    17332    17423    17470    17487 
   17502    17512    17497    17444    17355    17269    17203    17107 
   16941    16762    16661    16657    16698    16735    16794    16916 
   17077    17185    17205    17200    17220    17257    17313    17381 
   17378    17271    17161    17153    17223    17286    17336    17416 
   17531    17617    17594    17447    17284    17216    17174    17031 
   16821    16672    16673    16800    16931    16964    16929    16934 
   17008    17072    17057    17007    17008    17072    17127    17118 
   17078    17085    17147    17194    17182    17131    17105    17155 
   17226    17203    17078    16961    16931    16983    17037    17030 
   17014    17080    17184    17194    17095    17008    17019    17107 
   17209    17275    17298    17307    17319    17308    17224    17086 
   16996    17001    16995    16872    16749    16812    16995    17065 
   16976    16852    16821    16943    17132    17246    17258    17244 
   17262    17313    17338    17298    17275    17334    17444    17554 
   17605    17566    17455    17325    17228    17181    17155    17140 
   17166    17204    17184    17107    17042    17018    17015    17026 
   17054    17112    17192    17235    17189    17082    16993    16939 
   16860    16754    16694    16711    16775    16833    16868    16877 
   16816    16676    16538    16515    16659    16884    17076    17199 
   17266    17316    17374    17435    17506    17582    17631    17659 
   17706    17768    17795    17774    17752    17743    17656    17447 
   17246    17163    17124    17012    16834    16663    16561    16538 
   16536    16487    16406    16393    16525    16730    16864    16877 
   16858    16889    16935    16953    17012    17184    17393    17514 
   17544    17574    17628    17628    17547    17439    17365    17347 
   17325    17247    17154    17082    17031    17022    17038    17039 
   17030    17010    16966    16930    16922    16929    16951    17005 
   17069    17128    17176    17161    17077    17014    17031    17093 
   17135    17119    17069    17065    17089    17035    16938    16930 
   17003    17061    17069    17055    17095    17236    17386    17408 
   17309    17197    17166    17221    17280    17286    17277    17281 
   17285    17234    17084    16915    16864    16950    17069    17136 
   17170    17231    17313    17348    17312    17280    17292    17301 
   17309    17352    17408    17431    17404    17335    17253    17170 
   17066    16962    16924    16929    16900    16862    16853    16818 
   16731    16672    16702    16780    16837    16838    16777    16745 
   16848    17031    17159    17199    17212    17270    17374    17431 
   17392    17315    17266    17254    17240    17170    17039    16919 
   16896    16965    17026    17023    17008    17034    17084    17097 
   17051    17008    17050    17200    17382    17520    17590    17602 
   17575    17521    17413    17231    17051    16974    17003    17050 
   17073    17089    17116    17124    17073    16978    16880    16787 
   16742    16799    16933    17045    17066    17049    17069    17092 
   17078    17080    17122    17184    17265    17350    17417    17470 
   17497    17443    17309    17182    17136    17153    17153    17105 
   17050    16996    16933    16884    16897    16981    17065    17074 
   17065    17100    17135    17124    17116    17158    17211    17217 
   17189    17165    17138    17093    17051    17028    17007    16977 
   16942    16912    16895    16889    16919    16973    16977    16930 
   16927    17012    17115    17172    17182    17172    17166    17173 
   17157    17108    17074    17077    17124    17215    17305    17361 
   17390    17413    17437    17455    17464    17473    17451    17382 
   17293    17205    17140    17132    17157    17146    17088    17054 
   17069    17059    16996    16943    16938    16964    16988    16956 
   16868    16789    16767    16799    16854    16893    16933    17005 
   17072    17064    17005    17015    17145    17274    17301    17270 
   17244    17258    17323    17375    17365    17338    17350    17385 
   17394    17358    17305    17267    17243    17235    17235    17193 
   17112    17064    17055    17031    16966    16893    16861    16884 
   16916    16915    16888    16876    16883    16883    16869    16866 
   16883    16902    16939    17024    17145    17248    17302    17327 
   17342    17324    17273    17254    17317    17415    17470    17474 
   17448    17400    17338    17277    17216    17173    17157    17128 
   17055    16972    16910    16843    16757    16676    16626    16607 
   16634    16745    16907    17035    17103    17142    17184    17263 
   17373    17464    17518    17539    17536    17512    17440    17334 
