Origin Time       2025/03/30 10:18:00
Lat.              34.667
Long.             140.825
Depth. (km)       69
Mag.              4.9
Station Code      CHB021
Station Lat.      34.9078
Station Long.     139.8994
Station Height(m) 9
Record Time       2025/03/30 10:18:47
Sampling Freq(Hz) 100Hz
Duration Time(s)  66
Dir.              N-S
Scale Factor      7845(gal)/8223790
Max. Acc. (gal)   4.841
Last Correction   2025/03/30 10:18:46
Memo.             
[...]
  -10881   -10916   -10929   -10908   -10929   -10918   -10894   -10922 
  -10914   -10899   -10930   -10924   -10903   -10916   -10920   -10914 
  -10908   -10898   -10909   -10941   -10933   -10901   -10899   -10905 
  -10913   -10926   -10924   -10922   -10916   -10899   -10901   -10909 
  -10921   -10941   -10925   -10898   -10910   -10922   -10913   -10903 
  -10905   -10928   -10936   -10910   -10893   -10918   -10937   -10902 
  -10899   -10932   -10909   -10903   -10925   -10912   -10920   -10932 
  -10906   -10885   -10910   -10944   -10929   -10909   -10910   -10906 
  -10906   -10913   -10921   -10929   -10926   -10909   -10906   -10916 
  -10903   -10922   -10947   -10902   -10879   -10914   -10935   -10929 
  -10920   -10901   -10889   -10922   -10941   -10910   -10914   -10921 
  -10894   -10917   -10944   -10908   -10899   -10918   -10902   -10917 
  -10944   -10909   -10901   -10926   -10910   -10902   -10929   -10921 
  -10898   -10930   -10944   -10885   -10886   -10945   -10936   -10909 
  -10913   -10894   -10905   -10940   -10918   -10920   -10948   -10916 
  -10906   -10935   -10912   -10909   -10957   -10952   -10910   -10914 
  -10914   -10917   -10948   -10941   -10905   -10901   -10916   -10926 
  -10925   -10890   -10874   -10912   -10928   -10898   -10890   -10890 
  -10866   -10885   -10944   -10920   -10867   -10879   -10885   -10930 
  -11025   -10993   -10897   -10893   -10935   -10966   -10999   -11013 
  -10960   -10883   -10862   -10901   -10956   -10964   -10891   -10782 
  -10724   -10763   -10825   -10825   -10836   -10898   -10875   -10735 
  -10683   -10827   -10989   -11092   -11205   -11254   -11242   -11253 
  -11160   -10875   -10640   -10702   -11003   -11299   -11379   -11246 
  -10972   -10511   -10126   -10308   -10829   -11117   -11092   -10821 
  -10555   -10666   -10851   -10862   -10995   -11043   -10706   -10477 
  -10764   -11322   -11692   -11576   -11055   -10600   -10551   -10890 
  -11388   -11496   -10872   -10185   -10226   -10858   -11610   -12139 
  -11996   -11115   -10161    -9713    -9895   -10563   -11130   -11109 
  -10727   -10376   -10307   -10764   -11576   -12121   -11979   -11207 
  -10208    -9629    -9898   -10712   -11497   -11813   -11340   -10567 
  -10427   -10967   -11662   -11971   -11426   -10438    -9969   -10189 
  -10735   -11344   -11651   -11476   -11059   -10555   -10201   -10663 
  -11682   -11789   -10492    -9024    -8783   -10048   -12005   -13271 
  -12710   -10832    -9433    -9367   -10324   -11934   -13311   -12997 
  -10952    -9205    -9385   -10975   -12167   -11479    -9520    -8595 
   -9702   -11620   -12804   -12802   -12006   -10743    -9651    -9909 
  -11242   -11797   -10795    -9238    -8692   -10019   -12287   -13439 
  -12266    -9883    -8814    -9845   -11576   -12761   -12672   -11109 
   -9564    -9687   -10995   -12123   -12394   -11562   -10080    -9256 
   -9819   -11070   -11947   -11884   -10858    -9774    -9863   -10964 
  -11739   -11497   -10539    -9632    -9617   -10723   -12199   -12911 
  -12519   -11446   -10039    -9130    -9543   -10539   -11184   -11732 
  -12110   -11853   -11236   -10677   -10380   -10245    -9963   -10098 
  -11076   -11684   -11199   -10598   -10512   -10858   -11392   -11314 
  -10493    -9956   -10284   -11159   -11766   -11682   -11522   -11595 
  -11236   -10368   -10044   -10675   -11407   -11584   -11259   -10851 
  -10928   -11227   -11047   -10798   -11020   -11129   -10573    -9566 
   -8974    -9664   -11106   -11983   -11862   -11165   -10582   -10673 
  -11508   -12424   -12151   -10489    -9386   -10087   -11097   -11168 
  -10804   -10511   -10716   -11496   -11884   -11510   -11048   -10675 
  -10280   -10195   -10696   -11475   -11758   -11178   -10230    -9740 
  -10243   -11319   -11793   -11149   -10176   -10046   -10913   -11713 
  -11653   -11056   -10625   -10463   -10338   -10594   -11371   -11792 
  -11407   -10697   -10203   -10444   -11314   -11739   -11192   -10496 
  -10544   -11164   -11519   -11190   -10658   -10498   -10674   -10858 
  -10665   -10234   -10453   -11415   -12100   -11969   -11269   -10376 
   -9788   -10046   -11097   -12015   -11850   -10932   -10305   -10274 
  -10848   -11772   -11743   -10442    -9425    -9630   -10710   -11826 
  -11994   -11325   -10733   -10481   -10636   -11203   -11515   -11300 
  -10794   -10052    -9884   -10825   -11680   -11749   -11551   -11016 
  -10374   -10508   -10843   -10623   -10570   -10822   -11033   -11437 
  -11489   -10697   -10041   -10301   -11043   -11572   -11425   -10732 
  -10386   -10625   -10837   -11043   -11183   -10849   -10621   -10894 
  -11164   -11446   -11727   -11472   -10886   -10392    -9923    -9972 
  -10845   -11458   -11219   -10928   -10859   -10748   -10935   -11340 
  -11267   -10912   -10818   -10716   -10530   -10878   -11618   -11927 
  -11770   -11306   -10401    -9711    -9842   -10435   -11196   -11654 
  -11119   -10193    -9942   -10428   -11306   -11878   -11507   -10747 
  -10289   -10134   -10469   -11222   -11646   -11470   -11091   -11018 
  -11553   -12044   -11549   -10254    -9207    -9447   -11029   -12460 
  -12505   -11556   -10381    -9601    -9729   -10316   -10692   -10952 
  -11111   -11024   -10901   -10764   -10586   -10694   -11138   -11589 
  -11811   -11480   -10609   -10219   -10886   -11718   -11890   -11322 
  -10258    -9678   -10350   -11550   -12145   -11866   -11068   -10087 
   -9425    -9768   -10831   -11530   -11468   -10984   -10569   -10436 
  -10561   -10955   -11346   -11469   -11483   -11280   -10791   -10633 
  -11006   -11242   -10995   -10654   -10577   -10577   -10516   -10673 
  -10856   -10663   -10640   -11230   -11790   -11793   -11317   -10484 
   -9813    -9892   -10507   -11283   -11843   -11600   -10914   -10654 
  -10970   -11603   -11901   -11423   -10754   -10358   -10243   -10535 
  -10789   -10455   -10102   -10336   -10843   -11213   -11321   -11106 
  -10802   -10845   -11146   -11106   -10654   -10399   -10673   -11240 
  -11686   -11599   -10982   -10629   -11018   -11531   -11538   -10895 
   -9969    -9857   -10924   -11934   -11881   -10983    -9963    -9794 
  -10809   -11707   -11475   -10916   -10696   -10646   -10777   -10947 
  -10945   -10793   -10500   -10435   -10851   -11133   -10860   -10642 
  -11057   -11739   -11998   -11456   -10339    -9637    -9953   -10841 
  -11674   -11978   -11611   -10922   -10254   -10104   -10860   -11631 
  -11542   -11099   -10658   -10235   -10280   -10692   -11044   -11376 
  -11394   -10871   -10584   -10840   -10980   -10891   -10706   -10490 
  -10839   -11457   -11286   -10758   -10801   -11065   -11086   -10982 
  -10852   -10821   -11048   -11215   -10831   -10203   -10098   -10660 
  -11483   -11959   -11699   -11128   -10709   -10319   -10187   -10517 
  -10777   -10870   -11086   -11121   -10856   -10714   -10866   -11233 
  -11553   -11318   -10617   -10227   -10488   -11076   -11425   -11172 
  -10806   -10951   -11215   -11063   -10771   -10690   -10770   -10889 
  -10916   -10947   -11290   -11628   -11187   -10145    -9653   -10168 
  -10947   -11269   -11171   -11074   -11101   -11011   -10863   -10847 
  -10876   -11032   -11256   -11188   -10968   -10930   -11007   -10983 
  -10740   -10535   -10652   -10899   -11128   -11273   -11187   -11070 
  -11038   -10854   -10592   -10598   -10852   -10908   -10589   -10477 
  -10876   -11155   -11082   -11068   -11070   -11078   -11210   -11044 
  -10666   -10777   -11206   -11398   -11356   -11119   -10666   -10234 
  -10131   -10473   -11078   -11547   -11526   -11011   -10474   -10373 
  -10714   -11180   -11369   -11076   -10516   -10072   -10029   -10535 
  -11302   -11689   -11416   -10717   -10168   -10386   -11176   -11695 
  -11668   -11345   -10847   -10477   -10593   -10989   -11323   -11441 
  -11141   -10666   -10571   -10778   -10920   -10849   -10436   -10033 
  -10342   -11183   -11726   -11657   -11283   -11026   -10999   -11098 
  -11315   -11442   -11122   -10505   -10045    -9942   -10278   -10821 
  -10930   -10696   -10859   -11349   -11627   -11569   -11160   -10654 
  -10551   -10816   -11074   -11222   -11196   -10912   -10579   -10584 
  -10937   -11186   -10855   -10007    -9566   -10276   -11425   -12005 
  -11759   -10885   -10462   -11149   -11699   -11215   -10443   -10153 
  -10542   -11311   -11761   -11562   -11032   -10677   -10633   -10692 
  -10741   -10704   -10517   -10432   -10632   -10918   -11106   -11163 
  -11002   -10778   -10860   -11133   -11196   -11109   -11055   -10964 
  -10809   -10708   -10918   -11437   -11642   -11183   -10555   -10278 
  -10369   -10669   -10995   -11010   -10679   -10497   -10698   -11105 
  -11446   -11377   -11033   -10867   -10832   -10864   -11009   -10987 
  -10918   -11086   -11240   -11283   -11263   -11086   -10797   -10392 
  -10027   -10196   -10856   -11335   -11329   -11056   -10767   -10774 
  -11191   -11464   -11176   -10674   -10438   -10683   -11232   -11510 
  -11099   -10403   -10335   -11007   -11673   -11869   -11425   -10567 
  -10081   -10239   -10635   -10971   -11005   -10744   -10582   -10628 
  -10785   -11055   -11169   -10978   -10840   -10856   -10898   -11016 
  -11017   -10848   -10812   -10848   -10828   -10889   -10971   -10972 
  -10893   -10724   -10768   -11211   -11485   -11188   -10714   -10458 
  -10527   -10979   -11531   -11688   -11475   -11186   -10708   -10106 
   -9926   -10276   -10804   -11259   -11376   -11118   -10855   -10922 
  -11269   -11499   -11372   -11020   -10625   -10397   -10447   -10662 
  -10890   -10953   -10809   -10814   -11182   -11507   -11333   -10689 
  -10066   -10004   -10455   -10943   -11308   -11546   -11434   -11130 
  -10976   -10808   -10602   -10624   -10754   -10997   -11460   -11680 
  -11380   -10876   -10413   -10234   -10476   -10740   -10667   -10417 
  -10404   -10959   -11742   -11917   -11435   -10914   -10584   -10521 
  -10692   -10824   -11063   -11410   -11358   -11044   -10897   -10895 
  -11079   -11263   -11079   -10719   -10396   -10212   -10509   -11043 
  -11144   -10909   -10790   -10874   -11109   -11294   -11206   -10957 
  -10775   -10732   -10754   -10706   -10651   -10821   -11134   -11142 
  -10794   -10571   -10655   -10936   -11308   -11322   -10748   -10176 
  -10141   -10627   -11361   -11819   -11736   -11421   -11086   -10836 
  -10833   -10993   -11205   -11358   -11310   -11175   -11080   -11078 
  -11250   -11314   -10898   -10112    -9390    -9336   -10165   -11149 
  -11450   -10962   -10228    -9985   -10450   -11124   -11499   -11450 
  -11030   -10615   -10848   -11627   -12029   -11718   -11030   -10288 
  -10077   -10619   -11082   -11030   -10902   -10852   -10943   -11307 
  -11504   -11214   -10767   -10370   -10017    -9849   -10015   -10492 
  -11129   -11678   -11734   -11260   -10844   -10818   -11025   -11392 
  -11789   -11859   -11499   -10894   -10315   -10150   -10478   -10858 
  -11026   -11057   -11002   -10951   -10970   -10987   -10999   -11038 
  -11037   -10990   -10899   -10720   -10615   -10775   -11030   -11043 
  -10702   -10307   -10262   -10561   -10951   -11171   -11021   -10847 
  -11025   -11151   -10947   -10831   -10891   -10897   -10898   -10913 
  -10976   -11288   -11556   -11387   -11088   -10959   -10936   -11013 
  -10997   -10747   -10528   -10392   -10320   -10619   -11182   -11435 
  -11219   -10909   -10886   -11187   -11372   -11038   -10490   -10237 
  -10388   -10793   -11009   -10804   -10624   -10687   -10677   -10542 
  -10508   -10651   -10976   -11310   -11242   -10824   -10697   -11018 
  -11338   -11492   -11458   -11110   -10797   -10982   -11367   -11353 
  -10895   -10419   -10411   -10841   -10966   -10524   -10246   -10481 
  -10917   -11362   -11647   -11610   -11399   -11059   -10658   -10694 
  -11161   -11380   -11172   -10746   -10314   -10228   -10422   -10575 
  -10786   -11007   -10952   -10785   -10795   -10984   -11376   -11934 
  -12167   -11641   -10883   -10752   -11128   -11410   -11325   -10839 
  -10355   -10327   -10643   -11034   -11083   -10347    -9417    -9393 
  -10373   -11488   -11657   -10683    -9811    -9953   -10685   -11425 
  -11665   -11180   -10812   -11292   -12136   -12513   -12177   -11601 
  -11335   -11190   -10590    -9679    -9229    -9533   -10245   -10948 
  -11160   -10659    -9977    -9749   -10166   -11134   -11966   -11993 
  -11632   -11367   -11086   -10972   -11113   -11222   -11431   -11832 
  -12104   -12158   -11912   -11281   -10741   -10620   -10613   -10420 
  -10039    -9864   -10281   -10893   -11101   -10984   -10843   -10750 
  -10720   -10563   -10061    -9564    -9644   -10307   -11264   -12228 
  -12742   -12546   -11754   -10743   -10288   -10814   -11677   -11939 
  -11254   -10116    -9447    -9560    -9979   -10141    -9927    -9657 
   -9632   -10053   -10978   -11820   -11886   -11300   -10528    -9850 
   -9699   -10547   -12133   -13412   -13522   -12622   -11553   -10925 
  -10909   -11340   -11692   -11673   -11556   -11542   -11556   -11573 
  -11315   -10230    -8680    -8024    -8876   -10477   -11616   -11556 
  -10712   -10142   -10335   -11029   -11442   -10837    -9443    -8179 
   -7808    -8503    -9667   -10570   -11167   -11832   -12807   -14087 
  -15259   -15568   -14535   -12573   -10852   -10251   -10534   -10839 
  -10554    -9670    -8857    -8830    -9466   -10284   -11101   -11561 
  -11217   -10116    -8797    -8044    -8356    -9463   -10665   -11522 
  -12213   -13243   -14702   -15909   -15990   -14818   -12965   -10930 
   -9101    -7990    -7815    -8243    -8773    -9070    -9113    -9201 
   -9545   -10038   -10443   -10573   -10519   -10666   -11356   -12564 
  -13664   -13917   -13365   -12410   -11211   -10169    -9745    -9787 
   -9902    -9967   -10173   -10901   -12044   -12864   -12799   -11821 
  -10486    -9698    -9607    -9643    -9551    -9329    -9130    -9498 
  -10638   -12043   -13074   -13328   -12842   -11948   -10906   -10146 
  -10208   -10935   -11587   -11747   -11439   -10794   -10065    -9420 
   -8878    -8741    -9239   -10060   -10910   -11689   -12218   -12405 
  -12297   -12164   -12320   -12502   -12316   -11865   -11302   -10694 
  -10119    -9425    -8617    -8302    -9012   -10407   -11627   -12008 
  -11418   -10554   -10393   -10983   -11495   -11308   -10662   -10258 
  -10327   -10544   -10687   -10881   -11402   -12309   -13138   -13135 
  -12069   -10704    -9956    -9929   -10311   -10851   -11269   -11406 
  -11226   -10778   -10372   -10181    -9941    -9535    -9229    -9408 
  -10482   -12256   -13528   -13297   -11641    -9378    -7844    -8041 
   -9606   -11464   -12816   -13224   -13003   -12999   -13293   -13394 
  -13201   -12656   -11588   -10145    -8557    -7152    -6488    -6778 
   -7759    -8984    -9894   -10408   -11090   -12249   -13529   -14162 
  -13404   -11502    -9945    -9852   -10840   -11955   -12484   -11981 
  -10882   -10314   -10536   -10951   -11348   -11650   -11530   -11111 
  -10858   -10839   -10852   -10624    -9769    -8526    -8082    -9155 
  -11059   -12619   -13043   -12411   -11754   -11830   -12387   -12810 
  -12541   -11415   -10029    -9216    -9292    -9883   -10235    -9976 
   -9580    -9698   -10378   -11195   -11595   -11308   -10763   -10612 
  -10898   -11079   -10775   -10323   -10432   -11257   -12137   -12564 
  -12675   -12514   -11763   -10450    -9236    -8932    -9795   -11222 
  -12235   -12181   -11033    -9458    -8351    -8040    -8550    -9900 
  -11541   -12738   -13209   -12904   -12106   -11295   -10790   -10945 
  -11686   -12163   -11712   -10438    -9028    -8469    -9315   -11178 
  -13015   -13818   -13301   -11947   -10539    -9923   -10524   -11641 
  -12063   -11403   -10261    -9479    -9393    -9832   -10596   -11250 
  -11172   -10416    -9703    -9624   -10156   -10670   -10687   -10477 
  -10422   -10428   -10369   -10415   -10867   -11909   -13157   -13757 
  -13242   -11888   -10426    -9648    -9929   -10859   -11597   -11512 
  -10520    -9374    -9153    -9985   -11034   -11561   -11408   -10983 
  -10898   -11222   -11492   -11387   -10955   -10579   -10758   -11587 
  -12633   -13231   -12874   -11684   -10307    -9404    -9329    -9853 
  -10373   -10592   -10574   -10482   -10386   -10062    -9383    -8711 
   -8480    -8876    -9882   -11183   -12270   -12853   -13015   -12922 
  -12652   -12388   -12258   -12052   -11665   -11271   -10883   -10380 
   -9772    -9188    -8888    -9090    -9720   -10570   -11488   -12294 
  -12729   -12459   -11396   -10135    -9531    -9848   -10686   -11449 
  -11688   -11354   -10837   -10538   -10500   -10635   -10879   -11030 
  -10978   -11005   -11348   -11641   -11419   -10728    -9906    -9425 
   -9811   -11026   -12302   -12954   -12869   -12283   -11632   -11300 
  -11183   -10903   -10435    -9971    -9555    -9336    -9489    -9794 
   -9921    -9879    -9900   -10233   -11038   -12069   -12644   -12402 
  -11601   -10697   -10227   -10515   -11302   -12114   -12580   -12447 
  -11776   -10971   -10430   -10395   -10891   -11524   -11669   -11111 
  -10234    -9537    -9296    -9448    -9535    -9329    -9363   -10111 
  -11295   -12309   -12734   -12626   -12382   -12214   -12015   -11553 
  -10785   -10007    -9522    -9474    -9795   -10076   -10038    -9887 
   -9887   -10185   -10872   -11826   -12677   -13068   -12946   -12521 
  -12070   -11789   -11511   -10952   -10234    -9637    -9262    -9207 
   -9498    -9914   -10184   -10220   -10291   -10863   -11894   -12719 
  -12803   -12170   -11245   -10509   -10203   -10243   -10380   -10404 
  -10233   -10015   -10112   -10746   -11758   -12633   -12722   -11912 
  -10912   -10492   -10879   -11727   -12205   -11788   -10806    -9869 
   -9436    -9699   -10323   -10681   -10544   -10270   -10301   -10665 
  -11049   -11117   -10808   -10493   -10623   -11237   -11942   -12243 
  -11913   -11159   -10535   -10497   -10917   -11249   -11098   -10550 
  -10122   -10292   -10971   -11580   -11647   -11155   -10416    -9880 
   -9857   -10185   -10427   -10400   -10369   -10690   -11326   -11869 
  -12010   -11835   -11695   -11762   -11815   -11608   -11148   -10635 
  -10388   -10451   -10488   -10284    -9994    -9964   -10397   -11219 
  -12240   -13069   -13089   -11981   -10203    -8850    -8838   -10093 
  -11588   -12239   -11797   -10881   -10247   -10230   -10624   -10928 
  -10814   -10407   -10056   -10060   -10528   -11260   -11727   -11524 
  -10841   -10257   -10206   -10613   -11125   -11599   -11921   -11857 
  -11530   -11271   -11160   -11121   -11022   -10852   -10848   -11021 
  -11028   -10789   -10566   -10485   -10473   -10440   -10314   -10102 
   -9925    -9961   -10359   -11022   -11534   -11638   -11495   -11317 
  -11230   -11327   -11443   -11306   -10914   -10534   -10527   -11013 
  -11493   -11435   -10937   -10447   -10381   -10845   -11384   -11516 
  -11211   -10616   -10093   -10162   -10820   -11531   -11796   -11407 
  -10627   -10091   -10203   -10786   -11281   -11167   -10476    -9846 
   -9815   -10385   -11169   -11669   -11728   -11607   -11425   -11017 
  -10478   -10191   -10295   -10682   -11259   -11809   -12012   -11805 
  -11449   -11184   -11038   -10814   -10355    -9958   -10134   -10822 
  -11292   -11090   -10570   -10292   -10528   -11125   -11605   -11794 
