Origin Time       2025/03/30 10:18:00
Lat.              34.667
Long.             140.825
Depth. (km)       69
Mag.              4.9
Station Code      CHB026
Station Lat.      35.3858
Station Long.     140.2404
Station Height(m) 46
Record Time       2025/03/30 10:19:03
Sampling Freq(Hz) 100Hz
Duration Time(s)  60
Dir.              E-W
Scale Factor      7845(gal)/8223790
Max. Acc. (gal)   2.432
Last Correction   2025/03/30 10:19:02
Memo.             
[...]
   15854    15639    15600    15804    15746    15607    15742    15805 
   15627    15633    15799    15727    15635    15749    15742    15634 
   15703    15755    15676    15697    15754    15714    15712    15695 
   15622    15720    15831    15650    15533    15758    15853    15655 
   15678    15854    15707    15558    15722    15739    15566    15669 
   15834    15720    15643    15747    15769    15708    15719    15730 
   15666    15634    15664    15699    15711    15723    15768    15749 
   15681    15722    15749    15701    15672    15622    15607    15689 
   15750    15731    15768    15842    15804    15720    15639    15581 
   15700    15769    15608    15693    15921    15723    15543    15754 
   15759    15457    15479    15812    15807    15607    15765    15939 
   15799    15697    15749    15738    15611    15574    15707    15731 
   15668    15790    15897    15774    15677    15716    15684    15527 
   15468    15541    15614    15739    15828    15718    15678    15799 
   15766    15655    15693    15720    15674    15728    15851    15874 
   15804    15768    15778    15801    15757    15564    15449    15546 
   15597    15624    15745    15727    15620    15693    15774    15651 
   15553    15666    15790    15768    15761    15898    15984    15880 
   15762    15716    15655    15637    15676    15592    15556    15766 
   15786    15549    15533    15611    15552    15657    15877    15819 
   15637    15630    15677    15638    15626    15826    16108    16117 
   15785    15546    15724    15876    15631    15503    15722    15712 
   15445    15449    15595    15634    15777    15853    15655    15593 
   15726    15678    15614    15735    15739    15641    15766    15880 
   15754    15757    15940    15925    15755    15680    15704    15716 
   15612    15508    15566    15614    15572    15591    15634    15670 
   15735    15774    15772    15796    15816    15768    15745    15765 
   15693    15574    15622    15836    15963    15893    15762    15633 
   15526    15576    15662    15522    15410    15610    15831    15893 
   15936    15900    15777    15761    15680    15464    15541    15747 
   15646    15588    15795    15885    15824    15878    15911    15731 
   15553    15557    15606    15576    15502    15493    15669    15849 
   15795    15715    15741    15719    15688    15719    15726    15724 
   15720    15709    15827    15988    15865    15634    15689    15720 
   15475    15430    15634    15597    15503    15778    16043    15890 
   15657    15620    15599    15533    15579    15750    15870    15893 
   15888    15850    15777    15724    15749    15795    15738    15637 
   15588    15495    15396    15514    15716    15709    15726    15911 
   15855    15642    15691    15758    15655    15696    15795    15682 
   15645    15790    15809    15772    15774    15722    15801    15955 
   15809    15560    15558    15589    15577    15655    15651    15608 
   15678    15655    15588    15709    15754    15580    15592    15882 
   15959    15750    15808    15974    15726    15512    15665    15664 
   15454    15495    15677    15716    15739    15784    15795    15796 
   15669    15533    15653    15793    15792    15885    15912    15742 
   15784    15905    15693    15506    15596    15610    15552    15745 
   15904    15730    15631    15662    15476    15330    15518    15747 
   15786    15827    15971    15990    15890    15832    15700    15552 
   15584    15614    15569    15680    15801    15761    15827    15957 
   15800    15557    15547    15576    15529    15546    15639    15830 
   15897    15687    15685    15925    15824    15580    15678    15772 
   15604    15661    15942    15888    15634    15601    15731    15778 
   15603    15380    15477    15750    15735    15633    15768    15834 
   15709    15614    15587    15689    15885    15871    15774    15951 
   16028    15668    15454    15660    15757    15619    15645    15765 
   15677    15569    15631    15697    15682    15628    15641    15804 
   15901    15763    15651    15728    15722    15547    15508    15658 
   15747    15772    15809    15800    15830    15865    15696    15561 
   15714    15812    15788    15884    15768    15400    15431    15695 
   15608    15560    15795    15839    15762    15865    15799    15491 
   15472    15692    15668    15558    15668    15755    15692    15772 
   15946    15907    15768    15753    15734    15584    15519    15664 
   15784    15761    15736    15793    15784    15714    15834    15985 
   15796    15493    15479    15564    15493    15626    16036    16058 
   15705    15661    15757    15519    15306    15565    15878    15685 
   15449    15709    15857    15647    15758    16006    15905    15826 
   15807    15579    15507    15685    15607    15392    15479    15595 
   15534    15592    15785    15870    15811    15731    15719    15726 
   15653    15680    15896    15836    15529    15677    16123    16110 
   15808    15774    15759    15562    15581    15718    15661    15615 
   15626    15585    15638    15723    15678    15639    15627    15512 
   15543    15753    15712    15616    15843    16024    15962    15997 
   16039    15809    15546    15449    15461    15603    15726    15696 
   15688    15751    15709    15630    15755    15912    15800    15601 
   15574    15661    15746    15770    15736    15741    15769    15738 
   15780    15850    15716    15560    15588    15608    15531    15468 
   15454    15491    15597    15743    15897    15969    15867    15731 
   15624    15520    15588    15693    15612    15699    16025    16031 
   15731    15610    15526    15379    15580    15903    15873    15826 
   15959    15812    15444    15425    15654    15736    15749    15732 
   15638    15633    15709    15718    15749    15861    15792    15668 
   15880    15974    15701    15757    15981    15811    15633    15595 
   15498    15483    15464    15379    15465    15689    15832    15889 
   15979    16005    15850    15669    15576    15541    15522    15533 
   15693    15921    15951    15874    15842    15741    15626    15591 
   15569    15628    15790    15849    15722    15653    15701    15655 
   15523    15461    15539    15678    15801    15990    16137    16015 
   15815    15707    15512    15376    15518    15642    15616    15642 
   15647    15556    15638    15870    15800    15587    15755    15903 
   15681    15626    15707    15561    15603    15850    15750    15576 
   15774    15975    15932    15851    15759    15618    15525    15549 
   15662    15735    15639    15560    15751    15970    15916    15838 
   15881    15780    15619    15633    15662    15581    15510    15476 
   15506    15673    15840    15811    15668    15658    15742    15745 
   15769    15820    15701    15538    15564    15657    15692    15738 
   15797    15805    15796    15811    15804    15819    15824    15662 
   15452    15469    15607    15573    15570    15788    15861    15722 
   15736    15896    15896    15734    15577    15471    15531    15704 
   15693    15616    15780    15927    15754    15711    15942    15840 
   15611    15736    15757    15529    15581    15738    15623    15641 
   15865    15850    15747    15831    15849    15711    15649    15666 
   15680    15700    15716    15705    15623    15471    15344    15323 
   15461    15676    15769    15768    15854    15984    16012    15863 
   15655    15638    15677    15583    15630    15805    15777    15801 
   15986    15881    15711    15847    15815    15580    15668    15700 
   15396    15430    15705    15628    15584    15719    15622    15574 
   15765    15816    15893    16128    16036    15785    15823    15735 
   15411    15481    15680    15410    15338    15730    15654    15361 
   15758    16119    15807    15753    16081    15854    15387    15456 
   15658    15628    15677    15759    15805    16016    16067    15797 
   15765    15962    15843    15597    15612    15669    15638    15588 
   15500    15589    15843    15851    15727    15782    15781    15610 
   15453    15329    15348    15534    15553    15552    15909    16143 
   15903    15726    15824    15886    15769    15508    15437    15689 
   15684    15356    15441    15785    15722    15595    15819    15971 
   15859    15796    15869    15903    15803    15688    15755    15874 
   15761    15620    15726    15877    15903    15882    15867    15801 
   15572    15364    15452    15557    15433    15398    15572    15735 
   15823    15858    15853    15823    15778    15747    15642    15487 
   15489    15552    15422    15273    15469    15809    15805    15670 
   15788    15874    15769    15824    16011    15993    15947    16024 
   15950    15808    15819    15738    15631    15750    15777    15642 
   15720    15770    15554    15573    15778    15585    15341    15434 
   15407    15352    15669    15827    15615    15611    15751    15705 
   15687    15781    15812    15827    15903    15916    15826    15795 
   15871    15870    15687    15499    15543    15657    15588    15522 
   15579    15635    15688    15681    15622    15672    15750    15749 
   15790    15842    15793    15705    15645    15665    15720    15707 
   15746    15797    15696    15696    15881    15907    15797    15739 
   15688    15691    15708    15677    15723    15750    15646    15610 
   15685    15718    15718    15697    15601    15611    15795    15911 
   15925    15908    15846    15822    15731    15514    15576    15793 
   15573    15408    15743    15808    15574    15711    15867    15665 
   15498    15519    15541    15639    15854    15919    15847    15866 
   15803    15588    15552    15635    15538    15435    15515    15611 
   15696    15865    15963    15901    15836    15689    15453    15504 
   15720    15643    15560    15735    15720    15587    15796    15981 
   15807    15647    15658    15693    15742    15766    15754    15784 
   15823    15786    15606    15381    15437    15647    15550    15473 
   15769    15859    15655    15720    15797    15612    15623    15728 
   15597    15705    16002    15881    15831    16150    16058    15731 
   15801    15805    15580    15654    15824    15750    15770    15843 
   15672    15619    15768    15651    15453    15502    15495    15402 
   15493    15569    15547    15735    15881    15639    15483    15681 
   15804    15728    15719    15803    15842    15799    15677    15572 
   15601    15626    15535    15587    15849    15924    15797    15827 
   15931    15921    15866    15800    15778    15782    15660    15569 
   15697    15722    15525    15554    15796    15857    15859    15876 
   15734    15672    15718    15595    15588    15803    15793    15622 
   15635    15739    15696    15562    15549    15600    15583    15589 
   15624    15608    15657    15773    15747    15658    15755    15901 
   15846    15747    15790    15813    15800    15911    15979    15869 
   15749    15673    15600    15608    15626    15489    15412    15516 
   15542    15596    15781    15749    15592    15661    15718    15678 
   15819    15913    15759    15719    15819    15757    15691    15803 
   15858    15761    15684    15660    15565    15472    15581    15724 
   15668    15658    15809    15876    15857    15808    15704    15660 
   15695    15722    15755    15778    15773    15785    15745    15635 
   15651    15758    15727    15618    15604    15611    15533    15465 
   15462    15452    15396    15446    15734    15939    15824    15803 
   15975    15867    15626    15676    15745    15669    15688    15727 
   15755    15905    15985    15921    15889    15838    15753    15716 
   15673    15643    15677    15643    15545    15637    15773    15591 
   15423    15668    15889    15820    15808    15800    15668    15682 
   15763    15647    15519    15552    15557    15568    15831    16040 
   15882    15750    15797    15736    15723    15874    15827    15672 
   15759    15811    15614    15576    15777    15777    15708    15846 
   15816    15620    15633    15661    15569    15635    15699    15454 
   15265    15372    15431    15418    15616    15886    15930    15881 
   15935    15938    15777    15634    15593    15539    15527    15611 
   15665    15763    15871    15772    15701    15865    15909    15759 
   15720    15676    15485    15488    15726    15850    15867    15921 
   15888    15749    15697    15682    15577    15628    15831    15773 
   15655    15790    15769    15580    15673    15816    15788    15897 
   16087    16160    16264    16262    16036    15965    16024    15896 
   15824    15957    15951    15834    15948    16090    16029    16186 
   16425    16127    15851    16050    15959    15657    15739    15724 
   15341    15094    15002    14790    14678    14729    14655    14616 
   14767    14820    14905    15234    15480    15674    16092    16362 
   16310    16333    16382    16216    15969    15676    15317    15067 
   14940    14777    14710    14931    15147    15175    15245    15377 
   15464    15604    15859    16166    16395    16372    16163    15993 
   15799    15520    15407    15542    15685    15820    16127    16380 
   16372    16455    16735    16892    16956    17003    16830    16491 
   16195    15985    15855    15747    15677    15759    15885    15853 
   15761    15774    15701    15473    15361    15319    15182    15006 
   14748    14400    14073    13743    13404    13173    13157    13524 
   14214    14860    15353    15751    15973    16036    16024    15900 
   15715    15607    15664    16085    16865    17506    17807    17936 
   17798    17375    16953    16578    16092    15660    15530    15635 
   15786    15851    15804    15585    15117    14577    14180    13977 
   14056    14509    15129    15611    15984    16240    16102    15639 
   15345    15403    15553    15808    16278    16592    16573    16582 
   16741    16788    16734    16758    16771    16672    16421    16100 
   16025    16090    15867    15515    15228    14793    14461    14620 
   14958    15265    15732    16055    16001    16025    16182    16208 
   16260    16364    16270    16113    16181    16205    15984    15903 
   15988    15839    15658    15741    15747    15588    15601    15732 
   15747    15718    15728    15522    14891    14192    13801    13659 
   13744    14158    14702    15080    15250    15252    15179    15167 
   15160    15109    15194    15488    15778    15969    16139    16156 
   15862    15466    15299    15292    15268    15485    16094    16713 
   17145    17479    17614    17595    17652    17687    17566    17431 
   17258    16908    16533    16262    16017    15782    15564    15352 
   15207    15091    14906    14725    14694    14763    14739    14712 
   14937    15165    15103    15149    15437    15476    15337    15346 
   15287    15132    15134    15174    15159    15331    15565    15516 
   15527    15889    16005    15817    16052    16505    16594    16660 
   16787    16503    16035    15727    15472    15379    15454    15349 
   15172    15217    15217    15110    15303    15697    15925    16047 
   16082    15919    15707    15562    15375    15196    15252    15468 
   15674    15951    16200    16233    16186    16098    15880    15664 
   15633    15782    16073    16434    16630    16594    16513    16275 
   15785    15375    15178    15056    15095    15225    15125    15053 
   15267    15252    15086    15302    15487    15330    15284    15315 
   15082    14959    15187    15367    15565    15984    16232    16251 
   16397    16502    16305    16125    16167    16139    16110    16460 
   16957    17234    17417    17379    16856    16286    15969    15570 
   15179    15115    15133    15056    15078    15041    14750    14520 
   14445    14386    14543    14851    14917    14775    14696    14732 
   14790    14920    15310    15765    15884    15869    16001    15958 
   15735    15789    15988    16001    16013    16129    16178    16248 
   16490    16723    16775    16698    16609    16584    16594    16587 
   16580    16533    16428    16382    16348    16077    15654    15383 
   15165    14829    14655    14667    14540    14531    14845    15094 
   15236    15431    15500    15483    15552    15518    15468    15635 
   15642    15348    15260    15403    15390    15400    15678    15884 
   15844    15873    16056    16214    16308    16283    16062    15873 
   15865    15830    15789    15931    16079    16066    16073    16141 
   16087    15979    15898    15728    15583    15620    15657    15647 
   15812    15981    15911    15830    15919    16078    16236    16341 
   16345    16158    15738    15284    14955    14694    14520    14563 
   14755    14909    14978    15014    15145    15373    15444    15321 
   15203    15101    15003    14937    14863    14928    15151    15364 
   15772    16375    16665    16618    16659    16808    16892    17016 
   17235    17352    17240    16877    16402    16052    15772    15495 
   15404    15535    15778    15959    15892    15633    15388    15184 
   15005    14970    15034    15032    15080    15306    15597    15869 
   16044    15998    15770    15527    15295    15030    14883    14967 
   15110    15330    15763    16100    16178    16302    16380    16109 
   15730    15502    15286    15107    15175    15371    15503    15726 
   15982    15986    16044    16337    16425    16448    16644    16486 
   16044    15932    15971    15881    15826    15735    15556    15491 
   15471    15367    15396    15588    15728    15889    16016    15927 
   15827    15657    15079    14485    14391    14497    14554    14886 
   15399    15560    15565    15785    15816    15556    15407    15264 
   14993    15006    15408    15830    16194    16521    16663    16687 
   16698    16625    16526    16398    16065    15838    16108    16379 
   16305    16434    16722    16457    15948    15816    15687    15357 
   15294    15408    15323    15271    15309    15045    14665    14623 
   14806    14933    15051    15321    15631    15790    15807    15726 
   15549    15341    15196    15202    15421    15670    15742    15844 
   16031    16024    15971    16112    16212    16198    16294    16299 
   16002    15769    15804    15890    15989    16162    16281    16275 
   16186    16083    16075    16079    15946    15754    15661    15587 
   15286    14890    14611    14323    14197    14436    14787    15217 
   15754    15989    15859    15774    15678    15342    15103    15272 
   15618    15950    16355    16696    16826    16895    16899    16707 
   16490    16407    16340    16231    16073    15830    15633    15547 
   15431    15337    15529    15782    15600    15245    15125    15005 
   14870    14952    15090    15205    15437    15661    15700    15696 
   15650    15452    15465    15812    15997    15984    16104    16251 
   16267    16266    16235    16148    16129    16079    15916    15866 
   15834    15606    15507    15620    15627    15545    15429    15331 
   15421    15495    15452    15618    15876    15813    15655    15812 
   16035    15939    15789    15799    15684    15518    15610    15658 
   15439    15310    15201    14887    14808    15003    15098    15288 
