Origin Time       2025/03/30 10:18:00
Lat.              34.667
Long.             140.825
Depth. (km)       69
Mag.              4.9
Station Code      CHB019
Station Lat.      35.1106
Station Long.     139.8360
Station Height(m) 5
Record Time       2025/03/30 10:19:06
Sampling Freq(Hz) 100Hz
Duration Time(s)  63
Dir.              N-S
Scale Factor      7845(gal)/8223790
Max. Acc. (gal)   1.979
Last Correction   2025/03/30 10:19:06
Memo.             
[...]
    3815     3942     4041     4093     4086     4021     3908     3777 
    3682     3654     3686     3750     3802     3820     3802     3762 
    3719     3704     3731     3778     3829     3897     3993     4106 
    4207     4260     4234     4122     3958     3793     3639     3505 
    3422     3414     3469     3551     3618     3654     3672     3685 
    3709     3739     3751     3736     3715     3726     3807     3950 
    4098     4201     4240     4232     4175     4047     3854     3649 
    3491     3420     3450     3565     3727     3879     3987     4035 
    4025     3973     3906     3839     3777     3731     3707     3708 
    3735     3778     3825     3858     3858     3840     3836     3867 
    3927     3989     4033     4044     4005     3916     3790     3640 
    3488     3339     3206     3094     3013     2964     2957     3002 
    3098     3242     3445     3700     3969     4205     4382     4495 
    4540     4514     4423     4282     4124     3981     3870     3788 
    3744     3761     3838     3950     4064     4137     4128     4043 
    3924     3796     3673     3573     3501     3466     3473     3516 
    3582     3666     3778     3900     3998     4052     4052     3998 
    3919     3842     3769     3699     3650     3638     3670     3746 
    3847     3952     4023     4020     3951     3866     3797     3743 
    3707     3693     3692     3692     3705     3753     3828     3924 
    4047     4175     4260     4275     4241     4189     4132     4064 
    3966     3828     3681     3554     3476     3472     3526     3580 
    3597     3582     3564     3558     3542     3507     3483     3462 
    3412     3333     3258     3240     3294     3377     3462     3568 
    3686     3811     3948     4095     4232     4330     4356     4294 
    4182     4054     3931     3828     3734     3646     3588     3558 
    3551     3585     3669     3778     3893     3997     4060     4050 
    3975     3866     3751     3669     3643     3670     3709     3735 
    3751     3761     3770     3800     3850     3892     3912     3924 
    3929     3932     3927     3896     3847     3824     3851     3910 
    3964     3991     3991     3955     3877     3778     3709     3690 
    3730     3819     3928     4004     4023     4004     3974     3946 
    3924     3906     3890     3871     3851     3816     3746     3649 
    3551     3489     3473     3491     3531     3591     3676     3778 
    3883     3985     4079     4143     4141     4052     3877     3654 
    3429     3249     3181     3248     3408     3612     3802     3915 
    3933     3909     3885     3869     3870     3890     3912     3906 
    3871     3825     3775     3723     3663     3593     3531     3505 
    3518     3537     3532     3501     3461     3441     3478     3589 
    3763     3958     4117     4210     4228     4164     4037     3888 
    3761     3693     3701     3770     3862     3952     4036     4105 
    4160     4182     4158     4116     4091     4085     4068     4024 
    3967     3908     3850     3815     3813     3831     3832     3797 
    3715     3584     3410     3219     3068     3010     3059     3191 
    3381     3592     3771     3886     3932     3937     3940     3966 
    4024     4108     4212     4324     4417     4477     4510     4491 
    4407     4276     4117     3939     3754     3585     3466     3397 
    3352     3342     3368     3396     3407     3399     3358     3288 
    3227     3225     3314     3480     3678     3865     4009     4087 
    4079     3990     3852     3707     3599     3562     3604     3721 
    3877     4001     4043     3989     3862     3713     3591     3520 
    3499     3528     3605     3727     3875     4016     4125     4194 
    4213     4186     4131     4056     3962     3870     3805     3771 
    3762     3788     3848     3900     3901     3848     3748     3624 
    3518     3461     3474     3580     3785     4054     4334     4569 
    4711     4735     4641     4446     4187     3916     3688     3531 
    3439     3389     3352     3300     3242     3194     3172     3203 
    3292     3415     3554     3716     3901     4108     4326     4519 
    4641     4687     4679     4622     4530     4409     4251     4052 
    3839     3638     3461     3308     3183     3094     3032     2978 
    2938     2930     2978     3103     3288     3483     3635     3703 
    3676     3573     3437     3315     3250     3287     3461     3753 
    4090     4395     4617     4725     4727     4648     4517     4363 
    4191     3993     3773     3550     3362     3252     3223     3241 
    3271     3288     3273     3237     3219     3244     3308     3411 
    3551     3726     3921     4113     4266     4344     4348     4330 
    4334     4371     4432     4507     4583     4641     4657     4618 
    4552     4504     4496     4503     4498     4469     4402     4271 
    4078     3842     3589     3341     3095     2840     2582     2366 
    2234     2205     2285     2470     2737     3040     3334     3597 
    3829     4031     4210     4382     4533     4634     4668     4608 
    4430     4148     3805     3464     3200     3048     3003     3057 
    3196     3403     3662     3954     4241     4495     4702     4841 
    4900     4911     4885     4812     4703     4554     4337     4045 
    3728     3424     3172     3002     2901     2818     2714     2596 
    2504     2485     2567     2758     3034     3377     3778     4182 
    4500     4698     4774     4739     4622     4464     4288     4125 
    3998     3904     3832     3790     3808     3924     4151     4440 
    4700     4876     4946     4895     4715     4437     4109     3759 
    3410     3064     2731     2436     2220     2114     2126     2241 
    2431     2659     2893     3115     3304     3446     3542     3595 
    3609     3601     3599     3631     3721     3878     4085     4315 
    4540     4726     4850     4896     4868     4777     4661     4573 
    4541     4563     4615     4676     4727     4752     4716     4591 
    4372     4077     3742     3416     3125     2870     2673     2563 
    2535     2574     2662     2779     2910     3034     3150     3287 
    3439     3586     3726     3874     4044     4234     4430     4610 
    4747     4811     4777     4627     4345     3956     3524     3119 
    2822     2714     2835     3154     3611     4135     4661     5124 
    5455     5595     5520     5252     4846     4359     3858     3396 
    3006     2705     2506     2420     2447     2592     2835     3133 
    3442     3715     3917     4048     4126     4178     4214     4212 
    4140     4005     3831     3642     3483     3383     3352     3380 
    3446     3504     3512     3470     3402     3329     3277     3260 
    3287     3368     3514     3715     3940     4158     4360     4538 
    4669     4729     4692     4536     4278     3956     3620     3329 
    3141     3076     3118     3249     3462     3738     4035     4320 
    4542     4633     4546     4274     3844     3339     2874     2560 
    2477     2648     3040     3573     4160     4704     5116     5343 
    5401     5336     5173     4936     4665     4396     4171     4023 
    3963     3977     4031     4089     4125     4116     4033     3888 
    3723     3576     3439     3306     3177     3041     2899     2776 
    2706     2717     2810     2970     3146     3288     3377     3415 
    3424     3445     3495     3569     3662     3785     3936     4106 
    4247     4307     4268     4135     3932     3700     3495     3369 
    3341     3389     3485     3600     3707     3781     3811     3789 
    3730     3659     3592     3539     3495     3449     3410     3385 
    3385     3426     3515     3650     3836     4062     4301     4522 
    4710     4855     4954     5005     5016     4996     4946     4862 
    4756     4633     4503     4369     4203     4001     3782     3559 
    3366     3252     3233     3276     3323     3330     3273     3163 
    3032     2899     2783     2716     2710     2748     2821     2929 
    3060     3215     3426     3709     4043     4398     4756     5073 
    5316     5470     5522     5466     5306     5053     4727     4380 
    4067     3798     3565     3396     3308     3261     3233     3230 
    3226     3192     3127     3060     3014     2997     3030     3109 
    3217     3356     3510     3651     3781     3901     3982     3996 
    3952     3861     3726     3547     3331     3117     2951     2867 
    2879     2974     3125     3296     3458     3599     3724     3825 
    3904     3970     4043     4156     4313     4492     4676     4843 
    4976     5069     5127     5148     5131     5077     4984     4849 
    4666     4425     4133     3829     3564     3381     3298     3271 
    3264     3271     3292     3295     3273     3265     3299     3375 
    3488     3619     3736     3798     3762     3631     3442     3229 
    3032     2899     2882     3002     3235     3515     3778     4000 
    4176     4324     4469     4608     4699     4726     4687     4579 
    4414     4218     4014     3824     3654     3488     3315     3152 
    3025     2948     2922     2937     2967     2988     2995     2983 
    2957     2937     2944     2986     3082     3241     3446     3681 
    3947     4228     4507     4762     4951     5065     5121     5132 
    5107     5065     5016     4947     4854     4745     4610     4448 
    4278     4110     3952     3820     3712     3618     3532     3454 
    3383     3315     3264     3244     3244     3257     3304     3393 
    3504     3615     3696     3724     3708     3661     3592     3504 
    3402     3304     3240     3233     3294     3402     3543     3705 
    3870     4009     4102     4120     4056     3943     3817     3711 
    3650     3649     3696     3763     3836     3912     3977     4018 
    4062     4149     4295     4480     4664     4797     4842     4785 
    4637     4395     4091     3775     3476     3199     2948     2728 
    2550     2421     2339     2303     2316     2376     2490     2640 
    2781     2911     3048     3206     3399     3622     3866     4125 
    4363     4556     4712     4855     5012     5166     5274     5312 
    5270     5148     4965     4749     4531     4361     4266     4222 
    4187     4145     4110     4068     3975     3811     3596     3335 
    3026     2704     2421     2212     2107     2127     2261     2479 
    2764     3076     3366     3618     3828     4004     4149     4278 
    4399     4517     4615     4688     4747     4791     4808     4803 
    4776     4707     4606     4502     4399     4288     4170     4040 
    3900     3766     3663     3604     3580     3578     3593     3618 
    3620     3597     3564     3520     3466     3420     3393     3373 
    3331     3252     3140     3017     2906     2824     2785     2791 
    2862     3022     3261     3557     3890     4225     4525     4758 
    4896     4923     4862     4742     4588     4423     4264     4125 
    4020     3952     3921     3923     3936     3940     3937     3923 
    3883     3817     3719     3586     3424     3245     3063     2895 
    2767     2691     2667     2683     2739     2841     2995     3196 
    3443     3724     4017     4303     4565     4772     4908     4985 
    5005     4976     4901     4779     4608     4407     4199     4009 
    3832     3659     3515     3426     3393     3410     3443     3460 
    3438     3388     3327     3267     3217     3176     3142     3141 
    3195     3295     3416     3545     3672     3798     3904     3967 
    3991     3970     3890     3788     3701     3663     3696     3800 
    3973     4199     4437     4644     4806     4899     4934     4947 
    4928     4854     4749     4627     4472     4282     4082     3896 
    3732     3589     3461     3356     3284     3248     3246     3277 
    3319     3335     3280     3138     2943     2728     2533     2393 
    2331     2350     2436     2577     2762     2972     3200     3445 
    3673     3858     4018     4179     4338     4494     4641     4762 
    4847     4891     4878     4807     4698     4585     4494     4436 
    4425     4459     4506     4527     4514     4467     4391     4297 
    4195     4098     4017     3973     3960     3958     3956     3943 
    3900     3817     3711     3599     3492     3381     3257     3127 
    3013     2928     2901     2940     3019     3115     3226     3342 
    3443     3527     3595     3657     3713     3739     3715     3655 
    3589     3535     3485     3445     3439     3477     3553     3661 
    3785     3888     3928     3909     3846     3748     3634     3543 
    3508     3523     3584     3676     3785     3905     4014     4079 
    4091     4070     4025     3952     3873     3821     3802     3813 
    3861     3948     4064     4203     4351     4469     4530     4530 
    4476     4391     4301     4220     4160     4116     4071     4031 
    3996     3964     3950     3962     4004     4082     4193     4320 
    4440     4519     4526     4449     4297     4099     3888     3677 
    3472     3271     3071     2872     2689     2548     2484     2490 
    2535     2582     2594     2554     2490     2443     2420     2432 
    2496     2600     2720     2849     2999     3163     3331     3512 
    3717     3943     4172     4406     4646     4891     5148     5405 
    5626     5790     5871     5845     5710     5482     5209     4938 
    4688     4473     4303     4160     4031     3929     3859     3790 
    3701     3584     3456     3345     3273     3248     3261     3299 
    3343     3391     3418     3415     3399     3365     3308     3246 
    3184     3125     3080     3059     3059     3090     3161     3283 
    3441     3609     3778     3939     4083     4210     4303     4361 
    4402     4426     4428     4419     4409     4378     4320     4247 
    4170     4094     4010     3921     3835     3753     3688     3635 
    3584     3515     3415     3291     3152     3022     2948     2964 
    3064     3231     3457     3705     3939     4137     4282     4360 
    4380     4355     4299     4239     4191     4163     4151     4135 
    4090     4010     3897     3762     3616     3460     3298     3153 
    3036     2941     2879     2853     2860     2893     2944     3011 
    3113     3249     3408     3600     3831     4083     4345     4591 
    4788     4926     5003     5031     5035     5023     4996     4959 
    4909     4841     4754     4641     4492     4314     4122     3933 
    3759     3624     3546     3501     3462     3414     3360     3326 
    3330     3377     3466     3588     3720     3865     4014     4149 
    4252     4321     4372     4406     4413     4375     4280     4132 
    3948     3748     3545     3349     3160     2979     2828     2717 
    2631     2573     2552     2555     2578     2639     2720     2789 
    2845     2897     2936     2961     2991     3033     3084     3160 
    3275     3422     3596     3785     3970     4125     4230     4267 
    4236     4168     4099     4048     4020     4009     4005     4005 
    4018     4059     4135     4245     4375     4511     4649     4762 
    4818     4822     4788     4712     4604     4490     4391     4302 
    4217     4137     4051     3959     3878     3815     3781     3801 
    3877     3978     4085     4180     4236     4232     4175     4094 
    4004     3897     3766     3600     3404     3200     3006     2830 
    2693     2602     2559     2577     2679     2856     3073     3298 
    3508     3694     3838     3946     4040     4128     4214     4303 
    4375     4417     4434     4430     4402     4363     4325     4280 
    4230     4203     4210     4247     4298     4334     4342     4332 
    4305     4264     4209     4137     4047     3935     3794     3613 
    3399     3180     2975     2790     2651     2594     2624     2710 
    2828     2949     3040     3086     3106     3125     3148     3188 
    3258     3348     3437     3535     3654     3781     3916     4058 
    4194     4318     4422     4491     4507     4460     4372     4274 
    4171     4078     4000     3927     3865     3828     3805     3788 
    3802     3865     3958     4063     4179     4286     4355     4375 
    4351     4294     4226     4167     4117     4063     4000     3928 
    3848     3778     3730     3688     3638     3564     3447     3289 
    3118     2970     2875     2859     2920     3051     3218     3384 
    3516     3615     3693     3746     3797     3873     3963     4063 
    4170     4264     4334     4384     4414     4417     4391     4342 
    4274     4187     4093     3993     3882     3761     3649     3561 
    3508     3496     3515     3539     3557     3574     3595     3611 
    3622     3632     3636     3635     3631     3620     3599     3564 
    3528     3519     3532     3557     3591     3623     3638     3647 
    3657     3674     3719     3801     3925     4079     4251     4433 
    4612     4758     4861     4923     4935     4895     4811     4689 
    4542     4383     4209     4021     3815     3593     3385     3213 
    3079     2983     2937     2941     2963     2976     2978     2960 
    2936     2928     2940     2972     3024     3095     3188     3302 
    3430     3564     3704     3855     4009     4148     4260     4329 
    4348     4330     4278     4195     4099     3994     3894     3829 
    3796     3794     3828     3870     3920     3994     4074     4151 
    4222     4282     4336     4376     4388     4391     4387     4368 
    4333     4288     4241     4198     4136     4058     3964     3829 
    3654     3470     3294     3137     3024     2948     2899     2878 
    2879     2899     2936     2998     3103     3238     3392     3566 
    3750     3921     4070     4195     4297     4383     4446     4486 
    4502     4491     4457     4398     4322     4233     4110     3954 
    3782     3618     3473     3357     3269     3213     3192     3227 
    3323     3470     3655     3863     4060     4225     4359     4450 
    4484     4473     4437     4356     4221     4056     3875     3680 
    3505     3370     3253     3163     3119     3122     3161     3225 
    3283     3333     3388     3450     3524     3607     3682     3747 
    3802     3850     3883     3902     3908     3905     3889     3855 
    3812     3765     3705     3639     3589     3554     3530     3522 
    3537     3582     3650     3720     3794     3866     3919     3948 
    3956     3944     3929     3932     3951     3985     4036     4089 
    4129     4153     4164     4168     4183     4202     4218     4234 
    4249     4259     4264     4260     4243     4207     4148     4068 
    3974     3875     3780     3700     3658     3657     3692     3759 
    3835     3892     3906     3885     3824     3721     3595     3477 
    3387     3322     3285     3283     3307     3354     3430     3526 
    3635     3746     3848     3921     3955     3956     3935     3900 
    3865     3823     3759     3672     3564     3445     3335     3250 
    3195     3179     3196     3229     3271     3322     3375     3434 
    3510     3600     3701     3809     3910     4009     4117     4234 
