Origin Time       2025/03/30 10:18:00
Lat.              34.667
Long.             140.825
Depth. (km)       69
Mag.              4.9
Station Code      CHB022
Station Lat.      35.3033
Station Long.     139.8555
Station Height(m) 12
Record Time       2025/03/30 10:19:06
Sampling Freq(Hz) 100Hz
Duration Time(s)  60
Dir.              E-W
Scale Factor      7845(gal)/8223790
Max. Acc. (gal)   3.572
Last Correction   2025/03/30 10:19:05
Memo.             
[...]
   -4317    -4247    -4298    -4572    -4872    -4958    -4772    -4494 
   -4383    -4445    -4448    -4326    -4360    -4669    -4874    -4698 
   -4399    -4266    -4267    -4288    -4297    -4287    -4252    -4260 
   -4402    -4565    -4581    -4521    -4556    -4733    -4924    -4927 
   -4698    -4444    -4311    -4241    -4158    -4064    -4008    -3989 
   -4010    -4116    -4309    -4608    -4953    -5100    -4961    -4706 
   -4473    -4371    -4418    -4452    -4438    -4479    -4459    -4295 
   -4226    -4399    -4610    -4689    -4671    -4635    -4641    -4672 
   -4654    -4595    -4538    -4426    -4201    -4002    -4047    -4236 
   -4267    -4207    -4371    -4648    -4699    -4511    -4286    -4197 
   -4321    -4495    -4513    -4430    -4413    -4506    -4657    -4787 
   -4860    -4918    -4980    -4945    -4676    -4282    -4078    -4132 
   -4185    -4104    -4039    -4178    -4479    -4661    -4590    -4471 
   -4428    -4322    -4147    -4079    -4210    -4511    -4861    -5032 
   -4922    -4679    -4506    -4449    -4463    -4491    -4453    -4364 
   -4298    -4233    -4213    -4324    -4433    -4421    -4384    -4409 
   -4561    -4796    -4789    -4496    -4263    -4186    -4167    -4260 
   -4419    -4448    -4369    -4384    -4500    -4603    -4665    -4687 
   -4685    -4722    -4787    -4742    -4529    -4356    -4380    -4433 
   -4401    -4369    -4349    -4322    -4348    -4379    -4349    -4334 
   -4391    -4449    -4405    -4267    -4182    -4276    -4519    -4780 
   -4908    -4773    -4476    -4299    -4282    -4268    -4267    -4364 
   -4514    -4649    -4768    -4885    -4901    -4668    -4351    -4307 
   -4444    -4410    -4206    -4045    -4037    -4145    -4260    -4372 
   -4477    -4479    -4461    -4563    -4654    -4623    -4594    -4642 
   -4708    -4693    -4544    -4351    -4287    -4395    -4521    -4511 
   -4453    -4500    -4579    -4533    -4349    -4128    -4050    -4210 
   -4495    -4656    -4612    -4584    -4615    -4517    -4342    -4283 
   -4403    -4693    -4962    -4949    -4695    -4405    -4205    -4143 
   -4113    -4052    -4075    -4199    -4332    -4464    -4554    -4550 
   -4594    -4737    -4787    -4750    -4773    -4753    -4610    -4494 
   -4450    -4356    -4224    -4172    -4190    -4199    -4166    -4102 
   -4068    -4194    -4536    -4851    -4905    -4899    -5043    -5151 
   -5005    -4680    -4322    -4029    -3848    -3738    -3754    -3987 
   -4318    -4573    -4719    -4738    -4618    -4498    -4525    -4641 
   -4710    -4689    -4595    -4464    -4330    -4206    -4155    -4213 
   -4288    -4355    -4486    -4652    -4824    -5032    -5175    -5092 
   -4796    -4477    -4295    -4226    -4140    -4018    -3950    -3948 
   -3951    -3983    -4090    -4218    -4371    -4564    -4672    -4668 
   -4688    -4756    -4812    -4874    -4880    -4723    -4530    -4467 
   -4488    -4494    -4487    -4513    -4576    -4617    -4536    -4318 
   -4090    -3952    -3933    -4032    -4198    -4361    -4464    -4461 
   -4357    -4305    -4504    -4882    -5178    -5267    -5115    -4754 
   -4438    -4340    -4261    -4067    -3896    -3816    -3859    -4066 
   -4275    -4371    -4490    -4637    -4710    -4769    -4862    -4884 
   -4823    -4800    -4788    -4677    -4504    -4313    -4102    -3937 
   -3886    -3975    -4164    -4351    -4488    -4656    -4822    -4834 
   -4741    -4718    -4739    -4679    -4554    -4448    -4329    -4202 
   -4148    -4125    -4090    -4151    -4310    -4406    -4425    -4506 
   -4718    -4947    -4973    -4808    -4669    -4631    -4614    -4514 
   -4324    -4191    -4224    -4355    -4472    -4529    -4522    -4464 
   -4401    -4345    -4253    -4155    -4153    -4207    -4232    -4293 
   -4446    -4608    -4679    -4689    -4716    -4745    -4691    -4569 
   -4513    -4518    -4487    -4475    -4545    -4561    -4357    -4104 
   -4059    -4164    -4264    -4284    -4251    -4315    -4526    -4734 
   -4824    -4828    -4833    -4847    -4827    -4779    -4749    -4708 
   -4542    -4224    -3933    -3790    -3704    -3724    -3939    -4171 
   -4274    -4398    -4657    -4896    -5024    -5104    -5109    -4954 
   -4703    -4480    -4261    -4035    -3920    -3964    -4104    -4297 
   -4522    -4708    -4807    -4843    -4842    -4838    -4860    -4850 
   -4692    -4395    -4113    -3966    -3927    -3943    -4063    -4280 
   -4440    -4457    -4430    -4433    -4452    -4521    -4603    -4568 
   -4498    -4552    -4666    -4683    -4594    -4540    -4569    -4612 
   -4580    -4430    -4264    -4178    -4149    -4182    -4297    -4411 
   -4499    -4614    -4734    -4854    -4932    -4834    -4604    -4445 
   -4403    -4371    -4328    -4336    -4328    -4191    -4000    -3940 
   -4028    -4124    -4214    -4357    -4504    -4581    -4638    -4754 
   -4845    -4812    -4735    -4680    -4598    -4504    -4464    -4457 
   -4444    -4432    -4440    -4442    -4380    -4257    -4207    -4332 
   -4490    -4536    -4563    -4650    -4719    -4677    -4523    -4369 
   -4288    -4201    -4040    -3905    -3946    -4167    -4410    -4567 
   -4703    -4864    -4962    -4943    -4850    -4757    -4689    -4679 
   -4706    -4637    -4459    -4307    -4241    -4216    -4195    -4195 
   -4228    -4263    -4291    -4340    -4374    -4383    -4444    -4531 
   -4549    -4554    -4645    -4726    -4677    -4553    -4384    -4182 
   -4098    -4151    -4151    -4120    -4255    -4527    -4725    -4764 
   -4753    -4801    -4905    -4963    -4855    -4604    -4383    -4239 
   -4050    -3828    -3728    -3798    -3994    -4248    -4468    -4612 
   -4719    -4845    -4978    -5024    -4934    -4766    -4630    -4560 
   -4490    -4367    -4251    -4186    -4145    -4129    -4175    -4282 
   -4395    -4513    -4687    -4833    -4841    -4815    -4838    -4741 
   -4457    -4263    -4282    -4310    -4299    -4383    -4553    -4637 
   -4519    -4309    -4193    -4220    -4305    -4365    -4375    -4376 
   -4388    -4391    -4383    -4361    -4353    -4396    -4469    -4513 
   -4475    -4442    -4536    -4656    -4673    -4625    -4573    -4585 
   -4692    -4719    -4554    -4363    -4260    -4210    -4212    -4240 
   -4280    -4413    -4677    -4958    -5034    -4795    -4468    -4334 
   -4317    -4226    -4105    -4068    -4144    -4293    -4401    -4432 
   -4467    -4522    -4537    -4515    -4527    -4600    -4696    -4784 
   -4776    -4584    -4326    -4197    -4163    -4095    -4070    -4187 
   -4365    -4527    -4671    -4791    -4897    -5008    -5047    -4953 
   -4795    -4644    -4510    -4368    -4199    -4083    -4071    -4110 
   -4155    -4224    -4340    -4418    -4403    -4378    -4384    -4425 
   -4537    -4675    -4725    -4656    -4510    -4357    -4256    -4182 
   -4144    -4222    -4390    -4483    -4444    -4388    -4417    -4525 
   -4652    -4730    -4752    -4720    -4625    -4472    -4333    -4352 
   -4518    -4661    -4735    -4769    -4683    -4445    -4206    -4117 
   -4077    -3970    -3929    -4048    -4193    -4337    -4567    -4772 
   -4795    -4687    -4623    -4654    -4664    -4603    -4527    -4463 
   -4388    -4298    -4243    -4310    -4448    -4492    -4480    -4509 
   -4538    -4599    -4735    -4858    -4870    -4745    -4581    -4483 
   -4379    -4230    -4109    -4013    -3959    -4009    -4112    -4221 
   -4403    -4646    -4812    -4874    -4931    -4943    -4791    -4558 
   -4428    -4372    -4313    -4270    -4243    -4222    -4226    -4267 
   -4342    -4380    -4368    -4419    -4561    -4737    -4901    -4961 
   -4881    -4725    -4521    -4326    -4217    -4126    -3983    -3847 
   -3819    -3935    -4126    -4278    -4371    -4500    -4671    -4788 
   -4887    -5047    -5135    -5027    -4861    -4726    -4561    -4405 
   -4279    -4145    -4074    -4108    -4194    -4337    -4502    -4598 
   -4622    -4604    -4585    -4571    -4527    -4461    -4392    -4332 
   -4302    -4294    -4275    -4241    -4256    -4375    -4571    -4745 
   -4797    -4714    -4546    -4387    -4359    -4498    -4653    -4665 
   -4568    -4468    -4444    -4527    -4669    -4718    -4606    -4426 
   -4203    -3931    -3761    -3762    -3856    -4024    -4266    -4479 
   -4540    -4503    -4499    -4556    -4704    -4918    -5022    -4916 
   -4703    -4498    -4348    -4305    -4399    -4577    -4765    -4878 
   -4784    -4498    -4280    -4302    -4417    -4382    -4186    -4014 
   -4029    -4248    -4502    -4660    -4742    -4764    -4687    -4510 
   -4349    -4330    -4405    -4446    -4388    -4307    -4334    -4432 
   -4510    -4591    -4633    -4571    -4455    -4310    -4166    -4116 
   -4176    -4345    -4567    -4725    -4850    -4989    -4977    -4754 
   -4557    -4502    -4449    -4334    -4216    -4148    -4179    -4298 
   -4436    -4534    -4588    -4557    -4413    -4287    -4302    -4387 
   -4411    -4348    -4303    -4345    -4349    -4248    -4234    -4405 
   -4625    -4797    -4889    -4916    -4920    -4907    -4837    -4683 
   -4504    -4423    -4442    -4391    -4205    -4021    -3939    -3954 
   -4001    -3996    -3955    -4009    -4176    -4298    -4341    -4414 
   -4496    -4580    -4712    -4845    -4932    -4974    -4924    -4787 
   -4568    -4302    -4163    -4243    -4384    -4449    -4467    -4517 
   -4575    -4590    -4561    -4503    -4465    -4473    -4449    -4347 
   -4222    -4117    -4048    -4058    -4166    -4322    -4452    -4530 
   -4583    -4639    -4719    -4838    -4957    -4982    -4866    -4635 
   -4372    -4212    -4186    -4185    -4180    -4252    -4390    -4491 
   -4499    -4432    -4313    -4158    -4005    -3913    -3960    -4198 
   -4549    -4897    -5202    -5433    -5549    -5556    -5491    -5410 
   -5313    -5198    -5071    -4862    -4521    -4101    -3674    -3252 
   -2828    -2505    -2398    -2523    -2889    -3426    -3994    -4561 
   -5090    -5579    -6103    -6590    -6870    -6852    -6544    -5965 
   -5084    -4005    -3022    -2270    -1740    -1529    -1702    -2173 
   -2884    -3788    -4737    -5630    -6501    -7334    -7956    -8176 
   -7927    -7298    -6447    -5510    -4564    -3694    -3001    -2459 
   -2037    -1831    -1914    -2292    -2948    -3731    -4438    -5008 
   -5431    -5653    -5599    -5258    -4772    -4309    -3932    -3672 
   -3582    -3701    -3902    -4033    -4125    -4255    -4437    -4679 
   -4922    -5108    -5204    -5127    -4877    -4581    -4330    -4180 
   -4144    -4172    -4229    -4351    -4588    -4903    -5236    -5559 
   -5809    -5892    -5684    -5144    -4436    -3798    -3356    -3056 
   -2832    -2697    -2647    -2651    -2749    -3065    -3680    -4515 
   -5375    -6045    -6354    -6278    -5930    -5460    -5031    -4756 
   -4662    -4737    -4853    -4785    -4461    -4005    -3534    -3137 
   -2947    -2994    -3187    -3524    -4037    -4638    -5224    -5773 
   -6203    -6413    -6439    -6331    -5983    -5256    -4278    -3349 
   -2747    -2635    -2929    -3388    -3854    -4249    -4529    -4693 
   -4796    -4945    -5213    -5555    -5825    -5904    -5752    -5358 
   -4789    -4164    -3526    -3010    -2818    -2876    -2937    -2922 
   -2907    -3038    -3427    -4013    -4652    -5238    -5657    -5873 
   -5962    -5927    -5751    -5562    -5447    -5265    -4847    -4274 
   -3666    -2971    -2249    -1777    -1744    -2145    -2905    -3847 
   -4779    -5645    -6446    -7110    -7542    -7638    -7273    -6469 
   -5501    -4615    -3825    -3119    -2621    -2374    -2261    -2235 
   -2385    -2732    -3140    -3511    -3886    -4315    -4855    -5528 
   -6223    -6774    -7069    -7014    -6536    -5713    -4804    -4081 
   -3611    -3300    -3109    -3098    -3275    -3546    -3874    -4299 
   -4787    -5269    -5674    -5898    -5896    -5713    -5424    -5138 
   -4861    -4460    -3910    -3375    -2960    -2639    -2470    -2617 
   -3117    -3863    -4691    -5340    -5605    -5518    -5239    -4935 
   -4784    -4854    -5084    -5292    -5287    -5065    -4704    -4259 
   -3824    -3415    -2953    -2542    -2407    -2596    -3017    -3719 
   -4726    -5745    -6394    -6573    -6340    -5749    -5009    -4382 
   -3964    -3815    -3910    -4094    -4261    -4426    -4662    -4976 
   -5171    -5047    -4608    -4068    -3672    -3510    -3555    -3758 
   -3997    -4176    -4330    -4521    -4753    -5044    -5410    -5771 
   -5961    -5896    -5601    -5182    -4773    -4402    -4031    -3685 
   -3404    -3218    -3213    -3446    -3790    -4135    -4450    -4668 
   -4714    -4604    -4457    -4432    -4565    -4785    -4997    -5112 
   -5094    -4958    -4737    -4495    -4267    -4020    -3739    -3485 
   -3433    -3694    -4168    -4743    -5370    -5850    -5919    -5536 
   -4963    -4473    -4102    -3800    -3553    -3310    -3118    -3115 
   -3279    -3585    -4116    -4784    -5413    -5896    -6106    -5981 
   -5670    -5306    -4868    -4357    -3855    -3424    -3126    -2992 
   -3057    -3424    -4078    -4797    -5431    -5923    -6154    -6111 
   -5933    -5713    -5397    -4847    -4074    -3245    -2496    -1922 
   -1671    -1875    -2497    -3370    -4337    -5228    -5921    -6420 
   -6747    -6902    -6871    -6559    -5940    -5173    -4401    -3643 
   -2952    -2452    -2133    -1902    -1871    -2216    -2940    -3927 
   -5055    -6169    -7065    -7636    -7884    -7797    -7279    -6251 
   -4853    -3385    -2118    -1215     -746     -716    -1161    -2092 
   -3358    -4750    -6072    -7103    -7696    -7847    -7603    -7011 
   -6188    -5259    -4297    -3393    -2654    -2095    -1741    -1694 
   -2027    -2706    -3562    -4355    -4977    -5481    -5877    -6097 
   -6180    -6218    -6107    -5702    -5069    -4405    -3923    -3692 
   -3564    -3364    -3052    -2720    -2589    -2836    -3416    -4172 
   -4969    -5718    -6288    -6513    -6400    -6030    -5449    -4823 
   -4337    -3990    -3665    -3269    -2857    -2658    -2864    -3446 
   -4132    -4671    -5057    -5340    -5510    -5675    -5918    -6137 
   -6164    -5914    -5491    -5057    -4591    -4008    -3373    -2907 
   -2770    -2934    -3249    -3535    -3646    -3593    -3573    -3750 
   -4195    -4934    -5827    -6574    -6901    -6670    -5999    -5192 
   -4444    -3781    -3253    -2978    -3009    -3235    -3468    -3654 
   -3901    -4259    -4600    -4756    -4719    -4611    -4550    -4608 
   -4718    -4777    -4828    -4865    -4797    -4672    -4637    -4750 
   -4868    -4758    -4417    -4029    -3696    -3446    -3346    -3424 
   -3651    -3956    -4256    -4560    -4972    -5520    -6027    -6211 
   -5898    -5185    -4372    -3717    -3361    -3365    -3657    -4035 
   -4306    -4369    -4276    -4222    -4401    -4769    -5108    -5302 
   -5343    -5229    -4982    -4660    -4379    -4243    -4293    -4477 
   -4714    -4942    -5065    -5032    -4982    -4997    -4935    -4669 
   -4270    -3915    -3720    -3650    -3690    -3871    -4104    -4193 
   -4006    -3624    -3294    -3210    -3334    -3507    -3742    -4156 
   -4683    -5094    -5201    -4962    -4575    -4379    -4480    -4761 
   -5135    -5460    -5555    -5390    -5076    -4779    -4653    -4720 
   -4901    -5086    -5143    -5024    -4788    -4415    -3850    -3221 
   -2763    -2604    -2764    -3204    -3798    -4391    -4927    -5509 
   -6208    -6825    -7078    -6898    -6315    -5374    -4288    -3345 
   -2704    -2440    -2486    -2631    -2795    -3042    -3414    -3944 
   -4554    -5073    -5427    -5616    -5661    -5598    -5482    -5393 
   -5379    -5395    -5273    -4835    -4093    -3307    -2774    -2548 
   -2578    -2903    -3514    -4225    -4812    -5171    -5339    -5387 
   -5370    -5312    -5208    -5042    -4849    -4692    -4540    -4326 
   -4099    -3905    -3738    -3688    -3811    -4000    -4180    -4391 
   -4644    -4861    -4957    -4950    -4928    -4849    -4631    -4379 
   -4212    -4120    -4043    -3946    -3877    -3932    -4121    -4361 
   -4633    -4911    -5113    -5221    -5227    -5119    -4965    -4828 
   -4696    -4564    -4448    -4351    -4293    -4276    -4259    -4205 
   -4124    -4090    -4152    -4321    -4599    -4878    -5082    -5163 
   -5008    -4714    -4494    -4237    -3877    -3635    -3537    -3508 
   -3636    -3877    -4167    -4494    -4712    -4839    -5015    -5144 
   -5154    -5136    -5128    -5179    -5204    -4918    -4440    -4106 
   -3844    -3545    -3429    -3573    -3811    -4159    -4648    -4989 
   -5130    -5259    -5204    -4814    -4260    -3746    -3591    -3844 
   -4078    -4133    -4176    -4278    -4444    -4666    -4807    -4722 
   -4541    -4503    -4557    -4476    -4251    -4098    -4187    -4430 
   -4621    -4730    -4881    -5019    -4984    -4766    -4476    -4311 
   -4410    -4591    -4719    -4969    -5255    -5229    -4914    -4509 
   -4035    -3630    -3415    -3339    -3446    -3716    -3996    -4240 
   -4503    -4812    -5094    -5228    -5120    -4818    -4556    -4399 
   -4136    -3762    -3499    -3442    -3619    -4052    -4579    -4923 
   -5162    -5660    -6253    -6451    -6276    -5814    -4970    -3981 
   -3190    -2662    -2405    -2461    -2666    -2902    -3292    -3839 
   -4536    -5271    -5483    -5194    -5158    -5275    -5094    -4922 
   -4874    -4710    -4639    -4801    -4874    -4797    -4777    -4702 
   -4511    -4353    -4160    -4010    -4139    -4317    -4345    -4544 
   -4928    -5084    -4970    -4743    -4388    -4090    -4097    -4279 
   -4409    -4486    -4529    -4556    -4652    -4734    -4746    -4806 
   -4833    -4658    -4330    -3929    -3468    -3084    -3019    -3327 
   -3786    -4229    -4685    -5113    -5375    -5475    -5474    -5329 
   -5001    -4552    -4060    -3600    -3267    -3203    -3496    -4012 
   -4457    -4623    -4536    -4403    -4322    -4259    -4326    -4594 
   -4931    -5194    -5252    -5154    -5115    -5115    -5124    -5329 
   -5514    -5278    -4808    -4455    -4156    -3782    -3462    -3449 
   -3877    -4517    -4901    -4995    -5020    -4899    -4629    -4399 
   -4221    -4056    -3867    -3680    -3685    -3846    -3919    -3967 
   -4132    -4367    -4660    -4995    -5302    -5552    -5706    -5636 
   -5329    -4989    -4722    -4511    -4363    -4183    -3955    -3825 
   -3785    -3757    -3875    -4064    -4108    -4176    -4418    -4676 
   -4804    -4777    -4639    -4407    -4158    -3900    -3591    -3516 
   -3696    -3674    -3477    -3559    -4050    -4637    -4974    -5143 
   -5412    -5657    -5668    -5501    -5275    -5027    -4743    -4527 
   -4456    -4349    -4014    -3712    -3973    -4660    -4963    -4673 
   -4421    -4494    -4560    -4452    -4214    -3944    -3827    -3804 
   -3746    -3794    -4036    -4274    -4347    -4495    -4849    -5024 
   -5023    -5286    -5602    -5471    -5011    -4611    -4379    -4210 
   -4043    -3905    -3886    -4050    -4245    -4364    -4465    -4511 
   -4576    -4869    -5247    -5491    -5690    -5768    -5472    -4842 
   -4116    -3489    -3045    -2806    -2809    -2994    -3252    -3595 
   -4023    -4414    -4851    -5367    -5579    -5385    -5070    -4812 
   -4776    -4881    -4812    -4573    -4322    -4166    -4264    -4475 
