Origin Time       2025/03/30 10:18:00
Lat.              34.667
Long.             140.825
Depth. (km)       69
Mag.              4.9
Station Code      CHB021
Station Lat.      34.9078
Station Long.     139.8994
Station Height(m) 9
Record Time       2025/03/30 10:18:47
Sampling Freq(Hz) 100Hz
Duration Time(s)  66
Dir.              U-D
Scale Factor      7845(gal)/8223790
Max. Acc. (gal)   2.059
Last Correction   2025/03/30 10:18:46
Memo.             
[...]
    1479     1467     1483     1493     1480     1480     1491     1486 
    1467     1476     1498     1489     1479     1485     1483     1483 
    1487     1487     1478     1472     1486     1498     1487     1475 
    1483     1489     1485     1479     1479     1485     1487     1485 
    1487     1487     1485     1483     1482     1480     1491     1494 
    1479     1471     1483     1494     1487     1478     1485     1491 
    1487     1479     1483     1486     1479     1479     1494     1498 
    1482     1474     1485     1489     1483     1486     1487     1479 
    1478     1487     1493     1480     1476     1493     1493     1470 
    1474     1497     1497     1474     1470     1491     1493     1470 
    1475     1499     1490     1472     1480     1491     1482     1472 
    1482     1490     1480     1486     1497     1482     1471     1487 
    1493     1476     1476     1497     1495     1479     1475     1482 
    1486     1479     1478     1491     1491     1475     1475     1490 
    1490     1479     1482     1490     1482     1475     1486     1493 
    1482     1476     1480     1486     1486     1480     1480     1486 
    1485     1479     1480     1489     1489     1479     1479     1487 
    1482     1479     1486     1487     1483     1486     1483     1479 
    1482     1486     1486     1480     1485     1494     1489     1479 
    1480     1480     1478     1483     1491     1491     1486     1486 
    1482     1474     1478     1491     1489     1485     1491     1485 
    1478     1479     1480     1487     1490     1486     1486     1486 
    1479     1476     1478     1485     1491     1486     1476     1486 
    1491     1475     1478     1487     1482     1480     1485     1486 
    1485     1479     1478     1480     1483     1485     1486     1485 
    1480     1483     1486     1486     1483     1479     1480     1486 
    1487     1489     1483     1476     1480     1487     1485     1478 
    1479     1486     1483     1479     1485     1487     1479     1478 
    1489     1486     1475     1480     1491     1486     1475     1480 
    1493     1489     1475     1472     1485     1489     1480     1480 
    1487     1489     1485     1480     1483     1489     1486     1480 
    1482     1482     1479     1480     1482     1482     1482     1485 
    1486     1480     1486     1489     1480     1479     1482     1482 
    1483     1486     1486     1479     1475     1480     1487     1476 
    1475     1493     1491     1476     1479     1485     1483     1479 
    1474     1482     1491     1483     1478     1483     1485     1479 
    1479     1482     1487     1491     1483     1480     1495     1486 
    1464     1482     1495     1476     1476     1497     1491     1475 
    1478     1489     1485     1468     1476     1498     1483     1471 
    1493     1491     1472     1479     1486     1475     1474     1493 
    1502     1485     1470     1485     1491     1472     1470     1489 
    1489     1486     1493     1490     1479     1474     1480     1494 
    1479     1464     1491     1495     1464     1474     1507     1498 
    1468     1468     1498     1502     1460     1460     1502     1503 
    1483     1479     1478     1482     1479     1482     1497     1486 
    1470     1487     1494     1471     1464     1494     1506     1464 
    1462     1506     1494     1460     1479     1501     1485     1462 
    1486     1513     1472     1456     1503     1493     1456     1490 
    1514     1475     1456     1486     1507     1478     1463     1499 
    1499     1463     1478     1498     1472     1475     1494     1471 
    1471     1509     1501     1462     1470     1503     1485     1456 
    1483     1498     1475     1483     1503     1476     1463     1493 
    1494     1463     1476     1507     1479     1448     1493     1525 
    1478     1445     1487     1513     1472     1459     1501     1497 
    1464     1479     1497     1478     1476     1497     1493     1467 
    1470     1495     1490     1472     1485     1498     1479     1475 
    1495     1489     1475     1486     1487     1480     1486     1486 
    1482     1483     1479     1485     1490     1476     1480     1491 
    1474     1478     1503     1487     1463     1480     1499     1485 
    1472     1482     1493     1490     1476     1478     1490     1483 
    1478     1489     1483     1480     1491     1483     1471     1480 
    1489     1489     1485     1479     1485     1487     1476     1475 
    1482     1485     1489     1487     1479     1476     1483     1487 
    1478     1480     1494     1485     1472     1480     1489     1486 
    1479     1476     1483     1489     1482     1476     1483     1480 
    1476     1489     1487     1476     1489     1487     1467     1474 
    1491     1493     1480     1466     1485     1506     1475     1455 
    1493     1506     1474     1468     1497     1493     1468     1479 
    1495     1479     1472     1490     1487     1468     1486     1505 
    1475     1463     1503     1498     1449     1472     1510     1479 
    1463     1486     1494     1493     1476     1458     1483     1505 
    1479     1475     1503     1489     1463     1479     1495     1487 
    1480     1483     1483     1482     1490     1486     1474     1475 
    1480     1494     1491     1462     1480     1506     1464     1460 
    1509     1501     1466     1474     1503     1489     1449     1479 
    1513     1475     1464     1503     1494     1462     1479     1510 
    1489     1448     1483     1526     1471     1451     1507     1487 
    1448     1494     1516     1471     1460     1493     1495     1479 
    1480     1483     1471     1474     1497     1497     1476     1466 
    1472     1501     1499     1462     1470     1489     1485     1497 
    1482     1458     1489     1502     1475     1483     1497     1472 
    1468     1486     1485     1486     1485     1472     1486     1493 
    1483     1485     1468     1467     1517     1501     1435     1474 
    1528     1476     1452     1498     1498     1475     1480     1476 
    1478     1495     1490     1475     1474     1485     1491     1480 
    1482     1493     1482     1479     1478     1478     1506     1498 
    1447     1467     1518     1495     1463     1475     1486     1501 
    1495     1464     1480     1495     1472     1486     1503     1480 
    1474     1462     1482     1533     1475     1439     1512     1491 
    1453     1502     1501     1467     1474     1490     1497     1487 
    1472     1471     1499     1499     1466     1489     1494     1451 
    1505     1525     1439     1467     1526     1479     1447     1466 
    1534     1529     1406     1453     1576     1476     1395     1505 
    1549     1459     1443     1522     1514     1437     1448     1517 
    1521     1456     1475     1528     1448     1437     1553     1501 
    1408     1502     1539     1459     1472     1487     1444     1512 
    1530     1426     1495     1552     1405     1433     1579     1509 
    1402     1464     1578     1505     1354     1489     1617     1422 
    1397     1588     1516     1370     1474     1588     1485     1387 
    1514     1570     1404     1431     1594     1494     1378     1505 
    1582     1448     1389     1529     1560     1425     1440     1549 
    1491     1406     1502     1560     1447     1416     1529     1533 
    1432     1466     1533     1466     1448     1516     1506     1463 
    1462     1494     1509     1470     1462     1520     1503     1424 
    1460     1540     1507     1441     1458     1520     1489     1448 
    1514     1506     1435     1487     1507     1458     1507     1498 
    1435     1505     1503     1448     1520     1486     1409     1530 
    1551     1401     1449     1568     1476     1425     1512     1506 
    1453     1490     1499     1464     1506     1499     1444     1480 
    1482     1470     1530     1478     1422     1517     1507     1444 
    1520     1490     1402     1499     1553     1471     1445     1483 
    1499     1482     1480     1493     1489     1466     1452     1505 
    1529     1456     1447     1525     1497     1425     1503     1551 
    1413     1418     1605     1525     1332     1476     1609     1451 
    1416     1534     1510     1429     1464     1540     1490     1414 
    1506     1553     1425     1421     1559     1522     1398     1466 
    1582     1455     1335     1548     1642     1404     1375     1563 
    1543     1397     1414     1587     1566     1352     1418     1638 
    1517     1301     1475     1680     1443     1312     1590     1579 
    1335     1476     1610     1431     1418     1518     1497     1487 
    1474     1497     1512     1436     1435     1553     1567     1370 
    1401     1644     1495     1323     1529     1593     1418     1422 
    1553     1540     1459     1418     1456     1539     1495     1462 
    1490     1472     1502     1513     1467     1455     1486     1501 
    1466     1501     1505     1443     1507     1505     1428     1529 
    1544     1394     1428     1552     1510     1466     1475     1458 
    1528     1530     1390     1441     1571     1498     1445     1494 
    1489     1479     1479     1459     1509     1524     1431     1470 
    1543     1451     1459     1533     1445     1464     1560     1464 
    1421     1502     1468     1502     1603     1441     1324     1541 
    1583     1382     1462     1638     1464     1325     1517     1586 
    1475     1431     1451     1563     1513     1340     1509     1653 
    1379     1332     1669     1614     1256     1360     1676     1563 
    1306     1499     1696     1368     1289     1667     1588     1282 
    1433     1647     1536     1370     1416     1611     1564     1294 
    1414     1706     1502     1260     1514     1692     1387     1320 
    1684     1567     1232     1505     1683     1385     1339     1590 
    1625     1420     1344     1517     1594     1449     1421     1530 
    1498     1444     1510     1507     1448     1480     1518     1470 
    1443     1517     1517     1443     1485     1529     1463     1443 
    1506     1524     1464     1448     1513     1526     1440     1448 
    1552     1485     1398     1528     1552     1413     1455     1555 
    1479     1429     1506     1517     1478     1487     1467     1470 
    1525     1480     1429     1507     1525     1448     1467     1514 
    1475     1463     1502     1499     1462     1471     1506     1480 
    1451     1498     1518     1468     1459     1494     1491     1475 
    1489     1502     1482     1466     1479     1489     1483     1482 
    1486     1494     1486     1472     1482     1483     1476     1502 
    1495     1447     1482     1537     1467     1416     1514     1551 
    1448     1440     1524     1502     1452     1482     1494     1487 
    1489     1458     1474     1521     1478     1451     1507     1497 
    1449     1478     1509     1486     1468     1487     1495     1479 
    1489     1485     1460     1495     1499     1453     1493     1503 
    1449     1489     1509     1455     1479     1507     1479     1485 
    1470     1458     1505     1498     1456     1491     1506     1471 
    1476     1471     1463     1510     1510     1464     1478     1491 
    1467     1483     1503     1472     1476     1506     1478     1460 
    1489     1489     1482     1493     1482     1483     1506     1480 
    1439     1466     1521     1510     1464     1466     1494     1489 
    1471     1480     1498     1490     1468     1470     1497     1503 
    1472     1459     1482     1501     1490     1475     1480     1486 
    1472     1470     1505     1514     1448     1436     1525     1532 
    1452     1452     1495     1494     1480     1472     1483     1506 
    1487     1470     1482     1472     1476     1506     1493     1459 
    1486     1512     1471     1470     1503     1470     1458     1510 
    1513     1467     1467     1491     1493     1480     1478     1493 
    1493     1467     1467     1499     1509     1476     1464     1485 
    1479     1485     1512     1482     1453     1489     1502     1471 
    1474     1499     1498     1480     1472     1471     1478     1494 
    1491     1479     1485     1471     1445     1482     1502     1455 
    1463     1499     1463     1440     1453     1441     1452     1475 
    1453     1439     1431     1408     1437     1479     1453     1435 
    1459     1445     1432     1479     1516     1507     1495     1491 
    1503     1518     1507     1514     1556     1570     1549     1548 
    1543     1513     1489     1433     1377     1421     1479     1444 
    1424     1470     1443     1329     1293     1372     1468     1545 
    1614     1611     1547     1593     1749     1779     1653     1625 
    1818     2095     2243     2029     1487     1113     1154     1204 
    1059     1107     1397     1386     1067     1080     1422     1445 
    1147     1065     1165     1223     1555     2115     2168     1668 
    1416     1524     1494     1529     1962     2236     1965     1593 
    1459     1533     1667     1539     1104      918     1237     1452 
    1289     1308     1447     1243     1291     1954     2039      954 
     167      707     1387     1243     1192     1752     2053     1867 
    1705     1664     1903     2532     2847     2196      997       54 
    -315       78     1163     1948     1779     1336     1277     1728 
    2708     3531     3184     1756      244     -675     -637      630 
    2249     2743     2292     1921     1595     1301     1444     1555 
    1139      854     1173     1486     1823     2795     3163     1522 
    -253      213     1509     1356      858     1541     2363     2502 
    2373     1759      778      697     1340     1111      484     1058 
    2106     2438     2590     2623     1845      780      338      305 
     508     1416     2295     1930     1263     1628     2226     2127 
    1811     1556     1069      816     1463     2200     1945     1493 
    1679     1657     1215     1117     1047      668      711     1228 
    1539     1917     2577     2398     1219      693      967      670 
     556     1760     2632     1989     1306     1260      918      506 
     896     1404     1441     1873     2340     1768     1379     2214 
    2884     2600     2155     1659      756      -25      -97      473 
    1549     2751     2926     1702      841     1394     1884     1455 
    1042      928      724      951     1941     2683     2398     1645 
    1317     1416     1382     1235     1264     1382     1308     1098 
    1297     1871     2205     2247     1964     1009      -27       98 
    1151     1595     1497     2081     2637     1985     1273     1584 
    1837     1300      849      942     1088     1362     2118     2628 
    2114     1425     1583     1675      808      224      885     1764 
    1933     1787     1691     1452     1337     1566     1453      969 
     915     1229     1491     1795     2050     1923     1472     1255 
    1448     1431     1086     1120     1696     2214     2081     1482 
    1228     1318     1177     1051     1332     1738     1852     1630 
    1505     1764     2103     1965     1256      834     1306     1890 
    1904     1694     1553     1468     1375     1086      858     1246 
    1817     1682     1016      804     1294     1483     1030     1027 
    1661     1850     1466     1413     1803     1868     1532     1267 
    1175     1348     1682     1746     1626     1644     1733     1590 
    1178      984     1350     1923     2250     2142     1557     1084 
    1371     1761     1560     1227     1070      959     1015     1263 
    1474     1674     1954     1992     1452      704      519     1088 
    2068     2808     2531     1733     1359     1201     1323     1804 
    1786     1208      918     1148     1366     1408     1811     2226 
    1795     1200     1363     1652     1501     1512     1745     1409 
     765      907     1578     1683     1368     1297     1383     1516 
    1609     1354     1026     1117     1329     1421     1753     2030 
    1734     1493     1771     1985     1803     1409     1017      896 
    1161     1398     1213     1244     2014     2500     1919     1035 
     706     1011     1534     1723     1664     1971     2307     1931 
    1316     1071     1059     1290     1516     1221      938     1336 
    1752     1578     1451     1668     1610     1368     1630     2038 
    1817     1381     1312     1189      961     1221     1694     1761 
    1823     2058     1625      774      792     1412     1576     1559 
    1807     1746     1360     1545     1931     1599     1305     1543 
    1412     1024     1263     1814     1777     1344     1398     1692 
    1506     1251     1250     1042      769      992     1571     1954 
    1875     1563     1487     1755     1926     1533      961     1127 
    1790     1809     1205     1017     1377     1586     1587     1675 
    1748     1745     1640     1391     1279     1561     1802     1314 
     747     1256     1971     1742     1536     1975     1989     1325 
    1058     1426     1683     1702     1690     1389     1051     1291 
    1713     1671     1460     1456     1413     1239     1165     1188 
    1372     1750     1840     1551     1341     1260     1255     1476 
    1664     1335      959     1395     2007     1823     1406     1381 
    1493     1548     1576     1598     1602     1657     1695     1416 
    1038     1042     1364     1647     1694     1807     2050     1741 
     940      581      997     1684     1957     1771     1625     1618 
    1537     1432     1347     1181     1057     1167     1544     1983 
    1957     1459     1304     1723     1927     1603     1340     1278 
    1086     1035     1406     1730     1769     1884     1991     1669 
    1138      931     1152     1489     1549     1296     1146     1480 
    2038     2092     1605     1310     1406     1526     1553     1463 
    1235     1077     1217     1521     1588     1417     1402     1594 
    1804     1864     1582     1336     1522     1552     1142     1065 
    1490     1729     1651     1497     1166      946     1350     1806 
    1632     1356     1439     1466     1345     1463     1687     1641 
    1483     1422     1300     1314     1833     2180     1659     1113 
    1296     1541     1436     1517     1773     1661     1449     1474 
    1393     1345     1659     1838     1543     1277     1470     1710 
    1498     1174     1102     1102     1271     1694     1931     1764 
    1390     1155     1273     1448     1625     2004     1935     1182 
     901     1401     1683     1379      940      832     1271     2002 
    2284     1771     1302     1468     1476     1125     1177     1513 
    1668     1714     1617     1317     1135     1313     1575     1557 
    1452     1625     1953     2058     1773     1360     1210     1293 
    1433     1564     1532     1464     1512     1436     1324     1437 
    1505     1344     1285     1591     1956     1931     1761     1753 
    1601     1189      884      922     1209     1571     1853     1830 
    1437     1065     1078     1266     1329     1421     1611     1730 
    1852     1993     1863     1501     1314     1243     1039     1034 
