Origin Time       2025/03/30 10:18:00
Lat.              34.667
Long.             140.825
Depth. (km)       69
Mag.              4.9
Station Code      CHB018
Station Lat.      35.1520
Station Long.     140.3204
Station Height(m) 38
Record Time       2025/03/30 10:18:48
Sampling Freq(Hz) 100Hz
Duration Time(s)  67
Dir.              E-W
Scale Factor      7845(gal)/8223790
Max. Acc. (gal)   3.253
Last Correction   2025/03/30 10:18:48
Memo.             
[...]
   14219    14218    14210    14199    14197    14212    14216    14208 
   14211    14219    14211    14196    14200    14208    14200    14200 
   14214    14223    14216    14202    14196    14206    14211    14207 
   14206    14214    14210    14197    14200    14210    14212    14206 
   14204    14216    14215    14196    14196    14215    14211    14197 
   14203    14215    14218    14207    14195    14196    14210    14216 
   14215    14216    14214    14203    14200    14208    14212    14210 
   14204    14207    14207    14200    14207    14219    14216    14208 
   14211    14215    14210    14203    14192    14193    14214    14222 
   14207    14204    14214    14207    14197    14206    14218    14220 
   14211    14200    14202    14207    14207    14207    14211    14214 
   14208    14200    14207    14215    14206    14202    14218    14220 
   14204    14199    14206    14211    14210    14206    14207    14211 
   14208    14200    14203    14216    14218    14210    14210    14210 
   14196    14191    14207    14224    14222    14203    14183    14173 
   14197    14249    14262    14197    14137    14168    14258    14304 
   14238    14135    14142    14264    14318    14196    14075    14150 
   14316    14359    14229    14050    14019    14169    14277    14227 
   14260    14453    14462    14175    13927    14000    14288    14423 
   14131    13599    13455    14040    14824    15109    14879    14516 
   14158    13797    13602    13697    13899    14076    14349    14650 
   14647    14400    14307    14358    14241    13961    13757    13740 
   13938    14328    14662    14723    14548    14219    13930    13969 
   14265    14462    14353    13963    13558    13593    14114    14528 
   14517    14436    14412    14265    14268    14634    14729    14072 
   13385    13581    14343    14623    14216    13828    13868    14211 
   14605    14797    14631    14218    13842    13686    13768    14006 
   14234    14423    14617    14658    14458    14273    14218    13980 
   13517    13363    13821    14566    15129    15180    14735    14250 
   14004    13726    13375    13482    14104    14538    14420    14131 
   14083    14351    14777    14952    14544    13833    13452    13728 
   14409    14824    14507    13724    13220    13539    14532    15483 
   15736    15120    13988    13099    12938    13263    13717    14211 
   14563    14673    14739    14758    14559    14276    13994    13639 
   13478    13738    14107    14324    14466    14551    14634    14814 
   14821    14450    14110    14107    14141    13919    13575    13450 
   13682    14045    14376    14729    14918    14746    14488    14322 
   14019    13684    13666    13806    13747    13531    13536    14230 
   15506    16245    15641    14292    13298    13113    13520    14129 
   14544    14463    14081    13895    14079    14493    14810    14584 
   13842    13265    13340    13869    14426    14720    14644    14423 
   14378    14458    14409    14269    14337    14582    14459    13765 
   13124    13201    13959    14775    15014    14677    14324    14177 
   14025    14003    14257    14301    13949    13791    14118    14588 
   14974    15063    14481    13558    13234    13597    13932    14013 
   14056    14169    14500    14867    14721    14264    14200    14297 
   14052    13786    13776    13856    13965    14161    14650    15400 
   15596    14754    13705    13342    13502    13571    13470    13660 
   14277    14800    14759    14337    14077    14169    14241    14095 
   14264    14902    15091    14508    13890    13500    13379    13883 
   14602    14744    14451    14292    14422    14640    14604    14234 
   13856    13578    13238    13149    13759    14712    15260    15136 
   14523    13797    13417    13621    14154    14540    14639    14575 
   14412    14337    14447    14368    13896    13508    13537    13775 
   14092    14654    15315    15431    14624    13470    12984    13462 
   14114    14146    13801    13814    14320    14889    15160    15005 
   14470    13869    13616    13786    14146    14503    14615    14326 
   14027    14088    14254    14339    14436    14326    13981    14022 
   14551    14756    14281    13713    13481    13437    13578    14050 
   14642    15021    14959    14296    13500    13482    14353    15263 
   15329    14401    13359    13128    13482    13856    14318    14823 
   15010    14851    14450    13983    13879    14193    14405    14091 
   13401    13100    13782    14879    15426    15261    14789    14355 
   14014    13618    13302    13274    13452    13857    14505    15014 
   15169    15070    14584    13806    13331    13474    14011    14480 
   14516    14215    13925    13842    14003    14335    14716    14964 
   14774    14137    13699    13913    14412    14740    14675    14076 
   13296    13123    13633    14019    14034    14193    14442    14524 
   14840    15337    15349    14895    14281    13424    12792    13234 
   14430    15219    15144    14455    13531    13032    13443    14145 
   14297    14148    14314    14643    14719    14625    14538    14251 
   13636    13113    13167    13698    14270    14559    14611    14818 
   15141    15045    14565    14197    14077    14084    14041    13809 
   13622    13787    14238    14688    14840    14542    13903    13217 
   13012    13628    14480    14847    14872    14696    14215    13891 
   14073    14350    14557    14987    15371    15076    14231    13554 
   13333    13297    13311    13626    14272    14854    15033    14721 
   14153    13783    13709    13691    13724    13938    14277    14625 
   14786    14569    14308    14496    14797    14567    13942    13506 
   13446    13556    13717    14076    14742    15354    15357    14692 
   13930    13660    13761    13722    13614    13842    14380    14870 
   14890    14310    13690    13687    14262    14908    15057    14430 
   13566    13282    13590    14017    14208    14077    14037    14400 
   14728    14607    14315    14212    14137    13830    13603    13917 
   14474    14512    13960    13725    14395    15187    15097    14373 
   13933    14029    14173    14061    13953    14137    14411    14332 
   13938    13694    13714    13932    14482    15129    15252    14729 
   14075    13732    13672    13617    13558    13807    14322    14634 
   14655    14624    14607    14608    14494    14158    14044    14407 
   14585    14172    13797    13917    14092    13915    13635    13664 
   14065    14666    15217    15237    14574    13888    13630    13502 
   13231    12997    13240    13973    14581    14793    14912    15009 
   14937    14750    14527    14218    13946    13940    14058    13976 
   13811    13911    14215    14391    14349    14355    14678    15107 
   15037    14188    13119    12671    12989    13568    14045    14501 
   15078    15527    15442    14955    14659    14609    14339    13860 
   13505    13325    13401    13815    14373    14847    14971    14543 
   13826    13302    13312    13886    14396    14214    13743    13733 
   14288    14916    14936    14307    13825    13883    14069    14210 
   14462    14681    14598    14258    14031    14235    14544    14476 
   14245    14019    13689    13666    14073    14311    14261    14208 
   14121    14011    14058    14181    14283    14513    14746    14611 
   14270    14243    14467    14432    14139    14068    14239    14247 
   14031    13898    14064    14403    14449    13954    13452    13549 
   14068    14584    15033    15144    14489    13589    13365    13682 
   13945    14191    14590    14970    15049    14720    14250    13977 
   13817    13643    13701    14058    14355    14416    14334    14204 
   14253    14581    14764    14384    13724    13397    13576    14000 
   14366    14418    14208    14100    14094    14003    14089    14513 
   14813    14652    14420    14473    14481    14108    13574    13315 
   13498    13898    14285    14601    14744    14715    14648    14532 
   14193    13602    13178    13471    14381    15091    15066    14666 
   14423    14305    14154    14091    14110    13957    13647    13427 
   13531    14089    14742    14871    14548    14405    14621    14705 
   14322    13837    13652    13679    13779    13991    14218    14347 
   14470    14628    14779    14913    14922    14743    14328    13644 
   13035    12881    13096    13529    14118    14655    14893    14812 
   14679    14555    14165    13622    13468    13844    14369    14650 
   14642    14640    14758    14689    14386    14180    14126    14153 
   14224    14000    13559    13643    14287    14671    14451    14041 
   13871    13980    14203    14331    14251    14203    14342    14312 
   13972    13873    14334    14816    14787    14450    14054    13598 
   13427    13801    14229    14260    14238    14615    15145    15217 
   14627    13888    13620    13752    13851    13825    13799    13879 
   14139    14385    14312    14068    14106    14435    14624    14561 
   14482    14478    14488    14438    14334    14297    14301    14100 
   13626    13185    13220    13802    14488    14931    15175    15129 
   14613    13911    13467    13452    13747    14006    14202    14466 
   14450    13973    13632    13888    14416    14679    14612    14445 
   14343    14376    14459    14415    14207    14029    14014    14067 
   14162    14345    14426    14288    14058    13794    13583    13582 
   13740    13981    14345    14674    14725    14557    14427    14403 
   14319    14165    14208    14490    14574    14353    14260    14285 
   14053    13763    13791    14002    14183    14331    14320    14199 
   14284    14516    14598    14457    14156    13887    13873    14081 
   14300    14397    14341    14154    14014    14131    14418    14470 
   14068    13504    13254    13458    13894    14297    14594    14820 
   14887    14602    14056    13759    13923    14146    14176    14237 
   14435    14574    14559    14476    14365    14237    14123    13971 
   13834    13954    14318    14540    14422    14260    14339    14474 
   14424    14328    14365    14443    14432    14320    14107    13906 
   13883    13856    13656    13722    14269    14674    14555    14203 
   13944    14022    14368    14420    14061    13906    14215    14585 
   14636    14300    13775    13405    13338    13420    13466    13589 
   13999    14519    14856    15040    15132    15006    14574    13936 
   13394    13279    13535    13784    13922    14192    14701    15124 
   15022    14508    14130    14110    14343    14723    15051    15145 
   15014    14677    14258    14096    14257    14347    14141    13864 
   13855    14242    14786    15051    14906    14674    14616    14530 
   14247    14061    14092    14067    14075    14326    14482    14264 
   13946    13814    13898    14229    14717    15037    14994    14666 
   14257    13998    13860    13536    13009    12645    12675    13026 
   13535    13927    14004    14089    14581    15223    15460    15072 
   14253    13459    13131    13300    13527    13521    13624    14177 
   14893    15314    15271    14824    14214    13694    13321    13082 
   13034    13208    13624    14242    14847    15137    14704    13420 
   11983    11242    11379    12136    13177    14173    14955    15498 
   15664    15299    14555    13882    13648    13851    14373    15138 
   15773    15950    15894    15768    15354    14782    14515    14752 
   15437    16308    16926    17070    16671    15606    14138    12996 
   12675    13031    13728    14616    15377    15499    14871    13872 
   13035    12658    12525    12374    12421    12915    13524    13622 
   13169    12735    12606    12540    12415    12434    12627    12808 
   12981    13319    13927    14817    15754    16224    15924    15159 
   14550    14418    14540    14597    14489    14293    14272    14744 
   15626    16444    16904    16985    16681    16043    15299    14728 
   14377    14065    13703    13375    13239    13347    13536    13666 
   13757    13683    13232    12553    12025    11881    12251    13093 
   14027    14677    14894    14629    14045    13524    13327    13479 
   13867    14318    14778    15255    15600    15715    15790    15924 
   15755    14966    13844    12941    12505    12610    13221    14049 
   14910    15817    16371    16105    15253    14241    13298    12926 
   13420    14126    14295    14034    13717    13389    13072    12874 
   12883    13092    13305    13406    13518    13609    13554    13554 
   13899    14608    15554    16470    16915    16648    15805    14782 
   14033    13784    13898    14102    14233    14265    14257    14300 
   14323    14092    13562    12954    12529    12388    12509    12910 
   13582    14354    15010    15385    15426    15195    14763    14204 
   13603    13004    12513    12383    12847    13876    15066    15996 
   16573    16765    16487    15961    15498    15066    14503    13720 
   12868    12534    13058    13922    14581    15053    15302    15124 
   14690    14337    13961    13228    12347    12005    12474    13556 
   14985    16195    16645    16487    15967    14827    13196    11950 
   11634    12074    12915    13919    14959    15869    16429    16568 
   16336    15777    15055    14323    13562    12914    12780    13315 
   14233    15148    15695    15616    15007    14130    13063    11905 
   11037    10797    11136    11800    12537    13266    14137    15063 
   15581    15538    15375    15383    15225    14635    14053    14049 
   14590    15259    15666    15566    15144    14912    15021    15252 
   15415    15407    15159    14670    14145    13852    13757    13686 
   13487    13049    12594    12480    12680    13061    13601    14014 
   14003    13786    13666    13701    14027    14670    15233    15375 
   15053    14253    13153    12322    12144    12436    12995    13914 
   15003    15735    15869    15484    14770    14122    13795    13622 
   13586    13860    14234    14497    14827    15211    15390    15398 
   15396    15319    15091    14774    14382    13921    13684    13930 
   14254    14193    14092    14388    14839    15126    15257    15133 
   14609    13790    12876    12108    11746    11863    12376    13204 
   14183    14936    15078    14605    13940    13529    13714    14585 
   15599    15909    15331    14424    13717    13309    13140    13257 
   13571    13817    13941    14129    14574    15333    16081    16443 
   16445    16038    15021    13872    13412    13741    14347    14686 
   14430    13865    13662    13910    14079    13873    13533    13308 
   13177    13081    13008    12899    12800    12835    12988    13150 
   13304    13575    14046    14615    15161    15660    16104    16424 
   16371    15722    14688    13792    13329    13300    13684    14377 
   15047    15294    14875    13949    13117    12838    12958    13107 
   13282    13730    14446    15030    15132    14953    14998    15446 
   16147    16748    16730    16020    15205    14669    14273    13868 
   13460    13161    13030    12835    12430    12086    12082    12472 
   13230    14121    14778    15117    15187    14845    14075    13197 
   12452    11892    11642    11886    12691    13956    15345    16422 
   17004    17130    16939    16663    16281    15525    14508    13690 
   13217    12931    12722    12530    12378    12600    13409    14331 
   14821    14914    14710    14173    13647    13581    14014    14820 
   15626    15869    15561    15187    14856    14462    14110    13851 
   13753    13929    14053    13794    13424    13331    13609    14170 
   14786    15175    15094    14470    13639    13113    13008    13105 
   13309    13609    13987    14465    14871    14926    14644    14300 
   14153    14235    14332    14346    14463    14746    14941    14825 
   14489    14280    14373    14511    14446    14326    14272    14233 
   14227    14158    13922    13710    13676    13776    14041    14315 
   14281    14002    13664    13217    12796    12766    13234    13977 
   14677    15107    15407    15788    16017    15754    15097    14430 
   13984    13687    13421    13203    13076    13090    13286    13555 
   13783    14056    14415    14706    14917    15196    15445    15410 
   15099    14628    13996    13387    13198    13500    13925    14180 
   14262    14224    14079    13884    13740    13684    13687    13674 
   13652    13736    13959    14251    14578    14905    15130    15202 
   15182    15176    15147    14925    14501    14076    13778    13578 
   13502    13680    14179    14810    15097    14744    14083    13643 
   13603    13805    14040    14210    14260    14197    14135    14169 
   14312    14480    14617    14817    15043    15014    14617    14058 
   13517    13074    12923    13130    13396    13477    13390    13220 
   13144    13381    13926    14515    14906    14985    14685    14133 
   13621    13405    13683    14434    15268    15778    15849    15539 
   14990    14494    14316    14405    14517    14489    14347    14285 
   14445    14667    14731    14740    14854    14885    14609    14126 
   13663    13383    13338    13371    13313    13243    13340    13572 
   13717    13649    13502    13493    13659    13818    13895    14027 
   14241    14432    14607    14808    14994    15018    14736    14266 
   13977    14053    14283    14372    14283    14212    14354    14629 
   14840    14994    15036    14769    14341    14048    13895    13841 
   13894    13999    14215    14523    14702    14720    14621    14361 
   14073    13907    13795    13644    13466    13336    13362    13670 
   14203    14644    14769    14661    14424    13936    13193    12599 
   12530    12992    13811    14704    15410    15916    16287    16444 
   16231    15622    14829    14080    13436    13020    13030    13448 
   14027    14457    14496    14118    13621    13320    13243    13398 
   13829    14305    14536    14526    14451    14419    14440    14504 
   14596    14623    14407    13936    13452    13147    13055    13220 
   13618    14076    14481    14767    14836    14778    14767    14751 
   14661    14562    14451    14308    14231    14334    14598    14854 
   14912    14740    14440    14014    13440    12946    12818    13138 
   13697    14118    14304    14418    14482    14499    14581    14662 
   14517    14179    13922    13888    14014    14161    14231    14310 
   14607    15068    15303    15087    14573    14027    13645    13544 
   13819    14354    14654    14454    14123    13987    13991    14087 
   14242    14372    14451    14388    14108    13799    13668    13713 
   13815    13879    13986    14269    14566    14675    14771    14918 
   14759    14219    13617    13127    12834    12861    13213    13740 
   14239    14558    14650    14602    14609    14783    15018    15115 
   14980    14634    14137    13591    13154    13001    13252    13873 
   14596    15099    15287    15244    15084    14914    14721    14426 
   14100    13959    14073    14192    14033    13721    13626    13837 
   14134    14362    14474    14404    14133    13718    13367    13370 
   13724    14137    14396    14472    14453    14461    14503    14470 
