Origin Time       2025/03/30 10:18:00
Lat.              34.667
Long.             140.825
Depth. (km)       69
Mag.              4.9
Station Code      CHB026
Station Lat.      35.3858
Station Long.     140.2404
Station Height(m) 46
Record Time       2025/03/30 10:19:03
Sampling Freq(Hz) 100Hz
Duration Time(s)  60
Dir.              U-D
Scale Factor      7845(gal)/8223790
Max. Acc. (gal)   1.131
Last Correction   2025/03/30 10:19:02
Memo.             
[...]
   11842    11823    11711    11749    11794    11654    11551    11658 
   11759    11830    12019    12101    11939    11834    11811    11658 
   11411    11214    11202    11372    11580    11662    11556    11572 
   11834    11940    11956    12043    11908    11637    11411    11230 
   11314    11643    11924    11970    11799    11715    11788    11765 
   11677    11556    11365    11345    11526    11668    11730    11718 
   11723    11847    11830    11622    11529    11479    11426    11626 
   11857    11832    11854    11988    11931    11819    11843    11805 
   11632    11448    11348    11410    11603    11830    11952    11928 
   11878    11751    11516    11392    11304    11142    11236    11568 
   11699    11762    11993    12091    11955    11763    11538    11422 
   11535    11630    11576    11588    11603    11523    11695    12035 
   12052    11855    11728    11580    11407    11365    11416    11460 
   11507    11561    11654    11828    11989    12058    11973    11727 
   11535    11473    11477    11597    11719    11803    11961    11977 
   11838    11780    11638    11457    11488    11491    11475    11665 
   11724    11674    11794    11801    11692    11682    11638    11562 
   11527    11495    11603    11815    11796    11596    11556    11657 
   11734    11750    11695    11641    11630    11576    11479    11516 
   11711    11830    11882    11993    11923    11637    11565    11778 
   11928    11861    11661    11537    11588    11643    11564    11452 
   11507    11719    11854    11824    11691    11457    11288    11425 
   11592    11488    11502    11753    11959    12205    12307    12017 
   11766    11693    11507    11389    11545    11696    11653    11569 
   11560    11511    11454    11578    11786    11988    12109    11862 
   11572    11661    11704    11542    11464    11435    11515    11759 
   11873    11801    11723    11581    11412    11457    11638    11688 
   11612    11484    11371    11426    11560    11577    11616    11811 
   11948    11866    11682    11533    11427    11407    11564    11835 
   12029    12010    11861    11790    11793    11724    11558    11361 
   11326    11502    11678    11862    12019    11898    11723    11728 
   11638    11469    11469    11589    11873    12182    12102    11781 
   11569    11516    11639    11782    11816    11688    11388    11298 
   11495    11693    11966    12055    11750    11595    11646    11508 
   11334    11406    11635    11776    11782    11784    11815    11803 
   11662    11426    11313    11423    11624    11819    11932    11881 
   11705    11503    11384    11495    11765    11956    12039    11962 
   11634    11350    11368    11524    11634    11669    11669    11599 
   11454    11404    11480    11569    11639    11697    11788    11851 
   11878    11977    11990    11844    11785    11769    11618    11468 
   11422    11445    11576    11720    11716    11666    11674    11684 
   11708    11746    11735    11673    11600    11524    11481    11568 
   11789    11982    12019    11956    11827    11614    11429    11361 
   11416    11588    11772    11801    11700    11595    11520    11554 
   11701    11843    11981    12101    12104    11965    11670    11329 
   11198    11411    11724    11782    11727    11668    11446    11365 
   11448    11404    11512    11709    11761    11917    11944    11659 
   11542    11549    11443    11572    11840    11874    11870    11828 
   11665    11670    11732    11624    11603    11747    11815    11755 
   11669    11560    11433    11481    11720    11851    11834    11832 
   11780    11701    11662    11437    11221    11441    11735    11747 
   11753    11724    11583    11595    11668    11638    11693    11751 
   11745    11844    11923    11865    11784    11705    11620    11566 
   11562    11538    11496    11510    11446    11317    11458    11799 
   11929    11907    11880    11794    11808    11821    11622    11515 
   11630    11784    11982    11994    11701    11503    11470    11353 
   11283    11457    11745    11942    11977    11848    11699    11755 
   11790    11543    11379    11441    11519    11711    11859    11673 
   11534    11616    11638    11769    11908    11739    11654    11703 
   11560    11454    11524    11614    11789    11981    11885    11655 
   11654    11668    11503    11404    11404    11529    11816    11928 
   11870    11916    11881    11704    11657    11709    11693    11678 
   11657    11491    11340    11395    11466    11520    11734    11874 
   11754    11682    11718    11615    11508    11584    11786    12006 
   12048    11942    11893    11813    11612    11418    11290    11349 
   11589    11703    11596    11477    11452    11558    11777    11844 
   11719    11761    11969    11961    11777    11730    11754    11691 
   11658    11661    11632    11735    11885    11865    11784    11670 
   11514    11496    11632    11658    11446    11275    11337    11407 
   11406    11546    11736    11797    11902    12021    11900    11740 
   11691    11557    11479    11620    11711    11751    11929    11978 
   11840    11715    11553    11512    11591    11514    11481    11596 
   11619    11672    11804    11811    11815    11813    11653    11574 
   11566    11404    11303    11367    11535    11812    11924    11815 
   11835    11886    11726    11557    11507    11535    11666    11801 
   11762    11672    11724    11758    11691    11727    11751    11578 
   11484    11565    11595    11628    11674    11645    11800    12015 
   11862    11642    11589    11481    11491    11616    11543    11539 
   11817    12009    11946    11921    11973    11778    11483    11395 
   11331    11314    11470    11583    11723    11929    11839    11554 
   11469    11553    11674    11840    11966    11936    11844    11803 
   11662    11415    11345    11460    11554    11672    11765    11738 
   11799    11842    11686    11649    11707    11578    11488    11533 
   11460    11442    11680    11836    11828    11890    11848    11658 
   11576    11518    11529    11724    11732    11615    11701    11715 
   11659    11757    11749    11705    11816    11757    11614    11703 
   11835    11920    12001    11844    11477    11307    11388    11439 
   11488    11616    11647    11624    11622    11560    11581    11736 
   11824    11776    11646    11573    11624    11670    11727    11800 
   11828    11971    12121    11994    11786    11665    11514    11411 
   11449    11553    11684    11753    11688    11599    11565    11560 
   11534    11460    11425    11437    11464    11624    11816    11812 
   11720    11672    11595    11538    11619    11697    11662    11716 
   11788    11668    11635    11712    11619    11595    11715    11716 
   11751    11819    11677    11569    11685    11826    11912    11862 
   11651    11577    11657    11584    11468    11531    11649    11745 
   11828    11750    11614    11649    11676    11643    11726    11789 
   11812    11859    11727    11515    11445    11356    11311    11480 
   11624    11649    11708    11808    11912    11969    11911    11784 
   11631    11534    11565    11624    11676    11789    11911    11969 
   11977    11928    11890    11965    11985    11823    11696    11657 
   11604    11592    11533    11434    11516    11645    11669    11762 
   11796    11655    11661    11726    11568    11507    11628    11611 
   11653    11782    11624    11452    11565    11643    11615    11572 
   11381    11221    11277    11354    11453    11657    11789    11831 
   11804    11704    11685    11718    11718    11753    11731    11666 
   11676    11632    11556    11581    11556    11476    11560    11720 
   11755    11793    11935    11951    11880    11965    11983    11816 
   11651    11412    11227    11403    11676    11813    11929    11932 
   11858    11835    11677    11503    11519    11526    11549    11650 
   11632    11592    11618    11596    11662    11861    11861    11680 
   11646    11647    11564    11581    11601    11483    11426    11465 
   11415    11437    11716    11882    11797    11800    11732    11583 
   11786    11969    11813    11800    11832    11697    11797    11943 
   11763    11743    11915    11792    11659    11745    11719    11673 
   11738    11668    11557    11628    11707    11631    11479    11427 
   11520    11665    11785    11831    11828    11724    11421    11160 
   11221    11383    11394    11398    11514    11672    11804    11831 
   11778    11742    11716    11662    11649    11765    11892    11907 
   11900    11898    11854    11824    11750    11605    11558    11591 
   11620    11715    11778    11672    11577    11638    11688    11638 
   11570    11520    11514    11605    11730    11809    11896    11924 
   11774    11561    11465    11499    11566    11626    11704    11766 
   11789    11797    11763    11680    11604    11593    11589    11485 
   11421    11477    11470    11484    11627    11703    11763    11925 
   11896    11627    11425    11356    11453    11668    11732    11650 
   11576    11558    11653    11794    11869    11915    12002    12063 
   11971    11804    11693    11618    11557    11554    11581    11587 
   11608    11646    11628    11661    11826    11913    11842    11727 
   11580    11477    11499    11543    11600    11726    11809    11812 
   11823    11701    11445    11360    11416    11439    11535    11651 
   11604    11520    11558    11628    11727    11869    11805    11581 
   11499    11485    11538    11696    11732    11805    12023    11990 
   11812    11859    11928    11896    11959    12012    11919    11853 
   11801    11697    11705    11749    11573    11348    11317    11329 
   11317    11416    11550    11564    11445    11279    11236    11318 
   11371    11441    11568    11659    11703    11643    11596    11759 
   11967    12058    12108    12077    11927    11830    11796    11651 
   11496    11449    11453    11666    12037    12217    12251    12202 
   11974    11734    11587    11488    11487    11585    11713    11773 
   11749    11692    11578    11439    11352    11352    11421    11529 
   11618    11616    11630    11686    11708    11789    11893    11896 
   11773    11588    11491    11427    11445    11718    11997    12100 
   12081    11877    11623    11446    11286    11279    11426    11538 
   11654    11781    11846    11820    11703    11654    11678    11600 
   11565    11631    11568    11460    11472    11488    11493    11560 
   11653    11695    11724    11819    11807    11682    11700    11700 
   11588    11654    11777    11809    11834    11672    11406    11341 
   11394    11464    11624    11885    12079    12109    12074    11916 
   11677    11657    11738    11727    11836    11952    11913    11978 
   12005    11735    11480    11425    11433    11468    11493    11411 
   11261    11271    11475    11649    11765    11755    11550    11472 
   11520    11387    11300    11469    11628    11703    11831    11965 
   11967    11866    11820    11867    11894    11854    11695    11445 
   11356    11472    11646    11809    11866    11840    11823    11754 
   11686    11709    11700    11712    11847    11881    11774    11685 
   11539    11384    11396    11423    11373    11458    11607    11631 
   11704    11851    11907    12024    12221    12259    12187    12117 
   11992    11862    11803    11773    11693    11511    11308    11205 
   11198    11226    11271    11323    11292    11227    11308    11448 
   11446    11330    11188    11122    11257    11419    11439    11537 
   11715    11824    11929    12000    12060    12178    12145    11944 
   11877    12008    12109    12067    12055    12179    12206    12069 
   11909    11726    11603    11622    11707    11773    11742    11651 
   11592    11643    11739    11705    11689    11734    11616    11493 
   11502    11466    11514    11724    11797    11696    11560    11348 
   11188    11184    11163    11134    11223    11318    11421    11610 
   11750    11797    11862    11928    11951    12015    12094    12031 
   11862    11707    11612    11592    11550    11477    11458    11450 
   11438    11539    11722    11843    11894    11877    11750    11583 
   11450    11279    11175    11325    11469    11483    11597    11762 
   11915    12077    12050    11855    11742    11716    11739    11815 
   11839    11866    11925    11853    11727    11641    11561    11616 
   11782    11804    11666    11533    11398    11259    11290    11439 
   11502    11519    11542    11538    11654    11875    12016    12120 
   12229    12198    12004    11796    11686    11664    11709    11790 
   11839    11905    11940    11739    11421    11173    10930    10756 
   10771    10930    11165    11448    11862    12326    12559    12590 
   12425    11966    11550    11406    11376    11534    11881    12090 
   12155    12243    12181    11934    11782    11651    11396    11205 
   11072    10980    11099    11284    11337    11398    11507    11520 
   11448    11416    11358    11248    11253    11342    11539    11919 
   12212    12371    12532    12511    12309    12109    11898    11727 
   11615    11515    11543    11689    11827    11989    12160    12237 
   12189    11931    11470    11106    10955    10871    10937    11213 
   11488    11716    11940    11983    11807    11581    11272    10982 
   11001    11184    11387    11824    12355    12683    12857    12845 
   12587    12293    12108    11947    11797    11708    11535    11215 
   10995    10993    11091    11244    11353    11314    11196    11059 
   10963    10972    11041    11102    11090    11133    11367    11614 
   11834    12074    12235    12343    12330    12137    11981    11902 
   11805    11797    11850    11835    11839    11843    11823    11924 
   12096    12240    12340    12256    12064    11898    11681    11503 
   11423    11361    11341    11275    11146    11068    10959    10883 
   10943    10951    11022    11313    11483    11516    11705    11816 
   11751    11821    11916    11889    11986    12137    12179    12290 
   12406    12363    12356    12379    12210    11959    11812    11641 
   11416    11330    11307    11284    11406    11524    11512    11583 
   11695    11697    11738    11830    11815    11767    11740    11618 
   11487    11480    11533    11628    11700    11624    11489    11403 
   11391    11462    11542    11615    11686    11673    11634    11651 
   11622    11531    11439    11326    11304    11333    11237    11172 
   11227    11287    11395    11549    11695    11894    12036    12005 
   12031    12170    12229    12244    12275    12283    12256    12094 
   11850    11759    11750    11689    11761    11931    11961    11938 
   11912    11780    11701    11672    11515    11421    11445    11369 
   11322    11442    11543    11597    11677    11678    11616    11603 
   11570    11516    11574    11623    11556    11560    11605    11530 
   11464    11507    11556    11573    11591    11641    11726    11763 
   11668    11481    11308    11153    11047    11033    11072    11186 
   11372    11558    11695    11738    11742    11893    12152    12306 
   12407    12465    12394    12367    12366    12237    12140    12032 
   11846    11828    11907    11905    11929    11893    11723    11635 
   11627    11512    11384    11352    11345    11331    11257    11098 
   11010    11038    11022    10957    10980    11049    11087    11254 
   11545    11745    11924    12114    12152    12179    12213    11998 
   11765    11757    11739    11666    11743    11931    12090    12141 
   12016    11805    11669    11643    11712    11830    11951    11973 
   11886    11927    12042    11938    11743    11673    11674    11712 
   11765    11716    11557    11493    11529    11368    11134    11025 
   10913    10953    11153    11256    11381    11518    11553    11708 
   11853    11699    11473    11367    11383    11587    11821    12021 
   12332    12561    12590    12671    12695    12452    12154    11870 
   11607    11507    11468    11383    11345    11333    11210    11043 
   11005    11057    11148    11246    11225    11167    11233    11352 
   11438    11499    11588    11728    11850    11971    12098    12137 
   12145    12160    12158    12167    12029    11661    11318    11206 
   11227    11272    11426    11685    11927    12127    12187    12077 
   11963    11836    11639    11550    11550    11458    11419    11496 
   11568    11747    12023    12183    12252    12302    12258    12168 
   12147    12056    11836    11593    11314    11043    10893    10875 
   10959    11036    11075    11221    11394    11407    11402    11399 
   11298    11229    11184    11172    11352    11553    11646    11857 
   12093    12116    12109    12129    11998    11848    11765    11688 
   11735    11900    12039    12195    12375    12398    12299    12294 
   12302    12178    12039    11916    11743    11619    11566    11497 
   11437    11412    11349    11213    11125    11140    11151    11240 
   11502    11684    11685    11723    11730    11610    11576    11576 
   11484    11516    11610    11553    11573    11615    11385    11229 
   11299    11245    11232    11392    11464    11597    11846    11925 
   11965    12001    11885    11866    12004    12087    12150    12232 
   12291    12326    12299    12143    11948    11817    11649    11522 
   11519    11457    11396    11458    11477    11422    11360    11277 
   11248    11292    11272    11182    11141    11202    11321    11456 
   11605    11666    11643    11664    11670    11630    11664    11739 
   11819    12020    12258    12328    12302    12302    12249    12187 
   12236    12212    12029    11935    11904    11781    11720    11686 
   11577    11619    11645    11448    11402    11433    11302    11323 
   11399    11314    11326    11331    11314    11510    11570    11360 
   11238    11137    10993    10987    11034    11138    11408    11572 
   11604    11803    11948    11927    11983    12023    12020    12105 
   12140    12104    12150    12155    12047    12032    12032    11909 
   11832    11759    11616    11577    11572    11523    11553    11624 
   11677    11708    11670    11634    11678    11703    11677    11713 
   11712    11545    11437    11496    11587    11684    11708    11615 
   11556    11506    11333    11169    11202    11322    11408    11523 
   11624    11685    11823    11919    11917    11969    11994    11915 
   11885    11967    12017    11985    11996    12001    11934    11853 
   11732    11573    11434    11326    11268    11280    11388    11497 
   11515    11549    11568    11530    11556    11597    11603    11655 
   11747    11840    11951    12067    12127    12104    12042    11951 
   11793    11589    11449    11380    11307    11294    11342    11360 
   11421    11531    11592    11680    11786    11796    11786    11774 
   11701    11628    11570    11526    11538    11572    11589    11564 
   11481    11411    11427    11542    11674    11765    11870    11916 
   11882    11938    12012    11997    11969    11886    11774    11763 
   11734    11569    11433    11329    11140    11082    11271    11442 
