Origin Time       2025/03/30 10:18:00
Lat.              34.667
Long.             140.825
Depth. (km)       69
Mag.              4.9
Station Code      CHB011
Station Lat.      35.5877
Station Long.     140.4971
Station Height(m) 2
Record Time       2025/03/30 10:19:05
Sampling Freq(Hz) 100Hz
Duration Time(s)  60
Dir.              E-W
Scale Factor      7845(gal)/8223790
Max. Acc. (gal)   1.444
Last Correction   2025/03/30 10:19:04
Memo.             
[...]
     680      695      762      830      823      795      805      812 
     796      774      769      783      785      778      784      797 
     812      815      818      820      793      768      743      714 
     753      837      861      843      832      800      741      687 
     687      751      803      793      783      791      799      818 
     824      793      764      758      756      742      718      730 
     795      843      847      826      776      723      720      756 
     772      772      773      768      769      769      747      756 
     808      834      816      785      753      756      811      839 
     783      708      715      791      851      858      830      787 
     735      708      726      778      804      754      689      708 
     784      824      818      799      766      741      774      826 
     801      741      762      847      850      805      827      839 
     777      733      737      739      743      789      858      862 
     812      785      764      731      743      803      853      818 
     710      646      673      754      828      845      823      780 
     738      745      735      675      662      727      797      839 
     866      891      899      855      781      747      781      831 
     826      735      673      733      824      855      845      816 
     760      707      720      772      781      750      697      639 
     646      718      778      824      882      913      874      789 
     722      703      706      724      769      800      815      830 
     843      859      822      716      665      710      769      788 
     796      830      843      807      773      805      882      896 
     811      703      664      716      780      795      823      877 
     853      745      711      800      868      823      757      743 
     742      731      739      772      770      715      720      791 
     777      747      783      801      784      770      793      843 
     858      793      699      699      765      780      781      801 
     811      815      799      737      680      699      791      881 
     861      731      654      699      777      831      858      855 
     810      746      692      657      654      672      719      841 
     969      970      878      824      791      724      697      762 
     846      849      774      703      685      741      886     1019 
     989      873      811      764      708      703      712      708 
     743      787      800      822      841      832      784      680 
     626      720      831      791      675      646      684      733 
     832      911      877      808      747      703      729      792 
     805      799      850      922      954      935      876      800 
     730      672      668      739      797      770      723      704 
     696      710      761      828      842      762      680      692 
     743      747      758      807      796      739      741      792 
     818      772      730      796      896      945      947      886 
     800      758      739      746      791      818      803      757 
     675      641      741      861      872      808      733      664 
     635      676      762      804      738      680      754      872 
     911      891      835      751      697      724      791      846 
     886      872      804      811      881      864      795      799 
     842      835      770      685      654      676      648      626 
     724      849      931      974      853      630      589      719 
     769      706      669      714      805      893      889      750 
     598      584      707      842      928      982      993      943 
     865      814      823      847      823      804      835      830 
     758      724      770      807      768      706      688      699 
     703      734      770      733      664      653      650      634 
     662      718      770      827      824      758      754      826 
     857      845      870      893      839      758      734      787 
     873      908      853      765      729      783      850      847 
     820      795      757      770      827      864      855      746 
     573      477      510      635      785      857      832      808 
     845      877      839      776      738      699      669      703 
     785      855      909      939      897      800      769      843 
     913      868      747      695      745      826      881      876 
     810      720      645      588      568      607      665      697 
     727      761      818      886      885      789      702      729 
     834      886      832      714      603      572      675      888 
    1039      988      841      765      787      845      888      878 
     811      739      723      773      818      773      720      754 
     804      842      899      854      677      560      580      665 
     750      753      679      675      793      936      965      854 
     747      747      841      923      885      772      665      615 
     689      800      837      873      913      896      858      791 
     672      637      739      882      953      858      664      602 
     707      810      869      915      882      796      765      785 
     753      657      604      627      675      715      750      762 
     753      758      800      855      862      808      762      747 
     765      853      924      841      679      625      672      707 
     726      791      880      889      837      866      953      945 
     853      804      832      838      769      734      769      772 
     707      646      696      870      976      861      657      534 
     502      568      733      908      981      868      685      656 
     738      801      839      851      841      811      772      773 
     816      818      764      773      886      938      815      638 
     545      550      672      832      881      830      769      734 
     708      680      670      700      780      870      888      870 
     908      934      892      865      876      866      835      796 
     734      670      699      847      967      945      851      764 
     697      703      783      826      765      699      746      861 
     908      822      676      603      638      707      711      657 
     635      683      778      861      882      854      733      552 
     510      645      750      757      795      866      904      976 
    1071     1042      877      704      634      716      864      889 
     773      689      743      903     1024      949      742      627 
     670      703      634      630      745      796      743      672 
     642      700      789      810      792      826      913      940 
     896      907      974      977      891      795      714      658 
     687      745      715      653      685      842      966      899 
     788      807      851      826      726      565      448      467 
     542      553      550      662      857      981      978      946 
     942      936      923      873      764      645      606      723 
     882      899      866      892      861      774      707      618 
     584      710      850      862      774      649      614      757 
     891      847      741      688      656      662      773      940 
    1023      900      688      654      751      818      931     1020 
     907      724      666      688      716      803      899      846 
     695      657      778      912      949      919      832      692 
     664      819      903      776      642      646      702      724 
     724      714      720      781      828      818      800      822 
     870      893      851      753      650      639      731      818 
     862      895      862      734      621      627      718      820 
     866      807      729      764      858      886      866      850 
     803      706      641      675      724      737      807      909 
     909      838      780      738      711      683      629      584 
     599      653      712      816      918      874      785      846 
     959     1004     1048     1031      832      596      540      650 
     754      777      803      884      911      797      670      665 
     704      708      715      720      722      730      730      783 
     903      940      814      658      612      621      670      830 
     978      951      800      708      734      792      838      880 
     855      787      834      936      881      773      827      932 
     874      661      471      432      538      665      719      787 
     932     1008      939      864      830      750      660      666 
     756      865      981     1062     1024      864      681      583 
     619      754      870      884      827      750      684      638 
     621      662      711      711      737      808      811      760 
     753      746      724      754      756      681      654      737 
     866      961      997      990      895      719      641      746 
     873      885      859      896      939      908      828      753 
     693      677      719      773      818      830      749      633 
     589      576      561      595      642      673      733      780 
     812      916     1054     1094      997      796      592      573 
     757      939      999      962      918      897      849      756 
     623      552      633      727      724      696      657      622 
     657      803      988     1012      845      687      623      634 
     696      766      877     1003     1011      877      704      648 
     831     1058      997      719      510      427      484      706 
     931      992      919      820      747      710      708      696 
     666      679      653      561      585      711      788      823 
     830      834      866      881      897      908      877      862 
     834      764      778      870      927      920      881      897 
     951      949      927      859      684      556      571      656 
     778      868      866      843      831      787      710      661 
     658      672      693      681      610      571      606      691 
     824      892      785      622      550      592      708      841 
     950      997      953      885      874      854      764      720 
     791      862      841      792      795      795      749      776 
     881      912      837      719      587      513      604      774 
     858      878      866      792      731      774      881      927 
     857      756      689      664      714      804      824      773 
     729      700      696      793      950      993      891      827 
     881      935      885      784      760      812      831      778 
     684      604      607      676      724      719      697      712 
     745      724      727      849      935      842      720      729 
     793      791      730      711      737      708      643      646 
     662      665      765      909      993     1011     1013     1023 
     945      799      716      734      815      805      707      746 
     868      896      873      900      965      947      885      877 
     851      824      847      865      874      877      868      919 
     973      901      780      697      589      525      679      928 
     994      891      797      708      573      526      629      733 
     789      811      781      796      870      865      772      708 
     729      778      768      735      804      892      874      804 
     737      654      591      607      710      812      810      688 
     552      499      554      648      621      434      340      460 
     567      567      633      793      901      930      994     1116 
    1170     1138     1138     1147     1086     1013      927      864 
    1001     1167     1069      934      930      841      754      824 
     769      503      357      337      209      112      257      460 
     472      326      198      176      252      363      388      318 
     309      403      513      695      985     1174     1177     1188 
    1263     1305     1339     1385     1387     1383     1389     1335 
    1220     1075      891      689      565      556      604      610 
     534      464      477      544      573      480      255       12 
     -24      259      666     1009     1309     1547     1622     1563 
    1497     1475     1383     1132      865      776      878     1050 
    1156     1162     1075      909      789      824      831      585 
     299      271      309      234      226      295      286      189 
      99      153      334      454      454      450      434      305 
     152      155      299      498      747     1093     1456     1601 
    1507     1451     1520     1547     1479     1428     1429     1387 
    1260     1117      965      787      679      727      858      919 
     854      708      567      487      459      473      534      602 
     638      621      572      572      621      685      795      858 
     803      827     1031     1250     1439     1624     1723     1737 
    1659     1412     1105      900      726      510      336      244 
     240      356      542      691      770      820      818      658 
     270     -255     -660     -734     -492     -130      126      252 
     417      735     1159     1524     1663     1648     1675     1717 
    1591     1215      734      391      233      218      413      792 
    1166     1418     1539     1499     1318     1038      716      514 
     508      567      581      542      450      429      575      768 
     832      734      565      422      303      251      360      588 
     797      966     1146     1304     1386     1447     1507     1420 
    1147      912      864      924     1003     1021      909      720 
     595      526      391      191       55       14       56      252 
     513      533      259       27       54      249      523      853 
    1113     1262     1451     1686     1767     1668     1526     1350 
    1071      797      677      656      683      747      747      710 
     772      882      903      789      596      454      453      494 
     453      421      479      542      616      745      849      909 
     984      997      854      645      575      746     1048     1320 
    1483     1553     1587     1526     1327     1109      924      730 
     550      417      405      538      648      673      704      738 
     757      761      692      525      306      125       95      201 
     220       66      -45       33      261      525      656      618 
     571      672      901     1178     1480     1721     1760     1571 
    1269     1040      981     1035     1178     1424     1633     1644 
    1459     1142      793      621      689      808      810      735 
     679      625      517      418      434      529      568      448 
     198      -27     -109      -33      199      510      743      896 
    1044     1144     1105      940      735      621      695      897 
    1067     1120     1105     1085     1089     1108     1042      832 
     596      445      399      450      550      649      754      832 
     792      668      552      442      403      484      591      658 
     691      716      761      874     1112     1413     1659     1725 
    1509     1094      638      201      -85      -54      248      660 
    1031     1210     1236     1251     1229     1142     1080     1061 
    1027      930      784      627      429      233      189      321 
     527      738      927     1000      872      679      627      702 
     815      931      962      864      706      575      500      445 
     361      263      257      423      773     1219     1483     1452 
    1317     1181     1015      877      780      680      592      533 
     496      502      557      642      696      688      704      742 
     680      529      407      400      546      801      977      901 
     738      764      922     1036     1077     1026      962     1021 
    1205     1444     1694     1829     1707     1410     1132      977 
    1011     1175     1259     1152      855      453       91     -195 
    -382     -361     -225     -170     -198     -195      -94      102 
     356      646      993     1327     1466     1348     1136     1021 
     989     1013     1200     1456     1610     1680     1651     1486 
    1231      927      681      557      483      434      425      418 
     388      353      346      390      425      330      153      102 
     176      283      468      653      688      692      861     1158 
    1422     1580     1602     1452     1246     1158     1132     1046 
     977     1040     1192     1300     1240     1034      814      616 
     491      571      734      757      666      488      237      108 
     147      278      495      697      839      984      982      737 
     491      460      546      548      422      222       22      -27 
     136      418      739     1054     1277     1343     1269     1098 
     899      792      873     1094     1367     1649     1848     1865 
    1738     1574     1405     1221     1062      905      677      542 
     669      827      758      522      302      222      260      325 
     372      332      124     -113      -67      294      630      719 
     630      523      553      747      957     1036      940      796 
     885     1225     1447     1360     1173     1055     1019     1059 
    1108     1028      741      426      332      434      577      697 
     830      970      999      908      815      731      611      461 
     295      112      -28      -22      122      351      627      904 
    1142     1317     1424     1424     1267     1016      789      666 
     719      912     1065     1085     1066     1065     1063     1094 
    1166     1165     1030      849      688      526      413      399 
     418      432      422      342      271      351      522      603 
     608      664      761      807      751      654      641      774 
     974     1101     1123     1094     1061     1116     1316     1489 
    1410     1105      757      468      261      160      211      422 
     676      845      908      943     1051     1221     1285     1123 
     800      476      257      162      238      479      706      851 
    1016     1121     1005      804      768      878      958     1004 
    1116     1235     1196      988      735      521      437      571 
     846     1128     1390     1551     1505     1358     1210      936 
     522      172      -18      -68       52      330      627      804 
     823      741      673      703      811      886      795      573 
     454      506      549      530      580      702      729      642 
     579      553      506      495      562      618      616      622 
     679      799      922      947      888      816      810      911 
    1016     1071     1151     1186     1084      973      976     1032 
    1078     1102     1094     1078     1109     1235     1371     1335 
