Origin Time       2025/03/30 10:18:00
Lat.              34.667
Long.             140.825
Depth. (km)       69
Mag.              4.9
Station Code      CHB027
Station Lat.      35.1806
Station Long.     140.2655
Station Height(m) 98
Record Time       2025/03/30 10:18:57
Sampling Freq(Hz) 100Hz
Duration Time(s)  60
Dir.              N-S
Scale Factor      7845(gal)/8223790
Max. Acc. (gal)   1.595
Last Correction   2025/03/30 10:18:56
Memo.             
[...]
    -344     -345     -342     -344     -349     -346     -341     -341 
    -344     -344     -346     -344     -337     -340     -345     -345 
    -342     -344     -342     -342     -345     -344     -340     -340 
    -345     -348     -342     -341     -342     -341     -342     -344 
    -344     -344     -344     -341     -340     -342     -342     -341 
    -344     -344     -341     -344     -344     -338     -340     -344 
    -342     -344     -345     -342     -341     -344     -342     -344 
    -344     -341     -345     -344     -340     -344     -348     -348 
    -345     -342     -345     -346     -344     -346     -349     -345 
    -344     -345     -341     -338     -341     -346     -345     -342 
    -345     -345     -342     -342     -342     -344     -345     -344 
    -345     -346     -341     -338     -344     -345     -341     -341 
    -346     -346     -341     -341     -349     -348     -340     -340 
    -345     -346     -342     -341     -345     -346     -342     -341 
    -344     -344     -340     -342     -348     -345     -342     -345 
    -342     -338     -342     -345     -344     -344     -344     -342 
    -341     -341     -342     -348     -349     -344     -340     -338 
    -338     -345     -349     -342     -338     -342     -346     -344 
    -341     -342     -345     -342     -338     -340     -344     -345 
    -342     -342     -344     -342     -340     -341     -344     -338 
    -337     -344     -346     -342     -342     -346     -346     -338 
    -336     -345     -349     -344     -342     -344     -342     -341 
    -342     -344     -345     -345     -346     -342     -340     -342 
    -345     -344     -342     -342     -342     -340     -340     -342 
    -346     -345     -342     -342     -344     -341     -338     -344 
    -346     -341     -342     -348     -345     -340     -341     -344 
    -342     -342     -345     -344     -340     -341     -342     -342 
    -345     -344     -342     -345     -345     -340     -340     -342 
    -344     -344     -345     -344     -341     -342     -344     -342 
    -342     -344     -344     -344     -342     -344     -345     -344 
    -342     -342     -342     -341     -342     -345     -344     -342 
    -344     -345     -342     -340     -342     -342     -342     -342 
    -345     -345     -341     -340     -346     -346     -340     -341 
    -346     -342     -340     -345     -346     -342     -344     -345 
    -341     -342     -344     -341     -342     -348     -345     -342 
    -345     -341     -338     -344     -346     -345     -344     -344 
    -341     -344     -346     -342     -342     -345     -341     -340 
    -345     -348     -344     -344     -345     -342     -340     -341 
    -345     -344     -338     -342     -345     -340     -342     -345 
    -341     -341     -344     -342     -341     -344     -342     -341 
    -342     -344     -345     -345     -349     -353     -349     -345 
    -353     -355     -341     -345     -365     -367     -353     -342 
    -324     -311     -342     -387     -375     -311     -272     -295 
    -352     -395     -371     -299     -275     -319     -383     -441 
    -450     -378     -287     -270     -324     -353     -321     -315 
    -361     -371     -371     -409     -383     -298     -282     -297 
    -267     -290     -386     -407     -352     -341     -372     -359 
    -313     -333     -396     -346     -236     -248     -319     -341 
    -402     -502     -481     -344     -253     -282     -407     -535 
    -492     -248      -68     -166     -372     -500     -565     -440 
     -87       48     -232     -492     -535     -538     -453     -255 
    -163     -244     -345     -355     -359     -460     -511     -407 
    -332     -342     -303     -241     -287     -380     -328     -187 
    -232     -400     -442     -430     -475     -391     -211     -221 
    -346     -329     -252     -342     -480     -406     -221     -220 
    -430     -604     -529     -295     -140     -132     -260     -434 
    -506     -454     -286      -97     -135     -379     -564     -606 
    -506     -292     -137     -122     -198     -379     -538     -407 
    -168     -191     -319     -380     -557     -739     -596     -182 
     110      -29     -440     -685     -622     -445     -282     -125 
    -205     -599     -799     -484      -12      190       66     -179 
    -410     -606     -634     -434     -225     -214     -333     -375 
    -338     -386     -437     -326     -216     -309     -504     -619 
    -525     -240      -55     -145     -359     -495     -402     -205 
    -221     -336     -314     -345     -527     -592     -446     -284 
    -197     -202     -338     -395     -205      -47     -116     -355 
    -616     -610     -467     -531     -468     -162      -87     -179 
    -205     -400     -664     -598     -359     -275     -311     -413 
    -452     -245      -90     -228     -411     -538     -552     -280 
     -14     -112     -390     -603     -648     -468     -248     -186 
    -175     -145     -206     -363     -452     -333     -184     -255 
    -441     -568     -616     -488     -203      -60     -194     -436 
    -557     -423     -180      -81     -130     -325     -630     -781 
    -614     -255       32       20     -276     -562     -603     -454 
    -259     -148     -202     -348     -483     -521     -411     -278 
    -230     -172     -143     -341     -571     -519     -396     -392 
    -353     -306     -386     -411     -299     -321     -411     -333 
    -257     -193      -33     -116     -484     -577     -341     -325 
    -557     -595     -384     -191     -211     -414     -487     -324 
    -199     -221     -297     -398     -475     -463     -375     -326 
    -380     -357     -237     -287     -376     -224     -148     -297 
    -376     -465     -580     -421     -198     -287     -460     -411 
    -322     -334     -270     -221     -359     -413     -324     -321 
    -295     -180     -220     -390     -469     -427     -309     -201 
    -203     -298     -464     -635     -584     -286     -106     -205 
    -351     -491     -622     -522     -284     -252     -390     -434 
    -259      -39     -166     -510     -530     -319     -240     -220 
    -278     -494     -615     -534     -378     -193     -112     -207 
    -256     -225     -337     -475     -410     -305     -287     -257 
    -280     -365     -373     -407     -531     -554     -465     -405 
    -326     -153      -66     -222     -406     -473     -499     -352 
    -124     -202     -425     -476     -518     -506     -306     -216 
    -279     -315     -403     -441     -280     -141     -163     -199 
    -226     -309     -353     -384     -483     -490     -446     -561 
    -596     -449     -367     -194       71      -67     -449     -529 
    -441     -430     -391     -407     -463     -291      -70      -63 
    -162     -380     -588     -481     -387     -522     -469     -313 
    -411     -446     -240      -94      -28      -70     -333     -472 
    -346     -319     -375     -249     -126     -221     -337     -406 
    -522     -557     -513     -496     -388     -237     -253     -355 
    -330     -222     -218     -336     -445     -464     -422     -382 
    -342     -334     -418     -499     -476     -442     -436     -286 
     -40       24     -133     -405     -637     -616     -464     -398 
    -322     -278     -333     -256      -97     -187     -444     -527 
    -446     -419     -333      -97      -71     -294     -399     -438 
    -545     -510     -290     -136     -180     -338     -533     -666 
    -575     -384     -334     -314     -292     -400     -427     -230 
    -112     -248     -402     -396     -317     -245     -261     -325 
    -309     -342     -410     -297     -174     -175     -184     -261 
    -436     -562     -511     -361     -380     -477     -407     -322 
    -332     -325     -282     -197     -186     -365     -507     -430 
    -349     -406     -444     -410     -446     -459     -286     -114 
    -140     -270     -365     -357     -236     -143     -160     -260 
    -449     -610     -596     -457     -260     -155     -224     -256 
    -237     -297     -253     -113     -237     -558     -658     -504 
    -376     -406     -468     -427     -392     -419     -321     -125 
     -71     -195     -402     -573     -639     -592     -396     -209 
    -260     -406     -437     -432     -414     -328     -249     -230 
    -198     -174     -253     -338     -360     -427     -471     -423 
    -452     -465     -267      -95     -126     -202     -238     -217 
    -248     -426     -468     -298     -217     -234     -337     -571 
    -648     -542     -508     -351      -71     -143     -425     -491 
    -564     -742     -652     -330     -140     -178     -326     -452 
    -468     -342     -139      -58     -172     -303     -328     -284 
    -278     -340     -368     -353     -275      -93     -105     -396 
    -557     -548     -526     -349     -137     -159     -317     -473 
    -604     -668     -660     -530     -253      -76     -118     -157 
    -175     -230     -257     -356     -591     -711     -513     -176 
     -70     -261     -427     -329     -206     -243     -155        9 
    -135     -414     -556     -629     -552     -307     -194     -251 
    -290     -380     -537     -607     -600     -538     -399     -282 
    -237     -256     -274     -191     -129     -193     -263     -282 
    -210      -22       45     -141     -363     -546     -766     -797 
    -556     -361     -368     -437     -441     -372     -357     -454 
    -487     -396     -355     -342     -317     -457     -635     -540 
    -344     -357     -457     -394     -186      -94     -249     -433 
    -494     -440     -220      -13      -74     -264     -353     -326 
    -334     -433     -480     -460     -395     -241     -122     -147 
    -256     -415     -534     -544     -507     -390     -194     -159 
    -297     -382     -468     -591     -469     -130       33      -40 
    -174     -379     -595     -530     -279     -237     -336     -301 
    -164      -89     -174     -340     -423     -522     -768     -864 
    -544     -199     -183     -210     -209     -378     -464     -294 
    -155     -132     -112     -137     -193     -264     -379     -361 
    -240     -302     -450     -476     -513     -572     -533     -475 
    -453     -437     -450     -459     -423     -395     -402     -423 
    -414     -372     -351     -319     -243     -199     -253     -306 
    -259     -226     -299     -400     -503     -530     -405     -252 
    -124       24       33     -166     -411     -568     -635     -649 
    -558     -341     -124      -35      -67     -141     -248     -345 
    -349     -361     -456     -418     -203      -74      -76     -141 
    -336     -550     -610     -592     -568     -517     -484     -475 
    -452     -413     -387     -426     -469     -453     -419     -369 
    -328     -364     -386     -328     -237      -97       18      -39 
    -237     -436     -529     -553     -585     -511     -311     -194 
    -225     -315     -380     -340     -299     -390     -457     -378 
    -303     -282     -244     -278     -427     -506     -475     -494 
    -441     -220     -175     -292     -186      -36     -110     -245 
    -365     -440     -403     -392     -448     -471     -427     -306 
    -163      -97     -155     -286     -361     -425     -584     -680 
    -584     -461     -402     -291     -166     -175     -303     -445 
    -467     -361     -356     -475     -438     -229     -120     -125 
     -76      -75     -240     -444     -600     -650     -499     -249 
     -98     -121     -261     -422     -577     -635     -472     -291 
    -369     -522     -457     -297     -155       54      128     -164 
    -544     -687     -658     -531     -324     -187     -193     -255 
    -321     -341     -302     -263     -251     -291     -432     -594 
    -562     -303      -83      -93     -220     -363     -511     -535 
    -387     -271     -279     -305     -299     -295     -305     -330 
    -409     -521     -567     -486     -371     -336     -298     -230 
    -295     -429     -417     -311     -249     -232     -253     -287 
    -329     -423     -459     -288     -103     -175     -345     -344 
    -274     -220     -184     -337     -537     -529     -477     -418 
    -255     -221     -371     -473     -548     -610     -498     -330 
    -303     -363     -468     -611     -657     -527     -322     -148 
     -44     -114     -330     -415     -298     -194     -197     -248 
    -270     -241     -272     -328     -307     -301     -326     -363 
    -444     -436     -301     -240     -298     -357     -444     -603 
    -627     -355      -75      -58     -116     -172     -387     -614 
    -641     -594     -599     -558     -484     -550     -700     -738 
    -726     -743     -722     -672     -584     -402     -211     -102 
    -151     -429     -729     -812     -749     -584     -330     -179 
    -145     -118     -133      -82       71      179      318      500 
     591      666      741      704      626      627      687      731 
     723      623      434      194     -110     -386     -499     -518 
    -498     -460     -537     -702     -905    -1277    -1696    -1929 
   -2015    -1949    -1641    -1332    -1197    -1050     -947    -1065 
   -1247    -1382    -1379    -1050     -527      -58      310      487 
     413      168     -114     -175      139      556      820      947 
     888      688      483      195      -93     -252     -513     -923 
   -1198    -1251    -1120     -819     -514     -406     -527     -780 
   -1023    -1090     -954     -808     -751     -675     -575     -510 
    -324       25      201       90      -52     -170     -309     -330 
    -186      -56      -89     -197     -225     -176     -116      -97 
    -221     -454     -648     -792     -842     -704     -552     -467 
    -275        0      216      341      352      318      360      402 
     364      263      103      -52     -187     -380     -575     -661 
    -622     -423     -162      -72     -193     -409     -710    -1024 
   -1150    -1013     -734     -469     -357     -367     -360     -376 
    -513     -693     -807     -811     -693     -464     -205      -58 
     -71     -220     -503     -783     -828     -685     -598     -662 
    -822     -953    -1023    -1028     -810     -390      -41      179 
     324      292      156      139      213      261      299      309 
     292      337      419      461      495      504      346       63 
    -151     -321     -526     -646     -641     -592     -544     -537 
    -560     -588     -749    -1073    -1324    -1377    -1377    -1371 
   -1202     -861     -450      -72      102       36     -174     -382 
    -463     -545     -718     -792     -749     -706     -631     -587 
    -702     -859     -849     -662     -348       74      421      515 
     460      437      513      646      768      803      654      318 
     -51     -276     -337     -413     -650     -970    -1198    -1289 
   -1270    -1116     -842     -494      -81      299      490      452 
     248      -17     -211     -251     -178     -126     -203     -384 
    -542     -689     -935    -1154    -1223    -1301    -1408    -1304 
    -974     -639     -365     -137      -13       67      101      -37 
    -211     -275     -290     -191       27      187      265      251 
      32     -318     -668     -953     -994     -778     -527     -271 
     -18       28     -172     -454     -664     -683     -504     -283 
    -109       68      249      417      610      777      797      588 
     174     -346     -807    -1000     -924     -746     -515     -268 
    -213     -460     -812    -1139    -1518    -1753    -1579    -1169 
    -761     -318      137      422      500      400       64     -430 
    -930    -1318    -1420    -1196     -815     -402      -25      244 
     396      402      224      -27     -230     -368     -359     -205 
     -99        6      267      429      270      -18     -314     -639 
    -886    -1020    -1065     -912     -664     -564     -530     -457 
    -419     -403     -380     -387     -395     -382     -342     -259 
    -164      -83      -45     -106     -172     -136      -43       70 
     132       47      -85     -206     -433     -738    -1042    -1347 
   -1517    -1399    -1115     -772     -259      423     1026     1328 
    1239      783      171     -386     -823    -1013     -907     -761 
    -719     -604     -403     -257     -186     -176     -203     -175 
    -105      -89     -193     -525    -1062    -1502    -1649    -1566 
   -1316     -984     -661     -328      -14      207      399      522 
     464      280       47     -211     -421     -517     -530     -573 
    -716     -830     -724     -446     -182      -49      -97     -238 
    -319     -342     -337     -253     -141      -24      135      186 
     108       64      -36     -229     -248     -110      -60     -147 
    -326     -535     -685     -787     -839     -750     -561     -419 
    -337     -298     -330     -360     -345     -338     -383     -471 
    -487     -329      -64      135      117      -98     -360     -581 
    -719     -727     -680     -695     -765     -804     -793     -753 
    -614     -361     -162      -81       12      101       60      -32 
    -114     -220     -287     -338     -459     -548     -519     -487 
    -436     -207      102      245      197       48     -222     -573 
    -835     -985    -1073    -1040     -942     -880     -747     -500 
    -319     -256     -207     -141      -70       24      130      179 
     148       97       -4     -248     -557     -764     -861     -855 
    -743     -673     -695     -623     -436     -288     -176      -12 
     172      342      510      611      606      535      398      156 
    -178     -587    -1011    -1302    -1360    -1236    -1012     -727 
    -510     -473     -499     -484     -556     -712     -801     -804 
    -696     -405      -18      337      603      619      332      -25 
    -307     -525     -525     -340     -307     -456     -527     -479 
    -407     -353     -326     -332     -355     -367     -361     -355 
    -321     -221     -133     -187     -341     -438     -459     -456 
    -418     -351     -317     -306     -264     -213     -180     -195 
    -309     -494     -646     -673     -611     -599     -607     -469 
    -284     -290     -382     -311     -162      -81       10       89 
      28     -109     -267     -440     -487     -400     -311     -195 
     -76      -82     -148     -180     -207     -264     -369     -513 
    -623     -703     -846    -1019    -1074     -989     -803     -544 
    -330     -184      -24       71       49        8      -82     -282 
    -515     -714     -846     -862     -789     -737     -741     -739 
    -687     -591     -494     -383     -217      -51       29       28 
      -4       29      168      311      421      488      360       18 
    -310     -541     -707     -747     -669     -552     -379     -170 
