Origin Time       2025/03/30 10:18:00
Lat.              34.667
Long.             140.825
Depth. (km)       69
Mag.              4.9
Station Code      CHB027
Station Lat.      35.1806
Station Long.     140.2655
Station Height(m) 98
Record Time       2025/03/30 10:18:57
Sampling Freq(Hz) 100Hz
Duration Time(s)  60
Dir.              E-W
Scale Factor      7845(gal)/8223790
Max. Acc. (gal)   1.300
Last Correction   2025/03/30 10:18:56
Memo.             
[...]
    -581     -523     -436     -348     -383     -456     -396     -287 
    -321     -450     -513     -575     -679     -580     -322     -313 
    -506     -519     -411     -382     -328     -283     -495     -788 
    -758     -508     -399     -440     -475     -484     -433     -247 
    -110     -287     -552     -573     -538     -604     -545     -373 
    -373     -487     -460     -369     -402     -434     -341     -333 
    -479     -515     -504     -676     -754     -544     -391     -410 
    -413     -421     -446     -403     -321     -278     -402     -664 
    -699     -430     -260     -337     -434     -444     -453     -411 
    -220     -167     -465     -711     -696     -673     -630     -479 
    -436     -569     -619     -430     -160     -112     -379     -673 
    -702     -519     -340     -301     -386     -527     -646     -630 
    -487     -271     -103     -237     -535     -577     -436     -433 
    -518     -460     -321     -407     -672     -673     -405     -322 
    -467     -472     -338     -382     -588     -658     -540     -481 
    -572     -511     -244     -214     -425     -417     -244     -305 
    -546     -634     -583     -513     -340     -243     -419     -666 
    -754     -546     -232     -264     -560     -742     -714     -483 
    -202     -110     -216     -379     -498     -577     -569     -448 
    -508     -743     -691     -437     -298     -195     -279     -634 
    -688     -295       -8      -22     -305     -805    -1089     -854 
    -391     -217     -481     -722     -606     -328      -86        4 
    -172     -572     -855     -695     -415     -388     -395     -464 
    -665     -568     -245     -170     -271     -382     -561     -676 
    -513     -340     -596     -978     -872     -342       33      -18 
    -228     -399     -548     -494     -321     -353     -498     -589 
    -634     -612     -595     -545     -336     -183     -383     -710 
    -704     -418     -256     -257     -342     -662     -950     -646 
     -74      -21     -399     -631     -669     -633     -468     -315 
    -338     -452     -631     -712     -414      -63     -156     -473 
    -598     -573     -527     -450     -395     -394     -427     -444 
    -410     -430     -480     -432     -369     -423     -518     -562 
    -521     -317     -189     -386     -565     -533     -583     -676 
    -530     -314     -313     -349     -321     -434     -641     -769 
    -723     -456     -230     -321     -496     -449     -346     -359 
    -329     -422     -742     -789     -461     -207     -164     -241 
    -379     -510     -495     -287     -278     -589     -751     -753 
    -766     -572     -336     -318     -299     -301     -422     -423 
    -378     -423     -483     -621     -710     -631     -552     -394 
    -183     -218     -407     -421     -292     -387     -630     -544 
    -444     -760     -837     -433     -318     -496     -394     -225 
    -340     -471     -395     -279     -275     -407     -630     -720 
    -592     -460     -325     -164     -275     -572     -649     -584 
    -503     -344     -334     -500     -535     -475     -442     -436 
    -556     -719     -684     -434     -193     -225     -425     -406 
    -175     -106     -271     -403     -540     -847     -961     -684 
    -511     -556     -475     -376     -398     -318     -195     -225 
    -236     -217     -513     -866     -796     -661     -668     -492 
    -398     -468     -249      -62     -271     -457     -506     -558 
    -545     -573     -672     -665     -600     -581     -495     -301 
    -257     -325     -112       18     -345     -616     -567     -606 
    -631     -492     -311     -187     -303     -508     -402     -259 
    -529     -749     -556     -429     -453     -425     -569     -718 
    -637     -610     -498     -172     -190     -614     -900     -846 
    -507      -98       37      -78     -255     -479     -608     -473 
    -317     -533     -931     -936     -645     -437     -184       28 
     -95     -333     -383     -338     -507     -905    -1088     -808 
    -419     -267     -206     -133     -297     -546     -454     -202 
    -172     -324     -604     -839     -646     -280     -288     -460 
    -449     -450     -621     -723     -573     -395     -391     -378 
    -301     -332     -422     -484     -508     -554     -660     -658 
    -576     -537     -383     -249     -298     -255     -190     -309 
    -444     -564     -665     -648     -604     -561     -436     -286 
    -318     -548     -549     -288     -286     -434     -405     -477 
    -675     -565     -284     -287     -367     -346     -503     -639 
    -623     -668     -546     -357     -405     -413     -375     -459 
    -521     -503     -378     -363     -557     -535     -410     -465 
    -427     -391     -488     -452     -356     -346     -406     -600 
    -828     -893     -707     -409     -279     -268     -252     -348 
    -471     -465     -459     -508     -556     -591     -579     -549 
    -486     -292     -114     -110     -251     -492     -653     -540 
    -380     -409     -453     -429     -448     -471     -415     -307 
    -248     -348     -544     -638     -579     -481     -445     -456 
    -483     -473     -315     -171     -334     -589     -600     -533 
    -541     -498     -409     -459     -639     -687     -521     -341 
    -284     -363     -525     -719     -845     -720     -418     -237 
    -222     -283     -436     -487     -325     -310     -480     -591 
    -716     -662     -297     -113     -176     -152     -211     -480 
    -612     -488     -403     -500     -650     -743     -658     -417 
    -260     -222     -257     -392     -513     -546     -518     -483 
    -573     -677     -585     -367     -232     -325     -465     -540 
    -769     -823     -456     -279     -306     -176     -229     -503 
    -688     -719     -507     -280     -332     -453     -494     -511 
    -469     -433     -533     -631     -514     -263     -112     -206 
    -468     -648     -661     -522     -307     -238     -317     -426 
    -606     -751     -735     -650     -530     -309     -148     -245 
    -398     -369     -360     -454     -486     -538     -660     -641 
    -527     -488     -446     -436     -549     -580     -413     -191 
    -159     -371     -475     -398     -442     -477     -372     -395 
    -549     -588     -549     -581     -623     -576     -486     -430 
    -400     -313     -229     -346     -561     -623     -643     -783 
    -815     -589     -288      -90      -36     -126     -363     -602 
    -600     -465     -465     -510     -500     -504     -386     -197 
    -271     -434     -392     -306     -236     -163     -211     -433 
    -774     -994     -851     -473     -209     -229     -280     -249 
    -464     -789     -783     -660     -710     -703     -508     -305 
    -261     -361     -445     -454     -498     -575     -519     -384 
    -467     -657     -541     -252     -171     -201     -276     -491 
    -594     -469     -460     -634     -648     -469     -398     -373 
    -317     -448     -550     -413     -423     -587     -600     -583 
    -527     -315     -220     -319     -417     -527     -572     -461 
    -477     -591     -495     -418     -511     -454     -276     -280 
    -456     -548     -449     -368     -411     -407     -348     -279 
    -132     -109     -378     -695     -785     -685     -615     -571 
    -499     -465     -376     -249     -247     -361     -596     -808 
    -795     -699     -573     -365     -286     -311     -234     -214 
    -399     -537     -496     -502     -498     -357     -340     -359 
    -122       16     -199     -500     -735     -846     -816     -791 
    -770     -693     -610     -479     -295     -211     -278     -419 
    -596     -742     -745     -534     -256     -187     -176      -59 
    -174     -457     -522     -537     -557     -427     -421     -585 
    -588     -395     -298     -429     -498     -414     -500     -635 
    -553     -507     -560     -452     -214      -67     -137     -369 
    -550     -625     -641     -530     -395     -432     -535     -519 
    -413     -430     -596     -660     -711     -905     -900     -607 
    -361     -251     -170      -22       86      -81     -419     -702 
    -807     -666     -498     -423     -359     -368     -355     -236 
    -255     -429     -572     -715     -803     -672     -488     -421 
    -279      -99     -139     -276     -290     -278     -469     -793 
    -912     -783     -611     -500     -490     -525     -517     -459 
    -363     -365     -534     -625     -517     -446     -506     -464 
    -284     -243     -434     -589     -469     -265     -329     -549 
    -587     -484     -414     -363     -359     -467     -581     -526 
    -325     -201     -292     -500     -592     -480     -368     -399 
    -441     -403     -334     -279     -287     -321     -318     -413 
    -638     -706     -549     -477     -537     -488     -372     -386 
    -456     -472     -457     -398     -417     -589     -669     -553 
    -411     -351     -395     -494     -573     -583     -464     -338 
    -457     -803    -1067     -970     -576     -194       49       71 
    -182     -403     -467     -538     -560     -585     -718     -726 
    -575     -414     -198       10       52      -12     -140     -355 
    -515     -540     -580     -764     -984    -1038     -876     -530 
    -148      -39     -213     -394     -511     -600     -679     -742 
    -692     -594     -510     -328     -216     -301     -288     -170 
    -275     -584     -733     -626     -546     -508     -345     -260 
    -318     -249      -44      125      102     -141     -403     -626 
    -774     -692     -495     -318      -89      159      270      199 
     129       79     -237     -618     -598     -441     -446     -360 
    -195     -182     -195     -156     -176     -248     -382     -558 
    -645     -695     -683     -540     -492     -488     -363     -356 
    -526     -733     -953    -1131    -1244    -1209    -1047    -1075 
   -1328    -1494    -1413    -1193    -1026    -1005    -1158    -1356 
   -1316    -1047     -683     -241       14      -17      -62     -110 
    -260     -307     -207     -213     -205       91      436      525 
     311     -108     -387     -425     -419     -353     -260     -248 
    -195      -72      -27      -81     -243     -511     -783    -1023 
   -1171    -1163    -1163    -1177    -1013     -845     -828     -805 
    -746     -675     -483     -187       16      -20     -211     -422 
    -599     -635     -599     -664     -661     -491     -406     -365 
    -176      -43      -98     -133     -122     -132      -14      270 
     554      664      525      284       45     -287     -664     -943 
   -1050     -892     -630     -500     -413     -384     -572     -796 
    -861     -861     -893     -927     -827     -556     -238      114 
     415      369       66     -140     -220     -292     -467     -808 
   -1121    -1243    -1229    -1074     -830     -708     -818    -1044 
   -1205    -1254    -1208    -1063     -882     -683     -384      -60 
     135      256      351      326      191      -12     -243     -394 
    -461     -500     -467     -346     -244     -175      -99      -76 
     -85     -118     -315     -538     -514     -348     -217     -128 
    -156     -364     -577     -654     -715     -780     -776     -884 
   -1194    -1487    -1537    -1169     -417      283      600      564 
     175     -425     -822     -972    -1192    -1479    -1607    -1557 
   -1389    -1086     -711     -438     -330     -352     -545     -858 
   -1161    -1350    -1267     -927     -464       28      295      317 
     342      248     -124     -465     -483     -288     -116      -21 
     -91     -407     -669     -588     -361     -263     -263     -233 
    -176      -58      179      411      445      255       40        8 
      82      126      225      400      491      487      484      394 
     118     -303     -757    -1063    -1117    -1078    -1196    -1412 
   -1441    -1186     -832     -656     -774    -1028    -1237    -1302 
   -1151     -873     -577     -324     -248     -355     -425     -342 
    -322     -518     -692     -697     -598     -414     -275     -151 
      72      168      143      268      396      336      186        2 
    -136     -184     -344     -687     -961    -1013     -951     -912 
    -988    -1182    -1310    -1159     -769     -369     -186     -265 
    -465     -637     -714     -683     -510     -151      222      360 
     299      179      -37     -357     -626     -762     -843     -862 
    -792     -716     -639     -569     -576     -599     -633     -696 
    -680     -537     -305     -112     -118     -272     -494     -841 
   -1202    -1279    -1102     -980     -949     -897     -851     -785 
    -637     -461     -260       -2      175      152      -28     -352 
    -778    -1059    -1005     -773     -525     -290     -211     -243 
    -122       49       21     -270     -772    -1188    -1250    -1019 
    -523       89      410      392      407      619      777      604 
     198     -229     -558     -619     -446     -275     -108       82 
     197      264      278      133      -49     -141     -271     -517 
    -757    -1028    -1462    -1809    -1817    -1721    -1649    -1420 
   -1163    -1104    -1050     -869     -724     -669     -695     -778 
    -747     -642     -641     -660     -658     -774     -953    -1053 
    -984     -684     -363     -255     -199      -51       40       25 
     -43     -184     -295     -260     -149      -25       33      -33 
    -112     -106      -44      -12      -90     -203     -259     -245 
     -51      257      414      468      577      591      464      409 
     351        5     -499     -851    -1008     -926     -672     -587 
    -765    -1040    -1242    -1202    -1021     -862     -700     -666 
    -808     -893     -876     -826     -714     -611     -625     -599 
    -286       93       98     -160     -346     -560     -928    -1209 
   -1271    -1251    -1178    -1058    -1031    -1058     -942     -627 
    -245       29      170      132      -97     -282     -407     -627 
    -757     -692     -598     -444     -257     -326     -641     -854 
    -761     -441      -89      178      313      253       95      -20 
    -149     -345     -534     -660     -639     -410     -143      -60 
    -182     -382     -487     -549     -773    -1030    -1155    -1231 
   -1140     -737     -306      -86       59      198      252      234 
     121     -124     -441     -723     -877     -885     -803     -684 
    -611     -603     -529     -337     -125       54      179      216 
     136      -82     -430     -818    -1084    -1078     -819     -530 
    -421     -513     -693     -785     -688     -575     -618     -677 
    -603     -421     -189      -35     -102     -360     -665     -872 
    -864     -745     -691     -643     -530     -452     -471     -550 
    -658     -676     -522     -334     -202      -91      -99     -201 
    -144       33       14     -247     -589     -923    -1071     -965 
    -789     -561     -211       68      160      170      114      -85 
    -383     -645     -824     -896     -849     -783     -764     -738 
    -658     -571     -525     -496     -464     -426     -380     -395 
    -531     -733     -904     -966     -862     -668     -577     -596 
    -522     -315     -101      132      338      292       45     -130 
    -184     -172     -145     -210     -359     -461     -415     -213 
      18       78      -60     -278     -607    -1019    -1185    -1043 
    -857     -724     -715     -824     -872     -846     -770     -577 
    -388     -314     -280     -203      -95      -66     -162     -367 
    -621     -795     -814     -704     -504     -288     -144     -140 
    -232     -272     -301     -402     -436     -410     -508     -715 
    -934    -1097    -1088     -946     -826     -776     -795     -819 
    -754     -629     -496     -299      -25      203      280      209 
      35     -164     -325     -472     -585     -595     -568     -571 
    -518     -391     -276     -163      -68      -86     -221     -388 
    -453     -369     -284     -274     -298     -371     -464     -549 
    -675     -830     -949     -990     -932     -761     -499     -272 
    -189     -202     -303     -508     -706     -792     -795     -754 
    -600     -261       97      294      310       82     -274     -453 
    -448     -411     -363     -342     -392     -453     -480     -499 
    -522     -530     -513     -521     -623     -750     -773     -714 
    -680     -683     -716     -773     -765     -645     -507     -452 
    -426     -365     -333     -337     -295     -280     -425     -639 
    -781     -877     -889     -762     -622     -521     -407     -282 
    -153     -106     -153     -162     -120     -129     -211     -288 
    -348     -468     -612     -710     -749     -621     -405     -319 
    -251     -136     -205     -398     -502     -576     -693     -774 
    -712     -506     -345     -310     -259     -234     -342     -468 
    -517     -506     -434     -340     -290     -302     -334     -353 
    -372     -468     -656     -758     -630     -373     -198     -195 
    -306     -373     -328     -310     -418     -556     -657     -699 
    -627     -468     -348     -338     -356     -332     -328     -361 
    -427     -584     -762     -823     -768     -638     -511     -450 
    -395     -372     -452     -557     -672     -807     -841     -733 
    -562     -413     -342     -328     -306     -303     -373     -446 
    -436     -400     -400     -473     -634     -691     -588     -549 
    -556     -531     -552     -467     -252     -120      -47        0 
     -98     -276     -369     -342     -245     -141      -70      -33 
     -62     -190     -378     -488     -442     -330     -257     -234 
    -256     -334     -469     -649     -818     -947    -1032     -984 
    -811     -697     -665     -629     -614     -595     -517     -477 
    -596     -842    -1078    -1189    -1123     -884     -619     -490 
    -450     -441     -469     -456     -399     -438     -534     -517 
    -371     -160       72      249      302      241      120        9 
     -41      -43      -17        8      -43     -198     -324     -400 
    -577     -761     -756     -653     -622     -680     -783     -851 
    -808     -707     -670     -653     -550     -438     -372     -334 
    -394     -525     -592     -568     -473     -414     -537     -729 
    -805     -824     -845     -824     -812     -851     -835     -742 
    -683     -616     -477     -315     -105      106      176      136 
      41      -91     -218     -351     -525     -707     -793     -688 
    -483     -332     -252     -203     -137      -40       39       43 
     -43     -128     -129     -129     -163     -201     -275     -357 
    -427     -531     -643     -762     -864     -900     -934     -927 
    -792     -642     -569     -517     -488     -527     -584     -537 
