Origin Time       2025/03/30 10:18:00
Lat.              34.667
Long.             140.825
Depth. (km)       69
Mag.              4.9
Station Code      KNG004
Station Lat.      35.1442
Station Long.     139.6223
Station Height(m) 31
Record Time       2025/03/30 10:18:54
Sampling Freq(Hz) 100Hz
Duration Time(s)  72
Dir.              U-D
Scale Factor      7845(gal)/8223790
Max. Acc. (gal)   1.550
Last Correction   2025/03/30 10:18:54
Memo.             
[...]
    7250     7299     7281     7198     7214     7364     7406     7153 
    6786     6673     6893     7117     7125     7140     7371     7615 
    7599     7389     7253     7252     7191     6986     6805     6812 
    6953     7091     7144     7121     7138     7280     7404     7335 
    7176     7190     7395     7497     7344     7163     7129     7123 
    7082     7103     7234     7326     7240     7044     6910     6910 
    7009     7132     7196     7163     7102     7113     7176     7237 
    7333     7507     7628     7530     7268     7042     6959     6947 
    6920     6961     7106     7187     7159     7145     7176     7219 
    7231     7257     7392     7472     7265     6871     6592     6654 
    7001     7334     7497     7561     7550     7422     7223     7072 
    7017     7038     7113     7187     7211     7209     7238     7310 
    7331     7219     7053     6991     7029     7042     6982     6909 
    6993     7326     7681     7738     7460     7042     6706     6563 
    6589     6744     7047     7445     7777     7844     7574     7182 
    6980     7032     7153     7207     7194     7141     7069     7007 
    6991     7082     7283     7470     7543     7518     7406     7203 
    6999     6909     6972     7123     7233     7225     7155     7092 
    7021     7017     7209     7431     7466     7383     7275     7117 
    6957     6894     6957     7140     7346     7425     7373     7350 
    7372     7256     6971     6772     6855     7105     7246     7186 
    7075     7052     7113     7236     7385     7474     7402     7190 
    7045     7086     7186     7179     7088     7080     7184     7252 
    7222     7173     7160     7171     7164     7125     7087     7086 
    7080     7053     7114     7330     7519     7445     7132     6848 
    6822     7005     7195     7299     7346     7376     7381     7329 
    7214     7095     7037     7059     7133     7234     7304     7267 
    7171     7110     7047     6961     6966     7084     7209     7260 
    7273     7325     7369     7302     7128     6944     6828     6831 
    6984     7260     7523     7650     7658     7626     7553     7344 
    6998     6739     6740     6932     7150     7298     7362     7334 
    7179     7042     7101     7204     7145     7022     7067     7319 
    7564     7581     7389     7110     6831     6693     6764     6920 
    7080     7307     7524     7570     7435     7250     7157     7126 
    6984     6783     6793     6999     7149     7190     7209     7191 
    7150     7159     7250     7399     7470     7404     7326     7258 
    7140     7036     7028     7078     7118     7140     7168     7187 
    7167     7109     7069     7118     7261     7398     7366     7190 
    7069     7092     7182     7211     7130     7075     7157     7285 
    7302     7222     7227     7354     7395     7230     7040     7009 
    7061     7053     6982     6937     6980     7101     7219     7268 
    7287     7354     7427     7431     7387     7304     7179     7095 
    7076     7040     6949     6862     6870     7028     7264     7415 
    7395     7312     7304     7352     7341     7191     6986     6891 
    6902     6956     7115     7326     7398     7312     7211     7176 
    7200     7267     7342     7365     7263     7076     6932     6840 
    6763     6795     6997     7280     7489     7531     7504     7499 
    7443     7338     7268     7257     7260     7144     6847     6605 
    6702     7032     7267     7330     7383     7460     7433     7271 
    7111     7078     7129     7188     7280     7388     7377     7192 
    6961     6843     6833     6880     7053     7381     7713     7866 
    7766     7506     7206     6898     6620     6470     6525     6762 
    7063     7346     7576     7685     7612     7392     7161     7041 
    7028     7040     7064     7101     7088     7014     6945     6905 
    6920     7084     7373     7591     7599     7481     7384     7298 
    7134     6930     6849     6940     7055     7090     7082     7092 
    7159     7245     7281     7265     7269     7302     7295     7249 
    7219     7176     7096     7038     7049     7123     7221     7269 
    7256     7236     7229     7190     7111     7056     7064     7118 
    7165     7190     7227     7284     7285     7202     7068     6928 
    6905     7109     7414     7570     7520     7384     7234     7049 
    6847     6737     6785     6941     7176     7472     7673     7647 
    7474     7310     7211     7165     7172     7230     7304     7346 
    7303     7165     6994     6882     6894     6984     7080     7190 
    7308     7372     7296     7052     6771     6662     6833     7184 
    7423     7407     7335     7404     7507     7476     7360     7291 
    7273     7206     7047     6872     6787     6813     6916     7052 
    7175     7257     7306     7327     7330     7312     7284     7280 
    7288     7249     7169     7087     6997     6909     6905     7017 
    7146     7207     7257     7341     7379     7319     7238     7223 
    7276     7312     7250     7106     6947     6848     6874     6998 
    7138     7223     7223     7173     7191     7350     7550     7620 
    7539     7389     7236     7113     7037     7002     7007     7029 
    7010     6966     6999     7146     7308     7362     7295     7215 
    7206     7199     7121     7044     7042     7072     7071     7049 
    7060     7133     7219     7268     7306     7369     7438     7468 
    7415     7304     7219     7142     6995     6848     6879     7091 
    7302     7354     7258     7141     7090     7083     7074     7074 
    7114     7204     7307     7366     7376     7362     7319     7222 
    7078     6944     6875     6893     7007     7145     7233     7296 
    7337     7306     7214     7141     7160     7236     7290     7307 
    7275     7165     7036     6970     6993     7103     7283     7449 
    7469     7346     7214     7140     7088     7028     6995     7041 
    7130     7206     7233     7223     7200     7142     7075     7084 
    7168     7222     7180     7086     7056     7130     7253     7337 
    7326     7250     7153     7056     6990     6975     7021     7119 
    7184     7141     7059     7076     7198     7269     7227     7196 
    7237     7268     7263     7245     7192     7098     7040     7111 
    7263     7362     7377     7344     7271     7200     7168     7171 
    7241     7379     7431     7264     6988     6872     7024     7258 
    7319     7215     7164     7184     7149     7109     7157     7231 
    7233     7161     7087     6998     6836     6698     6751     7015 
    7345     7527     7507     7454     7474     7423     7195     6937 
    6885     7099     7387     7519     7481     7380     7231     7028 
    6891     6924     7109     7381     7623     7689     7514     7176 
    6863     6713     6758     6922     7061     7144     7229     7315 
    7329     7233     7128     7110     7099     7029     6987     7078 
    7288     7445     7396     7215     7049     6909     6747     6632 
    6696     6952     7290     7603     7827     7911     7790     7433 
    6995     6718     6677     6801     7042     7360     7603     7584 
    7317     7029     6897     6912     7002     7142     7300     7396 
    7357     7226     7118     7056     7026     7068     7203     7360 
    7403     7287     7122     7010     6941     6895     6910     7014 
    7186     7388     7524     7503     7377     7277     7281     7321 
    7285     7226     7211     7136     6984     6909     6967     7109 
    7269     7339     7254     7091     7009     7130     7379     7472 
    7321     7138     7032     6929     6798     6679     6704     6961 
    7310     7582     7732     7731     7626     7516     7365     7149 
    6975     6903     6933     7040     7118     7136     7149     7129 
    7052     7013     7075     7194     7321     7429     7481     7452 
    7358     7248     7198     7169     7011     6789     6724     6905 
    7213     7410     7423     7322     7145     7030     7026     7001 
    6979     7072     7214     7364     7503     7491     7275     6999 
    6798     6728     6810     7007     7209     7345     7461     7578 
    7600     7468     7261     7080     6991     7037     7176     7315 
    7331     7171     6993     6961     7022     7075     7132     7227 
    7349     7460     7493     7398     7191     6949     6787     6806 
    6997     7225     7391     7458     7399     7250     7082     6922 
    6849     6917     7032     7107     7192     7310     7358     7271 
    7171     7183     7187     7056     6901     6893     7051     7283 
    7504     7642     7658     7596     7493     7365     7200     6975 
    6785     6797     6964     7037     6921     6772     6785     6947 
    7105     7203     7315     7495     7627     7588     7470     7373 
    7277     7156     7033     6984     7032     7141     7296     7407 
    7412     7462     7608     7622     7356     6939     6577     6393 
    6451     6758     7182     7485     7516     7385     7331     7373 
    7322     7129     6988     7049     7157     7119     7022     7048 
    7156     7188     7152     7177     7306     7438     7456     7360 
    7264     7187     7076     7010     7056     7153     7192     7102 
    6961     6916     6990     7114     7244     7389     7528     7543 
    7406     7249     7199     7253     7327     7356     7321     7215 
    7036     6804     6608     6612     6870     7236     7539     7708 
    7749     7653     7429     7214     7145     7145     7056     6885 
    6758     6794     6961     7098     7168     7256     7339     7317 
    7171     7002     6876     6808     6848     7009     7206     7326 
    7311     7210     7149     7242     7488     7732     7771     7611 
    7400     7157     6837     6516     6347     6407     6660     7006 
    7339     7593     7681     7599     7474     7392     7342     7299 
    7192     6993     6778     6586     6458     6513     6789     7214 
    7705     8136     8318     8168     7758     7200     6666     6373 
    6409     6663     6940     7123     7217     7225     7161     7110 
    7180     7365     7569     7720     7805     7785     7565     7088 
    6516     6141     6095     6272     6596     7076     7584     7871 
    7897     7817     7723     7578     7354     7138     7042     7022 
    6968     6851     6756     6797     6943     7110     7284     7434 
    7487     7426     7352     7398     7555     7670     7662     7568 
    7388     7076     6694     6409     6354     6540     6860     7202 
    7533     7782     7821     7626     7353     7165     7038     6893 
    6740     6643     6627     6664     6740     6814     6836     6845 
    6924     7067     7256     7545     7904     8132     8062     7766 
    7407     7049     6804     6825     7064     7335     7551     7730 
    7888     7923     7676     7195     6762     6561     6566     6741 
    7053     7357     7477     7354     7087     6829     6694     6712 
    6835     7015     7267     7562     7766     7724     7406     6952 
    6551     6305     6331     6728     7333     7793     7960     7902 
    7651     7242     6826     6619     6737     7064     7389     7630 
    7723     7564     7134     6629     6413     6648     7090     7460 
    7684     7715     7492     7099     6785     6736     6907     7168 
    7429     7639     7723     7589     7261     6902     6674     6627 
    6729     6956     7254     7480     7477     7218     6883     6710 
    6750     6866     6961     7084     7308     7549     7635     7550 
    7410     7276     7140     7082     7253     7620     7928     7943 
    7635     7141     6640     6313     6307     6628     7082     7422 
    7588     7661     7636     7420     7056     6798     6841     7060 
    7207     7215     7176     7202     7307     7423     7531     7614 
    7589     7403     7056     6589     6120     5802     5728     5944 
    6486     7292     8068     8430     8278     7838     7391     7075 
    6907     6875     6957     7090     7195     7306     7506     7744 
    7878     7878     7847     7819     7695     7379     6943     6570 
    6313     6138     6064     6135     6423     6912     7375     7651 
    7834     8052     8280     8386     8259     7879     7290     6589 
    5981     5667     5706     6041     6550     7079     7492     7755 
    7894     7938     7943     7892     7676     7285     6864     6561 
    6448     6547     6845     7268     7658     7854     7798     7561 
    7267     7033     6922     6921     7028     7250     7511     7619 
    7441     7061     6725     6625     6798     7126     7415     7538 
    7516     7392     7148     6874     6740     6789     6924     7064 
    7180     7227     7168     7051     7006     7138     7419     7678 
    7754     7627     7372     7047     6723     6517     6516     6704 
    6988     7248     7395     7404     7291     7163     7148     7303 
    7596     7823     7785     7508     7122     6768     6596     6647 
    6885     7248     7624     7888     7962     7811     7476     7071 
    6717     6542     6613     6804     6910     6905     6899     6974 
    7123     7304     7487     7641     7681     7501     7119     6712 
    6448     6369     6431     6596     6843     7130     7398     7657 
    7962     8248     8329     8070     7488     6782     6220     5918 
    5872     6102     6609     7291     7986     8530     8803     8726 
    8301     7680     7119     6779     6664     6685     6697     6566 
    6273     5965     5940     6411     7226     7943     8264     8221 
    7960     7589     7186     6821     6562     6444     6498     6724 
    7025     7317     7618     7893     8006     7905     7681     7474 
    7346     7218     6995     6656     6274     6043     6146     6548 
    7098     7686     8162     8355     8232     7855     7365     6968 
    6752     6647     6551     6454     6473     6714     7123     7568 
    7912     8046     7908     7553     7168     6939     6891     6945 
    7064     7256     7439     7453     7268     7013     6768     6543 
    6442     6574     6859     7123     7298     7423     7499     7464 
    7342     7203     7044     6889     6801     6790     6855     7036 
    7275     7450     7541     7612     7661     7622     7491     7368 
    7303     7187     6968     6786     6728     6771     6912     7167 
    7460     7641     7650     7528     7312     7057     6856     6752 
    6737     6848     7141     7553     7877     7928     7705     7327 
    6952     6698     6624     6729     6939     7144     7283     7372 
    7481     7611     7669     7582     7380     7161     6955     6723 
    6507     6465     6667     6980     7233     7354     7353     7292 
    7256     7283     7334     7350     7296     7192     7067     6959 
    6922     7001     7227     7587     7963     8166     8071     7771 
    7465     7221     6963     6686     6501     6426     6390     6459 
    6724     7082     7360     7470     7415     7253     7087     7022 
    7053     7095     7129     7190     7264     7298     7285     7260 
    7188     7049     6933     6945     7060     7163     7222     7306 
    7441     7597     7727     7744     7582     7318     7094     6975 
    6928     6913     6941     6971     6922     6790     6702     6787 
    7045     7412     7784     8016     8031     7847     7538     7209 
    6920     6714     6662     6763     6910     7002     7036     7102 
    7263     7429     7447     7268     6998     6772     6681     6802 
    7110     7445     7673     7754     7672     7447     7172     6944 
    6836     6860     6984     7175     7337     7331     7180     7022 
    6914     6885     6982     7180     7371     7425     7308     7145 
    7086     7184     7331     7365     7300     7272     7311     7315 
    7199     7049     7021     7180     7481     7798     7977     7948 
    7742     7375     6916     6528     6308     6191     6141     6211 
    6381     6581     6799     7061     7311     7443     7449     7429 
    7437     7416     7291     7105     6995     7015     7075     7086 
    7094     7210     7477     7797     8060     8226     8217     7977 
    7587     7184     6852     6648     6658     6912     7214     7365 
    7423     7485     7484     7373     7214     7080     6995     6941 
    6870     6733     6559     6427     6372     6389     6515     6782 
    7109     7379     7588     7728     7689     7439     7140     6959 
    6918     6930     6929     6921     6940     7002     7122     7338 
    7657     7956     8104     8093     7958     7696     7360     7051 
    6809     6643     6598     6729     7017     7318     7511     7581 
    7537     7404     7275     7186     7101     7003     6913     6867 
    6872     6887     6889     6894     6953     7107     7291     7358 
    7314     7291     7279     7179     7065     7072     7141     7122 
    7028     6997     7098     7299     7569     7832     7959     7884 
    7631     7268     6899     6627     6497     6517     6658     6866 
    7090     7281     7364     7318     7219     7167     7176     7213 
    7279     7395     7511     7534     7453     7317     7114     6840 
    6582     6461     6547     6810     7145     7422     7533     7464 
    7306     7109     6887     6736     6774     7045     7469     7874 
    8095     8041     7726     7312     7015     6920     6982     7125 
    7258     7292     7165     6924     6744     6777     6991     7253 
    7506     7703     7743     7585     7314     7069     6903     6804 
    6762     6762     6786     6878     7094     7391     7643     7757 
    7678     7423     7087     6794     6625     6624     6794     7060 
    7257     7291     7254     7248     7260     7264     7276     7334 
    7398     7329     7091     6812     6647     6637     6758     6990 
    7258     7438     7446     7344     7277     7308     7381     7435 
    7442     7388     7273     7117     6963     6889     6956     7146 
    7356     7493     7560     7541     7392     7160     6979     6926 
    6943     6930     6882     6874     6959     7103     7242     7358 
    7438     7422     7283     7107     7006     7028     7105     7137 
    7105     7055     7037     7061     7107     7172     7272     7383 
    7437     7415     7368     7354     7384     7399     7344     7210 
    7053     6928     6859     6895     7032     7198     7358     7539 
    7682     7645     7404     7107     6906     6825     6779     6733 
    6751     6891     7107     7311     7445     7496     7515     7553 
    7580     7527     7381     7167     6952     6813     6762     6787 
    6880     7018     7157     7256     7327     7406     7437     7388 
    7339     7341     7312     7207     7088     7007     6990     7036 
    7114     7200     7285     7373     7458     7510     7496     7408 
    7229     6975     6760     6648     6612     6646     6768     6933 
    7068     7153     7203     7248     7310     7352     7342     7303 
    7252     7186     7087     6959     6868     6914     7107     7339 
    7522     7662     7761     7720     7499     7183     6913     6789 
    6809     6901     7003     7094     7142     7125     7111     7194 
