Origin Time       2025/03/30 10:18:00
Lat.              34.667
Long.             140.825
Depth. (km)       69
Mag.              4.9
Station Code      KNG009
Station Lat.      35.4425
Station Long.     139.3621
Station Height(m) 19
Record Time       2025/03/30 10:19:15
Sampling Freq(Hz) 100Hz
Duration Time(s)  60
Dir.              E-W
Scale Factor      7845(gal)/8223790
Max. Acc. (gal)   2.957
Last Correction   2025/03/30 10:19:14
Memo.             
[...]
     712      795      855      822      648      457      405      477 
     599      722      795      823      880      972     1047     1031 
     904      773      753      818      832      719      553      480 
     558      689      757      707      546      399      413      568 
     714      769      751      695      635      630      696      776 
     816      847      932     1066     1142     1073      899      710 
     592      615      742      855      873      804      676      519 
     421      433      521      645      761      807      764      677 
     610      589      607      633      646      670      731      774 
     735      687      730      818      854      832      785      769 
     819      918     1023     1078     1053      976      907      896 
     926      901      784      614      460      402      421      422 
     380      375      456      594      726      783      765      745 
     758      787      801      753      626      517      507      568 
     622      637      656      715      781      889     1028     1057 
     958      880      884      939      973      930      873      845 
     787      712      691      710      741      761      724      660 
     596      456      279      217      325      544      735      791 
     772      778      820      846      823      792      830      896 
     891      797      666      556      513      540      589      642 
     733      842      873      785      639      561      645      823 
     947      977      959      951      982     1007      977      904 
     805      707      622      576      622      696      665      549 
     473      484      575      685      708      660      657      739 
     874      951      847      637      504      523      611      669 
     673      652      661      683      675      681      718      781 
     876      928      926      928      876      743      646      638 
     711      823      893      919      940      911      789      656 
     612      660      716      716      668      676      796      901 
     893      818      722      621      542      523      546      530 
     486      495      558      634      699      718      710      706 
     662      584      589      677      754      851      951      997 
    1047     1073     1004      930      892      826      765      766 
     762      689      614      608      688      787      787      693 
     625      646      743      807      742      633      557      477 
     419      429      456      483      554      692      861      976 
    1013     1058     1109     1061      928      832      820      824 
     723      513      369      399      544      714      823      831 
     783      715      675      696      720      718      711      665 
     594      587      673      797      837      764      685      650 
     635      656      735      831      878      886      900      897 
     832      754      738      781      834      858      846      815 
     769      687      585      537      576      656      711      724 
     719      718      718      691      611      508      441      452 
     518      538      504      508      564      650      777      901 
     992     1077     1135     1115      980      799      720      757 
     832      920      970      954      869      742      700      787 
     845      785      692      631      612      641      676      681 
     672      654      621      596      571      510      453      476 
     594      712      684      533      449      515      656      754 
     733      664      688      801      916      977      959      895 
     880      963     1038     1008      918      828      765      758 
     758      695      615      564      534      553      621      681 
     731      793      892      996      994      878      741      641 
     621      645      603      537      535      565      637      778 
     858      774      619      552      643      792      874      861 
     778      735      808      905      945      915      862      876 
     934      920      810      669      567      515      484      449 
     426      445      494      533      577      635      652      661 
     724      765      753      765      851      990     1096     1051 
     888      765      702      615      514      438      422      468 
     549      631      691      757      868      959      989      951 
     881      859      845      777      747      774      805      834 
     799      683      579      561      598      626      635      615 
     569      592      695      796      861      868      839      837 
     849      814      741      696      685      657      629      629 
     635      669      743      819      864      853      770      669 
     614      606      666      787      895      939      903      819 
     760      730      727      730      676      630      681      751 
     745      673      592      572      641      739      823      854 
     805      751      731      699      664      635      604      602 
     608      588      596      689      810      891      947      959 
     932      936      945      896      830      838      916      919 
     799      660      558      531      573      565      486      448 
     468      499      514      481      427      400      411      491 
     648      816      926      986     1061     1125     1097      981 
     869      851      905      966     1009      981      880      776 
     683      629      638      621      561      537      540      588 
     706      791      762      658      579      583      621      662 
     735      774      734      702      697      668      652      685 
     764      882      984      994      951      932      920      849 
     745      689      689      699      723      743      720      665 
     594      544      542      529      514      572      645      650 
     619      581      548      531      537      621      807      977 
    1026     1035     1085     1096      999      832      695      670 
     710      714      675      637      612      608      614      568 
     496      496      567      648      712      727      716      758 
     811      792      789      870      951      962      899      803 
     734      726      773      855      931      949      888      787 
     711      673      639      610      584      557      540      557 
     641      772      901     1001     1031      994      961      945 
     901      827      723      575      407      288      274      384 
     548      603      513      394      357      441      569      638 
     652      661      707      788      850      888      924      943 
     953     1003     1089     1143     1098      951      745      545 
     456      500      562      608      710      861      986     1005 
     884      730      675      691      683      611      506      437 
     448      507      576      665      797      994     1186     1228 
    1111      918      741      665      645      622      633      648 
     623      633      719      826      881      881      909      982 
     974      824      603      400      272      233      274      369 
     486      608      707      762      814      907     1024     1097 
    1090     1027      915      805      760      741      746      832 
     936      913      777      680      684      720      677      523 
     402      413      486      556      611      648      692      797 
     919      939      876      814      737      634      583      612 
     684      750      757      733      745      707      589      557 
     631      685      681      625      569      598      653      654 
     662      737      858     1015     1185     1264     1165      939 
     729      602      533      461      390      406      500      562 
     596      657      783      962     1043      969      893      891 
     911      930      928      923      912      866      807      784 
     787      739      600      437      324      264      243      301 
     468      645      737      762      772      811      922     1030 
    1043      993      980     1026     1059     1043      993      889 
     724      567      473      444      415      345      261      217 
     259      375      514      657      741      700      643      658 
     714      808      935     1028     1044      970      873      878 
     974     1031      997      909      826      793      777      727 
     687      689      700      715      727      750      843      926 
     882      810      812      831      808      754      695      648 
     554      406      315      342      486      637      653      638 
     751      903      984      985      922      854      822      772 
     689      626      564      469      387      351      406      560 
     687      729      760      814      916     1035     1078     1065 
    1048     1057     1104     1131     1094     1005      872      762 
     724      681      580      432      268      180      222      303 
     319      279      271      398      631      795      770      626 
     581      719      834      816      808      868      951     1030 
    1050     1001      895      768      746      828      893      909 
     870      804      826      896      881      765      594      459 
     438      469      467      434      419      457      527      641 
     800      904      907      900      936      993     1050     1053 
     973      873      820      815      814      754      662      635 
     683      716      672      585      562      630      742      857 
     899      851      826      855      845      776      735      796 
     963     1143     1225     1225     1182     1080      980      957 
     977      988      989      999      959      818      641      460 
     228      -55     -372     -658     -793     -753     -549     -174 
     248      584      881     1167     1405     1583     1632     1571 
    1555     1615     1699     1733     1620     1370     1008      560 
     136     -193     -418     -525     -562     -557     -419     -112 
     284      688     1066     1385     1632     1788     1760     1563 
    1333     1109      922      787      629      472      359      249 
     176      157      140      110       83      136      309      488 
     645      864     1142     1433     1672     1818     1891     1867 
    1745     1580     1351     1035      668      321       82      -76 
    -220     -261     -184      -78       74      328      664      946 
    1040      996      911      845      845      842      730      529 
     324      141      -21     -149     -244     -299     -259     -105 
      85      263      436      595      777     1019     1296     1622 
    2018     2420     2764     3017     3173     3244     3187     2979 
    2601     2027     1370      792      295     -205     -707    -1138 
   -1449    -1624    -1660    -1587    -1422    -1138     -734     -290 
     170      627      949     1086     1186     1328     1499     1690 
    1854     1979     2110     2247     2381     2493     2486     2266 
    1858     1355      851      449      133     -189     -504     -749 
    -884     -870     -720     -538     -445     -411     -291      -47 
     255      529      648      616      611      696      784      838 
     859      866      918      959      876      741      684      720 
     868     1104     1321     1483     1606     1703     1787     1822 
    1763     1584     1254      795      341       20      -75       95 
     427      795     1182     1580     1952     2239     2365     2297 
    2072     1776     1482     1177      826      394     -143     -719 
   -1271    -1765    -2068    -2066    -1791    -1375     -970     -584 
    -160      233      537      843     1262     1807     2430     3030 
    3480     3708     3713     3476     2975     2258     1444      660 
     -43     -643    -1109    -1410    -1490    -1325     -978     -562 
    -201       48      175      180      145      167      230      294 
     328      322      351      476      683      912     1115     1332 
    1660     2045     2335     2475     2470     2296     2020     1792 
    1696     1683     1664     1610     1509     1314      974      496 
     -25     -484     -832    -1047    -1098    -1003     -837     -669 
    -499     -325     -143      105      510     1070     1640     2134 
    2555     2836     2945     2920     2733     2353     1800     1132 
     425     -243     -793    -1166    -1337    -1302    -1113     -827 
    -378      241      862     1367     1696     1800     1772     1679 
    1483     1262     1102      999      965     1003     1077     1152 
    1125      912      541       56     -430     -749     -837     -760 
    -592     -352       -8      388      730     1013     1256     1402 
    1409     1294     1129      992      850      699      629      602 
     554      541      589      726      977     1256     1474     1660 
    1848     1992     2019     1885     1606     1220      788      363 
      -8     -251     -341     -337     -253      -94       87      245 
     338      369      426      572      800     1094     1431     1742 
    1972     2097     2103     2030     1918     1746     1557     1382 
    1134      688        4     -814    -1586    -2154    -2370    -2177 
   -1676     -969     -101      791     1532     2031     2284     2380 
    2439     2446     2305     2064     1858     1706     1495     1179 
     823      488      264      184      122       -2     -140     -307 
    -507     -637     -633     -456      -76      415      870     1147 
    1185     1088      974      841      661      502      459      534 
     618      639      654      745      900     1055     1173     1263 
    1401     1695     2133     2532     2758     2798     2677     2448 
    2157     1748     1177      491     -233     -859    -1242    -1397 
   -1368    -1134     -758     -333      125      548      849     1023 
    1059      961      811      680      550      422      371      406 
     446      465      483      486      468      463      499      561 
     638      751      882     1023     1152     1202     1190     1213 
    1290     1389     1487     1555     1572     1541     1435     1237 
    1044      930      849      756      646      544      463      378 
     280      194      143      126      137      198      315      437 
     503      473      342      184       93       74      132      299 
     557      876     1240     1544     1636     1437     1030      595 
     288      209      371      679     1017     1285     1406     1383 
    1297     1246     1246     1258     1293     1351     1347     1210 
     984      739      526      391      399      562      747      819 
     780      652      422      144     -124     -326     -410     -423 
    -388     -228       32      306      587      853     1048     1181 
    1285     1321     1250     1138     1092     1148     1318     1552 
    1759     1921     2020     1979     1760     1395      938      457 
      29     -324     -567     -639     -592     -484     -294      -43 
     211      471      745     1007     1189     1244     1213     1150 
    1065      959      853      758      638      468      310      199 
     113       28      -63     -108      -12      228      473      670 
     943     1343     1776     2142     2308     2218     1983     1713 
    1433     1200     1069     1055     1109     1100      950      675 
     317       20      -79      -31       56      163      294      414 
     487      473      348      202      159      176      197      253 
     334      391      426      469      569      754     1013     1302 
    1544     1694     1764     1757     1622     1368     1088      827 
     564      268      -20     -172     -162      -64       98      306 
     491      621      711      805      915     1057     1281     1552 
    1771     1900     1927     1860     1711     1445     1105      815 
     600      425      290      184       89      -13     -149     -268 
    -252      -85       93      187      218      225      256      346 
     481      675      912     1111     1269     1440     1579     1611 
    1541     1428     1327     1220     1054      842      612      353 
     139      105      245      442      603      672      687      700 
     727      818      924      926      861      808      754      657 
     471      272      197      233      301      413      572      747 
     897      957      959     1012     1085     1081     1047     1036 
    1035     1011      882      618      321      182      268      432 
     537      631      807     1075     1309     1395     1405     1390 
    1306     1177     1028      865      710      495      218       -1 
    -120     -137      -66       86      342      675     1021     1317 
    1471     1458     1327     1117      876      665      487      290 
     108       21       -5       -2      118      346      556      712 
     857     1071     1382     1638     1717     1632     1413     1151 
     972      899      900      926      868      669      423      247 
     183      243      352      413      415      411      459      564 
     661      684      625      579      616      691      761      764 
     642      517      518      623      756      845      882      922 
     972     1034     1162     1355     1480     1425     1232      976 
     700      463      274      122       81      182      376      588 
     743      801      773      724      726      791      891      977 
    1034     1127     1269     1374     1420     1436     1387     1256 
    1093      930      778      685      643      619      583      496 
     371      222       41      -90      -76       51      189      225 
     116      -55     -184     -205      -76      113      251      334 
     388      452      581      778     1019     1259     1452     1610 
    1752     1837     1856     1818     1699     1505     1324     1177 
     985      766      557      292      -10     -238     -303     -174 
      79      371      696      999     1181     1248     1231     1166 
    1102     1048     1046     1121     1213     1287     1294     1166 
     986      881      850      864      884      849      768      673 
     561      486      480      483      452      387      349      395 
     465      533      621      691      711      627      414      187 
      40      -43      -66      -21       64      182      286      299 
     259      255      317      495      800     1124     1370     1524 
    1560     1478     1372     1348     1428     1548     1614     1587 
    1489     1352     1158      878      602      410      315      341 
     426      499      587      652      603      533      581      711 
     795      789      734      666      619      650      750      830 
     803      643      422      232      132      170      314      481 
     648      760      778      799      895     1047     1219     1317 
    1321     1340     1363     1291     1089      777      477      313 
