Origin Time       2025/03/30 10:18:00
Lat.              34.667
Long.             140.825
Depth. (km)       69
Mag.              4.9
Station Code      KNG002
Station Lat.      35.4372
Station Long.     139.6334
Station Height(m) 2
Record Time       2025/03/30 10:19:12
Sampling Freq(Hz) 100Hz
Duration Time(s)  60
Dir.              E-W
Scale Factor      7845(gal)/8223790
Max. Acc. (gal)   2.702
Last Correction   2025/03/30 10:19:11
Memo.             
[...]
   -4016    -4112    -4135    -4147    -4094    -4021    -4004    -3989 
   -3959    -3979    -4016    -3990    -3901    -3851    -3948    -4148 
   -4297    -4288    -4152    -4013    -3901    -3828    -3848    -3877 
   -3881    -3951    -4005    -3973    -3924    -3886    -3871    -3948 
   -4050    -4054    -4023    -4021    -4060    -4174    -4247    -4163 
   -4059    -4051    -4081    -4147    -4239    -4221    -4105    -4029 
   -3962    -3886    -3902    -3982    -4033    -4010    -3890    -3802 
   -3870    -3990    -4055    -4104    -4140    -4106    -4087    -4193 
   -4283    -4218    -4124    -4041    -3960    -3973    -4054    -4166 
   -4241    -4190    -4131    -4081    -3921    -3792    -3811    -3867 
   -3927    -3978    -3967    -3931    -3875    -3805    -3847    -4001 
   -4112    -4172    -4207    -4147    -4050    -4051    -4041    -3858 
   -3713    -3780    -3867    -3905    -3929    -3905    -3960    -4135 
   -4244    -4252    -4218    -4135    -4033    -3969    -3979    -4050 
   -4086    -4082    -4059    -3983    -3936    -3963    -3944    -3925 
   -4013    -4101    -4147    -4176    -4135    -4056    -3979    -3889 
   -3909    -4051    -4191    -4302    -4301    -4145    -3981    -3951 
   -4054    -4171    -4245    -4272    -4178    -4016    -3955    -3977 
   -3993    -3996    -3990    -3966    -3916    -3886    -3883    -3856 
   -3865    -3947    -4054    -4158    -4172    -4090    -4043    -4025 
   -4000    -4029    -4055    -3982    -3912    -3937    -4001    -4017 
   -3969    -3924    -3954    -4039    -4094    -4009    -3848    -3785 
   -3817    -3881    -3939    -3982    -4036    -4090    -4168    -4216 
   -4106    -4008    -4062    -4114    -4195    -4278    -4148    -4047 
   -4128    -4066    -3905    -3861    -3873    -3954    -4102    -4162 
   -4064    -3924    -3915    -4041    -4151    -4191    -4132    -4001 
   -4000    -4136    -4237    -4229    -4110    -4020    -4010    -3929 
   -3836    -3832    -3859    -3940    -4023    -4012    -3986    -4012 
   -4054    -4068    -4074    -4131    -4137    -4031    -3996    -4055 
   -4064    -4070    -4063    -4000    -4012    -4048    -4002    -4014 
   -4052    -3969    -3897    -3935    -4010    -4085    -4085    -4035 
   -4059    -4082    -4043    -4013    -3947    -3882    -3894    -3888 
   -3915    -4040    -4087    -4025    -3959    -3897    -3897    -4000 
   -4104    -4139    -4095    -4005    -4000    -4128    -4212    -4167 
   -4140    -4182    -4179    -4091    -4000    -3969    -3970    -3986 
   -3996    -3916    -3842    -3932    -4087    -4187    -4216    -4143 
   -4008    -3898    -3886    -3927    -3935    -3977    -4027    -4014 
   -4048    -4104    -4040    -3947    -3898    -3862    -3902    -4010 
   -4067    -4086    -4114    -4132    -4147    -4162    -4167    -4190 
   -4174    -4085    -4001    -3967    -3990    -4041    -4051    -4056 
   -4067    -3986    -3875    -3854    -3916    -4000    -4052    -4108 
   -4214    -4244    -4144    -4066    -4021    -4014    -4122    -4162 
   -4051    -3963    -3875    -3801    -3869    -3971    -3971    -3919 
   -3879    -3878    -3931    -3993    -3989    -3898    -3798    -3805 
   -3917    -4041    -4099    -4078    -4051    -4063    -4079    -4095 
   -4129    -4185    -4217    -4189    -4176    -4176    -4097    -4006 
   -3985    -4004    -4045    -4079    -4079    -4070    -4106    -4168 
   -4126    -4044    -4068    -4120    -4133    -4137    -4079    -3985 
   -4001    -4075    -4059    -3987    -3920    -3866    -3862    -3906 
   -3909    -3875    -3882    -3877    -3792    -3690    -3723    -3910 
   -4089    -4180    -4212    -4178    -4108    -4102    -4171    -4194 
   -4178    -4155    -4086    -4082    -4121    -4064    -4029    -4089 
   -4087    -3977    -3890    -3902    -3954    -3959    -3958    -4023 
   -4078    -4101    -4153    -4140    -4056    -3994    -3915    -3866 
   -3917    -4023    -4087    -4044    -3998    -4020    -4032    -4067 
   -4143    -4129    -4020    -3950    -3904    -3848    -3897    -3985 
   -3963    -3950    -4024    -4078    -4067    -4043    -4085    -4182 
   -4210    -4164    -4094    -4036    -4031    -4021    -4005    -4062 
   -4144    -4133    -4044    -4005    -4023    -4014    -3993    -4009 
   -4052    -4035    -3927    -3816    -3790    -3869    -3927    -3882 
   -3879    -3982    -4101    -4191    -4240    -4256    -4257    -4210 
   -4108    -4063    -4074    -3982    -3871    -3883    -3908    -3904 
   -3952    -4000    -4037    -4110    -4118    -4083    -4113    -4140 
   -4124    -4093    -4050    -4017    -3962    -3873    -3897    -4016 
   -4087    -4144    -4187    -4143    -4029    -3910    -3858    -3906 
   -3994    -4024    -3982    -3896    -3820    -3894    -4075    -4172 
   -4205    -4209    -4118    -3996    -4000    -4113    -4140    -4064 
   -3985    -3875    -3817    -3874    -3936    -3935    -3896    -3989 
   -4125    -4001    -3900    -4021    -4072    -4055    -4029    -3969 
   -3950    -3943    -3975    -4086    -4164    -4180    -4148    -4104 
   -4143    -4185    -4147    -4112    -4060    -3943    -3867    -3852 
   -3846    -3912    -4024    -4037    -3959    -3910    -3950    -4044 
   -4167    -4266    -4259    -4225    -4243    -4214    -4162    -4122 
   -4072    -4074    -4125    -4145    -4077    -3954    -3875    -3855 
   -3917    -4028    -3986    -3794    -3678    -3693    -3805    -3991 
   -4101    -4058    -4000    -4048    -4160    -4236    -4195    -4071 
   -3993    -3973    -3946    -3896    -3848    -3844    -3897    -3958 
   -3954    -3905    -3929    -4027    -4131    -4217    -4216    -4118 
   -4016    -3960    -3969    -4037    -4108    -4124    -4128    -4148 
   -4101    -4027    -4055    -4101    -4091    -4131    -4160    -4086 
   -4037    -4068    -4077    -4079    -4118    -4101    -4028    -4044 
   -4099    -4039    -3901    -3804    -3848    -3991    -4021    -3996 
   -4055    -4068    -4012    -3997    -3979    -3924    -3904    -3960 
   -4059    -4125    -4175    -4182    -4110    -4122    -4198    -4125 
   -3994    -3981    -3982    -3925    -3915    -3890    -3817    -3878 
   -3983    -3983    -3975    -3966    -3919    -3859    -3808    -3812 
   -3855    -3923    -4040    -4087    -4024    -4028    -4102    -4091 
   -4070    -4149    -4217    -4216    -4209    -4166    -4067    -3986 
   -3959    -3977    -4035    -4113    -4148    -4113    -4020    -3942 
   -4031    -4159    -4082    -3964    -3970    -3967    -3962    -4012 
   -4058    -4071    -4060    -4054    -4078    -4143    -4168    -4099 
   -4083    -4143    -4139    -4090    -4031    -3952    -3947    -3978 
   -3950    -3939    -3947    -3921    -3946    -3977    -3956    -4005 
   -4070    -4054    -4027    -4016    -4048    -4117    -4148    -4124 
   -4098    -4081    -4010    -3954    -3975    -3951    -3883    -3869 
   -3916    -3991    -4012    -3993    -4048    -4097    -4013    -3898 
   -3928    -4043    -4043    -4006    -4085    -4093    -3977    -3921 
   -3935    -3981    -3978    -3883    -3867    -3937    -4013    -4116 
   -4114    -3998    -3970    -4055    -4175    -4295    -4345    -4267 
   -4156    -4163    -4228    -4234    -4209    -4158    -4125    -4186 
   -4171    -4016    -3971    -3970    -3856    -3867    -3935    -3802 
   -3680    -3703    -3773    -3879    -3956    -3998    -4025    -3960 
   -3905    -3991    -4112    -4128    -4072    -4062    -4062    -3975 
   -3910    -3925    -3919    -3940    -4035    -4085    -4112    -4170 
   -4143    -4054    -4099    -4209    -4199    -4153    -4162    -4159 
   -4144    -4148    -4145    -4139    -4140    -4095    -4004    -3979 
   -4031    -4043    -3962    -3877    -3862    -3881    -3920    -3959 
   -3929    -3885    -3854    -3832    -3912    -4055    -4131    -4114 
   -4066    -4054    -4064    -4098    -4152    -4147    -4149    -4245 
   -4298    -4234    -4129    -4025    -3978    -3998    -3985    -3904 
   -3847    -3820    -3797    -3808    -3840    -3855    -3811    -3767 
   -3850    -3964    -4008    -4040    -4006    -3919    -3962    -4063 
   -4094    -4118    -4089    -3998    -3971    -4071    -4224    -4216 
   -4077    -4078    -4116    -4016    -4004    -4098    -4098    -4101 
   -4114    -4051    -4064    -4122    -4064    -3981    -3973    -4037 
   -4109    -4086    -4004    -3946    -3902    -3866    -3885    -3997 
   -4135    -4220    -4264    -4279    -4268    -4226    -4178    -4179 
   -4183    -4153    -4163    -4203    -4187    -4058    -3878    -3792 
   -3782    -3744    -3711    -3726    -3800    -3947    -4078    -4090 
   -4025    -4009    -4025    -3959    -3877    -3898    -3956    -3958 
   -3974    -4013    -3991    -3954    -3943    -3940    -3960    -3993 
   -4020    -4066    -4132    -4133    -4054    -4004    -4013    -4063 
   -4145    -4214    -4276    -4278    -4139    -4010    -4025    -4114 
   -4185    -4174    -4079    -3990    -3983    -4024    -4021    -3967 
   -3927    -3909    -3913    -3960    -4001    -4004    -3977    -3979 
   -4033    -4024    -3983    -4021    -4060    -4051    -4020    -3962 
   -3923    -3944    -3987    -4024    -4024    -4066    -4199    -4239 
   -4155    -4122    -4116    -4021    -3906    -3896    -3978    -4021 
   -3993    -3947    -3913    -3919    -3931    -3867    -3774    -3747 
   -3732    -3743    -3894    -4040    -4059    -4081    -4128    -4129 
   -4095    -4056    -4067    -4212    -4398    -4430    -4360    -4326 
   -4272    -4124    -3993    -3963    -3959    -3991    -4114    -4205 
   -4191    -4190    -4171    -4067    -3998    -3978    -3937    -3921 
   -3916    -3875    -3871    -3894    -3883    -3846    -3821    -3862 
   -3915    -3951    -4064    -4160    -4102    -4020    -4004    -3994 
   -3983    -3985    -3994    -4031    -4101    -4147    -4167    -4176 
   -4133    -4089    -4097    -4091    -4059    -4040    -4009    -3956 
   -3948    -3967    -3921    -3838    -3850    -3959    -4045    -4158 
   -4288    -4280    -4205    -4159    -4110    -4155    -4256    -4225 
   -4108    -4062    -4086    -4093    -4079    -4043    -3927    -3815 
   -3775    -3774    -3816    -3835    -3766    -3720    -3742    -3735 
   -3727    -3759    -3784    -3824    -3905    -4002    -4058    -4058 
   -4056    -4054    -4017    -3967    -3927    -3901    -3896    -3904 
   -3886    -3842    -3866    -3937    -3932    -3882    -3861    -3890 
   -3978    -4020    -3916    -3736    -3630    -3655    -3757    -3874 
   -3996    -4079    -4120    -4197    -4353    -4507    -4527    -4502 
   -4629    -4819    -4916    -4928    -4909    -4870    -4804    -4733 
   -4627    -4432    -4195    -3990    -3889    -3855    -3731    -3543 
   -3414    -3341    -3308    -3333    -3442    -3541    -3477    -3376 
   -3435    -3600    -3807    -4067    -4279    -4372    -4365    -4322 
   -4328    -4360    -4374    -4356    -4291    -4252    -4261    -4194 
   -4051    -3902    -3726    -3574    -3450    -3326    -3300    -3369 
   -3493    -3655    -3820    -4055    -4278    -4390    -4527    -4680 
   -4841    -5104    -5332    -5440    -5468    -5346    -5154    -5038 
   -4931    -4753    -4471    -4091    -3742    -3504    -3329    -3187 
   -3072    -2987    -2965    -2998    -3056    -3121    -3156    -3191 
   -3277    -3385    -3497    -3585    -3643    -3790    -4031    -4267 
   -4461    -4556    -4591    -4664    -4742    -4882    -5120    -5310 
   -5355    -5232    -5020    -4839    -4646    -4414    -4170    -3947 
   -3792    -3596    -3331    -3111    -2886    -2625    -2412    -2308 
   -2312    -2309    -2332    -2543    -2880    -3187    -3380    -3431 
   -3456    -3562    -3688    -3796    -3985    -4260    -4546    -4814 
   -5042    -5217    -5354    -5474    -5610    -5730    -5737    -5636 
   -5482    -5277    -5062    -4804    -4441    -4114    -3964    -3915 
   -3904    -3924    -3879    -3719    -3496    -3288    -3164    -3150 
   -3161    -3129    -3171    -3314    -3426    -3526    -3674    -3811 
   -3936    -4105    -4236    -4274    -4293    -4309    -4267    -4244 
   -4360    -4526    -4554    -4446    -4342    -4233    -4054    -3910 
   -3882    -3924    -3985    -3987    -3904    -3827    -3846    -3870 
   -3811    -3771    -3740    -3653    -3627    -3746    -3991    -4278 
   -4444    -4468    -4440    -4388    -4419    -4603    -4774    -4804 
   -4719    -4557    -4390    -4284    -4185    -3998    -3786    -3613 
   -3350    -2990    -2745    -2646    -2594    -2575    -2602    -2772 
   -3100    -3470    -3881    -4301    -4612    -4747    -4723    -4739 
   -4891    -5012    -5092    -5244    -5413    -5483    -5441    -5312 
   -5067    -4712    -4306    -3850    -3348    -2878    -2515    -2232 
   -2065    -2135    -2386    -2705    -3095    -3465    -3674    -3808 
   -3978    -4093    -4162    -4342    -4563    -4735    -4911    -5013 
   -5039    -5042    -4903    -4699    -4575    -4379    -4133    -4013 
   -3892    -3658    -3466    -3389    -3365    -3410    -3512    -3582 
   -3631    -3765    -4031    -4317    -4519    -4672    -4762    -4704 
   -4608    -4604    -4606    -4617    -4641    -4477    -4234    -4190 
   -4199    -4197    -4302    -4337    -4284    -4334    -4414    -4504 
   -4656    -4746    -4777    -4850    -4876    -4716    -4356    -3844 
   -3222    -2552    -1987    -1640    -1424    -1254    -1216    -1313 
   -1526    -1933    -2436    -2863    -3257    -3676    -4039    -4294 
   -4530    -4857    -5286    -5744    -6170    -6554    -6813    -6859 
   -6713    -6399    -6021    -5710    -5379    -4969    -4575    -4272 
   -4093    -3942    -3727    -3500    -3235    -2999    -2955    -3001 
   -3044    -3072    -2976    -2863    -2863    -2863    -2762    -2601 
   -2554    -2705    -2951    -3235    -3582    -3964    -4261    -4455 
   -4654    -4872    -5026    -5007    -4783    -4595    -4553    -4484 
   -4517    -4727    -4776    -4634    -4498    -4365    -4325    -4410 
   -4437    -4395    -4367    -4248    -3979    -3736    -3592    -3407 
   -3141    -2898    -2749    -2695    -2663    -2697    -2903    -3142 
   -3352    -3649    -4025    -4448    -4868    -5221    -5520    -5680 
   -5718    -5757    -5709    -5556    -5328    -4916    -4357    -3789 
   -3345    -3087    -2914    -2779    -2735    -2818    -3030    -3287 
   -3555    -3870    -4166    -4351    -4515    -4760    -5001    -5157 
   -5193    -5120    -5049    -5073    -5127    -5007    -4675    -4249 
   -3653    -2936    -2459    -2269    -2185    -2166    -2139    -2127 
   -2239    -2444    -2720    -3114    -3580    -4024    -4457    -4868 
   -5158    -5274    -5209    -4992    -4729    -4561    -4521    -4525 
   -4591    -4703    -4738    -4714    -4687    -4662    -4677    -4664 
   -4679    -4795    -4841    -4752    -4515    -4120    -3709    -3284 
   -2889    -2713    -2675    -2689    -2793    -2978    -3237    -3515 
   -3786    -4052    -4224    -4315    -4360    -4338    -4337    -4288 
   -4112    -3979    -3905    -3789    -3650    -3496    -3397    -3361 
   -3257    -3132    -3141    -3326    -3639    -4066    -4580    -5050 
   -5378    -5584    -5656    -5684    -5790    -5827    -5679    -5416 
   -5032    -4549    -4066    -3605    -3248    -3075    -3032    -3064 
   -3115    -3152    -3214    -3321    -3497    -3720    -3885    -3991 
   -4045    -4035    -4060    -4101    -4043    -3954    -3916    -3897 
   -3800    -3608    -3465    -3418    -3410    -3497    -3607    -3549 
   -3426    -3437    -3591    -3842    -4101    -4276    -4372    -4380 
   -4390    -4542    -4699    -4654    -4506    -4437    -4460    -4479 
   -4506    -4611    -4700    -4660    -4504    -4303    -4158    -4093 
   -4070    -4072    -4090    -4106    -4145    -4224    -4290    -4359 
   -4438    -4445    -4374    -4212    -3954    -3730    -3555    -3423 
   -3396    -3423    -3389    -3261    -3119    -3056    -3078    -3192 
   -3380    -3557    -3747    -3979    -4140    -4191    -4209    -4228 
   -4232    -4206    -4167    -4112    -4044    -4045    -4106    -4159 
   -4191    -4209    -4268    -4347    -4332    -4266    -4264    -4349 
   -4467    -4530    -4545    -4573    -4480    -4243    -4094    -4066 
   -4041    -4052    -4124    -4172    -4086    -3893    -3754    -3751 
   -3778    -3767    -3808    -3852    -3821    -3809    -3797    -3801 
   -3839    -3757    -3605    -3457    -3241    -3065    -3002    -2988 
   -3082    -3262    -3473    -3813    -4221    -4588    -4995    -5354 
   -5548    -5726    -5868    -5769    -5498    -5178    -4816    -4459 
   -4131    -3820    -3518    -3257    -3065    -2925    -2856    -2857 
   -2880    -2914    -3034    -3280    -3603    -4004    -4426    -4738 
   -4905    -4965    -4959    -4954    -4951    -4896    -4761    -4563 
   -4341    -4137    -3970    -3856    -3808    -3805    -3852    -3955 
   -4058    -4059    -3981    -3937    -3889    -3771    -3657    -3569 
   -3508    -3514    -3554    -3569    -3565    -3562    -3620    -3738 
   -3782    -3750    -3757    -3825    -3890    -3920    -3958    -4039 
   -4105    -4058    -3958    -3905    -3838    -3739    -3674    -3643 
   -3622    -3568    -3518    -3581    -3721    -3829    -3955    -4145 
   -4305    -4406    -4490    -4606    -4766    -4839    -4799    -4776 
   -4785    -4765    -4743    -4738    -4720    -4688    -4577    -4396 
   -4271    -4159    -3994    -3835    -3681    -3542    -3461    -3433 
   -3450    -3495    -3588    -3761    -3920    -4018    -4099    -4166 
   -4243    -4332    -4394    -4401    -4295    -4135    -4031    -3951 
   -3851    -3754    -3670    -3632    -3670    -3759    -3828    -3866 
   -3909    -3913    -3893    -3933    -3942    -3897    -3929    -3987 
   -3985    -3994    -4059    -4105    -4102    -4203    -4401    -4518 
   -4618    -4708    -4627    -4463    -4340    -4213    -4101    -4021 
   -3966    -3958    -3960    -3916    -3850    -3796    -3731    -3677 
   -3672    -3686    -3708    -3701    -3646    -3632    -3684    -3732 
   -3800    -3901    -4000    -4139    -4324    -4418    -4413    -4455 
   -4540    -4580    -4615    -4638    -4558    -4444    -4375    -4297 
   -4209    -4129    -3963    -3712    -3530    -3458    -3462    -3472 
   -3341    -3165    -3141    -3196    -3287    -3399    -3439    -3526 
   -3694    -3805    -3936    -4099    -4197    -4313    -4456    -4536 
   -4606    -4702    -4774    -4828    -4873    -4858    -4727    -4577 
   -4531    -4506    -4372    -4221    -4124    -3991    -3875    -3835 
   -3721    -3557    -3543    -3597    -3558    -3496    -3518    -3599 
   -3627    -3635    -3669    -3649    -3663    -3816    -3975    -4052 
   -4047    -4010    -4045    -4089    -4066    -4075    -4140    -4218 
   -4299    -4376    -4498    -4617    -4631    -4606    -4568    -4507 
   -4463    -4384    -4239    -4075    -3901    -3747    -3624    -3539 
   -3538    -3530    -3454    -3380    -3329    -3360    -3510    -3704 
   -3913    -4072    -4145    -4225    -4315    -4430    -4599    -4698 
   -4716    -4733    -4761    -4810    -4762    -4575    -4390    -4228 
   -4072    -3962    -3901    -3869    -3786    -3638    -3489    -3346 
   -3241    -3196    -3161    -3157    -3230    -3325    -3418    -3528 
   -3672    -3843    -4006    -4166    -4305    -4383    -4423    -4455 
