Origin Time       2025/03/30 10:18:00
Lat.              34.667
Long.             140.825
Depth. (km)       69
Mag.              4.9
Station Code      KNG002
Station Lat.      35.4372
Station Long.     139.6334
Station Height(m) 2
Record Time       2025/03/30 10:19:12
Sampling Freq(Hz) 100Hz
Duration Time(s)  60
Dir.              N-S
Scale Factor      7845(gal)/8223790
Max. Acc. (gal)   2.326
Last Correction   2025/03/30 10:19:11
Memo.             
[...]
   -8479    -8402    -8384    -8475    -8487    -8402    -8418    -8498 
   -8545    -8607    -8687    -8702    -8602    -8476    -8415    -8426 
   -8498    -8571    -8604    -8603    -8527    -8440    -8490    -8564 
   -8505    -8456    -8445    -8371    -8363    -8444    -8467    -8414 
   -8332    -8253    -8244    -8329    -8438    -8499    -8518    -8557 
   -8629    -8662    -8590    -8468    -8455    -8536    -8572    -8610 
   -8743    -8857    -8806    -8611    -8391    -8253    -8255    -8398 
   -8607    -8734    -8748    -8719    -8653    -8590    -8571    -8502 
   -8351    -8229    -8198    -8235    -8294    -8336    -8364    -8405 
   -8461    -8549    -8626    -8604    -8509    -8417    -8414    -8549 
   -8691    -8731    -8733    -8710    -8622    -8488    -8421    -8425 
   -8398    -8422    -8496    -8451    -8371    -8411    -8549    -8629 
   -8595    -8614    -8689    -8712    -8726    -8710    -8584    -8521 
   -8641    -8698    -8575    -8442    -8357    -8328    -8386    -8445 
   -8417    -8383    -8430    -8434    -8329    -8213    -8236    -8417 
   -8509    -8455    -8455    -8506    -8546    -8583    -8587    -8561 
   -8519    -8492    -8536    -8662    -8706    -8623    -8610    -8572 
   -8405    -8348    -8437    -8507    -8559    -8587    -8602    -8644 
   -8645    -8600    -8550    -8483    -8457    -8472    -8472    -8529 
   -8626    -8635    -8600    -8527    -8407    -8374    -8402    -8374 
   -8316    -8272    -8302    -8437    -8553    -8576    -8579    -8544 
   -8463    -8441    -8487    -8563    -8635    -8584    -8469    -8469 
   -8486    -8428    -8415    -8471    -8503    -8499    -8526    -8556 
   -8548    -8580    -8621    -8573    -8530    -8592    -8677    -8677 
   -8633    -8579    -8482    -8402    -8433    -8538    -8617    -8634 
   -8622    -8586    -8525    -8503    -8540    -8567    -8541    -8505 
   -8526    -8553    -8518    -8486    -8441    -8361    -8297    -8216 
   -8174    -8245    -8309    -8305    -8337    -8424    -8468    -8457 
   -8488    -8580    -8595    -8540    -8627    -8795    -8808    -8725 
   -8656    -8592    -8560    -8538    -8483    -8461    -8478    -8499 
   -8568    -8588    -8510    -8472    -8490    -8550    -8583    -8436 
   -8318    -8378    -8382    -8332    -8391    -8525    -8622    -8658 
   -8662    -8584    -8488    -8467    -8463    -8487    -8521    -8573 
   -8694    -8704    -8634    -8571    -8425    -8425    -8583    -8549 
   -8487    -8554    -8542    -8478    -8448    -8438    -8464    -8527 
   -8621    -8649    -8592    -8534    -8452    -8363    -8343    -8361 
   -8375    -8409    -8487    -8564    -8598    -8611    -8617    -8594 
   -8527    -8438    -8379    -8368    -8367    -8370    -8436    -8536 
   -8556    -8457    -8355    -8349    -8383    -8434    -8518    -8533 
   -8507    -8544    -8536    -8499    -8573    -8599    -8483    -8438 
   -8518    -8594    -8667    -8692    -8588    -8491    -8506    -8564 
   -8622    -8619    -8549    -8496    -8484    -8472    -8471    -8540 
   -8602    -8537    -8445    -8413    -8374    -8314    -8298    -8384 
   -8541    -8617    -8571    -8536    -8571    -8630    -8667    -8657 
   -8644    -8654    -8617    -8525    -8467    -8445    -8452    -8499 
   -8568    -8646    -8680    -8641    -8545    -8459    -8498    -8591 
   -8556    -8464    -8452    -8424    -8320    -8272    -8344    -8444 
   -8483    -8445    -8397    -8402    -8446    -8472    -8478    -8519 
   -8575    -8563    -8515    -8537    -8592    -8622    -8667    -8661 
   -8557    -8482    -8468    -8421    -8376    -8406    -8417    -8428 
   -8540    -8640    -8656    -8631    -8557    -8473    -8409    -8344 
   -8298    -8307    -8394    -8469    -8472    -8494    -8565    -8635 
   -8699    -8772    -8815    -8761    -8646    -8533    -8434    -8403 
   -8430    -8441    -8442    -8484    -8575    -8679    -8725    -8681 
   -8603    -8509    -8409    -8374    -8421    -8469    -8453    -8407 
   -8428    -8473    -8413    -8325    -8372    -8461    -8476    -8479 
   -8498    -8513    -8560    -8631    -8658    -8602    -8495    -8436 
   -8471    -8532    -8577    -8614    -8595    -8510    -8452    -8418 
   -8370    -8409    -8505    -8500    -8459    -8460    -8424    -8336 
   -8284    -8338    -8494    -8614    -8625    -8587    -8522    -8480 
   -8518    -8575    -8656    -8760    -8741    -8565    -8364    -8248 
   -8267    -8388    -8514    -8576    -8569    -8502    -8425    -8428 
   -8484    -8536    -8577    -8561    -8513    -8537    -8577    -8590 
   -8641    -8669    -8623    -8596    -8552    -8499    -8568    -8667 
   -8644    -8613    -8654    -8610    -8494    -8478    -8527    -8571 
   -8607    -8554    -8437    -8418    -8448    -8382    -8341    -8388 
   -8364    -8259    -8225    -8266    -8290    -8367    -8506    -8568 
   -8575    -8625    -8685    -8684    -8571    -8398    -8355    -8471 
   -8565    -8587    -8567    -8532    -8522    -8491    -8496    -8625 
   -8706    -8652    -8607    -8622    -8600    -8571    -8610    -8595 
   -8464    -8382    -8364    -8341    -8391    -8498    -8518    -8529 
   -8548    -8496    -8579    -8730    -8614    -8411    -8390    -8428 
   -8442    -8463    -8436    -8398    -8451    -8552    -8604    -8603 
   -8534    -8394    -8398    -8607    -8681    -8603    -8599    -8579 
   -8532    -8549    -8550    -8537    -8557    -8561    -8533    -8549 
   -8623    -8607    -8532    -8518    -8460    -8337    -8280    -8302 
   -8326    -8347    -8401    -8465    -8523    -8565    -8546    -8490 
   -8448    -8441    -8440    -8449    -8513    -8554    -8496    -8417 
   -8432    -8502    -8525    -8542    -8545    -8465    -8437    -8523 
   -8557    -8499    -8478    -8476    -8445    -8505    -8607    -8579 
   -8511    -8494    -8476    -8502    -8577    -8629    -8634    -8572 
   -8511    -8544    -8599    -8650    -8716    -8694    -8634    -8617 
   -8509    -8392    -8424    -8446    -8411    -8444    -8505    -8511 
   -8509    -8526    -8553    -8625    -8667    -8596    -8533    -8514 
   -8440    -8343    -8236    -8121    -8148    -8284    -8340    -8360 
   -8446    -8540    -8614    -8633    -8604    -8646    -8722    -8750 
   -8775    -8745    -8638    -8545    -8479    -8448    -8451    -8445 
   -8478    -8530    -8506    -8444    -8409    -8370    -8336    -8340 
   -8367    -8465    -8611    -8661    -8692    -8746    -8671    -8561 
   -8479    -8371    -8405    -8511    -8534    -8573    -8560    -8478 
   -8480    -8495    -8468    -8492    -8509    -8465    -8434    -8413 
   -8488    -8648    -8630    -8534    -8590    -8633    -8671    -8743 
   -8673    -8584    -8560    -8517    -8542    -8608    -8572    -8468 
   -8440    -8487    -8522    -8517    -8459    -8380    -8322    -8290 
   -8253    -8181    -8155    -8148    -8085    -8100    -8182    -8208 
   -8245    -8351    -8502    -8625    -8664    -8695    -8750    -8819 
   -8872    -8837    -8754    -8702    -8677    -8671    -8671    -8640 
   -8591    -8565    -8515    -8433    -8401    -8402    -8386    -8432 
   -8545    -8634    -8699    -8742    -8716    -8633    -8511    -8392 
   -8382    -8467    -8546    -8600    -8618    -8568    -8496    -8468 
   -8494    -8523    -8471    -8359    -8361    -8498    -8573    -8526 
   -8424    -8321    -8268    -8276    -8314    -8397    -8565    -8716 
   -8722    -8656    -8633    -8667    -8695    -8679    -8621    -8530 
   -8495    -8523    -8498    -8499    -8546    -8513    -8483    -8519 
   -8534    -8521    -8469    -8394    -8332    -8266    -8228    -8251 
   -8293    -8336    -8394    -8473    -8522    -8503    -8487    -8529 
   -8588    -8615    -8615    -8622    -8641    -8676    -8730    -8733 
   -8654    -8579    -8554    -8580    -8602    -8537    -8433    -8379 
   -8374    -8437    -8567    -8669    -8657    -8591    -8592    -8584 
   -8503    -8434    -8384    -8365    -8365    -8316    -8298    -8368 
   -8453    -8514    -8534    -8546    -8573    -8527    -8428    -8388 
   -8403    -8401    -8370    -8345    -8360    -8428    -8511    -8552 
   -8575    -8583    -8546    -8540    -8580    -8588    -8648    -8787 
   -8820    -8753    -8687    -8602    -8546    -8569    -8614    -8650 
   -8669    -8649    -8572    -8496    -8476    -8432    -8356    -8359 
   -8371    -8303    -8262    -8293    -8310    -8291    -8320    -8398 
   -8411    -8361    -8367    -8411    -8442    -8483    -8534    -8581 
   -8595    -8568    -8560    -8602    -8679    -8791    -8885    -8884 
   -8804    -8727    -8665    -8591    -8509    -8449    -8432    -8460 
   -8496    -8499    -8517    -8553    -8536    -8519    -8549    -8518 
   -8437    -8399    -8379    -8344    -8349    -8405    -8457    -8502 
   -8517    -8480    -8442    -8414    -8368    -8341    -8363    -8421 
   -8491    -8576    -8650    -8640    -8590    -8561    -8492    -8371 
   -8243    -8097    -7985    -7975    -7989    -7986    -8062    -8181 
   -8278    -8425    -8626    -8818    -9036    -9305    -9512    -9591 
   -9560    -9450    -9327    -9189    -9070    -9008    -8903    -8776 
   -8631    -8368    -8094    -7942    -7867    -7809    -7739    -7661 
   -7665    -7777    -7912    -8033    -8160    -8260    -8332    -8397 
   -8476    -8611    -8791    -9030    -9263    -9364    -9405    -9452 
   -9431    -9343    -9215    -9012    -8746    -8544    -8475    -8387 
   -8222    -8117    -8017    -7794    -7545    -7341    -7156    -7074 
   -7132    -7292    -7585    -7908    -8124    -8271    -8374    -8430 
   -8490    -8557    -8654    -8854    -9128    -9332    -9417    -9470 
   -9524    -9456    -9238    -9040    -8937    -8888    -8912    -8966 
   -8942    -8838    -8723    -8607    -8490    -8407    -8379    -8401 
   -8517    -8729    -8878    -8851    -8754    -8630    -8421    -8233 
   -8144    -8132    -8274    -8482    -8595    -8684    -8737    -8665 
   -8517    -8266    -7947    -7767    -7777    -7838    -7870    -7906 
   -7933    -7951    -8048    -8172    -8241    -8324    -8425    -8525 
   -8625    -8677    -8768    -8988    -9202    -9342    -9494    -9680 
   -9863    -9968    -9940    -9737    -9387    -9040    -8768    -8564 
   -8442    -8355    -8225    -8020    -7769    -7555    -7379    -7230 
   -7215    -7349    -7500    -7545    -7501    -7489    -7499    -7472 
   -7453    -7497    -7619    -7758    -7894    -8098    -8305    -8433 
   -8545    -8672    -8812    -9012    -9189    -9258    -9317    -9377 
   -9387    -9435    -9477    -9450    -9490    -9616    -9715    -9795 
   -9844    -9752    -9498    -9188    -8943    -8823    -8857    -9030 
   -9146    -9053    -8876    -8685    -8403    -8095    -7809    -7474 
   -7144    -6883    -6671    -6498    -6488    -6745    -7137    -7553 
   -7979    -8322    -8644    -8993    -9250    -9482    -9718    -9811 
   -9802    -9736    -9513    -9196    -8968    -8802    -8625    -8468 
   -8206    -7797    -7506    -7384    -7330    -7446    -7732    -8037 
   -8326    -8576    -8738    -8835    -8888    -8884    -8837    -8769 
   -8672    -8552    -8471    -8484    -8621    -8810    -8954    -9074 
   -9132    -9089    -9023    -8907    -8748    -8596    -8382    -8148 
   -7916    -7666    -7584    -7661    -7773    -7938    -8083    -8247 
   -8510    -8685    -8757    -8931    -9169    -9423    -9703    -9869 
   -9875    -9752    -9499    -9204    -8905    -8592    -8287    -8010 
   -7850    -7844    -7882    -7932    -7987    -7954    -7857    -7774 
   -7701    -7723    -7909    -8116    -8203    -8213    -8198    -8117 
   -8021    -8056    -8151    -8164    -8147    -8106    -8023    -7987 
   -8014    -8060    -8182    -8444    -8743    -8973    -9131    -9239 
   -9336    -9455    -9590    -9741    -9840    -9811    -9733    -9655 
   -9521    -9354    -9192    -8996    -8787    -8577    -8295    -7974 
   -7744    -7643    -7614    -7593    -7577    -7580    -7588    -7646 
   -7836    -8136    -8452    -8739    -8942    -9023    -9049    -8982 
   -8718    -8418    -8280    -8171    -8048    -8148    -8444    -8722 
   -8928    -8970    -8907    -8928    -8905    -8692    -8441    -8311 
   -8311    -8357    -8395    -8425    -8424    -8357    -8226    -8135 
   -8181    -8353    -8644    -9003    -9294    -9389    -9273    -9147 
   -9171    -9223    -9135    -8904    -8621    -8368    -8191    -8043 
   -7847    -7677    -7558    -7466    -7466    -7516    -7550    -7568 
   -7450    -7226    -7142    -7249    -7468    -7732    -7940    -8166 
   -8554    -9024    -9412    -9709    -9906    -9892    -9753    -9720 
   -9805    -9907   -10052   -10312   -10528   -10454   -10218    -9998 
   -9756    -9531    -9292    -9007    -8716    -8338    -7808    -7194 
   -6731    -6521    -6384    -6393    -6656    -6994    -7269    -7377 
   -7307    -7203    -7176    -7333    -7681    -8068    -8336    -8403 
   -8344    -8316    -8355    -8371    -8334    -8334    -8434    -8607 
   -8818    -9054    -9319    -9641   -10008   -10276   -10384   -10407 
  -10347   -10218   -10037    -9783    -9524    -9262    -8910    -8483 
   -8046    -7686    -7573    -7755    -7982    -8050    -8067    -8083 
   -8051    -7965    -7797    -7649    -7603    -7596    -7605    -7611 
   -7703    -7912    -8044    -8117    -8201    -8201    -8187    -8160 
   -8046    -7965    -7936    -7938    -8078    -8289    -8484    -8760 
   -9121    -9520    -9925   -10226   -10380   -10489   -10685   -10908 
  -10948   -10779   -10478   -10069    -9616    -9161    -8725    -8314 
   -7911    -7566    -7273    -6940    -6586    -6319    -6230    -6276 
   -6311    -6355    -6501    -6716    -6970    -7240    -7564    -8056 
   -8608    -9032    -9359    -9590    -9690    -9736    -9686    -9528 
   -9367    -9181    -9018    -8947    -8846    -8748    -8762    -8831 
   -8928    -8978    -8935    -8892    -8803    -8638    -8559    -8592 
   -8637    -8650    -8607    -8482    -8257    -7971    -7753    -7615 
   -7484    -7453    -7581    -7743    -7928    -8206    -8549    -8911 
   -9248    -9464    -9521    -9448    -9294    -9094    -8864    -8667 
   -8522    -8367    -8203    -7997    -7755    -7630    -7626    -7711 
   -7933    -8235    -8550    -8892    -9170    -9281    -9347    -9487 
   -9495    -9279    -9140    -9165    -9148    -9015    -8731    -8360 
   -8074    -7827    -7620    -7604    -7609    -7537    -7533    -7551 
   -7593    -7678    -7732    -7911    -8286    -8634    -8829    -8946 
   -9045    -9169    -9382    -9512    -9494    -9468    -9329    -9116 
   -9007    -8857    -8665    -8518    -8334    -8301    -8498    -8665 
   -8822    -8920    -8772    -8630    -8561    -8374    -8244    -8172 
   -7960    -7809    -7746    -7609    -7585    -7736    -7936    -8213 
   -8479    -8611    -8662    -8577    -8430    -8433    -8471    -8471 
   -8548    -8614    -8640    -8684    -8672    -8634    -8614    -8572 
   -8592    -8721    -8834    -8883    -9001    -9127    -9051    -8912 
   -8826    -8681    -8509    -8326    -8136    -8009    -7916    -7816 
   -7730    -7738    -7889    -8059    -8202    -8403    -8627    -8777 
   -8845    -8904    -8996    -9032    -9009    -9086    -9263    -9346 
   -9278    -9144    -8988    -8866    -8806    -8700    -8500    -8347 
   -8286    -8189    -8052    -7962    -7919    -7902    -7869    -7805 
   -7727    -7654    -7682    -7848    -8052    -8216    -8313    -8391 
   -8471    -8511    -8545    -8560    -8517    -8491    -8523    -8552 
   -8607    -8695    -8764    -8889    -9076    -9157    -9194    -9359 
   -9524    -9521    -9408    -9285    -9131    -8953    -8839    -8787 
   -8692    -8506    -8299    -8202    -8225    -8230    -8164    -8125 
   -8059    -7866    -7689    -7654    -7716    -7803    -7840    -7889 
   -8033    -8179    -8330    -8557    -8768    -8903    -8968    -8951 
   -8873    -8777    -8749    -8812    -8887    -8968    -9082    -9169 
   -9174    -9126    -9039    -8896    -8726    -8563    -8433    -8361 
   -8303    -8208    -8117    -8087    -8006    -7816    -7740    -7792 
   -7825    -7920    -8043    -8083    -8094    -8087    -8060    -8085 
   -8189    -8303    -8371    -8398    -8414    -8456    -8509    -8567 
   -8650    -8718    -8761    -8795    -8791    -8777    -8842    -9007 
   -9163    -9207    -9171    -9142    -9180    -9215    -9146    -9057 
   -8986    -8884    -8787    -8706    -8615    -8519    -8424    -8378 
   -8380    -8360    -8337    -8375    -8436    -8467    -8495    -8527 
   -8514    -8436    -8295    -8114    -7939    -7765    -7595    -7434 
   -7272    -7200    -7298    -7454    -7605    -7852    -8185    -8463 
   -8679    -8834    -8904    -8958    -9005    -9001    -9008    -9073 
   -9123    -9153    -9208    -9262    -9313    -9379    -9373    -9263 
   -9128    -9007    -8924    -8900    -8865    -8761    -8673    -8653 
   -8577    -8356    -8175    -8218    -8225    -8001    -7842    -7838 
   -7767    -7692    -7732    -7801    -7904    -8086    -8244    -8349 
   -8473    -8658    -8919    -9178    -9320    -9364    -9382    -9390 
   -9414    -9462    -9471    -9397    -9262    -9092    -8901    -8665 
   -8365    -8110    -7943    -7742    -7484    -7252    -7103    -7096 
   -7203    -7321    -7443    -7578    -7689    -7848    -8098    -8329 
   -8488    -8614    -8719    -8823    -8920    -9019    -9132    -9231 
   -9298    -9285    -9162    -9059    -9011    -8861    -8621    -8463 
   -8340    -8145    -8044    -8071    -8066    -8024    -8000    -8016 
   -8078    -8162    -8302    -8472    -8608    -8764    -8932    -9039 
   -9085    -9072    -8989    -8897    -8837    -8777    -8733    -8788 
   -8939    -9067    -9138    -9189    -9142    -8969    -8807    -8669 
   -8511    -8410    -8332    -8226    -8190    -8186    -8143    -8074 
   -7971    -7916    -7950    -7977    -8004    -8068    -8124    -8181 
   -8272    -8355    -8388    -8410    -8461    -8514    -8530    -8509 
   -8441    -8367    -8343    -8340    -8364    -8455    -8499    -8472 
   -8529    -8667    -8793    -8939    -9096    -9173    -9165    -9136 
   -9128    -9138    -9134    -9111    -9077    -9042    -9013    -8996 
   -8976    -8916    -8789    -8621    -8463    -8328    -8202    -8074 
   -7965    -7898    -7848    -7819    -7861    -7947    -8008    -8024 
   -7979    -7888    -7828    -7844    -7896    -7921    -7923    -7932 
   -7958    -8025    -8170    -8388    -8610    -8725    -8733    -8712 
   -8668    -8586    -8533    -8544    -8598    -8679    -8725    -8726 
   -8787    -8915    -9020    -9086    -9154    -9192    -9143    -9059 
   -9038    -9088    -9131    -9094    -9013    -8922    -8772    -8617 
   -8545    -8502    -8429    -8328    -8212    -8131    -8071    -7971 
   -7848    -7789    -7850    -7996    -8163    -8321    -8442    -8553 
   -8673    -8768    -8877    -8981    -8989    -8910    -8772    -8618 
   -8494    -8402    -8363    -8352    -8353    -8384    -8411    -8442 
   -8515    -8613    -8719    -8838    -8937    -8973    -8957    -8881 
   -8696    -8437    -8191    -7994    -7870    -7838    -7867    -7896 
   -7884    -7885    -7928    -7902    -7809    -7794    -7840    -7897 
   -8063    -8318    -8537    -8715    -8861    -8962    -9072    -9205 
   -9320    -9440    -9575    -9629    -9571    -9458    -9304    -9167 
