Origin Time       2025/03/30 10:18:00
Lat.              34.667
Long.             140.825
Depth. (km)       69
Mag.              4.9
Station Code      KNG002
Station Lat.      35.4372
Station Long.     139.6334
Station Height(m) 2
Record Time       2025/03/30 10:19:12
Sampling Freq(Hz) 100Hz
Duration Time(s)  60
Dir.              U-D
Scale Factor      7845(gal)/8223790
Max. Acc. (gal)   2.575
Last Correction   2025/03/30 10:19:11
Memo.             
[...]
   11117    11129    10997    10998    11030    10989    11060    11296 
   11327    11067    10908    10898    10928    11013    10928    10677 
   10658    10859    11097    11373    11453    11175    10890    10849 
   10882    10831    10744    10801    11133    11416    11368    11244 
   11176    11106    11088    10930    10542    10354    10611    10970 
   11218    11460    11522    11388    11395    11304    10863    10575 
   10701    10953    11083    10966    10733    10735    11075    11441 
   11483    11230    10859    10584    10727    11078    11107    10933 
   10879    11020    11300    11358    11080    10885    10844    10825 
   10989    11106    10948    10926    11083    11079    11065    11196 
   11272    11238    11194    11076    10909    10852    10885    10955 
   11003    10894    10791    10867    10980    11115    11281    11333 
   11246    11007    10678    10604    10895    11191    11253    11142 
   10999    11009    11125    11091    10991    10978    10933    10924 
   11061    11152    11076    10898    10698    10619    10750    11044 
   11368    11497    11352    11088    10870    10845    10948    10876 
   10740    10832    11076    11322    11414    11254    11003    10859 
   10939    11036    10843    10679    10849    11016    10968    10997 
   11223    11381    11364    11330    11279    11105    10902    10810 
   10785    10795    10802    10750    10832    11119    11238    11105 
   11036    11075    11063    11024    11009    11051    11136    11061 
   10903    10974    11187    11321    11346    11249    11055    10863 
   10812    11005    11275    11268    10975    10768    10766    10768 
   10755    10747    10682    10735    11014    11271    11322    11200 
   10979    10785    10764    10984    11333    11589    11578    11272 
   10835    10516    10504    10875    11362    11531    11364    11082 
   10858    10864    10982    10918    10763    10766    10872    10987 
   11110    11126    11024    10955    10979    11102    11167    11010 
   10924    11087    11161    11049    10955    10941    11007    11148 
   11226    11072    10810    10795    11064    11240    11075    10746 
   10550    10632    10951    11279    11319    11056    10837    10920 
   11148    11267    11257    11248    11242    11156    11028    10947 
   10953    11049    11113    11007    10858    10854    10971    11113 
   11183    11048    10794    10704    10785    10847    10908    10976 
   10917    10759    10710    10947    11358    11626    11688    11592 
   11192    10694    10625    10956    11180    11186    11183    11102 
   10894    10903    11145    11171    10970    10758    10509    10480 
   10801    11022    11047    11226    11516    11624    11489    11176 
   10787    10597    10732    10917    10909    10804    10895    11175 
   11326    11330    11159    10791    10732    11049    11169    11056 
   10947    10785    10658    10763    11034    11281    11479    11514 
   11207    10848    10802    10964    11182    11338    11353    11318 
   11138    10762    10547    10674    10887    11011    11022    10955 
   10966    11041    10991    10835    10797    10983    11210    11273 
   11209    11121    11005    10910    11005    11236    11348    11306 
   11200    11003    10832    10800    10689    10589    10906    11344 
   11380    11146    10836    10501    10400    10584    10837    11113 
   11381    11510    11402    11065    10762    10827    11182    11364 
   11151    10737    10411    10490    11044    11607    11761    11541 
   11153    10817    10764    10955    10995    10773    10677    10949 
   11325    11373    11059    10752    10756    11025    11211    11159 
   10995    10766    10693    10913    11092    11198    11372    11322 
   11037    10847    10725    10654    10798    11074    11276    11313 
   11221    11169    11272    11406    11322    11040    10872    10916 
   10980    10999    10990    10930    10914    11018    11051    10879 
   10743    10754    10785    10898    11071    11052    10948    10991 
   11079    11168    11214    11006    10746    10812    11101    11353 
   11453    11310    10974    10689    10636    10783    10976    11075 
   11029    10928    10879    10890    10910    10910    10920    11003 
   11114    11196    11277    11295    11205    11072    10955    10928 
   11020    11140    11186    11097    10913    10714    10567    10624 
   10889    11159    11360    11529    11572    11402    11119    10913 
   10897    11053    11245    11311    11164    10895    10758    10872 
   11082    11233    11242    11026    10773    10701    10625    10513 
   10589    10762    10982    11344    11512    11277    11029    11009 
   11092    11207    11267    11168    10971    10835    10947    11226 
   11318    11180    10997    10778    10613    10619    10674    10777 
   10994    11115    11074    11006    10947    10984    11109    11110 
   11003    10916    10883    10993    11184    11229    11084    10941 
   10972    11165    11271    11102    10890    10937    11179    11325 
   11286    11192    11079    10990    10952    10854    10794    10914 
   11061    11137    11183    11105    10883    10798    10972    11132 
   11064    10872    10756    10752    10862    11060    11163    11173 
   11246    11210    10921    10650    10667    10994    11385    11475 
   11264    11082    11094    11161    11083    10979    10962    10855 
   10678    10644    10766    10924    11078    11227    11271    11198 
   11097    10997    11041    11213    11179    10932    10903    11065 
   11070    11130    11257    11074    10875    10944    10960    10858 
   10779    10728    10848    11217    11493    11383    11071    10827 
   10777    11059    11404    11279    10913    10824    10926    11105 
   11250    11074    10733    10662    10895    11130    11115    10848 
   10604    10762    11226    11403    11160    10939    10937    10999 
   11052    11121    11133    11114    11172    11283    11357    11267 
   10972    10629    10417    10446    10660    10845    10933    11056 
   11179    11167    11121    11111    11010    10825    10723    10758 
   10916    11125    11165    11082    11214    11479    11545    11394 
   11137    10949    11028    11207    11195    11022    10839    10706 
   10704    10806    10833    10704    10623    10805    11119    11290 
   11314    11350    11427    11484    11443    11233    10970    10879 
   10921    10930    10928    10995    11126    11176    10970    10666 
   10536    10557    10719    10986    11092    11087    11199    11291 
   11234    11072    10828    10743    11043    11429    11496    11221 
   10845    10694    10843    11033    11130    11128    11020    10976 
   11074    11146    11075    10843    10620    10646    10848    11052 
   11187    11113    10960    11074    11275    11233    11076    10930 
   10858    10999    11152    11125    11101    11070    10993    11020 
   11009    10887    10933    11082    11094    11061    11041    11068 
   11195    11268    11246    11168    11028    10949    10886    10778 
   10771    10824    10868    10970    11060    11072    11061    11119 
   11191    11122    11001    10970    11014    11076    11111    11114 
   11117    11151    11182    11106    10926    10782    10771    10840 
   10862    10847    10943    11094    11097    11018    11002    11041 
   11105    11101    11014    10978    10936    10835    10831    10893 
   10905    10914    10936    10991    11086    11114    11107    11192 
   11268    11187    11045    10944    10908    11016    11267    11549 
   11697    11481    10966    10565    10453    10574    10801    10876 
   10847    10914    11002    11151    11345    11302    11102    10982 
   10902    10894    10945    10929    10932    11002    11011    10935 
   10908    10986    10994    10845    10725    10837    11149    11376 
   11389    11257    11043    10968    11107    11227    11268    11250 
   11115    10895    10685    10629    10818    11095    11192    11033 
   10852    10897    11125    11313    11253    10994    10787    10720 
   10719    10775    10870    10940    11006    11080    11106    11098 
   11107    11227    11457    11556    11407    11155    10905    10756 
   10810    10939    10953    10910    10949    11055    11125    11128 
   11092    11002    10836    10679    10628    10737    10976    11168 
   11207    11179    11210    11195    10980    10785    10825    10929 
   11038    11229    11350    11299    11182    11097    11075    11061 
   10945    10791    10763    10832    10895    11013    11182    11183 
   11047    11024    11064    11094    11191    11230    11151    11103 
   11028    10871    10871    11105    11330    11404    11318    11074 
   10802    10667    10662    10737    10871    10947    10882    10789 
   10808    11051    11407    11502    11319    11133    10955    10844 
   10928    11095    11141    10955    10694    10623    10700    10775 
   10858    10897    10866    10908    11013    11047    11044    11053 
   11038    11078    11252    11441    11515    11480    11341    11136 
   11002    10975    10971    10960    11002    11151    11354    11469 
   11371    11103    10854    10704    10674    10751    10782    10712 
   10683    10750    10874    10972    10903    10762    10743    10909 
   11226    11414    11349    11242    11171    11126    11053    10874 
   10764    10854    11037    11245    11372    11290    11119    11030 
   10980    10928    10913    10903    10912    10935    10882    10806 
   10817    10894    11017    11137    11090    10848    10658    10700 
   10878    11055    11084    10952    10930    11101    11281    11476 
   11612    11537    11310    10980    10644    10604    10935    11335 
   11545    11546    11384    11098    10832    10739    10778    10852 
   10879    10818    10754    10710    10648    10733    11013    11245 
   11337    11327    11207    11145    11234    11294    11295    11300 
   11254    11238    11344    11481    11476    11223    10856    10578 
   10415    10295    10212    10287    10540    10810    10968    10956 
   10790    10659    10639    10629    10713    10995    11315    11508 
   11578    11595    11593    11580    11549    11493    11407    11321 
   11281    11288    11372    11456    11326    11088    11005    10964 
   10820    10732    10805    10894    10818    10551    10216     9977 
    9933    10000    10052    10142    10303    10473    10706    10966 
   11083    11101    11171    11353    11599    11759    11858    11986 
   12025    11928    11780    11643    11566    11504    11395    11281 
   11173    11007    10827    10771    10847    10990    11188    11318 
   11317    11288    11187    10910    10601    10385    10230    10212 
   10368    10476    10427    10335    10262    10270    10439    10721 
   10970    11005    10862    10835    11020    11259    11410    11415 
   11314    11196    11109    11107    11268    11534    11785    11920 
   11839    11569    11291    11144    11173    11394    11620    11578 
   11334    11060    10747    10551    10623    10771    10867    11001 
   11156    11173    10979    10728    10525    10357    10392    10748 
   11207    11516    11529    11222    10794    10447    10266    10299 
   10430    10481    10496    10567    10646    10748    10957    11182 
   11290    11353    11458    11569    11632    11627    11619    11632 
   11522    11327    11290    11406    11537    11589    11477    11280 
   11134    10995    10844    10682    10376     9976     9725     9643 
    9639     9713     9887    10247    10692    10928    11022    11165 
   11340    11516    11614    11628    11722    11979    12366    12642 
   12607    12426    12297    12145    11897    11569    11156    10725 
   10424    10295    10210    10060     9883     9706     9541     9475 
    9525     9664     9985    10454    10872    11217    11516    11697 
   11830    12024    12152    12069    11882    11672    11414    11264 
   11325    11438    11508    11523    11457    11321    11072    10719 
   10408    10224    10149    10127    10102    10123    10285    10589 
   10994    11360    11454    11263    10986    10727    10513    10438 
   10530    10673    10750    10862    11146    11434    11576    11699 
   11838    11905    11967    12058    12087    12090    12123    12021 
   11728    11446    11222    10917    10538    10185     9883     9693 
    9726     9894    10060    10305    10651    10902    10957    10901 
   10837    10912    11137    11326    11377    11284    11103    11047 
   11149    11182    11074    10914    10728    10558    10508    10686 
   11011    11173    11122    11176    11357    11402    11327    11210 
   11025    10966    11141    11402    11665    11892    11983    11854 
   11564    11296    11102    10916    10759    10746    10794    10665 
   10503    10571    10714    10756    10624    10180     9726     9774 
   10169    10446    10558    10646    10667    10617    10729    11065 
   11323    11423    11626    11869    11943    12025    12177    12189 
   12102    11943    11645    11403    11326    11190    10899    10720 
   10767    10905    11163    11497    11684    11676    11497    11187 
   10871    10598    10334    10079     9927     9998    10201    10319 
   10255    10042     9717     9355     9158     9242     9501     9832 
   10211    10643    11172    11803    12460    13038    13454    13674 
   13722    13674    13567    13393    13072    12506    11803    11219 
   10845    10601    10335     9918     9529     9467     9597     9666 
    9688     9663     9571     9485     9481     9601     9795     9985 
   10188    10485    10881    11227    11497    11788    12058    12220 
   12243    12118    11993    11961    11916    11898    11977    11994 
   11884    11686    11402    11094    10862    10762    10733    10705 
   10690    10654    10631    10670    10706    10747    10789    10795 
   10783    10660    10438    10258    10166    10247    10521    10848 
   11259    11739    12093    12233    12163    12017    11904    11639 
   11203    10789    10426    10169    10049     9952     9888     9868 
    9926    10281    10835    11246    11423    11408    11342    11345 
   11356    11399    11483    11445    11340    11323    11337    11367 
   11395    11279    11115    11002    10901    10956    11092    11115 
   11194    11322    11272    11087    10899    10741    10608    10515 
   10517    10561    10593    10669    10721    10712    10746    10841 
   10962    11011    10928    10917    11099    11315    11518    11699 
   11739    11682    11643    11485    11117    10828    10825    10848 
   10763    10763    10773    10713    10725    10713    10736    10976 
   11145    11146    11195    11178    11097    11036    10913    10967 
   11242    11311    11226    11167    10926    10659    10681    10845 
   10997    11088    10995    10813    10706    10719    10928    11163 
   11234    11345    11421    11244    11163    11327    11437    11481 
   11388    11110    11060    11234    11233    11126    10982    10763 
   10648    10550    10366    10334    10408    10401    10400    10458 
   10616    10910    11155    11303    11502    11623    11557    11553 
   11722    11905    11932    11747    11577    11495    11283    11034 
   10867    10666    10566    10601    10422    10064     9927    10023 
   10214    10493    10733    10924    11080    11048    10872    10702 
   10616    10697    10837    10925    11067    11275    11491    11819 
   12213    12448    12453    12334    12197    12052    11850    11593 
   11307    10982    10642    10343    10133     9980     9844     9705 
    9568     9520     9599     9802    10133    10493    10849    11248 
   11614    11921    12168    12226    12163    12216    12357    12341 
   12055    11626    11199    10816    10500    10265    10102     9980 
    9826     9699     9769    10021    10353    10781    11281    11608 
   11608    11484    11402    11391    11516    11676    11705    11669 
   11627    11531    11402    11300    11218    11068    10878    10779 
   10740    10662    10581    10525    10476    10405    10363    10469 
   10675    10898    11148    11319    11318    11252    11256    11360 
   11512    11654    11722    11659    11519    11356    11169    10994 
   10854    10770    10727    10639    10516    10422    10486    10763 
   10963    10920    10795    10686    10658    10767    10933    11125 
   11321    11392    11249    10962    10802    10905    11088    11245 
   11356    11350    11325    11410    11507    11529    11516    11446 
   11314    11182    11020    10787    10536    10322    10195    10180 
   10261    10449    10690    10831    10820    10789    10867    11061 
   11248    11313    11338    11456    11554    11547    11569    11632 
   11650    11639    11546    11280    10944    10708    10605    10558 
   10449    10227    10017    10035    10343    10719    10893    10872 
   10906    11060    11180    11257    11298    11281    11377    11573 
   11650    11646    11615    11523    11403    11213    10956    10759 
   10662    10670    10768    10849    10827    10740    10687    10723 
   10782    10827    10910    11017    11082    11114    11086    10980 
   10937    11041    11173    11182    11101    11059    11059    11084 
   11098    11048    11080    11290    11491    11549    11460    11269 
   11176    11241    11242    11129    11048    11009    10974    10920 
   10844    10829    10859    10843    10821    10845    10851    10778 
   10683    10663    10720    10816    10971    11152    11250    11252 
   11241    11230    11168    11067    10990    10924    10879    10903 
   10912    10855    10859    10970    11115    11261    11334    11292 
   11203    11107    10986    10809    10644    10662    10824    10901 
   10872    10883    10917    10909    10890    10885    10940    11038 
   11052    10986    10978    11060    11141    11146    11146    11253 
   11372    11319    11129    10990    10963    10982    11037    11087 
   11056    11047    11126    11214    11311    11369    11291    11161 
   11051    10945    10871    10801    10735    10768    10825    10809 
   10786    10764    10731    10783    10885    10921    10956    11020 
   11003    10951    10997    11110    11173    11202    11265    11338 
   11431    11547    11547    11456    11423    11371    11232    11097 
   11022    11037    11029    10870    10675    10578    10574    10679 
   10848    10905    10804    10716    10764    10909    11071    11167 
   11146    11087    11055    11034    11025    11022    11018    11029 
   11037    11041    11098    11226    11376    11465    11450    11354 
   11237    11200    11265    11296    11207    11036    10812    10593 
   10507    10574    10677    10709    10612    10439    10332    10314 
   10342    10400    10465    10589    10719    10733    10764    10925 
   11055    11118    11244    11431    11628    11786    11819    11800 
   11882    12016    12091    12039    11784    11431    11182    11032 
   10889    10736    10579    10454    10419    10486    10605    10665 
   10631    10596    10652    10797    10949    11045    11059    11025 
   11025    11033    10945    10781    10655    10600    10596    10673 
