Origin Time       2025/03/30 10:18:00
Lat.              34.667
Long.             140.825
Depth. (km)       69
Mag.              4.9
Station Code      KNG009
Station Lat.      35.4425
Station Long.     139.3621
Station Height(m) 19
Record Time       2025/03/30 10:19:15
Sampling Freq(Hz) 100Hz
Duration Time(s)  60
Dir.              N-S
Scale Factor      7845(gal)/8223790
Max. Acc. (gal)   3.382
Last Correction   2025/03/30 10:19:14
Memo.             
[...]
   -2235    -2398    -2519    -2481    -2366    -2292    -2349    -2490 
   -2562    -2490    -2370    -2366    -2470    -2520    -2512    -2463 
   -2309    -2150    -2074    -2019    -2027    -2114    -2130    -2058 
   -2035    -2119    -2228    -2281    -2281    -2270    -2358    -2548 
   -2586    -2392    -2254    -2280    -2336    -2409    -2419    -2239 
   -2068    -2143    -2355    -2463    -2408    -2334    -2362    -2446 
   -2474    -2420    -2366    -2367    -2354    -2250    -2101    -2030 
   -2034    -2025    -2069    -2187    -2269    -2328    -2366    -2316 
   -2259    -2261    -2289    -2362    -2461    -2490    -2420    -2342 
   -2350    -2403    -2409    -2397    -2386    -2319    -2242    -2216 
   -2176    -2083    -1988    -1919    -1908    -2025    -2178    -2203 
   -2173    -2187    -2212    -2308    -2457    -2533    -2574    -2600 
   -2570    -2500    -2381    -2307    -2423    -2550    -2492    -2370 
   -2313    -2336    -2427    -2465    -2327    -2120    -2011    -1985 
   -2023    -2169    -2324    -2357    -2319    -2327    -2403    -2492 
   -2521    -2475    -2392    -2296    -2226    -2220    -2187    -2038 
   -1891    -1837    -1858    -1927    -1975    -2023    -2200    -2501 
   -2806    -2960    -2856    -2554    -2245    -2127    -2164    -2137 
   -2066    -2100    -2188    -2288    -2424    -2467    -2324    -2145 
   -2089    -2182    -2350    -2451    -2438    -2384    -2362    -2407 
   -2496    -2550    -2529    -2469    -2378    -2300    -2320    -2386 
   -2358    -2249    -2131    -1996    -1908    -1962    -2030    -2027 
   -2080    -2195    -2322    -2471    -2529    -2465    -2412    -2374 
   -2320    -2322    -2349    -2354    -2381    -2374    -2290    -2242 
   -2239    -2241    -2299    -2367    -2327    -2208    -2126    -2131 
   -2209    -2324    -2420    -2431    -2377    -2343    -2324    -2299 
   -2296    -2358    -2508    -2628    -2542    -2349    -2231    -2164 
   -2130    -2162    -2116    -1989    -1984    -2104    -2269    -2450 
   -2471    -2297    -2176    -2214    -2309    -2411    -2466    -2421 
   -2365    -2371    -2354    -2266    -2164    -2081    -2088    -2176 
   -2219    -2205    -2207    -2201    -2185    -2181    -2182    -2205 
   -2288    -2442    -2610    -2682    -2674    -2660    -2601    -2506 
   -2463    -2436    -2378    -2316    -2223    -2124    -2106    -2100 
   -2074    -2088    -2080    -2088    -2216    -2293    -2197    -2092 
   -2045    -2053    -2160    -2282    -2297    -2246    -2263    -2340 
   -2389    -2388    -2339    -2315    -2367    -2413    -2432    -2435 
   -2377    -2313    -2285    -2215    -2178    -2274    -2404    -2511 
   -2577    -2551    -2430    -2265    -2142    -2112    -2128    -2143 
   -2164    -2201    -2236    -2232    -2192    -2158    -2181    -2259 
   -2398    -2560    -2620    -2555    -2412    -2181    -2012    -2068 
   -2208    -2269    -2265    -2223    -2200    -2263    -2346    -2366 
   -2366    -2389    -2419    -2435    -2370    -2219    -2170    -2270 
   -2312    -2269    -2273    -2327    -2376    -2376    -2305    -2254 
   -2292    -2367    -2408    -2366    -2282    -2259    -2278    -2289 
   -2316    -2380    -2421    -2370    -2274    -2207    -2170    -2184 
   -2219    -2203    -2127    -2043    -2050    -2153    -2226    -2209 
   -2146    -2153    -2315    -2486    -2524    -2502    -2459    -2407 
   -2446    -2516    -2467    -2393    -2366    -2262    -2145    -2138 
   -2123    -2110    -2164    -2184    -2243    -2358    -2359    -2386 
   -2521    -2511    -2398    -2403    -2435    -2408    -2361    -2216 
   -2025    -2018    -2162    -2307    -2417    -2416    -2347    -2332 
   -2285    -2205    -2178    -2111    -2008    -2050    -2187    -2250 
   -2262    -2327    -2470    -2610    -2627    -2554    -2521    -2471 
   -2343    -2227    -2124    -2029    -2000    -2000    -2006    -2019 
   -1984    -1977    -2065    -2169    -2296    -2421    -2432    -2421 
   -2451    -2436    -2430    -2463    -2462    -2482    -2548    -2592 
   -2604    -2571    -2506    -2475    -2481    -2494    -2442    -2236 
   -2030    -2034    -2139    -2197    -2247    -2255    -2208    -2224 
   -2235    -2166    -2138    -2154    -2199    -2307    -2307    -2160 
   -2029    -1938    -1956    -2146    -2313    -2371    -2415    -2405 
   -2324    -2253    -2150    -2031    -2045    -2185    -2346    -2436 
   -2413    -2419    -2548    -2651    -2635    -2523    -2376    -2315 
   -2343    -2409    -2492    -2448    -2299    -2254    -2304    -2401 
   -2524    -2531    -2431    -2336    -2273    -2262    -2243    -2165 
   -2070    -1925    -1761    -1711    -1788    -1906    -1973    -2029 
   -2197    -2378    -2424    -2397    -2376    -2390    -2452    -2493 
   -2463    -2404    -2381    -2432    -2532    -2577    -2497    -2354 
   -2251    -2246    -2328    -2384    -2292    -2178    -2195    -2238 
   -2284    -2363    -2339    -2276    -2332    -2384    -2423    -2516 
   -2473    -2303    -2238    -2231    -2193    -2204    -2241    -2258 
   -2245    -2173    -2131    -2141    -2111    -2131    -2265    -2415 
   -2516    -2497    -2339    -2165    -2068    -2070    -2126    -2146 
   -2169    -2284    -2446    -2587    -2654    -2598    -2452    -2338 
   -2363    -2423    -2357    -2220    -2168    -2255    -2388    -2404 
   -2292    -2155    -2079    -2127    -2218    -2218    -2207    -2234 
   -2208    -2126    -2031    -1985    -2060    -2228    -2419    -2574 
   -2619    -2577    -2578    -2592    -2516    -2425    -2367    -2296 
   -2232    -2166    -2084    -2052    -2069    -2133    -2196    -2155 
   -2116    -2177    -2263    -2358    -2442    -2462    -2478    -2536 
   -2589    -2566    -2431    -2241    -2097    -2069    -2110    -2110 
   -2062    -2026    -2056    -2153    -2230    -2280    -2381    -2508 
   -2579    -2578    -2513    -2419    -2381    -2420    -2458    -2459 
   -2411    -2300    -2193    -2142    -2137    -2133    -2070    -1981 
   -1957    -1991    -2026    -2057    -2106    -2189    -2303    -2415 
   -2466    -2502    -2627    -2762    -2760    -2648    -2550    -2502 
   -2471    -2434    -2353    -2234    -2165    -2141    -2097    -2042 
   -1979    -1942    -2002    -2108    -2130    -2077    -2080    -2157 
   -2265    -2385    -2484    -2583    -2660    -2617    -2502    -2431 
   -2389    -2332    -2286    -2274    -2285    -2288    -2246    -2216 
   -2215    -2151    -2106    -2172    -2223    -2157    -2015    -1930 
   -1962    -2054    -2203    -2392    -2509    -2488    -2370    -2289 
   -2335    -2477    -2585    -2546    -2440    -2450    -2577    -2636 
   -2575    -2492    -2415    -2384    -2420    -2435    -2358    -2209 
   -2081    -2025    -2002    -1984    -1981    -2008    -2033    -2049 
   -2124    -2220    -2257    -2254    -2288    -2397    -2504    -2538 
   -2567    -2589    -2511    -2382    -2316    -2326    -2334    -2281 
   -2203    -2164    -2149    -2103    -2027    -1948    -1891    -1883 
   -1945    -2092    -2263    -2369    -2461    -2610    -2759    -2824 
   -2824    -2787    -2747    -2766    -2801    -2739    -2562    -2334 
   -2131    -1960    -1780    -1647    -1618    -1671    -1719    -1699 
   -1672    -1740    -1921    -2130    -2251    -2308    -2408    -2513 
   -2583    -2709    -2868    -2991    -3063    -3041    -2978    -2897 
   -2705    -2427    -2166    -1979    -1871    -1800    -1746    -1756 
   -1850    -1976    -2074    -2168    -2281    -2370    -2421    -2452 
   -2438    -2385    -2332    -2312    -2304    -2247    -2180    -2164 
   -2223    -2367    -2473    -2447    -2397    -2408    -2430    -2423 
   -2396    -2376    -2380    -2334    -2212    -2127    -2131    -2172 
   -2215    -2296    -2388    -2388    -2293    -2180    -2095    -2072 
   -2104    -2139    -2110    -2053    -2088    -2212    -2307    -2380 
   -2494    -2581    -2617    -2628    -2585    -2493    -2407    -2350 
   -2293    -2196    -2077    -2007    -2002    -1998    -1988    -2015 
   -2093    -2231    -2344    -2317    -2245    -2286    -2415    -2528 
   -2544    -2492    -2493    -2563    -2635    -2667    -2635    -2554 
   -2463    -2384    -2282    -2130    -1991    -1942    -1961    -1996 
   -2008    -1981    -1993    -2095    -2261    -2446    -2531    -2498 
   -2439    -2404    -2451    -2527    -2506    -2435    -2401    -2401 
   -2369    -2265    -2120    -2004    -1939    -1922    -1981    -2091 
   -2174    -2184    -2151    -2174    -2241    -2273    -2288    -2363 
   -2504    -2596    -2573    -2485    -2403    -2369    -2369    -2400 
   -2417    -2327    -2203    -2205    -2305    -2384    -2431    -2435 
   -2377    -2355    -2411    -2454    -2463    -2443    -2390    -2326 
   -2263    -2238    -2224    -2155    -2046    -1975    -1980    -2007 
   -2007    -1991    -1952    -1961    -2077    -2197    -2259    -2290 
   -2351    -2494    -2610    -2610    -2608    -2627    -2594    -2529 
   -2424    -2300    -2246    -2234    -2216    -2193    -2153    -2133 
   -2166    -2235    -2304    -2331    -2313    -2259    -2235    -2288 
   -2303    -2286    -2370    -2497    -2570    -2550    -2444    -2357 
   -2276    -2166    -2107    -2077    -2035    -2031    -2077    -2177 
   -2296    -2335    -2315    -2339    -2388    -2400    -2390    -2363 
   -2319    -2336    -2392    -2380    -2349    -2344    -2317    -2335 
   -2382    -2322    -2220    -2153    -2103    -2161    -2305    -2369 
   -2326    -2251    -2181    -2134    -2146    -2204    -2259    -2315 
   -2362    -2397    -2451    -2481    -2473    -2427    -2281    -2135 
   -2093    -2081    -2088    -2118    -2142    -2193    -2236    -2286 
   -2397    -2474    -2494    -2516    -2486    -2448    -2489    -2511 
   -2446    -2381    -2334    -2254    -2192    -2149    -2076    -2066 
   -2138    -2199    -2285    -2339    -2282    -2258    -2251    -2196 
   -2224    -2253    -2234    -2370    -2548    -2567    -2482    -2299 
   -2108    -2060    -2089    -2172    -2272    -2254    -2191    -2164 
   -2177    -2268    -2354    -2393    -2443    -2485    -2555    -2664 
   -2697    -2695    -2670    -2546    -2416    -2290    -2089    -1904 
   -1782    -1725    -1803    -1981    -2205    -2392    -2404    -2323 
   -2303    -2316    -2350    -2381    -2346    -2361    -2498    -2635 
   -2673    -2502    -2178    -1968    -1925    -1937    -1942    -1903 
   -1892    -1983    -2099    -2126    -2042    -1988    -2092    -2316 
   -2567    -2706    -2670    -2581    -2570    -2663    -2751    -2681 
   -2515    -2396    -2361    -2407    -2478    -2521    -2523    -2450 
   -2378    -2384    -2385    -2328    -2234    -2170    -2209    -2270 
   -2263    -2187    -2025    -1850    -1795    -1879    -2042    -2153 
   -2142    -2149    -2276    -2423    -2484    -2458    -2398    -2359 
   -2354    -2339    -2254    -2107    -1968    -1900    -1942    -2030 
   -2027    -1957    -1949    -2061    -2292    -2609    -2928    -3165 
   -3312    -3349    -3227    -2988    -2706    -2451    -2285    -2135 
   -1902    -1588    -1248    -1015    -1032    -1247    -1549    -1904 
   -2223    -2444    -2625    -2763    -2830    -2879    -2922    -2907 
   -2786    -2525    -2228    -2072    -2050    -2045    -2039    -2003 
   -1927    -1931    -2027    -2142    -2300    -2502    -2747    -2994 
   -3127    -3180    -3186    -3055    -2821    -2585    -2412    -2301 
   -2172    -2003    -1788    -1553    -1424    -1370    -1321    -1325 
   -1358    -1458    -1657    -1806    -1937    -2155    -2413    -2745 
   -3069    -3198    -3169    -3067    -2918    -2805    -2740    -2694 
   -2651    -2589    -2539    -2535    -2636    -2859    -3065    -3115 
   -2972    -2732    -2521    -2326    -2142    -2002    -1848    -1684 
   -1510    -1310    -1225    -1274    -1354    -1483    -1668    -1910 
   -2191    -2369    -2469    -2654    -2862    -2987    -3053    -3025 
   -2879    -2682    -2477    -2273    -2060    -1803    -1597    -1597 
   -1734    -1829    -1876    -1953    -2049    -2200    -2500    -2933 
   -3424    -3881    -4156    -4167    -3912    -3480    -3069    -2756 
   -2470    -2224    -1989    -1675    -1337    -1003     -594     -190 
      68      114      -95     -457     -841    -1262    -1636    -1853 
   -1998    -2153    -2382    -2756    -3219    -3724    -4159    -4344 
   -4305    -4087    -3669    -3203    -2816    -2494    -2205    -1864 
   -1478    -1243    -1240    -1367    -1594    -1911    -2200    -2473 
   -2830    -3163    -3329    -3352    -3248    -3056    -2871    -2745 
   -2659    -2529    -2308    -2035    -1794    -1676    -1676    -1702 
   -1679    -1586    -1474    -1433    -1463    -1510    -1629    -1872 
   -2173    -2431    -2583    -2610    -2563    -2560    -2640    -2693 
   -2671    -2651    -2678    -2733    -2774    -2798    -2876    -2979 
   -2997    -2930    -2805    -2612    -2424    -2282    -2157    -2046 
   -1946    -1823    -1701    -1617    -1557    -1534    -1532    -1476 
   -1371    -1225    -1013     -819     -749     -849    -1155    -1690 
   -2434    -3316    -4163    -4734    -4938    -4854    -4544    -4082 
   -3581    -3073    -2577    -2119    -1649    -1151     -735     -517 
    -598     -978    -1479    -1980    -2439    -2739    -2835    -2760 
   -2578    -2479    -2624    -2998    -3449    -3777    -3893    -3823 
   -3585    -3237    -2889    -2627    -2376    -1973    -1382     -626 
     228      940     1254     1140      788      353     -182     -882 
   -1696    -2550    -3396    -4141    -4758    -5252    -5537    -5622 
   -5632    -5529    -5209    -4720    -4122    -3399    -2614    -1861 
   -1155     -534        0      421      550      351      -67     -638 
   -1220    -1733    -2222    -2682    -3114    -3489    -3750    -3908 
   -3862    -3516    -3002    -2417    -1799    -1262     -895     -742 
    -787     -981    -1279    -1560    -1779    -2042    -2355    -2702 
   -3110    -3464    -3645    -3659    -3561    -3411    -3191    -2864 
   -2536    -2270    -2061    -1946    -1885    -1841    -1841    -1767 
   -1564    -1382    -1308    -1412    -1746    -2208    -2664    -3003 
   -3132    -3133    -3060    -2845    -2547    -2305    -2216    -2299 
   -2401    -2381    -2268    -2106    -1952    -1872    -1840    -1831 
   -1858    -1895    -1902    -1849    -1772    -1714    -1684    -1807 
   -2165    -2641    -3113    -3466    -3561    -3397    -3055    -2628 
   -2316    -2196    -2193    -2254    -2255    -2137    -2041    -1991 
   -1857    -1682    -1618    -1719    -1979    -2338    -2700    -3007 
   -3254    -3485    -3707    -3844    -3851    -3769    -3586    -3222 
   -2700    -2116    -1507     -955     -621     -564     -697     -935 
   -1224    -1443    -1547    -1634    -1795    -2062    -2377    -2593 
   -2659    -2614    -2466    -2250    -2038    -1836    -1664    -1564 
   -1514    -1506    -1547    -1630    -1802    -2110    -2519    -2974 
   -3445    -3886    -4243    -4457    -4467    -4245    -3871    -3483 
   -3105    -2643    -2079    -1525    -1092     -808     -704     -811 
   -1030    -1224    -1399    -1576    -1671    -1668    -1690    -1815 
   -2010    -2224    -2417    -2592    -2766    -2907    -2967    -2936 
   -2841    -2735    -2644    -2581    -2547    -2512    -2417    -2309 
   -2292    -2370    -2512    -2718    -2951    -3165    -3337    -3379 
   -3277    -3127    -2918    -2654    -2404    -2120    -1771    -1433 
   -1147     -940     -892     -989    -1142    -1310    -1429    -1525 
   -1730    -1958    -2107    -2245    -2339    -2350    -2359    -2424 
   -2544    -2722    -2944    -3165    -3342    -3362    -3133    -2791 
   -2528    -2365    -2230    -2023    -1714    -1406    -1188    -1059 
   -1050    -1200    -1472    -1858    -2390    -3018    -3599    -3955 
   -3963    -3632    -3132    -2670    -2323    -2050    -1833    -1714 
   -1752    -1976    -2303    -2628    -2909    -3132    -3288    -3342 
   -3261    -3033    -2683    -2262    -1838    -1524    -1394    -1425 
   -1555    -1655    -1625    -1540    -1502    -1524    -1586    -1625 
   -1624    -1652    -1678    -1598    -1534    -1661    -1961    -2428 
   -2999    -3483    -3829    -4033    -3983    -3720    -3377    -2959 
   -2555    -2324    -2266    -2336    -2428    -2376    -2197    -2026 
   -1896    -1807    -1813    -1869    -1806    -1632    -1489    -1402 
   -1385    -1467    -1665    -1992    -2388    -2733    -2971    -3094 
   -3090    -3006    -2959    -3003    -3117    -3188    -3048    -2706 
   -2304    -1894    -1525    -1264    -1125    -1104    -1144    -1216 
   -1314    -1381    -1412    -1495    -1659    -1858    -2112    -2462 
   -2847    -3271    -3778    -4185    -4369    -4353    -4089    -3712 
   -3412    -3111    -2743    -2328    -1892    -1553    -1305    -1062 
    -950    -1019    -1150    -1364    -1690    -2000    -2259    -2462 
   -2475    -2285    -2072    -1956    -1973    -2123    -2322    -2569 
   -2809    -2847    -2754    -2725    -2668    -2517    -2354    -2174 
   -2018    -1950    -1952    -2006    -2057    -2038    -1968    -1892 
   -1791    -1674    -1706    -1993    -2450    -2932    -3258    -3376 
   -3412    -3462    -3550    -3653    -3735    -3734    -3551    -3244 
   -2883    -2452    -2042    -1634    -1150     -738     -473     -307 
    -292     -346     -356     -479     -733     -970    -1255    -1622 
   -2020    -2556    -3150    -3545    -3758    -3915    -3971    -3959 
   -3943    -3882    -3763    -3528    -3098    -2575    -2064    -1590 
   -1271    -1194    -1293    -1455    -1610    -1732    -1780    -1759 
   -1788    -1965    -2288    -2681    -2991    -3173    -3281    -3288 
   -3179    -2983    -2767    -2648    -2596    -2524    -2485    -2403 
   -2130    -1714    -1298    -1013     -922     -984    -1144    -1269 
   -1260    -1247    -1364    -1601    -1945    -2386    -2882    -3361 
   -3751    -4009    -4091    -4029    -3970    -3970    -3900    -3657 
   -3257    -2736    -2122    -1476     -862     -361      -52       74 
      37     -171     -514     -922    -1309    -1615    -1921    -2365 
   -2955    -3555    -4008    -4249    -4307    -4248    -4148    -4083 
   -4008    -3774    -3354    -2837    -2272    -1692    -1169     -783 
    -569     -513     -552     -569     -549     -592     -756    -1061 
   -1491    -1981    -2536    -3079    -3396    -3443    -3387    -3349 
   -3346    -3333    -3311    -3331    -3345    -3258    -3040    -2743 
   -2517    -2477    -2558    -2610    -2565    -2493    -2451    -2362 
   -2205    -2033    -1884    -1854    -1956    -2106    -2211    -2178 
   -2060    -1953    -1827    -1663    -1520    -1440    -1395    -1379 
   -1422    -1456    -1474    -1630    -1942    -2295    -2593    -2752 
   -2763    -2671    -2532    -2436    -2450    -2560    -2693    -2768 
   -2739    -2614    -2467    -2338    -2249    -2249    -2315    -2423 
   -2539    -2544    -2488    -2478    -2425    -2347    -2343    -2362 
   -2384    -2369    -2222    -2022    -1900    -1890    -2020    -2219 
   -2334    -2346    -2355    -2434    -2554    -2639    -2652    -2644 
   -2677    -2686    -2639    -2606    -2593    -2581    -2529    -2392 
   -2266    -2205    -2108    -1900    -1609    -1382    -1340    -1426 
