Origin Time       2025/03/30 10:18:00
Lat.              34.667
Long.             140.825
Depth. (km)       69
Mag.              4.9
Station Code      KNG009
Station Lat.      35.4425
Station Long.     139.3621
Station Height(m) 19
Record Time       2025/03/30 10:19:15
Sampling Freq(Hz) 100Hz
Duration Time(s)  60
Dir.              U-D
Scale Factor      7845(gal)/8223790
Max. Acc. (gal)   1.371
Last Correction   2025/03/30 10:19:14
Memo.             
[...]
   23431    23411    23299    23247    23248    23278    23321    23314 
   23240    23152    23126    23234    23421    23525    23530    23533 
   23525    23430    23278    23145    23064    23040    23079    23170 
   23284    23391    23442    23417    23302    23144    23089    23161 
   23259    23321    23329    23306    23280    23255    23309    23467 
   23573    23522    23410    23340    23295    23252    23199    23148 
   23143    23210    23306    23330    23251    23218    23345    23525 
   23560    23403    23205    23124    23137    23121    23060    23052 
   23171    23394    23627    23795    23835    23692    23410    23166 
   23060    23018    22998    23058    23182    23321    23465    23535 
   23480    23407    23387    23379    23372    23314    23163    23053 
   23075    23139    23187    23240    23280    23279    23276    23349 
   23491    23564    23490    23344    23206    23139    23225    23377 
   23399    23338    23394    23529    23571    23472    23278    23126 
   23139    23224    23220    23145    23120    23167    23264    23338 
   23349    23355    23367    23332    23256    23215    23288    23430 
   23514    23491    23345    23143    23051    23078    23110    23174 
   23299    23400    23438    23450    23436    23417    23440    23442 
   23322    23160    23114    23187    23309    23422    23450    23380 
   23303    23275    23260    23240    23247    23268    23298    23352 
   23333    23186    23047    23022    23068    23143    23253    23404 
   23560    23634    23612    23556    23496    23414    23295    23179 
   23128    23145    23186    23218    23259    23334    23411    23417 
   23367    23338    23350    23337    23221    23041    22955    23037 
   23217    23406    23545    23568    23467    23313    23202    23211 
   23242    23170    23116    23213    23367    23437    23417    23407 
   23491    23598    23589    23437    23248    23149    23161    23186 
   23179    23202    23252    23287    23292    23247    23183    23163 
   23199    23260    23292    23265    23251    23345    23479    23479 
   23357    23280    23296    23346    23365    23290    23160    23112 
   23168    23244    23314    23360    23282    23129    23121    23292 
   23430    23445    23496    23666    23778    23635    23295    23035 
   23017    23083    23071    23074    23187    23350    23487    23558 
   23523    23400    23274    23225    23272    23334    23319    23244 
   23182    23157    23151    23175    23256    23363    23460    23565 
   23641    23576    23415    23340    23367    23332    23178    23051 
   23025    23035    23071    23155    23236    23282    23296    23315 
   23363    23403    23410    23400    23407    23418    23384    23272 
   23134    23130    23279    23396    23409    23371    23305    23288 
   23382    23450    23392    23278    23201    23221    23303    23377 
   23423    23411    23350    23319    23311    23259    23164    23095 
   23130    23224    23241    23213    23226    23220    23205    23265 
   23338    23333    23306    23326    23359    23350    23288    23230 
   23225    23245    23280    23355    23463    23561    23606    23554 
   23442    23398    23429    23395    23234    23075    23093    23264 
   23410    23421    23322    23205    23156    23229    23377    23454 
   23400    23326    23317    23329    23314    23233    23098    23036 
   23062    23059    23018    22998    23076    23301    23561    23652 
   23490    23248    23144    23215    23368    23456    23396    23303 
   23303    23333    23303    23287    23336    23386    23407    23434 
   23480    23548    23569    23442    23252    23221    23323    23367 
   23302    23190    23090    23074    23139    23156    23040    22900 
   22877    23004    23215    23352    23352    23384    23579    23782 
   23757    23508    23264    23155    23156    23202    23225    23233 
   23283    23394    23507    23525    23450    23422    23535    23679 
   23661    23498    23333    23195    23078    23004    22947    22943 
   23101    23305    23363    23345    23346    23356    23387    23394 
   23291    23136    23033    22985    22987    23070    23197    23307 
   23387    23445    23465    23394    23267    23211    23286    23394 
   23444    23438    23472    23626    23782    23747    23556    23359 
   23259    23248    23233    23194    23187    23190    23151    23093 
   23074    23113    23168    23225    23348    23510    23560    23417 
   23172    23022    23041    23102    23109    23109    23193    23368 
   23490    23471    23440    23491    23518    23434    23291    23213 
   23247    23279    23249    23236    23265    23305    23364    23445 
   23480    23460    23456    23464    23418    23317    23206    23118 
   23089    23114    23124    23106    23117    23186    23275    23278 
   23195    23147    23136    23128    23178    23261    23325    23438 
   23604    23653    23571    23538    23572    23580    23548    23442 
   23291    23225    23248    23240    23225    23268    23240    23070 
   22970    23103    23319    23409    23394    23407    23465    23467 
   23317    23089    22967    23013    23184    23379    23461    23422 
   23361    23336    23323    23251    23126    23044    23053    23159 
   23303    23398    23464    23518    23491    23426    23398    23357 
   23286    23263    23311    23338    23313    23299    23303    23286 
   23271    23296    23371    23446    23436    23349    23301    23352 
   23434    23415    23338    23323    23274    23107    22981    23017 
   23133    23184    23176    23222    23310    23349    23336    23305 
   23294    23342    23414    23391    23228    23066    23102    23294 
   23437    23468    23487    23581    23700    23657    23419    23206 
   23145    23152    23156    23172    23224    23288    23314    23298 
   23278    23242    23193    23156    23128    23118    23153    23233 
   23352    23452    23464    23417    23384    23365    23325    23302 
   23353    23409    23388    23399    23512    23553    23417    23221 
   23078    23033    23105    23202    23209    23194    23283    23407 
   23426    23365    23342    23356    23290    23152    23120    23283 
   23511    23629    23592    23492    23410    23306    23126    23024 
   23126    23301    23367    23306    23215    23186    23224    23263 
   23238    23170    23191    23363    23521    23560    23546    23492 
   23375    23217    23093    23118    23288    23434    23453    23377 
   23269    23180    23186    23261    23263    23198    23228    23367 
   23444    23398    23321    23292    23357    23446    23375    23151 
   23016    23053    23161    23292    23395    23395    23377    23438 
   23472    23390    23288    23267    23299    23322    23314    23275 
   23144    22921    22796    22928    23159    23256    23268    23363 
   23552    23712    23707    23507    23268    23153    23152    23164 
   23164    23217    23342    23438    23430    23372    23310    23249 
   23244    23305    23359    23375    23375    23399    23444    23440 
   23417    23446    23418    23253    23149    23257    23427    23485 
   23429    23338    23256    23182    23144    23137    23136    23178 
   23236    23261    23310    23402    23444    23386    23282    23176 
   23124    23168    23195    23176    23257    23404    23460    23415 
   23352    23348    23460    23584    23533    23380    23295    23248 
   23172    23102    23048    23001    22999    23066    23170    23280 
   23333    23325    23398    23541    23564    23495    23523    23674 
   23776    23642    23328    23095    23036    23006    22968    23029 
   23179    23287    23276    23221    23242    23288    23249    23193 
   23226    23322    23391    23388    23387    23491    23614    23566 
   23377    23261    23292    23330    23244    23083    23022    23163 
   23373    23471    23441    23396    23360    23279    23156    23097 
   23193    23317    23291    23256    23387    23511    23468    23372 
   23317    23260    23191    23149    23153    23207    23290    23310 
   23211    23076    23017    23082    23241    23363    23355    23345 
   23454    23589    23637    23627    23626    23614    23507    23323 
   23183    23147    23172    23180    23140    23093    23113    23195 
   23247    23261    23310    23417    23512    23467    23283    23159 
   23182    23222    23147    23018    23064    23319    23512    23476 
   23359    23365    23492    23542    23415    23255    23213    23255 
   23301    23349    23391    23387    23365    23363    23310    23238 
   23303    23444    23457    23372    23325    23287    23175    23028 
   22941    22941    23008    23112    23247    23429    23593    23616 
   23485    23364    23396    23479    23418    23210    23051    23114 
   23330    23460    23383    23214    23202    23398    23519    23346 
   23070    22990    23129    23282    23337    23356    23384    23394 
   23375    23341    23256    23103    23036    23199    23485    23697 
   23753    23630    23425    23344    23431    23484    23309    23002 
   22850    22931    23076    23157    23163    23124    23071    23043 
   23071    23144    23251    23406    23566    23672    23734    23724 
   23580    23348    23147    23062    23116    23210    23249    23314 
   23475    23606    23649    23652    23592    23508    23494    23496 
   23434    23253    22967    22771    22824    22979    23055    23089 
   23136    23166    23182    23229    23334    23450    23477    23392 
   23301    23265    23226    23176    23187    23274    23400    23492 
   23471    23332    23152    23051    23095    23187    23252    23368 
   23560    23683    23653    23552    23488    23483    23429    23236 
   23021    22978    23129    23346    23476    23460    23409    23440 
   23475    23442    23425    23433    23392    23287    23148    23040 
   23005    23002    23035    23132    23213    23238    23274    23313 
   23328    23272    23156    23112    23175    23261    23357    23448 
   23514    23575    23615    23607    23573    23558    23607    23676 
   23607    23341    23016    22738    22486    22306    22335    22562 
   22827    23076    23359    23635    23777    23753    23649    23522 
   23419    23407    23472    23533    23565    23554    23485    23419 
   23426    23475    23468    23384    23318    23311    23317    23296 
   23249    23251    23375    23510    23499    23313    23014    22756 
   22716    22908    23155    23260    23241    23257    23318    23353 
   23404    23483    23483    23413    23395    23422    23403    23377 
   23449    23573    23581    23448    23373    23475    23562    23411 
   23109    22925    22927    23002    23107    23214    23267    23303 
   23329    23267    23178    23175    23225    23276    23337    23359 
   23302    23247    23278    23359    23382    23364    23403    23465 
   23496    23545    23616    23656    23608    23423    23144    22910 
   22798    22829    22975    23109    23133    23099    23062    23018 
   23066    23240    23360    23334    23283    23311    23479    23754 
   23963    24009    23976    23934    23926    23996    24019    23874 
   23691    23561    23390    23152    22928    22751    22607    22485 
   22370    22269    22239    22319    22472    22665    22827    22905 
   22999    23180    23315    23357    23438    23634    23885    24085 
   24158    24146    24143    24185    24210    24108    23878    23620 
   23364    23106    22901    22790    22804    22927    22990    22887 
   22752    22729    22771    22773    22728    22702    22744    22864 
   22997    23106    23253    23444    23611    23731    23842    23988 
   24167    24336    24412    24320    24054    23703    23427    23342 
   23400    23461    23418    23237    22951    22630    22338    22121 
   22005    22026    22216    22530    22878    23230    23542    23751 
   23896    24042    24165    24271    24375    24347    24062    23645 
   23306    23080    22921    22802    22708    22712    22847    22977 
   23039    23091    23137    23182    23268    23364    23394    23342 
   23257    23249    23390    23585    23741    23893    24019    23992 
   23792    23507    23207    22967    22839    22793    22810    22858 
   22877    22887    22923    22972    23098    23317    23510    23630 
   23708    23719    23673    23615    23488    23256    23040    22958 
   22994    23097    23244    23383    23471    23526    23539    23467 
   23323    23161    23044    23021    23041    23051    23157    23407 
   23631    23722    23718    23660    23591    23544    23525    23519 
   23463    23317    23175    23118    23076    23012    23016    23110 
   23209    23213    23091    22964    22975    23095    23210    23313 
   23479    23691    23851    23912    23861    23660    23326    22987 
   22783    22709    22657    22613    22617    22658    22801    23080 
   23349    23523    23681    23869    23998    23990    23916    23861 
   23776    23593    23357    23163    23078    23117    23230    23359 
   23463    23526    23541    23479    23345    23184    22991    22820 
   22765    22771    22785    22918    23194    23448    23587    23641 
   23634    23622    23673    23688    23477    23132    22916    22870 
   22840    22770    22754    22890    23148    23392    23576    23805 
   24109    24341    24413    24367    24170    23793    23402    23093 
   22693    22187    21865    21878    22083    22326    22577    22883 
   23230    23480    23560    23585    23653    23727    23778    23839 
   23924    23982    23958    23908    23922    23935    23835    23645 
   23449    23295    23168    23036    22887    22715    22588    22581 
   22632    22666    22692    22708    22711    22769    22950    23267 
   23661    24005    24237    24364    24364    24220    23980    23711 
   23461    23211    22923    22632    22431    22353    22395    22546 
   22761    22971    23171    23388    23591    23738    23853    23907 
   23841    23734    23652    23546    23475    23534    23615    23606 
   23568    23533    23411    23217    23076    22978    22843    22746 
   22779    22929    23171    23415    23526    23506    23429    23315 
   23168    22993    22815    22692    22638    22651    22783    22998 
   23136    23184    23283    23458    23642    23823    23958    24012 
   24062    24139    24154    24094    24019    23919    23784    23629 
   23419    23163    22951    22819    22739    22693    22651    22555 
   22435    22419    22559    22775    23013    23269    23488    23587 
   23569    23476    23361    23310    23349    23433    23572    23795 
   24017    24098    23974    23697    23396    23188    23087    23031 
   22987    23009    23094    23129    23094    23105    23215    23404 
   23620    23754    23745    23631    23460    23242    22993    22805 
   22785    22851    22877    22933    23074    23197    23240    23218 
   23160    23136    23188    23299    23457    23615    23672    23645 
   23639    23652    23608    23575    23623    23639    23518    23309 
   23161    23152    23176    23166    23209    23345    23453    23417 
   23236    22999    22860    22909    23006    22978    22893    22902 
   23033    23214    23334    23361    23395    23502    23622    23676 
   23646    23600    23638    23768    23890    23966    24009    23993 
   23901    23754    23573    23403    23182    22829    22481    22306 
   22265    22280    22312    22341    22438    22640    22817    22941 
   23157    23492    23816    24030    24092    24000    23847    23772 
   23805    23835    23757    23635    23598    23616    23534    23323 
   23121    22987    22905    22850    22790    22762    22816    22893 
   22908    22881    22912    23105    23373    23517    23542    23580 
   23657    23747    23792    23727    23619    23589    23568    23402 
   23167    23109    23272    23438    23453    23356    23264    23268 
   23278    23209    23148    23113    23048    22990    22982    23062 
   23242    23440    23545    23560    23541    23484    23390    23301 
   23188    23056    23052    23179    23274    23292    23341    23463 
   23592    23650    23584    23421    23226    23033    22893    22843 
   22796    22713    22698    22796    22941    23045    23079    23170 
   23448    23818    24129    24348    24445    24382    24158    23830 
   23518    23309    23161    22994    22808    22674    22674    22782 
   22851    22852    22952    23194    23403    23472    23452    23403 
   23406    23521    23653    23696    23665    23589    23441    23232 
   23090    23125    23236    23236    23083    22933    22916    22944 
   22914    22909    22998    23144    23321    23434    23409    23384 
   23469    23623    23797    23904    23870    23781    23739    23704 
   23589    23445    23352    23236    23048    22904    22860    22882 
   22977    23093    23114    23068    23028    22959    22914    23004 
   23161    23328    23539    23706    23724    23673    23591    23488 
   23464    23469    23365    23222    23172    23224    23346    23422 
   23323    23152    23071    23062    23045    23017    22993    23009 
   23078    23160    23247    23394    23566    23689    23772    23826 
   23865    23922    23924    23747    23384    22960    22654    22535 
   22496    22492    22654    22960    23186    23296    23429    23560 
   23579    23500    23434    23407    23377    23376    23423    23472 
   23521    23565    23571    23507    23394    23319    23338    23399 
   23433    23409    23344    23315    23400    23508    23487    23356 
   23242    23184    23125    23051    23045    23078    23056    22998 
   22909    22792    22778    22933    23137    23295    23430    23577 
   23739    23854    23907    23966    24023    23959    23774    23566 
   23356    23149    23022    22978    22908    22774    22671    22689 
   22793    22902    23002    23089    23098    23009    22917    22904 
   22981    23166    23431    23666    23834    23980    24093    24154 
   24159    24050    23800    23527    23326    23174    23106    23149 
   23166    23051    22890    22816    22860    22950    23055    23240 
   23469    23557    23458    23309    23202    23157    23126    23068 
   23067    23163    23264    23352    23438    23458    23415    23429 
   23526    23611    23639    23661    23676    23612    23457    23283 
   23161    23103    23094    23109    23132    23126    23071    23036 
   23062    23093    23137    23198    23209    23170    23128    23120 
   23140    23161    23199    23288    23404    23479    23476    23438 
   23402    23376    23402    23487    23557    23561    23519    23498 
   23518    23496    23407    23349    23376    23452    23504    23473 
   23360    23198    23012    22817    22662    22632    22720    22783 
   22767    22802    23004    23315    23585    23701    23693    23706 
   23772    23812    23839    23907    23959    23900    23760    23656 
   23622    23572    23433    23248    23105    23039    22999    22877 
   22688    22594    22636    22717    22797    22887    23016    23188 
   23348    23414    23427    23483    23560    23554    23499    23496 
   23510    23480    23430    23349    23271    23274    23332    23373 
