Origin Time       2025/03/30 10:18:00
Lat.              34.667
Long.             140.825
Depth. (km)       69
Mag.              4.9
Station Code      KNG004
Station Lat.      35.1442
Station Long.     139.6223
Station Height(m) 31
Record Time       2025/03/30 10:18:54
Sampling Freq(Hz) 100Hz
Duration Time(s)  72
Dir.              N-S
Scale Factor      7845(gal)/8223790
Max. Acc. (gal)   3.146
Last Correction   2025/03/30 10:18:54
Memo.             
[...]
     363      390      333      379      498      549      465      211 
     -95     -201      -27      214      294      229      217      288 
     307      272      252      252      321      469      542      418 
     121     -211     -363     -213      110      391      506      464 
     328      171       72       64      121      178      175      197 
     368      571      614      490      297      151      124      118 
      48       -1        4      -12     -118     -298     -399     -298 
     -51      236      523      769      889      869      823      784 
     661      475      351      280      162       28      -10       10 
     -79     -319     -514     -475     -216       90      286      419 
     576      641      538      379      329      471      689      799 
     673      326      -54     -260     -190       36      125       -4 
    -189     -332     -353     -238     -140      -35      222      531 
     669      589      495      612      865      953      777      531 
     391      275       20     -299     -392     -172       59       -6 
    -309     -469     -221      279      639      649      480      445 
     611      761      680      396      133       59       94       40 
    -121     -189      -25      257      411      328      149       16 
     -35      -20        4       67      295      616      808      743 
     488      191      -22      -82        2      159      318      380 
     260       94       82      166      126      -52     -141       16 
     302      504      521      417      314      201       67       51 
     256      521      557      332       85      -24      -25       -5 
       6       75      260      475      545      379       81     -132 
    -155      -14      216      419      486      441      394      378 
     336      280      332      464      448      211      -76     -216 
    -105      113      176       63       -6      103      311      461 
     467      373      301      260      174       64       47      157 
     333      434      407      380      395      307      122       16 
      33       63       67      124      252      364      410      373 
     251      130       49      -37      -68       56      270      392 
     379      275       44     -222     -229       95      488      707 
     710      585      448      373      378      402      403      396 
     307       90     -163     -342     -388     -307     -222     -199 
    -144       54      390      669      679      475      352      468 
     616      575      459      444      502      511      399      241 
     171      168       82     -114     -288     -355     -322     -211 
     -44      145      295      349      299      224      260      473 
     730      815      680      448      252      152       85      -22 
    -120     -121      -70      -81     -124      -86      -10       49 
     160      303      430      544      630      735      889      919 
     691      329       54      -48      -52      -25        0      -43 
    -140     -225     -291     -278     -153      -16      141      391 
     631      692      565      419      406      537      704      737 
     575      338      130      -25      -99      -85      -43      -72 
    -174     -210     -110       18      109      203      303      365 
     391      387      363      361      400      449      438      353 
     270      224      191      153      122      113      121      128 
     126      137      139       86       67      203      433      517 
     346      139       95      164      245      319      392      459 
     459      313      109       24       55      121      244      415 
     500      394      110     -184     -292     -206      -76       -6 
      -8      -45      -64      -21       81      253      521      804 
     962      939      815      724      675      584      452      299 
     155       55      -41     -194     -390     -529     -465     -229 
       6      132      170      252      413      515      487      407 
     406      522      635      600      411      184       40       22 
      91      152      133       51      -39     -103     -130      -82 
      76      319      549      616      491      311      174      121 
     195      314      376      396      380      344      318      243 
     106       14       -9      -13      -22      -13       44      101 
      87       31       13       60      129      190      294      429 
     464      400      409      544      643      568      422      406 
     491      440      190      -33      -81      -28       18        8 
     -63     -136     -144      -54      106      237      294      333 
     351      309      238      216      287      402      498      584 
     649      622      459      194      -22      -86      -83     -125 
    -129      -27       78       90       67       81      167      340 
     527      638      677      699      712      653      475      198 
     -75     -179      -98      -45     -124     -240     -337     -398 
    -363     -225        8      294      490      535      511      530 
     634      758      858      940      970      872      656      423 
     205      -36     -261     -432     -525     -517     -480     -472 
    -399     -228      -72       20       90      195      387      643 
     835      895      907      912      853      700      479      295 
     225      218      160      -13     -172     -172     -113     -136 
    -207     -251     -207      -59      129      332      523      616 
     618      594      535      454      402      403      442      453 
     371      245      128      -16     -162     -264     -275     -145 
      25      101       41      -62      -41      148      375      475 
     378      210      163      197      203      236      340      477 
     564      533      446      399      403      380      260       82 
     -67     -102      -12       74       83       91      136      126 
      27      -59      -24      151      429      665      704      585 
     438      337      336      391      394      295      118      -62 
    -170     -205     -198     -125       17      147      191      128 
      28       35      167      324      430      469      491      558 
     625      602      507      430      402      371      314      226 
      70      -97     -155     -103      -52      -75     -140     -162 
     -79       95      263      367      456      560      621      589 
     549      588      645      607      436      149     -166     -378 
    -423     -344     -238     -183     -156      -83      101      365 
     595      723      799      864      847      702      491      317 
     302      405      422      282       81      -82     -167     -216 
    -306     -400     -369     -195        6      141      238      322 
     365      394      453      535      596      615      611      603 
     569      450      256       72      -48     -135     -186     -186 
    -163     -106       36      186      214      168      195      322 
     495      660      716      610      403      216      139      160 
     164       76      -66     -166     -164     -106      -43       40 
     143      218      226      174      166      356      712      919 
     747      328        0      -12      194      365      380      299 
     216      128       -6     -147     -189     -110       36      176 
     226      191      124       68      120      302      490      606 
     661      633      467      187      -39      -54       89      214 
     237      210      222      229      132      -16      -63       55 
     274      492      633      666      603      453      261      109 
      39       41       98      152      116      -40     -211     -251 
    -137       48      256      461      646      733      616      340 
      48     -145     -157        2      207      346      396      379 
     319      248      226      284      373      429      388      263 
     133       76      122      234      292      226       97       20 
      58      168      286      444      625      712      660      472 
     220       59       48      102      147      179      172       89 
     -32     -159     -274     -259      -97       86      241      342 
     355      344      330      275      230      299      454      572 
     608      546      357      140       24        2       -1      -41 
    -128     -195     -194     -130      -43      -13       -4      135 
     353      511      589      608      557      450      336      238 
     193      274      465      607      544      305       76       -6 
     -35     -110     -109       63      295      432      380      195 
      67      128      318      517      604      504      334      282 
     344      386      310       98      -97      -62      120      166 
      31      -91      -62       85      211      221      203      243 
     244      206      193      151      155      284      384      371 
     353      321      175      -14      -79       59      311      546 
     641      525      307      176      199      329      454      471 
     361      183       41       -2      -14      -13       36       68 
      33       -6       16       64       66       90      222      402 
     552      621      560      418      338      379      433      382 
     236       94      -12     -120     -256     -395     -432     -305 
    -110       21      116      249      388      488      569      652 
     712      772      869      920      803      467       18     -284 
    -365     -344     -268     -147      -43      -35     -128     -190 
     -51      282      625      830      885      857      750      553 
     375      279      193       27     -201     -375     -419     -329 
    -113      170      382      471      492      477      460      480 
     527      562      533      419      249       51     -105     -125 
       2      179      274      213       74       10       31       68 
     203      457      630      591      384      128      -66     -201 
    -261      -99      263      584      666      502      252       62 
     -29       16      209      436      565      556      483      508 
     600      541      345      191       93       18      -12      -91 
    -253     -371     -363     -260     -112       59      218      313 
     361      413      472      557      679      803      847      758 
     565      322       94      -62     -147     -207     -265     -306 
    -280     -224     -243     -286     -191       41      251      364 
     461      561      604      580      508      433      388      369 
     342      274      120     -159     -480     -669     -618     -384 
    -126       25      109      243      438      650      869     1053 
    1109     1008      808      611      484      422      394      355 
     344      437      521      436      237       55      -67     -184 
    -306     -360     -346     -319     -310     -315     -252      -59 
     178      361      461      499      510      513      542      656 
     761      688      457      251      122      -31     -233     -359 
    -338     -198       36      338      634      810      801      668 
     537      486      487      504      565      591      418      118 
    -110     -236     -328     -396     -375     -237      -83      -17 
       1       28       39       27       36      113      194      136 
     -43     -166     -120       22      126      206      421      800 
    1158     1301     1178      839      365      -90     -318     -249 
      -2      284      492      527      392      197      143      410 
     934     1408     1605     1517     1231      819      363      -54 
    -422     -718     -873     -965    -1167    -1494    -1760    -1800 
   -1606    -1196     -535      309     1090     1549     1614     1424 
    1182     1007      926      927      947      888      677      340 
      -1     -234     -340     -330     -198       -9       62      -67 
    -259     -337     -272     -135        1      151      338      429 
     340      198      163      302      595      981     1363     1598 
    1618     1493     1293     1046      772      464      114     -303 
    -784    -1205    -1409    -1383    -1262    -1109     -866     -545 
    -299     -176      -40      210      534      876     1196     1413 
    1452     1320     1063      739      465      355      417      610 
     881     1123     1236     1216     1028      591      -78     -824 
   -1441    -1760    -1788    -1742    -1784    -1829    -1629    -1055 
    -271      492     1204     1900     2538     3017     3306     3451 
    3415     2997     2074      804     -472    -1470    -2118    -2438 
   -2475    -2409    -2403    -2430    -2359    -2015    -1294     -299 
     780     1775     2500     2887     3009     2960     2810     2515 
    1976     1173      214     -668    -1290    -1644    -1787    -1744 
   -1556    -1352    -1289    -1394    -1498    -1410    -1123     -706 
     -95      769     1687     2384     2793     2982     3024     2937 
    2708     2397     2042     1553      876       66     -811    -1621 
   -2197    -2485    -2486    -2219    -1745    -1162     -498      249 
     967     1534     1926     2149     2168     1892     1264      365 
    -608    -1485    -2150    -2523    -2563    -2299    -1829    -1251 
    -641      -52      572     1329     2170     2934     3435     3514 
    3122     2431     1728     1229      976      799      510      124 
    -228     -534     -823    -1024    -1063     -923     -679     -511 
    -534     -662     -735     -708     -623     -486     -272       -4 
     222      348      400      468      622      865     1148     1401 
    1532     1436     1050      444     -184     -668     -943    -1019 
    -934     -714     -415     -162       40      276      558      893 
    1279     1655     1937     2050     1911     1463      757      -55 
    -814    -1370    -1583    -1432    -1108     -816     -598     -399 
    -140      220      612      901      957      741      372       10 
    -174      -45      278      541      656      629      442      166 
      -5       95      429      754      826      580      156     -243 
    -507     -622     -581     -373      -51      268      487      580 
     608      662      774      908      957      838      595      351 
     257      395      629      796      815      623      267     -110 
    -407     -542     -530     -531     -656     -816     -850     -675 
    -348      -17      197      268      241      186      167      245 
     433      681      911     1043     1082     1135     1250     1352 
    1333     1100      626       21     -484     -715     -760     -850 
   -1058    -1289    -1397    -1286     -980     -503      179      978 
    1692     2168     2355     2303     2092     1753     1335      934 
     608      303      -79     -557    -1065    -1489    -1725    -1761 
   -1679    -1547    -1331     -965     -419      225      799     1239 
    1606     1915     2137     2216     2115     1830     1366      785 
     205     -333     -847    -1247    -1455    -1532    -1524    -1441 
   -1290    -1020     -602      -98      411      924     1435     1867 
    2099     2070     1850     1553     1251      966      680      372 
      60     -160     -233     -264     -386     -607     -889    -1161 
   -1286    -1198     -943     -573      -79      564     1244     1764 
    1957     1782     1364      874      434      157      102      187 
     222       54     -279     -614     -812     -804     -592     -295 
     -45       86       95       79      141      255      353      473 
     645      816      934      970      966      965      934      815 
     630      471      344      184      -20     -230     -383     -449 
    -486     -567     -679     -727     -687     -606     -510     -378 
    -199      -13      180      467      862     1221     1399     1390 
    1316     1320     1359     1270     1003      652      334       95 
     -62     -152     -191     -199     -271     -461     -696     -862 
    -903     -828     -684     -540     -402     -199      126      565 
    1001     1274     1335     1289     1209     1057      808      502 
     197      -95     -372     -592     -754     -810     -654     -282 
     234      839     1431     1811     1871     1676     1386     1129 
     880      562      168     -270     -741    -1233    -1702    -2089 
   -2282    -2122    -1541     -685      189      904     1393     1675 
    1818     1834     1726     1524     1275     1017      733      380 
     -40     -486     -837     -949     -885     -797     -660     -441 
    -183       83      341      603      881     1131     1287     1310 
    1206     1048      889      660      324      -28     -329     -546 
    -645     -638     -599     -546     -422     -205       35      209 
     332      446      562      657      693      712      799      908 
     888      702      459      241       44     -147     -314     -480 
    -677     -837     -909     -908     -787     -522     -144      299 
     730     1109     1412     1564     1563     1435     1190      904 
     599      195     -275     -662     -872     -928     -862     -648 
    -329      -67       81      226      457      766     1082     1333 
    1521     1621     1495     1092      550       95     -172     -328 
    -452     -560     -692     -886    -1084    -1170    -1102     -919 
    -619     -171      356      841     1206     1447     1611     1773 
    1942     2060     2062     1896     1518      951      286     -357 
    -862    -1174    -1332    -1425    -1512    -1566    -1502    -1297 
   -1008     -670     -259      220      679     1020     1227     1370 
    1512     1642     1725     1742     1683     1487     1080      480 
    -175     -769    -1239    -1507    -1518    -1345    -1105     -824 
    -499     -189       95      414      778     1144     1480     1746 
    1845     1740     1474     1071      556        4     -484     -869 
   -1152    -1341    -1418    -1310     -989     -529      -62      318 
     661     1077     1547     1939     2200     2323     2238     1903 
    1360      718       89     -464     -924    -1329    -1706    -2027 
   -2245    -2305    -2115    -1607     -886     -108      642     1294 
    1768     2011     2057     1996     1885     1746     1556     1263 
     832      314     -186     -569     -785     -896     -943     -900 
    -761     -548     -315      -71      213      511      768      963 
    1097     1148     1107      980      791      579      355      141 
     -24     -128     -178     -195     -202     -241     -340     -450 
    -495     -425     -271      -91       51      130      139       64 
       5       94      351      664      901     1004      993      977 
     990      946      799      603      418      220       -2     -214 
    -392     -511     -569     -545     -442     -284      -89      112 
     344      629      916     1135     1242     1232     1090      857 
     594      360      178        9     -178     -388     -579     -666 
    -618     -456     -264      -89       51      117      118      108 
