Origin Time       2025/03/30 10:18:00
Lat.              34.667
Long.             140.825
Depth. (km)       69
Mag.              4.9
Station Code      KNG004
Station Lat.      35.1442
Station Long.     139.6223
Station Height(m) 31
Record Time       2025/03/30 10:18:54
Sampling Freq(Hz) 100Hz
Duration Time(s)  72
Dir.              E-W
Scale Factor      7845(gal)/8223790
Max. Acc. (gal)   4.849
Last Correction   2025/03/30 10:18:54
Memo.             
[...]
    1861     1917     1926     1966     2069     2106     1985     1806 
    1741     1888     2151     2340     2344     2246     2268     2466 
    2628     2600     2447     2301     2203     2150     2177     2220 
    2097     1791     1449     1200     1143     1305     1557     1707 
    1707     1728     1914     2246     2627     2914     2970     2847 
    2786     2840     2782     2484     2069     1771     1722     1809 
    1794     1593     1331     1166     1146     1182     1201     1300 
    1621     2104     2538     2824     3033     3248     3400     3306 
    2963     2567     2289     2199     2219     2155     1944     1672 
    1413     1183      984      824      741      788     1036     1487 
    1975     2359     2637     2798     2880     3017     3199     3271 
    3168     2949     2663     2367     2141     1941     1661     1323 
    1031      859      858     1074     1449     1782     1977     2122 
    2273     2421     2511     2519     2524     2613     2801     2979 
    2924     2570     2170     1949     1833     1691     1549     1444 
    1298     1112     1042     1186     1528     1957     2342     2625 
    2798     2844     2772     2627     2471     2390     2397     2373 
    2209     1991     1890     1865     1741     1525     1381     1408 
    1564     1729     1840     1957     2119     2276     2416     2544 
    2601     2565     2466     2409     2471     2519     2377     2041 
    1667     1425     1360     1409     1470     1498     1584     1794 
    2068     2282     2349     2313     2249     2178     2231     2452 
    2658     2667     2459     2181     2045     2073     2092     2015 
    1919     1877     1841     1722     1545     1456     1552     1795 
    2046     2150     2064     1918     1907     2066     2284     2469 
    2624     2727     2658     2432     2236     2178     2215     2246 
    2169     1975     1788     1737     1817     1900     1871     1741 
    1599     1485     1421     1475     1698     2053     2409     2663 
    2783     2739     2597     2475     2362     2218     2052     1890 
    1772     1728     1809     1999     2107     2012     1837     1737 
    1733     1749     1771     1854     2016     2250     2470     2523 
    2405     2245     2138     2108     2115     2160     2245     2281 
    2192     2042     1976     2050     2188     2236     2095     1838 
    1656     1626     1661     1684     1729     1884     2147     2351 
    2376     2259     2064     1872     1840     2027     2288     2420 
    2397     2328     2284     2254     2247     2257     2223     2133 
    2016     1881     1753     1694     1744     1888     2057     2151 
    2128     2016     1879     1798     1817     1910     2035     2135 
    2131     2031     1961     1981     2072     2228     2388     2438 
    2398     2371     2315     2120     1910     1906     2070     2195 
    2178     2042     1902     1884     1969     2029     1962     1806 
    1701     1705     1768     1845     1937     2060     2181     2300 
    2459     2613     2643     2511     2258     2015     1933     1968 
    1998     2011     1971     1872     1769     1668     1607     1676 
    1885     2111     2238     2278     2286     2305     2376     2412 
    2316     2178     2084     2019     2023     2096     2166     2151 
    1960     1656     1493     1630     1946     2180     2170     1983 
    1837     1850     1956     2087     2232     2355     2423     2451 
    2405     2234     2025     1933     1991     2081     2101     2042 
    1910     1748     1632     1607     1687     1848     2047     2223 
    2295     2277     2255     2230     2173     2165     2284     2474 
    2592     2547     2353     2089     1887     1769     1665     1614 
    1683     1813     1892     1899     1917     1980     2018     2029 
    2062     2112     2169     2187     2127     2052     1987     2011 
    2174     2344     2447     2517     2529     2439     2245     2011 
    1858     1844     1873     1845     1773     1718     1745     1858 
    1938     1876     1740     1674     1761     1953     2100     2193 
    2346     2540     2650     2625     2511     2366     2247     2192 
    2189     2222     2235     2165     1987     1722     1510     1495 
    1634     1748     1714     1568     1460     1526     1791     2135 
    2431     2627     2713     2755     2802     2793     2658     2421 
    2169     1998     1926     1896     1803     1579     1310     1186 
    1281     1498     1726     1921     2060     2174     2293     2386 
    2443     2506     2636     2808     2887     2743     2424     2122 
    1906     1729     1587     1512     1516     1594     1722     1815 
    1810     1788     1831     1904     2008     2196     2398     2502 
    2504     2465     2417     2336     2208     2106     2077     2061 
    2023     1979     1934     1918     1950     1988     1984     1923 
    1836     1714     1571     1561     1807     2153     2376     2417 
    2317     2207     2222     2305     2334     2269     2174     2155 
    2236     2296     2214     1984     1723     1570     1602     1798 
    2006     2100     2133     2169     2173     2155     2146     2126 
    2070     1976     1881     1853     1919     2041     2151     2227 
    2259     2241     2216     2199     2170     2177     2211     2205 
    2143     2056     2002     1961     1869     1745     1645     1644 
    1779     1937     1984     1969     2029     2182     2334     2420 
    2425     2366     2270     2181     2141     2128     2127     2128 
    2060     1865     1648     1591     1733     1937     2043     1989 
    1880     1894     2052     2224     2316     2378     2481     2538 
    2465     2323     2181     2114     2141     2174     2170     2096 
    1922     1710     1530     1436     1479     1655     1876     2018 
    2069     2108     2158     2239     2369     2511     2635     2683 
    2609     2463     2303     2141     1976     1794     1615     1460 
    1321     1204     1185     1362     1678     1977     2178     2311 
    2428     2502     2512     2521     2587     2712     2822     2778 
    2523     2191     1958     1804     1617     1402     1254     1220 
    1285     1452     1722     1995     2166     2247     2290     2374 
    2554     2747     2833     2772     2619     2463     2301     2081 
    1863     1742     1752     1826     1853     1749     1524     1313 
    1273     1440     1744     2046     2215     2273     2326     2407 
    2524     2641     2677     2619     2513     2408     2303     2166 
    2003     1854     1738     1626     1509     1418     1397     1474 
    1629     1829     2052     2263     2424     2496     2481     2457 
    2502     2562     2523     2389     2222     2062     1930     1826 
    1761     1764     1787     1779     1772     1804     1888     2025 
    2128     2154     2164     2184     2196     2180     2160     2158 
    2146     2107     2031     1942     1929     2030     2181     2285 
    2274     2173     2054     1966     1921     1918     1960     2050 
    2187     2308     2305     2169     2019     1925     1876     1864 
    1879     1895     1898     1900     1922     1961     2023     2083 
    2099     2073     2076     2177     2338     2451     2471     2409 
    2270     2069     1848     1675     1622     1684     1769     1810 
    1841     1935     2056     2093     2056     2054     2139     2276 
    2409     2512     2598     2656     2617     2462     2231     2003 
    1849     1756     1698     1680     1676     1668     1665     1695 
    1769     1869     1966     2038     2101     2184     2246     2249 
    2188     2118     2122     2207     2270     2246     2174     2116 
    2104     2114     2079     1992     1945     2027     2191     2303 
    2259     2073     1860     1759     1803     1911     1973     1954 
    1921     1961     2089     2236     2296     2232     2103     1962 
    1861     1853     1939     2091     2259     2335     2211     1977 
    1871     1993     2216     2335     2280     2149     2069     2062 
    2061     2014     1957     1948     1960     1962     1962     1964 
    1998     2074     2170     2254     2290     2272     2201     2107 
    2066     2080     2057     1988     1917     1830     1719     1620 
    1601     1711     1894     2076     2224     2323     2400     2454 
    2423     2313     2189     2084     2035     2049     2058     1992 
    1873     1819     1884     1989     2057     2111     2185     2199 
    2114     2033     2034     2097     2176     2238     2285     2334 
    2381     2331     2101     1810     1653     1691     1838     2004 
    2122     2123     2007     1838     1688     1636     1752     2008 
    2235     2343     2405     2473     2512     2489     2451     2396 
    2255     2077     1914     1734     1593     1594     1709     1811 
    1841     1822     1807     1826     1868     1942     2079     2255 
    2412     2489     2435     2308     2239     2207     2115     2020 
    2006     2035     2064     2054     1980     1864     1728     1642 
    1744     2012     2292     2512     2647     2590     2346     2081 
    1890     1798     1861     2015     2110     2100     2041     1983 
    1958     1985     2049     2092     2068     2015     2006     2058 
    2143     2191     2185     2162     2088     1984     1953     2004 
    2031     2043     2111     2120     1995     1876     1802     1692 
    1683     1875     2103     2219     2222     2209     2259     2301 
    2257     2177     2162     2254     2316     2209     2022     1819 
    1629     1575     1653     1806     2034     2216     2295     2313 
    2223     2101     2123     2222     2234     2157     2068     2038 
    2084     2108     2066     2025     2023     2056     2111     2134 
    2054     1910     1836     1900     2034     2123     2134     2097 
    2035     1976     1934     1910     1929     2041     2203     2293 
    2273     2191     2108     2096     2142     2145     2087     2045 
    2011     1966     1944     1977     2074     2149     2099     1957 
    1840     1852     1956     1989     1929     1876     1867     1881 
    1944     2079     2295     2523     2579     2409     2223     2231 
    2384     2450     2320     2088     1872     1698     1566     1480 
    1480     1621     1853     2074     2227     2286     2273     2208 
    2146     2160     2282     2505     2714     2771     2704     2567 
    2338     2076     1898     1841     1925     2031     1989     1838 
    1699     1584     1471     1470     1728     2158     2490     2581 
    2484     2307     2151     2058     2003     2019     2124     2174 
    2039     1848     1755     1688     1588     1528     1532     1599 
    1726     1845     1896     1900     1927     2057     2284     2493 
    2632     2724     2714     2596     2498     2469     2450     2428 
    2384     2242     1987     1715     1520     1414     1420     1517 
    1633     1764     1950     2150     2259     2228     2173     2236 
    2377     2471     2425     2212     1964     1822     1748     1669 
    1578     1479     1395     1367     1420     1530     1649     1769 
    1918     2099     2293     2479     2654     2785     2821     2786 
    2721     2590     2370     2115     1910     1868     2020     2270 
    2455     2477     2363     2145     1823     1490     1309     1350 
    1537     1800     2133     2465     2682     2749     2641     2386 
    2149     2083     2191     2346     2405     2366     2263     2077 
    1836     1620     1459     1356     1318     1327     1321     1244 
    1129     1084     1166     1371     1645     1941     2215     2448 
    2646     2720     2662     2623     2656     2668     2612     2550 
    2527     2520     2500     2486     2479     2423     2305     2154 
    2019     2018     2203     2417     2405     2150     1896     1779 
    1744     1722     1722     1800     1971     2149     2222     2151 
    2010     1883     1771     1680     1709     1876     2072     2178 
    2126     1931     1651     1368     1200     1221     1444     1806 
    2192     2459     2531     2500     2521     2646     2828     3057 
    3292     3388     3242     2879     2397     1895     1479     1232 
    1159     1185     1236     1281     1278     1167      938      657 
     486      549      843     1328     1960     2633     3176     3474 
    3539     3469     3383     3314     3200     3002     2767     2569 
    2427     2293     2112     1898     1703     1595     1606     1691 
    1823     2042     2322     2543     2651     2670     2578     2343 
    2027     1756     1618     1557     1510     1482     1464     1439 
    1362     1219     1078     1054     1188     1421     1652     1798 
    1850     1849     1844     1873     1950     2068     2222     2444 
    2745     3080     3415     3707     3894     3950     3870     3703 
    3535     3430     3350     3160     2762     2193     1564      962 
     430      -18     -310     -326     -118      102      216      255 
     291      390      652     1151     1854     2639     3384     4018 
    4510     4828     4958     4914     4688     4261     3709     3175 
    2695     2178     1533      741     -132     -911    -1424    -1632 
   -1611    -1382     -843       48     1170     2311     3262     3921 
    4382     4819     5267     5632     5837     5850     5617     5057 
    4160     3013     1705      346     -900    -1934    -2683    -3021 
   -2856    -2222    -1213       39     1370     2585     3586     4418 
    5132     5737     6243     6612     6702     6324     5440     4228 
    2914     1645      491     -533    -1410    -2092    -2582    -2851 
   -2785    -2304    -1453     -398      734     1931     3200     4503 
    5688     6527     6928     6979     6759     6289     5563     4587 
    3458     2308     1248      346     -422    -1063    -1471    -1549 
   -1352    -1019     -634     -190      410     1278     2373     3446 
    4239     4695     4878     4824     4573     4234     3935     3680 
    3341     2758     1881      896       85     -406     -588     -473 
     -99      399      843     1171     1480     1867     2331     2793 
    3144     3311     3303     3194     3110     3184     3423     3651 
    3666     3369     2798     2141     1595     1228      997      868 
     793      683      527      406      368      410      568      907 
    1402     1977     2554     3076     3539     3919     4087     3931 
    3518     3086     2832     2763     2710     2501     2099     1597 
    1112      714      427      317      440      789     1318     1861 
    2207     2304     2261     2239     2323     2454     2606     2833 
    3130     3392     3515     3487     3364     3186     2932     2560 
    2077     1593     1220      976      808      679      577      533 
     558      623      751     1042     1512     2073     2602     2995 
    3230     3333     3348     3353     3422     3531     3581     3478 
    3127     2506     1734      996      463      214      237      436 
     637      757      845      955     1185     1665     2382     3130 
    3663     3859     3815     3727     3712     3788     3879     3829 
    3507     2889     2077     1236      488      -71     -403     -552 
    -550     -396     -101      375     1078     1930     2752     3435 
    3993     4449     4791     4973     4926     4598     4000     3190 
    2258     1335      569        9     -395     -697     -846     -700 
    -209      507     1277     1964     2539     3052     3523     3900 
    4143     4272     4324     4298     4118     3689     3026     2254 
    1503      839      307       -5      -58      102      388      712 
    1005     1219     1313     1350     1455     1733     2247     2943 
    3628     4170     4504     4584     4421     4071     3595     3011 
    2295     1540      949      623      533      588      634      503 
     199      -99     -210      -18      513     1341     2319     3207 
    3863     4236     4261     3991     3628     3366     3267     3225 
    3138     2982     2705     2295     1852     1468     1165      935 
     791      745      808      976     1206     1432     1601     1671 
    1649     1644     1768     2043     2407     2760     3048     3249 
    3346     3304     3091     2735     2378     2160     2069     2020 
    1958     1841     1638     1383     1171     1096     1171     1335 
    1497     1645     1833     2066     2292     2459     2585     2695 
    2740     2633     2385     2099     1881     1782     1746     1703 
    1663     1710     1881     2057     2079     1948     1809     1779 
    1887     2101     2344     2490     2492     2461     2513     2629 
    2718     2724     2650     2536     2412     2272     2091     1853 
    1597     1366     1156      943      774      768      959     1287 
    1688     2103     2477     2785     3028     3173     3168     3046 
    2906     2801     2754     2763     2787     2728     2473     2047 
    1571     1108      729      504      442      514      733     1101 
    1517     1858     2147     2467     2814     3126     3333     3356 
    3233     3114     3065     3037     2959     2798     2540     2138 
    1586      966      399       44       64      452      988     1456 
    1792     2042     2269     2535     2868     3177     3366     3447 
    3434     3299     3059     2745     2371     1977     1636     1387 
    1179      936      735      673      745      942     1240     1583 
    1961     2347     2647     2789     2797     2790     2878     3036 
    3173     3240     3165     2870     2358     1734     1139      708 
     513      514      643      872     1156     1413     1580     1696 
    1840     2046     2290     2555     2876     3295     3775     4198 
    4401     4287     3875     3237     2463     1728     1198      880 
     703      629      634      722      858      994     1148     1351 
    1597     1879     2133     2340     2567     2832     3092     3315 
    3477     3555     3504     3296     2964     2558     2120     1686 
    1277      930      697      598      604      695      857     1077 
    1348     1699     2116     2531     2871     3106     3213     3198 
    3134     3072     2983     2821     2596     2324     1971     1536 
    1129      876      780      778      854      982     1132     1321 
    1544     1760     1960     2157     2369     2605     2886     3207 
    3474     3566     3456     3186     2817     2421     2074     1818 
    1617     1418     1215     1024      869      761      708      757 
     977     1362     1810     2242     2613     2944     3306     3676 
    3909     3902     3707     3441     3145     2790     2385     1985 
    1607     1233      884      634      546      592      726      940 
    1227     1580     1971     2323     2593     2821     3032     3159 
    3127     2920     2620     2334     2111     1957     1823     1656 
    1452     1232     1000      818      766      877     1167     1611 
    2112     2555     2859     3025     3096     3113     3126     3161 
    3175     3111     2953     2681     2323     1965     1642     1367 
    1169     1059     1021     1019     1063     1221     1516     1850 
