Origin Time       2025/03/30 10:18:00
Lat.              34.667
Long.             140.825
Depth. (km)       69
Mag.              4.9
Station Code      KNG205
Station Lat.      34.9413
Station Long.     139.4213
Station Height(m) -1486
Record Time       2025/03/30 10:18:52
Sampling Freq(Hz) 100Hz
Duration Time(s)  97
Dir.              U-D
Scale Factor      2000(gal)/6182761
Max. Acc. (gal)   2.542
Last Correction   2025/03/30 10:18:52
Memo.             
[...]
     101       99       84       86       97       98       93       96 
     100       94       95       99       95       93       92       90 
      91       93       96       98      100       93       81       84 
      93       93       93       92       86       91      101       96 
      87       89       92       90       89       97       99       91 
      94      103       98       89       87       90       93       93 
      93       93       94       96       97       94       90       92 
      95       94       91       88       97      104       96       94 
      99       96       92       99      102       89       88       99 
      93       88       97       97       90       87       90       93 
      91       95      100       95       98      106       96       91 
     101      104       94       89       93       98      100      101 
      96       90       91       96      102       94       87       94 
      98       94       94       96       95       94       90       90 
      96       98       93       94       94       93       93       95 
     100      102      101      103      103      100       98       99 
     100       96       93       95       98      100       99       98 
      97       93       93       96       99       95       92       93 
      91       91       93       91       90       90       94       98 
      98       99       97       93       95       93       95      102 
     101       97       95       93       97       97       93       96 
      96       96      100      101       98       97       97       95 
      94       97      101       98       94       95       94       93 
      99      100       96      100      104       97       88       88 
      93       89       86       93       95       89       88       93 
      91       88       93       99       96       89       93      100 
      97       92       93       96       93       90       97       99 
      92       94      102      101       96       96       99       97 
      94       95       99      105      103       98       97       92 
      90       96       98       95       95       98       97       93 
      95       96       90       89       99       99       90       92 
      98       97       98       97       92       89       90       90 
      92       93       95       95       94       92       91       90 
      93       94       92       91       90       93       95       91 
      91       94       92       91       92       92       94       95 
      89       88       98      102       92       91       99       92 
      84       88       91       93       93       89       90       90 
      90       98       95       90       96       92       84       92 
      95       91       91       90       89       89       89       92 
      92       89       92       95       94       92       90       89 
      94       94       87       89       92       89       93       96 
      94       96       98       94       87       84       85       91 
      93       90       93       93       88       94       98       88 
      87       92       93       99       99       91       91       96 
      95       91       98      104       94       89       95       95 
      93       93       92       92       93       94       93       95 
      97       94       90       93       95       97       98       96 
      88       87       93       91       89       97      100       97 
      94       93       95       99       99       95       93       97 
      96       93       90       87       90       91       87       93 
      98       96      100       96       86       91       98       96 
      95       96       98       95       88       92       97       93 
      90       96      100       94       89       90       94      100 
      98       94       95       96       96       96       95       87 
      83       88       91       90       93       96       92       88 
      90       88       88       91       86       87       91       86 
      89       99       95       89       94       93       84       86 
      93       89       87       96       97       85       83       91 
      92       88       89       92       96       93       87       88 
      96      101      101       95       94       99       99       96 
      94       95       97       89       87       94       90       84 
      90       94       93       91       89       90       97      102 
      97       87       86       97      103       99       98       99 
      99       98       92       91       97      101      100       97 
     100      101       94       95      103      108      107      101 
      95       95       96       92       92       97       99      103 
     102       95       97       98       94       99      105      104 
     103      102       99       97       95       94       95       99 
     101       98       94       91       92       97      101      102 
     100       95       93      101      103       96       93       93 
      89       90       95       93       98      103       96       97 
     102       97       93       97       95       94      100      100 
      96       96       98       96       94       92       95      102 
     101       95       95       95       93       97       95       88 
      92       93       89       95       95       95      101       98 
      90       88       90       91       96       99       96       95 
      96       93       94       97       92       92       98       99 
      93       87       90       95       92       92       93       91 
      90       88       90       91       85       88       97       91 
      86       93       93       87       86       90       93       88 
      88       95       91       88       98      100       92       92 
      96       94       90       84       88       94       91       91 
      95       96       94       89       85       88       89       91 
      97       97       89       90       96       90       87       97 
      96       84       84       92       95       94       93       93 
      92       92       95       90       86       91       91       89 
      91       92       93       93       92       95       94       90 
      96      103       98       91       90       92       93       94 
      91       89       95      100       98       93       88       84 
      89       97       93       94      102       99       92       91 
      90       94       98       94       86       87       96       94 
      89       97       97       91      102      101       85       90 
     101       95       94       98       97       97       93       93 
      97       95       97      104      103      100       98       93 
      94       98       97       99      100       97      100      103 
      98       92       93       97       99      100       99       91 
      85       90       96       97       96      100       99       92 
      93       96       93       93       94       94       95       89 
      81       81       89       97       98       97      100       96 
      91       98      101       93       93       95       93       93 
      93       90       82       79       90       96       87       89 
      99       91       85       95      100       99      100       97 
      90       87       88       87       89       91       86       84 
      88       91       93       92       90       92       93       90 
      87       85       91       95       96       95       91       90 
      93       95       93       89       88       93       94       87 
      88       95       99       96       86       85       94       92 
      87       90       93       94       95       94       90       87 
      89       91       87       90       96       95       95       89 
      82       86       93       91       92       93       90       91 
      93       89       86       86       91       95       90       87 
      90       96       94       90       93       96       95       90 
      87       88       83       79       89       91       84       86 
      88       89       96       98       98       97       91       88 
      90       88       85       91       98       94       90       96 
      97       91       91       97       96       93       92       90 
      89       91       95       97       94       88       92       95 
      89       91       99       95       88       88       90       93 
      95       95       95       95       98       96       94       93 
      92       96      100       95       94       97       97       94 
      96       92       87       94       98       95       97       96 
      93       94       95       94       98      104      103       98 
      99       98       97       97       98      103      103       94 
      91      100      104       98       95       98      100       98 
      95       98      103      107      110      106      103      106 
     104       99      102      103       97       93       95       97 
      95       95       99       98       95       99      101       98 
     102      107      101       96       94       93       99      104 
     101       96       91       90       93       98      100      100 
      95       89       97      104       98       95      100      102 
     100       99       97       94       93       94       94       93 
      97       98       97      103      102       92       90       98 
      98       85       87      103      102       95       93       96 
     102       99       93       95       91       86       90       94 
      91       91       93       89       88       92       91       92 
      93       94      101      102       92       89       92       90 
      90       90       91       99       99       89       92      100 
      95       88       96      106       98       91       94       92 
      93       97       95       96       96       93       91       93 
      96       95       95       95       94       95       92       90 
      99      102       88       84       91       91       89       95 
      95       88       90       98       92       83       85       89 
      93       99       96       91       93       91       89       90 
      87       92       98       92       83       84       95      101 
      93       91       98       95       89       91       93       95 
      97       95       93       90       93      100       93       86 
      93       97       92       92       93       90       90       93 
      95       96       96       98       96       88       84       91 
      94       94       91       87       88       91       91       96 
      96       87       86       90       89       90       91       87 
      89       94       93       92       94       96       99       94 
      86       92       94       89       96       98       89       92 
      99       93       86       94       96       91       95       95 
      90       91       90       88       95       97       93       93 
      93       95       95       90       87       87       87       96 
      98       91       97       99       88       89       96       92 
      86       92       97       91       89      101      106       97 
      92      100      102       93       91       99       98       93 
      98       97       90       93       96       88       86       93 
      95       96      101       96       90       91       93       97 
      99       99       99       96      100      103       93       96 
     105       94       82       94      101       92       93       97 
      96      101       96       87       94       97       92       96 
     101       93       87       94      100       97       95      100 
      99       91       89       93       95       99       99       97 
      97      100      101       99       96       94       94       92 
      95      100       99       99       95       90       95      101 
     101       97       93       94       99      101       93       86 
      97      106       96       91       97      101      100       94 
      85       86       87       83       85       93       98       93 
      86       87       87       89       97       99       94       92 
      95       92       85       90       99       95       91       92 
      91       93       97       92       91       97       94       93 
      96       89       84       85       80       77       73       68 
      66       55       41       39       31       12       -3      -19 
     -54     -107     -152     -178     -197     -216     -221     -213 
    -195     -170     -160     -195     -264     -326     -337     -289 
    -208     -153     -154     -137      -29      110      176      163 
     125       67       27      101      309      601      911     1130 
    1113      764      224     -142       64      983     2211     2996 
    2897     2145     1455     1327     1535     1631     1505     1147 
     336    -1118    -2853    -3917    -3543    -1903        8     1197 
    1079     -659    -3530    -5637    -5001    -1723     2160     4711 
    4859     2235    -1914    -4757    -4582    -2553     -839     -239 
    -129      508     2048     3812     4809     4117     1235    -2725 
   -5479    -5694    -3928    -1784     -136     1574     3989     6619 
    7924     6100      980    -4480    -6635    -4967    -1708      981 
    1949     1022     -373      -70     2166     4253     4594     3376 
    1070    -1828    -3847    -3830    -2533    -1636    -1852    -2274 
   -1492      663     2857     3552     2360      379     -902    -1005 
    -538     -403     -941    -1470    -1095      215     1693     2370 
    1819      738      261      603      938      515     -429    -1016 
    -859     -355      -91     -468    -1232    -1410     -661      110 
     127     -588    -1386    -1218       18     1129     1419     1304 
    1220     1192     1192     1091      626       56      114      771 
     991       98    -1204    -1632     -920      116      642      268 
    -620     -953     -581     -633    -1382    -1662     -774      612 
    1455     1329      410     -805    -1388     -600      826     1403 
     889       55     -544     -664     -328      222      841     1337 
    1174      100    -1028     -945      466     1940     2142      867 
    -927    -2023    -1710     -119     1446     1408      -89    -1488 
   -1987    -1783    -1141     -539     -487     -524      244     1574 
    2314     1804      338    -1067    -1341     -439      641     1171 
    1337     1573     1951     2131     1828     1399     1349     1533 
    1449      794     -364    -1449    -1799    -1426     -993     -966 
   -1123     -993     -474      188      717      691     -436    -2407 
   -3914    -3793    -1719     1681     4441     4293     1120    -2540 
   -3787    -1806     1469     2965     1267    -2094    -4087    -2687 
    1365     4855     4878     1470    -2835    -5288    -4536    -1369 
    1828     3321     3436     3234     2739     1454     -129     -997 
   -1148    -1391    -2035    -2393    -1720      -37     2223     4106 
    4257     2467      -34    -1979    -2608    -1638      119      790 
    -561    -2429    -2546     -745     1017     1318      632       18 
    -155       87      581      756      382     -159     -769    -1280 
   -1263     -815     -172      483      767      841     1144     1471 
    1585     1531      989     -210    -1225    -1274     -982    -1169 
   -1261     -649      -35      -14     -229     -289       54      952 
    1825     1789      808     -301     -609      323     1778     2081 
     621     -975     -937      269      818       48    -1111    -1722 
   -1500     -781     -553    -1090    -1261     -537      252      631 
     835      823      577      380      143     -225     -340     -161 
      28      443     1184     1567     1287      728      -97    -1072 
   -1370     -823     -413     -395      243     1509     1974     1150 
      73     -142      611     1148      364     -863     -880      273 
    1467     2059     1771      490    -1283    -2592    -2922    -2435 
   -1512     -762     -664     -678        6      928     1063      518 
     131      140      244      120     -430     -993     -891     -362 
    -172     -350     -332      170      892     1355     1332      868 
     207      -82      273      725      903     1078     1251     1179 
     843      -77    -1584    -2444    -1848     -400     1154     2005 
    1345     -317    -1699    -2025     -969      894     2069     1862 
     923       64     -251      206     1048     1322      608     -598 
   -1675    -2072    -1277      273     1111      552     -549    -1296 
   -1364     -456     1132     2116     1470     -206    -1155     -665 
     199      548      755     1223     1644     1530      677     -455 
    -826      -88      510     -320    -1713    -1935    -1146     -564 
    -333      -52      175      160      -39     -303     -387     -159 
    -129     -648     -963     -441      380      933     1314     1418 
     763     -476    -1338    -1257     -518      434     1186     1137 
     286     -159      647     1672     1477      253     -808    -1133 
    -873     -487     -409     -505     -410     -102      448     1224 
    1681     1271      207     -845    -1460    -1657    -1583    -1042 
      50      782      179    -1061    -1183      380     2243     2611 
    1123    -1075    -2210    -1091     1411     3249     3417     1850 
    -861    -2871    -2620     -841      624     1292     1757     1856 
    1010     -135     -297       78     -714    -2390    -2802    -1265 
     752     1749     1628     1130      551     -178     -634     -411 
     236     1004     1603     1501      721       40     -188     -391 
    -635     -527     -437     -811    -1071     -951     -882     -695 
    -162      245      472      880      971      316     -250      -75 
     352      395     -157    -1099    -1917    -2164    -1596     -289 
    1050     1559     1339     1235     1449     1458      981      244 
    -286     -375     -157      238      535      263     -399     -622 
    -103      538      495     -423    -1593    -2031    -1219      242 
    1161      979      167     -186      424     1115      916      237 
     152      818     1290      802     -293    -1063    -1136     -899 
    -614       26     1005     1524     1133      328     -299     -491 
    -314     -388    -1246    -2180    -2011     -820      420     1032 
     985      937     1200     1180      758      542      540      166 
    -575     -973     -760     -335      179      738      772      122 
    -541     -733     -537     -266     -123     -102     -177     -102 
     299      574      437      210      145      407      929      992 
     100    -1056    -1382     -745      -68     -149     -765     -846 
     231     1318      941     -275     -893     -802     -404      286 
    1116     1577     1358      679     -124     -724     -748     -292 
     184      387       93     -634    -1084     -652      317      967 
     971      720      381     -297    -1069    -1189     -453      543 
