Origin Time       2025/03/30 10:18:00
Lat.              34.667
Long.             140.825
Depth. (km)       69
Mag.              4.9
Station Code      KNG202
Station Lat.      34.7396
Station Long.     139.8393
Station Height(m) -2339
Record Time       2025/03/30 10:18:48
Sampling Freq(Hz) 100Hz
Duration Time(s)  100
Dir.              E-W
Scale Factor      2000(gal)/6182761
Max. Acc. (gal)   22.906
Last Correction   2025/03/30 10:18:48
Memo.             
[...]
     461      462      457      458      461      462      462      460 
     462      465      461      462      463      461      468      467 
     461      469      470      463      472      475      462      459 
     465      466      466      466      467      469      466      464 
     470      468      466      471      466      457      460      465 
     459      461      467      465      466      465      461      464 
     463      456      452      452      456      457      451      451 
     457      459      455      454      454      454      454      452 
     450      452      454      456      453      455      463      457 
     447      451      453      451      457      460      463      469 
     468      469      472      471      467      462      465      474 
     481      484      477      464      452      445      445      446 
     438      425      421      425      422      391      344      316 
     319      355      389      383      393      466      521      486 
     427      431      465      439      392      482      628      537 
     291      242      347      335      247      304      489      631 
     695      667      435      114       32      206      375      497 
     679      798      699      555      530      460      319      336 
     481      572      625      661      557      335      238      297 
     317      387      693      917      667      199      -78     -188 
    -215      -55      276      628      965     1273     1364     1075 
     593      332      433      628      651      611      796     1079 
    1023      530     -100     -411     -148      336      484      284 
     -23     -505     -948     -742      -37      519      897     1247 
    1243      601     -220     -643     -943    -1320    -1159     -239 
     916     1916     2629     2769     2130     1093      149     -516 
    -559       76      697     1041     1507     1856     1432      534 
     171      714     1725     2617     2748     1750      114    -1398 
   -2167    -1444      559     2217     2540     1821      376    -1328 
   -2345    -2062     -786      494     1177     1499     1483      790 
    -305    -1277    -1903    -1920    -1371     -669       90      656 
     607      361      488     1065     2310     3834     4214     2873 
     865     -606    -1139     -852      -25      921     1259      563 
    -241        3      858     1356     1431     1169      457     -352 
    -686     -708    -1233    -2681    -4760    -6495    -6359    -3827 
    -210     2908     4610     4436     2926     1546     1346     2241 
    3294     3666     3391     2547      855     -949    -1513     -799 
     607     2590     4590     5733     5586     3746      441    -2875 
   -5016    -5676    -4482    -1655     1109     2469     2875     2933 
    2688     2691     3012     2349      -12    -3117    -5586    -6215 
   -4219     -319     3548     5932     6432     5302     3283     1156 
    -661    -1990    -2803    -3098    -2834    -1878      -10     2087 
    3064     2840     1918      -20    -2544    -4169    -4380    -3535 
   -1594     1243     3798     4948     4190     1466    -2086    -4874 
   -6606    -7112    -5511    -2093     1834     5640     8653     9587 
    8117     5420     2775      571    -1160    -1941    -1393      -29 
    1505     3242     5042     6034     5494     3498      788    -1772 
   -3571    -4170    -3516    -2352    -1871    -2342    -2759    -2399 
   -1094     1298     3966     5425     4977     2823     -326    -3572 
   -5974    -6414    -4514    -1360     1625     3447     3540     2160 
      20    -1970    -2566    -1534       77     1619     2633     2490 
    1627     1061     1248     2155     2883     2565     1863     1282 
     404       18     1070     2333     2433     1849     1143      -17 
   -1720    -3494    -4798    -5329    -4733    -2684      142     2683 
    4517     5265     4857     3851     2588     1393      906     1078 
    1142     1041     1220     1108      -53    -1542    -2226    -2098 
   -1497     -214     1498     2391     1794      410     -985    -2028 
   -2266    -1521     -397      193      232      580     1407     2357 
    3380     3752     2647      753     -794    -1660    -1777    -1091 
     -24      745     1093     1245      989      232     -371     -446 
    -231      316     1112     1568     1171     -351    -2359    -3428 
   -3109    -1628     1043     3821     4921     4268     3073     2117 
    1718     1804     1905     1547      490     -836    -1558    -1457 
    -871       37      947     1380     1659     2389     3073     2853 
    1490    -1299    -5383    -9036   -10249    -8406    -3932     1499 
    5301     6403     5483     3451     1309     -219     -955     -847 
    -207      622     1909     3623     4808     4731     3547     1224 
   -2508    -6673    -9298    -8762    -4662     1719     8520    13786 
   15070    11527     5112    -1588    -6371    -7358    -4541        4 
    4107     6239     5938     4191     1755    -1091    -3254    -3925 
   -3273    -1352     1575     4407     6096     6060     3548    -1545 
   -7307   -11146   -11885    -9680    -5091      887     6217     8683 
    7808     4719      326    -4825    -9032   -10274    -8590    -5093 
    -194     5176     8973     9434     6247      754    -4958    -8675 
   -8518    -4147     2983    10228    14751    15008    11163     4936 
    -951    -4845    -6716    -6686    -5296    -3843    -2709    -1038 
    1602     4400     6139     6083     3988      314    -3422    -5584 
   -5413    -2824     1384     5249     7005     6254     3477     -234 
   -3133    -3852    -2324      637     3861     5924     5946     4414 
    2472      752     -423     -603      135      948     1400     1808 
    1781      399    -1772    -3748    -5969    -7995    -7483    -3665 
    1405     5481     7310     6030     1743    -3810    -8198    -9691 
   -8139    -4764     -855     2836     5609     6923     6744     5035 
    1818    -2088    -5446    -7387    -7626    -6341    -3696     -132 
    3231     5753     7573     8301     7425     5558     3794     2620 
    2101     2376     3107     3456     3527     3712     3291     1982 
     412    -1233    -2607    -2697     -863     2370     5548     7308 
    6830     3682    -1506    -6660    -9524    -8953    -5359     -434 
    4000     6497     5997     2657    -1979    -6289    -9431   -10640 
   -9087    -5276     -983     2601     4816     4828     3127     1233 
    -359    -1504    -1859    -1747    -1535    -1019      319     2766 
    5609     7835     9097     9048     7437     4926     2332      -55 
   -2063    -3232    -2994    -1675     -451      182      462      271 
    -511    -1266    -1463    -1486    -1660    -1627    -1327    -1332 
   -1863    -2186    -1666     -584     1067     3487     5576     6038 
    4655     1791    -1392    -3355    -3726    -3199    -2334    -1045 
     674     1996     2319     2045     1581      748     -509    -1228 
    -258     2217     5077     7117     7487     6313     4090     1289 
    -871    -1469    -1051     -416      251      980     1558     1695 
    1785     1938     1000    -1260    -3388    -4444    -4362    -3142 
   -1131      652      989     -320    -2257    -3931    -5085    -5529 
   -5155    -4274    -3284    -2248    -1137       64     1616     3514 
    5009     5563     5343     4519     3258     1983     1325     1706 
    2856     4427     5924     6247     5067     3056      757    -1313 
   -2792    -3516    -3178    -2304    -2041    -2487    -3239    -4417 
   -5867    -6812    -6529    -4658    -1435     2139     5254     7865 
    9638     9766     8195     5630     2675      190     -708      -48 
    1212     2324     2556     1678      431     -271      177     1437 
    2193     1557     -327    -2610    -4158    -4519    -3990    -2825 
   -1531     -448      795     1888     2239     2246     1806      546 
    -629     -838      100     2073     4224     5448     5019     2802 
    -305    -3085    -4851    -5189    -3971    -1791      246     1433 
    1725     1099     -296    -1732    -2653    -3131    -3208    -2734 
   -1901     -928      355     1883     3027     3184     2385     1069 
    -550    -2006    -2185     -706     1595     4006     6208     7575 
    7328     5280     2260     -711    -3091    -4167    -3537    -2207 
   -1510    -1640    -2100    -2601    -2802    -2044     -288     1816 
    3874     5419     5888     5580     5200     4884     4239     2861 
     858    -1206    -2702    -2914    -1311     1835     5288     7265 
    6734     4342     1254    -1747    -3867    -4659    -4338    -3619 
   -3399    -3636    -3490    -2788    -1692      -18     1893     3310 
    4264     5076     5397     4748     3246     1217    -1363    -4309 
   -6584    -7285    -6446    -4265     -972     2553     4911     4962 
    2603    -1301    -5311    -7794    -7917    -5842    -2362     1082 
    3338     4224     4214     4192     4473     4289     2963      768 
   -1267    -1784      297     4965    10629    14605    14535     9823 
    2026    -5957   -11344   -12644    -9945    -4745      870     5570 
    8609     9124     6977     2898    -2267    -7085    -9761    -9290 
   -5519      637     7071    11651    12757     9670     3595    -3042 
   -8018    -9750    -7936    -3768      819     3826     4195     2372 
    -579    -3540    -5276    -5213    -3821    -1774      347     1863 
    2564     2732     2266     1108     -143    -1076    -1672    -1561 
    -385     1318     2544     2654     1300    -1305    -4029    -5645 
   -5435    -3058     1231     6253    10275    11940    10778     7085 
    1823    -3511    -7373    -8824    -7848    -5136    -1467     2612 
    6421     9155    10289     9549     7024     3273     -854    -3990 
   -4696    -2790      721     4606     7485     8093     6265     2910 
    -995    -4645    -7320    -8872    -9542    -9085    -7172    -4196 
    -787     2205     3669     3589     2847     1802      782      387 
     625     1224     2207     3260     3674     3333     2325      314 
   -2065    -3262    -2964    -1996     -972     -452     -972    -2361 
   -4001    -5300    -5652    -4908    -3262     -719     2056     4064 
    5184     5225     3795     1628      -63     -808     -746       -9 
    1392     3123     4637     5814     7020     8317     9021     8700 
    7757     6531     5010     3223     1343     -509    -2439    -4187 
   -5200    -5653    -5701    -4964    -3899    -3323    -3113    -2938 
   -2842    -3072    -3902    -5020    -5663    -5336    -3570     -134 
    3942     6922     7791     6474     3521     -179    -3610    -5720 
   -5905    -4167     -654     4035     8493    11290    11760    10048 
    6742     2640    -1078    -3295    -3741    -2717     -735     1351 
    2849     3552     3312     2145      612     -526     -897     -742 
    -632     -934    -1674    -2541    -3003    -2983    -2841    -2615 
   -2289    -2113    -2177    -2342    -2481    -2523    -2130    -1074 
     218     1673     3675     6034     8384    10069     9757     6904 
    2252    -2997    -7128    -8706    -7797    -5343    -2429     -479 
    -462    -1578    -2190    -1695     -126     2564     5647     7716 
    7958     6468     3938     1362     -486     -957      459     3103 
    5306     5841     4258      927    -2812    -5577    -6352    -4485 
    -768     2790     4935     5540     4598     2348     -321    -2640 
   -4561    -6202    -7339    -7616    -6641    -4297    -1475      604 
    1582     1676     1409     1286     1223     1467     2570     4100 
    5454     6738     7837     8071     6963     4735     2056     -224 
   -1208     -608      882     2224     2537     1247    -1496    -4714 
   -7109    -7877    -7060    -4884    -1560     2040     4878     6674 
    7456     7025     5413     3323     1760     1329     1912     3111 
    4610     5855     6313     6009     5166     4089     3210     2595 
    2037     1620     1536     1533     1048     -507    -3523    -7321 
  -10372   -11722   -11004    -8259    -4754    -2311    -1678    -2580 
   -4336    -5733    -5602    -3822     -886     2464     4741     4755 
    2716    -1055    -6520   -12419   -16853   -18913   -18139   -14178 
   -7885    -1075     4614     7770     7704     5149     1621     -953 
    -633     2733     7246    10761    11539     8362     1451    -7303 
  -15102   -19384   -18724   -12916    -3056     8504    19028    25849 
   26723    21036    10148    -3094   -14518   -19703   -16204    -4896 
   10627    25763    36576    40797    37979    29233    16827     3166 
  -10031   -21114   -27842   -28351   -22201   -10359     4753    19721 
   31330    36970    35192    26544    13148    -1943   -15214   -23503 
  -24897   -19688   -10255      503    10139    16869    19644    17751 
   10881     -202   -13621   -27096   -38591   -46321   -48722   -45093 
  -35700   -21178    -3331    14131    27061    32124    27419    13777 
   -4933   -22804   -33690   -33794   -22779    -3635    17165    32070 
   36576    30209    15759    -1059   -13593   -17376   -11584     1424 
   17229    30941    39149    40929    37137    29168    18710     7824 
   -1636    -8484   -12326   -13656   -13345   -11824    -9117    -5463 
   -1440     2051     3526     1174    -5760   -15817   -25964   -33425 
  -36985   -36637   -32682   -25705   -16437    -5126     8576    24782 
   41964    57022    67270    71246    67886    56635    38297    15236 
   -9174   -31434   -48323   -57431   -58149   -51550   -39748   -25482 
  -11274      558     7498     8265     4016    -2939   -10353   -15405 
  -15254    -9200     1240    12900    20507    19550     9883    -5795 
  -23610   -37756   -42645   -36183   -19964     1758    23439    40171 
   48496    46824    36275    20361     3676    -9612   -16555   -15253 
   -5593     9607    25383    36897    41092    36827    25076     9282 
   -5842   -15744   -17111    -9691     3287    17004    26926    30089 
   25761    15073      194   -16285   -31329   -41736   -45430   -41719 
  -31050   -15927     -426    11658    17672    16884    10597      601 
  -11440   -23149   -31923   -36220   -35148   -27635   -13581     4145 
   20020    28702    27712    18133     3360   -12073   -23041   -25829 
  -20262    -8824     5344    18562    26944    28352    23006    12603 
      80   -10814   -17128   -18290   -15896   -12017    -8030    -4128 
     812     8252    18689    31002    42225    48431    46631    35842 
   17541    -3782   -22357   -34361   -38432   -34599   -24202    -9470 
    7271    23689    37495    46482    48482    41830    26342     4121 
  -20901   -43781   -59113   -63411   -56935   -42028   -21886     -634 
   17592    29439    33061    28696    18092     4344    -7923   -14168 
  -12113    -2199    12757    27981    38256    40380    34590    23580 
   10617    -1500   -10638   -15359   -15771   -13801   -11639   -10898 
  -13002   -18413   -25401   -30643   -30957   -24425   -11246     5629 
   21408    31228    31565    21692     4580   -13991   -27987   -33570 
  -29867   -18837    -4529     8577    16867    18511    14562     8366 
    2876     -770    -2453    -2449    -1692    -1575    -2509    -3326 
   -2608      272     5185    11405    17543    21523    21215    15416 
    4608    -8911   -21613   -29900   -31582   -26498   -16321    -4316 
    5913    11913    12680     9115     3948      -78    -1724    -1328 
     209     2396     4780     6868     8528     9473     9332     8351 
    7272     7134     9077    13594    20068    26941    31851    31930 
   25202    12269    -3737   -18888   -29622   -33452   -30131   -21478 
  -10328     -167     6185     7650     4268    -2632    -9987   -14270 
  -13498    -8435    -1756     3786     5946     3431    -2632    -8483 
  -10325    -7009      348    10034    19636    25925    26627    21575 
   12252     1034    -9603   -17163   -19437   -16315   -10020    -3094 
    2492     5704     6990     7555     8495    10334    12418    13057 
   10646     4793    -3469   -12189   -18963   -21821   -20309   -15552 
   -9674    -4745    -1690     -580    -1424    -3610    -5435    -5326 
   -2822     1928     8255    14540    19079    21156    20460    16554 
    9748     1501    -6367   -12164   -14196   -11144    -3261     7163 
   16796    22507    22215    15716     5062    -6302   -15183   -19916 
  -20495   -17684   -12751    -7934    -5710    -7339   -12469   -19387 
  -25212   -26770   -22023   -10538     6335    24911    40198    48290 
   47452    37589    20299     -431   -19754   -34029   -40545   -37979 
  -27587   -12127     4825    18665    25826    25827    20357    11654 
    2242    -5359    -9685   -10717    -9156    -5429      481     8129 
   16292    23504    28063    28193    23279    14478     3821    -6254 
  -12939   -14598   -11857    -6179      902     7230    11194    12659 
   11938     9486     5930     1515    -3606    -8782   -12886   -14755 
  -13907   -10893    -6931    -3355    -1525    -2748    -7475   -14684 
  -22582   -29626   -34584   -36033   -32628   -24191   -12086     1635 
   14905    25646    32175    33947    31515    26074    19366    12766 
    6321     -310    -6768   -12124   -15120   -14643   -10133    -1657 
    9554    20698    28438    30641    27006    18640     7783    -2671 
  -10246   -13888   -14078   -11838    -8219    -4504    -1585      535 
    2065     2880     2871     2179      994      -68      144     2064 
    4787     7087     8029     6767     2938    -2740    -8960   -14537 
  -18481   -19978   -18527   -14219    -7904     -849     5730    10975 
   14407    15825    15563    14519    13469    12450    10719     7220 
    1443    -5866   -12866   -17493   -18138   -14443    -8175    -2399 
     518     -331    -4471   -10071   -14655   -16229   -13949    -8426 
   -1415     5204    10165    12932    13651    12895    11531    10571 
   10507    11251    12823    15304    18429    21615    24244    25923 
   26128    24144    19988    14413     7938      891    -6125   -12457 
  -17487   -20573   -21462   -20613   -19055   -17906   -17837   -19007 
  -20969   -22634   -23041   -21661   -18049   -12355    -5729      442 
    5127     7658     7742     5369     1049    -3698    -7140    -8540 
   -7923    -5714    -2701      403     3122     5273     7121     9055 
   11316    14021    16968    19641    21452    21776    20317    17460 
   13720     9604     5983     3514     2049      812    -1169    -4408 
   -8667   -13185   -17007   -19156   -18671   -15324   -10210    -5059 
   -1497     -759    -3125    -7496   -11912   -14630   -14683   -11928 
   -7129    -1753     2673     4927     4461     2019     -712    -2091 
    -864     3709    11305    20303    28532    34076    35630    33093 
   27687    21097    14836    10123     7529     6655     6420     5557 
    3043    -1427    -7308   -13644   -19494   -23985   -26356   -26190 
  -23517   -18785   -12665    -5906      386     4920     7209     7662 
    6825     5512     4918     5735     7557     9093     8969     6734 
    2939    -1290    -4307    -4667    -2178     2202     6939    10210 
   10614     7801     2301    -4623   -11077   -15354   -16641   -14883 
  -10771    -5788    -1468     1234     1872      742    -1129    -2964 
