Origin Time       2025/03/30 10:18:00
Lat.              34.667
Long.             140.825
Depth. (km)       69
Mag.              4.9
Station Code      KNG201
Station Lat.      34.5956
Station Long.     139.9183
Station Height(m) -2197
Record Time       2025/03/30 10:18:46
Sampling Freq(Hz) 100Hz
Duration Time(s)  110
Dir.              N-S
Scale Factor      2000(gal)/6182761
Max. Acc. (gal)   6.346
Last Correction   2025/03/30 10:18:46
Memo.             
[...]
    -307     -310     -306     -302     -311     -312     -309     -313 
    -312     -311     -311     -305     -307     -313     -304     -304 
    -319     -320     -307     -300     -305     -311     -312     -312 
    -311     -303     -307     -318     -315     -310     -318     -319 
    -310     -309     -314     -310     -308     -310     -306     -304 
    -307     -309     -313     -316     -313     -309     -309     -308 
    -309     -312     -311     -310     -313     -312     -311     -314 
    -316     -314     -313     -313     -310     -307     -313     -319 
    -315     -303     -305     -310     -307     -312     -318     -312 
    -312     -316     -311     -309     -313     -316     -311     -301 
    -302     -315     -318     -313     -309     -305     -308     -314 
    -306     -303     -319     -318     -307     -313     -316     -312 
    -311     -310     -315     -313     -302     -306     -312     -310 
    -312     -315     -313     -312     -312     -306     -305     -311 
    -314     -312     -317     -319     -308     -305     -314     -316 
    -309     -303     -299     -304     -315     -313     -301     -300 
    -301     -290     -281     -280     -281     -292     -313     -327 
    -317     -254     -161     -120     -182     -316     -434     -485 
    -500     -455     -274        4      144      -96     -584     -880 
    -813     -582     -323      -38      183      136     -282     -779 
    -894     -601     -203      139      340      241     -178     -653 
    -898     -835     -446      253      815      697      181     -173 
    -487     -843     -853     -489     -242     -413     -709     -641 
    -336     -304     -362        0      476      397     -126     -511 
    -690     -842     -789     -425      -23      196      248       -4 
    -628    -1019     -712     -167      209      471      528      241 
    -280     -850    -1207    -1025     -378      296      563      108 
    -697    -1018     -819     -408      237      655      293     -352 
    -490     -280     -376     -763     -858     -475       43      260 
     -57     -506     -558     -387     -215      -13      -59     -449 
    -610     -292      -99     -321     -479     -352     -251     -305 
    -343     -318     -196       63      126     -318     -861     -888 
    -579     -439     -394     -291     -206      -50      184      208 
     -84     -483     -743     -651     -361     -292     -257       -1 
     159      102     -108     -437     -552     -290      -37      -56 
    -193     -375     -480     -330     -129      -80     -100      -83 
     -99     -372     -798    -1014     -829     -214      341      243 
    -178     -399     -554     -895    -1216    -1109     -534      257 
     814      696       67     -640    -1187    -1202     -377      814 
    1338      892      115     -500     -819     -748     -402      114 
     819     1258      823     -281    -1357    -1960    -1931    -1479 
   -1063     -791     -519     -422     -699    -1035     -975     -512 
      34      408      507      168     -568    -1019     -614      293 
    1020     1221      848       68     -675     -846     -392      309 
     986     1376     1267      739     -140    -1170    -1783    -1748 
   -1553    -1625    -1619    -1117     -520     -408     -648     -855 
    -961     -723      264     1671     2582     2445     1418       86 
    -962    -1245     -744     -142     -119     -828    -1927    -2891 
   -3490    -3398    -2190     -294     1472     2770     3379     2989 
    1505     -550    -2068    -2202     -939      965     2420     2674 
    1633     -219    -1906    -2378    -1506     -353       53     -444 
   -1513    -2547    -2934    -2558    -1628     -357      864     1396 
    1092      548       86     -270     -107      586     1016      695 
    -139    -1006    -1434    -1343    -1032     -499      235      735 
     718      155     -563     -614      -21      183     -282     -497 
     -54      443      676      749      614      216     -378     -973 
   -1371    -1466    -1371    -1421    -1515    -1396    -1293    -1136 
    -601      120      638      675      357      273      577     1032 
    1579     1655      540    -1072    -1781    -1409     -725     -172 
     148       16     -750    -1607    -1633     -889        9      985 
    1661     1365      523      -46     -597    -1508    -2227    -2272 
   -1737     -768      283      925      919      133    -1159    -2123 
   -2282    -1850     -968      218     1171     1725     1888     1214 
      62     -172      833     1833     1766      742     -464    -1224 
   -1397    -1259    -1085     -827     -583     -659     -951    -1037 
    -769     -469     -417     -371     -206     -123     -174     -538 
   -1351    -1983    -1659     -581      491     1083      868      -69 
    -839     -637      379     1278     1425     1118      649     -276 
   -1393    -1485     -159     1233     1510      786     -540    -1939 
   -2573    -2292    -1710    -1072     -228      591      769      155 
    -354      -50      466      472       63     -382     -641     -631 
    -341      104      374      -14     -981    -1589    -1366     -752 
    -138      116     -348     -912     -660      -12      407      871 
    1148      574     -551    -1331    -1383    -1148    -1001     -655 
     -91      370      696      715      500      620      917      809 
     306     -533    -1510    -1842    -1371     -845     -444      194 
     990     1570     1558      831     -187    -1002    -1620    -2146 
   -2346    -2076    -1619    -1370    -1367    -1305    -1066     -602 
     110      542      458      363      404      565      936     1202 
    1265     1347     1291      927      219     -757    -1467    -1704 
   -1739    -1344     -495      259      795     1018      769      382 
     -80     -701     -997     -812     -534     -388     -562    -1183 
   -1982    -2479    -2215    -1205      -79      697      896      315 
    -473     -554       45      576      608      376       53     -494 
    -927     -691      143     1022     1430     1232      705      186 
    -199     -676    -1495    -2170    -2044    -1357     -705     -434 
    -627     -827     -499      344     1279     1736     1469      901 
     561      448      215     -433    -1365    -1966    -1908    -1482 
   -1035     -955    -1511    -2290    -2725    -2503    -1287      567 
    1871     1965     1285      644      433      632     1182     1768 
    1930     1504      521     -736    -1699    -2079    -2085    -1816 
   -1072     -170      -11     -700    -1273    -1179     -734     -296 
       9      158      126       40      460     1482     2201     2080 
    1407      506     -229     -435     -282      -44      140      -98 
    -820    -1547    -2101    -2665    -3219    -3425    -2963    -1895 
    -665      195      562      705      774      812      953     1198 
    1162      446     -695    -1448    -1160       23     1243     1837 
    1735     1020     -132    -1204    -1698    -1541     -775      376 
    1184     1112      406     -425    -1069    -1319    -1205    -1052 
   -1015    -1055    -1251    -1609    -1851    -1655     -997     -284 
     108      228      112     -304     -585     -220      599     1409 
    1981     2084     1467      365     -765    -1867    -2598    -2214 
    -915      413     1272     1408      960      419     -118     -513 
    -353      103      133     -396     -966    -1001     -417      379 
     989     1151      662     -353    -1473    -2245    -2351    -1809 
    -957      -77      779     1346     1173      408     -519    -1491 
   -2152    -2085    -1442     -543      343      966     1295     1360 
    1109      588     -197    -1351    -2455    -2715    -2165    -1341 
    -417      386      762      633       78     -548     -751     -365 
     283      798     1128     1111      498     -279     -614     -616 
    -535     -393     -447     -871    -1286    -1333    -1220    -1164 
    -912     -255      653     1570     2167     2193     1762     1012 
     111     -505     -567     -384     -581    -1307    -2059    -2473 
   -2448    -2012    -1481    -1146    -1100    -1179    -1032     -741 
    -615     -513     -153      439     1011     1322     1441     1533 
    1483     1258      933      478      142       77      -79     -417 
    -584     -482     -361     -410     -674    -1133    -1538    -1575 
   -1211     -459      551     1291     1291      510     -734    -1973 
   -2831    -3056    -2684    -1985    -1053       34      960     1400 
    1226      646      110       -5      335      700      684      327 
    -167     -531     -547     -242      188      359       88     -272 
    -448     -339      171      780     1131     1235     1073      610 
    -189    -1289    -2200    -2529    -2439    -2060    -1324     -383 
     401      741      536      -65     -638     -734     -212      621 
    1182     1088      597      232       63     -159     -533    -1014 
   -1588    -2307    -2896    -2898    -2410    -1809    -1305    -1116 
   -1079     -603      411     1490     2188     2233     1691     1058 
     709      595      698     1058     1332     1161      546     -320 
   -1040    -1305    -1172     -788     -370     -281     -705    -1439 
   -2110    -2436    -2277    -1598     -544      516     1246     1464 
    1065      150    -1070    -2232    -2760    -2391    -1364     -119 
    1017     2034     2812     2887     2079      840     -195     -829 
   -1164    -1206    -1088     -804      -21     1056     1769     1817 
    1127     -228    -1698    -2560    -2647    -2273    -1625     -896 
    -519     -579     -710     -690     -514     -291     -233     -312 
    -331     -433     -709     -685      -66      740     1253     1302 
     970      557      310      278      368      415      272     -155 
    -747    -1155    -1264    -1380    -1668    -1844    -1715    -1500 
   -1453    -1432     -920      340     1809     2629     2386     1188 
    -521    -2016    -2562    -2014    -1105     -642     -612     -650 
    -740     -866     -785     -541     -459     -474     -264      142 
     654     1341     2014     2348     2208     1605      691     -310 
   -1125    -1442    -1320    -1067     -630      131      889     1188 
    1006      586       35     -489     -713     -772    -1044    -1449 
   -1755    -2018    -2159    -1901    -1275     -493      419     1334 
    1831     1654      795     -547    -1561    -1582    -1078     -680 
    -378      -66       79     -154     -507     -390      273      923 
    1102      714     -149    -1015    -1374    -1261     -933     -622 
    -554     -710    -1028    -1545    -1936    -1772    -1127     -295 
     484      853      626      106     -171       47      491      791 
     970     1035      813      468      157     -237     -511     -504 
    -417     -257      -25      -31     -368     -727     -970    -1234 
   -1431    -1464    -1562    -1712    -1632    -1291     -767     -211 
     194      501      778     1002     1219     1435     1558     1464 
    1113      658      238      -94     -248     -246     -208     -181 
    -333     -825    -1431    -1851    -2017    -1959    -1751    -1395 
    -817     -109      555      897      563     -357    -1349    -1849 
   -1544     -903     -512     -164      398     1069     1758     2320 
    2522     2184     1350      169    -1252    -2519    -3033    -2697 
   -2192    -2157    -2301    -2099    -1728    -1447     -983     -108 
     907     1566     1737     1830     2075     2160     1839     1250 
     667      198     -182     -493     -805    -1149    -1410    -1415 
   -1022     -386       65      251      389      418      198     -233 
    -762    -1084    -1001     -579      140      752      753      540 
     685      881      743      519      459      356      -13     -552 
    -985     -899     -163      732     1268     1425     1448     1421 
    1331     1251     1112      923      910     1025     1086     1003 
     655      262      288      528      208    -1183    -3670    -6804 
   -9877   -12286   -13731   -14362   -14330   -13429   -11697    -9463 
   -6734    -3287      773     4743     7767     9619    10528    10364 
    8912     6703     4500     2420      398    -1267    -2303    -2813 
   -3119    -3307    -2985    -1787      221     2645     4953     6694 
    7484     6959     5225     2902      501    -1716    -3327    -3886 
   -3563    -2977    -2442    -1867     -801     1198     3682     5766 
    7139     7751     7296     5495     2762       35    -2056    -3165 
   -2960    -1518      666     3048     5005     6062     6250     5486 
    3217     -635    -5305    -9950   -13832   -16100   -16547   -16051 
  -15232   -13671   -11140    -8297    -5552    -2443     1293     5117 
    8490    11339    13733    15435    15881    14817    12637    10118 
    7728     5080     1654    -2562    -7401   -12432   -16715   -19016 
  -18420   -15176   -10512    -5606    -1208     2300     4696     5727 
    5461     4301     2612      803     -716    -1771    -2305    -2188 
   -1028     1738     6065    10683    13664    13537    10127     4931 
     125    -3195    -4919    -4927    -3671    -2424    -2216    -3130 
   -4193    -4461    -4158    -3602    -2498     -825     1086     2830 
    3981     4396     3958     2194    -1210    -5888   -10957   -15267 
  -17468   -16208   -10993    -2879     5933    13135    17545    19340 
   18925    16783    13943    11160     8313     4930      741    -3919 
   -8129   -10939   -11979   -11759   -11455   -12332   -14562   -16286 
  -14928    -9651    -2095     4780     8434     8060     4526     -683 
   -5730    -8538    -8109    -4634     1525     8889    14749    17601 
   17451    14442     9188     3423     -676    -2069    -1530     -621 
    -861    -3023    -6229    -8627    -8879    -7040    -4478    -2602 
   -1904    -2003    -2073    -1633     -679      848     2847     4938 
    6828     7852     7048     4328      518    -3148    -5088    -4673 
   -3158    -2229    -2836    -5200    -8347   -10446   -10111    -6688 
    -405     6852    12207    13812    11454     6086      180    -3111 
   -2607      192     2992     4454     4451     3200      879    -2084 
   -5017    -7170    -7964    -7318    -5628    -3565    -1754     -466 
     322      749      992     1196     1263      996      770     1176 
    1967     2497     2676     2767     2985     3432     3927     4034 
    3404     2114      642     -460     -737     -314     -216    -1400 
   -3749    -6291    -8108    -8898    -8682    -7510    -5488    -2930 
    -516     1249     2498     3608     4654     5192     4709     3298 
    1536      -19     -970    -1066     -317      784     1537     1672 
    1357      904      609      399      -79     -872    -2003    -3842 
   -6334    -8563    -9549    -9116    -7846    -6289    -4442    -2160 
     140     1869     3087     4250     5551     6828     7855     8394 
    8028     6583     4334     1612    -1050    -2821    -3249    -2657 
   -1828    -1457    -1786    -2457    -2823    -2525    -1436      508 
    2761     4220     4245     2869      326    -2564    -4295    -3887 
   -1522     1775     4543     5617     4650     1872    -2080    -5995 
   -8570    -9110    -7413    -3703      933     5036     7809     9047 
    8827     7514     5396     2734      -58    -2680    -4855    -6064 
   -5764    -3890    -1256      690      819    -1027    -3956    -6459 
   -7726    -7931    -7132    -5427    -3525    -2115    -1492    -1509 
   -1483     -712     1034     3416     5642     7097     7738     7796 
    7562     7188     6596     5660     4103     1565    -1691    -4625 
   -6265    -6389    -5391    -3883    -2485    -1630    -1445    -1656 
   -1439      -24     2381     4815     6458     6957     6248     4704 
    3078     1508     -606    -3435    -6345    -8579    -9827   -10023 
   -9144    -7546    -5639    -3533    -1325      692     1904     1814 
     740     -630    -1772    -2048     -952     1303     3910     5824 
    6445     6020     4852     3073     1128     -449    -1250    -1077 
    -213      668     1055      926      442     -315    -1211    -2065 
   -2737    -3104    -3219    -3469    -4104    -4856    -5143    -4316 
   -2141      817     3661     5720     6696     6636     5800     4432 
    2586      513    -1240    -2676    -4149    -5315    -5466    -4391 
   -2429      -36     2503     4726     5891     5620     3947     1127 
   -1960    -4218    -5401    -6006    -6342    -6343    -6016    -5291 
   -3919    -1985      188     2204     3455     3683     3308     2980 
    3224     3933     4275     3717     2640     1730     1294     1267 
    1583     2174     2840     3408     3654     3163     1674     -504 
   -2656    -4437    -6085    -7541    -8183    -7798    -6858    -5816 
   -4767    -3529    -2042     -559      891     2349     3382     3725 
    3647     3340     2932     2633     2373     1848      798     -698 
   -2027    -2690    -2862    -2879    -2814    -2769    -3019    -3646 
   -4402    -5003    -5260    -4900    -3565    -1277     1417     3948 
    5989     7311     7664     6959     5599     4199     3064     2162 
    1322      505     -163     -699    -1259    -1911    -2605    -3267 
   -3845    -4156    -3952    -3324    -2475    -1116     1083     3484 
    4818     4653     3600     2148      440    -1035    -1422     -356 
    1507     3112     3809     3434     2137      148    -2147    -4031 
   -5066    -5494    -5660    -5720    -5902    -6340    -6708    -6481 
   -5420    -3723    -1887     -295      981     1826     1979     1607 
    1340     1513     2017     2607     3098     3616     4268     4689 
    4540     3943     3237     2677     2228     1604      611     -658 
   -1783    -2336    -2495    -2690    -2710    -2199    -1518    -1143 
    -997     -868     -825     -891     -904    -1017    -1622    -2812 
   -4247    -5256    -5457    -5065    -4187    -2777     -991     1019 
    2783     3561     3339     2620     1424     -279    -1855    -2541 
   -2201    -1294     -176      965     1711     1918     1904     1712 
    1208      579      165      229      940     2146     3294     4069 
    4641     4921     4506     3443     2244     1337      837      569 
     125     -782    -1879    -2714    -3267    -3714    -4030    -4072 
   -3700    -2867    -1678     -315      937     1723     1873     1487 
     811      142     -384     -929    -1556    -2093    -2479    -2514 
   -1957    -1033       -2      971     1480     1341      770     -141 
   -1360    -2546    -3450    -4128    -4515    -4558    -4421    -4004 
   -2974    -1440      203     1823     3206     3936     4069     3990 
    3845     3765     3737     3396     2585     1425      -53    -1616 
   -2710    -3095    -3034    -2738    -2272    -1817    -1465    -1091 
    -557       17      250      116      120      498      896     1000 
     923      945     1120     1147      849      458       33     -624 
   -1395    -1968    -2324    -2544    -2488    -2232    -2142    -2154 
   -1947    -1441     -503      880     2174     2822     2845     2500 
    1826      894       13     -602    -1003    -1335    -1710    -2108 
