Origin Time       2025/03/30 10:18:00
Lat.              34.667
Long.             140.825
Depth. (km)       69
Mag.              4.9
Station Code      KNG204
Station Lat.      34.8931
Station Long.     139.5711
Station Height(m) -933
Record Time       2025/03/30 10:18:52
Sampling Freq(Hz) 100Hz
Duration Time(s)  86
Dir.              U-D
Scale Factor      2000(gal)/6182761
Max. Acc. (gal)   2.696
Last Correction   2025/03/30 10:18:52
Memo.             
[...]
   -1415      547     2320     2485     1286     -279    -1045     -921 
    -576     -402     -563     -695     -237      589     1633     2734 
    2649     1364      693      588     -169     -625      317     1390 
    1152       50     -806    -1201    -1356    -1195     -772     -200 
     516      891      700      461      488      968     1720     1865 
    1010     -213     -750      -49      979      786     -346     -661 
    -223     -436    -1022     -807      515     2226     2638     1169 
    -378     -719     -317      294      744      906      900      368 
    -362       -9     1142     1839     2111     1804      191    -1791 
   -2416    -1438       29      553     -213     -894     -548      182 
     877     1567     1935     2018     1982     1276       51      -73 
     848      425    -1494    -2485    -1792     -809     -548     -517 
    -314     -773    -1637    -1156      521     1449     1308     1422 
    2209     2631     1929     1038     1171     1594     1065      170 
    -126      -48       79      309      511      524      505      632 
     730      569      -21     -937    -1379    -1026     -371      260 
     376     -175     -558     -198      800     1732     1796     1527 
    1568     1491     1198      536     -138      807     2622     2557 
     784     -551     -815     -595     -338     -210     -437     -822 
    -736     -529     -844     -856       86      884      684       81 
    -403     -811     -739       65      585      170     -158       73 
     -92     -701     -731       37      925     1462     1798     1636 
     357     -892     -498      750     1264     1008      803     1018 
    1203     1008      846      918     1061     1304     1181       69 
   -1253    -1123      372     1206      966      773       99    -1047 
    -842      384      861      508      -88     -472     -418     -283 
    -157      145      467      605      500      260      225      589 
     923      704      217     -119     -450     -540       -6      385 
     -62     -353      398     1205     1105      885     1437     1910 
    1068     -180     -103      768      954      647      543      212 
    -753    -1386     -728      537     1143      762      -82     -836 
   -1169     -825      -10      765     1222     1243      837      214 
      -3      735     1781     1900      960      212      592     1110 
     504     -305       64     1064     1481      779     -783    -1874 
   -1642     -974     -500       44      138     -415     -497      -48 
     160      416      713      513      273      466      734      971 
    1313     1321      733      349      677      757       29     -603 
    -672     -470        8      516      612      678     1091     1237 
     789      243     -365    -1027     -822      217      504      -54 
     155     1253     1820     1181      -33     -552      205     1005 
     504     -426     -298      325      193     -207      167      987 
    1325      879      289      370      651      545      732     1091 
     725      115      -91     -247     -551     -724     -478       51 
     416      560      566      348      377     1132     1913     1768 
     832       55        3      290      426      351      249      531 
    1055      951      113     -575     -503     -235     -807    -1524 
    -908      304      831      955      636     -429    -1125     -637 
     251      954     1336      889      115      190      526      265 
     303      693      383      155     1020     1819     1348      212 
    -372      -70      447      440        8     -272     -374     -476 
    -228      272      334      152      155     -117     -765     -954 
      36     1816     2810     2136      881      277      185      124 
     229      729     1248     1108      475      188      270      229 
     205      347      301      -63     -476     -567     -148      280 
     268      223      203     -204     -557     -247      350      476 
      80     -186     -101      -70       -4      498     1062     1143 
    1096     1393     1631     1182      227     -286      143      629 
     112     -862    -1125     -931     -928     -606       90      225 
     -11      238      646      587      312      487     1231     1804 
    1732     1526     1478     1116      263     -542     -650      -47 
     364       51     -165      333     1019     1309      979      299 
      72      339      293     -104     -324     -334     -236     -132 
    -242     -307     -104       53      439     1261     1394      437 
    -258      -19      440      634      491       46     -323     -480 
    -542     -294      338     1185     1853     1757     1155      728 
     494      315       87     -159     -387     -827     -922      -19 
    1196     1980     1969      691    -1027    -1441     -641      -53 
      84      274      624      912      634     -136     -520      -81 
     693      989      714      487      522      614      469      -80 
    -326      374      870       99     -562      119     1011      923 
      84     -654     -712     -387       16      593      909      819 
    1001     1518     1634      933       15      -18      815     1279 
     626     -515     -822       -9      787      971      762     -116 
   -1341    -1540     -514      454      638      426      191       61 
     374      920      858      221     -172        3      324      223 
      -9      330      868     1003     1120     1373     1377     1347 
    1389     1052      460      -28     -488     -735     -396       59 
     -46     -222      -12       16     -253     -523     -810     -808 
    -425      -54      423     1129     1486     1102      412      186 
     601      972      827      523      274     -199     -541       23 
    1125     1734     1489      794      497      778      811      531 
     595      566     -222     -996     -897     -433     -372     -562 
    -263      545      770      148     -186      211      589      393 
      97      434     1106     1380     1028      200     -436     -244 
     401      821      873      662      518      846     1282      942 
     -93     -724     -442       72       14     -386     -399     -112 
     165      578      715      182     -317     -400     -218      531 
    1319     1140      575      440      327      193      552     1000 
     971      809      642      173     -189     -146     -173     -194 
     160      435      296       40      -66      -26      -94     -206 
     -55      -16     -413     -563      167     1246     1620     1276 
    1120     1430     1903     2229     2075     1747     1639     1216 
     370     -151     -264     -474     -794     -900     -796     -685 
    -649     -703     -811     -897     -762     -296      372     1167 
    1565      964       62     -240     -264     -469     -569     -368 
    -135      103      448      710      707      279     -486     -918 
    -581      124      643      948     1280     1658     1930     1978 
    1660      721     -640    -1450    -1129      -82     1241     2381 
    2450     1255     -112     -877    -1386    -1791    -1608     -847 
    -246      -20      366      929     1213     1176     1045      916 
     655      399      673     1138      946      482      719     1553 
    1935     1290      293     -185     -156      -49     -106     -269 
    -259      -58      -22     -173      -54      358      559      600 
     802      725      152      -58      494     1006      923      537 
     203      -48     -328     -628     -856     -953     -752     -193 
     357      547      464      369      339      463      943     1397 
    1136      570      638     1082     1163      968      658      165 
    -100       44       22     -316     -551     -558     -314      -91 
    -514    -1111     -886     -235      112      354      583      611 
     860     1659     2030      945     -521     -600      292      682 
     423        8     -267     -159       39       -1      -48      -70 
     -54      300      805     1182     1590     1875     1719     1474 
    1397     1020      416      227      395      534      574      669 
     893      782       11     -799    -1085    -1173    -1404    -1504 
   -1396    -1421    -1385     -845      -66      492     1034     1646 
    1570      840      803     1716     2409     2240     1621     1282 
    1134      620      277      443      225     -535    -1074     -909 
    -119      508      579      525      334      -73     -226      -59 
     148      340      407      427      744     1259     1468     1190 
     755      551      503      191     -277     -277       76       96 
    -187     -268     -141     -375    -1126    -1389     -384     1064 
    1691     1368      859      436     -203     -711     -485      -90 
    -378     -740     -177      819     1111      469     -571    -1417 
   -1443     -268     1322     2001     1659     1071      574      240 
     101       29      175      652      921      619      348      721 
    1192      988      690     1036     1468     1330      874      806 
    1329     1824     1919     1688     1016       57     -590     -693 
    -749     -937     -557      273      444     -103     -791    -1609 
   -2134    -1590     -443       17     -323     -427      139     1043 
    1896     2115     1393      358     -185     -112      204      391 
     327      114     -286    -1009    -1467     -720      783     1568 
    1299      816      605      463      170       -1      361      999 
    1187      538     -450     -600      281     1010     1068      732 
     106     -209      228      879     1454     1653      894        0 
     115      560      385     -173     -442     -217     -172     -560 
    -686     -558     -410       -9      399      725     1030      920 
     693      860     1276     1821     2094     1701     1093      756 
     588      173     -511     -856     -600      -39      548      803 
     451     -123     -166      351      704      729      992     1514 
    1538      739     -194     -565     -626     -946    -1532    -1967 
   -1770     -858       -8        6     -514     -959    -1234    -1192 
    -685     -344     -705     -998     -335      639      778      450 
     840     1802     2381     2529     2589     2544     2340     1709 
     651      142      619     1029      652      -19     -498     -711 
    -571     -215       72      414      759      481      -35      675 
    2468     3565     3210     1997      859      394      308      114 
    -322     -955    -1512    -1999    -2429    -2278    -1890    -2158 
   -2392    -1673     -698       44     1001     1921     2237     2130 
    1983     1822     1396      896      936     1309     1484     1689 
    1897     1847     2025     2349     1987     1252      907      756 
     635      755      895      874      956      889       30    -1240 
   -2071    -2512    -2731    -2351    -1499     -942     -899     -923 
    -901    -1193    -1742    -1754    -1063    -1033    -2274    -3146 
   -2461    -1041       -8      241      137      419     1025     1559 
    1842     1684     1622     2301     3098     3321     3095     2705 
    2512     2618     2708     2927     3677     4489     4507     3553 
    2042      795      413      304     -491    -2099    -3899    -4855 
   -4539    -3775    -3232    -2692    -1959    -1175     -658     -719 
   -1317    -1903    -1684     -595      526     1109     1348     1745 
    2332     2835     3599     4606     4750     3637     2022      700 
      91     -191     -533     -456      -38       48      -23       43 
       1      -25      287      647      525     -156     -863     -794 
     334     1973     3299     3826     3649     3085     2290     1537 
    1151      968      456     -628    -1931    -3094    -4082    -4403 
   -3436    -1874     -946     -688     -539     -580    -1015    -1436 
   -1346     -780     -125      287       -9    -1330    -2598    -2191 
    -297     1668     3005     3573     3244     2468     2037     1858 
    1217      246     -218     -106       11      102      543     1367 
    1962     1846     1669     1928     2005     1597      841     -316 
   -1375    -1606    -1358    -1606    -2257    -1995     -220     1822 
    2722     2742     2598     2061     1311     1067     1120      925 
     425     -235     -850    -1313    -1494    -1219     -794     -705 
    -850     -702     -165      226      389     1019     2122     2640 
    2298     2209     2924     3413     2625      941     -486    -1438 
   -2502    -3219    -2710    -1624    -1023     -796     -435        2 
      77      -85      253     1188     2105     2486     2089     1222 
     338     -630    -1411    -1142      232     1641     2348     2764 
    3155     2895     1859      773      -26     -657    -1134    -1697 
   -2604    -3365    -3428    -3013    -2582    -2209    -1597     -670 
     225      975     1890     3082     4127     4462     3863     2653 
    1754     1962     2806     2917     1893      654     -243     -825 
   -1029    -1337    -2278    -3201    -3236    -2771    -2925    -3741 
   -3959    -2847    -1169      -53      531     1534     3166     4635 
    5560     6390     7176     7001     5356     3033     1113      -30 
    -774    -1778    -3298    -5027    -6421    -7053    -6950    -6407 
   -5505    -4233    -2746    -1297       -1     1546     3886     6475 
    7974     8197     8271     8634     8642     8063     7140     5817 
    4104     2203      -42    -2685    -4955    -5959    -5860    -5690 
   -5939    -6173    -5916    -4645    -2169      340     1462     1293 
     948      721      145      -73     1018     2517     3304     3327 
    2550     1298      483      422      744      870      309     -730 
   -1735    -2547    -2763    -2006     -850       94      914     1667 
    2301     2861     3133     2768     1919     1141      586       52 
    -538    -1376    -2448    -2815    -1884     -623        2      251 
     681     1565     2813     3783     3768     2630      978     -293 
   -1078    -2138    -3703    -4752    -4261    -2714    -1394     -618 
     368     2192     4499     6230     6722     6338     5819     5209 
    3992     2167      187    -1790    -3685    -5060    -5621    -5818 
   -6069    -5865    -4841    -3679    -2762    -1487      487     2690 
    4388     5168     5404     5620     5648     5357     5030     4622 
    3891     2797     1325     -377    -1894    -3152    -4472    -5535 
   -5576    -4848    -4264    -3823    -2807    -1167      534     2143 
    3714     5018     5726     5581     4855     4159     3370     2114 
     777      -61     -166      149      132     -306     -715     -963 
    -870     -440     -294     -703    -1087     -936     -359      458 
    1197     1067      -72    -1307    -2083    -2527    -2690    -2741 
   -2934    -2821    -1979    -1124     -938     -810        6      946 
    1079      683      441      393      537     1014     1719     2219 
    2096     1731     1954     2684     3241     3454     3409     3026 
    2332     1528      803      219     -208     -213      365      986 
    1067      890     1009     1328     1391     1024      385     -178 
    -545    -1192    -2436    -3563    -3450    -2112     -845     -417 
    -287      275     1563     3378     4782     4791     3518     1986 
     987      367     -402    -1270    -1918    -2412    -2915    -3361 
   -3647    -3614    -2944    -1791     -919     -526     -154      352 
     985     1810     2501     2791     3062     3504     3621     3175 
    2632     2436     2508     2470     2171     1804     1329      657 
     211       95      -54     -127     -102     -482    -1430    -2484 
   -3013    -2993    -3046    -3061    -2221     -797      287     1066 
    1821     2300     2359     2082     1711     1594     1668     1592 
    1252      744      271      -64     -381     -648     -650     -533 
    -646     -897    -1018     -989     -951    -1244    -1943    -2574 
   -2969    -3251    -3140    -2573    -1962    -1392     -601      477 
    1743     3238     4847     5965     6173     5743     5091     4405 
    3694     2819     1628      230     -734     -730     -372     -598 
   -1244    -1620    -1491     -862      205     1296     1837     1787 
    1587     1407     1204     1050      742       67     -580     -996 
   -1514    -1998    -2114    -2147    -2230    -1887    -1015     -266 
     -69      -36      427     1256     1689     1374      941      891 
    1011     1162     1396     1561     1545     1290      542     -579 
   -1178     -782     -137       -6     -233     -347     -196      -26 
    -179     -450     -277      291      731      853      850      944 
    1063      840      214     -350     -539     -438      -19      656 
    1111     1209     1230     1136      918      974     1451     1893 
    1848     1418      972      736      677      509      133     -132 
    -205     -440     -883    -1191    -1258    -1249    -1268    -1190 
    -678      217      743      588      286       50     -248     -489 
    -700     -811     -392      450     1080     1273     1225     1245 
    1596     2152     2632     3058     3410     3435     3041     2252 
    1251      456     -260    -1285    -2294    -3129    -4022    -4483 
   -4037    -3174    -2463    -1786     -844      104      740     1364 
    2141     2744     2951     2784     2503     2400     2341     1996 
    1360      640       55     -128      166      672     1155     1427 
    1243      811      698      998     1462     1920     2042     1755 
    1542     1435      966      298     -169     -584    -1110    -1553 
   -1681    -1638    -1744    -1882    -1885    -1936    -1958    -1673 
   -1238     -990     -805     -375      104      329      425      470 
     460      701     1396     2149     2272     1525      407     -371 
    -568     -515     -641     -992    -1319    -1551    -1837    -2125 
   -2050    -1573    -1221    -1031     -320      898     1756     1838 
    1525     1370     1541     1866     2230     2440     2292     2135 
    2479     3038     3148     2864     2713     2844     3025     2842 
    2108     1325      942      692      344       92       15      -79 
    -439    -1165    -1941    -2308    -2367    -2476    -2479    -2272 
   -2085    -1625     -761     -254     -324     -229      275      785 
    1194     1607     2017     2444     2753     2730     2493     2256 
    2054     1917     1816     1590     1157      582       46     -402 
   -1033    -1828    -2380    -2576    -2545    -2316    -1886    -1398 
   -1037     -755     -505     -470     -538     -206      489      932 
    1116     1544     2143     2521     2567     2415     2357     2309 
    1939     1640     1812     1819     1113       38     -971    -1711 
   -2084    -2361    -2862    -3306    -3277    -2978    -2705    -2367 
   -1928    -1432     -883     -473     -146      626     1972     3245 
    3818     3839     3872     3977     3950     3901     3674     2972 
    2178     1758     1602     1444     1089      532      121       48 
      48       -6      -25     -106     -239     -421     -970    -1718 
   -1884    -1311     -627     -257     -147      -97       92      445 
