Origin Time       2025/03/30 10:18:00
Lat.              34.667
Long.             140.825
Depth. (km)       69
Mag.              4.9
Station Code      KNG202
Station Lat.      34.7396
Station Long.     139.8393
Station Height(m) -2339
Record Time       2025/03/30 10:18:48
Sampling Freq(Hz) 100Hz
Duration Time(s)  100
Dir.              N-S
Scale Factor      2000(gal)/6182761
Max. Acc. (gal)   12.569
Last Correction   2025/03/30 10:18:48
Memo.             
[...]
     621      619      613      615      620      621      627      630 
     624      621      622      620      622      624      616      614 
     622      623      620      618      610      612      623      623 
     622      629      626      617      625      632      620      614 
     622      621      619      623      618      620      626      620 
     617      621      618      619      621      619      615      614 
     615      613      612      616      613      610      612      608 
     607      615      613      604      608      615      611      603 
     599      603      603      594      585      583      573      562 
     566      567      561      563      574      574      562      549 
     527      508      532      600      682      759      786      712 
     583      510      568      749      972     1123     1162     1108 
     950      706      518      569      839     1026      876      544 
     333      254      211      328      625      642      143     -172 
     311      880      515     -341     -468      225      920     1248 
    1273      827      -97     -595      148     1374     1690      977 
     230       67      413     1044     1481     1205      564      367 
     609      801      921     1031      953      680      396      361 
     812     1528     1759     1158      370       68      124       45 
    -454    -1114    -1299     -778       82      840     1165      838 
     214       93      611     1093      981      468      369      939 
    1410     1412     1319     1286     1355     1558     1615     1548 
    1592     1405      759      260      355      678      881     1134 
    1243      614     -285     -515     -428     -658     -748     -222 
     338       19     -939    -1226     -393      569      716      234 
      54      546     1127     1598     2353     3078     2904     1724 
     505      210      793     1309      722    -1006    -2487    -2200 
    -266     1709     2519     2432     2272     1864      497    -1302 
   -2320    -2209    -1132      574     1981     2230     1557      731 
      18     -361      268     1979     3574     3823     2649      565 
   -1726    -2815    -1577     1147     3210     3250     1825     1056 
    2291     3795     2851     -348    -3395    -4844    -4634    -2817 
     254     2985     3582     2120      -80    -1942    -2298     -859 
     606      812      633      891     1278     1411     1069      -13 
   -1372    -1504      217     2478     4107     5183     5558     4311 
    1102    -2571    -3910    -1210     4065     7769     6472      977 
   -4380    -6005    -3592      653     3699     3707     1299    -1669 
   -3569    -3379    -1843    -1001     -838      461     2576     3303 
    2189     1163     1486     1738      423     -924      128     2646 
    3380     1472    -1213    -3240    -3979    -2889     -370     2281 
    3965     4207     3171     1489      -67     -735      -35     1247 
    1018    -1326    -3071    -1598     1998     4653     4772     2879 
     306    -1610    -1451     1178     4252     4861     2110    -2045 
   -4357    -3200     -170     1836     1691      605      233      850 
    1277      536     -607     -615      372      654     -357    -1234 
    -466     1570     2790     1973      537      449     1906     3998 
    5313     4320     1060    -2622    -4928    -5192    -3402      289 
    4729     7442     6499     2149    -3169    -6017    -5111    -3043 
   -2704    -3591    -3150       53     4889     8207     7327     2853 
   -1668    -3135    -1240     1803     3155     1759     -836    -1914 
    -158     2822     4446     4112     2787      956    -1178    -2627 
   -2888    -2879    -2680     -922     1970     3427     2721     1988 
    2803     4283     4998     4811     3970     2141     -571    -2976 
   -3972    -3599    -2798    -2539    -2668    -1653     1056     3185 
    2643      685     -418     -482     -446     -482     -139      712 
    1757     2805     3569     3132     1226     -809    -1556     -622 
    1277     2384     1715      133    -1575    -3148    -3374    -1404 
    1749     4568     5597     3868      729    -1212    -1211     -635 
    -550     -392      780     3009     5373     5962     3499     -315 
   -2506    -2340    -1168     -294      -50        1      298      636 
     166    -1489    -2852    -1665     2314     6520     7925     5984 
    2311    -1709    -4865    -5722    -4503    -3031    -2315    -1840 
    -402     2279     4648     5346     4717     3398     1527     -768 
   -3029    -4116    -3130     -903      775     1011      510      921 
    2572     3612     2820     1225       81     -511     -670      -65 
    1563     3934     6351     8103     8421     6429     2632     -673 
   -2137    -2587    -3426    -5189    -6720    -6500    -4783    -2865 
   -1862    -2222    -2994    -2812    -1456      594     3024     5341 
    6450     5648     3656     1971     1887     3353     4385     3591 
    2059     1065      810     1423     2495     3121     2688      388 
   -3628    -7151    -8272    -6644    -2672     2098     5358     5608 
    2703    -1807    -4958    -4764    -2001     1487     4811     7106 
    7135     5035     2246     -191    -2058    -3481    -4123    -3231 
   -1169      727     2062     3198     3953     3857     2704      569 
   -2069    -4212    -4564    -2568      919     4490     7032     7855 
    6875     4715     2121     -819    -3883    -5358    -3599       64 
    2215     1353     -623    -1111      306     2248     3517     3604 
    2349       81    -2410    -4319    -5192    -4858    -3209     -295 
    3314     6397     7661     6518     3361     -423    -2865    -2845 
   -1340     -686    -2235    -4873    -6326    -5267    -1955     1974 
    4368     4622     4537     5490     6142     4778     1623    -1773 
   -3451    -2258     1074     4739     7070     7122     5207     2688 
     865      236      672     1630     1700     -669    -4732    -7610 
   -7416    -4527     -489     2925     4333     3608     2008      553 
    -814    -1996    -2774    -3484    -3673    -1981     1398     4202 
    4549     2770      947      901     2385     3300     1908     -865 
   -2086     -417     2524     4742     5752     5619     4203     1939 
     -56    -1439    -3282    -6255    -9148   -10281    -9200    -6191 
   -1664     3196     6288     6368     4808     4001     4233     4024 
    2738     1501     1930     3859     5006     3681      630    -2119 
   -3174    -2620    -1744    -1620    -1723     -647     1992     4670 
    5081     2993      893      813     2273     3624     4213     4422 
    3927     2177      126     -942    -1237    -2087    -4284    -6518 
   -6259    -2451     3491     8184     8315     4039    -1165    -4236 
   -4268    -2219     -526    -1228    -3476    -4343    -2403      999 
    3484     3384      989    -1738    -3162    -3030    -2104    -1010 
     436     2198     3738     4889     5541     5337     4208     2506 
     539    -1438    -2740    -2816    -2014     -794      925     2906 
    4132     4039     3525     3715     4232     4005     3032     2063 
    1281      138    -1492    -2447    -1622      211     1120       -4 
   -2590    -5033    -6203    -5828    -3737     -374     2662     4249 
    4710     4647     4353     4178     4246     3829     1905    -1039 
   -2964    -2687     -844     1179     2023     1320      260       98 
     539      121    -2076    -4860    -5617    -3201      625     2695 
    1191    -2357    -4416    -3118      534     4414     6917     7358 
    6016     4189     3301     3685     4523     4691     3555     1258 
   -1202    -2375    -1690     -212      706      983     1394     2166 
    2532     1609     -725    -3765    -6009    -5813    -3047      411 
    1828     -258    -3835    -4936    -2542      211      326    -1799 
   -3719    -3593    -1372     1497     3413     3932     4204     5475 
    7025     7379     6417     4584     2164     -166    -1443     -780 
    1821     4653     5753     4639     1837    -1573    -3918    -4180 
   -3004    -1834    -1633    -2596    -4124    -4587    -2606      753 
    2683     1859     -186     -800     1147     4242     6094     5692 
    3907     2002      648      230      728     1275     1010      187 
    -367     -375     -284     -664    -1338    -1450     -730      194 
     535     -116    -1302    -2091    -2236    -1935     -931     1109 
    3739     5726     6332     5873     4531     2232     -467    -2680 
   -3618    -2949    -1248      505     1568     1577      637     -567 
   -1029     -576     -368    -1090    -1920    -1825     -293     2602 
    5654     6965     5563     2459     -271    -1408    -1166     -499 
    -211     -162      364     1339     1987     2104     2462     3642 
    4751     4054     1211    -2131    -4597    -6361    -7341    -6450 
   -3446      605     4299     6229     5850     4181     2646     1724 
    1039      340      -11      435     1441     1979     1301      -77 
   -1301    -2347    -3343    -3596    -2060     1134     4012     4627 
    3064      496    -2181    -4060    -4455    -3516    -1740      388 
    2054     2782     3408     4713     5716     4959     2556      -86 
   -2004    -3201    -3442    -2159      175     2130     2448      623 
   -2391    -4505    -4346    -2065     1339     4506     6179     5911 
    4049     1249    -1375    -2272     -514     3266     7046     8881 
    8547     7303     6026     4298     1490    -2094    -5589    -7942 
   -8049    -5922    -3012     -908     -467    -1470    -2732    -3170 
   -2388     -309     2458     4391     4825     4882     5372     5509 
    4426     2350      326     -573     -359       60      437     1216 
    2182     2264      636    -2046    -3883    -3880    -2839    -1785 
   -1191    -1213    -1313     -965     -699    -1027    -1652    -2320 
   -3023    -3509    -3291    -2101     -364     1235     2774     4802 
    7153     8760     8639     7067     5390     4384     3448     1491 
   -1742    -4959    -5893    -3367      972     3881     3622     1425 
    -172     -166      689     1734     2710     3280     3436     3519 
    3703     3842     3596     2688     1228     -402    -2004    -3553 
   -4728    -4955    -4251    -3500    -3045    -1939      260     2329 
    3039     2731     2399     2156     1574      858      769     1431 
    1837     1040     -612    -1730    -1304     -103      -76    -2063 
   -4721    -5874    -4681    -2152      153      955     -157    -1998 
   -2848    -2071     -190     1411     1233     -462    -1377      271 
    3806     6980     8272     8181     8175     8703     8869     7726 
    5233     2121     -568    -2068    -2486    -2563    -2892    -3599 
   -4261    -4070    -2655     -544     1407     2631     3253     4205 
    5953     7300     6749     4424     1623     -721    -2543    -4093 
   -5176    -5193    -4027    -2370    -1041     -591    -1176    -2288 
   -3270    -3783    -3566    -2657    -1459     -263      872     1917 
    2680     3013     3097     3029     2685     2150     1707     1745 
    2327     2651     2125     1383     1423     2459     3406     2731 
     388    -2231    -4025    -4590    -3715    -1335     1909     4291 
    4370     2615      796      155      458      612       98     -442 
    -108     1116     2424     3195     3359     2902     2194     2413 
    4102     6031     6540     5247     3080     1179     -103    -1405 
   -3354    -5254    -5799    -4973    -3951    -3600    -3974    -4475 
   -4024    -2037      442     1648     1294      616      230     -593 
   -2232    -3551    -2906        6     3567     5861     6299     5211 
    2948      -69    -2859    -3940    -2529      486     3203     4036 
    2932     1446      769      887     1849     3714     6141     8802 
   10906    11344     9706     5975      493    -5003    -7868    -6961 
   -4173    -2723    -3938    -6451    -7803    -6403    -2796      962 
    3053     2980     1838     1256     1680     2379     2617     2234 
    1574     1153     1424     2642     4757     7378     9465     9365 
    6209     1545    -1576    -1848     -815     -758    -3075    -7926 
  -13857   -18167   -18523   -14337    -6915     1042     6644     8518 
    7363     5230     3970     3926     4862     7205    10845    13870 
   13660     9118     1918    -4520    -7511    -6682    -3464      877 
    6410    12975    18300    19106    14021     5284    -2648    -6695 
   -7037    -5642    -3910    -2365    -2410    -6219   -13734   -21277 
  -24110   -20308   -12024    -3492     1758     2858     1701      644 
     284     -186    -1360    -2749    -2729       12     3905     4594 
   -1073   -11356   -20396   -22816   -17609    -7689     3512    13924 
   22167    27179    28776    27422    23744    18920    14860    13690 
   16598    22356    27102    26292    17768     3542   -11288   -20949 
  -21498   -13569    -2900     3271     1219    -6461   -13113   -14397 
  -11849   -10045   -11610   -14951   -15945   -11704    -3065     6373 
   13343    16850    17587    15949    11448     4712    -1871    -6645 
  -10035   -13470   -17259   -19029   -16145    -9374    -2254     1411 
    -537    -6770   -13300   -17045   -17923   -17344   -15604   -11749 
   -5726      710     5765     9301    12929    18558    25381    29682 
   29158    25303    20988    17514    14288    10661     7881     8580 
   13325    18725    20330    15574     3662   -13433   -29694   -38261 
  -35994   -24703    -9130     6466    19601    27697    27850    19776 
    6869    -5789   -14101   -17193   -16535   -13178    -7826    -2021 
    2255     3378     1110    -2808    -6334    -9136   -11650   -12744 
   -9994    -2790     5899    11936    13698    12360     8921     2574 
   -7228   -17895   -24433   -24292   -19938   -14620    -8282      233 
   10033    18338    22665    23695    24860    27638    29341    26144 
   16809     3659    -9446   -19943   -27203   -31263   -32249   -30534 
  -26306   -19025    -8078     5562    18572    26622    27387    22454 
   15086     7503     1798      470     4407    11632    18178    20995 
   20346    18463    16645    13927     8504      646    -7272   -12696 
  -13730   -10451    -5005      432     3761     2356    -5019   -15777 
  -24403   -26375   -20558    -9003     4122    14795    21104    23132 
   21403    15619     5761    -5705   -14116   -15617   -10117    -1668 
    4038     3329    -3088   -11517   -18851   -23734   -25209   -22165 
  -14712    -5130     3319     8211     9152     7527     5058     3083 
    2305     2459     2977     3631     3942     3057      885    -1183 
   -1028     2281     7158    11103    13453    15405    17903    20288 
   20586    17057     9407     -934   -10729   -16024   -14602    -7715 
     349     5504     7599     9874    13998    17279    15941     9922 
    3361      383      698      272    -3943   -11424   -19366   -24693 
  -25222   -20719   -13525    -7285    -4429    -4827    -6574    -7780 
   -7702    -6468    -3976      345     6350    12443    16244    15792 
   10669     2708    -4551    -7941    -6253     -492     6290    10627 
   11072     8587     5301     3837     6486    13204    20613    23888 
   20311    11528     1953    -5085    -9165   -11475   -12883   -13425 
  -12960   -12118   -12575   -15659   -20374   -23363   -21425   -14470 
   -5991     -336      406    -2843    -7158    -9262    -7699    -3357 
    2247     7735    11692    13369    13066    11659    10370    10674 
   13431    17708    21035    21344    18848    15968    15076    16232 
   17362    16584    13864     9996     5043     -988    -6914   -10608 
  -10374    -6675    -2337     -563    -2630    -7420   -13048   -18408 
  -23103   -26511   -27258   -24028   -16981    -8038      514     7723 
   13788    18648    21581    21684    18731    14026     9718     7147 
    6152     5561     4468     3295     2998     3002     1102    -3862 
  -10495   -16498   -20461   -21727   -19662   -13924    -5445     3428 
   10071    12904    11829     7757     1972    -4250    -9843   -13886 
  -15488   -14313   -11112    -7446    -4949    -4280    -4292    -2769 
    1541     7740    13557    17147    18260    17623    15796    13233 
   10854    10222    12676    17485    21750    22698    19366    12201 
    2146    -9174   -19185   -25399   -26774   -23777   -17538    -9541 
   -1510     5148     9259     9553     5835      111    -4667    -6728 
   -6351    -5229    -4703    -4565    -3711    -1205     3055     7783 
   10865    10868     7886     3316     -952    -3442    -3461    -1014 
    3322     8453    12393    12669     8448     1639    -4782    -8977 
  -10758   -10556    -8441    -4135     2110     8818    13890    15846 
   14392    10180     4396    -1588    -6514    -9493   -10582   -10646 
  -10096    -8916    -7706    -7253    -7652    -8200    -7888    -6261 
   -3743    -1406     -216       38      326      872     1194     1284 
    1778     3066     4728     5815     5624     4287     2719     1972 
    2346     3264     4019     4230     3856     3006     1590     -274 
   -1511     -789     1959     5270     7094     6037     2552    -1013 
   -2208     -295     3566     7217     8935     8732     7987     7802 
    7946     7408     5857     4018     2732     2328     2643     3061 
    2738     1150    -1551    -4411    -6095    -6395    -6829    -8744 
  -11654   -13801   -13468   -10122    -4951      -38     2948     3551 
    2577      973    -1373    -5014    -9407   -12711   -13067    -9974 
   -4367     2337     8463    11960    11523     7920     3689     1547 
    2801     6619    10523    12041    10603     7932     6383     6945 
    8571     9123     6965     2136    -3598    -8089   -10269   -10211 
   -8515    -6160    -4140    -2854    -2598    -3903    -6260    -7873 
   -7480    -5486    -3314    -1998    -1562    -1445     -800     1060 
    3914     6796     8816     9827    10685    12615    15820    18793 
   19714    18283    15273    11113     5982      593    -3843    -6129 
   -5910    -4457    -3768    -4716    -6715    -8439    -8655    -7410 
   -6132    -5943    -6451    -6535    -5759    -4781    -4501    -4884 
   -4892    -3652    -1526     -137    -1354    -5601   -10864   -14093 
  -13709   -10267    -5297      -81     4802     8930    11674    12895 
   13189    12989    12081    10458     8962     8189     7461     5818 
    3403     1548     1683     3881     6385     7001     5279     2991 
    2243     3477     5281     5714     3666     -565    -5434    -8766 
   -8755    -5146      355     5137     7471     7759     7897     8807 
    9364     8106     4834      664    -2602    -3712    -2997    -1617 
    -120     1420     2489     2314      664    -1789    -3941    -5452 
   -6960    -8468    -8657    -6557    -2875      494     1768      439 
   -2718    -6838   -11573   -16291   -19602   -20288   -18061   -13453 
   -7838    -3005      148     2120     3627     4555     4425     3281 
    1902     1504     2995     6033     8981    10088     8639     5033 
     260    -4411    -7587    -8309    -6660    -3472      256     3363 
    4722     3818     1160    -1820    -3654    -3705    -2064     1075 
    5243     9125    11417    12039    12014    12744    14777    17081 
