Origin Time       2025/03/30 10:18:00
Lat.              34.667
Long.             140.825
Depth. (km)       69
Mag.              4.9
Station Code      KNG201
Station Lat.      34.5956
Station Long.     139.9183
Station Height(m) -2197
Record Time       2025/03/30 10:18:46
Sampling Freq(Hz) 100Hz
Duration Time(s)  110
Dir.              U-D
Scale Factor      2000(gal)/6182761
Max. Acc. (gal)   2.110
Last Correction   2025/03/30 10:18:46
Memo.             
[...]
    -220     -221     -215     -219     -223     -218     -219     -222 
    -220     -221     -224     -218     -213     -217     -218     -216 
    -219     -215     -213     -222     -220     -217     -224     -226 
    -225     -225     -224     -227     -226     -225     -221     -216 
    -218     -220     -218     -218     -219     -219     -222     -225 
    -223     -219     -223     -228     -224     -220     -223     -221 
    -222     -232     -226     -217     -226     -232     -219     -214 
    -222     -226     -224     -225     -232     -230     -217     -219 
    -228     -224     -222     -224     -219     -214     -221     -228 
    -225     -225     -227     -220     -216     -220     -217     -214 
    -222     -229     -226     -224     -224     -221     -222     -226 
    -228     -226     -226     -229     -220     -213     -224     -225 
    -218     -226     -227     -220     -222     -222     -221     -223 
    -220     -214     -211     -218     -228     -227     -226     -229 
    -225     -218     -217     -221     -224     -221     -216     -216 
    -215     -218     -223     -222     -217     -217     -218     -220 
    -222     -219     -220     -222     -221     -218     -219     -227 
    -224     -216     -222     -220     -214     -215     -216     -221 
    -220     -210     -216     -224     -218     -220     -227     -221 
    -214     -217     -219     -216     -215     -212     -209     -213 
    -221     -222     -220     -218     -205     -200     -210     -213 
    -209     -214     -220     -210     -202     -209     -218     -216 
    -214     -218     -218     -213     -208     -209     -215     -215 
    -212     -215     -217     -209     -211     -221     -217     -216 
    -217     -213     -213     -215     -214     -214     -218     -224 
    -222     -214     -212     -213     -214     -216     -214     -211 
    -218     -226     -222     -215     -212     -216     -220     -214 
    -215     -222     -218     -216     -219     -214     -216     -222 
    -219     -217     -220     -219     -216     -217     -221     -217 
    -210     -215     -221     -224     -223     -218     -219     -220 
    -217     -216     -219     -226     -225     -220     -219     -215 
    -213     -217     -214     -212     -221     -222     -220     -224 
    -220     -213     -217     -217     -215     -215     -218     -221 
    -222     -218     -217     -213     -213     -213     -211     -216 
    -226     -221     -209     -212     -222     -218     -212     -215 
    -217     -218     -219     -217     -221     -225     -220     -218 
    -219     -215     -214     -215     -214     -211     -209     -217 
    -227     -220     -210     -210     -211     -216     -219     -213 
    -210     -218     -219     -215     -218     -217     -208     -210 
    -224     -228     -215     -211     -221     -221     -212     -213 
    -219     -220     -221     -219     -216     -218     -222     -220 
    -214     -212     -217     -218     -219     -221     -221     -219 
    -214     -213     -220     -217     -215     -222     -218     -217 
    -222     -217     -211     -208     -207     -216     -222     -221 
    -223     -223     -221     -222     -217     -213     -220     -221 
    -217     -218     -215     -216     -221     -215     -211     -213 
    -211     -211     -218     -222     -219     -216     -220     -223 
    -218     -220     -219     -211     -215     -217     -213     -218 
    -218     -214     -213     -214     -218     -212     -206     -221 
    -228     -217     -217     -224     -224     -222     -217     -218 
    -221     -220     -226     -229     -221     -219     -219     -214 
    -218     -220     -209     -210     -219     -219     -220     -222 
    -217     -216     -220     -220     -214     -214     -222     -225 
    -220     -215     -218     -223     -219     -214     -217     -218 
    -214     -217     -218     -215     -218     -218     -215     -219 
    -222     -217     -208     -209     -216     -216     -215     -220 
    -225     -224     -224     -221     -214     -213     -216     -218 
    -221     -219     -216     -222     -224     -216     -216     -222 
    -224     -221     -216     -210     -213     -222     -222     -217 
    -218     -220     -220     -220     -220     -215     -212     -218 
    -219     -210     -211     -217     -220     -218     -211     -212 
    -219     -218     -216     -219     -217     -212     -214     -218 
    -219     -222     -219     -217     -223     -217     -209     -217 
    -218     -211     -212     -212     -213     -222     -221     -208 
    -208     -217     -218     -218     -218     -215     -214     -220 
    -219     -212     -215     -219     -218     -225     -230     -225 
    -221     -221     -223     -228     -228     -224     -222     -219 
    -218     -224     -220     -212     -215     -210     -210     -222 
    -219     -217     -224     -218     -212     -217     -216     -215 
    -219     -220     -222     -223     -218     -215     -219     -224 
    -222     -217     -218     -219     -222     -226     -219     -215 
    -222     -227     -225     -222     -214     -214     -223     -226 
    -222     -221     -224     -223     -219     -220     -221     -219 
    -218     -217     -216     -221     -227     -223     -214     -216 
    -219     -216     -220     -221     -214     -213     -217     -219 
    -218     -212     -209     -218     -230     -227     -219     -212 
    -206     -214     -221     -216     -221     -227     -221     -219 
    -224     -223     -220     -223     -227     -226     -220     -213 
    -213     -219     -219     -219     -223     -220     -216     -213 
    -215     -224     -228     -224     -221     -221     -223     -226 
    -225     -223     -224     -220     -216     -225     -232     -225 
    -225     -232     -228     -219     -221     -225     -219     -216 
    -226     -234     -227     -219     -225     -230     -220     -213 
    -213     -214     -222     -226     -219     -217     -225     -228 
    -227     -223     -218     -220     -223     -221     -219     -219 
    -224     -227     -219     -216     -222     -221     -221     -231 
    -232     -223     -214     -211     -213     -217     -224     -226 
    -225     -233     -231     -223     -224     -220     -216     -219 
    -217     -211     -211     -214     -214     -212     -217     -224 
    -224     -215     -213     -214     -210     -212     -212     -208 
    -212     -215     -215     -211     -202     -204     -215     -218 
    -213     -205     -206     -213     -212     -210     -211     -206 
    -201     -203     -197     -196     -209     -213     -204     -199 
    -201     -205     -205     -204     -208     -209     -204     -205 
    -211     -210     -207     -209     -212     -208     -203     -207 
    -209     -205     -207     -204     -201     -209     -217     -214 
    -210     -211     -217     -216     -211     -211     -212     -215 
    -215     -212     -215     -218     -213     -213     -222     -217 
    -211     -219     -220     -216     -220     -221     -216     -215 
    -220     -223     -219     -215     -218     -220     -217     -216 
    -219     -226     -225     -216     -218     -219     -210     -215 
    -230     -226     -215     -214     -220     -223     -216     -214 
    -220     -220     -218     -218     -218     -215     -209     -212 
    -219     -218     -218     -215     -211     -218     -222     -216 
    -214     -212     -213     -217     -214     -214     -213     -207 
    -217     -223     -208     -210     -220     -214     -211     -218 
    -214     -204     -212     -225     -215     -206     -215     -217 
    -212     -212     -213     -215     -211     -212     -224     -221 
    -211     -217     -215     -202     -205     -214     -217     -219 
    -216     -214     -220     -222     -219     -222     -223     -216 
    -217     -219     -210     -205     -212     -216     -213     -211 
    -209     -210     -220     -226     -223     -222     -223     -221 
    -215     -216     -227     -226     -210     -209     -222     -224 
    -222     -223     -222     -218     -221     -221     -216     -214 
    -220     -221     -218     -220     -219     -217     -222     -224 
    -221     -222     -216     -209     -215     -220     -215     -213 
    -213     -212     -212     -217     -221     -215     -210     -216 
    -220     -214     -211     -211     -210     -213     -215     -211 
    -207     -213     -218     -210     -204     -211     -217     -216 
    -216     -212     -205     -211     -215     -205     -208     -222 
    -214     -204     -212     -217     -211     -209     -209     -209 
    -207     -206     -212     -213     -205     -207     -214     -217 
    -216     -208     -207     -219     -222     -212     -209     -214 
    -218     -219     -220     -219     -214     -212     -216     -217 
    -215     -219     -219     -217     -224     -229     -221     -215 
    -216     -215     -214     -216     -220     -224     -225     -230 
    -235     -233     -226     -222     -228     -233     -229     -232 
    -234     -224     -227     -234     -223     -218     -228     -231 
    -231     -230     -224     -224     -230     -229     -221     -219 
    -222     -224     -229     -231     -227     -225     -226     -228 
    -232     -233     -227     -223     -227     -230     -229     -225 
    -227     -235     -233     -227     -224     -221     -226     -231 
    -225     -227     -236     -232     -230     -229     -222     -224 
    -232     -232     -228     -227     -225     -224     -229     -232 
    -229     -230     -233     -231     -225     -226     -226     -217 
    -218     -224     -222     -226     -227     -218     -222     -228 
    -227     -223     -219     -224     -230     -225     -220     -218 
    -220     -225     -225     -221     -221     -219     -218     -220 
    -217     -217     -226     -229     -222     -221     -221     -216 
    -216     -215     -215     -222     -221     -217     -217     -217 
    -223     -221     -209     -215     -229     -225     -222     -222 
    -220     -219     -217     -219     -223     -219     -215     -214 
    -212     -214     -219     -222     -223     -224     -222     -218 
    -217     -216     -218     -217     -210     -211     -216     -211 
    -204     -211     -223     -219     -211     -213     -212     -209 
    -209     -215     -219     -214     -213     -218     -216     -216 
    -217     -215     -208     -204     -213     -211     -203     -213 
    -214     -201     -212     -226     -217     -213     -215     -214 
    -214     -208     -205     -217     -218     -209     -209     -213 
    -213     -205     -199     -208     -220     -214     -207     -209 
    -210     -211     -214     -210     -209     -214     -211     -204 
    -209     -219     -222     -218     -210     -209     -209     -204 
    -207     -211     -208     -212     -218     -215     -210     -208 
    -208     -213     -215     -211     -216     -220     -214     -209 
    -214     -219     -218     -215     -214     -212     -216     -221 
    -214     -205     -211     -219     -212     -205     -215     -218 
    -213     -216     -217     -209     -215     -222     -213     -208 
    -209     -213     -220     -216     -213     -220     -219     -215 
    -220     -223     -218     -216     -219     -220     -213     -213 
    -224     -226     -218     -215     -216     -217     -223     -227 
    -224     -223     -222     -217     -216     -215     -219     -225 
    -225     -223     -222     -222     -223     -219     -221     -223 
    -215     -214     -219     -217     -217     -219     -218     -220 
    -221     -215     -211     -217     -217     -210     -209     -213 
    -215     -212     -209     -212     -215     -210     -209     -213 
    -213     -214     -215     -212     -211     -212     -213     -210 
    -206     -210     -219     -219     -213     -213     -213     -211 
    -216     -215     -210     -214     -219     -215     -213     -213 
    -213     -215     -216     -215     -210     -212     -217     -212 
    -217     -225     -213     -207     -220     -220     -216     -225 
    -223     -213     -213     -217     -216     -213     -214     -215 
    -212     -215     -221     -224     -222     -215     -214     -219 
    -219     -220     -223     -222     -218     -213     -216     -223 
    -217     -213     -220     -221     -216     -215     -215     -220 
    -223     -221     -220     -217     -218     -223     -224     -225 
    -225     -227     -227     -220     -219     -231     -237     -233 
    -237     -249     -264     -281     -294     -305     -319     -348 
    -408     -489     -576     -658     -702     -677     -586     -467 
    -446     -661    -1057    -1372    -1397    -1107     -556      141 
     771     1050      671     -414    -1522    -1475       36     1858 
    2848     2976     2583     1624      101    -1082     -610     1282 
    2734     2686     1687      302    -1323    -2517    -2270     -562 
    1499     2859     2592       35    -3561    -5731    -5912    -5342 
   -4274    -2129      210     1138     1039     1782     3401     3741 
    2359     1470     1421       -4    -2640    -3802    -3040    -1999 
    -737     1391     3001     2647     1301       83    -1422    -2261 
    -420     2386     2733     1104     -460    -2255    -4866    -6704 
   -5650    -1705     2970     5568     4685     1237    -2575    -4008 
   -2069     1153     3751     4467     1780    -2707    -4922    -3939 
   -2459    -1941     -789     1625     3164     2486      410    -1335 
   -1205       47      624      678      505     -254     -545      495 
    1291      241    -1248     -959      250      273     -206      441 
    1227      683     -685    -1993    -2531    -1285     1279     2673 
    1695      -18     -792     -516      145       51    -1315    -2455 
   -2014     -801      158      476      402     1025     1787     1130 
    -477    -1947    -2556    -1585      185     1094      935      411 
    -337    -1053    -1276    -1161     -746      141      951      871 
     -19     -639     -143      895      947     -438    -1375     -449 
     757      483     -825    -1626    -1032      388     1560     1365 
    -465    -2290    -2850    -2328     -829     1135     1965      997 
      19      319      657      182     -674    -1407     -891     1073 
    2236     1197     -555    -1487    -1537    -1035     -550     -274 
     565     1612     1159     -740    -2141    -2118    -1342     -329 
     835     1391      618     -530     -709     -388     -475     -891 
   -1338     -973      487     1403      779     -316     -407      656 
    1591     1719     1099     -334    -1544    -1510    -1094    -1112 
    -769      653     1860     1002    -1045    -1782    -1045     -233 
     371      519     -244    -1293    -1904    -1709     -845     -324 
     -64      715     1189      412     -928    -1213     -190      308 
    -256     -674     -909    -1050     -269     1341     2494     2260 
     937     -705    -1746    -1361     -160      754     1314     1312 
     348     -934    -1479     -867      317     1185     1377      463 
   -1531    -3077    -2965    -2026    -1328     -564      369      570 
    -557    -2263    -3045    -2590    -1396      432     1947     2003 
    1451     1539     1530      631     -248     -273      537     1545 
    1754     1414     1140      247    -1160    -1612     -720      664 
    1705     1719      557     -802    -1433    -1386     -906     -547 
    -596     -479     -429    -1179    -2670    -4168    -4259    -2459 
     -42     1624     1834      971      224       36      132     -104 
   -1339    -2251     -187     3752     4743     1799     -768     -733 
     -78     -124      479     2333     2737      523    -1024     -599 
    -276      243     2159     2902       -1    -3666    -3993    -1454 
     638      682     -601    -2805    -5051    -4346     -439     1905 
     176    -2312    -2835    -1866      441     2548     1570     -492 
     306     2166     1557     -531    -1562    -1261     -898    -1169 
   -1238     -125     1620     1961     -143    -1957     -300     3063 
    4308     3274     1814     -214    -2884    -3958    -2778    -1633 
   -1196     -272      192     -643     -304     2059     3548     2855 
    1437       90    -1292    -1694     -606     -334    -2111    -3238 
   -1706      484      502    -1193    -2126    -1438      431     2368 
    1953    -1086    -2817     -970     1552     1654      391      591 
    1550      123    -2943    -3908    -1827      876     1473     -289 
   -1724     -598     1524     1986     1447     1711     2054      820 
   -1604    -3006    -1779      929     2056      885     -365     -821 
   -1376    -2016    -2047    -1610    -1072      384     2664     3310 
    1790       19    -1631    -2473    -1345     -234     -595    -1191 
   -1857    -1747      445     2072     1175     -131     -925    -1210 
    -126      983      450     -253      368      863     -144    -1478 
   -2147    -2287    -1457       41      777      539      597     1165 
     908      205      216      151       37      384      149     -262 
     274      334    -1291    -2766    -2097     -414      -73     -521 
     400     2044     2381      945    -1501    -2884    -2012     -554 
     336      835      612      248      595      917      570     -243 
   -1092    -1460    -1452     -875      671     1530      582     -322 
    -677    -1783    -2756    -2240     -732      878     1621     1046 
     657     1533     1916      712     -171      137      190     -178 
       9      488      250    -1027    -2125    -1710     -803     -736 
    -364     1018     1645      677     -483     -627      120      475 
    -465    -1545    -1608    -1033     -109      745      844      258 
    -956    -2220    -1888     -203      472     -262     -776     -576 
      12      852     1229      452     -653     -786     -261      -85 
    -434     -894     -783     -231     -338    -1072    -1238     -578 
     -27     -283     -532      407     1467     1121      478      985 
    1702     1027     -505    -1281    -1257    -1020     -825     -833 
    -712     -590     -510      169     1212     2100     2289     1162 
    -114     -119      116     -635    -1330     -890      -13      279 
    -403    -1556    -2094    -1753     -807      684     1999     1976 
     497     -946     -642      715      578    -1663    -3770    -3805 
   -2255     -356     1484     2339     1502      609      487     -482 
   -2128    -2898    -2728    -1445      954     3056     3824     3034 
    1337      232     -192     -904    -1718    -1934    -1413     -279 
     881     1038      417       44     -413    -1119    -1009     -447 
    -741    -1066     -138      914      941      912     1091      195 
   -1495    -2381    -1972     -506      936      591    -1065    -1979 
   -1839    -1411    -1119    -1015     -471      414      362     -505 
    -660      670     2666     3414     2232      416     -932    -1630 
   -1512     -662      121      512      647       16    -1048    -1155 
