Origin Time       2025/03/30 10:18:00
Lat.              34.667
Long.             140.825
Depth. (km)       69
Mag.              4.9
Station Code      KNG201
Station Lat.      34.5956
Station Long.     139.9183
Station Height(m) -2197
Record Time       2025/03/30 10:18:46
Sampling Freq(Hz) 100Hz
Duration Time(s)  110
Dir.              E-W
Scale Factor      2000(gal)/6182761
Max. Acc. (gal)   19.990
Last Correction   2025/03/30 10:18:46
Memo.             
[...]
    -316     -320     -321     -318     -315     -314     -318     -319 
    -310     -307     -307     -300     -300     -303     -296     -286 
    -277     -273     -265     -244     -233     -249     -272     -277 
    -267     -238     -183     -135     -121     -161     -272     -389 
    -452     -474     -402     -195      -16      -52     -312     -611 
    -772     -828     -783     -549     -220       15      -19     -355 
    -678     -754     -695     -514     -148      204      265      -15 
    -451     -802     -871     -539       34      540      884     1014 
     783      174     -559    -1020    -1107    -1077    -1001     -737 
    -437     -371     -411     -287      -36      109       60      -40 
    -107     -235     -355     -288     -210     -338     -475     -565 
    -787     -904     -627     -186      195      537      751      690 
     261     -491    -1168    -1374    -1211     -809     -131      424 
     423      108     -203     -450     -367       95      322      -20 
    -384     -384     -418     -618     -478      -38      126       17 
     -57     -124     -359     -626     -517     -117       16     -274 
    -687     -821     -615     -520     -621     -483     -127       55 
     -19     -245     -496     -617     -658     -744     -763     -663 
    -558     -429     -331     -432     -540     -401      -97      174 
     227      111       35     -108     -419     -560     -384     -237 
    -164      101      354      211     -279     -792    -1060    -1035 
    -802     -409       60      436      520      185     -390     -865 
   -1068     -882     -258      531     1003      802       21     -755 
    -848      -29     1229     2155     2249     1459      197     -823 
   -1090     -558      467     1316     1168     -106    -1743    -2939 
   -3264    -2557    -1058      456      903     -119    -1783    -2933 
   -2976    -2065     -808      286      994     1244      915        1 
    -924    -1146     -703     -155       64     -400    -1580    -2769 
   -3125    -2129      278     3051     4667     4603     3059      418 
   -2193    -3302    -2412     -120     2615     4437     3794      461 
   -3789    -6590    -6562    -3959     -417     1955     1729     -711 
   -3371    -4553    -4017    -2140      741     3634     5100     4644 
    2938      719    -1667    -3671    -4481    -3836    -2218     -495 
     440      434      178      139      263      719     2259     5413 
    9202    11589    11134     7583     1921    -3788    -7416    -7745 
   -4988    -1123     1191      637    -2245    -5817    -8038    -7372 
   -4023      -34     2270     1666    -1552    -5460    -7530    -6505 
   -2903     1901     6462     9269     8808     4877     -298    -3560 
   -3511    -1388      396      440     -736    -1743    -2115    -2477 
   -2896    -2594    -1484     -488     -478    -1441    -2372    -2234 
    -875     1214     3424     5283     6433     6450     5229     3423 
    1809      584     -349     -976    -1398    -2050    -3136    -4145 
   -4642    -4826    -4711    -3764    -1867       22      705       23 
   -1200    -1999    -1744     -523      854     1622     1736     1637 
    1662     1829     2063     2285     2089     1030     -432    -1460 
   -2091    -2635    -2794    -2208    -1087     -135      105     -314 
   -1043    -1620    -1620    -1048      -91     1326     3010     4008 
    3504     1802      -67    -1319    -2009    -2505    -2474    -1521 
    -376      -82     -600    -1156    -1169     -617      -85      -63 
    -499    -1108    -1244     -424      874     1866     2147     1653 
     730     -107     -613     -665     -125      538      377     -698 
   -1720    -1786     -968     -197      -18       69      496      865 
     825      387     -772    -2564    -3634    -3023    -1414      186 
    1377     1965     1910     1528     1235     1073      746       80 
    -878    -1913    -2796    -3360    -3257    -2296     -831      839 
    2447     3266     2947     1956      765     -334    -1082    -1457 
   -1587    -1564    -1516    -1664    -2002    -2176    -2094    -2185 
   -2803    -3689    -4072    -3559    -2623    -1904    -1475     -721 
    1011     3334     4958     5236     4857     4529     4302     4351 
    4596     4174     2571      302    -1816    -3393    -4417    -4749 
   -4137    -2795    -1430     -583     -392     -826    -1590    -2144 
   -2247    -2064    -1489     -174     1411     2171     1898     1311 
     883      533       72     -359     -363       40      255     -146 
   -1078    -2356    -3631    -4089    -3193    -1357      661     2236 
    2979     3057     2786     2147     1315      781      712      865 
     902      603      -70     -996    -1860    -2385    -2562    -2462 
   -2094    -1417     -400      834     1889     2202     1569      265 
   -1524    -3476    -4809    -5024    -4186    -2570     -574     1532 
    3451     4443     4029     2810     1897     1732     1682      969 
    -271    -1422    -2218    -2635    -2722    -2732    -3156    -4295 
   -5493    -5604    -4368    -2427     -509      956     1754     1677 
     829     -219     -918     -926     -307      327      466      176 
    -152      -95      382      636       74     -853     -922      446 
    2341     3630     4573     5849     7080     7727     8036     8185 
    7810     6696     5037     3025      629    -2198    -4968    -6766 
   -7373    -7522    -7746    -7918    -7946    -7924    -7671    -6848 
   -5358    -3234     -612     1719     2479     1098    -1765    -4867 
   -7035    -7523    -6520    -5031    -3638    -2026      143     2831 
    5733     7974     8559     7480     5447     3148     1503     1243 
    2043     3200     4248     4635     4235     3729     3466     2756 
    1038     -992    -2210    -2272    -1565     -675        0      466 
     786      599     -424    -2008    -3670    -4995    -5515    -5084 
   -4166    -3337    -2837    -2946    -3875    -5144    -6169    -6848 
   -6940    -6061    -4275    -1990      222     1854     2930     3810 
    4701     5470     5766     5669     5730     6157     6708     7103 
    7027     6274     4948     3338     1913     1022      335     -909 
   -3087    -5548    -6937    -6624    -5086    -3093    -1327     -153 
     169     -556    -1421     -981      591     1877     2309     2037 
     785    -1483    -3884    -5526    -5980    -5068    -3441    -2481 
   -2673    -3373    -4088    -4497    -4134    -2989    -1423      522 
    2785     4621     5307     5159     4936     4800     4399     3534 
    2401     1096     -556    -2423    -3973    -4938    -5593    -5991 
   -5452    -3432     -366     2752     5080     6240     6349     5693 
    4541     3185     1736      369     -604    -1376    -2320    -3138 
   -3268    -2867    -2611    -2562    -2229    -1608    -1116    -1014 
   -1364    -1769    -1637     -983      -61     1175     2319     2602 
    2009      937     -501    -2067    -3180    -3268    -2144     -171 
    1862     3111     3124     2126      941      173     -358     -903 
   -1398    -1892    -2415    -2661    -2259    -1152      458     1944 
    2395     1811     1122      761      644      835     1251     1390 
     701     -712    -2130    -3040    -3508    -3854    -3890    -3071 
   -1551      -26      816      582     -306    -1116    -1583    -1843 
   -2234    -2812    -3119    -2761    -1698     -201     1252     2312 
    2752     2380     1245     -240    -1291    -1195       37     1629 
    2724     3122     2956     2093      676     -711    -1705    -2040 
   -1553     -673       35      462      669      644      496      475 
     572      357     -496    -1744    -2715    -2958    -2571    -1628 
      60     2231     4040     4950     5130     4840     4159     3520 
    3566     4129     4324     3767     2600      666    -2331    -6147 
   -9651   -11450   -11136    -9362    -7165    -5389    -4230    -3366 
   -2464    -1727    -1695    -2118    -2054    -1183       53     1134 
    1653     1730     1918     2008     1639     1414     1574     1569 
    1239      710      136     -133       89      657     1242     1817 
    2789     4133     5423     6504     7238     7429     7040     6049 
    4511     2433     -312    -3174    -4835    -4647    -3442    -2673 
   -3015    -3992    -4799    -5057    -4892    -4627    -4603    -5127 
   -6219    -7423    -8176    -8136    -6996    -4576    -1245     2151 
    4694     5971     6581     7402     8290     8320     6976     4603 
    2018       -2     -859     -433      645     1397     1272      528 
    -409    -1374    -1920    -1732    -1205     -807     -662     -579 
    -344     -300     -952    -2201    -3610    -4965    -6106    -6510 
   -5829    -4679    -3855    -3209    -2365    -1640    -1456    -1666 
   -1870    -1865    -1652    -1282     -729      134     1459     3158 
    4656     5384     5415     5074     4474     3739     3070     2585 
    2377     2294     1778      381    -1734    -3745    -4563    -3768 
   -2097     -415     1335     3251     4621     4923     4565     4267 
    4377     4541     4013     2576      639    -1451    -3526    -5214 
   -6229    -6969    -7831    -8570    -8877    -8411    -6824    -4491 
   -2248     -577      512     1322     2122     2866     3417     3818 
    4186     4448     4328     3761     2964     1935      475    -1298 
   -2746    -3228    -2810    -1926     -774      311      827      632 
     -61     -863    -1437    -1688    -1589    -1123     -407      235 
     294     -351    -1043    -1113     -507      630     2069     3326 
    3885     3335     1606     -818    -3264    -5101    -5727    -5094 
   -3699    -1863       -1      979      527     -866    -2254    -2987 
   -2835    -1878     -383     1128     1906     1688     1054      585 
     164     -491    -1192    -1561    -1552    -1410    -1218     -799 
    -167      384      692      911     1369     2235     3297     4404 
    5669     6873     7354     6786     5405     3513     1464     -285 
   -1469    -1954    -1780    -1305     -981    -1356    -2777    -4739 
   -6467    -7729    -8299    -7622    -5659    -3372    -1896    -1503 
   -1648    -1875    -2187    -2606    -2975    -2973    -2123     -359 
    1731     3550     4833     5563     5963     6088     5433     3667 
    1421     -539    -2254    -3865    -4948    -5142    -4698    -4114 
   -3643    -3314    -3093    -2812    -2244    -1380     -350      757 
    1723     2350     2826     3294     3711     4408     5509     6216 
    5873     4669     2867      676    -1237    -2102    -1812     -995 
    -363       21      538     1264     1848     1895     1346      522 
    -299    -1083    -1834    -2440    -2851    -3142    -3246    -3118 
   -3122    -3486    -3691    -3215    -2281    -1198      146     1583 
    2438     2203      877     -902    -1918    -1385      182     1699 
    2643     2920     2476     1496      464     -242     -598     -517 
     226     1486     2953     4671     6906     9653    12503    15110 
   17101    17770    16758    14349    10946     7018     2788    -2245 
   -8489   -15278   -21395   -26239   -29999   -32814   -34522   -35310 
  -35625   -35309   -33590   -29713   -23343   -14648    -3985     8056 
   19961    29358    34346    34464    30159    22190    12159     2583 
   -4120    -6607    -5055    -1003     3469     6748     8263     8571 
    8992    10647    13525    16436    17795    16362    11516     3641 
   -5877   -15502   -24027   -30494   -34184   -34500   -31051   -24085 
  -14607    -3855     7274    17942    26789    32417    34133    31896 
   26121    17523     7344    -2288    -9475   -13728   -15451   -15201 
  -13525   -11057    -8465    -6080    -4279    -3810    -4536    -4831 
   -3085     1041     6754    12774    17856    21143    22360    21359 
   17757    11554     3681    -4442   -11671   -17498   -21839   -24520 
  -25206   -23724   -19741   -12390    -1222    12516    25819    35082 
   37866    34145    25819    15155     4084    -5609   -12742   -17483 
  -20996   -24050   -25961   -25266   -21149   -13679    -3781     6349 
   13829    16616    14502     9028     2149    -5510   -14770   -26233 
  -38756   -49245   -53940   -50100   -36864   -16076     7428    28162 
   42387    48245    46036    38654    30403    25126    24335    26402 
   28279    27771    24460    19311    13339     7310     2795     1786 
    4889    10574    15896    17774    13985     3750   -11502   -28128 
  -41962   -50652   -54486   -54769   -52692   -49647   -46471   -42934 
  -38680   -33503   -27230   -19785   -10611     1313    15857    30509 
   41601    46739    45720    39639    30164    19783    11376     6499 
    4583     4217     4588     5739     8240    12183    15952    17057 
   14409     8869     2236    -3693    -8270   -12107   -15596   -18482 
  -20202   -19493   -15075    -7060     2885    12055    17673    18391 
   15020     9863     5558     4143     6142     9648    10826     6653 
   -2653   -14033   -23860   -29867   -31459   -28845   -22641   -13838 
   -3402     7578    17435    24648    28607    28974    25185    16832 
    4200   -10758   -24116   -32216   -34037   -30741   -24282   -16782 
   -9520    -2660     3339     7384     9188    10033    11854    15634 
   20880    26423    31110    34116    34974    33139    28255    21046 
   12830     4456    -3417    -9871   -14278   -17143   -20129   -24939 
  -32227   -41375   -50832   -58536   -62069   -59228   -49220   -33006 
  -12564     9633    30412    46109    54332    55501    51765    45042 
   36592    27150    16830     5641    -5852   -16492   -24802   -29320 
  -29126   -24458   -16846    -8386     -794     4850     8011     8927 
    8413     6790     3609    -1339    -7485   -13637   -18376   -20604 
  -19619   -15474    -9490    -3269     2638     8467    14151    18971 
   22032    22987    22592    21852    20700    18541    15436    12223 
    9984     8910     7661     4716      -65    -5581   -10330   -13123 
  -13569   -11740    -7898    -2983     1355     3341     2065    -1652 
   -6033    -9732   -11864   -12068   -11172   -10707   -11817   -15071 
  -20269   -25850   -29541   -29450   -24204   -13895    -1078    10745 
   19175    23336    23857    22655    21763    22283    24115    26041 
   26066    22359    14734     4961    -4698   -12748   -18657   -22334 
  -23605   -22528   -19651   -15524   -10843    -6836    -4542    -4210 
   -5563    -7688    -8865    -7392    -2533     5208    14089    21576 
   25565    25428    21842    16165    10154     5435     3207     4274 
    8290    13426    17468    18694    15991     9370      275    -9295 
  -17705   -23899   -27362   -27932   -25645   -20831   -14444    -8165 
   -3254      366     3010     4572     5570     6970     8713     9642 
    8484     4447    -2166    -9683   -15864   -19108   -19071   -16349 
  -11887    -6725    -1735     2785     7116    11557    15885    19260 
   20530    18994    14982     9545     3736    -1677    -5784    -7613 
   -6948    -4351     -475     4127     8815    12894    15678    16351 
   14494    10809     6230      830    -5706   -13426   -21733   -29086 
  -33650   -34558   -32536   -29054   -25156   -21693   -19312   -17427 
  -14432    -9062    -1132     8418    17695    24549    27812    27788 
   25623    22687    19959    17582    15318    12989    10446     7619 
    4585     1723     -256     -937     -626      -13      156     -686 
   -2669    -5736    -9701   -13679   -16410   -17377   -16899   -15584 
  -14161   -12819   -10640    -6717    -1245     5127    11940    18455 
   23476    25986    25702    23199    19495    15350    11054     6598 
    1941    -2687    -6785    -9965   -12465   -14858   -17199   -19243 
  -21033   -22527   -23516   -24025   -23927   -22520   -19232   -14528 
   -9534    -4875     -351     4147     8118    11433    14958    19092 
   22652    24293    23869    21708    17862    12384     5753     -888 
   -6229    -9817   -12126   -13604   -14134   -13567   -12409   -11264 
   -9914    -7825    -4994    -1580     2670     7929    13382    17398 
   18855    17787    14800    10561     5946     2082     -241     -921 
    -376      437      263    -1688    -5187    -9048   -11646   -11501 
   -7982    -1822     5392    12008    16506    18088    17212    14847 
   11789     8718     5951     3276      355    -2845    -6006    -8834 
  -11316   -13428   -15017   -16171   -17136   -17981   -18537   -18311 
  -16674   -13316    -8458    -2862     2601     7212    10117    10857 
    9880     7799     5099     2467      517     -481     -602     -136 
     781     2097     3448     4384     4988     5777     6849     7763 
    8266     8782    10082    12035    13142    12021     8509     3255 
   -2770    -8493   -12945   -15784   -17563   -18922   -19921   -20230 
  -19527   -17892   -15546   -12384    -8380    -3929      344     3821 
    6185     7409     7545     6718     5349     4229     3848     4087 
    4825     5864     6767     7250     6974     5535     2964     -432 
   -4207    -7560    -9725   -10402    -9298    -5890     -350     5832 
   10961    14355    15969    15655    13363     9467     4659     -229 
   -4484    -7767   -10244   -12351   -14171   -15539   -16485   -16766 
  -15983   -14274   -12001    -9355    -6503    -3708    -1359      155 
     912     1491     2225     3175     4711     7162    10234    13175 
   15184    15715    14647    12368     9914     8701     9495    11741 
   14192    15837    16198    15290    13471    11166     8580     5712 
    2610     -548    -3604    -6577    -9475   -11918   -13207   -12842 
  -10827    -7591    -3735      276     4007     6627     7265     5927 
    3395      393    -2600    -5102    -6618    -6998    -6656    -6107 
   -5485    -4681    -3805    -3340    -3625    -4522    -5511    -5919 
   -5464    -4448    -3432    -3038    -3836    -6126    -9591   -13177 
  -15700   -16465   -15478   -13318   -10671    -8103    -6111    -4897 
   -4122    -3194    -1804       27     2215     4423     5835     5850 
    4680     2849      771     -987    -1703    -1015      601     2156 
    2999     2841     1394    -1270    -4327    -6500    -6807    -5244 
   -2557      456     2936     4100     4134     3953     4030     4363 
    5024     6230     8006     9628     9984     8882     7174     5660 
    4597     3934     3615     3612     3800     4136     4836     6102 
    7876     9853    11687    13249    14312    14320    12955    10444 
    7110     3208     -867    -4659    -7710    -9612   -10261    -9888 
   -8891    -7621    -6300    -5181    -4307    -3300    -1974     -709 
      72      375      263     -441    -1495    -2351    -3075    -4113 
   -5623    -7339    -8591    -8856    -8245    -7097    -5734    -4813 
   -5113    -6789    -8959   -10046    -9067    -6420    -3020      362 
    2827     3667     2903     1236     -240     -548      678     3229 
    6583     9863    11873    11832    10032     7377     4579     1986 
    -370    -2453    -4011    -4979    -5556    -5983    -6409    -6643 
   -6342    -5439    -4005    -2153     -397      509      400      -37 
     -32      638     1877     3634     5698     7587     9140    10571 
   11712    12141    11746    10488     8433     6043     3629     1074 
