Origin Time       2025/03/30 10:18:00
Lat.              34.667
Long.             140.825
Depth. (km)       69
Mag.              4.9
Station Code      KNG206
Station Lat.      35.0966
Station Long.     139.3778
Station Height(m) -1130
Record Time       2025/03/30 10:18:56
Sampling Freq(Hz) 100Hz
Duration Time(s)  98
Dir.              E-W
Scale Factor      2000(gal)/6182761
Max. Acc. (gal)   21.596
Last Correction   2025/03/30 10:18:56
Memo.             
[...]
    3154     1326      283      169      891     2205     3659     4635 
    4667     3705     1942     -457    -3243    -5921    -8041    -9473 
  -10154    -9971    -8998    -7424    -5412    -3185     -979      994 
    2483     3280     3424     3123     2368     1025     -689    -2097 
   -2466    -1632       89     2526     5343     7595     8318     7026 
    3715    -1032    -6206   -10617   -13071   -12748    -9405    -3569 
    3375     9751    14141    15720    14472    10806     5332    -1037 
   -7337   -12694   -16233   -17226   -15427   -11457    -6571    -1862 
    1970     4425     5451     5548     5179     4306     2816      900 
   -1160    -2832    -3324    -2326     -301     1940     3594     4169 
    3643     2134      -24    -1913    -2628    -2109     -962      236 
    1192     1684     1619     1130      301     -762    -1779    -2705 
   -3732    -4736    -5301    -5157    -4313    -3028    -1666     -431 
     490      686      -25    -1078    -1567    -1079      156     1667 
    2974     3724     3803     3231     2135      918      134      154 
     836     1466     1316      223    -1338    -2593    -3082    -2949 
   -2560    -2150    -1975    -2276    -3036    -4081    -5150    -5803 
   -5597    -4415    -2507     -187     2287     4529     5993     6292 
    5451     3846     1983      147    -1560    -2827    -3245    -2773 
   -1766     -574      674     1822     2456     2190     1101     -408 
   -1890    -2887    -3193    -2960    -2402    -1752    -1340    -1422 
   -2042    -3015    -3955    -4572    -4812    -4566    -3660    -2182 
    -530      894     1813     2179     2348     2658     2904     2763 
    2271     1641     1038      434     -195     -524     -306       36 
     -79     -470     -376      435     1447     2261     2863     3050 
    2344      579    -1802    -4126    -5981    -7370    -8381    -8744 
   -8080    -6344    -3791     -760     2436     5260     6910     6923 
    5466     2975       -3    -2807    -4736    -5287    -4509    -2799 
    -484     2025     4111     5199     5070     3858     1778     -859 
   -3532    -5589    -6469    -6092    -4736    -2664     -269     1856 
    3149     3448     3010     1992      439    -1250    -2523    -3101 
   -2897    -1842       -5     2203     4179     5433     5631     4662 
    2801      631    -1260    -2472    -2793    -2354    -1654    -1251 
   -1637    -3005    -4975    -6888    -8177    -8400    -7324    -5091 
   -2157      925     3619     5445     6189     5989     5066     3612 
    1902      139    -1528    -2772    -3314    -3219    -2704    -1894 
    -924      123     1272     2311     2900     2943     2394     1152 
    -756    -3133    -5511    -7255    -7996    -7656    -6361    -4410 
   -1995      640     3003     4732     5712     5817     4970     3409 
    1533     -470    -2341    -3449    -3374    -2440    -1288     -351 
     177      183     -465    -1648    -2803    -3464    -3612    -3431 
   -3064    -2377    -1111      624     2364     3636     4164     3842 
    2646      857     -935    -2296    -3001    -2934    -2183     -927 
     549     1855     2837     3496     3600     2771      898    -1640 
   -4182    -6152    -7343    -7858    -7686    -6674    -4837    -2501 
    -211     1632     2941     3743     4011     3724     3131     2765 
    2911     3387     3881     4066     3593     2320      457    -1547 
   -3213    -4267    -4726    -4686    -4219    -3581    -3150    -3113 
   -3449    -3959    -4313    -4283    -3783    -2704     -992     1117 
    3076     4365     4822     4518     3547     2135      667     -449 
    -831     -363      508     1062      954      331     -651    -1881 
   -2948    -3350    -2890    -1638       87     1725     2751     2901 
    2224      918     -772    -2335    -3195    -3180    -2478    -1347 
     -79      942     1461     1464     1092      483     -340    -1358 
   -2517    -3788    -5083    -6228    -6960    -6973    -6031    -4192 
   -1859      557     2762     4434     5325     5383     4687     3494 
    2189      988      -78     -931    -1380    -1280     -772     -175 
     251      241     -273     -971    -1529    -1819    -1723    -1250 
    -722     -413     -313     -396     -580     -605     -420     -254 
    -290     -652    -1409    -2407    -3295    -3753    -3662    -3077 
   -2117    -1030     -200      194      263       87     -347     -893 
   -1193     -961     -251      744     1886     2923     3531     3435 
    2475      888     -844    -2304    -3045    -2818    -1863     -594 
     554     1113      826     -263    -1843    -3375    -4398    -4761 
   -4456    -3449    -1930     -338      922     1552     1562     1344 
    1233     1273     1432     1674     1915     2090     1991     1339 
     263     -782    -1528    -1994    -2250    -2236    -1833    -1170 
    -627     -523     -974    -1848    -2894    -3857    -4421    -4308 
   -3470    -2110     -556      876     1847     2066     1596      730 
    -369    -1524    -2454    -3010    -3094    -2569    -1456       72 
    1820     3440     4497     4866     4706     4167     3379     2421 
    1292       14    -1345    -2641    -3651    -4314    -4713    -4831 
   -4614    -4074    -3282    -2409    -1594     -839     -178      312 
     592      659      628      639      730      938     1220     1429 
    1588     1768     1833     1596     1003      135     -897    -1905 
   -2570    -2644    -2035     -825      564     1535     1705     1069 
    -110    -1611    -3132    -4173    -4527    -4321    -3785    -3226 
   -2690    -1958     -976      139     1235     2172     2960     3713 
    4355     4645     4524     4013     3025     1582     -105    -1788 
   -3231    -4265    -4933    -5309    -5273    -4739    -3766    -2446 
    -979      359     1284     1543     1103      180     -967    -2092 
   -2937    -3392    -3467    -3218    -2882    -2683    -2539    -2219 
   -1565     -588      575     1827     3048     4041     4641     4719 
    4269     3453     2388     1127     -220    -1533    -2656    -3411 
   -3762    -3687    -3140    -2260    -1202      -36      996     1609 
    1658     1093      -58    -1604    -3050    -3959    -4295    -4034 
   -3055    -1543       91     1509     2425     2646     2164     1013 
    -657    -2370    -3603    -4100    -3786    -2661     -885     1084 
    2621     3315     3193     2504     1409      154     -887    -1478 
   -1466     -872       63     1123     2018     2460     2410     1785 
     553     -932    -2311    -3514    -4601    -5530    -5975    -5696 
   -4863    -3715    -2464    -1398     -679     -266      -31      152 
     324      586     1152     1952     2619     2982     3042     2787 
    2324     1800     1269      724       81     -738    -1645    -2431 
   -2923    -3004    -2580    -1787     -987     -502     -556    -1109 
   -1852    -2501    -2910    -3042    -2933    -2608    -2106    -1461 
    -624      430     1536     2349     2598     2315     1704     1011 
     449       33     -335     -691    -1021    -1308    -1475    -1287 
    -579      534     1757     2631     2807     2268     1077     -580 
   -2309    -3732    -4531    -4562    -3913    -2794    -1564     -576 
     -42     -124     -773    -1589    -2048    -1889    -1092      252 
    1705     2697     3033     2795     2033      798     -658    -1993 
   -2963    -3490    -3687    -3584    -3188    -2734    -2341    -1857 
   -1113      -74     1116     2298     3400     4338     4879     4755 
    3991     2870     1659      566     -302     -897    -1135    -1106 
   -1102    -1285    -1598    -1868    -1779    -1175     -291      502 
     805      247    -1154    -3018    -4908    -6411    -7230    -7242 
   -6459    -5095    -3498    -2006     -846      -95      216      118 
    -221     -466     -281      358     1251     2253     3249     4104 
    4652     4755     4484     3948     3123     2005      723     -549 
   -1706    -2680    -3373    -3666    -3479    -2989    -2487    -2031 
   -1735    -1907    -2575    -3405    -4076    -4513    -4754    -4718 
   -4274    -3439    -2322     -934      714     2409     3784     4531 
    4523     3811     2659     1478      525      -86     -208      310 
    1413     2655     3583     4063     3959     3172     1822       69 
   -1747    -3151    -3941    -4170    -3896    -3244    -2587    -2277 
   -2271    -2411    -2554    -2393    -1729     -724      337     1159 
    1407      905     -258    -1876    -3520    -4618    -4955    -4565 
   -3397    -1513      773     2751     3545     2983     1626      -77 
   -1852    -3197    -3716    -3495    -2831    -1946    -1074     -495 
    -307     -236       94      714     1309     1613     1595     1319 
     888      492      345      570     1075     1618     2007     2073 
    1734     1093      293     -487     -993    -1125    -1050     -912 
    -620     -247     -213     -779    -1768    -2783    -3530    -3870 
   -3677    -2946    -1826     -565      527     1276     1574     1351 
     711     -301    -1683    -3149    -4310    -4948    -4869    -3892 
   -2156     -111     1830     3351     4200     4317     3722     2505 
    1055     -248    -1269    -1831    -1895    -1745    -1558    -1333 
   -1185    -1183    -1228    -1232    -1105     -767     -243      374 
     956     1340     1380      906     -206    -1667    -2802    -3194 
   -2870    -1923     -469     1134     2444     3175     3277     2869 
    2029      876     -307    -1291    -1881    -1987    -1755    -1299 
    -717     -317     -298     -624    -1354    -2509    -3813    -4854 
   -5305    -4994    -3889    -2164     -242     1411     2463     2719 
    2180     1017     -425    -1599    -2146    -2141    -1752    -1024 
    -108      593      767      467      -76     -653    -1189    -1716 
   -2215    -2448    -2092    -1155      194     1819     3344     4311 
    4517     3946     2740     1187     -432    -1896    -3058    -3912 
   -4480    -4711    -4583    -4175    -3602    -2903    -1990     -837 
     318     1147     1460     1276      809      227     -405     -926 
   -1162    -1101     -842     -477      -41      541     1319     2099 
    2671     2975     2927     2555     1959     1096       42     -969 
   -1764    -2333    -2831    -3234    -3294    -2997    -2550    -2119 
   -1848    -1857    -2171    -2610    -2816    -2646    -2213    -1583 
    -762       84      627      640      233     -307     -852    -1358 
   -1746    -2006    -2032    -1677    -1085     -430      302     1109 
    1824     2239     2342     2233     1995     1722     1441     1154 
     910      720      527      183     -450    -1341    -2319    -3184 
   -3711    -3650    -2917    -1639      -10     1615     2743     3063 
    2537     1305     -290    -1748    -2720    -3175    -3193    -2778 
   -1954     -962     -108      497      876     1101     1209     1087 
     640      -38     -837    -1685    -2401    -2886    -3120    -3018 
   -2684    -2333    -2085    -2047    -2155    -2194    -2086    -1887 
   -1571     -997     -119      901     1812     2476     3034     3627 
    4112     4283     3989     3184     2124     1076       15    -1125 
   -2209    -2979    -3334    -3332    -2992    -2382    -1677    -1165 
   -1196    -1839    -2853    -4010    -5080    -5694    -5448    -4148 
   -2004      527     2924     4653     5454     5509     5075     4329 
    3544     2914     2438     2084     1805     1639     1757     2199 
    2664     2700     2088      981     -370    -1784    -2997    -3700 
   -3841    -3578    -3142    -2904    -3086    -3542    -4017    -4357 
   -4539    -4530    -4190    -3399    -2193     -856      228      753 
     444     -771    -2553    -4443    -6055    -6947    -6778    -5596 
   -3744    -1637      231     1371     1523      791     -326    -1310 
   -1838    -1614     -581      958     2508     3565     3999     3939 
    3450     2682     1742      606     -560    -1471    -1910    -1758 
   -1019      245     1742     2897     3411     3306     2542     1209 
    -399    -1943    -2954    -3128    -2752    -2289    -1904    -1686 
   -1746    -2108    -2705    -3276    -3461    -3107    -2330    -1428 
    -751     -537     -836    -1565    -2563    -3499    -3946    -3676 
   -2663     -913     1410     3851     5894     7264     7882     7756 
    7105     6226     5197     3963     2466      619    -1663    -4245 
   -6623    -8358    -9405    -9734    -9281    -8288    -7230    -6510 
   -6285    -6515    -7085    -7739    -8156    -8130    -7542    -6248 
   -4128    -1183     2414     6297    10007    13331    16294    18828 
   20965    23017    25201    27427    29326    30279    29503    26184 
   19874    10919      432   -10114   -19341   -26290   -30630   -32557 
  -32676   -31890   -30887   -29883   -28918   -27795   -26134   -23787 
  -20926   -17864   -14880   -12063    -9306    -6299    -2503     2546 
    8859    15978    23201    29740    34839    37993    39070    38214 
   35812    32278    27676    21864    14815     6667    -2266   -11409 
  -19934   -26968   -31961   -34854   -35884   -35350   -33550   -30821 
  -27441   -23600   -19669   -16127   -13159   -10537    -7744    -4246 
     302     6092    13115    21111    29613    37772    44508    49130 
   51304    50795    47727    42630    36205    29155    21852    14132 
    5560    -4158   -14923   -26284   -37699   -48502   -57638   -64080 
  -67327   -67092   -63140   -55514   -44651   -31513   -17446    -3720 
    8673    18990    26819    32339    36222    39079    41367    43351 
   44795    45272    44561    42373    38114    31119    21021     7979 
   -6982   -21870   -34518   -43567   -48499   -49132   -45778   -39702 
  -32746   -26526   -21874   -18704   -16414   -14342   -11918    -8729 
   -4595      335     5531    10348    14453    17874    20599    22481 
   23596    24152    24135    23447    21996    19626    16355    12476 
    8374     4519     1502     -187     -372      715     2239     3021 
    2296     -320    -5292   -12613   -21512   -30991   -39769   -46244 
  -48944   -46755   -39322   -27384   -12383     3918    19461    32159 
   40649    44927    46019    45156    43428    41615    39943    37975 
   34698    28942    19982     7862    -6614   -21978   -36127   -46754 
  -52171   -51864   -46552   -37863   -27801   -18245   -10491    -5042 
   -1736      119     1337     2218     2528     1909        2    -3240 
   -7062   -10342   -12353   -12720   -11357    -8582    -4809     -299 
    4863    10842    17803    25447    32832    38566    41375    40431 
   35391    26655    15447     3450    -7778   -17082   -23559   -26635 
  -26214   -22642   -16838   -10141    -3982      252     1602      -80 
   -4077    -8925   -13075   -15495   -15587   -13342    -9531    -5164 
   -1044     2301     4568     5499     5083     3748     2033      452 
    -649    -1269    -1464    -1400    -1425    -1668    -1921    -1719 
    -618     1254     3356     5237     6572     7072     6495     4947 
    2976     1207      141      -11      547     1407     2028     1777 
     217    -2444    -5122    -6521    -6008    -3571      361     4637 
    7553     7758     5068      342    -5163    -9880   -12161   -11174 
   -7217    -1182     5909    12917    18561    21854    22384    19999 
   14671     6551    -3936   -15715   -27054   -36156   -41553   -41983 
  -36645   -25969   -11631     3981    18223    28677    33771    33432 
   28874    21817    14145     7383     2153    -1704    -4653    -6969 
   -8657    -9635    -9643    -8444    -6184    -3387     -919      338 
      23    -1761    -4547    -7640   -10629   -13256   -15002   -15391 
  -14118   -11027    -6353     -587     5599    11333    15942    19111 
   20661    20534    18800    15470    10638     4791    -1324    -6822 
  -10783   -12765   -12933   -11608    -9295    -6924    -5351    -4763 
   -4797    -5006    -5079    -4693    -3532    -1494     1280     4382 
    7269     9586    11220    12104    12239    11665    10359     8462 
    6239     3823     1361     -918    -2765    -3835    -4056    -4037 
   -4675    -6641   -10126   -14680   -19399   -23098   -24517   -22866 
  -18184   -11336    -3786     2892     7407     9131     8379     6079 
    3117      188    -2154    -3608    -4071    -3607    -2301       78 
    3687     8073    12445    15970    17744    17059    13953     9198 
    3818    -1157    -4923    -7092    -7755    -7297    -6000    -4147 
   -2135      -97     1906     3522     4482     4821     4607     3879 
    2790     1413     -370    -2591    -5034    -7252    -8575    -8302 
   -6171    -2595     1741     6022     9199    10475     9630     6789 
    2455    -2547    -7501   -11892   -15365   -17788   -19109   -19384 
  -18778   -17324   -14981   -11754    -7680    -2940     2120     7050 
   11277    14329    15919    15761    13933    11095     7896     4920 
    2887     2288     3175     5162     7563     9740    11163    11358 
   10057     7239     3181    -1522    -6084    -9698   -11855   -12554 
  -12016   -10560    -8752    -7158    -6115    -5753    -5977    -6603 
   -7551    -8829   -10297   -11535   -11995   -11207    -8929    -5296 
    -873     3547     7248     9614    10312     9658     8417     7284 
    6545     6133     5995     6021     5875     5385     4740     4194 
    3907     3911     4016     3887     3181     1675     -667    -3713 
   -7064   -10149   -12548   -13999   -14352   -13672   -12067    -9579 
   -6372    -2708     1159     4951     8398    11426    14118    16421 
   18188    19332    19640    18872    17034    14294    10897     7082 
    3069     -942    -4890    -8754   -12372   -15507   -17849   -19118 
  -19327   -18759   -17893   -17329   -17446   -18268   -19578   -20891 
  -21464   -20563   -17833   -13485    -8130    -2430     3019     7615 
   10860    12539    12733    11879    10795    10254    10556    11699 
   13449    15375    17106    18299    18573    17722    15776    12887 
    9289     5296     1235    -2540    -5600    -7638    -8700    -9057 
   -8842    -8074    -6899    -5603    -4600    -4299    -4951    -6591 
   -8906   -11343   -13334   -14369   -14161   -12583    -9585    -5526 
   -1113     3104     6811     9778    11963    13489    14415    14773 
   14515    13409    11360     8572     5370     2091    -1036    -3940 
   -6599    -8940   -10768   -11732   -11534   -10096    -7477    -4043 
    -583     1938     2621      999    -2596    -7172   -11377   -13901 
  -13978   -11504    -6990    -1436     4006     8205    10365    10397 
    8690     5837     2640     -150    -1986    -2331     -825     2344 
    6421    10220    12512    12566    10279     6039      651    -4720 
   -8760   -10660   -10474    -8642    -5809    -2903     -560     1041 
    1631      879    -1223    -4448    -8379   -12273   -15295   -16844 
  -16679   -15009   -12341    -9292    -6514    -4420    -3048    -2165 
   -1394     -315     1331     3373     5468     7623    10016    12521 
   14840    16724    17977    18572    18544    17874    16691    15322 
   14108    13127    12066    10478     8021     4492      -74    -5265 
  -10301   -14381   -17113   -18437   -18439   -17560   -16526   -15904 
  -15930   -16477   -17071   -17000   -15594   -12556    -8056    -2652 
