Origin Time       2025/03/30 10:18:00
Lat.              34.667
Long.             140.825
Depth. (km)       69
Mag.              4.9
Station Code      KNG203
Station Lat.      34.7983
Station Long.     139.6435
Station Height(m) -902
Record Time       2025/03/30 10:18:50
Sampling Freq(Hz) 100Hz
Duration Time(s)  94
Dir.              E-W
Scale Factor      2000(gal)/6182761
Max. Acc. (gal)   10.874
Last Correction   2025/03/30 10:18:50
Memo.             
[...]
     103      104      102      104      107      102       97      100 
     107      113      114      109      106      109      111      104 
     102      111      113      108      109      113      111      107 
     105      109      116      118      115      114      110      107 
     111      113      112      113      111      115      123      126 
     128      129      131      138      133      109       86       75 
      74       86      110      117       86       30      -29      -66 
     -24       84      125       58      -32     -113     -118       -1 
      57      -54     -154      -90       58      135      126      144 
     197      201      163      118      119      250      442      497 
     362      161       42       77      242      421      490      411 
     208      -65     -285     -282       13      419      646      585 
     286     -143     -482     -487     -105      460      861      876 
     619      347      155       11     -141     -315     -341     -111 
     127       42     -484    -1218    -1668    -1526     -853       -4 
     420       15     -989    -1916    -2113    -1346       72     1468 
    2196     2100     1579     1170     1224     1781     2481     2737 
    2179      843     -894    -2405    -3067    -2694    -1750    -1012 
    -954    -1412    -1709    -1271     -192      914     1471     1477 
    1511     1944     2499     2668     2137     1139      425      430 
     782      767       -6    -1167    -1703     -941      551     1351 
     433    -1999    -4681    -6179    -5705    -3419     -337     2162 
    3226     3204     3277     4143     5065     4421     1383    -2801 
   -5338    -4110      283     4604     5356     1723    -3501    -6230 
   -4522      121     4208     4998     2454    -1096    -3127    -2784 
    -966      859     1982     2663     3095     2850     1371    -1207 
   -3646    -4362    -2749      270     2868     3502     1853    -1102 
   -3790    -4680    -3008      389     3491     4409     2499    -1016 
   -3844    -4256    -2089     1189     3561     3760     1837     -941 
   -2953    -3107    -1435      720     1680      693    -1422    -2577 
   -1123     2554     6120     6723     2984    -3565    -8859    -8891 
   -2922     5531    11026    10015     3280    -4703    -8887    -7036 
   -1149     4383     6216     3968     -149    -3375    -4427    -3609 
   -1912      -81     1768     3328     3738     2464      -53    -2425 
   -3111    -1482     1848     5233     6601     4785      348    -4808 
   -8176    -7975    -4443      490     4371     5469     3960     1638 
     114     -408     -732    -1563    -2711    -3106    -1792      877 
    3165     3372     1412    -1132    -2323    -1204     1514     3774 
    3648      789    -3182    -5500    -4143      450     5380     7111 
    3973    -2325    -7697    -8646    -4790      950     4677     4300 
     792    -2685    -3411    -1081     2415     4507     3881     1368 
   -1126    -2207    -1527      437     2640     3959     3729     1849 
   -1118    -3765    -4398    -2422      954     3516     3456      677 
   -2991    -5205    -4631    -1556     2292     4772     4634     2226 
    -941    -3329    -3976    -2819     -794      947     1629      979 
    -421    -1501    -1725    -1272     -582      -42      172      237 
     607     1421     2097     2003     1348      991     1334     1733 
    1132     -895    -3493    -4686    -2738     2269     8275    12137 
   11091     4648    -4681   -12372   -14143    -8931      223     8373 
   11285     7644       57    -6844    -9266    -6039      575     6393 
    8257     5539      120    -4711    -6094    -3258     1673     4972 
    3901    -1527    -8244   -11863    -9600    -2015     7198    13075 
   12230     4983    -4854   -12028   -12433    -5687     4327    11891 
   12645     6202    -3320   -10081   -10106    -3537     5358    11077 
   10379     3993    -4131    -9578    -9993    -5955     -115     4662 
    6406     4755     1317    -1572    -2486    -1519      -22      641 
     427      461     1725     3888     5327     4478     1198    -3120 
   -6462    -7342    -5545    -1957     2094     5110     5825     3957 
     396    -3214    -5105    -4253     -963     3349     6656     6982 
    3744    -1708    -6942    -9245    -7065    -1504     4364     7287 
    5640      820    -3809    -5573    -3867     -142     3277     4896 
    4517     2821      701    -1489    -3609    -5045    -5067    -3355 
    -189     3229     5071     4203     1122    -2317    -3976    -2679 
     899     4581     6172     4688      920    -2902    -4462    -2615 
    1865     6411     8059     5148    -1559    -8866   -12512    -9694 
   -1409     7736    12232     9045      -47    -9514   -13768   -10321 
   -1245     8084    12584    10309     3240    -3903    -6592    -3404 
    2875     7223     6299      625    -6088    -9459    -7599    -2304 
    2753     4601     2525    -1646    -4860    -5094    -2433     1456 
    4430     4860     2389    -1647    -4802    -4993    -1808     3003 
    6436     6303     2824    -1747    -4943    -5453    -3371      187 
    3635     5398     4676     2110     -537    -1482     -131     2418 
    4111     3416      503    -2857    -4463    -3127      326     3780 
    5676     5695     4280     1976     -893    -3886    -6221    -7054 
   -5759    -2448     1495     3957     3504      374    -3545    -5840 
   -5159    -1924     2234     5357     5955     3837      109    -3591 
   -5520    -4595    -1338     2466     4799     4435     1807    -1376 
   -3372    -3388    -1981     -143     1778     3523     4325     3491 
     858    -2809    -5520    -5182    -1362     4145     8280     8537 
    4579    -1486    -6414    -7711    -5145     -844     2384     2854 
     865    -1594    -2477    -1181     1339     3436     4031     3236 
    1860      667      -99     -669    -1287    -1863    -2051    -1630 
    -732      219      753      662      -26    -1186    -2490    -3463 
   -3701    -2930    -1133     1265     3380     4249     3578     2028 
     584      -38      272      937     1287     1136      708      276 
    -115     -511     -808     -925     -874     -496      377     1487 
    2286     2294     1270     -595    -2567    -3636    -3215    -1722 
    -346     -204    -1380    -2645    -2501     -629     1792     3140 
    2798     1567      696      682      955      469    -1206    -3089 
   -3396    -1237     2566     6002     6927     4575      194    -3992 
   -5752    -3959      361     4889     7435     6836     3678     -178 
   -2769    -2906     -910     1510     2318      345    -3874    -8125 
   -9559    -6567     -315     5764     8197     5657      -77    -5254 
   -6694    -3762     1377     5334     5787     2696    -2026    -5783 
   -6645    -4229      220     4688     7226     6637     3236    -1343 
   -5085    -6459    -5165    -2129     1255     3586     3886     2351 
     277    -1042    -1066     -128      749      640     -414    -1538 
   -1828     -920      853     2614     3402     2807     1283     -216 
    -730      304     2544     4581     4748     2251    -2315    -6942 
   -9043    -7214    -2189     3575     6987     6043     1319    -4201 
   -6930    -4888      866     6805     9282     6798      883    -5043 
   -7987    -6897    -2920     1514     4188     4115     1954     -485 
   -1429     -107     2711     5018     4949     2046    -2637    -7048 
   -8868    -6795    -1447     5007     9808    10765     7424     1212 
   -5345    -9518    -9625    -6128    -1227     2617     3911     2909 
    1304      592      948     1543     1306     -246    -2590    -4637 
   -5297    -3914     -772     2873     5338     5358     2791    -1312 
   -4980    -6069    -3812      400     4062     5156     3470      767 
    -895     -863       -1      221     -884    -2311    -2529    -1226 
     770     2412     2988     2554     1822     1432     1460     1578 
    1515     1244      865      496      332      648     1445     2208 
    2177      917    -1200    -3101    -3743    -2831     -996      644 
    1083       12    -1845    -3383    -4068    -3964    -3335    -2464 
   -1529     -490      749     2056     3126     3784     3886     3171 
    1678      -58    -1364    -1668     -757      943     2559     3165 
    2206       -3    -2299    -3331    -2458     -289     1846     2894 
    2653     1797     1081      572     -154    -1439    -2938    -3602 
   -2678     -347     2421     4303     4416     2690     -394    -3672 
   -5522    -4952    -2276     1121     3560     3958     2350      -93 
   -1652    -1160     1087     3355     3789     1768    -1943    -5639 
   -7472    -6490    -3038     1492     5065     5976     4167     1196 
   -1167    -2036    -1634     -898     -617     -879    -1242    -1160 
    -429      572     1212     1182      737      264      -96     -209 
      84      736     1701     2990     4258     4762     3969     2087 
     -19    -1310    -1233     -142      983     1234      276    -1542 
   -3428    -4605    -4633    -3347     -863     2149     4468     4907 
    3049     -487    -4325    -6797    -6781    -4538    -1379     1313 
    2670     2667     2004     1465     1242      833     -405    -2496 
   -4510    -5087    -3355      394     4532     6975     6610     3826 
       4    -3232    -4683    -4016    -1686     1460     4376     5971 
    5586     3408      369    -2197    -3039    -1690     1181     4082 
    5414     4399     1555    -1889    -4617    -5581    -4595    -2367 
     175     2167     2891     2111      235    -1866    -3239    -3345 
   -2429    -1298     -683     -815    -1253    -1289     -669      306 
    1064     1218     1009      959     1253     1784     2333     2506 
    1946      610    -1123    -2436    -2463     -852     1911     4467 
    5269     3811      970    -1893    -3698    -3924    -2857    -1324 
    -200     -149    -1230    -2783    -3927    -3942    -2445      340 
    3437     5463     5458     3503      622    -1651    -1863      393 
    3980     6925     7526     5088      422    -4273    -6655    -5794 
   -2657      562     1732       61    -3512    -6902    -8037    -6030 
   -1519     3755     7661     8745     6937     3249     -712    -3178 
   -3062     -599     2848     5421     5687     3593      445    -2097 
   -2908    -2061     -900     -819    -2145    -4170    -5689    -5692 
   -3954    -1183     1413     2901     3000     2021      677     -335 
    -623     -134      791     1637     2096     2003     1168     -344 
   -1935    -2676    -1743      895     3960     5464     4024     -139 
   -5139    -8417    -8276    -5091     -935     2042     2837     2039 
    1193     1341     2338     3259     3063     1533     -340    -1300 
    -929      100      649      269     -457     -644      279     2176 
    4052     4733     3764     1669     -438    -1647    -1804    -1465 
   -1385    -1762    -2054    -1642     -362     1396     2769     2914 
    1634     -535    -2487    -2939    -1379     1458     4124     5207 
    4082     1213    -2177    -4444    -4346    -2150      562     2079 
    1504     -766    -3379    -5009    -5066    -3747    -1694      328 
    1730     2289     1991      895     -690    -1967    -1828      266 
    3645     6662     7522     5409      983    -3906    -6855    -6170 
   -2105     3175     6755     6566     2669    -2748    -6757    -7375 
   -4646     -421     2994     3999     2365     -639    -3219    -4262 
   -3762    -2465    -1058      207     1269     2144     2784     2860 
    1949       42    -2141    -3434    -2893     -420     3083     6151 
    7346     5999     2647    -1261    -3853    -3739    -1032     2871 
    6164     7287     5653     1995    -2212    -5439    -6612    -5643 
   -3213     -210     2394     3748     3500     1876     -434    -2433 
   -3224    -2544     -789     1422     3252     3706     2323     -541 
   -3888    -6265    -6595    -4923    -2186      192      981       29 
   -1717    -2838    -2247       70     3070     5225     5362     3355 
      81    -2955    -4116    -2637      841     4801     7562     7985 
    6054     2694     -742    -2835    -2817    -1138      817     1568 
     427    -2099    -4605    -5612    -4445    -1584     1647     3782 
    3927     2189     -526    -3121    -4639    -4583    -3209    -1209 
     651     1705     1752     1124      434      276      815     1654 
    2055     1427     -133    -1786    -2513    -1832     -134     1533 
    2124     1423      202     -569     -408      510     1398     1459 
     612     -475     -707      741     3576     6483     8052     7473 
    4905     1581     -826    -1222      273     2240     2815     1175 
   -2005    -5205    -6768    -5888    -3193     -239     1187      -22 
   -3370    -7058    -9169    -8674    -5816    -1878     1474     3124 
    3003     1939     1069     1097     2098     3712     5217     5951 
    5689     4504     2702      769     -860    -1849    -1943    -1356 
   -1077    -2299    -5502   -10007   -14058   -15710   -13981    -9382 
   -3739      704     2655     2473     1658     1729     3270     5679 
    7662     7882     5610     1347    -3181    -5957    -5788    -2830 
    1735     6424     9953    11721    12044    11531    10555     9204 
    7206     4298      669    -3085    -5988    -7021    -5818    -2657 
    1702     5854     8504     9472     9482     9517    10226    11160 
   10701     7048     -562   -11149   -22129   -30344   -33543   -31182 
  -24181   -14567    -5017     2322     6630     8034     7210     5241 
    3071     1228      162      519     2952     7548    13416    18808 
   21659    20661    16144     9774     3542    -1265    -4548    -6810 
   -8464    -9696   -10209    -9458    -7464    -4840    -2246     -143 
    1342     2443     3432     4207     4177     2626     -724    -5378 
  -10107   -13300   -13621   -10689    -5457       73     3880     4847 
    3188      382    -1769    -2387    -1789     -658      894     3311 
    6640     9903    11308     9266     3973    -1968    -4922    -2716 
    3602    10223    13079    10560     4416    -1730    -5128    -5881 
   -6600    -9901   -15962   -22336   -25776   -24349   -18490   -10506 
   -3059     2314     5679     8064    10717    14635    19992    25945 
   30649    31385    25872    14050    -1497   -16397   -26029   -27808 
  -22857   -15015    -8327    -5196    -5224    -5691    -3783     1674 
    9374    15902    17855    13941     5954    -1428    -2849     4044 
   16315    27050    29460    20701     3195   -16331   -30036   -33402 
  -27418   -16971    -7631    -2862    -2467    -3439    -2551     1487 
    7205    11552    12293     9399     4851     1236      -66      387 
     920      138    -2042    -4140    -4084     -898     4445     9391 
   10836     6904    -1425   -10391   -15200   -12832    -4299     5846 
   12140    11304     4409    -4073    -9482    -9444    -4944      613 
    4111     4379     2015    -1452    -4581    -6462    -6621    -4811 
    -851     4825    10673    14805    15970    13721     8302      795 
   -6939   -12874   -15599   -14907   -11892    -8367    -5862    -4705 
   -4117    -3250    -1650      788     3690     6502     8807    10023 
    9295     6233     1738    -2119    -3061       14     5863    11278 
   13023     9644     2065    -6913   -13956   -16812   -14978    -9358 
   -1935     4807     8965     9759     7428     2971    -2237    -6635 
   -8753    -7832    -4125     1094     5773     8103     7659     5361 
    2550      440     -332     -139      110     -218    -1129    -1987 
   -2175    -1623     -425     1153     2466     2968     2513     1300 
     -77     -786     -373      904     2565     4286     5687     6250 
    5534     3394      157    -3391    -6425    -8569    -9639    -9142 
   -6632    -2563     1503     3564     2377    -1527    -5926    -8266 
   -7405    -4212     -632     1654     2093     1380      626      360 
     313     -105    -1087    -2165    -2636    -1943      253     3885 
    8152    11578    12566    10337     5771     1170    -1146     -399 
    1912     2865      399    -4910   -10364   -13094   -11720    -6962 
    -960     4029     6640     6820     5509     3712     1793     -332 
   -2605    -4532    -5182    -3632      204     4922     8021     7362 
    2380    -5306   -12062   -14088    -9857    -1040     8215    13240 
   11788     5700     -618    -3328    -1411     2832     5430     3809 
   -1306    -6587    -8346    -4843     2634    10675    15763    16079 
   12096     5694     -817    -5308    -6703    -5187    -1614     2749 
    6335     7753     6560     3582      474    -1095     -463     1500 
    3008     2526     -289    -4466    -8442   -11052   -12274   -12960 
  -13793   -14700   -14941   -13729   -10923    -7165    -3578    -1262 
    -829    -2029    -3504    -3418     -767     4063     9527    13357 
   13647    10092     4353     -565    -2009      480     4699     7031 
    5102     -198    -5364    -6488    -1712     7256    16109    20450 
   18075     9960     -563    -9466   -13652   -12251    -6863     -632 
    3255     2910    -1448    -7368   -11399   -11215    -6942     -918 
    3591     4186      894    -3845    -7040    -7042    -4159     -241 
    2573     3250     2267      981      590     1505     3463     5941 
    8582    11300    13887    15638    15460    12385     6220    -1840 
   -9316   -13681   -13783   -10259    -4883      173     3042     3218 
    1857      779     1187     2880     4594     5186     4471     3114 
    1667      -89    -2649    -5950    -9162   -10945   -10077    -6386 
   -1158     3426     5255     3290    -1704    -7404   -11075   -10703 
   -5841     1853     8964    11943     9186     1971    -6104   -10716 
   -9120    -1800     7967    16003    19300    17411    12039     5626 
     412    -2391    -2936    -2161    -1391    -1810    -3732    -6650 
   -9515   -11100   -10789    -8823    -5866    -2802     -639        3 
    -667    -1811    -2308    -1182     1690     5308     8083     8730 
    6920     3210    -1272    -5295    -8002    -8801    -7395    -4178 
    -236     2858     3513     1044    -3510    -7644    -8843    -6051 
    -161     6327    10435    10292     6121     -125    -5698    -7929 
   -5387     1249     9381    15480    16802    12905     5512    -2607 
   -8712   -11189   -10022    -6496    -2403      791     2300     2191 
    1281      609      999     2732     5295     7538     8293     7082 
    4373     1190    -1441    -2750    -2423     -820     1095     2109 
    1371     -982    -3777    -5504    -5349    -3905    -2816    -3567 
   -6351    -9556   -10404    -6811      856     9585    15300    15299 
    9868     2059    -3799    -4185     1524    10434    17630    19089 
   14019     4779    -4678   -10707   -11868    -9321    -5454    -2387 
   -1307    -2256    -4328    -6630    -8802   -10533   -11261   -10275 
   -7130    -2448     1985     4174     3076     -564    -4520    -6508 
   -5229     -805     5130    10219    12574    11450     7318     1756 
   -2823    -4156    -1475     3826     8769    10379     7349      854 
   -6092   -10555   -11387    -9439    -6290    -2878      670     4344 
    7551     9241     8730     6097     2173    -1718    -4494    -5810 
