Origin Time       2025/03/30 10:18:00
Lat.              34.667
Long.             140.825
Depth. (km)       69
Mag.              4.9
Station Code      KNG204
Station Lat.      34.8931
Station Long.     139.5711
Station Height(m) -933
Record Time       2025/03/30 10:18:52
Sampling Freq(Hz) 100Hz
Duration Time(s)  86
Dir.              N-S
Scale Factor      2000(gal)/6182761
Max. Acc. (gal)   4.965
Last Correction   2025/03/30 10:18:52
Memo.             
[...]
    3732     4070     3000     1698      298    -1175    -1669     -948 
    -855    -2428    -3979    -3905    -2544     -352     2558     4957 
    5234     3148     -330    -3477    -3950     -826     3316     4843 
    3284      695    -1725    -3470    -3458    -2034    -1627    -2685 
   -2235      659     2423     1109     -346      393     2009     2999 
    3107     2093      469     -322      186     1220     2141     2444 
    1277    -1283    -3045    -1826      986     1381    -1774    -4777 
   -4246    -1430      818     2073     2850     2530     1230      780 
    1705     1682     -798    -3452    -3252     -867      414     -504 
   -1590    -1383     -583      -15      240      148      471     2307 
    4038     2719     -579    -1593      797     2861     1276    -2520 
   -4804    -4063    -1360     1760     4493     5797     3808     -709 
   -2974     -174     4265     5350     2546    -1186    -3758    -4679 
   -3547     -792     1087     -296    -3573    -4626    -2089     1189 
    2648     2333     1260      363      460     1821     3170     2469 
     304     -305     1168     2067     1132     -136     -321      116 
    -279    -1594    -1918     -690     -198    -1375    -2199    -1899 
   -1779    -1706     -448     1497     2582     2400     1931     2020 
    2285     2475     3110     3529     1953    -1563    -4266    -3676 
    -929      433     -676    -1767     -993      531     1222     1139 
     565     -947    -2468    -1456     1974     3677     1106    -2823 
   -3758    -1248     1699     2738     1904      103    -1694    -2071 
    -161     2745     3916     1827    -2246    -5053    -4243     -860 
    2075     3358     3758     3055      343    -2847    -3169     -179 
    2620     2753     1429      538      264       35      -27      739 
    1928     1565    -1111    -3459    -2709      -18     1242     -102 
   -2090    -2455     -982      918     2098     2792     3567     3786 
    2406     -499    -3666    -5134    -3810    -1089      823     1354 
     902     -397    -2008    -2501    -1306     -147     -411     -679 
     642     2666     3663     3406     2777     2051      959     -242 
   -1002     -946       31     1129     1013      -76     -324      681 
    1392     1059      378      -76      122     1203     1942      699 
   -1763    -2557     -489     1859     1411    -1427    -3755    -3275 
     -55     2958     2617     -281    -2105    -1428       86      954 
     992      256     -802    -1039      279     2267     2774      888 
   -1356    -1593     -272      598      -43    -1918    -3668    -3677 
   -1697      906     2336     1765      418      -28      -82     -770 
   -1163     -240     1605     3439     3802     1582    -1700    -2708 
    -289     2937     3923     2570      487    -1325    -2016     -744 
    1804     3727     3842     2117     -589    -2347    -1798     -453 
    -771    -2148    -1948      142     1676      785    -1688    -3263 
   -2813    -1729    -1335     -874      685     2674     3539     2728 
    1458     1145     1172      -21    -2148    -3546    -3389    -1964 
      55     1989     3281     3328     1880      -87    -1035     -339 
    1339     2386     1773      412     -474     -855     -890     -380 
     604     1278      703     -600     -891      -24       21    -1651 
   -3060    -2348     -630      540     1434     1822      824     -285 
     639     2742     2855      211    -2197    -1841      209     1349 
     883      131       12      277      494      470      388      509 
     338     -673    -1781    -1775     -608      500      419     -397 
    -671     -317        1      211      495      795      947     1017 
    1363     1790     1341     -343    -2339    -3321    -2569     -419 
    1923     2974     1766    -1088    -3306    -2889     -424     1364 
     844     -597     -292     2296     4509     3840     1064    -1108 
    -992      563     1194       66    -1305    -1655    -1323     -976 
    -714     -169      875     1760     1822     1524     1457     1524 
    1353      544     -601    -1023     -359      761     1837     2879 
    3522     2698      400    -1424    -1357     -691    -1648    -3799 
   -4124    -1575     1056     1138     -600    -1832    -1703    -1016 
    -422     -176     -492     -816     -446      196      347      -40 
    -504     -590     -100      948     1981     1901      842      687 
    2345     4229     4444     2689     -282    -3078    -4057    -3215 
   -2081    -1091       71      695      555      998     2547     3389 
    1759    -1227    -2688    -1424      843     1429      -87    -1451 
   -1116      156     1223     1525      848      -32      -76      161 
    -317     -753       54     1326     1238      -16     -306      955 
    1891     1334      250     -609    -1508    -2159    -2237    -2205 
   -1895     -496     1472     2335     1723     1131     1622     2516 
    2640     1663       66    -1495    -2323    -1901     -677      212 
     192     -364     -420      695     1967     1843      458     -974 
   -1495     -423     1733     2934     1865     -615    -2705    -3265 
   -2375     -985      118      991     1834     2241     1913     1428 
    1313     1058       70    -1450    -2923    -3355    -1882      324 
     539    -1805    -3649    -2169     1215     2968     2393     1787 
    2361     2692     1818     1193     1793     1968      208    -2186 
   -2817    -1229      866     1626      668     -856    -1439     -585 
     939     1732      956     -471    -1021     -865    -1097    -1388 
    -393     1769     2910     1397    -1395    -2417     -708     1501 
    2126     1581      766     -288    -1009     -376     1317     2222 
     853    -1760    -3091    -2319     -696      550      855      -26 
   -1256     -988      999     2264     1132     -789    -1345     -744 
     -94      436      535     -654    -2433    -2552     -545     1543 
    2201     1935     1813     2003     2059     2155     2775     3146 
    1939     -266    -1329     -511      792     1185      308    -1523 
   -2808    -2009     -357     -147     -901     -881     -378     -656 
   -1391    -1084      416     1351      687     -200      380     1811 
    2333     2057     2193     2160      797     -859    -1138     -469 
    -397    -1169    -1719    -1337     -398      397      878     1167 
     997      154     -537      128     1714     1924     -398    -3080 
   -3307    -1513     -425    -1089    -1997    -1661     -184     1538 
    2661     2610     1522      243     -601     -889     -428      722 
    1504      798     -854    -1689    -1092     -333     -479     -799 
    -190      979     1562     1158      128    -1016    -1704    -1427 
    -442      255      361      609     1175     1287      861      725 
     920      657      -59     -392      128     1146     1733     1635 
    1985     3058     2985      923    -1053    -1084        8      584 
     472      356       66     -984    -1999    -1586     -151      708 
     520       84      101      414      481      394      674     1244 
    1558     1412      965      377     -165     -331       37      630 
    1097     1406     1361      729      250      767     1485     1115 
     -80    -1031    -1519    -1928    -2166    -1883    -1422    -1452 
   -1841    -1844    -1020      121      105    -1551    -2821    -1814 
     328     1037     -397    -2082    -1940     -220     1471     2108 
    1168     -904    -2402    -2456    -1715     -827     -107      320 
     659      833      726      947     1701     2204     2195     2317 
    3032     4019     4279     3043      811     -755     -409     1015 
    1591      923      -17     -814    -1173     -340     1125     1316 
    -186    -1733    -2000    -1320     -794     -844    -1022    -1002 
    -782     -327       68     -121     -823    -1198     -438     1157 
    2262     2083     1231      549      -46     -798    -1191     -742 
      28      199     -282     -652     -680     -822     -871     -189 
     854     1353     1313     1479     2024     2390     2528     2927 
    3180     2250      399     -881    -1026     -777     -763    -1024 
   -1290    -1251     -947     -561      -64      375      206     -603 
   -1072     -430      610      643     -608    -1905    -1884     -533 
     939     1485      954      -46     -482       37      494      -91 
   -1032    -1019       71     1242     1457      558     -441     -362 
     717     1468     1051      286      286      575     -239    -2103 
   -3052    -1865      179     1303     1348     1128     1088      869 
      51     -727     -546      -21     -380    -1073     -659      616 
    1528     1860     1996     2020     1804     1228      400     -515 
   -1347    -1530     -900     -599    -1330    -1818     -810      794 
    1115     -252    -1605    -1248      252     1123      854      304 
     285      679      711      186       47     1037     2118     1728 
     551      519     1429     1533      590     -215     -277      111 
     530      622      148     -811    -1626    -1252      454     1901 
    1614      280     -299      347     1254     1779     2080     2084 
    1424      579      375      475       13     -944    -1542    -1268 
    -710     -869    -1805    -2521    -2190    -1442    -1552    -2109 
   -1807    -1137    -1281    -1780    -1752    -1470    -1352    -1037 
    -118      964     1452     1476     1710     2118     2076     1568 
    1515     2454     3421     3380     2921     2983     3122     2510 
    1323      221     -681    -1481    -1712    -1068     -326     -249 
    -419      -14      992     1775     1677      990      418      -26 
   -1204    -3720    -6392    -6933    -4875    -2339    -1175     -893 
    -155     1157     2258     2592     2006      920      362      670 
     845      337      -50       71      -34     -590     -619      391 
    1300     1006      385     1034     2698     3460     2271      129 
   -1181     -893       48      292     -245     -940    -1225     -314 
    1486     2056      445    -1337    -1175      616     2404     3156 
    2810     1781      548     -517    -1209    -1535    -1807    -2289 
   -2493    -1801     -817     -557     -656     -166      608      658 
     -37     -465      -45      437     -198    -1738    -2515    -1531 
     247     1416     1814     2081     2457     2592     2382     2157 
    1795      816     -478    -1067     -588      238     1050     2221 
    2991     1832     -650    -1956    -1018      570      676     -774 
   -1841    -1439     -705     -303      934     2918     3586     2387 
     947      610     1578     3160     3850     2454     -300    -2190 
   -2196    -1729    -2277    -3391    -3966    -3770    -3093    -2285 
   -1691    -1334     -882      -70      893     1304      898      474 
     569      579       84     -451     -736     -941     -898     -273 
     592     1148     1527     1931     2075     1929     1737     1280 
     644      936     2445     3436     2661     1468     1742     3190 
    4047     3430     1785       13     -971    -1045    -1138    -1617 
   -1890    -1941    -2306    -3068    -3904    -4206    -3217    -1011 
     834      346    -2516    -5373    -6310    -5942    -5556    -5209 
   -4433    -3214    -1912     -785      203      918      959      410 
      -6      264     1365     3087     4708     5717     6315     6556 
    6109     5249     4857     4901     4189     2458      966      396 
     131     -472    -1559    -2830    -3556    -3256    -2228    -1081 
    -223       55     -281     -451      582     2575     4053     4103 
    3253     2456     1802      892      158      235      156    -1625 
   -4866    -8198   -10749   -11653    -9883    -5738    -1113     2117 
    3342     3236     3153     4287     6811     9609    11291    11400 
   10134     7643     4356      931    -2327    -5032    -6631    -7143 
   -6619    -4544    -1007     2534     4627     5373     5760     5779 
    4511     2005     -318    -1188     -948    -1208    -2650    -4161 
   -4811    -4996    -5072    -4442    -2679     -987    -1010    -1997 
   -1501      952     3150     2953      278    -3288    -5856    -6222 
   -4487    -2074     -190     1524     3898     6774     9438    11159 
   10784     7599     2991     -609    -2558    -4151    -6210    -8188 
   -9412    -9548    -8193    -5561    -2878     -482     3162     8768 
   13902    14990    10787     3054    -4914    -9870   -10580    -8905 
   -7566    -7295    -7317    -6794    -4884    -1185     3592     7767 
    9535     8801     7589     7348     7200     5867     4118     3809 
    4915     5725     5742     5519     4198      237    -5718   -10822 
  -13049   -12834   -11579   -10128    -8564    -6021    -1539     4189 
    9029    11161     9632     4315    -2839    -7682    -7368    -3119 
    1717     4720     5211     4107     3385     4536     7021     8137 
    5370     -294    -4886    -6039    -5239    -4665    -4064    -2453 
    -662     -234    -1112    -1662     -936      193      951     2008 
    3873     5177     3689     -496    -4244    -5210    -4273    -3105 
   -1963     -916     -652     -976     -192     3121     8033    11575 
   11623     8767     5133     2485     1250      894     1446     3388 
    5578     5592     2833     -770    -3508    -5776    -8734   -11874 
  -13088   -11756   -10132   -10155   -10814    -9872    -6118      101 
    7023    12577    15484    15213    11984     6848     1085    -4155 
   -7694    -8832    -8134    -6836    -5381    -3143       61     2701 
    3319     2925     3139     3032      470    -4215    -7819    -7615 
   -4150     -113     2842     4957     6758     7947     7897     6777 
    5426     4001     2410     1729     2845     4948     6930     8258 
    7931     4800     -776    -6717   -10702   -11668    -9909    -6227 
   -1988      832     1224     -129    -2116    -3846    -4321    -2598 
    1186     4790     5442     3212      527    -1219    -1912    -1219 
    1087     4288     6865     7769     7264     5843     3407       -6 
   -3678    -6245    -6433    -4694    -3329    -3923    -5197    -4048 
     970     7223    10140     7911     2869    -1372    -2774    -1483 
     738     1975     1902     1461     1146      657     -564    -2911 
   -5505    -6368    -5124    -3900    -4460    -5773    -5467    -3313 
   -1590    -1636    -2097    -1455     -595    -1244    -2824    -2926 
    -567     2851     5744     7817     9261    10075    10208     9372 
    7044     3340     -373    -2519    -3033    -2958    -2482    -1127 
     461      996      700     1067     2449     3582     3498     2846 
    2925     3261     1687    -1961    -4564    -3866    -1989    -2593 
   -5519    -7193    -5857    -3177     -942     1055     3170     4195 
    3083      385    -3148    -7177   -10684   -12163   -11035    -7975 
   -3694     1572     7125    11761    14473    14482    11714     7720 
    4914     4227     4227     3081      485    -2735    -5674    -7593 
   -7957    -6575    -3915    -1277       49     -207    -1385    -2566 
   -3448    -4606    -6260    -7591    -7748    -6394    -3606       37 
    3779     6739     7798     6739     4827     3681     4184     5599 
    5758     3119    -1951    -7539   -11088   -11373    -9425    -6384 
   -2316     2164     5391     6390     6126     6430     7971     9898 
   10705     9164     5386      950    -2184    -2876    -1552      139 
     773      361      -39      184      483       54     -941    -1455 
    -890      440     2466     5525     8846    10434     8931     5232 
    1950      410     -688    -2480    -4261    -5650    -7607   -10158 
  -11463   -10358    -8286    -7246    -6649    -4182      576     5263 
    7460     7195     6320     6013     6022     5752     4643     2194 
   -1255    -4530    -6919    -8655   -10004   -10705   -10443    -9261 
   -7684    -6714    -6698    -6227    -3639      698     4852     7336 
    7783     6865     6394     8025    11054    12690    11026     6895 
    2649       -7     -953    -1042     -813     -439     -456    -1259 
   -2413    -3081    -2907    -2463    -2038     -660     2112     4826 
    5828     4877     2977     1573     1263     1048     -390    -2696 
   -3767    -2066     1509     4765     6167     5397     3525     2211 
    1967     2114     1830      556    -1652    -4133    -6344    -7948 
   -8512    -8003    -7160    -6543    -6039    -5795    -5959    -5487 
   -3187      679     4986     8482     9787     8521     6187     4678 
    4172     3263     1085    -1503    -3106    -3494    -3735    -4858 
   -6482    -6998    -5246    -1953      823     1938     2148     2733 
    4168     6041     7632     8404     8043     6577     4451     1915 
   -1056    -3793    -5167    -5130    -4423    -3135    -1186      666 
    1259      -27    -2392    -3773    -2881     -693      863     1226 
    1402     2058     2622     2569     2262     2177     2463     3131 
    3854     4050     3253     1027    -2534    -5923    -7622    -8274 
   -9088    -9265    -7496    -4072     -151     3118     4789     4729 
    3723     2566     1484      629      283      350      488      733 
    1232     1580     1539     1934     3472     5466     6597     6333 
    5580     5705     6504     6237     4144     1583      354      566 
     470    -1393    -4399    -6776    -7568    -7089    -5983    -4559 
   -3188    -2540    -2662    -2619    -1894    -1015     -272      712 
    2009     3035     3277     2978     2672     2255     1311      132 
    -610    -1050    -1661    -2110    -2162    -2615    -3940    -5049 
   -4494    -2323      -40     1053      863     -144    -1594    -2920 
   -3587    -3724    -3732    -3366    -1814      906     3301     4023 
    3302     2208     1416      773     -275    -1706    -2676    -2543 
   -1689     -887     -267      579     1790     3051     4336     6071 
    7903     8503     7471     6040     5204     4605     3766     2978 
    2459     1795      876      505     1101     1616      801    -1126 
   -2735    -2795    -1154     1320     3252     3618     2614     1512 
    1528     2622     3165     1626    -1506    -4638    -7021    -8762 
   -9965   -10586   -10779   -10733   -10162    -8475    -5662    -2935 
   -1795    -2098    -2117     -703     1668     4066     6368     8879 
   11269    12641    12536    11358     9680     7506     4635     1463 
   -1272    -3249    -4424    -4794    -4610    -4301    -4299    -4803 
   -5142    -4067    -1354     1679     3698     4574     4728     4233 
    3157     2214     2117     2520     2629     2321     1843     1100 
    -300    -2505    -5052    -7202    -8602    -9523   -10275   -10543 
   -9750    -8022    -6137    -4550    -3113    -1355     1254     4460 
    6949     7841     7599     6958     6102     5199     4527     3921 
    3148     2669     2913     3240     2720     1433      392      416 
    1174     1579     1133      465      574     1590     2275     1373 
    -653    -2211    -2469    -1745     -784     -303     -551    -1118 
   -1631    -2310    -3076    -2936    -1331      864     2344     2600 
    2117     1678     1337      500     -857    -1853    -1836    -1091 
    -192      749     1867     2895     3365     3515     3972     4370 
