Origin Time       2025/03/30 10:18:00
Lat.              34.667
Long.             140.825
Depth. (km)       69
Mag.              4.9
Station Code      KNG206
Station Lat.      35.0966
Station Long.     139.3778
Station Height(m) -1130
Record Time       2025/03/30 10:18:56
Sampling Freq(Hz) 100Hz
Duration Time(s)  98
Dir.              U-D
Scale Factor      2000(gal)/6182761
Max. Acc. (gal)   2.551
Last Correction   2025/03/30 10:18:56
Memo.             
[...]
   -1262     -778     -244      159      464      708      833      689 
     145     -653    -1200    -1126     -599      -46      251      240 
      43     -187     -490     -924    -1357    -1616    -1596    -1373 
   -1155     -940     -639     -419     -477     -703     -776     -524 
     -88      236      214     -159     -607     -769     -438      272 
     939     1145      787       54     -779    -1433    -1779    -1994 
   -2205    -2236    -1921    -1248     -404      234      453      329 
      43     -208     -233      136      777     1145      934      444 
     109      130      350      348     -164    -1095    -2041    -2628 
   -2757    -2387    -1593     -867     -716    -1086    -1462    -1380 
    -865     -363     -175     -130       90      442      598      519 
     454      436      358      194      -65     -399     -791    -1272 
   -1721    -1813    -1441     -922     -554     -367     -346     -467 
    -611     -618     -444     -210      -25       87       67      -82 
    -152       34      372      562      450      176      -86     -258 
    -341     -436     -602     -866    -1292    -1829    -2224    -2208 
   -1749    -1065     -493     -266     -309     -397     -347      -69 
     365      717      851      856      798      676      545      328 
    -164     -859    -1369    -1404    -1101     -807     -768    -1028 
   -1384    -1599    -1608    -1392    -1026     -725     -590     -605 
    -788    -1051    -1173    -1025     -718     -483     -449     -549 
    -558     -252      359      924      987      434     -382     -943 
    -970     -673     -472     -448     -483     -572     -668     -665 
    -588     -582     -719     -835     -741     -531     -432     -476 
    -577     -750     -978    -1012     -643     -110      128      -70 
    -447     -626     -452      -82      347      732      846      616 
     187     -237     -402     -343     -408     -713    -1002    -1014 
    -701     -184      266      275     -330    -1199    -1778    -1895 
   -1732    -1527    -1507    -1718    -1995    -2180    -2168    -1874 
   -1288     -501      287      814      970     1034     1400     1915 
    1986     1323      193     -810    -1217    -1102     -951    -1070 
   -1316    -1427    -1290     -894     -441     -296     -550     -832 
    -680      -52      616      805      354     -431    -1102    -1328 
   -1049     -546      -96      178      197       82       37       24 
     -86     -255     -362     -417     -576     -939    -1356    -1589 
   -1578    -1444    -1380    -1485    -1609    -1463     -923     -218 
     314      561      600      552      474      303        4     -345 
    -582     -620     -614     -664     -653     -640     -789    -1031 
   -1217    -1309    -1359    -1404    -1375    -1233    -1024     -780 
    -551     -428     -442     -544     -632     -564     -246      248 
     684      840      763      693      747      839      770      427 
     -57     -529     -939    -1194    -1241    -1121     -878     -652 
    -614     -782    -1095    -1396    -1453    -1255    -1076    -1164 
   -1456    -1607    -1299     -539      307      746      534      -39 
    -401     -263      201      605      747      785      822      717 
     422       -5     -492     -866     -973     -876     -758     -662 
    -522     -354     -230     -216     -369     -709    -1144    -1476 
   -1570    -1437    -1198    -1027    -1064    -1284    -1487    -1524 
   -1416    -1236    -1041     -852     -651     -394      -37      383 
     723      883      900      782      456        0     -372     -555 
    -620     -724     -891    -1004    -1063    -1133    -1158    -1046 
    -764     -401     -209     -378     -764    -1043    -1077     -986 
    -973    -1117    -1272    -1229     -936     -512     -108      195 
     319      205      -25     -175     -161      -19       24     -172 
    -368     -426     -484     -537     -468     -275      -53       45 
    -118     -459     -685     -678     -594     -480     -340     -352 
    -618     -981    -1170    -1021     -668     -425     -469     -679 
    -774     -634     -441     -442     -636     -779     -650     -261 
     207      523      494      220       14       14      188      412 
     458      281        3     -311     -558     -628     -617     -672 
    -767     -845     -949    -1168    -1591    -2167    -2611    -2658 
   -2353    -1983    -1766    -1655    -1402     -859     -176      370 
     593      529      452      509      541      502      534      620 
     625      479      271      140       41     -167     -429     -549 
    -471     -338     -273     -345     -608     -931    -1089    -1054 
    -945     -855     -815     -838     -898     -913     -906    -1027 
   -1267    -1423    -1400    -1252    -1023     -744     -461     -184 
     109      369      560      758      953     1000      882      689 
     436      155      -82     -227     -175       82      257      107 
    -296     -823    -1375    -1867    -2330    -2655    -2580    -2093 
   -1473    -1049     -939     -941     -870     -769     -745     -799 
    -820     -730     -575     -393     -109      273      563      655 
     688      799      901      826      476     -127     -730     -974 
    -766     -358       -2      168      -12     -515    -1035    -1359 
   -1494    -1467    -1318    -1199    -1230    -1314    -1257     -995 
    -622     -248       28       79      -97     -233      -82      174 
     149     -199     -617     -872     -879     -743     -603     -514 
    -487     -434     -252       -1      187      274      349      483 
     581      523      299      -77     -530     -874    -1005    -1027 
   -1085    -1252    -1587    -2006    -2253    -2222    -1987    -1619 
   -1157     -693     -375     -259     -245     -143      153      500 
     708      764      681      424      113      -60      -76      -90 
    -297     -681     -983    -1082    -1029     -832     -626     -582 
    -676     -852     -990     -913     -614     -212      132      260 
     190      162      292      314      -34     -677    -1329    -1735 
   -1874    -1799    -1484    -1118     -931     -869     -829     -792 
    -733     -618     -406     -104      161      254      203      162 
     130      -34     -281     -393     -278      -34      219      434 
     479      175     -470    -1163    -1495    -1432    -1318    -1293 
   -1236    -1007     -513       85      386      177     -308     -687 
    -873     -974     -962     -756     -466     -300     -308     -428 
    -610     -795     -901     -900     -838     -758     -638     -449 
    -208      -41     -113     -400     -696     -890    -1030    -1065 
    -945     -851     -885     -881     -609      -30      551      770 
     574      193     -118     -182       66      400      485      359 
     285      308      363      343      -16     -756    -1463    -1672 
   -1326     -777     -422     -457     -751     -974     -988     -866 
    -752     -766     -865     -957    -1065    -1236    -1422    -1517 
   -1443    -1209     -908     -630     -439     -412     -547     -700 
    -687     -444     -117       21     -177     -524     -652     -471 
    -163      169      389      357      245      192       93      -72 
    -223     -274     -193     -141     -275     -570     -953    -1299 
   -1439    -1311    -1008     -733     -613     -579     -499     -362 
    -270     -250     -257     -343     -591     -916    -1067     -856 
    -303      375      806      729      281     -164     -385     -430 
    -500     -720     -918     -905     -767     -647     -629     -724 
    -819     -853     -868     -845     -772     -713     -697     -651 
    -493     -291     -196     -245     -384     -585     -850    -1085 
   -1095     -819     -454     -270     -327     -441     -457     -431 
    -529     -793    -1035    -1026     -720     -299      -58     -198 
    -645    -1024    -1018     -705     -301       37      143       55 
     -21      -53     -198     -476     -638     -519     -244      -18 
     -35     -333     -631     -718     -734     -791     -840     -877 
    -816     -571     -227       93      248      206      169      268 
     358      271      -27     -481     -848     -862     -573     -222 
     -15     -145     -576     -980    -1167    -1214    -1170    -1088 
   -1078    -1093    -1039     -928     -770     -650     -706     -898 
   -1049    -1036     -862     -714     -839    -1238    -1574    -1516 
   -1082     -583     -368     -537     -863    -1070    -1071     -931 
    -723     -417       41      527      754      559       95     -325 
    -478     -336      -99       85      277      407      384      363 
     471      720     1011     1058      712      107     -606    -1280 
   -1705    -1753    -1472    -1071     -839     -912    -1132    -1257 
   -1207    -1123    -1146    -1227    -1294    -1299    -1118     -715 
    -233      174      413      450      372      269       71     -239 
    -542     -771     -918     -989     -978     -885     -754     -598 
    -465     -440     -482     -480     -376     -228     -162     -147 
     -22      199      369      476      596      659      527      188 
    -283     -733     -942     -872     -695     -603     -773    -1192 
   -1527    -1526    -1349    -1247    -1218    -1062     -634      -36 
     401      426      171      -60     -228     -438     -648     -828 
    -956     -908     -727     -610     -629     -763     -937    -1012 
    -898     -612     -271        1      149      183      207      320 
     401      265      -64     -468     -858    -1185    -1539    -1917 
   -2096    -1995    -1731    -1451    -1330    -1388    -1437    -1286 
    -876     -357       -6       10     -248     -515     -520     -314 
     -82      162      380      573      842     1025      895      529 
      60     -413     -735     -849     -872     -883     -801     -579 
    -276       38      192       19     -389     -772     -940     -850 
    -604     -355     -192      -71      115      327      401      336 
     275      290      337      243     -181     -867    -1534    -1992 
   -2257    -2325    -2093    -1633    -1151     -775     -571     -536 
    -596     -621     -461     -123      223      430      485      448 
     282      -91     -582    -1025    -1332    -1472    -1440    -1308 
   -1275    -1454    -1605    -1332     -513      495     1171     1289 
     969      452      -97     -538     -734     -749     -774     -841 
    -837     -736     -551     -183      322      638      476     -111 
    -784    -1200    -1185     -830     -381      -39      -27     -488 
   -1231    -1930    -2433    -2579    -2198    -1548    -1116    -1072 
   -1272    -1382    -1098     -402      464     1136     1425     1461 
    1366     1144      916      831      866      940      957      769 
     275     -504    -1386    -2114    -2576    -2766    -2667    -2346 
   -1897    -1341     -790     -331       69      320      323      226 
     202      239      294      391      494      552      575      543 
     431      201     -168     -548     -762     -777     -645     -353 
      65      350      253     -173     -700    -1142    -1414    -1479 
   -1317     -966     -541     -178       36       52     -142     -481 
    -801    -1023    -1263    -1569    -1832    -1958    -1947    -1958 
   -2154    -2435    -2580    -2495    -2230    -1901    -1522     -951 
    -121      848     1714     2223     2376     2474     2802     3400 
    3966     4071     3564     2600     1437      275     -824    -1793 
   -2555    -3170    -3683    -3987    -4080    -4110    -4152    -4211 
   -4246    -4121    -3716    -2988    -2014    -1050     -352       15 
     164      253      420      808     1384     1924     2311     2491 
    2373     1918     1168      302     -453    -1010    -1369    -1542 
   -1529    -1285     -931     -790     -898     -893     -415      580 
    1749     2678     3228     3393     3181     2683     1933      894 
    -290    -1367    -2222    -2876    -3404    -3765    -3860    -3763 
   -3574    -3255    -2742    -2037    -1270     -660     -323     -130 
     248     1059     2231     3415     4144     4059     3189     1833 
     193    -1479    -2745    -3382    -3658    -3927    -4164    -4133 
   -3741    -3119    -2524    -2145    -1998    -1991    -2033    -2059 
   -1913    -1341     -221     1251     2672     3759     4509     4983 
    5097     4791     4106     3095     1887      662     -443    -1326 
   -1895    -2085    -2013    -2019    -2427    -3200    -3886    -4140 
   -4030    -3754    -3403    -2934    -2335    -1797    -1515    -1411 
   -1217     -790     -234      309      725      912      930      986 
    1213     1619     2062     2307     2248     1886     1347      938 
     868     1051     1203     1071      665      163     -305     -640 
    -804     -939    -1236    -1699    -2181    -2517    -2605    -2553 
   -2605    -2841    -3164    -3489    -3773    -4014    -4223    -4259 
   -3767    -2525     -805      845     2009     2540     2632     2589 
    2466     2281     2274     2650     3363     4061     4312     4050 
    3493     2653     1315     -556    -2614    -4295    -5203    -5333 
   -4952    -4511    -4499    -5037    -5787    -6271    -6163    -5383 
   -4042    -2428     -916      315     1290     2053     2731     3549 
    4544     5596     6573     7238     7387     7041     6325     5346 
    4146     2702     1058     -578    -1940    -2926    -3673    -4343 
   -4838    -5069    -5351    -6006    -6919    -7661    -7731    -6794 
   -4932    -2741     -973       45      471      631      827     1253 
    1884     2573     3224     3657     3596     2923     1752      367 
    -874    -1704    -1981    -1711     -998       41     1160     1992 
    2292     2015     1273      332     -495    -1093    -1587    -2169 
   -2933    -3712    -4237    -4427    -4330    -4013    -3486    -2733 
   -1886    -1073     -291      387      752      699      457      406 
     664     1146     1833     2732     3746     4591     4949     4704 
    3902     2759     1643      774       76     -598    -1248    -1773 
   -2175    -2549    -2862    -2958    -2693    -2001    -1016      -60 
     501      321     -707    -2238    -3715    -4764    -5110    -4617 
   -3592    -2511    -1538     -704     -120      148      138      100 
     404     1048     1652     2010     2191     2270     2254     2075 
    1684     1118      404     -451    -1358    -2188    -2967    -3814 
   -4650    -5310    -5736    -5816    -5418    -4534    -3220    -1699 
    -333      608     1010      980      867      967     1384     2157 
    3152     4035     4593     4810     4705     4257     3380     2103 
     802      -50     -369     -461     -586     -828    -1204    -1668 
   -2165    -2572    -2609    -2205    -1652    -1218     -989     -960 
   -1074    -1270    -1516    -1805    -2140    -2465    -2715    -2931 
   -3196    -3494    -3647    -3345    -2400     -932      785     2408 
    3520     3878     3620     3050     2506     2322     2619     3229 
    3693     3479     2480     1082     -253    -1260    -1831    -1988 
   -1964    -2040    -2309    -2737    -3194    -3514    -3595    -3318 
   -2614    -1630     -665      -27      129      -75     -326     -378 
    -313     -410     -701    -1034    -1302    -1359    -1209    -1112 
   -1221    -1449    -1610    -1593    -1468    -1294     -987     -588 
    -375     -508     -809     -958     -746     -192      535     1209 
    1635     1780     1721     1490     1114      660      239       26 
      76      178       37     -451    -1067    -1544    -1968    -2545 
   -3188    -3685    -3884    -3687    -3154    -2394    -1446     -403 
     580     1348     1835     2143     2398     2629     2879     3181 
    3453     3646     3798     3936     4036     3925     3354     2264 
     815     -688    -1838    -2437    -2753    -3180    -3771    -4341 
   -4770    -5021    -5131    -5112    -4856    -4351    -3754    -3263 
   -3020    -2982    -2892    -2469    -1660     -650      339     1122 
    1515     1475     1194      931      812      825      914     1089 
    1357     1606     1696     1529     1110      640      317      130 
     -91     -485    -1072    -1836    -2733    -3583    -4149    -4397 
   -4479    -4493    -4409    -4089    -3429    -2525    -1573     -655 
     263     1152     1886     2452     2972     3482     3907     4200 
    4362     4465     4582     4580     4284     3782     3310     2875 
    2228     1209      -87    -1361    -2208    -2433    -2262    -2031 
   -1908    -1982    -2254    -2637    -3084    -3560    -3951    -4093 
   -3944    -3633    -3243    -2735    -2090    -1379     -780     -431 
    -245        7      416      832     1050      996      717      327 
     -30     -268     -384     -479     -732    -1126    -1424    -1551 
   -1644    -1800    -1998    -2139    -2159    -2089    -1944    -1690 
   -1323     -877     -370      198      750     1125     1209      983 
     504       46       27      565     1387     2117     2543     2734 
    2854     2950     2947     2739     2312     1753     1166      563 
    -118     -827    -1376    -1689    -1926    -2294    -2864    -3615 
   -4422    -5100    -5543    -5682    -5467    -4887    -3933    -2756 
   -1727    -1122     -939     -981     -942     -579       77      774 
    1266     1539     1779     2060     2281     2425     2548     2621 
    2502     2034     1254      475      103      301      832     1275 
    1318      895      192     -500     -975    -1189    -1264    -1321 
   -1321    -1282    -1344    -1470    -1493    -1331    -1037     -811 
    -847    -1185    -1707    -2190    -2415    -2255    -1817    -1456 
   -1433    -1666    -1864    -1822    -1595    -1334    -1083     -830 
    -611     -472     -337        3      672     1526     2264     2692 
    2771     2527     2026     1317      533      -86     -450     -630 
    -759    -1026    -1446    -1849    -2201    -2550    -2865    -3149 
   -3357    -3332    -3027    -2565    -2074    -1601    -1138     -650 
    -103      465      911     1178     1428     1756     2021     2100 
    1970     1641     1204      724      197     -367     -892    -1292 
   -1573    -1772    -1804    -1612    -1316    -1053     -903     -898 
    -941     -928     -870     -804     -722     -578     -309       57 
     351      414      266       61     -113     -202      -70      295 
     709     1053     1297     1379     1320     1228     1122     1006 
     975     1024     1013      787      250     -537    -1394    -2114 
   -2541    -2629    -2384    -1948    -1599    -1509    -1695    -2027 
   -2269    -2313    -2140    -1740    -1220     -774     -534     -497 
    -528     -438     -130      328      760     1008     1076     1044 
     955      881      840      721      450       26     -481     -921 
   -1201    -1415    -1738    -2246    -2931    -3720    -4426    -4882 
   -4974    -4645    -4013    -3279    -2580    -1986    -1519    -1155 
    -805     -310      425     1318     2184     2897     3468     3918 
    4192     4252     4100     3804     3492     3207     2887     2487 
