Origin Time       2025/03/30 10:18:00
Lat.              34.667
Long.             140.825
Depth. (km)       69
Mag.              4.9
Station Code      KNG202
Station Lat.      34.7396
Station Long.     139.8393
Station Height(m) -2339
Record Time       2025/03/30 10:18:48
Sampling Freq(Hz) 100Hz
Duration Time(s)  100
Dir.              U-D
Scale Factor      2000(gal)/6182761
Max. Acc. (gal)   8.350
Last Correction   2025/03/30 10:18:48
Memo.             
[...]
     364      363      357      354      355      355      360      361 
     355      356      356      358      364      362      362      367 
     364      358      356      359      360      355      356      364 
     362      355      356      357      355      361      363      358 
     359      362      358      355      360      361      357      363 
     369      363      355      353      358      360      353      351 
     358      355      355      355      351      355      353      347 
     351      342      329      330      330      324      316      301 
     283      256      230      213      179      131       81       22 
     -34      -84     -127     -108      -29      -14     -120     -297 
    -488     -586     -466      -91      479     1011     1146      714 
     -32     -484     -112      994     2237     3137     3567     3431 
    2613     1390      542      865     2141     2808     1888      502 
     -92     -435    -1022     -631      845      456    -2807    -4410 
   -1173     2641     1907    -1689    -3427    -2465     -816      871 
    2353     1843     -996    -2965    -1408     1860     3020     1206 
   -1059    -1575     -436     1348     2605     2132      557     -208 
     -97     -328     -957    -1304    -1223     -879     -317      501 
    2009     3956     4136     1566    -1106    -1299      570     2091 
    1222    -1115    -2008     -531     1367     1846     1348     1195 
    2039     3701     4656     3174     -781    -4827    -4986    -1150 
    1176     -391    -1905     -743     1097     1266      177     -347 
     307      873     -146    -2030    -2475    -1182      413     1912 
    2404      780     -397      862     1412     -305    -1109      449 
    1699      576     -979     -281     2044     3778     3404      783 
   -1582     -968     1179     1733     1079      745      -67    -1577 
   -2282    -1585      390     3108     4187     1918    -1415    -2626 
   -1625       28     1245     1136     -329    -1562     -637     2597 
    5046     3703      793     -246     -725    -2195    -2994    -2624 
   -1561      862     3284     2979      244    -1999    -1437     1249 
    2823     1518     -881    -2100    -1661     -281      439     -111 
    -317      184       19       29     1585     2851     2038      578 
      63      226      476      638      792      880      890     1262 
    1656     1407     1236     1617     1588      639     -440     -994 
    -958      101     1470      727    -2001    -3594    -2771     -610 
    1555     1962     -220    -2786    -2750     -434     1130     1045 
    1326     2160     1747      609      195      295     1006     2149 
    2299     1575      969       78    -1014    -1029      291     1696 
    1728     -166    -2682    -2946      173     3355     2998      497 
    -929     -601      869     2242     2026      479    -1143    -1980 
   -1342      419     1717     1550      304     -848     -819      201 
     845      513       37      220      762      953      957     1091 
     818      270      196     -508    -2887    -3668      589     6085 
    6802     3565      481    -1411    -2142    -1162      296      103 
   -1388    -1790     -394      730      572      474      705      644 
     340     -399    -1350    -1713    -1273     -517     -221     -426 
    -733    -1035     -400     1816     3593     2804      701     -270 
      24      255     -344    -1822    -2897    -1331     2602     5386 
    4727     2166      483      551     1205     1031     -120    -1090 
    -518     1595     3048     1934      -62     -194      825     1096 
     851      452     -110     -425    -1241    -2672    -2031     1357 
    3216     1084     -913      990     3384     1535    -2376    -3218 
   -1041      498     -253    -1881    -1860      217     1830     1622 
    1618     3217     4271     2813      326     -769     -455     -624 
   -1709    -2151    -1499     -409     1194     2446     1341    -1295 
   -2229     -913      353      203     -158      828     1630      544 
    -136     1217     2388     1809      407     -399     -106      607 
     873       60    -1823    -2756     -776     2321     3317     1939 
     242      113      905     -204    -3047    -3836     -943     2927 
    4085     2499     1058      101    -1201     -879     1778     3437 
    1890     -323     -343      -85    -2552    -5825    -5385     -906 
    3190     3976     2457      537     -236     1091     3614     4434 
    1610    -1815    -1708      -45     -475    -1658     -839     1855 
    4304     5072     4286     1988     -984    -1838      -64      710 
   -1273    -2874    -1495      937     1073     -769     -641     2450 
    3907      899    -3705    -6492    -6592    -4428     -875     2432 
    3613     3075     3050     3819     3463     1163    -1023     -851 
     821     1819     1713     1339     1160     1038      759      -89 
   -1560    -2573    -2538    -1517      741     2492     1412     -927 
   -1956    -1676     -497     1094     1714      924     -146      177 
    2473     4691     4407     2114        9    -1035    -2029    -3299 
   -3068     -540     2372     3478     2201     -212    -2063    -2968 
   -3058    -2334    -1444     -483     1449     3763     4654     3776 
    2034      706      568      447     -515    -1083     -583      840 
    2755     3147     1452      409     1016     1281      695     -133 
   -1514    -2551    -1979     -785      162     1291     1776      352 
   -1481     -917     1304     1525    -1050    -3369    -3038     -996 
     259      261      704     1829     2140     1559     1175     1168 
    1107      355    -1056    -1417     -112     1128     1466     1405 
    1136     1160     2341     3855     3526     1445     -104     -671 
   -1490    -2227    -2149    -2215    -2327     -983     1258     2802 
    3214     2559     1444      552     -397    -1364    -1328     -255 
     538      516      438      672      811     1222     2712     4138 
    3239      158    -2380    -2797    -2372    -2456    -2688    -2259 
    -857      609      799      280       42     -590    -1515    -1610 
   -1180     -409     1103     1939     1476     1579     2385     2619 
    2598     2342     1441      437     -399     -496      707     1902 
    1847     1032      576     1434     3727     6103     6479     4122 
     155    -3900    -6132    -5037    -2151     -569    -1181    -2569 
   -3042    -2288     -845      659      856     -157     -284      526 
     823      704      948     1618     1798      902      -40        8 
    1064     2290     2204      974      183     -353    -1610    -2702 
   -2222     -788      344     1341     1849     1363     1472     2647 
    3106     2221      -33    -3269    -4623    -1980     2260     4233 
    3229     1371      515     1075     2458     3055     1713      -42 
    -322       -4     -384     -723      236     2046     2730     1508 
    -275    -1199    -1501    -2854    -5166    -5699    -3825    -1875 
    -761      275     1203     1528     1484     1726     2201     2091 
    1206      196     -581    -1026    -1004     -472      500     1410 
    1897     2560     3383     2865      978       42     1044     2471 
    2946     2706     2691     2884     2212      421    -1227    -1751 
   -1868    -2556    -2915    -1924    -1201    -2004    -2194     -174 
    1936     1664     -386    -1850    -1530     -273      586      926 
    1067      807      527     1158     2459     3072     2312      963 
     803     2806     4866     4259     1715     -677    -2157    -2653 
   -2663    -2393    -1496     -780    -1187    -2087    -2621    -2251 
    -567     1214      986     -916    -1761     -532      690      488 
    -200     -619     -653      509     3022     4588     3370     1491 
    1439     2400     2814     2068      462     -507     -113      972 
    2141     2508     1505     -104    -1628    -2479    -1956    -1050 
   -1520    -2885    -2755     -603     1028      732       26      -97 
    -249     -472      165     1495     2266     2663     3329     3252 
    2153     1518     1710     1794     1523     1226      915      259 
    -679     -983     -249     -309    -2694    -4821    -3725     -812 
    1345     1859     1118      624      996     1675     2210     1637 
     124     -501      307     1980     3390     2822      774     -539 
    -662     -519     -450      -97      493      684      452      -47 
   -1384    -3274    -3941    -2736    -1288    -1034    -1403     -923 
     910     3242     4738     4241     1883      -23      837     3701 
    5484     4277     1291     -690     -126     1976     2696      502 
   -2380    -3271    -2292    -1244    -1467    -2026    -1095      341 
     146    -1156    -1772    -1316     -838    -1226    -1614     -766 
     647     1206      517     -455       95     2507     4693     4737 
    2947      870     -240      -20      452        7     -534      -63 
     746      641     -429    -1285    -1186     -721     -564     -448 
     284     1276     1525     1744     2953     3454     1774     -671 
   -2264    -2196     -226     1973     2392     1772     2102     2848 
    1889     -605    -2681    -3504    -3467    -3123    -2094      672 
    4165     5433     3498      225    -1971    -1664      716     3307 
    4188     2589      -75    -1543    -1557    -1723    -2893    -3866 
   -2884       92     3096     3946     2237     -713    -3357    -4392 
   -3432    -1745     -596       98      731     1644     3228     4810 
    5005     3761     2291     1388     1074     1292     2192     3239 
    2919     1029     -459      -22     1317      874    -2059    -4616 
   -4545    -3214    -2517    -2499    -2625    -2094     -263     1573 
    1798     1104      609      291      466     1448     2363     2319 
    1496      895     1464     3021     4648     5430     4375     1930 
     311      227       37    -1375    -2880    -2394     -288      395 
   -1544    -4210    -5494    -4626    -2521    -1002     -880    -1145 
    -226     1723     3025     3200     3170     3078     2422     1722 
    1883     2674     3104     2561     1086     -650    -1768    -2179 
   -2114    -1176      359      918     -197    -1728    -2007     -702 
     920     1734     2151     2661     2589     1385     -375    -1752 
   -2222    -1577     -173      894      984      911     1736     2573 
    1599     -529    -1282      191     2140     2428     1383     1116 
    2085     2841     2523     1702     1055      451       64      270 
     113     -870    -1313     -921     -601     -258      -15     -699 
   -2054    -3146    -3730    -4143    -4588    -4786    -4251    -2736 
    -684     1009     2252     3521     4373     4220     3693     3316 
    2476     1053      100       -6     -192    -1071    -2079    -2318 
   -1759    -1470    -1786    -1265      734     2672     3251     2866 
    2673     3022     2990     2161     1330      986     1040     1394 
    1843     1963     1485     1082     1316     1076     -286    -1583 
   -1980    -1301      292     1152      175     -926     -685     -398 
    -933     -572     1519     3440     3440     1475     -997    -1657 
     -68     1791     2690     2849     2692     2592     2039      -78 
   -3144    -4764    -3634     -976     1011     1214      396     -163 
    -565    -1332    -2015    -2183    -1677     -151     1588     1516 
    -775    -3154    -3533    -1932      220     1864     2507     1904 
    1032     1309     2427     3285     3403     2345      430     -827 
    -787     -370     -415     -935    -1633    -1992    -1263      527 
    2189     2713     2156     1274      560     -383    -1599    -1623 
     575     3441     4693     4172     3286     2877     2360      757 
   -1243    -1881    -1160     -584     -713    -1174    -1923    -3093 
   -4451    -5313    -4717    -2355     1025     4167     5510     4355 
    2098      915     1614     3101     3902     3767     3236     2701 
    2057      744    -1089    -2089    -1412       96      984      763 
     102     -188     -172     -808    -2975    -6109    -7867    -6496 
   -2978      297     1923     2149     1892     2189     4097     7115 
    8869     8263     6937     6306     5462     3092     -202    -2557 
   -3140    -2832    -2666    -2580    -2530    -3492    -5787    -7781 
   -7330    -4136     -370     1636     1593      601     -637    -2507 
   -5184    -7460    -8185    -7272    -4601     -245     4272     6727 
    6215     3727      842    -1002     -660     1731     5318     9426 
   12193    11452     7690     3503      983      310      -49    -1296 
   -2491    -2055     -154     1638     1866      455     -915     -455 
    2345     6762    10650    11069     6729      -25    -5026    -6858 
   -7685    -9010    -9136    -6008     -821     2949     3455     1540 
   -1547    -5112    -8248    -9653    -7779    -2085     5272    10691 
   11873     8812     3857      365     -153     1230     2401     1857 
     330      355     2958     6293     7813     5814      242    -6294 
  -10555   -11757   -10819    -8615    -6155    -4352    -3144    -1699 
     544     3416     6745     9985    11067     8747     5222     3252 
    2969     3568     4846     6315     7377     8066     8487     7897 
    5415     1734    -1912    -5616    -9624   -13471   -16737   -18871 
  -19577   -19669   -19620   -18402   -15079    -9983    -4409     -266 
    1317     1379     1901     4384     9769    17069    23269    26156 
   25047    19950    12334     4423    -2597    -7446    -8303    -5539 
   -1817     1036     2617     2514      743    -1437    -2419    -1619 
    -100      822     1560     3060     4722     5134     4022     2488 
     992     -828    -1786     -246     2477     3439     2398     1726 
    2861     5131     6351     4697     1563       85      727     1089 
    -851    -4518    -7485    -8950   -10975   -14547   -17102   -15807 
  -10486    -2939     4341     9646    13173    15762    17219    16937 
   14603     9520     1545    -7234   -13808   -16326   -14546   -10174 
   -5645    -1329     3330     6393     5258      585    -4734    -8232 
   -8649    -6922    -5389    -4677    -3437     -895     1850     3092 
    2691     1644      356    -1128    -2179    -1411     2275     7919 
   12820    15012    14271    11162     6559     1537    -2924    -5857 
   -6880    -6647    -5552    -3778    -2533    -2728    -3412    -2928 
    -465     3922     9378    14167    17074    18124    16978    13065 
    7401     1793    -2905    -6316    -8017    -8153    -7182    -5578 
   -4188    -3066    -1206      675      474    -1160    -1546     -655 
    -834    -2722    -4421    -4274    -2797    -1794    -2491    -4895 
   -7770    -9057    -7788    -4858    -1636      564      764     -238 
     -87     2126     4385     4212     1232    -2373    -3107      142 
    4215     5665     4679     3864     4893     7036     8519     8376 
    6884     4939     3228     2384     3097     4896     5960     5189 
    3560     2483     1588     -424    -3869    -7779   -10242    -9839 
   -6957    -3165     -522     -191    -1387    -3358    -5778    -7099 
   -6006    -3546    -2191    -3351    -6234    -8905    -9957    -9078 
   -6259    -1698     3351     7167     8856     9002     9044     9294 
    9144     9218    10635    13043    15303    16786    16555    13235 
    7773     3651     2530     2659     1913     -440    -3975    -7209 
   -8910    -9576   -10365   -11359   -11686   -10651    -8504    -6261 
   -4678    -3736    -3141    -2531    -1488     -235      409       72 
   -1117    -2775    -3919    -3729    -2167      471     3173     4314 
    2971     -315    -3299    -3420     -529     3325     6634     8949 
    9908     9518     8159     6107     3763     1464     -476    -1353 
   -1053     -578     -543     -633     -606     -372      402     1786 
    3278     4393     4728     3612     1032    -1911    -4146    -4885 
   -3539     -671     2234     4227     4750     2779    -1877    -7036 
   -9725    -9126    -6719    -3798     -519     3048     6432     8774 
    9101     7165     3997     1344      331      847     1791     1647 
    -274    -3089    -5267    -6068    -5736    -4520    -2645     -777 
     385      292    -1249    -3469    -5055    -5317    -4451    -2709 
     149     4368     9177    12463    12537    10161     7506     5661 
    4064     1892     -466    -1765    -1771    -1697    -2313    -2825 
   -2337     -996      842     2824     3925     3327     1372    -1044 
   -2970    -3881    -4188    -4394    -4149    -2811     -686      758 
     245    -1931    -4016    -4354    -2962    -1032      221      -83 
   -1587    -3135    -4614    -6384    -7966    -8677    -8379    -7182 
   -5087    -2392      137     2134     3783     5287     6930     8749 
   10129    10593    10375     9720     8628     7576     7012     6140 
    4161     1983      744       20    -1096    -2238    -2093     -348 
    1888     3436     3709     3203     3169     3689     3693     2765 
    1484      547      -55     -906    -2129    -2974    -2723    -1716 
    -940     -795     -834     -580     -348     -635    -1092    -1459 
   -2373    -3873    -4902    -4779    -3784    -2685    -1885    -1054 
      19     1127     2212     3272     3857     3417     2339     1792 
    2390     3718     5027     5678     5309     4230     3169     2765 
    2962     2499      744    -1285    -3031    -4658    -5887    -6404 
   -6097    -5155    -4008    -2760    -1863    -2130    -3125    -3824 
   -4519    -6113    -8488   -10291    -9833    -6774    -3087    -1045 
    -577      -52     1263     2939     4719     6614     7869     7551 
    6181     5330     5762     6849     7751     8341     8511     7632 
    5451     2781      967      674     1246     1761     2256     2921 
    3158     2671     2311     2702     3050     2550     1505       22 
   -1895    -3232    -3379    -3127    -3401    -4220    -5028    -5414 
   -4923    -3318    -1596     -828     -619     -204      635     1654 
    2047     1507      821      424      -94    -1035    -2378    -3974 
   -5311    -5728    -5172    -4293    -3560    -2574     -899      901 
    2011     2198     1615     1201     2403     5246     8117     9692 
    9566     7684     4538     1368     -902    -2527    -4028    -5278 
   -6022    -6303    -6119    -5256    -3636    -1657      126     1753 
    3719     5706     6627     6232     5220     4207     3478     3050 
    2714     2178     1443     1066     1644     2945     3835     3511 
    2239      558     -961    -1751    -1976    -2024    -1831    -1657 
   -2107    -3127    -3954    -3952    -3195    -2196    -1430    -1204 
   -1325    -1430    -1759    -2451    -2818    -2430    -1692     -737 
     776     2442     3172     2549     1271      463      831     2324 
    4239     5545     5978     6385     6929     6630     5255     3594 
    2288     1361      223    -1489    -3290    -4604    -4830    -3457 
   -1401     -164       14     -758    -2390    -3731    -3850    -2976 
   -1176     1393     3686     4859     5029     4726     4201     3503 
    3043     3331     4430     5947     6967     6505     4602     2174 
    -127    -1966    -2951    -3034    -2802    -3205    -4880    -7369 
