Origin Time       2025/03/30 10:18:00
Lat.              34.667
Long.             140.825
Depth. (km)       69
Mag.              4.9
Station Code      KNG205
Station Lat.      34.9413
Station Long.     139.4213
Station Height(m) -1486
Record Time       2025/03/30 10:18:52
Sampling Freq(Hz) 100Hz
Duration Time(s)  97
Dir.              E-W
Scale Factor      2000(gal)/6182761
Max. Acc. (gal)   15.890
Last Correction   2025/03/30 10:18:52
Memo.             
[...]
   11628     8802     4446      105    -3005    -4458    -4260    -2772 
    -789      992     2216     2562     1804      284    -1087    -1482 
    -668     1036     3123     5050     6265     6363     5042     2325 
    -902    -3160    -3318    -1440     1100     2617     2286      519 
   -1687    -3661    -4993    -5400    -4998    -3889    -2005      296 
    2199     3002     2553     1092     -969    -2752    -3245    -2268 
    -398     1768     3595     4407     4077     3092     2059     1336 
     790       75     -771    -1380    -1487    -1188     -883    -1129 
   -2422    -4507    -6246    -6563    -4936    -1502     2609     5834 
    7277     6962     5376     3101      751    -1188    -2430    -2670 
   -1789      -82     1903     3255     3069     1363    -1091    -3298 
   -4207    -3477    -1922     -642     -122      -89       68      659 
    1479     2041     1862      703    -1049    -2311    -2134     -727 
     732     1296      856     -141     -975     -954       62     1324 
    1630      373    -1932    -3974    -4350    -2401     1256     5068 
    7542     7896     6178     3246      488    -1018    -1065       77 
    1808     3164     3516     2697      594    -2309    -4767    -5926 
   -5855    -4988    -3741    -2480    -1392     -490      311     1022 
    1242      502     -917    -2048    -2080     -952      721     2031 
    2159      961     -903    -2652    -3760    -3996    -3506    -2513 
   -1196      275     1930     3686     5177     6103     6124     4831 
    2262     -833    -3301    -4296    -3679    -1733     1028     3951 
    6621     8918    10397    10151     7695     3360    -2082    -7295 
  -10463   -10555    -8126    -4474     -726     2184     3512     3014 
    1124    -1472    -4375    -7142    -8966    -9008    -6736    -2382 
    2743     6707     7979     6372     3003     -571    -2892    -3115 
   -1627      359     1918     2774     2989     2693     1994     1170 
     574      201      112      618     1434     1797     1363      343 
    -788    -1675    -2351    -2975    -3481    -3618    -2996    -1194 
    1594     4180     5283     4654     2988     1072     -539    -1484 
   -1811    -1882    -1966    -1969    -1422      183     2877     5845 
    7807     7799     5430     1037    -4092    -8231   -10174    -9755 
   -7600    -4314     -117     4453     7918     8775     6709     2358 
   -3010    -7257    -8373    -6127    -1988     2395     5868     7685 
    7900     7061     5396     3057      380    -2313    -4548    -5736 
   -5583    -4314    -2599    -1224     -735    -1161    -1888    -2163 
   -1839    -1249     -526      291      891     1122     1137      950 
     613      452      701     1373     2274     2953     3125     2891 
    2238      911    -1000    -2804    -3761    -3517    -2066      209 
    2495     3982     4462     4191     3354     2045      338    -1678 
   -3624    -4959    -5399    -4919    -3677    -1954      -72     1506 
    2319     2335     1960     1550     1114      570     -103     -786 
   -1011     -292     1359     3463     5224     5739     4560     2141 
    -440    -2375    -3506    -3836    -3482    -2828    -2178    -1663 
   -1323    -1118    -1033    -1039    -1140    -1381    -1677    -1994 
   -2431    -2890    -3118    -2930    -2050     -126     2756     5670 
    7371     7292     5697     3288      973     -489     -713      241 
    1655     2587     2627     2006     1225      617      105     -634 
   -1787    -3222    -4550    -5154    -4521    -2782     -532     1526 
    2632     2549     1763      818      174      189      702     1153 
    1127      549     -326    -1128    -1661    -1930    -2054    -2104 
   -1867     -965      703     2620     3820     3601     2033     -136 
   -1960    -2882    -3041    -2957    -3002    -3156    -3027    -2077 
    -116     2397     4579     5597     5084     3312     1140     -356 
    -527      577     2225     3190     2718     1084     -942    -2544 
   -3261    -3294    -2948    -2075     -546     1150     2215     2194 
    1330      406      101      414      706      446     -173     -641 
    -599       44      795      966      557      -18     -720    -1646 
   -2476    -2765    -2315    -1013     1002     3012     4204     4261 
    3417     2296     1560     1364     1147      155    -1847    -4334 
   -6256    -6507    -4607    -1221     2187     4224     4221     2618 
     701     -348      -80     1150     2430     3017     2689     1432 
    -596    -2964    -5257    -7160    -8255    -8115    -6578    -3843 
    -353     3156     5590     6005     4242     1049    -2055    -3395 
   -2316      467     3631     5926     6608     5799     4110     1978 
    -210    -1942    -2905    -3128    -2736    -1627      287     2534 
    4323     4993     4199     2147     -530    -3090    -4681    -4442 
   -2136     1356     4506     6088     5756     3827      891    -2084 
   -4158    -5254    -5888    -6273    -6197    -5513    -4164    -2050 
     616     3202     5078     5884     5504     4045     1964     -198 
   -2198    -3706    -4106    -3277    -1813     -308      943     1795 
    2351     2894     3296     2937     1488     -723    -3027    -4643 
   -4938    -3821    -1763      593     2674     3939     4056     3280 
    2306     1696     1574     1655     1577     1092      -24    -1547 
   -2713    -3070    -2606    -1249      783     2601     3241     2377 
     403    -1831    -3383    -3719    -2919    -1335      616     2300 
    3133     3057     2379     1346      159     -923    -1763    -2296 
   -2378    -1809     -434     1527     3239     3801     3114     1810 
     491     -499    -1147    -1866    -2914    -3988    -4603    -4539 
   -3881    -2679     -840     1482     3671     4924     4710     3087 
     732    -1384    -2519    -2207     -294     2607     5349     7023 
    7158     5642     2752     -837    -4308    -6993    -8359    -8068 
   -6121    -2960      433     2828     3500     2735     1329     -208 
   -1541    -2252    -2252    -1815    -1094       -3     1442     2853 
    3621     3381     2293      974      149      159      838     1649 
    1900     1241      -68    -1422    -2129    -1732     -396     1208 
    2475     3225     3561     3490     2875     1694       80    -1719 
   -3353    -4427    -4506    -3311    -1099     1175     2449     2278 
     833    -1355    -3455    -4483    -3944    -2297     -431      724 
     502     -690    -1795    -2396    -2587    -2273    -1480     -502 
     642     1927     2906     3398     3583     3438     3038     2678 
    2439     2343     2397     2338     1968     1346      515     -461 
   -1319    -1714    -1631    -1471    -1448    -1417    -1341    -1235 
    -948     -399      301      983     1498     1629     1180      227 
    -974    -2264    -3373    -3908    -3862    -3444    -2696    -1723 
    -669      451     1585     2524     2999     2898     2431     2082 
    2079     2071     1807     1406      767     -165     -915     -942 
    -237      680     1228     1108      443     -252     -596     -675 
    -745     -888     -843     -348      513     1483     2217     2408 
    1985     1041      -67     -877    -1266    -1334    -1176     -879 
    -453       50      409      296     -520    -1878    -3347    -4472 
   -4656    -3385     -883     1792     3451     3529     2389      910 
    -298     -972     -929     -323      275      385      -92     -900 
   -1503    -1325      -50     2157     4550     6223     6600     5412 
    2790     -479    -3300    -4879    -5065    -4322    -3244    -2182 
   -1296     -587      -17      411      807     1252     1633     1691 
    1142       -1    -1368    -2451    -2725    -2003     -510     1386 
    3189     4554     5430     5651     5069     3889     2298      289 
   -1942    -3905    -5050    -5082    -4196    -2888    -1707    -1066 
    -973    -1112    -1096     -607      309     1172     1577     1536 
    1299     1226     1551     1979     2148     2180     2190     1983 
    1547     1144      946      817      489      -90     -739    -1254 
   -1532    -1733    -2060    -2385    -2620    -2938    -3343    -3672 
   -3774    -3483    -2893    -2343    -1812     -894      573     2331 
    3916     4933     5337     5248     4814     4529     4894     5752 
    6352     5941     4416     2205     -176    -2004    -2836    -3213 
   -3955    -5145    -6227    -6628    -6064    -4636    -2912    -1628 
   -1214    -1585    -2146    -2238    -1663     -604      691     1985 
    3098     3949     4462     4428     3635     2263      845     -316 
   -1320    -2209    -2807    -2988    -2767    -2355    -2046    -1898 
   -1797    -1639    -1282     -590      467     1825     3470     5419 
    7270     8242     7933     6581     4810     3449     3017     3228 
    3384     2948     1590     -752    -3630    -6273    -8144    -9143 
   -9416    -9177    -8461    -7072    -4992    -2503      -59     1718 
    2326     1867     1041      443      134      104      394      821 
    1202     1528     1762     1783     1569     1275     1043      861 
     680      536      498      668     1201     2011     2757     3339 
    3877     4335     4535     4325     3669     2743     1769      777 
    -301    -1353    -2131    -2602    -2970    -3278    -3321    -3092 
   -2859    -2675    -2255    -1435     -429      372      583      -50 
   -1365    -2813    -3782    -3796    -2743     -946     1023     2462 
    2752     1966     1043      787     1183     1837     2301     2191 
    1486      447     -608    -1317    -1475    -1209     -694       18 
     778     1479     2190     2814     3124     2964     2218      953 
    -584    -2024    -2801    -2606    -1724     -496      835     1712 
    1696     1119      673      713     1200     1720     1593      549 
   -1046    -2621    -3611    -3743    -3187    -2284    -1497    -1213 
   -1365    -1691    -1834    -1397     -480      517     1374     1915 
    2060     1941     1641     1158      574       63     -137      173 
     934     1842     2711     3548     4149     4190     3603     2369 
     537    -1481    -3150    -4134    -4278    -3579    -2258     -753 
     436      916      569     -322    -1244    -1845    -2022    -1812 
   -1282     -475      527     1561     2343     2529     1989      824 
    -666    -2016    -2863    -3062    -2677    -1882     -822      328 
    1429     2476     3528     4530     5143     5050     4169     2440 
      96    -2144    -3561    -3764    -2831    -1303      126      981 
    1267     1265     1033      360     -878    -2449    -3881    -4800 
   -5054    -4680    -3889    -2968    -2119    -1397     -640      455 
    1982     3801     5700     7194     7567     6633     5008     3414 
    2100      979       25     -661    -1012     -888     -191      783 
    1549     1709      994     -532    -2393    -3930    -4724    -4828 
   -4474    -3853    -3123    -2280    -1240        1     1296     2182 
    2135     1149     -349    -1845    -2745    -2644    -1637      -85 
    1549     2707     3110     2953     2517     1987     1607     1545 
    1702     1909     2022     1901     1530      951      172     -631 
   -1190    -1472    -1649    -1818    -1893    -1898    -1957    -1923 
   -1519     -676      471     1641     2491     2736     2154      671 
   -1339    -3179    -4348    -4611    -3905    -2463     -715      997 
    2481     3564     4083     3903     2960     1523      106    -1016 
   -1821    -2309    -2425    -2109    -1433     -542      577     1870 
    2865     2965     1977      299    -1226    -1852    -1359       30 
    1868     3570     4458     4167     3058     1872     1211     1208 
    1414     1188      156    -1604    -3585    -5121    -5767    -5459 
   -4400    -2932    -1377       68     1231     2064     2671     3070 
    3037     2410     1544     1029     1160     1948     3137     4267 
    4954     5000     4370     3209     1891      802       19     -548 
    -923    -1145    -1372    -1826    -2544    -3287    -3817    -4083 
   -4184    -4202    -4113    -4003    -3981    -3810    -3124    -1911 
    -486      743     1380     1158      202    -1024    -2115    -2751 
   -2721    -2168    -1324     -339      488      974     1435     2304 
    3605     5038     6252     6795     6306     4817     2613      126 
   -2011    -3303    -3761    -3955    -4514    -5565    -6900    -8184 
   -8913    -8745    -7835    -6617    -5419    -4512    -4105    -3989 
   -3730    -3167    -2530    -2193    -2233    -2327    -2167    -1576 
    -387     1357     3302     5147     6884     8595    10307    12140 
   14261    16656    18945    20451    20766    20028    18525    16468 
   14023    11156     7743     3979      541    -1591    -1574      736 
    4509     8314    10825    11005     8115     2045    -6630   -16829 
  -27064   -35886   -42238   -45442   -45336   -42197   -36330   -27863 
  -16874    -3825    10052    22917    32773    38157    38667    34678 
   27188    17966     8943     1352    -4526    -9251   -13853   -19241 
  -25274   -30313   -32233   -29779   -23043   -13326    -2450     8156 
   17717    25861    32495    37442    39918    38864    33701    24574 
   12377    -1445   -15299   -27485   -36320   -40663   -40025   -34490 
  -25142   -14065    -3447     5164    11086    14566    16639    18473 
   20763    23742    26939    29014    28464    24108    15221     2044 
  -13812   -29539   -41991   -48826   -49056   -43072   -32399   -18927 
   -4341     9646    21257    29312    33592    34325    31744    26320 
   19035    11574     6172     4440     6246     9809    12548    12339 
    8622     2524    -3821    -8263    -9673    -8392    -5847    -4078 
   -5093    -9666   -16621   -23464   -27574   -27119   -21767   -13062 
   -3862     2890     5201     2889    -2052    -6522    -7964    -5240 
     946     8308    14053    16046    13693     7940      609    -6095 
  -10321   -11460   -10172    -7420    -3598     1282     6877    12229 
   16115    17683    16776    14019    10748     8349     7581     8389 
    9839    10499     9266     5748      115    -7026   -14799   -22257 
  -28326   -31551   -30392   -24144   -13324      368    13976    24172 
   28865    27931    22869    15950     9315     4066     -271    -5025 
  -10961   -17501   -23040   -25726   -24112   -17867    -8225     2349 
   11036    15817    16274    13407     8832     4258     1214      694 
    2939     7241    11951    15208    15767    13354     8655     2851 
   -2889    -7686   -11213   -13760   -15757   -17335   -18444   -18819 
  -17729   -14437    -8932    -2142     4289     8594     9726     7928 
    4481      764    -2291    -4199    -4791    -3922    -1273     3355 
    9590    16496    22843    27152    27938    24362    16707     6418 
   -4318   -13365   -19197   -21106   -19396   -15219   -10204    -6177 
   -4368    -4728    -6308    -8045    -9209    -9334    -8118    -5574 
   -2128     1464     4475     6613     8073     9245    10244    10822 
   10640     9483     7606     5755     4652     4741     5995     7645 
    8500     7548     4241    -1269    -7937   -14131   -18430   -20202 
  -19488   -16673   -12289    -6784     -635     5315     9963    12377 
   12299    10363     7669     5193     3629     3376     4299     5637 
    6399     5650     2839    -1631    -6484   -10318   -12221   -11947 
   -9673    -5911    -1593     2243     4860     5964     5615     4089 
    1829     -643    -2720    -3681    -2903      -49     4686    10015 
   13698    13837     9820     2380    -6552   -14321   -18467   -17831 
  -12992    -5611     2123     7843     9986     8621     5086      901 
   -2755    -4963    -5401    -4654    -3792    -3727    -4705    -6191 
   -7433    -8023    -7872    -6987    -5332    -2660     1374     6576 
   11901    16145    18655    19300    18280    15934    12566     8718 
    5202     2506      759      146      706     1941     3008     3057 
    1438    -1947    -6361   -10580   -13571   -14878   -14514   -12767 
  -10207    -7442    -4778    -2332     -123     1974     3984     5724 
    7010     7563     7034     5363     2769     -352    -3405    -5914 
   -7659    -8526    -8569    -7930    -6499    -3958     -269     3996 
    7757     9746     9040     5387     -720    -7892   -14085   -17327 
  -16425   -11337    -3131     6298    14786    20483    22270    20091 
   14881     8223     1894    -2742    -4959    -4760    -2980     -815 
     844     1674     1933     2291     3166     4225     4680     3573 
       6    -5915   -12638   -18179   -21033   -20298   -15911    -8980 
   -1442     4699     7953     7880     5415     2438      631      626 
    2065     4053     5547     5951     5656     5728     7025     9506 
   12011    12882    11097     6888     1479    -3596    -7090    -8365 
   -7584    -5732    -4178    -4010    -5614    -8511   -11520   -13244 
  -12533    -8961    -3148     3430     8937    11904    12128    10677 
    8782     7084     5632     4025     1756    -1219    -4291    -6678 
   -7939    -7921    -6589    -4186    -1277     1547     3805     5191 
    5704     5460     4486     2879      942     -870    -1948    -1760 
    -279     2052     4460     5823     5259     2873     -500    -3670 
   -5311    -4786    -2531      649     4118     7268     9496    10256 
    8960     5308     -374    -7262   -14091   -19469   -22552   -23049 
  -21148   -17746   -13878   -10050    -6398    -2739     1466     6596 
   12410    18140    22772    25346    25372    23042    18994    14147 
    9580     5959     3227      987    -1331    -4279    -7828   -11411 
  -14420   -16147   -15924   -13679    -9929    -5578    -1743      795 
    1809     1341     -251    -2154    -3660    -4619    -5095    -4985 
   -4205    -2848     -874     1991     5775     9935    13550    15676 
   15604    13112     8657     3206    -2137    -6470    -9273   -10402 
   -9981    -8277    -5792    -3169     -772     1282     2719     3150 
    2460      844    -1437    -3960    -6133    -7552    -7954    -7063 
   -4837    -1489     2515     6186     8448     9003     8272     6850 
    5226     3456     1165    -1735    -4725    -7106    -8258    -7703 
   -5265    -1234     3682     8715    13340    17129    19470    19791 
   17965    14060     8105      490    -7758   -15046   -19729   -20965 
  -18771   -13728    -7297    -1461     2279     3129     1153    -2466 
   -6097    -8526    -9115    -7741    -4756     -952     2668     5438 
    7249     8389     9181     9630     9615     9034     7651     5274 
    2006    -1723    -5312    -8327   -10533   -11649   -11223    -8915 
   -4958     -121     4574     7929     8848     6956     2848    -2311 
   -7131   -10195   -10509    -7950    -3266     2266     7229    10586 
   12114    12247    11537    10451     9418     8623     7949     7217 
    6377     5477     4416     2984     1099    -1230    -3784    -5929 
   -7042    -7046    -6292    -5297    -4687    -4908    -5983    -7527 
   -8838    -9135    -7994    -5631    -2689      180     2498     4019 
    4755     4733     3700     1457    -1657    -4921    -7552    -8936 
   -8795    -7212    -4741    -2108      341     2496     4224     5449 
    6030     5586     3836     1085    -1910    -4436    -6047    -6572 
