Origin Time       2025/03/30 10:18:00
Lat.              34.667
Long.             140.825
Depth. (km)       69
Mag.              4.9
Station Code      KNG203
Station Lat.      34.7983
Station Long.     139.6435
Station Height(m) -902
Record Time       2025/03/30 10:18:50
Sampling Freq(Hz) 100Hz
Duration Time(s)  94
Dir.              N-S
Scale Factor      2000(gal)/6182761
Max. Acc. (gal)   8.679
Last Correction   2025/03/30 10:18:50
Memo.             
[...]
    -182       77       33     -201     -367     -252       93      322 
     331      447      734      746      213     -454     -620     -299 
    -170     -570    -1083    -1136     -573      161      426      248 
     399     1233     1989     1766      775       66      183      662 
     832      499      -99     -543     -661     -774     -970     -690 
     163      751      621      401      692     1083      734     -373 
   -1295    -1217     -342      376      382        5     -448    -1182 
   -1842    -1204     1044     3123     2760     -154    -3093    -3393 
    -950     1638     1644     -910    -3356    -3445    -1483      665 
    1596     1285      766      829     1165     1242     1120     1108 
    1250     1091      118    -1242    -1647     -517      806      538 
   -1104    -1898     -165     3252     5685     5086     1827    -1609 
   -2518      -62     3774     5521     3601      -37    -2493    -2896 
   -2112    -1174     -828    -1571    -3155    -4406    -4499    -3936 
   -3326    -2164       96     2569     3643     2884     1425      598 
     722     1310     2078     3108     3907     3192      394    -2960 
   -4285    -2756     -372      402     -746    -2174    -2325    -1170 
     139      670      277     -681    -1510    -1567     -574     1259 
    2659     1997     -430    -2302    -2051     -283     1655     3107 
    3965     4291     4198     3317      965    -2005    -2964     -923 
    1296      333    -3229    -5557    -4294     -478     3779     6659 
    6218     1779    -4255    -7841    -6588    -1466     3925     6041 
    4154      395    -2693    -3918    -3265    -1334      746     1522 
     172    -2436    -4223    -3476      172     5235     8637     7995 
    3906     -770    -3726    -4724    -4545    -3234     -345     3024 
    4265     2364     -427    -1141      528     2223     1911      115 
    -870      395     2670     3318     1683     -151     -356      727 
    1746     1799      711    -1110    -2708    -3273    -2972    -2289 
   -1271     -411     -840    -2620    -4018    -3206     -227     2858 
    3714     1859     -919    -2303    -1406      803     2611     3043 
    2210      585    -1428    -3121    -3345    -1571     1041     2438 
    1515     -984    -3070    -3071    -1131      763      840     -379 
    -971     -420       58     -191     -652     -792     -125     1733 
    3956     4662     2881      -89    -1907    -1663     -299     1084 
    2016     2095     1171       28     -161     1074     3068     4105 
    2637     -673    -3155    -3024    -1335     -566    -1561    -2735 
   -2353     -368     2003     3410     3259     1968      375     -808 
   -1240    -1107     -564      576     1999     2745     2254      600 
   -1793    -3817    -3975    -1966      581     1717     1089     -322 
   -1586    -2085    -1090     1350     3282     2331    -1448    -5017 
   -4999    -1238     2738     3584     1636     -241     -307      614 
     996      578      165      518     1456     1554     -290    -2613 
   -2506      364     2953     2874     1050     -315     -147     1213 
    2371     2003      424     -744     -544      211     -283    -2690 
   -5422    -6373    -5184    -3327    -2344    -2351    -2342    -1401 
     726     3365     5226     5652     5101     3966     1973     -454 
   -1472      255     3637     6066     5758     3001     -442    -2895 
   -3542    -2381     -310     1290     1501      518     -442     -507 
    -257     -623    -1675    -2905    -3660    -3600    -3264    -3491 
   -4068    -3811    -2250     -472       -8    -1240    -2948    -3377 
   -1760     1328     4657     6992     7575     6416     4229     2238 
    1532     2056     2591     2057      654     -567    -1134    -1512 
   -2066    -2364    -1603      284     1875     1342    -1253    -3493 
   -2990      249     3956     5709     5008     3176     1150    -1133 
   -2859    -2509     -286     1821     2373     1690      913      334 
    -792    -2584    -3713    -2964     -782     1305     1947      386 
   -2897    -5526    -4886    -1122     2524     2940      194    -2987 
   -4230    -3362    -1487      735     3085     4633     3846      270 
   -4478    -7696    -7476    -3938      783     3960     4427     3536 
    3339     3619     2312     -587    -2205     -739     2331     4365 
    4145     2269      216     -797     -753     -585     -678     -495 
     -22     -103     -920    -1570    -1398     -629      235      806 
     914      787      853     1308     1928     2100     1355       87 
    -691     -291     1134     2602     2749      865    -2249    -4701 
   -4990    -3097     -141     2605     4096     3630     1293    -1853 
   -4070    -3886    -1596      516      364    -1765    -3607    -3320 
   -1242      881     1858     1940     2030     2098     1071    -1092 
   -2383     -852     2765     5323     4325      433    -3101    -3551 
   -1240     1157     1295     -778    -2648    -1983      727     2720 
    2111     -293    -2092    -1910     -464     1036     2125     2730 
    2937     2902     2714     2438     2051     1623     1413     1372 
    1200      794     -150    -2086    -4503    -5761    -4681    -2098 
    -323     -541    -1289     -607      822      289    -2965    -5991 
   -5573    -2232      745     1412      923     1376     2768     2917 
     497    -2879    -4218    -2185     1779     5004     5881     4674 
    2621      709     -682    -1372    -1165     -343      110     -334 
    -676      547     3381     6042     6190     3226     -680    -2705 
   -2004      336     2650     3508     2387      104    -1779    -2308 
   -1867    -1220     -221     1592     3357     3219      640    -2536 
   -3869    -2982    -1849    -2359    -4488    -6730    -7351    -5700 
   -2969    -1046     -493     -380       99      757      948      508 
     126      581     1761     2795     3184     3570     4753     5943 
    5166     1830    -1947    -3368    -1877      938     3432     4588 
    3855     1691     -489    -1478     -849     1095     3113     3549 
    1921     -425    -1685    -1391     -672     -962    -2582    -4446 
   -5122    -4268    -2906    -2206    -2378    -2813    -2675    -1323 
    1147     3630     4591     3084     -324    -3398    -3701     -936 
    2472     3503     1223    -2339    -4100    -2880      115     3234 
    5593     6696     6093     3733      312    -2832    -4369    -3747 
   -1372     1708     4079     4537     3112     1087     -459    -1409 
   -2018    -2445    -2478    -1500      562     2530     2992     1653 
    -521    -2055    -2052     -811      705     1609     1308      -25 
   -1052     -385     1693     3091     1794    -1823    -4964    -5240 
   -2938     -141     1558     1782      819     -544    -1333    -1299 
   -1034    -1124    -1457    -1451     -855       -2      559      618 
     662     1135     1421      676     -627    -1228     -784     -148 
     -35      -76      384     1214     1828     1927     1545      842 
       6     -558       41     2355     5254     6590     5403     2547 
    -591    -3115    -4534    -4511    -3163    -1226      557     1913 
    2684     2623     1828      669     -693    -1923    -2337    -1903 
   -1539    -1743    -1864    -1448    -1289    -2235    -3680    -4150 
   -2939     -668     1468     2750     3222     3197     3015     2915 
    2561     1207    -1206    -3464    -3995    -2449     -219      849 
     202    -1002    -1182      -53     1080      854     -507    -1270 
     -59     2651     5254     6624     6600     5589     4114     2304 
     -95    -2838    -4848    -5273    -4314    -2605     -504     1488 
    2219      862    -1577    -2856    -2059     -527      134      -54 
      28      914     1953     2328     2326     2927     4198     4906 
    3781     1047    -1600    -2827    -2779    -2341    -2198    -2646 
   -3689    -4917    -5509    -4978    -3632    -1962      -85     1824 
    2905     2215      -44    -2500    -3769    -3378    -1794      202 
    2036     3321     3931     4048     3697     2783     1676      907 
     399     -442    -1835    -2982    -2638     -366     2787     4748 
    4104     1677     -305     -657      -38      350       64     -413 
    -455     -217     -561    -1787    -2863    -2722    -1823    -1198 
    -737      260     1657     2749     3344     3614     3473     2982 
    2493     2014     1406      928      914     1280     1520     1166 
     311     -743    -1950    -2984    -3046    -2008     -993    -1019 
   -1566    -1367     -300      659     1059     1083      545     -655 
   -1763    -1917    -1029      245      959      682      145      451 
    1439     1822     1055     -211    -1287    -1820    -1690    -1306 
   -1228    -1402    -1484    -1514    -1731    -2092    -2383    -2453 
   -2067    -1078      203     1332     2260     3232     4361     5232 
    5024     3346      853    -1172    -1773     -937      705     2580 
    4118     4466     3124      566    -2209    -4301    -5143    -4729 
   -3495    -1890     -446      174     -215     -990    -1324    -1010 
    -382      259      553      197     -445     -740     -468      246 
     942      928      -89    -1651    -2866    -2885    -1288     1514 
    4440     6532     7285     6451     4332     2034      575      -86 
    -624    -1329    -1674     -872      758     1344     -637    -4030 
   -5792    -4484    -1624      729     1942     2163     1711     1164 
     825      595      515      508      145     -564     -912     -495 
     277      894     1195      980       94    -1017    -1486     -837 
     466     1169      327    -1445    -2325    -1242      869     2001 
    1090    -1006    -2564    -2789    -2247    -1743    -1237     -145 
    1402     2194     1270     -612    -1596     -987      105      484 
     268      322      872     1279     1191     1181     1622     1876 
    1519     1245     1617     1914     1194     -141     -823     -439 
     218      238     -706    -2339    -3909    -4601    -4116    -2804 
   -1421     -694     -691     -788     -550     -107      517     1574 
    2899     3933     4450     4543     4152     3199     2038     1333 
    1488     2298     3058     3104     2290      768    -1269    -3221 
   -4083    -3632    -3053    -3423    -4182    -3914    -2192     -174 
     482     -632    -1943    -1461      707     2423     2272     1037 
     478     1329     2547     2578     1145     -425     -607      594 
    1639     1244     -376    -2017    -2591    -1954    -1128    -1169 
   -1866    -2307    -1962     -589     1587     3219     3039     1673 
     741      633      413     -528    -1554    -1701    -1004     -151 
     671     1540     1984     1242     -669    -2278    -1943     -119 
    1272     1604     1729     2028     1881      869     -377     -941 
    -861     -913    -1392    -1544     -496     1170     1694      402 
   -1421    -2201    -1739    -1052     -900     -724      489     2432 
    3529     2778      829     -796    -1237     -867     -383        3 
      83     -542    -1588    -2018    -1230      185     1086     1070 
     892     1407     2441     3032     2503     1104     -218     -819 
    -944    -1095    -1421    -1709    -1494     -463     1019     2059 
    2044     1222      407      265      831     1515     1805     1707 
    1215        9    -1976    -3920    -4394    -2828     -476      835 
     643      -61     -397     -428     -421     -307     -218     -519 
    -957     -681      576     2113     3168     3444     3012     2276 
    1615      882     -437    -2501    -4460    -5070    -4083    -2236 
    -426      582      589      165      -41      144      459      513 
     145     -412     -668      -45     1727     3829     4602     3392 
    1425      404      918     2214     3140     3293     3152     3140 
    2909     1792     -212    -2255    -3331    -3043    -1814     -443 
     305      -38    -1183    -2263    -2675    -2166     -522     1977 
    4196     4820     3436     1052     -566     -425      815     1642 
    1170     -266    -1595    -1995    -1746    -1910    -3067    -4921 
   -6825    -7954    -7517    -5387    -2395      181     1669     2385 
    2873     2993     2091      295     -839       63     2317     4105 
    4927     5865     7642     9495     9952     7973     3437    -2652 
   -8263   -11468   -11988   -11049    -9750    -8673    -8712   -10422 
  -12605   -13090   -10804    -6405    -1611     1758     3191     4298 
    7122    11333    14157    13569    10516     7179     4377     1949 
     297      146     1545     3559     4691     4124     2484     1016 
     464      717     1169     1538     2251     3866     6180     7966 
    7713     4673     -745    -7055   -12292   -15198   -15838   -15233 
  -14549   -14288   -13960   -12384    -8574    -2809     3458     9014 
   13550    16929    18672    18155    14967     9507     3126    -2698 
   -6799    -7998    -5510     -130     5567     8724     8224     5370 
    2531     1433     2667     5903    10239    14417    16755    15415 
    9483      301    -8421   -12825   -11634    -6447       11     5521 
    8723     8425     3499    -5741   -16260   -23342   -23991   -19421 
  -13690   -10098    -8864    -7864    -5465    -2414     -881    -1610 
   -2545    -1148     2564     5983     6738     5430     5048     7260 
   10018     9679     4849    -2829   -10643   -16351   -18879   -18521 
  -15903   -10479     -998    11616    22723    26898    22702    14296 
    8454     9274    14707    18219    14963     6920      774      173 
    1706     -825    -9216   -18462   -21467   -16118    -7240    -1270 
      97      -80      614      833    -1545    -5582    -8313    -8322 
   -6711    -5118    -3867    -2149      489     3375     5298     5375 
    3410       36    -3093    -3827    -1313     2857     5866     5832 
    3214      637      919     4797    10072    12919    10860     4642 
   -2864    -8867   -11722   -11292    -8826    -5831    -3229    -1455 
    -426      206      341     -256     -801      162     2617     4569 
    4512     3360     3505     6052     8908     8622     4445     -750 
   -3305    -1845     1464     2752      446    -3120    -4702    -3870 
   -2987    -3948    -5840    -5937    -2571     2919     6861     6354 
    2084    -2280    -3606    -1821      801     2080     1543      347 
    -125       70     -633    -3314    -6757    -7858    -4138     3653 
   11289    14184    11492     6327     1875    -1005    -2642    -3011 
   -1771      666     2777     3081     1185    -2582    -7611   -12517 
  -15074   -13266    -6538     3180    11586    14340    10402     3349 
   -1482    -1833      -95     -140    -2943    -5544    -4733    -1093 
    1708     1176    -1460    -2904    -1597      572      590    -2204 
   -5628    -6995    -5156     -871     4081     8151    10471    10375 
    7482     2829    -1116    -2716    -2533    -1717     -496     1197 
    2630     2195    -1301    -6827   -10961   -10495    -5585      123 
    3037     2992     2665     4053     6502     8023     7378     4766 
    1480     -695     -391     2241     5132     5548     2295    -3156 
   -7700    -8945    -7091    -4468    -2854    -1919     -527     1787 
    4934     8590    11840    13110    11417     7854     4896     3833 
    3280      668    -4537    -9534   -10864    -8228    -4484    -1779 
     325     2398     2962       27    -5911   -11613   -14135   -13034 
   -9365    -4586     -897     -381    -3067    -6921    -9760   -10574 
   -9171    -5386      689     7689    12923    14267    11907     7922 
    4810     4226     6161     9267    11861    12524    10581     6558 
    1859    -2250    -5276    -7093    -7329    -5813    -3604    -2782 
   -4699    -8582   -11907   -12026    -8192    -2637     1052     1023 
   -1659    -4584    -6091    -5650    -3085     1486     7222    12733 
   16621    17672    15256    10232     4739      479    -2129    -3264 
   -2879     -837     1903     3034     1089    -2611    -5383    -6225 
   -6653    -8433   -10875   -11188    -7641    -1478     4218     6787 
    5524     2025     -876    -1020     1707     5462     7990     8268 
    6694     4594     3683     4662     6182     6018     3339     -473 
   -3222    -3938    -3631    -4078    -5630    -6557    -5071    -1761 
     539     -319    -3468    -6233    -6874    -5431    -2646      870 
    4284     6425     6955     6924     7377     8158     8520     8021 
    6483     3935     1091     -965    -2052    -3132    -4873    -6301 
   -5693    -3060     -644     -455    -2460    -5325    -7666    -8381 
   -6777    -3060     1310     4180     4244     2211       69     -980 
   -1543    -2873    -5165    -7322    -8135    -7257    -5373    -3858 
   -3673    -4259    -4168    -2716     -401     2098     4770     7931 
   11376    14221    15375    14078    10319     5019     -178    -3530 
   -4136    -2774    -1398    -1104    -1183     -648      421     1513 
    2505     3390     3806     3432     2752     2616     2998     3064 
    2576     2531     3953     6312     7680     6556     3111    -1479 
   -6026    -9296   -10272    -9166    -7338    -5954    -5241    -5109 
   -5972    -8407   -11912   -14372   -13555    -9591    -5141    -2655 
   -2018    -1184      959     3054     3194     1492      113     1154 
    4400     7426     8500     8542     9366    11197    12714    12547 
   10400     7120     3928     1722      714      284     -522    -2110 
   -3946    -5152    -5429    -5070    -4321    -3174    -1818     -862 
    -712    -1037    -1166     -798     -392     -884    -2671    -4945 
   -6109    -4815    -1065     3205     5288     4035      610    -2789 
   -4274    -3073      -73     2615     3362     2257      515     -837 
   -1327     -654     1201     3479     4922     4670     2779      264 
   -1283     -701     1565     3577     3782     2382      631     -207 
     810     3659     6973     9137     9717     9203     7784     5241 
    1645    -2286    -5381    -6790    -6732    -6198    -5930    -6053 
   -6604    -7711    -8988    -9286    -7751    -5080    -2959    -2166 
   -1903    -1010      568     1637     1263      360     1082     4256 
    7937     9023     6149      867    -3760    -5721    -5387    -4405 
   -3692    -2896    -1495      229     1427     1602     1097      743 
    1107     1885     1889      265    -1909    -2370     -490     1865 
    2691     2135     1939     2975     3974     2975     -208    -3209 
   -3346     -701     2107     2982     2057     1031     1363     2794 
    3835     3377     1523     -495    -1167      -24     1913     3291 
    3722     3525     2764     1305     -519    -2002    -2872    -3597 
   -4649    -5934    -7038    -7436    -6699    -4882    -2442      154 
    2603     4897     7204     9234    10029     8892     6277     3403 
    1261      109     -435     -867    -1374    -2054    -3060    -4232 
   -5048    -5021    -4262    -3496    -3068    -2580    -1649     -145 
    1709     2823     2023     -235    -1986    -1886     -332     1555 
    2941     3264     2315      482    -1396    -2401    -1879       46 
    2090     2506      647    -2518    -5441    -7036    -6995    -5704 
   -3851    -1929      -37     1720     2836     3016     2695     2319 
