Origin Time       2025/03/30 10:18:00
Lat.              34.667
Long.             140.825
Depth. (km)       69
Mag.              4.9
Station Code      KNG203
Station Lat.      34.7983
Station Long.     139.6435
Station Height(m) -902
Record Time       2025/03/30 10:18:50
Sampling Freq(Hz) 100Hz
Duration Time(s)  94
Dir.              U-D
Scale Factor      2000(gal)/6182761
Max. Acc. (gal)   1.836
Last Correction   2025/03/30 10:18:50
Memo.             
[...]
      96       98       99      100      104       99       92       92 
      96       98       96       95       99      101      101      101 
     103      106      103      100      104      102       97      102 
     106      107      109      108      106      106      104      105 
     109      109      109      108      108      112      115      111 
     108      109      111      113      112      107      114      122 
     113      110      115      112      109      111      117      123 
     117      110      110      106      104      112      117      111 
     105      113      117      110      108      108      105      106 
     109      108      111      112      112      117      112      102 
     107      113      108      104      109      113      107      101 
     103      104      103      104      107      109      107      105 
     106      102       98      106      112      103       97       99 
     100      101       99       96       97       98      103      104 
      98       97       99       98      102      106      101       94 
      98      102       99       97       97       97      102      100 
      97       99       97       92       96      101      100       95 
      93       95       97       95       92       92       92       93 
      94       96       95       88       87       99      106       97 
      91       93       95       96       94       90       95       98 
      93       96       98       91       94       95       87       95 
     106       97       93      101      102      102      102       97 
      98      101       95       98      101       98      101      102 
      90       90       97       97       96      101      104      104 
     103       99       96      101      104       99       96      100 
     103      106      104      101      106      103       97      102 
     110      110      106      106      108      103      103      105 
     106      106      103      105      113      111      104      103 
     105      107      110      107      104      105      106      110 
     110      102      101      104      100      104      110      105 
     103      106      106      105      105      106      103      103 
     108      104       98      102      106      105      103      102 
     102      103      104      104      105      102       97      102 
     105       97       95       99      103      106      101       93 
      94       98      100      104      100       93       98      106 
     103       97       95       96       93       92       92       94 
      99      103      100       99      105      101       94       98 
     102       96       94      100       97       90       92       98 
      94       89       93       99       94       88       94      100 
     100       94       90       94       98       95       97      101 
      98       97       97       93       94       97      103      105 
      99       96      102      100       98      102      102       98 
     100      106      106      101       97       99       99       98 
     102      103      102      107      104      101      104      101 
     101      105      102      101      107      107      102      104 
     106      102      104      107      108      103       99      104 
     113      113      109      111      109      103      102      104 
     108      109      102      102      107      106      105      106 
     108      113      111      107      106      107      109      104 
      99      106      111      107      107      107      102      107 
     112      103      101      109      105      104      111      108 
     103      104      102      103      107      107      106      105 
     107      107      102      104      107       99      100      107 
     103      101      109      104      100      107      104       98 
     105      109      104      103      108      111      107      101 
      97       97      103      103       99      100      100       98 
      98       97       97      102      104      108      101       90 
      98      106       97       96      103      102       95       97 
     102       96       91       96      103      101       96       98 
     100       93       92      100      101       99      103      100 
      94       98      100       95      100      106      101      100 
     102       99      100      105      107      102       97      101 
     105      101      101      105      106       96       91      102 
     104       96      100      106      100       98      104      104 
     107      110      105       99       96       99      106      109 
     106      101       99      101      100       95       98      104 
     102      102      101       97      100      106      100       93 
      99      107      104      100      104      106      101       96 
      99      101      100       98       94       98      104       95 
      96      107      102       96       99       97       93       96 
     104      110      107      100      100      104      102      101 
      97       94       99      103      104      101       93       96 
     105      102       98      102      103      101      101      103 
     102      100      100       98      101      105       98       93 
      94       98      104      101       95       92       91       97 
      99       98       99       99      101      104      100       99 
     101      103       99       94       99      104      103      103 
     100       96       97       97       97      101      103       99 
     100      104      105      102      100      102       99       92 
      95      102       99       96       99       97       94       95 
      94       97      100       95       96       98       98      105 
     105       98       99       97       92       94       95       96 
      94       91       97       96       88       91       92       90 
      96       97       95       96      102      103       91       84 
      91       96       98      100       96       95      101      102 
      99       92       89       98      105      102      100      102 
     104      103      104      107      105      101      104      109 
     104       98       99      104      109      109      105      106 
     102       98      105      106      102      108      114      114 
     108      105      112      117      116      115      110      106 
     109      107      102      104      111      111      112      114 
     112      111      113      113      108      106      109      110 
     110      112      112      114      112      110      112      110 
     104      104      105      110      115      110      107      109 
     108      106      107      108      103      100      106      107 
      98       95      102      103      100      100       98      102 
     105       94       93      105      102       94       94       95 
      97      100       96       93       99      101       96       97 
     100       98       96       98      103      104       96       94 
     100      101      101      100       96       96       96       93 
      95       98       95       99      104       93       90      102 
     102       95       96       95       90       93      100      102 
      97       95       97      102      100       92       93      100 
      98       97      101       99       94       93       97      103 
     101       96      100       98       93       99      101       94 
      92       95       98       98       99      100      100      104 
     105      100       97       97      100      100       96      100 
     107      100       95      101       97       94      104      108 
      99       99      104      102      102      104      103       99 
      97      103      106      103      103      104      103      105 
     105      101      104      108      104      102      107      103 
      96      101      105      106      106       98      101      108 
     102       96      101      102       98      100      105      104 
     101       99      101      105      103       99      101      101 
      98      102      107      105      105      106      103      105 
     106      103      108      112      107      104      104      101 
      98      102      105      104      103      104      109      111 
     106      104      106      106      103      102      104      106 
     105      107      106      103      104      105      102      100 
     101      103      106      107      105      102      101      100 
     100      103      104       99      101      106      105      107 
     110      104      102      112      112      101       99      106 
     104       99      102      100       93      100      107      100 
      97      102      103      100      103      106      104      102 
     103      103      101       99      101      100       95       94 
      94       94      100      102       97       99      106      106 
      96       94       98       96       98      103       99       96 
     102      102       96       99      105       99       92       90 
      91       94       93       92       95       95       91       91 
      96       94       91       97       99       95       94       91 
      90       91       88       92       97       88       88       90 
      87       94       96       87       85       92       93       90 
      91       94       90       87       93       93       88       93 
      98       90       86       94       97       94       98      101 
      95       94      100       98       90       90       94       93 
      89       91      100      102      100      102      102       94 
      86       90       97       98       96       98      105      106 
      99       99      102       97       97      100      100      102 
     105      105      102      101      105      102       96      100 
     105      104      103      104      106      106      109      109 
     105      106      106      102      107      111      108      104 
     104      107      108      110      110      107      108      105 
      98      104      115      112      105      111      113      104 
     103      113      114      112      112      105      101      105 
     102      102      111      110      101      103      110      106 
     100      104      104      100      105      104       94      104 
     112      102      104      107       99       98       99       96 
      99      109      105       98      101      100       96       99 
     101       98       97      102      101       93       88       91 
      98       99       94       89       91       98      101       98 
      92       92       98       95       95      100       94       88 
      91       93       91       89       93       99       98       90 
      88       92       92       93       91       88       93       93 
      89       90       91       91       93       98      101       97 
      94       99       98       92       91       92       92      100 
     106      101       93       92       96       97       95       96 
      96       95       99       98       91       91       89       91 
      98       94       92       99       98       94      100      104 
      96       90       98      105      104      102       98      100 
     107      104      101      101       98      104      111      103 
      98      102      105      101      101      106      106      102 
     102       98      101      108      105      101      107      113 
     110      109      115      110       99      101      107      102 
     104      112      105       95       98       99       92       87 
      80       72       64       46       33       30       15       -5 
     -22      -43      -63      -78     -112     -168     -224     -287 
    -354     -398     -436     -492     -555     -606     -629     -577 
    -421     -199       33      208      292      357      446      546 
     715     1027     1461     1878     2110     2083     1867     1634 
    1504     1406     1324     1430     1636     1525     1028      478 
    -130    -1179    -2519    -3220    -2711    -1727    -1502    -2317 
   -3024    -1915     1167     3780     3645     1765      573      353 
    -127    -1055    -1578    -1249     -518     -303     -840    -1029 
     -44     1004      593     -919    -1757    -1124     -428     -973 
   -1555     -764      730     1844     2203     1917     1403      638 
    -400     -887     -179     1138     1774     1274      611      319 
    -244     -840     -389      613      481     -732    -1128      -93 
     985     1094      496     -216     -554      -68      888      765 
    -810    -1742    -1002     -279     -305       31      605      490 
     140      196      230      -59     -117      272      233     -584 
   -1139     -791       71     1040     1623     1330      489     -424 
   -1506    -2218    -1479      198     1107      843      234     -302 
    -547     -104      705      993      622      390      845     1478 
    1633     1598     1872     2282     2322     1745      969      680 
     798      665       87     -503     -727     -963    -1795    -2558 
   -2211    -1269     -992    -1683    -2479    -2108       56     3386 
    5763     4638      159    -4040    -4700    -2189      612     1464 
     342    -1461    -2651    -2291     -277     1954     2597     1578 
     128    -1122    -2189    -2520    -1425      348     1471     1952 
    2213     1871      904      131      110      732     1326     1079 
     320      164      334     -112     -490      167      973      682 
    -181     -438     -345     -678     -937     -676     -678     -865 
    -176      736      554      -47       26      422      532      229 
    -281     -273      621     1664     1797      741     -498     -729 
    -181        2     -913    -2336    -2274       26     2308     2476 
    1271       84     -834    -1006     -202      383      431      805 
     982      407      209      672      699      373      423      434 
     -91     -776    -1073     -915     -766     -777     -362      555 
     968      401     -249     -526    -1121    -1777    -1203      351 
    1240     1119     1024     1138      832      375      370      514 
     394      188      -41     -524     -911     -596     -223     -653 
    -966      -87     1198     1503      424    -1189    -1553       90 
    2027     2517     1813      576     -822    -1705    -1664     -953 
    -153      242      141     -275     -705     -712      -96      615 
     534     -392    -1051     -576      359      576      120     -126 
     429     1602     2186     1269      -56     -206      315       91 
    -572     -473      146      125     -513     -814     -480      231 
     929     1130      794      107     -670     -907     -485      -19 
     248      236     -228     -483       90      478     -249     -828 
     161     1690     1743      170    -1287    -1281        4     1632 
    2393     1484     -152     -618      343      991      258     -740 
    -927     -716      -60     1451     2464     1609     -186    -1345 
   -1271      -32     1366     1454      416     -275     -410     -577 
    -445      196      556      119     -576     -830     -804     -901 
    -784      -94      756     1011      351     -596     -848     -223 
     493      443     -179     -391      -13      175     -183     -614 
    -477      258      794      642      148     -490    -1168    -1491 
   -1334     -778       34      752     1256     1445      931     -140 
    -889     -675      330     1366     1576      625     -687     -818 
     746     2428     2315      622     -895    -1191     -420      641 
    1195     1114      752      424      372      489      285     -366 
   -1019    -1353    -1289     -740      -94       13     -153     -106 
    -182     -501     -577     -281      -85     -525    -1020     -410 
     565      607      755     1863     2089      311    -1419    -1061 
     612     1510      816     -433     -876     -318      632     1337 
    1070     -190     -983     -518      130      464     1102     1641 
    1055     -318    -1097     -816     -442     -517     -208      639 
     881      304     -164     -165     -126     -388     -562     -180 
     114     -315     -673     -249      457      747      346     -300 
    -382       79      361       41     -620     -951     -948    -1279 
   -1676    -1256       32     1675     2746     2154      554      -97 
     407      756      639      739     1379     2007     1813      975 
     313      -28     -157      220      815      644     -200     -758 
   -1055    -1288    -1085     -749     -612     -401     -444    -1113 
   -1524     -753      464      915      856      930      687      -81 
    -416      -35      105      125      963     2078     2466     1962 
     623     -759    -1052     -528     -198     -249     -332     -456 
    -966    -1478    -1088     -244     -248     -859     -844     -158 
     344      415      278     -151     -800     -936      -44     1196 
    1406      246    -1029    -1299     -656      353     1141     1440 
    1611     1744     1584     1317     1009      435     -152     -424 
    -429     -212      169      550      647      295       11      313 
     736      759      591      433      219      -62     -465     -932 
   -1118     -995    -1074    -1218     -468      751      711     -515 
   -1383    -1634    -1669    -1228     -450       11       44       21 
     276      753      906      397     -185      -58      455      404 
    -103     -107      394      444     -152     -318      714     1955 
    2082     1318      382     -380     -398      421     1083      802 
     164      184      694      942      984     1005      630     -105 
    -644     -846     -902     -961    -1069    -1009     -848     -946 
   -1047     -713     -111      189     -225     -858     -872     -306 
     314      724      884      939     1063     1181      887      149 
    -115      460      949      912      630      152     -308     -489 
    -424     -196      -40      -32       22      100      223      409 
     343       86      181      585      746      737     1032     1456 
    1475     1065      568      144     -228     -531     -676     -455 
     223      707      286     -570    -1153    -1549    -1634    -1025 
     -89      425      220     -390     -829     -802     -373       99 
     226       42     -353     -876     -982     -406      164      171 
      30      283      772     1012      936      753      325     -305 
    -491        1      616      801      569      531      973     1215 
     833      480      626      845      584     -221     -947     -632 
     695     1596     1095       16     -427     -325     -419     -711 
    -689     -354     -166     -183     -190     -420     -889     -921 
    -429      -58      177      648     1124     1109      389     -618 
    -975     -519     -208     -524     -801     -420      325      783 
     669      189     -147     -108      -38     -153     -118      238 
