Origin Time       2025/03/30 10:18:00
Lat.              34.667
Long.             140.825
Depth. (km)       69
Mag.              4.9
Station Code      KNG206
Station Lat.      35.0966
Station Long.     139.3778
Station Height(m) -1130
Record Time       2025/03/30 10:18:56
Sampling Freq(Hz) 100Hz
Duration Time(s)  98
Dir.              N-S
Scale Factor      2000(gal)/6182761
Max. Acc. (gal)   15.198
Last Correction   2025/03/30 10:18:56
Memo.             
[...]
   -1080     -191      455      293     -867    -2483    -3647    -3803 
   -3039    -1927    -1073     -446      498     1914     3314     4163 
    4139     2999      849    -1647    -3719    -4922    -5226    -4744 
   -3350    -1094     1341     3103     3823     3704     2997     1697 
     -27    -1705    -2868    -2965    -1474     1513     4818     6574 
    5759     2997     -430    -3465    -5451    -6203    -5789    -4306 
   -1959      777     3074     3949     2924      589    -1834    -3317 
   -3442    -2586    -1468     -408      562     1408     2093     2469 
    2280     1366      -13    -1230    -1852    -1931    -1925    -2245 
   -2743    -2912    -2288     -762     1203     2888     3840     4090 
    3874     3253     2218      707    -1388    -3697    -5404    -5998 
   -5480    -4043    -1964      354     2377     3470     3280     2071 
     439     -899    -1214     -400      793     1508     1532     1390 
    1808     2892     3895     3737     1839    -1345    -4640    -7005 
   -8052    -7970    -7053    -5483    -3398     -885     1754     3837 
    4747     4256     2398     -493    -3515    -5512    -5882    -4730 
   -2446      452     3346     5719     7154     7210     5636     2800 
    -223    -2246    -2573    -1222     1058     3229     4513     4581 
    3629     2060      123    -2058    -4384    -6546    -8058    -8517 
   -7740    -6044    -4112    -2515    -1526     -957     -381      357 
    1177     2027     2952     3975     4854     5250     5059     4377 
    3337     2073      770     -360    -1192    -1681    -1915    -2083 
   -2167    -2123    -2301    -2996    -3873    -4179    -3428    -1919 
    -426      492      593      -45     -851    -1134     -700      284 
    1607     2916     3826     4172     3919     3184     2234     1071 
    -477    -2173    -3359    -3522    -2727    -1423     -150      540 
     311     -785    -2249    -3336    -3755    -3737    -3513    -3214 
   -2881    -2364    -1435      -62     1371     2209     2080     1209 
     140     -608     -585      276     1469     2476     3137     3408 
    3254     2837     2347     1653      506    -1065    -2609    -3426 
   -3071    -1684       64     1196     1000     -425    -2244    -3456 
   -3629    -3092    -2367    -1728    -1249     -921     -620      -78 
     857     1845     2327     2200     1859     1723     1979     2458 
    2596     1859      246    -1597    -2823    -3089    -2729    -2223 
   -1871    -1881    -2169    -2327    -2151    -1828    -1654    -1781 
   -2039    -2028    -1476     -435      834     1981     2666     2812 
    2642     2409     2236     2040     1651     1244     1193     1531 
    1958     2060     1522      395     -913    -1858    -2169    -2158 
   -2289    -2683    -3326    -4142    -4857    -5157    -4785    -3670 
   -2086     -404     1236     2769     3891     4177     3465     2103 
     806       12     -262      103     1144     2422     3444     3951 
    3689     2619     1096     -536    -2035    -3191    -4051    -4748 
   -5200    -5304    -5067    -4484    -3665    -2852    -2120    -1357 
    -524      241      754      941      967     1158     1635     2181 
    2403     1948      930       32      -90      661     1698     2199 
    1892     1099      136     -903    -1973    -2893    -3359    -3158 
   -2265    -1035      -65      343      146     -523    -1197    -1476 
   -1339     -833       -3      912     1705     2403     3033     3395 
    3312     2904     2365     1716      877     -278    -1775    -3333 
   -4503    -4988    -4724    -3847    -2602    -1092      558     1846 
    2240     1730      777     -115     -704    -1045    -1405    -1903 
   -2201    -1752     -354     1568     3136     3670     3235     2346 
    1446      855      615      386     -197    -1163    -2128    -2633 
   -2548    -2022    -1445    -1342    -1849    -2657    -3438    -3839 
   -3494    -2334     -704      766     1520     1477     1059      790 
     855     1083     1138      750      125     -103      466     1532 
    2375     2585     2195     1324      366     -121      -20      336 
     364     -428    -1860    -3305    -4345    -4947    -5372    -5895 
   -6472    -6655    -5978    -4355    -1995      753     3418     5582 
    7116     8081     8387     7887     6696     5114     3362     1536 
    -195    -1432    -1850    -1575    -1125     -983    -1408    -2558 
   -4376    -6446    -8094    -8533    -7346    -4896    -2074      239 
    1554     1836     1440      887      412      -44     -412     -408 
     249     1534     3014     4228     4824     4504     3310     1762 
     590      344     1069     2297     3302     3457     2615     1154 
    -406    -1654    -2362    -2615    -2717    -2816    -2866    -2814 
   -2588    -2247    -2020    -1994    -2048    -2063    -2082    -2298 
   -2775    -3328    -3679    -3597    -2993    -1982     -791      435 
    1584     2428     2801     2750     2360     1772     1228      786 
     462      536     1171     2075     2687     2508     1406     -288 
   -2024    -3348    -4094    -4368    -4306    -3976    -3501    -2980 
   -2436    -1879    -1259     -536      243     1044     1827     2569 
    3308     3980     4445     4565     4181     3346     2375     1561 
    1037      677      167     -644    -1677    -2828    -4050    -5168 
   -5826    -5882    -5494    -4709    -3437    -1680      380     2278 
    3408     3459     2646     1452      377     -153       -6      598 
    1231     1477     1281      807      204     -326     -735    -1036 
   -1090     -841     -270      501     1061     1260     1351     1443 
    1450     1409     1362     1180      746       16     -957    -1887 
   -2496    -2844    -3060    -2984    -2448    -1593     -800     -511 
    -925    -1858    -2866    -3483    -3528    -3062    -2162     -936 
     429     1669     2508     2867     2821     2381     1601      685 
    -157     -648     -513      187     1066     1739     2026     1911 
    1412      590     -409    -1403    -2194    -2641    -2768    -2677 
   -2506    -2438    -2473    -2458    -2324    -2032    -1535     -881 
    -229      282      666     1052     1581     2254     2859     3210 
    3164     2602     1786     1211     1064     1209     1335     1087 
     328     -773    -1906    -2824    -3410    -3627    -3466    -3029 
   -2545    -2155    -1867    -1657    -1504    -1418    -1424    -1533 
   -1730    -1918    -1930    -1713    -1429    -1274    -1265    -1264 
   -1157     -896     -413      361     1411     2548     3533     4242 
    4580     4506     4183     3808     3456     3135     2792     2324 
    1658      823      -44     -817    -1434    -1885    -2210    -2378 
   -2315    -2192    -2337    -2822    -3439    -3809    -3599    -2859 
   -1965    -1313    -1121    -1320    -1628    -1741    -1446     -694 
     331     1229     1559     1219      574      -40     -602    -1157 
   -1704    -2132    -2131    -1476     -375      768     1672     2186 
    2409     2615     2952     3449     3960     4116     3654     2644 
    1368      127     -864    -1416    -1425    -1069     -617     -166 
     180      214     -220    -1126    -2280    -3439    -4460    -5059 
   -4956    -4211    -3119    -1976    -1008     -274      279      615 
     636      397       74     -221     -309       12      591     1132 
    1596     1893     1770     1296      855      716      942     1417 
    1906     2200     2157     1699      754     -692    -2368    -3785 
   -4661    -4977    -4695    -3844    -2681    -1494     -579     -217 
    -466    -1201    -2157    -2955    -3301    -3106    -2431    -1468 
    -438      490     1131     1345     1226     1020      885      896 
    1058     1212     1272     1434     1960     2848     3737     4137 
    3815     2902     1667      308    -1056    -2329    -3400    -4138 
   -4440    -4277    -3765    -3074    -2340    -1753    -1413    -1142 
    -634      317     1562     2631     3185     3209     2855     2424 
    2259     2420     2713     2947     3050     3096     3047     2595 
    1484     -230    -2229    -4043    -5284    -5925    -6158    -6104 
   -5829    -5377    -4801    -4178    -3506    -2794    -2066    -1262 
    -353      582     1422     2089     2666     3162     3309     2965 
    2325     1704     1413     1548     1911     2251     2359     2071 
    1343      279     -815    -1530    -1737    -1692    -1628    -1561 
   -1519    -1580    -1727    -1963    -2312    -2738    -3201    -3567 
   -3534    -2812    -1376      428     2042     3017     3297     3179 
    2857     2380     1892     1463     1025      562       49     -591 
   -1354    -2095    -2681    -3053    -3080    -2614    -1597     -148 
    1298     2142     2034     1145      -19    -1024    -1575    -1648 
   -1570    -1512    -1336     -985     -481      183      884     1364 
    1482     1338     1133     1108     1424     1885     2173     2159 
    1790     1104      258     -547    -1149    -1623    -2188    -2800 
   -3083    -2842    -2341    -1999    -2085    -2545    -3016    -3141 
   -2747    -1868     -742      315     1015     1223     1186     1338 
    1757     2191     2438     2390     2133     1930     1873     1796 
    1492      856      -72    -1166    -2214    -2977    -3398    -3595 
   -3712    -3893    -4105    -4062    -3561    -2639    -1517     -472 
     363      977     1367     1649     2008     2487     3049     3587 
    3823     3577     2914     2033     1238      773      659      736 
     683      162     -884    -2147    -3213    -3852    -3963    -3538 
   -2897    -2464    -2271    -2155    -2006    -1743    -1354     -853 
    -231      526     1370     2163     2783     3085     2954     2629 
    2469     2470     2378     1986     1234      213     -902    -1886 
   -2574    -2980    -3097    -2778    -2084    -1303     -638     -227 
     -95      -90      -45      146      431      575      363     -326 
   -1391    -2331    -2727    -2648    -2305    -1848    -1358     -744 
      50      868     1448     1555     1210      683      270      154 
     220      182     -125     -757    -1577    -2283    -2716    -2832 
   -2587    -2036    -1281     -441      297      822     1086     1068 
     879      693      682      887     1107     1151      949      493 
     -79     -540     -756     -792     -844     -914     -822     -520 
     -12      685     1322     1536     1177      361     -576    -1228 
   -1413    -1269     -986     -637     -281       13      158       33 
    -295     -501     -422     -169      131      338      254     -153 
    -704    -1125    -1176     -914     -586     -324     -263     -528 
   -1108    -1858    -2504    -2844    -2779    -2267    -1420     -437 
     449      967      979      643      229     -125     -313     -297 
    -361     -782    -1329    -1546    -1209     -391      570     1231 
    1336      953      292     -450     -976    -1022     -677     -192 
     372     1038     1729     2343     2690     2477     1656      481 
    -706    -1476    -1557    -1107     -435      271      778      896 
     716      330     -334    -1135    -1692    -1803    -1542    -1024 
    -281      571     1200     1329     1151     1020      968     1011 
    1232     1438     1360      930      254     -478    -1134    -1673 
   -2104    -2377    -2240    -1534     -546      243      363     -509 
   -2143    -3826    -4964    -5333    -4925    -3967    -2837    -1786 
    -936     -321      228      911     1764     2729     3643     4215 
    4263     3809     2912     1706      456     -597    -1324    -1703 
   -1862    -2018    -2298    -2740    -3355    -3949    -4191    -3898 
   -3095    -1933     -593      707     1655     2071     2161     2254 
    2408     2573     2846     3264     3676     3826     3427     2317 
     632    -1185    -2715    -3859    -4732    -5345    -5644    -5808 
   -5992    -5947    -5401    -4344    -2840    -1106      516     1887 
    3136     4533     6238     7952     9113     9349     8560     7024 
    5367     4110     3389     2938     2391     1573      330    -1485 
   -3704    -5841    -7414    -8088    -7824    -6991    -5923    -4620 
   -3196    -2020    -1320    -1040     -989     -864     -235     1066 
    2598     3795     4527     4733     4145     2709      540    -2330 
   -5703    -9214   -12609   -15712   -18378   -20587   -22276   -23122 
  -22708   -20701   -16960   -11683    -5302     1720     8938    15783 
   21648    26280    29754    32140    33429    33450    31939    28859 
   24537    19503    14149     8621     3070    -2189    -6788   -10568 
  -13702   -16398   -18588   -20131   -21092   -21622   -21694   -21035 
  -19334   -16602   -13155    -9241    -4941     -344     4384     8922 
   12808    15581    16822    16367    14632    12199     9225     5530 
    1002    -3994    -8573   -11882   -13578   -13722   -12641   -11033 
   -9592    -8443    -7243    -5385    -2286     1939     6350     9940 
   12195    12814    11519     8470     4213     -804    -6121   -11047 
  -14821   -16779   -16420   -13543    -8351    -1324     6955    15738 
   24239    31817    37743    41196    41811    39496    33980    25558 
   15500     5238    -4073   -11571   -17051   -21082   -24535   -28010 
  -31639   -35209   -38398   -41147   -43601   -45602   -46590   -45767 
  -42370   -36128   -27339   -16636    -4843     7065    18001    27057 
   34023    39282    43156    45685    46680    45879    43349    39369 
   34026    27383    19775    11867     4429    -2166    -8098   -13565 
  -18522   -22794   -25848   -26885   -25549   -22323   -18297   -14557 
  -11736   -10023    -9114    -8318    -6857    -4077      325     6153 
   12742    19012    23569    25037    22736    17157     9587     1486 
   -5744   -10944   -13560   -13857   -12536   -10162    -7196    -4227 
   -1907     -735     -749    -1500    -2289    -2452    -1734     -495 
     635     1163      828     -305    -1907    -3639    -5139    -6131 
   -6604    -6662    -6512    -6267    -5651    -4194    -1452     2579 
    7127    11178    14154    15856    16210    15398    13859    11907 
    9689     7352     4994     2639      257    -2252    -4902    -7494 
   -9714   -11324   -12203   -12409   -12372   -12797   -14212   -16502 
  -18935   -20619   -20795   -19081   -15615   -10746    -4796     1588 
    7300    11326    13303    13417    12020     9693     7473     6400 
    6940     8801    11028    12624    13203    12866    11869    10487 
    8779     6625     4277     2426     1485     1155      767     -249 
   -2139    -4801    -7827   -10431   -11476   -10108    -6484    -1584 
    3283     6632     7356     5447     1766    -2661    -6763    -9675 
  -11400   -12527   -13449   -14237   -14605   -13922   -11704    -7922 
   -2852     2909     8385    12614    15066    15598    14298    11615 
    8414     5645     4065     4106     5565     7458     8476     7803 
    5437     1903    -2080    -5749    -8337    -9444    -9422    -8843 
   -8013    -7132    -6259    -5248    -3961    -2447     -862      772 
    2440     3905     4943     5468     5405     4866     4177     3579 
    3333     3623     4083     4096     3378     1858     -584    -3986 
   -8037   -12082   -15295   -16758   -15833   -12656    -8036    -3095 
    1014     3363     3334      809    -3600    -8682   -13014   -15528 
  -15878   -14188   -10780    -6043     -150     6892    14910    23349 
   31129    36761    38973    37375    32355    24596    15061     5039 
   -4081   -11142   -15386   -16695   -15814   -13873   -11869   -10655 
  -10720   -11889   -13402   -14223   -13397   -10300    -5078     1003 
    6139     9064     9475     7495     3315    -2363    -8297   -13306 
  -16632   -17906   -17001   -14288   -10861    -7669    -4754    -1650 
    2010     6137    10100    13112    14788    15300    15204    15105 
   15183    15198    14666    12816     9079     3810    -1755    -6245 
   -8841    -9494    -8737    -7341    -6192    -6099    -7248    -9081 
  -10735   -11440   -10769    -8771    -5974    -3160     -996      156 
     406      332      629     1820     3957     6444     8410     9154 
    8397     6428     4027     2162     1521     2206     3853     5958 
    8110     9877    10746    10380     8691     5870     2520     -627 
   -3229    -5316    -7011    -8500    -9981   -11578   -13354   -15206 
  -16901   -18188   -18815   -18714   -18025   -16765   -14681   -11505 
   -7252    -2278     2896     7752    11989    15613    18587    20643 
   21698    22032    21962    21628    20977    19856    18268    16314 
   13911    10879     7170     2835    -2023    -7099   -11821   -15737 
  -18753   -20766   -21590   -21240   -19964   -18261   -16684   -15481 
  -14692   -14262   -13845   -12706   -10017    -5516      252     6311 
   11584    15260    17176    17636    16974    15438    13246    10737 
    8376     6446     4865     3217     1130    -1188    -3082    -3986 
   -3696    -2551    -1271     -510     -655    -1677    -3117    -4367 
   -4973    -4918    -4622    -4529    -4713    -4973    -5103    -4964 
   -4547    -3926    -3050    -1882     -667      222      662      885 
    1318     2251     3626     5254     6848     7917     8257     8078 
    7484     6395     4613     1840    -1864    -5886    -9450   -12020 
  -13395   -13573   -12695   -11112    -9288    -7598    -6210    -5134 
   -4314    -3614    -2836    -1727       26     2548     5605     8833 
   11940    14622    16589    17695    17841    16947    15105    12538 
    9542     6419     3397      610    -2008    -4616    -7236    -9875 
  -12467   -14699   -16416   -17757   -18713   -19134   -18958   -18094 
  -16346   -13526    -9736    -5479    -1291     2601     6198     9573 
   12783    15673    17820    18857    18715    17667    16264    14906 
   13555    12030    10323     8551     6769     4938     3069     1081 
   -1342    -4392    -7819   -11171   -13922   -15427   -15302   -13746 
  -11316    -8714    -6621    -5384    -4958    -5127    -5686    -6440 
   -7017    -6838    -5451    -2881      354     3500     5879     7195 
    7709     7802     7521     6910     6260     5867     5761     5525 
    4565     2704      224    -2535    -5257    -7567    -9165    -9847 
   -9601    -8829    -7934    -6951    -5892    -4752    -3322    -1447 
     798     3087     4885     5728     5466     4220     2363      372 
   -1407    -2579    -2806    -2274    -1445     -617       35      442 
     601      551      442      367      438      966     1929     2848 
    3412     3533     3096     2052      531    -1184    -2601    -3112 
   -2441     -824     1185     2832     3584     3594     3345     3183 
    3419     4185     5070     5446     5105     4406     3871     3665 
    3482     2827     1359     -917    -3653    -6280    -8268    -9322 
   -9275    -8191    -6488    -4642    -2964    -1545     -206     1180 
    2363     2944     2786     1954      571     -983    -2288    -3212 
   -3780    -4065    -4132    -4066    -4017    -4090    -4298    -4434 
   -4135    -3266    -1935     -325     1359     2999     4536     5921 
    7081     7784     7866     7440     6657     5681     4678     3583 
    2114      -23    -2791    -5589    -7659    -8684    -8755    -8130 
