Origin Time       2025/03/30 10:18:00
Lat.              34.667
Long.             140.825
Depth. (km)       69
Mag.              4.9
Station Code      KNG204
Station Lat.      34.8931
Station Long.     139.5711
Station Height(m) -933
Record Time       2025/03/30 10:18:52
Sampling Freq(Hz) 100Hz
Duration Time(s)  86
Dir.              E-W
Scale Factor      2000(gal)/6182761
Max. Acc. (gal)   7.932
Last Correction   2025/03/30 10:18:52
Memo.             
[...]
   -1248    -4701    -3742      647     4852     5687     2498    -2547 
   -6350    -7112    -4891    -1038     2520     4089     3306     1786 
    1680     3107     3966     2479     -886    -3940    -4652    -2672 
     505     2694     2552      753     -311      818     2666     2577 
     -99    -3279    -4407    -2990     -677      734      576     -926 
   -2776    -3471    -2222      220     1978     1643     -120    -1211 
    -319     1871     3312     2827     1516      994     1399     1802 
    1155    -1075    -4303    -6763    -6502    -2976     2367     6824 
    7871     5004      269    -3199    -3298     -543     2527     3617 
    1900    -1695    -4717    -5006    -2228     2399     6445     6584 
    1017    -7505   -12738   -10409    -2205     6127     9657     7279 
    2015    -1573    -1329     1568     4600     5481     3000    -2118 
   -7074    -8639    -5748     -195     5206     8139     7149     2334 
   -4015    -8243    -7620    -2343     4579     9170     8600     2911 
   -4516    -8687    -6490      541     6911     7167      245    -9124 
  -13713    -9648      449     9714    12125     6475    -2637    -8123 
   -6428        6     5817     6764     2241    -4217    -7752    -6187 
    -983     4639     7551     6039     1170    -3493    -4850    -2845 
     154     2054     2487     1969      879     -630    -1870    -1340 
    1273     3667     3007    -1180    -6362    -8549    -5150     2296 
    8483     8761     3179    -3912    -7463    -5366      517     6457 
    8921     5701    -1699    -7823    -7959    -2138     5354     9235 
    6919      272    -5904    -7578    -4209     1551     5782     5530 
     838    -5163    -8610    -7372    -1987     4579     8177     6096 
     -59    -4947    -4218     1540     7300     7836     2092    -6125 
  -11256   -10214    -4381     2377     6889     7737     5102      724 
   -2829    -3627    -1689      970     2086      878    -1732    -3835 
   -3787    -1161     2941     5996     5589     1762    -2743    -4612 
   -2469     1881     4764     3614    -1107    -6222    -7920    -4421 
    2682     9196    10661     5525    -3113    -9754   -10521    -5281 
    2426     7321     5942     -257    -5464    -4576     1973     8662 
    9689     3633    -5424   -11162   -10073    -3636     3816     8217 
    7655     3435     -866    -2437    -1156      805      788    -1915 
   -5208    -5998    -2880     2539     6737     6766     2533    -2639 
   -4594    -1919     2985     5725     3392    -2516    -6956    -6087 
    -776     4909     7309     5129      -70    -4847    -6549    -4943 
   -1474     1656     2251     -135    -3195    -3723     -692     3696 
    5706     3078    -2737    -7210    -6537    -1081     5242     8273 
    6362     1416    -2616    -3089     -616     1953     2199       22 
   -2652    -3461    -1604     1275     2957     2875     1856      743 
    -188     -958    -1459    -1566    -1523    -1670    -1820    -1437 
    -347     1065     2181     2401     1361     -605    -2345    -2463 
    -405     2470     3585     1571    -2248    -4616    -2891     2216 
    6743     7076     3092    -2209    -5444    -5430    -3452    -1220 
     613     1931     2343     1448     -378    -2037    -2770    -2676 
   -2085     -971      607     1881     2082     1306      221     -251 
     631     2257     2779     1206    -1333    -2573    -1114     2102 
    4302     3229     -891    -5083    -5477     -830     5732     9214 
    6847      283    -5664    -7289    -4942    -1407     1095     1697 
     488    -1562    -2845    -1895     1384     5014     6247     3903 
    -518    -3891    -4111    -1968      -64       93     -718     -814 
     478     1898     1514    -1043    -3997    -4624    -1720     2687 
    5001     3292    -1115    -4805    -5311    -2667     1462     4851 
    5765     4198     1666     -408    -1575    -1813    -1061      451 
    1771     1710      207    -1353    -1545     -235     1129      787 
   -1250    -3249    -3829    -3023    -1648     -214     1353     3037 
    4218     3980     1822    -1642    -4366    -4109     -792     3003 
    4298     2399     -578    -1957    -1191      176      649      121 
    -575     -797     -584     -317     -157        3      219      550 
     810      339     -865    -1441     -253     1774     2423      753 
   -1705    -2356     -183     3056     4503     2848     -707    -3731 
   -4691    -3905    -2637    -1614     -679      396     1411     1925 
    1959     2381     3814     5497     5658     2893    -2240    -7001 
   -8411    -5458      261     5548     7542     5493     1031    -3382 
   -6084    -6491    -4739    -1763      695     1303      356     -857 
   -1463    -1241     -201     1272     2208     1687     -120    -1772 
   -1712      294     2980     4770     4830     3225      760    -1363 
   -2016     -829     1068     1798      750     -913    -1701     -977 
     781     2001     1129    -1505    -3600    -3133     -410     2333 
    2969     1071    -1655    -2767    -1588      259      801     -523 
   -2412    -2717     -690     2187     3923     3512     1340    -1049 
   -2229    -1913     -873     -147       61      262      668     1064 
    1174      793      158       67      987     2298     2833     1758 
    -922    -4156    -6166    -5350    -1507     3416     6309     5399 
    1814    -1740    -3399    -2960    -1370      106      760      661 
     341      339      606      608      123     -625    -1383    -1932 
   -2092    -1757     -882      291     1079      773     -575    -1884 
   -1850     -127     2379     4379     5084     4235     1873    -1499 
   -4419    -4813    -1930     2445     5294     4613      886    -3111 
   -4449    -2401     1173     3639     3755     2242      663     -165 
    -596    -1133    -1874    -2811    -3641    -3553    -2240     -591 
     374      473      197      226      655      720      -16     -817 
    -697      537     2116     2841     2142      540     -888    -1283 
    -554      584     1212      933       68     -667     -577      477 
    1619     1653      378    -1390    -2751    -3254    -2892    -1795 
    -429      100     -791    -2020    -1898      195     3361     5885 
    6477     5179     3073     1159     -305    -1606    -2791    -3277 
   -2709    -1619     -801     -547     -682     -967    -1169    -1051 
    -720     -634     -907     -984     -293      959     1882     1921 
    1445     1001      575       76      -88      520     1494     1693 
     439    -1624    -2859    -2001      435     2577     3051     1841 
    -128    -1826    -2508    -1678      411     2456     3074     2087 
     608     -314     -525     -198      444      848      536     -384 
   -1432    -2027    -1851    -1359    -1319    -1925    -2727    -2849 
   -1480     1268     3958     4546     2103    -2004    -5014    -4997 
   -2394      646     2184     1550     -313    -1307      -35     2974 
    5745     6190     3669     -372    -3263    -2985      -14     3057 
    3894     2177     -529    -2378    -2693    -2012    -1346    -1322 
   -1620    -1282      240     2119     2712     1388     -872    -2565 
   -2850    -2108    -1464    -1422    -1405     -745      352      836 
     -69    -1761    -2810    -2350     -643     1281     2324     1977 
     508    -1182    -1762     -374     2097     3711     3601     2397 
    1175      765     1457     2855     3840     3125      638    -1970 
   -2722    -1149     1154     1851       50    -2855    -4452    -3347 
    -282     2562     3408     2333     1041     1005     1984     2533 
    1629     -317    -1947    -2324    -1614     -456      788     1808 
    1878      459    -1786    -3180    -2570     -527     1166     1003 
   -1055    -3452    -4516    -4057    -2922    -1736     -689      281 
    1205     1668     1235      152     -730     -565      214     -186 
   -2269    -3913    -2911      543     4011     4584     1463    -2907 
   -5132    -3911     -618     2310     3489     3321     3039     3304 
    3547     2928     1625      638      602      976      686     -409 
   -1339    -1259     -358      473      704      511      224       63 
      31     -127     -501     -822     -717      -79      678      959 
     561     -300    -1402    -2558    -3383    -3374    -2160      -74 
    1536     1411     -132    -1324     -699     1275     2573     1781 
    -247    -1196      150     2537     3663     2577      272    -1455 
   -1245      808     3007     3532     1964     -570    -2317    -2213 
    -580     1295     2015      922    -1223    -2742    -2669    -1653 
   -1126    -1699    -2410    -1816      188     1969     1766     -479 
   -2938    -3493    -1649     1058     2424     1276    -1645    -4104 
   -4230    -2042     1078     3581     4350     3462     2336     2100 
    2413     2308     1451      525      452     1167     1585      838 
    -740    -1883    -1697     -809     -662    -1560    -2452    -2482 
   -1756     -800      192     1353     2524     3175     2958     1906 
     283    -1480    -2812    -3134    -2445    -1713    -1924    -2906 
   -3631    -3510    -2888    -1959     -102     2802     5154     4817 
    1566    -2178    -3242     -441     4134     6822     5654     1746 
   -1986    -3103    -1289     1768     3842     3510     1024    -1640 
   -2353     -694     1877     3347     2720      619    -1481    -2503 
   -2379    -1653     -795     -181     -429    -1672    -2804    -2667 
   -1528     -726    -1151    -2122    -2034     -181     2489     4289 
    4261     2850     1232      413      725     1473     1428      230 
    -913     -493     1341     2765     2317      333    -1726    -2732 
   -2491    -1551     -724     -659    -1562    -2908    -3747    -3686 
   -3108    -2478    -1893    -1236     -381      787     2202     3346 
    3489     2453      964      -47     -408     -698    -1152    -1114 
     175     2518     4579     4873     3037       30    -2493    -3205 
   -2203     -746      191      557      840     1521     2603     3369 
    2882      928    -1594    -3154    -2672     -492     1818     2766 
    2003      323    -1307    -2549    -3353    -3512    -2997    -2222 
   -1669    -1382    -1084     -552      393     1642     2482     2315 
    1360      322      -37      638     1799     2457     2038      581 
   -1324    -2727    -2948    -2085     -838      -17     -103     -905 
   -1719    -1876    -1078      302     1276     1301     1002     1265 
    1919     1885      502    -1468    -2108     -130     3390     5677 
    4799     1374    -1877    -2421     -188     2549     3599     2601 
     582    -1194    -1931    -1626     -878     -193      352      603 
     302     -343     -878    -1063     -888     -689     -973    -1782 
   -2338    -1688      -25     1193      900     -218     -433      999 
    2935     3485     1885     -768    -2519    -2215     -607      242 
    -924    -3330    -4875    -4006    -1251     1499     2822     2469 
    1116     -219     -733     -252      639     1285     1511     1334 
     990     1141     2187     3507     3846     2515      182    -1549 
   -1380      634     2862     3248     1124    -2298    -5063    -5688 
   -3866     -604     2309     3211     1705    -1058    -3640    -5454 
   -6804    -7988    -8468    -7652    -5751    -3530    -2181    -2441 
   -3466    -3690    -2411     -363      909      635     -447     -966 
    -196     1351     2743     3895     5249     6602     7229     6811 
    5677     4549     4198     4869     6012     6879     7134     6838 
    6620     7374     8907     9678     8412     5451     2468      956 
    1058     1857     2289     1707      274    -1323    -2891    -4798 
   -7150    -9317   -10188    -9142    -6713    -4254    -3125    -3960 
   -6482    -9775   -12492   -13395   -12214    -9882    -7866    -7003 
   -6588    -5064    -1860     2010     4885     5654     4724     3885 
    4579     6479     7879     7258     4622     1531     -292     -427 
      98       38     -883    -1733    -1271      731     3192     4510 
    3646     1021    -1616    -2343     -634     1872     2756     1064 
   -1586    -1838     2349     9098    13771    12774     6494     -923 
   -4925    -4136     -847     1320      218    -3337    -6505    -6882 
   -4004      931     5934     8966     8814     5685     1110    -2761 
   -4344    -3528    -1539      258     1439     2286     3152     4266 
    5166     4588     1650    -3263    -8521   -11636   -10524    -5215 
    1741     6673     6799     1813    -5353    -9680    -7498      363 
    8847    12250     8100    -1284   -10404   -14513   -12500    -6466 
     139     4091     3977     1140    -1552    -2254    -1247      159 
    1146     1776     2410     2854     2116     -509    -4330    -7603 
   -8718    -7195    -3879      -48     3343     5402     5243     2935 
      21    -1595    -1211      316     1804     2938     4024     5091 
    5369     3908     1138    -1016    -1059      558     1816     1111 
   -1017    -2601    -2363     -485     2191     5002     7529     9275 
    9613     7929     4104     -851    -4805    -5695    -3370       12 
    1861     1259     -488    -1165       66     1989     2988     2401 
     348    -2578    -5249    -6393    -5484    -3223    -1264    -1242 
   -3801    -8122   -11839   -12030    -7383      485     7735    10489 
    7215     -236    -7691   -11173    -9287    -3874     1223     2690 
     470    -1933     -541     5836    14903    22412    24548    19769 
    9597    -1857   -10234   -13333   -11563    -7313    -3901    -3993 
   -8039   -13451   -15689   -11493    -1925     7877    12478    10186 
    4069     -762    -1447      912     3491     4618     4586     4610 
    5131     5222     3658      344    -3299    -5578    -5980    -5326 
   -4981    -5479    -5978    -5621    -4660    -3904    -3667    -3100 
    -558     4486    10217    13983    14207    10917     5725     1077 
    -964      681     5276     9443     8799     1489    -9785   -19073 
  -21359   -16209    -7255      874     4889     3998      -79    -4369 
   -6344    -5109    -1718     1693     3958     6122     9949    15190 
   18979    18417    13190     5479    -1783    -6594    -8641    -8788 
   -8156    -7528    -7244    -7488    -8283    -8890    -7767    -3960 
    1374     5279     5156     1008    -4167    -6429    -3816     2373 
    8813    12371    11624     7463     2471     -956    -2301    -2829 
   -3968    -6112    -8521    -9768    -8476    -3927     3164    10189 
   13958    12885     8038     2361    -1462    -2916    -3388    -4229 
   -5596    -6704    -6751    -5254    -1582     4459    11318    15970 
   15683     9988     1581    -5362    -8450    -8295    -6822    -5428 
   -4155    -2099      964     3685     4046      952    -4648    -9981 
  -12246   -10565    -6143    -1022     2932     4634     3953     1500 
   -1301    -2538     -810     3647     8409    10179     7265     1095 
   -4182    -4541      535     7770    12709    12144     5539    -4241 
  -12039   -13568    -8122     1405    10256    14080    11616     5729 
     903     -275     1312     2271     -398    -6490   -12408   -14131 
  -10600    -4078     1834     4111     1782    -3382    -7478    -6525 
     426     9799    15461    12635     1608   -11569   -19137   -17334 
   -8650      680     4790     1388    -6425   -11917   -10134    -1498 
    9456    17321    18755    14340     7569     1911     -903     -932 
     363      673    -1620    -5552    -8229    -7551    -3561     1869 
    5986     6811     4450      718    -2404    -4061    -4478    -3864 
   -1943     1086     3690     3956     1686    -1040    -1962     -839 
     611      647     -219      495     3907     8025     9730     7393 
    2037    -3390    -6497    -7255    -6929    -6162    -5060    -4211 
   -4212    -4598    -4153    -2210      275     1322       81    -2136 
   -3026    -1240     2556     6303     7938     6681     3405     -306 
   -2897    -3158     -951     2555     5598     6999     6979     6599 
    6536     6732     6945     7021     6561     5086     2758      331 
   -1551    -2689    -3254    -3610    -4151    -5228    -6943    -8727 
   -9564    -9033    -7832    -7125    -7481    -8467    -9169    -8805 
   -7023    -3936       91     4575     8731    11408    11631     9274 
    5105      508    -2859    -3649    -1720     1394     3377     2815 
     286    -1935    -1776      689     3394     4201     2475     -841 
   -4030    -5543    -4878    -2696     -127     1988     3537     4856 
    6068     6908     6897     5665     3265      355    -1691    -1492 
     893     3689     4668     2470    -2476    -7696   -10285    -9252 
   -6026    -3081    -2333    -4065    -6825    -8441    -7413    -3684 
    1538     6444     9279     9057     6155     2348       62      812 
    4030     7533     9084     7713     3931     -936    -5293    -7684 
   -7442    -5349    -3602    -4258    -7107    -9499    -8617    -4001 
    1886     5499     4960     1447    -1798    -2055      899     4964 
    7397     6725     3587        6    -2018    -1655      521     3255 
    5350     6057     5275     3593     2089     1756     2637     3474 
    2551     -823    -5504    -9142    -9725    -6867    -1953     2719 
    5193     4816     2425     -150    -1145      114     2903     5393 
    5764     3636      243    -2505    -3236    -2187     -953     -858 
   -1798    -2671    -2648    -2039    -1963    -3117    -5120    -7020 
   -8160    -8481    -7927    -6040    -2597     1748     5622     7769 
    7971     6896     5120     2858      349    -1846    -2739    -1717 
     548     2757     4032     4217     3964     4054     4423     4389 
    3291      933    -1901    -3812    -4154    -3660    -3462    -3831 
   -4157    -3764    -2471     -621     1050     1679      900     -757 
   -2184    -2422    -1503     -487      -98      273     1869     5081 
    8556     9978     7958     3216    -1625    -3628    -1632     2940 
    7154     8436     5849      330    -5822    -9993   -10459    -7160 
   -1718     3233     5442     4432     1571     -877    -1135      691 
    2565     2190    -1013    -5561    -9400   -11252   -11096   -10024 
   -9343    -9579   -10103    -9589    -7076    -2865     1443     4118 
    4776     4625     5329     7423     9862    11193    10749     8869 
    6588     4927     4152     3902     3783     3499     2684     1092 
    -960    -2586    -3109    -2838    -2561    -2401    -1792     -403 
    1339     2506     2456     1388      -93    -1546    -2592    -2948 
   -2664    -1948     -976       42      857     1301     1423     1321 
     725     -847    -3363    -5937    -7315    -6891    -5185    -3232 
   -1693     -391     1320     3665     6190     8166     8960     8190 
    5835     2297    -1574    -4467    -5096    -3175      144     2947 
    3757     2447      336     -724      371     3177     5916     6704 
    4695      548    -3715    -5903    -5272    -2970    -1096    -1191 
   -3172    -5449    -6154    -4493    -1085     2563     4715     4215 
    1356    -2238    -4839    -5676    -5199    -4400    -3718    -2790 
   -1163      940     2531     2551      654    -2484    -5276    -5861 
   -3490      541     3681     3948     1497    -1431    -2462     -779 
