Origin Time       2025/03/30 10:18:00
Lat.              34.667
Long.             140.825
Depth. (km)       69
Mag.              4.9
Station Code      KNG205
Station Lat.      34.9413
Station Long.     139.4213
Station Height(m) -1486
Record Time       2025/03/30 10:18:52
Sampling Freq(Hz) 100Hz
Duration Time(s)  97
Dir.              N-S
Scale Factor      2000(gal)/6182761
Max. Acc. (gal)   17.146
Last Correction   2025/03/30 10:18:52
Memo.             
[...]
    6775     3251      983     -478    -2015    -3669    -4664    -4341 
   -2508      475     3463     5136     4812     2544     -892    -4024 
   -5373    -4568    -2524     -466      754      758     -257    -1574 
   -2548    -3202    -3860    -4441    -4652    -4405    -3823    -3289 
   -3369    -4211    -4954    -4131    -1084     3186     6725     8103 
    7317     5308     2968      909     -448     -783      222     2319 
    4325     4965     3784     1254    -1557    -3580    -4254    -3537 
   -1682      850     3266     4603     4495     3341     1635     -172 
   -1481    -1798    -1124       77     1277     2041     2161     2042 
    2173     2369     2038      523    -2460    -6143    -9008    -9733 
   -7816    -3901      373     3277     3949     2816     1322      689 
     974     1460     1170     -572    -3222    -5090    -4751    -2234 
    1221     3965     4590     2879      -12    -2599    -3737    -2988 
   -1091      645     1463     1433     1262     1617     2381     3036 
    3384     3592     3906     4268     4200     3152      923    -2019 
   -4486    -5115    -3388     -153     2852     3942     2656      192 
   -1835    -2625    -2442    -2559    -4051    -6311    -7585    -6407 
   -2535     2632     6667     7521     4884      400    -3479    -4596 
   -2207     2093     5465     6045     4128     1697      669     1626 
    3800     5475     5149     2766     -565    -3613    -5551    -6221 
   -6179    -5897    -5182    -3644    -1114     2065     4885     6265 
    5632     3041     -716    -4180    -5862    -5126    -2600      264 
    2055     2220     1438      997     1372     1752     1042    -1141 
   -4004    -5813    -5265    -2579      790     3014     3178     2058 
    1016      700     1082     1720     2054     2148     2626     3678 
    4664     4562     2726     -467    -3722    -5642    -5556    -3807 
   -1302     1093     2765     3482     3342     2544     1185     -780 
   -3104    -4932    -5306    -3985    -1727      284     1508     2387 
    3386     4251     4286     2939      332    -2710    -5089    -5939 
   -5097    -3069     -598     1624     3133     3757     3606     2925 
    1856      570     -554     -962     -151     1592     2957     2751 
     930    -1487    -3061    -2911    -1604     -655     -981    -2151 
   -2696    -1281     1886     5147     6787     6081     3409     -200 
   -3496    -5502    -6039    -5494    -4012    -1334     2207     5154 
    6134     5085     2885      350    -2100    -4231    -5545    -5330 
   -3563    -1218      509     1038      725      465      767     1115 
     656     -609    -1844    -2100     -969     1157     3374     4624 
    4348     3018     1467      250     -179      370     1254     1226 
    -203    -2082    -2873    -1469     1856     5192     6418     4631 
     603    -3537    -5743    -5630    -4296    -2728    -1363     -639 
    -570     -573     -254      495     1711     3036     3707     3087 
    1190    -1121    -2607    -2534    -1169      489     1579     1764 
    1043     -101     -873     -888     -479     -415    -1151    -2431 
   -3597    -3914    -3113    -1890    -1209    -1194    -1114     -149 
    1892     4238     5746     5970     5203     3918     2679     1950 
    1767     1815     1744     1509     1299     1122      777      104 
    -800    -1433    -1343     -943    -1149    -2287    -3906    -5253 
   -5764    -5334    -4105    -2371     -716      162     -167    -1383 
   -2220    -1464      708     2894     3640     2473      362    -1169 
   -1135      586     2947     4396     4191     2540      112    -2273 
   -3863    -4164    -3229    -1549      358     1983     2943     3250 
    3012     2167      931       35      127     1223     2710     3861 
    4522     4858     4785     4187     2983     1110    -1124    -3112 
   -4339    -4646    -4275    -3577    -2952    -2785    -3040    -3417 
   -3817    -4121    -3867    -2682     -727     1511     3394     4269 
    4102     3550     3042     2368     1122     -705    -2525    -3603 
   -3558    -2577    -1396     -775     -875    -1196    -1197     -776 
     -57      990     2562     4598     6395     6861     5424     2802 
     469     -692     -904    -1051    -1876    -3180    -3904    -3348 
   -1947     -823     -981    -2238    -3022    -2127      -20     1891 
    2599     2140     1268      750     1014     1946     2776     2741 
    1810      414     -870    -1434    -1125     -456      -30      -26 
    -384     -918    -1306    -1487    -1521    -1187     -418      455 
    1021     1109     1002     1008     1033     1023     1112     1269 
    1275      848     -179    -1516    -2561    -2946    -2644    -1711 
    -545     -138    -1172    -3078    -4483    -4231    -1921     1861 
    5578     7808     8422     8088     7228     5841     3605      309 
   -3402    -6198    -7145    -6233    -4114    -1753      -61      587 
     448       -7     -457     -847    -1155    -1183     -864     -377 
     107      426      505      671     1386     2462     3028     2294 
     186    -2401    -4078    -3992    -2400     -265     1372     1653 
     545     -756     -775      970     3624     5710     6281     5206 
    2736     -399    -2990    -4249    -4412    -4201    -3901    -3290 
   -2138     -463     1186     2014     1955     1564     1140      794 
     734      850      712      132     -700    -1330    -1298     -605 
     289      897     1016      940     1246     2018     2640     2300 
     536    -2105    -4185    -4584    -3213     -724     1803     3149 
    2763     1264     -207     -733      153     2114     3934     4430 
    3210      640    -2237    -4128    -4422    -3452    -2008     -876 
    -404     -353     -368     -407     -609    -1094    -1802    -2428 
   -2661    -2405    -1806    -1021      143     1973     4157     6018 
    7141     7170     5953     4076     2159      213    -1729    -3300 
   -4211    -4528    -4413    -3700    -2203     -162     1936     3505 
    3993     3437     2404     1153     -408    -2075    -3319    -3851 
   -3900    -3747    -3376    -2667    -1466      303     2327     3908 
    4386     3636     2215      992      407      144     -270     -954 
   -1822    -2749    -3465    -3347    -1897      327     2056     2647 
    2464     2020     1252      -99    -1804    -3172    -3461    -2447 
    -632     1196     2277     2195     1394      796      880     1465 
    1964     1711      554     -866    -1682    -1558     -895     -180 
     652     1748     2781     3394     3479     3062     2433     1855 
    1128      -71    -1738    -3562    -4940    -5022    -3289     -152 
    3108     4893     4232     1756     -811    -2282    -2430    -1682 
   -1024    -1122    -1578    -1667    -1128      -49     1289     2367 
    2703     2172     1084       80     -397     -493     -516     -591 
    -842    -1395    -2141    -2598    -2415    -1816    -1130     -645 
    -696    -1188    -1673    -1826    -1427     -381     1091     2365 
    2834     2649     2356     2082     1816     1671     1680     1985 
    2638     3149     2921     1859      288    -1327    -2493    -3004 
   -3120    -3125    -3033    -2761    -2175    -1293     -512     -173 
    -235     -454     -525     -222      414     1033     1275     1135 
     804      469      425      886     1595     2030     1957     1668 
    1713     2386     3381     3989     3746     2733     1422      360 
    -328     -957    -1845    -3162    -4692    -5637    -5261    -3684 
   -1836     -804    -1053    -2127    -3103    -3210    -2273     -790 
     590     1656     2550     3432     4425     5439     5981     5472 
    3740     1280    -1083    -2738    -3355    -3006    -2174    -1196 
    -251      211     -221    -1290    -2204    -2577    -2674    -2512 
   -1733     -296     1359     2523     2732     2190     1391      685 
     292      190      135       36       55      395      996     1518 
    1818     2004     2111     2247     2585     3017     3171     2584 
    1210     -275    -1140    -1244    -1050    -1207    -1908    -2909 
   -3935    -4636    -4782    -4570    -4308    -4154    -4178    -4307 
   -4317    -4010    -3371    -2391     -896     1047     2936     4298 
    5029     5242     5006     4493     4055     3791     3483     3004 
    2483     2259     2613     3416     4214     4532     3900     2030 
    -749    -3478    -5022    -4803    -3331    -1635     -332      409 
     746     1142     1852     2638     3022     2585     1351      -73 
    -894     -645      379     1222     1207      446     -672    -1754 
   -2453    -2900    -3550    -4438    -5110    -5006    -3770    -1738 
     221     1376     1396      769      709     1817     3537     4941 
    5232     4099     2007     -235    -2058    -3350    -4280    -4882 
   -4960    -4419    -3544    -2774    -2310    -1977    -1352     -284 
     795     1479     1961     2644     3518     4156     4047     2869 
     903     -901    -1682    -1318     -423      163       77     -444 
    -882     -739       51     1108     1894     1944     1167     -211 
   -1692    -2541    -2551    -2151    -1476     -341     1108     2364 
    2935     2575     1301     -445    -1551    -1037      708     2338 
    2888     2328     1350      789      919     1239     1066      237 
    -837    -1495    -1214      -77     1242     1995     1669      346 
   -1236    -2252    -2190    -1158       82      630       -4    -1358 
   -2341    -2426    -1768     -626      625     1388     1181      150 
    -837     -873      152     1439     2127     2058     1551     1055 
    1107     1862     2786     3307     3311     2777     1741      475 
    -841    -2239    -3683    -4913    -5396    -4649    -2855     -809 
     672      966      -60    -1654    -2690    -2615    -1627     -317 
     708     1077      822      391      222      473     1119     1791 
    2022     1675      783     -409    -1325    -1439     -660      592 
    1664     1908     1112      -42     -735     -741     -169      602 
    1084     1063      552     -294    -1204    -1788    -1628     -637 
     851     2147     2516     1890      861       72       86     1014 
    2117     2525     2036      933     -392    -1428    -1664     -972 
     376     1878     2877     2978     2385     1475      437     -466 
    -907     -786     -345       34      117     -223     -884    -1446 
   -1665    -1628    -1514    -1588    -1991    -2517    -2880    -3008 
   -3052    -3155    -3215    -3022    -2409    -1317       21     1161 
    1859     2198     2295     2056     1535     1234     1591     2501 
    3417     3759     3382     2534     1479      382     -535     -975 
    -969    -1024    -1529    -2345    -2984    -2883    -1877     -508 
     491      828      781      920     1508     2249     2677     2567 
    2086     1607     1245      845      423       80     -263     -631 
    -909    -1028     -983     -840     -831    -1145    -1722    -2422 
   -3083    -3444    -3297    -2664    -1664     -426      750     1517 
    1788     1758     1646     1470     1249     1138     1141     1073 
     863      694      747      918      985      863      536       35 
    -467     -722     -589      -33      873     1738     2094     2003 
    1773     1416      933      586      675     1229     1899     2384 
    2578     2290     1409      131    -1276    -2598    -3552    -4018 
   -4180    -4208    -4076    -3654    -2952    -2212    -1604    -1155 
    -921     -890     -927     -914     -716     -207      575     1472 
    2233     2568     2440     2125     1954     2061     2298     2334 
    1920     1149      350     -321     -901    -1292    -1282     -773 
     260     1596     2636     2974     2644     1750      504     -684 
   -1431    -1561    -1207     -765     -504     -379     -254      -80 
      71      172      440      990     1418     1128      -91    -1906 
   -3569    -4428    -4410    -3787    -2927    -2319    -2243    -2434 
   -2296    -1445     -148      892     1195      801      161     -274 
    -374     -107      480     1110     1692     2413     3276     4095 
    4751     5109     4980     4308     3216     2029     1164      819 
    1007     1667     2433     2850     2793     2278     1277      -88 
   -1505    -2537    -2840    -2370    -1308      -65      729      693 
     100     -403     -377      205     1141     2048     2521     2353 
    1513      205    -1196    -2399    -3302    -4084    -4979    -5924 
   -6853    -7819    -8629    -8940    -8474    -7026    -4780    -2480 
    -936     -436     -512     -266      942     3135     5789     8198 
    9858    10520    10370     9910     9347     8627     7629     6136 
    4077     1731     -245    -1194    -1156     -870    -1043    -1787 
   -2704    -3401    -3700    -3631    -3465    -3546    -4062    -4979 
   -6098    -7172    -7846    -7781    -6942    -5472    -3482    -1072 
    1702     4733     7633     9785    10505     9254     6036     1458 
   -3568    -7870   -10296   -10454    -8797    -5958    -2494      897 
    3591     5434     6682     7696     8549     8698     7088     2829 
   -4004   -12177   -19781   -25092   -27307   -26496   -23150   -17869 
  -11395    -4789      964     5473     8943    12270    16583    22011 
   27543    32128    35258    36932    37614    37819    37571    36304 
   33161    27541    19463     9450    -1716   -13222   -24522   -35228 
  -44519   -50901   -52941   -50397   -44593   -37716   -31712   -27370 
  -24007   -20068   -14477    -7666    -1207     3511     6169     7650 
    9605    13520    19989    28556    37808    45812    50594    50416 
   44441    33386    19374     5192    -6720   -15088   -20001   -22431 
  -23050   -21481   -17227   -10867    -4009     1327     3454     1855 
   -2608    -8409   -14152   -18694   -20844   -19456   -14146    -5887 
    3243    10934    15739    17709    17908    17507    17239    17142 
   16577    14742    11216     6144      224    -5720   -11236   -16095 
  -19961   -22429   -23464   -23603   -23268   -22057   -18947   -13042 
   -4394     5627    14722    20540    21721    18283    11389     3323 
   -3069    -5734    -4334     -485     3199     5040     5061     4416 
    4507     5961     8336    10497    11227    10111     7705     4962 
    2796     1632      984     -260    -2893    -6749   -10873   -14132 
  -15721   -15439   -13692   -11143    -8357    -5560    -2562      884 
    4675     8122    10209    10302     8478     5461     2368      114 
   -1116    -2038    -3902    -7382   -11621   -14455   -13727    -8516 
     316    10187    17982    21776    21482    18155    13260     8435 
    4872     2970     2676     3310     3421     1647    -2226    -6936 
  -10519   -11711   -10681    -8732    -7475    -7737    -9083   -10528 
  -11288   -10983    -9686    -7539    -4290      255     5428     9859 
   12274    12081     9562     5810     2496     1251     2741     6251 
   10032    12212    11833     9173     5220      947    -3157    -7009 
  -10535   -13564   -15828   -16884   -16377   -14136    -9939    -3850 
    3250     9724    13880    14878    12985     9162     4712      926 
   -1372    -1894     -994      105     -114    -2337    -5862    -9106 
  -10840   -10616    -8266    -3937     1697     7433    11668    13471 
   13315    12166    10561     8468     5458     1349    -3143    -6555 
   -7534    -5902    -2896     -293      572     -482    -2408    -3873 
   -4197    -3417    -1829      225     2389     4483     6394     8035 
    9466    10621    11057     9993     6891     2184    -2952    -7416 
  -10842   -13626   -16122   -18120   -19184   -19046   -17753   -15570 
  -12475    -8056    -2187     4420    10285    13835    14359    12322 
    8902     5469     3087     2127     2348     3163     3953     4328 
    4206     3936     4139     5090     6318     6809     5720     2880 
   -1453    -6630   -11185   -13257   -11805    -7225    -1251     3764 
    6301     6628     6227     6383     7357     8807    10326    11538 
   12107    11547     9339     5621     1383    -2251    -4879    -7054 
   -9695   -13041   -16145   -17563   -16364   -12655    -7572    -2585 
    1223     3282     3518     2412      594    -1788    -4777    -8115 
  -11461   -14040   -14567   -12484    -8458    -3759      304     2995 
    4366     4916     5325     6014     6837     7538     8177     9106 
   10754    13178    15843    17824    18130    16281    12765     8747 
    5285     2663      365    -2136    -4752    -6879    -7877    -7562 
   -6186    -4236    -2428    -1441    -1479    -2264    -3389    -4516 
   -5467    -6347    -7363    -8542    -9622   -10160    -9819    -8393 
   -5621    -1425     3701     8632    12030    13017    11607     8715 
    5663     3176     1019    -1243    -3729    -6486    -9514   -12263 
  -13675   -13216   -11422    -9267    -7556    -6521    -5510    -3411 
     528     6255    12758    18273    21061    20343    16964    13184 
   11172    11560    13288    14418    13473    10223     5286     -457 
   -6076   -10709   -13853   -15617   -16403   -16526   -16284   -15866 
  -15125   -13663   -10987    -6706     -840     5879    11897    15480 
   15766    13091     8601     3647     -891    -4692    -7447    -8878 
   -9076    -8327    -6938    -5385    -4068    -2976    -1892     -655 
     866     2837     5403     8400    10992    12019    10975     8318 
    5003     2113      289     -729    -1719    -3450    -6387   -10187 
  -13518   -14849   -13322    -8954    -2731     3613     8577    11748 
   13622    14835    15631    15923    15598    14670    13195    11048 
    7966     3997     -163    -3474    -5358    -6145    -6815    -8321 
  -10949   -14084   -16325   -16287   -13588    -8933    -3800      133 
    1931     1761      436    -1227    -2849    -4406    -5803    -6601 
   -6225    -4557    -2122      367     2375     3720     4675     5619 
    6467     6742     6184     4889     3124     1290     -292    -1543 
   -2608    -3810    -5320    -6850    -7829    -7683    -6041    -3125 
     194     2973     4746     5795     6837     8109     9165     9527 
    8976     7576     5643     3477     1300     -648    -2099    -2642 
   -1935     -246     1525     2341     1611     -442    -3008    -5122 
   -5919    -5092    -3007     -432     1535     2009      969     -741 
   -1907    -1774     -567      696      906     -351    -2539    -4517 
   -5300    -4540    -2344      836     4234     6971     8470     8844 
    8607     8111     7380     5997     3339     -881    -6358   -12007 
  -16290   -18028   -16674   -12536    -6991    -1649     2523     5208 
    6606     7135     7003     6289     5337     4618     4261     4088 
    3908     3631     3245     2704     2104     1900     2614     4208 
    5830     6346     5171     2561     -728    -3836    -5976    -6691 
   -6005    -4220    -1859      440     2337     3795     4892     5731 
    6009     5103     2737     -855    -4960    -8551   -10914   -12034 
  -12359   -12407   -12382   -11995   -10779    -8538    -5559    -2532 
     -99     1492     2232     2274     2084     2218     2961     4420 
    6511     8715    10218    10400     9311     7621     5919     4323 
    2661      714    -1482    -3431    -4547    -4735    -4296    -3458 
