Origin Time       2025/03/30 10:18:00
Lat.              34.667
Long.             140.825
Depth. (km)       69
Mag.              4.9
Station Code      SZO003
Station Lat.      34.8158
Station Long.     139.0544
Station Height(m) 149
Record Time       2025/03/30 10:18:55
Sampling Freq(Hz) 100Hz
Duration Time(s)  74
Dir.              N-S
Scale Factor      7845(gal)/8223790
Max. Acc. (gal)   10.830
Last Correction   2025/03/30 10:18:54
Memo.             
[...]
     544      548      548      544      549      549      541      544 
     550      545      542      545      546      544      540      542 
     546      545      542      541      544      545      546      545 
     541      535      535      537      546      560      557      545 
     548      550      545      542      541      544      546      545 
     546      549      550      548      541      535      537      541 
     544      545      548      545      542      550      557      548 
     544      544      535      533      534      541      550      549 
     550      556      546      544      550      548      544      542 
     541      542      540      542      544      538      542      546 
     542      548      557      557      550      545      544      540 
     535      542      545      541      541      540      541      548 
     541      540      549      553      552      550      550      548 
     537      534      538      537      544      553      552      552 
     544      538      546      542      540      548      550      549 
     544      540      540      541      546      544      537      546 
     549      538      541      550      552      550      549      546 
     542      540      545      548      546      544      548      553 
     544      541      546      542      540      549      548      542 
     546      548      541      541      545      545      544      545 
     545      549      552      546      542      546      545      544 
     546      544      542      541      534      535      542      546 
     554      554      545      541      540      542      548      548 
     546      546      542      542      548      548      542      540 
     538      540      541      541      542      548      546      542 
     542      545      548      546      545      541      538      549 
     556      553      550      545      541      544      541      541 
     545      545      544      540      544      550      540      540 
     549      542      545      552      545      542      541      537 
     544      554      553      548      544      541      534      535 
     553      558      550      550      548      542      540      535 
     541      542      535      540      548      550      552      546 
     540      541      546      550      553      552      548      544 
     545      544      538      541      544      538      544      549 
     542      544      546      544      548      544      537      544 
     552      548      544      544      542      542      548      549 
     545      548      550      541      541      545      541      540 
     538      541      550      545      538      542      545      545 
     545      549      550      542      537      545      556      558 
     550      544      540      538      542      548      550      550 
     545      540      541      538      538      542      541      542 
     550      548      540      538      546      557      557      550 
     545      541      542      545      541      546      548      538 
     546      553      544      542      545      544      546      546 
     540      535      546      553      548      548      552      548 
     550      552      542      541      545      546      549      546 
     540      541      550      556      548      538      538      541 
     545      548      546      544      545      549      554      556 
     549      546      545      541      545      549      544      535 
     535      545      548      550      552      544      544      549 
     544      535      537      542      549      552      545      542 
     544      544      546      546      546      548      550      552 
     546      538      538      540      546      550      544      544 
     544      538      540      541      545      550      549      554 
     553      541      540      548      546      548      553      554 
     545      534      534      542      545      548      549      550 
     552      545      538      542      546      544      537      537 
     546      549      550      556      548      541      550      553 
     549      545      540      546      550      541      541      541 
     535      537      542      550      553      549      548      546 
     545      548      545      542      545      545      546      552 
     546      541      542      544      553      558      548      542 
     542      540      541      542      544      549      548      544 
     548      549      542      535      538      546      549      552 
     554      549      542      540      544      549      548      544 
     542      540      541      541      542      550      549      546 
     545      540      548      552      544      546      546      538 
     540      545      548      545      545      554      554      544 
     538      540      545      546      538      541      545      542 
     546      549      542      542      545      546      552      549 
     546      546      546      553      554      544      541      545 
     541      537      541      546      548      546      545      542 
     546      549      541      541      548      544      541      550 
     550      546      544      548      552      546      541      545 
     544      542      544      544      544      542      542      545 
     550      550      544      542      548      548      546      549 
     542      542      553      550      544      545      548      549 
     545      542      545      542      540      538      540      545 
     550      546      546      549      542      544      550      548 
     541      544      548      542      541      544      541      548 
     556      545      534      538      545      553      553      549 
     552      554      552      548      540      533      533      535 
     544      554      552      541      544      550      546      542 
     545      542      545      549      545      541      546      552 
     552      546      535      533      538      542      549      550 
     549      548      544      545      546      540      537      545 
     553      554      545      533      538      546      546      552 
     550      541      537      538      548      550      546      545 
     544      545      540      538      546      548      546      552 
     554      548      541      542      548      544      537      540 
     540      537      545      553      550      546      541      540 
     546      548      546      549      550      552      548      542 
     542      540      534      538      549      552      549      548 
     548      546      545      542      541      541      545      545 
     544      548      549      548      549      548      544      542 
     546      542      540      550      550      544      546      549 
     544      540      538      541      546      549      546      545 
     544      544      546      549      545      544      550      550 
     542      542      542      540      545      550      552      549 
     544      545      549      544      541      537      538      546 
     545      548      553      546      542      549      548      538 
     534      538      546      546      542      542      541      538 
     541      544      549      549      545      550      553      548 
     548      548      545      544      537      535      540      545 
     549      550      552      550      544      541      541      541 
     545      542      542      549      550      549      550      546 
     542      541      545      550      542      545      549      541 
     542      549      545      542      544      545      548      549 
     548      544      542      542      544      548      552      544 
     537      541      541      541      546      549      548      542 
     541      546      548      549      553      546      545      552 
     545      538      541      540      542      548      545      541 
     544      548      549      548      545      540      542      546 
     542      545      550      550      553      553      549      546 
     541      537      544      548      546      545      542      541 
     538      541      545      542      544      546      549      549 
     545      544      552      557      552      546      542      541 
     542      538      538      540      537      540      544      545 
     550      546      540      545      549      554      556      550 
     546      545      544      544      546      549      544      535 
     535      540      542      553      552      542      546      549 
     545      546      546      544      545      546      549      552 
     542      541      549      550      546      542      549      552 
     542      541      540      538      541      542      544      545 
     544      552      557      549      546      549      548      546 
     550      552      545      540      538      538      538      541 
     541      542      545      549      546      542      550      558 
     556      549      545      544      553      556      544      540 
     545      538      531      538      545      544      542      546 
     549      546      545      545      545      554      556      552 
     554      549      542      545      542      538      538      540 
     542      546      546      541      537      541      549      553 
     550      545      544      549      549      550      553      549 
     544      546      542      535      538      545      546      545 
     545      546      545      546      546      541      545      549 
     545      548      550      552      556      546      540      545 
     548      548      542      533      530      537      548      549 
     545      549      552      546      546      545      542      544 
     546      549      553      546      544      550      545      538 
     540      537      538      545      546      544      548      556 
     552      545      545      542      540      541      544      546 
     545      542      541      542      544      545      542      540 
     545      552      553      550      546      545      544      541 
     542      541      540      549      552      544      544      545 
     546      545      540      537      537      544      556      556 
     548      540      538      545      545      545      550      550 
     549      549      542      542      548      541      540      544 
     542      542      538      540      545      546      550      554 
     554      552      546      545      542      540      544      550 
     550      549      545      544      544      542      544      546 
     544      544      548      542      546      556      552      546 
     544      542      542      541      540      540      542      553 
     553      550      556      546      535      538      542      544 
     540      540      550      550      541      542      544      545 
     546      542      548      554      552      550      548      546 
     545      542      542      540      538      542      546      545 
     548      550      552      552      545      544      549      544 
     542      548      545      542      544      545      548      545 
     540      541      540      541      544      542      546      554 
     550      545      544      545      545      542      545      548 
     542      541      544      545      548      544      540      544 
     550      553      546      541      546      549      545      542 
     544      544      544      545      552      554      549      544 
     545      548      545      541      545      550      546      548 
     550      546      542      535      537      545      541      538 
     546      548      548      553      553      545      538      538 
     537      537      544      544      535      537      535      529 
     525      530      540      552      569      599      629      649 
     658      658      660      660      657      649      603      498 
     351      160      -36     -105       75      506     1063     1567 
    1854     1750     1108      -10    -1294    -2311    -2659    -2100 
    -673     1271     3254     4924     5950     5778     4000     1094 
   -1730    -3628    -4692    -5184    -4653    -2397     1251     4556 
    5867     5232     3824     2443     1131     -486    -2621    -4644 
   -5285    -3863    -1054     1634     3285     4396     5788     7133 
    7227     5346     1864    -2184    -5517    -6812    -5614    -3325 
   -1987    -1752    -1244      -66     1088     2037     3056     3758 
    3623     3337     4170     6095     7627     7416     5157     1354 
   -2587    -4920    -5362    -5435    -6629    -8560    -9113    -6980 
   -3396     -499     1080     2319     4345     7342    10272    11421 
    9826     6546     3824     2570     1678      -51    -2523    -4752 
   -5809    -5128    -2760       29     1528     1269      110    -1094 
   -2184    -3241    -3986    -3994    -3183    -1644      369     2307 
    3753     4648     5097     5254     5209     5265     5871     6845 
    7285     6458     4367     1475    -1555    -4020    -5736    -7137 
   -8580    -9841   -10062    -8576    -5734    -2637     -446      611 
    1632     3576     6189     8808    10901    11898    11435     9578 
    6841     3973     1417     -681    -2191    -3262    -4441    -5950 
   -7230    -7538    -6767    -5410    -3897    -2455    -1317     -415 
     599     1935     3568     5289     6844     8008     8428     7801 
    6253     4282     2382      773     -519    -1537    -2469    -3609 
   -4992    -6274    -7037    -6953    -5834    -3848    -1579      224 
    1177     1676     2516     4261     6717     8726     9224     8216 
    6340     4276     2367      467    -1572    -3492    -4791    -5115 
   -4584    -3667    -2700    -1780    -1070     -662     -133     1031 
    2523     3460     3489     3024     2689     2826     3256     3411 
    2690      900    -1356    -2959    -3330    -3034    -2961    -3208 
   -3196    -2509    -1216      234     1447     2550     3991     5976 
    8051     9080     8256     6107     3847     2012      230    -1890 
   -4137    -5906    -6759    -6725    -6137    -5244    -4016    -2569 
   -1302     -301      693     1845     3183     4591     5869     6835 
    7088     6276     4665     2982     1784      986      -48    -1632 
   -3245    -4216    -4411    -3915    -2614     -697     1039     1848 
    1668     1148     1138     1796     2459     2536     1988     1101 
     376      129       58     -159     -272      -56      175       58 
    -236     -152      372      652      247     -310     -190      652 
    1545     1999     1929     1540     1296     1472     1815     1846 
    1344      595      135      229      643      882      526     -594 
   -2133    -3222    -3237    -2479    -1614     -832       37     1117 
    2397     3716     4731     5042     4541     3586     2717     2154 
    1648      901      -75    -1204    -2394    -3295    -3480    -2938 
   -2151    -1594    -1259     -777       76     1119     2019     2463 
    2172     1352      842     1235     2216     3113     3495     3210 
    2520     1890     1391      758     -116    -1013    -1549    -1445 
    -827     -325     -546    -1386    -2209    -2342    -1358      430 
    1983     2535     2293     2012     2093     2254     2034     1432 
     922      819      878      716      361      141      101     -179 
    -931    -1725    -1960    -1395     -241      936     1641     1885 
    1927     1796     1410      966      908     1424     2034     1966 
    1092      102     -394     -568     -882    -1260    -1235     -588 
     511     1593     2188     2266     2002     1475      876      359 
     -85     -259      -60       25     -326     -718     -761     -583 
    -387     -194       41      454     1166     2000     2620     2862 
    2743     2405     1976     1368      502     -387     -920     -882 
    -383      109      145     -232     -715    -1051     -996     -402 
     526     1367     1823     1868     1707     1532     1273      913 
     654      546      481      531      851     1318     1494     1023 
      25     -962    -1436    -1344    -1027     -703     -298      325 
    1175     1881     1904     1355     1055     1412     1881     1792 
    1182      650      540      652      639      417      152      -59 
    -252     -349     -232       78      540     1144     1614     1553 
    1073      650      465      302      -70     -615    -1039    -1065 
    -656       25      652      888      710      395      349      815 
    1541     1977     1806     1246      758      508      286      -21 
    -144      172      805     1453     1860     1923     1729     1460 
    1254     1030      637      257       91     -102     -571    -1246 
   -1915    -2282    -2176    -1679     -830      391     1696     2577 
    2837     2714     2581     2589     2509     2043     1235      427 
      75      357      818      729       -4     -754     -985     -747 
    -391     -135      -13      -31     -125     -106      106      336 
     445      535      691      920     1312     1796     1956     1520 
     768      202       64      315      835     1386     1733     1811 
    1602     1088      322     -523    -1070    -1003     -502       20 
     402      657      747      630      405      230      117       86 
     217      378      395      303      194      148      217      403 
     776     1317     1813     2081     2046     1722     1271      800 
     257     -276     -453     -140      322      638      774      650 
     301       79      133      198      211      499     1174     1842 
    2034     1715     1246      849      515      276      122     -114 
    -535    -1015    -1339    -1402    -1231     -808     -120      567 
     912      938      946     1105     1281     1378     1595     2030 
    2417     2444     2068     1458      823      387      259      305 
     425      623      719      457     -162     -789    -1038     -909 
    -558      -33      572     1170     1590     1528     1088      652 
     270      -52     -102       90      284      463      729      908 
     703      195     -238     -410     -346      -76      396      931 
    1196     1013      633      472      658      961     1093     1054 
    1039     1044      966      930     1062     1243     1287     1170 
    1008      854      703      658      649      396      -75     -459 
    -531     -265      153      533      795      791      415     -143 
    -567     -692     -519     -109      368      642      625      560 
     654      816      932     1080     1367     1706     1807     1553 
    1197     1042     1107     1158     1024      742      433      191 
      -4     -294     -739    -1128    -1123     -662        4      666 
    1263     1749     2023     2003     1696     1194      658      261 
      79       64      160      265      176     -186     -645     -885 
    -689     -153      415      812      994     1011      920      764 
