Origin Time       2025/03/30 10:18:00
Lat.              34.667
Long.             140.825
Depth. (km)       69
Mag.              4.9
Station Code      SZO007
Station Lat.      34.9771
Station Long.     138.9468
Station Height(m) 46
Record Time       2025/03/30 10:19:18
Sampling Freq(Hz) 100Hz
Duration Time(s)  60
Dir.              U-D
Scale Factor      7845(gal)/8223790
Max. Acc. (gal)   0.456
Last Correction   2025/03/30 10:19:17
Memo.             
[...]
    3561     3518     3582     3667     3699     3696     3658     3576 
    3526     3595     3704     3723     3647     3562     3542     3628 
    3739     3727     3623     3569     3568     3569     3592     3635 
    3666     3659     3653     3697     3711     3630     3569     3591 
    3609     3596     3569     3545     3565     3616     3600     3504 
    3464     3558     3696     3726     3611     3462     3447     3604 
    3763     3763     3639     3527     3495     3535     3647     3769 
    3755     3613     3539     3599     3704     3784     3751     3599 
    3481     3503     3616     3707     3701     3653     3638     3632 
    3613     3643     3707     3676     3565     3527     3580     3650 
    3712     3721     3626     3503     3496     3600     3661     3605 
    3527     3495     3493     3543     3661     3758     3736     3616 
    3532     3595     3739     3767     3620     3453     3423     3546 
    3694     3734     3669     3620     3669     3726     3681     3600 
    3592     3663     3753     3746     3626     3542     3601     3716 
    3712     3574     3473     3510     3627     3705     3661     3539 
    3488     3531     3573     3615     3685     3678     3554     3462 
    3491     3573     3645     3674     3650     3608     3623     3680 
    3662     3580     3582     3657     3673     3662     3700     3762 
    3794     3755     3639     3505     3451     3507     3572     3569 
    3565     3611     3620     3554     3527     3634     3762     3740 
    3609     3559     3623     3672     3635     3550     3523     3624 
    3750     3735     3611     3553     3595     3627     3620     3603 
    3573     3572     3647     3721     3696     3616     3600     3661 
    3700     3662     3584     3528     3551     3597     3578     3537 
    3545     3615     3697     3704     3640     3584     3578     3627 
    3662     3624     3568     3541     3565     3642     3669     3611 
    3576     3601     3608     3613     3663     3676     3638     3667 
    3711     3663     3578     3520     3503     3541     3609     3649 
    3626     3565     3543     3630     3766     3821     3730     3559 
    3487     3576     3694     3704     3608     3524     3570     3666 
    3661     3624     3666     3694     3643     3585     3585     3640 
    3684     3650     3588     3589     3655     3694     3645     3577 
    3591     3647     3636     3564     3537     3582     3628     3627 
    3592     3562     3569     3573     3543     3551     3600     3619 
    3623     3662     3703     3670     3623     3682     3793     3788 
    3659     3538     3512     3592     3673     3627     3531     3578 
    3731     3753     3596     3480     3557     3704     3716     3607 
    3539     3565     3627     3658     3627     3586     3572     3565 
    3596     3674     3716     3663     3576     3555     3609     3650 
    3611     3546     3546     3608     3658     3653     3636     3677 
    3735     3693     3558     3489     3555     3642     3636     3568 
    3554     3654     3759     3759     3680     3585     3515     3505 
    3553     3615     3658     3642     3574     3546     3596     3636 
    3608     3570     3585     3630     3650     3638     3632     3667 
    3663     3578     3538     3609     3697     3701     3632     3592 
    3623     3657     3650     3603     3554     3585     3662     3662 
    3613     3613     3640     3666     3703     3711     3650     3561 
    3528     3562     3608     3638     3645     3623     3604     3615 
    3655     3685     3632     3520     3485     3546     3599     3630 
    3636     3612     3635     3694     3678     3612     3591     3631 
    3685     3697     3674     3653     3616     3539     3481     3530 
    3640     3666     3643     3692     3724     3667     3597     3534 
    3503     3574     3663     3640     3561     3547     3612     3693 
    3739     3678     3532     3493     3616     3703     3654     3576 
    3531     3538     3623     3703     3686     3631     3612     3623 
    3640     3624     3584     3581     3611     3622     3630     3657 
    3662     3638     3622     3647     3712     3716     3589     3449 
    3478     3650     3744     3666     3554     3531     3588     3676 
    3738     3723     3647     3580     3562     3599     3669     3712 
    3696     3640     3559     3510     3549     3622     3650     3620 
    3551     3485     3505     3597     3670     3708     3701     3620 
    3550     3592     3709     3771     3673     3495     3451     3577 
    3707     3735     3663     3570     3565     3619     3622     3601 
    3651     3715     3703     3631     3551     3527     3611     3684 
    3630     3568     3605     3639     3600     3576     3601     3638 
    3657     3626     3547     3500     3535     3605     3626     3605 
    3612     3655     3696     3689     3649     3619     3607     3619 
    3663     3697     3681     3658     3650     3630     3631     3665 
    3635     3555     3549     3601     3627     3604     3568     3584 
    3661     3692     3638     3604     3615     3591     3577     3626 
    3650     3615     3578     3559     3574     3622     3655     3636 
    3576     3547     3585     3632     3647     3642     3638     3659 
    3692     3693     3662     3636     3623     3607     3615     3667 
    3700     3662     3612     3607     3609     3574     3538     3555 
    3612     3666     3680     3627     3566     3554     3581     3615 
    3622     3623     3657     3676     3616     3537     3539     3605 
    3639     3647     3674     3665     3589     3535     3586     3682 
    3690     3588     3497     3526     3643     3712     3681     3626 
    3620     3650     3639     3592     3595     3631     3635     3618 
    3609     3635     3694     3715     3651     3551     3512     3576 
    3653     3658     3619     3557     3504     3532     3611     3658 
    3672     3650     3615     3630     3680     3708     3689     3642 
    3612     3619     3638     3635     3626     3638     3645     3605 
    3557     3570     3639     3703     3686     3607     3568     3582 
    3605     3624     3611     3584     3586     3596     3624     3686 
    3723     3673     3551     3488     3564     3669     3690     3646 
    3599     3573     3569     3601     3630     3619     3624     3654 
    3636     3586     3559     3537     3535     3618     3739     3792 
    3757     3682     3595     3553     3616     3700     3688     3597 
    3514     3489     3522     3605     3705     3699     3557     3449 
    3505     3643     3680     3593     3545     3608     3682     3686 
    3624     3547     3542     3605     3651     3684     3693     3620 
    3555     3595     3667     3672     3593     3538     3601     3721 
    3769     3690     3573     3562     3682     3771     3676     3520 
    3510     3613     3699     3685     3592     3538     3600     3693 
    3713     3663     3588     3526     3528     3613     3684     3635 
    3551     3545     3574     3607     3662     3666     3573     3524 
    3650     3793     3732     3557     3500     3576     3666     3717 
    3696     3605     3537     3543     3580     3623     3685     3712 
    3661     3612     3647     3715     3712     3622     3519     3520 
    3628     3689     3634     3554     3520     3543     3570     3554 
    3550     3585     3601     3597     3605     3636     3678     3693 
    3684     3665     3630     3619     3639     3624     3611     3631 
    3620     3580     3572     3593     3634     3685     3696     3655 
    3596     3559     3554     3559     3596     3669     3681     3611 
    3569     3601     3643     3651     3620     3601     3642     3672 
    3635     3596     3595     3619     3663     3680     3623     3588 
    3624     3639     3611     3604     3630     3646     3623     3584 
    3585     3634     3688     3699     3639     3561     3545     3582 
    3611     3595     3558     3532     3541     3600     3692     3755 
    3735     3624     3528     3585     3751     3840     3757     3615 
    3561     3599     3658     3667     3599     3497     3460     3530 
    3636     3680     3677     3662     3618     3562     3523     3514 
    3561     3628     3643     3622     3634     3665     3666     3646 
    3613     3572     3577     3636     3642     3581     3565     3604 
    3635     3662     3654     3574     3515     3550     3600     3618 
    3640     3646     3612     3618     3686     3724     3694     3650 
    3609     3593     3651     3732     3735     3697     3674     3624 
    3577     3596     3623     3597     3564     3562     3595     3636 
    3643     3607     3568     3569     3615     3645     3632     3650 
    3669     3638     3640     3635     3505     3438     3584     3734 
    3742     3650     3524     3503     3612     3669     3616     3565 
    3565     3591     3626     3626     3577     3565     3626     3666 
    3654     3631     3599     3586     3626     3659     3631     3565 
    3512     3531     3623     3692     3678     3619     3582     3630 
    3711     3682     3580     3578     3657     3704     3728     3726 
    3666     3613     3597     3576     3600     3674     3686     3628 
    3586     3578     3593     3622     3653     3639     3573     3545 
    3604     3673     3678     3643     3618     3611     3612     3605 
    3566     3542     3603     3665     3619     3549     3568     3630 
    3672     3661     3562     3456     3476     3620     3717     3662 
    3578     3588     3628     3654     3663     3653     3685     3751 
    3748     3703     3676     3640     3597     3576     3586     3649 
    3720     3700     3588     3508     3531     3604     3658     3655 
    3603     3573     3570     3535     3518     3570     3632     3665 
    3657     3597     3542     3551     3599     3620     3635     3688 
    3726     3694     3622     3562     3561     3613     3646     3609 
    3564     3585     3653     3665     3613     3608     3646     3638 
    3595     3584     3651     3757     3759     3651     3584     3593 
    3605     3626     3665     3661     3586     3493     3441     3470 
    3603     3744     3754     3646     3564     3565     3624     3688 
    3689     3634     3596     3601     3618     3616     3582     3541 
    3547     3597     3639     3649     3627     3612     3653     3705 
    3696     3636     3604     3615     3620     3597     3585     3611 
    3646     3662     3657     3636     3634     3665     3685     3640 
    3558     3514     3524     3562     3612     3626     3558     3530 
    3670     3813     3742     3566     3510     3577     3655     3665 
    3615     3593     3632     3658     3622     3580     3597     3627 
    3627     3626     3635     3628     3597     3601     3680     3732 
    3670     3593     3595     3642     3672     3658     3605     3562 
    3551     3541     3523     3524     3550     3592     3616     3597 
    3593     3635     3667     3673     3658     3591     3520     3527 
    3589     3663     3738     3782     3767     3709     3681     3709 
    3703     3620     3550     3551     3593     3624     3597     3527 
    3523     3618     3676     3603     3522     3572     3704     3778 
    3731     3634     3561     3500     3446     3423     3461     3580 
    3707     3715     3626     3576     3589     3593     3588     3601 
    3613     3635     3677     3724     3762     3751     3678     3616 
    3631     3672     3661     3608     3549     3501     3499     3545 
    3580     3589     3646     3769     3842     3798     3708     3616 
    3530     3497     3524     3566     3596     3570     3496     3495 
    3643     3805     3812     3705     3624     3593     3555     3507 
    3469     3468     3551     3680     3740     3732     3746     3767 
    3688     3535     3499     3622     3719     3689     3597     3508 
    3478     3532     3599     3622     3628     3623     3613     3659 
    3747     3790     3753     3662     3585     3547     3550     3585 
    3620     3667     3735     3736     3609     3435     3335     3357 
    3462     3570     3616     3600     3608     3677     3727     3713 
    3676     3605     3503     3477     3618     3824     3932     3886 
    3751     3642     3624     3672     3707     3704     3696     3674 
    3620     3561     3523     3510     3501     3514     3591     3694 
    3734     3663     3504     3385     3439     3570     3618     3600 
    3591     3582     3582     3609     3623     3565     3476     3438 
    3458     3541     3701     3874     3940     3861     3727     3684 
    3748     3805     3794     3732     3630     3515     3481     3554 
    3639     3651     3607     3589     3636     3661     3577     3439 
    3403     3547     3754     3815     3685     3507     3456     3573 
    3721     3738     3611     3446     3368     3441     3604     3705 
    3647     3485     3397     3500     3708     3839     3816     3704 
    3655     3743     3844     3855     3817     3769     3709     3654 
    3584     3484     3399     3346     3323     3399     3593     3751 
    3734     3600     3474     3385     3329     3342     3460     3650 
    3827     3919     3894     3794     3709     3692     3713     3747 
    3754     3696     3593     3507     3512     3650     3793     3740 
    3505     3303     3258     3311     3358     3369     3416     3586 
    3854     4072     4099     3931     3707     3597     3681     3859 
    3924     3801     3609     3468     3404     3391     3396     3443 
    3524     3577     3591     3550     3447     3406     3545     3762 
    3866     3815     3709     3645     3643     3666     3659     3609 
    3555     3538     3561     3615     3694     3731     3677     3618 
    3611     3612     3600     3597     3604     3620     3653     3663 
    3599     3508     3503     3608     3743     3816     3801     3732 
    3670     3639     3605     3555     3537     3582     3654     3682 
    3643     3554     3442     3389     3458     3576     3655     3674 
    3647     3662     3754     3800     3728     3631     3628     3708 
    3754     3696     3542     3385     3380     3532     3672     3686 
    3651     3624     3604     3623     3657     3627     3557     3526 
    3572     3622     3586     3518     3514     3569     3608     3574 
    3508     3520     3631     3742     3789     3758     3673     3612 
    3615     3651     3693     3708     3699     3720     3771     3777 
    3703     3605     3566     3595     3620     3634     3663     3657 
    3559     3434     3369     3423     3572     3699     3735     3704 
    3642     3584     3582     3669     3747     3680     3545     3522 
    3604     3672     3657     3574     3531     3635     3775     3761 
    3609     3456     3360     3356     3485     3667     3726     3653 
    3623     3661     3665     3636     3586     3546     3592     3673 
    3678     3628     3612     3653     3692     3682     3649     3626 
    3642     3699     3727     3665     3592     3639     3753     3766 
    3647     3519     3487     3531     3607     3685     3696     3616 
    3546     3566     3624     3654     3642     3576     3523     3576 
    3666     3686     3642     3603     3615     3642     3636     3607 
    3570     3542     3516     3485     3474     3523     3604     3650 
    3639     3588     3565     3645     3734     3712     3649     3620 
    3597     3592     3628     3663     3673     3663     3634     3604 
    3613     3655     3680     3649     3600     3600     3609     3599 
    3623     3661     3661     3661     3663     3631     3626     3680 
    3693     3612     3512     3487     3562     3685     3757     3730 
    3632     3541     3534     3591     3622     3607     3603     3628 
    3626     3588     3588     3636     3662     3626     3569     3569 
    3640     3696     3653     3539     3480     3541     3618     3626 
    3601     3574     3569     3620     3692     3724     3724     3728 
    3742     3740     3717     3673     3603     3569     3643     3765 
    3827     3805     3720     3600     3511     3496     3510     3501 
    3491     3496     3504     3522     3558     3584     3597     3634 
    3670     3642     3561     3492     3469     3503     3559     3589 
    3620     3665     3690     3693     3666     3609     3601     3645 
    3655     3643     3657     3673     3673     3663     3639     3605 
    3597     3653     3744     3771     3684     3574     3527     3523 
    3539     3577     3603     3603     3597     3613     3627     3585 
    3539     3596     3704     3739     3703     3658     3640     3640 
    3608     3564     3586     3663     3708     3700     3681     3670 
    3659     3655     3653     3639     3619     3604     3595     3585 
    3604     3662     3705     3699     3657     3597     3528     3503 
    3559     3634     3670     3659     3599     3537     3528     3549 
    3565     3599     3634     3632     3605     3592     3591     3580 
    3572     3605     3659     3676     3657     3634     3607     3607 
    3647     3655     3605     3568     3576     3620     3674     3667 
    3572     3476     3477     3553     3611     3632     3657     3673 
    3666     3649     3618     3608     3647     3666     3640     3636 
    3681     3732     3740     3707     3657     3619     3612     3642 
    3666     3662     3651     3643     3616     3592     3597     3595 
    3568     3553     3574     3619     3655     3651     3612     3573 
    3565     3574     3564     3553     3578     3597     3569     3549 
    3585     3657     3686     3649     3616     3622     3642     3667 
    3655     3581     3527     3557     3639     3685     3661     3613 
    3588     3603     3645     3667     3659     3619     3550     3528 
    3597     3688     3707     3653     3611     3646     3709     3728 
    3699     3642     3578     3549     3578     3643     3693     3696 
    3669     3636     3611     3613     3626     3618     3620     3631 
    3600     3550     3572     3640     3659     3622     3601     3631 
    3659     3647     3634     3639     3640     3635     3591     3534 
    3564     3632     3611     3539     3516     3551     3604     3632 
    3589     3512     3508     3597     3681     3690     3655     3615 
    3595     3613     3657     3674     3678     3697     3712     3719 
    3715     3654     3588     3609     3677     3684     3622     3553 
    3543     3604     3647     3630     3600     3592     3591     3591 
    3599     3616     3618     3600     3591     3588     3591     3622 
    3657     3649     3628     3631     3609     3578     3599     3632 
    3612     3559     3530     3539     3597     3678     3696     3646 
    3624     3628     3607     3591     3609     3636     3659     3677 
    3659     3616     3618     3676     3693     3642     3603     3609 
    3635     3653     3645     3628     3645     3670     3655     3616 
    3609     3631     3638     3622     3615     3646     3700     3704 
    3613     3510     3508     3604     3670     3645     3585     3554 
    3553     3578     3616     3640     3645     3638     3623     3607 
    3591     3565     3559     3597     3639     3646     3595     3515 
