Origin Time       2025/03/30 10:18:00
Lat.              34.667
Long.             140.825
Depth. (km)       69
Mag.              4.9
Station Code      SZO003
Station Lat.      34.8158
Station Long.     139.0544
Station Height(m) 149
Record Time       2025/03/30 10:18:55
Sampling Freq(Hz) 100Hz
Duration Time(s)  74
Dir.              U-D
Scale Factor      7845(gal)/8223790
Max. Acc. (gal)   15.269
Last Correction   2025/03/30 10:18:54
Memo.             
[...]
    1687     1686     1686     1690     1696     1690     1682     1686 
    1688     1686     1686     1690     1692     1688     1680     1684 
    1691     1686     1683     1687     1690     1695     1690     1684 
    1688     1686     1686     1687     1686     1687     1687     1690 
    1690     1687     1682     1684     1695     1687     1675     1691 
    1701     1680     1671     1688     1701     1694     1688     1690 
    1688     1680     1680     1692     1696     1691     1686     1686 
    1690     1690     1688     1692     1688     1683     1688     1690 
    1688     1688     1684     1683     1688     1694     1691     1684 
    1688     1690     1686     1686     1690     1691     1686     1683 
    1687     1683     1686     1692     1687     1686     1690     1688 
    1682     1680     1688     1691     1691     1691     1690     1686 
    1679     1683     1691     1687     1690     1695     1688     1682 
    1683     1690     1690     1684     1687     1688     1684     1688 
    1690     1684     1690     1691     1682     1684     1692     1690 
    1680     1678     1690     1695     1686     1687     1691     1686 
    1683     1690     1694     1691     1688     1683     1679     1686 
    1695     1694     1684     1679     1683     1683     1680     1690 
    1692     1688     1692     1690     1683     1683     1688     1695 
    1695     1694     1684     1675     1679     1686     1688     1698 
    1702     1684     1675     1686     1692     1695     1695     1690 
    1682     1678     1683     1691     1692     1691     1688     1682 
    1676     1683     1695     1694     1687     1692     1694     1686 
    1676     1679     1691     1690     1687     1695     1690     1682 
    1684     1690     1694     1690     1686     1692     1692     1684 
    1686     1690     1690     1680     1680     1695     1695     1688 
    1691     1687     1682     1682     1687     1694     1690     1688 
    1690     1688     1691     1686     1683     1686     1686     1690 
    1691     1683     1686     1696     1696     1690     1687     1684 
    1678     1684     1696     1694     1679     1683     1699     1686 
    1674     1687     1701     1698     1682     1678     1688     1686 
    1691     1699     1691     1684     1682     1678     1682     1688 
    1695     1692     1682     1691     1694     1679     1683     1696 
    1695     1686     1683     1686     1683     1680     1688     1694 
    1695     1690     1682     1684     1690     1687     1690     1695 
    1692     1683     1678     1686     1690     1686     1692     1702 
    1694     1682     1682     1688     1684     1679     1686     1692 
    1694     1692     1694     1692     1683     1682     1687     1688 
    1686     1690     1692     1686     1686     1687     1683     1683 
    1687     1691     1695     1690     1686     1691     1687     1680 
    1687     1690     1686     1686     1684     1683     1683     1686 
    1694     1691     1686     1688     1690     1686     1687     1694 
    1690     1682     1682     1684     1687     1688     1690     1694 
    1690     1678     1678     1694     1696     1687     1687     1694 
    1688     1676     1682     1694     1691     1688     1688     1687 
    1686     1682     1687     1696     1694     1688     1684     1680 
    1680     1683     1688     1690     1688     1692     1694     1683 
    1678     1686     1691     1686     1686     1691     1686     1679 
    1684     1692     1696     1691     1686     1684     1684     1686 
    1687     1691     1692     1684     1686     1688     1684     1691 
    1694     1690     1686     1680     1690     1695     1680     1676 
    1686     1691     1686     1686     1695     1695     1683     1680 
    1691     1699     1691     1684     1687     1683     1683     1691 
    1690     1692     1694     1684     1684     1690     1691     1682 
    1678     1688     1691     1694     1692     1684     1684     1686 
    1687     1688     1690     1694     1690     1688     1686     1676 
    1680     1683     1684     1696     1691     1684     1701     1699 
    1678     1675     1690     1695     1688     1687     1691     1682 
    1679     1691     1691     1688     1688     1690     1690     1683 
    1686     1691     1682     1679     1691     1698     1694     1680 
    1680     1692     1694     1698     1698     1679     1674     1687 
    1692     1694     1694     1690     1687     1679     1680     1691 
    1688     1683     1691     1696     1686     1676     1683     1695 
    1692     1686     1688     1686     1680     1684     1691     1695 
    1691     1684     1684     1690     1692     1688     1686     1691 
    1683     1675     1687     1694     1692     1696     1692     1684 
    1680     1678     1686     1695     1695     1691     1691     1692 
    1684     1678     1687     1690     1683     1690     1698     1687 
    1678     1684     1691     1692     1690     1687     1684     1684 
    1687     1686     1688     1698     1694     1684     1684     1691 
    1687     1683     1690     1691     1683     1687     1694     1690 
    1684     1687     1686     1674     1680     1699     1701     1687 
    1683     1690     1683     1683     1701     1701     1687     1680 
    1682     1682     1684     1699     1705     1690     1678     1676 
    1682     1688     1698     1698     1690     1682     1682     1687 
    1691     1692     1687     1683     1686     1690     1692     1691 
    1688     1687     1684     1686     1690     1688     1692     1692 
    1687     1683     1687     1691     1684     1683     1690     1688 
    1691     1692     1688     1688     1686     1686     1690     1691 
    1688     1687     1687     1684     1683     1690     1690     1684 
    1688     1695     1692     1686     1683     1686     1684     1679 
    1687     1698     1691     1687     1692     1694     1683     1678 
    1688     1692     1687     1687     1686     1687     1690     1686 
    1683     1688     1692     1687     1680     1687     1695     1688 
    1679     1684     1696     1688     1676     1682     1687     1686 
    1686     1691     1695     1690     1687     1688     1687     1687 
    1682     1680     1688     1688     1690     1695     1690     1679 
    1679     1695     1698     1684     1683     1690     1686     1680 
    1686     1692     1694     1692     1690     1687     1687     1687 
    1686     1684     1690     1688     1680     1683     1688     1690 
    1694     1692     1686     1682     1676     1682     1690     1694 
    1696     1691     1686     1683     1679     1683     1688     1687 
    1691     1692     1688     1687     1684     1684     1690     1692 
    1690     1690     1694     1687     1675     1686     1695     1680 
    1678     1691     1696     1698     1690     1680     1682     1687 
    1692     1691     1686     1686     1687     1684     1688     1701 
    1703     1683     1675     1692     1691     1680     1688     1698 
    1690     1682     1686     1694     1692     1691     1690     1688 
    1682     1676     1683     1695     1695     1687     1690     1694 
    1683     1676     1684     1691     1691     1691     1695     1692 
    1682     1676     1684     1699     1694     1686     1688     1683 
    1675     1686     1702     1701     1684     1683     1690     1687 
    1683     1684     1691     1691     1683     1686     1691     1691 
    1690     1687     1688     1692     1690     1690     1684     1683 
    1692     1694     1687     1692     1698     1690     1680     1688 
    1694     1683     1686     1698     1695     1687     1684     1686 
    1687     1688     1688     1684     1687     1692     1688     1684 
    1691     1694     1686     1682     1690     1692     1684     1683 
    1690     1692     1688     1691     1690     1682     1687     1691 
    1684     1688     1688     1682     1680     1683     1692     1696 
    1687     1691     1692     1676     1674     1690     1699     1692 
    1687     1694     1688     1676     1682     1694     1695     1688 
    1684     1695     1691     1679     1687     1698     1695     1680 
    1676     1690     1688     1686     1699     1703     1687     1671 
    1679     1695     1691     1688     1690     1686     1683     1682 
    1690     1698     1690     1687     1688     1687     1683     1683 
    1692     1692     1684     1686     1687     1690     1692     1683 
    1682     1688     1684     1683     1692     1699     1691     1679 
    1679     1683     1686     1692     1692     1688     1690     1684 
    1679     1687     1688     1682     1686     1696     1699     1692 
    1687     1683     1678     1680     1687     1690     1694     1694 
    1690     1687     1684     1684     1690     1688     1688     1686 
    1680     1680     1686     1696     1703     1692     1683     1683 
    1679     1680     1691     1701     1696     1687     1687     1684 
    1675     1683     1695     1695     1691     1683     1678     1683 
    1687     1694     1701     1690     1678     1680     1688     1694 
    1692     1688     1686     1684     1690     1687     1680     1684 
    1687     1691     1695     1691     1686     1682     1684     1691 
    1695     1695     1684     1683     1692     1686     1680     1683 
    1686     1688     1688     1686     1684     1688     1691     1687 
    1690     1690     1684     1684     1690     1695     1692     1683 
    1686     1687     1688     1691     1687     1683     1684     1687 
    1691     1690     1686     1683     1690     1692     1690     1688 
    1684     1684     1686     1688     1692     1691     1690     1688 
    1687     1690     1691     1692     1691     1683     1683     1684 
    1686     1691     1687     1684     1694     1692     1687     1683 
    1687     1695     1687     1686     1692     1686     1679     1680 
    1694     1699     1684     1684     1695     1684     1674     1686 
    1695     1687     1683     1692     1692     1683     1687     1694 
    1691     1690     1691     1692     1686     1683     1688     1686 
    1684     1687     1687     1687     1686     1688     1691     1687 
    1688     1688     1691     1696     1686     1679     1687     1690 
    1692     1692     1688     1684     1684     1688     1684     1684 
    1694     1692     1688     1691     1683     1675     1683     1694 
    1699     1699     1692     1679     1675     1682     1688     1691 
    1694     1691     1688     1688     1683     1679     1688     1692 
    1690     1688     1688     1687     1680     1683     1695     1695 
    1688     1687     1683     1683     1691     1691     1686     1683 
    1686     1692     1686     1679     1686     1691     1692     1691 
    1687     1687     1687     1687     1690     1692     1691     1684 
    1683     1687     1684     1684     1690     1694     1692     1686 
    1687     1690     1688     1694     1698     1687     1676     1680 
    1686     1686     1695     1701     1688     1683     1690     1688 
    1680     1686     1692     1688     1686     1692     1692     1683 
    1683     1691     1692     1692     1691     1686     1683     1688 
    1688     1686     1688     1688     1684     1687     1690     1694 
    1694     1691     1688     1684     1684     1686     1684     1684 
    1691     1692     1688     1686     1683     1683     1690     1695 
    1691     1688     1690     1687     1683     1683     1684     1688 
    1691     1694     1694     1688     1675     1674     1694     1707 
    1698     1688     1686     1682     1676     1678     1692     1705 
    1698     1688     1687     1686     1682     1683     1687     1695 
    1699     1692     1684     1678     1674     1682     1690     1692 
    1691     1691     1691     1683     1682     1690     1686     1680 
    1694     1698     1688     1691     1692     1684     1679     1686 
    1699     1691     1676     1684     1694     1691     1684     1683 
    1687     1684     1683     1694     1702     1701     1690     1678 
    1682     1687     1687     1684     1687     1691     1690     1687 
    1692     1694     1687     1686     1687     1687     1684     1683 
    1690     1692     1688     1691     1690     1682     1682     1688 
    1694     1690     1683     1684     1682     1679     1686     1696 
    1692     1686     1688     1687     1687     1691     1687     1680 
    1682     1690     1692     1687     1684     1690     1687     1682 
    1687     1695     1691     1684     1683     1683     1686     1686 
    1684     1684     1683     1687     1695     1688     1683     1690 
    1694     1690     1684     1687     1691     1684     1679     1688 
    1695     1690     1683     1687     1692     1687     1683     1688 
    1688     1684     1687     1692     1694     1692     1687     1686 
    1683     1678     1680     1687     1687     1678     1664     1652 
    1637     1613     1584     1549     1507     1458     1395     1321 
    1247     1177     1105     1066     1097     1179     1304     1482 
    1713     1992     2334     2764     3271     3758     4079     4089 
    3686     2841     1709      680      191      502     1579     3110 
    4604     5543     5520     4382     2246     -542    -3522    -6210 
   -8222    -9296    -9054    -7013    -3113     1829     6521    10142 
   12702    14451    15225    14534    12159     8487     4195     -303 
   -4935    -9471   -13049   -14318   -12318    -7447    -1602     2980 
    5456     6848     8727    11425    13428    12679     8513     2424 
   -2851    -5139    -4148    -1426      845     1521     1071      386 
      20      567     2101     3546     3748     2725     1404      584 
     490      874     1086      378    -1260    -2732    -2855    -1355 
    1536     5319     8861    10724    10081     7431     4315     2103 
    1001       66    -1838    -4888    -7809    -8488    -5607      -68 
    5364     8317     8750     8203     7476     6122     3838     1071 
   -1443    -2982    -3169    -2504    -1803     -949      804     3373 
    5769     7103     6901     5073     2462      712      477      603 
     -86    -1363    -2285    -2076     -569     1514     3084     3628 
    3572     3545     3419     2640     1258       -8     -545     -283 
     442     1217     1908     2798     4110     5437     5929     5151 
    3476     1721      517     -106     -514     -920    -1102     -631 
     561     1885     2536     2311     1714     1285     1154     1236 
    1456     1667     1636     1393     1381     2050     3311     4379 
    4360     3117     1439      403      580     1560     2241     1869 
     738     -279     -504      160     1179     1906     2170     2193 
    2255     2533     2961     3277     3249     2913     2581     2404 
    2182     1740     1078      353     -237     -603     -660     -375 
      86      639     1383     2246     3029     3703     4294     4664 
    4452     3424     1911      417     -766    -1348    -1097     -124 
    1120     2204     3019     3551     3601     3046     2181     1548 
    1416     1549     1644     1659     1695     1794     1876     1806 
    1539     1273     1310     1618     1815     1624     1144      803 
     865     1048      947      581      338      490      973     1659 
    2478     3188     3546     3678     3819     3825     3437     2822 
    2466     2511     2624     2386     1528      166    -1042    -1495 
   -1327    -1017     -679     -164      526     1242     1856     2442 
    3204     4112     4699     4523     3705     2724     1931     1548 
    1626     1786     1561      966      349       17       18      237 
     564      904     1336     2111     3161     3975     4070     3339 
    2145     1182      950     1305     1703     1795     1547      997 
     369      128      465     1144     1858     2311     2342     2145 
    1983     1876     1729     1539     1371     1278     1345     1714 
    2378     3025     3331     3246     2890     2459     2108     1763 
    1223      398     -531    -1225    -1341     -685      530     1717 
    2389     2582     2720     3048     3404     3574     3599     3555 
    3321     2732     1879     1038      388       24       91      553 
    1028     1165      946      704      904     1649     2482     2857 
    2706     2358     2072     1891     1768     1624     1340      947 
     758     1035     1665     2284     2539     2339     1880     1480 
    1343     1390     1509     1775     2147     2280     1926     1293 
     824      743      978     1414     1939     2370     2612     2759 
    2933     3080     2979     2447     1543      568      -71     -137 
     301      922     1351     1459     1472     1628     1879     2068 
    2126     2016     1865     2019     2511     2872     2705     2084 
    1387      900      688      731      911     1067     1263     1674 
    2174     2454     2444     2257     1942     1674     1768     2239 
    2689     2721     2258     1466      629      175      495     1401 
    2174     2346     2029     1497     1012      959     1478     2155 
    2494     2303     1605      723      176      251      936     2014 
    3019     3464     3203     2547     1923     1486     1186     1067 
    1131     1144      951      649      399      437      947     1722 
    2315     2562     2695     2928     3168     3150     2749     2219 
    1973     2084     2201     2016     1548      953      391      101 
     299      949     1694     2110     2016     1597     1255     1287 
    1698     2199     2347     1961     1277      665      444      669 
    1101     1518     1856     2053     2134     2313     2752     3348 
    3805     3817     3287     2317     1121      124     -168      309 
    1051     1467     1449     1327     1354     1559     1869     2092 
    2107     2039     2016     1976     1791     1385      857      545 
     760     1404     1996     2128     1806     1404     1337     1772 
    2523     3113     3044     2269     1255      541      353      585 
    1003     1463     1884     2142     2268     2342     2243     1937 
    1714     1807     2079     2181     2014     1804     1676     1547 
    1417     1335     1231     1090     1089     1371     1795     2095 
    2184     2135     1973     1745     1598     1634     1794     1914 
    1846     1580     1285     1224     1513     1922     2064     1811 
    1432     1197     1135     1219     1449     1756     2002     2084 
    2012     1856     1688     1575     1547     1625     1802     1975 
    2052     2042     2003     1977     1945     1826     1540     1162 
     966     1065     1220     1275     1347     1491     1653     1845 
    2103     2365     2469     2334     2037     1667     1279      978 
     920     1248     1876     2415     2486     2151     1817     1657 
    1503     1237      957      828      969     1397     1962     2308 
    2247     2035     1972     2108     2296     2261     1938     1575 
    1363     1278     1228     1194     1244     1404     1629     1861 
    1977     1841     1509     1232     1205     1417     1710     1917 
    1976     1939     1825     1609     1409     1486     1938     2540 
    2952     2949     2490     1748     1054      643      557      749 
