Origin Time       2025/03/30 10:18:00
Lat.              34.667
Long.             140.825
Depth. (km)       69
Mag.              4.9
Station Code      SZO001
Station Lat.      35.1425
Station Long.     139.0798
Station Height(m) 74
Record Time       2025/03/30 10:19:15
Sampling Freq(Hz) 100Hz
Duration Time(s)  60
Dir.              N-S
Scale Factor      7845(gal)/8223790
Max. Acc. (gal)   2.128
Last Correction   2025/03/30 10:19:15
Memo.             
[...]
   -9967    -9842    -9468    -9126    -9104    -9360    -9738   -10119 
  -10169    -9931    -9994   -10258   -10255   -10045    -9715    -9283 
   -9018    -9138    -9428    -9572    -9686    -9838    -9952   -10230 
  -10519   -10335    -9802    -9363    -9189    -9261    -9443    -9614 
   -9829   -10039    -9936    -9667    -9817   -10224   -10292   -10071 
   -9796    -9447    -9177    -9275    -9579    -9644    -9593    -9788 
  -10014   -10025    -9968    -9938    -9810    -9501    -9327    -9509 
   -9724    -9767    -9709    -9647    -9717    -9810    -9818    -9855 
   -9811    -9659    -9688    -9921   -10118   -10066    -9734    -9472 
   -9483    -9587    -9764   -10012   -10008    -9691    -9498    -9549 
   -9570    -9528    -9566    -9757   -10011   -10066    -9940    -9875 
   -9775    -9571    -9598    -9869    -9900    -9575    -9433    -9663 
   -9749    -9718    -9926    -9979    -9670    -9478    -9601    -9794 
   -9761    -9558    -9566    -9776    -9896    -9964   -10142   -10211 
   -9891    -9522    -9454    -9423    -9409    -9637    -9880    -9863 
   -9640    -9622   -10021   -10188    -9794    -9485    -9447    -9427 
   -9678   -10102   -10087    -9745    -9617    -9698    -9817    -9877 
   -9751    -9601    -9572    -9552    -9625    -9833    -9972    -9944 
   -9691    -9394    -9470    -9856   -10098    -9973    -9593    -9379 
   -9606    -9987   -10233   -10180    -9787    -9482    -9477    -9514 
   -9541    -9514    -9468    -9652    -9945   -10110   -10162   -10102 
   -9936    -9748    -9624    -9505    -9348    -9448    -9817    -9937 
   -9776    -9744    -9865    -9957   -10006   -10008    -9768    -9317 
   -9097    -9273    -9706   -10162   -10216    -9865    -9535    -9440 
   -9637    -9904    -9944    -9923    -9921    -9682    -9443    -9616 
   -9903    -9956    -9846    -9597    -9402    -9617   -10100   -10311 
   -9965    -9400    -9076    -9107    -9494    -9995   -10104    -9857 
   -9755    -9973   -10262   -10147    -9607    -9266    -9238    -9254 
   -9543   -10053   -10206   -10010    -9875    -9713    -9493    -9549 
   -9729    -9705    -9694    -9751    -9679    -9725   -10038   -10187 
   -9954    -9595    -9332    -9362    -9699    -9961    -9911    -9715 
   -9620    -9724    -9871    -9883    -9757    -9594    -9532    -9613 
   -9792   -10006   -10034    -9767    -9510    -9432    -9385    -9499 
   -9886   -10176   -10150    -9922    -9626    -9551    -9756    -9875 
   -9833    -9755    -9622    -9598    -9782    -9934    -9853    -9652 
   -9564    -9671    -9883    -9918    -9585    -9278    -9414    -9760 
  -10006   -10096    -9954    -9710    -9675    -9794    -9887    -9855 
   -9570    -9347    -9536    -9819    -9921    -9953    -9868    -9649 
   -9559    -9626    -9676    -9759    -9892    -9927    -9845    -9678 
   -9544    -9607    -9733    -9792    -9896    -9904    -9709    -9613 
   -9757    -9896    -9775    -9498    -9498    -9805    -9930    -9830 
   -9886    -9922    -9621    -9356    -9510    -9867   -10068    -9933 
   -9618    -9477    -9633    -9961   -10098    -9818    -9589    -9738 
   -9844    -9671    -9485    -9470    -9636    -9852    -9849    -9602 
   -9410    -9471    -9818   -10196   -10150    -9814    -9698    -9780 
   -9817    -9818    -9715    -9425    -9323    -9647    -9926    -9887 
   -9821    -9802    -9803    -9953   -10054    -9845    -9536    -9359 
   -9342    -9547    -9857    -9981    -9861    -9679    -9714   -10081 
  -10355   -10057    -9483    -9252    -9397    -9579    -9720    -9856 
   -9880    -9763    -9637    -9637    -9818   -10011    -9981    -9769 
   -9526    -9360    -9413    -9714   -10046   -10122    -9805    -9333 
   -9188    -9539   -10085   -10384   -10199    -9698    -9360    -9448 
   -9698    -9795    -9721    -9628    -9655    -9807    -9956    -9958 
   -9795    -9626    -9624    -9751    -9880    -9937    -9818    -9559 
   -9482    -9647    -9775    -9856    -9927    -9829    -9640    -9535 
   -9558    -9670    -9697    -9694    -9873   -10096   -10118    -9880 
   -9574    -9468    -9548    -9714    -9798    -9605    -9516    -9828 
  -10053    -9954    -9814    -9684    -9529    -9533    -9725    -9786 
   -9641    -9668    -9871    -9931    -9859    -9740    -9701    -9836 
   -9764    -9417    -9408    -9774   -10017   -10064    -9980    -9710 
   -9498    -9602    -9761    -9749    -9774    -9917   -10057    -9984 
   -9524    -9184    -9408    -9769    -9983    -9987    -9693    -9505 
   -9625    -9783    -9922    -9909    -9695    -9595    -9616    -9674 
   -9855    -9944    -9792    -9567    -9381    -9451    -9917   -10278 
  -10123    -9744    -9497    -9486    -9647    -9815    -9918    -9934 
   -9845    -9684    -9602    -9683    -9702    -9580    -9543    -9552 
   -9548    -9726    -9971    -9961    -9813    -9829    -9963    -9987 
   -9818    -9609    -9529    -9498    -9532    -9749   -10011   -10091 
   -9910    -9660    -9674    -9822    -9791    -9682    -9589    -9475 
   -9481    -9697    -9992   -10079    -9833    -9526    -9486    -9722 
   -9863    -9749    -9721    -9849    -9842    -9672    -9583    -9671 
   -9799    -9876    -9894    -9850    -9822    -9848    -9755    -9452 
   -9255    -9397    -9706   -10018   -10104    -9872    -9682    -9671 
   -9729    -9806    -9711    -9593    -9737    -9865    -9857    -9817 
   -9628    -9547    -9759    -9977   -10076    -9977    -9660    -9391 
   -9358    -9548    -9837    -9963    -9834    -9690    -9702    -9768 
   -9813    -9782    -9670    -9778    -9987    -9776    -9435    -9421 
   -9609    -9876    -9991    -9841    -9778    -9791    -9691    -9634 
   -9622    -9579    -9626    -9776    -9894    -9927    -9967    -9996 
   -9821    -9521    -9354    -9312    -9470    -9865   -10100    -9965 
   -9730    -9644    -9794   -10026   -10008    -9726    -9463    -9385 
   -9560    -9869    -9931    -9717    -9599    -9726    -9956   -10014 
   -9756    -9524    -9643    -9902    -9960    -9725    -9385    -9352 
   -9783   -10197   -10122    -9729    -9374    -9270    -9598   -10110 
  -10237    -9888    -9435    -9304    -9636    -9984    -9958    -9815 
   -9745    -9659    -9711    -9860    -9861    -9856    -9860    -9717 
   -9587    -9558    -9664    -9925    -9925    -9624    -9498    -9537 
   -9660    -9888    -9879    -9682    -9695    -9805    -9836    -9823 
   -9680    -9520    -9571    -9769    -9921    -9884    -9734    -9683 
   -9655    -9575    -9693    -9899    -9844    -9821   -10010    -9914 
   -9636    -9676    -9760    -9672    -9678    -9747    -9772    -9747 
   -9610    -9521    -9657    -9895   -10011    -9948    -9764    -9590 
   -9575    -9693    -9799    -9753    -9563    -9524    -9724    -9922 
   -9960    -9805    -9622    -9676    -9877    -9895    -9599    -9313 
   -9517   -10006   -10137    -9900    -9625    -9444    -9548    -9894 
  -10008    -9767    -9622    -9734    -9864    -9898    -9733    -9467 
   -9429    -9598    -9811    -9918    -9740    -9603    -9836    -9985 
   -9791    -9732    -9892    -9887    -9786    -9755    -9697    -9653 
   -9630    -9540    -9552    -9845   -10170   -10131    -9780    -9580 
   -9589    -9471    -9342    -9462    -9668    -9828    -9996   -10107 
  -10017    -9811    -9733    -9760    -9702    -9583    -9590    -9768 
   -9844    -9675    -9610    -9798    -9990   -10000    -9742    -9408 
   -9358    -9602    -9937   -10088    -9888    -9612    -9548    -9628 
   -9732    -9741    -9624    -9663    -9977   -10187   -10061    -9765 
   -9489    -9344    -9316    -9414    -9695    -9917    -9911    -9899 
   -9963    -9977    -9877    -9672    -9478    -9493    -9774   -10038 
   -9972    -9741    -9624    -9614    -9671    -9740    -9713    -9661 
   -9698    -9733    -9744    -9805    -9898    -9990    -9960    -9688 
   -9386    -9356    -9634   -10003   -10099    -9811    -9566    -9645 
   -9760    -9728    -9697    -9653    -9506    -9472    -9790   -10152 
  -10096    -9741    -9558    -9670    -9795    -9732    -9661    -9852 
  -10057    -9849    -9520    -9529    -9664    -9734    -9859    -9953 
   -9867    -9713    -9701    -9753    -9657    -9522    -9522    -9620 
   -9786    -9938    -9921    -9720    -9556    -9686    -9941    -9965 
   -9774    -9629    -9652    -9644    -9485    -9537    -9919   -10177 
  -10103    -9813    -9437    -9306    -9510    -9753    -9976   -10050 
   -9730    -9485    -9794   -10195   -10184    -9805    -9278    -9092 
   -9485    -9927   -10050   -10072   -10096    -9967    -9671    -9420 
   -9367    -9502    -9644    -9641    -9640    -9788    -9965   -10039 
   -9934    -9639    -9423    -9576    -9907   -10039    -9946    -9724 
   -9535    -9605    -9663    -9487    -9518    -9823    -9968    -9863 
   -9643    -9568    -9803   -10044   -10076    -9914    -9606    -9483 
   -9625    -9706    -9744    -9721    -9563    -9663    -9944    -9942 
   -9837    -9811    -9752    -9779    -9919    -9877    -9555    -9375 
   -9537    -9684    -9730    -9760    -9710    -9769   -10010   -10003 
   -9671    -9545    -9652    -9625    -9749   -10031    -9875    -9531 
   -9616    -9848    -9728    -9474    -9572    -9981   -10220   -10085 
   -9764    -9516    -9524    -9717    -9809    -9753    -9668    -9571 
   -9572    -9695    -9697    -9691    -9913   -10087   -10037    -9902 
   -9671    -9373    -9294    -9560    -9863    -9915    -9814    -9715 
   -9703    -9887   -10045    -9859    -9510    -9378    -9562    -9856 
   -9968    -9863    -9737    -9697    -9703    -9690    -9657    -9690 
   -9738    -9724    -9740    -9790    -9780    -9718    -9695    -9782 
   -9810    -9738    -9795    -9915    -9873    -9725    -9620    -9597 
   -9688    -9894    -9960    -9701    -9387    -9283    -9459    -9892 
  -10220   -10216   -10025    -9675    -9420    -9477    -9562    -9626 
   -9728    -9737    -9846   -10053   -10071    -9976    -9819    -9567 
   -9456    -9593    -9748    -9697    -9551    -9621    -9826    -9842 
   -9720    -9740    -9883    -9868    -9698    -9640    -9734    -9850 
   -9840    -9641    -9491    -9574    -9786   -10007   -10034    -9732 
   -9435    -9474    -9724    -9949    -9998    -9833    -9637    -9633 
   -9747    -9775    -9772    -9756    -9626    -9556    -9706    -9906 
   -9992    -9940    -9764    -9539    -9428    -9483    -9537    -9572 
   -9711    -9818    -9861    -9992   -10110   -10123   -10007    -9663 
   -9412    -9637   -10076   -10327   -10293   -10103   -10010    -9911 
   -9526    -9089    -8993    -9282    -9674    -9891    -9879    -9680 
   -9540    -9591    -9559    -9431    -9481    -9810   -10292   -10382 
   -9910    -9629    -9867   -10164   -10216    -9945    -9487    -9293 
   -9501    -9644    -9509    -9336    -9132    -8964    -9130    -9590 
  -10075   -10219    -9875    -9693    -9992   -10138   -10015    -9980 
   -9933    -9884    -9983   -10049    -9911    -9576    -9234    -9192 
   -9367    -9393    -9405    -9842   -10459   -10567   -10176    -9761 
   -9489    -9466    -9888   -10467   -10511    -9958    -9437    -9200 
   -9204    -9362    -9266    -8961    -8878    -9092    -9705   -10494 
  -10837   -10794   -10500    -9764    -9009    -8619    -8468    -8676 
   -9298   -10046   -10759   -11248   -11261   -10808   -10011    -9128 
   -8700    -9057    -9767   -10170   -10166    -9900    -9316    -8592 
   -8419    -9070    -9888   -10393   -10701   -10791   -10662   -10442 
  -10031    -9448    -8965    -8904    -9383    -9855    -9875    -9784 
   -9721    -9428    -9235    -9617   -10188   -10316   -10053    -9741 
   -9483    -9289    -9215    -9220    -9250    -9547   -10099   -10395 
  -10300   -10057    -9841    -9984   -10449   -10524    -9879    -8959 
   -8356    -8448    -9177   -10025   -10582   -10918   -11145   -11038 
  -10542    -9973    -9444    -8856    -8361    -8390    -9223   -10446 
  -11113   -10663    -9366    -8133    -7861    -8418    -9054    -9590 
  -10125   -10458   -10528   -10454   -10219    -9917    -9856   -10142 
  -10423   -10311    -9811    -9232    -9065    -9337    -9445    -9450 
   -9879   -10554   -11075   -11156   -10493    -9501    -9047    -9120 
   -9139    -8969    -8613    -8208    -8390    -9283   -10291   -11198 
  -11740   -11315   -10189    -9292    -8947    -8985    -9140    -9082 
   -8947    -9283   -10083   -10741   -10959   -10785   -10183    -9482 
   -9329    -9595    -9672    -9491    -9185    -8861    -8884    -9362 
  -10130   -11079   -11493   -10814    -9919    -9636    -9672    -9714 
   -9518    -8814    -8051    -7966    -8685    -9707   -10376   -10523 
  -10428   -10239    -9942    -9717    -9830   -10152   -10284   -10085 
   -9599    -9059    -8893    -9217    -9721   -10039   -10088    -9976 
   -9796    -9844   -10126   -10000    -9447    -9144    -9275    -9774 
  -10488   -10810   -10409    -9663    -9019    -8658    -8619    -8978 
   -9830   -10747   -10902   -10274    -9582    -9069    -8788    -9047 
   -9697   -10297   -10600   -10501   -10281   -10174    -9957    -9586 
   -9418    -9647    -9822    -9541    -9211    -9117    -9139    -9325 
   -9472    -9483    -9906   -10883   -11734   -11781   -11006    -9996 
   -9265    -8838    -8448    -7973    -7831    -8418    -9346   -10158 
  -10790   -10852   -10219    -9667    -9547    -9497    -9431    -9470 
   -9721   -10210   -10617   -10548    -9937    -9251    -9130    -9540 
  -10060   -10505   -10743   -10612   -10048    -9157    -8314    -7985 
   -8380    -9261   -10301   -11371   -11973   -11581   -10476    -9267 
   -8341    -7867    -7956    -8791   -10093   -11029   -11114   -10407 
   -9325    -8563    -8464    -8870    -9508    -9964   -10052   -10065 
  -10107   -10108   -10174   -10251   -10201    -9976    -9699    -9733 
   -9981    -9930    -9576    -9201    -8976    -9063    -9427   -10011 
  -10748   -11136   -10855   -10270    -9740    -9286    -8904    -8540 
   -8341    -8843    -9968   -10760   -10759   -10316    -9814    -9586 
   -9647    -9445    -8797    -8378    -8746    -9556   -10076   -10211 
  -10342   -10488   -10405   -10108    -9775    -9478    -9239    -9247 
   -9720   -10404   -10613   -10065    -9242    -8783    -8986    -9786 
  -10678   -11133   -11199   -10963   -10208    -9178    -8414    -8047 
   -8158    -8934   -10004   -10531   -10318    -9958    -9823    -9840 
  -10023   -10280   -10150    -9607    -9157    -9100    -9482    -9961 
   -9882    -9247    -8847    -9216   -10054   -10620   -10498    -9964 
   -9572    -9528    -9684    -9850    -9975   -10161   -10262   -10041 
   -9687    -9381    -9158    -9342    -9980   -10548   -10598    -9904 
   -8698    -7938    -8340    -9470   -10345   -10561   -10342    -9937 
   -9589    -9558    -9774    -9973   -10077   -10081   -10018   -10017 
   -9852    -9275    -8834    -9030    -9606   -10216   -10517   -10296 
   -9948    -9768    -9559    -9404    -9595    -9868    -9761    -9398 
   -9170    -9259    -9566    -9775    -9814    -9792    -9684    -9772 
  -10210   -10278    -9707    -9312    -9450    -9799   -10139   -10206 
   -9972    -9703    -9440    -9441    -9961   -10513   -10667   -10393 
   -9694    -8920    -8503    -8657    -9389   -10183   -10542   -10405 
   -9822    -9286    -9393    -9815    -9931    -9809    -9706    -9670 
   -9769    -9903    -9787    -9424    -9151    -9319    -9886   -10368 
  -10443   -10216    -9857    -9551    -9416    -9482    -9763   -10072 
  -10169   -10081    -9937    -9848    -9852    -9710    -9197    -8754 
   -9011    -9606    -9845    -9844    -9760    -9471    -9273    -9408 
   -9701    -9975   -10029    -9817    -9729   -10061   -10490   -10581 
  -10288    -9668    -8829    -8341    -8727    -9741   -10693   -11017 
  -10620    -9913    -9297    -9063    -9285    -9541    -9543    -9508 
   -9664    -9922    -9996    -9853    -9782    -9934   -10208   -10397 
  -10342   -10017    -9405    -8671    -8310    -8699    -9632   -10497 
  -10840   -10663   -10233    -9729    -9309    -9238    -9481    -9705 
   -9900   -10138   -10141    -9861    -9545    -9246    -9207    -9703 
  -10173   -10079    -9838    -9734    -9556    -9397    -9429    -9525 
   -9560    -9583    -9755   -10049   -10281   -10442   -10422   -10018 
   -9501    -9211    -9116    -9292    -9768   -10180   -10297   -10189 
   -9779    -9224    -9184    -9738   -10141   -10003    -9598    -9261 
   -9252    -9643    -9995    -9832    -9304    -8896    -9013    -9933 
  -11159   -11452   -10539    -9481    -9018    -9096    -9474    -9693 
   -9505    -9362    -9634   -10091   -10408   -10436   -10035    -9309 
   -8793    -8946    -9634   -10238   -10277    -9807    -9391    -9520 
   -9871   -10014   -10131   -10129    -9720    -9328    -9359    -9555 
   -9748    -9949   -10000    -9923    -9798    -9443    -9088    -9236 
   -9598    -9838   -10214   -10407    -9938    -9412    -9440    -9733 
   -9964   -10038    -9790    -9440    -9520    -9832    -9724    -9371 
   -9462   -10007   -10480   -10577   -10272    -9668    -9167    -9146 
   -9383    -9479    -9505    -9751   -10170   -10320   -10057    -9760 
   -9571    -9428    -9470    -9702    -9972   -10119   -10029    -9686 
   -9173    -8973    -9444    -9987    -9985    -9706    -9602    -9733 
   -9882    -9900    -9863    -9764    -9690    -9891   -10130   -10071 
   -9960    -9818    -9385    -9196    -9819   -10558   -10562    -9969 
   -9277    -8870    -8939    -9232    -9512    -9903   -10234   -10123 
   -9799    -9664    -9620    -9571    -9713    -9871    -9729    -9570 
   -9694    -9954   -10044    -9701    -9248    -9377    -9934   -10228 
  -10122    -9879    -9732    -9779    -9837    -9651    -9258    -9000 
   -9111    -9404    -9737   -10223   -10602   -10498   -10192    -9980 
   -9670    -9319    -9165    -9223    -9595   -10149   -10343   -10021 
   -9562    -9327    -9443    -9791   -10039    -9894    -9478    -9312 
   -9582    -9914   -10066   -10120   -10000    -9528    -9026    -9200 
  -10035   -10721   -10671    -9882    -8988    -8812    -9247    -9733 
  -10112   -10180    -9913    -9745    -9772    -9805    -9846    -9845 
   -9729    -9552    -9404    -9468    -9795   -10046   -10046   -10000 
   -9936    -9764    -9576    -9429    -9401    -9506    -9633    -9876 
  -10212   -10197    -9718    -9305    -9267    -9466    -9848   -10184 
  -10116    -9856    -9660    -9427    -9351    -9674   -10196   -10481 
  -10181    -9558    -9325    -9655   -10061   -10021    -9487    -9117 
   -9470   -10041   -10079    -9782    -9661    -9664    -9656    -9721 
   -9728    -9626    -9597    -9544    -9444    -9583   -10012   -10432 
  -10349    -9693    -9163    -9173    -9404    -9595    -9674    -9595 
   -9522    -9649    -9922   -10096   -10042    -9850    -9529    -9288 
   -9637   -10309   -10424    -9915    -9413    -9304    -9531    -9840 
  -10066   -10123    -9988    -9883    -9903    -9753    -9401    -9240 
   -9385    -9645   -10006   -10403   -10474   -10130    -9679    -9274 
   -9061    -9208    -9463    -9671    -9967   -10129    -9946    -9747 
   -9772    -9805    -9730    -9687    -9688    -9775    -9968    -9868 
   -9329    -8972    -9254    -9887   -10327   -10303    -9969    -9676 
   -9643    -9844   -10015    -9921    -9715    -9572    -9390    -9256 
   -9444    -9872   -10134    -9990    -9616    -9396    -9498    -9687 
