Origin Time       2025/03/30 10:18:00
Lat.              34.667
Long.             140.825
Depth. (km)       69
Mag.              4.9
Station Code      SZO007
Station Lat.      34.9771
Station Long.     138.9468
Station Height(m) 46
Record Time       2025/03/30 10:19:18
Sampling Freq(Hz) 100Hz
Duration Time(s)  60
Dir.              E-W
Scale Factor      7845(gal)/8223790
Max. Acc. (gal)   1.634
Last Correction   2025/03/30 10:19:17
Memo.             
[...]
   -7326    -7263    -7218    -7276    -7435    -7547    -7546    -7500 
   -7473    -7479    -7466    -7406    -7357    -7406    -7542    -7699 
   -7790    -7700    -7411    -7114    -7036    -7222    -7480    -7605 
   -7600    -7553    -7495    -7431    -7341    -7257    -7253    -7353 
   -7522    -7611    -7488    -7333    -7354    -7474    -7585    -7658 
   -7607    -7399    -7198    -7140    -7206    -7361    -7542    -7624 
   -7576    -7520    -7523    -7496    -7430    -7406    -7416    -7389 
   -7314    -7288    -7368    -7425    -7403    -7423    -7496    -7534 
   -7518    -7504    -7493    -7430    -7399    -7504    -7628    -7651 
   -7581    -7443    -7294    -7172    -7171    -7396    -7642    -7655 
   -7562    -7466    -7356    -7348    -7442    -7491    -7410    -7271 
   -7253    -7358    -7446    -7514    -7557    -7519    -7507    -7587 
   -7612    -7539    -7443    -7327    -7207    -7149    -7214    -7426 
   -7689    -7809    -7686    -7447    -7317    -7323    -7362    -7457 
   -7572    -7545    -7423    -7368    -7379    -7384    -7319    -7223 
   -7265    -7466    -7668    -7738    -7636    -7400    -7196    -7215 
   -7419    -7576    -7564    -7460    -7368    -7342    -7411    -7523 
   -7534    -7400    -7285    -7276    -7318    -7415    -7564    -7646 
   -7589    -7445    -7303    -7225    -7227    -7308    -7435    -7553 
   -7600    -7582    -7562    -7518    -7427    -7334    -7264    -7300 
   -7484    -7696    -7828    -7805    -7615    -7395    -7226    -7096 
   -7090    -7272    -7518    -7646    -7605    -7484    -7380    -7353 
   -7396    -7391    -7333    -7350    -7434    -7515    -7549    -7476 
   -7353    -7352    -7493    -7603    -7592    -7550    -7492    -7365 
   -7263    -7252    -7265    -7344    -7554    -7763    -7771    -7549 
   -7275    -7144    -7184    -7344    -7530    -7589    -7489    -7399 
   -7442    -7501    -7484    -7465    -7434    -7368    -7357    -7393 
   -7437    -7485    -7518    -7520    -7454    -7365    -7420    -7560 
   -7608    -7570    -7464    -7303    -7191    -7218    -7419    -7673 
   -7838    -7904    -7766    -7414    -7117    -7030    -7113    -7303 
   -7503    -7554    -7423    -7321    -7391    -7520    -7576    -7534 
   -7441    -7358    -7318    -7350    -7469    -7574    -7551    -7411 
   -7281    -7280    -7393    -7546    -7662    -7639    -7515    -7435 
   -7399    -7335    -7245    -7187    -7257    -7449    -7642    -7703 
   -7601    -7491    -7462    -7429    -7389    -7360    -7318    -7348 
   -7458    -7561    -7568    -7425    -7263    -7218    -7267    -7396 
   -7547    -7599    -7574    -7534    -7476    -7439    -7403    -7319 
   -7291    -7377    -7507    -7607    -7530    -7317    -7273    -7435 
   -7589    -7609    -7461    -7353    -7426    -7488    -7488    -7497 
   -7458    -7402    -7375    -7352    -7348    -7398    -7503    -7547 
   -7457    -7352    -7288    -7303    -7456    -7615    -7657    -7609 
   -7477    -7348    -7358    -7437    -7477    -7518    -7541    -7492 
   -7414    -7368    -7399    -7492    -7533    -7422    -7295    -7311 
   -7345    -7306    -7306    -7366    -7447    -7587    -7722    -7681 
   -7510    -7377    -7284    -7223    -7254    -7389    -7576    -7668 
   -7597    -7441    -7315    -7307    -7356    -7381    -7420    -7492 
   -7584    -7645    -7580    -7404    -7242    -7184    -7300    -7557 
   -7720    -7638    -7427    -7271    -7244    -7304    -7373    -7427 
   -7474    -7587    -7736    -7713    -7507    -7306    -7169    -7146 
   -7295    -7537    -7743    -7790    -7638    -7381    -7149    -7051 
   -7164    -7431    -7676    -7765    -7684    -7512    -7361    -7314 
   -7329    -7277    -7229    -7288    -7369    -7477    -7612    -7662 
   -7628    -7487    -7241    -7121    -7264    -7546    -7755    -7773 
   -7654    -7485    -7342    -7318    -7329    -7338    -7487    -7661 
   -7676    -7558    -7352    -7241    -7302    -7380    -7488    -7568 
   -7481    -7399    -7410    -7391    -7372    -7391    -7423    -7465 
   -7429    -7345    -7329    -7312    -7379    -7568    -7584    -7441 
   -7383    -7388    -7481    -7600    -7560    -7457    -7341    -7230 
   -7326    -7535    -7668    -7681    -7560    -7500    -7507    -7366 
   -7242    -7265    -7345    -7510    -7651    -7551    -7349    -7260 
   -7253    -7295    -7388    -7476    -7501    -7468    -7445    -7446 
   -7407    -7348    -7349    -7442    -7569    -7638    -7565    -7402 
   -7354    -7466    -7566    -7535    -7360    -7167    -7148    -7353 
   -7665    -7844    -7715    -7430    -7254    -7222    -7292    -7442 
   -7574    -7608    -7562    -7456    -7317    -7248    -7331    -7481 
   -7527    -7469    -7446    -7476    -7488    -7465    -7381    -7252 
   -7200    -7283    -7422    -7551    -7655    -7670    -7539    -7330 
   -7188    -7246    -7477    -7661    -7688    -7650    -7574    -7447 
   -7344    -7299    -7294    -7353    -7510    -7628    -7535    -7362 
   -7319    -7368    -7446    -7497    -7414    -7265    -7226    -7358 
   -7566    -7688    -7638    -7452    -7284    -7273    -7341    -7392 
   -7473    -7555    -7576    -7504    -7353    -7288    -7387    -7497 
   -7516    -7445    -7368    -7392    -7492    -7512    -7418    -7387 
   -7474    -7593    -7665    -7538    -7258    -7144    -7314    -7592 
   -7693    -7581    -7472    -7400    -7327    -7318    -7342    -7366 
   -7457    -7581    -7595    -7480    -7372    -7334    -7348    -7371 
   -7385    -7433    -7481    -7470    -7450    -7443    -7425    -7438 
   -7511    -7587    -7578    -7452    -7348    -7377    -7427    -7433 
   -7453    -7464    -7420    -7396    -7433    -7497    -7554    -7565 
   -7510    -7433    -7384    -7360    -7342    -7337    -7388    -7493 
   -7551    -7541    -7506    -7388    -7275    -7319    -7427    -7503 
   -7557    -7530    -7399    -7253    -7240    -7372    -7477    -7496 
   -7538    -7605    -7608    -7535    -7435    -7364    -7357    -7375 
   -7402    -7466    -7501    -7484    -7470    -7412    -7317    -7333 
   -7477    -7589    -7570    -7481    -7365    -7265    -7292    -7433 
   -7538    -7507    -7362    -7265    -7315    -7445    -7566    -7614 
   -7565    -7477    -7373    -7240    -7161    -7284    -7551    -7747 
   -7767    -7623    -7399    -7227    -7190    -7284    -7442    -7564 
   -7599    -7573    -7497    -7379    -7299    -7304    -7361    -7468 
   -7557    -7535    -7483    -7450    -7433    -7501    -7566    -7473 
   -7353    -7335    -7352    -7420    -7533    -7576    -7578    -7546 
   -7410    -7268    -7250    -7373    -7561    -7651    -7587    -7445 
   -7311    -7260    -7290    -7393    -7535    -7600    -7573    -7469 
   -7319    -7253    -7292    -7356    -7427    -7506    -7585    -7584 
   -7474    -7420    -7414    -7353    -7353    -7410    -7447    -7514 
   -7522    -7393    -7283    -7281    -7358    -7477    -7541    -7501 
   -7435    -7384    -7344    -7338    -7335    -7341    -7457    -7609 
   -7651    -7642    -7596    -7457    -7335    -7312    -7330    -7345 
   -7335    -7369    -7537    -7690    -7646    -7491    -7361    -7281 
   -7268    -7314    -7426    -7557    -7589    -7501    -7360    -7288 
   -7361    -7472    -7553    -7601    -7566    -7492    -7441    -7380 
   -7335    -7362    -7468    -7528    -7454    -7418    -7476    -7468 
   -7418    -7437    -7481    -7470    -7408    -7368    -7391    -7474 
   -7516    -7464    -7449    -7470    -7439    -7443    -7496    -7493 
   -7427    -7369    -7395    -7458    -7415    -7323    -7334    -7371 
   -7381    -7491    -7626    -7562    -7379    -7331    -7403    -7438 
   -7464    -7523    -7543    -7488    -7435    -7439    -7418    -7364 
   -7366    -7410    -7464    -7483    -7464    -7508    -7531    -7439 
   -7364    -7337    -7318    -7322    -7361    -7485    -7605    -7585 
   -7484    -7371    -7318    -7392    -7488    -7541    -7558    -7504 
   -7410    -7371    -7403    -7438    -7508    -7661    -7722    -7570 
   -7300    -7044    -6975    -7192    -7541    -7796    -7800    -7569 
   -7333    -7279    -7381    -7492    -7485    -7398    -7354    -7391 
   -7408    -7384    -7407    -7445    -7434    -7433    -7462    -7485 
   -7480    -7473    -7456    -7389    -7364    -7426    -7477    -7488 
   -7447    -7400    -7456    -7528    -7535    -7528    -7476    -7373 
   -7299    -7290    -7348    -7411    -7473    -7537    -7481    -7365 
   -7358    -7416    -7457    -7489    -7538    -7547    -7457    -7379 
   -7361    -7315    -7317    -7420    -7538    -7636    -7657    -7557 
   -7412    -7325    -7331    -7402    -7492    -7531    -7484    -7445 
   -7433    -7404    -7410    -7439    -7435    -7422    -7439    -7483 
   -7480    -7433    -7429    -7453    -7437    -7411    -7418    -7453 
   -7466    -7433    -7414    -7477    -7537    -7422    -7202    -7163 
   -7342    -7564    -7717    -7740    -7584    -7315    -7144    -7214 
   -7388    -7537    -7673    -7724    -7630    -7443    -7265    -7250 
   -7389    -7497    -7543    -7557    -7507    -7481    -7496    -7439 
   -7365    -7312    -7218    -7200    -7329    -7465    -7522    -7500 
   -7460    -7469    -7501    -7477    -7408    -7348    -7287    -7319 
   -7515    -7672    -7669    -7574    -7398    -7254    -7271    -7383 
   -7533    -7622    -7534    -7423    -7430    -7423    -7344    -7330 
   -7412    -7473    -7480    -7497    -7481    -7366    -7287    -7350 
   -7449    -7458    -7408    -7404    -7489    -7560    -7515    -7418 
   -7360    -7364    -7407    -7456    -7530    -7596    -7542    -7441 
   -7438    -7476    -7438    -7362    -7371    -7450    -7493    -7464 
   -7385    -7337    -7377    -7466    -7531    -7518    -7456    -7411 
   -7383    -7411    -7501    -7500    -7396    -7360    -7396    -7385 
   -7368    -7461    -7560    -7500    -7427    -7462    -7460    -7403 
   -7396    -7384    -7360    -7410    -7479    -7474    -7427    -7441 
   -7504    -7504    -7443    -7366    -7279    -7283    -7418    -7533 
   -7538    -7483    -7447    -7465    -7460    -7414    -7425    -7454 
   -7420    -7393    -7384    -7354    -7395    -7499    -7542    -7546 
   -7578    -7616    -7574    -7422    -7268    -7277    -7468    -7646 
   -7661    -7574    -7427    -7256    -7209    -7311    -7470    -7605 
   -7642    -7578    -7456    -7334    -7315    -7404    -7496    -7500 
   -7438    -7443    -7506    -7489    -7403    -7308    -7227    -7263 
   -7430    -7589    -7672    -7655    -7500    -7272    -7111    -7144 
   -7358    -7580    -7680    -7645    -7514    -7380    -7304    -7299 
   -7356    -7400    -7407    -7452    -7499    -7472    -7422    -7407 
   -7434    -7479    -7491    -7487    -7464    -7403    -7364    -7346 
   -7334    -7395    -7491    -7545    -7555    -7539    -7485    -7415 
   -7398    -7433    -7476    -7523    -7526    -7450    -7360    -7323 
   -7360    -7434    -7468    -7453    -7465    -7522    -7530    -7469 
   -7447    -7477    -7465    -7429    -7404    -7345    -7285    -7306 
   -7393    -7519    -7649    -7680    -7533    -7334    -7263    -7287 
   -7300    -7350    -7487    -7582    -7560    -7522    -7531    -7504 
   -7406    -7317    -7304    -7380    -7473    -7476    -7376    -7288 
   -7338    -7479    -7577    -7589    -7519    -7439    -7412    -7383 
   -7350    -7352    -7345    -7371    -7454    -7479    -7422    -7403 
   -7441    -7458    -7453    -7458    -7473    -7491    -7488    -7406 
   -7283    -7256    -7354    -7512    -7681    -7789    -7730    -7495 
   -7234    -7159    -7306    -7507    -7646    -7692    -7605    -7425 
   -7256    -7137    -7096    -7234    -7542    -7819    -7862    -7636 
   -7288    -7007    -6930    -7074    -7296    -7485    -7665    -7821 
   -7838    -7693    -7500    -7312    -7184    -7188    -7287    -7414 
   -7518    -7530    -7443    -7350    -7354    -7468    -7630    -7750 
   -7796    -7782    -7709    -7631    -7597    -7527    -7344    -7117 
   -6991    -7088    -7379    -7635    -7717    -7701    -7588    -7392 
   -7292    -7341    -7446    -7504    -7411    -7190    -6995    -6944 
   -7076    -7375    -7731    -7992    -8006    -7726    -7280    -6864 
   -6675    -6843    -7245    -7616    -7751    -7653    -7519    -7474 
   -7543    -7711    -7808    -7770    -7782    -7840    -7735    -7422 
   -7042    -6797    -6808    -7055    -7426    -7701    -7746    -7688 
   -7727    -7913    -8083    -7938    -7369    -6667    -6334    -6633 
   -7322    -7927    -8090    -7797    -7377    -7121    -7088    -7245 
   -7533    -7862    -8086    -8046    -7666    -7084    -6683    -6731 
   -7088    -7481    -7770    -7913    -7897    -7720    -7415    -7082 
   -6885    -7009    -7476    -8048    -8372    -8251    -7778    -7160 
   -6613    -6369    -6461    -6804    -7333    -7828    -8043    -7877 
   -7352    -6712    -6415    -6740    -7483    -8155    -8421    -8226 
   -7747    -7285    -7036    -7014    -7240    -7693    -8205    -8487 
   -8344    -7886    -7368    -6978    -6868    -7084    -7393    -7492 
   -7376    -7260    -7230    -7223    -7142    -6940    -6735    -6764 
   -7206    -7959    -8583    -8687    -8205    -7375    -6689    -6559 
   -7006    -7681    -8129    -8116    -7696    -7101    -6597    -6346 
   -6403    -6820    -7510    -8152    -8451    -8380    -8074    -7681 
   -7349    -7155    -7142    -7369    -7758    -8128    -8309    -8125 
   -7516    -6654    -5923    -5728    -6157    -6910    -7592    -7900 
   -7777    -7485    -7245    -7090    -7109    -7403    -7940    -8537 
   -8870    -8669    -7973    -7145    -6670    -6736    -7126    -7539 
   -7751    -7690    -7555    -7551    -7619    -7601    -7465    -7317 
   -7257    -7237    -7177    -7080    -7015    -7078    -7285    -7572 
   -7762    -7736    -7618    -7572    -7636    -7735    -7715    -7573 
   -7407    -7248    -7137    -7091    -7117    -7299    -7623    -7935 
   -8054    -7825    -7264    -6624    -6282    -6481    -7102    -7823 
   -8370    -8519    -8199    -7614    -7167    -7163    -7492    -7780 
   -7808    -7570    -7179    -6808    -6646    -6832    -7318    -7817 
   -7981    -7685    -7238    -7082    -7312    -7699    -7967    -7916 
   -7501    -6964    -6639    -6658    -6947    -7369    -7759    -7967 
   -7966    -7839    -7673    -7573    -7624    -7739    -7715    -7500 
   -7272    -7244    -7429    -7612    -7574    -7285    -6943    -6822 
   -7006    -7298    -7550    -7719    -7717    -7561    -7350    -7113 
   -6949    -7003    -7256    -7619    -7990    -8253    -8311    -8078 
   -7595    -7048    -6651    -6681    -7219    -7906    -8395    -8514 
   -8100    -7279    -6442    -5922    -5949    -6548    -7450    -8221 
   -8487    -8199    -7631    -7074    -6725    -6701    -6929    -7254 
   -7688    -8187    -8492    -8402    -7950    -7408    -7090    -7061 
   -7222    -7493    -7763    -7855    -7686    -7345    -7011    -6864 
   -6948    -7211    -7539    -7770    -7807    -7653    -7381    -7146 
   -7041    -7074    -7265    -7566    -7825    -7917    -7794    -7516 
   -7211    -6976    -6893    -7048    -7375    -7712    -7909    -7800 
   -7430    -7084    -6939    -7075    -7501    -7973    -8186    -8054 
   -7701    -7334    -7109    -7102    -7287    -7545    -7739    -7777 
   -7624    -7389    -7294    -7385    -7520    -7630    -7711    -7684 
   -7511    -7279    -7096    -7072    -7252    -7515    -7653    -7562 
   -7308    -7020    -6835    -6898    -7175    -7445    -7557    -7528 
   -7438    -7377    -7426    -7592    -7770    -7792    -7624    -7402 
   -7164    -6940    -6953    -7295    -7722    -7960    -7890    -7570 
   -7198    -6997    -7078    -7315    -7508    -7584    -7550    -7441 
   -7317    -7258    -7279    -7357    -7530    -7720    -7736    -7541 
   -7261    -7095    -7173    -7433    -7731    -7924    -7844    -7489 
   -7107    -6972    -7211    -7680    -8039    -8109    -7919    -7600 
   -7358    -7265    -7261    -7376    -7604    -7797    -7847    -7762 
   -7581    -7372    -7237    -7153    -7060    -7080    -7269    -7504 
   -7700    -7742    -7549    -7249    -7048    -7083    -7330    -7628 
   -7843    -7857    -7599    -7226    -7007    -7041    -7214    -7360 
   -7366    -7275    -7217    -7215    -7269    -7416    -7562    -7614 
   -7597    -7537    -7442    -7353    -7338    -7412    -7516    -7599 
   -7564    -7392    -7237    -7175    -7167    -7230    -7400    -7630 
   -7812    -7866    -7770    -7588    -7426    -7368    -7411    -7460 
   -7461    -7425    -7308    -7161    -7165    -7375    -7677    -7928 
   -7971    -7731    -7349    -7072    -7011    -7159    -7443    -7686 
   -7765    -7744    -7659    -7499    -7377    -7345    -7354    -7426 
   -7507    -7507    -7499    -7477    -7371    -7302    -7318    -7350 
   -7450    -7557    -7503    -7349    -7219    -7102    -7040    -7134 
   -7381    -7658    -7789    -7727    -7581    -7373    -7152    -7109 
   -7256    -7447    -7616    -7690    -7603    -7412    -7258    -7244 
   -7373    -7546    -7655    -7649    -7487    -7245    -7149    -7234 
   -7358    -7474    -7572    -7604    -7549    -7434    -7329    -7285 
   -7306    -7372    -7462    -7554    -7612    -7584    -7500    -7464 
   -7496    -7507    -7425    -7310    -7285    -7399    -7604    -7828 
   -7974    -7939    -7711    -7341    -6966    -6801    -6916    -7229 
   -7650    -8004    -8140    -8010    -7608    -7126    -6835    -6814 
   -7030    -7349    -7569    -7647    -7628    -7512    -7346    -7236 
   -7211    -7276    -7435    -7577    -7557    -7410    -7277    -7222 
   -7260    -7400    -7572    -7673    -7665    -7587    -7499    -7450 
   -7437    -7396    -7335    -7354    -7483    -7657    -7749    -7655 
   -7458    -7310    -7231    -7222    -7302    -7425    -7537    -7622 
   -7630    -7560    -7489    -7435    -7372    -7315    -7285    -7322 
   -7447    -7558    -7581    -7554    -7487    -7385    -7291    -7233 
   -7223    -7279    -7419    -7616    -7761    -7754    -7600    -7411 
   -7281    -7229    -7252    -7331    -7415    -7503    -7577    -7545 
   -7442    -7373    -7314    -7248    -7256    -7358    -7491    -7569 
   -7584    -7619    -7655    -7604    -7507    -7431    -7342    -7248 
   -7223    -7306    -7470    -7632    -7670    -7561    -7384    -7225 
   -7142    -7191    -7364    -7555    -7647    -7631    -7528    -7353 
   -7168    -7096    -7246    -7527    -7722    -7754    -7674    -7539 
   -7389    -7257    -7204    -7234    -7319    -7447    -7562    -7619 
   -7618    -7550    -7414    -7281    -7268    -7360    -7453    -7523 
   -7541    -7480    -7429    -7447    -7518    -7588    -7634    -7626 
   -7534    -7435    -7426    -7473    -7516    -7565    -7581    -7496 
   -7344    -7229    -7198    -7277    -7452    -7577    -7538    -7384 
   -7225    -7144    -7184    -7315    -7460    -7568    -7622    -7607 
   -7538    -7433    -7308    -7236    -7296    -7483    -7662    -7709 
   -7628    -7485    -7329    -7241    -7271    -7366    -7472    -7530 
   -7480    -7379    -7357    -7433    -7538    -7615    -7599    -7479 
   -7371    -7360    -7404    -7442    -7479    -7530    -7566    -7541 
   -7447    -7330    -7276    -7333    -7466    -7595    -7614    -7468 
