Origin Time       2025/03/30 10:18:00
Lat.              34.667
Long.             140.825
Depth. (km)       69
Mag.              4.9
Station Code      SZO003
Station Lat.      34.8158
Station Long.     139.0544
Station Height(m) 149
Record Time       2025/03/30 10:18:55
Sampling Freq(Hz) 100Hz
Duration Time(s)  74
Dir.              E-W
Scale Factor      7845(gal)/8223790
Max. Acc. (gal)   11.942
Last Correction   2025/03/30 10:18:54
Memo.             
[...]
    8966     8969     8970     8961     8954     8962     8964     8957 
    8959     8966     8968     8969     8968     8964     8964     8966 
    8966     8966     8966     8965     8962     8961     8965     8968 
    8966     8962     8959     8961     8965     8965     8955     8951 
    8957     8968     8976     8961     8947     8965     8974     8966 
    8968     8973     8965     8958     8961     8968     8973     8976 
    8970     8964     8961     8957     8957     8958     8954     8959 
    8968     8968     8962     8962     8968     8965     8964     8968 
    8966     8966     8968     8968     8969     8965     8966     8970 
    8965     8962     8961     8958     8959     8965     8964     8954 
    8961     8969     8957     8958     8966     8959     8958     8966 
    8969     8966     8965     8965     8965     8969     8969     8965 
    8966     8962     8958     8964     8964     8959     8964     8968 
    8964     8962     8965     8962     8964     8966     8961     8962 
    8973     8968     8957     8961     8970     8970     8964     8962 
    8969     8969     8961     8958     8966     8968     8966     8964 
    8954     8957     8965     8964     8962     8964     8958     8953 
    8959     8969     8973     8972     8962     8962     8970     8968 
    8962     8961     8964     8969     8966     8966     8969     8959 
    8950     8958     8968     8959     8950     8961     8969     8959 
    8962     8974     8969     8964     8966     8965     8962     8962 
    8959     8961     8961     8958     8962     8965     8962     8959 
    8964     8961     8959     8969     8970     8962     8965     8966 
    8964     8962     8964     8966     8961     8957     8966     8965 
    8959     8964     8966     8964     8962     8961     8968     8977 
    8970     8957     8962     8974     8964     8951     8964     8965 
    8959     8966     8970     8965     8959     8964     8966     8962 
    8964     8968     8968     8969     8966     8964     8961     8961 
    8965     8964     8957     8955     8968     8976     8966     8966 
    8969     8964     8965     8968     8965     8961     8961     8973 
    8972     8961     8958     8964     8969     8964     8959     8964 
    8962     8966     8972     8961     8959     8970     8966     8958 
    8958     8966     8970     8966     8966     8969     8966     8964 
    8965     8968     8970     8969     8965     8965     8964     8959 
    8957     8958     8961     8964     8969     8969     8968     8968 
    8965     8961     8957     8964     8972     8970     8968     8962 
    8962     8969     8964     8959     8964     8961     8962     8968 
    8968     8968     8964     8964     8966     8962     8959     8966 
    8968     8961     8959     8965     8966     8966     8965     8965 
    8965     8965     8966     8970     8966     8962     8962     8962 
    8959     8962     8964     8961     8965     8969     8964     8962 
    8965     8964     8965     8966     8961     8959     8964     8966 
    8969     8968     8964     8958     8962     8970     8965     8959 
    8968     8970     8961     8957     8964     8968     8962     8959 
    8966     8973     8965     8962     8966     8965     8961     8957 
    8958     8968     8972     8969     8970     8968     8964     8962 
    8964     8964     8964     8968     8964     8957     8964     8972 
    8968     8961     8966     8970     8964     8962     8965     8959 
    8959     8968     8966     8964     8969     8970     8962     8958 
    8962     8961     8964     8966     8964     8969     8978     8970 
    8959     8961     8970     8965     8954     8957     8964     8966 
    8961     8959     8970     8974     8968     8966     8966     8964 
    8958     8962     8972     8972     8969     8965     8957     8964 
    8969     8962     8964     8964     8962     8968     8966     8964 
    8962     8968     8968     8957     8962     8964     8953     8955 
    8964     8969     8972     8969     8969     8972     8970     8966 
    8966     8970     8959     8953     8970     8972     8955     8962 
    8968     8961     8964     8965     8958     8955     8965     8976 
    8972     8962     8957     8959     8968     8970     8968     8968 
    8966     8966     8968     8964     8955     8958     8966     8968 
    8962     8961     8957     8958     8968     8970     8966     8964 
    8961     8961     8961     8957     8964     8976     8973     8964 
    8965     8966     8962     8966     8973     8968     8961     8959 
    8961     8961     8961     8965     8966     8969     8968     8962 
    8962     8965     8961     8964     8974     8974     8964     8958 
    8961     8964     8962     8962     8961     8962     8969     8974 
    8977     8973     8965     8957     8955     8959     8954     8959 
    8974     8970     8962     8964     8961     8957     8965     8973 
    8969     8962     8964     8966     8970     8972     8964     8957 
    8961     8972     8972     8962     8959     8964     8961     8964 
    8974     8970     8964     8973     8968     8951     8953     8965 
    8968     8964     8965     8965     8964     8965     8968     8969 
    8965     8962     8968     8965     8964     8969     8969     8965 
    8965     8965     8959     8961     8970     8974     8970     8958 
    8951     8958     8968     8970     8966     8959     8957     8966 
    8973     8968     8962     8965     8966     8968     8969     8965 
    8965     8969     8962     8954     8964     8968     8964     8965 
    8966     8962     8955     8955     8966     8966     8964     8966 
    8964     8970     8972     8962     8964     8970     8968     8965 
    8966     8962     8958     8961     8961     8962     8964     8962 
    8962     8968     8972     8965     8958     8958     8965     8970 
    8965     8965     8972     8969     8961     8961     8968     8972 
    8969     8961     8957     8961     8965     8964     8966     8966 
    8965     8964     8957     8962     8976     8974     8966     8966 
    8970     8962     8958     8965     8964     8961     8962     8958 
    8959     8964     8961     8965     8961     8958     8968     8968 
    8965     8965     8965     8973     8973     8964     8959     8969 
    8968     8958     8959     8966     8968     8966     8966     8961 
    8957     8964     8965     8959     8965     8965     8962     8966 
    8966     8965     8965     8966     8966     8958     8958     8968 
    8966     8965     8966     8965     8964     8961     8962     8965 
    8962     8964     8966     8966     8966     8966     8966     8964 
    8959     8961     8964     8968     8970     8964     8958     8965 
    8972     8970     8962     8962     8970     8969     8964     8962 
    8958     8959     8969     8974     8973     8968     8961     8955 
    8954     8966     8970     8962     8961     8968     8968     8959 
    8966     8978     8973     8966     8969     8965     8959     8962 
    8961     8959     8964     8964     8965     8969     8968     8958 
    8964     8972     8965     8962     8965     8961     8959     8964 
    8966     8970     8970     8968     8966     8961     8955     8962 
    8969     8968     8962     8962     8969     8964     8954     8961 
    8969     8965     8958     8959     8968     8968     8968     8969 
    8968     8969     8962     8961     8965     8961     8966     8973 
    8969     8968     8966     8965     8965     8964     8962     8964 
    8966     8968     8966     8964     8961     8964     8964     8959 
    8964     8969     8968     8968     8969     8969     8964     8959 
    8961     8958     8959     8968     8966     8965     8970     8969 
    8964     8961     8962     8965     8968     8976     8974     8968 
    8969     8966     8958     8955     8958     8957     8953     8959 
    8966     8966     8968     8969     8965     8961     8959     8966 
    8973     8968     8968     8973     8969     8964     8959     8968 
    8973     8964     8962     8965     8958     8957     8961     8968 
    8969     8962     8964     8965     8964     8961     8969     8977 
    8958     8950     8966     8968     8964     8970     8973     8968 
    8962     8965     8968     8966     8969     8965     8964     8964 
    8954     8958     8972     8970     8966     8962     8961     8962 
    8958     8958     8962     8965     8968     8966     8966     8968 
    8964     8965     8972     8968     8959     8965     8970     8970 
    8966     8959     8961     8966     8972     8965     8955     8957 
    8957     8958     8970     8973     8961     8962     8969     8968 
    8969     8969     8964     8961     8959     8961     8964     8968 
    8969     8968     8968     8964     8957     8962     8968     8966 
    8962     8964     8970     8968     8965     8969     8961     8954 
    8961     8965     8962     8962     8968     8972     8970     8968 
    8962     8958     8962     8968     8966     8969     8965     8957 
    8966     8970     8961     8962     8964     8962     8965     8968 
    8962     8962     8968     8966     8961     8958     8958     8962 
    8965     8962     8970     8973     8969     8966     8965     8965 
    8964     8965     8969     8962     8962     8964     8961     8966 
    8964     8961     8965     8964     8962     8962     8962     8966 
    8968     8968     8968     8968     8966     8965     8966     8968 
    8969     8965     8959     8962     8966     8966     8964     8966 
    8970     8966     8965     8966     8961     8961     8966     8968 
    8966     8965     8964     8962     8965     8964     8957     8961 
    8966     8966     8966     8965     8964     8966     8965     8964 
    8962     8959     8965     8962     8958     8966     8970     8970 
    8966     8964     8966     8966     8959     8955     8966     8968 
    8959     8966     8973     8961     8962     8974     8969     8961 
    8961     8964     8961     8962     8974     8974     8964     8968 
    8969     8962     8959     8962     8970     8969     8968     8970 
    8966     8966     8965     8959     8964     8968     8962     8958 
    8961     8965     8961     8961     8966     8962     8964     8970 
    8965     8962     8970     8970     8969     8973     8970     8961 
    8959     8962     8961     8964     8968     8964     8961     8962 
    8962     8959     8964     8966     8958     8958     8968     8969 
    8969     8968     8961     8964     8978     8981     8968     8961 
    8965     8970     8966     8961     8962     8964     8958     8954 
    8959     8965     8964     8961     8961     8965     8969     8968 
    8966     8969     8973     8970     8965     8959     8961     8966 
    8964     8962     8965     8965     8968     8965     8964     8962 
    8955     8961     8968     8965     8966     8966     8966     8966 
    8965     8964     8955     8951     8959     8965     8959     8959 
    8969     8973     8965     8964     8972     8964     8964     8978 
    8973     8955     8959     8972     8968     8964     8968     8966 
    8958     8959     8959     8954     8962     8977     8976     8968 
    8964     8959     8961     8968     8968     8969     8970     8969 
    8968     8964     8961     8964     8966     8965     8964     8964 
    8962     8959     8961     8962     8962     8966     8969     8972 
    8974     8966     8962     8968     8966     8961     8961     8962 
    8966     8965     8961     8964     8968     8965     8959     8958 
    8966     8972     8968     8962     8962     8965     8965     8968 
    8970     8968     8965     8968     8968     8959     8958     8962 
    8961     8955     8957     8968     8970     8959     8964     8972 
    8965     8958     8964     8968     8966     8968     8973     8969 
    8962     8970     8976     8969     8965     8962     8961     8964 
    8962     8961     8958     8958     8961     8961     8965     8970 
    8965     8961     8968     8973     8968     8966     8966     8965 
    8966     8962     8959     8966     8964     8958     8961     8968 
    8968     8962     8962     8959     8961     8970     8973     8964 
    8964     8977     8977     8962     8955     8957     8957     8959 
    8965     8968     8964     8966     8970     8966     8965     8966 
    8966     8962     8962     8969     8968     8959     8966     8969 
    8964     8961     8961     8961     8959     8959     8962     8968 
    8969     8970     8968     8961     8961     8966     8965     8965 
    8970     8972     8968     8964     8962     8968     8970     8965 
    8964     8969     8968     8957     8954     8958     8961     8961 
    8962     8973     8976     8968     8966     8969     8966     8966 
    8969     8968     8962     8962     8964     8966     8969     8968 
    8964     8962     8961     8958     8959     8959     8958     8965 
    8972     8968     8969     8966     8953     8949     8958     8965 
    8957     8955     8972     8982     8992     9020     9053     9080 
    9099     9113     9123     9126     9127     9121     9093     9030 
    8920     8775     8617     8505     8518     8706     9073     9575 
   10099    10467    10505    10139     9386     8330     7138     6087 
    5497     5578     6401     7931     9996    12190    13890    14497 
   13674    11419     8100     4386     1120     -816     -828     1174 
    4997    10150    15446    19465    21483    21389    19313    15736 
   11323     6909     3680     2494     3326     5510     7913     9344 
    9177     7582     5482     3739     2712     2728     3954     6220 
    9198    12202    14466    15650    15680    14593    12646    10237 
    7901     6405     6382     7701     9517    11114    12285    12837 
   12343    10559     7742     4537     1817      541     1182     3173 
    5590     8206    11190    14397    17159    18388    17451    14852 
   11546     8158     5167     3242     2689     2906     3258     3956 
    5427     7646    10372    13109    14968    15295    14203    12294 
   10280     8733     7790     7165     6536     5925     5736     6262 
    7361     8876    10679    12209    12758    12085    10381     8085 
    5899     4673     4860     6154     8035    10228    12469    14278 
   15025    14231    12110     9609     7796     7078     6961     6840 
    6575     6145     5643     5468     5850     6490     6748     6238 
    5364     4961     5578     7331     9917    12645    14816    16106 
   16667    16915    16989    16576    15361    13311    10717     8041 
    5470     3022     1008     -221     -538      236     2181     4812 
    7236     8823     9659    10351    11452    13030    14686    15728 
   15658    14615    13113    11631    10430     9429     8401     7269 
    6164     5290     4811     4738     5009     5647     6617     7528 
    7862     7591     7318     7588     8316     9189    10201    11456 
   12841    13968    14451    14300    13803    13220    12511    11296 
    9448     7366     5617     4565     4031     3483     2748     2081 
    1827     2367     3924     6347     9123    11670    13726    15314 
   16402    16876    16718    16002    14740    13007    11034     9024 
    7172     5736     4854     4463     4471     4849     5459     6038 
    6444     6642     6646     6675     7082     8046     9456    10937 
   12074    12664    12690    12270    11722    11384    11321    11346 
   11226    10721     9747     8584     7588     6879     6450     6227 
    5964     5439     4881     4877     5688     6882     7746     8116 
    8544     9485    10758    11890    12621    12969    12977    12658 
   12162    11506    10531     9423     8596     8139     7758     7083 
    6081     5105     4499     4607     5692     7522     9516    11171 
   12182    12525    12390    11936    11311    10719    10281     9842 
    9186     8492     8174     8328     8667     8800     8572     8074 
    7348     6482     5715     5186     4997     5325     6304     7842 
    9576    11141    12270    12756    12702    12514    12353    11994 
   11244    10156     8950     7835     6898     6203     5794     5645 
    5791     6334     7246     8244     9018     9489     9848    10404 
   11159    11826    12209    12225    11902    11326    10532     9701 
    9092     8784     8672     8476     7936     7160     6412     5805 
    5460     5509     5833     6228     6706     7419     8361     9323 
   10147    10795    11180    11256    11155    11097    11259    11653 
   12074    12213    11863    11060     9973     8743     7564     6716 
    6389     6490     6728     6883     6918     6837     6666     6513 
    6474     6624     7156     8229     9652    10971    11828    12117 
   11942    11531    11080    10666    10347    10224    10272    10284 
   10108     9756     9301     8772     8178     7597     7130     6741 
    6331     5983     5969     6397     7090     7862     8580     9072 
    9335     9560     9834    10084    10180    10096    10098    10409 
   10804    10898    10625    10103     9409     8769     8429     8336 
    8340     8436     8610     8820     9147     9536     9710     9531 
    9069     8494     7985     7554     7175     6956     6991     7265 
    7753     8398     9088     9738    10293    10644    10689    10531 
   10427    10435    10395    10249    10007     9666     9308     9076 
    8954     8742     8348     7946     7697     7520     7348     7335 
    7523     7696     7831     8100     8457     8742     8973     9209 
    9374     9431     9481     9590     9713     9828    10018    10308 
   10497    10393    10076     9711     9325     8916     8588     8314 
    7909     7443     7304     7705     8378     8893     9151     9263 
    9208     8927     8602     8526     8715     9001     9277     9423 
    9421     9450     9536     9509     9371     9240     9080     8938 
    9023     9355     9718     9818     9433     8733     8162     7886 
    7751     7618     7523     7632     8009     8517     9036     9460 
    9599     9499     9452     9560     9720     9877    10007    10092 
   10106     9921     9547     9204     8980     8812     8722     8727 
    8679     8472     8263     8201     8190     8166     8213     8352 
    8510     8634     8653     8487     8244     8137     8268     8604 
    8955     9146     9252     9439     9753    10141    10512    10791 
   10833    10473     9756     8976     8480     8406     8579     8660 
    8473     8245     8299     8652     9132     9531     9666     9552 
    9246     8679     7921     7256     6936     7065     7542     8090 
    8525     8895     9267     9589     9788     9876     9894     9883 
    9857     9809     9748     9688     9656     9672     9703     9629 
    9332     8918     8646     8569     8480     8224     7855     7546 
    7476     7715     8183     8726     9140     9300     9310     9355 
    9402     9346     9255     9198     9130     9058     9038     9073 
    9188     9444     9767     9983    10007     9868     9621     9337 
    9096     8845     8468     8004     7634     7528     7765     8289 
    8927     9398     9437     9039     8472     8048     7873     7889 
    8109     8472     8754     8931     9171     9520     9929    10328 
