Origin Time       2025/03/30 10:18:00
Lat.              34.667
Long.             140.825
Depth. (km)       69
Mag.              4.9
Station Code      SZO001
Station Lat.      35.1425
Station Long.     139.0798
Station Height(m) 74
Record Time       2025/03/30 10:19:15
Sampling Freq(Hz) 100Hz
Duration Time(s)  60
Dir.              U-D
Scale Factor      7845(gal)/8223790
Max. Acc. (gal)   0.587
Last Correction   2025/03/30 10:19:15
Memo.             
      67      444      468     -179     -270      399      588      280 
     191      143      -40       52      453      565      342      265 
     202        6      -39      145      513      641      203     -130 
      25      217      314      337      187       60       21       13 
     270      638      496       25       13      338      394      291 
     255      139       14        9      113      441      745      484 
    -168     -400       52      526      506      311      209       81 
      76      274      324       76      -47      283      530      202 
     -79       94      202       95      180      460      513      211 
       4      152      249       76       21      275      511      415 
     194      213      294      194      198      351      237      -56 
     -18      238      197       10      145      382      295      152 
     287      341      110       24      157      252      365      437 
     267       55       62      230      333      198      108      298 
     351      143       47      103      243      395      356      241 
     288      368      264      125      189      249      151      145 
     226      179      174      294      175      -41      225      616 
     440      141      251      342      141       10      143      213 
      10     -148       27      373      514      303       59      178 
     495      421        1       -4      344      299       76      234 
     396      213      126      274      245      126      190      303 
     417      483      282       14       93      280      133      -52 
     180      445      255       44      198      325      264      222 
     184      116      118      183      184      209      291      160 
      39      288      449      248      105      140      112       90 
     303      479      284       28       78      264      244      110 
     191      299      248      321      425      284      125       72 
     101      326      483      280       47      126      267       74 
     -37      386      610      236       98      345      244      -90 
      32      418      383       43       27      284      275       68 
     128      329      309      203      230      229      102       44 
     180      380      415      288      253      310      205       39 
     144      349      210       -8      241      459       78     -197 
     103      442      460      205       13      186      322      199 
     252      450      302      -37       32      338      371      396 
     484      203      -55      117      224      172      189      132 
     174      338      153      -27      334      579      317      184 
     218       62       67      326      346      157      143      236 
     288      359      306      116       70      170      302      433 
     336      -10     -141      130      360      351      373      336 
     153      135      184       52       17      206      241       78 
      89      286      328      197      170      255      211      108 
     166      267      292      315      265      136       89      229 
     464      400       24      -71      156      260      191      137 
     238      372      298      218      274      232      109      132 
     342      529      442      243      160       59      -35       75 
     319      426      184      -56      133      338      236      282 
     446      295      130      230      195      -27      -83       99 
     378      437      264      332      488      238       12      252 
     425      101     -110      267      480      122       37      324 
     229       36      257      425      193      -32       72      307 
     352      199      140      305      283      -25       49      460 
     392       14       52      365      375      157      230      390 
     153      -62      110      207       86      112      271      341 
     319      232      135      201      337      298      228      275 
     284      278      297      187       45      103      305      409 
     322      202      149      129      156      220      314      346 
     128      -78       74      321      398      249      -40      -20 
     337      440      228       99      106      160      234      199 
     106      276      554      392       18       16      183      184 
     186      309      365      230      144      244      226       70 
      79      209      276      307      325      275      211      252 
     279      156      132      337      394      187       94      164 
     179      198      287      309      203      153      268      292 
     167      184      230      117      149      328      297      103 
      28      184      378      305      163      284      417      233 
     -28      -59       72      224      371      414      286      179 
     168      171      332      488      230      -40      137      247 
      79      147      345      205      -16       98      332      351 
     226      148      175      298      396      315      191      201 
     198      126      117      122      213      427      369       43 
      -6      207      294      267      234      136       44      112 
     291      456      465      218      -47        0      216      290 
     260      270      282      240      197      236      294      265 
     256      298      259      210      195      144      176      271 
     184       41      147      275      145       49      162      251 
     283      298      240      279      432      337       28        4 
     299      423      193      -29       85      364      369       98 
      47      292      329       91       78      330      324       49 
     101      410      329       37      174      498      426      139 
      24       66      229      415      346      122      122      248 
     209      214      369      334      149      137      202      178 
     144      126       89      144      340      463      379      148 
     -98      -44      292      360      180      190      247      256 
     357      256      -12       95      423      457      290      179 
     113       55      112      325      446      276       72      133 
     280      274      248      326      306      122       45      122 
     202      288      325      271      245      160        6      140 
     459      392       35      -95        4      148      369      492 
     309       68       86      236      270      234      279      306 
     186       91      243      429      334       98       -2       58 
     233      403      396      252      121       91      140      189 
     271      333      224      105      160      233      237      270 
     271      194      130       62       18      162      345      352 
     288      225      156      226      360      287      114      148 
     287      194       55      224      365      206      139      189 
     133      218      392      307      155      170      207      206 
     197      156      178      298      330      213      109      105 
     159      174      175      256      251      205      383      414 
      74      -43      171      243      251      423      453      199 
       2      -24       82      392      562      329      193      292 
      97     -143      133      457      376      221      167      148 
     171      187      260      379      342      224      206      199 
      94      -41        4      278      399      264      298      418 
     253       74      139      257      319      305      206      103 
     121      310      394      176      -22       51      241      311 
     197      133      325      500      333       64      139      351 
     199      -37      133      352      202       24      137      271 
     194      140      279      361      198       31      106      302 
     394      349      244      167      144      109      109      251 
     332      213      214      321      187       76      164       91 
      47      291      434      318      135       16       99      303 
     399      368      282      152       52      122      299      378 
     317      218      211      249      197      156      171      203 
     333      311       67       99      348      363      222      124 
     108      180      229      238      279      297      253      203 
     182      159       89       59      166      287      297      240 
     190      236      328      217       55      194      353      256 
     194      205      162      234      334      271      197      152 
      70      101      260      330      298      298      244       99 
      98      248      283      193      157      179      180      172 
     153       72       64      298      469      267       13       63 
     288      441      365      168      143      214      191      259 
     387      334      240      220      112       -8       81      287 
     337      224      218      268      176      171      270      202 
     160      247      159       82      251      295      153      191 
     313      243      120      182      309      240      113      172 
     243      253      319      225        5      114      352      251 
     132      360      499      171     -120      137      473      382 
     210      206      121       10       68      236      471      515 
     129     -103      184      353      193      166      244      214 
     238      307      187       74      225      310      132       81 
     244      302      238      268      357      297      170      171 
     207      253      307      210      117      218      291      211 
      95       58      218      413      319      178      290      284 
      44       16      156      236      402      465      182       17 
     203      209       28      184      371      125       36      386 
     492      280      210      206      109       24       74      201 
     205      151      216      288      263      129       18      137 
     306      297      280      346      387      309      180      211 
     301      176       40      175      363      330      178      124 
     163      201      259      241       75       33      180      276 
     279      171       72      221      345      166       47      259 
     450      321      206      369      391       85      -98       40 
     256      329      221      152      295      359      152       85 
     338      469      268       33       13      194      372      375 
     244      114      132      263      292      205      105       44 
     110      272      441      507      290      -16       49      351 
     337       74       81      298      309      132       22      116 
     267      191       89      305      502      288       70      234 
     336       95      -18      170      379      468      361       67 
     -89      145      398      233        0      120      332      336 
     263      317      411      274      -31      -59      191      298 
     287      403      476      295        8      -55      182      363 
     249      151      261      333      251      166      171      175 
     155      189      174       59       56      191      257      247 
     315      391      319      175       64       10      101      319 
     425      348      302      244       54       55      292      318 
     234      309      251       86      147      248      251      288 
     253      171      140       43       51      270      388      309 
     216      261      313      216      221      294      170      128 
     263      213        1       -9      264      502      465      248 
      49       70      233      199       62      248      492      189 
    -137      206      494      198       81      386      417      149 
     171      311      183      101      198      193      160      186 
      90       25      184      317      340      429      411      207 
     157      292      313      214      240      321      198       60 
     155      193       76      117      247      275      252      148 
      58      205      379      245       90      249      345      167 
     124      209      186      257      326      147      101      290 
     259       43        4      156      307      326      264      232 
     225      201      209      282      230       47       75      286 
     351      301      268      230      124       49      214      346 
     180      109      298      421      326      129       90      232 
     301      290      278      256      220      113      116      267 
     222      122      209      171        4       24      170      218 
     197      329      533      410       68      -12      130      197 
     256      386      398      253      143      157      252      315 
     267      187      174      176      156      145      229      359 
     345      234      195      203      153       45       24      117 
     139      143      313      480      433      211       29      105 
     317      376      302      221      193      243      240      172 
     252      364      228       10       24      180      276      368 
     378      170       87      222      167       81      284      413 
     243      106      135      194      299      383      288      160 
     112       67      117      203      180      174      207      178 
     117       90      209      417      429      214       14       55 
     324      444      280      183      260      286      186      114 
     160      105      -99      -67      263      450      352      286 
     372      352      248      309      337      195      184      295 
     203        9       58      198      144       52       -4       -8 
     210      383      367      464      499      209      -27       54 
     205      305      414      383      186       95      130      116 
     149      306      352      217      109      198      446      533 
     336      199      147     -106     -257       55      353      274 
     238      400      430      279      114       62      156      283 
     329      270      251      376      367       75      -74      151 
     405      353      120       72      245      337      364      490 
     522      378      176      -82     -174       44      191      182 
     275      263      -24     -205     -102       99      367      611 
     603      430      321      237      143      164      251      206 
      35      -44      170      494      445       67      -98      -18 
      -4       12      121      216      336      511      545      410 
     291      184       22      -20      183      457      557      395 
     164      176      330      265       49      -60      -79       14 
     244      371      361      334      175       36      105       59 
     -90       45      345      580      699      519      201      209 
     418      317       54      105      295      322      292      179 
      13       52       45     -174       -5      514      580      237 
      60       10      -29       47      164      417      800      719 
     156      -99       74      251      342      290       79       12 
     187      297      175       33       36       82       62       62 
     274      569      567      334      183       64        4      261 
     696      784      398      -21     -136       25      295      383 
     194       71      172      193       85      162      334      275 
      83      -47      -91       40      318      522      433      130 
      78      326      427      376      363      276      136       14 
     -60       76      345      364       95        0      209      292 
     234      292      261       82      -39      -68       81      388 
     545      417      178       94      232      340      317      337 
     348      180      -35      -56      152      352      276       93 
     206      503      531      387      400      396      197       14 
     -16       17       99      259      382      356      237      152 
     137       87      -81     -172       17      237      267      418 
     649      449       59       17      130      129      139      263 
     432      449      295      224      245      193      167      225 
     265      306      288      143       20       -8       18      149 
     282      240      149      198      270      274      302      286 
     217      310      427      317      205      230      213      195 
     236      167       20       16      102       75       37      233 
     464      413      260      206      232      368      380       79 
     -39      247      368      199      206      329      206       75 
     252      361      105      -12      302      496      298      148 
     187      201      186      141       74      124      251      295 
     166      -25       13      214      263      241      324      363 
     267      149      179      330      307      179      263      321 
     179      147      280      395      367      151      -10      113 
     275      199      103      245      426      400      306      315 
     257       31      -44      141      162      -29       -6      210 
     326      340      307      221      155      167      226      283 
     307      294      232      136       68       72      167      259 
     182      108      216      319      375      405      283      132 
     121      225      407      440      183      -22       70      220 
     256      342      417      283      156      170       93       10 
     156      255      124      103      311      427      284       29 
     -97        8      207      353      437      450      387      325 
     310      264      149      112      247      394      288       25 
      58      302      245       28      -18       21      135      271 
     257      243      345      303       76       39      259      310 
      76       29      344      572      437      224      207      263 
     236      232      259      221      245      349      294      108 
      40       98      213      361      379      201       22       10 
      90      114      166      344      409      237      128      160 
     122      136      275      245      191      407      486      241 
     133      229      297      351      305       70      -60      174 
     472      406      147       41       75      226      371      302 
     159       78       33       74      157      189      149      102 
     213      361      305      248      298      175      -18       27 
     206      309      352      373      321      232      222      259 
     255      228      217      247      249      167      199      329 
     260       93        9        9      159      295      222      106 
      86      167      311      402      405      299      176      216 
     291      276      265      226      126       68      133      290 
     398      357      225       98       62      102      166      288 
     359      178      -44       67      395      472      168      -90 
       8      217      324      442      517      305        2       64 
     365      456      321      141        5       55      325      544 
