Origin Time       2025/03/30 10:18:00
Lat.              34.667
Long.             140.825
Depth. (km)       69
Mag.              4.9
Station Code      SZO001
Station Lat.      35.1425
Station Long.     139.0798
Station Height(m) 74
Record Time       2025/03/30 10:19:15
Sampling Freq(Hz) 100Hz
Duration Time(s)  60
Dir.              E-W
Scale Factor      7845(gal)/8223790
Max. Acc. (gal)   2.167
Last Correction   2025/03/30 10:19:15
Memo.             
[...]
   20002    19800    19716    19510    19209    19419    19926    19958 
   19664    19707    19890    19607    19210    19275    19560    19897 
   20275    20240    19724    19252    19110    19190    19305    19406 
   19573    19908    20250    20115    19483    19063    19272    19741 
   19944    19770    19473    19359    19494    19668    19674    19716 
   20106    20321    19708    18971    19039    19591    19819    19566 
   19302    19344    19660    20140    20339    19853    19201    19107 
   19414    19730    20035    19944    19218    18848    19512    20229 
   20132    19647    19414    19518    19647    19553    19417    19552 
   19880    19955    19646    19456    19627    19629    19345    19425 
   19809    19826    19550    19379    19344    19516    19899    20058 
   19727    19388    19445    19629    19708    19727    19623    19458 
   19592    19944    19957    19720    19661    19546    19133    18868 
   19214    19801    19986    19847    19804    19823    19681    19584 
   19735    19845    19778    19657    19522    19403    19222    19128 
   19476    20038    20198    19889    19577    19492    19546    19664 
   19599    19271    19086    19291    19750    20205    20345    20089 
   19716    19465    19315    19275    19468    19838    19934    19552 
   19332    19600    19780    19565    19373    19488    19542    19383 
   19422    19593    19631    19699    19827    19924    19946    19831 
   19669    19477    19230    19190    19516    20012    20393    20412 
   20106    19768    19404    18990    18748    18729    18868    19203 
   19611    19881    19974    20043    20375    20784    20525    19629 
   18962    18739    18647    18843    19341    19685    19851    19961 
   20027    20248    20321    19917    19465    19256    19182    19149 
   19102    19111    19476    20275    20811    20480    19892    19704 
   19553    19190    19026    19244    19619    19801    19562    19273 
   19431    19842    20104    20098    19745    19296    19222    19329 
   19280    19363    19624    19674    19566    19610    19710    19761 
   19943    20179    20146    19773    19345    19253    19434    19550 
   19515    19364    19321    19515    19676    19664    19580    19562 
   19823    20312    20472    19921    19149    18837    18964    19097 
   19194    19683    20486    20703    20059    19446    19468    19800 
   19974    19750    19199    18736    18709    19041    19460    19904 
   20298    20394    20137    19754    19616    19731    19629    19246 
   18954    18921    19133    19456    19846    20383    20795    20592 
   19880    19237    18997    19089    19287    19484    19634    19754 
   19932    19961    19757    19618    19503    19256    19149    19290 
   19398    19468    19673    19894    20012    19997    19807    19626 
   19624    19645    19581    19575    19666    19681    19591    19565 
   19561    19472    19467    19639    19831    19847    19611    19350 
   19345    19476    19550    19638    19753    19818    19969    20243 
   20131    19394    18744    18781    19218    19612    19876    20089 
   20164    19951    19699    19647    19576    19417    19367    19364 
   19327    19442    19753    20104    20255    19989    19579    19477 
   19526    19364    19091    19037    19299    19570    19653    19773 
   19934    19996    20097    20100    19761    19383    19238    19205 
   19264    19519    19955    20290    20127    19630    19350    19411 
   19654    19764    19483    19184    19290    19595    19755    19840 
   20127    20291    19727    18840    18690    19400    20136    20209 
   19688    19222    19268    19614    19807    19796    19824    19799 
   19510    19113    18867    19080    19847    20528    20507    19994 
   19446    19190    19406    19766    19737    19377    19188    19353 
   19568    19602    19722    20044    20186    20023    19687    19280 
   19183    19516    19685    19363    19116    19488    20100    20320 
   20154    19823    19404    19141    19265    19600    19674    19309 
   19020    19375    20135    20533    20264    19764    19498    19426 
   19390    19434    19530    19553    19422    19175    19164    19573 
   19978    20175    20218    19788    19095    19048    19678    20071 
   19876    19512    19283    19296    19618    19920    19974    20017 
   19966    19522    19024    19020    19496    20023    20197    19962 
   19607    19413    19367    19394    19595    19815    19653    19280 
   19203    19488    19919    20155    19940    19550    19318    19244 
   19364    19641    19847    19882    19761    19529    19352    19403 
   19657    19955    20156    20150    19909    19433    18945    18920 
   19300    19650    19917    20028    19872    19828    20054    19932 
   19269    18773    18870    19371    19876    19928    19633    19602 
   19947    20131    19792    19403    19539    19800    19554    19076 
   18975    19319    19805    20094    19998    19764    19674    19638 
   19584    19634    19699    19519    19230    19269    19637    19951 
   20090    20105    19845    19380    19178    19371    19739    19947 
   19600    19078    19222    19769    19889    19773    19920    20052 
   19905    19565    19105    18873    19184    19768    20048    19807 
   19597    19866    20104    19815    19283    18983    19132    19639 
   20140    20210    19747    19267    19311    19557    19572    19716 
   20034    19900    19364    19095    19275    19557    19718    19801 
   19796    19691    19715    19893    19789    19368    19263    19643 
   19919    19831    19688    19539    19325    19278    19431    19620 
   19751    19704    19626    19695    19633    19417    19546    20027 
   20183    19788    19454    19496    19476    19337    19454    19565 
   19314    19218    19724    20210    19977    19500    19612    20042 
   20007    19573    19248    19168    19333    19688    19950    19861 
   19584    19579    19815    19805    19585    19461    19375    19282 
   19309    19523    19757    19826    19859    19940    19948    19805 
   19546    19407    19413    19357    19456    19785    19818    19546 
   19488    19550    19548    19712    19849    19626    19408    19630 
   19971    19888    19479    19221    19344    19750    20011    19828 
   19521    19448    19554    19684    19776    19755    19588    19435 
   19394    19425    19647    19982    20007    19651    19279    19182 
   19388    19750    19980    19793    19549    19738    19955    19823 
   19623    19460    19327    19414    19641    19662    19495    19499 
   19678    19750    19700    19687    19615    19414    19404    19683 
   19854    19754    19530    19356    19311    19334    19525    19938 
   20268    20210    19758    19242    19152    19504    19839    19928 
   19822    19539    19360    19488    19575    19458    19437    19610 
   19816    19830    19624    19467    19521    19683    19710    19592 
   19624    19803    19789    19487    19194    19287    19784    20214 
   20065    19444    19098    19395    19828    19944    19899    19830 
   19600    19345    19365    19541    19646    19720    19741    19666 
   19623    19650    19673    19661    19566    19402    19356    19530 
   19757    19815    19602    19322    19379    19782    20124    20093 
   19731    19442    19394    19257    19130    19400    19846    20098 
   20032    19664    19387    19488    19734    19897    19894    19573 
   19003    18738    19091    19704    20282    20694    20560    19849 
   19129    18860    19022    19480    20023    20079    19537    19184 
   19379    19708    19924    20016    20015    19834    19319    18783 
   18758    19298    20004    20309    20052    19670    19498    19569 
   19816    19932    19705    19280    18998    19175    19662    19911 
   19835    19865    20051    19974    19610    19395    19446    19488 
   19419    19349    19383    19572    19792    19855    19834    19820 
   19777    19742    19580    19172    18987    19348    19805    19998 
   20002    19894    19726    19557    19441    19427    19502    19762 
   20056    19834    19272    19175    19512    19745    19835    19904 
   19851    19535    19095    19012    19457    20032    20270    19961 
   19352    19048    19373    19901    19928    19502    19315    19468 
   19641    19943    20148    19803    19417    19472    19546    19492 
   19608    19782    19685    19407    19371    19658    19882    19874 
   19886    19865    19511    19190    19473    19993    19965    19325 
   18855    19237    19908    19908    19622    19749    19846    19558 
   19417    19585    19561    19332    19399    19688    19799    19750 
   19635    19538    19703    20016    20059    19793    19437    19170 
   19161    19336    19556    19882    20137    20061    19788    19580 
   19496    19408    19326    19499    19819    19811    19413    19151 
   19438    19942    20055    19755    19388    19323    19660    19857 
   19597    19421    19626    19739    19529    19423    19638    19878 
   19975    19950    19708    19346    19300    19562    19606    19507 
   19685    19808    19542    19375    19658    19935    19804    19593 
   19597    19535    19411    19506    19561    19504    19661    19884 
   19992    20063    19942    19562    19195    19152    19429    19626 
   19541    19481    19638    19774    19735    19683    19722    19846 
   19881    19507    19079    19282    19750    19831    19688    19526 
   19356    19522    20007    20105    19691    19417    19549    19661 
   19440    19341    19788    20139    19786    19251    19259    19678 
   19857    19614    19317    19349    19720    19888    19631    19541 
   19772    19788    19554    19500    19664    19769    19619    19353 
   19483    19874    19805    19557    19699    19737    19384    19302 
   19757    20136    19938    19403    19114    19340    19823    20019 
   19656    19272    19464    19936    20082    19738    19201    18928 
   19028    19414    19969    20268    20096    19805    19660    19558 
   19469    19446    19441    19460    19653    19850    19723    19519 
   19643    19836    19670    19434    19539    19649    19525    19525 
   19695    19812    19769    19539    19489    19831    19905    19399 
   19124    19510    19897    19799    19596    19658    19700    19511 
   19326    19380    19703    19951    19745    19359    19338    19677 
   19917    19874    19691    19492    19500    19792    19923    19615 
   19321    19394    19600    19796    20032    20042    19581    19121 
   19152    19384    19569    19796    19916    19820    19599    19411 
   19494    19739    19750    19549    19512    19705    19815    19693 
   19545    19515    19518    19538    19695    19840    19707    19461 
   19403    19449    19496    19649    19799    19776    19661    19569 
   19572    19627    19685    19881    20047    19892    19487    19090 
   19118    19573    19876    19901    19850    19660    19345    19224 
   19531    19905    19935    19762    19498    19276    19367    19607 
   19716    19840    20102    19993    19336    19043    19391    19645 
   19637    19630    19647    19691    19723    19596    19413    19549 
   19921    19990    19681    19411    19363    19376    19475    19764 
   19939    19808    19656    19680    19773    19739    19552    19435 
   19565    19703    19568    19364    19314    19372    19626    19971 
   19981    19750    19653    19546    19456    19711    19992    19788 
   19376    19282    19411    19410    19321    19448    19876    20294 
   20312    19901    19367    19076    19252    19592    19626    19572 
   19739    19762    19480    19404    19788    20214    20206    19774 
   19263    19033    19263    19641    19674    19392    19259    19566 
   20054    20178    19928    19600    19276    19256    19716    20102 
   19923    19419    19145    19276    19453    19564    19859    20182 
   20065    19541    19209    19396    19731    19850    19795    19610 
   19367    19322    19641    19982    19890    19633    19580    19530 
   19473    19523    19537    19560    19683    19807    19892    19863 
   19658    19472    19480    19546    19562    19712    19942    19812 
   19361    19082    19167    19521    19820    19734    19444    19349 
   19495    19672    19741    19668    19529    19546    19728    19785 
   19645    19475    19371    19453    19705    19804    19633    19445 
   19494    19716    19743    19593    19708    19981    20029    19938 
   19913    20062    20151    19761    19122    18846    19103    19607 
   19935    19946    19762    19568    19469    19353    19242    19435 
   19861    20035    19754    19479    19600    19778    19696    19438 
   19099    18985    19357    19894    20081    19834    19630    19669 
   19599    19514    19631    19535    19111    18886    19175    19737 
   20200    20493    20491    20116    19896    20025    19877    19284 
   18692    18365    18339    18612    19248    20179    20929    21010 
   20460    19815    19527    19587    19845    20028    19769    19132 
   18605    18709    19404    19994    20143    20124    20232    20482 
   20418    19711    18736    18026    17888    18524    19611    20283 
   20260    20081    19953    19774    19781    20066    20178    19768 
   19156    18894    19148    19641    20075    20432    20605    20378 
   19936    19583    19299    19103    18952    18538    18083    18252 
   19133    20424    21637    21894    20804    19106    18022    18133 
   18906    19714    20349    20571    20353    19888    19214    18497 
   18161    18576    19602    20588    20956    20621    19901    19114 
   18650    19017    19974    20618    20653    20367    19834    19209 
   18850    18752    18779    19093    19801    20488    20530    20028 
   19619    19488    19576    19913    20156    19932    19527    19349 
   19309    19237    19298    19475    19300    18821    18720    19129 
   19502    19546    19445    19499    19961    20812    21481    21235 
   20142    19136    18829    18831    18820    19356    20563    21350 
   20923    19827    18986    18720    18802    18913    18976    19041 
   19068    19224    19549    19596    19417    19587    20023    20375 
   20599    20426    19765    19155    18881    18797    19035    19707 
   20402    20598    20098    19252    18806    18981    19129    18975 
   19107    19739    20437    20849    20644    19807    19101    19122 
   19525    19951    20532    20788    19971    18728    18368    18994 
   19822    20380    20656    20642    20205    19373    18588    18435 
   18947    19531    19804    19870    19832    19554    18922    18250 
   18031    18423    19392    20591    21294    21201    20548    19639 
   18863    18628    19105    19932    20395    20272    19984    19751 
   19327    18917    19318    20250    20363    19460    18612    18508 
   18987    19522    19872    20162    20513    20970    21253    20818 
   19742    18831    18766    19267    19294    18577    18071    18362 
   18873    19363    20391    21494    21517    20656    19678    18802 
   18357    18508    18794    18991    19376    19971    20475    20684 
   20515    20170    20020    19958    19769    19712    19731    19306 
   18750    18901    19396    19469    19575    20139    20401    19947 
   19383    19040    18883    19149    19704    19890    19700    19778 
   20187    20418    20277    19935    19514    18956    18443    18407 
   18878    19564    20139    20270    20040    19851    19886    19998 
   19803    19226    18816    18902    19198    19584    20193    20653 
   20524    20116    19818    19468    19118    19186    19572    19711 
   19485    19251    19271    19533    19869    20117    19953    19283 
   18713    18677    19097    19789    20340    20497    20521    20395 
   19727    18713    18296    18913    19799    20259    20520    20644 
   20174    19138    18307    18412    19381    20436    20885    20582 
   19858    19267    19055    19021    19099    19462    19938    20175 
   20150    19840    19311    19047    19217    19371    19377    19492 
   19612    19687    20002    20294    19855    18895    18543    19141 
   19924    20378    20370    19722    18755    18316    18987    20482 
   21706    21633    20375    18981    18106    17857    18405    19556 
   20574    20939    20576    19693    18787    18432    18860    19670 
   20200    20185    19722    19330    19616    20124    20012    19499 
   19195    19255    19697    20355    20588    20005    19130    18774 
   19260    20233    20814    20355    19175    18180    18049    18905 
   20117    20659    20279    19743    19489    19217    18927    18943 
   19319    19892    20321    20326    19930    19334    18852    18804 
   19398    20387    20949    20618    19691    18890    18955    19539 
   19585    19307    19561    19943    19696    19265    19445    20147 
   20668    20432    19556    18900    19064    19597    19781    19627 
   19525    19479    19371    19373    19521    19576    19587    19624 
   19468    19319    19653    20179    20208    19835    19716    19803 
   19642    19545    19697    19531    19160    19137    19240    19276 
   19515    19970    20359    20310    19809    19461    19526    19581 
   19577    19815    20067    19974    19662    19461    19491    19541 
   19390    19199    19209    19440    19789    19969    19877    19874 
   19932    19522    18804    18432    18631    19427    20530    20903 
   20090    19174    19006    19213    19467    19789    20051    20062 
   19633    19090    19249    20054    20571    20399    19839    19264 
   18959    19068    19458    19753    19651    19283    19263    19882 
   20347    20127    19955    20131    19980    19375    18906    18844 
   18862    18797    18985    19523    20136    20534    20428    19824 
   19183    18952    19116    19462    19889    20001    19635    19575 
   20158    20615    20571    20325    19897    19153    18492    18446 
   18804    19174    19631    20009    20021    19858    19730    19789 
   20110    20293    19975    19279    18693    18856    19683    20455 
   20749    20293    19318    18762    18933    19460    20001    20002 
   19321    18698    18786    19554    20422    20767    20467    19834 
   19237    18810    18603    18881    19737    20618    20880    20537 
   19944    19251    18706    18662    19026    19552    20174    20576 
   20382    19808    19203    18711    18728    19299    19735    19865 
   20061    20055    19435    18767    18881    19708    20607    20908 
   20210    19030    18424    18647    19273    19996    20405    20344 
   20297    20228    19643    19037    19137    19427    19303    19211 
   19469    19710    19854    20104    20177    19734    19209    19188 
   19476    19685    19797    19747    19508    19260    19192    19481 
   19969    20106    19730    19292    19172    19311    19583    19919 
   19996    19646    19390    19569    19728    19651    19772    20108 
   20066    19622    19503    19773    19772    19533    19477    19515 
   19561    19730    19874    19610    19030    18922    19408    19727 
   19909    20402    20605    19986    19187    18765    18630    18944 
   19869    20659    20429    19615    19234    19323    19504    19766 
