Origin Time       2025/03/30 10:18:00
Lat.              34.667
Long.             140.825
Depth. (km)       69
Mag.              4.9
Station Code      SZO007
Station Lat.      34.9771
Station Long.     138.9468
Station Height(m) 46
Record Time       2025/03/30 10:19:18
Sampling Freq(Hz) 100Hz
Duration Time(s)  60
Dir.              N-S
Scale Factor      7845(gal)/8223790
Max. Acc. (gal)   1.075
Last Correction   2025/03/30 10:19:17
Memo.             
   -3484    -3237    -3069    -3044    -3184    -3396    -3585    -3665 
   -3611    -3449    -3234    -3140    -3257    -3443    -3582    -3635 
   -3564    -3422    -3300    -3229    -3249    -3393    -3588    -3708 
   -3712    -3622    -3505    -3400    -3281    -3191    -3176    -3248 
   -3449    -3676    -3747    -3665    -3465    -3217    -3099    -3146 
   -3265    -3348    -3341    -3387    -3489    -3465    -3372    -3342 
   -3353    -3427    -3539    -3589    -3566    -3453    -3283    -3213 
   -3304    -3468    -3646    -3788    -3778    -3597    -3343    -3083 
   -2949    -3099    -3435    -3651    -3565    -3334    -3230    -3303 
   -3458    -3597    -3643    -3613    -3550    -3416    -3175    -2970 
   -2998    -3253    -3593    -3848    -3893    -3688    -3311    -3018 
   -3026    -3271    -3568    -3769    -3743    -3499    -3271    -3230 
   -3325    -3450    -3503    -3442    -3381    -3385    -3412    -3433 
   -3430    -3399    -3392    -3445    -3495    -3487    -3473    -3480 
   -3468    -3416    -3325    -3238    -3242    -3335    -3423    -3476 
   -3508    -3477    -3407    -3387    -3372    -3327    -3283    -3238 
   -3302    -3501    -3604    -3528    -3400    -3339    -3410    -3524 
   -3557    -3526    -3546    -3582    -3514    -3387    -3258    -3164 
   -3219    -3389    -3519    -3562    -3510    -3381    -3267    -3245 
   -3337    -3464    -3538    -3554    -3464    -3244    -3063    -3091 
   -3334    -3646    -3808    -3739    -3547    -3333    -3200    -3215 
   -3316    -3416    -3503    -3557    -3530    -3416    -3275    -3219 
   -3352    -3557    -3639    -3565    -3402    -3291    -3345    -3449 
   -3465    -3443    -3462    -3512    -3516    -3406    -3211    -3061 
   -3129    -3429    -3740    -3877    -3809    -3573    -3289    -3082 
   -2984    -3005    -3144    -3356    -3578    -3750    -3796    -3680 
   -3458    -3227    -3083    -3099    -3287    -3496    -3554    -3519 
   -3530    -3528    -3458    -3464    -3539    -3526    -3453    -3383 
   -3312    -3315    -3377    -3395    -3358    -3331    -3396    -3570 
   -3730    -3693    -3456    -3208    -3064    -3053    -3202    -3407 
   -3523    -3524    -3483    -3484    -3538    -3591    -3566    -3415 
   -3226    -3149    -3203    -3298    -3391    -3477    -3510    -3491 
   -3501    -3550    -3566    -3520    -3410    -3257    -3160    -3177 
   -3291    -3473    -3642    -3728    -3724    -3635    -3510    -3373 
   -3246    -3165    -3165    -3285    -3449    -3527    -3545    -3523 
   -3469    -3433    -3395    -3346    -3283    -3225    -3291    -3488 
   -3611    -3542    -3372    -3214    -3165    -3318    -3570    -3688 
   -3605    -3414    -3215    -3130    -3262    -3519    -3684    -3690 
   -3596    -3473    -3345    -3237    -3214    -3254    -3339    -3510 
   -3655    -3634    -3493    -3383    -3369    -3399    -3387    -3333 
   -3298    -3310    -3358    -3469    -3620    -3653    -3526    -3404 
   -3322    -3244    -3272    -3403    -3491    -3478    -3431    -3368 
   -3281    -3303    -3503    -3654    -3599    -3442    -3272    -3134 
   -3144    -3295    -3484    -3635    -3620    -3404    -3222    -3230 
   -3338    -3449    -3510    -3472    -3415    -3408    -3361    -3311 
   -3379    -3519    -3624    -3636    -3550    -3407    -3275    -3234 
   -3306    -3429    -3532    -3526    -3407    -3326    -3352    -3419 
   -3496    -3576    -3604    -3551    -3480    -3431    -3372    -3334 
   -3310    -3223    -3172    -3285    -3466    -3547    -3476    -3354 
   -3335    -3402    -3429    -3416    -3407    -3399    -3387    -3345 
   -3267    -3248    -3397    -3634    -3757    -3694    -3481    -3234 
   -3160    -3252    -3334    -3388    -3419    -3420    -3484    -3570 
   -3543    -3456    -3410    -3384    -3360    -3345    -3310    -3306 
   -3437    -3634    -3731    -3723    -3609    -3345    -3080    -2991 
   -3102    -3375    -3635    -3692    -3588    -3481    -3422    -3350 
   -3264    -3225    -3217    -3246    -3379    -3523    -3600    -3638 
   -3600    -3503    -3402    -3298    -3272    -3339    -3427    -3545 
   -3615    -3564    -3472    -3381    -3329    -3346    -3362    -3366 
   -3404    -3446    -3495    -3493    -3352    -3215    -3227    -3342 
   -3508    -3596    -3507    -3362    -3283    -3312    -3442    -3530 
   -3531    -3478    -3337    -3234    -3276    -3369    -3487    -3553 
   -3512    -3491    -3445    -3343    -3366    -3426    -3415    -3454 
   -3470    -3391    -3337    -3360    -3466    -3582    -3568    -3458 
   -3352    -3272    -3273    -3360    -3402    -3391    -3433    -3480 
   -3477    -3429    -3311    -3256    -3388    -3572    -3616    -3474 
   -3267    -3160    -3231    -3441    -3605    -3588    -3469    -3364 
   -3307    -3304    -3341    -3410    -3496    -3574    -3585    -3496 
   -3385    -3327    -3356    -3443    -3499    -3493    -3437    -3357 
   -3361    -3458    -3535    -3505    -3380    -3234    -3171    -3249 
   -3404    -3516    -3542    -3518    -3465    -3389    -3319    -3295 
   -3364    -3492    -3553    -3493    -3338    -3191    -3181    -3321 
   -3541    -3685    -3630    -3474    -3349    -3300    -3316    -3331 
   -3345    -3388    -3458    -3497    -3465    -3450    -3500    -3557 
   -3559    -3460    -3316    -3231    -3204    -3238    -3389    -3586 
   -3685    -3651    -3499    -3325    -3273    -3334    -3411    -3464 
   -3445    -3360    -3316    -3416    -3561    -3584    -3504    -3364 
   -3207    -3195    -3354    -3538    -3651    -3649    -3496    -3242 
   -3041    -3030    -3213    -3446    -3564    -3550    -3500    -3441 
   -3377    -3366    -3341    -3299    -3420    -3626    -3685    -3595 
   -3403    -3213    -3241    -3416    -3524    -3585    -3573    -3450 
   -3407    -3449    -3395    -3337    -3376    -3373    -3312    -3314 
   -3384    -3484    -3577    -3582    -3473    -3304    -3171    -3163 
   -3307    -3520    -3667    -3657    -3514    -3348    -3253    -3238 
   -3310    -3423    -3485    -3523    -3522    -3439    -3370    -3331 
   -3275    -3244    -3316    -3480    -3613    -3622    -3526    -3414 
   -3314    -3223    -3264    -3461    -3638    -3724    -3665    -3424 
   -3215    -3159    -3223    -3407    -3584    -3619    -3561    -3462 
   -3342    -3279    -3275    -3300    -3389    -3480    -3483    -3454 
   -3381    -3271    -3295    -3427    -3473    -3462    -3460    -3418 
   -3361    -3345    -3348    -3411    -3539    -3591    -3528    -3416 
   -3304    -3303    -3435    -3551    -3557    -3477    -3345    -3194 
   -3126    -3217    -3404    -3568    -3577    -3461    -3399    -3400 
   -3377    -3412    -3483    -3470    -3445    -3414    -3321    -3289 
   -3353    -3465    -3595    -3551    -3403    -3343    -3258    -3214 
   -3349    -3520    -3654    -3686    -3537    -3338    -3237    -3249 
   -3319    -3406    -3476    -3493    -3514    -3519    -3441    -3396 
   -3384    -3308    -3300    -3379    -3462    -3537    -3476    -3348 
   -3353    -3414    -3443    -3461    -3438    -3404    -3362    -3330 
   -3384    -3526    -3649    -3618    -3454    -3307    -3241    -3275 
   -3368    -3441    -3503    -3504    -3443    -3439    -3416    -3326 
   -3375    -3528    -3555    -3514    -3462    -3287    -3118    -3136 
   -3294    -3538    -3708    -3674    -3578    -3445    -3226    -3082 
   -3132    -3345    -3578    -3688    -3635    -3456    -3295    -3272 
   -3358    -3418    -3327    -3271    -3412    -3523    -3537    -3562 
   -3476    -3314    -3267    -3322    -3423    -3500    -3477    -3400 
   -3334    -3326    -3414    -3539    -3586    -3495    -3337    -3271 
   -3361    -3493    -3531    -3485    -3431    -3392    -3362    -3370 
   -3395    -3379    -3372    -3439    -3499    -3456    -3360    -3308 
   -3338    -3451    -3520    -3461    -3437    -3478    -3466    -3460 
   -3460    -3377    -3325    -3435    -3591    -3562    -3356    -3173 
   -3141    -3289    -3505    -3613    -3573    -3400    -3246    -3296 
   -3393    -3403    -3395    -3372    -3412    -3507    -3512    -3454 
   -3368    -3279    -3315    -3480    -3630    -3654    -3538    -3365 
   -3283    -3312    -3339    -3383    -3464    -3485    -3508    -3584 
   -3518    -3272    -3086    -3122    -3323    -3483    -3511    -3481 
   -3426    -3375    -3380    -3420    -3447    -3430    -3375    -3370 
   -3466    -3515    -3466    -3427    -3383    -3335    -3376    -3447 
   -3473    -3477    -3476    -3439    -3346    -3304    -3407    -3518 
   -3549    -3562    -3512    -3377    -3267    -3253    -3334    -3472 
   -3591    -3580    -3446    -3358    -3342    -3341    -3407    -3512 
   -3612    -3688    -3612    -3389    -3167    -3071    -3206    -3451 
   -3580    -3566    -3456    -3314    -3226    -3231    -3368    -3510 
   -3510    -3439    -3356    -3303    -3339    -3399    -3420    -3422 
   -3406    -3372    -3354    -3414    -3524    -3574    -3526    -3381 
   -3250    -3272    -3333    -3352    -3454    -3580    -3609    -3589 
   -3523    -3412    -3300    -3208    -3214    -3346    -3515    -3651 
   -3662    -3501    -3362    -3333    -3331    -3415    -3543    -3493 
   -3322    -3253    -3285    -3348    -3460    -3581    -3586    -3460 
   -3306    -3227    -3244    -3296    -3362    -3445    -3501    -3532 
   -3534    -3423    -3267    -3260    -3354    -3414    -3497    -3539 
   -3438    -3395    -3451    -3443    -3415    -3338    -3231    -3343 
   -3584    -3669    -3599    -3427    -3238    -3208    -3326    -3411 
   -3399    -3395    -3484    -3573    -3559    -3474    -3383    -3349 
   -3357    -3346    -3348    -3379    -3422    -3545    -3676    -3627 
   -3469    -3364    -3312    -3322    -3362    -3361    -3383    -3464 
   -3518    -3508    -3450    -3368    -3321    -3335    -3377    -3418 
   -3457    -3474    -3442    -3393    -3356    -3339    -3345    -3368 
   -3431    -3488    -3510    -3539    -3500    -3416    -3418    -3422 
   -3370    -3321    -3281    -3296    -3418    -3573    -3634    -3555 
   -3412    -3253    -3103    -3090    -3284    -3501    -3599    -3620 
   -3566    -3445    -3339    -3296    -3321    -3370    -3408    -3446 
   -3400    -3285    -3306    -3435    -3523    -3578    -3555    -3446 
   -3395    -3433    -3462    -3403    -3298    -3285    -3372    -3477 
   -3582    -3608    -3528    -3416    -3319    -3277    -3307    -3389 
   -3489    -3520    -3491    -3465    -3408    -3348    -3321    -3288 
   -3319    -3460    -3585    -3578    -3465    -3362    -3300    -3272 
   -3349    -3474    -3541    -3572    -3551    -3429    -3299    -3261 
   -3295    -3356    -3403    -3438    -3461    -3423    -3385    -3391 
   -3366    -3361    -3437    -3487    -3477    -3446    -3397    -3354 
   -3342    -3358    -3389    -3464    -3564    -3585    -3489    -3349 
   -3246    -3227    -3316    -3469    -3574    -3580    -3505    -3414 
   -3364    -3375    -3415    -3462    -3492    -3457    -3380    -3338 
   -3348    -3399    -3478    -3531    -3569    -3576    -3469    -3316 
   -3227    -3194    -3229    -3330    -3469    -3607    -3632    -3531 
   -3431    -3364    -3304    -3295    -3316    -3337    -3393    -3458 
   -3465    -3442    -3451    -3446    -3368    -3291    -3300    -3377 
   -3484    -3559    -3538    -3429    -3292    -3233    -3302    -3430 
   -3499    -3493    -3491    -3493    -3462    -3439    -3418    -3358 
   -3303    -3314    -3410    -3512    -3542    -3469    -3334    -3280 
   -3362    -3472    -3516    -3476    -3399    -3381    -3414    -3406 
   -3379    -3380    -3381    -3383    -3414    -3441    -3450    -3483 
   -3504    -3483    -3476    -3460    -3356    -3261    -3257    -3289 
   -3356    -3427    -3460    -3510    -3553    -3501    -3381    -3283 
   -3273    -3362    -3496    -3600    -3647    -3654    -3635    -3613 
   -3577    -3505    -3429    -3391    -3349    -3260    -3204    -3202 
   -3214    -3204    -3142    -3134    -3268    -3492    -3735    -3886 
   -3839    -3632    -3422    -3291    -3256    -3331    -3468    -3628 
   -3755    -3713    -3473    -3117    -2759    -2532    -2560    -2872 
   -3318    -3713    -3971    -4036    -3875    -3613    -3429    -3337 
   -3296    -3311    -3387    -3516    -3700    -3836    -3767    -3531 
   -3272    -3048    -2949    -3024    -3186    -3406    -3689    -3897 
   -3875    -3662    -3345    -3022    -2874    -3009    -3408    -3898 
   -4194    -4121    -3694    -3126    -2658    -2450    -2605    -3042 
   -3532    -3842    -3824    -3604    -3476    -3576    -3744    -3686 
   -3370    -3048    -3003    -3311    -3728    -3975    -3931    -3645 
   -3292    -2986    -2841    -2968    -3283    -3640    -3916    -3960 
   -3667    -3095    -2559    -2470    -2952    -3692    -4172    -4145 
   -3761    -3312    -3080    -3115    -3254    -3416    -3570    -3639 
   -3553    -3361    -3262    -3314    -3388    -3366    -3188    -2968 
   -2916    -3159    -3626    -3974    -3964    -3626    -3136    -2841 
   -2984    -3470    -3993    -4280    -4305    -4101    -3707    -3323 
   -3069    -2933    -2972    -3144    -3325    -3495    -3615    -3601 
   -3476    -3331    -3203    -3049    -2879    -2797    -2957    -3435 
   -4009    -4310    -4151    -3593    -2964    -2695    -2918    -3434 
   -3933    -4114    -3909    -3553    -3288    -3142    -3002    -2828 
   -2733    -2870    -3281    -3829    -4249    -4332    -4014    -3412 
   -2803    -2521    -2774    -3469    -4209    -4542    -4303    -3680 
   -3025    -2602    -2467    -2574    -2866    -3244    -3576    -3728 
   -3627    -3404    -3354    -3638    -4079    -4326    -4187    -3721 
   -3140    -2729    -2677    -2910    -3245    -3539    -3685    -3677 
   -3611    -3554    -3534    -3547    -3526    -3423    -3284    -3195 
   -3218    -3377    -3663    -3966    -4048    -3765    -3269    -2882 
   -2814    -3019    -3250    -3331    -3257    -3134    -3149    -3352 
   -3577    -3677    -3585    -3306    -2979    -2764    -2744    -2952 
   -3288    -3634    -4002    -4349    -4488    -4280    -3786    -3256 
   -2998    -3113    -3360    -3468    -3431    -3393    -3438    -3530 
   -3600    -3624    -3573    -3397    -3115    -2822    -2679    -2782 
   -3072    -3447    -3808    -4024    -4016    -3785    -3397    -3013 
   -2828    -2905    -3149    -3399    -3483    -3414    -3399    -3545 
   -3780    -3920    -3829    -3542    -3203    -3017    -3119    -3464 
   -3850    -4024    -3851    -3375    -2830    -2587    -2839    -3431 
   -3997    -4168    -3874    -3380    -2997    -2893    -3029    -3254 
   -3476    -3643    -3707    -3680    -3608    -3530    -3507    -3528 
   -3453    -3211    -2953    -2922    -3204    -3626    -3900    -3873 
   -3591    -3244    -3024    -2968    -3109    -3431    -3730    -3865 
   -3852    -3730    -3555    -3384    -3253    -3213    -3262    -3348 
   -3385    -3345    -3277    -3267    -3375    -3547    -3618    -3492 
   -3260    -3132    -3213    -3357    -3393    -3346    -3319    -3348 
   -3416    -3470    -3476    -3500    -3565    -3616    -3620    -3545 
   -3424    -3339    -3329    -3419    -3547    -3549    -3349    -3072 
   -2924    -3003    -3276    -3624    -3869    -3890    -3692    -3364 
   -3072    -2970    -3082    -3381    -3838    -4180    -4128    -3721 
   -3172    -2782    -2805    -3160    -3607    -3929    -3955    -3720 
   -3387    -3105    -2991    -3068    -3280    -3501    -3603    -3539 
   -3330    -3110    -3049    -3152    -3337    -3510    -3564    -3468 
   -3303    -3188    -3173    -3253    -3427    -3626    -3744    -3796 
   -3821    -3797    -3699    -3553    -3396    -3272    -3221    -3223 
   -3237    -3226    -3210    -3223    -3233    -3245    -3311    -3408 
   -3537    -3667    -3726    -3692    -3588    -3489    -3470    -3500 
   -3518    -3512    -3516    -3543    -3551    -3547    -3524    -3397 
   -3226    -3138    -3113    -3086    -3042    -3049    -3181    -3397 
   -3607    -3742    -3735    -3586    -3379    -3199    -3165    -3343 
   -3596    -3711    -3626    -3411    -3206    -3137    -3195    -3338 
   -3532    -3700    -3770    -3701    -3464    -3175    -3038    -3103 
   -3315    -3608    -3839    -3886    -3780    -3615    -3473    -3379 
   -3292    -3187    -3080    -3036    -3110    -3280    -3465    -3573 
   -3566    -3462    -3284    -3076    -2924    -2901    -3040    -3323 
   -3630    -3798    -3821    -3778    -3636    -3433    -3325    -3357 
   -3501    -3649    -3632    -3474    -3292    -3159    -3156    -3248 
   -3326    -3375    -3388    -3402    -3454    -3489    -3504    -3522 
   -3514    -3518    -3515    -3457    -3415    -3424    -3449    -3492 
   -3538    -3543    -3510    -3472    -3460    -3462    -3418    -3281 
   -3141    -3111    -3181    -3311    -3458    -3558    -3640    -3711 
   -3639    -3438    -3252    -3138    -3127    -3244    -3410    -3542 
   -3628    -3661    -3611    -3518    -3433    -3352    -3288    -3288 
   -3361    -3469    -3503    -3389    -3253    -3271    -3441    -3645 
   -3738    -3577    -3245    -3026    -3025    -3204    -3492    -3669 
   -3626    -3483    -3343    -3292    -3322    -3333    -3376    -3507 
   -3600    -3591    -3546    -3523    -3558    -3634    -3626    -3472 
   -3269    -3152    -3203    -3368    -3478    -3478    -3426    -3346 
   -3289    -3306    -3373    -3458    -3528    -3528    -3420    -3250 
   -3132    -3150    -3322    -3568    -3751    -3778    -3634    -3369 
   -3127    -3033    -3095    -3258    -3434    -3543    -3570    -3484 
   -3307    -3198    -3231    -3366    -3550    -3655    -3608    -3500 
   -3441    -3450    -3489    -3523    -3515    -3451    -3397    -3369 
   -3370    -3416    -3451    -3447    -3419    -3361    -3308    -3295 
   -3306    -3369    -3469    -3501    -3442    -3360    -3296    -3287 
   -3354    -3460    -3550    -3596    -3578    -3504    -3411    -3326 
   -3268    -3287    -3381    -3484    -3573    -3605    -3516    -3396 
   -3321    -3257    -3262    -3353    -3422    -3451    -3464    -3422 
   -3364    -3370    -3414    -3424    -3399    -3365    -3361    -3419 
   -3527    -3635    -3689    -3626    -3465    -3304    -3191    -3150 
   -3218    -3388    -3626    -3801    -3759    -3531    -3258    -3044 
   -2986    -3136    -3415    -3678    -3758    -3586    -3291    -3063 
   -3032    -3199    -3442    -3618    -3640    -3545    -3429    -3369 
   -3357    -3333    -3323    -3335    -3350    -3437    -3550    -3613 
   -3666    -3674    -3582    -3434    -3284    -3215    -3306    -3508 
   -3672    -3692    -3584    -3423    -3314    -3307    -3329    -3322 
   -3326    -3338    -3348    -3391    -3441    -3454    -3451    -3442 
   -3439    -3420    -3357    -3316    -3319    -3335    -3352    -3350 
   -3364    -3388    -3350    -3291    -3276    -3316    -3433    -3550 
   -3577    -3523    -3434    -3370    -3353    -3339    -3346    -3400 
   -3480    -3557    -3554    -3464    -3380    -3349    -3380    -3476 
   -3562    -3573    -3511    -3415    -3335    -3299    -3310    -3342 
   -3372    -3400    -3422    -3430    -3437    -3457    -3477    -3456 
   -3373    -3268    -3202    -3222    -3314    -3393    -3435    -3493 
   -3588    -3647    -3599    -3484    -3383    -3315    -3303    -3356 
