Origin Time       2025/03/30 10:18:00
Lat.              34.667
Long.             140.825
Depth. (km)       69
Mag.              4.9
Station Code      TKY009
Station Lat.      34.6867
Station Long.     139.4410
Station Height(m) 53
Record Time       2025/03/30 10:18:51
Sampling Freq(Hz) 100Hz
Duration Time(s)  70
Dir.              U-D
Scale Factor      7845(gal)/8223790
Max. Acc. (gal)   4.069
Last Correction   2025/03/30 10:18:50
Memo.             
[...]
   14697    14698    14716    14698    14719    14702    14685    14723 
   14701    14694    14720    14698    14693    14710    14716    14701 
   14690    14719    14723    14682    14700    14735    14692    14701 
   14721    14683    14715    14706    14689    14733    14688    14686 
   14746    14696    14678    14727    14705    14697    14724    14693 
   14692    14736    14708    14677    14716    14731    14698    14688 
   14720    14724    14690    14704    14720    14694    14702    14708 
   14692    14724    14712    14674    14720    14735    14678    14683 
   14742    14725    14667    14704    14733    14682    14710    14723 
   14669    14719    14740    14679    14693    14731    14717    14688 
   14692    14725    14715    14679    14702    14736    14700    14678 
   14719    14713    14698    14720    14700    14686    14723    14720 
   14692    14698    14709    14716    14706    14690    14704    14715 
   14708    14693    14708    14723    14689    14702    14720    14693 
   14715    14708    14681    14720    14715    14682    14721    14713 
   14688    14725    14704    14696    14724    14690    14702    14713 
   14694    14723    14696    14693    14737    14697    14693    14731 
   14698    14698    14732    14706    14685    14709    14717    14713 
   14702    14688    14713    14723    14694    14696    14713    14719 
   14697    14698    14715    14710    14719    14689    14693    14733 
   14701    14705    14700    14682    14740    14701    14665    14731 
   14708    14679    14723    14709    14686    14708    14721    14704 
   14682    14702    14716    14693    14697    14706    14708    14708 
   14690    14713    14729    14675    14693    14737    14686    14693 
   14731    14692    14692    14717    14701    14693    14704    14712 
   14702    14702    14720    14700    14686    14724    14719    14694 
   14697    14708    14721    14704    14690    14705    14724    14723 
   14674    14698    14751    14692    14683    14727    14701    14705 
   14719    14689    14708    14724    14683    14698    14735    14704 
   14690    14710    14706    14709    14701    14692    14715    14717 
   14701    14696    14701    14706    14698    14708    14709    14702 
   14713    14700    14696    14716    14698    14704    14715    14694 
   14713    14709    14692    14720    14694    14688    14732    14700 
   14685    14721    14700    14694    14732    14694    14678    14733 
   14720    14683    14688    14708    14728    14700    14683    14717 
   14716    14705    14710    14694    14698    14729    14721    14673 
   14689    14744    14710    14679    14708    14723    14721    14690 
   14698    14727    14692    14709    14724    14671    14708    14742 
   14690    14690    14720    14713    14701    14706    14708    14701 
   14710    14715    14698    14702    14719    14719    14697    14681 
   14721    14735    14675    14688    14736    14698    14696    14727 
   14678    14693    14766    14694    14638    14743    14751    14655 
   14688    14740    14712    14685    14690    14729    14719    14686 
   14716    14693    14689    14755    14696    14648    14736    14744 
   14681    14679    14713    14736    14704    14678    14719    14723 
   14692    14708    14705    14689    14729    14713    14673    14721 
   14729    14686    14704    14723    14704    14693    14716    14708 
   14688    14727    14708    14666    14723    14727    14698    14710 
   14677    14708    14755    14678    14683    14737    14693    14696 
   14721    14694    14689    14715    14723    14675    14698    14747 
   14671    14682    14754    14694    14675    14739    14717    14666 
   14717    14737    14673    14708    14728    14665    14719    14733 
   14666    14719    14727    14665    14717    14727    14674    14710 
   14719    14690    14723    14706    14677    14723    14712    14683 
   14729    14704    14673    14743    14710    14661    14739    14701 
   14666    14760    14710    14652    14725    14724    14690    14700 
   14712    14708    14697    14716    14696    14686    14732    14700 
   14692    14720    14690    14724    14708    14661    14728    14721 
   14674    14713    14706    14694    14723    14696    14682    14721 
   14713    14685    14696    14724    14721    14677    14700    14732 
   14686    14702    14723    14683    14702    14720    14688    14688 
   14721    14721    14683    14708    14721    14686    14727    14715 
   14669    14728    14715    14679    14715    14696    14702    14725 
   14675    14697    14740    14683    14685    14736    14700    14682 
   14733    14710    14688    14740    14700    14669    14744    14701 
   14656    14733    14712    14674    14719    14719    14694    14713 
   14725    14702    14690    14724    14737    14679    14681    14739 
   14694    14685    14737    14692    14694    14735    14692    14689 
   14715    14719    14712    14677    14709    14746    14690    14689 
   14728    14704    14690    14717    14705    14693    14712    14698 
   14704    14715    14689    14716    14712    14681    14727    14713 
   14686    14724    14708    14696    14725    14702    14683    14710 
   14710    14697    14696    14700    14724    14713    14692    14717 
   14720    14702    14712    14705    14704    14709    14685    14698 
   14724    14689    14689    14731    14713    14689    14727    14723 
   14685    14731    14715    14658    14732    14725    14656    14712 
   14728    14685    14694    14725    14708    14696    14732    14708 
   14693    14723    14709    14697    14686    14712    14723    14665 
   14710    14744    14667    14702    14751    14685    14697    14746 
   14685    14678    14751    14700    14656    14737    14717    14662 
   14720    14720    14690    14723    14715    14692    14705    14725 
   14721    14678    14689    14740    14705    14678    14717    14708 
   14701    14720    14696    14700    14732    14709    14689    14709 
   14724    14704    14682    14715    14717    14681    14715    14721 
   14683    14710    14715    14701    14716    14694    14708    14715 
   14683    14713    14710    14677    14712    14717    14689    14705 
   14710    14705    14712    14693    14693    14719    14708    14702 
   14701    14678    14712    14736    14683    14679    14727    14721 
   14688    14696    14712    14705    14706    14696    14701    14724 
   14690    14697    14720    14686    14721    14713    14654    14729 
   14735    14663    14712    14709    14686    14740    14690    14677 
   14755    14697    14677    14735    14701    14704    14716    14683 
   14712    14729    14694    14686    14717    14725    14698    14694 
   14709    14724    14719    14688    14696    14723    14710    14693 
   14689    14710    14725    14694    14678    14723    14729    14677 
   14700    14735    14694    14700    14708    14686    14719    14704 
   14675    14723    14717    14679    14704    14716    14700    14702 
   14702    14709    14713    14685    14706    14731    14677    14694 
   14740    14681    14688    14735    14693    14693    14716    14716 
   14705    14678    14731    14721    14654    14731    14723    14656 
   14735    14728    14666    14706    14724    14704    14698    14705 
   14712    14705    14708    14704    14697    14716    14719    14697 
   14698    14712    14710    14713    14710    14692    14701    14729 
   14716    14679    14700    14737    14700    14692    14728    14696 
   14694    14727    14698    14698    14719    14698    14694    14720 
   14713    14681    14700    14728    14702    14688    14697    14715 
   14721    14686    14685    14725    14715    14694    14702    14701 
   14716    14720    14688    14694    14731    14710    14674    14709 
   14724    14685    14706    14716    14682    14721    14713    14667 
   14720    14720    14686    14713    14700    14704    14719    14692 
   14715    14710    14689    14723    14713    14689    14706    14717 
   14702    14697    14717    14709    14704    14709    14690    14719 
   14720    14681    14712    14716    14705    14721    14683    14698 
   14740    14692    14690    14716    14702    14715    14700    14689 
   14719    14719    14700    14685    14712    14735    14689    14679 
   14721    14715    14682    14710    14715    14675    14728    14725 
   14652    14723    14744    14665    14697    14724    14694    14701 
   14706    14702    14701    14704    14705    14697    14706    14712 
   14698    14698    14705    14713    14706    14692    14717    14719 
   14690    14702    14719    14706    14692    14716    14721    14682 
   14704    14723    14697    14710    14710    14702    14704    14698 
   14727    14698    14675    14744    14713    14675    14729    14704 
   14698    14725    14692    14701    14717    14706    14704    14696 
   14725    14704    14675    14748    14704    14663    14750    14705 
   14677    14732    14700    14683    14717    14732    14686    14670 
   14744    14720    14669    14715    14721    14701    14701    14698 
   14720    14719    14697    14697    14700    14724    14712    14674 
   14713    14732    14697    14693    14708    14709    14712    14702 
   14678    14717    14733    14666    14694    14739    14692    14705 
   14716    14679    14719    14723    14673    14723    14721    14669 
   14729    14719    14681    14728    14696    14696    14729    14685 
   14704    14712    14689    14729    14710    14681    14719    14715 
   14697    14706    14706    14708    14705    14709    14712    14688 
   14704    14727    14702    14689    14702    14733    14709    14666 
   14719    14728    14686    14713    14705    14685    14727    14709 
   14678    14710    14717    14704    14696    14701    14719    14709 
   14694    14708    14716    14708    14698    14712    14715    14708 
   14709    14693    14710    14721    14698    14712    14705    14698 
   14724    14705    14694    14719    14713    14694    14719    14717 
   14682    14717    14724    14685    14708    14713    14705    14713 
   14692    14702    14724    14700    14698    14713    14712    14710 
   14692    14704    14727    14700    14696    14706    14709    14723 
   14708    14678    14709    14751    14692    14671    14733    14706 
   14696    14725    14690    14692    14723    14712    14694    14693 
   14716    14710    14682    14716    14720    14677    14710    14720 
   14696    14713    14693    14697    14724    14698    14693    14700 
   14710    14717    14688    14702    14717    14700    14713    14696 
   14702    14728    14686    14708    14716    14681    14733    14708 
   14674    14729    14696    14706    14731    14665    14721    14742 
   14665    14712    14728    14681    14717    14709    14685    14723 
   14705    14694    14719    14698    14701    14716    14702    14702 
   14716    14713    14694    14715    14715    14683    14708    14725 
   14693    14693    14715    14706    14698    14700    14710    14713 
   14689    14708    14717    14698    14710    14688    14705    14736 
   14686    14692    14723    14702    14700    14720    14705    14681 
   14723    14721    14681    14723    14709    14673    14735    14724 
   14667    14706    14727    14702    14704    14698    14708    14713 
   14697    14710    14700    14697    14727    14689    14685    14727 
   14701    14694    14716    14697    14692    14713    14716    14690 
   14690    14725    14704    14681    14729    14705    14678    14737 
   14702    14670    14736    14721    14670    14709    14737    14692 
   14689    14727    14705    14693    14712    14708    14701    14701 
   14721    14702    14682    14735    14712    14679    14727    14701 
   14697    14723    14683    14715    14720    14683    14720    14709 
   14700    14724    14686    14702    14728    14697    14700    14704 
   14708    14720    14705    14708    14704    14692    14713    14712 
   14693    14708    14717    14692    14700    14729    14700    14685 
   14719    14705    14692    14720    14696    14677    14705    14688 
   14662    14662    14646    14612    14596    14589    14534    14486 
   14457    14374    14358    14391    14355    14450    14670    14766 
   14785    14724    14540    14500    14604    14817    15444    16301 
   16860    16644    15433    14041    13521    14038    15041    15812 
   16293    16598    16066    14048    11449    10681    12567    14742 
   14991    14075    13938    14454    14212    13733    14752    17159 
   18528    16835    13602    12232    13332    15082    16644    17653 
   16569    13077    10702    12915    17111    17649    14466    12530 
   13753    15095    14223    13045    13817    15002    14710    14323 
   15253    16197    15562    13834    13038    14688    17448    17845 
   14921    11716    11033    12973    16108    17945    16557    14040 
   14239    16035    15433    13608    14407    16360    15633    13377 
   12962    13803    13672    13113    13475    14332    14805    14821 
   15257    16501    16582    14424    13194    15160    17116    15723 
   13086    13177    15730    17000    15178    12704    13232    16185 
   16684    13734    12571    15094    16586    14962    13598    13578 
   12977    12542    13799    15303    15357    14615    14446    14953 
   15234    14756    14258    15188    17296    17807    14904    11218 
   11479    15882    18971    17300    13992    12989    13959    14933 
   15357    15299    14454    13296    13279    14168    14343    14023 
   14450    15475    15701    14485    13609    14592    15907    16020 
   15519    14966    14212    13689    14098    14929    14752    13772 
   13961    15408    15666    14042    13437    15811    18161    16768 
   13309    12197    14065    15734    15149    13717    13549    14266 
   14318    14026    14917    16471    16100    13637    12680    14679 
   16147    14908    13581    14355    15826    16075    14910    13586 
   13900    15770    16633    15398    14191    14357    14617    14224 
   13950    14166    14724    15153    14470    13097    13366    15615 
   16953    15882    14172    13347    13493    14531    15691    15905 
   15055    13790    13563    14939    15885    15043    14115    14575 
   15448    15477    14916    14474    14395    14770    15061    14532 
   13663    13143    13412    14910    16154    15226    13421    13177 
   14343    15327    15805    16029    15573    14651    14081    13830 
   14175    15680    16779    15695    13926    13749    14600    14887 
   14773    14801    14675    14608    14701    14318    13929    14373 
   14796    14432    14458    15336    15356    14384    14420    15423 
   15735    15164    14434    14208    14619    14809    14538    14539 
   14642    14277    14057    14546    15110    15271    15113    14598 
   14199    14602    15155    14715    13999    14342    15084    15210 
   14971    14519    14127    14509    15178    15141    14809    14763 
   14449    14046    14609    15232    14511    14017    15039    15430 
   14203    13463    14081    15229    16237    15863    14046    13367 
   14724    15732    15493    15280    14818    13555    13169    14330 
   15179    15101    15005    14644    13925    13963    14787    15510 
   15844    15445    14400    13856    14250    14908    15265    15095 
   14439    14052    14978    16097    15048    13410    14345    15874 
   14769    13046    13666    15183    15352    14750    14332    14002 
   14146    14995    15626    15634    15493    14980    13987    13747 
   14596    14936    14493    14656    14967    14245    13952    15286 
   16113    15144    14299    14559    14796    14480    14061    14246 
   15215    15669    14856    14427    14912    14359    13236    14166 
   16178    16260    14854    14071    14207    14864    15240    14389 
   13689    14863    16168    15327    13810    13986    14863    14751 
   14534    14985    15219    14810    14072    13639    14332    15512 
   15448    14403    14185    14878    15245    14629    13527    13679 
   15377    16108    14908    13902    14270    14895    14821    14504 
   14835    15695    15695    14462    13898    14666    14856    14125 
   14256    15240    15392    14450    13720    14180    15194    15294 
   14517    14361    15007    15169    14608    14341    14917    15641 
   15369    14223    13689    14419    15076    14540    13990    14558 
   15284    15422    15360    14870    13945    13826    14597    14866 
   14686    14897    14891    14386    14114    13927    13873    14812 
   16020    15851    14713    14335    14855    15079    14801    14777 
   15179    15214    14347    13549    14096    15327    15406    14260 
   13775    14571    15102    14454    13833    14638    15881    15388 
   13801    13914    15695    16181    14674    13873    14921    15637 
   14723    13660    14061    15408    15568    14164    13629    14547 
   14693    14139    14987    16330    15452    13271    13316    15541 
   16386    14636    12999    13923    16004    15969    14006    13516 
   15105    15846    14787    13979    14347    15025    15172    14349 
   13512    14322    15997    16248    14800    13363    13439    14939 
   16231    15823    14284    13706    14759    15587    14810    13745 
   13942    14818    15014    14301    13799    14337    14958    14762 
   14771    15380    15175    14214    14212    15084    15126    14262 
   14067    14832    15439    15190    14463    14507    15348    15502 
   14867    14453    14385    14505    14847    14990    14254    13363 
   14235    16233    16218    14014    12930    14386    16000    15310 
   13482    13475    15171    15796    14736    13859    14122    15049 
   15568    14764    13753    14139    14901    14709    14500    14858 
   14943    14844    15221    15539    15225    14809    14763    14802 
   14898    15263    15147    14219    14045    15240    15761    14405 
   13323    14540    16097    15087    12619    12144    14423    16780 
   16607    14523    13514    14536    15160    14257    13882    14767 
   15219    14897    14644    14353    14299    14959    15390    15113 
   14831    14543    14187    14686    15819    15668    14473    14408 
   14995    14762    14312    13984    13733    14285    14816    14107 
   13774    15091    15985    15198    14439    14511    14557    14666 
   15017    14921    14619    14774    14964    14851    14740    14766 
   14909    14959    14667    14455    14696    14836    14520    14389 
   14732    14839    14642    14701    14644    14318    14507    14877 
   14416    13876    14384    15196    15415    15156    14469    13845 
   14211    15272    15696    15095    14617    15006    15399    14998 
   14457    14669    15161    14945    14187    13701    13786    14239 
   14696    14935    14858    14463    14087    14111    14517    14975 
   15165    15118    15215    15342    15021    14650    14678    14640 
   14412    14392    14511    14482    14503    14945    15414    15168 
   14602    14543    14679    14531    14524    15041    15580    15252 
   14297    14162    15161    15897    15385    14239    13772    14291 
   14764    14539    14180    14349    14854    14958    14535    14370 
